Origin Time       2024/06/23 22:54:00
Lat.              35.645
Long.             140.060
Depth. (km)       72
Mag.              4.1
Station Code      YMN004
Station Lat.      35.7025
Station Long.     138.7266
Station Height(m) 394
Record Time       2024/06/23 22:55:00
Sampling Freq(Hz) 100Hz
Duration Time(s)  60
Dir.              E-W
Scale Factor      7845(gal)/8223790
Max. Acc. (gal)   2.658
Last Correction   2024/06/23 22:54:59
Memo.             
[...]
  -14895   -14970   -14951   -14909   -14913   -14952   -14909   -14810 
  -14809   -14908   -15007   -14916   -14639   -14611   -14898   -15043 
  -14852   -14643   -14777   -15091   -15172   -14975   -14710   -14698 
  -15020   -15205   -14931   -14607   -14779   -15191   -15145   -14636 
  -14315   -14611   -15111   -15126   -14791   -14758   -15087   -15169 
  -14716   -14316   -14497   -15082   -15556   -15290   -14423   -14156 
  -14848   -15380   -15047   -14615   -14781   -15036   -14966   -14836 
  -14855   -15014   -15009   -14839   -14844   -14787   -14600   -14623 
  -14835   -15086   -15067   -14701   -14588   -14909   -15299   -15456 
  -15016   -14312   -14376   -15148   -15303   -14569   -14350   -15080 
  -15427   -14769   -14042   -14116   -14836   -15603   -15793   -15102 
  -14342   -14548   -15236   -15138   -14354   -14257   -15055   -15511 
  -15093   -14331   -14054   -14585   -15136   -14964   -14503   -14683 
  -15445   -15678   -15129   -14679   -14771   -15016   -14916   -14659 
  -14729   -14925   -14941   -14885   -14769   -14642   -14790   -15184 
  -15315   -15045   -14887   -14925   -14798   -14736   -14894   -14824 
  -14596   -14662   -14874   -14894   -14833   -14877   -14891   -14827 
  -14931   -15159   -15082   -14694   -14520   -14805   -15140   -15029 
  -14593   -14436   -14806   -15114   -14851   -14463   -14634   -15253 
  -15530   -15179   -14824   -14835   -15047   -15168   -14944   -14647 
  -14503   -14434   -14678   -15034   -15037   -14941   -14951   -14823 
  -14484   -14278   -14602   -15175   -15472   -15471   -15187   -14665 
  -14312   -14430   -14929   -15245   -14982   -14777   -14993   -14991 
  -14686   -14590   -14739   -14809   -14808   -14995   -15140   -14951 
  -14693   -14628   -14787   -14931   -14839   -14774   -14836   -14956 
  -15157   -15121   -14739   -14519   -14800   -15218   -15267   -15056 
  -14810   -14590   -14710   -14994   -14963   -14832   -14882   -15009 
  -14899   -14511   -14500   -14985   -15183   -14879   -14539   -14536 
  -14859   -15198   -15202   -14809   -14534   -14706   -14960   -15059 
  -15017   -14909   -14995   -15167   -15087   -14839   -14727   -14885 
  -15005   -14812   -14640   -14724   -14827   -14816   -14756   -14752 
  -14855   -14978   -15060   -15060   -14963   -14828   -14673   -14605 
  -14708   -14827   -14881   -14990   -15124   -15041   -14733   -14550 
  -14647   -14756   -14696   -14727   -15021   -15203   -15051   -14924 
  -15051   -15106   -14817   -14565   -14688   -14816   -14813   -14929 
  -15006   -14947   -14894   -14812   -14721   -14693   -14796   -15066 
  -15199   -15039   -14823   -14736   -14805   -14839   -14750   -14736 
  -14847   -15016   -15075   -14886   -14760   -14859   -14909   -14874 
  -14933   -15049   -14955   -14655   -14612   -14901   -15060   -14925 
  -14735   -14728   -14864   -14959   -14956   -14777   -14604   -14816 
  -15094   -14936   -14607   -14553   -14791   -15079   -15156   -15001 
  -14859   -14868   -14960   -15059   -15086   -15068   -15101   -14999 
  -14710   -14600   -14742   -14820   -14796   -14886   -14967   -14790 
  -14601   -14646   -14747   -14801   -14797   -14694   -14667   -14871 
  -15113   -15182   -15121   -15056   -15021   -14920   -14689   -14550 
  -14693   -14856   -14837   -14848   -14982   -15049   -14979   -14844 
  -14781   -14935   -15114   -15007   -14783   -14756   -14832   -14817 
  -14770   -14832   -14935   -14970   -14995   -14944   -14748   -14636 
  -14713   -14836   -14879   -14829   -14829   -14895   -14928   -14966 
  -15026   -15084   -15034   -14775   -14543   -14520   -14590   -14706 
  -14909   -15136   -15179   -14971   -14794   -14855   -15017   -15028 
  -14866   -14806   -14966   -15128   -15060   -14737   -14466   -14526 
  -14823   -15190   -15358   -15025   -14478   -14323   -14594   -14904 
  -15013   -14926   -14839   -14920   -15083   -15149   -15044   -14813 
  -14597   -14569   -14773   -14932   -14881   -14859   -14991   -15128 
  -15066   -14720   -14463   -14643   -14908   -14878   -14731   -14759 
  -15001   -15159   -14963   -14607   -14490   -14742   -15052   -15101 
  -15093   -15237   -15287   -15068   -14644   -14349   -14582   -15029 
  -15117   -14932   -14746   -14655   -14775   -15018   -15144   -15055 
  -14789   -14571   -14662   -14990   -15126   -14885   -14700   -14806 
  -14881   -14764   -14692   -14947   -15348   -15327   -14890   -14631 
  -14710   -14747   -14656   -14670   -14754   -14800   -14848   -14848 
  -14796   -14813   -14935   -15051   -15044   -14956   -14866   -14760 
  -14760   -14918   -15039   -14993   -14806   -14693   -14812   -14914 
  -14859   -14863   -14994   -15101   -15106   -15002   -14835   -14786 
  -14845   -14731   -14546   -14643   -14891   -14967   -14856   -14716 
  -14732   -14887   -14928   -14789   -14750   -14986   -15226   -15182 
  -15013   -14916   -14836   -14797   -14821   -14733   -14493   -14438 
  -14790   -15133   -15103   -14989   -14972   -14945   -14960   -14968 
  -14782   -14528   -14588   -14986   -15319   -15338   -15117   -14905 
  -14800   -14632   -14449   -14393   -14473   -14809   -15213   -15246 
  -15030   -14890   -14818   -14750   -14696   -14679   -14770   -14960 
  -15095   -15114   -15057   -14891   -14701   -14694   -14829   -14899 
  -14877   -14781   -14697   -14906   -15307   -15322   -14897   -14573 
  -14531   -14557   -14681   -15024   -15333   -15240   -14814   -14524 
  -14636   -14944   -15113   -14953   -14551   -14324   -14624   -15184 
  -15327   -14997   -14775   -14847   -14940   -14916   -14836   -14794 
  -14742   -14686   -14729   -14789   -14906   -15133   -15103   -14801 
  -14786   -15002   -14918   -14652   -14623   -14790   -14902   -14963 
  -15128   -15237   -15045   -14832   -14866   -14928   -14889   -14852 
  -14859   -14868   -14835   -14845   -14893   -14779   -14580   -14585 
  -14775   -14866   -14801   -14782   -14893   -15028   -15056   -14956 
  -14845   -14801   -14817   -14883   -14943   -14979   -15024   -14991 
  -14793   -14594   -14647   -14882   -15047   -15082   -15034   -14910 
  -14769   -14762   -14924   -15025   -14935   -14802   -14733   -14750 
  -14827   -14845   -14831   -14891   -14906   -14836   -14874   -14993 
  -15007   -14908   -14769   -14658   -14635   -14763   -14922   -14864 
  -14760   -14922   -15128   -15083   -14909   -14825   -14868   -14864 
  -14670   -14432   -14465   -14852   -15260   -15358   -15151   -14856 
  -14716   -14806   -14998   -15052   -14864   -14696   -14775   -14885 
  -14848   -14835   -14904   -14980   -14960   -14754   -14573   -14632 
  -14845   -15049   -15105   -14949   -14773   -14870   -15126   -15136 
  -14926   -14751   -14661   -14713   -14802   -14754   -14682   -14732 
  -14887   -14952   -14779   -14616   -14760   -15067   -15168   -15026 
  -14933   -14997   -15076   -15021   -14787   -14582   -14638   -14898 
  -15059   -14902   -14652   -14678   -14921   -15068   -15033   -14931 
  -14844   -14771   -14755   -14855   -15007   -15048   -14899   -14686 
  -14567   -14558   -14721   -15086   -15333   -15256   -15033   -14831 
  -14737   -14762   -14794   -14778   -14740   -14821   -15017   -15060 
  -14904   -14759   -14742   -14796   -14766   -14679   -14656   -14728 
  -14962   -15203   -15171   -14960   -14777   -14663   -14688   -14856 
  -14953   -14840   -14787   -14976   -15106   -14945   -14666   -14586 
  -14797   -15061   -15207   -15210   -15041   -14814   -14729   -14781 
  -14797   -14731   -14644   -14619   -14746   -14943   -15016   -14989 
  -14931   -14813   -14756   -14825   -14864   -14862   -14925   -14997 
  -14971   -14904   -14813   -14674   -14686   -14960   -15175   -15072 
  -14775   -14669   -14913   -15078   -14906   -14752   -14847   -15048 
  -15142   -14971   -14616   -14455   -14667   -14893   -14810   -14685 
  -14858   -15091   -15018   -14798   -14773   -14943   -15057   -14963 
  -14769   -14700   -14887   -15159   -15182   -15003   -14866   -14771 
  -14675   -14612   -14685   -14964   -15175   -15045   -14760   -14642 
  -14794   -15067   -15106   -14851   -14651   -14698   -14797   -14721 
  -14605   -14809   -15234   -15303   -14920   -14617   -14656   -14833 
  -14895   -14847   -14862   -14910   -14926   -14945   -14882   -14736 
  -14667   -14835   -15157   -15176   -14867   -14754   -14855   -14877 
  -14825   -14728   -14627   -14655   -14793   -14948   -15070   -15101 
  -15028   -14975   -14995   -14874   -14638   -14621   -14789   -14855 
  -14758   -14674   -14894   -15302   -15319   -14854   -14507   -14640 
  -14967   -15087   -14952   -14773   -14696   -14685   -14721   -14918 
  -15172   -15156   -14920   -14791   -14733   -14634   -14646   -14797 
  -15018   -15256   -15283   -15040   -14794   -14717   -14773   -14831 
  -14782   -14663   -14670   -14885   -15060   -15014   -14889   -14878 
  -14978   -14924   -14650   -14478   -14604   -14917   -15137   -15068 
  -14794   -14540   -14604   -15037   -15341   -15101   -14644   -14535 
  -14828   -15172   -15207   -14951   -14756   -14686   -14629   -14747 
  -15047   -15179   -15072   -14963   -14913   -14847   -14748   -14667 
  -14681   -14773   -14854   -14841   -14721   -14742   -15039   -15222 
  -15040   -14764   -14678   -14814   -14937   -14863   -14735   -14717 
  -14831   -14898   -14782   -14770   -15024   -15129   -14835   -14524 
  -14677   -15172   -15404   -15093   -14632   -14505   -14727   -14929 
  -14891   -14858   -15080   -15321   -15218   -14805   -14466   -14519 
  -14844   -15001   -14827   -14700   -14816   -14858   -14779   -14936 
  -15245   -15286   -15026   -14769   -14661   -14580   -14566   -14732 
  -14809   -14704   -14725   -14898   -14963   -14877   -14843   -14951 
  -15097   -15195   -15128   -14866   -14644   -14665   -14885   -15078 
  -15078   -14931   -14729   -14625   -14690   -14790   -14924   -15066 
  -15045   -14956   -14906   -14831   -14801   -14894   -14997   -14924 
  -14759   -14747   -14860   -14877   -14743   -14655   -14751   -14864 
  -14820   -14752   -14871   -15103   -15157   -14926   -14697   -14766 
  -14909   -14801   -14656   -14777   -15006   -15052   -14918   -14839 
  -14913   -15120   -15315   -15168   -14710   -14405   -14440   -14679 
  -14913   -14998   -14995   -14998   -14962   -14871   -14840   -14866 
  -14835   -14782   -14692   -14550   -14593   -14920   -15264   -15326 
  -15102   -14824   -14671   -14678   -14692   -14598   -14629   -14966 
  -15352   -15352   -14920   -14632   -14825   -15036   -14868   -14535 
  -14359   -14486   -14874   -15273   -15414   -15307   -15110   -14810 
  -14548   -14685   -14978   -14871   -14577   -14548   -14715   -14904 
  -15060   -15097   -14912   -14627   -14585   -14847   -15078   -15070 
  -14941   -14793   -14697   -14809   -15016   -15079   -15022   -14928 
  -14786   -14671   -14823   -15133   -15110   -14759   -14493   -14457 
  -14692   -15071   -15202   -15037   -14944   -15113   -15252   -14975 
  -14553   -14597   -14940   -14997   -14725   -14446   -14440   -14818 
  -15249   -15217   -14773   -14570   -14856   -15063   -14871   -14713 
  -14863   -15056   -15060   -14883   -14627   -14548   -14879   -15198 
  -14909   -14449   -14643   -15228   -15337   -14905   -14592   -14770 
  -15117   -15110   -14771   -14597   -14796   -15029   -14936   -14729 
  -14832   -15075   -15083   -14829   -14461   -14362   -14771   -15233 
  -15298   -15024   -14698   -14647   -14837   -14906   -14742   -14647 
  -14848   -15060   -14960   -14756   -14805   -15063   -15082   -14856 
  -14895   -15036   -14794   -14482   -14577   -14918   -15032   -14809 
  -14690   -14885   -15109   -15226   -15223   -15024   -14719   -14565 
  -14679   -14856   -14925   -14945   -14924   -14926   -15025   -15113 
  -15045   -14747   -14474   -14561   -14778   -14814   -14866   -14993 
  -14986   -14931   -14897   -14828   -14812   -14831   -14867   -14974 
  -15009   -14889   -14732   -14704   -14789   -14748   -14681   -14897 
  -15167   -15124   -14899   -14833   -14974   -15020   -14820   -14611 
  -14544   -14598   -14856   -15228   -15306   -15022   -14762   -14746 
  -14836   -14844   -14806   -14812   -14832   -14818   -14735   -14728 
  -14877   -14908   -14841   -14901   -14887   -14813   -14932   -15018 
  -14893   -14740   -14674   -14735   -14902   -15043   -14998   -14769 
  -14697   -14945   -15148   -14990   -14644   -14558   -14823   -15005 
  -14978   -15003   -15087   -15071   -14925   -14782   -14751   -14802 
  -14935   -15028   -14945   -14918   -15075   -15118   -14839   -14446 
  -14395   -14744   -14958   -14816   -14704   -14835   -15039   -15097 
  -14925   -14735   -14812   -15064   -15148   -14959   -14689   -14567 
  -14685   -14883   -14937   -14885   -14917   -15012   -15016   -14936 
  -14871   -14833   -14721   -14524   -14517   -14748   -14897   -14932 
  -15080   -15353   -15429   -15068   -14682   -14682   -14823   -14825 
  -14698   -14504   -14428   -14631   -14959   -15174   -15256   -15250 
  -15157   -14980   -14812   -14771   -14825   -14854   -14732   -14434 
  -14222   -14335   -14625   -14832   -14985   -15327   -15691   -15611 
  -15219   -14956   -14764   -14391   -13873   -13628   -14088   -15009 
  -15727   -15951   -15712   -15223   -14746   -14380   -14193   -14214 
  -14511   -15078   -15557   -15897   -16177   -15813   -14736   -13826 
  -13605   -13965   -14517   -14831   -14899   -15047   -15583   -16314 
  -16417   -15600   -14482   -13576   -13144   -13402   -14237   -15157 
  -15718   -16027   -16308   -16039   -14697   -12914   -12082   -13041 
  -15088   -16559   -16579   -15796   -15349   -15391   -14940   -13682 
  -12804   -13313   -14885   -16382   -16767   -16040   -15179   -14783 
  -14505   -14075   -13923   -14223   -14504   -14727   -15229   -15668 
  -15508   -15095   -15068   -15226   -15052   -14709   -14409   -14015 
  -13828   -14156   -14756   -15520   -16141   -15886   -14921   -14187 
  -14069   -14422   -14902   -15043   -14667   -14180   -14345   -15253 
  -15905   -15615   -14914   -14566   -14611   -14759   -14912   -14986 
  -14985   -15045   -15144   -15191   -15084   -14735   -14539   -14918 
  -15526   -15726   -15296   -14513   -13977   -13986   -14143   -14135 
  -14196   -14554   -15174   -15851   -16197   -15973   -15290   -14470 
  -13965   -13860   -13937   -14183   -14571   -15041   -15429   -15480 
  -15480   -15739   -15878   -15573   -14902   -14130   -13603   -13570 
  -14184   -15159   -15755   -15792   -15628   -15460   -15182   -14654 
  -14118   -13825   -13826   -14403   -15321   -15822   -15793   -15462 
  -14967   -14612   -14477   -14385   -14330   -14386   -14557   -14804 
  -15115   -15511   -15674   -15257   -14671   -14463   -14562   -14663 
  -14546   -14347   -14497   -14936   -15156   -15163   -15354   -15610 
  -15546   -15153   -14477   -13832   -13834   -14440   -15209   -15973 
  -16308   -15669   -14347   -13393   -13518   -14486   -15507   -15797 
  -15152   -14293   -14035   -14474   -15236   -15678   -15331   -14625 
  -14332   -14570   -14986   -15230   -15228   -15149   -15052   -14829 
  -14447   -14092   -14072   -14551   -15327   -15853   -15943   -15884 
  -15538   -14716   -13786   -13281   -13618   -14628   -15480   -15749 
  -15584   -15219   -14937   -14731   -14492   -14481   -14698   -14895 
  -15138   -15329   -15236   -15034   -14840   -14604   -14590   -14817 
  -14758   -14403   -14270   -14574   -15276   -15873   -15758   -15178 
  -14497   -13848   -13709   -14175   -14818   -15435   -15823   -15718 
  -15203   -14717   -14513   -14386   -14272   -14330   -14662   -15338 
  -15905   -15815   -15294   -14643   -14126   -14197   -14640   -14916 
  -15099   -15372   -15573   -15515   -15138   -14555   -14141   -14104 
  -14295   -14702   -15292   -15587   -15294   -14737   -14254   -13967 
  -14031   -14449   -14974   -15380   -15506   -15331   -15026   -14794 
  -14779   -14867   -14762   -14531   -14446   -14524   -14804   -15223 
  -15485   -15587   -15611   -15350   -14878   -14585   -14566   -14647 
  -14710   -14740   -14771   -14790   -14798   -14832   -14812   -14737 
  -14763   -14868   -14948   -14971   -14963   -14983   -14956   -14867 
  -14909   -14958   -14860   -14879   -14956   -14769   -14554   -14609 
  -14770   -14789   -14615   -14512   -14771   -15229   -15500   -15356 
  -14891   -14602   -14737   -14881   -14781   -14717   -14940   -15390 
  -15647   -15275   -14589   -14297   -14542   -14948   -15101   -14902 
  -14688   -14802   -15117   -15090   -14584   -14083   -13976   -14461 
  -15315   -15688   -15331   -14881   -14692   -14667   -14646   -14667 
  -14944   -15273   -15192   -14743   -14431   -14490   -14663   -14856 
  -15128   -15234   -15199   -15288   -15252   -14882   -14515   -14380 
  -14378   -14382   -14420   -14696   -15153   -15449   -15493   -15365 
  -15148   -14879   -14457   -14119   -14292   -14827   -15261   -15371 
  -15309   -15252   -14962   -14486   -14388   -14751   -15133   -15186 
  -14910   -14616   -14544   -14710   -14985   -15036   -14770   -14620 
  -14874   -15221   -15346   -15287   -15041   -14688   -14584   -14713 
  -14710   -14593   -14531   -14546   -14785   -15215   -15402   -15164 
  -14863   -14850   -14916   -14642   -14203   -14195   -14682   -15132 
  -15349   -15584   -15642   -15168   -14463   -14061   -14131   -14554 
  -14994   -15107   -14997   -15048   -15272   -15325   -15124   -14947 
  -14831   -14566   -14353   -14521   -14827   -14925   -14951   -15064 
  -15180   -15264   -15264   -15009   -14609   -14374   -14299   -14337 
  -14559   -14835   -15113   -15450   -15577   -15272   -14724   -14268 
  -14106   -14219   -14589   -15171   -15634   -15730   -15593   -15337 
  -14922   -14478   -14270   -14316   -14427   -14650   -15114   -15569 
  -15665   -15388   -15006   -14777   -14712   -14675   -14636   -14581 
  -14484   -14455   -14550   -14685   -14808   -14901   -15036   -15272 
  -15483   -15452   -15041   -14405   -13890   -13666   -13824   -14373 
  -14991   -15454   -15808   -15952   -15745   -15186   -14523   -14200 
  -14308   -14593   -14958   -15190   -15002   -14646   -14566   -14742 
  -14918   -14999   -15045   -15145   -15174   -14958   -14728   -14796 
  -14935   -14806   -14478   -14245   -14403   -14953   -15508   -15738 
  -15545   -15018   -14515   -14318   -14311   -14364   -14613   -14990 
  -15161   -15098   -15056   -15020   -14762   -14488   -14644   -15103 
  -15375   -15296   -15103   -15120   -15271   -15118   -14608   -14280 
  -14451   -14821   -15044   -15094   -15043   -14928   -14832   -14764 
  -14640   -14517   -14632   -15045   -15418   -15411   -15145   -14879 
  -14670   -14581   -14636   -14733   -14879   -15075   -15191   -15140 
  -14936   -14756   -14751   -14700   -14431   -14207   -14245   -14443 
  -14708   -15034   -15319   -15372   -15188   -15007   -14967   -14905 
  -14697   -14434   -14281   -14400   -14737   -15078   -15286   -15318 
  -15298   -15334   -15226   -14866   -14570   -14594   -14750   -14763 
  -14661   -14642   -14782   -14960   -15017   -14932   -14796   -14675 
  -14612   -14688   -14864   -14944   -14914   -14941   -15066   -15117 
  -14960   -14791   -14763   -14728   -14715   -14874   -15044   -15049 
  -15057   -15156   -15174   -15128   -15057   -14805   -14492   -14407 
  -14528   -14731   -14995   -15255   -15372   -15290   -15061   -14723 
