Origin Time       2024/06/23 22:54:00
Lat.              35.645
Long.             140.060
Depth. (km)       72
Mag.              4.1
Station Code      YMN004
Station Lat.      35.7025
Station Long.     138.7266
Station Height(m) 394
Record Time       2024/06/23 22:55:00
Sampling Freq(Hz) 100Hz
Duration Time(s)  60
Dir.              U-D
Scale Factor      7845(gal)/8223790
Max. Acc. (gal)   1.522
Last Correction   2024/06/23 22:54:59
Memo.             
   31963    31951    31953    31962    31974    31988    31989    31974 
   31961    31976    32005    32015    31995    31962    31957    32001 
   32050    32054    32000    31916    31891    31939    31977    31981 
   31945    31893    31923    32015    32101    32143    32036    31874 
   31838    31895    32013    32132    32078    31915    31865    31968 
   32058    31966    31747    31693    31957    32282    32300    32030 
   31842    31870    32035    32198    32073    31858    31999    32142 
   32061    32036    32036    32055    32020    31803    31680    31793 
   32162    32472    32073    31545    31936    32509    32125    31453 
   31422    31795    32313    32562    32047    31614    31976    32302 
   31954    31376    31342    32135    32948    32595    31491    31378 
   32120    32084    31479    31510    32292    32921    32481    31548 
   31136    31521    32535    32792    31862    31495    32013    32310 
   32090    31688    31571    31733    31838    31934    32286    32647 
   32173    31371    31770    32597    32184    31352    31607    32458 
   32660    32235    31623    31133    31507    32406    32443    31591 
   31410    32614    33282    31895    30384    30955    32794    33520 
   32489    31199    30958    31919    32825    32209    31106    31453 
   32670    32733    31669    31344    32050    32616    32490    31887 
   31622    31997    32240    31980    31615    31554    31833    32271 
   32594    32306    31576    31398    31876    32213    32198    32086 
   32044    32111    31997    31580    31411    31788    32165    32101 
   31905    32089    32374    32076    31672    31900    32170    32019 
   31945    32260    32659    32321    31205    30834    31630    32278 
   32417    32120    31523    31750    32617    32644    31797    31309 
   31828    32420    32209    31833    31822    32034    32166    31968 
   31729    31700    31747    31961    32231    32279    32312    32273 
   31870    31669    31876    31845    31810    32273    32655    32223 
   31426    31302    31695    31901    31978    32113    32297    32371 
   32278    32108    31703    31426    31816    32282    32216    32142 
   32354    32166    31498    31290    31747    32301    32456    31997 
   31579    31858    32381    32514    32039    31444    31583    32231 
   32422    31846    31322    31746    32421    32337    31923    31749 
   31796    32032    32175    31949    31757    32086    32418    32059 
   31556    31666    32159    32377    31945    31409    31691    32437 
   32535    31965    31569    31779    32192    32225    31945    31742 
   31831    32132    32148    31830    31822    32152    32215    31904 
   31685    31776    31950    32121    32194    31993    31905    32173 
   32205    31874    31680    31727    31984    32225    32117    31999 
   32026    31920    31965    32173    32051    31804    31877    32073 
   31955    31737    31980    32233    31834    31459    31792    32341 
   32489    32247    31969    31784    31753    31976    32024    31922 
   32205    32332    31891    31688    31965    32062    31801    31619 
   31769    32115    32333    32205    31993    31923    31808    31810 
   32057    32198    32175    32004    31614    31469    31904    32432 
   32455    32003    31614    31766    32306    32441    31842    31270 
   31452    32154    32625    32429    31896    31688    31922    32069 
   31877    31780    31989    32158    32128    32030    31973    32004 
   32073    32043    31872    31853    32100    32155    31981    31978 
   31958    31702    31584    31824    32121    32132    31893    31808 
   32051    32270    32166    31833    31635    31897    32320    32354 
   32038    31716    31683    31980    32166    32086    32053    32008 
   31772    31604    31868    32328    32456    32273    32032    31842 
   31764    31785    31830    31814    31895    32151    32206    32094 
   32134    32103    31853    31569    31572    32078    32422    32093 
   31796    31889    31957    31926    31963    32053    32030    31839 
   31766    32034    32358    32386    32115    31739    31648    32013 
   32275    32047    31708    31626    31914    32306    32260    31918 
   31824    31903    31988    32132    32092    31799    31638    31835 
   32251    32390    31951    31517    31569    31868    32131    32204 
   32066    31887    31873    32213    32567    32293    31687    31477 
   31722    32192    32451    32159    31795    31811    31932    31865 
   31760    31904    32179    32216    31966    31769    32071    32517 
   32260    31672    31644    32038    32213    31887    31494    31681 
   32177    32263    32000    31839    31936    32178    32258    32093 
   31915    31769    31622    31677    31949    32071    32022    32108 
   32209    32119    32067    32104    31915    31673    31831    32023 
   31877    31928    32328    32389    31985    31727    31770    31772 
   31692    31796    32111    32350    32337    32165    31966    31749 
   31650    31885    32170    32147    31997    31945    31918    31884 
   32076    32319    32094    31738    31801    31995    31999    31887 
   31858    32034    32144    32086    32055    31981    31868    31787 
   31654    31733    32146    32483    32482    32128    31711    31708 
   31976    31970    31627    31488    31959    32630    32890    32529 
   31804    31311    31332    31696    32004    31995    32026    32279 
   32383    32260    32012    31646    31496    31761    32040    32054 
   32022    32151    32321    32178    31615    31228    31618    32471 
   32860    32391    31679    31372    31607    32166    32387    32012 
   31698    31826    32036    32094    32061    31878    31660    31841 
   32397    32587    32136    31739    31733    31766    31823    32015 
   32113    32053    32003    31924    31783    31891    32216    32212 
   31854    31645    31965    32560    32532    31761    31264    31581 
   32179    32421    32302    32038    31772    31752    31893    31947 
   31985    32017    31936    31854    32009    32282    32201    31842 
   31804    32080    32147    32020    32008    31892    31615    31671 
   31963    32077    32103    32128    32090    32026    31969    31901 
   31860    31923    31980    31947    31984    32088    32175    32206 
   32000    31689    31672    31838    31965    32174    32351    32312 
   32135    31845    31687    31847    31845    31637    31841    32259 
   32301    32103    31949    31896    32009    32053    31827    31733 
   32003    32243    32140    31896    31914    32127    32136    31926 
   31749    31797    32027    32088    31927    31891    31970    31950 
   31945    32071    32092    31950    31981    32148    32121    31970 
   31860    31753    31734    31931    32134    32047    31889    31986 
   32124    32069    31985    31869    31766    32057    32404    32124 
   31634    31672    32100    32375    32217    31719    31379    31660 
   32239    32439    32175    31904    31919    32061    32116    31934 
   31568    31503    31922    32422    32517    32121    31834    31916 
   31962    31874    31839    31908    31982    31999    32032    32050 
   32092    32277    32321    31959    31483    31360    31735    32319 
   32533    32144    31743    31799    31947    31878    31760    31819 
   32109    32354    32220    31920    31877    32057    32134    31974 
   31749    31672    31779    31990    32175    32290    32364    32194 
   31799    31645    31803    31950    31977    32005    32120    32076 
   31845    31873    32085    32043    31814    31731    31897    32092 
   32125    32001    31765    31803    32279    32537    32244    31826 
   31587    31588    31807    32013    32039    32028    32089    32138 
   32132    32067    31992    31958    31950    31962    31905    31806 
   31868    32065    32196    32109    31900    31877    31962    31924 
   31934    31990    31927    31891    31966    32094    32229    32179 
   31884    31675    31858    32161    32178    32054    31878    31627 
   31752    32287    32535    32162    31557    31394    31880    32520 
   32701    32202    31511    31410    31889    32111    31789    31657 
   32088    32499    32350    31870    31627    31784    32119    32250 
   31977    31718    31849    32050    31943    31762    31973    32366 
   32366    32063    31901    31909    31891    31791    31699    31806 
   32093    32259    32211    32057    31990    32143    32151    31719 
   31395    31760    32267    32132    31789    31889    32103    32115 
   32073    31995    32012    32197    32120    31757    31538    31540 
   31888    32412    32386    31916    31797    32094    32262    32023 
   31666    31654    31959    32161    32154    32121    32017    31818 
   31795    31974    32069    31989    31810    31761    32071    32413 
   32247    31765    31715    32024    31963    31730    31912    32232 
   32256    32016    31753    31865    32400    32590    32031    31328 
   31155    31702    32494    32659    32109    31737    31959    32152 
   31953    31807    31857    31838    31846    32027    32227    32227 
   31996    31766    31692    31806    32077    32255    32177    31935 
   31837    32031    32086    31897    31877    31980    31970    31928 
   32044    32200    32143    31982    31795    31641    31927    32425 
   32296    31704    31504    31714    32067    32495    32499    31893 
   31379    31526    32049    32374    32286    31816    31417    31661 
   32258    32605    32502    31963    31392    31441    32069    32460 
   32215    31766    31600    31819    32206    32427    32351    32049 
   31774    31742    31689    31623    31926    32185    31984    31793 
   31904    32178    32468    32366    31851    31626    31768    31773 
   31689    31842    32232    32464    32167    31600    31580    32383 
   32975    32498    31561    31191    31639    32202    32121    31646 
   31465    31718    32301    32869    32776    32096    31523    31378 
   31622    32000    32211    32135    31846    31671    31808    32053 
   32236    32333    32134    31688    31610    32024    32337    32202 
   31754    31527    31891    32374    32390    32078    31846    31750 
   31766    31934    31969    31785    31843    32119    32250    32314 
   32309    32158    31947    31608    31301    31488    32131    32594 
   32520    32162    31905    31969    32103    31874    31550    31719 
   32125    32077    31891    32097    32242    32108    31963    31710 
   31523    31847    32308    32146    31658    31822    32401    32377 
   31838    31606    31874    32154    32181    32125    31855    31453 
   31591    32181    32445    32300    32059    31783    31633    31799 
   32093    32263    32113    31754    31779    32080    32098    32158 
   32325    31957    31337    31387    32051    32443    32185    31887 
   32019    32165    32098    32015    31783    31568    31766    32097 
   32166    32058    32049    32089    31984    31969    32074    32019 
   31989    32038    31943    31864    31950    31982    31827    31758 
   32024    32289    32182    31974    31866    31812    32030    32265 
   32020    31657    31642    31955    32439    32667    32304    31743 
   31557    31683    31808    31862    31932    32100    32170    32077 
   32131    32248    32112    31772    31490    31522    31996    32557 
   32439    31693    31334    31768    32437    32568    32022    31591 
   31723    31989    32047    31896    31729    31872    32296    32437 
   31961    31544    31905    32340    31916    31353    31691    32397 
   32599    32352    31935    31761    31995    32035    31718    31510 
   31581    31970    32437    32451    32096    31870    31872    31920 
   31870    31742    31741    32074    32455    32201    31630    31768 
   32427    32549    31903    31411    31776    32296    32155    31726 
   31716    32084    32228    32040    31878    31788    31792    32000 
   32197    32208    32144    32063    31846    31587    31764    32229 
   32205    31841    31866    32201    32274    32009    31884    31862 
   31604    31610    32170    32571    32310    31707    31504    32003 
   32443    32247    31845    31534    31482    31900    32328    32347 
   32012    31592    31683    32217    32382    32115    31939    31924 
   31854    31761    31895    32186    32202    31880    31666    31796 
   32047    32151    32124    32022    31772    31807    32346    32435 
   31942    31781    31839    31854    32016    32057    31900    31803 
   31904    32146    32146    31935    31909    31918    31841    31887 
   31988    32071    32127    31992    31843    31963    32040    31872 
   31941    32285    32233    31876    31816    32036    32262    32205 
   31823    31687    31945    32096    31973    31708    31583    31945 
   32466    32458    32051    31818    31789    31796    31851    31855 
   31907    32228    32378    32067    31869    31938    31968    32001 
   31849    31560    31807    32368    32460    32082    31602    31477 
   31924    32269    32081    31912    32038    32167    32130    31916 
   31773    31870    31965    31965    32044    32143    32058    31858 
   31760    31845    32047    32148    32144    32166    32004    31785 
   31850    31932    31955    32121    32111    31839    31841    32200 
   32346    31969    31465    31449    31865    32174    32281    32212 
   32007    32063    32221    31943    31567    31595    31815    32055 
   32395    32525    32159    31760    31818    32003    31957    31962 
   32096    32040    31826    31638    31588    31703    31857    32155 
   32571    32688    32485    32096    31614    31284    31247    31637 
   32174    32278    32260    32447    32356    32022    31799    31504 
   31217    31518    32447    33107    32813    31992    31395    31437 
   31989    32204    31664    31174    31529    32409    32900    32665 
   32147    31761    31548    31585    31850    31949    31758    31638 
   31872    32395    32733    32502    32013    31797    31881    31851 
   31499    31217    31464    32120    32814    33311    33133    31954 
   30670    30541    31415    32202    32329    32146    32271    32620 
   32630    32159    31472    31183    31706    32289    32186    31901 
   31873    31781    31619    31807    32320    32575    32277    31810 
   31612    31801    32151    32251    31990    31608    31467    31828 
   32410    32629    32371    31977    31698    31653    31881    32040 
   31874    31731    31911    32255    32470    32373    32012    31530 
   31216    31432    31977    32324    32302    32125    32157    32385 
   32377    31945    31386    31299    31899    32509    32440    31868 
   31565    31845    32124    32084    32094    32229    32190    31930 
   31629    31472    31575    31981    32458    32571    32317    32007 
   31762    31646    31511    31391    31854    32657    32788    32278 
   31980    31989    31737    31328    31476    32146    32521    32312 
   32017    32005    32152    32093    31777    31723    31926    31900 
   31746    31779    32134    32495    32269    31680    31391    31594 
   32098    32386    32179    31891    31880    31946    31822    31735 
   31965    32279    32356    32119    31734    31527    31704    32209 
   32579    32424    32078    31815    31517    31430    31770    32243 
   32445    32143    31750    31828    32069    32084    32008    31935 
   31899    31972    32116    32062    31769    31747    32096    32323 
   32320    32292    32053    31464    31158    31575    32171    32416 
   32354    32266    32328    32228    31666    31220    31440    31962 
   32296    32275    32167    32344    32377    31909    31538    31591 
   31818    32090    32327    32340    32055    31614    31305    31475 
   32063    32462    32359    32044    31858    31972    32175    32061 
   31743    31625    31735    31889    31989    32105    32252    32290 
   32197    32063    32026    32053    31766    31248    31236    31946 
   32634    32709    32412    31974    31548    31563    31827    31820 
   31783    32061    32377    32439    32378    32233    31872    31494 
   31425    31666    31993    32250    32308    32069    31876    31993 
   31981    31715    31702    31981    32188    32225    32181    32084 
   31990    32085    32233    31969    31546    31629    32004    32113 
   32039    31996    31976    31990    31957    31926    32097    32254 
   32107    31824    31646    31689    31980    32204    32123    31997 
   32038    32085    31978    31826    31837    31972    32069    32181 
   32242    32042    31700    31496    31602    31972    32205    32073 
   31986    32266    32464    32154    31704    31606    31793    31931 
   31846    31681    31703    31981    32289    32364    32171    31885 
   31830    32125    32327    32030    31529    31511    32140    32559 
   32244    31912    32092    32422    32367    31776    31198    31284 
   31907    32364    32296    32040    31978    32134    32306    32104 
   31638    31607    31916    32039    32031    31915    31773    31968 
   32275    32217    31984    31965    32101    31932    31432    31341 
   31839    32275    32379    32184    31888    31891    32055    32020 
   31916    31988    32132    32057    31812    31729    31938    32328 
   32424    31935    31519    31720    32073    32113    31914    31739 
   31842    32130    32231    32131    32081    32026    31843    31654 
   31629    31865    32209    32300    32109    31993    32047    32069 
   32039    32026    31980    31962    32017    31977    31905    32020 
   32117    32003    31904    31955    32086    32211    32130    31789 
   31619    31881    32139    32069    31904    31812    31837    31955 
   32049    32055    31876    31563    31525    31978    32472    32458 
   32097    31962    32143    32165    31827    31584    31743    32012 
   32152    32107    31853    31781    31990    31990    31869    31999 
   32192    32182    31961    31793    31901    32043    31973    31858 
   31901    31985    31958    31966    32177    32406    32290    31900 
   31741    31877    31893    31773    31811    32016    32229    32374 
   32366    32101    31681    31487    31677    31909    32032    32142 
   32136    32143    32256    32161    31931    31891    31880    31741 
   31649    31756    32020    32258    32263    32067    31858    31787 
   31908    32101    32215    32184    32024    31928    31916    31799 
   31687    31726    31922    32271    32431    32111    31612    31372 
   31571    32038    32305    32202    32059    32081    32105    32008 
   31895    31889    31893    31789    31754    31877    32061    32294 
   32386    32157    31862    31722    31684    31725    31870    32053 
   32120    32123    32223    32344    32290    32059    31801    31649 
   31677    31861    32034    32019    31926    32023    32263    32383 
   32200    31823    31650    31738    31803    31838    31976    32174 
   32269    32177    31997    31827    31783    31934    32088    32112 
   32070    31997    32008    32103    32074    31945    31892    31915 
   31907    31884    31946    32019    32039    32046    31977    31843 
   31807    31915    31980    31974    32090    32148    31992    31842 
   31742    31743    31914    32019    32036    32179    32336    32328 
