Origin Time       2025/03/28 03:50:00
Lat.              35.403
Long.             140.360
Depth. (km)       54
Mag.              4.4
Station Code      CHB016
Station Lat.      35.2998
Station Long.     140.3866
Station Height(m) 7
Record Time       2025/03/28 03:50:48
Sampling Freq(Hz) 100Hz
Duration Time(s)  69
Dir.              U-D
Scale Factor      7845(gal)/8223790
Max. Acc. (gal)   3.852
Last Correction   2025/03/28 03:50:47
Memo.             
[...]
   17612    17610    17616    17613    17613    17613    17613    17616 
   17616    17616    17624    17618    17608    17612    17633    17631 
   17595    17595    17625    17632    17621    17609    17613    17621 
   17614    17617    17618    17605    17614    17631    17621    17624 
   17618    17595    17610    17635    17618    17609    17613    17605 
   17605    17612    17618    17622    17617    17613    17617    17617 
   17613    17617    17621    17609    17604    17613    17613    17601 
   17609    17626    17609    17595    17618    17618    17595    17604 
   17613    17599    17605    17616    17604    17601    17609    17604 
   17612    17621    17604    17601    17620    17617    17606    17608 
   17612    17614    17617    17609    17605    17620    17621    17601 
   17604    17620    17618    17613    17614    17614    17612    17614 
   17613    17608    17613    17614    17602    17606    17616    17604 
   17606    17622    17618    17616    17614    17606    17614    17631 
   17618    17597    17609    17624    17608    17606    17624    17616 
   17605    17613    17617    17620    17622    17610    17605    17620 
   17618    17602    17608    17618    17613    17616    17620    17613 
   17617    17624    17608    17606    17625    17618    17610    17628 
   17629    17612    17612    17618    17620    17617    17617    17620 
   17613    17597    17601    17620    17618    17606    17608    17613 
   17617    17617    17616    17618    17616    17610    17609    17604 
   17606    17618    17618    17612    17620    17617    17604    17610 
   17620    17617    17625    17621    17606    17613    17618    17608 
   17612    17631    17631    17621    17610    17608    17621    17624 
   17609    17609    17613    17605    17606    17616    17613    17610 
   17616    17614    17609    17620    17625    17612    17605    17617 
   17621    17612    17609    17614    17621    17618    17609    17608 
   17613    17617    17613    17605    17608    17612    17609    17610 
   17612    17616    17614    17604    17606    17620    17614    17601 
   17610    17628    17618    17604    17613    17616    17604    17613 
   17625    17613    17606    17610    17606    17612    17618    17609 
   17605    17613    17612    17604    17610    17620    17614    17602 
   17609    17616    17608    17605    17616    17621    17616    17609 
   17610    17617    17614    17612    17616    17606    17605    17624 
   17629    17610    17605    17617    17618    17606    17608    17617 
   17613    17613    17620    17617    17610    17612    17610    17609 
   17614    17617    17614    17610    17610    17625    17626    17609 
   17605    17610    17618    17625    17620    17613    17616    17624 
   17621    17612    17613    17620    17614    17604    17606    17618 
   17617    17606    17602    17609    17613    17608    17609    17621 
   17616    17601    17609    17618    17612    17609    17614    17620 
   17609    17598    17608    17617    17608    17601    17609    17620 
   17618    17605    17609    17616    17613    17617    17622    17613 
   17610    17614    17609    17608    17618    17617    17606    17610 
   17617    17613    17609    17613    17617    17612    17610    17616 
   17613    17605    17609    17613    17610    17608    17616    17618 
   17609    17609    17614    17612    17617    17620    17609    17606 
   17612    17610    17612    17617    17613    17608    17612    17617 
   17616    17616    17614    17612    17613    17617    17617    17609 
   17608    17614    17613    17606    17613    17614    17605    17612 
   17621    17617    17612    17608    17612    17622    17618    17605 
   17616    17631    17616    17606    17622    17621    17605    17610 
   17621    17618    17617    17617    17610    17614    17618    17608 
   17598    17606    17620    17620    17605    17608    17616    17614 
   17618    17621    17616    17612    17609    17612    17622    17622 
   17612    17606    17608    17612    17613    17614    17616    17613 
   17609    17613    17617    17616    17618    17620    17613    17612 
   17612    17608    17616    17620    17612    17614    17617    17606 
   17606    17617    17620    17616    17610    17613    17617    17613 
   17610    17616    17621    17620    17612    17612    17624    17620 
   17609    17609    17610    17617    17618    17610    17614    17616 
   17610    17610    17614    17616    17616    17612    17612    17616 
   17612    17608    17612    17620    17620    17609    17604    17610 
   17621    17624    17617    17612    17614    17614    17609    17616 
   17621    17606    17602    17610    17606    17614    17629    17613 
   17597    17614    17628    17612    17604    17616    17617    17612 
   17617    17618    17613    17616    17616    17608    17609    17621 
   17620    17609    17612    17626    17626    17613    17612    17621 
   17626    17622    17614    17616    17618    17614    17609    17610 
   17618    17621    17612    17612    17616    17612    17610    17616 
   17621    17620    17608    17605    17618    17621    17614    17612 
   17610    17614    17618    17612    17606    17612    17613    17608 
   17612    17617    17616    17616    17617    17616    17613    17612 
   17616    17620    17617    17608    17605    17620    17625    17608 
   17602    17618    17621    17612    17613    17613    17614    17617 
   17614    17613    17620    17620    17614    17620    17618    17606 
   17609    17620    17617    17617    17614    17608    17610    17620 
   17620    17616    17614    17612    17609    17614    17616    17608 
   17602    17610    17616    17610    17610    17616    17612    17614 
   17616    17605    17606    17617    17613    17612    17613    17606 
   17609    17618    17618    17609    17608    17610    17610    17610 
   17608    17609    17609    17606    17613    17613    17604    17606 
   17612    17605    17602    17605    17605    17605    17608    17616 
   17618    17612    17613    17612    17606    17612    17616    17612 
   17612    17616    17612    17605    17606    17610    17613    17612 
   17604    17602    17606    17601    17599    17612    17610    17605 
   17610    17613    17608    17610    17613    17605    17609    17618 
   17613    17609    17612    17613    17613    17612    17610    17606 
   17604    17613    17621    17613    17602    17605    17616    17616 
   17606    17612    17621    17612    17605    17608    17609    17614 
   17616    17610    17610    17617    17617    17616    17621    17622 
   17617    17612    17614    17614    17608    17609    17617    17617 
   17613    17610    17614    17621    17614    17606    17616    17621 
   17614    17617    17618    17610    17614    17620    17614    17614 
   17621    17624    17616    17612    17614    17616    17618    17616 
   17612    17617    17621    17618    17617    17618    17616    17613 
   17616    17620    17618    17614    17614    17618    17616    17612 
   17612    17612    17613    17613    17613    17617    17616    17613 
   17616    17616    17613    17613    17609    17609    17614    17612 
   17612    17617    17617    17610    17609    17617    17620    17618 
   17618    17616    17613    17620    17625    17617    17613    17617 
   17617    17613    17613    17618    17620    17610    17614    17628 
   17622    17609    17614    17624    17620    17617    17618    17609 
   17608    17618    17617    17610    17618    17622    17613    17612 
   17613    17609    17614    17620    17616    17614    17614    17617 
   17624    17622    17617    17613    17613    17621    17617    17610 
   17617    17617    17610    17616    17616    17605    17610    17625 
   17618    17608    17610    17613    17613    17616    17613    17612 
   17613    17613    17613    17616    17620    17616    17608    17613 
   17621    17612    17606    17613    17612    17609    17613    17612 
   17608    17613    17617    17609    17602    17610    17617    17614 
   17616    17613    17604    17606    17616    17617    17616    17614 
   17613    17610    17605    17605    17612    17613    17614    17616 
   17616    17613    17613    17612    17610    17617    17614    17604 
   17609    17617    17612    17610    17613    17616    17613    17609 
   17610    17616    17620    17616    17613    17613    17610    17616 
   17622    17614    17612    17614    17616    17616    17614    17613 
   17610    17610    17616    17614    17612    17613    17616    17614 
   17608    17608    17614    17613    17609    17610    17610    17610 
   17616    17617    17613    17613    17610    17608    17612    17613 
   17612    17612    17617    17618    17609    17606    17614    17617 
   17609    17606    17613    17620    17617    17606    17604    17612 
   17620    17616    17609    17612    17612    17612    17620    17616 
   17604    17609    17614    17612    17612    17616    17617    17609 
   17606    17613    17613    17610    17612    17614    17614    17612 
   17609    17610    17609    17608    17610    17610    17609    17614 
   17613    17606    17609    17613    17612    17610    17616    17618 
   17610    17605    17609    17612    17616    17612    17605    17609 
   17618    17618    17616    17613    17609    17614    17618    17614 
   17616    17616    17614    17613    17613    17617    17616    17608 
   17612    17617    17613    17613    17617    17617    17617    17613 
   17609    17614    17620    17617    17614    17617    17618    17614 
   17618    17622    17617    17612    17614    17620    17617    17612 
   17613    17616    17620    17618    17612    17614    17621    17618 
   17613    17613    17620    17624    17614    17606    17613    17613 
   17608    17617    17621    17612    17613    17621    17617    17612 
   17612    17616    17618    17618    17616    17617    17617    17614 
   17613    17616    17617    17613    17610    17621    17624    17612 
   17616    17626    17618    17610    17614    17620    17617    17613 
   17614    17616    17610    17609    17614    17618    17617    17612 
   17609    17613    17621    17618    17606    17613    17621    17614 
   17612    17614    17612    17609    17613    17614    17617    17617 
   17613    17614    17613    17609    17614    17618    17610    17605 
   17614    17617    17609    17612    17617    17612    17612    17617 
   17613    17608    17609    17612    17613    17610    17605    17606 
   17612    17610    17610    17608    17606    17614    17614    17605 
   17606    17610    17610    17610    17616    17613    17609    17617 
   17620    17606    17608    17614    17610    17612    17620    17620 
   17612    17608    17617    17616    17606    17610    17620    17618 
   17616    17616    17616    17613    17613    17613    17610    17609 
   17613    17614    17608    17613    17626    17620    17606    17612 
   17616    17605    17605    17617    17617    17609    17614    17618 
   17606    17604    17620    17622    17608    17613    17622    17614 
   17609    17610    17612    17617    17617    17608    17605    17614 
   17612    17602    17609    17613    17616    17616    17610    17613 
   17618    17614    17610    17613    17610    17609    17618    17622 
   17610    17606    17618    17622    17618    17618    17618    17616 
   17617    17616    17613    17616    17618    17618    17614    17613 
   17618    17621    17618    17618    17614    17608    17613    17620 
   17620    17622    17621    17613    17614    17617    17616    17617 
   17621    17618    17610    17608    17617    17621    17613    17613 
   17614    17613    17618    17620    17614    17614    17616    17617 
   17620    17617    17614    17620    17616    17612    17616    17616 
   17612    17613    17610    17613    17616    17609    17608    17616 
   17618    17610    17606    17612    17616    17613    17609    17608 
   17610    17616    17616    17612    17613    17616    17610    17610 
   17616    17613    17613    17618    17614    17614    17616    17616 
   17620    17622    17618    17616    17618    17617    17612    17609 
   17609    17610    17617    17618    17612    17613    17617    17614 
   17616    17618    17613    17612    17613    17606    17605    17614 
   17616    17612    17613    17614    17614    17617    17616    17613 
   17613    17613    17614    17614    17616    17618    17618    17617 
   17612    17608    17612    17613    17612    17613    17612    17608 
   17614    17616    17608    17610    17612    17608    17616    17617 
   17606    17606    17612    17613    17612    17605    17609    17617 
   17614    17609    17609    17612    17610    17605    17605    17610 
   17610    17606    17610    17616    17613    17613    17614    17610 
   17612    17614    17605    17604    17610    17609    17606    17612 
   17614    17612    17612    17614    17614    17610    17612    17614 
   17613    17618    17622    17613    17605    17614    17618    17604 
   17604    17622    17622    17608    17608    17612    17610    17612 
   17614    17610    17606    17612    17616    17614    17612    17606 
   17610    17614    17610    17613    17614    17609    17612    17618 
   17616    17612    17610    17614    17612    17608    17612    17612 
   17608    17616    17624    17622    17632    17686    17782    17936 
   18207    18598    18999    19236    19148    18716    18108    17501 
   16843    15959    14871    13917    13576    14156    15499    17111 
   18561    19755    20694    21091    20866    20560    20210    19251 
   18150    17547    16591    15107    14482    14786    14918    15012 
   15606    16264    16411    16606    18036    20267    21190    20075 
   18485    17829    18119    18738    18732    17810    17255    17794 
   18391    18328    17733    16783    16017    15728    15452    15296 
   16024    17498    18835    19395    19113    18748    19089    19460 
   18509    16536    15765    17508    19584    18808    16132    15360 
   17039    18396    18130    17386    17003    16858    17386    18628 
   19211    18493    17524    17440    17898    17652    16880    16654 
   16918    17408    18172    18333    17335    16560    16927    17236 
   16934    17207    18312    18985    18739    18333    18235    18405 
   18482    17975    17207    16827    16645    16310    16185    16560 
   16956    17178    17639    18208    18431    18292    18137    18100 
   17905    17616    17340    16985    17248    18303    18987    18828 
   18145    17238    16777    17189    17798    17662    17022    16721 
   16887    17288    17548    17427    17363    17815    18547    18603 
   17671    17185    17706    17909    17493    17259    17321    17440 
   17620    17915    18107    17964    17788    17794    17639    17343 
   17470    17926    17794    16816    16004    16276    17177    17699 
   17980    18617    18955    18364    17643    17416    17405    17238 
   16835    16825    17568    18253    18576    18947    18962    18307 
   17745    17853    18049    17475    16437    15924    16020    16328 
   17008    17969    18439    18196    17783    17586    17741    18067 
   18037    17497    16833    16625    17327    18562    19029    18207 
   17324    17410    17820    17490    16524    16156    16978    17783 
   17594    17255    17595    17979    17686    17344    17859    18658 
   18690    18265    18054    17890    17625    17451    17427    17591 
   17710    17240    16634    16993    18187    19163    19098    17998 
   17059    17091    17342    17227    17132    17066    16627    16407 
   17313    18613    18894    18280    17855    18014    18495    18802 
   18229    16904    16339    17072    17560    17089    16810    17185 
   17416    16972    16283    16389    17467    18310    18115    17664 
   18019    18867    19143    18709    17942    17027    16545    16811 
   17236    17500    17887    18358    18478    18152    17840    17768 
   17527    17103    17124    17473    17497    17668    18590    19136 
   18131    16703    16623    17409    17373    16501    16104    16623 
   17427    17987    18249    18397    18369    17767    16831    16202 
   16073    16826    18338    19203    18777    17977    17903    18698 
   18898    17230    14967    14427    16090    18080    18419    17834 
   18300    19620    20166    19137    17328    16758    17892    18553 
   17726    16920    17101    17622    17470    16704    16540    17190 
   17620    17680    17896    18131    18284    18585    18547    17566 
   16498    16834    18370    19036    17907    16741    16989    17821 
   18006    17448    16798    16714    17324    18002    17892    17038 
   16640    17324    18092    18104    17786    17591    17440    17405 
   17645    17737    17362    17072    17270    17732    18247    18535 
   18273    17821    17918    18193    17417    15886    15604    17064 
   18154    17655    17217    18156    19147    18711    17604    17420 
   18211    18511    17537    16434    16475    17097    17443    17845 
   18262    18030    17531    17753    18534    18453    17103    16299 
   17269    18512    18129    16641    16229    17428    18377    17976 
   17221    17315    18158    18450    17639    17042    17401    17689 
   17405    17302    17614    17755    17587    17566    17817    17917 
   17759    17901    18368    18187    17307    17053    17685    17887 
   17082    16425    16999    17918    17888    17475    17415    17170 
   16753    17101    18274    19093    18674    17670    17386    17955 
   18370    18114    17551    16848    16137    16151    16892    17334 
   17371    17772    18289    18279    18092    18000    17574    17086 
   17392    18115    18215    18106    18631    19006    18253    17099 
   16668    16846    17058    17201    17271    17194    17150    17493 
   18207    18508    17869    17059    17111    18000    18769    18696 
   18184    17979    18018    17687    16902    16468    16937    17595 
   17516    16937    16825    17533    18234    17736    16424    16251 
   17583    18538    18226    17653    17621    17863    17832    17579 
   17555    17707    17640    17419    17429    17667    17869    18009 
   17911    17188    16294    16397    17613    18600    18360    17644 
   17628    18038    18177    18184    18037    17367    16486    16214 
   16896    17820    18049    17953    18516    19195    18608    17219 
   16719    17323    17888    17637    16839    16576    17431    18449 
   18361    17361    16775    17298    18169    18211    17504    17329 
   18119    18792    18512    17659    17150    17454    17964    17824 
   17207    16885    17230    17841    17716    16677    16055    16661 
   17679    18262    18496    18600    18489    18153    17868    17717 
   17400    16920    16702    16819    16946    16997    17176    17408 
   17435    17517    18104    18945    19341    19029    18484    18335 
   18435    17965    16881    16240    16405    16448    16089    16156 
   16860    17583    18027    18076    17697    17636    18431    19128 
   18778    18006    17793    18090    18206    17732    16957    16507 
   16615    17008    17382    17733    18241    18693    18488    17648 
   16954    16889    17298    17709    17662    17301    17305    17864 
