Origin Time       2025/03/28 03:50:00
Lat.              35.403
Long.             140.360
Depth. (km)       54
Mag.              4.4
Station Code      CHB017
Station Lat.      35.2976
Station Long.     140.0734
Station Height(m) 38
Record Time       2025/03/28 03:50:50
Sampling Freq(Hz) 100Hz
Duration Time(s)  77
Dir.              U-D
Scale Factor      7845(gal)/8223790
Max. Acc. (gal)   4.597
Last Correction   2025/03/28 03:50:50
Memo.             
[...]
   15633    15623    15622    15633    15639    15635    15630    15626 
   15623    15631    15642    15628    15607    15623    15645    15634 
   15634    15633    15606    15622    15651    15623    15620    15647 
   15627    15614    15628    15630    15638    15627    15610    15638 
   15643    15616    15627    15630    15619    15638    15643    15620 
   15620    15623    15623    15642    15637    15622    15634    15633 
   15616    15626    15641    15628    15618    15631    15639    15624 
   15620    15637    15639    15624    15623    15635    15635    15619 
   15612    15639    15655    15623    15608    15637    15638    15615 
   15626    15643    15631    15622    15624    15634    15630    15608 
   15627    15650    15626    15615    15630    15635    15633    15626 
   15622    15631    15635    15633    15631    15618    15620    15638 
   15627    15624    15635    15615    15622    15651    15628    15616 
   15637    15628    15630    15627    15606    15633    15653    15627 
   15630    15627    15612    15642    15634    15597    15637    15653 
   15608    15615    15635    15627    15638    15631    15611    15620 
   15635    15650    15643    15606    15612    15639    15634    15631 
   15634    15630    15619    15611    15619    15638    15641    15637 
   15635    15606    15593    15638    15661    15634    15620    15622 
   15624    15635    15633    15619    15627    15637    15620    15619 
   15631    15628    15631    15634    15622    15615    15631    15647 
   15628    15614    15631    15641    15626    15616    15626    15633 
   15633    15634    15633    15626    15623    15626    15642    15639 
   15616    15626    15633    15618    15641    15649    15618    15624 
   15638    15622    15637    15653    15627    15612    15630    15646 
   15643    15620    15626    15639    15614    15624    15653    15616 
   15611    15647    15643    15627    15618    15615    15638    15641 
   15620    15638    15637    15614    15638    15641    15614    15630 
   15641    15626    15630    15634    15624    15620    15620    15626 
   15639    15637    15622    15618    15627    15638    15623    15610 
   15634    15641    15627    15628    15614    15616    15646    15633 
   15619    15630    15619    15622    15639    15628    15628    15637 
   15623    15627    15630    15619    15627    15631    15623    15630 
   15635    15628    15624    15624    15627    15630    15626    15635 
   15639    15616    15614    15633    15627    15626    15642    15633 
   15606    15619    15649    15638    15620    15619    15619    15633 
   15637    15620    15622    15626    15630    15639    15635    15626 
   15616    15614    15633    15655    15639    15612    15622    15626 
   15624    15637    15627    15623    15637    15634    15624    15618 
   15627    15637    15628    15634    15633    15608    15620    15645 
   15635    15626    15622    15622    15628    15634    15643    15630 
   15611    15626    15643    15633    15623    15628    15624    15620 
   15626    15633    15635    15633    15626    15624    15631    15634 
   15630    15628    15633    15633    15628    15626    15624    15639 
   15638    15608    15620    15646    15631    15618    15620    15626 
   15653    15646    15603    15619    15649    15627    15618    15631 
   15630    15615    15616    15645    15655    15623    15597    15627 
   15642    15630    15639    15630    15618    15635    15634    15622 
   15630    15631    15624    15627    15635    15628    15626    15633 
   15631    15635    15646    15628    15618    15634    15631    15622 
   15631    15630    15626    15633    15639    15642    15620    15603 
   15634    15651    15635    15616    15611    15641    15647    15618 
   15627    15641    15620    15623    15635    15624    15634    15641 
   15622    15624    15628    15622    15643    15642    15612    15624 
   15642    15627    15623    15633    15628    15624    15634    15637 
   15620    15608    15631    15651    15624    15615    15630    15627 
   15634    15630    15622    15631    15628    15624    15626    15619 
   15623    15628    15631    15634    15622    15619    15628    15623 
   15620    15630    15633    15627    15626    15627    15638    15637 
   15620    15616    15619    15624    15630    15626    15637    15639 
   15612    15614    15645    15639    15624    15620    15620    15633 
   15634    15624    15633    15622    15607    15634    15643    15620 
   15628    15631    15614    15631    15647    15626    15619    15637 
   15634    15622    15630    15642    15628    15614    15618    15630 
   15646    15639    15623    15623    15619    15630    15647    15630 
   15627    15641    15623    15620    15641    15635    15615    15620 
   15643    15637    15628    15634    15616    15619    15653    15637 
   15606    15628    15646    15628    15616    15606    15584    15561 
   15566    15595    15595    15595    15653    15699    15709    15724 
   15718    15688    15633    15564    15529    15547    15604    15681 
   15763    15801    15780    15761    15720    15626    15561    15522 
   15477    15487    15541    15608    15691    15746    15726    15580 
   15341    15144    15013    14877    14810    15001    15458    15966 
   16389    16700    16816    16632    16170    15749    15674    15782 
   15619    15055    14646    15084    16127    16912    17122    16929 
   16383    15483    14609    14454    14998    15433    15449    15226 
   14804    14570    15044    15827    16128    15930    15711    15704 
   15839    16108    16664    17207    17018    15982    14696    13838 
   13676    13844    13892    13921    14272    15055    16266    17767 
   18954    19012    17570    15234    13529    13325    13954    14601 
   15228    16017    16829    17362    17496    17095    16148    15126 
   14395    13830    13574    14188    15514    16470    16618    16610 
   16815    17027    17027    16517    15361    13979    12949    12573 
   12877    13786    15256    16916    18014    18270    17986    17363 
   16447    15453    14832    14899    15561    16343    16742    16729 
   16476    16052    15549    14787    13656    12812    12958    13810 
   14769    15888    17088    17713    17462    16613    15444    14202 
   13500    13779    14678    15745    16758    17469    17872    17952 
   17478    16484    15369    14727    14779    15079    15377    15772 
   16046    15898    15411    14945    14615    14435    14697    15190 
   15493    15892    16260    15903    15318    15566    16175    16236 
   16181    16366    16135    15724    16097    16557    15755    14354 
   13988    14553    14701    14412    14756    15716    16448    16738 
   16765    16464    15835    15095    14580    14723    15392    15684 
   15276    15033    15720    16989    17965    18260    17949    17015 
   15553    14235    13761    14188    15029    15564    15218    14200 
   13552    13967    14971    16058    17165    17741    17432    16816 
   16271    15668    15083    14837    15072    15358    15318    15394 
   15894    16283    16112    15765    15655    15265    14345    13906 
   14516    15499    16232    16588    16362    15541    14810    14509 
   14129    13737    14065    15074    16093    16891    17578    18018 
   17892    17300    16767    16198    15215    14362    14145    14266 
   14717    15724    16757    16918    16170    15358    15024    15156 
   15888    17086    17707    16823    14829    12988    12307    12957 
   14450    16309    17969    18596    17910    16541    15296    14531 
   14152    14014    14408    15743    17365    17914    17140    16005 
   15286    14804    14088    13579    14188    15496    16089    15778 
   15380    15156    15188    15789    16807    17433    17134    16402 
   15776    15103    14473    14374    14751    15106    15394    15907 
   16572    16965    16858    16314    15576    14989    14735    14877 
   15257    15445    15376    15047    14485    14473    15466    16804 
   17620    17348    16340    15697    15489    14978    14424    14524 
   15137    15646    16065    16995    18069    18162    17250    16195 
   15330    14420    13662    13475    13608    13814    14222    14716 
   15323    16297    17313    17500    16548    15267    14428    13979 
   13806    14299    15704    17311    18090    17945    17390    16686 
   15801    14516    13120    12793    13801    14872    15611    16853 
   18378    18720    17340    15537    14638    14359    14030    13936 
   14289    14673    15113    15923    16745    17037    16997    17112 
   17200    16930    16533    16251    16139    15989    15255    14234 
   13961    14548    15318    15800    15785    15545    15847    16663 
   16920    16245    15457    15160    14968    14391    14035    14785 
   15942    16209    15928    16006    16168    15944    15543    15246 
   15078    14962    14908    15006    15190    15417    15804    16166 
   16043    15394    14719    14501    14698    15005    15423    15917 
   16197    16411    16808    16931    16644    16607    16773    16249 
   15140    14620    15032    15427    15163    14751    14764    15091 
   15734    16646    17019    16474    15793    15427    15020    14771 
   15340    16217    16262    15603    15070    14632    14038    13930 
   14862    16204    17159    17591    17475    16783    15874    15300 
   15271    15707    16359    16680    16297    15576    15165    15246 
   15622    15880    15502    14431    13374    13220    14049    15217 
   16154    16571    16379    15595    14790    14797    15337    15921 
   16785    17440    17172    16583    16717    17568    17921    17007 
   15484    13990    12726    12114    12433    13544    14920    15998 
   16692    17088    17296    17505    17466    16659    15195    13976 
   13660    13797    13811    14064    14897    15855    16445    16640 
   16667    16707    16887    17251    17404    17008    16259    15161 
   13911    13342    13702    14482    15391    16418    17294    17496 
   17088    16800    16769    16406    15668    15021    14562    14262 
   14436    14964    15124    14898    14851    15105    15693    16532 
   16953    16545    15849    15430    15186    14975    14937    15223 
   15778    16228    16174    15569    14836    14592    14975    15626 
   16158    16268    16062    15839    15552    15358    15607    16092 
   16337    16259    16229    16406    16483    16359    16043    15426 
   14688    14112    13887    14212    14897    15221    14931    14778 
   15322    15985    16109    16069    16425    16791    16664    16370 
   16313    16399    16324    15994    15570    15134    14816    14590 
   14250    14249    14924    15576    15626    15515    15919    16561 
   16760    16699    16671    16426    16039    15954    16213    16321 
   15878    14931    13895    13537    14204    15210    15859    16333 
   16754    16575    15716    14963    14721    14584    14355    14485 
   15191    16078    16629    16619    16214    15701    15356    15425 
   15835    16202    16272    16154    16085    16021    15750    15561 
   15952    16472    16332    15799    15407    15020    14608    14605 
   15009    15369    15585    15596    15086    14413    14481    15241 
   15832    16048    16233    16316    16140    16075    16374    16613 
   16386    15988    15784    15483    14875    14554    14970    15677 
   16020    15917    15809    15886    15870    15727    15751    15869 
   15657    15067    14685    15009    15770    16441    16819    16821 
   16436    15782    15053    14613    14677    14980    15223    15414 
   15573    15525    15206    14868    14728    14814    15115    15525 
   15989    16428    16536    16294    16060    16067    16148    15890 
   15307    14828    14509    14301    14554    15277    15935    16376 
   16800    17124    17076    16668    16206    15853    15610    15500 
   15512    15653    15912    16182    16258    15896    15174    14476 
   14060    14014    14508    15452    16133    16109    15772    15483 
   15287    15326    15649    16078    16429    16553    16472    16432 
   16437    16224    15828    15615    15742    15919    15730    15155 
   14585    14322    14268    14283    14507    15103    15854    16271 
   16262    16181    16094    15757    15280    15147    15487    15893 
   16213    16659    17073    16951    16181    15277    14756    14454 
   14008    13699    14089    15020    15735    15894    15772    15581 
   15313    15129    15336    15981    16794    17494    17864    17644 
   16826    15826    15001    14480    14438    14778    15063    15361 
   16024    16767    17089    16941    16422    15545    14546    13851 
   13583    13602    13918    14497    14947    15001    14937    14998 
   15090    15439    16498    17907    18846    19140    18958    18280 
   17321    16533    15935    15186    14351    13865    13826    14075 
   14594    15299    15772    15689    15246    14882    14879    15160 
   15300    15091    14899    15001    14987    14461    13840    13730 
   13963    14181    14686    15689    16630    17003    17105    17525 
   18337    19079    19345    19168    18692    17892    16806    15734 
   15097    14949    14906    14729    14580    14617    14696    14702 
   14832    15138    15286    14971    14361    13829    13440    13078 
   12723    12487    12552    12910    13408    14115    15141    16339 
   17533    18706    19776    20437    20448    19984    19313    18385 
   17180    16065    15410    15090    14797    14482    14123    13594 
   12982    12640    12818    13360    13842    14042    14154    14445 
   14944    15588    16212    16569    16676    16802    17157    17739 
   18260    18370    18144    17767    17155    16474    15957    15511 
   15226    15217    15186    14797    14077    13304    12761    12733 
   13317    14299    15429    16511    17346    17824    17892    17513 
   16812    16044    15365    14804    14230    13597    13219    13320 
   13670    14042    14559    15408    16449    17270    17829    18353 
   18717    18808    18851    18850    18381    17174    15531    13984 
   12839    12209    12179    12621    13089    13324    13474    13653 
   13938    14528    15371    16092    16532    16841    17054    17042 
   16823    16645    16653    16660    16544    16486    16614    16926 
   17267    17294    16827    16069    15421    15191    15444    15969 
   16403    16509    16356    16119    15754    15152    14408    13621 
   12849    12348    12449    13132    13930    14504    14922    15255 
   15492    15726    16108    16668    17212    17590    17842    17923 
   17780    17517    17092    16333    15340    14442    13980    14212 
   15017    15925    16656    17128    17232    16924    16218    15265 
   14338    13464    12654    12339    12870    14015    15330    16475 
   17107    17097    16680    16144    15758    15759    16043    16258 
   16260    16182    16202    16421    16834    17221    17221    16781 
   16173    15520    14775    14065    13694    13748    13981    14251 
   14642    15076    15367    15541    15811    16197    16444    16436 
   16318    16208    16082    15897    15627    15264    14858    14412 
   13905    13417    13204    13603    14596    15844    17212    18580 
   19597    20039    20054    19697    18631    16870    15037    13455 
   12186    11642    12067    12989    13798    14438    15133    15784 
   16256    16764    17415    17922    17967    17621    17139    16587 
   15950    15273    14679    14281    14088    13981    13807    13690 
   13842    14191    14590    15059    15637    16187    16588    16915 
   17185    17289    17045    16357    15385    14366    13560    13215 
   13389    13892    14459    15052    15774    16605    17420    18150 
   18763    19025    18738    18025    17119    16237    15553    15068 
   14619    14169    13902    13798    13678    13616    13767    14172 
   14804    15496    16081    16591    17124    17625    17906    17801 
   17301    16595    15957    15556    15268    14831    14269    13826 
   13552    13389    13481    14073    15070    16093    16902    17351 
   17325    16860    16132    15479    15088    14860    14727    14712 
   14917    15403    15955    16349    16600    16768    16769    16468 
   15881    15176    14598    14385    14570    15010    15512    15871 
   16009    15958    15734    15465    15372    15545    15997    16629 
   17184    17505    17535    17200    16487    15560    14786    14366 
   14189    14311    14836    15445    15711    15600    15373    15234 
   15183    15255    15580    16002    16127    15839    15345    14737 
   14044    13504    13413    13809    14513    15383    16351    17235 
   17826    18004    17693    17049    16438    15975    15515    15075 
   14932    15190    15568    15889    16174    16364    16448    16440 
   16356    16258    16081    15745    15350    15118    15128    15165 
   15068    14921    14781    14670    14625    14550    14331    14112 
   14108    14291    14593    15071    15669    16175    16499    16768 
   17118    17547    17874    17950    17936    17895    17631    17169 
   16700    16185    15477    14621    13851    13402    13342    13521 
   13747    13948    14143    14335    14538    14794    15105    15369 
   15549    15724    15932    16152    16302    16303    16213    16129 
   16042    15912    15861    16000    16210    16362    16509    16690 
   16814    16846    16900    16941    16702    16167    15628    15241 
   15021    14925    14848    14783    14713    14536    14296    14115 
   14068    14234    14601    15151    15942    16839    17517    17740 
   17543    17131    16611    16020    15444    14929    14488    14141 
   13895    13767    13717    13713    13864    14280    14932    15759 
   16668    17504    18117    18393    18350    18096    17739    17342 
   16914    16433    15901    15498    15307    15017    14569    14235 
   13980    13760    13649    13594    13683    14069    14702    15444 
   16079    16395    16436    16347    16144    15921    15826    15807 
   15711    15515    15319    15155    14998    14874    14841    14841 
   14793    14870    15215    15739    16401    17101    17624    17918 
   18021    17880    17496    17007    16611    16416    16286    16059 
   15747    15380    15080    15040    15215    15350    15253    14985 
   14694    14335    13841    13375    13136    13157    13370    13768 
   14404    15217    15992    16561    16927    17157    17207    17065 
   16903    16839    16741    16459    16094    15757    15376    14979 
   14740    14644    14594    14628    14720    14814    14980    15228 
   15485    15784    16154    16445    16533    16515    16490    16393 
   16239    16286    16652    17023    17107    16987    16804    16572 
   16287    15962    15558    15099    14702    14393    14145    14035 
   14164    14516    14886    15059    15149    15364    15611    15807 
   16097    16459    16637    16478    16028    15508    15151    14975 
   14864    14777    14678    14585    14643    14898    15259    15693 
   16220    16810    17329    17578    17502    17242    16865    16457 
   16085    15568    14791    13940    13301    13070    13163    13409 
