Origin Time       2025/03/28 03:50:00
Lat.              35.403
Long.             140.360
Depth. (km)       54
Mag.              4.4
Station Code      CHB001
Station Lat.      35.9571
Station Long.     139.8731
Station Height(m) 17
Record Time       2025/03/28 03:51:09
Sampling Freq(Hz) 100Hz
Duration Time(s)  60
Dir.              E-W
Scale Factor      7845(gal)/8223790
Max. Acc. (gal)   3.696
Last Correction   2025/03/28 03:51:08
Memo.             
   -6963    -6914    -6921    -6879    -6779    -6837    -6959    -6978 
   -6967    -6941    -6899    -6883    -6863    -6851    -6887    -6907 
   -6880    -6874    -6890    -6893    -6897    -6928    -6947    -6886 
   -6818    -6849    -6921    -6934    -6898    -6897    -6932    -6936 
   -6920    -6941    -6963    -6895    -6791    -6785    -6825    -6839 
   -6887    -6944    -6948    -6955    -6934    -6849    -6836    -6901 
   -6913    -6912    -6936    -6918    -6886    -6893    -6912    -6922 
   -6907    -6853    -6817    -6818    -6812    -6849    -6948    -6999 
   -6957    -6868    -6816    -6886    -6997    -6997    -6933    -6910 
   -6882    -6856    -6890    -6930    -6932    -6929    -6932    -6901 
   -6814    -6752    -6782    -6849    -6913    -6956    -6933    -6905 
   -6939    -6952    -6930    -6929    -6901    -6805    -6745    -6787 
   -6836    -6879    -6987    -7092    -7091    -6987    -6836    -6747 
   -6809    -6929    -6998    -7056    -7055    -6897    -6721    -6678 
   -6770    -6914    -6971    -6914    -6824    -6771    -6840    -6941 
   -6921    -6876    -6901    -6925    -6959    -6991    -6917    -6760 
   -6671    -6795    -7084    -7242    -7134    -6907    -6743    -6764 
   -6939    -7052    -6991    -6847    -6758    -6777    -6860    -6970 
   -7017    -6897    -6725    -6677    -6729    -6858    -7037    -7094 
   -6956    -6774    -6700    -6777    -6948    -7094    -7096    -6983 
   -6891    -6797    -6673    -6660    -6805    -7030    -7225    -7161 
   -6837    -6644    -6747    -6945    -7087    -7049    -6831    -6682 
   -6732    -6852    -6966    -7110    -7230    -7148    -6890    -6706 
   -6679    -6723    -6802    -6907    -6960    -6870    -6701    -6631 
   -6725    -6914    -7040    -7021    -6961    -6912    -6855    -6886 
   -7013    -7102    -7125    -7133    -7088    -6974    -6821    -6691 
   -6656    -6651    -6642    -6782    -6987    -6986    -6787    -6552 
   -6428    -6610    -7067    -7439    -7445    -7148    -6863    -6820 
   -6949    -7087    -7149    -7052    -6809    -6567    -6444    -6490 
   -6656    -6806    -6902    -6982    -7003    -6972    -6972    -6998 
   -7028    -7075    -7137    -7204    -7283    -7295    -7129    -6863 
   -6716    -6712    -6706    -6650    -6566    -6477    -6471    -6619 
   -6840    -7014    -7063    -7005    -6986    -7057    -7075    -6990 
   -6918    -6952    -7069    -7199    -7248    -7161    -6959    -6701 
   -6524    -6467    -6401    -6361    -6504    -6737    -6912    -7071 
   -7248    -7354    -7312    -7184    -7125    -7171    -7237    -7256 
   -7173    -6957    -6685    -6513    -6513    -6640    -6835    -6976 
   -6947    -6770    -6581    -6501    -6613    -6902    -7109    -6994 
   -6716    -6593    -6739    -7059    -7356    -7453    -7288    -6991 
   -6772    -6664    -6566    -6484    -6470    -6540    -6689    -6885 
   -7086    -7209    -7179    -7076    -6982    -6855    -6694    -6570 
   -6578    -6759    -7059    -7335    -7418    -7226    -6880    -6624 
   -6605    -6740    -6845    -6813    -6669    -6616    -6716    -6755 
   -6733    -6831    -6999    -7172    -7333    -7304    -7126    -7110 
   -7188    -7105    -6952    -6905    -6967    -7026    -7001    -6997 
   -7060    -7029    -6853    -6664    -6615    -6720    -6818    -6833 
   -6821    -6766    -6670    -6681    -6858    -6999    -6940    -6781 
   -6717    -6843    -7049    -7148    -7176    -7194    -7060    -6735 
   -6432    -6354    -6489    -6659    -6798    -6978    -7105    -7041 
   -6858    -6693    -6651    -6839    -7196    -7406    -7294    -7036 
   -6843    -6822    -7029    -7323    -7369    -7064    -6740    -6583 
   -6412    -6255    -6416    -6851    -7200    -7306    -7252    -7117 
   -6974    -6924    -6947    -6913    -6771    -6543    -6228    -5984 
   -6149    -6705    -7233    -7518    -7557    -7344    -7060    -6964 
   -7061    -7148    -7036    -6756    -6582    -6647    -6764    -6816 
   -6878    -6975    -7037    -7002    -6929    -6978    -7176    -7361 
   -7403    -7290    -7078    -6848    -6669    -6650    -6910    -7273 
   -7433    -7338    -7057    -6691    -6412    -6232    -6129    -6218 
   -6489    -6741    -6839    -6828    -6907    -7119    -7207    -7126 
   -7091    -7038    -6779    -6466    -6378    -6604    -6983    -7221 
   -7145    -6903    -6798    -6952    -7155    -7136    -6910    -6714 
   -6729    -6889    -7001    -7047    -7088    -7107    -7074    -6957 
   -6748    -6520    -6376    -6467    -6817    -7169    -7267    -7072 
   -6775    -6593    -6615    -6918    -7454    -7846    -7824    -7453 
   -6912    -6442    -6254    -6288    -6377    -6489    -6612    -6745 
   -6932    -7037    -6932    -6799    -6818    -6913    -6949    -6880 
   -6747    -6636    -6654    -6835    -7067    -7219    -7242    -7145 
   -7017    -6930    -6866    -6813    -6812    -6878    -6951    -6959 
   -6882    -6844    -6890    -6805    -6606    -6625    -6876    -7136 
   -7261    -7206    -7075    -6941    -6895    -7068    -7202    -7015 
   -6679    -6421    -6420    -6778    -7182    -7246    -6993    -6728 
   -6702    -6899    -7194    -7416    -7361    -7091    -6875    -6790 
   -6698    -6471    -6157    -6007    -6223    -6660    -6998    -7048 
   -6853    -6646    -6662    -6924    -7206    -7317    -7254    -7038 
   -6755    -6677    -6955    -7427    -7747    -7658    -7260    -6847 
   -6551    -6401    -6432    -6550    -6639    -6737    -6885    -7049 
   -7167    -7053    -6679    -6419    -6543    -6849    -7080    -7261 
   -7445    -7585    -7622    -7523    -7281    -6925    -6528    -6238 
   -6166    -6347    -6762    -7194    -7279    -6980    -6605    -6377 
   -6338    -6481    -6741    -6980    -7082    -7096    -7160    -7321 
   -7395    -7165    -6756    -6427    -6280    -6403    -6725    -6987 
   -7107    -7118    -7078    -7168    -7368    -7402    -7233    -7029 
   -6820    -6700    -6804    -6940    -6880    -6799    -6939    -7222 
   -7375    -7236    -6844    -6346    -5941    -5807    -5998    -6436 
   -6944    -7302    -7461    -7604    -7784    -7803    -7628    -7391 
   -7060    -6646    -6331    -6149    -6006    -5957    -6084    -6293 
   -6486    -6675    -6910    -7155    -7345    -7522    -7711    -7809 
   -7695    -7317    -6837    -6586    -6628    -6732    -6778    -6686 
   -6399    -6126    -6133    -6443    -6928    -7415    -7727    -7819 
   -7765    -7522    -7087    -6660    -6393    -6291    -6409    -6743 
   -7057    -7179    -7140    -6941    -6690    -6636    -6700    -6642 
   -6556    -6642    -6890    -7160    -7261    -7102    -6789    -6539 
   -6529    -6795    -7186    -7445    -7379    -7064    -6782    -6675 
   -6674    -6727    -6826    -6909    -6878    -6708    -6497    -6404 
   -6490    -6691    -6937    -7133    -7196    -7191    -7256    -7392 
   -7533    -7605    -7518    -7269    -6902    -6478    -6224    -6284 
   -6534    -6778    -6847    -6814    -6939    -7187    -7364    -7439 
   -7341    -7020    -6659    -6446    -6359    -6349    -6424    -6565 
   -6727    -6795    -6615    -6328    -6258    -6442    -6762    -7202 
   -7674    -7912    -7771    -7412    -7084    -6984    -7145    -7287 
   -7169    -6882    -6563    -6301    -6286    -6570    -6924    -7128 
   -7121    -7038    -7114    -7318    -7342    -7111    -6886    -6777 
   -6717    -6721    -6747    -6701    -6627    -6552    -6465    -6412 
   -6346    -6250    -6339    -6671    -7040    -7361    -7554    -7523 
   -7354    -7119    -6890    -6856    -7047    -7238    -7230    -7074 
   -6933    -6817    -6679    -6578    -6542    -6478    -6347    -6274 
   -6374    -6652    -7117    -7651    -7997    -8032    -7809    -7406 
   -6951    -6632    -6496    -6426    -6363    -6273    -6184    -6265 
   -6482    -6658    -6843    -7063    -7167    -7199    -7258    -7196 
   -7011    -6951    -7033    -7096    -7119    -7013    -6708    -6469 
   -6507    -6686    -6845    -6941    -6997    -7021    -6970    -6928 
   -7018    -7164    -7264    -7307    -7291    -7187    -6984    -6789 
   -6698    -6716    -6833    -6928    -6886    -6814    -6744    -6608 
   -6515    -6516    -6482    -6401    -6404    -6575    -6874    -7175 
   -7419    -7573    -7531    -7290    -6993    -6756    -6674    -6785 
   -6960    -7105    -7196    -7095    -6839    -6718    -6786    -6875 
   -6934    -6941    -6887    -6858    -6890    -6929    -6968    -6976 
   -6903    -6826    -6751    -6621    -6624    -6901    -7218    -7325 
   -7164    -6835    -6509    -6280    -6154    -6111    -6137    -6322 
   -6671    -7037    -7314    -7447    -7408    -7284    -7202    -7167 
   -7078    -7007    -7161    -7491    -7692    -7558    -7191    -6839 
   -6606    -6473    -6428    -6420    -6373    -6382    -6567    -6820 
   -7048    -7275    -7453    -7522    -7454    -7215    -6864    -6551 
   -6421    -6547    -6794    -6934    -6922    -6775    -6500    -6228 
   -6168    -6369    -6702    -6968    -7024    -6941    -6974    -7248 
   -7558    -7604    -7379    -7123    -6953    -6856    -6895    -7036 
   -7049    -6840    -6565    -6282    -5995    -5873    -6031    -6384 
   -6835    -7267    -7573    -7701    -7677    -7645    -7670    -7599 
   -7327    -6994    -6745    -6500    -6151    -5892    -6045    -6643 
   -7377    -7866    -7948    -7736    -7389    -6993    -6642    -6486 
   -6597    -6843    -7010    -7047    -7028    -7006    -6941    -6801 
   -6696    -6628    -6447    -6196    -6046    -6087    -6405    -6909 
   -7283    -7371    -7238    -6983    -6736    -6694    -6986    -7511 
   -7947    -8044    -7792    -7219    -6446    -5846    -5653    -5752 
   -6014    -6376    -6756    -7040    -7122    -7010    -6836    -6728 
   -6701    -6735    -6802    -6801    -6740    -6770    -6909    -7111 
   -7366    -7592    -7709    -7690    -7545    -7410    -7361    -7268 
   -7020    -6710    -6505    -6407    -6365    -6505    -6941    -7515 
   -7933    -8075    -7986    -7720    -7345    -6926    -6543    -6366 
   -6424    -6565    -6766    -7038    -7207    -7134    -6940    -6863 
   -6910    -6901    -6864    -6886    -6890    -6941    -7134    -7331 
   -7449    -7566    -7670    -7657    -7506    -7327    -7160    -6939 
   -6650    -6254    -5755    -5381    -5301    -5447    -5759    -6165 
   -6509    -6728    -6836    -6862    -6874    -6836    -6574    -6102 
   -5659    -5429    -5471    -5871    -6623    -7433    -7958    -8148 
   -8164    -8102    -7921    -7597    -7263    -7044    -6867    -6619 
   -6338    -6145    -6097    -6120    -6114    -6156    -6335    -6592 
   -6929    -7376    -7769    -7986    -8012    -7793    -7376    -6994 
   -6786    -6671    -6547    -6327    -5973    -5578    -5148    -4654 
   -4303    -4280    -4504    -4916    -5529    -6203    -6833    -7555 
   -8496    -9549   -10396   -10770   -10705   -10347    -9707    -8834 
   -7909    -6993    -6043    -5170    -4558    -4333    -4536    -5073 
   -5832    -6755    -7719    -8514    -9062    -9390    -9468    -9283 
   -8883    -8287    -7515    -6631    -5765    -5135    -4828    -4747 
   -4826    -5085    -5520    -6084    -6623    -6999    -7283    -7568 
   -7794    -7905    -7981    -7998    -7804    -7407    -6951    -6538 
   -6234    -6095    -6147    -6311    -6525    -6779    -6905    -6745 
   -6421    -6141    -5973    -5871    -5864    -6054    -6335    -6475 
   -6466    -6397    -6254    -6069    -6012    -6243    -6759    -7414 
   -8074    -8645    -8939    -8787    -8236    -7495    -6768    -6189 
   -5842    -5871    -6381    -7258    -8176    -8839    -9103    -8958 
   -8537    -8024    -7578    -7283    -7037    -6718    -6381    -6114 
   -5953    -5922    -6027    -6269    -6589    -6889    -7134    -7319 
   -7399    -7366    -7273    -7126    -6914    -6681    -6470    -6370 
   -6427    -6500    -6478    -6392    -6265    -6169    -6222    -6428 
   -6733    -7092    -7420    -7681    -7875    -7983    -8016    -7925 
   -7630    -7196    -6756    -6340    -6041    -5892    -5745    -5632 
   -5702    -5950    -6372    -6879    -7267    -7457    -7503    -7438 
   -7248    -6870    -6276    -5545    -4903    -4600    -4703    -5229 
   -6216    -7398    -8469    -9424   -10161   -10485   -10473   -10137 
   -9344    -8245    -7102    -6107    -5499    -5344    -5533    -6022 
   -6697    -7321    -7751    -7946    -7931    -7803    -7574    -7275 
   -7030    -6804    -6432    -5930    -5454    -5085    -4791    -4546 
   -4344    -4214    -4260    -4522    -5008    -5732    -6462    -6926 
   -7280    -7753    -8295    -8830    -9234    -9374    -9308    -9062 
   -8557    -7812    -6939    -6151    -5674    -5540    -5738    -6265 
   -6957    -7538    -7746    -7418    -6652    -5825    -5292    -5063 
   -4965    -4985    -5193    -5633    -6411    -7454    -8365    -8839 
   -8904    -8739    -8618    -8673    -8707    -8576    -8392    -8243 
   -8141    -8055    -7862    -7551    -7256    -6952    -6540    -6097 
   -5768    -5568    -5440    -5408    -5485    -5594    -5684    -5753 
   -5805    -5903    -6096    -6334    -6489    -6462    -6251    -5899 
   -5539    -5441    -5706    -6255    -7038    -7821    -8314    -8480 
   -8430    -8317    -8182    -7943    -7619    -7245    -6814    -6443 
   -6292    -6427    -6822    -7314    -7722    -7973    -8000    -7747 
   -7222    -6532    -5900    -5491    -5317    -5379    -5680    -6147 
   -6685    -7237    -7788    -8244    -8487    -8522    -8415    -8206 
   -7916    -7577    -7344    -7308    -7346    -7361    -7357    -7327 
   -7206    -6885    -6409    -5930    -5495    -5127    -4950    -5031 
   -5298    -5742    -6299    -6747    -7069    -7352    -7495    -7510 
   -7497    -7369    -7126    -6991    -7018    -7048    -6939    -6759 
   -6708    -6818    -7049    -7425    -7796    -7909    -7674    -7257 
   -6897    -6613    -6330    -6070    -5883    -5788    -5869    -6246 
   -6887    -7566    -8047    -8322    -8440    -8290    -7911    -7511 
   -7119    -6647    -6108    -5601    -5239    -5124    -5255    -5476 
   -5656    -5838    -6072    -6382    -6840    -7418    -7992    -8460 
   -8680    -8523    -8098    -7622    -7122    -6612    -6170    -5822 
   -5622    -5668    -5968    -6430    -7013    -7777    -8573    -9024 
   -8995    -8646    -8178    -7751    -7426    -7168    -6956    -6790 
   -6632    -6394    -6137    -5995    -5848    -5541    -5317    -5431 
   -5655    -5725    -5802    -6097    -6544    -7059    -7596    -7939 
   -7943    -7831    -7727    -7481    -7219    -7102    -6975    -6851 
   -6872    -6963    -7078    -7258    -7456    -7547    -7414    -7153 
   -6945    -6736    -6493    -6237    -5913    -5555    -5170    -4800 
   -4706    -4963    -5378    -5886    -6478    -7032    -7487    -7851 
   -8124    -8290    -8293    -8093    -7782    -7452    -7025    -6485 
   -6119    -6147    -6467    -6976    -7572    -7996    -8179    -8257 
   -8284    -8279    -8174    -7865    -7364    -6729    -6243    -6277 
   -6735    -7249    -7564    -7569    -7447    -7501    -7684    -7653 
   -7240    -6573    -5937    -5634    -5690    -5856    -5998    -6153 
   -6318    -6470    -6604    -6702    -6848    -7130    -7466    -7704 
   -7723    -7484    -7145    -6862    -6608    -6419    -6377    -6461 
   -6712    -7119    -7512    -7736    -7661    -7318    -6963    -6727 
   -6600    -6562    -6543    -6592    -6825    -7149    -7385    -7362 
   -6957    -6332    -5672    -5054    -4715    -4753    -4970    -5339 
   -5883    -6388    -6755    -7074    -7381    -7723    -8089    -8384 
   -8545    -8532    -8384    -8189    -7998    -7886    -7866    -7896 
   -7992    -8089    -8122    -8116    -7971    -7647    -7294    -6957 
   -6624    -6326    -6043    -5823    -5701    -5568    -5421    -5360 
   -5412    -5590    -5849    -6058    -6224    -6446    -6716    -6956 
   -7111    -7142    -7071    -6934    -6709    -6457    -6353    -6419 
   -6484    -6415    -6258    -6153    -6133    -6180    -6324    -6447 
   -6473    -6529    -6525    -6370    -6349    -6592    -6964    -7384 
   -7731    -7996    -8210    -8186    -7943    -7751    -7595    -7457 
   -7500    -7570    -7542    -7673    -7974    -8217    -8282    -8079 
   -7681    -7204    -6652    -6147    -5740    -5346    -5150    -5413 
   -5964    -6432    -6770    -7099    -7449    -7831    -8162    -8179 
   -7797    -7218    -6624    -6131    -5895    -5929    -6049    -6134 
   -6178    -6207    -6249    -6291    -6349    -6462    -6550    -6581 
   -6651    -6751    -6901    -7194    -7560    -7952    -8387    -8679 
   -8702    -8567    -8311    -8010    -7773    -7506    -7149    -6809 
   -6509    -6203    -5903    -5641    -5495    -5528    -5551    -5445 
   -5417    -5532    -5687    -5940    -6285    -6528    -6547    -6484 
   -6567    -6862    -7356    -7993    -8607    -9101    -9390    -9369 
   -9066    -8544    -7954    -7534    -7234    -6856    -6500    -6304 
   -6235    -6286    -6416    -6394    -6138    -5917    -5931    -6127 
   -6405    -6593    -6561    -6378    -6183    -6173    -6538    -7161 
   -7722    -8075    -8257    -8226    -7927    -7447    -6885    -6274 
   -5703    -5242    -4923    -4826    -5013    -5412    -5836    -6255 
   -6737    -7163    -7439    -7674    -7942    -8175    -8202    -7946 
   -7609    -7334    -7067    -6862    -6766    -6735    -6793    -6939 
   -7141    -7414    -7680    -7805    -7797    -7797    -7823    -7665 
   -7245    -6759    -6342    -6057    -6057    -6320    -6596    -6764 
   -6817    -6696    -6529    -6565    -6789    -6997    -7129    -7180 
   -7119    -7030    -6979    -6902    -6799    -6664    -6475    -6354 
   -6432    -6694    -7063    -7404    -7460    -7248    -7083    -6966 
   -6901    -7075    -7246    -7248    -7246    -7177    -7026    -6858 
   -6575    -6274    -6031    -5776    -5628    -5760    -6214    -6804 
   -7225    -7434    -7495    -7396    -7248    -7167    -7095    -7003 
   -7007    -7137    -7312    -7466    -7446    -7194    -6876    -6550 
   -6264    -6138    -6066    -5980    -5907    -5883    -6183    -6752 
   -7090    -7223    -7445    -7645    -7766    -7897    -8000    -8060 
   -8171    -8340    -8279    -7801    -7215    -6732    -6282    -5880 
   -5498    -5221    -5247    -5418    -5502    -5575    -5794    -6131 
   -6409    -6596    -6794    -6982    -7163    -7384    -7553    -7582 
   -7524    -7446    -7308    -7044    -6737    -6551    -6542    -6729 
   -7095    -7500    -7820    -8054    -8162    -8082    -7867    -7616 
   -7429    -7353    -7269    -7096    -6905    -6778    -6772    -6867 
   -6934    -6860    -6648    -6488    -6516    -6604    -6633    -6642 
   -6659    -6686    -6639    -6502    -6458    -6523    -6577    -6546 
   -6307    -5921    -5606    -5448    -5540    -5910    -6427    -7011 
   -7572    -7948    -8135    -8182    -7986    -7580    -7227    -6975 
   -6778    -6787    -6947    -7060    -7195    -7353    -7307    -7133 
   -7045    -6878    -6548    -6328    -6245    -6193    -6349    -6642 
   -6748    -6790    -6984    -7146    -7241    -7483    -7777    -7943 
   -8052    -8000    -7655    -7306    -7111    -6949    -6860    -6905 
   -6972    -6988    -7021    -7041    -6894    -6718    -6686    -6627 
