Origin Time       2025/03/28 03:50:00
Lat.              35.403
Long.             140.360
Depth. (km)       54
Mag.              4.4
Station Code      CHB009
Station Lat.      35.5871
Station Long.     140.2378
Station Height(m) 41
Record Time       2025/03/28 03:50:50
Sampling Freq(Hz) 100Hz
Duration Time(s)  60
Dir.              U-D
Scale Factor      7845(gal)/8223790
Max. Acc. (gal)   19.907
Last Correction   2025/03/28 03:50:50
Memo.             
[...]
   15913    15917    15919    15915    15912    15911    15909    15912 
   15915    15913    15915    15915    15909    15905    15911    15915 
   15913    15912    15912    15911    15909    15911    15915    15916 
   15912    15913    15915    15912    15912    15913    15915    15916 
   15916    15916    15912    15911    15913    15915    15912    15912 
   15912    15916    15916    15912    15912    15916    15915    15912 
   15912    15912    15912    15912    15912    15916    15916    15908 
   15908    15912    15908    15908    15911    15912    15915    15916 
   15916    15916    15911    15911    15916    15911    15908    15913 
   15917    15920    15919    15911    15907    15909    15912    15915 
   15917    15923    15923    15913    15908    15909    15909    15911 
   15917    15924    15921    15912    15907    15905    15909    15912 
   15916    15919    15915    15911    15911    15909    15907    15911 
   15913    15917    15921    15916    15912    15912    15911    15909 
   15912    15917    15919    15919    15917    15913    15909    15911 
   15908    15909    15913    15916    15917    15917    15915    15913 
   15911    15911    15915    15915    15913    15917    15916    15912 
   15912    15908    15908    15913    15915    15915    15916    15916 
   15912    15908    15908    15912    15915    15916    15915    15912 
   15913    15915    15913    15913    15912    15911    15909    15911 
   15911    15908    15911    15916    15919    15919    15913    15907 
   15904    15907    15911    15913    15913    15912    15911    15911 
   15911    15911    15912    15908    15909    15916    15917    15916 
   15912    15911    15911    15911    15915    15916    15912    15911 
   15909    15911    15912    15911    15915    15917    15913    15909 
   15912    15916    15920    15919    15913    15911    15909    15909 
   15909    15912    15915    15916    15916    15916    15919    15913 
   15909    15913    15919    15919    15917    15917    15915    15911 
   15909    15913    15917    15921    15923    15920    15915    15909 
   15905    15908    15912    15911    15909    15915    15921    15921 
   15915    15913    15912    15909    15909    15913    15917    15920 
   15923    15920    15912    15908    15912    15913    15913    15916 
   15917    15919    15919    15915    15912    15912    15909    15911 
   15919    15917    15915    15916    15911    15909    15915    15913 
   15912    15912    15911    15911    15917    15920    15916    15915 
   15916    15911    15908    15911    15916    15921    15919    15912 
   15911    15908    15905    15909    15916    15916    15917    15915 
   15913    15916    15915    15911    15912    15909    15907    15911 
   15913    15917    15921    15917    15912    15912    15911    15913 
   15915    15913    15917    15916    15912    15916    15917    15912 
   15912    15912    15909    15908    15907    15911    15916    15916 
   15915    15913    15908    15909    15913    15916    15917    15913 
   15911    15913    15916    15915    15912    15912    15909    15908 
   15911    15916    15920    15921    15919    15915    15911    15909 
   15913    15915    15912    15916    15920    15916    15912    15909 
   15908    15908    15911    15917    15920    15917    15916    15912 
   15908    15911    15915    15916    15915    15912    15911    15915 
   15915    15913    15915    15912    15915    15916    15912    15912 
   15911    15908    15911    15915    15915    15915    15913    15909 
   15903    15905    15912    15916    15921    15921    15916    15915 
   15909    15904    15908    15909    15909    15915    15917    15920 
   15917    15908    15904    15907    15908    15911    15913    15913 
   15915    15916    15913    15908    15905    15908    15911    15912 
   15912    15915    15916    15913    15909    15911    15911    15909 
   15911    15915    15913    15911    15912    15913    15913    15912 
   15913    15917    15917    15913    15911    15909    15909    15908 
   15911    15916    15916    15911    15911    15913    15911    15907 
   15907    15908    15911    15915    15915    15913    15913    15911 
   15907    15907    15912    15916    15916    15915    15915    15915 
   15915    15913    15915    15912    15907    15911    15917    15917 
   15917    15916    15912    15912    15909    15905    15912    15919 
   15920    15920    15916    15909    15905    15907    15911    15917 
   15921    15921    15916    15909    15907    15907    15909    15915 
   15919    15921    15919    15911    15911    15913    15909    15908 
   15913    15916    15916    15916    15912    15911    15912    15913 
   15916    15917    15915    15909    15908    15915    15920    15917 
   15916    15919    15916    15913    15915    15912    15912    15913 
   15912    15912    15913    15912    15912    15913    15909    15907 
   15911    15913    15912    15912    15912    15912    15911    15912 
   15915    15915    15913    15913    15912    15909    15907    15907 
   15911    15915    15913    15912    15915    15916    15915    15911 
   15909    15912    15916    15915    15913    15915    15915    15912 
   15912    15917    15915    15909    15912    15915    15911    15911 
   15915    15913    15913    15912    15912    15912    15909    15911 
   15915    15915    15915    15916    15917    15916    15915    15912 
   15911    15916    15921    15919    15915    15913    15912    15909 
   15913    15919    15921    15921    15916    15912    15913    15916 
   15916    15919    15921    15919    15912    15912    15916    15915 
   15912    15917    15921    15919    15913    15916    15919    15917 
   15919    15921    15917    15913    15911    15911    15912    15915 
   15919    15921    15919    15913    15912    15913    15916    15917 
   15919    15919    15917    15912    15908    15907    15907    15912 
   15917    15919    15916    15913    15911    15911    15912    15909 
   15907    15908    15915    15921    15924    15923    15912    15903 
   15904    15909    15913    15917    15917    15915    15913    15913 
   15909    15908    15911    15912    15911    15911    15912    15909 
   15908    15911    15915    15916    15912    15909    15908    15905 
   15911    15915    15916    15916    15913    15909    15907    15907 
   15909    15913    15912    15909    15912    15915    15915    15909 
   15905    15908    15912    15911    15912    15915    15912    15908 
   15907    15907    15908    15909    15908    15908    15911    15911 
   15907    15905    15908    15907    15907    15911    15911    15908 
   15905    15908    15912    15911    15909    15911    15909    15904 
   15908    15915    15915    15915    15909    15905    15911    15915 
   15913    15912    15912    15909    15909    15913    15911    15908 
   15911    15912    15912    15913    15913    15911    15905    15905 
   15909    15912    15909    15908    15909    15913    15917    15916 
   15915    15915    15911    15909    15912    15915    15920    15924 
   15920    15912    15911    15911    15912    15919    15921    15916 
   15913    15913    15915    15915    15913    15912    15916    15919 
   15917    15917    15913    15913    15919    15919    15919    15920 
   15919    15915    15911    15905    15911    15917    15916    15917 
   15923    15917    15911    15913    15917    15916    15911    15908 
   15911    15913    15915    15916    15915    15912    15915    15913 
   15908    15907    15908    15909    15915    15920    15917    15915 
   15917    15917    15911    15907    15911    15917    15917    15917 
   15920    15916    15909    15913    15916    15911    15909    15915 
   15917    15915    15917    15917    15915    15916    15915    15913 
   15915    15916    15917    15919    15919    15920    15913    15908 
   15913    15920    15920    15917    15919    15919    15915    15915 
   15917    15919    15917    15917    15916    15915    15916    15915 
   15912    15912    15915    15916    15916    15912    15907    15905 
   15911    15920    15923    15917    15913    15908    15907    15909 
   15912    15915    15919    15920    15917    15916    15916    15913 
   15908    15907    15912    15912    15909    15911    15916    15917 
   15916    15913    15912    15909    15908    15909    15915    15920 
   15920    15919    15913    15909    15909    15909    15912    15916 
   15917    15917    15915    15911    15909    15915    15916    15913 
   15913    15916    15917    15915    15913    15916    15915    15913 
   15917    15919    15913    15912    15913    15913    15913    15912 
   15915    15915    15911    15911    15916    15917    15915    15915 
   15915    15913    15913    15913    15915    15915    15915    15917 
   15917    15913    15912    15909    15909    15915    15917    15916 
   15913    15913    15915    15916    15916    15912    15911    15915 
   15917    15917    15921    15920    15913    15909    15909    15911 
   15913    15917    15919    15916    15917    15920    15916    15911 
   15912    15912    15915    15920    15917    15911    15908    15912 
   15919    15920    15917    15911    15907    15909    15916    15917 
   15917    15919    15919    15913    15911    15913    15912    15911 
   15915    15915    15912    15915    15917    15915    15913    15913 
   15911    15911    15911    15913    15916    15916    15915    15909 
   15907    15909    15909    15911    15915    15912    15909    15912 
   15909    15907    15908    15912    15916    15913    15907    15904 
   15907    15909    15916    15920    15916    15911    15907    15901 
   15903    15909    15912    15911    15911    15912    15908    15900 
   15898    15903    15911    15916    15915    15908    15903    15903 
   15905    15907    15908    15911    15909    15905    15907    15908 
   15904    15904    15905    15904    15908    15913    15905    15897 
   15900    15909    15909    15908    15911    15909    15907    15905 
   15903    15901    15908    15912    15913    15915    15912    15908 
   15908    15909    15909    15908    15911    15913    15908    15905 
   15908    15907    15911    15913    15912    15915    15913    15911 
   15912    15912    15909    15909    15915    15919    15917    15913 
   15913    15916    15917    15913    15913    15919    15916    15915 
   15915    15915    15916    15916    15913    15915    15917    15921 
   15924    15921    15917    15916    15913    15912    15915    15921 
   15928    15928    15923    15916    15915    15912    15913    15917 
   15920    15924    15928    15924    15920    15920    15912    15907 
   15913    15917    15919    15924    15927    15921    15916    15919 
   15920    15919    15917    15915    15916    15920    15920    15915 
   15909    15912    15920    15924    15921    15923    15916    15907 
   15907    15912    15917    15927    15930    15925    15919    15911 
   15907    15912    15916    15916    15916    15919    15921    15919 
   15912    15911    15912    15916    15917    15919    15921    15917 
   15912    15911    15913    15917    15915    15912    15913    15912 
   15911    15913    15913    15912    15912    15913    15913    15915 
   15913    15913    15912    15908    15907    15911    15913    15913 
   15917    15917    15909    15904    15909    15913    15915    15916 
   15916    15915    15915    15915    15916    15917    15915    15916 
   15916    15908    15905    15909    15911    15913    15916    15916 
   15912    15911    15913    15912    15912    15913    15916    15913 
   15907    15905    15909    15912    15912    15912    15911    15911 
   15912    15911    15911    15911    15907    15901    15903    15907 
   15909    15912    15913    15909    15908    15911    15908    15905 
   15908    15907    15903    15903    15908    15915    15912    15909 
   15913    15912    15905    15904    15905    15905    15909    15915 
   15916    15915    15913    15911    15909    15911    15912    15913 
   15913    15915    15912    15905    15908    15915    15916    15916 
   15915    15909    15907    15907    15908    15909    15911    15912 
   15917    15920    15919    15916    15921    15942    15978    16016 
   16033    16001    15917    15834    15826    15940    16147    16318 
   16220    15622    14631    13834    13944    15151    16864    18245 
   18742    18068    16441    14845    14180    14308    14642    15145 
   16087    17081    17328    16931    16548    16077    15241    14553 
   14727    15778    16879    17267    16939    16209    15446    14878 
   14543    14557    14843    15422    16478    17643    18607    19033 
   17895    15269    12876    12013    12864    14862    17045    18567 
   18882    17998    16445    14985    14192    13614    12862    12900 
   14304    16486    18447    18979    18127    17236    16528    15531 
   14897    15087    15581    16029    15677    14557    14979    17217 
   18744    18804    17822    16463    15865    15283    14440    15319 
   17524    18886    19287    18875    16787    12744     8606     8318 
   13059    18582    20818    19541    16465    13527    11595    10663 
   11364    13776    16348    18222    19415    19057    17687    17532 
   18088    16783    13489    10889    11182    13610    16391    18887 
   20013    18686    16182    14644    15219    17915    21074    23269 
   24553    23302    16942     6432    -3130    -4955     3883    18108 
   29116    32406    28856    21456    12715     5911     5015    10642 
   18854    24433    24815    21181    15838    10609     7350     7217 
   10004    14862    20360    24692    26187    23391    16700     9513 
    5420     5651     9533    15237    20999    25591    26669    22752 
   16401    11233     8856     9192    10902    13239    16787    20781 
   22624    20579    15738    11902    11816    13597    14567    15531 
   17402    18800    18790    17944    17097    16761    16595    15130 
   12559    12029    14285    16228    16448    15876    15692    17157 
   19214    19197    17679    16673    15662    14617    14858    15705 
   15940    15722    15249    14374    12737    11068    11709    14935 
   18145    19958    20879    20418    17648    14088    11719    10782 
   12579    17625    22045    22385    18982    13972    10584    10589 
   12600    15178    17838    19492    19025    17122    15673    15245 
   15400    15654    15298    15452    17568    19479    18522    15348 
   12333    11557    13046    14790    16136    17887    19467    20112 
   19782    17693    14108    10998     9455    10385    14075    17782 
   19448    20167    20270    18993    16713    14521    13637    14430 
   15697    15919    14679    13069    12757    14354    17051    19575 
   20638    19431    16521    13554    12263    13367    15458    16168 
   14931    13432    13512    15396    17635    18630    18769    19840 
   21176    19788    15457    11168     9675    12032    16206    18395 
   17506    15380    13869    13765    14839    16324    17996    19523 
   19290    16436    12621    10534    12094    16753    20922    21150 
   17834    14103    12312    13401    16654    19530    20028    17713 
   13755    10874    10324    11692    14793    17670    17953    16621 
   15720    15762    16638    17799    18149    17346    16146    14983 
   13811    13217    14168    16623    18739    18513    16590    15678 
   16938    18600    18895    18423    18270    17693    15010    10844 
    8434     9612    13603    18477    20919    19391    16811    15321 
   14304    14357    15813    17513    18724    17883    14686    12397 
   12502    13474    15093    17181    18123    17577    16262    14939 
   14789    15832    16900    17286    16640    15368    14580    14355 
   14118    14446    16174    18385    19060    17331    14451    12727 
   13527    16190    18821    20220    20102    18056    14671    12148 
   11981    14065    16833    17539    15971    15098    15934    16969 
   17302    16788    15653    14349    13462    14160    16865    19727 
   20352    18647    16360    14350    12552    11722    12665    14953 
   17463    18771    18404    17517    16366    14407    12367    11337 
   12893    17200    20224    19575    17820    16680    15423    13477 
   11695    12502    16320    19406    19179    18065    18311    17589 
   13995    10336    10057    13319    17675    20069    19575    17690 
   15476    13610    13393    15080    17498    19368    19592    17633 
   14994    13678    12984    12557    14210    16956    18158    17826 
   16735    15700    15546    15553    15392    15665    15935    15873 
   15898    16166    16775    17431    17101    15534    14249    14561 
   15839    17039    17729    17311    15680    13900    12966    12893 
   13501    15110    17506    19376    19735    18534    16339    14554 
   14111    14453    15153    16060    16509    16541    16591    16210 
   15348    14503    13760    14307    17138    19785    19566    17375 
   15039    13381    13134    14486    16576    17961    17448    15546 
   14355    15014    16324    16677    15907    15006    15018    15614 
   15844    16156    16978    17281    16379    14994    14416    15234 
   16309    15986    14918    15311    17039    17745    16692    15269 
   14428    14528    15377    15697    15438    15816    16567    17159 
   17984    18778    18616    16907    14129    12001    11954    13710 
   15897    17247    17180    16189    15246    14845    15545    17340 
   18702    18708    17784    16032    13898    13050    14204    15795 
   16391    16190    15709    15774    17003    18179    17930    16320 
   14015    12355    12584    14335    16224    17174    17124    16831 
   16916    17347    17626    17304    16395    15392    14644    14311 
   14762    15676    16148    16047    15533    15021    15418    16579 
   17334    16879    15579    14785    14890    15041    15210    15858 
   16719    17582    18034    17324    16399    16546    16750    16248 
   15834    15680    15273    14121    12741    13061    15388    17493 
   17953    17277    16413    15828    15145    14125    13714    14546 
   15854    16870    17456    17656    17674    17274    16075    14972 
   15095    16143    17159    17585    17521    17127    15934    14002 
   12521    12596    14364    16582    17671    17809    18037    17764 
   16074    13942    12727    12861    14192    15604    16303    17118 
   18233    18330    16915    15060    14106    14467    15421    16089 
   16379    16582    16582    16200    15797    15581    15326    15444 
   16275    16935    16795    16047    14985    14416    14797    15565 
   16456    17045    16444    15032    13810    13382    14837    18085 
   20524    20250    17941    15201    13219    12236    12217    13589 
   15795    17204    17398    17217    17177    17188    16903    16316 
   15969    16220    16943    17697    17749    16660    15067    14343 
   15165    16746    17768    17604    16218    13779    11376    10731 
   12221    14812    17423    19022    18844    17257    15510    14828 
   15742    17419    18372    18054    16680    14627    12914    12553 
   13576    15553    17934    19660    19926    18827    16621    14053 
