Origin Time       2025/03/28 03:50:00
Lat.              35.403
Long.             140.360
Depth. (km)       54
Mag.              4.4
Station Code      CHB011
Station Lat.      35.5877
Station Long.     140.4971
Station Height(m) 2
Record Time       2025/03/28 03:50:55
Sampling Freq(Hz) 100Hz
Duration Time(s)  67
Dir.              U-D
Scale Factor      7845(gal)/8223790
Max. Acc. (gal)   4.838
Last Correction   2025/03/28 03:50:54
Memo.             
[...]
  -14188   -14197   -14191   -14180   -14173   -14184   -14192   -14179 
  -14184   -14196   -14181   -14172   -14188   -14191   -14176   -14173 
  -14183   -14188   -14183   -14169   -14165   -14176   -14189   -14195 
  -14180   -14157   -14168   -14204   -14204   -14175   -14170   -14181 
  -14180   -14179   -14185   -14184   -14175   -14181   -14192   -14185 
  -14177   -14181   -14179   -14175   -14177   -14176   -14183   -14195 
  -14195   -14196   -14185   -14161   -14165   -14192   -14204   -14200 
  -14191   -14183   -14180   -14184   -14195   -14200   -14188   -14185 
  -14199   -14195   -14183   -14183   -14192   -14206   -14197   -14175 
  -14181   -14196   -14197   -14199   -14203   -14195   -14172   -14169 
  -14202   -14219   -14192   -14165   -14192   -14219   -14193   -14176 
  -14197   -14192   -14168   -14187   -14215   -14195   -14168   -14189 
  -14207   -14184   -14170   -14181   -14193   -14191   -14176   -14173 
  -14188   -14195   -14185   -14177   -14181   -14175   -14166   -14188 
  -14196   -14183   -14191   -14193   -14172   -14177   -14195   -14192 
  -14188   -14184   -14176   -14180   -14181   -14187   -14196   -14181 
  -14176   -14192   -14183   -14176   -14204   -14211   -14177   -14164 
  -14175   -14177   -14189   -14208   -14189   -14161   -14173   -14189 
  -14183   -14189   -14192   -14179   -14180   -14185   -14176   -14181 
  -14207   -14211   -14179   -14164   -14183   -14193   -14195   -14197 
  -14187   -14169   -14169   -14184   -14191   -14188   -14195   -14192 
  -14170   -14175   -14192   -14183   -14184   -14199   -14188   -14169 
  -14175   -14191   -14193   -14183   -14188   -14196   -14181   -14168 
  -14179   -14193   -14192   -14177   -14166   -14180   -14189   -14175 
  -14172   -14180   -14176   -14179   -14196   -14196   -14183   -14183 
  -14192   -14181   -14165   -14175   -14189   -14188   -14184   -14179 
  -14170   -14169   -14187   -14203   -14183   -14164   -14179   -14189 
  -14187   -14195   -14191   -14164   -14162   -14189   -14196   -14187 
  -14184   -14180   -14185   -14197   -14179   -14154   -14172   -14195 
  -14195   -14185   -14173   -14179   -14196   -14193   -14176   -14177 
  -14191   -14193   -14202   -14195   -14169   -14173   -14196   -14197 
  -14185   -14177   -14189   -14203   -14193   -14187   -14185   -14180 
  -14187   -14193   -14187   -14188   -14197   -14195   -14187   -14187 
  -14191   -14187   -14180   -14183   -14197   -14196   -14183   -14184 
  -14188   -14181   -14185   -14195   -14195   -14192   -14191   -14183 
  -14177   -14189   -14197   -14189   -14179   -14170   -14173   -14188 
  -14196   -14193   -14181   -14175   -14179   -14180   -14181   -14193 
  -14196   -14183   -14175   -14181   -14192   -14202   -14192   -14170 
  -14176   -14191   -14183   -14193   -14207   -14176   -14166   -14192 
  -14187   -14176   -14181   -14183   -14193   -14199   -14179   -14170 
  -14184   -14192   -14187   -14177   -14168   -14170   -14189   -14197 
  -14192   -14188   -14175   -14165   -14185   -14200   -14189   -14180 
  -14183   -14187   -14185   -14184   -14191   -14188   -14176   -14179 
  -14176   -14166   -14179   -14202   -14202   -14183   -14173   -14172 
  -14173   -14189   -14202   -14196   -14188   -14181   -14184   -14187 
  -14180   -14181   -14187   -14181   -14185   -14193   -14185   -14176 
  -14184   -14191   -14180   -14172   -14187   -14196   -14183   -14181 
  -14188   -14188   -14187   -14181   -14177   -14180   -14185   -14195 
  -14196   -14184   -14179   -14180   -14187   -14195   -14192   -14181 
  -14179   -14189   -14188   -14169   -14170   -14185   -14183   -14179 
  -14188   -14187   -14173   -14179   -14195   -14189   -14177   -14181 
  -14189   -14191   -14187   -14183   -14181   -14181   -14184   -14187 
  -14180   -14184   -14203   -14191   -14168   -14176   -14191   -14195 
  -14200   -14195   -14185   -14181   -14175   -14185   -14203   -14193 
  -14184   -14181   -14177   -14185   -14191   -14189   -14187   -14181 
  -14179   -14184   -14191   -14193   -14189   -14189   -14195   -14183 
  -14165   -14176   -14200   -14199   -14177   -14168   -14185   -14199 
  -14185   -14179   -14195   -14191   -14180   -14195   -14196   -14168 
  -14172   -14196   -14184   -14172   -14193   -14200   -14179   -14172 
  -14187   -14180   -14166   -14185   -14203   -14192   -14183   -14185 
  -14180   -14170   -14185   -14199   -14181   -14175   -14188   -14188 
  -14183   -14195   -14197   -14180   -14176   -14185   -14188   -14188 
  -14183   -14179   -14183   -14185   -14189   -14197   -14197   -14189 
  -14184   -14181   -14183   -14192   -14193   -14179   -14173   -14181 
  -14193   -14195   -14184   -14180   -14183   -14188   -14197   -14200 
  -14191   -14184   -14192   -14192   -14183   -14185   -14195   -14188 
  -14173   -14180   -14195   -14181   -14169   -14184   -14196   -14195 
  -14191   -14187   -14187   -14180   -14180   -14199   -14197   -14169 
  -14173   -14197   -14195   -14184   -14185   -14191   -14193   -14193 
  -14193   -14188   -14180   -14183   -14195   -14189   -14164   -14170 
  -14204   -14202   -14185   -14188   -14183   -14176   -14192   -14199 
  -14179   -14165   -14180   -14197   -14188   -14170   -14187   -14200 
  -14180   -14173   -14188   -14189   -14193   -14202   -14187   -14169 
  -14173   -14188   -14199   -14191   -14176   -14176   -14179   -14179 
  -14181   -14183   -14188   -14187   -14175   -14176   -14192   -14195 
  -14184   -14184   -14199   -14191   -14175   -14185   -14185   -14179 
  -14187   -14181   -14177   -14196   -14196   -14176   -14179   -14191 
  -14183   -14170   -14177   -14199   -14191   -14164   -14179   -14204 
  -14191   -14180   -14181   -14179   -14183   -14188   -14187   -14185 
  -14180   -14183   -14187   -14172   -14166   -14180   -14189   -14188 
  -14176   -14170   -14180   -14192   -14192   -14181   -14188   -14200 
  -14185   -14179   -14193   -14191   -14180   -14183   -14181   -14176 
  -14175   -14177   -14187   -14188   -14185   -14191   -14188   -14177 
  -14184   -14193   -14188   -14189   -14189   -14180   -14180   -14180 
  -14183   -14197   -14197   -14181   -14173   -14179   -14188   -14189 
  -14172   -14156   -14134   -14075   -14013   -14002   -14026   -14058 
  -14125   -14211   -14235   -14176   -14126   -14175   -14327   -14555 
  -14770   -14832   -14740   -14586   -14334   -13937   -13616   -13595 
  -13755   -13838   -13825   -13936   -14341   -14862   -14948   -14380 
  -13855   -13950   -14265   -14283   -13948   -13676   -14002   -14521 
  -14334   -13672   -13605   -14466   -15398   -15265   -14241   -13765 
  -14239   -14570   -14284   -13813   -13548   -13613   -13702   -13656 
  -13670   -13950   -14655   -15276   -15190   -14793   -14508   -13981 
  -13192   -12889   -13279   -13814   -14434   -15109   -15118   -14431 
  -13979   -13956   -13821   -13666   -13925   -14268   -14220   -14338 
  -14997   -15225   -14605   -13954   -13833   -14235   -14465   -13787 
  -12752   -12656   -13784   -14777   -14728   -14492   -14720   -15087 
  -15071   -14305   -13200   -12749   -13377   -14261   -14273   -13942 
  -14445   -15153   -15114   -14766   -14436   -13956   -13783   -14127 
  -14285   -14100   -13910   -13629   -13589   -14158   -14592   -14551 
  -14602   -14728   -14809   -14796   -14399   -13934   -13636   -13409 
  -13572   -13926   -13981   -13983   -14164   -14296   -14291   -14269 
  -14277   -14332   -14531   -14613   -14030   -13387   -13682   -14172 
  -13969   -13844   -14424   -14951   -14949   -14808   -14542   -14243 
  -14241   -14270   -14162   -14122   -14034   -13907   -13868   -13736 
  -13842   -14339   -14439   -14125   -14013   -14084   -14125   -13971 
  -13733   -13957   -14584   -14890   -14620   -13994   -13647   -13973 
  -14197   -14062   -14230   -14501   -14497   -14403   -14380   -14405 
  -14314   -14257   -14427   -14349   -13972   -13950   -14241   -14350 
  -14188   -13838   -13564   -13710   -14084   -14211   -14057   -13810 
  -13817   -14324   -14794   -14839   -14683   -14337   -13886   -13620 
  -13563   -13768   -14265   -14473   -14246   -14488   -15137   -15151 
  -14436   -13678   -13378   -13667   -14335   -14717   -14369   -13907 
  -13791   -13824   -14111   -14395   -14122   -13872   -14291   -14686 
  -14693   -14696   -14268   -13475   -13371   -13791   -13872   -13678 
  -13825   -14404   -14890   -15120   -15091   -14600   -13999   -14025 
  -14470   -14516   -14211   -13848   -13608   -13991   -14580   -14669 
  -14501   -14288   -14069   -13956   -13714   -13528   -13918   -14257 
  -14180   -14411   -14446   -13776   -13520   -14004   -14364   -14318 
  -14265   -14283   -13938   -13555   -13868   -14303   -14301   -14330 
  -14270   -13999   -14179   -14627   -14539   -14230   -14366   -14596 
  -14400   -14087   -14149   -14327   -14126   -13849   -13833   -13837 
  -14056   -14467   -14303   -13756   -13691   -14027   -14135   -14006 
  -14219   -14638   -14592   -14515   -14879   -14836   -14157   -13768 
  -13745   -13849   -14357   -14879   -14971   -14889   -14566   -13927 
  -13641   -13903   -13859   -13481   -13660   -13965   -13690   -13686 
  -14304   -14646   -14574   -14615   -14724   -14557   -14073   -13655 
  -13494   -13284   -13227   -13806   -14540   -14816   -14855   -14889 
  -14763   -14578   -14573   -14499   -14110   -13801   -13860   -13911 
  -14007   -14472   -14521   -13807   -13603   -14242   -14589   -14494 
  -14535   -14439   -14025   -13887   -14048   -13971   -13780   -13841 
  -13878   -13743   -13960   -14370   -14446   -14642   -14891   -14513 
  -14104   -14264   -14307   -13757   -13185   -13236   -13548   -13635 
  -13861   -14382   -14953   -15533   -15839   -15344   -14341   -13890 
  -14050   -14118   -14084   -13990   -13756   -13698   -13791   -13798 
  -13909   -14041   -13849   -13599   -13724   -14224   -14732   -14922 
  -14918   -14756   -14413   -14253   -14372   -14357   -14042   -13826 
  -13919   -13999   -14026   -14270   -14542   -14511   -14372   -14312 
  -14069   -13782   -14033   -14588   -14748   -14563   -14223   -13659 
  -13248   -13416   -13855   -13977   -13787   -13849   -14326   -14744 
  -14779   -14463   -14075   -14161   -14634   -14837   -14581   -13996 
  -13549   -13635   -13757   -13651   -13711   -13838   -13851   -14249 
  -15061   -15480   -15217   -14702   -14197   -13694   -13284   -13365 
  -13977   -14276   -14056   -14192   -14774   -14874   -14243   -13733 
  -13918   -14485   -14889   -14877   -14756   -14769   -14609   -14154 
  -13481   -12849   -12753   -13166   -13846   -14493   -14566   -14376 
  -14584   -14905   -14995   -14827   -14297   -13840   -13872   -14056 
  -14196   -14307   -14166   -13830   -13535   -13394   -13567   -14035 
  -14446   -14419   -13969   -13610   -13765   -14176   -14455   -14646 
  -14655   -14459   -14446   -14530   -14393   -14303   -14478   -14548 
  -14370   -14292   -14233   -14126   -14261   -14272   -13910   -13621 
  -13587   -13765   -14006   -14154   -14196   -13968   -13651   -13644 
  -13699   -13501   -13248   -13255   -14014   -15597   -16664   -16187 
  -15126   -14488   -14160   -14143   -14281   -13895   -13235   -13196 
  -13641   -13838   -13814   -14127   -14693   -14939   -14935   -15036 
  -14997   -14473   -13729   -13320   -13343   -13408   -13352   -13331 
  -13443   -13879   -14539   -14924   -15142   -15506   -15624   -15238 
  -14717   -14423   -14284   -14011   -13844   -14131   -14315   -14018 
  -13608   -13192   -13089   -13666   -14260   -14332   -14206   -14121 
  -14277   -14740   -15005   -14797   -14277   -13693   -13609   -14103 
  -14420   -14251   -13852   -13446   -13327   -13630   -14141   -14485 
  -14310   -13899   -14031   -14651   -15093   -15134   -14852   -14432 
  -14108   -13972   -13957   -13797   -13493   -13374   -13520   -13842 
  -14122   -14268   -14605   -15045   -15095   -14837   -14542   -14323 
  -14350   -14389   -14108   -13687   -13402   -13439   -13941   -14675 
  -15272   -15511   -15148   -14392   -13826   -13435   -13065   -12937 
  -13022   -13208   -13668   -14399   -14967   -14960   -14623   -14539 
  -14748   -14762   -14314   -13699   -13512   -13942   -14507   -14704 
  -14485   -14150   -14069   -14122   -13979   -13832   -13898   -13998 
  -14108   -14385   -14586   -14272   -13598   -13293   -13564   -13926 
  -14169   -14247   -14219   -14704   -15562   -15642   -14821   -14148 
  -14146   -14314   -14065   -13528   -13225   -13358   -13626   -13737 
  -13717   -13741   -13953   -14289   -14563   -14690   -14704   -14769 
  -14893   -14751   -14241   -13797   -13706   -13718   -13726   -14006 
  -14542   -14879   -14716   -14230   -13959   -14176   -14427   -14463 
  -14621   -14736   -14316   -13521   -12907   -12834   -13325   -13884 
  -13959   -13857   -14242   -14949   -15408   -15518   -15402   -15113 
  -14758   -14349   -13856   -13460   -13146   -12815   -12904   -13482 
  -13782   -13721   -14215   -15363   -16132   -16060   -15526   -14877 
  -14346   -14037   -13957   -13983   -13778   -13211   -12575   -12264 
  -12334   -12571   -13008   -13720   -14513   -15261   -15843   -16129 
  -16348   -16506   -16043   -14891   -13722   -13012   -12695   -12415 
  -12017   -11889   -12343   -13028   -13707   -14720   -15919   -16507 
  -16503   -16478   -16204   -15487   -14870   -14423   -13734   -12972 
  -12456   -11842   -10971   -10737   -11940   -14092   -16143   -17518 
  -17868   -17107   -16116   -15813   -15874   -15535   -14315   -12044 
   -9769    -9113   -10166   -11858   -13458   -14588   -15233   -15677 
  -15844   -15642   -15561   -15890   -16205   -16117   -15580   -14612 
  -13567   -12993   -13090   -13703   -14202   -13822   -12737   -11515 
  -10376   -10250   -12325   -15786   -18449   -19211   -18214   -16220 
  -14555   -13981   -14131   -14206   -13466   -12055   -11014   -10824 
  -11213   -12054   -13273   -14507   -15379   -15950   -16686   -17594 
  -17945   -17321   -16067   -14569   -12972   -11547   -10613   -10214 
  -10656   -12366   -14652   -16298   -17007   -17057   -16694   -16121 
  -15333   -14235   -13073   -12376   -12405   -12853   -13342   -13709 
  -13752   -13431   -13167   -13437   -14080   -14430   -14357   -14480 
  -15105   -15826   -16225   -16235   -15996   -15638   -14997   -14053 
  -13139   -12245   -11368   -11102   -11894   -13419   -14715   -15020 
  -14697   -14674   -15299   -16158   -16580   -16386   -15869   -15093 
  -14027   -13038   -12475   -12332   -12510   -12788   -12757   -12375 
  -12167   -12641   -13755   -15044   -16239   -17134   -17147   -16123 
  -14773   -13801   -13464   -13765   -14301   -14401   -13752   -12708 
  -12123   -12583   -13764   -14914   -15545   -15437   -14659   -13562 
  -12738   -13014   -14505   -16137   -16922   -16625   -15384   -13759 
  -12444   -11632   -11194   -11265   -12136   -13556   -14774   -15337 
  -15421   -15402   -15383   -15336   -15444   -15692   -15662   -15319 
  -15045   -14872   -14563   -13996   -13162   -12252   -11753   -12002 
  -12600   -13042   -13463   -14007   -14625   -15430   -16144   -16162 
  -15525   -14881   -14578   -14486   -14459   -14382   -14112   -13618 
  -13023   -12623   -12649   -13026   -13628   -14343   -14905   -15161 
  -15248   -15336   -15367   -15138   -14670   -14196   -13659   -12779 
  -11804   -11466   -12000   -12937   -13890   -14787   -15450   -15615 
  -15485   -15556   -15863   -16083   -16046   -15745   -15178   -14307 
  -13288   -12421   -11866   -11873   -12582   -13410   -13740   -13705 
  -13721   -14037   -14592   -15003   -15007   -14636   -14158   -14154 
  -14859   -15681   -16008   -15731   -14985   -14004   -12969   -12043 
  -11551   -11759   -12640   -13903   -15160   -16141   -16649   -16509 
  -15786   -14856   -14250   -14270   -14469   -13968   -12721   -11762 
  -11766   -12387   -13192   -14069   -14758   -14959   -14835   -14739 
  -14758   -14674   -14250   -13690   -13541   -14030   -14824   -15313 
  -15084   -14427   -14130   -14481   -14944   -14886   -14189   -13331 
  -12908   -13065   -13608   -14328   -14982   -15319   -15271   -15033 
  -14937   -15049   -15033   -14631   -13946   -13198   -12622   -12452 
  -12680   -13116   -13645   -14148   -14530   -14713   -14566   -14291 
  -14274   -14384   -14216   -13849   -13624   -13610   -13678   -13679 
  -13610   -13792   -14489   -15431   -16089   -16163   -15763   -15226 
  -14632   -13868   -13234   -13113   -13288   -13397   -13455   -13629 
  -14046   -14619   -15024   -15087   -14909   -14574   -14133   -13811 
  -13772   -13836   -13705   -13296   -12860   -12735   -12982   -13396 
  -13797   -14202   -14638   -14989   -15187   -15223   -15095   -14964 
  -14986   -15053   -14993   -14783   -14461   -14048   -13672   -13539 
  -13663   -13930   -14289   -14566   -14535   -14374   -14430   -14607 
  -14612   -14422   -14216   -14099   -13984   -13753   -13373   -12884 
  -12542   -12648   -13115   -13649   -14106   -14368   -14381   -14374 
  -14497   -14620   -14755   -15006   -15206   -15191   -15059   -14863 
  -14538   -14226   -14112   -14064   -13830   -13374   -12955   -12970 
  -13494   -14139   -14486   -14547   -14616   -14756   -14744   -14535 
  -14365   -14373   -14445   -14428   -14395   -14497   -14578   -14369 
  -14008   -13764   -13513   -13167   -13049   -13351   -13933   -14639 
  -15245   -15479   -15253   -14663   -14037   -13751   -13813   -14035 
  -14407   -14773   -14731   -14254   -13744   -13440   -13381   -13547 
  -13763   -13952   -14254   -14629   -14789   -14600   -14287   -14165 
  -14277   -14355   -14165   -13732   -13365   -13410   -13849   -14281 
  -14359   -14073   -13640   -13373   -13481   -13821   -14087   -14165 
  -14110   -14127   -14485   -15130   -15693   -15930   -15859   -15568 
  -15140   -14675   -14249   -13873   -13506   -13176   -13036   -13107 
  -13225   -13369   -13572   -13740   -13909   -14296   -14881   -15379 
  -15538   -15217   -14482   -13666   -13096   -12901   -13045   -13358 
  -13649   -13830   -13938   -14057   -14162   -14274   -14612   -15186 
  -15620   -15661   -15477   -15348   -15255   -14926   -14299   -13578 
  -12937   -12509   -12467   -12876   -13594   -14272   -14600   -14701 
  -14855   -15052   -15168   -15107   -14759   -14146   -13452   -12866 
  -12588   -12708   -13088   -13581   -14073   -14397   -14575   -14777 
  -14971   -15063   -15082   -15118   -15230   -15311   -15129   -14615 
  -13967   -13432   -13143   -13169   -13462   -13790   -13983   -14058 
  -14083   -14104   -14161   -14300   -14503   -14624   -14520   -14203 
  -13818   -13497   -13371   -13520   -13817   -14073   -14265   -14465 
  -14704   -14941   -15097   -15093   -14912   -14586   -14160   -13734 
  -13516   -13621   -13898   -14162   -14391   -14559   -14592   -14459 
  -14148   -13717   -13428   -13455   -13652   -13861   -14091   -14316 
  -14497   -14655   -14740   -14625   -14280   -13880   -13644   -13562 
  -13543   -13624   -13818   -13963   -13977   -14062   -14407   -14901 
  -15315   -15489   -15394   -15167   -14940   -14661   -14272   -13836 
  -13446   -13228   -13262   -13477   -13759   -13934   -13888   -13791 
  -13875   -14138   -14476   -14781   -14970   -14995   -14805   -14422 
  -14022   -13698   -13414   -13270   -13420   -13790   -14202   -14604 
  -14970   -15223   -15341   -15336   -15179   -14820   -14264   -13663 
