Origin Time       2025/03/28 03:50:00
Lat.              35.403
Long.             140.360
Depth. (km)       54
Mag.              4.4
Station Code      CHB022
Station Lat.      35.3033
Station Long.     139.8555
Station Height(m) 12
Record Time       2025/03/28 03:50:59
Sampling Freq(Hz) 100Hz
Duration Time(s)  60
Dir.              U-D
Scale Factor      7845(gal)/8223790
Max. Acc. (gal)   2.696
Last Correction   2025/03/28 03:50:58
Memo.             
[...]
   11951    11958    11961    11955    11958    11956    11956    11962 
   11956    11952    11963    11969    11963    11959    11962    11967 
   11966    11963    11963    11955    11955    11963    11958    11948 
   11956    11973    11971    11966    11966    11966    11970    11967 
   11959    11958    11963    11966    11963    11965    11970    11958 
   11962    11978    11961    11939    11954    11963    11954    11954 
   11966    11971    11970    11971    11965    11955    11959    11970 
   11978    11981    11975    11969    11963    11965    11975    11982 
   11979    11977    11971    11966    11959    11955    11959    11962 
   11961    11963    11961    11956    11959    11961    11956    11959 
   11966    11974    11970    11955    11955    11977    11979    11965 
   11970    11975    11969    11973    11974    11977    11979    11967 
   11956    11961    11959    11962    11971    11973    11969    11969 
   11966    11959    11954    11950    11951    11962    11965    11959 
   11958    11959    11959    11956    11952    11958    11967    11966 
   11967    11979    11973    11955    11952    11962    11969    11969 
   11970    11974    11967    11963    11956    11954    11966    11967 
   11954    11951    11955    11954    11955    11959    11963    11962 
   11955    11950    11955    11958    11955    11954    11947    11954 
   11974    11974    11966    11963    11958    11959    11966    11970 
   11975    11969    11962    11971    11962    11943    11944    11947 
   11954    11963    11956    11954    11959    11951    11946    11947 
   11954    11966    11967    11961    11959    11955    11954    11963 
   11974    11981    11971    11955    11950    11959    11974    11981 
   11973    11958    11950    11947    11951    11961    11959    11958 
   11965    11963    11962    11970    11971    11965    11967    11967 
   11967    11974    11977    11974    11969    11963    11965    11965 
   11959    11958    11959    11956    11952    11958    11963    11961 
   11963    11967    11966    11962    11958    11952    11954    11969 
   11977    11969    11969    11975    11975    11973    11966    11965 
   11965    11961    11961    11973    11978    11966    11959    11963 
   11965    11967    11963    11954    11955    11956    11955    11965 
   11970    11967    11967    11966    11955    11954    11966    11975 
   11973    11970    11973    11977    11979    11977    11966    11963 
   11963    11958    11961    11967    11970    11971    11967    11959 
   11958    11958    11959    11958    11947    11951    11966    11969 
   11963    11965    11969    11974    11967    11952    11962    11981 
   11982    11974    11970    11963    11959    11965    11974    11975 
   11970    11961    11956    11966    11967    11959    11958    11955 
   11951    11950    11955    11967    11969    11962    11956    11955 
   11966    11978    11975    11974    11975    11970    11963    11962 
   11965    11973    11977    11969    11951    11952    11965    11958 
   11952    11955    11958    11961    11951    11950    11965    11963 
   11952    11956    11958    11955    11961    11962    11965    11975 
   11974    11965    11969    11971    11963    11958    11963    11962 
   11954    11963    11975    11971    11958    11950    11952    11954 
   11958    11966    11966    11959    11955    11956    11961    11961 
   11950    11946    11954    11970    11979    11974    11966    11967 
   11967    11963    11958    11961    11967    11967    11959    11961 
   11966    11962    11948    11944    11955    11961    11954    11952 
   11959    11958    11959    11961    11961    11962    11958    11966 
   11977    11966    11962    11971    11971    11970    11970    11962 
   11956    11961    11965    11965    11971    11975    11961    11954 
   11963    11961    11955    11959    11966    11970    11970    11967 
   11967    11962    11956    11962    11970    11973    11967    11962 
   11971    11975    11966    11963    11962    11958    11963    11971 
   11973    11967    11955    11952    11963    11966    11961    11965 
   11965    11958    11959    11970    11978    11970    11956    11956 
   11955    11948    11946    11935    11919    11904    11885    11867 
   11858    11853    11863    11897    11946    12008    12083    12167 
   12258    12343    12406    12436    12415    12318    12143    11952 
   11821    11728    11603    11502    11614    11932    12139    12086 
   12004    12066    12133    12020    11761    11592    11673    11805 
   11708    11510    11504    11666    11720    11470    11146    11299 
   12013    12687    12911    12924    13054    13198    12965    12289 
   11587    11138    10905    10957    11380    11862    12021    12033 
   12299    12656    12640    12209    11797    11790    11935    11704 
   11376    11616    12131    12197    11882    11668    11799    12197 
   12433    12235    11934    11916    12135    12260    12013    11557 
   11381    11618    11859    11881    11950    12144    12197    12197 
   12353    12421    12272    12178    12152    12002    11762    11545 
   11410    11373    11325    11267    11508    12066    12341    12117 
   12074    12503    12681    12247    11794    11724    11755    11692 
   11762    12027    12108    11982    12210    12738    12834    12451 
   12120    11884    11688    11784    11986    11897    11750    11853 
   11970    11892    11678    11419    11292    11430    11654    11789 
   11925    12198    12506    12460    11989    11734    11971    12114 
   11952    12012    12375    12417    12029    11955    12298    12164 
   11462    11260    11820    12194    12029    11839    11808    11842 
   11911    11875    11800    12004    12413    12472    12071    11871 
   12086    12024    11562    11365    11569    11855    12148    12372 
   12403    12278    12139    12174    12178    11859    11750    12058 
   11940    11519    11701    11996    11731    11583    11863    12013 
   11997    12051    12113    12167    12172    12089    12017    11843 
   11583    11685    12098    12198    12033    12117    12306    12241 
   12087    11970    11782    11685    11757    11746    11645    11743 
   12101    12276    11916    11600    11946    12256    11880    11631 
   12136    12610    12406    12010    11982    12162    12113    11742 
   11394    11423    11786    12108    12179    12154    12143    12043 
   11902    11875    11884    11832    11870    12116    12375    12344 
   12097    11912    11704    11294    11024    11396    12102    12334 
   12197    12339    12522    12347    12129    11993    11793    11670 
   11589    11507    11732    12159    12291    12151    12108    12244 
   12301    12063    11751    11753    12025    12124    11875    11769 
   12132    12339    11890    11425    11530    11835    12005    12220 
   12471    12494    12255    11925    11626    11438    11427    11526 
   11583    11635    11836    12158    12448    12583    12507    12312 
   12190    12167    12081    11983    12029    11898    11376    11079 
   11394    11793    11936    12004    12035    12070    12236    12290 
   12043    11831    11796    11794    11982    12370    12496    12213 
   11917    11816    11686    11485    11557    11965    12205    12004 
   11839    12104    12361    12205    12009    11998    11819    11564 
   11688    12008    12106    12051    11959    11896    12083    12456 
   12544    12225    11875    11723    11574    11276    11159    11523 
   11909    11932    12113    12609    12708    12401    12271    12181 
   11803    11430    11400    11650    11853    11832    11882    12209 
   12464    12370    12144    12005    11927    11816    11720    11778 
   11869    11819    11853    12064    12081    11901    12043    12420 
   12380    11970    11824    12032    12117    11853    11543    11542 
   11732    11843    11935    12060    12081    11962    11781    11772 
   12187    12681    12587    12096    11878    11823    11562    11361 
   11464    11736    12077    12322    12298    12168    12187    12401 
   12638    12576    12229    12027    11993    11847    11653    11468 
   11240    11179    11399    11711    12016    12240    12272    12181 
   12028    11821    11654    11581    11634    11853    12190    12529 
   12660    12441    12028    11676    11481    11453    11677    12189 
   12729    12987    12923    12633    12162    11562    10993    10681 
   10808    11384    12140    12583    12519    12390    12467    12255 
   11588    11183    11399    11836    12179    12367    12422    12420 
   12231    11724    11175    10959    11156    11453    11545    11754 
   12364    12721    12429    12185    12387    12545    12394    12233 
   12212    12154    11998    11859    11773    11715    11749    11943 
   12260    12452    12228    11851    11803    11855    11634    11507 
   11761    11935    11816    11866    12260    12540    12325    11766 
   11354    11395    11651    11769    11832    12060    12275    12248 
   12213    12372    12379    11978    11589    11564    11704    11882 
   12113    12247    12245    12148    11938    11780    11746    11713 
   11790    11928    11785    11561    11758    12222    12430    12270 
   12048    12037    12178    12179    12020    11998    12054    11846 
   11574    11584    11681    11772    12017    12174    11982    11786 
   11975    12305    12248    11851    11707    12064    12482    12384 
   11867    11605    11770    11827    11570    11422    11668    12086 
   12290    12171    12085    12325    12482    12110    11655    11651 
   11831    11878    11936    12048    12163    12334    12425    12222 
   11804    11403    11284    11526    11758    11781    12074    12746 
   13014    12606    12136    11823    11495    11317    11313    11340 
   11668    12220    12330    12108    12182    12326    12118    11808 
   11650    11637    11740    11832    11907    12133    12348    12278 
   12116    12006    11774    11599    11821    12202    12310    12179 
   12136    12228    12140    11817    11557    11411    11254    11259 
   11611    12140    12563    12753    12738    12538    12164    11858 
   11843    11902    11857    11875    11908    11786    11734    11848 
   11831    11697    11773    12015    12172    12236    12217    12129 
   12123    12100    11843    11530    11485    11677    11777    11774 
   11988    12270    12337    12474    12727    12668    12366    12166 
   11925    11542    11334    11373    11381    11381    11685    12199 
   12418    12229    12124    12225    12037    11618    11607    11975 
   12213    12194    11939    11546    11338    11337    11326    11437 
   11821    12229    12436    12546    12640    12617    12453    12172 
   11936    12052    12394    12533    12459    12264    11853    11435 
   11276    11122    10936    11156    11668    12006    12275    12569 
   12611    12383    12039    11670    11476    11539    11707    11878 
   12060    12226    12298    12205    12089    12147    12237    12145 
   12019    12021    11994    11855    11808    11831    11774    11831 
   12069    12121    11904    11762    11809    11853    11870    11985 
   12133    12171    12085    11955    11947    12156    12316    12221 
   12117    12058    11774    11439    11438    11661    11784    11850 
   12027    12114    11881    11719    11977    12167    12010    12029 
   12325    12414    12239    12063    11966    11909    11772    11560 
   11574    11846    12028    12020    11975    11919    11901    12013 
   12093    12008    11948    12024    12087    12021    11902    11931 
   12078    12008    11666    11456    11558    11753    11932    12139 
   12324    12360    12201    12025    12001    12008    11969    11967 
   12016    12209    12457    12259    11662    11349    11354    11269 
   11294    11703    12224    12617    12837    12788    12546    12253 
   11898    11693    11793    11784    11534    11545    11797    11850 
   11882    12181    12475    12465    12163    11767    11546    11442 
   11245    11156    11391    11762    12125    12457    12591    12480 
   12352    12245    12060    11965    12060    12155    12239    12444 
   12610    12563    12401    12202    11938    11645    11372    11218 
   11349    11658    11865    12039    12285    12337    12170    12047 
   11834    11394    11041    10935    10952    11099    11384    11738 
   12120    12534    12957    13111    12800    12426    12312    12145 
   11793    11587    11626    11716    11749    11655    11581    11809 
   12181    12421    12756    13236    13329    12831    12163    11666 
   11298    10895    10594    10737    11246    11720    12125    12538 
   12654    12384    12151    12083    11951    11866    12175    12679 
   12741    12231    11665    11325    10968    10589    10636    11237 
   11994    12665    13246    13516    13190    12341    11408    10822 
   10636    10848    11608    12590    13031    12823    12440    11954 
   11292    10841    10916    11429    12154    12658    12706    12664 
   12672    12352    11854    11695    11734    11666    11839    12395 
   12752    12700    12619    12492    12046    11419    10986    10994 
   11321    11591    11962    12695    13045    12498    11753    11257 
   10862    10793    11196    11770    12438    13053    13166    12852 
   12374    11620    10845    10625    10779    10902    11364    12464 
   13786    14715    14789    14042    12962    11765    10461     9498 
    9292     9676    10439    11458    12401    12973    13189    13136 
   12843    12370    11790    11236    10864    10760    11022    11645 
   12299    12669    12753    12549    12094    11816    12006    12388 
   12698    12957    13186    13246    12981    12568    12264    11904 
   11361    10939    10806    10794    10824    11024    11403    11713 
   11827    11912    11974    11827    11581    11497    11607    11873 
   12294    12721    12907    12839    12615    12249    11894    11723 
   11715    11796    11824    11701    11668    11911    12155    12179 
   12255    12550    12696    12442    12044    11807    11703    11502 
   11277    11377    11742    12013    12087    12050    11961    11727 
   11288    11001    11227    11793    12336    12725    13015    13236 
   13189    12768    12313    12100    11971    11850    11916    12121 
   12198    12105    11902    11518    11005    10531    10218    10309 
   10860    11560    12197    12735    13096    13194    13011    12660 
   12321    12044    11749    11529    11624    11908    12046    12042 
   11959    11751    11604    11639    11681    11755    11928    11935 
   11724    11550    11460    11445    11685    12190    12664    12910 
   13008    13011    12835    12519    12208    11920    11616    11412 
   11429    11531    11596    11728    11992    12220    12236    12212 
   12361    12364    11993    11645    11492    11381    11365    11443 
   11627    12005    12312    12232    11920    11666    11515    11565 
   11978    12484    12776    12984    13115    12808    12021    11179 
   10538    10201    10312    10855    11774    12879    13734    14079 
   13925    13335    12401    11396    10633    10253    10368    10936 
   11585    12062    12433    12681    12595    12159    11704    11546 
   11701    11981    12226    12441    12626    12642    12475    12272 
   12101    11934    11755    11699    11838    11916    11796    11649 
   11487    11345    11452    11689    11734    11673    11696    11700 
   11655    11704    11819    11940    12150    12368    12409    12256 
   12035    11917    11959    12052    12209    12475    12672    12673 
   12577    12469    12264    11904    11542    11365    11354    11462 
   11808    12390    12926    13228    13277    13066    12699    12247 
   11685    11124    10693    10432    10417    10581    10728    10818 
   10951    11240    11704    12163    12482    12777    13111    13363 
   13389    13173    12879    12503    11859    11152    10840    10864 
   10944    11241    11858    12395    12557    12415    12040    11561 
   11263    11286    11569    12059    12650    13092    13165    12907 
   12534    12262    12166    12132    12090    12064    11981    11788 
   11551    11334    11161    11020    10851    10781    11060    11605 
   12081    12361    12519    12577    12537    12401    12183    12006 
   12020    12187    12359    12506    12667    12784    12710    12433 
   12152    11884    11441    11010    10925    11013    11080    11383 
   11904    12172    12124    12091    12117    12067    12081    12272 
   12442    12438    12333    12218    12132    12040    11955    12042 
   12310    12515    12482    12220    11875    11599    11342    11041 
   10901    11088    11353    11429    11466    11619    11742    11767 
   11843    11986    12116    12279    12479    12564    12541    12568 
   12582    12438    12287    12298    12359    12407    12491    12467 
   12198    11824    11506    11222    11030    11086    11367    11778 
   12193    12364    12260    12055    11731    11317    11140    11377 
   11786    12055    12104    12064    12005    11846    11641    11576 
   11672    11811    11934    12075    12216    12247    12208    12237 
   12353    12552    12841    13074    13100    12904    12521    12048 
   11661    11408    11248    11232    11345    11418    11445    11589 
   11774    11766    11600    11499    11531    11631    11811    12132 
   12498    12721    12748    12644    12483    12295    12098    12005 
   12102    12293    12393    12302    12042    11651    11151    10768 
   10805    11188    11684    12212    12652    12856    12812    12569 
   12208    11842    11556    11429    11515    11755    12073    12434 
   12739    12860    12748    12449    12046    11654    11402    11279 
   11279    11475    11618    11418    11141    11063    11038    11087 
   11439    12006    12514    12846    12923    12729    12402    12055 
   11781    11711    11817    11965    12078    12127    12097    11996 
   11877    11813    11842    11959    12074    12100    12096    12086 
   11952    11724    11637    11740    11866    11977    12151    12356 
   12478    12498    12514    12519    12425    12318    12276    12201 
   12114    12109    12054    11897    11800    11697    11434    11180 
   11117    11183    11352    11618    11889    12083    12124    12043 
   11974    11911    11805    11786    11965    12239    12407    12401 
   12264    12027    11732    11510    11446    11541    11777    12116 
   12455    12694    12773    12679    12496    12320    12155    12079 
   12150    12228    12262    12263    12028    11512    11106    11021 
   11029    11056    11287    11641    11803    11709    11585    11593 
   11707    11857    12036    12249    12449    12553    12483    12291 
   12128    12019    11907    11869    11979    12198    12445    12634 
   12715    12658    12394    11981    11681    11574    11496    11491 
   11672    11853    11888    11897    11907    11846    11759    11680 
   11601    11618    11718    11724    11658    11680    11745    11754 
   11726    11711    11819    12110    12456    12718    12888    12991 
   12999    12833    12494    12114    11797    11592    11570    11723 
