Origin Time       2025/03/28 03:50:00
Lat.              35.403
Long.             140.360
Depth. (km)       54
Mag.              4.4
Station Code      CHB008
Station Lat.      35.6556
Station Long.     139.9027
Station Height(m) 0
Record Time       2025/03/28 03:51:00
Sampling Freq(Hz) 100Hz
Duration Time(s)  60
Dir.              U-D
Scale Factor      7845(gal)/8223790
Max. Acc. (gal)   2.211
Last Correction   2025/03/28 03:50:59
Memo.             
[...]
    6322     6307     6338     6394     6450     6465     6442     6435 
    6438     6413     6409     6444     6457     6439     6424     6374 
    6326     6363     6408     6382     6355     6316     6237     6203 
    6216     6231     6264     6319     6359     6370     6361     6365 
    6411     6471     6493     6457     6393     6367     6400     6454 
    6493     6496     6461     6417     6388     6366     6335     6313 
    6347     6408     6431     6407     6353     6315     6324     6349 
    6353     6343     6351     6373     6400     6411     6376     6312 
    6278     6319     6394     6421     6384     6338     6322     6338 
    6369     6390     6397     6386     6369     6373     6412     6447 
    6428     6400     6404     6388     6367     6376     6370     6345 
    6361     6390     6381     6378     6404     6403     6378     6381 
    6412     6440     6447     6424     6386     6372     6381     6400 
    6415     6403     6361     6313     6272     6257     6250     6239 
    6262     6284     6282     6299     6315     6334     6399     6450 
    6453     6447     6438     6430     6447     6478     6492     6481 
    6463     6424     6394     6403     6392     6370     6388     6407 
    6384     6357     6347     6326     6315     6342     6365     6374 
    6392     6396     6370     6343     6335     6315     6291     6304 
    6327     6327     6357     6377     6342     6340     6361     6359 
    6393     6438     6440     6417     6388     6359     6345     6369 
    6411     6415     6403     6397     6380     6358     6366     6403 
    6423     6424     6447     6454     6409     6392     6428     6435 
    6440     6465     6423     6384     6404     6382     6342     6331 
    6289     6251     6265     6277     6286     6311     6311     6292 
    6291     6293     6309     6355     6377     6382     6412     6428 
    6427     6439     6440     6409     6397     6413     6408     6415 
    6444     6443     6415     6407     6413     6423     6450     6461 
    6423     6392     6389     6381     6380     6374     6345     6303 
    6274     6261     6255     6268     6288     6285     6282     6299 
    6312     6342     6397     6435     6448     6461     6442     6397 
    6394     6416     6411     6412     6420     6393     6365     6363 
    6362     6374     6411     6416     6381     6355     6343     6339 
    6342     6346     6355     6353     6365     6404     6416     6401 
    6378     6347     6347     6389     6415     6394     6351     6318 
    6305     6319     6345     6363     6384     6404     6405     6401 
    6399     6381     6358     6355     6355     6349     6358     6386 
    6400     6393     6396     6409     6405     6378     6362     6362 
    6357     6367     6390     6382     6358     6366     6382     6380 
    6389     6427     6453     6444     6421     6408     6394     6378 
    6378     6374     6340     6309     6311     6319     6313     6328 
    6347     6328     6316     6354     6392     6411     6430     6431 
    6423     6415     6399     6389     6376     6359     6373     6394 
    6404     6423     6436     6420     6415     6435     6431     6401 
    6392     6394     6385     6378     6384     6393     6385     6338 
    6300     6304     6307     6300     6297     6297     6295     6295 
    6334     6366     6335     6327     6363     6382     6396     6412 
    6420     6431     6435     6432     6417     6399     6426     6466 
    6450     6413     6385     6362     6378     6413     6421     6407 
    6394     6392     6392     6404     6411     6388     6355     6328 
    6318     6315     6286     6274     6307     6336     6338     6327 
    6320     6312     6309     6339     6381     6408     6426     6443 
    6470     6481     6443     6386     6353     6366     6417     6459 
    6465     6438     6400     6374     6367     6385     6401     6390 
    6399     6415     6388     6349     6320     6300     6297     6316 
    6350     6357     6334     6324     6338     6359     6380     6382 
    6380     6385     6393     6403     6381     6326     6313     6362 
    6413     6455     6478     6430     6345     6313     6339     6373 
    6416     6447     6412     6355     6350     6358     6339     6322 
    6313     6326     6347     6338     6304     6284     6288     6316 
    6374     6462     6544     6565     6538     6507     6500     6532 
    6588     6642     6652     6596     6478     6351     6285     6268 
    6183     6029     6007     6210     6450     6500     6303     6023 
    5942     6106     6278     6358     6423     6431     6318     6220 
    6312     6538     6674     6585     6355     6219     6289     6427 
    6439     6308     6161     6150     6353     6588     6605     6546 
    6598     6566     6413     6415     6439     6243     6158     6432 
    6729     6785     6563     6068     5649     5728     6169     6574 
    6728     6585     6292     6106     6110     6212     6331     6513 
    6720     6744     6606     6524     6430     6200     6035     6169 
    6520     6816     6840     6606     6315     6162     6230     6435 
    6619     6681     6515     6112     5721     5576     5703     5984 
    6266     6547     6809     6817     6585     6378     6188     6065 
    6274     6627     6716     6604     6565     6639     6693     6667 
    6581     6396     6164     6046     6042     6123     6355     6589 
    6579     6455     6415     6280     5907     5589     5597     5919 
    6443     6886     7034     7037     6988     6756     6417     6222 
    6253     6419     6536     6430     6253     6276     6339     6237 
    6215     6475     6750     6714     6405     6061     5857     5903 
    6250     6720     6980     6886     6508     6019     5755     5795 
    5830     5917     6324     6752     6867     6825     6723     6492 
    6278     6205     6214     6342     6489     6323     5973     5945 
    6242     6555     6858     7103     7041     6647     6172     5908 
    6081     6508     6716     6612     6399     6126     5769     5451 
    5358     5595     6166     6895     7341     7196     6693     6319 
    6280     6372     6362     6338     6439     6529     6492     6361 
    6215     6297     6671     6988     7034     6851     6446     5934 
    5525     5362     5566     6085     6567     6750     6677     6505 
    6423     6496     6566     6546     6496     6416     6332     6400 
    6570     6592     6539     6620     6619     6380     6166     6072 
    5992     6029     6323     6739     6932     6736     6322     6035 
    6149     6486     6492     6053     5667     5707     6122     6608 
    6832     6747     6581     6447     6309     6231     6269     6372 
    6457     6420     6291     6251     6308     6347     6413     6543 
    6628     6617     6554     6396     6123     6041     6427     6864 
    6762     6305     6034     6056     6151     6095     5880     5791 
    6018     6408     6714     6882     6945     6961     6991     6983 
    6880     6750     6547     6080     5395     4939     5088     5764 
    6606     7177     7110     6548     6181     6340     6606     6708 
    6799     6786     6546     6281     6054     5809     5755     5995 
    6261     6421     6648     6922     6999     6786     6381     5979 
    5788     5829     5992     6180     6326     6419     6444     6397 
    6340     6367     6531     6739     6808     6779     6837     6952 
    6906     6627     6297     6096     5984     5925     6097     6521 
    6778     6536     6072     5944     6227     6462     6326     5975 
    5792     5925     6201     6459     6562     6400     6207     6309 
    6563     6643     6517     6281     6060     6079     6367     6643 
    6714     6643     6574     6629     6741     6729     6610     6534 
    6504     6346     5975     5643     5665     6025     6467     6782 
    6845     6600     6085     5528     5382     5917     6771     7362 
    7472     7192     6652     6015     5609     5721     6158     6465 
    6543     6507     6324     6138     6285     6705     6968     6932 
    6754     6504     6297     6250     6284     6370     6512     6543 
    6403     6172     5863     5579     5499     5628     5881     6184 
    6459     6647     6721     6724     6762     6948     7221     7248 
    6886     6493     6339     6280     6210     6150     6046     5904 
    5848     5942     6135     6322     6434     6474     6505     6628 
    6806     6810     6532     6191     6030     6065     6200     6361 
    6478     6492     6436     6450     6562     6624     6632     6685 
    6658     6372     5902     5522     5448     5692     6126     6542 
    6741     6696     6540     6336     6139     6131     6349     6616 
    6839     6959     6886     6708     6574     6427     6241     6259 
    6509     6575     6292     5929     5682     5607     5749     6057 
    6426     6766     7005     7069     6917     6619     6301     6043 
    5869     5790     5886     6212     6502     6448     6251     6270 
    6412     6407     6288     6227     6274     6461     6810     7134 
    7157     6870     6540     6455     6602     6702     6640     6525 
    6359     6145     6065     6146     6108     5861     5711     5884 
    6261     6677     7034     7164     6967     6609     6305     6064 
    5879     5821     5826     5845     5940     6097     6326     6701 
    7114     7345     7298     6980     6401     5705     5271     5400 
    5899     6342     6581     6702     6750     6714     6627     6500 
    6350     6212     6088     6058     6222     6450     6556     6527 
    6408     6282     6272     6300     6187     6029     6081     6346 
    6643     6829     6821     6592     6222     5964     6048     6285 
    6353     6332     6388     6447     6532     6735     6906     6849 
    6674     6589     6574     6525     6469     6454     6473     6521 
    6546     6390     6046     5726     5556     5537     5675     5876 
    6065     6369     6822     7144     7137     6952     6732     6428 
    6093     5942     6118     6504     6778     6781     6723     6825 
    6921     6685     6164     5724     5570     5683     5925     6046 
    5996     6012     6235     6525     6678     6685     6701     6724 
    6548     6157     5844     5898     6286     6729     6964     6898 
    6574     6092     5667     5590     5902     6323     6662     6967 
    7203     7217     7036     6875     6880     6940     6755     6239 
    5670     5269     5031     4974     5208     5714     6327     6890 
    7249     7219     6774     6158     5755     5783     6077     6365 
    6579     6694     6670     6628     6701     6833     6882     6729 
    6415     6188     6188     6288     6373     6478     6636     6779 
    6862     6891     6775     6430     6034     5787     5709     5807 
    5977     6021     6026     6164     6370     6602     6902     7198 
    7404     7479     7261     6592     5717     5113     4882     4882 
    5094     5416     5734     6166     6737     7263     7642     7796 
    7565     7083     6747     6633     6566     6469     6273     6015 
    5869     5904     6007     6064     6122     6227     6272     6246 
    6292     6389     6461     6554     6620     6558     6428     6319 
    6284     6393     6601     6723     6660     6462     6199     5950 
    5867     6052     6338     6432     6381     6451     6678     6932 
    7095     7033     6704     6215     5734     5463     5528     5822 
    6058     6062     5980     6016     6165     6342     6494     6646 
    6847     7006     7060     7098     7076     6829     6490     6277 
    6103     5913     5857     6016     6305     6528     6521     6312 
    6058     5910     5949     6212     6625     6921     6941     6841 
    6756     6640     6431     6143     5915     5854     5908     6003 
    6076     6172     6373     6531     6501     6455     6515     6559 
    6593     6731     6909     7025     7020     6747     6143     5456 
    5098     5243     5767     6459     7096     7485     7499     7153 
    6669     6284     6126     6220     6405     6447     6300     6061 
    5877     5848     5875     5904     6027     6247     6517     6787 
    6972     7028     6930     6714     6465     6219     6053     5979 
    5857     5759     5915     6257     6548     6747     6876     6882 
    6795     6721     6682     6686     6710     6609     6301     5908 
    5590     5433     5513     5815     6201     6556     6860     7026 
    6955     6752     6596     6543     6581     6646     6640     6547 
    6373     6116     5879     5759     5792     5996     6234     6312 
    6309     6426     6636     6701     6473     6058     5680     5543 
    5715     6030     6292     6469     6520     6450     6439     6535 
    6578     6570     6635     6790     7018     7244     7304     7096 
    6666     6214     5983     5972     5946     5868     5884     6041 
    6318     6656     6880     6867     6760     6755     6772     6679 
    6556     6444     6274     6114     6081     6200     6438     6710 
    6826     6569     5969     5320     4908     4855     5049     5319 
    5644     5996     6320     6678     7109     7534     7859     8014 
    7965     7634     6936     6022     5208     4766     4841     5336 
    5984     6471     6593     6407     6102     5873     5863     6007 
    6170     6301     6357     6380     6512     6721     6822     6683 
    6369     6237     6561     7213     7954     8564     8694     8104 
    6945     5698     4899     4862     5552     6559     7333     7589 
    7403     6993     6505     6018     5671     5607     5806     6107 
    6308     6201     5687     4972     4521     4662     5378     6385 
    7246     7592     7383     6895     6492     6266     6066     5884 
    5877     6129     6548     6895     6980     6826     6550     6234 
    5972     5884     6022     6326     6627     6704     6493     6107 
    5651     5204     4858     4664     4712     5148     5983     7001 
    7839     8245     8195     7777     7161     6670     6662     7252 
    8068     8525     8402     7792     6874     5989     5366     4999 
    4918     5103     5416     5726     5950     6081     6176     6342 
    6655     7078     7504     7780     7685     7163     6488     6033 
    5931     6029     6062     5856     5414     4908     4588     4622 
    4973     5449     5913     6334     6664     6836     6872     6818 
    6724     6694     6770     6868     6906     6820     6632     6505 
    6566     6750     6920     6972     6899     6822     6795     6741 
    6639     6517     6313     6012     5732     5491     5262     5212 
    5458     5834     6168     6432     6596     6570     6318     5980 
    5788     5902     6373     7137     7935     8428     8444     8001 
    7230     6309     5521     5103     5054     5313     5826     6338 
    6644     6787     6798     6674     6475     6300     6266     6316 
    6219     5908     5468     4980     4637     4598     4835     5316 
    5969     6697     7393     7865     8082     8225     8278     8145 
    7869     7466     6918     6245     5521     4936     4621     4598 
    4889     5416     6011     6562     6941     7042     6901     6693 
    6581     6601     6718     6840     6897     6916     6860     6674 
    6443     6226     6031     5888     5730     5574     5580     5776 
    6062     6320     6416     6374     6334     6342     6440     6739 
    7225     7669     7846     7719     7331     6762     6178     5690 
    5260     4985     5076     5448     5813     6014     5972     5802 
    5868     6222     6621     7014     7345     7465     7441     7349 
    7168     7078     7177     7248     7142     6883     6489     6054 
    5660     5325     5179     5321     5586     5771     5886     5988 
    6096     6201     6227     6211     6241     6219     6149     6299 
    6745     7231     7569     7681     7519     7138     6658     6170 
    5675     5224     5040     5256     5726     6178     6377     6288 
    6145     6087     6079     6214     6511     6809     6944     6817 
    6544     6347     6238     6160     6188     6354     6535     6619 
    6610     6489     6255     6129     6177     6231     6311     6474 
    6629     6686     6590     6365     6114     5967     6002     6212 
    6547     6937     7303     7507     7404     7088     6735     6303 
    5798     5440     5302     5333     5593     6045     6515     6943 
    7331     7518     7387     7095     6812     6590     6524     6559 
    6554     6628     6812     6858     6693     6336     5749     5166 
    4908     4905     5054     5437     5902     6184     6300     6372 
    6470     6588     6735     6929     7064     7122     7126     7041 
    6876     6582     6193     5926     5888     5989     6129     6308 
    6473     6589     6737     6782     6598     6288     5872     5464 
    5355     5539     5713     5741     5715     5705     5725     5902 
    6292     6798     7362     7843     8020     7861     7522     7084 
    6624     6308     6102     5925     5919     6122     6369     6573 
    6678     6602     6315     5945     5784     5892     6038     6207 
    6384     6415     6432     6527     6532     6489     6517     6589 
    6624     6544     6442     6401     6334     6307     6408     6498 
    6501     6419     6200     5915     5742     5734     5826     5929 
    6010     6115     6265     6443     6558     6578     6635     6727 
    6762     6789     6710     6473     6319     6345     6440     6520 
    6490     6343     6150     5972     5876     5898     5980     6025 
    5996     5960     6054     6323     6713     7184     7524     7558 
    7433     7180     6758     6378     6222     6249     6320     6313 
    6142     5772     5410     5306     5432     5682     6041     6428 
    6696     6852     7011     7149     7272     7385     7338     7156 
    6882     6443     5971     5605     5351     5236     5270     5393 
    5553     5782     6127     6578     7069     7520     7844     7862 
    7587     7272     6903     6448     6150     6015     5927     5954 
    6076     6195     6268     6282     6238     6123     6004     5902 
    5833     5883     5975     6018     6046     5994     5891     5937 
    6168     6430     6594     6593     6408     6142     5944     5907 
    6102     6462     6824     7099     7222     7129     6920     6713 
    6488     6253     6061     5941     5921     6021     6320     6743 
    7095     7346     7407     7165     6727     6185     5686     5478 
    5572     5769     5949     6119     6312     6521     6751     6882 
    6795     6651     6570     6481     6434     6471     6453     6372 
    6380     6444     6486     6566     6669     6662     6531     6338 
    6056     5746     5598     5653     5837     6092     6324     6493 
    6601     6596     6573     6628     6655     6639     6608     6493 
    6323     6168     6097     6135     6231     6384     6482     6349 
    6106     5971     5949     6003     6168     6366     6453     6453 
    6440     6401     6349     6295     6219     6174     6222     6322 
    6434     6593     6775     6862     6837     6797     6714     6539 
    6353     6200     6043     5918     5962     6157     6292     6394 
