Origin Time       2025/03/28 03:50:00
Lat.              35.403
Long.             140.360
Depth. (km)       54
Mag.              4.4
Station Code      CHB003
Station Lat.      35.7926
Station Long.     140.0577
Station Height(m) 21
Record Time       2025/03/28 03:51:00
Sampling Freq(Hz) 100Hz
Duration Time(s)  60
Dir.              E-W
Scale Factor      7845(gal)/8223790
Max. Acc. (gal)   14.070
Last Correction   2025/03/28 03:51:00
Memo.             
[...]
  -10697   -10704   -10716   -10721   -10721   -10705   -10682   -10677 
  -10683   -10697   -10704   -10690   -10678   -10682   -10693   -10697 
  -10693   -10689   -10685   -10693   -10702   -10702   -10704   -10708 
  -10713   -10720   -10717   -10704   -10690   -10690   -10700   -10713 
  -10728   -10729   -10710   -10683   -10667   -10665   -10673   -10692 
  -10702   -10700   -10693   -10686   -10686   -10687   -10690   -10696 
  -10694   -10697   -10701   -10694   -10689   -10682   -10673   -10686 
  -10714   -10721   -10713   -10716   -10727   -10728   -10717   -10705 
  -10689   -10681   -10693   -10701   -10697   -10697   -10698   -10713 
  -10725   -10712   -10689   -10679   -10679   -10673   -10669   -10678 
  -10694   -10705   -10700   -10685   -10673   -10666   -10667   -10673 
  -10683   -10698   -10708   -10723   -10739   -10737   -10721   -10700 
  -10693   -10704   -10708   -10694   -10683   -10696   -10714   -10725 
  -10731   -10714   -10683   -10663   -10655   -10666   -10690   -10696 
  -10693   -10705   -10708   -10692   -10681   -10681   -10685   -10692 
  -10704   -10714   -10723   -10728   -10719   -10702   -10696   -10689 
  -10678   -10682   -10702   -10713   -10708   -10702   -10702   -10706 
  -10705   -10697   -10704   -10717   -10709   -10685   -10673   -10669 
  -10669   -10687   -10700   -10693   -10692   -10698   -10697   -10698 
  -10706   -10706   -10705   -10702   -10686   -10662   -10659   -10683 
  -10709   -10717   -10721   -10729   -10735   -10728   -10709   -10681 
  -10663   -10679   -10708   -10728   -10746   -10748   -10728   -10689 
  -10648   -10642   -10665   -10701   -10739   -10752   -10737   -10708 
  -10673   -10654   -10655   -10671   -10698   -10719   -10723   -10708 
  -10686   -10673   -10660   -10666   -10689   -10700   -10710   -10735 
  -10741   -10732   -10733   -10736   -10725   -10714   -10702   -10685 
  -10689   -10698   -10693   -10683   -10670   -10663   -10679   -10705 
  -10728   -10737   -10717   -10690   -10681   -10675   -10682   -10708 
  -10727   -10733   -10733   -10729   -10710   -10689   -10677   -10666 
  -10673   -10689   -10694   -10694   -10702   -10710   -10708   -10698 
  -10690   -10690   -10698   -10705   -10706   -10708   -10712   -10713 
  -10714   -10714   -10705   -10704   -10716   -10721   -10712   -10705 
  -10708   -10704   -10694   -10692   -10690   -10681   -10674   -10677 
  -10685   -10696   -10700   -10686   -10679   -10697   -10720   -10731 
  -10725   -10716   -10704   -10689   -10689   -10702   -10721   -10736 
  -10728   -10706   -10701   -10702   -10690   -10675   -10671   -10675 
  -10682   -10696   -10698   -10681   -10670   -10666   -10662   -10677 
  -10702   -10723   -10732   -10729   -10721   -10716   -10713   -10719 
  -10729   -10736   -10739   -10720   -10686   -10666   -10673   -10686 
  -10689   -10675   -10662   -10670   -10693   -10702   -10698   -10690 
  -10685   -10681   -10677   -10681   -10694   -10708   -10724   -10740 
  -10743   -10731   -10705   -10671   -10663   -10687   -10714   -10727 
  -10719   -10698   -10687   -10687   -10690   -10687   -10681   -10686 
  -10706   -10719   -10702   -10678   -10678   -10700   -10720   -10735 
  -10728   -10694   -10678   -10693   -10709   -10712   -10700   -10679 
  -10682   -10708   -10728   -10727   -10702   -10670   -10656   -10673 
  -10701   -10717   -10721   -10723   -10717   -10698   -10679   -10671 
  -10675   -10692   -10710   -10717   -10708   -10687   -10681   -10697 
  -10700   -10698   -10708   -10710   -10701   -10690   -10685   -10687 
  -10698   -10706   -10702   -10689   -10675   -10677   -10690   -10704 
  -10710   -10708   -10706   -10708   -10702   -10701   -10705   -10693 
  -10677   -10681   -10702   -10719   -10716   -10706   -10705   -10709 
  -10710   -10702   -10685   -10675   -10682   -10693   -10693   -10686 
  -10686   -10697   -10712   -10717   -10709   -10692   -10682   -10686 
  -10692   -10709   -10739   -10739   -10710   -10689   -10685   -10700 
  -10709   -10700   -10696   -10698   -10705   -10700   -10673   -10648 
  -10650   -10677   -10706   -10710   -10696   -10687   -10700   -10719 
  -10708   -10670   -10656   -10675   -10701   -10739   -10785   -10782 
  -10708   -10619   -10575   -10606   -10687   -10747   -10754   -10764 
  -10786   -10740   -10601   -10485   -10497   -10602   -10756   -10966 
  -11130   -11025   -10606   -10179   -10110   -10443   -10901   -11229 
  -11326   -11136   -10681   -10245   -10153   -10376   -10713   -11064 
  -11327   -11330   -10960   -10400   -10056   -10123   -10416   -10619 
  -10642   -10665   -10789   -10899   -10926   -10899   -10739   -10434 
  -10278   -10532   -11011   -11223   -10930   -10463   -10255   -10335 
  -10557   -10901   -11238   -11232   -10821   -10393   -10269   -10412 
  -10677   -11003   -11226   -11107   -10706   -10359   -10324   -10524 
  -10706   -10756   -10681   -10492   -10295   -10332   -10671   -10998 
  -11040   -10891   -10747   -10743   -10924   -11060   -10885   -10571 
  -10461   -10504   -10462   -10334   -10393   -10728   -11029   -11079 
  -10925   -10629   -10318   -10241   -10563   -11010   -11146   -11043 
  -10983   -10889   -10566   -10142    -9950   -10147   -10640   -11219 
  -11499   -11203   -10593   -10246   -10384   -10709   -10972   -11128 
  -11026   -10720   -10534   -10535   -10548   -10466   -10351   -10400 
  -10579   -10612   -10534   -10679   -10999   -11049   -10760   -10480 
  -10386   -10546   -10940   -11179   -11036   -10739   -10416   -10216 
  -10378   -10689   -10818   -10839   -10852   -10775   -10644   -10639 
  -10768   -10878   -10844   -10638   -10378   -10265   -10359   -10582 
  -10791   -10887   -10804   -10574   -10504   -10879   -11541   -12020 
  -11893   -11180   -10404   -10066   -10312   -10928   -11439   -11524 
  -11200   -10658   -10143    -9844    -9848   -10156   -10650   -11107 
  -11125   -10498    -9792    -9720   -10170   -10552   -10639   -10632 
  -10677   -10728   -10798   -10908   -10916   -10701   -10381   -10291 
  -10669   -11202   -11296   -10968   -10782   -10901   -10993   -10901 
  -10773   -10639   -10434   -10278   -10320   -10543   -10806   -10912 
  -10921   -11075   -11217   -11078   -10847   -10812   -10816   -10590 
  -10261   -10104   -10187   -10413   -10585   -10592   -10555   -10520 
  -10404   -10443   -10913   -11443   -11503   -11095   -10513   -10106 
  -10156   -10582   -11071   -11327   -11103   -10416    -9817    -9910 
  -10623   -11306   -11418   -10995   -10554   -10417   -10447   -10586 
  -10982   -11425   -11411   -10932   -10523   -10427   -10465   -10593 
  -10844   -11029   -10952   -10613   -10170    -9937   -10131   -10486 
  -10536   -10341   -10258   -10296   -10407   -10791   -11281   -11356 
  -11021   -10748   -10694   -10778   -10939   -10924   -10642   -10469 
  -10604   -10795   -10968   -11241   -11288   -10764   -10115    -9884 
  -10061   -10543   -11141   -11443   -11396   -11325   -11178   -10687 
  -10234   -10362   -10813   -11126   -11205   -10860   -10142    -9672 
   -9861   -10558   -11306   -11493   -11034   -10586   -10555   -10647 
  -10594   -10498   -10471   -10422   -10315   -10361   -10575   -10679 
  -10636   -10606   -10509   -10358   -10389   -10442   -10361   -10646 
  -11387   -11813   -11622   -11240   -10800   -10239   -10014   -10412 
  -10963   -11215   -11130   -10747   -10303   -10183   -10377   -10655 
  -10928   -10949   -10619   -10365   -10408   -10519   -10698   -11063 
  -11275   -11034   -10683   -10644   -10939   -11335   -11533   -11317 
  -10701   -10071    -9919   -10137   -10304   -10481   -10635   -10380 
   -9873    -9583    -9513    -9710   -10415   -11373   -12036   -12194 
  -11950   -11454   -10874   -10404   -10176   -10120   -10230   -10594 
  -10926   -10899   -10713   -10507   -10230   -10184   -10524   -10912 
  -11169   -11427   -11657   -11623   -11346   -11129   -10940   -10527 
  -10034    -9718    -9594    -9667    -9922   -10199   -10465   -10824 
  -11164   -11296   -11265   -11078   -10717   -10508   -10562   -10562 
  -10579   -10856   -11106   -11029   -10727   -10451   -10496   -10905 
  -11358   -11628   -11657   -11452   -11218   -11097   -11011   -10933 
  -10755   -10338    -9840    -9382    -8899    -8614    -8950    -9902 
  -10851   -11273   -11348   -11352   -11287   -11298   -11476   -11565 
  -11303   -10755   -10287   -10075    -9972    -9936   -10010   -10227 
  -10678   -11215   -11448   -11353   -11314   -11395   -11330   -11091 
  -10731   -10265   -10023   -10281   -10767   -11095   -11145   -10908 
  -10478   -10116   -10100   -10488   -11032   -11395   -11357   -10968 
  -10566   -10349   -10277   -10395   -10623   -10751   -10866   -11034 
  -11033   -10848   -10729   -10651   -10338    -9956    -9876    -9967 
  -10091   -10365   -10520   -10370   -10435   -10933   -11327   -11411 
  -11426   -11326   -11132   -11232   -11568   -11534   -11075   -10758 
  -10702   -10644   -10566   -10434   -10107    -9842    -9864    -9915 
   -9910   -10080   -10355   -10573   -10863   -11176   -11248   -11236 
  -11411   -11487   -11180   -10754   -10469   -10339   -10458   -10849 
  -11142   -10979   -10554   -10293   -10328   -10542   -10760   -10802 
  -10714   -10713   -10731   -10673   -10766   -10999   -11122   -11136 
  -11010   -10720   -10627   -10921   -11209   -11110   -10763   -10435 
  -10084    -9752    -9742    -9969   -10021    -9845    -9678    -9667 
   -9898   -10401   -10967   -11341   -11516   -11542   -11519   -11719 
  -12024   -11908   -11450   -11259   -11380   -11358   -11001   -10440 
   -9886    -9589    -9651    -9769    -9649    -9406    -9270    -9398 
   -9891   -10569   -11099   -11391   -11535   -11584   -11620   -11659 
  -11553   -11249   -10862   -10616   -10658   -10791   -10728   -10446 
  -10193   -10196   -10378   -10516   -10597   -10736   -10894   -10920 
  -10809   -10736   -10773   -10885   -11106   -11376   -11411   -11075 
  -10570   -10160   -10025   -10147   -10243   -10092    -9872    -9891 
  -10250   -10835   -11330   -11456   -11331   -11227   -11222   -11286 
  -11303   -11125   -10800   -10546   -10469   -10469   -10465   -10478 
  -10503   -10531   -10544   -10444   -10131    -9720    -9547    -9791 
  -10318   -10901   -11221   -11122   -10984   -11155   -11453   -11674 
  -11757   -11557   -11110   -10723   -10638   -10817   -10944   -10786 
  -10513   -10380   -10427   -10497   -10485   -10536   -10640   -10527 
  -10223   -10008    -9991   -10174   -10597   -11092   -11337   -11205 
  -10867   -10579   -10469   -10509   -10521   -10309    -9981    -9826 
   -9945   -10277   -10605   -10648   -10469   -10415   -10689   -11263 
  -11952   -12410   -12351   -11912   -11523   -11338   -11268   -11364 
  -11557   -11535   -11271   -10855   -10142    -9360    -9057    -9163 
   -9219    -9142    -9147    -9355    -9676   -10026   -10408   -10741 
  -10957   -11086   -11130   -11195   -11435   -11732   -11851   -11811 
  -11693   -11403   -10951   -10624   -10573   -10631   -10596   -10423 
  -10280   -10350   -10538   -10656   -10678   -10636   -10633   -10754 
  -10945   -11141   -11138   -10791   -10400   -10255   -10338   -10642 
  -11011   -11056   -10670   -10129    -9659    -9348    -9441   -10119 
  -10951   -11354   -11326   -11200   -11196   -11395   -11641   -11628 
  -11349   -11052   -10828   -10644   -10516   -10393   -10123    -9792 
   -9810   -10193   -10423   -10326   -10285   -10590   -11155   -11659 
  -11894   -11965   -11927   -11692   -11360   -11072   -10827   -10570 
  -10334   -10264   -10292   -10064    -9531    -9085    -9066    -9518 
  -10143   -10484   -10422   -10258   -10315   -10763   -11593   -12453 
  -12812   -12461   -11688   -10970   -10554   -10419   -10469   -10570 
  -10586   -10401   -10019    -9763    -9940   -10442   -10957   -11300 
  -11446   -11373   -11080   -10723   -10362    -9860    -9269    -8819 
   -8627    -8776    -9364   -10223   -10979   -11507   -11932   -12251 
  -12399   -12496   -12580   -12499   -12231   -11786   -11097   -10295 
   -9597    -9072    -8847    -9077    -9543    -9869   -10153   -10720 
  -11418   -11888   -12170   -12449   -12688   -12816   -12907   -13042 
  -13186   -13297   -13338   -13147   -12598   -11750   -10646    -9387 
   -8345    -7732    -7344    -7029    -6820    -6685    -6598    -6658 
   -7063    -8052    -9614   -11493   -13471   -15368   -16919   -17797 
  -17741   -16767   -15063   -12737    -9925    -7030    -4546    -2833 
   -2137    -2440    -3402    -4698    -6139    -7643    -9283   -11010 
  -12610   -14075   -15499   -16765   -17574   -17609   -16694   -14974 
  -12819   -10646    -8946    -8016    -7570    -7155    -6704    -6280 
   -5934    -5752    -5763    -6120    -7047    -8569   -10389   -12140 
  -13848   -15506   -16717   -17065   -16433   -15075   -13405   -11907 
  -10979   -10590   -10353    -9981    -9378    -8649    -8114    -7969 
   -8228    -8758    -9344    -9933   -10704   -11842   -13092   -13926 
  -14227   -14149   -13844   -13647   -13628   -13459   -13031   -12425 
  -11658   -10862   -10239    -9771    -9347    -8951    -8428    -7543 
   -6451    -5819    -6108    -6990    -7894    -8604    -9119    -9514 
   -9938   -10420   -10920   -11385   -11784   -12172   -12602   -13082 
  -13601   -13956   -13716   -12641   -11155   -10053    -9787   -10084 
  -10359   -10403   -10359   -10476   -11151   -12549   -14235   -15788 
  -17097   -17918   -17955   -17342   -16208   -14243   -11195    -7253 
   -3025      642     3092     4051     3491     1559    -1432    -4996 
   -8627   -12028   -15074   -17695   -19813   -21331   -22169   -22152 
  -20989   -18674   -15622   -12305    -9148    -6646    -5138    -4507 
   -4307    -4221    -4422    -5224    -6494    -7975    -9722   -11688 
  -13473   -14719   -15371   -15550   -15358   -14775   -13730   -12337 
  -10885    -9583    -8579    -8052    -8055    -8444    -9069    -9849 
  -10706   -11492   -12120   -12629   -12933   -12843   -12299   -11335 
  -10185    -9198    -8511    -8056    -7761    -7550    -7387    -7400 
   -7769    -8401    -9196   -10308   -11666   -12879   -13778   -14422 
  -14804   -14875   -14665   -14265   -13798   -13387   -12992   -12368 
  -11373   -10103    -8676    -7149    -5761    -4846    -4448    -4542 
   -5283    -6559    -7933    -9123   -10123   -11163   -12475   -13900 
  -15025   -15668   -15836   -15530   -14831   -13845   -12494   -10775 
   -9117    -8010    -7592    -7821    -8619    -9794   -11094   -12280 
  -13139   -13513   -13365   -12806   -12070   -11423   -10957   -10517 
   -9971    -9486    -9305    -9396    -9522    -9505    -9271    -8804 
   -8220    -7784    -7605    -7614    -7781    -8102    -8623    -9513 
  -10752   -12024   -13042   -13691   -13976   -14023   -13988   -14072 
  -14376   -14619   -14446   -13852   -12982   -11859   -10511    -9108 
   -7870    -7011    -6727    -7064    -7881    -8847    -9524    -9691 
   -9516    -9265    -9057    -8947    -9080    -9555   -10299   -11132 
  -11924   -12594   -13073   -13279   -13230   -13188   -13470   -14064 
  -14616   -14708   -14110   -12847   -11103    -9212    -7576    -6488 
   -6026    -5981    -6070    -6380    -7160    -8287    -9404   -10386 
  -11299   -12150   -12887   -13474   -13892   -14162   -14292   -14234 
  -14026   -13810   -13552   -13000   -12020   -10785    -9555    -8368 
   -7075    -5682    -4476    -3839    -3915    -4557    -5578    -6841 
   -8210    -9674   -11394   -13423   -15458   -17046   -17828   -17656 
  -16756   -15622   -14639   -13844   -13177   -12696   -12312   -11843 
  -11291   -10631    -9683    -8465    -7283    -6369    -5756    -5449 
   -5410    -5626    -6249    -7373    -8903   -10723   -12569   -13979 
  -14743   -14998   -14843   -14351   -13698   -12889   -11754   -10299 
   -8831    -7758    -7308    -7427    -7894    -8468    -9123   -10068 
  -11364   -12752   -13884   -14535   -14592   -14058   -13107   -11967 
  -10805    -9709    -8664    -7693    -6959    -6600    -6656    -7091 
   -7803    -8787   -10115   -11691   -13225   -14373   -14806   -14438 
  -13558   -12590   -11803   -11267   -10898   -10520    -9994    -9346 
   -8762    -8457    -8506    -8785    -9173    -9579    -9848    -9922 
   -9909    -9981   -10314   -10894   -11566   -12275   -12996   -13608 
  -14077   -14463   -14625   -14349   -13548   -12291   -10866    -9601 
   -8699    -8210    -7982    -7921    -8087    -8451    -8946    -9468 
   -9857   -10111   -10396   -10841   -11429   -11982   -12309   -12280 
  -11935   -11535   -11303   -11184   -11056   -10817   -10338    -9674 
   -9107    -8885    -9170    -9950   -10881   -11603   -12109   -12515 
  -12812   -12895   -12710   -12353   -11927   -11407   -10795   -10208 
   -9753    -9441    -9204    -8974    -8775    -8722    -8868    -9124 
   -9450    -9844   -10187   -10358   -10403   -10423   -10453   -10459 
  -10388   -10272   -10265   -10440   -10683   -10876   -11005   -11080 
  -11079   -11034   -11129   -11433   -11745   -11996   -12339   -12723 
  -12916   -12864   -12685   -12468   -12201   -11813   -11237   -10463 
   -9578    -8746    -8132    -7763    -7562    -7481    -7539    -7782 
   -8257    -8951    -9748   -10559   -11411   -12240   -12880   -13289 
  -13536   -13657   -13594   -13331   -13024   -12853   -12822   -12729 
  -12378   -11753   -10924    -9945    -8959    -8212    -7820    -7704 
   -7777    -7931    -8027    -8089    -8202    -8364    -8621    -9023 
   -9490    -9979   -10557   -11237   -11958   -12672   -13270   -13632 
  -13757   -13644   -13301   -12897   -12541   -12028   -11196   -10220 
   -9382    -8800    -8407    -8198    -8318    -8768    -9390   -10088 
  -10751   -11248   -11466   -11334   -11030   -10893   -11011   -11219 
  -11389   -11529   -11676   -11840   -11961   -11982   -11921   -11739 
  -11423   -11195   -11250   -11464   -11554   -11352   -10875   -10293 
   -9778    -9362    -9061    -8951    -9000    -9073    -9144    -9209 
   -9135    -8888    -8645    -8626    -8993    -9795   -10820   -11738 
  -12453   -13042   -13440   -13641   -13826   -13979   -13861   -13389 
  -12671   -11847   -11032   -10254    -9501    -8833    -8341    -8058 
   -7987    -8159    -8561    -9089    -9645   -10207   -10804   -11457 
  -12048   -12370   -12391   -12255   -12043   -11746   -11313   -10779 
  -10260    -9787    -9333    -8985    -8847    -8866    -8919    -8974 
   -9080    -9289    -9656   -10210   -10848   -11435   -11993   -12617 
  -13281   -13849   -14141   -14035   -13548   -12807   -12000   -11325 
  -10879   -10548   -10138    -9621    -9117    -8737    -8536    -8509 
   -8552    -8577    -8644    -8827    -9090    -9386    -9732   -10164 
  -10771   -11604   -12542   -13355   -13876   -14042   -13887   -13490 
  -12928   -12262   -11437   -10366    -9174    -8168    -7535    -7246 
   -7219    -7427    -7892    -8640    -9591   -10565   -11464   -12245 
  -12793   -13047   -13107   -13093   -13026   -12876   -12609   -12228 
  -11843   -11522   -11153   -10625    -9956    -9188    -8390    -7720 
   -7300    -7161    -7338    -7838    -8583    -9535   -10741   -12132 
  -13406   -14305   -14706   -14512   -13784   -12791   -11769   -10812 
   -9906    -9039    -8322    -7909    -7900    -8356    -9189   -10164 
  -11141   -12132   -13096   -13882   -14295   -14196   -13558   -12495 
