Origin Time       2025/03/28 03:50:00
Lat.              35.403
Long.             140.360
Depth. (km)       54
Mag.              4.4
Station Code      CHB024
Station Lat.      35.6337
Station Long.     140.0781
Station Height(m) 3
Record Time       2025/03/28 03:50:58
Sampling Freq(Hz) 100Hz
Duration Time(s)  60
Dir.              N-S
Scale Factor      7845(gal)/8223790
Max. Acc. (gal)   3.093
Last Correction   2025/03/28 03:50:58
Memo.             
[...]
  -18480   -18462   -18447   -18439   -18439   -18450   -18463   -18465 
  -18450   -18434   -18423   -18423   -18432   -18445   -18459   -18474 
  -18474   -18458   -18453   -18462   -18458   -18453   -18473   -18485 
  -18461   -18435   -18438   -18459   -18484   -18503   -18501   -18489 
  -18480   -18476   -18482   -18492   -18480   -18457   -18458   -18470 
  -18469   -18466   -18458   -18432   -18418   -18431   -18446   -18446 
  -18445   -18443   -18450   -18466   -18472   -18463   -18455   -18453 
  -18454   -18466   -18477   -18476   -18462   -18454   -18454   -18466 
  -18481   -18489   -18485   -18477   -18477   -18476   -18469   -18466 
  -18463   -18454   -18454   -18469   -18478   -18466   -18463   -18481 
  -18486   -18469   -18458   -18463   -18465   -18461   -18462   -18466 
  -18463   -18459   -18453   -18453   -18457   -18451   -18443   -18453 
  -18459   -18458   -18477   -18503   -18501   -18492   -18481   -18465 
  -18472   -18500   -18519   -18512   -18489   -18474   -18468   -18459 
  -18455   -18457   -18458   -18455   -18443   -18432   -18428   -18422 
  -18423   -18446   -18458   -18432   -18399   -18391   -18405   -18432 
  -18449   -18443   -18449   -18466   -18462   -18458   -18469   -18474 
  -18468   -18465   -18472   -18472   -18459   -18457   -18462   -18465 
  -18485   -18504   -18497   -18478   -18468   -18463   -18470   -18472 
  -18455   -18445   -18449   -18453   -18465   -18480   -18478   -18463 
  -18446   -18443   -18465   -18481   -18473   -18461   -18457   -18453 
  -18445   -18434   -18436   -18462   -18474   -18474   -18482   -18484 
  -18463   -18457   -18486   -18508   -18501   -18486   -18476   -18468 
  -18453   -18438   -18439   -18454   -18472   -18496   -18507   -18490 
  -18469   -18470   -18476   -18468   -18468   -18477   -18484   -18480 
  -18453   -18428   -18432   -18432   -18428   -18442   -18450   -18439 
  -18431   -18435   -18450   -18461   -18459   -18468   -18482   -18481 
  -18476   -18482   -18484   -18461   -18434   -18427   -18432   -18447 
  -18459   -18447   -18422   -18412   -18424   -18435   -18426   -18419 
  -18426   -18426   -18424   -18430   -18442   -18462   -18478   -18482 
  -18481   -18473   -18473   -18485   -18493   -18489   -18473   -18455 
  -18459   -18476   -18481   -18476   -18461   -18449   -18462   -18473 
  -18469   -18476   -18493   -18503   -18495   -18480   -18478   -18486 
  -18493   -18496   -18492   -18481   -18465   -18454   -18451   -18449 
  -18441   -18436   -18434   -18439   -18454   -18450   -18435   -18435 
  -18442   -18465   -18509   -18517   -18474   -18422   -18393   -18422 
  -18495   -18527   -18489   -18436   -18412   -18427   -18468   -18485 
  -18450   -18391   -18372   -18418   -18480   -18508   -18496   -18465 
  -18443   -18431   -18418   -18412   -18424   -18457   -18499   -18512 
  -18489   -18450   -18411   -18389   -18408   -18455   -18505   -18543 
  -18538   -18480   -18415   -18377   -18396   -18473   -18550   -18570 
  -18528   -18463   -18430   -18431   -18445   -18474   -18522   -18542 
  -18504   -18451   -18412   -18388   -18409   -18470   -18520   -18539 
  -18503   -18415   -18366   -18400   -18472   -18523   -18517   -18462 
  -18416   -18419   -18458   -18492   -18485   -18447   -18414   -18403 
  -18434   -18497   -18546   -18540   -18478   -18407   -18374   -18392 
  -18454   -18526   -18563   -18554   -18507   -18450   -18411   -18396 
  -18408   -18446   -18477   -18493   -18489   -18454   -18408   -18382 
  -18385   -18416   -18463   -18495   -18508   -18531   -18546   -18508 
  -18436   -18414   -18436   -18454   -18497   -18547   -18517   -18439 
  -18404   -18403   -18419   -18459   -18465   -18445   -18451   -18446 
  -18446   -18513   -18569   -18523   -18431   -18409   -18457   -18500 
  -18524   -18528   -18496   -18450   -18415   -18389   -18395   -18449 
  -18489   -18472   -18428   -18399   -18389   -18399   -18445   -18482 
  -18454   -18442   -18490   -18522   -18527   -18515   -18473   -18466 
  -18496   -18470   -18418   -18447   -18527   -18559   -18534   -18481 
  -18430   -18395   -18373   -18380   -18416   -18459   -18495   -18527 
  -18546   -18512   -18457   -18449   -18455   -18443   -18442   -18442 
  -18435   -18442   -18457   -18470   -18449   -18407   -18411   -18415 
  -18377   -18397   -18484   -18523   -18473   -18401   -18401   -18458 
  -18507   -18519   -18505   -18503   -18505   -18495   -18485   -18450 
  -18415   -18488   -18607   -18590   -18459   -18385   -18420   -18462 
  -18423   -18376   -18388   -18412   -18439   -18496   -18539   -18516 
  -18450   -18409   -18426   -18478   -18495   -18463   -18455   -18462 
  -18455   -18480   -18519   -18517   -18481   -18400   -18303   -18297 
  -18389   -18482   -18536   -18534   -18497   -18512   -18580   -18615 
  -18574   -18481   -18405   -18353   -18312   -18376   -18495   -18485 
  -18384   -18335   -18376   -18461   -18485   -18445   -18445   -18488 
  -18497   -18488   -18490   -18492   -18480   -18486   -18517   -18505 
  -18450   -18419   -18415   -18439   -18516   -18584   -18561   -18438 
  -18291   -18268   -18414   -18589   -18655   -18638   -18582   -18478 
  -18358   -18303   -18353   -18482   -18584   -18582   -18522   -18450 
  -18397   -18393   -18454   -18543   -18588   -18576   -18550   -18497 
  -18438   -18427   -18408   -18370   -18368   -18347   -18266   -18212 
  -18258   -18366   -18409   -18318   -18175   -18107   -18211   -18438 
  -18586   -18603   -18588   -18561   -18509   -18457   -18399   -18355 
  -18418   -18646   -18921   -19018   -18927   -18832   -18800   -18773 
  -18682   -18503   -18350   -18281   -18133   -17907   -17815   -17857 
  -17949   -18131   -18476   -18910   -19180   -19118   -18832   -18540 
  -18393   -18408   -18504   -18596   -18621   -18567   -18476   -18351 
  -18175   -18003   -17960   -18094   -18311   -18450   -18490   -18565 
  -18742   -18883   -18837   -18663   -18493   -18384   -18385   -18454 
  -18472   -18457   -18474   -18481   -18432   -18311   -18192   -18193 
  -18225   -18206   -18277   -18447   -18596   -18739   -18871   -18862 
  -18647   -18412   -18430   -18624   -18663   -18509   -18385   -18373 
  -18358   -18269   -18198   -18199   -18204   -18196   -18237   -18369 
  -18566   -18696   -18655   -18508   -18397   -18416   -18532   -18646 
  -18678   -18558   -18343   -18233   -18237   -18219   -18234   -18357 
  -18490   -18566   -18596   -18589   -18546   -18441   -18304   -18238 
  -18280   -18422   -18661   -18991   -19265   -19240   -18993   -18797 
  -18580   -18223   -17977   -18054   -18284   -18397   -18362   -18339 
  -18365   -18323   -18206   -18172   -18350   -18620   -18748   -18778 
  -18866   -18832   -18519   -18162   -17979   -17952   -18088   -18388 
  -18692   -18766   -18557   -18261   -18103   -18148   -18310   -18424 
  -18443   -18493   -18639   -18813   -18912   -18813   -18544   -18315 
  -18216   -18160   -18164   -18314   -18509   -18625   -18717   -18832 
  -18894   -18864   -18804   -18766   -18746   -18717   -18632   -18492 
  -18353   -18171   -17977   -18026   -18324   -18543   -18540   -18461 
  -18387   -18301   -18279   -18389   -18470   -18333   -18131   -18065 
  -18130   -18247   -18272   -18207   -18262   -18424   -18547   -18650 
  -18721   -18667   -18523   -18418   -18450   -18547   -18534   -18400 
  -18279   -18273   -18368   -18465   -18588   -18775   -18909   -18909 
  -18812   -18609   -18326   -18158   -18273   -18553   -18651   -18455 
  -18285   -18427   -18756   -18976   -18936   -18692   -18399   -18158 
  -18088   -18310   -18625   -18743   -18732   -18717   -18536   -18123 
  -17774   -17674   -17698   -17810   -18068   -18351   -18544   -18685 
  -18825   -18976   -19066   -18998   -18881   -18847   -18775   -18565 
  -18323   -18130   -17986   -17926   -18003   -18179   -18250   -18144 
  -18085   -18280   -18600   -18798   -18805   -18706   -18600   -18558 
  -18648   -18833   -18979   -19013   -18951   -18796   -18508   -18158 
  -17975   -18067   -18210   -18148   -17956   -17849   -17856   -17956 
  -18214   -18547   -18706   -18659   -18661   -18825   -19022   -19105 
  -18989   -18705   -18303   -17818   -17463   -17410   -17609   -18011 
  -18555   -19035   -19237   -19134   -18929   -18810   -18732   -18642 
  -18631   -18712   -18800   -18917   -19078   -19174   -19094   -18848 
  -18513   -18150   -17859   -17703   -17651   -17672   -17798   -18069 
  -18441   -18754   -18863   -18755   -18532   -18299   -18075   -17944 
  -18046   -18256   -18262   -18045   -17891   -17990   -18226   -18388 
  -18490   -18654   -18742   -18625   -18519   -18598   -18694   -18696 
  -18698   -18696   -18696   -18806   -18960   -19006   -18922   -18762 
  -18608   -18543   -18530   -18447   -18304   -18245   -18283   -18274 
  -18198   -18172   -18280   -18489   -18677   -18782   -18828   -18804 
  -18689   -18504   -18320   -18222   -18208   -18256   -18343   -18378 
  -18280   -18118   -18031   -18092   -18264   -18419   -18461   -18447 
  -18509   -18682   -18870   -18939   -18850   -18692   -18590   -18569 
  -18523   -18396   -18273   -18231   -18249   -18295   -18403   -18605 
  -18819   -18889   -18775   -18613   -18539   -18489   -18335   -18156 
  -18100   -18169   -18338   -18584   -18748   -18742   -18630   -18415 
  -18085   -17778   -17645   -17707   -17894   -18096   -18208   -18222 
  -18219   -18316   -18558   -18817   -18945   -18936   -18824   -18712 
  -18732   -18885   -19056   -19089   -18922   -18700   -18540   -18393 
  -18235   -18154   -18220   -18366   -18461   -18500   -18538   -18522 
  -18380   -18211   -18200   -18353   -18540   -18728   -18918   -19026 
  -18941   -18681   -18418   -18295   -18284   -18291   -18296   -18337 
  -18400   -18411   -18401   -18484   -18588   -18523   -18306   -18125 
  -18052   -18010   -18014   -18169   -18438   -18658   -18740   -18711 
  -18623   -18462   -18293   -18273   -18361   -18405   -18422   -18446 
  -18408   -18265   -18092   -18058   -18229   -18458   -18594   -18616 
  -18593   -18632   -18713   -18700   -18543   -18285   -18030   -18019 
  -18418   -19035   -19479   -19554   -19371   -19068   -18696   -18315 
  -18022   -17929   -18067   -18292   -18482   -18634   -18698   -18594 
  -18400   -18264   -18242   -18365   -18598   -18751   -18702   -18543 
  -18419   -18405   -18503   -18589   -18492   -18206   -17865   -17532 
  -17307   -17402   -17795   -18193   -18422   -18551   -18717   -18933 
  -19021   -18821   -18470   -18214   -18092   -18056   -18090   -18162 
  -18268   -18497   -18937   -19421   -19735   -19872   -19803   -19562 
  -19321   -19097   -18914   -18879   -18914   -18832   -18507   -18004 
  -17639   -17539   -17510   -17548   -17766   -18130   -18571   -18959 
  -19171   -19180   -18962   -18553   -18068   -17547   -17073   -16856 
  -16999   -17416   -18014   -18715   -19383   -19834   -19869   -19483 
  -18901   -18369   -18067   -18125   -18594   -19314   -19946   -20326 
  -20443   -20187   -19562   -18779   -18057   -17471   -17037   -16788 
  -16686   -16680   -16852   -17197   -17520   -17705   -17760   -17716 
  -17671   -17775   -18125   -18675   -19207   -19510   -19472   -19070 
  -18380   -17537   -16744   -16282   -16299   -16711   -17479   -18501 
  -19473   -20312   -20941   -21205   -21227   -20985   -20352   -19566 
  -18844   -18222   -17919   -18011   -18276   -18705   -19170   -19291 
  -19145   -18936   -18624   -18327   -18038   -17583   -17207   -17302 
  -17756   -18175   -18468   -18609   -18442   -18114   -17649   -16968 
  -16563   -16730   -17338   -18376   -19537   -20382   -20773   -20633 
  -19944   -18885   -17772   -16876   -16260   -15939   -15894   -16051 
  -16402   -16916   -17435   -17749   -17821   -17729   -17567   -17570 
  -17950   -18603   -19284   -19931   -20536   -20945   -20970   -20565 
  -19855   -19043   -18373   -18049   -18150   -18694   -19588   -20603 
  -21416   -21567   -20856   -19672   -18443   -17263   -16386   -16097 
  -16164   -16410   -16953   -17410   -17415   -17413   -17730   -18229 
  -18852   -19259   -19198   -18949   -18496   -17971   -18036   -18746 
  -19591   -20340   -20876   -20880   -20191   -19109   -18075   -17450 
  -17539   -18219   -19099   -19942   -20470   -20587   -20287   -19500 
  -18563   -17838   -17478   -17560   -17829   -18121   -18368   -18231 
  -17806   -17589   -17616   -17640   -17560   -17350   -17101   -17012 
  -17091   -17238   -17458   -17707   -17964   -18265   -18500   -18543 
  -18418   -18193   -17956   -17802   -17766   -17860   -18125   -18570 
  -19084   -19423   -19373   -19059   -18829   -18794   -18789   -18652 
  -18347   -17987   -17739   -17631   -17601   -17639   -17784   -18081 
  -18412   -18555   -18536   -18647   -19109   -19913   -20779   -21312 
  -21307   -20775   -19894   -18887   -17901   -17163   -16856   -17049 
  -17828   -18909   -19909   -20742   -21062   -20611   -19616   -18276 
  -16861   -15805   -15371   -15658   -16483   -17459   -18470   -19441 
  -20198   -20688   -20811   -20436   -19615   -18563   -17528   -16754 
  -16411   -16501   -16927   -17513   -18067   -18554   -18945   -19087 
  -18898   -18459   -18033   -17933   -18154   -18590   -19217   -19747 
  -19751   -19197   -18378   -17485   -16649   -16085   -15925   -16158 
  -16652   -17308   -18025   -18654   -19259   -19886   -20368   -20590 
  -20505   -20067   -19441   -18994   -18928   -19176   -19499   -19637 
  -19431   -18846   -18138   -17643   -17475   -17695   -18269   -18921 
  -19288   -19286   -19013   -18408   -17491   -16480   -15634   -15219 
  -15430   -16281   -17590   -19018   -20216   -21043   -21370   -21004 
  -20074   -18939   -17855   -17028   -16611   -16399   -16231   -16360 
  -16903   -17810   -18852   -19533   -19777   -19808   -19724   -19658 
  -19651   -19678   -19816   -20094   -20436   -20641   -20466   -19894 
  -19078   -18177   -17346   -16656   -16220   -16205   -16598   -17288 
  -18191   -19024   -19465   -19503   -19287   -18963   -18634   -18324 
  -18053   -17882   -17842   -17980   -18276   -18562   -18662   -18554 
  -18361   -18206   -18065   -17887   -17706   -17518   -17282   -17072 
  -16977   -17032   -17274   -17663   -18183   -18848   -19492   -19940 
  -20194   -20286   -20160   -19801   -19310   -18782   -18335   -18107 
  -18117   -18220   -18268   -18260   -18188   -18144   -18304   -18654 
  -19117   -19537   -19683   -19487   -19106   -18806   -18628   -18378 
  -17969   -17473   -16957   -16551   -16515   -17000   -17852   -18758 
  -19410   -19604   -19350   -18835   -18293   -17932   -17736   -17589 
  -17577   -17869   -18415   -19009   -19429   -19519   -19406   -19286 
  -19149   -19012   -18960   -18931   -18806   -18651   -18616   -18654 
  -18516   -18106   -17601   -17188   -16962   -17055   -17455   -17903 
  -18214   -18422   -18592   -18787   -18958   -18873   -18589   -18432 
  -18463   -18655   -19045   -19398   -19487   -19387   -19222   -19044 
  -18883   -18716   -18480   -18199   -17906   -17667   -17709   -18108 
  -18636   -19097   -19361   -19253   -18762   -18137   -17604   -17177 
  -16822   -16636   -16746   -17076   -17375   -17525   -17559   -17541 
  -17652   -18125   -18905   -19715   -20403   -20926   -21247   -21347 
  -21135   -20545   -19741   -19024   -18586   -18372   -18265   -18261 
  -18368   -18517   -18584   -18484   -18214   -17766   -17240   -16877 
  -16744   -16718   -16757   -16985   -17512   -18195   -18738   -18978 
  -18967   -18817   -18563   -18297   -18173   -18268   -18544   -18895 
  -19211   -19407   -19489   -19496   -19398   -19191   -18974   -18806 
  -18747   -18877   -19121   -19257   -19215   -19102   -18893   -18500 
  -17975   -17371   -16741   -16232   -15951   -15871   -16013   -16426 
  -17012   -17647   -18229   -18593   -18601   -18353   -18118   -18056 
  -18179   -18499   -18985   -19507   -19940   -20218   -20335   -20287 
  -20133   -19954   -19743   -19592   -19500   -19337   -19219   -19202 
  -19053   -18700   -18253   -17779   -17377   -17136   -16984   -16900 
  -17016   -17346   -17836   -18442   -19003   -19433   -19764   -19924 
  -19851   -19595   -19171   -18625   -18100   -17707   -17464   -17344 
  -17332   -17415   -17535   -17643   -17791   -18023   -18249   -18343 
  -18320   -18303   -18364   -18477   -18607   -18744   -18852   -18874 
  -18816   -18712   -18532   -18291   -18090   -18014   -18021   -17995 
  -17961   -18057   -18308   -18650   -19052   -19425   -19656   -19774 
  -19832   -19804   -19633   -19303   -18914   -18604   -18430   -18351 
  -18272   -18153   -17923   -17527   -17097   -16784   -16605   -16613 
  -16914   -17473   -18135   -18711   -19087   -19267   -19291   -19291 
  -19376   -19491   -19587   -19616   -19504   -19259   -18916   -18535 
  -18219   -18027   -17986   -18083   -18252   -18403   -18360   -18026 
  -17639   -17537   -17829   -18292   -18563   -18474   -18153   -17841 
  -17747   -17884   -18081   -18202   -18239   -18276   -18382   -18481 
  -18405   -18181   -18064   -18229   -18720   -19496   -20337   -20939 
  -21128   -20919   -20483   -20036   -19676   -19342   -18940   -18472 
  -18011   -17687   -17641   -17810   -17955   -17914   -17716   -17504 
  -17409   -17464   -17551   -17485   -17231   -16965   -16885   -17043 
  -17332   -17572   -17653   -17601   -17550   -17645   -17949   -18408 
  -18958   -19502   -19873   -19939   -19703   -19344   -19125   -19147 
  -19287   -19418   -19516   -19599   -19580   -19377   -19064   -18727 
  -18391   -18149   -18088   -18180   -18307   -18338   -18249   -18110 
  -17976   -17896   -17903   -17980   -18099   -18234   -18366   -18468 
  -18527   -18612   -18787   -19028   -19251   -19340   -19229   -18960 
  -18612   -18238   -17868   -17506   -17140   -16825   -16684   -16756 
  -17020   -17521   -18215   -18937   -19575   -20104   -20528   -20741 
  -20649   -20414   -20156   -19742   -19163   -18571   -17977   -17409 
  -17028   -16883   -16866   -16895   -16893   -16880   -16902   -16931 
  -17010   -17204   -17458   -17745   -18037   -18212   -18307   -18415 
  -18530   -18702   -18978   -19311   -19654   -19931   -20038   -19912 
  -19564   -19064   -18582   -18260   -18203   -18401   -18663   -18904 
  -19116   -19245   -19314   -19319   -19153   -18813   -18411   -17973 
  -17548   -17301   -17302   -17520   -17879   -18239   -18528   -18738 
  -18817   -18750   -18600   -18445   -18339   -18341   -18445   -18582 
  -18706   -18789   -18832   -18900   -19005   -19101   -19172   -19192 
  -19106   -18916   -18658   -18388   -18145   -17884   -17597   -17366 
  -17270   -17348   -17618   -18042   -18543   -19003   -19306   -19386 
  -19236   -18921   -18522   -18166   -18011   -18052   -18270   -18705 
  -19236   -19662   -19862   -19770   -19403   -18883   -18377   -18003 
  -17774   -17653   -17653   -17690   -17663   -17636   -17652   -17628 
  -17568   -17583   -17721   -17930   -18192   -18497   -18763   -18922 
  -18966   -18890   -18678   -18393   -18180   -18123   -18218   -18419 
  -18638   -18808   -18920   -18955   -18867   -18650   -18369   -18121 
  -17967   -17923   -17998   -18153   -18339   -18536   -18701   -18789 
  -18800   -18751   -18681   -18632   -18617   -18620   -18636   -18677 
  -18732   -18767   -18779   -18786   -18775   -18747   -18748   -18798 
  -18862   -18852   -18724   -18565   -18463   -18432   -18415   -18364 
