Origin Time       2025/03/28 03:50:00
Lat.              35.403
Long.             140.360
Depth. (km)       54
Mag.              4.4
Station Code      CHB029
Station Lat.      35.6948
Station Long.     139.9176
Station Height(m) 3
Record Time       2025/03/28 03:51:00
Sampling Freq(Hz) 100Hz
Duration Time(s)  60
Dir.              N-S
Scale Factor      7845(gal)/8223790
Max. Acc. (gal)   2.624
Last Correction   2025/03/28 03:51:00
Memo.             
[...]
    5023     5034     5055     5069     5069     5047     5031     5044 
    5058     5058     5051     5040     5032     5036     5040     5044 
    5049     5044     5036     5042     5054     5046     5032     5035 
    5047     5062     5069     5065     5059     5051     5058     5066 
    5062     5063     5062     5050     5043     5044     5050     5047 
    5040     5035     5024     5027     5049     5062     5054     5043 
    5046     5054     5070     5093     5093     5050     4999     5024 
    5092     5094     5043     5004     5007     5053     5085     5049 
    4993     5019     5108     5130     5046     4957     4953     5044 
    5157     5154     4988     4872     4984     5154     5179     5074 
    4930     4905     5063     5206     5154     5007     4962     5013 
    5036     5059     5147     5170     5012     4857     4916     5097 
    5193     5135     5004     4939     4978     5044     5086     5090 
    5047     5013     5053     5135     5121     4972     4897     5003 
    5117     5124     5043     4962     5001     5097     5066     4958 
    4961     5062     5121     5103     5036     4969     5001     5138 
    5192     5092     5017     5030     5023     5046     5140     5117 
    4930     4853     5009     5148     5120     5058     5003     4907 
    4908     5104     5306     5273     5046     4912     4999     5094 
    5080     5036     4959     4905     5023     5178     5158     5024 
    4958     5024     5124     5134     5067     5023     5084     5193 
    5158     5012     4990     5088     5073     4934     4907     5023 
    5066     5000     4980     5040     5084     5073     5065     5065 
    5043     5028     5061     5130     5158     5074     4993     5023 
    5051     5015     5009     5053     5065     5024     4996     5044 
    5107     5069     4970     4962     5063     5142     5117     5065 
    5036     5015     5036     5112     5105     4985     4924     4963 
    4974     4981     5080     5154     5078     4986     4989     5013 
    5027     5071     5146     5175     5127     5061     5017     5000 
    5012     5000     4999     5104     5209     5181     5085     5034 
    5077     5144     5144     5107     5073     5047     5084     5150 
    5101     4934     4861     4951     4951     4803     4785     4958 
    5104     5138     5086     4947     4854     4993     5217     5223 
    5047     4912     4881     4941     5007     4989     4963     5000 
    5093     5223     5267     5123     4943     4982     5215     5351 
    5258     5100     5020     4992     4969     4930     4915     4977 
    5035     5017     4957     4951     5042     5125     5151     5162 
    5135     5084     5081     5104     5067     5008     5020     5059 
    5036     4974     4922     4881     4865     4903     5005     5139 
    5250     5255     5131     4976     4914     5015     5219     5293 
    5130     4942     4943     5049     5081     5073     5111     5113 
    5030     4985     5011     5012     5005     5076     5146     5078 
    4978     5028     5108     5026     4891     4914     5049     5093 
    5005     4877     4780     4826     5067     5297     5324     5259 
    5269     5344     5367     5275     5119     4989     4932     4942 
    4942     4901     4876     4888     4905     4965     5080     5155 
    5151     5117     5084     5061     5036     4954     4791     4657 
    4650     4699     4799     5015     5212     5223     5092     4977 
    4996     5154     5325     5344     5243     5205     5262     5238 
    5058     4870     4816     4923     5124     5217     5094     4938 
    4966     5124     5236     5292     5324     5235     5054     5007 
    5066     4995     4904     5005     5111     5017     4845     4787 
    4853     4912     4895     4826     4742     4730     4853     5047 
    5244     5356     5328     5306     5314     5167     4928     4831 
    4888     4938     4892     4850     4887     4941     5046     5190 
    5193     5073     5034     5115     5240     5328     5306     5251 
    5262     5232     5094     4966     4869     4774     4834     5120 
    5373     5346     5150     4970     4874     4995     5286     5394 
    5232     5112     5148     5162     5034     4847     4722     4692 
    4764     4874     4889     4824     4795     4822     4935     5096 
    5157     5155     5221     5281     5220     5125     5142     5192 
    5135     5026     4936     4843     4831     4996     5184     5212 
    5161     5138     5119     5113     5132     5109     5046     5043 
    5088     5066     5013     4997     4985     4982     4985     4949 
    4904     4892     4878     4843     4864     4981     5084     5116 
    5152     5177     5132     5024     4936     4969     5059     5067 
    5019     5001     5019     5027     5011     5005     5044     5082 
    5067     5026     4974     4993     5200     5462     5526     5410 
    5329     5351     5325     5186     5069     5067     5123     5107 
    4962     4793     4739     4792     4884     4950     4918     4835 
    4820     4838     4833     4853     4878     4816     4741     4758 
    4851     5007     5173     5298     5417     5476     5368     5161 
    5007     4961     4988     5044     5042     4965     4969     5116 
    5239     5198     5094     5054     5049     5051     5039     5028 
    5097     5179     5213     5246     5182     4934     4658     4576 
    4716     4927     5112     5293     5395     5313     5186     5208 
    5336     5422     5420     5371     5260     5042     4799     4661 
    4642     4693     4784     4889     4943     4899     4799     4761 
    4846     4970     5027     5027     5022     5024     5043     5071 
    5085     5125     5206     5202     5082     4977     4936     4974 
    5098     5221     5328     5429     5432     5308     5174     5117 
    5111     5066     4969     4878     4801     4733     4761     4901 
    5022     5049     5063     5148     5192     5090     4985     4986 
    5031     5089     5139     5042     4781     4599     4594     4569 
    4488     4541     4784     5100     5348     5486     5553     5576 
    5555     5495     5385     5202     5005     4924     5001     5146 
    5243     5255     5235     5266     5300     5224     5136     5161 
    5140     4938     4739     4722     4789     4816     4807     4758 
    4672     4645     4757     4970     5189     5312     5354     5401 
    5385     5232     5027     4892     4882     4965     5049     5084 
    5071     5047     5073     5178     5279     5259     5162     5086 
    4981     4784     4622     4648     4769     4815     4804     4820 
    4882     5017     5155     5190     5186     5235     5263     5171 
    4997     4889     4943     5120     5270     5279     5198     5120 
    5054     4986     4980     5084     5235     5362     5437     5394 
    5219     5004     4889     4935     5020     4997     4873     4769 
    4758     4764     4712     4718     4866     5031     5073     5035 
    5036     5080     5134     5192     5184     5070     4946     4938 
    5059     5173     5128     4992     4941     5020     5130     5175 
    5173     5219     5333     5445     5495     5512     5556     5559 
    5401     5140     4939     4801     4602     4383     4334     4479 
    4699     4903     5030     4999     4807     4653     4720     4893 
    4977     5028     5175     5323     5346     5290     5235     5184 
    5086     4907     4695     4545     4536     4710     5012     5294 
    5472     5606     5734     5775     5653     5412     5165     5003 
    4928     4828     4646     4522     4598     4795     4949     5020 
    5062     5132     5285     5455     5479     5371     5274     5184 
    5016     4842     4808     4897     4977     5044     5155     5216 
    5170     5140     5165     5167     5136     5084     4978     4806 
    4612     4517     4567     4692     4835     5035     5319     5552 
    5568     5379     5104     4792     4507     4321     4224     4256 
    4502     4847     5081     5216     5401     5632     5756     5705 
    5555     5402     5296     5246     5186     5019     4864     4935 
    5158     5310     5350     5320     5238     5136     5053     4965 
    4850     4795     4845     4923     5005     5051     4974     4841 
    4756     4691     4622     4591     4629     4723     4861     5012 
    5080     5015     4900     4838     4820     4796     4868     5144 
    5471     5586     5409     5071     4765     4603     4591     4661 
    4768     4950     5211     5441     5576     5579     5382     5093 
    4891     4818     4895     5112     5382     5664     5913     6050 
    6096     6166     6299     6404     6405     6259     5938     5514 
    5111     4772     4541     4506     4634     4792     4905     4872 
    4548     4004     3457     3052     2832     2786     2921     3246 
    3704     4229     4712     5005     5107     5058     4851     4573 
    4409     4448     4614     4831     5138     5464     5698     5900 
    6108     6196     6161     6187     6363     6609     6840     7038 
    7188     7246     7159     6906     6466     5790     4992     4320 
    3896     3688     3663     3820     4081     4282     4333     4225 
    3942     3532     3167     3092     3411     3944     4552     5227 
    5829     6183     6277     6147     5799     5329     4897     4565 
    4382     4437     4661     4924     5277     5751     6183     6396 
    6380     6239     6073     5904     5648     5263     4914     4679 
    4459     4214     3964     3747     3628     3647     3823     4214 
    4837     5562     6123     6339     6243     5940     5462     4862 
    4310     4014     4070     4448     5065     5748     6328     6768 
    7010     6972     6743     6461     6092     5568     4942     4326 
    3781     3350     3105     3068     3208     3488     3800     4056 
    4276     4444     4536     4657     4873     5139     5431     5732 
    5989     6191     6318     6269     5988     5555     5086     4677 
    4437     4479     4777     5139     5381     5431     5282     5013 
    4752     4617     4652     4765     4804     4738     4671     4681 
    4768     4931     5175     5432     5566     5522     5385     5229 
    5034     4835     4723     4673     4661     4770     5049     5460 
    5873     6135     6183     6022     5641     5044     4360     3740 
    3248     2906     2795     3024     3576     4337     5197     6043 
    6801     7412     7726     7658     7298     6768     6103     5325 
    4572     3946     3437     3129     3148     3489     4110     4958 
    5902     6733     7214     7280     7024     6482     5746     5019 
    4407     3932     3620     3441     3339     3331     3469     3797 
    4295     4880     5447     5886     6130     6143     5898     5481 
    5053     4712     4506     4484     4675     5017     5373     5559 
    5503     5320     5177     5165     5275     5443     5629     5773 
    5783     5648     5454     5298     5238     5223     5117     4854 
    4511     4183     3889     3647     3531     3608     3825     4035 
    4182     4338     4533     4730     4927     5155     5440     5759 
    6056     6245     6246     6070     5838     5648     5466     5227 
    5019     4988     5109     5271     5474     5718     5900     5925 
    5810     5668     5601     5653     5836     6033     5981     5580 
    4990     4364     3796     3442     3424     3731     4198     4592 
    4780     4791     4695     4606     4661     4801     4826     4706 
    4519     4322     4202     4207     4342     4596     4900     5135 
    5225     5169     4986     4708     4396     4128     3981     4016 
    4253     4691     5256     5807     6215     6420     6407     6173 
    5792     5412     5131     5015     5080     5227     5344     5393 
    5398     5432     5555     5794     6122     6466     6770     6951 
    6914     6650     6151     5455     4688     3983     3454     3176 
    3113     3199     3393     3646     3921     4233     4554     4796 
    4914     4961     4978     4938     4870     4862     4919     4997 
    5067     5093     5057     4981     4905     4905     5038     5278 
    5556     5800     5971     6108     6238     6281     6119     5775 
    5412     5135     4922     4737     4600     4546     4581     4661 
    4718     4729     4727     4750     4776     4773     4816     5009 
    5313     5547     5545     5292     4878     4457     4189     4136 
    4260     4533     4930     5340     5607     5645     5481     5258 
    5188     5382     5765     6143     6343     6315     6080     5653 
    5092     4519     4018     3639     3456     3474     3654     4000 
    4517     5113     5611     5913     6022     5946     5709     5374 
    5020     4720     4491     4311     4185     4126     4126     4216 
    4473     4893     5331     5637     5771     5767     5659     5470 
    5224     4923     4604     4392     4415     4680     5089     5529 
    5934     6242     6363     6318     6208     6083     5949     5832 
    5730     5630     5491     5274     5039     4936     5026     5225 
    5451     5605     5560     5298     4919     4484     4018     3589 
    3304     3207     3233     3323     3435     3572     3794     4064 
    4275     4421     4526     4594     4657     4746     4892     5082 
    5213     5216     5158     5116     5127     5260     5529     5868 
    6266     6754     7280     7680     7798     7618     7237     6767 
    6300     5892     5566     5344     5227     5112     4885     4529 
    4133     3839     3711     3735     3862     4006     4117     4199 
    4221     4094     3771     3354     3048     2937     2967     3134 
    3522     4091     4703     5267     5724     6027     6196     6247 
    6149     5933     5729     5613     5587     5636     5718     5796 
    5849     5926     6050     6147     6173     6168     6181     6237 
    6293     6288     6203     6026     5736     5364     4947     4509 
    4116     3859     3781     3825     3881     3928     4029     4112 
    4060     3964     3950     4000     4043     4045     4058     4148 
    4333     4602     4876     5059     5171     5296     5470     5680 
    5930     6228     6482     6504     6196     5667     5139     4749 
    4507     4395     4383     4437     4561     4745     4954     5150 
    5320     5503     5697     5821     5879     5956     6064     6112 
    6066     5946     5703     5293     4812     4411     4166     4091 
    4162     4306     4457     4623     4850     5111     5248     5135 
    4851     4533     4237     4050     4050     4206     4475     4835 
    5221     5545     5740     5768     5671     5521     5381     5255 
    5103     4959     4907     4938     4973     4963     4934     4904 
    4861     4826     4845     4938     5055     5121     5139     5158 
    5219     5314     5393     5486     5637     5761     5773     5675 
    5481     5188     4822     4491     4290     4259     4450     4858 
    5355     5802     6108     6232     6170     5935     5570     5151 
    4739     4368     4104     3997     4039     4175     4352     4531 
    4665     4707     4639     4468     4229     3974     3754     3616 
    3582     3673     3908     4257     4693     5220     5791     6323 
    6751     7042     7196     7231     7136     6818     6265     5599 
    4962     4463     4206     4243     4556     5070     5637     6099 
    6339     6282     5973     5593     5281     5031     4799     4611 
    4519     4510     4509     4494     4482     4455     4382     4276 
    4217     4260     4405     4622     4843     4976     4997     4995 
    5040     5093     5093     5047     4985     4935     4920     4939 
    5028     5233     5529     5827     6022     6029     5845     5536 
    5179     4838     4531     4264     4050     3920     3912     4032 
    4247     4511     4797     5080     5306     5452     5521     5475 
    5337     5240     5231     5259     5320     5420     5487     5421 
    5225     4982     4737     4526     4419     4433     4514     4676 
    4947     5282     5638     5972     6232     6399     6417     6230 
    5880     5444     5023     4737     4619     4627     4718     4830 
    4927     4997     5023     5058     5163     5282     5343     5319 
    5185     4931     4583     4245     4035     3971     4001     4114 
    4325     4595     4878     5150     5381     5545     5625     5624 
    5590     5541     5449     5312     5155     5038     4974     4946 
    4978     5058     5116     5131     5111     5044     4920     4743 
    4565     4463     4432     4428     4422     4365     4252     4121 
    4004     3974     4099     4367     4741     5171     5591     5941 
    6178     6323     6393     6423     6467     6500     6442     6251 
    5956     5632     5339     5111     4958     4838     4726     4657 
    4645     4673     4753     4884     5035     5144     5165     5094 
    4954     4760     4550     4353     4158     4010     3990     4126 
    4410     4792     5220     5643     5977     6141     6111     5937 
    5698     5410     5065     4727     4480     4364     4380     4492 
    4642     4812     5035     5293     5516     5675     5800     5876 
    5861     5767     5594     5341     5036     4676     4274     3917 
    3705     3694     3890     4249     4714     5188     5541     5706 
    5682     5530     5344     5175     5022     4892     4827     4826 
    4839     4814     4731     4612     4495     4425     4418     4456 
    4541     4671     4777     4831     4893     5011     5165     5328 
    5517     5728     5914     6012     5995     5892     5759     5621 
    5497     5390     5286     5213     5212     5279     5364     5443 
    5545     5657     5715     5684     5549     5319     5047     4803 
    4611     4499     4504     4607     4729     4814     4849     4841 
    4772     4645     4538     4504     4530     4590     4668     4769 
    4881     4978     5059     5121     5150     5135     5069     4961 
    4850     4746     4627     4498     4357     4224     4139     4125 
    4209     4409     4712     5100     5556     5994     6293     6411 
    6332     6087     5732     5341     5022     4818     4731     4810 
    5042     5314     5524     5638     5686     5701     5664     5552 
    5408     5293     5197     5098     5020     4974     4963     5000 
    5062     5088     5028     4905     4791     4714     4668     4661 
    4712     4807     4869     4843     4741     4579     4391     4218 
    4071     3963     3947     4052     4248     4491     4781     5121 
    5456     5703     5819     5810     5705     5568     5464     5383 
    5305     5263     5265     5273     5294     5340     5397     5452 
    5475     5437     5335     5213     5128     5096     5132     5208 
    5270     5325     5377     5409     5433     5447     5389     5219 
    4957     4630     4276     3948     3694     3565     3573     3703 
    3946     4266     4623     5016     5409     5740     5985     6102 
    6054     5865     5618     5397     5236     5143     5119     5138 
    5196     5296     5433     5575     5629     5567     5441     5304 
    5177     5067     4988     4943     4908     4872     4862     4878 
