Origin Time       2025/03/28 03:50:00
Lat.              35.403
Long.             140.360
Depth. (km)       54
Mag.              4.4
Station Code      CHB021
Station Lat.      34.9078
Station Long.     139.8994
Station Height(m) 9
Record Time       2025/03/28 03:51:03
Sampling Freq(Hz) 100Hz
Duration Time(s)  60
Dir.              U-D
Scale Factor      7845(gal)/8223790
Max. Acc. (gal)   0.811
Last Correction   2025/03/28 03:51:03
Memo.             
    1869     1872     1881     1880     1880     1880     1872     1873 
    1881     1879     1876     1880     1883     1877     1876     1880 
    1876     1873     1877     1881     1881     1873     1872     1880 
    1879     1872     1880     1887     1879     1871     1876     1880 
    1876     1876     1884     1884     1871     1872     1885     1877 
    1872     1887     1881     1873     1883     1877     1867     1875 
    1888     1888     1875     1872     1880     1875     1873     1884 
    1879     1869     1881     1885     1869     1871     1883     1877 
    1873     1880     1879     1876     1875     1879     1880     1869 
    1876     1892     1872     1865     1885     1884     1875     1880 
    1881     1879     1877     1873     1876     1880     1876     1880 
    1881     1873     1880     1884     1867     1873     1895     1881 
    1867     1883     1884     1869     1871     1872     1877     1890 
    1880     1873     1884     1880     1871     1879     1881     1873 
    1876     1880     1873     1869     1879     1883     1875     1873 
    1881     1884     1881     1877     1875     1877     1881     1884 
    1877     1876     1881     1869     1869     1887     1881     1876 
    1888     1884     1869     1871     1884     1885     1875     1877 
    1885     1876     1871     1880     1880     1875     1883     1887 
    1880     1872     1871     1880     1884     1877     1880     1880 
    1875     1876     1876     1876     1881     1879     1877     1881 
    1877     1873     1880     1881     1871     1875     1885     1876 
    1871     1880     1880     1873     1876     1885     1885     1873 
    1869     1876     1876     1873     1877     1885     1881     1875 
    1877     1876     1868     1873     1884     1883     1876     1876 
    1876     1877     1876     1879     1881     1872     1871     1885 
    1884     1869     1872     1876     1872     1877     1877     1873 
    1883     1884     1876     1872     1871     1879     1879     1871 
    1881     1883     1872     1875     1876     1877     1883     1877 
    1876     1883     1880     1875     1876     1880     1879     1872 
    1875     1883     1881     1877     1877     1871     1875     1888 
    1877     1867     1887     1888     1871     1873     1879     1883 
    1887     1872     1865     1881     1884     1876     1876     1876 
    1877     1876     1871     1875     1881     1876     1873     1880 
    1880     1875     1876     1881     1881     1875     1875     1879 
    1875     1875     1880     1875     1872     1875     1877     1887 
    1881     1868     1880     1885     1872     1877     1883     1876 
    1875     1880     1881     1876     1875     1880     1881     1876 
    1879     1885     1881     1873     1881     1880     1872     1883 
    1881     1871     1880     1881     1873     1879     1880     1877 
    1877     1876     1881     1884     1875     1872     1881     1883 
    1872     1875     1885     1880     1875     1885     1883     1872 
    1879     1883     1877     1879     1881     1881     1879     1873 
    1879     1885     1879     1873     1881     1884     1879     1881 
    1877     1871     1880     1884     1876     1877     1881     1883 
    1879     1877     1880     1879     1877     1881     1883     1880 
    1876     1875     1881     1881     1875     1883     1884     1873 
    1876     1884     1877     1869     1883     1887     1871     1876 
    1891     1873     1863     1881     1888     1876     1877     1883 
    1879     1872     1869     1875     1884     1883     1877     1877 
    1877     1877     1875     1871     1873     1881     1881     1880 
    1881     1876     1872     1876     1880     1879     1877     1877 
    1881     1875     1871     1879     1877     1873     1883     1880 
    1872     1877     1880     1879     1873     1868     1876     1880 
    1876     1877     1877     1873     1873     1872     1873     1881 
    1883     1875     1871     1879     1881     1873     1871     1877 
    1880     1877     1868     1867     1872     1864     1842     1821 
    1799     1777     1761     1750     1740     1748     1775     1791 
    1807     1848     1885     1898     1908     1934     1957     1984 
    2026     2058     2066     2064     2068     2054     1995     1918 
    1863     1827     1783     1715     1656     1665     1761     1850 
    1837     1780     1804     1946     2119     2166     2060     1950 
    1948     1988     2006     1987     1898     1734     1645     1767 
    1935     1923     1848     1850     1845     1852     1908     1877 
    1802     1868     1948     1827     1710     1856     2081     2130 
    2011     1831     1769     1904     2025     1968     1895     1945 
    1977     1946     2041     2170     2091     1926     1879     1854 
    1775     1741     1721     1644     1630     1738     1883     2062 
    2207     2120     1953     2031     2115     1919     1759     1779 
    1686     1455     1397     1541     1610     1566     1529     1514 
    1628     1853     1869     1655     1603     1841     2124     2286 
    2295     2170     2115     2243     2305     2161     1972     1740 
    1386     1119     1190     1502     1763     1826     1764     1883 
    2324     2705     2728     2528     2351     2273     2114     1786 
    1502     1394     1360     1323     1412     1657     1773     1705 
    1818     2128     2245     2135     2041     1953     1850     1872 
    1904     1738     1659     1907     2127     2093     2027     2043 
    2029     1988     1993     1923     1748     1728     1881     1814 
    1591     1699     1972     1907     1644     1555     1609     1701 
    1917     2126     2076     1968     2012     1888     1505     1335 
    1549     1795     1858     1853     1902     2030     2169     2146 
    2020     2034     2118     2046     1830     1659     1702     1938 
    2154     2164     2054     2106     2296     2330     2145     1861 
    1595     1487     1570     1763     1919     1923     1890     1857 
    1744     1721     1875     1902     1726     1687     1880     2116 
    2311     2367     2153     1790     1610     1679     1713     1659 
    1706     1757     1659     1571     1588     1628     1759     1968 
    2027     1946     1919     1971     2023     2047     2018     1904 
    1787     1773     1846     1950     2041     2058     2034     1996 
    1877     1730     1691     1695     1694     1777     1912     2031 
    2149     2176     2002     1761     1701     1721     1610     1572 
    1775     1962     1975     1968     2043     2093     2058     1987 
    1884     1783     1723     1680     1742     1945     2079     2089 
    2064     2008     1914     1802     1714     1622     1520     1587 
    1869     2139     2176     2000     1875     1844     1705     1579 
    1664     1825     1933     1998     2041     2108     2173     2145 
    1942     1637     1487     1575     1756     1880     1881     1925 
    2122     2235     2141     2080     2076     1842     1507     1549 
    1950     2257     2231     1998     1809     1728     1668     1621 
    1553     1518     1707     1998     2107     2141     2249     2189 
    1794     1447     1489     1651     1750     1930     1999     1863 
    1863     2015     2035     1966     1980     1973     1782     1605 
    1756     2108     2246     1996     1605     1502     1760     1939 
    1826     1783     1957     2012     1927     2039     2208     2095 
    1836     1657     1566     1609     1791     1903     1907     1964 
    1999     1887     1813     1921     2033     1989     1875     1809 
    1831     1885     1823     1645     1626     1787     1826     1764 
    1838     1992     2065     2084     2038     1937     2012     2146 
    1914     1564     1609     1845     1861     1803     1949     2089 
    2022     1965     1927     1760     1715     1842     1787     1653 
    1776     1952     1953     2015     2151     2097     1976     2004 
    1989     1814     1717     1760     1748     1680     1719     1841 
    1949     2041     2068     1999     1969     1992     1915     1792 
    1767     1777     1759     1788     1911     2004     1949     1845 
    1856     1898     1825     1728     1675     1615     1668     1881 
    2025     2039     2100     2115     1954     1823     1846     1858 
    1811     1795     1792     1752     1703     1718     1810     1935 
    2053     2092     2022     1949     1911     1842     1810     1836 
    1836     1852     1918     1950     1938     1934     1962     1980 
    1907     1795     1794     1845     1773     1692     1768     1849 
    1799     1773     1887     2046     2099     2014     1953     2012 
    2056     1992     1894     1823     1772     1703     1657     1715 
    1814     1837     1857     1987     2118     2084     1930     1771 
    1633     1568     1590     1653     1802     2023     2143     2101 
    2052     2069     2054     1931     1782     1699     1688     1787 
    1929     1956     1972     2083     2122     1995     1846     1814 
    1749     1583     1599     1837     1999     2012     2038     2077 
    2015     1833     1593     1444     1545     1779     1919     1995 
    2137     2235     2170     2042     1937     1840     1772     1761 
    1729     1659     1663     1663     1609     1717     1992     2169 
    2141     2029     1960     1930     1903     1906     1926     1883 
    1823     1836     1841     1767     1728     1810     1891     1927 
    1984     2002     1962     1953     1966     1949     1850     1690 
    1651     1836     2007     1971     1894     1892     1834     1718 
    1769     2000     2035     1856     1829     1888     1818     1788 
    1921     2070     2083     1950     1848     1895     1971     1930 
    1802     1660     1636     1799     1918     1853     1894     2100 
    2091     1838     1761     1899     1907     1800     1840     1991 
    2100     2091     1919     1741     1738     1769     1691     1647 
    1823     2106     2204     2116     1985     1817     1707     1726 
    1723     1647     1607     1656     1834     2022     1996     1888 
    1902     1993     2091     2091     1962     1858     1850     1864 
    1856     1844     1856     1826     1759     1840     1961     1852 
    1714     1783     1885     1865     1850     1941     1954     1844 
    1860     1961     1925     1885     1922     1888     1872     1949 
    1890     1647     1549     1726     1906     2010     2160     2191 
    1968     1790     1807     1790     1807     2033     2119     1868 
    1718     1841     1873     1799     1846     1917     1946     2039 
    2096     1961     1829     1900     1868     1628     1576     1696 
    1730     1810     2002     2062     1956     1962     2031     1896 
    1741     1710     1675     1714     1856     1945     1969     2034 
    2096     1964     1771     1815     1894     1768     1659     1740 
    1914     2018     2035     2042     1980     1890     1891     1927 
    1930     1879     1809     1825     1900     1841     1669     1682 
    1810     1769     1777     2016     2107     1953     1939     2068 
    2006     1860     1934     1987     1800     1787     1979     1875 
    1617     1682     1896     1894     1795     1809     1856     1903 
    1977     1958     1807     1753     1858     1844     1772     1900 
    1988     1887     1894     1995     1977     1961     1995     1903 
    1780     1826     1915     1910     1945     2011     1942     1900 
    1983     1877     1642     1659     1841     1875     1811     1933 
    2115     2042     1891     1817     1729     1764     1923     2026 
    2025     1863     1671     1669     1826     1929     1869     1857 
    1985     1939     1771     1849     1926     1695     1551     1699 
    1798     1813     1989     2141     1999     1865     1904     1788 
    1621     1802     2047     1931     1800     1981     2141     2089 
    2042     2012     1756     1483     1661     1960     1921     1888 
    2080     2169     2015     1845     1872     1962     1871     1675 
    1621     1759     1941     1993     1935     1938     2018     2043 
    1989     1953     1917     1813     1742     1779     1853     1858 
    1748     1669     1782     1881     1818     1865     2079     2134 
    1991     1834     1748     1750     1756     1705     1725     1842 
    1938     1952     1875     1822     1868     1857     1840     1952 
    1972     1810     1745     1836     1914     2000     2079     2043 
    2023     2079     2057     1980     1939     1836     1649     1570 
    1629     1722     1834     1885     1884     1972     2047     1992 
    1918     1850     1813     1894     1944     1846     1831     1953 
    1957     1817     1791     1941     1975     1867     1881     1935 
    1896     1914     1954     1875     1783     1782     1734     1632 
    1763     2074     2100     1856     1823     2045     2131     2019 
    1976     2014     1956     1875     1844     1771     1690     1657 
    1632     1618     1705     1903     2006     1937     1887     1877 
    1848     1865     1948     2025     2000     1857     1746     1772 
    1819     1845     1950     2023     1871     1648     1605     1656 
    1710     1875     2033     1983     1902     1958     2019     2027 
    2016     1952     1837     1734     1776     1950     1999     1911 
    1925     1995     1930     1842     1965     2119     1966     1736 
    1817     1993     1989     1948     1885     1725     1690     1790 
    1698     1532     1714     2038     2037     1933     2088     2246 
    2120     1842     1580     1476     1584     1696     1717     1810 
    2014     2111     1958     1760     1709     1749     1854     1964 
    1960     1954     2080     2160     2003     1777     1686     1618 
    1541     1647     1810     1846     1965     2177     2228     2147 
    2106     2143     2079     1892     1806     1742     1707     1860 
    1933     1804     1771     1860     1853     1728     1691     1742 
    1676     1688     1954     2151     2201     2259     2149     1790 
    1583     1775     1972     1923     1908     2018     2080     2034 
    1998     2045     1981     1790     1698     1656     1602     1671 
    1826     1911     1884     1772     1709     1753     1730     1675 
    1846     2106     2118     1984     1912     1795     1679     1803 
    2010     2053     2049     2093     2053     1892     1788     1848 
    1935     1969     2003     1972     1790     1617     1544     1444 
    1399     1555     1752     1867     1957     2030     2035     2049 
    2124     2054     1861     1942     2170     2112     2003     2092 
    2074     1929     1885     1811     1644     1672     1898     1972 
    1938     2016     2011     1810     1663     1640     1602     1561 
    1614     1695     1760     1929     2099     2061     2043     2164 
    2118     1972     1972     1939     1836     1904     2045     1957 
    1744     1675     1691     1672     1725     1883     1964     1902 
    1833     1788     1773     1854     1938     1954     1962     1927 
    1871     1898     1964     1946     1884     1838     1726     1609 
    1652     1756     1819     1962     2166     2253     2255     2304 
    2270     2004     1732     1676     1665     1633     1702     1772 
    1780     1784     1755     1764     1923     2126     2158     2034 
    1912     1733     1540     1613     1802     1722     1571     1702 
    1957     2093     2131     2111     2004     1887     1836     1786 
    1777     1868     1918     1888     1976     2165     2114     1852 
    1771     1895     2002     1969     1852     1827     1884     1921 
    1956     1988     2077     2212     2158     1864     1583     1512 
    1570     1578     1532     1611     1817     1915     1917     2016 
    2084     1992     1880     1741     1574     1594     1772     1850 
    1917     2172     2308     2108     1958     1937     1819     1795 
    1937     1917     1699     1617     1761     1796     1652     1647 
    1750     1760     1827     2020     2153     2180     2187     2141 
    1998     1857     1850     1890     1814     1671     1626     1732 
    1880     1968     2000     1965     1860     1791     1818     1853 
    1814     1765     1827     1975     2061     2054     2035     1966 
    1819     1750     1792     1815     1877     2003     2015     1885 
    1794     1858     1935     1837     1736     1814     1892     1926 
    2058     2138     1993     1790     1699     1661     1636     1725 
    1868     1902     1911     1972     1953     1844     1804     1853 
    1872     1880     1944     2060     2166     2122     1934     1821 
    1837     1840     1760     1694     1726     1765     1764     1848 
    1983     2046     2089     2049     1880     1790     1844     1930 
    1925     1769     1686     1795     1902     1941     1973     1996 
    2008     1954     1868     1904     1992     2011     1991     1906 
    1776     1705     1686     1640     1532     1533     1752     1931 
    1931     1919     1964     1965     1911     1895     1902     1860 
    1848     1921     1962     1958     1991     1965     1852     1813 
    1809     1788     1950     2191     2170     1971     1885     1977 
    2057     1929     1750     1733     1777     1806     1876     1952 
    1931     1804     1686     1657     1659     1694     1806     1902 
    1949     2033     2143     2199     2141     1973     1819     1755 
    1738     1748     1803     1911     1988     1964     1931     1954 
    1941     1848     1744     1698     1738     1817     1884     1971 
    2035     2008     1972     1981     1934     1813     1702     1641 
    1649     1699     1752     1811     1857     1903     2014     2100 
    2080     2080     2115     2020     1809     1672     1684     1713 
    1715     1768     1852     1942     2035     2073     2080     2110 
    2066     1861     1605     1463     1467     1534     1653     1837 
    1918     1840     1836     1957     1996     1938     1939     1958 
    1852     1750     1857     1984     1935     1925     2043     2023 
    1841     1746     1723     1671     1728     1908     2031     2065 
    2112     2137     1996     1777     1698     1722     1773     1885 
    1962     1961     2015     2095     2064     1958     1926     1965 
    1917     1800     1798     1883     1935     1937     1900     1881 
    1904     1917     1915     1908     1853     1723     1607     1580 
    1591     1638     1749     1819     1803     1818     1915     1968 
    1977     2027     1966     1799     1821     1975     1987     1908 
    1894     1941     1993     2011     1954     1833     1783     1837 
    1831     1821     1954     2074     2057     2037     2057     2018 
    1921     1849     1783     1676     1632     1707     1757     1741 
    1773     1829     1823     1825     1876     1899     1845     1825 
    1937     2008     1980     2042     2097     2008     1923     1884 
    1833     1773     1730     1709     1694     1748     1876     1949 
    1981     2026     2011     1941     1887     1836     1773     1737 
    1768     1823     1846     1884     1946     1983     2023     2061 
