Origin Time       2025/03/28 03:50:00
Lat.              35.403
Long.             140.360
Depth. (km)       54
Mag.              4.4
Station Code      CHB009
Station Lat.      35.5871
Station Long.     140.2378
Station Height(m) 41
Record Time       2025/03/28 03:50:50
Sampling Freq(Hz) 100Hz
Duration Time(s)  60
Dir.              E-W
Scale Factor      7845(gal)/8223790
Max. Acc. (gal)   17.139
Last Correction   2025/03/28 03:50:50
Memo.             
[...]
    7416     7419     7419     7423     7423     7423     7422     7414 
    7410     7414     7416     7415     7414     7414     7416     7419 
    7422     7425     7418     7408     7416     7423     7419     7422 
    7425     7415     7412     7422     7426     7423     7422     7422 
    7418     7414     7415     7420     7426     7427     7427     7419 
    7414     7415     7416     7418     7422     7419     7412     7418 
    7425     7423     7426     7429     7429     7425     7423     7425 
    7420     7414     7410     7414     7419     7426     7430     7429 
    7423     7415     7411     7411     7418     7422     7419     7422 
    7425     7422     7419     7420     7423     7419     7415     7420 
    7429     7429     7425     7425     7423     7420     7420     7425 
    7426     7420     7416     7420     7427     7430     7429     7425 
    7419     7415     7415     7420     7426     7430     7429     7423 
    7418     7414     7418     7425     7433     7433     7423     7415 
    7412     7414     7422     7426     7423     7422     7420     7420 
    7422     7426     7429     7430     7427     7419     7415     7418 
    7419     7418     7425     7431     7433     7427     7416     7415 
    7416     7416     7422     7427     7427     7425     7420     7415 
    7412     7418     7425     7427     7425     7419     7416     7418 
    7420     7416     7410     7415     7427     7420     7412     7418 
    7420     7416     7422     7431     7434     7427     7418     7414 
    7415     7416     7416     7420     7423     7420     7416     7415 
    7416     7411     7411     7418     7422     7418     7416     7419 
    7418     7412     7412     7416     7419     7423     7426     7426 
    7423     7418     7412     7408     7408     7414     7418     7420 
    7425     7423     7416     7411     7414     7412     7411     7423 
    7431     7429     7427     7427     7422     7414     7412     7416 
    7420     7419     7422     7429     7425     7418     7418     7419 
    7423     7425     7418     7414     7415     7412     7410     7418 
    7425     7426     7423     7418     7415     7416     7419     7420 
    7419     7414     7415     7420     7419     7418     7422     7422 
    7420     7418     7416     7420     7423     7418     7415     7420 
    7419     7414     7410     7408     7412     7414     7414     7422 
    7420     7410     7410     7414     7415     7416     7418     7416 
    7418     7420     7420     7420     7416     7410     7408     7414 
    7416     7416     7416     7412     7411     7411     7408     7414 
    7419     7411     7410     7420     7419     7415     7419     7422 
    7423     7420     7414     7411     7408     7407     7416     7427 
    7433     7431     7423     7414     7415     7422     7420     7425 
    7429     7419     7412     7418     7418     7418     7420     7422 
    7425     7427     7427     7425     7419     7411     7412     7419 
    7422     7422     7426     7425     7420     7418     7415     7415 
    7425     7427     7422     7422     7420     7418     7419     7418 
    7416     7416     7420     7429     7431     7427     7423     7423 
    7420     7418     7419     7420     7416     7415     7420     7427 
    7430     7425     7418     7422     7422     7416     7416     7422 
    7423     7426     7427     7429     7425     7416     7416     7419 
    7419     7420     7426     7420     7412     7414     7416     7415 
    7419     7420     7415     7418     7423     7422     7425     7429 
    7422     7411     7408     7412     7416     7422     7426     7427 
    7425     7416     7414     7419     7420     7416     7418     7420 
    7422     7423     7426     7426     7427     7430     7425     7418 
    7415     7415     7416     7416     7418     7418     7418     7422 
    7425     7416     7411     7414     7416     7419     7422     7420 
    7420     7425     7426     7425     7423     7419     7412     7408 
    7410     7414     7422     7431     7433     7423     7416     7416 
    7419     7416     7412     7414     7416     7419     7420     7422 
    7420     7418     7414     7411     7411     7415     7418     7418 
    7418     7416     7416     7420     7423     7423     7419     7418 
    7419     7414     7414     7423     7427     7422     7420     7418 
    7412     7416     7420     7414     7415     7420     7419     7416 
    7418     7418     7419     7420     7419     7414     7407     7408 
    7416     7422     7422     7422     7426     7425     7419     7419 
    7420     7418     7419     7425     7420     7414     7416     7422 
    7427     7431     7422     7414     7416     7416     7414     7419 
    7423     7419     7415     7414     7414     7411     7415     7420 
    7422     7431     7450     7450     7434     7427     7461     7524 
    7553     7526     7477     7381     7242     7163     7218     7326 
    7339     7267     7277     7406     7568     7805     8067     8070 
    7668     7087     6740     6801     7084     7388     7562     7485 
    7280     7242     7591     8120     8330     8129     7678     7005 
    6424     6323     6596     6886     7110     7564     8275     8753 
    8692     8221     7574     6898     6361     6307     6741     7215 
    7537     7750     7828     7816     7743     7573     7376     7330 
    7446     7506     7462     7402     7339     7215     6741     6183 
    6331     7091     8070     9051     9389     9045     8276     6963 
    5929     5868     6124     6297     6492     6963     8035     9121 
    9504     9340     8594     7152     5783     5247     5602     6546 
    7485     8191     8931     9320     8888     7985     6991     6313 
    6332     6804     7136     6648     5748     6087     7781     9238 
    9579     8800     7265     5906     5802     7290     9097     9370 
    8124     7002     6736     6686     6197     5350     5005     5954 
    7994    10235    11472    10863     9153     7651     6427     5297 
    4644     4584     5040     5873     7005     8691    10412    10814 
    9649     8032     7020     6848     6912     6745     6524     6072 
    5147     4364     4768     7028    10382    12961    13842    12958 
   10056     5772     1858     -156      179     2343     5730     9701 
   12969    14148    12966    10427     7555     5001     3476     3504 
    5309     8411    10966    10922     8070     4440     2471     3141 
    5652     8343    10458    12128    12542    10825     7615     4457 
    2979     3770     5725     7415     8502     9146     9121     8370 
    7485     7172     7188     6536     5679     6142     7712     9273 
   10242     9973     8415     6578     5502     5090     4561     4475 
    5929     8500    10921    11919    10995     8760     6160     4591 
    4788     5733     6498     6964     7069     7068     7543     9011 
   10787    10771     8108     4808     3735     5580     8295     9444 
    8197     5760     4525     5595     7537     8617     9140     9960 
   10269     9221     7411     5745     4980     5401     6512     7626 
    8154     8330     8757     8814     8179     7582     6806     5552 
    4684     4924     6262     8117     9456     9587     8627     7331 
    6710     6949     7171     7211     7663     8193     7942     6552 
    4595     3766     5317     8465    11140    11978    11350    10114 
    8772     7798     6898     5634     4577     4098     4359     5624 
    7253     8598     9648    10165     9877     8869     7477     6161 
    5248     4916     5325     6451     7803     8644     8604     8073 
    7735     7605     7149     6296     5694     5881     6488     6889 
    7063     7242     7977     9603    11048    11013     9591     8041 
    7538     7761     7522     6624     5733     5066     4390     3888 
    3943     4850     6940     9440    10673    10349     9725     9940 
   10822    11072     9880     7337     4224     2077     1892     3335 
    5460     7765     9825    10288     9072     8137     8297     8988 
    9478     8640     6512     4583     4028     5370     7641     8851 
    8989     9042     8633     7674     7005     6895     7148     7072 
    5983     4846     4849     5687     6970     8413     9508    10319 
   11017    11198    10149     7850     5705     4833     4618     4279 
    4147     5074     7022     8656     9084     8779     8646     9329 
   10318    10069     8475     7172     6690     6299     6079     6351 
    6758     6903     6608     6137     6003     6370     7281     8413 
    8938     8575     7778     7105     6994     7474     8116     8473 
    8295     7595     6810     6473     6716     7222     7523     7457 
    6986     6354     6663     8106     9062     8634     7295     5856 
    5371     6133     7609     9356    10571    10300     8664     7126 
    6740     6662     5949     5212     5358     6184     6944     7566 
    8195     8629     8685     8036     6876     6320     6840     7892 
    8710     8789     8325     7547     6609     6172     6528     7501 
    8627     8668     7335     6106     5999     6794     7564     7354 
    6442     6111     7194     9197    10512     9930     7886     5930 
    5225     5822     7137     8198     8135     7192     6234     5958 
    6821     8419     9655     9792     9005     8202     7854     7483 
    6886     6412     6108     5719     5223     5042     5582     6949 
    8862    10288    10314     9231     7994     7443     7696     8058 
    7881     6912     5402     4398     4927     6852     8946     9718 
    8437     6066     4565     4851     6332     7911     8523     7947 
    7307     7844     9634    11369    11407     9517     7072     5539 
    5278     5706     5919     5406     5013     6089     8325    10206 
   11061    11083    10407     9227     7990     7103     6666     6519 
    6625     6955     7105     6689     5767     4815     4591     5374 
    6535     7290     7321     6956     7014     7597     7561     6328 
    5055     4810     5466     6625     7778     8367     8480     8796 
    9551    10081    10049     9809     9414     8930     8553     8063 
    7326     6493     5988     6355     7462     8766     9852    10228 
    9493     7761     5763     4309     3611     3441     3730     4538 
    5698     7217     9211    11016    11754    11211     9497     7244 
    5439     4747     5271     6068     6305     6546     7186     7962 
    8897     9830    10239     9741     8417     6947     5950     5514 
    5513     5740     6035     6789     8425    10184    10949    10488 
    8866     6401     4033     2867     3585     5751     7877     8868 
    8891     8658     8598     8692     8509     7761     6696     5688 
    5219     5680     6944     8455     9320     9063     8363     8039 
    8113     8222     8194     8027     7439     6219     5050     4907 
    5887     7395     8633     8835     8006     6998     6431     6265 
    6362     6682     7091     7514     8019     8434     8484     8452 
    8860     9485     9397     8085     6147     4716     4469     5204 
    6338     7639     8968     9965    10412    10206     9474     8687 
    8059     7707     7846     8213     8452     8544     8283     7445 
    6300     5333     4855     4845     4920     4915     5080     5427 
    5869     6315     5976     4213     1925     1046     2814     6666 
   11055    14945    17848    19330    19025    16767    13022     8835 
    4985     1821     -305    -1043      -89     2452     5582     8314 
   10601    12384    12958    11570     8097     3615     -291    -2705 
   -3088    -1294     2357     7533    13185    17660    20004    19927 
   17614    13878     9512     5112     1360     -843     -369     2666 
    5961     7469     7528     7898     9497    11109    10948     8911 
    6224     4099     2943     2405     2376     3242     5146     7674 
   10022    11475    12202    12916    13140    11693     9018     6621 
    5004     3450     1092    -1359    -1412     2382     8326    13086 
   15164    15788    16163    15807    13144     7067     -598    -5571 
   -5321     -774     5675    11803    15853    17012    15815    13630 
   11599     9794     7379     3713     -749    -4592    -6052    -3719 
    2165     9468    16133    21088    23072    20617    13903     5790 
    -275    -3165    -3713    -2702     -190     4364    10713    16317 
   18466    17142    13999    10589     7917     6330     5798     5505 
    4168     1957      403      788     3747     8977    14796    18636 
   18493    14280     7524      907    -2365    -1576      688     2209 
    3294     5431     9065    12783    14858    14773    12996    10266 
    7211     4306     1989      877     1595     3585     5061     5429 
    6089     8093    10866    13001    13115    11101     8598     7020 
    6292     5983     6003     5911     4781     2513      602      961 
    4152     8711    12483    14575    15604    16560    17446    16664 
   12793     6740      670    -3846    -5628    -4193     -727     3144 
    6716     9742    12089    13971    15815    17764    19009    17852 
   13525     7788     3437     1316      230     -471      -89     2065 
    6201    11821    16850    18640    16204    10662     4193    -1109 
   -3925    -4006    -1958     1606     6143    10308    12286    11720 
   10297     9772    10428    11317    10962     8684     5543     3372 
    3522     6174    10127    13709    15969    16798    16187    13811 
    9651     4251    -1729    -7214   -10548   -10253    -5819     1755 
   10206    17101    20895    21543    20177    17834    14754    10825 
    6151      994    -4263    -8405    -9337    -5865     1039     9111 
   16101    20451    21600    19750    15759    10848     5665      819 
   -2350    -2910     -986     2535     6228     9086    11067    12442 
   13290    13185    11597     9059     6770     5225     4511     4908 
    6536     9046    11387    12145    10613     7392     4185     2299 
    1399      822      949     2384     5147     8684    12025    14415 
   15697    15657    13976    11230     8532     6296     4488     3445 
    3383     3819     4275     4773     5478     6473     7631     8598 
    9275     9875    10197     9780     8688     7425     6579     6365 
    6076     5231     4608     5001     6258     7689     8467     8241 
    7503     6983     6982     7327     7828     8309     8195     7095 
    5724     5385     6606     8548     9666     9084     7352     5883 
    5651     6575     8044     9477    10385    10470     9919     9385 
    9313     9333     8422     6085     3593     2876     4055     5611 
    6509     6916     7512     8625     9730     9990     9362     8640 
    8395     8630     8993     8889     8114     7052     5996     4977 
    4036     3623     4446     6451     8591     9547     8660     6747 
    5308     4914     5107     5335     5490     5643     5815     6388 
    8021    10756    13671    15600    15834    14364    11808     8749 
    5555     2713      530     -688     -205     2112     5067     7269 
    8287     8421     8075     7707     7825     8607     9729    10592 
   10762    10318     9458     8433     7843     7921     8199     8276 
    8010     7362     6508     5657     4831     4052     3700     4372 
    6054     7852     8947     9302     9296     9178     8907     8318 
    7458     6743     6667     7148     7508     7379     6970     6687 
    7051     8209     9585    10347     9836     8006     5756     4172 
    3774     4521     5915     7314     8414     9323    10184    10708 
   10358     9018     7184     5733     5321     5796     6515     7021 
    7177     7138     7268     7785     8522     9088     9161     8749 
    8070     7167     5918     4418     3011     2073     1930     2675 
    4243     6782    10268    13734    15738    15657    13981    11369 
    8321     5520     3473     2195     1617     1849     3157     5691 
    8876    11520    12695    12334    11152     9757     8054     5923 
    3817     2409     2285     3734     6470     9575    11780    12229 
   11114     9190     7011     4984     3559     3038     3434     4544 
    6129     7915     9634    11138    12147    12282    11464     9971 
    8322     7024     6339     6268     6494     6561     6215     5579 
    5138     5208     5529     5767     6029     6702     7990     9512 
   10512    10650    10075     8893     7304     5848     5121     5405 
    6457     7670     8446     8395     7541     6519     6223     7021 
    8370     9269     9123     7994     6276     4642     3767     3912 
    5038     6793     8557     9857    10444    10397    10056     9514 
    8698     7719     6856     6424     6513     6886     7333     7811 
    8068     7636     6474     5228     4580     4718     5405     6242 
    7048     7944     8928     9715    10053     9954     9655     9259 
    8527     7291     5800     4614     4288     4855     5701     6262 
    6525     6825     7358     8016     8745     9697    10820    11685 
   11813    11021     9574     7974     6502     5113     3823     2959 
    2965     3950     5462     6914     8132     9131     9693     9498 
    8449     6868     5529     5193     5985     7411     8881     9969 
   10403    10154     9317     7967     6384     4954     3896     3466 
    4028     5647     7878    10019    11577    12394    12353    11294 
    9262     6787     4722     3716     3678     3893     3909     4021 
    4730     6046     7466     8545     9063     8907     8322     7815 
    7659     7974     8793     9822    10561    10648    10056     9076 
    7956     6701     5383     4326     3747     3542     3616     4128 
    5282     7010     8885    10323    10987    11091    11126    11190 
   10832     9715     8077     6447     5251     4649     4607     5043 
    5782     6586     7191     7318     6990     6588     6448     6782 
    7574     8437     9031     9424     9741     9877     9551     8580 
    7263     6239     5887     6092     6484     6705     6567     6141 
    5763     5694     5775     5783     5792     5983     6494     7385 
    8649    10181    11628    12511    12537    11654    10048     8086 
    6100     4282     2920     2408     2851     4004     5524     7074 
    8413     9389     9759     9320     8237     6994     6007     5578 
    5903     6895     8195     9394    10160    10281     9798     8993 
    8073     7132     6386     5961     5707     5605     5845     6408 
    7061     7647     8120     8537     8899     8962     8490     7573 
    6593     5984     5995     6570     7376     8068     8598     9045 
    9350     9471     9460     9343     9146     8799     8068     6814 
    5197     3684     2805     2729     3387     4804     6887     9220 
   11179    12116    11708    10181     8101     5988     4172     2938 
    2562     3026     4071     5562     7508     9763    11815    12942 
   12679    11091     8741     6447     4797     3834     3377     3442 
    4151     5493     7335     9379    11133    12204    12471    11870 
   10430     8486     6570     5092     4114     3487     3199     3438 
    4336     5821     7619     9398    10883    11743    11680    10727 
    9120     7137     5143     3489     2577     2874     4417     6632 
    8807    10447    11242    11052    10111     8989     8152     7778 
