Origin Time       2025/03/28 03:50:00
Lat.              35.403
Long.             140.360
Depth. (km)       54
Mag.              4.4
Station Code      CHB006
Station Lat.      35.7790
Station Long.     140.3073
Station Height(m) 29
Record Time       2025/03/28 03:51:01
Sampling Freq(Hz) 100Hz
Duration Time(s)  60
Dir.              N-S
Scale Factor      7845(gal)/8223790
Max. Acc. (gal)   5.686
Last Correction   2025/03/28 03:51:01
Memo.             
[...]
   -3011    -3003    -2992    -2991    -2988    -2986    -2978    -2975 
   -2997    -3013    -3001    -2995    -3005    -2998    -2983    -2987 
   -2999    -3006    -3005    -3005    -3007    -2997    -2988    -2995 
   -3003    -3003    -3003    -3003    -2995    -2990    -2997    -3009 
   -3018    -3005    -2980    -2967    -2974    -2997    -3010    -2995 
   -2980    -2986    -2991    -2990    -2992    -2991    -2991    -3002 
   -3010    -3006    -2992    -2983    -2988    -2999    -3003    -3010 
   -3003    -2987    -2994    -3010    -2998    -2986    -2998    -3002 
   -2991    -2988    -2990    -2991    -2991    -2986    -2986    -2999 
   -2999    -2991    -2994    -2991    -2990    -3001    -3002    -2998 
   -3001    -2997    -2992    -2997    -2995    -2986    -2987    -2997 
   -3003    -2998    -2987    -2987    -3005    -3009    -2988    -2978 
   -2986    -2988    -2984    -2984    -2988    -2991    -2984    -2990 
   -3013    -3013    -2997    -2997    -2998    -2990    -2995    -3006 
   -3003    -2994    -2986    -2983    -2990    -2994    -2994    -2995 
   -2994    -2994    -3002    -3002    -2984    -2978    -2990    -3001 
   -2999    -2995    -2999    -2997    -2988    -2990    -2991    -2983 
   -2983    -2995    -3002    -2995    -2992    -3001    -3010    -3007 
   -2995    -2987    -2990    -2995    -2998    -2994    -2984    -2984 
   -2994    -3001    -2998    -2990    -2983    -2986    -2991    -2995 
   -2994    -2991    -2990    -2992    -2992    -2984    -2983    -2990 
   -2992    -2998    -3006    -3006    -2995    -2988    -2988    -2990 
   -2994    -3006    -3015    -3015    -3003    -2992    -2990    -2986 
   -2988    -3006    -3014    -3003    -2987    -2976    -2976    -2980 
   -2991    -3002    -3003    -2992    -2991    -3009    -3014    -2997 
   -2986    -2988    -2988    -2994    -3013    -3030    -3022    -2998 
   -2986    -2991    -2992    -2990    -3001    -3010    -2995    -2982 
   -2986    -2987    -2984    -2990    -2997    -2998    -2995    -2994 
   -2994    -2995    -2997    -2998    -2997    -2995    -3003    -3014 
   -3010    -2997    -2990    -2992    -3001    -3005    -3003    -3002 
   -2995    -2991    -2998    -3003    -3002    -2999    -2997    -2999 
   -2999    -2991    -2986    -2991    -2994    -2992    -2998    -3006 
   -3001    -2991    -2986    -2984    -2994    -3011    -3015    -3006 
   -2991    -2982    -2990    -3005    -3007    -2999    -2992    -2992 
   -2997    -2995    -2991    -2990    -2990    -2988    -2990    -2991 
   -2990    -2994    -3005    -3006    -3001    -2997    -2998    -3002 
   -3005    -3002    -2994    -2986    -2988    -3001    -3009    -3001 
   -2986    -2986    -2992    -2992    -2994    -2997    -2997    -2999 
   -2999    -2990    -2990    -2995    -2999    -2999    -2992    -2983 
   -2990    -3007    -3013    -3001    -2987    -2987    -2998    -3003 
   -2998    -2990    -2987    -2995    -3009    -3009    -2994    -2980 
   -2982    -2991    -2997    -2997    -2997    -3002    -3011    -3015 
   -3009    -2997    -2997    -3002    -2990    -2970    -2971    -2992 
   -3007    -3007    -3009    -3018    -3021    -3001    -2975    -2982 
   -3003    -2991    -2965    -2992    -3041    -3041    -3025    -3024 
   -2986    -2925    -2910    -2929    -2953    -3015    -3090    -3099 
   -3044    -2978    -2952    -2971    -2955    -2903    -2917    -2959 
   -2960    -3014    -3122    -3150    -3121    -3060    -2909    -2801 
   -2830    -2897    -2994    -3096    -3127    -3146    -3157    -3126 
   -3079    -2955    -2795    -2762    -2816    -2857    -2991    -3235 
   -3343    -3198    -3051    -3036    -2879    -2596    -2636    -2956 
   -3091    -3075    -3161    -3264    -3202    -2945    -2763    -2847 
   -2862    -2727    -2849    -3163    -3341    -3341    -3164    -2940 
   -2808    -2698    -2724    -2994    -3206    -3177    -3125    -3171 
   -3153    -2953    -2724    -2613    -2629    -2855    -3196    -3403 
   -3541    -3569    -3191    -2658    -2430    -2388    -2404    -2677 
   -3163    -3553    -3686    -3599    -3365    -2980    -2494    -2238 
   -2374    -2578    -2751    -3123    -3532    -3677    -3578    -3288 
   -2868    -2535    -2452    -2664    -3009    -3237    -3350    -3393 
   -3296    -3156    -3090    -3033    -2976    -2945    -3002    -3217 
   -3343    -3195    -2964    -2741    -2617    -2770    -2979    -2988 
   -2959    -2960    -2913    -2898    -2890    -2763    -2633    -2608 
   -2706    -2980    -3169    -3041    -3006    -3256    -3300    -3018 
   -2808    -2789    -2797    -2832    -2955    -2988    -2862    -2916 
   -3186    -3238    -3146    -3292    -3411    -3129    -2754    -2737 
   -2988    -3142    -3231    -3410    -3437    -3222    -3053    -2898 
   -2594    -2512    -2825    -3002    -2949    -3168    -3485    -3375 
   -3088    -3042    -2974    -2609    -2219    -2187    -2515    -2808 
   -2907    -3076    -3252    -3154    -2982    -2986    -2999    -2880 
   -2902    -3262    -3570    -3438    -3098    -2887    -2789    -2763 
   -2940    -3356    -3688    -3545    -3133    -2951    -2936    -2729 
   -2370    -2261    -2606    -3060    -3167    -2986    -2798    -2687 
   -2754    -3026    -3126    -2825    -2520    -2558    -2829    -3122 
   -3246    -3105    -2779    -2494    -2608    -3123    -3581    -3817 
   -3809    -3454    -3127    -3086    -2957    -2718    -2663    -2721 
   -2870    -3300    -3928    -4279    -3997    -3408    -3129    -3045 
   -2717    -2482    -2710    -2979    -3113    -3420    -3669    -3369 
   -2668    -2131    -2015    -2191    -2475    -2756    -2884    -2821 
   -2747    -2729    -2674    -2533    -2369    -2543    -3233    -3998 
   -4379    -4132    -3393    -2783    -2512    -2273    -2214    -2525 
   -2835    -2959    -3096    -3188    -3171    -3295    -3599    -3820 
   -3889    -3751    -3308    -2801    -2531    -2424    -2351    -2388 
   -2508    -2601    -2760    -3014    -3240    -3431    -3483    -3249 
   -2988    -3028    -3199    -3061    -2608    -2390    -2659    -3009 
   -3226    -3600    -4033    -3959    -3329    -2729    -2462    -2188 
   -1864    -1984    -2533    -3133    -3735    -4071    -3748    -3250 
   -3179    -3184    -2876    -2540    -2388    -2386    -2701    -3294 
   -3636    -3342    -2712    -2376    -2489    -2654    -2775    -3076 
   -3179    -2884    -3061    -3861    -4163    -3728    -3277    -2882 
   -2282    -1780    -1802    -2315    -2829    -2960    -2891    -3009 
   -3439    -4077    -4461    -4066    -3192    -2575    -2272    -2054 
   -2016    -2189    -2679    -3724    -4680    -4538    -3740    -3307 
   -2920    -1929    -1000    -1147    -2046    -2824    -3559    -4388 
   -4698    -4398    -3966    -3287    -2234    -1395    -1251    -1624 
   -2084    -2439    -2806    -3275    -3715    -3942    -3821    -3442 
   -3249    -3438    -3622    -3578    -3576    -3739    -3707    -3123 
   -2180    -1391    -1215    -1822    -2802    -3484    -3690    -3784 
   -3913    -3701    -3109    -2731    -2621    -2394    -2361    -2778 
   -3111    -3146    -3173    -2982    -2405    -2164    -2729    -3492 
   -3802    -3700    -3429    -3113    -2932    -2899    -2697    -2367 
   -2470    -3017    -3288    -2938    -2479    -2520    -2951    -3346 
   -3731    -4032    -3827    -3404    -3315    -3132    -2543    -2265 
   -2547    -2814    -2937    -3196    -3446    -3343    -3103    -3048 
   -2920    -2685    -2809    -3279    -3566    -3366    -2872    -2398 
   -2112    -2161    -2455    -2632    -2586    -2523    -2536    -2506 
   -2579    -3192    -4260    -5125    -5351    -4799    -3530    -2178 
   -1499    -1385    -1360    -1574    -2316    -3132    -3373    -3229 
   -3329    -3755    -4099    -4162    -4087    -3936    -3561    -2828 
   -1823    -1063    -1104    -1844    -2739    -3396    -3699    -3650 
   -3261    -2844    -2828    -3099    -3288    -3343    -3441    -3639 
   -3624    -3113    -2454    -2176    -2285    -2556    -2817    -2766 
   -2417    -2403    -2883    -3283    -3499    -3755    -3797    -3537 
   -3308    -3130    -2870    -2728    -2764    -2762    -2882    -3357 
   -3727    -3561    -3225    -3134    -3068    -2786    -2643    -2909 
   -3125    -3080    -3250    -3589    -3522    -3080    -2698    -2432 
   -2262    -2396    -2722    -2799    -2682    -2771    -3034    -3303 
   -3532    -3408    -2812    -2373    -2575    -2998    -3073    -2795 
   -2473    -2265    -2164    -2234    -2633    -3223    -3650    -3923 
   -4097    -3929    -3618    -3531    -3315    -2720    -2250    -2204 
   -2326    -2543    -3003    -3427    -3469    -3446    -3572    -3446 
   -3165    -3153    -3053    -2681    -2619    -2848    -2830    -2644 
   -2623    -2801    -2983    -2953    -2901    -3168    -3537    -3623 
   -3524    -3339    -2944    -2658    -2866    -3073    -2789    -2550 
   -2832    -3110    -2895    -2513    -2344    -2439    -2959    -3790 
   -4183    -3743    -2997    -2463    -2115    -1962    -2185    -2679 
   -3123    -3346    -3474    -3677    -3858    -3780    -3306    -2687 
   -2384    -2398    -2417    -2396    -2458    -2724    -3203    -3669 
   -3979    -4033    -3578    -2781    -2254    -2181    -2392    -2898 
   -3464    -3688    -3716    -3674    -3272    -2740    -2623    -2772 
   -2933    -3237    -3570    -3635    -3434    -3056    -2504    -2004 
   -1942    -2265    -2659    -3273    -4093    -4379    -3852    -3249 
   -2979    -2664    -2259    -2197    -2353    -2123    -1503    -1216 
   -1638    -2434    -3280    -4024    -4425    -4414    -4055    -3396 
   -2668    -2177    -2107    -2420    -2789    -3019    -3117    -2905 
   -2485    -2444    -2916    -3447    -3786    -3932    -3985    -4185 
   -4456    -4326    -3720    -3121    -2795    -2641    -2621    -2668 
   -2619    -2571    -2755    -3049    -3246    -3350    -3256    -2964 
   -2928    -3272    -3361    -2736    -1823    -1393    -1637    -2212 
   -2812    -3141    -3110    -3091    -3249    -3254    -3073    -3036 
   -3113    -3148    -3384    -3924    -4240    -3866    -2930    -1876 
   -1169     -958    -1077    -1510    -2181    -2768    -3261    -3933 
   -4654    -5022    -4901    -4334    -3523    -2889    -2567    -2307 
   -2072    -2176    -2775    -3534    -3987    -4067    -3909    -3500 
   -2917    -2506    -2523    -2816    -2925    -2608    -2219    -2269 
   -2754    -3273    -3689    -4186    -4791    -5238    -5225    -4731 
   -3979    -3142    -2467    -2193    -2201    -2382    -2706    -2774 
   -2323    -1742    -1462    -1583    -2126    -2903    -3431    -3472 
   -3138    -2436    -1637    -1487    -2284    -3547    -4689    -5305 
   -4912    -3349    -1544     -796    -1162    -1759    -2350    -2999 
   -2990    -1861     -341      699     1020      480    -1138    -3522 
   -5778    -7118    -7184    -6014    -4297    -3277    -3742    -5073 
   -5744    -4864    -2849     -783      356       86    -1383    -3464 
   -5601    -7168    -7527    -6547    -4592    -2270     -589     -487 
   -1748    -3041    -3242    -2397    -1399    -1107    -1938    -3638 
   -5167    -5574    -4882    -3545    -1991    -1012    -1237    -2303 
   -3427    -4275    -4689    -4279    -2771     -672      734      604 
    -623    -2195    -3807    -4947    -4716    -3063    -1460    -1445 
   -2943    -4781    -6162    -6808    -6385    -4731    -2363     -167 
    1154     1213      218    -1069    -2297    -3623    -4696    -5020 
   -4970    -5101    -5339    -5364    -4855    -3555    -1549      625 
    2079     2095      715    -1451    -3631    -5028    -5328    -4895 
   -4206    -3543    -3213    -3672    -5055    -6662    -7496    -6975 
   -5009    -2000     1046     2732     2219      237    -1669    -2818 
   -3545    -4297    -5192    -6154    -7090    -7727    -7520    -6108 
   -3785    -1453       27      382     -229    -1416    -2614    -3346 
   -3476    -3130    -2435    -1498     -577     -166     -824    -2538 
   -4455    -5655    -5733    -4847    -3697    -2897    -2396    -1984 
   -1705    -1491    -1242    -1269    -1922    -2853    -3496    -3925 
   -4380    -4749    -4837    -4344    -3073    -1507     -553     -699 
   -1671    -2713    -3187    -3096    -2959    -3152    -3763    -4680 
   -5382    -5408    -4837    -4036    -3387    -2940    -2326    -1618 
   -1516    -2184    -2906    -3109    -2906    -2484    -1896    -1529 
   -1838    -2710    -3528    -3732    -3222    -2427    -1944    -2112 
   -3001    -4379    -5520    -5582    -4340    -2282      -45     1790 
    2489     1532     -796    -3592    -5952    -7217    -7102    -6116 
   -5293    -5127    -5333    -5467    -5259    -4572    -3419    -2230 
   -1705    -2178    -3495    -5143    -6284    -6307    -5464    -4402 
   -3269    -2054    -1250    -1225    -1644    -1991    -1910    -1320 
    -631     -306     -319     -460     -657     -778     -685     -471 
    -251      -55       -2     -198     -691    -1541    -2593    -3496 
   -4089    -4433    -4567    -4414    -3997    -3537    -3202    -3090 
   -3478    -4492    -5672    -6446    -6609    -6207    -5486    -4928 
   -4942    -5435    -5830    -5746    -5412    -5016    -4275    -3160 
   -2263    -1971    -2126    -2582    -3076    -2968    -2031     -905 
    -290     -311     -831    -1725    -2725    -3418    -3630    -3595 
   -3588    -3616    -3469    -3021    -2281    -1186      309     1911 
    2965     2947     1804     -379    -3361    -6241    -8009    -8441 
   -7831    -6488    -4808    -3291    -2178    -1328     -637     -399 
    -967    -2176    -3528    -4858    -6110    -6928    -7191    -7087 
   -6490    -5158    -3361    -1775     -822     -529     -804    -1389 
   -1787    -1636     -985     -136      611      940      549     -518 
   -1868    -3130    -4068    -4515    -4479    -4143    -3716    -3407 
   -3415    -3792    -4337    -4702    -4654    -4367    -4112    -3815 
   -3362    -2971    -2879    -3055    -3385    -3893    -4592    -5332 
   -5865    -5845    -5036    -3754    -2465    -1262     -317       63 
    -207    -1127    -2401    -3379    -3773    -3888    -3991    -3983 
   -3649    -2899    -1885    -1016     -629     -818    -1568    -2612 
   -3495    -3892    -3674    -3010    -2330    -2004    -2154    -2741 
   -3659    -4696    -5510    -5746    -5266    -4237    -3025    -1991 
   -1381    -1239    -1445    -1814    -2133    -2280    -2427    -2875 
   -3721    -4793    -5670    -5827    -5124    -4006    -3006    -2339 
   -2065    -2277    -2918    -3650    -4056    -3875    -3086    -1840 
    -549      157       78     -306     -444     -298     -249     -689 
   -1749    -3242    -4752    -5935    -6697    -6907    -6353    -5204 
   -4082    -3439    -3110    -2775    -2538    -2482    -2245    -1606 
    -972     -962    -1825    -3294    -4835    -5989    -6501    -6301 
   -5441    -4171    -3018    -2393    -2176    -2058    -2004    -2087 
   -2262    -2419    -2482    -2427    -2273    -2130    -2180    -2533 
   -3100    -3643    -3969    -3962    -3522    -2675    -1629     -758 
    -407     -562    -1004    -1580    -2160    -2639    -2984    -3246 
   -3581    -4066    -4494    -4649    -4618    -4546    -4376    -4039 
   -3676    -3485    -3439    -3314    -2910    -2164    -1240     -584 
    -576    -1209    -2204    -3249    -4081    -4494    -4401    -3925 
   -3295    -2662    -2151    -1915    -1910    -1925    -1962    -2284 
   -2951    -3732    -4500    -5283    -5971    -6277    -6050    -5391 
   -4467    -3535    -2961    -2871    -3071    -3327    -3497    -3458 
   -3122    -2574    -2145    -2157    -2551    -2979    -3168    -2968 
   -2347    -1539     -922     -691     -737     -907    -1182    -1563 
   -1944    -2197    -2362    -2598    -2843    -2817    -2523    -2316 
   -2338    -2398    -2442    -2533    -2594    -2628    -2878    -3396 
   -3859    -4035    -4087    -4203    -4315    -4314    -4183    -3964 
   -3781    -3751    -3893    -4171    -4542    -4899    -5147    -5277 
   -5217    -4907    -4425    -3856    -3258    -2727    -2354    -2227 
   -2335    -2469    -2382    -2087    -1831    -1728    -1566    -1151 
    -641     -328     -214     -125     -116     -436    -1077    -1756 
   -2316    -2772    -3123    -3312    -3299    -3172    -3118    -3211 
   -3385    -3577    -3758    -3937    -4198    -4544    -4845    -5031 
   -5166    -5260    -5211    -4988    -4738    -4626    -4646    -4641 
   -4514    -4278    -3983    -3635    -3144    -2479    -1783    -1235 
    -907     -778     -811     -946    -1121    -1324    -1566    -1788 
   -1884    -1837    -1717    -1595    -1552    -1734    -2284    -3092 
   -3889    -4569    -5094    -5297    -5119    -4756    -4368    -3897 
   -3310    -2744    -2261    -1852    -1664    -1826    -2247    -2837 
   -3572    -4190    -4321    -3942    -3326    -2740    -2394    -2389 
   -2594    -2732    -2613    -2259    -1890    -1696    -1757    -2177 
   -2974    -3792    -4239    -4284    -3963    -3368    -2875    -2751 
   -2889    -3106    -3298    -3379    -3312    -3122    -2925    -2933 
   -3242    -3685    -4044    -4255    -4290    -4116    -3867    -3871 
   -4266    -4714    -4803    -4492    -3904    -3130    -2361    -1764 
   -1379    -1240    -1379    -1694    -2018    -2241    -2282    -2174 
   -2065    -2041    -2089    -2130    -2010    -1713    -1459    -1389 
   -1474    -1768    -2313    -2978    -3589    -4059    -4395    -4617 
   -4650    -4507    -4351    -4338    -4460    -4442    -3944    -2979 
   -1918    -1070     -531     -382     -699    -1420    -2355    -3307 
   -4136    -4739    -5032    -5003    -4714    -4253    -3738    -3233 
   -2732    -2278    -2050    -2205    -2667    -3154    -3469    -3574 
   -3404    -2948    -2475    -2259    -2272    -2394    -2606    -2887 
   -3165    -3366    -3418    -3244    -2879    -2496    -2268    -2299 
   -2548    -2893    -3291    -3769    -4307    -4820    -5151    -5138 
   -4780    -4260    -3717    -3100    -2355    -1676    -1350    -1449 
   -1823    -2288    -2685    -2803    -2536    -2045    -1564    -1235 
   -1147    -1350    -1811    -2415    -3002    -3427    -3578    -3447 
   -3171    -2953    -2924    -3068    -3307    -3607    -3927    -4233 
   -4513    -4668    -4581    -4225    -3685    -3249    -3175    -3327 
   -3438    -3445    -3345    -3121    -2802    -2403    -1931    -1467 
   -1088     -893    -1036    -1506    -2130    -2822    -3531    -4055 
   -4232    -4099    -3754    -3341    -3127    -3217    -3415    -3592 
   -3809    -4052    -4179    -4139    -4037    -3987    -3936    -3684 
   -3145    -2427    -1730    -1256    -1075    -1123    -1358    -1783 
   -2277    -2632    -2812    -2930    -3034    -3152    -3383    -3676 
   -3823    -3774    -3705    -3761    -3888    -3954    -3994    -4067 
   -4052    -3813    -3346    -2691    -2010    -1588    -1615    -1987 
   -2442    -2801    -2917    -2685    -2251    -1933    -1923    -2239 
   -2754    -3217    -3424    -3353    -3071    -2646    -2177    -1852 
   -1821    -2058    -2412    -2763    -3048    -3206    -3275    -3402 
   -3645    -3897    -4028    -3990    -3769    -3403    -3069    -2937 
   -3024    -3204    -3275    -3129    -2813    -2461    -2258    -2338 
