Origin Time       2025/03/28 03:50:00
Lat.              35.403
Long.             140.360
Depth. (km)       54
Mag.              4.4
Station Code      CHB028
Station Lat.      35.7664
Station Long.     139.9655
Station Height(m) 26
Record Time       2025/03/28 03:50:52
Sampling Freq(Hz) 100Hz
Duration Time(s)  65
Dir.              E-W
Scale Factor      7845(gal)/8223790
Max. Acc. (gal)   12.539
Last Correction   2025/03/28 03:50:52
Memo.             
[...]
    1101     1121     1092     1086     1102     1096     1100     1123 
    1147     1136     1086     1065     1092     1134     1162     1147 
    1092     1050     1080     1139     1161     1142     1108     1092 
    1088     1100     1152     1171     1092     1035     1085     1165 
    1167     1104     1092     1108     1081     1081     1104     1094 
    1108     1151     1147     1098     1093     1148     1163     1121 
    1094     1094     1119     1151     1140     1100     1088     1090 
    1105     1150     1181     1161     1100     1053     1066     1112 
    1161     1178     1150     1134     1142     1131     1088     1066 
    1113     1165     1181     1162     1111     1078     1086     1084 
    1101     1197     1250     1146     1043     1080     1165     1202 
    1173     1112     1057     1030     1074     1132     1127     1134 
    1173     1155     1111     1096     1082     1090     1138     1151 
    1134     1144     1161     1139     1112     1104     1075     1050 
    1102     1185     1208     1170     1109     1080     1090     1109 
    1143     1158     1143     1135     1117     1113     1124     1104 
    1078     1081     1100     1132     1177     1183     1115     1055 
    1096     1144     1125     1105     1096     1085     1098     1113 
    1111     1117     1146     1159     1111     1063     1085     1117 
    1155     1173     1102     1027     1047     1144     1221     1158 
    1003      954     1059     1171     1196     1163     1142     1140 
    1132     1104     1071     1058     1089     1136     1124     1085 
    1089     1112     1124     1129     1108     1090     1119     1151 
    1135     1104     1102     1121     1127     1136     1134     1073 
    1023     1043     1094     1134     1142     1128     1111     1097 
    1085     1081     1115     1169     1170     1121     1105     1115 
    1097     1081     1093     1116     1111     1075     1071     1112 
    1158     1171     1155     1123     1053     1019     1090     1165 
    1165     1125     1101     1112     1124     1113     1100     1092 
    1115     1143     1131     1117     1107     1059     1036     1081 
    1136     1140     1109     1098     1116     1136     1124     1085 
    1100     1162     1171     1108     1038     1009     1048     1136 
    1189     1162     1098     1040     1043     1120     1181     1183 
    1136     1053     1023     1115     1197     1159     1088     1057 
    1067     1120     1165     1152     1123     1113     1111     1113 
    1125     1120     1094     1075     1100     1142     1132     1093 
    1088     1090     1089     1117     1144     1124     1104     1121 
    1115     1081     1102     1147     1134     1105     1086     1065 
    1111     1186     1155     1092     1129     1181     1146     1097 
    1094     1093     1089     1082     1088     1154     1209     1163 
    1094     1089     1121     1148     1128     1085     1086     1124 
    1148     1140     1131     1142     1135     1113     1120     1136 
    1121     1090     1093     1148     1190     1162     1092     1044 
    1088     1179     1171     1115     1142     1147     1084     1075 
    1117     1123     1131     1175     1166     1092     1053     1075 
    1139     1198     1182     1101     1054     1073     1112     1140 
    1142     1116     1117     1163     1173     1104     1057     1108 
    1162     1163     1150     1112     1097     1127     1128     1113 
    1112     1086     1058     1080     1150     1217     1227     1178 
    1097     1046     1073     1096     1089     1131     1178     1155 
    1094     1073     1117     1151     1132     1096     1090     1139 
    1174     1154     1131     1120     1104     1090     1081     1075 
    1098     1147     1165     1140     1100     1067     1102     1177 
    1182     1138     1116     1105     1097     1117     1170     1206 
    1148     1040     1027     1100     1148     1147     1131     1146 
    1167     1116     1036     1021     1069     1135     1165     1132 
    1078     1066     1116     1167     1166     1129     1094     1089 
    1116     1139     1144     1123     1081     1088     1128     1121 
    1116     1140     1127     1097     1096     1082     1070     1105 
    1147     1124     1057     1026     1084     1174     1192     1124 
    1058     1044     1075     1124     1132     1097     1093     1111 
    1104     1121     1156     1134     1082     1061     1067     1089 
    1112     1150     1152     1082     1035     1062     1119     1155 
    1144     1108     1080     1088     1102     1082     1089     1129 
    1135     1117     1111     1107     1119     1127     1121     1123 
    1107     1082     1097     1136     1159     1138     1102     1097 
    1088     1069     1069     1078     1100     1102     1062     1059 
    1143     1289     1449     1459     1269     1089     1069     1206 
    1409     1404      993      429      210      495      982     1323 
    1335     1092      959     1155     1501     1767     1776     1463 
    1102      985     1057     1177     1169      864      473      315 
     398      664     1066     1505     1865     1926     1587     1224 
    1250     1521     1590     1231      669      432      757     1348 
    1729     1521      749       16      -78      484     1254     1579 
    1239      796      834     1393     2155     2517     2033      966 
      29     -141      537     1399     1740     1466      935      606 
     676      961     1215     1304     1163      982     1128     1653 
    2150     2126     1494      691      249      303      693     1281 
    1756     1690     1116      496      149      241      734     1104 
    1066     1066     1328     1674     2143     2515     2166     1081 
       6     -306      268     1139     1618     1532     1117      750 
     699      859     1030     1196     1305     1278     1296     1622 
    2087     2177     1703      989      411      157      282      658 
    1105     1494     1663     1586     1503     1505     1291      684 
       5     -322     -176      417     1293     2103     2637     2771 
    2354     1649     1023      464      140      265      587      823 
     900      859     1034     1575     2022     1995     1594     1080 
     699      550      503      450      469      733     1374     2336 
    3125     3026     2029      903      256       87        0     -267 
    -379      139     1119     1931     2212     2022     1640     1366 
    1298     1362     1436     1347     1129     1093     1236     1210 
     932      615      488      641      842      835      719      612 
     515      569      915     1594     2458     3041     2994     2506 
    1937     1332      572     -236     -747     -687     -122      621 
    1318     1860     2185     2371     2420     2224     1818     1175 
     271     -486     -599     -153      430      872     1144     1343 
    1375     1004      351       -8      379     1314     2143     2431 
    2234     1848     1529     1366     1316     1290     1217     1154 
    1221     1393     1564     1628     1447     1074      764      615 
     562      583      633      660      657      650      780     1182 
    1699     1984     1946     1763     1525     1181      675        9 
    -523     -413      442     1537     2347     2705     2635     2218 
    1598      919      386      301      711     1278     1588     1370 
     739      229      230      588      897      965     1011     1360 
    1921     2273     2169     1736     1328     1124      967      703 
     367       98       28      202      618     1159     1652     2120 
    2573     2722     2297     1341      272     -315     -149      534 
    1318     1742     1521      882      349      271      652     1197 
    1479     1352     1097     1070     1332     1634     1684     1472 
    1259     1239     1371     1505     1499     1225      631      -91 
    -572     -519       60      816     1397     1798     2173     2556 
    2828     2768     2235     1355      517       54       14      279 
     683     1053     1336     1497     1317      669     -129     -494 
    -198      484     1263     2010     2675     3245     3534     3229 
    2242      804     -562    -1323    -1352     -858      -99      688 
    1445     2231     2918     3234     3034     2482     1857     1259 
     673       81     -561    -1136    -1269     -637      700     2268 
    3419     3693     3152     2297     1424      495     -494    -1424 
   -1957    -1725     -804      429     1649     2659     3376     3705 
    3619     3210     2542     1734     1066      710      618      662 
     715      731      764      823      826      687      405      141 
     195      639     1163     1506     1696     1858     2058     2262 
    2332     2043     1274      261     -616    -1142    -1105     -405 
     708     1759     2382     2479     2134     1576     1043      572 
     238      367     1165     2292     3063     3029     2273     1300 
     723      726      911      969      938      800      618      603 
     762     1003     1327     1570     1478     1038      475      109 
     241      868     1645     2147     2099     1540      757       36 
    -382     -284      286      972     1480     1848     2236     2663 
    2895     2700     2081     1244      438     -257     -884    -1186 
    -791      252     1494     2397     2575     2091     1374      824 
     735     1185     1810     2137     1961     1379      874      931 
    1418     1829     1791     1212      373     -290     -553     -378 
     139      839     1630     2373     2808     2778     2336     1628 
     826      139     -284     -426     -291       98      657     1377 
    2238     3032     3402     2990     1784      294     -831    -1221 
    -936     -337      247      718     1147     1606     2068     2381 
    2431     2262     2010     1922     2099     2223     2011     1432 
     483     -490     -884     -564       97      627      691      375 
     164      541     1534     2610     3171     3069     2601     2142 
    1858     1663     1335      803      244     -132     -202       -5 
     243      317      228      267      638     1178     1620     1852 
    1861     1763     1764     1987     2288     2330     1931     1071 
     -95    -1031    -1293     -912      -94      972     2030     2727 
    2841     2581     2301     2187     2232     2238     1977     1479 
     912      334     -309     -951    -1325    -1243     -723      130 
    1048     1664     1929     2076     2232     2436     2739     2960 
    2789     2214     1497      839      313      -98     -441     -691 
    -641      -78      850     1701     2176     2224     1911     1491 
    1279     1314     1379     1327     1128      832      670      827 
    1084     1136      922      675      791     1324     1957     2354 
    2205     1493      680      248      267      527      780      838 
     734      693      873     1221     1489     1453     1139      792 
     733     1166     1930     2512     2624     2363     1858     1344 
    1027      712      186     -390     -723     -606      -44      614 
    1015     1151     1225     1405     1734     2154     2543     2721 
    2512     1985     1456     1080      841      750      633      290 
     -83     -265     -234       93      676     1255     1705     2043 
    2228     2257     2166     1939     1669     1479     1243      800 
     238     -241     -361        5      503      769      962     1313 
    1852     2523     2982     2897     2376     1728     1239      969 
     681      292      -48     -275     -282       18      480      876 
    1075     1061     1031     1240     1675     2097     2219     1900 
    1362      900      560      344      330      495      734      992 
    1312     1729     2188     2578     2744     2563     2046     1247 
     270     -521     -770     -525      -36      452      768      913 
     986     1156     1580     2100     2293     1938     1236      616 
     399      600     1021     1452     1759     1923     1981     1831 
    1412      865      284     -229     -480     -417      -76      575 
    1420     2166     2668     2924     2934     2736     2398     2000 
    1602     1236      845      334     -230     -650     -781     -621 
    -238      337     1020     1615     2037     2312     2362     2101 
    1647     1129      573      136      -63     -157     -116      264 
    1011     2015     2979     3503     3512     3264     2945     2508 
    1753      626     -589    -1464    -1736    -1502    -1113     -751 
    -292      383     1200     1939     2377     2427     2226     2062 
    2149     2439     2728     2814     2539     1883     1032      217 
    -367     -498     -133      369      630      633      546      503 
     527      413        9     -495     -868     -955     -616      129 
    1084     1938     2497     2875     3300     3800     4075     3781 
    2880     1645      530      -20       49      351      504      440 
     247       79      116      449      996     1460     1489     1065 
     648      716     1278     1857     1830      931     -469    -1682 
   -2295    -2220    -1420       71     2089     4421     6771     8698 
    9690     9466     8151     6111     3721     1271     -973    -2799 
   -4240    -5459    -6505    -7331    -7801    -7666    -6779    -5163 
   -2847      121     3619     7377    10836    13301    14260    13618 
   11701     8939     5757     2606     -162    -2358    -3937    -4928 
   -5289    -5015    -4217    -3129    -2223    -1981    -2500    -3384 
   -3948    -3649    -2362     -388     1728     3585     5130     6532 
    7955     9312    10292    10540     9760     7917     5247     2101 
   -1065    -3881    -6197    -7900    -8889    -9158    -8625    -7195 
   -4972    -2127     1229     4796     7947    10112    11007    10540 
    8962     6837     4588     2382      274    -1694    -3356    -4519 
   -5009    -4749    -3974    -3109    -2440    -2142    -2118    -1826 
    -907      495     2093     3522     4433     4811     4915     5055 
    5331     5514     5366     4793     3758     2371      897     -490 
   -1706    -2470    -2508    -1987    -1196     -261      615     1343 
    1948     2339     2533     2621     2555     2315     1948     1499 
     993      334     -594    -1609    -2288    -2351    -1759     -517 
    1305     3391     5296     6756     7585     7527     6496     4588 
    1968     -969    -3680    -5751    -6907    -6914    -5761    -3811 
   -1490      951     3249     5135     6517     7288     7410     7111 
    6396     5020     3096      984    -1031    -2656    -3667    -3977 
   -3581    -2760    -1968    -1347     -662      280     1514     2932 
    4212     5071     5404     5121     4336     3314     2224     1237 
     468     -198     -919    -1640    -2023    -1775     -912      371 
    1755     2862     3431     3419     2987     2369     1746     1067 
      76    -1213    -2481    -3431    -3765    -3256    -2012     -457 
     918     1958     2786     3492     4155     4737     5193     5626 
    5952     5891     5260     3969     2170      268    -1428    -2782 
   -3796    -4468    -4614    -4144    -3064    -1273     1065     3404 
    5212     6133     6189     5775     5178     4378     3268     1850 
     255    -1286    -2504    -3285    -3576    -3291    -2470    -1204 
     336     1780     2899     3680     4051     4020     3728     3194 
    2421     1498      502     -375     -861     -847     -272      800 
    1884     2579     2945     3149     3407     3839     4104     3770 
    2805     1302     -464    -1950    -3018    -3665    -3457    -2319 
    -954       64      909     1687     2173     2650     3450     4234 
    4534     4212     3356     2255     1235      392     -257     -765 
   -1281    -1799    -2070    -1865    -1159      -83     1273     2816 
    4226     5105     5275     4773     3653     2174      788     -365 
   -1296    -1840    -1923    -1526     -665      406     1509     2585 
    3362     3624     3442     2905     2065     1185      517       24 
    -306     -445     -498     -599     -805    -1040    -1081     -688 
      83      989     2042     3279     4405     5090     5244     4884 
    4089     2991     1688      318     -959    -1996    -2619    -2797 
   -2637    -2151    -1390     -562      193      899     1567     2106 
    2461     2766     3130     3424     3507     3373     3064     2781 
    2632     2401     2029     1710     1534     1503     1590     1736 
    1748     1355      498     -652    -1749    -2448    -2651    -2490 
   -2234    -2038    -1671     -765      761     2659     4482     5779 
    6365     6235     5428     4117     2531      835     -795    -2227 
   -3334    -3897    -3661    -2523     -804      911     2243     3141 
    3789     4280     4472     4305     3819     3006     1917      688 
    -517    -1505    -2066    -2110    -1691     -895      217     1468 
    2471     2911     2863     2632     2439     2292     2022     1453 
     646      -99     -496     -477     -201      159      560      950 
    1333     1845     2479     3106     3613     3761     3339     2448 
    1354      302     -544    -1196    -1761    -2149    -1980    -1092 
     189     1448     2424     2932     3096     3206     3230     3049 
    2708     2180     1441      554     -371    -1152    -1593    -1509 
    -864       37      822     1412     1829     2033     1998     1742 
    1487     1498     1656     1660     1459     1208     1127     1344 
    1725     2004     2050     1891     1640     1408     1296     1348 
    1476     1474     1205      804      484      187     -153     -421 
    -564     -480      -14      627     1082     1281     1341     1335 
    1278     1182     1140     1294     1566     1800     2031     2370 
    2874     3420     3715     3514     2793     1782      746     -202 
   -1017    -1625    -1962    -1980    -1684    -1086     -135     1097 
    2300     3105     3322     3009     2385     1694     1104      749 
     666      781     1015     1212     1169      815      287     -139 
    -256      -91      216      584     1034     1552     1944     1975 
    1647     1247     1159     1549     2270     2992     3431     3557 
    3481     3257     2853     2235     1439      576     -230     -905 
   -1431    -1813    -2050    -2123    -1956    -1480     -718      241 
    1325     2486     3626     4603     5236     5304     4693     3501 
    1965      410     -905    -1939    -2689    -3005    -2729    -1858 
    -518     1070     2540     3523     3936     3937     3654     3096 
    2290     1368      533      -12     -133      149      669     1228 
    1641     1745     1468      903      267     -236     -572     -776 
    -791     -562      -94      522     1070     1405     1595     1854 
    2323     2856     3250     3501     3570     3362     2882     2166 
    1397      846      561      411      274      135      120      363 
     893     1559     2056     2207     2062     1746     1420     1205 
    1047      799      384     -240    -1026    -1802    -2435    -2794 
   -2710    -2110    -1036      301     1599     2679     3487     4093 
