Origin Time       2025/03/28 03:50:00
Lat.              35.403
Long.             140.360
Depth. (km)       54
Mag.              4.4
Station Code      CHB013
Station Lat.      35.4294
Station Long.     140.2892
Station Height(m) 10
Record Time       2025/03/28 03:50:54
Sampling Freq(Hz) 100Hz
Duration Time(s)  65
Dir.              N-S
Scale Factor      7845(gal)/8223790
Max. Acc. (gal)   6.193
Last Correction   2025/03/28 03:50:53
Memo.             
[...]
   -5074    -5090    -5085    -5081    -5078    -5074    -5078    -5080 
   -5078    -5076    -5069    -5069    -5077    -5085    -5088    -5081 
   -5073    -5067    -5067    -5073    -5078    -5080    -5074    -5074 
   -5085    -5086    -5069    -5063    -5071    -5074    -5073    -5071 
   -5066    -5065    -5070    -5078    -5088    -5085    -5076    -5076 
   -5077    -5073    -5076    -5077    -5069    -5066    -5081    -5088 
   -5070    -5065    -5085    -5092    -5077    -5071    -5067    -5065 
   -5076    -5084    -5082    -5080    -5073    -5065    -5067    -5078 
   -5081    -5077    -5071    -5067    -5074    -5080    -5078    -5074 
   -5069    -5076    -5086    -5080    -5073    -5078    -5088    -5090 
   -5084    -5078    -5074    -5069    -5071    -5085    -5097    -5086 
   -5066    -5065    -5077    -5085    -5082    -5076    -5066    -5065 
   -5082    -5094    -5090    -5080    -5066    -5063    -5070    -5069 
   -5074    -5089    -5090    -5085    -5082    -5080    -5077    -5074 
   -5067    -5076    -5085    -5084    -5080    -5077    -5076    -5077 
   -5080    -5076    -5065    -5066    -5080    -5088    -5086    -5085 
   -5077    -5069    -5070    -5077    -5074    -5069    -5070    -5080 
   -5096    -5096    -5080    -5071    -5063    -5059    -5067    -5073 
   -5081    -5090    -5090    -5089    -5086    -5076    -5070    -5067 
   -5065    -5070    -5078    -5081    -5086    -5090    -5082    -5070 
   -5071    -5076    -5074    -5077    -5081    -5078    -5076    -5076 
   -5080    -5081    -5078    -5082    -5084    -5078    -5078    -5084 
   -5085    -5077    -5066    -5061    -5067    -5084    -5089    -5078 
   -5076    -5082    -5092    -5090    -5071    -5059    -5063    -5073 
   -5084    -5084    -5082    -5084    -5076    -5076    -5085    -5076 
   -5065    -5071    -5081    -5077    -5067    -5066    -5074    -5084 
   -5085    -5082    -5078    -5076    -5073    -5071    -5074    -5078 
   -5085    -5084    -5076    -5076    -5082    -5081    -5074    -5074 
   -5081    -5080    -5076    -5071    -5063    -5066    -5076    -5077 
   -5076    -5073    -5066    -5062    -5073    -5081    -5073    -5063 
   -5066    -5067    -5069    -5080    -5094    -5094    -5085    -5076 
   -5063    -5059    -5063    -5070    -5081    -5094    -5097    -5085 
   -5074    -5070    -5074    -5077    -5073    -5069    -5069    -5074 
   -5085    -5086    -5078    -5071    -5067    -5071    -5080    -5082 
   -5081    -5080    -5080    -5074    -5073    -5084    -5086    -5073 
   -5065    -5071    -5080    -5078    -5080    -5082    -5074    -5074 
   -5086    -5084    -5069    -5071    -5086    -5086    -5078    -5073 
   -5074    -5085    -5089    -5073    -5062    -5076    -5088    -5082 
   -5077    -5086    -5088    -5078    -5076    -5082    -5080    -5076 
   -5077    -5081    -5077    -5071    -5077    -5084    -5084    -5086 
   -5088    -5085    -5093    -5086    -5065    -5066    -5080    -5081 
   -5082    -5085    -5080    -5077    -5081    -5078    -5070    -5071 
   -5078    -5078    -5076    -5077    -5081    -5082    -5082    -5080 
   -5076    -5067    -5063    -5071    -5082    -5092    -5090    -5071 
   -5061    -5063    -5073    -5085    -5093    -5089    -5073    -5063 
   -5073    -5081    -5080    -5076    -5071    -5076    -5081    -5077 
   -5078    -5088    -5088    -5073    -5070    -5076    -5067    -5069 
   -5085    -5085    -5078    -5080    -5067    -5057    -5069    -5081 
   -5078    -5076    -5076    -5071    -5073    -5081    -5080    -5073 
   -5071    -5074    -5076    -5077    -5076    -5076    -5080    -5081 
   -5078    -5071    -5065    -5073    -5080    -5080    -5082    -5082 
   -5080    -5078    -5080    -5080    -5078    -5070    -5062    -5070 
   -5084    -5080    -5070    -5067    -5070    -5074    -5074    -5074 
   -5070    -5067    -5077    -5086    -5085    -5081    -5077    -5070 
   -5070    -5081    -5088    -5082    -5076    -5073    -5076    -5084 
   -5080    -5073    -5077    -5077    -5070    -5077    -5088    -5088 
   -5082    -5078    -5073    -5066    -5065    -5067    -5076    -5093 
   -5103    -5089    -5067    -5061    -5071    -5077    -5073    -5081 
   -5090    -5082    -5074    -5076    -5080    -5082    -5084    -5078 
   -5073    -5076    -5071    -5065    -5073    -5082    -5081    -5085 
   -5094    -5088    -5076    -5080    -5085    -5073    -5066    -5073 
   -5081    -5092    -5098    -5086    -5067    -5062    -5067    -5076 
   -5088    -5088    -5077    -5078    -5084    -5084    -5086    -5086 
   -5082    -5077    -5069    -5062    -5066    -5085    -5101    -5096 
   -5085    -5078    -5067    -5059    -5062    -5077    -5090    -5094 
   -5084    -5069    -5067    -5081    -5080    -5065    -5067    -5076 
   -5077    -5086    -5092    -5081    -5067    -5066    -5074    -5082 
   -5085    -5080    -5074    -5078    -5084    -5080    -5076    -5073 
   -5067    -5070    -5077    -5077    -5071    -5069    -5073    -5077 
   -5081    -5082    -5074    -5063    -5054    -5055    -5073    -5086 
   -5088    -5090    -5089    -5076    -5051    -5040    -5053    -5077 
   -5097    -5105    -5094    -5074    -5062    -5057    -5053    -5057 
   -5071    -5078    -5080    -5082    -5081    -5073    -5066    -5067 
   -5074    -5076    -5076    -5077    -5077    -5080    -5082    -5080 
   -5078    -5077    -5069    -5069    -5076    -5078    -5074    -5069 
   -5070    -5084    -5084    -5074    -5076    -5078    -5076    -5074 
   -5073    -5069    -5069    -5076    -5085    -5089    -5081    -5070 
   -5067    -5067    -5071    -5085    -5088    -5080    -5077    -5080 
   -5080    -5078    -5073    -5074    -5082    -5082    -5085    -5090 
   -5084    -5073    -5076    -5084    -5077    -5067    -5069    -5078 
   -5093    -5105    -5100    -5077    -5057    -5055    -5070    -5082 
   -5082    -5085    -5092    -5088    -5077    -5076    -5070    -5061 
   -5067    -5089    -5092    -5067    -5059    -5078    -5088    -5085 
   -5085    -5080    -5058    -5049    -5065    -5088    -5096    -5098 
   -5097    -5093    -5089    -5077    -5062    -5061    -5071    -5084 
   -5090    -5090    -5084    -5073    -5071    -5073    -5063    -5058 
   -5067    -5074    -5082    -5097    -5104    -5086    -5070    -5071 
   -5071    -5069    -5076    -5084    -5085    -5086    -5086    -5080 
   -5073    -5073    -5084    -5093    -5085    -5071    -5065    -5062 
   -5066    -5078    -5089    -5090    -5088    -5078    -5071    -5076 
   -5076    -5077    -5078    -5077    -5076    -5073    -5070    -5071 
   -5074    -5088    -5103    -5092    -5067    -5059    -5065    -5069 
   -5071    -5081    -5100    -5108    -5100    -5089    -5077    -5065 
   -5061    -5067    -5078    -5085    -5081    -5076    -5076    -5071 
   -5076    -5081    -5077    -5081    -5088    -5078    -5070    -5074 
   -5077    -5077    -5077    -5074    -5076    -5081    -5080    -5074 
   -5078    -5081    -5070    -5059    -5058    -5071    -5090    -5104 
   -5111    -5112    -5108    -5094    -5077    -5069    -5058    -5034 
   -5009    -4999    -4993    -5004    -5030    -5054    -5085    -5142 
   -5228    -5310    -5355    -5358    -5250    -5027    -4847    -4781 
   -4791    -4912    -5096    -5125    -4996    -4935    -4999    -5090 
   -5211    -5313    -5247    -5030    -4896    -4966    -5171    -5409 
   -5483    -5243    -4893    -4735    -4800    -5036    -5323    -5358 
   -5084    -4801    -4656    -4629    -4853    -5277    -5495    -5394 
   -5278    -5201    -5063    -5001    -5034    -5042    -5059    -5080 
   -5078    -5094    -5125    -5170    -5120    -4980    -4993    -5022 
   -4854    -4776    -4957    -5188    -5254    -5247    -5285    -5113 
   -4849    -4946    -5188    -5233    -5189    -5140    -5080    -4985 
   -4907    -4954    -5081    -5188    -5175    -5046    -4949    -4892 
   -4911    -5077    -5221    -5263    -5192    -5024    -4997    -5086 
   -5117    -5132    -4999    -4854    -5078    -5301    -5227    -5161 
   -5092    -4943    -4833    -4928    -5287    -5368    -4995    -4726 
   -4739    -5027    -5363    -5327    -5287    -5301    -4942    -4770 
   -5055    -5238    -5201    -5022    -4827    -4814    -4928    -5092 
   -5142    -5069    -5011    -4905    -4970    -5297    -5512    -5486 
   -5283    -5058    -4927    -4803    -4855    -5123    -5278    -5239 
   -5027    -4893    -5093    -5175    -4970    -4873    -4843    -4818 
   -4905    -5035    -5239    -5441    -5433    -5194    -4903    -4904 
   -5185    -5408    -5518    -5393    -4999    -4811    -4882    -4806 
   -4645    -4723    -4972    -5061    -5070    -5285    -5447    -5262 
   -4968    -4769    -4700    -4854    -5186    -5557    -5800    -5763 
   -5522    -5209    -4842    -4522    -4441    -4656    -4862    -4774 
   -4656    -4896    -5454    -5787    -5498    -5023    -4912    -5143 
   -5516    -5698    -5370    -4792    -4510    -4502    -4514    -4807 
   -5286    -5274    -4909    -4858    -5076    -5337    -5540    -5385 
   -4981    -4905    -5211    -5439    -5373    -5120    -4945    -4995 
   -4935    -4710    -4823    -5227    -5413    -5302    -5111    -4961 
   -4815    -4784    -5104    -5416    -5221    -4835    -4799    -5173 
   -5516    -5343    -4963    -4873    -4895    -4961    -5236    -5485 
   -5274    -4666    -4301    -4433    -4722    -5162    -5830    -6049 
   -5472    -4945    -4882    -4738    -4583    -4726    -4835    -4970 
   -5400    -5722    -5679    -5374    -4968    -4907    -5304    -5665 
   -5525    -4892    -4356    -4257    -4488    -5049    -5522    -5466 
   -5038    -4448    -4297    -5054    -5765    -5668    -5310    -5139 
   -5155    -5271    -5282    -5132    -4919    -4822    -4893    -4815 
   -4580    -4718    -5177    -5297    -5177    -5258    -5147    -4777 
   -4787    -5158    -5481    -5559    -5443    -5370    -5225    -5020 
   -4986    -4880    -4742    -4783    -4774    -4936    -5432    -5503 
   -4861    -4434    -4727    -5077    -5239    -5489    -5428    -5003 
   -4959    -5408    -5601    -5174    -4712    -4637    -4788    -5150 
   -5404    -5256    -5004    -4725    -4610    -4928    -5331    -5499 
   -5327    -5022    -5034    -5128    -5136    -5320    -5379    -5217 
   -5229    -5343    -5154    -4615    -4333    -4475    -4626    -5027 
   -5505    -5498    -5421    -5395    -5182    -5069    -5140    -5223 
   -5063    -4600    -4334    -4519    -4811    -4986    -5233    -5699 
   -6041    -5850    -5198    -4665    -4693    -4853    -4837    -5066 
   -5351    -5139    -4761    -4761    -5015    -5260    -5517    -5571 
   -5236    -4868    -4575    -4356    -4673    -5215    -5151    -4743 
   -4623    -4901    -5374    -5499    -5127    -4868    -5015    -5269 
   -5397    -5458    -5572    -5613    -5444    -5105    -4660    -4513 
   -4911    -5346    -5359    -5066    -4950    -5162    -5229    -5047 
   -4896    -4784    -4630    -4369    -4399    -5254    -6164    -6137 
   -5572    -5088    -4691    -4422    -4585    -5078    -5208    -4911 
   -4772    -4893    -5022    -5063    -5142    -5256    -5171    -4899 
   -4646    -4648    -5174    -5840    -5826    -5410    -5422    -5764 
   -6002    -5864    -5285    -4622    -4064    -3813    -4052    -4428 
   -4911    -5358    -5283    -5162    -5220    -5066    -5107    -5274 
   -4806    -4180    -4434    -5503    -6515    -6720    -6021    -4942 
   -4140    -3993    -4357    -4738    -4841    -4834    -5013    -5305 
   -5505    -5617    -5463    -5157    -5125    -5111    -5084    -5432 
   -5645    -5404    -5143    -4984    -5003    -5093    -4826    -4344 
   -4101    -4334    -4853    -5115    -5104    -5086    -5140    -5348 
   -5459    -5386    -5363    -5223    -4947    -4828    -5069    -5690 
   -6108    -5845    -5170    -4414    -3881    -3770    -3994    -4661 
   -5583    -5983    -5782    -5509    -5158    -4758    -4806    -5269 
   -5548    -5532    -5482    -5290    -4980    -4828    -4688    -4409 
   -4348    -4743    -5212    -5414    -5590    -5580    -4953    -4440 
   -4847    -5481    -5551    -5339    -5152    -4936    -4884    -5011 
   -4997    -5044    -5506    -5950    -5733    -5020    -4573    -4560 
   -4565    -4662    -4995    -5109    -4939    -4895    -4855    -4723 
   -4841    -4982    -4818    -4869    -5448    -5898    -5737    -5386 
   -5162    -4853    -4594    -4708    -4911    -4901    -4923    -5169 
   -5522    -5748    -5686    -5429    -4978    -4383    -4089    -4153 
   -4365    -4965    -5956    -6670    -6336    -5039    -3971    -3757 
   -3867    -4067    -4306    -4383    -4533    -4935    -5431    -5877 
   -6049    -6031    -6191    -6363    -6250    -6056    -5983    -6000 
   -6038    -5930    -5749    -5697    -5570    -5101    -4259    -3350 
   -3022    -3352    -3659    -3646    -3846    -4696    -5557    -5518 
   -4843    -4440    -4660    -5273    -5935    -6421    -6577    -6512 
   -6612    -6928    -7078    -6790    -6162    -5518    -4923    -4149 
   -3323    -3217    -4662    -7118    -8360    -6936    -3809     -928 
     278     -642    -2799    -4754    -6335    -8171    -9451    -8953 
   -7438    -6362    -5857    -5113    -3485    -1090     1081     1329 
   -1084    -4442    -6751    -7672    -7443    -6226    -4288    -2052 
    -338     -427    -2965    -6497    -8907   -10092   -10978   -11126 
   -9200    -5337    -1696     -151     -814    -2485    -3838    -5196 
   -7749   -10631   -11569    -9599    -5668    -2346    -1879    -3294 
   -3886    -3159    -3175    -5374    -7958    -8029    -6088    -5127 
   -5125    -3269     -264       64    -2497    -4930    -6119    -6770 
   -7041    -6816    -6511    -6355    -5813    -4406    -2778    -2803 
   -4980    -6620    -6107    -5328    -5189    -4245    -2644    -2906 
   -6112    -9687   -10351    -8035    -5435    -4594    -4785    -3620 
    -768      753    -1278    -5224    -8021    -8694    -8436    -7830 
   -6265    -4156    -2513    -1532    -1891    -4423    -7338    -7488 
   -5109    -3512    -4234    -6002    -7241    -7511    -7210    -6408 
   -4999    -3443    -2631    -3433    -4855    -4479    -2628    -1790 
   -2598    -4376    -6744    -8560    -8587    -7755    -7523    -7083 
   -4986    -1456     1371      930    -2274    -5240    -6759    -6860 
   -5746    -5418    -7246    -9705   -11005   -10642    -8891    -6609 
   -4770    -4086    -4297    -3937    -2084       33      167    -2007 
   -4360    -5335    -5552    -6108    -7026    -7649    -7603    -6764 
   -5571    -5223    -5460    -4693    -3095    -1980    -2037    -3577 
   -5861    -7213    -6975    -6231    -6066    -5817    -4459    -2602 
   -1433    -1192    -1470    -2262    -3982    -6246    -7987    -8893 
   -9227    -8797    -7263    -4835    -2400    -1359    -2639    -5467 
   -7825    -8112    -6598    -5211    -5016    -5282    -5557    -6076 
   -6215    -5251    -3963    -3638    -4315    -5026    -5381    -5684 
   -5490    -4345    -3268    -3238    -3989    -5076    -6211    -7002 
   -7323    -7300    -6623    -4706    -2251    -1185    -2065    -3342 
   -3446    -2222     -859     -980    -3098    -5915    -7553    -7407 
   -6617    -6575    -7076    -7334    -7793    -8463    -7892    -5761 
   -3859    -3874    -5532    -7047    -7015    -5391    -3558    -3393 
   -4656    -5258    -4950    -5005    -5329    -5323    -5316    -5559 
   -5830    -6034    -6162    -5900    -5185    -4878    -5260    -5217 
   -4471    -3963    -3715    -3148    -2945    -4059    -5582    -5977 
   -5263    -4266    -3618    -3636    -4062    -4615    -5078    -4949 
   -4492    -4594    -5113    -5387    -5463    -5645    -5748    -5429 
   -5039    -5343    -6157    -6426    -5767    -4864    -4438    -4684 
   -5184    -5158    -4542    -4078    -4023    -4252    -4955    -5971 
   -6686    -7009    -7298    -7569    -7479    -6937    -6297    -5667 
   -4590    -3113    -2157    -2031    -2208    -2717    -3811    -4918 
   -5481    -5822    -6423    -6916    -6620    -5837    -5387    -5402 
   -5549    -5499    -5003    -4202    -3492    -2893    -2259    -2184 
   -3570    -6033    -8031    -8756    -8552    -7830    -6887    -6168 
   -5667    -4949    -4072    -3472    -3284    -3338    -3269    -2936 
   -2813    -3244    -3835    -4306    -5004    -5933    -6473    -6446 
   -6204    -5917    -5659    -5525    -5452    -5491    -5688    -5713 
   -5202    -4372    -4014    -4625    -5688    -6303    -6322    -6326 
   -6516    -6276    -5208    -4005    -3534    -3646    -3720    -3711 
   -4005    -4646    -5059    -4664    -3782    -3298    -3585    -4429 
   -5390    -6076    -6610    -7422    -8561    -9537    -9445    -7735 
   -5116    -3109    -2554    -2737    -2466    -1973    -2386    -3684 
   -4869    -5454    -5494    -5215    -5171    -5698    -6281    -6353 
   -6108    -6026    -6130    -6002    -5377    -4600    -4220    -4159 
   -3769    -2990    -2625    -3063    -3858    -4719    -5728    -6594 
   -6698    -5922    -4924    -4522    -5036    -6029    -6529    -6080 
   -5433    -5587    -6538    -7430    -7442    -6388    -4815    -3541 
   -2957    -2872    -3034    -3477    -4325    -5352    -5999    -6095 
   -6002    -5983    -6034    -5863    -5039    -3627    -2305    -1931 
   -2961    -4773    -6150    -6659    -6822    -6858    -6183    -4695 
   -3339    -2843    -3109    -3890    -4985    -6053    -6820    -7321 
   -7659    -7815    -7858    -7770    -7280    -6268    -4932    -3716 
   -3229    -3754    -4722    -4973    -4032    -2693    -1896    -1826 
   -2212    -2755    -3318    -3948    -4824    -5940    -6804    -7038 
   -6906    -6519    -5591    -4587    -4538    -5510    -6637    -7233 
   -7149    -6561    -5674    -4722    -3936    -3326    -2978    -3292 
   -4503    -6097    -7063    -7088    -6867    -6851    -6670    -5908 
   -4807    -3906    -3304    -2879    -2920    -3717    -4831    -5472 
   -5436    -5077    -4770    -4707    -4819    -4822    -4591    -4453 
   -4746    -5243    -5512    -5481    -5366    -5385    -5427    -5273 
   -5107    -5053    -4972    -5028    -5337    -5514    -5335    -5105 
   -5103    -5243    -5360    -5455    -5626    -5813    -5737    -5202 
   -4382    -3739    -3539    -3566    -3619    -3917    -4595    -5341 
   -5894    -6280    -6527    -6637    -6616    -6303    -5481    -4428 
   -4037    -4685    -5598    -5880    -5382    -4652    -4465    -4934 
   -5394    -5400    -5105    -4779    -4502    -4288    -4330    -4785 
   -5373    -5690    -5663    -5493    -5417    -5502    -5633    -5562 
   -5066    -4321    -3736    -3523    -3674    -4023    -4263    -4340 
   -4649    -5402    -6131    -6238    -5674    -4828    -4167    -4068 
   -4693    -5597    -5921    -5418    -4649    -4195    -4352    -5044 
   -5852    -6540    -7103    -7377    -7177    -6507    -5618    -4965 
   -4629    -4202    -3553    -3111    -3268    -3809    -4179    -4299 
   -4573    -5138    -5772    -6416    -7086    -7554    -7642    -7453 
   -7020    -6307    -5541    -5020    -4676    -4191    -3539    -3115 
   -3191    -3497    -3576    -3406    -3461    -3956    -4477    -4621 
   -4436    -4236    -4395    -5173    -6381    -7368    -7649    -7371 
   -6971    -6623    -6183    -5532    -4766    -4006    -3269    -2760 
