Origin Time       2025/03/28 03:50:00
Lat.              35.403
Long.             140.360
Depth. (km)       54
Mag.              4.4
Station Code      CHB021
Station Lat.      34.9078
Station Long.     139.8994
Station Height(m) 9
Record Time       2025/03/28 03:51:03
Sampling Freq(Hz) 100Hz
Duration Time(s)  60
Dir.              N-S
Scale Factor      7845(gal)/8223790
Max. Acc. (gal)   1.534
Last Correction   2025/03/28 03:51:03
Memo.             
[...]
  -10849   -10876   -10883   -10863   -10867   -10885   -10876   -10867 
  -10871   -10867   -10860   -10875   -10883   -10867   -10872   -10883 
  -10866   -10858   -10867   -10876   -10882   -10887   -10883   -10859 
  -10845   -10870   -10885   -10870   -10867   -10885   -10872   -10851 
  -10862   -10878   -10881   -10875   -10863   -10863   -10874   -10878 
  -10872   -10868   -10874   -10876   -10867   -10863   -10874   -10891 
  -10883   -10852   -10845   -10874   -10893   -10872   -10860   -10876 
  -10881   -10870   -10859   -10863   -10883   -10889   -10866   -10852 
  -10868   -10883   -10875   -10876   -10886   -10871   -10858   -10866 
  -10875   -10882   -10887   -10882   -10866   -10852   -10867   -10891 
  -10882   -10867   -10871   -10872   -10871   -10864   -10870   -10887 
  -10882   -10867   -10866   -10862   -10868   -10878   -10872   -10868 
  -10881   -10883   -10868   -10867   -10871   -10870   -10867   -10863 
  -10867   -10875   -10872   -10872   -10876   -10874   -10872   -10874 
  -10868   -10866   -10871   -10870   -10870   -10870   -10870   -10876 
  -10881   -10879   -10862   -10851   -10866   -10879   -10879   -10867 
  -10866   -10883   -10871   -10856   -10870   -10876   -10874   -10868 
  -10863   -10868   -10882   -10881   -10867   -10871   -10872   -10859 
  -10870   -10883   -10871   -10870   -10872   -10864   -10870   -10881 
  -10871   -10862   -10876   -10885   -10866   -10858   -10876   -10879 
  -10874   -10883   -10879   -10874   -10872   -10862   -10867   -10876 
  -10860   -10854   -10876   -10890   -10871   -10858   -10866   -10878 
  -10886   -10871   -10860   -10879   -10886   -10870   -10868   -10872 
  -10864   -10868   -10893   -10885   -10854   -10855   -10876   -10878 
  -10864   -10867   -10879   -10879   -10870   -10859   -10860   -10870 
  -10881   -10889   -10874   -10862   -10874   -10876   -10864   -10872 
  -10878   -10862   -10867   -10885   -10879   -10876   -10871   -10867 
  -10878   -10868   -10854   -10870   -10882   -10871   -10870   -10878 
  -10875   -10874   -10882   -10878   -10870   -10870   -10872   -10867 
  -10863   -10875   -10879   -10874   -10870   -10866   -10871   -10872 
  -10871   -10878   -10870   -10862   -10870   -10878   -10879   -10872 
  -10864   -10866   -10879   -10887   -10871   -10858   -10870   -10887 
  -10875   -10859   -10867   -10876   -10874   -10864   -10859   -10881 
  -10893   -10864   -10849   -10871   -10889   -10881   -10859   -10854 
  -10883   -10894   -10862   -10856   -10872   -10882   -10882   -10870 
  -10868   -10875   -10874   -10872   -10870   -10868   -10872   -10881 
  -10875   -10860   -10868   -10876   -10868   -10871   -10885   -10882 
  -10866   -10862   -10874   -10887   -10887   -10871   -10849   -10863 
  -10899   -10887   -10848   -10858   -10898   -10898   -10858   -10840 
  -10876   -10897   -10871   -10855   -10864   -10878   -10879   -10872 
  -10876   -10879   -10870   -10856   -10859   -10881   -10889   -10871 
  -10866   -10889   -10887   -10847   -10839   -10871   -10891   -10871 
  -10847   -10854   -10871   -10872   -10851   -10820   -10822   -10851 
  -10849   -10829   -10833   -10849   -10860   -10867   -10867   -10876 
  -10928   -10974   -10960   -10943   -10947   -10951   -10955   -10945 
  -10921   -10909   -10898   -10889   -10878   -10848   -10791   -10747 
  -10739   -10723   -10701   -10723   -10754   -10773   -10813   -10863 
  -10891   -10909   -10941   -10970   -10995   -11034   -11053   -11028 
  -10995   -10991   -11002   -10984   -10918   -10832   -10737   -10669 
  -10716   -10820   -10790   -10671   -10660   -10751   -10872   -10952 
  -10864   -10755   -10860   -10994   -10989   -11016   -11079   -11068 
  -11045   -11017   -10932   -10855   -10863   -10937   -10987   -10916 
  -10785   -10752   -10805   -10889   -10925   -10758   -10561   -10586 
  -10687   -10747   -10820   -10824   -10774   -10859   -10980   -10933 
  -10926   -11034   -10972   -10849   -10921   -11001   -10916   -10813 
  -10752   -10669   -10660   -10816   -10960   -10909   -10774   -10787 
  -10936   -11009   -10970   -10925   -10876   -10901   -11060   -11094 
  -10916   -10841   -10937   -10939   -10805   -10700   -10690   -10774 
  -10852   -10801   -10692   -10690   -10848   -11043   -11098   -11061 
  -11044   -10964   -10810   -10740   -10851   -11051   -11071   -10797 
  -10496   -10493   -10824   -11118   -11003   -10717   -10605   -10611 
  -10747   -11010   -11140   -11029   -10814   -10732   -10943   -11275 
  -11375   -11173   -10916   -10837   -11032   -11292   -11196   -10755 
  -10435   -10408   -10530   -10739   -10849   -10669   -10450   -10474 
  -10686   -10979   -11180   -11126   -10912   -10747   -10852   -11188 
  -11296   -10995   -10733   -10783   -10903   -10893   -10773   -10625 
  -10627   -10862   -11099   -11078   -10908   -10870   -10963   -11045 
  -11063   -10964   -10806   -10716   -10666   -10598   -10573   -10648 
  -10829   -11003   -11025   -10975   -10984   -10993   -10913   -10760 
  -10629   -10566   -10559   -10690   -10970   -11144   -11049   -10913 
  -10918   -11006   -11180   -11275   -11060   -10774   -10698   -10814 
  -10990   -10978   -10719   -10536   -10619   -10802   -10901   -10777 
  -10543   -10589   -10918   -11121   -11063   -10905   -10786   -10827 
  -11018   -11124   -11028   -10930   -10974   -11110   -11268   -11260 
  -11006   -10832   -10918   -11038   -11064   -10951   -10700   -10531 
  -10459   -10420   -10581   -10754   -10639   -10498   -10613   -10837 
  -10953   -10898   -10731   -10604   -10741   -11165   -11529   -11543 
  -11319   -11097   -11038   -11167   -11191   -10925   -10635   -10461 
  -10355   -10523   -10870   -10910   -10660   -10515   -10621   -10921 
  -11094   -10949   -10824   -10921   -10997   -10974   -10990   -11065 
  -11141   -11160   -11060   -10859   -10686   -10624   -10605   -10616 
  -10724   -10822   -10800   -10810   -10960   -11169   -11334   -11295 
  -11010   -10728   -10577   -10450   -10417   -10565   -10767   -10918 
  -10943   -10864   -10848   -10928   -11034   -11121   -11075   -10867 
  -10700   -10775   -10914   -10843   -10710   -10685   -10615   -10570 
  -10747   -11009   -11163   -11190   -11153   -11136   -11109   -11080 
  -11036   -10781   -10474   -10457   -10570   -10682   -10862   -10871 
  -10708   -10704   -10812   -10925   -11130   -11277   -11207   -11032 
  -10902   -10870   -10844   -10702   -10577   -10648   -10798   -10941 
  -11105   -11188   -11173   -11044   -10766   -10652   -10844   -10995 
  -11009   -11030   -11038   -11001   -10894   -10736   -10600   -10471 
  -10473   -10725   -10980   -11065   -11107   -11045   -10843   -10763 
  -10805   -10764   -10717   -10754   -10836   -10971   -11056   -10980 
  -10883   -10874   -10841   -10806   -10852   -10879   -10847   -10789 
  -10693   -10656   -10728   -10852   -11003   -11099   -11140   -11234 
  -11234   -10987   -10750   -10756   -10893   -10945   -10818   -10656 
  -10656   -10728   -10704   -10660   -10709   -10790   -10856   -10917 
  -10966   -11014   -11030   -10989   -10971   -10956   -10887   -10885 
  -10935   -10871   -10767   -10805   -10951   -11057   -11025   -10902 
  -10814   -10756   -10728   -10802   -10893   -10851   -10671   -10489 
  -10513   -10766   -10974   -10998   -10968   -10948   -10963   -11065 
  -11125   -11016   -10824   -10665   -10642   -10750   -10843   -10936 
  -11103   -11192   -11097   -10980   -10943   -10889   -10809   -10760 
  -10728   -10697   -10654   -10627   -10731   -10878   -10887   -10885 
  -10968   -10994   -10997   -11076   -11132   -11114   -10971   -10737 
  -10700   -10821   -10760   -10594   -10538   -10577   -10743   -10982 
  -11076   -11036   -10998   -11022   -11126   -11159   -11038   -10984 
  -11007   -10910   -10771   -10724   -10762   -10862   -10910   -10839 
  -10763   -10693   -10571   -10605   -10879   -11047   -10917   -10766 
  -10762   -10835   -10939   -11013   -11007   -10952   -10889   -10875 
  -10835   -10720   -10735   -10862   -10935   -11052   -11172   -11071 
  -10818   -10631   -10563   -10620   -10754   -10832   -10860   -10935 
  -11071   -11196   -11214   -11126   -10976   -10800   -10724   -10760 
  -10766   -10674   -10551   -10559   -10725   -10849   -10804   -10736 
  -10813   -10968   -11064   -11010   -10906   -10970   -11086   -11024 
  -10845   -10732   -10804   -10975   -11040   -11020   -11030   -11011 
  -10913   -10759   -10623   -10658   -10833   -10990   -11084   -11034 
  -10768   -10488   -10469   -10712   -11017   -11144   -10987   -10783 
  -10781   -10871   -10916   -10975   -10997   -10871   -10729   -10697 
  -10773   -10940   -11036   -10952   -10843   -10831   -10932   -11071 
  -11133   -11101   -10978   -10798   -10728   -10871   -11086   -11111 
  -10935   -10802   -10843   -10864   -10692   -10505   -10467   -10492 
  -10596   -10783   -10921   -11016   -11078   -11070   -11076   -11110 
  -11041   -10824   -10621   -10615   -10762   -10937   -11038   -10983 
  -10891   -10885   -10843   -10793   -10863   -10899   -10848   -10848 
  -10806   -10727   -10754   -10729   -10597   -10527   -10597   -10874 
  -11207   -11353   -11313   -11088   -10843   -10831   -10925   -11006 
  -11065   -10974   -10901   -11006   -11014   -10939   -10872   -10624 
  -10422   -10534   -10733   -10905   -10956   -10795   -10759   -10968 
  -11079   -11048   -10984   -10840   -10697   -10660   -10697   -10786 
  -10854   -10917   -11075   -11169   -11078   -10939   -10767   -10594 
  -10665   -10916   -11064   -11091   -10997   -10751   -10577   -10658 
  -10887   -11025   -10944   -10795   -10728   -10775   -10912   -10889 
  -10685   -10671   -10855   -10922   -10866   -10863   -10922   -10951 
  -10913   -10778   -10669   -10820   -11110   -11196   -11052   -10916 
  -10970   -11167   -11326   -11272   -10979   -10651   -10457   -10476 
  -10714   -10835   -10670   -10578   -10648   -10766   -11037   -11271 
  -11157   -10895   -10717   -10652   -10848   -11151   -11110   -10912 
  -10926   -10948   -10859   -10798   -10782   -10775   -10704   -10670 
  -10806   -10891   -10816   -10723   -10646   -10678   -10840   -10925 
  -10882   -10863   -10957   -11107   -11210   -11182   -10935   -10660 
  -10690   -10856   -10875   -10926   -11025   -10967   -10944   -10975 
  -10770   -10539   -10569   -10751   -10960   -11057   -11021   -10995 
  -10918   -10820   -10922   -11114   -11180   -11142   -10952   -10708 
  -10704   -10813   -10744   -10581   -10498   -10578   -10821   -11056 
  -11121   -11005   -10832   -10779   -10882   -11022   -11051   -10895 
  -10648   -10565   -10785   -11060   -11117   -10971   -10733   -10606 
  -10705   -10871   -11005   -11038   -10947   -10908   -10930   -10871 
  -10802   -10771   -10773   -10866   -10940   -10968   -11056   -11018 
  -10863   -10881   -10941   -10851   -10744   -10619   -10515   -10683 
  -10955   -10972   -10922   -11017   -11078   -10999   -10905   -10905 
  -10929   -10882   -10808   -10771   -10705   -10586   -10671   -10966 
  -11030   -10891   -10843   -10797   -10775   -10921   -11113   -11245 
  -11244   -11038   -10818   -10782   -10862   -10951   -10914   -10674 
  -10530   -10654   -10789   -10891   -11016   -10970   -10831   -10787 
  -10752   -10721   -10843   -11049   -11121   -11018   -10879   -10840 
  -10918   -10962   -10901   -10851   -10805   -10731   -10733   -10768 
  -10728   -10721   -10771   -10805   -10878   -10944   -10879   -10798 
  -10876   -11083   -11234   -11157   -10883   -10640   -10557   -10601 
  -10751   -10860   -10760   -10582   -10597   -10840   -11090   -11229 
  -11217   -10979   -10713   -10702   -10868   -10933   -10844   -10756 
  -10716   -10787   -11038   -11192   -11022   -10791   -10739   -10794 
  -10939   -11124   -11172   -11097   -11110   -11232   -11236   -11030 
  -10750   -10481   -10359   -10462   -10478   -10307   -10368   -10766 
  -11176   -11460   -11585   -11515   -11387   -11268   -11048   -10756 
  -10461   -10192   -10095   -10183   -10276   -10395   -10631   -10922 
  -11230   -11492   -11573   -11419   -11057   -10737   -10754   -10968 
  -11037   -10874   -10656   -10608   -10758   -11026   -11341   -11446 
  -11153   -10692   -10359   -10242   -10253   -10255   -10347   -10748 
  -11273   -11479   -11330   -11167   -11142   -11187   -11164   -11007 
  -10824   -10762   -10849   -10983   -10964   -10663   -10293   -10284 
  -10620   -10863   -10827   -10692   -10683   -10949   -11398   -11628 
  -11340   -10686   -10129    -9983   -10192   -10546   -10859   -11026 
  -11136   -11358   -11655   -11838   -11867   -11696   -11214   -10687 
  -10558   -10801   -11088   -11163   -10966   -10665   -10493   -10494 
  -10485   -10343   -10245   -10455   -10864   -11038   -10800   -10449 
  -10401   -10678   -10903   -10939   -11016   -11264   -11535   -11545 
  -11207   -10839   -10798   -11194   -11693   -11603   -10882   -10195 
   -9840    -9856   -10203   -10496   -10577   -10636   -10729   -10822 
  -10945   -11155   -11404   -11538   -11466   -11157   -10713   -10297 
  -10003    -9949   -10089   -10224   -10484   -11049   -11709   -12225 
  -12464   -12287   -11816   -11317   -10786   -10303   -10123   -10048 
   -9921   -10048   -10447   -10970   -11520   -11751   -11634   -11479 
  -11249   -10982   -10886   -10787   -10633   -10667   -10800   -10916 
  -10995   -10848   -10615   -10542   -10481   -10450   -10584   -10798 
  -11119   -11533   -11805   -11898   -11796   -11346   -10721   -10181 
   -9721    -9421    -9320    -9263    -9362    -9707   -10125   -10705 
  -11522   -12148   -12344   -12266   -12047   -11942   -11970   -11682 
  -10994   -10278    -9863    -9923   -10282   -10612   -10856   -10982 
  -10955   -10874   -10674   -10361   -10200   -10284   -10519   -10867 
  -11175   -11179   -10925   -10708   -10581   -10399   -10281   -10550 
  -11195   -11832   -12129   -12006   -11608   -11221   -11037   -11011 
  -11016   -11018   -11048   -11109   -11171   -11144   -10889   -10473 
  -10214   -10238   -10419   -10596   -10642   -10611   -10620   -10635 
  -10696   -10827   -10841   -10716   -10698   -10871   -11084   -11180 
  -11111   -10960   -10847   -10852   -11003   -11129   -11016   -10767 
  -10640   -10713   -10910   -11082   -11051   -10706   -10231   -10062 
  -10338   -10724   -10935   -11009   -11098   -11277   -11431   -11372 
  -11209   -11196   -11308   -11313   -11070   -10648   -10316   -10361 
  -10740   -11119   -11295   -11249   -11086   -10910   -10640   -10264 
  -10023   -10041   -10233   -10589   -11016   -11267   -11275   -11205 
  -11211   -11330   -11406   -11200   -10785   -10450   -10281   -10338 
  -10629   -10833   -10716   -10438   -10323   -10656   -11292   -11730 
  -11719   -11329   -10783   -10378   -10264   -10470   -10957   -11472 
  -11711   -11689   -11589   -11357   -10920   -10552   -10480   -10531 
  -10544   -10594   -10679   -10797   -11075   -11349   -11338   -11223 
  -11165   -10967   -10546   -10085    -9776    -9659    -9732    -9992 
  -10373   -10836   -11195   -11254   -11240   -11384   -11580   -11650 
  -11524   -11403   -11507   -11597   -11468   -11385   -11388   -11165 
  -10663   -10049    -9522    -9413    -9876   -10625   -11242   -11524 
  -11458   -11144   -10806   -10670   -10743   -10822   -10821   -10812 
  -10787   -10739   -10746   -10802   -10848   -10962   -11179   -11358 
  -11418   -11353   -11140   -10859   -10644   -10528   -10478   -10461 
  -10467   -10508   -10600   -10773   -10945   -10921   -10694   -10497 
  -10471   -10620   -10899   -11092   -11070   -10984   -10870   -10724 
  -10763   -11018   -11288   -11514   -11674   -11677   -11531   -11272 
  -10968   -10801   -10759   -10706   -10654   -10543   -10343   -10195 
  -10102   -10081   -10327   -10836   -11410   -11832   -11808   -11385 
  -11025   -10831   -10636   -10515   -10504   -10470   -10397   -10454 
  -10733   -11137   -11503   -11626   -11427   -11101   -10748   -10384 
  -10200   -10258   -10401   -10589   -10816   -10972   -11034   -11057 
  -11052   -11079   -11196   -11346   -11457   -11415   -11137   -10878 
  -10890   -10955   -10858   -10686   -10520   -10416   -10369   -10331 
  -10462   -10852   -11261   -11491   -11502   -11326   -11148   -11040 
  -10836   -10459   -10038    -9865   -10219   -10898   -11418   -11585 
  -11384   -10963   -10721   -10652   -10455   -10265   -10272   -10474 
  -10933   -11385   -11497   -11449   -11335   -11044   -10812   -10797 
  -10804   -10746   -10654   -10602   -10694   -10862   -10952   -10963 
  -10978   -10953   -10751   -10463   -10362   -10575   -10975   -11237 
  -11161   -10933   -10828   -10855   -10885   -10821   -10705   -10713 
  -10863   -10974   -11048   -11151   -11142   -10955   -10773   -10748 
  -10866   -10989   -11043   -11102   -11133   -11038   -10925   -10843 
  -10681   -10473   -10273   -10145   -10260   -10592   -11016   -11470 
  -11762   -11797   -11676   -11392   -10998   -10667   -10467   -10431 
  -10516   -10578   -10642   -10795   -10924   -10925   -10909   -10940 
  -10947   -10921   -10882   -10773   -10563   -10303   -10088   -10106 
  -10438   -10894   -11240   -11402   -11380   -11219   -11013   -10890 
  -10971   -11159   -11283   -11406   -11445   -11113   -10578   -10231 
  -10125   -10234   -10493   -10710   -10848   -10951   -11034   -11172 
  -11325   -11364   -11263   -11005   -10651   -10449   -10544   -10858 
  -11227   -11465   -11491   -11404   -11241   -10983   -10760   -10678 
  -10629   -10540   -10466   -10466   -10605   -10801   -10831   -10702 
  -10609   -10528   -10372   -10324   -10543   -10845   -11013   -10999 
  -10940   -11043   -11269   -11425   -11394   -11132   -10847   -10839 
  -11003   -11110   -11095   -10925   -10704   -10593   -10532   -10434 
  -10323   -10249   -10318   -10540   -10774   -10975   -11129   -11176 
  -11272   -11485   -11570   -11457   -11256   -10928   -10528   -10304 
  -10346   -10562   -10800   -10894   -10916   -11115   -11429   -11592 
  -11547   -11327   -11009   -10756   -10674   -10787   -10952   -10902 
  -10638   -10358   -10234   -10366   -10623   -10781   -10809   -10789 
  -10833   -10967   -11030   -10956   -10918   -11029   -11164   -11198 
  -11128   -10989   -10913   -10991   -11059   -10982   -10837   -10609 
  -10311   -10230   -10513   -10835   -10929   -10970   -11097   -11136 
  -10964   -10686   -10458   -10409   -10558   -10758   -10875   -10901 
  -10881   -10867   -10890   -10957   -11092   -11234   -11261   -11173 
  -11102   -11125   -11249   -11342   -11168   -10812   -10644   -10724 
  -10889   -11067   -11097   -10897   -10733   -10775   -10933   -11136 
  -11194   -10933   -10559   -10305   -10215   -10251   -10264   -10285 
  -10478   -10729   -10972   -11288   -11492   -11453   -11364   -11303 
  -11213   -11091   -10864   -10540   -10349   -10366   -10446   -10577 
  -10829   -11095   -11253   -11192   -10860   -10512   -10385   -10442 
  -10635   -10912   -11113   -11167   -11153   -11192   -11327   -11446 
  -11429   -11260   -10945   -10593   -10403   -10392   -10415   -10419 
  -10420   -10465   -10623   -10805   -10868   -10916   -11049   -11118 
  -11061   -11049   -11188   -11354   -11330   -11111   -10917   -10864 
  -10864   -10813   -10689   -10517   -10382   -10403   -10640   -10983 
  -11226   -11295   -11223   -11052   -10831   -10635   -10569   -10566 
