Origin Time       2025/03/28 03:50:00
Lat.              35.403
Long.             140.360
Depth. (km)       54
Mag.              4.4
Station Code      CHB001
Station Lat.      35.9571
Station Long.     139.8731
Station Height(m) 17
Record Time       2025/03/28 03:51:09
Sampling Freq(Hz) 100Hz
Duration Time(s)  60
Dir.              U-D
Scale Factor      7845(gal)/8223790
Max. Acc. (gal)   1.409
Last Correction   2025/03/28 03:51:08
Memo.             
   15260    15302    15299    15292    15341    15373    15367    15357 
   15314    15276    15287    15286    15273    15283    15272    15248 
   15249    15236    15194    15192    15249    15282    15250    15213 
   15205    15226    15276    15341    15421    15468    15426    15342 
   15299    15290    15260    15245    15295    15315    15245    15172 
   15125    15094    15129    15190    15205    15199    15209    15229 
   15292    15368    15379    15323    15186    14999    14933    15029 
   15184    15321    15334    15218    15149    15226    15398    15585 
   15701    15670    15485    15234    15091    15186    15429    15623 
   15642    15456    15175    14967    14932    15086    15336    15522 
   15533    15353    15086    14918    14967    15125    15234    15327 
   15407    15381    15261    15151    15155    15318    15495    15483 
   15303    15167    15237    15510    15735    15687    15465    15272 
   15151    15088    15097    15218    15423    15514    15321    14980 
   14841    15099    15495    15504    15090    14843    15078    15453 
   15588    15403    15055    14891    15103    15484    15747    15708 
   15342    14976    15001    15380    15670    15469    14966    14764 
   15076    15530    15723    15635    15537    15522    15445    15275 
   15120    15030    14972    14871    14778    14890    15174    15369 
   15448    15550    15587    15352    14975    14827    14994    15263 
   15462    15481    15283    14976    14748    14832    15303    15832 
   15939    15542    15101    15079    15356    15506    15468    15452 
   15518    15547    15427    15196    15048    15126    15357    15484 
   15313    14955    14729    14877    15330    15687    15635    15311 
   15101    15230    15560    15765    15655    15260    14829    14709 
   14871    15014    15133    15244    15178    15117    15358    15719 
   15885    15785    15450    15075    14980    15156    15317    15373 
   15364    15337    15452    15657    15626    15300    14948    14743 
   14708    14787    14972    15302    15641    15770    15677    15539 
   15500    15499    15371    15137    14990    14962    14906    14809 
   14839    15037    15232    15309    15283    15192    15141    15172 
   15165    15175    15348    15577    15633    15488    15348    15390 
   15558    15626    15412    15098    15030    15175    15260    15244 
   15249    15394    15623    15626    15317    15007    14912    15018 
   15264    15452    15372    15109    14859    14779    15005    15429 
   15745    15874    15944    15967    15866    15583    15211    14932 
   14820    14871    15005    15028    14908    14906    15202    15639 
   15908    15741    15148    14624    14654    15161    15763    16106 
   15890    15215    14690    14712    15033    15261    15300    15233 
   15144    15048    14972    15091    15469    15763    15650    15341 
   15252    15394    15449    15287    15084    15021    15043    14994 
   14855    14844    15186    15732    16031    15846    15394    15079 
   15140    15423    15499    15153    14739    14737    15145    15537 
   15595    15408    15317    15485    15711    15700    15450    15199 
   15120    15202    15264    15133    14864    14678    14762    15101 
   15472    15689    15676    15388    14964    14756    15014    15565 
   15826    15457    14868    14704    15063    15515    15692    15651 
   15670    15700    15387    14808    14596    15051    15738    16096 
   15925    15453    15140    15203    15426    15456    15237    15084 
   15148    15182    15018    14891    15095    15584    15984    15890 
   15275    14700    14716    15130    15338    15196    15091    15180 
   15184    14959    14721    14732    15040    15449    15670    15596 
   15295    14854    14577    14899    15703    16297    16174    15492 
   14837    14661    14982    15487    15789    15711    15336    15022 
   15126    15414    15375    15059    14879    14995    15214    15217 
   14963    14833    15163    15703    15871    15460    14856    14651 
   15074    15790    16256    16208    15826    15431    15165    15010 
   14947    14975    15068    15218    15429    15557    15415    15153 
   15182    15545    15774    15568    15130    14755    14580    14678 
   15030    15511    15892    15905    15587    15352    15439    15608 
   15502    15075    14697    14783    15221    15522    15435    15105 
   14889    14975    15172    15259    15192    15056    15029    15168 
   15345    15418    15344    15186    15040    14978    15109    15457 
   15823    15994    15927    15696    15403    15113    14844    14662 
   14700    14998    15381    15592    15483    15157    14939    14958 
   15064    15198    15396    15591    15669    15557    15296    15164 
   15342    15553    15520    15334    15129    14982    15045    15255 
   15313    15250    15271    15277    15182    15094    15022    14941 
   15090    15630    16137    16133    15634    15009    14787    15186 
   15757    15975    15699    15083    14542    14466    14895    15496 
   15720    15330    14774    14588    14827    15242    15534    15550 
   15426    15384    15422    15333    15029    14663    14544    14882 
   15534    16148    16366    15958    15225    14920    15269    15735 
   15838    15522    15103    14975    15122    15290    15395    15423 
   15273    14926    14669    14825    15295    15705    15831    15637 
   15234    14845    14674    14841    15264    15562    15452    15167 
   15099    15219    15221    15032    14870    14947    15194    15394 
   15516    15645    15693    15449    15037    14978    15410    15746 
   15445    14791    14515    14912    15677    16155    15881    15215 
   14821    14844    15070    15333    15576    15708    15606    15390 
   15379    15618    15786    15600    15093    14574    14453    14855 
   15331    15435    15315    15240    15209    15217    15198    15039 
   14939    15121    15458    15727    15782    15583    15265    15039 
   14995    15066    15174    15388    15688    15838    15705    15448 
   15346    15488    15608    15435    15059    14802    14832    14960 
   14937    14812    14823    15021    15194    15223    15237    15333 
   15481    15595    15576    15422    15180    14912    14751    14847 
   15219    15627    15687    15295    14855    14858    15302    15734 
   15765    15434    15169    15273    15515    15608    15658    15793 
   15863    15719    15402    15142    15110    15130    14972    14801 
   14926    15250    15377    15263    15183    15198    15180    15061 
   14829    14655    14725    15026    15475    15954    16249    16141 
   15616    15090    15029    15375    15696    15695    15398    15070 
   14898    14756    14508    14385    14662    15148    15462    15518 
   15471    15439    15426    15418    15438    15480    15472    15372 
   15311    15444    15716    15912    15768    15232    14683    14570 
   14895    15249    15342    15237    15122    15172    15357    15406 
   15228    15045    15025    15148    15322    15372    15201    15076 
   15272    15604    15745    15585    15238    14999    15070    15291 
   15462    15595    15685    15615    15371    15051    14785    14800 
   15145    15469    15458    15210    14995    15045    15385    15638 
   15435    14983    14781    15016    15427    15676    15687    15601 
   15592    15645    15530    15178    14841    14796    15028    15233 
   15201    15013    14866    14974    15345    15643    15669    15570 
   15464    15345    15255    15250    15287    15267    15269    15423 
   15591    15489    15086    14659    14531    14774    15184    15435 
   15422    15415    15546    15597    15547    15569    15592    15471 
   15192    14831    14590    14742    15238    15660    15714    15506 
   15310    15304    15356    15244    15120    15232    15435    15503 
   15407    15182    15013    15121    15350    15493    15531    15402 
   15221    15260    15435    15481    15356    15159    15039    15083 
   15180    15225    15275    15345    15395    15453    15461    15292 
   15010    14798    14737    14808    14998    15221    15345    15368 
   15296    15184    15222    15375    15444    15460    15525    15589 
   15574    15499    15425    15407    15473    15507    15349    15083 
   14897    14833    14935    15190    15425    15493    15345    15059 
   14881    14940    15142    15406    15674    15720    15379    14970 
   14941    15234    15475    15448    15261    15240    15465    15592 
   15400    15140    15078    15160    15209    15138    15055    15068 
   15106    15133    15178    15165    15097    15157    15461    15900 
   16129    15831    15265    14986    15067    15187    15155    15025 
   14993    15191    15472    15565    15423    15168    14899    14787 
   14908    15071    15232    15534    15867    15979    15832    15601 
   15475    15360    15036    14643    14571    14939    15425    15661 
   15608    15473    15475    15641    15692    15448    15115    14944 
   14948    15006    14982    14856    14758    14818    15018    15168 
   15229    15403    15662    15761    15635    15375    15120    14989 
   14985    15117    15376    15618    15669    15511    15377    15445 
   15537    15465    15294    15205    15313    15469    15391    15132 
   15016    15128    15295    15422    15439    15275    15051    14924 
   14882    14955    15141    15257    15321    15503    15714    15792 
   15781    15789    15853    15878    15673    15240    14787    14420 
   14235    14386    14825    15342    15745    15921    15890    15626 
   15202    14944    14980    15098    15113    15051    15005    14966 
   14897    14886    15061    15435    15831    15966    15761    15472 
   15423    15619    15746    15673    15508    15238    14867    14550 
   14430    14619    15078    15493    15622    15519    15336    15165 
   15094    15159    15348    15637    15920    16009    15819    15488 
   15196    14975    14778    14628    14561    14578    14702    14878 
   15007    15115    15226    15317    15425    15525    15492    15398 
   15499    15808    15938    15664    15349    15336    15446    15418 
   15229    14990    14916    15057    15167    15176    15317    15584 
   15666    15438    15126    15006    15132    15321    15322    15102 
   14987    15230    15546    15566    15342    15156    15214    15434 
   15553    15492    15352    15236    15191    15182    15155    15117 
   15090    15102    15132    15079    14944    14939    15229    15618 
   15747    15577    15388    15422    15635    15741    15580    15323 
   15156    15078    15094    15152    15113    14978    14854    14801 
   14910    15169    15360    15367    15314    15385    15654    15940 
   15898    15500    15142    15111    15218    15165    14975    14852 
   14931    15183    15427    15558    15638    15606    15368    15059 
   14820    14659    14598    14683    14897    15113    15205    15241 
   15396    15665    15877    15939    15940    15961    15981    15994 
   15988    15850    15487    14995    14634    14546    14681    14918 
   15144    15322    15441    15395    15179    15003    14983    15021 
   15091    15250    15381    15369    15292    15171    15070    15133 
   15218    15130    14939    14771    14748    14916    15155    15352 
   15498    15611    15674    15664    15612    15630    15731    15799 
   15800    15782    15697    15518    15295    15082    14970    14974 
   15024    15090    15101    14962    14708    14539    14644    14920 
   15106    15114    15052    15115    15353    15549    15565    15476 
   15338    15233    15309    15525    15736    15942    16179    16362 
   16320    16019    15624    15313    15109    14941    14859    14967 
   15114    15071    14891    14747    14706    14673    14474    14214 
   14237    14598    14982    15122    15030    14868    14825    15055 
   15522    15963    16182    16195    16059    15851    15720    15695 
   15712    15726    15620    15373    15188    15237    15489    15705 
   15643    15404    15213    15083    14998    14914    14713    14499 
   14504    14693    14917    15161    15371    15475    15553    15604 
   15541    15449    15380    15236    15076    15121    15395    15680 
   15785    15681    15587    15680    15703    15444    15107    14871 
   14727    14644    14561    14480    14494    14627    14841    15153 
   15495    15742    15858    15832    15718    15637    15646    15714 
   15766    15718    15550    15331    15118    14931    14860    14998 
   15210    15322    15363    15358    15259    15087    14881    14781 
   14997    15375    15569    15475    15159    14798    14558    14450 
   14565    14944    15317    15453    15462    15539    15778    16167 
   16561    16754    16652    16320    15869    15369    14878    14512 
   14412    14554    14771    14980    15182    15349    15444    15444 
   15357    15206    15025    14881    14791    14748    14812    14905 
   14852    14802    14974    15271    15560    15747    15742    15670 
   15673    15585    15282    14975    14931    15242    15807    16294 
   16441    16216    15666    15066    14820    15010    15350    15565 
   15576    15396    15053    14662    14427    14439    14567    14669 
   14773    14964    15209    15342    15269    15138    15147    15292 
   15483    15654    15731    15719    15703    15695    15700    15742 
   15738    15665    15681    15909    16245    16407    16251    15840 
   15255    14658    14237    13988    13959    14224    14604    14831 
   14781    14548    14386    14467    14840    15396    15876    16148 
   16255    16204    16005    15658    15234    14917    14812    14914 
   15132    15327    15469    15464    15230    14995    14991    15148 
   15218    15141    15207    15565    15944    16039    15812    15454 
   15152    14976    14966    15053    15082    14991    14852    14809 
   14901    15026    15174    15360    15545    15720    15817    15732 
   15565    15489    15535    15572    15398    15090    14964    15125 
   15426    15620    15538    15358    15311    15346    15407    15392 
   15183    14937    14806    14763    14818    14886    14833    14794 
   14955    15240    15442    15434    15296    15228    15238    15260 
   15325    15398    15408    15344    15252    15326    15595    15705 
   15533    15425    15454    15282    14889    14628    14667    14870 
   14958    14870    14847    14899    14855    14899    15253    15699 
   15954    15996    15988    16101    16195    15965    15515    15228 
   15210    15267    15161    14964    14929    15047    15180    15280 
   15313    15336    15479    15727    15863    15712    15369    15018 
   14744    14673    14859    15071    15106    15028    14935    14928 
   15068    15205    15203    15134    15106    15167    15311    15457 
   15483    15357    15207    15172    15268    15373    15373    15307 
   15317    15421    15542    15660    15705    15695    15728    15712 
   15585    15479    15385    15252    15129    15005    14924    14993 
   15138    15214    15198    15107    14990    14901    14843    14906 
   15179    15552    15839    15878    15661    15415    15298    15198 
   14948    14565    14265    14253    14615    15261    15863    16150 
   16166    16075    15944    15736    15402    15013    14746    14744 
   15016    15379    15589    15504    15152    14786    14636    14688 
   14874    15121    15345    15623    15982    16187    16108    15853 
   15502    15142    14910    14899    15151    15525    15723    15550 
   15071    14600    14428    14503    14656    14904    15223    15423 
   15381    15174    14983    14920    15039    15357    15680    15784 
   15716    15604    15537    15572    15593    15546    15553    15546 
   15377    15134    14916    14766    14831    15157    15543    15758 
   15731    15558    15402    15307    15221    15195    15248    15255 
   15222    15237    15228    15133    15083    15188    15353    15426 
   15392    15325    15257    15207    15176    15061    14832    14700 
   14771    14924    15155    15442    15583    15515    15434    15481 
   15576    15688    15846    15923    15826    15574    15249    14993 
   14909    15007    15140    15156    15079    14948    14856    14920 
   15041    15176    15375    15565    15703    15785    15784    15696 
   15633    15662    15614    15431    15265    15161    15130    15156 
   15149    15140    15128    15111    15178    15234    15213    15155 
   14940    14638    14473    14422    14416    14519    14774    15145 
   15511    15714    15762    15850    16008    16113    16151    16089 
   15876    15596    15319    15099    15068    15249    15479    15574 
   15526    15421    15375    15462    15468    15207    14928    14808 
   14767    14810    14926    14993    14976    14951    15026    15248 
   15433    15407    15249    15129    15118    15159    15141    15084 
   15102    15178    15183    15113    15132    15344    15631    15804 
   15792    15669    15565    15539    15538    15496    15360    15163 
   15061    15086    15084    14986    14833    14716    14689    14719 
   14755    14800    14925    15161    15433    15672    15859    15965 
   15992    15990    16013    16025    15965    15843    15701    15522 
   15234    14835    14508    14467    14704    14963    15009    14870 
   14720    14692    14871    15178    15408    15570    15750    15822 
   15674    15398    15148    15087    15215    15252    15018    14728 
   14690    14962    15407    15796    15888    15673    15368    15168 
   15160    15234    15199    15066    14964    14971    15063    15180 
   15336    15527    15654    15616    15417    15214    15194    15375 
   15595    15570    15314    15182    15221    15230    15142    14935 
   14733    14710    14840    15034    15191    15233    15178    15118 
   15198    15439    15651    15746    15857    16016    16056    15901 
   15732    15728    15777    15651    15311    14971    14922    15134 
   15271    15149    14841    14534    14472    14679    14885    14912 
   14878    14926    15026    15107    15182    15291    15400    15465 
   15529    15545    15499    15556    15715    15815    15830    15765 
   15651    15581    15531    15464    15419    15342    15168    14959 
   14843    14879    14952    14972    15049    15214    15275    15132 
   14925    14852    15002    15294    15485    15435    15242    15041 
   14929    14952    15063    15237    15489    15736    15834    15741 
   15546    15406    15419    15518    15539    15446    15356    15303 
   15225    15182    15248    15341    15346    15268    15223    15248 
   15286    15309    15307    15268    15136    14899    14719    14746 
   14944    15186    15349    15395    15341    15229    15187    15295 
   15473    15622    15678    15592    15394    15178    14967    14810 
   14883    15132    15291    15406    15562    15596    15565    15661 
   15796    15835    15757    15534    15264    15080    14998    15049 
   15233    15435    15530    15485    15404    15341    15250    15187 
   15201    15246    15300    15292    15195    15114    15093    15066 
   15086    15211    15291    15214    15076    14949    14881    14953 
