Origin Time       2025/03/28 03:50:00
Lat.              35.403
Long.             140.360
Depth. (km)       54
Mag.              4.4
Station Code      CHB020
Station Lat.      35.1132
Station Long.     140.1006
Station Height(m) 9
Record Time       2025/03/28 03:50:58
Sampling Freq(Hz) 100Hz
Duration Time(s)  60
Dir.              E-W
Scale Factor      7845(gal)/8223790
Max. Acc. (gal)   2.720
Last Correction   2025/03/28 03:50:58
Memo.             
[...]
   -4668    -4665    -4671    -4671    -4644    -4669    -4684    -4660 
   -4673    -4668    -4642    -4677    -4684    -4646    -4680    -4695 
   -4665    -4669    -4669    -4656    -4653    -4657    -4668    -4679 
   -4664    -4652    -4675    -4684    -4671    -4661    -4664    -4660 
   -4664    -4671    -4658    -4661    -4669    -4671    -4669    -4662 
   -4652    -4657    -4693    -4677    -4631    -4660    -4687    -4672 
   -4675    -4679    -4661    -4661    -4671    -4665    -4662    -4649 
   -4650    -4681    -4689    -4671    -4654    -4668    -4683    -4662 
   -4656    -4679    -4680    -4657    -4649    -4666    -4680    -4677 
   -4672    -4657    -4661    -4681    -4672    -4646    -4661    -4689 
   -4673    -4665    -4669    -4671    -4671    -4652    -4666    -4665 
   -4645    -4676    -4688    -4672    -4668    -4652    -4648    -4672 
   -4689    -4672    -4650    -4657    -4657    -4653    -4675    -4669 
   -4645    -4660    -4669    -4662    -4671    -4672    -4656    -4654 
   -4675    -4685    -4673    -4656    -4646    -4661    -4679    -4664 
   -4653    -4666    -4669    -4684    -4684    -4650    -4652    -4669 
   -4671    -4669    -4665    -4669    -4672    -4676    -4675    -4649 
   -4645    -4671    -4676    -4668    -4666    -4672    -4675    -4675 
   -4668    -4654    -4658    -4657    -4654    -4685    -4687    -4657 
   -4673    -4680    -4660    -4676    -4675    -4656    -4679    -4676 
   -4653    -4668    -4665    -4658    -4676    -4676    -4668    -4666 
   -4660    -4657    -4654    -4671    -4685    -4675    -4671    -4671 
   -4661    -4654    -4658    -4669    -4656    -4653    -4671    -4661 
   -4661    -4666    -4658    -4681    -4684    -4666    -4658    -4650 
   -4669    -4675    -4657    -4666    -4679    -4675    -4661    -4668 
   -4675    -4658    -4676    -4687    -4650    -4658    -4700    -4668 
   -4644    -4676    -4665    -4656    -4681    -4672    -4658    -4662 
   -4658    -4664    -4679    -4673    -4664    -4672    -4675    -4673 
   -4673    -4654    -4656    -4676    -4666    -4668    -4684    -4668 
   -4645    -4657    -4685    -4675    -4650    -4673    -4680    -4653 
   -4666    -4673    -4656    -4671    -4677    -4657    -4679    -4695 
   -4661    -4662    -4675    -4652    -4657    -4673    -4672    -4668 
   -4665    -4668    -4666    -4657    -4654    -4676    -4684    -4654 
   -4664    -4691    -4680    -4672    -4661    -4639    -4658    -4685 
   -4660    -4646    -4669    -4681    -4691    -4676    -4649    -4653 
   -4671    -4676    -4671    -4665    -4666    -4679    -4681    -4657 
   -4648    -4672    -4685    -4671    -4650    -4665    -4693    -4679 
   -4654    -4669    -4669    -4650    -4668    -4677    -4662    -4675 
   -4680    -4662    -4657    -4649    -4646    -4679    -4685    -4660 
   -4664    -4662    -4656    -4677    -4648    -4618    -4680    -4711 
   -4671    -4653    -4652    -4652    -4665    -4671    -4666    -4661 
   -4669    -4684    -4675    -4666    -4662    -4650    -4672    -4687 
   -4668    -4664    -4652    -4654    -4683    -4675    -4653    -4656 
   -4672    -4669    -4660    -4666    -4661    -4654    -4669    -4676 
   -4671    -4664    -4649    -4675    -4692    -4658    -4657    -4653 
   -4650    -4688    -4681    -4664    -4669    -4658    -4669    -4680 
   -4658    -4664    -4676    -4658    -4661    -4665    -4656    -4672 
   -4680    -4673    -4676    -4646    -4648    -4685    -4673    -4662 
   -4669    -4658    -4664    -4680    -4669    -4669    -4685    -4658 
   -4648    -4669    -4668    -4668    -4658    -4661    -4685    -4673 
   -4666    -4669    -4650    -4665    -4684    -4664    -4646    -4652 
   -4662    -4677    -4675    -4665    -4665    -4661    -4661    -4668 
   -4673    -4673    -4658    -4662    -4672    -4657    -4654    -4660 
   -4658    -4676    -4677    -4657    -4657    -4649    -4665    -4687 
   -4672    -4677    -4662    -4633    -4638    -4633    -4627    -4631 
   -4642    -4685    -4699    -4693    -4711    -4702    -4683    -4673 
   -4650    -4635    -4625    -4611    -4607    -4625    -4657    -4677 
   -4679    -4733    -4791    -4733    -4684    -4708    -4672    -4619 
   -4621    -4642    -4654    -4662    -4692    -4702    -4722    -4735 
   -4695    -4698    -4711    -4662    -4631    -4626    -4602    -4585 
   -4618    -4676    -4720    -4734    -4714    -4687    -4666    -4617 
   -4584    -4610    -4617    -4610    -4617    -4618    -4639    -4676 
   -4723    -4761    -4768    -4757    -4718    -4665    -4629    -4606 
   -4576    -4531    -4533    -4599    -4645    -4666    -4718    -4787 
   -4847    -4897    -4888    -4799    -4711    -4627    -4518    -4426 
   -4428    -4509    -4581    -4662    -4733    -4774    -4823    -4830 
   -4816    -4776    -4680    -4581    -4518    -4541    -4641    -4730 
   -4761    -4787    -4843    -4854    -4791    -4706    -4595    -4468 
   -4390    -4398    -4471    -4592    -4715    -4776    -4826    -4877 
   -4847    -4741    -4618    -4538    -4507    -4467    -4446    -4502 
   -4549    -4571    -4645    -4772    -4943    -5028    -4897    -4739 
   -4681    -4581    -4423    -4336    -4395    -4546    -4600    -4552 
   -4577    -4706    -4869    -4977    -5008    -5009    -4938    -4770 
   -4592    -4498    -4499    -4527    -4557    -4606    -4671    -4719 
   -4700    -4642    -4665    -4792    -4891    -4897    -4866    -4811 
   -4730    -4648    -4583    -4587    -4652    -4664    -4644    -4634 
   -4587    -4527    -4477    -4444    -4500    -4603    -4673    -4708 
   -4669    -4604    -4580    -4557    -4569    -4629    -4648    -4621 
   -4572    -4534    -4579    -4648    -4699    -4777    -4781    -4691 
   -4639    -4606    -4583    -4612    -4652    -4723    -4808    -4807 
   -4753    -4673    -4588    -4599    -4665    -4718    -4781    -4800 
   -4746    -4719    -4769    -4838    -4842    -4785    -4714    -4641 
   -4599    -4568    -4523    -4548    -4637    -4712    -4756    -4784 
   -4799    -4774    -4756    -4785    -4796    -4742    -4675    -4654 
   -4672    -4679    -4653    -4618    -4603    -4600    -4580    -4554 
   -4538    -4507    -4483    -4529    -4627    -4700    -4731    -4735 
   -4703    -4657    -4644    -4635    -4590    -4538    -4522    -4533 
   -4575    -4626    -4669    -4699    -4692    -4666    -4650    -4675 
   -4730    -4739    -4726    -4712    -4668    -4634    -4617    -4592 
   -4585    -4598    -4617    -4615    -4590    -4573    -4606    -4738 
   -4884    -4919    -4901    -4854    -4760    -4660    -4568    -4564 
   -4641    -4672    -4726    -4858    -4962    -5000    -4935    -4808 
   -4745    -4710    -4645    -4565    -4502    -4495    -4553    -4656 
   -4710    -4656    -4594    -4568    -4521    -4465    -4465    -4488 
   -4521    -4577    -4635    -4685    -4764    -4881    -4973    -4986 
   -4947    -4860    -4749    -4637    -4502    -4437    -4537    -4684 
   -4733    -4676    -4606    -4545    -4444    -4348    -4297    -4249 
   -4212    -4183    -4189    -4301    -4480    -4654    -4810    -4924 
   -4981    -4945    -4833    -4742    -4703    -4695    -4714    -4776 
   -4861    -4923    -4966    -5001    -5032    -5059    -5047    -5004 
   -4934    -4833    -4714    -4603    -4529    -4513    -4569    -4693 
   -4811    -4843    -4835    -4827    -4785    -4703    -4596    -4530 
   -4521    -4503    -4483    -4442    -4352    -4321    -4396    -4525 
   -4700    -4845    -4893    -4893    -4868    -4797    -4664    -4503 
   -4369    -4236    -4109    -4067    -4139    -4320    -4573    -4835 
   -5050    -5159    -5148    -5032    -4826    -4568    -4314    -4121 
   -4010    -3982    -4101    -4337    -4544    -4691    -4843    -4995 
   -5059    -4986    -4872    -4822    -4818    -4855    -4968    -5131 
   -5252    -5260    -5200    -5090    -4958    -4827    -4693    -4615 
   -4576    -4534    -4572    -4689    -4838    -4984    -5059    -5070 
   -5019    -4849    -4615    -4437    -4322    -4244    -4259    -4355 
   -4433    -4457    -4445    -4426    -4407    -4347    -4236    -4120 
   -4077    -4140    -4255    -4387    -4495    -4571    -4671    -4774 
   -4872    -4922    -4869    -4793    -4692    -4561    -4500    -4545 
   -4637    -4714    -4776    -4831    -4839    -4811    -4803    -4847 
   -4919    -4941    -4896    -4837    -4827    -4916    -5024    -5051 
   -5063    -5073    -5013    -4949    -4903    -4842    -4779    -4683 
   -4577    -4545    -4549    -4494    -4399    -4368    -4382    -4376 
   -4442    -4579    -4660    -4698    -4784    -4935    -5067    -5101 
   -4997    -4743    -4436    -4166    -4004    -3981    -3974    -3958 
   -4024    -4175    -4394    -4631    -4811    -4899    -4914    -4881 
   -4799    -4675    -4533    -4448    -4480    -4603    -4765    -4846 
   -4845    -4901    -5007    -5078    -5086    -5028    -4924    -4826 
   -4797    -4796    -4766    -4770    -4774    -4741    -4770    -4831 
   -4807    -4737    -4689    -4646    -4584    -4533    -4526    -4549 
   -4556    -4554    -4554    -4534    -4498    -4441    -4441    -4542 
   -4629    -4685    -4729    -4754    -4846    -4951    -4984    -4951 
   -4881    -4835    -4785    -4658    -4526    -4445    -4342    -4191 
   -4035    -3912    -3870    -3937    -4082    -4288    -4517    -4687 
   -4789    -4849    -4872    -4884    -4909    -4908    -4860    -4833 
   -4858    -4899    -4947    -5016    -5073    -5074    -5051    -5035 
   -4996    -4938    -4881    -4816    -4746    -4696    -4710    -4801 
   -4915    -4977    -5000    -5017    -4992    -4927    -4882    -4858 
   -4811    -4698    -4518    -4348    -4259    -4253    -4286    -4295 
   -4266    -4237    -4194    -4116    -4064    -4079    -4148    -4225 
   -4257    -4294    -4367    -4442    -4538    -4657    -4719    -4702 
   -4673    -4684    -4710    -4718    -4725    -4739    -4747    -4731 
   -4722    -4734    -4788    -4926    -5094    -5236    -5317    -5312 
   -5247    -5163    -5104    -5050    -4915    -4745    -4634    -4576 
   -4571    -4614    -4644    -4641    -4608    -4531    -4450    -4426 
   -4445    -4490    -4550    -4572    -4550    -4525    -4523    -4594 
   -4720    -4827    -4872    -4823    -4683    -4549    -4461    -4405 
   -4411    -4442    -4442    -4450    -4437    -4409    -4459    -4577 
   -4715    -4824    -4872    -4888    -4854    -4773    -4712    -4691 
   -4746    -4874    -4965    -4982    -4915    -4752    -4592    -4527 
   -4548    -4630    -4764    -4880    -4873    -4797    -4733    -4660 
   -4622    -4622    -4591    -4545    -4541    -4558    -4536    -4471 
   -4398    -4329    -4303    -4334    -4364    -4409    -4510    -4622 
   -4688    -4677    -4652    -4662    -4652    -4623    -4622    -4637 
   -4656    -4710    -4803    -4881    -4930    -4922    -4884    -4895 
   -4895    -4816    -4700    -4554    -4421    -4322    -4240    -4203 
   -4212    -4264    -4395    -4550    -4672    -4779    -4878    -4949 
   -5000    -5049    -5043    -4957    -4849    -4766    -4731    -4745 
   -4761    -4758    -4769    -4812    -4876    -4959    -5078    -5173 
   -5204    -5193    -5157    -5093    -4974    -4827    -4725    -4681 
   -4672    -4654    -4672    -4747    -4819    -4900    -4988    -5020 
   -4963    -4803    -4617    -4446    -4268    -4145    -4062    -3973 
   -3929    -3948    -4036    -4228    -4446    -4608    -4704    -4700 
   -4572    -4375    -4175    -4029    -3955    -3927    -3967    -4116 
   -4334    -4563    -4757    -4916    -5038    -5125    -5198    -5228 
   -5236    -5262    -5277    -5258    -5179    -5030    -4841    -4656 
   -4510    -4403    -4337    -4329    -4361    -4395    -4421    -4434 
   -4403    -4344    -4307    -4324    -4378    -4402    -4379    -4341 
   -4271    -4170    -4047    -3987    -4094    -4295    -4544    -4881 
   -5279    -5675    -5983    -6142    -6174    -6083    -5859    -5598 
   -5363    -5185    -5049    -4865    -4685    -4611    -4612    -4657 
   -4735    -4799    -4833    -4878    -4955    -5044    -5130    -5163 
   -5092    -4938    -4765    -4604    -4464    -4320    -4167    -4077 
   -4055    -4066    -4082    -4052    -4010    -4044    -4126    -4226 
   -4378    -4564    -4716    -4801    -4827    -4814    -4785    -4739 
   -4626    -4445    -4230    -3977    -3685    -3410    -3206    -3083 
   -3067    -3200    -3462    -3816    -4236    -4615    -4888    -5105 
   -5263    -5325    -5309    -5277    -5273    -5286    -5323    -5416 
   -5560    -5761    -6003    -6210    -6354    -6417    -6353    -6143 
   -5790    -5323    -4801    -4283    -3892    -3761    -3885    -4158 
   -4510    -4869    -5113    -5219    -5178    -4954    -4611    -4217 
   -3862    -3665    -3627    -3724    -3893    -4013    -4045    -4006 
   -3905    -3759    -3645    -3669    -3915    -4379    -4977    -5599 
   -6133    -6432    -6419    -6161    -5729    -5148    -4503    -3893 
   -3383    -3029    -2876    -2890    -3044    -3325    -3609    -3827 
   -4039    -4225    -4360    -4487    -4600    -4708    -4811    -4889 
   -4968    -5035    -5119    -5260    -5390    -5487    -5602    -5676 
   -5670    -5634    -5575    -5502    -5485    -5537    -5636    -5742 
   -5805    -5832    -5769    -5551    -5258    -4946    -4665    -4495 
   -4421    -4417    -4496    -4658    -4884    -5119    -5294    -5398 
   -5379    -5185    -4818    -4271    -3595    -2928    -2363    -1969 
   -1815    -1887    -2176    -2687    -3356    -4091    -4826    -5472 
   -5941    -6185    -6237    -6130    -5900    -5622    -5358    -5155 
   -5027    -4947    -4889    -4824    -4725    -4527    -4206    -3819 
   -3437    -3122    -2937    -2930    -3141    -3555    -4085    -4639 
   -5166    -5595    -5860    -5998    -6091    -6119    -6018    -5809 
   -5547    -5240    -4935    -4693    -4531    -4440    -4392    -4378 
   -4391    -4395    -4367    -4270    -4071    -3808    -3531    -3279 
   -3064    -2913    -2887    -3037    -3389    -3948    -4653    -5416 
   -6143    -6744    -7149    -7330    -7314    -7096    -6667    -6154 
   -5684    -5329    -5138    -5065    -5094    -5201    -5316    -5401 
   -5397    -5269    -5032    -4714    -4367    -4041    -3777    -3588 
   -3469    -3470    -3585    -3732    -3889    -4048    -4152    -4182 
   -4160    -4075    -3906    -3684    -3447    -3264    -3194    -3223 
   -3354    -3597    -3900    -4206    -4484    -4745    -5004    -5273 
   -5564    -5852    -6070    -6174    -6161    -6084    -5967    -5796 
   -5578    -5346    -5142    -4961    -4803    -4671    -4530    -4390 
   -4293    -4218    -4168    -4164    -4175    -4163    -4112    -4037 
   -4013    -4036    -4097    -4237    -4407    -4538    -4631    -4656 
   -4591    -4475    -4347    -4248    -4205    -4237    -4356    -4518 
   -4712    -4968    -5248    -5517    -5763    -5946    -6050    -6064 
   -5977    -5846    -5684    -5494    -5324    -5159    -4982    -4808 
   -4626    -4456    -4326    -4232    -4191    -4241    -4355    -4469 
   -4526    -4495    -4395    -4253    -4104    -3954    -3759    -3546 
   -3375    -3268    -3298    -3507    -3850    -4264    -4692    -5080 
   -5391    -5591    -5637    -5524    -5297    -5016    -4710    -4419 
   -4190    -4047    -4023    -4101    -4253    -4483    -4777    -5084 
   -5356    -5591    -5778    -5864    -5813    -5641    -5389    -5088 
   -4785    -4545    -4428    -4438    -4523    -4637    -4774    -4909 
   -4981    -4953    -4830    -4633    -4342    -3971    -3613    -3334 
   -3153    -3113    -3207    -3395    -3645    -3917    -4179    -4432 
   -4691    -4936    -5135    -5294    -5435    -5537    -5589    -5625 
   -5679    -5755    -5845    -5967    -6057    -6053    -5979    -5784 
   -5454    -5059    -4633    -4206    -3819    -3497    -3252    -3041 
   -2897    -2893    -3053    -3369    -3740    -4110    -4510    -4860 
   -5098    -5317    -5526    -5683    -5794    -5832    -5792    -5698 
   -5541    -5360    -5179    -4938    -4644    -4372    -4159    -4004 
   -3893    -3836    -3850    -3913    -4012    -4140    -4320    -4581 
   -4874    -5124    -5310    -5401    -5391    -5317    -5196    -5065 
   -4951    -4858    -4792    -4756    -4735    -4731    -4739    -4781 
   -4845    -4869    -4841    -4766    -4630    -4460    -4283    -4102 
   -3950    -3838    -3746    -3682    -3643    -3620    -3604    -3597 
   -3645    -3732    -3836    -3978    -4156    -4388    -4642    -4842 
   -4988    -5078    -5101    -5085    -5022    -4916    -4858    -4874 
   -4943    -5098    -5316    -5544    -5763    -5933    -6061    -6138 
   -6114    -5988    -5788    -5525    -5229    -4922    -4615    -4367 
   -4202    -4099    -4064    -4114    -4222    -4364    -4507    -4618 
   -4698    -4746    -4772    -4800    -4835    -4860    -4838    -4762 
   -4645    -4504    -4333    -4113    -3906    -3770    -3715    -3753 
   -3877    -4079    -4330    -4571    -4756    -4882    -4965    -4985 
   -4935    -4823    -4679    -4514    -4342    -4202    -4105    -4074 
   -4158    -4330    -4552    -4799    -5042    -5285    -5501    -5617 
   -5632    -5545    -5319    -5000    -4652    -4307    -4037    -3859 
   -3712    -3613    -3576    -3570    -3627    -3746    -3913    -4113 
   -4326    -4545    -4757    -4982    -5233    -5495    -5763    -5981 
   -6135    -6227    -6238    -6170    -6003    -5756    -5498    -5232 
   -4966    -4738    -4534    -4333    -4163    -4062    -4024    -4051 
   -4162    -4336    -4522    -4702    -4866    -4977    -5016    -5011 
   -4959    -4873    -4757    -4602    -4446    -4333    -4278    -4253 
   -4264    -4320    -4390    -4438    -4442    -4419    -4359    -4276 
   -4216    -4110    -3969    -3855    -3788    -3778    -3834    -3951 
   -4099    -4290    -4518    -4729    -4926    -5074    -5181    -5265 
   -5286    -5263    -5177    -5054    -4965    -4878    -4804    -4753 
   -4699    -4669    -4672    -4664    -4644    -4625    -4592    -4554 
   -4529    -4518    -4526    -4568    -4648    -4785    -4947    -5097 
   -5251    -5398    -5524    -5605    -5586    -5463    -5273    -5046 
   -4791    -4545    -4365    -4283    -4298    -4375    -4507    -4685 
   -4850    -4973    -5032    -4999    -4897    -4765    -4602    -4437 
   -4310    -4203    -4117    -4077    -4087    -4120    -4133    -4124 
   -4108    -4083    -4052    -4023    -3993    -3962    -3912    -3858 
   -3840    -3879    -3994    -4186    -4428    -4699    -4966    -5193 
   -5389    -5551    -5647    -5687    -5674    -5599    -5494    -5373 
   -5217    -5071    -4961    -4860    -4792    -4774    -4773    -4785 
   -4822    -4892    -4976    -5030    -5055    -5050    -4996    -4934 
   -4872    -4788    -4714    -4687    -4703    -4743    -4799    -4857 
   -4885    -4857    -4785    -4692    -4560    -4405    -4261    -4118 
   -3981    -3897    -3877    -3909    -3977    -4017    -4021    -4024 
   -4032    -4081    -4209    -4403    -4617    -4807    -4969    -5089 
   -5123    -5088    -5050    -5015    -4988    -4995    -5030    -5084 
   -5151    -5201    -5209    -5173    -5098    -4980    -4811    -4611 
   -4403    -4195    -4002    -3874    -3835    -3867    -3956    -4064 
   -4156    -4230    -4283    -4301    -4302    -4305    -4313    -4349 
