Origin Time       2025/03/28 03:50:00
Lat.              35.403
Long.             140.360
Depth. (km)       54
Mag.              4.4
Station Code      CHB008
Station Lat.      35.6556
Station Long.     139.9027
Station Height(m) 0
Record Time       2025/03/28 03:51:00
Sampling Freq(Hz) 100Hz
Duration Time(s)  60
Dir.              N-S
Scale Factor      7845(gal)/8223790
Max. Acc. (gal)   5.272
Last Correction   2025/03/28 03:50:59
Memo.             
[...]
    7357     7353     7361     7373     7395     7406     7391     7371 
    7353     7331     7326     7357     7408     7442     7429     7391 
    7366     7349     7341     7357     7383     7385     7360     7331 
    7311     7314     7334     7342     7342     7346     7366     7416 
    7457     7447     7407     7375     7372     7389     7408     7403 
    7371     7345     7348     7352     7335     7311     7308     7344 
    7388     7399     7368     7330     7344     7407     7466     7485 
    7453     7393     7350     7334     7337     7342     7360     7385 
    7388     7377     7364     7344     7327     7335     7353     7353 
    7344     7346     7361     7377     7392     7404     7398     7387 
    7411     7447     7454     7439     7411     7377     7350     7339 
    7337     7339     7345     7338     7317     7312     7307     7280 
    7284     7329     7358     7372     7387     7398     7402     7399 
    7377     7358     7377     7412     7433     7427     7385     7331 
    7303     7312     7348     7376     7372     7350     7331     7319 
    7323     7344     7366     7393     7393     7369     7380     7403 
    7398     7396     7391     7365     7350     7335     7330     7377 
    7433     7442     7423     7375     7326     7327     7361     7392 
    7408     7411     7398     7346     7321     7348     7353     7349 
    7379     7396     7385     7361     7334     7329     7344     7365 
    7398     7408     7379     7350     7342     7358     7388     7392 
    7389     7389     7345     7302     7317     7354     7379     7392 
    7392     7371     7348     7345     7346     7353     7372     7396 
    7406     7398     7383     7366     7358     7362     7377     7388 
    7380     7362     7341     7322     7322     7323     7315     7311 
    7311     7322     7350     7380     7391     7393     7392     7366 
    7349     7377     7425     7443     7434     7418     7400     7373 
    7348     7341     7349     7360     7362     7358     7357     7362 
    7357     7348     7353     7360     7358     7369     7371     7353 
    7349     7338     7319     7327     7330     7318     7334     7362 
    7383     7418     7434     7412     7408     7418     7407     7389 
    7365     7352     7366     7389     7400     7383     7348     7333 
    7339     7354     7379     7391     7372     7346     7341     7346 
    7348     7358     7379     7379     7369     7366     7360     7369 
    7396     7408     7411     7415     7407     7384     7362     7360 
    7354     7344     7350     7356     7353     7358     7368     7377 
    7398     7415     7415     7400     7391     7404     7414     7391 
    7369     7358     7341     7331     7337     7354     7375     7379 
    7369     7356     7341     7338     7368     7398     7387     7358 
    7341     7346     7373     7404     7423     7426     7420     7407 
    7381     7354     7345     7354     7360     7366     7366     7353 
    7350     7348     7333     7321     7322     7329     7335     7356 
    7377     7380     7385     7388     7380     7377     7385     7398 
    7404     7392     7362     7337     7330     7344     7358     7361 
    7368     7364     7352     7360     7369     7368     7365     7361 
    7352     7338     7318     7325     7379     7427     7433     7395 
    7337     7310     7334     7373     7396     7396     7381     7371 
    7358     7341     7349     7377     7385     7373     7381     7398 
    7389     7372     7377     7391     7384     7364     7356     7365 
    7381     7392     7380     7344     7314     7311     7310     7304 
    7311     7326     7346     7362     7376     7388     7368     7346 
    7372     7406     7423     7418     7375     7333     7329     7352 
    7375     7377     7375     7368     7346     7337     7349     7366 
    7384     7398     7406     7395     7360     7330     7334     7380 
    7420     7403     7354     7326     7327     7353     7379     7381 
    7362     7346     7349     7361     7365     7376     7403     7418 
    7406     7389     7383     7384     7385     7384     7376     7361 
    7375     7410     7412     7389     7376     7350     7326     7327 
    7334     7335     7337     7349     7381     7406     7392     7369 
    7369     7388     7393     7369     7361     7384     7395     7389 
    7385     7366     7357     7388     7426     7446     7445     7411 
    7364     7349     7385     7412     7388     7354     7331     7304 
    7308     7368     7427     7420     7361     7326     7350     7395 
    7396     7337     7298     7329     7366     7353     7308     7284 
    7352     7462     7462     7387     7403     7450     7400     7353 
    7388     7402     7379     7365     7333     7300     7311     7350 
    7380     7368     7348     7366     7364     7307     7303     7352 
    7366     7381     7412     7389     7369     7379     7330     7271 
    7292     7333     7361     7408     7456     7458     7393     7311 
    7315     7379     7383     7350     7337     7321     7342     7402 
    7396     7333     7326     7399     7469     7495     7466     7369 
    7267     7252     7292     7318     7365     7442     7439     7344 
    7268     7284     7342     7385     7420     7437     7426     7431 
    7427     7380     7366     7430     7447     7326     7180     7180 
    7298     7392     7425     7412     7372     7322     7284     7287 
    7335     7373     7393     7399     7373     7410     7512     7483 
    7321     7292     7433     7534     7493     7387     7335     7344 
    7350     7380     7411     7321     7173     7137     7192     7299 
    7461     7527     7460     7437     7473     7474     7435     7348 
    7241     7209     7245     7311     7410     7450     7392     7388 
    7483     7514     7433     7348     7308     7308     7333     7348 
    7396     7541     7681     7655     7468     7225     7051     7042 
    7126     7198     7341     7535     7561     7389     7250     7299 
    7443     7514     7425     7263     7240     7350     7388     7365 
    7407     7472     7500     7481     7388     7311     7334     7319 
    7250     7341     7589     7728     7631     7429     7290     7221 
    7175     7202     7300     7395     7462     7470     7375     7242 
    7199     7267     7342     7358     7322     7258     7245     7319 
    7415     7477     7497     7516     7555     7466     7176     6934 
    6948     7160     7446     7654     7704     7688     7622     7425 
    7159     6998     7082     7331     7477     7466     7473     7473 
    7362     7244     7195     7217     7366     7512     7435     7287 
    7303     7412     7496     7555     7558     7461     7315     7225 
    7231     7275     7325     7408     7472     7454     7411     7391 
    7383     7379     7349     7261     7179     7200     7330     7472 
    7533     7516     7485     7431     7338     7306     7377     7354 
    7103     6853     6932     7299     7626     7731     7627     7353 
    7095     7079     7246     7410     7535     7599     7587     7592 
    7585     7488     7407     7403     7362     7218     7052     7032 
    7199     7338     7319     7310     7393     7484     7601     7712 
    7635     7419     7303     7314     7327     7341     7441     7553 
    7491     7310     7226     7238     7245     7264     7325     7392 
    7438     7427     7373     7380     7458     7514     7477     7349 
    7273     7380     7535     7553     7500     7443     7279     7076 
    7033     7122     7218     7299     7311     7204     7152     7302 
    7522     7628     7589     7437     7217     7055     7115     7418 
    7715     7709     7456     7283     7335     7468     7508     7420 
    7321     7352     7468     7516     7484     7441     7354     7145 
    6936     7003     7331     7564     7518     7387     7381     7499 
    7601     7588     7462     7288     7159     7126     7142     7223 
    7418     7557     7516     7510     7630     7681     7626     7557 
    7410     7136     6855     6750     6963     7372     7672     7801 
    7824     7697     7453     7217     7075     7080     7184     7264 
    7271     7264     7348     7484     7477     7361     7334     7391 
    7426     7411     7381     7430     7527     7558     7541     7576 
    7693     7793     7711     7418     7095     6933     6924     6978 
    7096     7236     7234     7088     6987     7025     7153     7353 
    7585     7720     7735     7753     7774     7638     7325     7055 
    6991     7072     7175     7280     7406     7560     7713     7717 
    7501     7304     7299     7319     7236     7141     7159     7306 
    7491     7605     7612     7533     7435     7352     7284     7276 
    7314     7372     7420     7385     7312     7327     7393     7395 
    7298     7176     7134     7192     7214     7075     6940     7080 
    7441     7780     8008     8105     8008     7707     7345     7156 
    7191     7277     7302     7241     7061     6843     6802     6998 
    7198     7263     7334     7492     7620     7661     7695     7781 
    7884     7909     7771     7481     7109     6750     6556     6637 
    6917     7211     7454     7605     7568     7473     7543     7738 
    7916     8006     7979     7825     7528     7200     7038     7105 
    7312     7460     7377     7221     7252     7369     7337     7199 
    7090     7053     7114     7246     7404     7642     7925     8041 
    7888     7593     7371     7310     7268     7096     6902     6825 
    6858     6951     7047     7137     7284     7484     7689     7888 
    7998     7900     7614     7264     6959     6809     6862     7024 
    7214     7407     7530     7539     7450     7302     7148     7029 
    6963     6932     6909     6934     7092     7371     7678     7946 
    8114     8135     8056     7925     7701     7450     7325     7302 
    7257     7163     7021     6872     6821     6929     7148     7360 
    7476     7501     7524     7576     7585     7527     7488     7518 
    7554     7604     7734     7843     7784     7572     7303     7047 
    6809     6612     6594     6787     6972     7038     7152     7461 
    7884     8210     8345     8338     8236     7983     7524     6978 
    6579     6428     6494     6767     7134     7420     7591     7666 
    7624     7481     7307     7233     7333     7506     7639     7712 
    7722     7636     7407     7090     6878     6940     7261     7588 
    7658     7503     7326     7230     7218     7268     7329     7381 
    7431     7466     7434     7260     7011     6921     7067     7268 
    7368     7427     7557     7628     7474     7250     7173     7254 
    7420     7542     7589     7665     7739     7663     7441     7248 
    7198     7206     7129     6930     6716     6682     6889     7179 
    7429     7636     7854     8125     8307     8209     7884     7515 
    7175     6874     6697     6825     7252     7647     7701     7402 
    7022     6898     7042     7199     7265     7344     7530     7754 
    7832     7755     7662     7607     7612     7708     7776     7693 
    7511     7268     6917     6562     6430     6609     7011     7470 
    7792     7848     7731     7603     7496     7412     7368     7356 
    7353     7285     7163     7121     7188     7290     7408     7512 
    7542     7481     7392     7349     7330     7237     7096     7076 
    7194     7312     7376     7380     7350     7330     7333     7368 
    7414     7462     7574     7730     7816     7744     7456     7106 
    7001     7144     7275     7303     7284     7257     7250     7291 
    7427     7659     7817     7754     7585     7460     7318     7149 
    7153     7358     7474     7360     7142     6912     6731     6704 
    6843     7123     7533     7929     8155     8193     8077     7811 
    7464     7202     7106     7103     7200     7476     7789     7855 
    7662     7452     7368     7391     7464     7514     7501     7456 
    7346     7145     6910     6770     6864     7155     7423     7562 
    7572     7389     7051     6747     6608     6679     7002     7484 
    7939     8267     8432     8432     8311     8066     7685     7271 
    6968     6802     6666     6501     6328     6191     6207     6442 
    6778     7092     7371     7587     7692     7703     7744     7898 
    8116     8306     8372     8233     7912     7470     6966     6508 
    6203     6106     6250     6652     7252     7962     8673     9127 
    9103     8731     8212     7497     6585     5752     5294     5309 
    5718     6357     7095     7850     8523     8984     9093     8841 
    8394     7850     7177     6436     5773     5316     5228     5614 
    6378     7373     8476     9462    10027    10053     9706     9273 
    8919     8615     8264     7832     7327     6735     6007     5177 
    4511     4361     4811     5640     6592     7443     7971     8140 
    8128     8037     7893     7817     7954     8361     8969     9491 
    9640     9308     8506     7447     6474     5737     5196     4734 
    4260     3905     3929     4487     5688     7542     9715    11572 
   12436    11997    10447     8205     5790     3812     2776     2909 
    4114     6026     8128     9830    10620    10390     9505     8463 
    7560     6959     6817     7057     7360     7581     7896     8507 
    9360    10172    10658    10662    10066     8741     6747     4522 
    2720     1842     2047     3225     5070     7142     8981    10211 
   10650    10350     9455     8178     6897     5992     5625     5807 
    6446     7258     7865     7955     7449     6562     5655     5121 
    5278     6135     7322     8424     9248     9702     9664     9097 
    8158     7167     6428     6102     6214     6601     7007     7317 
    7500     7522     7411     7233     7090     7156     7433     7674 
    7707     7584     7443     7373     7342     7325     7427     7728 
    8082     8212     7939     7288     6480     5841     5625     5891 
    6525     7312     8013     8459     8623     8623     8596     8600 
    8603     8506     8155     7476     6565     5636     4939     4672 
    4895     5598     6712     7982     9059     9724     9896     9629 
    9159     8773     8575     8461     8232     7743     7002     6106 
    5162     4353     3974     4271     5283     6844     8564    10011 
   10859    10858    10037     8814     7615     6725     6323     6382 
    6737     7242     7720     7962     7846     7323     6446     5463 
    4716     4402     4569     5181     6103     7113     8005     8769 
    9518    10177    10521    10428     9900     8974     7789     6666 
    5922     5667     5890     6480     7187     7715     7804     7352 
    6488     5509     4882     5057     6052     7469     8951    10253 
   11111    11299    10689     9373     7813     6548     5780     5409 
    5216     5026     4845     4735     4752     5028     5660     6562 
    7520     8325     8866     9163     9305     9343     9317     9292 
    9247     9019     8468     7614     6631     5756     5169     4945 
    5008     5171     5428     5989     6882     7857     8637     9054 
    9089     8838     8468     8172     8024     7931     7803     7634 
    7458     7315     7246     7272     7341     7349     7249     7128 
    7167     7419     7701     7798     7672     7410     7134     6913 
    6733     6644     6728     6913     7113     7380     7761     8212 
    8634     8866     8835     8631     8271     7668     6845     5960 
    5227     4820     4822     5242     6027     7064     8164     9081 
    9574     9575     9275     8856     8348     7785     7144     6416 
    5767     5337     5148     5243     5634     6207     6849     7500 
    8039     8351     8371     8087     7655     7346     7315     7503 
    7769     8032     8191     8091     7662     6968     6104     5259 
    4784     4909     5548     6439     7372     8252     9026     9570 
    9783     9737     9539     9147     8563     7951     7425     6995 
    6751     6782     7018     7329     7624     7813     7825     7669 
    7360     6929     6450     6038     5898     6145     6635     7142 
    7549     7817     7935     7893     7727     7608     7726     8032 
    8297     8325     8047     7535     7005     6696     6698     6951 
    7345     7742     7998     8063     7925     7558     7079     6685 
    6477     6493     6662     6829     6921     6947     6951     6957 
    7041     7356     7900     8452     8818     8869     8546     8017 
    7522     7126     6898     6953     7168     7302     7211     6880 
    6485     6249     6261     6515     6986     7639     8264     8629 
    8725     8560     8145     7614     7080     6691     6525     6515 
    6667     6988     7318     7492     7468     7283     6988     6633 
    6299     6108     6200     6660     7402     8235     8935     9258 
    9171     8847     8353     7763     7218     6760     6413     6188 
    6060     6083     6292     6658     7140     7589     7835     7931 
    7958     7797     7458     7179     7037     6997     7142     7465 
    7746     7855     7823     7650     7375     7202     7296     7568 
    7865     8131     8294     8325     8345     8461     8613     8684 
    8583     8228     7615     6814     5989     5346     4984     4896 
    5031     5328     5749     6316     7109     8093     9090     9868 
   10301    10334     9864     8986     7935     6804     5746     4963 
    4533     4499     4861     5532     6339     7106     7789     8344 
    8702     8872     8864     8711     8487     8222     7893     7468 
    6991     6563     6332     6363     6542     6782     7092     7400 
    7612     7755     7882     7981     8050     8082     8014     7850 
    7722     7647     7553     7456     7350     7225     7078     6903 
    6775     6732     6791     6986     7222     7419     7553     7574 
    7539     7515     7420     7200     6993     6917     6948     7117 
    7420     7722     7955     8110     8075     7778     7335     6974 
    6809     6775     6777     6794     6864     6967     7025     7049 
    7113     7176     7186     7211     7242     7249     7279     7323 
    7383     7504     7690     7912     8102     8218     8240     8106 
    7804     7373     6899     6516     6320     6354     6644     7160 
    7739     8187     8480     8598     8479     8205     7835     7411 
    7133     7076     7103     7180     7345     7518     7697     7905 
    8093     8275     8378     8247     7929     7510     7022     6617 
    6394     6270     6195     6242     6435     6737     7079     7329 
    7464     7543     7577     7631     7693     7657     7566     7442 
    7198     6912     6739     6656     6625     6637     6646     6663 
    6727     6841     7091     7449     7773     8046     8226     8212 
    8073     7939     7817     7707     7646     7672     7750     7827 
    7771     7511     7226     7038     6949     6984     7009     6966 
    6971     6951     6856     6825     6893     7021     7150     7219 
    7311     7473     7623     7788     7952     8064     8179     8330 
    8483     8480     8256     7863     7284     6667     6208     5925 
    5854     6022     6323     6689     7149     7618     8014     8403 
