Origin Time       2025/03/28 03:50:00
Lat.              35.403
Long.             140.360
Depth. (km)       54
Mag.              4.4
Station Code      CHB003
Station Lat.      35.7926
Station Long.     140.0577
Station Height(m) 21
Record Time       2025/03/28 03:51:00
Sampling Freq(Hz) 100Hz
Duration Time(s)  60
Dir.              U-D
Scale Factor      7845(gal)/8223790
Max. Acc. (gal)   4.049
Last Correction   2025/03/28 03:51:00
Memo.             
   13583    13583    13582    13581    13559    13539    13559    13602 
   13629    13639    13637    13602    13566    13564    13568    13571 
   13591    13624    13648    13653    13635    13597    13562    13541 
   13555    13595    13624    13628    13622    13609    13587    13571 
   13578    13594    13595    13598    13609    13608    13602    13602 
   13591    13582    13598    13614    13610    13599    13583    13572 
   13578    13582    13579    13578    13583    13591    13591    13593 
   13599    13595    13582    13579    13587    13591    13601    13622 
   13621    13593    13579    13585    13591    13601    13612    13608 
   13605    13609    13605    13595    13595    13602    13598    13591 
   13602    13610    13593    13576    13571    13574    13585    13599 
   13599    13589    13585    13593    13594    13586    13578    13575 
   13572    13576    13597    13620    13626    13612    13585    13567 
   13568    13581    13603    13616    13603    13582    13562    13563 
   13593    13618    13628    13626    13614    13599    13590    13591 
   13589    13585    13587    13581    13567    13581    13603    13613 
   13605    13589    13575    13571    13578    13602    13618    13612 
   13597    13578    13568    13575    13578    13583    13601    13614 
   13622    13618    13594    13568    13567    13590    13613    13621 
   13613    13591    13572    13575    13594    13616    13621    13612 
   13597    13583    13581    13581    13583    13589    13594    13597 
   13589    13578    13586    13608    13617    13612    13594    13579 
   13579    13586    13591    13602    13606    13599    13599    13602 
   13602    13597    13590    13589    13591    13587    13590    13606 
   13621    13620    13601    13578    13567    13571    13586    13601 
   13599    13591    13587    13590    13595    13598    13605    13608 
   13597    13575    13568    13582    13598    13602    13608    13610 
   13602    13594    13597    13601    13602    13606    13609    13603 
   13598    13599    13595    13582    13575    13586    13606    13618 
   13613    13602    13590    13578    13571    13572    13576    13591 
   13603    13595    13581    13579    13587    13594    13591    13589 
   13590    13590    13595    13610    13626    13612    13576    13572 
   13598    13613    13606    13591    13587    13586    13585    13597 
   13605    13595    13595    13599    13591    13578    13574    13576 
   13572    13579    13597    13603    13598    13590    13575    13570 
   13576    13583    13595    13610    13613    13608    13603    13595 
   13587    13594    13606    13601    13582    13585    13599    13597 
   13589    13586    13581    13587    13608    13618    13614    13593 
   13571    13574    13589    13591    13581    13572    13579    13595 
   13608    13608    13599    13591    13587    13587    13590    13597 
   13589    13566    13564    13586    13597    13594    13591    13597 
   13606    13610    13601    13587    13591    13606    13608    13602 
   13598    13593    13591    13601    13610    13608    13595    13594 
   13598    13602    13608    13602    13589    13582    13572    13570 
   13579    13591    13599    13606    13608    13594    13575    13564 
   13571    13598    13624    13624    13599    13574    13568    13579 
   13591    13595    13585    13572    13578    13601    13626    13635 
   13622    13603    13587    13587    13603    13613    13614    13606 
   13585    13564    13555    13571    13613    13632    13610    13585 
   13576    13575    13575    13585    13591    13583    13578    13587 
   13602    13608    13593    13578    13575    13581    13602    13629 
   13632    13608    13579    13566    13570    13586    13608    13620 
   13613    13593    13578    13578    13581    13578    13585    13602 
   13606    13594    13590    13598    13598    13594    13594    13582 
   13568    13571    13590    13610    13616    13610    13613    13613 
   13599    13585    13582    13583    13583    13586    13599    13614 
   13612    13591    13571    13574    13594    13608    13609    13608 
   13595    13581    13578    13576    13571    13575    13585    13593 
   13599    13605    13610    13606    13595    13595    13602    13605 
   13603    13598    13595    13601    13606    13601    13593    13591 
   13603    13616    13605    13585    13572    13570    13579    13595 
   13601    13594    13585    13578    13587    13610    13624    13621 
   13608    13599    13591    13582    13583    13591    13594    13585 
   13579    13586    13598    13612    13621    13608    13576    13556 
   13562    13587    13613    13620    13612    13602    13594    13593 
   13599    13606    13606    13591    13579    13597    13618    13613 
   13590    13567    13564    13576    13598    13618    13612    13589 
   13567    13554    13559    13586    13614    13622    13608    13590 
   13582    13589    13598    13599    13601    13599    13594    13590 
   13589    13589    13590    13594    13590    13586    13594    13608 
   13614    13612    13599    13585    13578    13587    13599    13601 
   13589    13578    13582    13594    13608    13609    13593    13576 
   13578    13587    13595    13599    13598    13594    13595    13602 
   13598    13587    13589    13601    13598    13585    13578    13576 
   13586    13606    13621    13617    13594    13574    13575    13589 
   13590    13581    13590    13608    13606    13602    13599    13593 
   13589    13587    13587    13587    13581    13583    13603    13610 
   13597    13585    13578    13578    13598    13622    13618    13590 
   13572    13589    13612    13617    13602    13572    13541    13513 
   13482    13477    13506    13536    13568    13626    13687    13706 
   13640    13520    13447    13468    13574    13745    13922    13972 
   13799    13456    13100    12838    12776    13070    13714    14415 
   14752    14430    13506    12460    11893    12135    13140    14558 
   15661    15593    14206    12336    11038    10837    11785    13740 
   16143    17838    17795    16047    13644    11763    11024    11506 
   12930    14627    15797    16083    15411    13821    11971    10882 
   11075    12437    14358    15859    16113    14936    12873    11005 
   10359    11169    12857    14562    15577    15464    14103    12101 
   10783    11141    12826    14523    15391    15579    15334    14536 
   13378    12618    12603    12922    13366    14040    14496    14157 
   13292    12571    12295    12631    13667    14997    15855    15739 
   14863    13791    12760    11958    12016    13239    14713    15218 
   14559    13149    11358    10093    10561    12569    14685    16124 
   16756    16206    14314    11846    10201    10303    11993    14416 
   16403    16758    15156    12823    11256    10821    11531    13490 
   15961    17475    17219    15734    13865    11967    10800    11315 
   12955    14180    14708    15138    15101    14037    12509    11333 
   10999    11867    13706    15662    16679    15970    14021    12332 
   11506    11234    11751    13103    14283    14674    14558    14011 
   13234    13024    13558    14131    14446    14601    14559    14481 
   14341    13639    12584    12102    12482    13396    14575    15514 
   15437    14207    12499    11128    10785    11830    13657    15129 
   15676    15218    13765    11940    10816    10984    12445    14508 
   15894    15979    15130    13833    12492    11576    11507    12476 
   14069    15352    15704    15248    14287    12978    11867    11739 
   12550    13539    14447    15344    15650    14974    13894    13058 
   12742    12989    13401    13649    13872    14015    13791    13362 
   13158    13085    12834    12667    12908    13297    13555    13801 
   14023    14037    14037    14253    14511    14604    14238    13166 
   11977    11599    12194    13398    14740    15277    14458    13224 
   12557    12472    13062    14223    15114    15284    14967    14276 
   13482    13181    13266    13238    13304    13551    13516    13304 
   13381    13598    13549    13155    12530    11989    11982    12637 
   13852    15304    16062    15543    14411    13373    12459    11885 
   12062    12695    13014    13009    13390    14203    14882    15223 
   15057    14193    13178    12687    12687    13066    13768    14229 
   14104    13872    13802    13635    13479    13558    13485    13116 
   13092    13448    13522    13585    13971    13837    12954    12492 
   12995    13848    14775    15689    15858    15010    13598    11789 
   10357    10708    12548    14272    15396    16001    15465    13832 
   12232    11433    11799    13358    14985    15487    15238    14935 
   14299    13325    12465    11634    11065    11524    12712    13922 
   15253    16333    16015    14285    12509    11670    11639    12136 
   13410    15151    15998    15472    14250    12537    11084    11356 
   12887    14112    14929    15404    14844    13720    13244    13521 
   14076    14442    14168    13468    12862    12347    11923    11963 
   12374    12752    13352    14505    15681    16182    16078    15552 
   14220    12271    10909    10744    11399    12685    14299    15094 
   14435    13124    12094    11624    11913    13088    14625    15693 
   16194    16287    15403    13501    11917    11524    11974    12958 
   14243    15138    15199    14673    13864    13004    12657    13189 
   14112    14812    15034    14459    13204    12260    12204    12532 
   12946    13694    14369    14297    13878    13566    13035    12596 
   12965    13784    14393    14635    14328    13495    12618    12040 
   12008    12800    13930    14380    14212    14222    14181    13555 
   12976    13028    13321    13632    13956    13981    13834    13913 
   14042    13871    13348    12807    12706    13000    13576    14523 
   15294    15190    14362    13171    11896    11183    11483    12609 
   14099    15415    16065    15674    14214    12528    11665    11538 
   11597    12177    13609    15167    15997    15923    15076    13792 
   12609    11951    12129    13338    15083    16289    16336    15249 
   13246    11049     9918    10426    11971    13832    15466    15998 
   15030    13425    12266    11902    12363    13587    15087    16120 
   15955    14373    12394    11241    10870    11249    13035    15411 
   16564    16405    15687    14197    12214    11121    11207    11707 
   12758    14469    15530    15237    14563    13899    12897    12437 
   13205    14218    14878    15331    14945    13531    12226    11635 
   11484    11904    12961    13994    14586    14882    14740    14118 
   13567    13188    12582    12222    12744    13473    13764    14076 
   14382    14014    13216    12712    12668    13143    14210    15291 
   15620    15079    13959    12748    12114    12156    12395    12765 
   13392    13941    14327    14827    15088    14609    13895    13644 
   13651    13591    13798    14353    14469    13721    12785    12112 
   11566    11530    12370    13612    14736    15530    15668    14943 
   13680    12533    12085    12530    13350    13790    13764    13521 
   12906    12051    11902    12893    14331    15542    16262    16197 
   15271    13907    12627    11812    11811    12595    13512    13921 
   13811    13483    13194    13162    13370    13809    14461    14810 
   14473    13752    13078    12690    12607    12710    12887    13081 
   13320    13698    14215    14569    14538    14268    13780    13116 
   12719    12857    13278    13763    14281    14505    14050    13220 
   12750    12968    13683    14550    15128    14971    14115    13030 
   12251    12231    12842    13348    13400    13178    12901    13016 
   13768    14543    14856    14924    14748    14195    13543    12945 
   12340    11954    12005    12402    13096    14042    14806    14936 
   14612    14308    14127    14077    14395    14908    14975    14435 
   13540    12402    11443    11222    11670    12442    13379    14223 
   14694    14824    14696    14304    13807    13339    12834    12522 
   12834    13494    13794    13693    13516    13311    13109    13032 
   13212    13786    14625    15303    15287    14408    13227    12314 
   11811    11929    12640    13359    13805    14056    14034    13987 
   14230    14399    14289    14304    14391    14175    13819    13508 
   13035    12557    12586    13065    13535    14003    14527    14659 
   14196    13544    13088    12861    12907    13331    13856    14054 
   13926    13645    13281    12977    12845    12861    13100    13595 
   14103    14327    14166    13687    13080    12596    12402    12571 
   13089    13782    14426    14855    14894    14542    14088    13761 
   13575    13483    13404    13340    13347    13234    12969    12970 
   13367    13786    14106    14571    15059    15084    14636    14119 
   13701    13464    13410    13115    12530    12274    12393    12494 
   12684    13076    13473    13799    14060    14243    14355    14438 
   14647    14866    14681    14107    13517    13042    12757    12856 
   13266    13602    13514    13007    12567    12650    13147    13760 
   14413    14882    14758    13998    12974    12218    12171    12773 
   13491    13894    13960    13876    13780    13795    14057    14451 
   14624    14420    13984    13446    12887    12464    12202    12039 
   12168    12696    13385    14069    14632    14855    14694    14303 
   13883    13636    13740    14230    14669    14454    13621    12644 
   11761    11352    11950    13227    14415    15326    15784    15426 
   14542    13664    12930    12592    12853    13252    13401    13400 
   13142    12467    11846    11900    12557    13288    13826    14094 
   13845    13186    12785    12914    13257    13749    14405    14835 
   14752    14369    14069    14085    14343    14578    14631    14457 
   14031    13466    12955    12649    12722    13182    13672    13882 
   13845    13671    13393    13189    13293    13714    14288    14685 
   14628    14226    13761    13339    12982    12812    12879    13081 
   13369    13651    13764    13662    13355    13047    13032    13266 
   13599    13903    13921    13701    13518    13352    13248    13352 
   13440    13539    14072    14754    14843    14301    13533    12796 
   12483    12911    13759    14422    14573    14308    13855    13248 
   12733    12702    13108    13686    14242    14504    14359    14058 
   13755    13460    13274    13108    12945    13135    13620    13817 
   13571    12993    12096    11323    11263    11932    13022    14288 
   15392    15871    15665    15276    15070    14933    14725    14397 
   13878    13270    12777    12359    11992    11993    12521    13123 
   13362    13547    13953    14183    14153    14307    14620    14710 
   14474    14011    13454    12865    12272    11892    12077    12800 
   13602    14258    14750    14816    14424    14037    13944    14061 
   14296    14405    13913    12879    12000    11655    11639    11878 
   12576    13525    14285    14804    15022    14852    14608    14389 
   13898    13298    13026    13024    13055    13053    12954    12842 
   12941    13325    13996    14895    15745    16137    15873    15048 
   13853    12557    11543    11056    11014    11296    11967    12773 
   13119    13011    13063    13479    14003    14639    15422    15909 
   15761    15291    14854    14370    13725    13046    12515    12294 
   12406    12663    13059    13729    14378    14584    14296    13560 
   12483    11551    11252    11669    12749    14204    15252    15364 
   14928    14459    14150    14280    14868    15361    15338    14924 
   14231    13126    11846    11010    10727    10797    11418    12654 
   14019    15103    15747    15765    15196    14412    13792    13527 
   13489    13382    13066    12618    12235    12063    12120    12482 
   13155    13872    14428    14696    14530    14131    13871    13802 
   13911    14304    14845    15168    15075    14616    13914    13069 
   12217    11580    11360    11642    12321    13053    13451    13397 
   13063    12683    12413    12453    12937    13707    14470    15037 
   15381    15581    15741    15861    15850    15615    15044    14106 
   13051    12185    11603    11423    11769    12445    13130    13695 
   14085    14211    14119    13965    13880    13948    14112    14203 
   14100    13732    13103    12452    12116    12263    12818    13482 
   13938    14103    13980    13567    13089    12907    13162    13690 
   14249    14705    14891    14624    14017    13381    12908    12764 
   13051    13578    14027    14199    14007    13589    13180    12869 
   12730    12831    13104    13424    13663    13763    13757    13714 
   13672    13647    13714    13961    14288    14489    14557    14589 
   14424    13906    13377    13201    13254    13316    13390    13444 
   13378    13251    13174    13167    13290    13536    13691    13583 
   13265    12966    12943    13192    13508    13829    14172    14392 
   14358    14158    13891    13563    13255    13143    13301    13533 
   13610    13589    13568    13531    13626    13964    14247    14308 
   14335    14265    13860    13185    12444    11831    11591    11794 
   12344    13216    14211    14898    15159    15191    15024    14608 
   14218    14115    14040    13787    13626    13599    13405    13066 
   12773    12515    12353    12366    12441    12533    12665    12766 
   12923    13305    13838    14403    14904    15149    15068    14771 
   14357    13878    13425    13128    12977    12845    12735    12719 
   12762    12800    12887    13205    13861    14678    15303    15529 
   15354    14825    14014    13122    12410    11959    11673    11595 
   11889    12609    13585    14493    15083    15321    15314    15161 
   14879    14534    14241    14004    13725    13402    13080    12745 
   12456    12280    12190    12268    12685    13439    14285    14893 
   15053    14729    14056    13383    12984    12853    12934    13139 
   13235    13068    12784    12609    12645    12947    13491    14134 
   14669    14918    14844    14597    14315    13988    13667    13479 
   13402    13358    13387    13468    13490    13425    13348    13367 
   13531    13756    13984    14108    13952    13651    13520    13525 
   13495    13444    13385    13274    13135    13019    13028    13252 
   13568    13732    13678    13618    13760    13968    13984    13782 
   13463    13112    12874    12900    13189    13647    14139    14461 
   14463    14301    14230    14215    14080    13894    13811    13792 
   13760    13716    13613    13375    13063    12858    12845    12935 
   13039    13180    13369    13547    13662    13703    13709    13733 
   13810    13994    14246    14391    14337    14089    13714    13414 
   13332    13370    13387    13274    13011    12787    12769    12866 
   13032    13369    13768    14002    14008    13792    13394    13027 
   12864    12928    13294    13937    14559    14951    15133    15094 
   14769    14251    13733    13350    13189    13246    13338    13275 
   13078    12833    12546    12302    12243    12361    12645    13158 
