Origin Time       2025/03/28 03:50:00
Lat.              35.403
Long.             140.360
Depth. (km)       54
Mag.              4.4
Station Code      CHB018
Station Lat.      35.1520
Station Long.     140.3204
Station Height(m) 38
Record Time       2025/03/28 03:50:49
Sampling Freq(Hz) 100Hz
Duration Time(s)  65
Dir.              U-D
Scale Factor      7845(gal)/8223790
Max. Acc. (gal)   4.533
Last Correction   2025/03/28 03:50:48
Memo.             
[...]
    7894     7888     7889     7892     7894     7893     7886     7888 
    7890     7882     7886     7902     7901     7890     7888     7885 
    7886     7890     7886     7888     7898     7898     7888     7888 
    7894     7892     7888     7897     7898     7884     7882     7898 
    7897     7886     7890     7896     7894     7888     7881     7889 
    7902     7906     7897     7890     7894     7888     7884     7892 
    7900     7902     7894     7886     7888     7888     7885     7888 
    7901     7904     7892     7889     7894     7894     7890     7893 
    7901     7894     7888     7890     7892     7889     7889     7897 
    7894     7886     7896     7898     7884     7892     7901     7884 
    7890     7904     7886     7885     7892     7890     7901     7898 
    7889     7901     7893     7879     7890     7900     7897     7888 
    7881     7896     7908     7892     7892     7912     7892     7877 
    7900     7897     7885     7897     7898     7882     7889     7905 
    7888     7886     7906     7892     7882     7901     7896     7885 
    7900     7909     7892     7888     7896     7885     7888     7896 
    7881     7897     7909     7884     7884     7900     7892     7896 
    7904     7884     7885     7904     7884     7878     7912     7897 
    7869     7901     7913     7879     7888     7906     7886     7888 
    7904     7892     7885     7901     7889     7877     7904     7904 
    7882     7900     7904     7892     7890     7874     7878     7905 
    7898     7885     7900     7906     7893     7896     7890     7879 
    7892     7896     7884     7890     7894     7886     7892     7900 
    7901     7894     7893     7892     7882     7889     7901     7892 
    7884     7882     7886     7902     7904     7894     7898     7894 
    7884     7882     7890     7894     7894     7894     7890     7888 
    7890     7893     7892     7900     7908     7897     7888     7890 
    7888     7882     7885     7893     7900     7901     7888     7885 
    7911     7900     7873     7893     7906     7886     7888     7901 
    7893     7889     7894     7881     7875     7902     7902     7882 
    7902     7908     7879     7893     7909     7885     7879     7892 
    7890     7886     7893     7901     7900     7889     7882     7889 
    7905     7911     7890     7871     7881     7879     7877     7902 
    7920     7912     7896     7886     7884     7882     7879     7882 
    7896     7901     7901     7906     7900     7885     7885     7881 
    7877     7897     7905     7888     7888     7904     7896     7884 
    7900     7906     7890     7890     7896     7885     7882     7884 
    7879     7886     7894     7901     7905     7901     7900     7892 
    7882     7892     7893     7889     7901     7897     7886     7884 
    7881     7888     7897     7898     7893     7902     7909     7878 
    7871     7893     7886     7892     7906     7901     7898     7888 
    7877     7879     7892     7900     7898     7890     7879     7889 
    7901     7889     7897     7909     7884     7879     7894     7878 
    7873     7906     7915     7901     7897     7890     7888     7890 
    7886     7888     7892     7896     7889     7884     7897     7896 
    7889     7901     7906     7905     7896     7889     7892     7882 
    7871     7874     7879     7893     7902     7908     7916     7913 
    7902     7892     7885     7879     7873     7878     7888     7890 
    7890     7897     7911     7911     7898     7900     7898     7879 
    7871     7881     7889     7894     7893     7889     7898     7901 
    7894     7896     7897     7889     7890     7889     7882     7885 
    7888     7884     7890     7904     7905     7898     7898     7900 
    7889     7881     7882     7886     7892     7892     7892     7901 
    7900     7885     7882     7890     7898     7900     7896     7894 
    7890     7879     7881     7889     7898     7909     7900     7890 
    7898     7894     7881     7889     7901     7893     7884     7894 
    7905     7897     7888     7889     7893     7893     7894     7898 
    7898     7892     7884     7888     7902     7902     7890     7892 
    7901     7894     7884     7889     7898     7893     7889     7893 
    7896     7894     7892     7890     7901     7906     7889     7875 
    7888     7900     7892     7885     7894     7902     7897     7893 
    7892     7885     7886     7888     7886     7897     7898     7882 
    7886     7900     7896     7893     7897     7897     7889     7884 
    7886     7886     7890     7892     7889     7897     7902     7892 
    7889     7898     7898     7885     7884     7888     7892     7897 
    7897     7898     7898     7890     7888     7894     7892     7888 
    7893     7894     7892     7892     7889     7888     7896     7897 
    7888     7889     7898     7889     7879     7894     7901     7886 
    7885     7897     7894     7889     7889     7893     7896     7890 
    7886     7890     7894     7897     7893     7888     7894     7898 
    7888     7884     7892     7898     7892     7889     7900     7896 
    7884     7888     7901     7897     7884     7886     7894     7892 
    7893     7894     7896     7901     7898     7886     7890     7894 
    7884     7884     7893     7893     7896     7900     7896     7894 
    7898     7897     7890     7893     7894     7892     7893     7894 
    7892     7888     7896     7902     7892     7886     7893     7894 
    7890     7892     7893     7894     7896     7893     7892     7896 
    7893     7885     7885     7894     7898     7890     7890     7896 
    7894     7885     7884     7896     7901     7892     7892     7898 
    7893     7890     7894     7888     7889     7894     7888     7890 
    7900     7892     7878     7888     7898     7896     7892     7893 
    7893     7889     7889     7892     7892     7893     7892     7888 
    7893     7898     7894     7890     7893     7896     7892     7889 
    7894     7896     7889     7888     7893     7897     7896     7890 
    7892     7894     7890     7894     7900     7896     7888     7886 
    7893     7894     7890     7893     7902     7896     7885     7888 
    7893     7892     7896     7898     7898     7896     7892     7888 
    7885     7888     7890     7886     7894     7905     7896     7882 
    7886     7892     7878     7866     7869     7871     7875     7878 
    7862     7835     7817     7803     7746     7632     7553     7632 
    7836     7955     7924     8006     8330     8614     8729     8739 
    8653     8564     8141     7230     6936     7303     6987     6967 
    8330     8545     7195     7746     9123     8159     7690     8887 
    7601     5244     6373     8434     7541     6318     7902     9576 
    9163     9570    10467     8695     6731     6795     7176     8028 
    8291     6315     5244     6620     8252     9362     9352     8434 
    8201     8280     8060     7921     7636     7383     7426     7962 
    9221     9595     8143     6768     6995     8440     8883     7202 
    6519     7672     7223     6497     8410     9246     7241     6809 
    8012     7921     8189     9668     9921     8766     7785     7106 
    5984     5246     6858     9036     8927     8892     9632     8148 
    7037     8768     8769     6598     6370     6426     6022     7950 
    8988     7312     7820     9869     9350     8264     8441     7692 
    6242     7048     9636    10191     8595     7782     6808     5125 
    6093     8253     7954     7804     8995     8708     7966     8073 
    7434     7068     8218     8734     8056     7901     8056     7500 
    7121     7848     8390     7782     7326     7870     8544     8737 
    8657     8301     7646     7334     7587     7549     7160     7284 
    7790     8187     8523     8688     8374     7630     7227     7504 
    7511     7150     7427     7830     7916     8667     9170     8604 
    8561     8610     7912     7862     7712     6635     6534     7398 
    7786     7919     8162     8411     8325     7603     7213     7852 
    8244     7684     7537     8383     8918     8402     7573     7403 
    7994     8309     7956     7869     7940     7581     7407     7555 
    7678     7890     7793     7514     8064     8792     8426     7890 
    8005     7717     7250     7890     8464     7773     7496     8027 
    7608     7129     8131     8750     7901     7566     7998     7692 
    7483     8237     8378     7871     8083     7715     6355     6957 
    9178     9366     8486     9182     9111     7010     6258     7261 
    7299     6808     7647     8946     8827     7800     7533     7538 
    6995     7145     8020     8086     7900     8376     8703     8642 
    8646     8424     7657     6887     6943     7794     8546     8533 
    8305     8503     8298     7541     7495     7537     6975     7350 
    8266     8164     7970     7909     7468     7935     8677     8037 
    7797     8293     7312     6822     8473     8779     7607     7858 
    7600     6041     6602     8596     8883     8329     8667     8885 
    7912     7342     8328     8614     7304     7101     8303     8198 
    7182     7464     7905     7285     7191     7965     8351     8251 
    8298     8695     8669     7641     6974     7361     7226     6917 
    8029     9092     8897     8446     7722     7249     8098     8779 
    8104     7349     7449     7703     7240     7029     8102     8658 
    7890     8143     9173     8270     6505     6525     7442     7724 
    8232     9298     9363     8006     6847     6766     7146     7573 
    7993     8266     8415     8696     9201     9162     8054     6961 
    6516     6272     6718     7947     8722     8920     9024     8445 
    7512     7881     8861     8074     6817     7672     8370     6955 
    6474     7645     7738     7466     8286     8657     8263     7933 
    7219     6845     7931     8928     8513     8122     8568     8245 
    6806     6554     7740     8047     8122     9408     9728     8741 
    8553     7874     6099     5821     6690     7256     8523     9772 
    9529     8706     7560     5983     5456     6386     7657     8553 
    9135     9498     9026     8221     8158     7715     6886     7329 
    7800     7508     8179     8851     8183     7742     7542     6901 
    7056     7612     7601     8029     8781     8945     8681     7885 
    7171     7519     7859     7790     8364     8563     7439     6845 
    7909     9003     8684     8027     8186     7869     6592     6330 
    7392     8089     8218     8468     8638     8394     7831     7456 
    7615     7838     8012     8338     8162     7708     8102     8679 
    8186     7037     6409     6783     7427     7743     8222     8899 
    9073     8704     8209     7766     7584     7654     7628     7882 
    8461     8147     7460     7990     8465     7601     6828     6767 
    6801     7086     7603     8409     9505     9400     8060     7843 
    8317     7506     7032     8143     8525     7743     7785     8002 
    6894     6104     7168     8472     8854     9177     9119     8064 
    7732     8490     8063     7006     7356     7618     7013     7646 
    8945     8793     8148     8098     7684     7078     7102     7159 
    7304     8141     8768     8718     8793     8752     8048     7334 
    7114     7248     7595     7854     7865     8062     8545     8704 
    8410     7951     7265     6488     6335     7272     8444     8695 
    8360     8041     7479     7086     7658     8561     8748     8370 
    8122     8220     8313     8167     8021     7740     7244     7384 
    8032     8100     8050     8268     7759     6964     6922     7094 
    7593     8644     8942     8676     8864     8594     7780     7608 
    7593     7217     7349     7794     7661     7392     7280     7005 
    7380     8541     8947     8599     8492     8229     7794     7827 
    8021     8205     8418     8156     7573     7404     7789     8218 
    8060     7803     8208     8325     7688     7504     7663     7287 
    6991     7161     7237     7276     7474     7568     7647     7863 
    7905     7716     7531     7507     7956     8765     9136     8861 
    8522     8298     8195     8567     9001     8631     7894     7734 
    7771     7375     7215     7716     8090     8081     7921     7411 
    6941     7140     7689     8309     8812     8473     7512     6805 
    6280     6293     7273     8002     8137     8644     9011     8707 
    8492     8444     8449     8899     9138     8586     8139     8054 
    7599     7101     7222     7528     7646     7565     6818     5892 
    6265     7558     8209     8051     7360     6174     5382     5763 
    6883     8239     9763    11076    11723    11650    10771     9269 
    8159     8047     8295     8444     8623     8310     7069     5857 
    5383     5053     4841     5660     7408     8984     9942    10014 
    8613     6737     6196     6731     7597     9100    10212     9661 
    8749     8515     7695     6168     5429     5348     5449     6647 
    8513     9543    10071    10612     9992     7942     6242     5942 
    6609     8043     9761    10262     8818     6664     5636     6212 
    7830    10102    11982    12097    10786     8996     6778     4858 
    4521     5343     6154     6979     7666     7456     6845     6826 
    6925     6502     6238     6629     7425     8835    10771    12213 
   12644    12179    10843     8915     6907     5244     4221     3859 
    4263     5548     7048     8226     9540    10750    10754     9578 
    8106     6783     5787     5356     5557     6191     7080     8089 
    8837     9347    10191    11009    10727     9444     7927     6354 
    5219     5571     7411     9425    10393     9880     8232     6459 
    5499     5617     6602     8120     9639    10432    10250     9273 
    7411     5444     5015     5904     6787     7994     9779    10723 
   10133     8615     6515     4606     4284     5529     7264     9073 
   10493    10860    10490     9898     9062     8464     8742     9427 
    9387     8110     6297     5105     4746     4806     5444     6670 
    7758     8478     9031     9215     9103     8989     8479     7396 
    6399     5830     5836     6824     8337     9228     9171     8559 
    7834     7577     7992     8681     9533    10388    10535     9850 
    8761     7330     5890     5228     5517     6249     7041     7726 
    8112     8075     7879     8010     8189     7865     7557     7611 
    7539     7801     8970     9999    10069     9682     9024     7986 
    6903     5917     5282     5584     6532     7442     8403     9266 
    9543     9571     9528     8795     7398     6146     5567     5717 
    6508     7726     8658     8742     8553     8671     8538     7716 
    6812     6511     6802     7604     8797     9386     8623     7406 
    6849     7200     8360     9678    10374    10443     9976     8964 
    7866     7034     6407     6027     6204     7098     8077     8438 
    8494     8419     7935     7681     8122     8348     7969     7663 
    7480     7064     6666     6517     6646     7194     7846     8105 
    8086     7825     7227     7020     7758     8692     9193     9489 
    9508     9086     8622     8205     7480     6677     6463     6967 
    7736     8345     8606     8571     8398     8048     7539     7231 
    7285     7596     8182     8699     8646     8297     8091     7842 
    7450     7306     7576     7987     8287     8332     8197     8185 
    8228     7958     7348     6808     6755     7113     7574     8182 
    8743     8617     7900     7349     7254     7546     8089     8606 
    8941     9065     8872     8357     7777     7361     7125     7011 
    6971     7047     7204     7230     7252     7622     8203     8618 
    8765     8716     8476     8047     7682     7605     7550     7377 
    7452     7832     8114     8091     7863     7631     7639     7874 
    8041     8144     8322     8430     8513     8725     8725     8317 
    7844     7445     7141     7165     7388     7500     7816     8509 
    8927     8784     8561     8401     8210     8186     8193     7865 
    7331     6876     6659     6820     7248     7653     7771     7487 
    7068     6984     7438     8249     9054     9468     9244     8541 
    7848     7449     7380     7672     8070     8020     7423     6843 
    6670     6845     7415     8324     9053     9228     8957     8415 
    7846     7591     7638     7763     7893     7836     7404     6940 
    7052     7846     8757     9270     9304     8796     7711     6535 
    6068     6520     7325     7990     8365     8363     8228     8276 
    8437     8619     8699     8415     7830     7261     6949     7061 
    7515     7987     8382     8698     8716     8451     8181     7969 
    7723     7480     7349     7299     7265     7414     7759     7940 
    7956     8206     8626     8753     8532     8330     8264     8201 
    8164     8071     7707     7211     6928     7003     7408     7944 
    8260     8214     8019     7847     7665     7441     7341     7609 
    8078     8252     7989     7508     7105     7003     7163     7434 
    7740     7911     7809     7649     7762     8148     8519     8768 
    9027     9182     8999     8716     8552     8218     7638     7160 
    7049     7304     7628     7767     7870     8000     7878     7470 
    7156     7230     7553     7847     8144     8334     8025     7526 
    7468     7561     7419     7443     7727     7948     8302     8911 
    9340     9327     8949     8367     7888     7708     7693     7805 
    8208     8711     8887     8641     8128     7546     7148     7088 
    7280     7449     7508     7549     7456     7249     7225     7341 
    7371     7434     7665     7894     8083     8324     8495     8469 
    8251     7916     7750     7863     7944     7863     7750     7589 
    7429     7399     7435     7508     7622     7639     7535     7342 
    7138     7248     7678     8098     8530     8938     8901     8514 
    8330     8372     8275     8095     8159     8364     8383     8271 
    8127     7785     7319     7048     7129     7499     7901     8131 
    8262     8394     8467     8461     8330     7978     7678     7663 
    7699     7801     8073     8116     7909     7912     8001     7848 
    7696     7770     7881     7994     8324     8631     8387     7709 
    7161     6859     6785     7129     7653     7904     8006     8162 
    8171     7938     7646     7447     7371     7555     8041     8382 
    8310     8156     8083     7916     7744     7789     7985     8209 
    8482     8688     8590     8209     7747     7337     7114     7128 
    7179     7106     7128     7431     7731     7797     7739     7643 
    7631     7790     7970     8141     8440     8714     8789     8861 
    8912     8625     8118     7819     7778     7786     7846     8082 
    8414     8603     8488     8237     8017     7608     7063     6801 
    6740     6667     6774     7095     7426     7707     7847     7835 
    7948     8244     8424     8424     8433     8502     8478     8247 
    8051     8100     8133     8090     8271     8502     8303     7771 
    7371     7161     6957     6914     7218     7584     7727     7828 
