Origin Time       2025/03/28 03:50:00
Lat.              35.403
Long.             140.360
Depth. (km)       54
Mag.              4.4
Station Code      CHB002
Station Lat.      35.7871
Station Long.     139.9024
Station Height(m) 12
Record Time       2025/03/28 03:51:01
Sampling Freq(Hz) 100Hz
Duration Time(s)  60
Dir.              E-W
Scale Factor      7845(gal)/8223790
Max. Acc. (gal)   4.697
Last Correction   2025/03/28 03:51:00
Memo.             
[...]
   -9582    -9598    -9594    -9555    -9518    -9535    -9594    -9622 
   -9601    -9586    -9586    -9576    -9579    -9593    -9583    -9564 
   -9567    -9586    -9583    -9558    -9543    -9564    -9609    -9632 
   -9605    -9578    -9589    -9585    -9548    -9543    -9575    -9585 
   -9572    -9586    -9621    -9625    -9585    -9533    -9508    -9528 
   -9559    -9572    -9609    -9653    -9636    -9568    -9512    -9520 
   -9582    -9621    -9607    -9578    -9551    -9551    -9579    -9586 
   -9563    -9555    -9559    -9571    -9597    -9610    -9597    -9580 
   -9563    -9553    -9586    -9624    -9609    -9559    -9532    -9555 
   -9613    -9645    -9612    -9553    -9524    -9535    -9570    -9620 
   -9634    -9555    -9489    -9548    -9612    -9583    -9570    -9590 
   -9570    -9558    -9598    -9622    -9599    -9578    -9567    -9560 
   -9568    -9567    -9558    -9590    -9625    -9601    -9580    -9601 
   -9607    -9568    -9518    -9532    -9589    -9591    -9555    -9551 
   -9572    -9598    -9599    -9566    -9567    -9602    -9595    -9556 
   -9558    -9602    -9618    -9571    -9547    -9589    -9613    -9589 
   -9563    -9545    -9541    -9566    -9590    -9587    -9564    -9570 
   -9617    -9636    -9586    -9540    -9555    -9580    -9567    -9560 
   -9579    -9567    -9532    -9533    -9580    -9625    -9632    -9605 
   -9558    -9548    -9591    -9598    -9556    -9562    -9590    -9574 
   -9560    -9586    -9587    -9548    -9558    -9613    -9616    -9551 
   -9502    -9547    -9633    -9641    -9586    -9556    -9539    -9529 
   -9563    -9595    -9589    -9597    -9626    -9605    -9529    -9504 
   -9570    -9613    -9580    -9579    -9645    -9663    -9576    -9486 
   -9498    -9594    -9628    -9553    -9525    -9579    -9599    -9590 
   -9605    -9586    -9535    -9543    -9589    -9599    -9582    -9536 
   -9495    -9548    -9629    -9612    -9572    -9591    -9580    -9533 
   -9544    -9593    -9593    -9552    -9539    -9572    -9649    -9707 
   -9618    -9452    -9454    -9606    -9670    -9616    -9574    -9570 
   -9563    -9539    -9516    -9553    -9656    -9672    -9560    -9494 
   -9529    -9571    -9575    -9566    -9586    -9630    -9610    -9549 
   -9563    -9595    -9549    -9504    -9539    -9609    -9647    -9614 
   -9555    -9547    -9590    -9625    -9612    -9586    -9591    -9580 
   -9551    -9576    -9609    -9580    -9539    -9529    -9571    -9639 
   -9625    -9533    -9514    -9586    -9610    -9580    -9589    -9601 
   -9548    -9508    -9553    -9629    -9628    -9555    -9529    -9580 
   -9613    -9606    -9599    -9590    -9562    -9541    -9566    -9618 
   -9641    -9593    -9505    -9502    -9607    -9656    -9598    -9556 
   -9560    -9562    -9585    -9634    -9643    -9585    -9525    -9517 
   -9564    -9620    -9628    -9567    -9512    -9555    -9609    -9575 
   -9552    -9580    -9585    -9566    -9563    -9590    -9636    -9633 
   -9564    -9513    -9553    -9633    -9652    -9609    -9564    -9535 
   -9521    -9547    -9594    -9601    -9563    -9547    -9602    -9664 
   -9618    -9505    -9491    -9574    -9621    -9637    -9664    -9634 
   -9564    -9572    -9610    -9583    -9551    -9533    -9516    -9544 
   -9607    -9639    -9607    -9555    -9536    -9545    -9567    -9591 
   -9595    -9591    -9602    -9595    -9575    -9591    -9622    -9595 
   -9536    -9529    -9576    -9603    -9598    -9602    -9606    -9583 
   -9541    -9514    -9535    -9558    -9556    -9576    -9614    -9626 
   -9602    -9566    -9578    -9599    -9568    -9549    -9574    -9606 
   -9626    -9595    -9537    -9545    -9585    -9579    -9570    -9572 
   -9556    -9545    -9555    -9572    -9605    -9621    -9587    -9536 
   -9522    -9562    -9624    -9622    -9533    -9495    -9582    -9664 
   -9655    -9583    -9504    -9494    -9571    -9603    -9552    -9551 
   -9607    -9602    -9582    -9601    -9591    -9562    -9551    -9562 
   -9594    -9602    -9570    -9549    -9564    -9572    -9560    -9572 
   -9605    -9587    -9522    -9522    -9593    -9602    -9564    -9589 
   -9640    -9644    -9598    -9547    -9564    -9610    -9579    -9517 
   -9548    -9624    -9601    -9509    -9517    -9614    -9634    -9575 
   -9537    -9531    -9556    -9606    -9645    -9632    -9560    -9510 
   -9551    -9622    -9609    -9541    -9539    -9591    -9613    -9587 
   -9567    -9576    -9576    -9563    -9556    -9541    -9575    -9695 
   -9748    -9664    -9578    -9537    -9502    -9486    -9555    -9686 
   -9686    -9478    -9242    -9082    -9109    -9535   -10193   -10500 
  -10156    -9532    -9194    -9351    -9706    -9663    -9090    -8706 
   -9146   -10044   -10528   -10158    -9215    -8584    -8911    -9823 
  -10512   -10384    -9421    -8706    -9335   -10538   -10609    -9416 
   -8390    -8625    -9724   -10365    -9968    -9223    -8999    -9477 
  -10169   -10403    -9868    -8910    -8372    -8959   -10226   -10701 
   -9784    -8785    -9157   -10389   -10760    -9720    -8398    -8127 
   -9046   -10119   -10466   -10150    -9663    -9323    -9184    -9348 
   -9752    -9728    -9219    -9277    -9987   -10273    -9931    -9408 
   -8880    -8811    -9641   -10674   -10638    -9548    -8716    -8780 
   -9262    -9605    -9687    -9686    -9721    -9969   -10428   -10426 
   -9695    -9039    -8989    -9306    -9549    -9265    -8662    -8668 
   -9414   -10058   -10307   -10482   -10427    -9836    -9081    -8742 
   -8989    -9549    -9999   -10123    -9861    -9377    -9057    -9045 
   -9240    -9501    -9540    -9460    -9836   -10523   -10636    -9902 
   -8974    -8711    -9409   -10307   -10318    -9390    -8557    -8683 
   -9630   -10440   -10238    -9409    -9134    -9497    -9548    -9227 
   -9410    -9940    -9895    -9450    -9356    -9688    -9918    -9574 
   -9078    -9279    -9938   -10002    -9463    -9336    -9818   -10185 
   -9922    -9234    -8912    -9273    -9857   -10288   -10247    -9582 
   -8743    -8338    -8583    -9265   -10052   -10484   -10084    -9371 
   -9479   -10301   -10646    -9940    -8739    -8055    -8515    -9701 
  -10330    -9821    -9161    -9424   -10239   -10570   -10201    -9637 
   -9254    -9140    -9189    -9142    -8953    -8988    -9563   -10539 
  -11389   -11318    -9963    -8284    -7782    -8765    -9985   -10038 
   -9177    -8974    -9805   -10384   -10041    -9362    -8920    -8912 
   -9332    -9834    -9906    -9436    -8947    -9066    -9778   -10412 
  -10444    -9949    -9358    -9112    -9189    -9255    -9288    -9286 
   -9104    -9085    -9612   -10305   -10747   -10793   -10211    -9466 
   -9450    -9861    -9841    -9537    -9382    -9082    -8645    -8671 
   -9108    -9572   -10099   -10523   -10484   -10173    -9919    -9589 
   -9278    -9394    -9659    -9470    -9040    -9090    -9610    -9798 
   -9254    -8625    -8667    -9173    -9566    -9753    -9934   -10215 
  -10400   -10241    -9971    -9880    -9687    -9185    -8743    -8514 
   -8411    -8752    -9621   -10366   -10488   -10318   -10347   -10454 
  -10280    -9832    -9235    -8667    -8642    -9261    -9782    -9818 
   -9790    -9940    -9954    -9614    -9155    -9057    -9485    -9931 
   -9872    -9433    -9047    -9032    -9366    -9626    -9510    -9263 
   -9254    -9350    -9375    -9752   -10403   -10365    -9625    -9351 
   -9865   -10087    -9468    -8903    -8942    -9011    -8989    -9378 
  -10062   -10458   -10277    -9720    -9252    -9229    -9836   -10692 
  -10755    -9744    -8730    -8569    -9105    -9787    -9973    -9327 
   -8459    -8425    -9389   -10469   -10870   -10440    -9710    -9444 
   -9612    -9578    -9165    -8788    -8992    -9756   -10227    -9809 
   -9038    -8723    -8968    -9346    -9432    -9327    -9652   -10561 
  -11334   -11317   -10594    -9670    -9047    -8916    -8895    -8640 
   -8475    -8783    -9481   -10134   -10305   -10100    -9960    -9890 
   -9649    -9394    -9360    -9370    -9323    -9394    -9387    -9163 
   -9162    -9436    -9547    -9599    -9840    -9940    -9740    -9579 
   -9477    -9273    -9175    -9328    -9695   -10235   -10635   -10588 
  -10233    -9749    -9258    -8972    -8816    -8673    -8696    -8961 
   -9471   -10018   -10092    -9687    -9444    -9852   -10643   -11022 
  -10602    -9778    -9063    -8656    -8730    -9327    -9891    -9937 
   -9763    -9632    -9225    -8741    -8861    -9298    -9428    -9441 
   -9553    -9782   -10135   -10246    -9946    -9620    -9443    -9335 
   -9323    -9466    -9730    -9900    -9710    -9293    -9142    -9348 
   -9587    -9757    -9794    -9463    -8922    -8785    -9386   -10189 
  -10334    -9886    -9919   -10651   -10785    -9884    -9128    -9015 
   -9009    -8860    -8529    -8314    -8847    -9809   -10193    -9980 
   -9948   -10246   -10339   -10007    -9578    -9427    -9381    -9123 
   -9027    -9481    -9961    -9798    -9231    -8845    -8727    -9055 
  -10008   -10886   -10863   -10093    -9229    -8711    -8897    -9678 
  -10230   -10091    -9699    -9533    -9367    -8849    -8433    -8746 
   -9543   -10166   -10409   -10432   -10222    -9694    -9289    -9525 
   -9875    -9477    -8900    -9271   -10228   -10606   -10062    -9051 
   -8382    -8607    -9364    -9861    -9933    -9988   -10098   -10210 
  -10467   -10488    -9747    -8714    -8376    -8876    -9478    -9602 
   -9394    -9405    -9643    -9612    -9329    -9058    -8746    -8656 
   -9158    -9813   -10195   -10546   -10739   -10442    -9933    -9499 
   -9121    -9036    -9462    -9869    -9691    -9325    -9431    -9909 
   -9988    -9298    -8725    -9111    -9846   -10073    -9976   -10041 
  -10197   -10111    -9738    -9263    -8741    -8375    -8441    -8712 
   -9112   -10008   -11048   -11187   -10270    -9374    -9242    -9444 
   -9458    -9339    -9147    -8943    -9128    -9721   -10116   -10103 
   -9929    -9613    -9405    -9717   -10080    -9913    -9408    -8919 
   -8888    -9539   -10145    -9950    -9458    -9443    -9533    -9273 
   -9008    -8853    -8843    -9410   -10390   -10882   -10520    -9848 
   -9298    -8986    -9096    -9459    -9648    -9602    -9603    -9883 
  -10287   -10411   -10007    -9174    -8529    -8565    -8814    -8931 
   -9417   -10268   -10705   -10284    -9439    -9113    -9591   -10002 
   -9624    -8878    -8561    -9024   -10033   -10886   -10914   -10111 
   -9204    -8911    -9194    -9369    -9082    -8707    -8676    -9275 
  -10255   -10535    -9852    -9343    -9475    -9699    -9846    -9802 
   -9382    -9157    -9478    -9822    -9973   -10075   -10030    -9861 
   -9657    -9290    -9009    -9382   -10110   -10187    -9525    -9084 
   -9254    -9576    -9674    -9455    -9193    -9339    -9801   -10061 
   -9832    -9274    -8897    -8996    -9416    -9909   -10093    -9752 
   -9344    -9404    -9806   -10058    -9906    -9535    -9270    -9186 
   -9243    -9400    -9493    -9486    -9544    -9663    -9721    -9861 
  -10108   -10030    -9373    -8706    -8835    -9528    -9836    -9566 
   -9242    -9174    -9406    -9896   -10246   -10169   -10192   -10531 
  -10530   -10058    -9618    -9347    -9016    -8621    -8550    -8893 
   -9279    -9541    -9732    -9898   -10007    -9779    -9101    -8526 
   -8667    -9329    -9745    -9616    -9518   -10019   -10787   -10928 
  -10180    -9494    -9594    -9846    -9582    -9005    -8598    -8723 
   -9385   -10143   -10575   -10527    -9956    -9281    -9128    -9358 
   -9518    -9468    -9182    -9082    -9548   -10054    -9999    -9548 
   -9196    -9169    -9383    -9675    -9937   -10008    -9849    -9720 
   -9720    -9720    -9784    -9888    -9717    -9228    -8741    -8561 
   -8788    -9274    -9660    -9636    -9464    -9455    -9450    -9640 
  -10231   -10721   -10737   -10346    -9703    -9182    -9205    -9490 
   -9246    -8660    -8760    -9526   -10006    -9967    -9722    -9394 
   -9343    -9861   -10384   -10216    -9509    -8935    -8884    -9223 
   -9559    -9466    -8931    -8692    -9320   -10336   -10839   -10596 
  -10152    -9995   -10079    -9919    -9163    -8283    -8079    -8618 
   -9356    -9911   -10285   -10505   -10426    -9950    -9297    -8982 
   -9254    -9572    -9297    -8862    -9161    -9957   -10450   -10482 
  -10173    -9602    -8997    -8685    -8799    -9099    -9428    -9846 
  -10247   -10496   -10512   -10160    -9459    -8733    -8326    -8337 
   -8672    -9181    -9715   -10166   -10343   -10052    -9556    -9514 
  -10038   -10486   -10457   -10102    -9589    -9177    -9194    -9412 
   -9367    -9229    -9348    -9528    -9580    -9715    -9929   -10031 
   -9998    -9806    -9462    -9020    -8492    -8145    -8364    -8916 
   -9343    -9780   -10264   -10422   -10473   -10867   -11060   -10370 
   -9382    -9036    -9154    -9055    -8820    -8997    -9668   -10323 
  -10466   -10160    -9818    -9711    -9710    -9525    -9329    -9489 
   -9778    -9792    -9559    -9290    -9184    -9285    -9235    -8841 
   -8564    -8646    -9013    -9944   -11138   -11583   -11090   -10319 
   -9698    -9321    -9117    -8970    -9124    -9917   -10999   -11456 
  -10786    -9720    -9359    -9562    -9531    -9412    -9721   -10075 
   -9767    -8810    -7628    -6679    -6569    -7479    -8688    -9431 
   -9481    -8972    -8557    -9111   -10403   -11260   -11392   -11161 
  -10176    -8451    -7091    -6497    -6397    -7103    -8761   -10929 
  -13099   -14490   -14501   -13543   -12278   -10659    -8622    -6851 
   -6061    -6289    -7229    -8482    -9701   -10750   -11458   -11522 
  -10814    -9742    -8896    -8442    -8340    -8621    -9293   -10014 
  -10189    -9805    -9382    -9216    -9197    -8962    -8392    -8000 
   -8307    -9162   -10012   -10601   -11079   -11466   -11506   -11079 
  -10237    -9063    -8032    -7659    -7618    -7477    -7603    -8206 
   -9130   -10536   -12117   -12804   -12294   -11383   -10729   -10363 
  -10093    -9852    -9549    -8984    -8243    -7672    -7427    -7628 
   -8437    -9583   -10482   -10883   -10926   -10824   -10712   -10550 
  -10180    -9560    -8808    -8052    -7500    -7476    -8195    -9626 
  -11334   -12528   -12696   -11985   -10908    -9898    -8947    -7885 
   -6937    -6415    -6471    -7376    -9062   -10677   -11495   -11762 
  -11858   -11562   -10719    -9711    -9043    -8911    -9169    -9524 
   -9788    -9863    -9721    -9439    -9059    -8753    -8827    -9147 
   -9288    -9374    -9802   -10519   -11236   -11668   -11469   -10535 
   -9351    -8411    -7728    -7385    -7407    -7511    -7815    -8576 
   -9393    -9671    -9478    -9373    -9643   -10111   -10450   -10531 
  -10534   -10660   -10845   -10683   -10004    -9312    -8973    -8868 
   -8908    -9026    -9073    -9155    -9450    -9690    -9471    -8865 
   -8388    -8532    -9223   -10029   -10701   -11063   -11045   -10800 
  -10363    -9817    -9383    -9046    -8847    -9132    -9737    -9957 
   -9657    -9394    -9433    -9440    -9120    -8699    -8559    -8692 
   -8773    -8784    -9059    -9618   -10153   -10359   -10180   -10003 
  -10135   -10168    -9736    -9364    -9782   -10914   -11990   -12367 
  -11969   -11024    -9775    -8615    -8074    -8243    -8703    -9235 
   -9906   -10633   -11091   -10820    -9714    -8403    -7690    -7696 
   -7962    -8195    -8513    -9169   -10189   -11256   -11877   -11627 
  -10530    -9228    -8334    -7878    -7704    -7798    -8162    -8783 
   -9614   -10285   -10296    -9909    -9817    -9953    -9849    -9396 
   -8725    -8228    -8459    -9576   -10968   -11774   -11751   -10979 
   -9667    -8498    -8017    -8226    -9061   -10293   -11195   -11182 
  -10405    -9366    -8487    -7983    -7746    -7719    -8203    -9416 
  -10939   -11967   -12231   -11988   -11406   -10670    -9933    -9224 
   -8807    -8851    -9051    -9007    -8552    -7844    -7310    -7319 
   -7846    -8661    -9672   -10669   -11269   -11372   -11179   -10849 
  -10319    -9625    -9140    -9034    -9143    -9437    -9887   -10173 
   -9950    -9304    -8621    -8208    -8222    -8559    -8792    -8738 
   -8716    -8893    -9113    -9344    -9751   -10493   -11396   -11932 
  -11815   -11257   -10573    -9871    -9328    -9134    -8989    -8702 
   -8777    -9406    -9949   -10000    -9979   -10246   -10413   -10158 
   -9679    -9063    -8430    -8098    -8004    -7857    -7754    -7974 
   -8494    -9073    -9593   -10006   -10235   -10422   -10605   -10481 
  -10153    -9954    -9761    -9617    -9923   -10497   -10762   -10701 
  -10567   -10359   -10160    -9994    -9525    -8635    -7866    -7824 
   -8355    -8874    -9221    -9522    -9710    -9601    -9344    -9378 
   -9720   -10012   -10145   -10197   -10227   -10189    -9938    -9603 
   -9497    -9477    -9327    -9333    -9657   -10004   -10118    -9821 
   -9104    -8511    -8550    -8982    -9362    -9536    -9568    -9617 
   -9609    -9373    -9022    -8765    -8770    -9157    -9795   -10419 
  -10909   -11205   -11223   -11125   -11173   -11319   -11242   -10773 
  -10130    -9587    -9093    -8472    -7839    -7512    -7562    -7811 
   -8163    -8556    -8812    -8887    -8927    -8957    -8934    -8927 
   -9019    -9304    -9772   -10254   -10597   -10750   -10813   -10902 
  -10974   -10908   -10659   -10353   -10095    -9904    -9871    -9913 
   -9632    -8982    -8586    -8793    -9202    -9439    -9591    -9803 
  -10000    -9938    -9487    -8829    -8343    -8220    -8286    -8426 
   -8760    -9315    -9977   -10501   -10589   -10331   -10083    -9948 
   -9813    -9633    -9508    -9562    -9687    -9626    -9486    -9459 
   -9366    -9355    -9931   -10852   -11348   -11241   -10862   -10426 
  -10118    -9933    -9475    -8729    -8262    -8321    -8569    -8623 
   -8519    -8556    -8787    -8972    -8968    -8964    -9085    -9213 
   -9355    -9504    -9543    -9566    -9724    -9941   -10052   -10114 
  -10370   -10849   -11319   -11529   -11408   -11029   -10363    -9513 
   -8814    -8433    -8272    -8239    -8398    -8776    -9165    -9294 
   -9219    -9271    -9474    -9516    -9366    -9304    -9548   -10027 
  -10324   -10173    -9778    -9462    -9328    -9242    -9097    -8965 
   -8980    -9223    -9659   -10187   -10620   -10659   -10261    -9776 
   -9467    -9223    -8935    -8808    -8991    -9378    -9852   -10295 
  -10492   -10332    -9942    -9502    -9092    -8758    -8586    -8584 
   -8772    -9211    -9656    -9756    -9605    -9472    -9385    -9312 
   -9364    -9636   -10056   -10521   -10902   -10924   -10494    -9842 
   -9166    -8579    -8266    -8289    -8429    -8527    -8703    -9128 
   -9771   -10353   -10648   -10720   -10706   -10581   -10299    -9942 
   -9595    -9329    -9225    -9327    -9563    -9737    -9755    -9624 
   -9344    -9078    -9013    -9093    -9232    -9455    -9691    -9830 
   -9856    -9741    -9482    -9124    -8780    -8660    -8870    -9348 
   -9930   -10480   -10930   -11121   -10947   -10579   -10169    -9690 
   -9154    -8695    -8353    -8170    -8367    -8985    -9798   -10590 
  -11098   -11109   -10813   -10561   -10355   -10056    -9748    -9568 
   -9580    -9759    -9918    -9857    -9501    -8965    -8552    -8433 
   -8467    -8460    -8459    -8700    -9238    -9701    -9725    -9394 
