Origin Time       2025/03/28 03:50:00
Lat.              35.403
Long.             140.360
Depth. (km)       54
Mag.              4.4
Station Code      CHB014
Station Lat.      35.4710
Station Long.     140.0454
Station Height(m) 8
Record Time       2025/03/28 03:50:57
Sampling Freq(Hz) 100Hz
Duration Time(s)  60
Dir.              U-D
Scale Factor      7845(gal)/8223790
Max. Acc. (gal)   7.023
Last Correction   2025/03/28 03:50:57
Memo.             
[...]
   18457    18457    18454    18458    18462    18455    18446    18442 
   18445    18449    18454    18458    18451    18445    18445    18438 
   18435    18443    18449    18451    18450    18442    18446    18459 
   18463    18461    18461    18465    18465    18457    18450    18451 
   18449    18431    18424    18441    18455    18458    18453    18451 
   18461    18457    18438    18434    18439    18435    18438    18450 
   18459    18458    18447    18446    18461    18463    18454    18461 
   18466    18455    18450    18454    18454    18445    18441    18445 
   18446    18436    18428    18436    18443    18435    18442    18463 
   18465    18457    18458    18459    18462    18463    18446    18442 
   18461    18459    18449    18455    18459    18446    18431    18434 
   18436    18428    18424    18436    18449    18449    18446    18451 
   18457    18455    18458    18468    18469    18450    18441    18447 
   18449    18439    18436    18446    18451    18447    18447    18454 
   18463    18461    18446    18449    18458    18453    18443    18443 
   18446    18430    18409    18416    18428    18428    18438    18455 
   18461    18458    18465    18472    18469    18469    18470    18463 
   18457    18449    18427    18420    18436    18436    18426    18432 
   18439    18439    18441    18446    18459    18470    18466    18459 
   18461    18459    18457    18459    18457    18451    18445    18434 
   18435    18450    18455    18457    18472    18478    18465    18454 
   18454    18458    18458    18454    18454    18453    18436    18424 
   18426    18430    18431    18435    18451    18468    18473    18478 
   18489    18503    18501    18489    18488    18485    18465    18450 
   18445    18431    18408    18403    18412    18419    18419    18423 
   18445    18465    18468    18469    18481    18484    18474    18476 
   18481    18470    18453    18443    18447    18450    18435    18432 
   18449    18450    18442    18451    18470    18470    18457    18449 
   18449    18449    18443    18436    18439    18439    18427    18420 
   18435    18451    18451    18461    18476    18476    18465    18459 
   18458    18450    18432    18427    18438    18443    18436    18435 
   18442    18442    18439    18445    18451    18443    18430    18426 
   18432    18445    18445    18443    18455    18457    18442    18442 
   18450    18451    18446    18442    18450    18454    18442    18441 
   18449    18446    18443    18447    18449    18450    18443    18435 
   18436    18435    18430    18426    18428    18432    18432    18438 
   18446    18447    18449    18459    18473    18474    18468    18466 
   18469    18462    18451    18446    18441    18432    18430    18435 
   18442    18446    18441    18424    18419    18431    18459    18509 
   18589    18694    18806    18901    18947    18908    18717    18366 
   17963    17687    17632    17706    17836    18162    18785    19333 
   19302    18927    18841    18902    18715    18624    18804    18739 
   18333    18150    18447    18828    18805    18481    18242    17729 
   16699    16336    16873    16650    15981    16981    19203    20478 
   20332    19620    18936    18256    17389    16968    17666    18554 
   18833    19631    21250    21901    20885    19234    17649    16714 
   17170    18534    19224    18738    18165    17888    17307    17108 
   18139    19152    19048    18617    18605    19095    19580    18584 
   16935    17609    19089    18019    16806    18107    19251    18870 
   19118    19888    19599    19024    18690    17888    17415    17732 
   17655    17111    17020    17691    18393    18111    17871    19176 
   20605    20359    19286    18870    19124    19234    18810    17941 
   17174    17508    18640    18759    17656    17138    17641    17891 
   17660    17926    18936    19619    19202    18636    18665    18609 
   18612    19051    18819    17747    17298    17724    18107    18663 
   19769    20081    19172    18823    18827    17685    16953    17995 
   19016    18963    18439    17690    17290    17747    18261    18389 
   18835    19703    20255    19889    18713    17938    18102    18017 
   17726    18216    18485    18156    18657    19477    19305    18778 
   18346    17648    17309    17798    17982    17378    17436    18276 
   18366    18198    18760    18979    18704    18990    19179    18625 
   18270    18504    18868    19087    18963    18423    17826    17766 
   18072    17892    17278    17189    17963    18836    18921    18436 
   18246    18634    19261    19418    18810    18427    19032    19886 
   20007    19330    18607    18438    18426    17905    17109    17107 
   18277    19229    18727    17790    17973    19063    19878    19796 
   18895    17836    17396    17459    17383    17227    17296    17420 
   17635    18119    18463    18523    18843    19232    19186    19342 
   19815    19476    18617    18426    18585    18964    19943    20059 
   18288    16598    16657    17716    18620    18744    18102    17647 
   17963    18558    19093    19457    19079    18157    17829    18034 
   17995    17833    17737    17807    18111    18188    18415    19437 
   20187    19962    19711    19484    18585    17606    17194    16887 
   16407    16027    16113    16977    18139    19051    20194    21327 
   21080    20071    19971    19803    18619    18112    18513    18342 
   18004    18127    18157    18130    18138    17810    17366    17257 
   17429    17550    17478    17367    17429    18076    19467    20561 
   20355    19766    20002    20291    19831    19476    19430    18801 
   17810    17190    17051    17541    18289    18296    17783    17986 
   18682    18485    17698    17620    17869    17884    18119    18135 
   17620    17726    18539    18898    18963    19410    19774    19614 
   19057    18007    16796    16590    17621    18555    18524    18346 
   18828    19398    19341    18831    18193    17703    17849    18608 
   19323    19646    19484    18624    17563    17347    17793    17914 
   17743    17837    18419    19287    19809    19807    19526    18814 
   18034    18173    18990    19246    18860    18499    17801    16812 
   16818    17574    17849    18160    19063    19614    19508    19411 
   19269    19012    18974    18522    17567    17652    18797    19342 
   18890    17936    16989    16929    17604    17788    17548    17761 
   18334    19002    19587    19201    17890    17566    18839    19936 
   20071    19977    19761    19261    18686    17868    16803    16225 
   16356    16777    17400    17903    18225    19149    20135    19699 
   18540    18266    18755    19198    19226    18778    18164    17736 
   17790    18480    19097    18964    18669    18770    18971    19026 
   18931    18693    18445    18256    17930    17336    16991    17251 
   17382    16996    16900    17537    18422    19176    19753    20063 
   20272    20524    20313    19457    18755    18696    18887    18964 
   18841    18484    18125    18080    18135    17895    17559    17433 
   17285    17139    17294    17439    17506    17807    18027    18204 
   18851    19568    19741    19435    19009    18972    19334    19413 
   19086    18724    18454    18287    18054    17689    17393    17247 
   17463    18000    18292    18451    19036    19622    19539    19259 
   19365    19253    18515    17940    17795    17362    16838    17200 
   18152    18701    18804    18712    18361    18018    18146    18643 
   18927    19020    19375    19395    18465    17664    17888    18318 
   18397    18694    19271    19599    19569    19141    18362    17807 
   17842    18061    17911    17541    17551    18125    18852    19040 
   18493    18034    18315    18743    18724    18578    18508    18470 
   18647    18823    18609    18315    18400    18623    18507    18223 
   18135    18111    18131    18245    18103    17821    17995    18478 
   18513    18189    18396    19010    19253    19268    19273    19049 
   18735    18567    18612    18777    18662    18135    17705    17620 
   17424    17096    17205    17416    17169    17173    17856    18500 
   18963    19738    20586    20885    20806    20683    20131    19311 
   18967    18673    17965    17501    17356    17095    17047    17555 
   18198    18408    18288    18424    18918    19276    19132    18744 
   18727    18877    18488    17837    17340    16848    16779    17423 
   18060    18223    18253    18388    18443    18416    18543    18840 
   19191    19338    19090    18833    18985    19242    19116    18727 
   18515    18489    18315    17892    17539    17531    17653    17713 
   17836    17895    17925    18376    19051    19372    19477    19634 
   19580    19321    19296    19371    19118    18850    18831    18777 
   18662    18457    17830    16954    16351    16222    16449    16816 
   17288    17820    18085    18161    18628    19495    20062    20015 
   19839    19939    19971    19587    18971    18346    17856    17725 
   17771    17599    17309    17219    17340    17562    17882    18407 
   19099    19672    19980    20032    19749    19300    18959    18563 
   17973    17545    17644    18036    18117    17855    17757    17936 
   18179    18497    18827    18883    18682    18480    18231    17944 
   17990    18395    18732    18864    18993    19152    19217    19197 
   19082    18850    18688    18554    18139    17645    17527    17682 
   17651    17371    17240    17375    17513    17717    18219    18877 
   19422    19823    20036    19843    19359    19048    18931    18711 
   18484    18408    18330    18199    18165    18133    17892    17581 
   17369    17275    17620    18544    19315    19291    19060    19360 
   19796    19908    19907    19708    19160    18712    18404    17790 
   17224    17220    17284    16985    16738    16883    17220    17406 
   17501    17790    18193    18566    18835    18867    18983    19506 
   19961    19939    19715    19495    19249    19105    18960    18447 
   17874    17907    18292    18430    18455    18516    18395    18260 
   18416    18596    18455    18237    18166    18073    18040    18204 
   18291    18351    18740    19182    19190    18841    18449    18030 
   17479    16935    16619    16541    16675    17057    17632    18215 
   18630    19037    19687    20227    20420    20794    21330    21350 
   20941    20644    20328    19435    17948    16552    15768    15489 
   15385    15361    15642    16243    16889    17578    18258    18738 
   19317    20214    20952    21297    21513    21421    20734    19924 
   19462    18960    18003    16937    16163    15581    15168    15175 
   15518    15934    16482    17265    18157    19044    19867    20583 
   21192    21644    21753    21390    20804    20418    20264    20029 
   19662    19292    18719    17815    16862    15962    15082    14436 
   14153    14152    14435    15012    15795    16787    18056    19511 
   20961    22173    22809    22805    22585    22466    22281    21726 
   20698    19295    17685    15963    14378    13495    13609    14229 
   14827    15583    16798    18198    19354    20281    21096    21687 
   21972    22007    21779    21207    20333    19283    18192    17356 
   16973    16911    17099    17336    17149    16559    15889    15075 
   14364    14361    15120    16395    18108    20052    21905    23444 
   24537    24989    24567    23431    22022    20491    19060    18056 
   17271    16557    16114    15693    15005    14308    13830    13671 
   14098    15229    16779    18287    19548    20426    20568    20214 
   20089    20073    19778    19460    19264    18991    18694    18549 
   18461    18365    18373    18470    18577    18604    18463    18391 
   18636    18971    19026    18844    18729    18697    18539    18414 
   18565    18770    18914    19213    19503    19514    19364    19087 
   18538    17878    17359    16927    16565    16465    16584    16745 
   16900    16973    16962    17080    17397    17817    18388    19028 
   19435    19728    20136    20372    20328    20295    20304    20229 
   20056    19774    19552    19515    19311    18692    17946    17220 
   16379    15666    15311    15113    15165    15816    16825    17810 
   18859    20000    21038    21964    22646    22698    22088    21058 
   19778    18443    17043    15489    14138    13397    13321    13830 
   14850    16368    18316    20351    22027    23116    23684    23776 
   23194    21913    20232    18480    16875    15506    14490    14115 
   14488    15423    16785    18488    20214    21501    22081    21972 
   21315    20282    19003    17512    15985    14856    14501    14987 
   16012    17118    18258    19595    20808    21483    21564    21077 
   20124    19002    18014    17302    16864    16700    16752    16902 
   17203    17641    18030    18369    18743    19118    19441    19631 
   19712    19942    20379    20636    20482    20102    19457    18328 
   17030    16048    15407    15048    15149    15723    16464    17163 
   17883    18621    19256    19704    19896    19849    19818    20024 
   20360    20621    20825    21105    21292    21087    20561    19838 
   18769    17339    15799    14389    13297    12727    12860    13655 
   14926    16564    18511    20557    22374    23754    24606    24883 
   24594    23604    21848    19657    17323    14994    13004    11661 
   11087    11302    12212    13732    15747    18010    20250    22181 
   23484    24009    23967    23637    22968    21872    20617    19484 
   18431    17412    16687    16417    16317    16174    16135    16286 
   16573    16929    17323    17779    18175    18420    18729    19236 
   19705    19873    19705    19352    18940    18520    18250    18225 
   18181    18021    18110    18517    18851    18924    18847    18689 
   18470    18227    17973    17798    17803    17845    17825    18042 
   18679    19431    20051    20564    20835    20646    20055    19275 
   18446    17598    16750    15989    15410    15137    15264    15638 
   16108    16752    17585    18497    19403    20212    20904    21467 
   21687    21427    20960    20638    20380    19832    18967    18076 
   17319    16726    16306    16062    16015    16108    16294    16611 
   16951    17298    17875    18650    19404    20175    20987    21629 
   21979    22104    22098    21894    21255    20142    18810    17432 
   16059    14866    14087    13745    13655    13851    14542    15576 
   16621    17633    18671    19624    20399    21076    21658    21884 
   21589    20970    20255    19456    18648    18111    17911    17817 
   17783    17892    17956    17871    17875    18007    18115    18303 
   18667    19083    19446    19684    19766    19739    19506    18981 
   18342    17662    16868    16106    15488    15007    14882    15311 
   16164    17269    18578    19974    21186    22033    22466    22457 
   22099    21512    20644    19529    18349    17203    16216    15565 
   15256    15257    15668    16444    17304    18119    18981    19846 
   20559    21008    21151    21046    20715    20086    19245    18451 
   17844    17385    17104    17072    17200    17320    17335    17208 
   16923    16583    16414    16524    16822    17217    17729    18432 
   19346    20349    21230    21790    21987    21965    21797    21366 
   20652    19724    18554    17243    16070    15159    14557    14359 
   14558    15040    15727    16586    17616    18821    20063    21078 
   21745    22130    22189    21844    21280    20657    19916    19091 
   18284    17475    16727    16163    15722    15319    15082    15130 
   15435    15942    16546    17126    17759    18671    19842    20950 
   21784    22342    22577    22428    21940    21154    20081    18805 
   17563    16583    15898    15519    15461    15565    15735    16050 
   16438    16842    17415    18137    18870    19657    20417    20960 
   21335    21577    21533    21174    20580    19769    18852    18019 
   17311    16711    16345    16266    16345    16498    16733    17099 
   17613    18149    18638    19163    19576    19639    19483    19317 
   19080    18723    18389    18187    18015    17829    17805    17959 
   18065    18042    18019    18071    18173    18345    18624    18972 
   19333    19661    19854    19796    19487    19102    18760    18399 
   18046    17833    17717    17671    17829    18181    18573    18955 
   19334    19602    19626    19446    19157    18736    18144    17487 
   16881    16279    15708    15488    15772    16271    16806    17554 
   18573    19549    20254    20768    21114    21128    20810    20340 
   19799    19195    18612    18122    17737    17477    17398    17518 
   17815    18264    18747    19068    19180    19201    19120    18801 
   18319    17905    17617    17413    17280    17167    17097    17154 
   17313    17520    17825    18257    18767    19249    19592    19754 
   19678    19365    18993    18665    18376    18171    18025    17903 
   17892    18002    18166    18412    18782    19170    19431    19554 
   19614    19661    19649    19456    19093    18696    18324    18013 
   17803    17640    17454    17313    17285    17370    17605    17915 
   18148    18361    18608    18738    18738    18731    18724    18678 
   18582    18461    18396    18443    18574    18750    18921    19026 
   19041    19024    19001    18867    18611    18366    18114    17818 
   17647    17641    17686    17830    18107    18369    18566    18767 
   18975    19134    19194    19137    19013    18856    18615    18208 
   17686    17205    16872    16686    16641    16742    16995    17423 
   17992    18620    19261    19858    20322    20655    20912    21035 
   20903    20548    20077    19515    18891    18307    17784    17232 
   16673    16340    16348    16560    16872    17289    17701    17987 
   18193    18351    18427    18499    18669    18866    18944    18881 
   18769    18670    18531    18354    18293    18414    18585    18733 
   18936    19205    19440    19589    19650    19579    19337    18967 
   18576    18223    17878    17577    17400    17324    17329    17435 
   17624    17876    18111    18285    18503    18752    18889    18929 
   18933    18839    18613    18279    17890    17629    17647    17867 
   18152    18438    18715    18987    19246    19457    19570    19579 
   19535    19450    19313    19172    19048    18883    18580    18100 
   17616    17258    16968    16749    16637    16611    16745    17119 
   17679    18323    18975    19603    20140    20437    20425    20189 
   19803    19241    18526    17809    17243    16895    16776    16834 
   17000    17248    17552    17894    18296    18750    19171    19499 
   19754    19959    20089    20124    20085    20005    19873    19627 
   19225    18752    18265    17732    17254    16993    16943    17050 
   17298    17652    18049    18418    18679    18782    18713    18481 
   18104    17678    17320    17089    17041    17163    17381    17699 
   18119    18522    18863    19210    19556    19853    20073    20181 
   20148    19953    19556    18975    18343    17803    17463    17402 
   17550    17755    18033    18472    18989    19438    19809    20124 
