Origin Time       2025/03/28 03:50:00
Lat.              35.403
Long.             140.360
Depth. (km)       54
Mag.              4.4
Station Code      CHB027
Station Lat.      35.1806
Station Long.     140.2655
Station Height(m) 98
Record Time       2025/03/28 03:50:55
Sampling Freq(Hz) 100Hz
Duration Time(s)  60
Dir.              E-W
Scale Factor      7845(gal)/8223790
Max. Acc. (gal)   2.551
Last Correction   2025/03/28 03:50:54
Memo.             
[...]
    -364     -364     -365     -365     -365     -364     -361     -361 
    -364     -363     -361     -364     -367     -367     -363     -360 
    -364     -367     -363     -360     -363     -364     -364     -365 
    -365     -364     -361     -361     -367     -365     -361     -364 
    -365     -365     -365     -364     -365     -364     -361     -361 
    -364     -365     -364     -361     -360     -361     -363     -365 
    -364     -360     -364     -367     -364     -361     -361     -364 
    -364     -359     -363     -369     -365     -361     -361     -360 
    -363     -365     -368     -368     -365     -360     -360     -363 
    -367     -367     -364     -360     -359     -360     -367     -367 
    -363     -367     -367     -363     -364     -365     -365     -367 
    -367     -365     -367     -364     -360     -364     -371     -369 
    -361     -359     -365     -367     -364     -365     -365     -361 
    -361     -365     -363     -359     -360     -365     -367     -363 
    -363     -364     -361     -363     -365     -365     -367     -365 
    -361     -363     -365     -364     -363     -363     -361     -363 
    -364     -363     -364     -364     -367     -365     -360     -360 
    -365     -365     -364     -364     -363     -363     -363     -360 
    -363     -367     -367     -364     -364     -367     -364     -357 
    -359     -365     -368     -364     -361     -365     -367     -364 
    -365     -367     -363     -360     -367     -369     -367     -363 
    -360     -364     -369     -368     -361     -360     -364     -367 
    -367     -363     -360     -359     -364     -368     -364     -360 
    -363     -363     -359     -363     -367     -360     -359     -367 
    -367     -364     -364     -361     -360     -363     -363     -361 
    -363     -364     -363     -361     -365     -367     -360     -360 
    -365     -367     -365     -364     -361     -360     -363     -363 
    -365     -368     -363     -356     -359     -367     -364     -360 
    -363     -365     -364     -363     -363     -361     -363     -364 
    -363     -363     -364     -363     -361     -364     -368     -365 
    -359     -361     -367     -363     -359     -363     -369     -365 
    -357     -360     -365     -365     -361     -361     -361     -364 
    -365     -361     -359     -361     -364     -365     -361     -360 
    -364     -364     -363     -361     -361     -363     -361     -360 
    -361     -364     -364     -363     -363     -364     -365     -367 
    -365     -361     -359     -361     -363     -361     -363     -365 
    -364     -363     -361     -359     -360     -365     -364     -361 
    -361     -363     -361     -361     -365     -363     -361     -364 
    -363     -361     -364     -364     -364     -361     -356     -360 
    -367     -364     -360     -363     -365     -363     -360     -361 
    -363     -360     -364     -365     -363     -364     -361     -359 
    -363     -367     -365     -363     -363     -361     -360     -365 
    -368     -361     -359     -364     -365     -363     -363     -364 
    -363     -365     -367     -367     -365     -361     -360     -363 
    -367     -367     -363     -360     -363     -367     -364     -361 
    -363     -360     -359     -367     -369     -365     -365     -367 
    -365     -361     -364     -365     -361     -359     -364     -364 
    -364     -364     -363     -365     -367     -363     -363     -364 
    -363     -365     -365     -365     -365     -363     -360     -361 
    -365     -367     -365     -365     -367     -364     -363     -363 
    -365     -368     -368     -365     -365     -365     -365     -368 
    -367     -364     -364     -364     -365     -369     -367     -363 
    -364     -364     -364     -365     -368     -369     -363     -360 
    -365     -365     -363     -364     -368     -367     -363     -363 
    -364     -363     -361     -363     -367     -367     -365     -363 
    -364     -367     -364     -361     -363     -365     -364     -365 
    -365     -365     -365     -365     -367     -364     -363     -363 
    -360     -361     -367     -365     -364     -364     -363     -361 
    -361     -364     -365     -363     -363     -365     -363     -363 
    -363     -361     -364     -365     -364     -363     -363     -361 
    -363     -361     -361     -364     -363     -360     -361     -360 
    -359     -363     -365     -364     -361     -360     -364     -364 
    -361     -364     -367     -363     -363     -367     -365     -360 
    -361     -364     -363     -361     -363     -363     -361     -361 
    -363     -363     -363     -364     -365     -363     -361     -361 
    -363     -364     -365     -361     -360     -365     -365     -361 
    -361     -367     -365     -361     -361     -364     -363     -361 
    -359     -361     -365     -364     -359     -363     -367     -361 
    -359     -361     -363     -363     -363     -363     -363     -360 
    -359     -361     -361     -361     -363     -361     -361     -361 
    -360     -361     -361     -360     -363     -363     -361     -363 
    -360     -359     -364     -363     -359     -361     -364     -364 
    -360     -359     -363     -364     -361     -361     -364     -364 
    -364     -361     -359     -360     -363     -363     -364     -365 
    -364     -360     -360     -363     -363     -361     -361     -361 
    -359     -360     -364     -364     -360     -360     -367     -367 
    -363     -361     -363     -363     -364     -363     -361     -364 
    -364     -361     -364     -365     -363     -361     -363     -363 
    -364     -364     -361     -364     -369     -365     -361     -363 
    -364     -363     -364     -367     -368     -364     -360     -361 
    -367     -365     -361     -361     -363     -365     -367     -365 
    -361     -363     -365     -368     -368     -365     -363     -361 
    -363     -363     -364     -364     -363     -364     -364     -361 
    -363     -365     -365     -364     -365     -364     -361     -364 
    -367     -365     -367     -367     -363     -364     -365     -364 
    -364     -365     -367     -365     -365     -368     -367     -363 
    -365     -368     -365     -361     -363     -367     -368     -363 
    -364     -367     -363     -361     -367     -367     -367     -363 
    -360     -364     -368     -365     -365     -363     -361     -365 
    -367     -363     -365     -367     -364     -361     -363     -363 
    -363     -363     -364     -363     -363     -365     -364     -363 
    -365     -364     -363     -367     -367     -363     -360     -365 
    -368     -364     -364     -365     -364     -364     -363     -360 
    -365     -365     -360     -361     -367     -365     -361     -363 
    -365     -363     -361     -365     -364     -359     -360     -361 
    -361     -361     -357     -355     -356     -357     -361     -368 
    -373     -378     -380     -379     -373     -357     -341     -332 
    -333     -359     -395     -402     -396     -405     -407     -399 
    -399     -349     -222     -216     -379     -373     -214     -297 
    -508     -500     -411     -456     -448     -303     -284     -356 
    -279     -271     -391     -201      -58     -492     -729     -511 
    -515     -538     -367     -211     -221     -414     -175      143 
    -378     -711     -380     -490     -660     -284     -298     -688 
    -454      -39     -157     -256     -106     -261     -564     -373 
     -66     -427     -830     -440      -75     -371     -581     -344 
    -211     -375     -398     -307     -476     -587     -297     -145 
    -429     -587     -441     -345     -382     -484     -409     -149 
    -238     -453     -197        0     -332     -683     -571     -157 
    -183     -668     -757     -468     -207     -113     -396     -554 
    -228      -79     -206     -261     -338     -342     -325     -513 
    -514     -270     -276     -348     -352     -521     -514     -298 
    -297     -564     -749     -398     -135     -603     -726      -90 
     182     -128     -271     -244     -492     -607     -357     -390 
    -514     -306     -333     -491     -214     -116     -467     -495 
    -276     -292     -368     -491     -626     -494     -232      -64 
    -189     -471     -324     -179     -611     -781     -409     -265 
    -429     -488     -340     -193     -252     -392     -396     -263 
    -167     -211     -399     -517     -251      -83     -396     -510 
    -457     -669     -619     -299     -290     -475     -438     -178 
     -71     -137     -230     -452     -472     -234     -270     -406 
    -386     -448     -494     -442     -465     -483     -577     -658 
    -263       54     -265     -409     -268     -387     -372     -237 
    -378     -486     -452     -330     -110      -83     -315     -511 
    -405     -330     -549     -561     -529     -660     -417     -129 
    -286     -476     -351     -118     -247     -541     -499     -360 
    -295     -232     -306     -265     -189     -468     -495      -99 
    -128     -522     -672     -529     -279     -129     -272     -575 
    -707     -542     -120      133      -71     -267     -454     -676 
    -565     -546     -635     -567     -604     -291      247      140 
    -253     -548     -707     -411     -226     -581     -687     -388 
    -263     -318     -240     -195     -506     -496      -94     -255 
    -398      -83     -155     -379     -361     -460     -592     -422 
    -186     -315     -577     -625     -503     -359     -419     -415 
    -264     -479     -564     -167      -91     -164      -49     -315 
    -522     -264     -193     -270     -294     -379     -388     -379 
    -459     -769     -985     -507     -110     -282     -365     -400 
    -267       78      -90     -346     -351     -753     -911     -450 
    -337     -476     -417     -334     -305     -406     -356      -40 
      91     -109     -344     -230      -64     -317     -571     -558 
    -498     -352     -278     -634     -970     -657     -351     -518 
    -356       93      124     -113     -459     -711     -494     -174 
    -179     -351     -441     -481     -561     -413      -89      -52 
    -261     -518     -607     -353     -237     -523     -661     -430 
    -382     -603     -475     -156     -148     -221     -193     -263 
    -388     -360     -353     -409     -365     -409     -445     -440 
    -481     -234     -186     -672     -654      -89       22     -202 
    -224     -268     -392     -252     -160     -373     -449     -445 
    -541     -442     -390     -577     -696     -785     -733     -380 
    -265     -527     -553     -318     -279     -365     -310     -159 
      18      186      233      -17     -490     -567     -306     -457 
    -576     -226     -287     -708     -787     -784     -691     -355 
    -317     -546     -433     -128     -237     -477     -244       -2 
    -194     -403     -376     -109       95     -135     -490     -611 
    -492     -382     -434     -399     -302     -280     -383     -606 
    -442      -21     -130     -436     -272      -70     -228     -336 
    -405     -715     -889     -754     -533     -459     -638     -654 
    -506     -556     -390       49        9     -324     -244     -159 
    -349     -241       24        6     -267     -585     -477     -147 
    -217     -360     -311     -341     -336     -337     -419     -345 
    -418     -722     -757     -506     -311     -468     -637     -368 
    -345     -645     -360       20     -163     -306     -278     -247 
    -195     -332     -305     -144     -359     -545     -503     -487 
    -533     -557     -256      -33     -197     -176     -199     -446 
    -448     -477     -565     -556     -826     -934     -468     -162 
    -375     -633     -569     -303       13      305      172     -274 
    -324      -62      -55     -419     -749     -567     -309     -452 
    -440     -199     -369     -662     -534     -341     -410     -449 
    -202      -83     -429     -603     -452     -538     -572     -368 
    -425     -599     -442     -176     -152     -148      -52     -178 
    -392     -344     -236     -244     -207     -310     -584     -734 
    -876     -781     -329     -268     -481     -369     -195     -144 
    -148     -153     -143     -305     -422     -294     -337     -452 
    -341     -410     -724     -854     -587     -166      -76     -170 
    -171     -387     -550     -120      410      411      236      193 
     -58     -382     -395     -395     -606     -774     -702     -396 
    -207     -394     -567     -598     -751     -660     -116      360 
     595      648      395      -12     -198       -8      241      306 
     292       78     -305     -569     -803    -1089    -1363    -1443 
   -1165     -862     -756     -704     -750     -951    -1154    -1221 
   -1304    -1459    -1479    -1431    -1341    -1088     -858     -811 
    -849     -756     -419      148      900     1498     1661     1308 
     471     -256     -615     -849     -611      125      525      297 
    -108     -567     -999     -973     -650     -608     -812    -1053 
   -1381    -1668    -1826    -1709    -1204     -801     -352      688 
    1358     1057      549      -33     -540     -245      461      749 
     784      764      787     1206     1432      896      206     -513 
   -1602    -2612    -3038    -3029    -2758    -2079    -1155     -405 
     186      792     1101      845      534      367       18      -70 
     434      924      961      648      174     -371     -961    -1566 
   -1885    -1526     -831     -326      198      492       62     -379 
    -457     -768    -1142    -1165    -1069     -843     -422     -147 
      -4       70      -74     -288     -668    -1239    -1413    -1021 
    -531     -110      274      207     -357     -621     -415     -124 
     122        5     -295     -345     -338     -187      118      113 
     -49     -252     -598     -746     -733     -712     -503     -351 
    -549     -870     -997     -886     -598     -170       39     -210 
    -531     -753     -854     -522     -201     -503     -889     -877 
    -612     -152      248      332      310      483      812      864 
     479       37     -286     -556     -683     -619     -529     -611 
    -834    -1026    -1139    -1250    -1317    -1188     -877     -442 
      89      477      558      476      272     -167     -708    -1030 
   -1081    -1000     -792     -496     -224       25      114      -37 
    -149     -182     -309     -303       17      324      275      -94 
    -558     -858     -851     -696     -689    -1027    -1431    -1340 
    -768      -24      669      891      537      -18     -496     -781 
    -827     -670     -490     -400     -109      552     1117     1174 
     936      652      240     -198     -464     -711    -1050    -1394 
   -1603    -1467    -1192    -1008     -589     -133     -125     -178 
     -62     -140     -286     -229     -310     -791    -1321    -1593 
   -1653    -1489    -1136     -823     -541     -265      -97      140 
     481      660      639      517      241      -81     -252     -390 
    -534     -607     -645     -410       81      461      699      649 
     301       -5     -423    -1042    -1485    -1764    -1980    -1867 
   -1421     -958     -538      -94      232      334      162     -280 
    -602     -573     -502     -333       91      355      333      251 
      54      -98      -98     -214     -390     -437     -496     -567 
    -479     -344     -279     -133      -76     -333     -588     -704 
    -720     -587     -541     -535     -495     -707     -878     -657 
    -306      -13       18     -225     -243      -13      -33     -279 
    -440     -615     -800     -607     -224     -117      -31      124 
      47      -18       59        6     -183     -441     -630     -604 
    -576     -599     -557     -696     -992    -1026     -818     -669 
    -612     -589     -693     -892     -799     -371      -55       72 
     205      236       39     -261     -363     -290     -257      -22 
     321      245      -12     -117     -218     -194      -43      -59 
    -225     -415     -618     -749     -716     -630     -612     -606 
    -704     -892     -805     -541     -406     -238      -85     -199 
    -398     -468     -476     -426     -294     -209     -162        0 
     148      102       -9      -18      -86     -448     -807     -859 
    -785     -689     -675     -778     -749     -652     -658     -677 
    -675     -622     -450     -260     -253     -276     -126      -64 
     -18      234      240      -55     -241     -406     -517     -442 
    -437     -527     -612     -855    -1151    -1258    -1296    -1372 
   -1304     -935     -390       79      426      589      413      175 
     211      337      356      329      267      124      -41     -136 
    -303     -695    -1027    -1054     -947     -801     -633     -562 
    -496     -361     -229       31      333      372      233       58 
     -86     -118     -140     -162     -238     -491     -661     -683 
    -719     -684     -718    -1003    -1183    -1063     -865     -548 
    -139       28       63      128        6     -186     -301     -449 
    -503     -515     -643     -673     -652     -778     -882     -812 
    -611     -371     -148       43      141      137       82       12 
     -76     -211     -384     -630     -800     -718     -600     -526 
    -390     -352     -479     -618     -649     -565     -530     -492 
    -253       17      221      498      642      527      371      168 
    -144     -388     -540     -681     -747     -758     -808     -851 
    -795     -666     -533     -360     -225     -286     -418     -504 
    -635     -760     -769     -672     -548     -430     -291     -238 
    -252     -199     -241     -419     -530     -569     -580     -534 
    -433     -373     -423     -437     -425     -533     -562     -407 
    -259      -78      106      114       16     -157     -382     -494 
    -546     -537     -382     -209      -83      -48     -186     -311 
    -232      -64       21       55       67       20      -47     -159 
    -329     -472     -573     -603     -538     -469     -394     -305 
    -236     -187     -209     -286     -403     -554     -607     -643 
    -727     -658     -538     -495     -472     -549     -603     -552 
    -610     -645     -503     -386     -403     -464     -406     -256 
    -159      -49      -20     -271     -579     -695     -697     -668 
    -594     -465     -325     -201      -90      -24      -66     -260 
    -580     -810     -818     -785     -789     -697     -550     -378 
    -136       51      139      157       18     -206     -390     -511 
    -508     -415     -324     -228     -206     -275     -325     -345 
    -364     -386     -410     -384     -352     -379     -405     -438 
    -487     -415     -259     -244     -363     -398     -299     -163 
      -2      105       75      -14     -103     -174     -143      -29 
      -5     -157     -355     -491     -618     -714     -733     -735 
    -745     -750     -776     -787     -749     -653     -583     -635 
