Origin Time       2025/03/28 03:50:00
Lat.              35.403
Long.             140.360
Depth. (km)       54
Mag.              4.4
Station Code      CHB013
Station Lat.      35.4294
Station Long.     140.2892
Station Height(m) 10
Record Time       2025/03/28 03:50:54
Sampling Freq(Hz) 100Hz
Duration Time(s)  65
Dir.              U-D
Scale Factor      7845(gal)/8223790
Max. Acc. (gal)   3.719
Last Correction   2025/03/28 03:50:53
Memo.             
[...]
   16229    16224    16222    16225    16225    16228    16229    16222 
   16224    16228    16221    16222    16231    16222    16217    16227 
   16222    16217    16228    16236    16229    16229    16229    16218 
   16218    16231    16231    16224    16228    16231    16228    16224 
   16217    16217    16224    16227    16228    16229    16222    16227 
   16235    16225    16216    16225    16229    16232    16237    16227 
   16212    16212    16218    16228    16235    16231    16222    16227 
   16232    16229    16225    16218    16214    16224    16232    16228 
   16227    16232    16235    16236    16228    16209    16205    16217 
   16225    16235    16240    16228    16220    16227    16225    16220 
   16221    16220    16222    16233    16232    16224    16222    16221 
   16218    16225    16228    16225    16227    16227    16221    16221 
   16221    16217    16221    16228    16235    16241    16237    16220 
   16214    16220    16222    16227    16232    16227    16222    16227 
   16229    16231    16233    16231    16225    16225    16228    16227 
   16221    16216    16222    16240    16240    16221    16214    16220 
   16231    16237    16231    16220    16220    16221    16224    16232 
   16231    16221    16225    16233    16232    16231    16227    16217 
   16218    16225    16225    16228    16233    16225    16220    16227 
   16224    16220    16220    16216    16220    16231    16229    16221 
   16217    16220    16225    16229    16225    16222    16228    16227 
   16220    16222    16228    16222    16220    16227    16232    16232 
   16224    16214    16217    16222    16217    16216    16222    16222 
   16225    16229    16222    16218    16221    16218    16218    16227 
   16225    16214    16217    16229    16232    16222    16217    16221 
   16231    16232    16232    16231    16220    16214    16224    16232 
   16232    16232    16222    16214    16222    16232    16228    16224 
   16227    16225    16227    16228    16224    16225    16231    16228 
   16229    16232    16222    16214    16224    16232    16233    16236 
   16231    16222    16229    16228    16220    16225    16231    16228 
   16227    16227    16228    16237    16239    16228    16231    16236 
   16227    16222    16225    16227    16232    16237    16229    16224 
   16227    16225    16231    16237    16228    16222    16228    16228 
   16227    16231    16225    16216    16220    16229    16236    16239 
   16231    16220    16220    16220    16222    16232    16236    16229 
   16233    16241    16228    16216    16217    16220    16224    16231 
   16231    16232    16236    16229    16221    16221    16218    16222 
   16228    16225    16227    16231    16222    16220    16225    16218 
   16212    16220    16224    16235    16244    16231    16218    16224 
   16224    16220    16231    16240    16227    16221    16227    16221 
   16225    16235    16225    16222    16233    16229    16220    16221 
   16220    16221    16227    16225    16225    16225    16220    16222 
   16235    16233    16225    16227    16228    16229    16229    16221 
   16220    16229    16231    16231    16236    16232    16218    16213 
   16221    16227    16227    16224    16221    16221    16222    16220 
   16225    16231    16224    16220    16229    16225    16220    16224 
   16227    16229    16232    16224    16220    16228    16229    16228 
   16228    16222    16214    16217    16229    16233    16231    16224 
   16216    16214    16218    16225    16239    16239    16225    16222 
   16227    16224    16224    16227    16227    16229    16227    16218 
   16221    16231    16227    16224    16229    16225    16220    16224 
   16232    16239    16237    16221    16210    16214    16217    16220 
   16233    16236    16228    16227    16222    16217    16224    16227 
   16217    16222    16231    16228    16229    16229    16224    16225 
   16222    16213    16220    16233    16235    16236    16235    16224 
   16220    16222    16221    16224    16231    16224    16222    16235 
   16239    16229    16220    16213    16214    16227    16231    16227 
   16227    16225    16221    16225    16232    16229    16225    16225 
   16227    16233    16233    16224    16222    16224    16222    16228 
   16232    16228    16224    16228    16228    16222    16222    16216 
   16220    16239    16237    16220    16217    16216    16214    16225 
   16232    16232    16235    16232    16225    16225    16224    16220 
   16222    16228    16225    16227    16229    16227    16225    16222 
   16218    16220    16218    16209    16216    16240    16252    16247 
   16235    16213    16200    16202    16212    16221    16233    16241 
   16245    16245    16231    16209    16201    16202    16209    16227 
   16237    16239    16247    16241    16222    16217    16213    16205 
   16217    16236    16241    16244    16239    16217    16208    16214 
   16222    16236    16243    16231    16225    16224    16213    16212 
   16225    16233    16240    16244    16225    16205    16202    16210 
   16227    16244    16245    16239    16233    16218    16205    16213 
   16231    16227    16222    16239    16247    16235    16218    16208 
   16210    16220    16225    16228    16233    16236    16235    16227 
   16210    16201    16209    16221    16232    16247    16245    16233 
   16225    16216    16208    16212    16221    16233    16251    16254 
   16235    16218    16208    16195    16202    16224    16232    16231 
   16225    16220    16227    16229    16218    16217    16221    16213 
   16220    16233    16224    16217    16225    16228    16233    16240 
   16227    16216    16217    16213    16209    16213    16209    16210 
   16233    16251    16241    16221    16208    16206    16213    16222 
   16231    16237    16229    16212    16210    16217    16216    16221 
   16232    16231    16232    16233    16224    16216    16217    16220 
   16224    16235    16235    16231    16233    16228    16221    16217 
   16209    16214    16243    16256    16243    16224    16209    16202 
   16210    16224    16233    16239    16232    16217    16218    16224 
   16213    16210    16229    16245    16251    16240    16213    16205 
   16214    16221    16227    16232    16232    16237    16241    16233 
   16227    16227    16227    16224    16228    16244    16287    16367 
   16459    16536    16582    16578    16553    16551    16542    16459 
   16245    15900    15522    15259    15201    15341    15628    15981 
   16245    16343    16457    16760    17037    17038    16884    16675 
   16339    16098    16244    16478    16401    16158    15908    15545 
   15244    15354    15784    16089    16090    16004    15993    16035 
   16177    16514    16984    17300    17209    16876    16641    16363 
   15816    15481    15723    15919    15697    15693    16081    16279 
   16348    16621    16738    16440    16063    15992    16204    16320 
   16325    16507    16627    16482    16293    16117    16109    16436 
   16650    16329    15903    15842    15793    15666    15919    16212 
   16160    16146    16212    16236    16398    16533    16366    16155 
   16185    16239    16163    16235    16521    16632    16328    15996 
   16164    16483    16351    16166    16305    16312    16038    15901 
   16120    16471    16376    15934    16009    16395    16330    16035 
   15928    16154    16309    15888    15645    16114    16492    16349 
   16160    16411    16694    16379    16094    16289    16240    15838 
   15842    16505    17109    17076    16861    16683    16282    15908 
   15789    15955    16314    16357    16133    16147    16291    16237 
   15986    15757    15607    15503    15722    16109    16123    16055 
   16305    16536    16603    16548    16285    16144    16425    16727 
   16590    16086    15579    15379    15579    15896    15947    15957 
   16376    16911    17150    17213    17135    16835    16488    16278 
   16175    16262    16673    16957    16737    16395    16019    15461 
   15242    15452    15361    15206    15819    16599    16634    16490 
   16695    16692    16293    16021    16109    16162    15766    15296 
   15291    15365    15261    15606    16390    16929    17200    17328 
   17220    17080    16960    16690    16443    16237    15889    15874 
   16312    16182    15461    15330    15758    15873    15804    16146 
   16814    17296    17242    16767    16322    16008    15716    15633 
   15738    15865    16089    16478    16995    17012    15932    14808 
   14867    15660    16362    16696    16613    16414    16367    16356 
   16460    16852    17190    17143    17007    16918    16533    15923 
   15435    14956    14728    15468    16521    16482    15842    15901 
   16283    16353    16468    16675    16771    16706    16353    16016 
   15951    16035    16389    16692    16497    16298    16295    16174 
   16285    16675    16561    15805    15283    15576    16194    16398 
   16205    16098    16255    16379    16194    15873    15688    15638 
   15762    16144    16534    16646    16617    16679    16717    16525 
   16116    15768    15859    16348    16646    16306    15795    16009 
   16591    16420    15859    15963    16526    16785    16575    16411 
   16660    16825    16722    16956    17146    16418    15569    15639 
   15854    15502    15323    15776    16128    15772    15361    15626 
   15930    15988    16453    16938    16962    16908    16621    16098 
   15830    15757    15819    16083    16283    16182    16002    16083 
   16166    16201    16703    17292    17361    17211    16941    16308 
   15606    15358    15537    15670    15620    15573    15709    16092 
   16347    16286    16363    16714    16922    16767    16393    15978 
   15704    15786    16106    16258    16129    16067    16251    16332 
   16221    16202    16154    16178    16618    16924    16700    16538 
   16528    16325    16092    15900    15790    15988    16210    16191 
   16267    16592    16799    16623    16291    16120    16052    15871 
   15603    15504    15614    15834    16231    16559    16592    16590 
   16390    15979    16028    16333    16289    16299    16602    16524 
   16044    16105    16633    16590    16055    15754    15761    15863 
   15843    15894    16492    17058    16792    16320    16359    16517 
   16464    16502    16719    16692    16274    16035    16202    16102 
   15597    15488    15816    15755    15364    15399    15819    16208 
   16456    16416    16251    16398    16756    16877    16549    16110 
   16123    16471    16710    16700    16453    16189    16060    15935 
   15898    15854    15479    15261    15722    16332    16590    16599 
   16615    16725    16565    16050    15863    16312    16918    17099 
   16781    16537    16546    16278    15620    15124    15136    15333 
   15487    15936    16514    16733    16845    17039    17111    17004 
   16540    15912    15853    16243    16289    16116    16282    16382 
   15928    15508    15745    16351    16645    16411    16114    16089 
   16059    15950    16023    16136    16093    16105    16220    16260 
   16289    16380    16418    16421    16518    16607    16607    16561 
   16308    15755    15218    15128    15581    16335    17027    17200 
   16776    16256    15938    15777    15827    16137    16555    16804 
   16772    16488    16127    15950    15876    15658    15399    15395 
   15772    16282    16565    16586    16513    16464    16491    16673 
   16954    16873    16241    15759    15913    16124    15924    15824 
   16233    16617    16529    16366    16455    16487    16262    16210 
   16576    16677    16059    15314    15105    15503    16133    16549 
   16641    16378    15816    15566    16024    16571    16673    16650 
   16634    16254    15715    15747    16356    16857    16850    16479 
   16166    16046    15892    15853    16247    16707    16680    16399 
   16351    16306    15931    15614    15789    16209    16541    16900 
   17059    16521    15747    15511    15669    15838    16015    16217 
   16299    16293    16409    16413    16036    15768    16052    16592 
   16877    16672    16214    15934    15804    15695    15839    16124 
   16132    16108    16386    16603    16492    16348    16414    16665 
   16949    17127    17136    16896    16546    16374    16160    15623 
   15082    14855    14937    15137    15157    15229    15709    16100 
   16164    16598    17262    17208    16726    16696    16804    16726 
   16974    17506    17801    17768    17436    16649    15512    14700 
   14697    15021    15086    15057    15365    15996    16398    16264 
   15931    15709    15769    16229    16609    16345    15618    15036 
   15253    16521    18013    18542    17932    16830    15770    15209 
   15573    16649    17599    17826    17392    16660    15920    15510 
   15763    16341    16455    16092    15763    15307    14389    13544 
   13771    15202    16564    16854    16605    16417    16274    16456 
   17186    18045    18387    17845    16811    16349    16823    17095 
   16372    15469    14978    14473    14050    14440    15554    16432 
   16648    16740    17180    17578    17139    16002    15631    16789 
   17983    17548    15817    14095    13406    14112    15460    16602 
   17482    17820    17316    16754    16654    16313    15608    15492 
   16170    16696    16363    15739    15819    16486    16792    16217 
   15152    14762    15994    18312    20036    20124    18851    16788 
   14443    12781    12586    13714    15426    16528    16108    14966 
   14820    16140    17902    18916    18659    17262    15448    14315 
   14407    15156    15790    16262    16730    17097    17173    16617 
   15616    15240    16016    17313    18239    18258    17290    15758 
   14592    14392    14627    14674    15025    16190    17271    17158 
   16428    16198    16194    15886    16009    17236    18812    19373 
   18477    17011    15804    14809    14339    14916    15857    16181 
   15971    15793    15842    15871    15660    15406    15383    15426 
   15171    14831    15161    16295    17416    17946    17963    17402 
   16299    15498    15661    16220    16438    16492    16595    16440 
   16097    16063    16251    16308    16507    17095    17599    17637 
   17273    16533    15569    14800    14370    14257    14698    15718 
   16756    17329    17460    17309    16903    16370    16038    16102 
   16326    16316    16011    15704    15579    15585    15850    16579 
   17336    17491    17215    16838    16177    15390    15086    15284 
   15444    15238    14782    14476    14708    15321    15938    16746 
   17898    18882    19237    18846    17867    16725    15688    14912 
   14724    15263    15977    15838    14648    13659    13926    15141 
   16600    17841    18436    18306    17795    17158    16611    16553 
   17012    17350    17018    16214    15515    15253    15508    16125 
   16672    16807    16615    16403    16140    15576    15057    15113 
   15371    15240    14940    14808    14817    15126    15831    16501 
   16852    17124    17281    16904    16139    15751    16102    16735 
   17074    17208    17500    17713    17412    16726    15993    15410 
   15265    15736    16383    16517    16105    15718    15592    15469 
   15344    15569    16202    16772    16833    16660    16907    17517 
   17749    17352    16835    16475    16011    15493    15337    15460 
   15412    15060    14713    14754    15167    15778    16729    17888 
   18508    18238    17578    16958    16436    15998    15572    15169 
   14913    14808    14837    14949    14964    14867    14909    15410 
   16409    17450    18060    18146    17825    17420    17321    17459 
   17520    17385    16938    16129    15349    15093    15407    16027 
   16711    17112    16735    15570    14347    13725    13822    14530 
   15492    16093    16100    15942    16075    16611    17413    18052 
   18129    17722    17142    16638    16391    16387    16471    16540 
   16478    16185    15807    15531    15349    15232    15125    14959 
   14847    15020    15596    16499    17447    18053    18111    17810 
   17473    17190    16837    16297    15697    15294    15165    15249 
   15488    15799    15989    15799    15282    14956    15134    15601 
   16213    16945    17439    17393    17162    17254    17616    17880 
   17906    17671    17091    16263    15488    14893    14488    14443 
   14729    14939    14949    15001    15190    15554    16125    16703 
   17028    17089    17077    17097    17155    17238    17163    16808 
   16490    16517    16696    16725    16637    16463    16075    15606 
   15299    15121    14991    15040    15380    15881    16281    16424 
   16349    16271    16356    16565    16777    16834    16563    16025 
   15557    15498    15963    16745    17352    17321    16779    16348 
   16297    16375    16384    16271    16001    15695    15495    15368 
   15357    15627    16100    16452    16552    16578    16719    16939 
   17028    16899    16671    16360    15881    15456    15473    15854 
   16206    16360    16356    16299    16268    16168    15905    15560 
   15211    14979    15086    15525    16063    16617    17167    17567 
   17752    17821    17788    17571    17131    16507    15840    15375 
   15267    15421    15607    15718    15796    15985    16340    16649 
   16717    16632    16448    16031    15495    15255    15462    15874 
   16245    16538    16729    16690    16421    16143    15962    15770 
   15511    15267    15213    15527    16181    16879    17373    17651 
   17702    17419    16799    15982    15182    14632    14467    14648 
   15130    15912    16808    17482    17739    17537    17007    16492 
   16243    16216    16270    16357    16503    16690    16854    16968 
   16995    16808    16322    15746    15441    15520    15796    16004 
   15967    15701    15484    15585    15931    16216    16224    15977 
   15689    15546    15576    15727    15885    16008    16256    16731 
   17240    17524    17490    17165    16634    16116    15855    15830 
   15819    15731    15639    15674    15947    16434    16974    17324 
   17286    16915    16490    16205    16085    16128    16240    16171 
   15815    15437    15392    15727    16173    16426    16382    16173 
   16021    16001    16077    16212    16271    16106    15788    15576 
   15592    15765    16075    16533    17065    17544    17795    17685 
   17247    16619    15954    15415    15140    15134    15348    15824 
   16418    16673    16490    16283    16260    16310    16453    16718 
   16892    16741    16255    15600    15012    14759    14970    15518 
   16186    16775    17120    17172    16960    16522    16024    15776 
   15907    16221    16519    16737    16861    16875    16737    16486 
   16249    16017    15724    15498    15481    15603    15751    15950 
   16216    16498    16775    17057    17300    17379    17178    16696 
   16089    15516    15064    14824    14881    15195    15651    16151 
   16565    16752    16684    16509    16395    16393    16453    16488 
   16402    16220    16078    16032    16075    16276    16596    16783 
   16700    16471    16232    16046    15915    15840    15886    16066 
