Origin Time       2025/03/28 03:50:00
Lat.              35.403
Long.             140.360
Depth. (km)       54
Mag.              4.4
Station Code      CHB024
Station Lat.      35.6337
Station Long.     140.0781
Station Height(m) 3
Record Time       2025/03/28 03:50:58
Sampling Freq(Hz) 100Hz
Duration Time(s)  60
Dir.              E-W
Scale Factor      7845(gal)/8223790
Max. Acc. (gal)   6.139
Last Correction   2025/03/28 03:50:58
Memo.             
[...]
    7661     7662     7657     7654     7669     7688     7697     7697 
    7690     7672     7651     7658     7680     7681     7678     7668 
    7642     7634     7647     7658     7658     7650     7651     7665 
    7678     7686     7692     7685     7663     7646     7641     7642 
    7649     7649     7649     7657     7663     7665     7668     7662 
    7647     7634     7628     7630     7634     7654     7668     7661 
    7663     7672     7663     7663     7685     7697     7686     7681 
    7689     7665     7619     7605     7631     7665     7688     7684 
    7654     7626     7628     7657     7676     7668     7642     7619 
    7620     7638     7654     7673     7685     7665     7639     7641 
    7647     7661     7682     7686     7680     7677     7689     7707 
    7701     7673     7651     7651     7670     7686     7684     7666 
    7650     7641     7634     7641     7659     7668     7653     7631 
    7627     7636     7642     7659     7682     7676     7649     7631 
    7628     7642     7663     7681     7688     7677     7659     7641 
    7628     7634     7651     7669     7676     7669     7659     7643 
    7631     7643     7665     7665     7650     7651     7673     7680 
    7665     7661     7666     7673     7682     7673     7654     7650 
    7645     7632     7642     7653     7653     7661     7665     7668 
    7682     7684     7680     7685     7681     7678     7690     7703 
    7700     7684     7655     7632     7635     7642     7639     7645 
    7654     7657     7662     7654     7635     7631     7636     7655 
    7686     7704     7712     7727     7716     7670     7631     7631 
    7655     7663     7658     7668     7665     7630     7605     7612 
    7631     7661     7693     7693     7662     7632     7612     7609 
    7631     7662     7673     7673     7676     7662     7645     7655 
    7684     7703     7690     7654     7627     7630     7649     7662 
    7659     7654     7654     7650     7635     7628     7639     7650 
    7665     7688     7699     7695     7688     7680     7666     7655 
    7657     7663     7669     7666     7665     7672     7674     7670 
    7677     7680     7666     7653     7651     7663     7680     7685 
    7681     7678     7680     7681     7680     7678     7676     7669 
    7663     7661     7647     7639     7650     7658     7657     7661 
    7674     7693     7690     7645     7605     7607     7616     7630 
    7651     7650     7636     7635     7635     7636     7655     7676 
    7692     7701     7686     7661     7651     7655     7658     7662 
    7670     7672     7657     7639     7642     7663     7680     7673 
    7659     7651     7646     7647     7658     7663     7669     7676 
    7680     7669     7641     7634     7663     7685     7674     7658 
    7638     7620     7642     7676     7682     7680     7678     7673 
    7666     7650     7642     7643     7651     7684     7705     7689 
    7663     7642     7639     7674     7711     7713     7701     7685 
    7662     7651     7661     7677     7684     7684     7672     7654 
    7636     7624     7620     7631     7651     7662     7655     7651 
    7650     7645     7659     7692     7696     7661     7630     7622 
    7630     7634     7627     7639     7666     7666     7647     7647 
    7663     7676     7684     7697     7701     7680     7647     7627 
    7626     7650     7680     7690     7659     7612     7600     7627 
    7661     7682     7676     7662     7661     7661     7670     7685 
    7677     7670     7696     7717     7704     7676     7646     7624 
    7642     7696     7726     7695     7650     7639     7647     7655 
    7663     7654     7638     7654     7673     7663     7643     7624 
    7627     7663     7682     7654     7627     7641     7686     7715 
    7696     7646     7604     7604     7643     7681     7696     7684 
    7651     7626     7619     7624     7650     7676     7672     7659 
    7665     7676     7673     7657     7650     7651     7645     7643 
    7642     7639     7650     7666     7677     7676     7649     7619 
    7631     7669     7690     7677     7649     7628     7619     7626 
    7665     7711     7722     7693     7655     7634     7638     7659 
    7668     7668     7678     7680     7669     7663     7661     7676 
    7711     7717     7682     7636     7601     7609     7654     7690 
    7709     7711     7689     7662     7647     7649     7659     7654 
    7645     7642     7645     7645     7636     7634     7641     7630 
    7628     7659     7669     7658     7678     7704     7700     7684 
    7663     7642     7631     7645     7670     7686     7680     7657 
    7631     7608     7593     7601     7626     7655     7684     7685 
    7650     7616     7609     7635     7672     7680     7663     7665 
    7695     7719     7716     7696     7674     7663     7677     7697 
    7699     7674     7636     7616     7636     7670     7685     7669 
    7631     7609     7624     7663     7697     7700     7696     7696 
    7676     7655     7669     7673     7645     7627     7635     7650 
    7670     7676     7665     7663     7654     7616     7599     7622 
    7654     7681     7690     7686     7684     7678     7674     7673 
    7661     7647     7663     7700     7730     7719     7674     7646 
    7638     7647     7673     7674     7643     7618     7618     7645 
    7669     7659     7636     7643     7678     7693     7669     7647 
    7649     7680     7723     7723     7684     7642     7607     7615 
    7676     7703     7672     7653     7658     7665     7665     7646 
    7622     7614     7645     7700     7705     7659     7622     7611 
    7668     7765     7781     7690     7593     7551     7569     7632 
    7689     7709     7704     7676     7635     7620     7641     7668 
    7686     7712     7717     7696     7689     7684     7666     7655 
    7638     7603     7600     7642     7692     7731     7732     7682 
    7630     7608     7642     7728     7792     7780     7707     7614 
    7554     7549     7581     7643     7692     7669     7632     7643 
    7662     7676     7690     7688     7690     7705     7676     7618 
    7623     7686     7697     7662     7668     7678     7658     7649 
    7641     7588     7560     7607     7645     7676     7731     7723 
    7682     7682     7655     7607     7624     7680     7693     7662 
    7635     7630     7650     7703     7749     7734     7699     7707 
    7680     7582     7554     7618     7649     7651     7677     7646 
    7592     7641     7696     7673     7651     7651     7685     7755 
    7765     7707     7647     7618     7628     7630     7595     7601 
    7665     7696     7704     7717     7699     7696     7678     7603 
    7581     7608     7642     7689     7682     7668     7670     7641 
    7678     7739     7681     7601     7557     7553     7626     7655 
    7631     7659     7663     7642     7717     7790     7749     7678 
    7627     7580     7591     7619     7615     7627     7599     7568 
    7672     7754     7693     7643     7618     7578     7608     7641 
    7636     7669     7672     7681     7736     7703     7650     7662 
    7672     7715     7769     7747     7699     7677     7668     7657 
    7641     7630     7612     7592     7620     7642     7596     7611 
    7715     7744     7688     7643     7649     7690     7717     7699 
    7623     7535     7539     7616     7684     7695     7619     7564 
    7643     7762     7805     7780     7720     7681     7722     7786 
    7782     7720     7634     7572     7555     7520     7500     7560 
    7647     7730     7776     7800     7857     7855     7763     7696 
    7657     7659     7707     7663     7576     7585     7595     7627 
    7778     7843     7777     7744     7699     7639     7615     7620 
    7705     7724     7565     7477     7537     7604     7632     7530 
    7376     7381     7439     7438     7427     7360     7288     7281 
    7281     7375     7605     7788     7843     7812     7739     7759 
    7938     8202     8461     8507     8313     8135     8002     7816 
    7649     7510     7337     7176     7059     7029     7095     7130 
    7172     7399     7770     8070     8193     8205     8167     8155 
    8226     8279     8213     7925     7452     7149     7160     7302 
    7431     7491     7453     7333     7276     7384     7541     7654 
    7765     7933     8131     8212     8145     8025     7809     7454 
    7137     6968     6907     6988     7194     7449     7753     7955 
    7936     7901     7894     7804     7784     7912     8079     8194 
    8081     7766     7547     7472     7447     7520     7649     7720 
    7738     7708     7638     7557     7426     7365     7539     7784 
    7908     7882     7689     7527     7572     7614     7580     7654 
    7755     7763     7781     7815     7861     7946     7817     7412 
    7071     6943     7036     7364     7669     7776     7807     7788 
    7738     7800     7890     7905     7966     8027     7955     7784 
    7533     7349     7380     7491     7565     7596     7653     7816 
    7882     7732     7663     7751     7780     7784     7785     7677 
    7545     7437     7342     7371     7454     7487     7554     7653 
    7658     7551     7515     7657     7765     7744     7758     7744 
    7546     7331     7371     7666     8019     8217     8131     7789 
    7499     7558     7813     7866     7619     7321     7240     7446 
    7770     7990     8141     8270     8237     8079     7919     7678 
    7372     7175     7141     7238     7499     7882     8129     8106 
    7987     7808     7531     7344     7236     7087     7042     7180 
    7376     7512     7560     7597     7685     7835     8009     8010 
    7894     7929     8020     8000     7852     7555     7283     7202 
    7246     7353     7454     7523     7651     7793     7855     7897 
    7956     8025     8048     7915     7731     7638     7560     7503 
    7599     7770     7859     7875     7771     7504     7211     7071 
    7190     7438     7589     7750     8032     8262     8349     8268 
    8000     7719     7493     7288     7256     7416     7576     7678 
    7669     7453     7213     7128     7146     7226     7319     7373 
    7341     7227     7280     7581     7898     8175     8414     8464 
    8248     7932     7730     7592     7492     7464     7381     7361 
    7558     7773     7873     7892     7835     7785     7796     7785 
    7684     7534     7469     7591     7869     8162     8271     8100 
    7769     7445     7233     7223     7414     7657     7796     7784 
    7719     7719     7722     7630     7535     7488     7465     7466 
    7408     7337     7410     7622     7875     8064     8162     8167 
    8089     8098     8155     8012     7696     7407     7254     7238 
    7254     7203     7129     7164     7265     7354     7476     7561 
    7593     7781     8190     8510     8357     7811     7341     7157 
    7165     7321     7489     7604     7846     8147     8232     8083 
    7770     7388     7200     7317     7484     7519     7564     7712 
    7850     7947     8063     8075     7874     7638     7531     7562 
    7717     7879     7921     7882     7831     7723     7489     7191 
    7014     7110     7381     7589     7672     7755     7942     8156 
    8239     8100     7817     7557     7388     7377     7495     7554 
    7561     7569     7511     7398     7273     7256     7414     7593 
    7758     7959     8064     7985     7792     7580     7469     7533 
    7677     7796     7877     7946     8054     8100     7875     7493 
    7269     7280     7395     7495     7511     7483     7522     7576 
    7574     7632     7782     7943     8041     7966     7735     7632 
    7862     8210     8309     8048     7562     7098     6829     6799 
    7020     7379     7692     7863     7866     7758     7659     7674 
    7809     7979     8135     8208     8206     8205     8056     7688 
    7256     6844     6562     6559     6791     7118     7439     7711 
    7950     8158     8282     8243     8073     7951     7905     7847 
    7804     7820     7865     7882     7831     7673     7443     7280 
    7268     7334     7356     7321     7307     7372     7523     7697 
    7796     7844     7912     7870     7647     7477     7507     7624 
    7697     7662     7582     7554     7596     7719     7823     7890 
    8033     8120     7987     7736     7500     7398     7477     7605 
    7688     7785     7925     8078     8162     8083     7869     7645 
    7535     7537     7506     7399     7362     7468     7601     7635 
    7557     7426     7325     7399     7657     7875     7923     7874 
    7836     7836     7785     7596     7295     7002     6841     6890 
    7167     7550     7842     7936     7800     7485     7194     7117 
    7268     7547     7896     8187     8274     8253     8186     7958 
    7736     7790     8028     8252     8410     8438     8236     7804 
    7233     6743     6619     6870     7330     7835     8095     8059 
    7966     7901     7925     8013     7913     7599     7200     6797 
    6546     6447     6358     6249     6164     6220     6466     6789 
    7230     7589     7446     7126     7105     7214     7371     7489 
    7326     7080     6947     6829     6860     7083     7339     7750 
    8446     9385    10625    11979    13036    13756    14096    13828 
   12939    11524     9799     8118     6671     5580     4955     4661 
    4519     4558     4868     5463     6293     7260     8222     8969 
    9367     9462     9382     9308     9224     8818     7946     6732 
    5355     4059     3150     2826     3122     3948     5043     6097 
    6944     7530     7946     8310     8440     8355     8406     8325 
    7892     7504     7007     6403     6381     6924     7659     8545 
    9223     9346     9171     8946     8676     8449     8214     7898 
    7719     7781     7901     7865     7500     6813     6261     6318 
    6933     7807     8680     9366     9753     9890     9875     9651 
    9256     8901     8641     8482     8359     8010     7429     6934 
    6583     6205     5796     5413     5224     5578     6488     7545 
    8343     8677     8490     7960     7495     7241     7083     6960 
    6716     6257     5856     5887     6627     8041     9544    10535 
   10864    10459     9396     8024     6662     5579     4820     4286 
    4113     4275     4617     5414     6733     8051     9107     9722 
    9580     9132     8961     8833     8799     9337    10241    11088 
   11794    12004    11487    10512     9278     8145     7535     7400 
    7615     7998     8010     7411     6610     5871     5213     4826 
    4780     4920     5094     5282     5517     5778     5962     6068 
    6232     6527     7005     7554     7973     8397     8638     8328 
    7897     7600     7196     6987     7118     7236     7427     7750 
    7917     8028     8167     8247     8498     9016     9535     9880 
    9954     9728     9297     8626     7692     6677     5865     5545 
    5772     6349     7079     7848     8542     9097     9479     9463 
    8857     7993     7412     7256     7376     7533     7555     7435 
    7209     6995     6936     6925     6797     6759     7017     7457 
    7909     8208     8356     8356     8089     7645     7032     6423 
    6347     6663     6941     7209     7327     7229     7211     7383 
    7700     8040     8352     8870     9425     9548     9354     9004 
    8483     8152     8090     7951     7824     7778     7469     6878 
    6223     5680     5579     6081     7009     8085     8930     9312 
    9267     8733     7923     7245     6447     5499     5011     5125 
    5821     7118     8453     9329     9819    10029    10057     9841 
    9227     8591     8171     7825     7630     7357     6750     6112 
    5656     5347     5269     5409     5675     6169     6862     7631 
    8438     9031     9429     9877    10206    10160     9699     8911 
    7952     7095     6513     6114     5899     6012     6662     7825 
    9053     9869    10045     9660     8919     8136     7593     7265 
    7137     7171     7191     7171     7187     7200     7244     7414 
    7572     7607     7519     7358     7177     6882     6598     6534 
    6605     6844     7319     7821     8133     8260     8428     8711 
    8787     8527     8089     7499     6920     6571     6338     6170 
    6214     6475     6956     7582     8041     8256     8409     8495 
    8619     8907     9073     8995     8769     8330     7843     7499 
    7117     6601     6053     5630     5567     5857     6318     6852 
    7354     7905     8584     9101     9479     9949    10295    10408 
   10314     9822     8978     8147     7573     7218     7044     6980 
    6917     6847     6833     7044     7416     7618     7438     6982 
    6550     6255     6073     6097     6374     6775     7117     7310 
    7310     7149     7036     7195     7672     8163     8426     8729 
    9077     9096     8926     8575     7804     6987     6423     6030 
    5983     6308     6678     6997     7353     7753     8239     8811 
    9342     9652     9636     9374     8942     8363     7747     7219 
    6907     6863     6951     7049     7140     7202     7295     7485 
    7735     8019     8316     8618     8876     8865     8644     8380 
    7839     7128     6571     6102     5996     6504     7209     7866 
    8392     8583     8465     8129     7673     7399     7350     7234 
    7006     6832     6772     6814     6855     6802     6710     6708 
    6874     7258     7884     8583     9072     9342     9568     9632 
    9409     9027     8496     7884     7412     7088     6903     6921 
    6909     6708     6540     6617     6840     6994     7083     7211 
    7449     7878     8390     8739     8752     8390     8004     7911 
    7911     7875     7882     7920     7956     7825     7435     7025 
    6804     6748     6786     6901     7075     7360     7773     8186 
    8492     8565     8318     7962     7781     7761     7709     7593 
    7570     7642     7591     7356     7086     7034     7318     7755 
    8083     8160     8002     7747     7561     7510     7663     8048 
    8541     9057     9444     9383     8770     7840     6882     6091 
    5564     5352     5390     5486     5656     6042     6601     7223 
    7820     8243     8487     8787     8993     8861     8739     8702 
    8426     8093     7869     7599     7454     7585     7800     8108 
    8510     8733     8734     8579     8233     7797     7385     7083 
    7034     7263     7686     8226     8733     9020     9009     8757 
    8407     8048     7634     7180     6851     6644     6419     6180 
    5899     5578     5356     5221     5186     5560     6365     7242 
    8113     8972     9571     9788     9649     9255     8691     7938 
    7204     6723     6453     6408     6609     6953     7442     8098 
    8780     9320     9593     9537     9228     8730     8116     7565 
    7276     7349     7699     8067     8190     8037     7769     7492 
    7241     7021     6899     6870     6840     6890     7026     7132 
