Origin Time       2025/03/28 03:50:00
Lat.              35.403
Long.             140.360
Depth. (km)       54
Mag.              4.4
Station Code      CHB026
Station Lat.      35.3858
Station Long.     140.2404
Station Height(m) 46
Record Time       2025/03/28 03:50:49
Sampling Freq(Hz) 100Hz
Duration Time(s)  69
Dir.              E-W
Scale Factor      7845(gal)/8223790
Max. Acc. (gal)   4.752
Last Correction   2025/03/28 03:50:48
Memo.             
[...]
   15819    15839    15728    15746    15799    15786    15778    15766 
   15749    15784    15824    15759    15732    15804    15765    15757 
   15827    15751    15751    15817    15739    15774    15826    15742 
   15759    15801    15769    15749    15784    15793    15751    15804 
   15786    15707    15812    15827    15716    15769    15807    15753 
   15781    15804    15724    15765    15869    15738    15684    15830 
   15801    15742    15780    15768    15770    15789    15782    15757 
   15754    15801    15781    15749    15785    15754    15777    15816 
   15723    15768    15823    15723    15772    15815    15741    15774 
   15788    15757    15772    15757    15773    15801    15763    15742 
   15782    15800    15741    15755    15817    15743    15742    15827 
   15741    15728    15843    15762    15722    15831    15746    15704 
   15866    15778    15660    15838    15843    15695    15753    15816 
   15780    15747    15757    15789    15758    15774    15807    15741 
   15772    15811    15736    15750    15797    15786    15758    15734 
   15796    15801    15734    15796    15781    15714    15827    15800 
   15677    15804    15855    15700    15743    15853    15754    15711 
   15817    15823    15714    15736    15857    15769    15684    15831 
   15826    15695    15774    15826    15749    15769    15799    15772 
   15754    15780    15804    15745    15759    15824    15749    15738 
   15826    15770    15735    15807    15786    15753    15784    15776 
   15754    15788    15797    15747    15750    15816    15800    15712 
   15781    15851    15714    15750    15867    15701    15726    15904 
   15750    15677    15840    15822    15719    15758    15817    15778 
   15749    15785    15786    15781    15774    15750    15811    15803 
   15712    15792    15823    15705    15796    15870    15673    15718 
   15927    15749    15655    15874    15813    15666    15797    15839 
   15722    15739    15832    15790    15715    15799    15813    15712 
   15799    15812    15697    15801    15828    15704    15751    15834 
   15793    15715    15750    15831    15766    15750    15786    15745 
   15789    15795    15715    15793    15849    15712    15693    15862 
   15812    15666    15797    15815    15714    15832    15777    15661 
   15838    15839    15692    15778    15809    15718    15782    15824 
   15738    15750    15808    15763    15726    15808    15812    15691 
   15784    15880    15681    15716    15898    15727    15691    15869 
   15765    15705    15836    15782    15715    15808    15803    15701 
   15766    15844    15728    15730    15842    15746    15718    15847 
   15759    15693    15853    15792    15676    15812    15812    15738 
   15778    15753    15784    15793    15726    15803    15778    15716 
   15846    15774    15680    15826    15807    15714    15780    15807 
   15762    15746    15780    15796    15763    15757    15773    15785 
   15788    15758    15757    15792    15789    15758    15741    15795 
   15822    15711    15735    15877    15766    15668    15834    15827 
   15680    15801    15851    15687    15757    15869    15735    15701 
   15853    15808    15669    15807    15855    15700    15770    15811 
   15726    15813    15800    15688    15797    15850    15712    15742 
   15851    15741    15720    15855    15750    15714    15874    15762 
   15662    15844    15849    15672    15762    15881    15708    15736 
   15881    15711    15718    15869    15768    15727    15778    15778 
   15796    15753    15762    15820    15736    15739    15846    15749 
   15707    15847    15799    15711    15780    15795    15782    15781 
   15745    15769    15801    15774    15754    15766    15788    15789 
   15774    15749    15755    15803    15784    15743    15785    15795 
   15742    15781    15804    15739    15790    15808    15715    15778 
   15839    15741    15711    15817    15843    15709    15735    15840 
   15739    15772    15834    15716    15782    15815    15726    15799 
   15796    15746    15792    15746    15757    15859    15757    15672 
   15843    15849    15665    15759    15885    15716    15699    15878 
   15792    15665    15811    15842    15700    15774    15843    15720 
   15753    15849    15743    15705    15850    15811    15668    15789 
   15858    15708    15751    15858    15734    15718    15843    15772 
   15718    15803    15777    15755    15804    15769    15730    15785 
   15822    15738    15732    15835    15751    15705    15842    15792 
   15720    15797    15781    15734    15788    15823    15726    15716 
   15850    15796    15692    15773    15822    15766    15736    15763 
   15788    15778    15757    15757    15801    15780    15727    15790 
   15777    15720    15823    15799    15687    15805    15826    15689 
   15789    15836    15691    15774    15838    15693    15786    15866 
   15669    15735    15907    15716    15678    15893    15774    15653 
   15863    15831    15643    15813    15865    15647    15768    15904 
   15684    15693    15889    15784    15676    15812    15826    15689 
   15772    15854    15727    15738    15820    15763    15747    15784 
   15784    15770    15769    15757    15766    15813    15770    15726 
   15785    15803    15762    15743    15780    15800    15766    15772 
   15763    15776    15795    15720    15769    15846    15741    15734 
   15796    15763    15805    15795    15689    15780    15855    15722 
   15750    15843    15726    15751    15846    15730    15727    15830 
   15788    15741    15777    15799    15754    15749    15819    15788 
   15726    15793    15811    15738    15765    15807    15753    15759 
   15819    15757    15723    15823    15805    15718    15785    15815 
   15727    15785    15836    15711    15762    15858    15726    15736 
   15823    15750    15792    15816    15708    15772    15839    15743 
   15750    15834    15768    15715    15817    15811    15720    15782 
   15805    15754    15796    15757    15732    15831    15777    15730 
   15819    15769    15734    15823    15768    15730    15820    15789 
   15715    15769    15817    15757    15750    15828    15753    15699 
   15851    15807    15662    15809    15838    15691    15796    15815 
   15677    15813    15857    15664    15741    15882    15746    15693 
   15827    15788    15722    15808    15772    15734    15820    15768 
   15724    15808    15772    15728    15820    15796    15677    15792 
   15873    15677    15735    15897    15701    15701    15898    15751 
   15670    15822    15801    15754    15781    15738    15759    15836 
   15766    15707    15804    15800    15695    15765    15815    15696 
   15731    15866    15785    15719    15892    15886    15688    15822 
   15942    15727    15688    15739    15650    15676    15697    15708 
   15919    16050    15905    15670    15530    15539    15627    15741 
   15820    15809    15813    15877    15881    15882    16050    16158 
   15921    15697    15746    15820    15812    15750    15607    15336 
   15183    15421    15650    15687    15871    15973    15751    15724 
   16059    16247    16131    15927    15805    15869    15881    15616 
   15361    15498    15828    15861    15736    15782    15982    16120 
   15867    15618    15691    15549    15411    15615    15630    15557 
   15704    15759    15731    15901    16190    16113    15724    15793 
   16043    15836    15838    16229    16179    15763    15485    15372 
   15512    15700    15568    15349    15369    15643    15880    15770 
   15665    15804    15776    15661    15863    16200    16316    16318 
   16340    16027    15646    15807    15923    15565    15273    15263 
   15264    15284    15708    16155    15935    15645    15774    15907 
   16036    16083    15815    15550    15488    15628    15881    15938 
   15792    15726    15836    15858    15618    15444    15670    16077 
   16098    15774    15699    15884    15962    15889    15654    15317 
   15263    15570    15854    15988    16170    16313    16085    15684 
   15529    15534    15631    15805    15811    15669    15581    15592 
   15727    15904    15863    15712    15762    15780    15619    15681 
   15973    15950    15647    15595    15689    15847    16150    16209 
   16097    15901    15519    15448    15317    14835    15111    15781 
   15863    16125    16686    16702    16259    15981    16150    16256 
   15796    15427    15530    15261    14673    14854    15488    15653 
   15777    16236    16397    16082    15769    15475    15226    15557 
   16024    15839    15701    16114    16382    16143    15688    15352 
   15279    15603    16146    16148    15851    16044    16074    15732 
   15916    16267    16029    15618    15441    15223    14940    14920 
   15164    15580    15912    15853    15796    15965    15900    15762 
   16038    16376    16372    16318    16270    16006    15854    15813 
   15380    14995    15136    15326    15454    15669    15827    15981 
   16168    16325    16341    16193    16274    16352    15897    15681 
   15844    15371    14924    15319    15396    14835    14736    14956 
   15076    15762    16573    16687    16877    17111    16571    16020 
   16052    16043    15813    15647    15593    15385    15032    15061 
   15295    15311    15475    15495    15140    15562    16432    16440 
   16357    16615    16582    16434    16038    15446    15174    15013 
   14952    15111    15446    16050    16551    16519    16092    15735 
   15620    15396    15106    15348    15951    15901    15502    15665 
   15626    15377    15962    16445    16055    15838    15940    15680 
   15369    15604    16056    16086    16127    16596    16623    15984 
   15445    15036    14808    15024    15064    14970    15438    15804 
   15840    16367    16798    16559    16341    16205    15912    15761 
   15672    15527    15685    15959    15873    15715    15707    15692 
   15727    15608    15325    15236    15395    15759    15912    15805 
   16038    16214    16119    16267    16179    15709    15534    15412 
   14948    14627    14851    15354    15913    16536    16787    16461 
   16359    16727    16649    16101    15785    15360    14823    14890 
   15255    15480    15658    15755    15828    15786    15673    15623 
   15373    15217    15253    15106    15553    16474    16675    16798 
   17166    16823    16042    15495    14990    14562    14959    15765 
   15503    15022    15697    16286    16486    17157    17262    16503 
   15808    15029    14551    14918    15165    15061    15460    16083 
   16325    16294    16051    15642    15282    15205    15444    15676 
   15898    16335    16617    16503    16403    16289    15943    15726 
   15566    15321    15433    15448    15070    15164    15402    15268 
   15527    16143    16675    17057    16845    16252    15726    15120 
   14921    15087    15091    15677    16401    16031    15538    15523 
   15383    15522    15776    15408    15114    15398    15828    16231 
   16416    16271    15936    15566    15433    15552    15599    15391 
   15292    15634    15979    16239    16741    16881    16317    16074 
   16406    16201    15576    15529    15545    15190    15269    15672 
   15682    15471    15453    15746    15911    15657    15529    15554 
   15425    15356    15280    15365    15942    16313    16195    16235 
   16293    16178    16210    15992    15541    15554    15743    15996 
   16491    16471    15939    15469    14800    14338    14631    14967 
   15180    15720    16131    16077    15951    16009    16170    16195 
   16249    16592    16756    16524    16281    16120    15986    15765 
   15483    15492    15580    15321    15142    15452    15796    15774 
   15666    15557    15029    14311    14156    14623    15273    15855 
   16348    16800    17016    16773    16372    16290    16507    16490 
   16042    15695    15612    15453    15372    15572    15687    15569 
   15549    15600    15498    15425    15512    15709    15903    15986 
   16204    16506    16359    15959    15940    15944    15504    15525 
   16348    16509    15716    15290    15387    15523    15855    16190 
   16073    15568    14912    14492    14592    14782    15005    15628 
   16058    15934    15970    16339    16561    16449    16028    15645 
   15622    15704    15832    16066    16062    15961    15938    15930 
   16191    16278    15830    15498    15230    14733    14532    14804 
   15306    15889    16225    16154    15923    15813    15799    15774 
   16092    16742    16893    16356    15812    15542    15263    14971 
   14971    14989    14889    15307    15939    16135    16640    17344 
   17238    17038    17167    16787    16222    16205    16525    16972 
   17525    17868    17794    17471    16596    14883    13312    12729 
   12699    12725    12748    12501    11921    12013    13460    15558 
   17599    18751    18414    17729    17556    17405    17383    17767 
   18080    18077    17909    17428    16637    16063    15955    15843 
   15105    13972    13271    13184    13520    14189    15024    15811 
   16116    15904    15854    16069    16249    16484    16407    15354 
   13751    12926    13294    14103    14998    16008    17043    17956 
   18276    17895    17136    16074    15067    14289    13305    12264 
   11801    12293    13707    15554    17386    18639    18890    19105 
   20069    20556    19373    16714    13319    10816    10791    12769 
   15028    16254    16000    14882    14211    15007    16463    16869 
   16756    17328    18002    18559    18998    18183    16297    14632 
   13606    13621    14569    15516    16260    16600    15943    15088 
   15115    15407    15673    16499    17331    17502    17124    16279 
   15439    15408    16114    16536    16251    15853    15553    15298 
   15191    15040    15014    15076    14370    13356    13336    14053 
   14751    15098    14855    14380    14121    14237    14836    15755 
   17055    18539    19071    18555    17855    16760    15319    14748 
   15464    16688    17811    18635    18793    17832    15730    13248 
   11665    11924    13483    14611    14987    15620    16343    16638 
   16692    16266    15346    14939    15574    16694    17589    17725 
   16857    15549    14728    14790    15653    16761    17301    17089 
   16569    16042    15556    15291    15396    15655    15932    16247 
   16243    15673    14993    14643    14535    14731    15419    16316 
   17153    17732    17734    17570    17556    17177    16545    16001 
   14989    13510    12506    12243    12325    12704    13487    14697 
   16216    17284    17432    17022    16232    15384    14916    14868 
   15199    15445    15327    15352    15711    16204    16303    15369 
   13987    13077    12698    13080    14289    15530    16174    16352 
   16582    17228    18203    19048    19298    19036    18624    18118 
   17589    17255    16995    16409    15441    14685    14602    14918 
   15421    16050    16524    16877    17049    16595    15680    14983 
   14971    15768    16852    17498    17891    18372    18569    18149 
   16942    15117    13193    11545    10972    11850    13317    14791 
   15881    16151    16043    15993    15777    15172    14245    13359 
   12712    12351    12734    14022    15538    16795    18071    19458 
   20333    20391    19961    19136    17853    16561    15838    15622 
   15435    15043    14661    14539    14656    15002    15558    16063 
   16112    15491    14627    14054    13693    13566    13936    14486 
   14867    15299    15634    15498    15461    15823    15928    15819 
   15691    15066    14326    14357    15155    16349    17574    18389 
   18619    18306    17648    17074    16788    16569    15985    14963 
   14330    14386    14451    14746    15392    15457    15094    15111 
   15309    15576    16291    16965    16762    16016    15241    14335 
   13887    14409    15140    15565    15904    16143    16526    17544 
   18512    18539    18038    17080    15358    13980    13718    14048 
   15060    16638    17668    18034    18165    17810    16908    15674 
   14643    14369    14486    14636    14786    14746    14636    14488 
   14314    14237    14033    13934    14276    14712    15090    15464 
   15789    16096    16285    16555    17088    17408    17641    18081 
   17869    17043    16691    16704    16887    17589    18173    17786 
   16667    15365    14029    13016    12734    12934    13466    14505 
   15815    16870    17093    16437    15768    15561    15415    15317 
   15550    15473    14611    13675    13003    12667    13055    13805 
   14526    15402    16428    17451    18196    18677    19170    19403 
   19190    18932    18705    17998    16808    15811    14989    14246 
   14222    14656    14895    15230    15557    15496    15414    15411 
   15183    14786    14308    13907    13809    13976    14612    15839 
   16950    17242    16881    16345    15781    15242    14898    14917 
   15307    15911    16495    16787    16789    16934    17243    17230 
   16946    16563    15954    15492    15311    14983    14635    14517 
   14330    14049    14154    14705    15398    16256    17026    17271 
   17217    16806    15773    14778    14223    13787    13703    14010 
   13996    14110    15049    15952    16472    17064    17288    17043 
   17091    17523    17875    18064    18177    18091    17968    18131 
   18129    17541    16804    16093    15336    14748    14145    13425 
   13311    13873    14172    14285    14746    14918    14724    14862 
   14979    14860    15093    15388    15217    15126    15398    15624 
   16027    16565    16607    16675    17223    17460    17334    17288 
   16895    15984    15115    14463    13944    13825    13965    13938 
   14083    14648    15142    15645    16476    17095    17323    17543 
   17473    17069    16911    16750    16160    15603    15352    15236 
   15157    14906    14520    14459    15014    16005    17027    17847 
   18266    18060    17400    16756    16128    15396    15037    14956 
   14624    14575    14908    14796    14655    14979    15063    14812 
   14532    14052    13770    14258    15157    15979    16750    17350 
   17402    16970    16526    16243    16008    15905    16077    16506 
   17034    17365    17255    16800    16303    15718    14995    14602 
   14604    14771    15248    15701    15768    15668    15356    15083 
   15410    15951    16205    16497    16950    17111    17128    17433 
   17536    17091    16514    15780    14813    14110    13756    13670 
   13934    14219    14443    14709    14825    15028    15414    15681 
   16078    16641    16906    16950    16997    16972    16866    16717 
   16356    15584    14655    14026    13826    13952    14189    14505 
   14990    15484    15916    16426    16995    17416    17459    17091 
   16509    15908    15479    15437    15853    16518    16968    16951 
   16792    16614    16163    15712    15496    15291    15257    15383 
   15346    15299    15331    15287    15178    15078    15070    15076 
   14956    14887    14812    14480    14334    14789    15477    16101 
   16737    17250    17435    17456    17293    16677    16125    16094 
