Origin Time       2025/03/28 03:50:00
Lat.              35.403
Long.             140.360
Depth. (km)       54
Mag.              4.4
Station Code      CHB028
Station Lat.      35.7664
Station Long.     139.9655
Station Height(m) 26
Record Time       2025/03/28 03:50:52
Sampling Freq(Hz) 100Hz
Duration Time(s)  65
Dir.              U-D
Scale Factor      7845(gal)/8223790
Max. Acc. (gal)   6.691
Last Correction   2025/03/28 03:50:52
Memo.             
[...]
   10133    10125    10157    10166    10156    10161    10177    10170 
   10141    10139    10172    10183    10150    10129    10146    10149 
   10161    10199    10187    10135    10118    10149    10187    10184 
   10165    10164    10170    10147    10114    10126    10172    10204 
   10199    10160    10143    10153    10153    10160    10150    10123 
   10154    10206    10189    10172    10179    10141    10106    10158 
   10227    10208    10150    10133    10138    10162    10189    10168 
   10134    10146    10180    10180    10153    10149    10147    10143 
   10160    10157    10142    10153    10164    10166    10169    10152 
   10130    10131    10150    10170    10172    10164    10172    10169 
   10150    10143    10141    10146    10162    10160    10164    10172 
   10154    10135    10123    10127    10172    10219    10214    10154 
   10098    10118    10177    10192    10174    10170    10156    10118 
   10133    10188    10181    10141    10138    10149    10156    10164 
   10172    10161    10142    10145    10162    10152    10141    10165 
   10183    10169    10150    10133    10139    10169    10180    10162 
   10149    10176    10185    10146    10145    10179    10184    10177 
   10146    10116    10158    10212    10197    10161    10138    10145 
   10168    10160    10142    10164    10195    10185    10150    10135 
   10146    10152    10169    10199    10177    10138    10156    10181 
   10180    10174    10165    10154    10147    10150    10169    10177 
   10161    10149    10161    10181    10181    10152    10138    10154 
   10157    10156    10177    10184    10160    10137    10137    10154 
   10172    10187    10179    10157    10145    10141    10160    10187 
   10165    10142    10160    10161    10153    10173    10164    10115 
   10089    10125    10210    10216    10129    10103    10152    10191 
   10192    10158    10147    10154    10130    10129    10157    10162 
   10164    10160    10141    10149    10183    10192    10172    10142 
   10116    10133    10181    10183    10146    10143    10160    10173 
   10169    10138    10138    10166    10180    10192    10162    10110 
   10133    10187    10189    10173    10158    10135    10122    10138 
   10160    10169    10179    10192    10185    10154    10123    10102 
   10122    10172    10191    10184    10188    10177    10138    10127 
   10149    10154    10162    10176    10146    10135    10188    10207 
   10161    10118    10126    10173    10200    10192    10176    10152 
   10135    10152    10169    10143    10141    10187    10183    10153 
   10165    10152    10114    10125    10169    10199    10199    10169 
   10141    10123    10127    10160    10184    10176    10157    10172 
   10185    10162    10158    10161    10123    10112    10160    10218 
   10242    10169    10076    10095    10165    10204    10215    10164 
   10098    10114    10160    10158    10164    10192    10187    10156 
   10138    10142    10152    10143    10147    10177    10168    10119 
   10116    10153    10164    10164    10196    10199    10125    10095 
   10153    10179    10158    10158    10145    10130    10170    10200 
   10165    10142    10137    10116    10119    10143    10172    10212 
   10200    10135    10102    10119    10158    10185    10183    10164 
   10146    10147    10154    10147    10147    10161    10150    10120 
   10146    10201    10184    10134    10152    10196    10174    10130 
   10122    10141    10184    10197    10157    10137    10129    10111 
   10142    10203    10224    10191    10129    10106    10135    10153 
   10161    10184    10203    10197    10160    10123    10139    10183 
   10179    10141    10141    10153    10169    10211    10212    10154 
   10118    10130    10156    10183    10199    10177    10146    10145 
   10146    10156    10193    10181    10130    10153    10201    10188 
   10156    10139    10126    10146    10192    10195    10164    10153 
   10158    10150    10142    10156    10184    10189    10165    10145 
   10150    10154    10145    10161    10191    10160    10115    10147 
   10181    10152    10146    10187    10189    10157    10146    10135 
   10139    10172    10168    10152    10181    10176    10138    10172 
   10192    10129    10119    10153    10150    10168    10197    10169 
   10135    10134    10133    10133    10161    10195    10193    10170 
   10161    10152    10123    10103    10138    10197    10211    10193 
   10179    10147    10116    10126    10146    10150    10166    10197 
   10211    10180    10126    10120    10156    10152    10126    10141 
   10170    10188    10215    10211    10145    10106    10130    10157 
   10174    10187    10164    10142    10158    10174    10169    10162 
   10168    10166    10156    10154    10153    10166    10191    10162 
   10122    10161    10184    10134    10141    10195    10177    10135 
   10131    10142    10156    10179    10192    10161    10135    10149 
   10157    10149    10161    10181    10166    10152    10176    10173 
   10145    10154    10156    10145    10181    10210    10170    10135 
   10134    10119    10147    10211    10177    10107    10131    10176 
   10164    10145    10160    10170    10153    10150    10173    10162 
   10152    10184    10170    10129    10145    10160    10135    10142 
   10184    10193    10180    10174    10169    10166    10157    10122 
   10092    10130    10218    10247    10193    10139    10125    10116 
   10119    10160    10207    10211    10173    10133    10114    10129 
   10164    10166    10156    10164    10142    10129    10164    10176 
   10161    10152    10131    10116    10139    10170    10176    10184 
   10180    10149    10139    10143    10138    10145    10162    10173 
   10165    10142    10138    10153    10160    10162    10152    10149 
   10172    10152    10116    10160    10192    10156    10153    10176 
   10141    10107    10173    10251    10189    10093    10125    10183 
   10168    10154    10177    10174    10153    10164    10160    10143 
   10165    10160    10139    10168    10189    10193    10192    10168 
   10133    10107    10131    10184    10188    10177    10180    10145 
   10110    10143    10174    10181    10187    10174    10158    10135 
   10129    10169    10181    10160    10165    10177    10189    10189 
   10150    10133    10165    10172    10166    10199    10203    10165 
   10149    10172    10191    10150    10115    10143    10162    10173 
   10192    10181    10160    10130    10118    10142    10143    10164 
   10207    10179    10142    10143    10133    10139    10157    10161 
   10169    10157    10130    10133    10173    10201    10174    10123 
   10115    10146    10187    10185    10142    10147    10188    10161 
   10119    10145    10176    10156    10143    10180    10191    10147 
   10134    10156    10146    10135    10164    10162    10123    10130 
   10173    10189    10168    10149    10152    10153    10158    10176 
   10165    10135    10158    10185    10131    10102    10139    10154 
   10169    10212    10207    10122    10071    10154    10242    10203 
   10126    10118    10143    10143    10147    10149    10146    10183 
   10196    10152    10127    10139    10157    10179    10187    10180 
   10152    10126    10145    10184    10192    10154    10142    10180 
   10173    10133    10133    10160    10187    10207    10199    10141 
   10096    10116    10139    10164    10199    10195    10168    10158 
   10146    10114    10119    10165    10188    10192    10184    10164 
   10149    10122    10135    10203    10207    10154    10143    10150 
   10157    10173    10176    10168    10143    10112    10123    10170 
   10216    10223    10164    10116    10138    10154    10142    10147 
   10162    10168    10162    10158    10170    10173    10153    10125 
   10119    10160    10183    10180    10196    10193    10149    10107 
   10107    10152    10189    10180    10149    10150    10172    10172 
   10170    10161    10126    10127    10165    10179    10165    10143 
   10139    10153    10156    10160    10173    10172    10150    10130 
   10135    10161    10173    10161    10153    10170    10166    10138 
   10147    10165    10150    10152    10181    10174    10139    10147 
   10168    10165    10176    10185    10170    10153    10123    10111 
   10152    10177    10174    10200    10204    10153    10111    10112 
   10170    10238    10215    10135    10107    10142    10177    10188 
   10196    10185    10152    10130    10127    10162    10220    10207 
   10134    10125    10179    10179    10150    10177    10192    10157 
   10133    10125    10135    10193    10234    10206    10149    10123 
   10150    10184    10180    10160    10169    10197    10165    10119 
   10177    10220    10134    10088    10184    10228    10146    10120 
   10169    10161    10152    10180    10166    10139    10133    10119 
   10160    10219    10192    10162    10177    10154    10122    10131 
   10158    10189    10197    10170    10153    10141    10120    10145 
   10180    10173    10154    10138    10142    10174    10185    10162 
   10133    10134    10176    10196    10166    10137    10141    10145 
   10122    10139    10197    10195    10154    10141    10137    10137 
   10145    10156    10170    10168    10145    10131    10139    10157 
   10158    10133    10127    10158    10181    10172    10137    10116 
   10131    10150    10164    10181    10183    10166    10160    10153 
   10122    10118    10172    10215    10196    10147    10130    10166 
   10177    10120    10114    10180    10201    10181    10160    10139 
   10143    10160    10143    10125    10143    10170    10184    10179 
   10146    10131    10152    10166    10168    10166    10158    10152 
   10152    10156    10165    10170    10160    10149    10156    10157 
   10147    10150    10147    10147    10176    10181    10137    10129 
   10177    10196    10154    10102    10108    10177    10224    10204 
   10137    10088    10134    10200    10169    10135    10172    10174 
   10129    10125    10169    10184    10157    10150    10161    10149 
   10131    10150    10187    10179    10141    10123    10133    10173 
   10211    10195    10157    10157    10156    10133    10154    10203 
   10203    10164    10154    10162    10146    10142    10173    10208 
   10224    10224    10260    10378    10539    10669    10733    10731 
   10700    10689    10629    10351     9798     9105     8546     8457 
    8862     9283     9277     8920     8776     9494    11097    12727 
   13302    12465    10906     9595     8973     9049     9593    10160 
   10408    10206     9471     8563     8329     9136    10528    11804 
   12468    12640    12718    12542    11797    10669     9455     8379 
    7831     8201     9371    10449    10482     9728     9320     9591 
    9815     9324     8178     7233     7460     8992    11215    13178 
   13892    13132    11693    10496     9844     9479     9163     8941 
    8874     9157    10254    12097    13608    13591    11880     9767 
    8757     8857     9323    10169    11384    12009    11342     9944 
    9015     9105     9436     9005     8191     8079     8777     9481 
    9502     8820     8097     7823     7998     9154    11875    15118 
   17064    16754    13929     9471     5643     3744     3334     4407 
    7318    11094    14419    16602    16822    14832    11982     9805 
    8513     7600     7101     7770     9725    11510    11701    10682 
    9737     9429     9451     9324     9057     9247    10096    10766 
   10673    10465    10858    11627    12027    11419     9906     8429 
    7723     7672     8043     8920    10099    11014    11529    11742 
   11399    10562     9715     9022     8829     9572    10771    11781 
   12159    11063     8865     7792     9015    11280    12757    12692 
   11701    10770     9887     8706     7939     8530    10143    11651 
   12231    11523     9899     8429     7848     8251     9371    10388 
   10689    10732    10957    10955    10335     9358     8753     9207 
   10500    11607    11982    11808    11256    10492     9702     9005 
    8780     9211     9845    10309    10552    10416     9923     9535 
    9679    10277    10732    10709    10632    10808    10798    10104 
    8846     7844     8056     9490    10999    11746    12109    12422 
   11989    10377     8492     7678     8384     9884    11064    11376 
   11043    10566    10143     9738     9629    10200    11102    11511 
   11210    10426     9182     7740     6862     7198     8727    10631 
   11979    12564    12704    12428    11372     9586     7884     7179 
    7793     9317    10976    12197    12721    12472    11515    10068 
    8668     8044     8387     9127     9740    10312    11048    11722 
   11934    11449    10471     9698     9508     9618     9749     9834 
   10034    10615    11318    11607    11416    10886    10033     9020 
    8043     7204     6937     7801     9606    11484    12748    13127 
   12637    11560    10284     9274     9028     9505    10026    10233 
   10332    10316     9883     9039     8348     8483     9467    10619 
   11319    11480    11246    10647     9779     8868     8160     8051 
    8843    10343    12031    13289    13626    12997    11831    10725 
    9815     8599     6872     5421     5367     7306    10890    14733 
   17104    17173    15255    11963     7998     4638     3269     4222 
    6656     9535    12155    13996    14698    14173    12708    10870 
    9101     7736     7157     7368     7894     8379     8874     9666 
   10972    12290    12514    11412     9985     9154     9223    10025 
   10951    11468    11389    10548     9059     7678     7308     8357 
   10547    12960    14292    13574    11132     8565     7310     7514 
    8646    10440    12487    13666    12992    10812     8421     6837 
    6620     7919    10058    12004    13030    12657    10974     8980 
    7859     8039     9081    10320    11457    12361    12630    11931 
   10444     8733     7601     7630     8492     9394     9980    10390 
   10871    11504    12060    12249    11982    11304    10409     9574 
    8873     8321     8152     8648     9684    10729    11408    11739 
   11724    11233    10335     9373     8644     8295     8425     8999 
    9875    10924    11881    12312    12047    11277    10239     9244 
    8591     8278     8293     8715     9324     9883    10532    11259 
   11668    11561    11153    10686    10265    10011     9964     9876 
    9570     9243     9255     9722    10447    11109    11306    10804 
   10076     9786     9842     9880     9995    10381    11032    11820 
   12244    11812    10836     9882     9020     8355     8241     8664 
    9250     9725     9915     9819     9671     9537     9352     9310 
    9656    10395    11223    11686    11691    11477    11017    10165 
    9113     8338     8287     8989    10093    11241    12093    12403 
   12042    11028     9892     9316     9329     9548     9576     9181 
    8861     9350    10405    11326    11839    11774    11161    10412 
    9718     9205     9192     9593    10023    10250    10143     9946 
   10172    10677    10833    10578    10270    10053     9927     9732 
    9177     8556     8629     9610    11053    12177    12214    11244 
   10135     9396     8939     8820     9305    10343    11360    11701 
   11265    10412     9491     8746     8310     8340     9063    10361 
   11678    12492    12432    11385     9883     8808     8654     9209 
    9815    10110    10326    10598    10773    10828    10671    10206 
    9757     9595     9626     9919    10473    10804    10609    10122 
    9714     9644     9837     9992    10011     9980    10064    10423 
   10881    10912    10362     9815     9771    10030    10291    10413 
   10258    10004     9903     9798     9628     9686    10129    10725 
   11087    11029    10620    10062     9614     9312     9007     8957 
    9691    11016    11851    11460    10311     9302     8710     8598 
    9275    10512    11543    12013    11909    11275    10470     9937 
    9659     9362     9067     9012     9304     9860    10449    10787 
   10698    10208     9576     9198     9366    10008    10735    11114 
   10963    10547    10281    10299    10508    10647    10434    10025 
    9803     9720     9531     9428     9655     9981    10216    10469 
   10750    10982    10953    10405     9717     9451     9514     9767 
   10188    10388    10158     9902    10049    10612    11176    11240 
   10743    10120     9728     9574     9585     9697     9768     9732 
    9721     9941    10385    10786    10933    10729    10122     9437 
    9103     9158     9613    10365    10933    11036    10832    10469 
    9985     9591     9532     9792    10203    10651    11032    11175 
   10987    10561    10102     9769     9614     9622     9699     9836 
   10227    10698    10719    10358     9994     9603     9292     9316 
    9513     9663     9896    10245    10477    10605    10795    10917 
   10702    10058     9289     8950     9182     9703    10382    11038 
   11322    11200    10860    10446    10197    10116     9964     9942 
   10318    10779    10914    10592    10011     9576     9363     9196 
    9208     9578    10111    10494    10632    10646    10557    10314 
   10084    10083    10251    10381    10291     9921     9516     9509 
    9949    10370    10494    10571    10604    10176     9373     8721 
    8428     8496     8887     9413    10056    10905    11877    12841 
   13579    13745    13158    11932    10365     8820     7681     7257 
    7724     9067    10821    12150    12414    11429     9524     7523 
    6218     5927     6650     8247    10322    12245    13599    14222 
   14014    13174    12096    10925     9698     8741     8576     9320 
   10417    11117    11013    10185     8991     7846     7211     7388 
    8212     9212    10062    10731    11272    11657    11811    11634 
   11091    10315     9629     9401     9605     9802     9896    10300 
   11168    12100    12569    12264    11214     9807     8533     7672 
    7300     7431     8060     9050    10174    11292    12160    12424 
   12071    11500    10990    10397     9634     9171     9370     9855 
   10210    10454    10677    10774    10442     9601     8757     8403 
    8586     9192     9987    10643    11038    11133    10833    10389 
   10316    10656    10986    11101    11044    10766    10188     9479 
    8931     8600     8495     8781     9524    10512    11302    11527 
   11325    11003    10604    10158     9898    10004    10416    10805 
   10716    10126     9544     9310     9427     9756    10058    10292 
   10593    10858    10929    10787    10331     9574     8915     8689 
    8769     8939     9216     9587     9913    10207    10575    10871 
   10848    10423     9634     8806     8568     9261    10497    11515 
   11952    12081    12082    11708    10926    10143     9602     9185 
    8903     8997     9553    10428    11276    11578    11057     9963 
    8912     8525     8924     9664    10332    10916    11441    11696 
   11488    10854    10031     9433     9296     9425     9526     9522 
