Origin Time       2025/03/28 03:50:00
Lat.              35.403
Long.             140.360
Depth. (km)       54
Mag.              4.4
Station Code      CHB002
Station Lat.      35.7871
Station Long.     139.9024
Station Height(m) 12
Record Time       2025/03/28 03:51:01
Sampling Freq(Hz) 100Hz
Duration Time(s)  60
Dir.              N-S
Scale Factor      7845(gal)/8223790
Max. Acc. (gal)   5.137
Last Correction   2025/03/28 03:51:00
Memo.             
[...]
    8017     8014     8079     8120     8122     8132     8083     8012 
    8048     8114     8102     8100     8120     8064     8001     8027 
    8087     8101     8060     8028     8050     8082     8101     8113 
    8097     8058     8039     8043     8071     8104     8086     8052 
    8063     8090     8087     8064     8041     8033     8056     8097 
    8120     8100     8052     8023     8040     8081     8093     8085 
    8091     8083     8055     8058     8067     8039     8033     8078 
    8083     8055     8068     8091     8078     8063     8078     8085 
    8063     8063     8112     8159     8145     8091     8041     7992 
    7966     8020     8093     8093     8068     8074     8060     8054 
    8101     8104     8031     8009     8075     8122     8112     8098 
    8094     8068     8041     8021     8002     8035     8112     8147 
    8133     8113     8091     8040     7965     7996     8154     8197 
    8094     8062     8067     8009     7978     8008     8047     8105 
    8149     8137     8124     8121     8067     7993     8013     8087 
    8081     8033     8062     8104     8059     8019     8062     8098 
    8090     8090     8108     8129     8135     8081     7994     7986 
    8082     8129     8070     8060     8141     8135     7963     7871 
    8058     8222     8127     8056     8108     8073     8014     8067 
    8133     8140     8074     7936     7915     8098     8225     8154 
    8104     8137     8060     7943     7996     8120     8156     8093 
    7993     7998     8098     8135     8085     8040     8052     8041 
    7973     8001     8139     8208     8145     8028     7973     8027 
    8064     8029     8075     8178     8121     7990     8000     8095 
    8162     8171     8120     8055     7998     7943     7958     8091 
    8205     8140     7989     7965     8082     8182     8172     8082 
    7983     7935     7955     8012     8122     8271     8253     8033 
    7897     7965     8056     8090     8128     8159     8118     8024 
    7974     8014     8090     8106     8032     7981     8043     8114 
    8127     8158     8164     8068     7974     7987     8086     8176 
    8178     8105     8054     8043     7998     7947     8013     8128 
    8125     8067     8046     8029     8051     8110     8110     8073 
    8064     8054     8048     8081     8117     8116     8074     8032 
    8040     8059     8055     8089     8124     8073     8019     8010 
    8021     8068     8125     8145     8133     8086     8036     8052 
    8093     8078     8060     8078     8082     8094     8114     8098 
    8071     8043     8017     8046     8101     8113     8081     8048 
    8036     8023     8020     8052     8086     8110     8106     8078 
    8105     8155     8112     8043     8073     8117     8074     8028 
    8066     8125     8128     8070     8006     8009     8047     8050 
    8064     8118     8114     8031     7989     8050     8135     8158 
    8139     8117     8070     8000     7975     8031     8105     8131 
    8102     8071     8077     8082     8070     8093     8114     8081 
    8043     8048     8089     8102     8086     8086     8075     8024 
    7987     8017     8098     8148     8112     8054     8043     8052 
    8052     8058     8085     8120     8106     8062     8064     8081 
    8047     8035     8091     8118     8071     8039     8066     8108 
    8097     8052     8041     8048     8058     8108     8167     8163 
    8095     8008     7977     8021     8059     8068     8101     8140 
    8128     8079     8055     8047     8028     7993     7981     8064 
    8154     8113     8075     8158     8191     8058     7928     7971 
    8077     8124     8148     8168     8158     8083     7954     7915 
    8062     8232     8267     8202     8110     7982     7825     7780 
    7919     8133     8306     8329     8127     7811     7661     7869 
    8272     8461     8310     8064     8019     8239     8318     7828 
    7200     7277     8070     8808     8887     8401     7944     7807 
    7782     7861     8233     8627     8426     7686     7268     7628 
    8263     8557     8545     8513     8390     7979     7425     7236 
    7824     8695     8819     8136     7591     7651     7857     7825 
    7789     8075     8649     9047     8725     7840     7285     7531 
    8043     8201     8124     8050     7875     7719     7738     7851 
    8230     8841     9050     8569     7929     7651     7646     7832 
    8284     8525     8199     7773     7588     7522     7622     8060 
    8603     8752     8430     8073     7911     7720     7484     7734 
    8538     9007     8714     8221     7875     7587     7416     7476 
    7732     8158     8496     8298     7808     7838     8372     8725 
    8648     8182     7651     7708     8004     7603     7109     7724 
    9007     9551     8803     7611     7218     7669     8027     7997 
    8050     8311     8359     8023     7757     7985     8533     8903 
    8596     7708     7138     7342     7869     8380     8745     8702 
    8202     7636     7349     7389     7865     8467     8492     8131 
    8175     8591     8662     8171     7663     7712     8225     8398 
    7902     7570     7757     7809     7735     8085     8685     9059 
    8965     8224     7311     7123     7495     7738     7840     7808 
    7662     7885     8483     8914     9162     9312     8748     7375 
    6407     6691     7566     8185     8564     8881     8988     8685 
    7987     7422     7627     8284     8388     7705     7096     7319 
    8225     9066     9197     8769     8326     7981     7735     7584 
    7306     7026     7195     7823     8417     8681     8793     8819 
    8548     8024     7669     7804     8253     8484     8175     7624 
    7435     7662     7900     8101     8286     8213     8067     8309 
    8730     8673     8000     7258     7001     7576     8897     9864 
    9541     8560     7892     7449     6922     6643     6883     7375 
    7811     7981     8070     8606     9305     9343     8860     8613 
    8640     8564     8303     7719     6859     6489     7098     8109 
    8749     8773     8383     7904     7414     7036     7283     8294 
    9286     9429     8837     8162     7758     7711     7848     7794 
    7578     7516     7622     7738     7715     7570     7838     8820 
    9589     9317     8716     8521     8363     8006     7689     7504 
    7446     7489     7726     8131     8241     7940     7812     8191 
    8696     8768     8278     7487     6835     6848     7584     8491 
    9062     9165     8841     8152     7497     7491     7994     8202 
    7909     7562     7461     7784     8530     9054     8679     7767 
    7312     7588     8055     8553     9200     9346     8580     7933 
    8152     8371     7670     6494     6002     6556     7568     8672 
    9612     9755     9151     8587     8387     8376     8434     8410 
    7951     7099     6515     6574     7221     8105     8426     7987 
    7507     7410     7731     8364     8815     8752     8472     8453 
    8761     8966     8692     8233     8081     8043     7874     7846 
    7823     7512     7356     7677     8155     8496     8660     8648 
    8328     7692     7306     7653     8333     8684     8611     8245 
    7624     7037     6820     6928     7375     8197     8857     8923 
    8665     8392     8348     8469     8343     8120     8122     8093 
    7951     8047     8406     8571     8336     7948     7399     6733 
    6720     7603     8307     8284     8199     8405     8773     9130 
    9171     9047     9155     9251     8606     7118     5795     5553 
    6384     7758     8789     8868     8498     8490     8622     8270 
    7765     7735     7958     8001     7942     8035     8276     8469 
    8432     8117     7863     8077     8521     8613     7997     6972 
    6556     7234     8293     8918     8974     8812     8656     8480 
    8324     8214     8127     7911     7312     6571     6454     7342 
    8540     9101     9036     8726     8158     7564     7537     8068 
    8467     8483     8499     8537     8284     7944     7946     8064 
    7781     7173     6837     7114     7641     7916     8062     8367 
    8781     9194     9525     9582     9240     8507     7477     6664 
    6600     6939     7192     7618     8352     8916     9077     9059 
    8849     8343     7659     7021     6966     7695     8525     8931 
    8950     8629     8024     7387     7145     7510     8125     8496 
    8468     8175     7825     7491     7206     7287     7983     8864 
    9394     9549     9205     8328     7547     7306     7361     7442 
    7530     7708     7973     8106     7890     7491     7406     7884 
    8540     8829     8653     8392     8482     8700     8463     7974 
    7812     7862     7794     7655     7608     7711     7836     7747 
    7514     7643     8316     8915     9093     9148     9030     8629 
    8297     8036     7619     7294     7214     7148     7132     7412 
    7863     8172     8355     8630     8966     9053     8650     7915 
    7404     7524     8133     8819     9238     9265     8949     8284 
    7358     6716     6802     7217     7468     7708     8148     8698 
    9061     8816     7932     7053     6837     7350     8330     9250 
    9397     8803     8143     7765     7798     8268     8676     8463 
    7835     7416     7414     7585     7654     7611     7769     8203 
    8371     8048     7834     8041     8235     8020     7549     7327 
    7572     7929     8210     8676     9174     9225     8962     8754 
    8510     8048     7488     7165     7281     7794     8488     8787 
    8280     7465     7121     7379     7873     8357     8652     8564 
    8237     7985     7956     8216     8669     8880     8263     7056 
    6450     6956     7824     8318     8374     8302     8461     8895 
    9227     9185     8878     8451     8052     7863     7713     7338 
    6889     6698     6925     7447     8033     8607     9063     9273 
    9279     8904     8005     7086     6768     7018     7275     7458 
    8087     9034     9536     9352     8750     8110     7828     7763 
    7450     7250     7803     8676     8869     8279     7812     7800 
    7758     7769     8041     8145     7986     7925     7960     7890 
    7877     8035     8021     7788     7758     8094     8475     8550 
    8490     8645     8858     8773     8279     7541     6968     6833 
    7055     7519     8124     8644     8876     8812     8710     8764 
    8640     7990     7257     7107     7435     7777     8058     8272 
    8264     8087     8075     8370     8606     8596     8602     8533 
    8163     7759     7576     7443     7191     6999     7231     7966 
    8721     8996     8922     8818     8577     8075     7577     7331 
    7345     7547     7584     7285     7194     7668     8478     9333 
    9964    10081     9625     8883     8162     7524     7015     6700 
    6619     6860     7410     8054     8527     8752     8718     8365 
    8066     8240     8429     8122     7676     7512     7578     7911 
    8588     9069     8815     8199     7893     8033     8301     8314 
    7942     7425     7240     7549     7965     8270     8584     8788 
    8621     8019     7280     7022     7383     7781     7892     7962 
    8197     8487     8541     8229     7835     7739     7954     8208 
    8356     8487     8707     8938     8954     8730     8289     7527 
    6772     6528     6736     7013     7175     7545     8421     9346 
    9755     9609     9032     8237     7662     7653     8054     8353 
    8283     7927     7373     6953     7219     8124     8988     9239 
    8851     8249     7786     7524     7393     7410     7738     8235 
    8509     8484     8371     8380     8487     8437     8106     7676 
    7493     7535     7375     7076     7300     8263     9337     9776 
    9474     8812     8141     7619     7311     7264     7547     8068 
    8353     8012     7466     7431     7862     8271     8563     8652 
    8194     7357     6808     6829     7366     8302     9151     9397 
    9138     8708     8159     7591     7354     7549     7884     8120 
    8156     8016     7893     7766     7526     7624     8529     9807 
   10516    10204     9362     8667     8016     7057     5957     5097 
    4920     5629     6766     7900     9093    10212    10704    10278 
    9204     7936     7007     6713     6547     5960     5377     5440 
    5994     6658     7681     9213    10613    11524    12255    12690 
   12526    12037    11267     9865     7998     6092     4440     3500 
    3657     4837     6670     8815    10825    12006    12056    11163 
    9377     6952     4711     3298     2733     2943     3937     5445 
    7053     8488     9504     9977     9958     9524     9015     8953 
    9455    10103    10370    10071     9443     8808     8214     7682 
    7474     7658     7902     7962     7943     8000     8144     8291 
    8311     8235     8334     8700     9008     8919     8337     7489 
    7028     7101     6940     6524     6721     7449     8008     8451 
    9069     9474     9148     8270     7182     6075     5597     6219 
    7304     8240     9277    10489    11364    11610    11352    10790 
    9892     8406     6574     5209     4626     4475     4506     4864 
    5834     7380     9072    10488    11535    12229    12133    10831 
    8718     6448     4421     3055     2686     3358     4968     7107 
    8978     9994    10315    10417    10578    10862    10926    10299 
    9167     8198     7562     7005     6691     7049     7994     9018 
    9593     9475     8935     8324     7646     6912     6243     5780 
    5741     6056     6373     6727     7399     8328     9124     9463 
    9432     9431     9580     9563     9242     8970     8930     8806 
    8430     7975     7515     7037     6610     6255     5968     5780 
    5748     5969     6551     7541     8633     9313     9491     9447 
    9296     8896     8100     7064     6308     6362     7322     8845 
   10443    11668    12248    12079    11215     9921     8645     7843 
    7522     7317     7076     7022     7404     7951     8118     7901 
    7655     7614     7677     7484     7036     6836     7099     7412 
    7337     6986     6766     6673     6322     5771     5598     6069 
    6885     7825     9058    10494    11593    11948    11443    10250 
    8883     7734     6886     6447     6525     6999     7711     8556 
    9302     9759    10002    10195    10444    10671    10558     9999 
    9202     8239     7146     6253     5752     5468     5350     5533 
    6003     6609     7254     7893     8278     8240     8141     8264 
    8411     8464     8505     8440     8051     7507     7163     6928 
    6570     6245     6270     6856     7870     8723     9018     8977 
    8845     8629     8411     8324     8552     9228    10081    10566 
   10374     9738     9121     8579     7940     7393     7280     7635 
    8243     8762     8804     8320     7635     6893     6127     5643 
    5701     6183     6647     6799     6878     7211     7770     8487 
    9418    10273    10485    10015     9200     8222     7287     6786 
    6934     7499     8244     9084     9655     9620     9138     8610 
    8318     8144     7784     7365     7195     7196     7198     7171 
    7136     7315     7874     8507     8823     8834     8816     8814 
    8596     8143     7773     7794     8141     8401     8367     8218 
    8010     7546     6934     6662     6991     7862     9001     9937 
   10419    10496    10114     9263     8236     7291     6536     6191 
    6367     6806     7288     7920     8611     8931     8787     8457 
    8083     7742     7635     7838     8104     8284     8523     8656 
    8328     7650     6839     5992     5429     5571     6405     7420 
    8398     9448    10233    10261     9641     8865     8116     7352 
    6910     7179     7943     8665     8966     8773     8266     7831 
    7859     8324     8822     9050     8965     8644     8175     7636 
    7196     7107     7470     8109     8621     8687     8325     7608 
    6670     6029     6174     6925     7767     8517     9109     9279 
    8973     8456     7939     7524     7276     7264     7680     8623 
    9737    10471    10642    10405     9846     8976     8019     7285 
    6855     6652     6621     6660     6642     6670     6984     7545 
    8121     8603     8919     8912     8487     7780     6991     6411 
    6538     7429     8414     9026     9462     9942    10189     9957 
    9537     9243     8904     8330     7724     7195     6663     6385 
    6601     6972     7291     7801     8437     8880     9046     8908 
    8494     8037     7780     7815     7998     8085     7947     7560 
    7074     6686     6335     6003     6077     6864     7974     8810 
    9305     9664     9929     9942     9502     8737     8174     8151 
    8403     8498     8410     8374     8419     8380     8195     7871 
    7508     7457     7819     8206     8438     8604     8662     8556 
    8367     8332     8530     8626     8314     7735     7236     6998 
    6979     7087     7302     7632     7940     7963     7673     7327 
    7015     6508     5814     5509     6008     7026     8112     9072 
    9807    10361    10832    11130    11044    10420     9292     7915 
    6674     5956     5983     6685     7749     8869     9872    10509 
   10517     9884     8849     7726     6724     5956     5636     5898 
    6538     7358     8174     8596     8509     8171     7732     7288 
    7025     7020     7380     8182     9092     9621     9683     9521 
    9240     8804     8322     7938     7645     7447     7443     7681 
    8021     8243     8260     8118     7940     7906     7992     7971 
    7848     7815     7863     7920     8047     8208     8260     8195 
    8105     8125     8338     8603     8707     8583     8222     7711 
    7335     7295     7445     7528     7479     7415     7437     7524 
    7727     8167     8826     9555    10181    10471    10233     9443 
    8325     7264     6507     6133     6189     6609     7194     7758 
    8217     8461     8434     8270     8079     7951     8054     8384 
    8769     9076     9201     9043     8549     7823     7191     6922 
    6993     7341     7866     8212     8224     8097     7960     7888 
    7911     8004     8208     8440     8445     8170     7846     7669 
    7646     7765     8001     8271     8510     8688     8793     8799 
    8667     8463     8305     8191     8054     7836     7510     7109 
    6744     6636     6952     7599     8318     8928     9400     9651 
    9517     9099     8681     8298     7834     7410     7265     7358 
    7481     7670     7975     8135     7985     7747     7674     7805 
    8000     8166     8379     8642     8739     8552     8235     7989 
    7857     7762     7611     7477     7564     7851     8170     8469 
    8648     8502     8098     7778     7670     7566     7429     7480 
    7753     8002     8094     8059     7951     7928     8152     8491 
    8802     9117     9212     8858     8345     7981     7690     7410 
    7299     7456     7693     7912     8274     8716     8950     8874 
