Origin Time       2025/03/28 03:50:00
Lat.              35.403
Long.             140.360
Depth. (km)       54
Mag.              4.4
Station Code      CHB012
Station Lat.      35.5721
Station Long.     140.3436
Station Height(m) 60
Record Time       2025/03/28 03:50:48
Sampling Freq(Hz) 100Hz
Duration Time(s)  83
Dir.              E-W
Scale Factor      7845(gal)/8223790
Max. Acc. (gal)   10.658
Last Correction   2025/03/28 03:50:47
Memo.             
[...]
    3719     3715     3719     3716     3711     3715     3717     3716 
    3720     3721     3719     3713     3708     3711     3716     3716 
    3715     3716     3716     3716     3716     3713     3715     3721 
    3717     3713     3719     3721     3724     3724     3717     3716 
    3723     3721     3715     3712     3719     3726     3721     3717 
    3719     3713     3713     3713     3709     3715     3719     3716 
    3716     3716     3712     3712     3720     3721     3719     3716 
    3715     3716     3716     3716     3716     3719     3723     3723 
    3720     3719     3720     3721     3720     3715     3713     3719 
    3716     3713     3712     3711     3715     3715     3709     3708 
    3711     3715     3715     3711     3712     3713     3716     3721 
    3723     3719     3717     3717     3715     3715     3719     3716 
    3709     3712     3720     3720     3711     3713     3724     3726 
    3717     3716     3724     3723     3719     3723     3723     3716 
    3716     3717     3712     3713     3717     3716     3719     3724 
    3720     3716     3719     3715     3713     3717     3720     3717 
    3713     3716     3719     3715     3711     3711     3713     3715 
    3717     3721     3721     3721     3720     3723     3724     3720 
    3720     3721     3720     3723     3721     3712     3707     3709 
    3711     3715     3719     3716     3716     3720     3716     3712 
    3717     3720     3719     3717     3719     3716     3709     3709 
    3716     3719     3715     3715     3720     3723     3720     3720 
    3716     3712     3716     3721     3719     3720     3717     3717 
    3724     3726     3720     3719     3720     3719     3712     3712 
    3716     3715     3715     3717     3715     3713     3720     3719 
    3715     3717     3719     3717     3717     3716     3719     3715 
    3709     3713     3716     3715     3719     3723     3717     3715 
    3716     3715     3715     3720     3716     3713     3719     3720 
    3723     3720     3712     3713     3715     3713     3712     3716 
    3723     3721     3716     3715     3713     3715     3719     3719 
    3716     3716     3721     3719     3719     3717     3712     3716 
    3717     3712     3716     3721     3717     3712     3715     3719 
    3717     3713     3719     3721     3715     3711     3719     3727 
    3723     3719     3721     3717     3707     3705     3713     3717 
    3717     3716     3709     3712     3717     3713     3711     3709 
    3711     3716     3715     3713     3719     3716     3709     3716 
    3721     3715     3712     3715     3713     3708     3707     3711 
    3717     3720     3715     3719     3720     3711     3717     3723 
    3708     3704     3715     3719     3717     3713     3715     3721 
    3721     3715     3711     3708     3709     3713     3716     3715 
    3713     3716     3719     3717     3715     3715     3713     3716 
    3720     3717     3711     3713     3717     3713     3713     3716 
    3715     3708     3703     3703     3705     3711     3720     3717 
    3717     3721     3716     3712     3711     3715     3723     3720 
    3719     3723     3723     3720     3721     3716     3708     3713 
    3723     3724     3717     3715     3720     3723     3717     3713 
    3721     3726     3720     3721     3719     3713     3719     3724 
    3723     3720     3721     3727     3728     3727     3723     3716 
    3716     3723     3730     3731     3726     3727     3730     3716 
    3716     3724     3720     3724     3727     3721     3719     3716 
    3717     3724     3721     3717     3721     3724     3720     3717 
    3719     3723     3723     3720     3719     3716     3717     3723 
    3721     3713     3708     3713     3717     3712     3711     3715 
    3716     3719     3719     3721     3727     3726     3717     3713 
    3713     3713     3716     3715     3709     3709     3715     3713 
    3712     3715     3715     3715     3720     3717     3711     3717 
    3720     3709     3708     3717     3716     3715     3717     3715 
    3713     3715     3712     3712     3715     3716     3712     3708 
    3715     3723     3723     3721     3719     3716     3715     3709 
    3713     3717     3709     3700     3696     3705     3720     3730 
    3739     3727     3670     3597     3573     3645     3792     3950 
    4016     3905     3647     3352     3213     3480     4105     4684 
    4870     4538     3759     2875     2192     1910     2328     3218 
    3850     4228     4760     5247     5358     4962     4083     3262 
    2971     2805     2442     2493     3217     3788     3843     4067 
    4660     4990     4843     4282     3119     1923     1863     2810 
    3649     4266     5013     5356     4999     4363     3480     2774 
    3161     3902     3649     2936     2820     3145     3593     4220 
    4537     4063     3383     3269     3667     4120     4326     4122 
    3519     2945     3001     3704     4272     4176     3782     3404 
    3098     3260     3804     4122     4333     4596     4340     3628 
    3312     3516     3747     3881     3865     3322     2401     2053 
    2693     3678     4413     4774     4784     4769     5046     5119 
    4460     3461     2527     1729     1408     1737     2664     4116 
    5325     5518     5140     4764     4288     3861     3572     2909 
    2088     2147     3111     3979     4303     4438     4577     4442 
    3892     3175     2799     3265     4218     4580     4180     3804 
    3600     3268     3165     3596     4071     4064     3597     3198 
    3412     4071     4529     4391     3834     3404     3240     2964 
    2754     3141     3840     4290     4607     4868     4803     4380 
    3646     2880     2818     3446     3573     2586     1490     1663 
    3213     4973     5884     5776     5026     4233     3897     3892 
    3780     3370     2457     1140      494     1371     3180     4945 
    6484     7685     8019     7285     5825     4001     2073      567 
      32      267      781     1659     3126     4946     6442     6937 
    6181     4649     3429     2924     2508     2130     2282     2695 
    2999     3523     4388     5173     5707     5869     5219     3854 
    2664     2215     2312     2790     3523     3901     3555     2925 
    2689     3237     4276     5009     5127     5085     5186     5054 
    4344     3454     2733     1875      900      781     2245     4436 
    5782     5904     5733     5957     5900     4598     2602     1305 
    1225     1699     1688     1259     1703     3717     6388     7901 
    7084     4495     2161     1887     3269     4336     4237     3639 
    3295     3510     4075     4491     4608     4401     3624     2637 
    2304     2620     2994     3445     4221     4897     4936     4631 
    4349     3893     3303     2928     2828     3011     3443     3630 
    3267     2835     2781     2964     3377     4423     5873     6659 
    6347     5479     4369     2982     1630      853      745      884 
    1256     2301     3739     4992     6169     6994     6620     5398 
    4411     3775     3172     2759     2709     2870     3115     3458 
    3785     4004     4095     4023     3890     3758     3607     3520 
    3616     4068     4765     5049     4463     3235     2085     1910 
    2795     3789     4085     3596     2930     2907     3412     3724 
    3807     4002     4189     4085     3755     3684     4198     4780 
    4693     3973     3229     2951     3100     3219     3048     2805 
    2650     2713     3424     4507     5094     5370     5836     6014 
    5795     5678     5292     4226     2949     1713      619      213 
     673     1491     2299     3233     4361     5447     6357     6862 
    6282     4459     2411     1190     1102     2033     3303     4013 
    4033     3790     3767     4176     4442     4037     3429     3280 
    3950     5332     6303     5873     4666     3670     2934     2344 
    1939     1618     1752     2770     3979     4776     5632     6459 
    6249     4845     3315     2284     1505     1219     1837     2771 
    3445     3960     4125     3742     3411     3708     4207     4122 
    3640     3480     3715     4256     5184     5976     5842     4888 
    3939     3420     3150     2713     1923     1482     2276     3692 
    4333     4233     4407     5051     5719     5999     5374     3757 
    2207     1821     2119     2014     1605     1698     2583     3719 
    4274     4218     4185     4414     4702     4808     4595     4155 
    3759     3709     4102     4496     4428     4093     3758     3310 
    2789     2397     2169     2185     2648     3520     4540     5498 
    6058     5841     5020     4052     3105     2420     2239     2286 
    2452     3059     3981     4684     4899     4692     4205     3535 
    2909     2682     2944     3381     3701     3835     3823     3855 
    4054     4212     4112     3901     3877     4004     4113     4390 
    4812     4880     4384     3476     2409     1798     1954     2339 
    2666     3346     4359     5113     5243     4804     4178     3709 
    3489     3472     3438     3159     2710     2349     2182     2303 
    2948     3913     4538     4760     5009     5350     5637     5740 
    5413     4459     3006     1784     1638     2327     2768     2677 
    2739     3385     4317     4846     4473     3808     4060     5042 
    5287     4382     3217     2511     2515     3100     3670     3893 
    4067     4406     4727     4623     3843     2752     1872     1576 
    2209     3358     4063     4239     4503     5023     5514     5694 
    5368     4652     3900     3262     2677     2133     1756     1806 
    2404     3126     3430     3411     3407     3438     3516     3647 
    3811     4145     4602     4951     5178     5169     4615     3674 
    3026     3041     3465     3900     4195     4437     4587     4401 
    3982     3682     3406     3029     3110     3816     4164     3566 
    2667     2281     2697     3593     4240     4305     4171     4087 
    3713     2934     2178     1791     1923     2513     3194     3796 
    4450     4996     5066     4735     4425     4357     4491     4706 
    4857     4780     4409     3952     3604     3287     2988     2859 
    2957     3115     3059     2851     3046     4047     5306     5949 
    6079     6470     7234     7696     7246     5803     3724     1575 
    -187    -1363    -1848    -1728    -1313     -650      475     1894 
    3013     3624     4426     6096     8149     9742    10928    12108 
   12810    11982     9358     5736     2201     -608    -2864    -4905 
   -6045    -5039    -2074     1179     3658     5424     6465     6693 
    6515     6106     5019     3319     1860     1263     1598     2971 
    5417     7794     8486     7692     6681     5679     4338     2566 
     475    -1368    -2091    -1224      591     1806     1556      657 
     465     1356     2610     3407     4077     5852     8891    11774 
   13126    12741    11294     9327     6727     3348     -468    -3673 
   -4747    -3464    -1455        4     1071     2100     3161     4306 
    5196     5206     4109     2180      487      796     3495     6647 
    8598     9502     9560     8457     6646     5217     4900     5333 
    4827     2471     -199    -1200      -29     1888     2133      739 
     685     3176     5709     5757     4155     3433     4270     5579 
    6438     6675     6658     6731     6953     7211     7015     5543 
    2238    -1953    -4472    -3901    -1582      517     1798     2991 
    4882     6589     6440     4642     2793     1647     1247     1742 
    2945     4329     5659     6913     7955     8459     7911     6246 
    4506     3715     3501     2890     1661      495      211      641 
     780      394      560     2323     5262     7496     7585     6592 
    6609     7406     7296     6197     5196     4425     3041      913 
    -537     -108     1286     2029     2108     2488     3370     4190 
    4527     4714     5394     6359     6628     5732     4144     2706 
    1814     1170      656      804     2011     4004     5946     6799 
    6258     5282     5236     6412     7365     6523     4487     3411 
    4089     4904     3936     1293    -1140    -1823     -899      515 
    1876     3045     3387     2860     2623     3091     3564     3986 
    4753     5657     6612     7823     8753     8307     6208     3545 
    1632      645       10     -386     -105      955     2116     2805 
    3483     4887     6748     8036     7982     6543     4326     2257 
    1054     1011     2035     3676     5300     6430     7013     7071 
    6331     5088     4345     4232     3867     2891     1755      753 
    -306    -1441    -2239    -2378    -1682       27     2524     5296 
    7954    10193    11797    12565    12033     9882     6716     3580 
     989     -687    -1228    -1329    -1614    -1634     -853      700 
    2478     3576     3866     4203     4928     5486     5358     4654 
    4028     3901     4074     4287     4506     4695     4939     5611 
    6974     8592     9440     8807     6720     3607      236    -2398 
   -3838    -4510    -4919    -4677    -3092     -394     2739     5938 
    8729    10725    12078    13009    13690    14261    14372    13355 
   11041     7942     4888     2442      372    -1948    -4614    -6863 
   -7456    -5775    -2803     -245     1273     2482     4072     5638 
    6350     6111     5593     5541     6241     7284     7846     7443 
    6326     5009     3797     2911     2613     2790     2895     2540 
    1798      832     -422    -2018    -3550    -4201    -3472    -1844 
    -101     1760     4055     6439     8174     8841     8753     8768 
    9463    10521    11036    10528     9421     8272     7171     5975 
    4629     3109     1393     -155     -828     -521      -55     -103 
    -437     -560     -248      492     1205     1436     1660     2652 
    4299     5861     6974     7696     7917     7468     6623     5764 
    4785     3407     1850      677      207      440     1309     2782 
    4514     5877     6732     7326     7484     6779     5213     3303 
    1696      730      410      708     1486     2532     3732     4718 
    5120     5341     6021     6993     7620     7688     7364     6662 
    5427     3688     1841      446     -117       54      434      654 
     986     1867     3213     4560     5505     5942     6080     6253 
    6567     6539     5529     3700     1815      314     -706    -1108 
    -876     -222      506     1020     1553     2778     4785     6639 
    7472     7555     7588     7520     7001     6254     5583     4693 
    3304     1890     1219     1343     1499     1084      400      351 
    1455     3292     5124     6650     7831     8525     8642     8330 
    7700     6623     5109     3592     2577     2135     1911     1532 
     955      440      180      195      541     1306     2317     3229 
    3991     4762     5525     6126     6408     6332     6107     5849 
    5336     4388     3179     2081     1414     1167     1062     1024 
    1251     1998     3352     5020     6492     7333     7387     6747 
    5603     4295     3161     2162     1178      437      197      444 
    1074     2022     3080     3931     4476     4834     5089     5306 
    5494     5621     5746     5879     5960     6087     6358     6559 
    6288     5389     4228     3330     2772     2253     1607      909 
     276     -141     -172      143      560     1027     1718     2664 
    3694     4511     4860     4884     5034     5505     6056     6404 
    6664     7248     8172     8722     8172     6592     4567     2520 
     630     -949    -1896    -1914    -1248     -476      243     1219 
    2705     4526     6219     7396     7927     8041     8094     7974 
    7186     5682     4050     2700     1476      175     -980    -1570 
   -1475     -908      -58     1108     2721     4702     6724     8453 
    9655    10241    10258     9684     8421     6447     3894     1084 
   -1441    -3042    -3369    -2659    -1425       52     1634     2974 
    3819     4386     4977     5437     5348     4787     4409     4575 
    4988     5289     5444     5628     5987     6448     6793     6828 
    6528     6062     5503     4618     3241     1676      558      334 
     885     1734     2552     3242     3705     3784     3576     3485 
    3748     4288     5085     6141     7159     7751     7731     6936 
    5166     2559     -157    -1969    -2292    -1479     -322      787 
    1950     3238     4355     4882     4806     4606     4715     5035 
    5328     5664     6112     6475     6486     6073     5456     4955 
    4737     4625     4149     3002     1378     -164    -1135    -1366 
    -884      243     1786     3343     4617     5582     6273     6616 
    6629     6393     5906     5250     4608     4136     3854     3531 
    2899     2065     1416     1206     1402     1873     2551     3415 
    4436     5360     5776     5524     4777     3757     2594     1480 
     772      768     1499     2887     4868     7130     9067    10215 
   10524    10215     9428     8031     5926     3361      788    -1372 
   -2826    -3335    -2783    -1483      -12     1293     2457     3588 
    4627     5355     5618     5462     5158     5028     5103     5067 
    4695     4189     3939     4083     4495     4974     5319     5346 
    4915     4097     3198     2439     1841     1302      757      410 
     542     1161     1976     2574     2836     3075     3496     3967 
    4367     4695     4996     5401     5980     6569     6849     6556 
    5703     4653     3901     3743     4082     4527     4753     4702 
    4500     4199     3700     3037     2382     1795     1237      837 
     967     1869     3235     4548     5512     6066     6247     5929 
    4943     3478     2010      940      376      205      353      826 
    1598     2594     3731     4965     6251     7476     8391     8671 
    8127     6961     5653     4480     3353     2222     1305      905 
    1075     1560     2034     2258     2251     2366     2948     4012 
    5263     6274     6771     6758     6393     5849     5204     4490 
    3801     3269     2967     2894     2944     2810     2226     1372 
     712      515      793     1463     2408     3465     4418     5109 
    5474     5505     5263     4820     4267     3747     3393     3279 
    3416     3667     3790     3659     3449     3503     3967     4611 
    5005     4928     4550     4163     3950     3983     4195     4401 
    4434     4260     3900     3385     2836     2421     2223     2110 
    1838     1401     1088     1096     1367     1776     2281     2920 
    3720     4630     5472     6027     6219     6195     6108     5954 
    5630     5103     4529     4117     3829     3454     2938     2454 
    2187     2227     2540     2944     3271     3542     3735     3680 
    3404     3146     3001     2890     2801     2844     3107     3580 
    4245     5082     5953     6675     7183     7427     7214     6361 
    5015     3562     2263     1190      394      -17       78      696 
    1713     2949     4220     5316     6100     6574     6767     6662 
