Origin Time       2025/03/28 03:50:00
Lat.              35.403
Long.             140.360
Depth. (km)       54
Mag.              4.4
Station Code      CHB018
Station Lat.      35.1520
Station Long.     140.3204
Station Height(m) 38
Record Time       2025/03/28 03:50:49
Sampling Freq(Hz) 100Hz
Duration Time(s)  65
Dir.              E-W
Scale Factor      7845(gal)/8223790
Max. Acc. (gal)   8.582
Last Correction   2025/03/28 03:50:48
Memo.             
[...]
   14273    14281    14273    14270    14287    14291    14289    14274 
   14265    14284    14285    14269    14278    14293    14291    14278 
   14272    14276    14280    14274    14273    14280    14289    14287 
   14268    14278    14295    14276    14280    14297    14273    14254 
   14272    14278    14274    14288    14292    14277    14278    14289 
   14278    14268    14281    14284    14277    14276    14268    14270 
   14277    14280    14281    14278    14281    14280    14274    14273 
   14273    14277    14289    14288    14264    14268    14293    14283 
   14274    14278    14276    14281    14273    14269    14284    14284 
   14277    14285    14285    14268    14273    14291    14270    14266 
   14283    14272    14274    14288    14281    14280    14287    14283 
   14268    14268    14287    14281    14264    14277    14285    14276 
   14278    14283    14288    14297    14278    14269    14278    14273 
   14274    14273    14274    14287    14283    14278    14281    14297 
   14301    14256    14262    14296    14257    14264    14295    14280 
   14278    14269    14283    14293    14274    14287    14280    14284 
   14288    14251    14274    14297    14268    14269    14288    14281 
   14266    14277    14287    14266    14280    14301    14278    14280 
   14292    14258    14253    14288    14284    14269    14283    14283 
   14280    14284    14268    14270    14295    14278    14261    14281 
   14288    14269    14262    14278    14293    14285    14274    14285 
   14285    14262    14269    14293    14297    14273    14256    14283 
   14278    14258    14297    14293    14257    14291    14310    14268 
   14261    14284    14266    14265    14291    14273    14272    14299 
   14295    14278    14276    14288    14289    14266    14264    14277 
   14265    14268    14293    14272    14262    14305    14292    14264 
   14295    14301    14273    14268    14284    14281    14264    14274 
   14285    14280    14278    14274    14280    14289    14284    14270 
   14277    14297    14278    14256    14278    14293    14278    14276 
   14280    14270    14269    14287    14289    14278    14284    14284 
   14273    14285    14293    14268    14268    14285    14269    14261 
   14273    14278    14287    14289    14292    14295    14274    14264 
   14278    14274    14269    14274    14278    14288    14289    14285 
   14284    14277    14283    14277    14257    14270    14287    14268 
   14261    14287    14301    14293    14293    14293    14268    14260 
   14266    14253    14260    14287    14288    14284    14292    14295 
   14278    14268    14277    14264    14250    14283    14295    14292 
   14301    14277    14260    14273    14270    14281    14299    14293 
   14284    14262    14251    14266    14269    14274    14297    14288 
   14256    14296    14342    14233    14191    14322    14292    14243 
   14320    14284    14277    14281    14243    14289    14277    14278 
   14287    14246    14300    14315    14264    14257    14274    14270 
   14249    14292    14288    14257    14296    14283    14284    14292 
   14260    14283    14283    14280    14291    14278    14285    14272 
   14250    14257    14284    14299    14272    14293    14310    14260 
   14250    14269    14283    14269    14270    14319    14288    14265 
   14307    14276    14254    14273    14283    14285    14273    14273 
   14268    14277    14297    14277    14278    14296    14285    14269 
   14273    14291    14287    14280    14283    14273    14265    14261 
   14269    14281    14288    14297    14293    14293    14291    14273 
   14277    14272    14247    14258    14283    14288    14283    14283 
   14295    14296    14278    14280    14296    14283    14266    14270 
   14268    14254    14260    14284    14288    14281    14299    14296 
   14277    14287    14292    14270    14269    14289    14283    14256 
   14266    14288    14281    14281    14291    14289    14288    14276 
   14261    14273    14292    14285    14273    14272    14268    14262 
   14270    14283    14288    14303    14315    14304    14291    14278 
   14250    14243    14262    14269    14274    14288    14291    14281 
   14281    14299    14300    14284    14284    14291    14277    14254 
   14254    14266    14269    14277    14288    14293    14296    14299 
   14292    14285    14287    14276    14253    14254    14277    14276 
   14261    14273    14297    14301    14289    14291    14291    14274 
   14265    14272    14281    14281    14270    14262    14266    14285 
   14291    14281    14291    14296    14277    14264    14265    14269 
   14265    14265    14278    14283    14280    14284    14287    14285 
   14283    14277    14268    14272    14283    14265    14250    14269 
   14278    14270    14284    14295    14285    14278    14287    14281 
   14269    14269    14272    14269    14277    14285    14283    14280 
   14280    14273    14273    14287    14288    14268    14269    14280 
   14277    14278    14285    14289    14281    14272    14269    14268 
   14277    14277    14262    14273    14295    14293    14284    14285 
   14288    14272    14257    14272    14280    14270    14278    14285 
   14284    14288    14283    14277    14274    14270    14266    14270 
   14281    14285    14281    14273    14278    14291    14281    14270 
   14270    14278    14291    14260    14258    14301    14281    14277 
   14296    14269    14284    14284    14257    14281    14280    14276 
   14283    14276    14284    14270    14274    14293    14269    14269 
   14280    14274    14277    14281    14287    14285    14281    14281 
   14277    14276    14270    14270    14287    14289    14278    14273 
   14280    14284    14277    14280    14281    14276    14276    14273 
   14274    14285    14285    14274    14276    14284    14278    14264 
   14268    14285    14285    14281    14284    14278    14277    14277 
   14272    14276    14280    14278    14281    14273    14268    14274 
   14276    14272    14283    14281    14277    14292    14283    14265 
   14272    14272    14274    14280    14280    14276    14268    14288 
   14289    14270    14287    14288    14274    14277    14277    14277 
   14276    14278    14284    14276    14274    14281    14278    14274 
   14281    14287    14278    14277    14283    14269    14264    14278 
   14285    14285    14285    14280    14265    14265    14280    14289 
   14287    14285    14287    14276    14262    14273    14283    14281 
   14285    14284    14283    14287    14280    14266    14269    14287 
   14278    14250    14258    14283    14276    14251    14237    14257 
   14326    14358    14284    14191    14212    14314    14343    14278 
   14220    14256    14368    14351    14230    14449    14806    14631 
   14341    14320    13883    13521    14050    14094    13470    14084 
   14863    13992    13809    15483    15982    14667    14045    14257 
   13940    13736    14219    13682    12256    13038    15241    15554 
   15290    15622    14589    13487    14353    15313    14821    13204 
   11723    12418    14586    15489    15005    14625    14962    15485 
   15071    14237    14176    14027    13500    13618    13956    14121 
   14404    14428    14296    14384    14451    13991    12811    12560 
   14318    15434    14709    14750    15434    14742    14218    14868 
   14655    13672    14030    15423    15302    13270    12155    12660 
   13269    14561    15780    14932    14396    15419    14970    14030 
   15014    15017    13188    12768    13285    13165    13653    14219 
   13851    14386    16270    17239    16046    14129    13220    12492 
   12393    14816    16237    13872    12475    13664    13983    14301 
   15454    14941    14042    14531    14292    13375    13729    14895 
   15772    15665    14562    13639    13508    13906    14176    13713 
   13414    13911    14072    13905    14395    14854    14790    14999 
   15160    14608    14067    13938    13770    13613    13740    14215 
   14828    14879    14214    13552    13274    13770    15271    16332 
   15816    14758    14027    13749    14068    13960    12982    12870 
   13748    13940    13597    13512    14006    15264    16104    15747 
   15020    14381    14169    14559    14613    14212    14278    14431 
   13956    13420    13292    13410    13743    14137    14598    15203 
   15180    14312    13628    13282    13170    14054    15348    15562 
   14898    14210    13913    14632    15762    15314    13598    12901 
   13242    13456    13961    14764    14825    14335    14125    13919 
   13698    14277    14929    14415    14018    14724    14906    14349 
   14693    15136    14153    13205    13591    14052    14149    14550 
   14430    13803    14511    15793    15384    14266    14191    14258 
   13495    13077    13888    14354    13556    13270    14145    14871 
   15101    14874    14084    13670    14226    14990    15403    15452 
   14959    13971    12889    12224    12698    14112    14987    15048 
   15149    14922    14179    13930    14143    14211    14504    14897 
   14798    14686    14454    13589    13521    14457    14399    13977 
   14418    14204    13539    14067    14540    14052    14189    15083 
   15349    14783    14102    13744    13471    13593    14677    15267 
   14520    14196    14284    13429    13057    14258    15005    14233 
   13448    13587    14272    14912    15101    15165    15291    15028 
   14674    14304    13419    12939    13373    13308    12915    13783 
   15110    15476    15471    15445    15024    14423    14077    14216 
   14206    13659    13621    14037    14010    14054    14204    14025 
   14357    14956    14405    13567    14219    15547    15646    14558 
   13855    14056    14042    13431    13039    13112    13462    14125 
   14976    15512    15442    15157    14874    14581    14557    14297 
   13220    12465    13147    14156    14154    13991    14670    15236 
   15093    14989    14887    14762    15336    15350    13419    12006 
   12989    14046    13963    14226    14885    14936    14507    13959 
   13425    13378    14007    14619    14823    15196    15237    13836 
   12826    14041    15088    14724    15088    15831    15499    14926 
   14031    12559    12163    12980    13662    14284    14922    15037 
   14770    14395    14235    14430    14416    14050    13450    12910 
   13408    14566    15454    16506    16802    15242    13632    12974 
   12573    12872    13571    13733    14168    14958    15082    14891 
   14836    15003    15369    14805    13622    13491    13695    13333 
   13367    13945    14524    14931    14693    13979    13805    14462 
   15280    15360    14728    14345    14034    13181    12857    13655 
   14451    14696    14725    14808    14708    14000    13498    14030 
   14551    14445    14519    14779    14817    14747    14393    13837 
   13684    13949    14197    14116    13774    13865    14451    14586 
   14373    14557    14666    14405    14293    14254    14359    14725 
   14316    13371    13537    14283    14215    13767    13703    14251 
   15218    15576    15020    14585    14297    13736    13906    14774 
   14628    13733    13819    14554    14482    13923    13961    14088 
   13765    13972    14589    14488    14472    15109    14947    14143 
   14160    14154    13443    13404    13856    13674    13883    14921 
   15225    14715    14647    14786    14424    14007    14041    14347 
   14565    14492    14160    13902    13998    14185    14161    14146 
   14104    13743    13666    14303    14820    14829    14887    14966 
   14721    14424    14122    13628    13605    14223    14416    14088 
   14003    14164    14526    15125    15391    14890    14061    13578 
   13508    13486    13460    13791    14292    14350    14381    14814 
   14979    14877    14886    14496    13909    13926    14233    14457 
   14720    14670    14385    14423    14358    13867    13497    13203 
   12819    12895    13535    14284    14894    15134    15126    15458 
   15871    15499    14534    13838    13628    13608    13690    14154 
   14936    15261    14843    14345    14139    14083    13921    13308 
   12834    13477    14435    14598    14569    14682    14311    13695 
   13533    13737    14010    14293    14530    14675    14593    14281 
   14035    13965    14071    14413    14790    14997    15105    15350 
   15761    15878    15533    15061    14454    13763    13625    14326 
   15580    17277    18894    19182    17532    14477    11232     9316 
    9290    10287    11514    12672    13366    13667    13948    14118 
   14133    13697    12136    10172     9471    10416    12445    14913 
   17000    18258    18346    16532    13367    11264    11846    14350 
   16884    18207    18177    17150    15849    15207    15631    16586 
   16970    16244    14862    13524    12491    11770    11584    11824 
   11718    10964     9946     9247     9888    12634    16694    20259 
   21945    21007    17817    14511    12938    12604    12379    12162 
   11726    10686    10153    11407    13772    16209    18513    19826 
   19214    17170    14446    11755    10590    11373    12631    13643 
   14951    16132    16619    17226    17969    17563    15938    13998 
   11739     8892     6496     6158     8492    13167    18798    22697 
   22603    18609    12858     7780     5302     6654    11118    16403 
   20808    23275    23002    20875    18559    16123    13311    11219 
   10611    10952    11696    12537    13138    13749    14678    15071 
   14158    12787    11904    11223    10648    11005    12550    14445 
   16012    17432    18685    18754    17238    15395    14215    13524 
   13097    12749    12334    12482    13721    15372    16599    17166 
   16818    15427    13485    11619     9979     8673     8352     9628 
   12340    15786    19071    21024    20906    19272    17095    14931 
   13509    13471    14658    16254    17172    16544    14133    10702 
    7723     6195     6570     8874    11889    14179    15610    16534 
   17355    18594    19653    19379    18254    17516    16893    15472 
   13350    11105     9350     8986    10392    12691    14486    14943 
   14328    13768    14177    15504    16962    17652    17224    15809 
   13516    11041     9949    10874    12850    14968    16744    17338 
   16428    14704    12954    11998    12460    14098    16414    18820 
   20065    19067    15920    11750     8237     6760     7450     9517 
   12245    15006    17147    18420    18770    18141    16981    15769 
   14416    12930    11674    11103    11465    12366    13278    14276 
   15384    16260    16861    17032    16317    15157    14372    13783 
   13277    13284    13562    13691    13884    13987    13594    13108 
   13054    13493    14295    15130    15973    16984    17571    17074 
   15723    14083    12559    11295    10384    10484    11970    13865 
   15206    16055    16474    16326    15751    15024    14505    14418 
   14449    14058    13289    12718    12555    12717    13394    14496 
   15304    15392    15253    15682    16694    17265    16382    14280 
   12185    11053    10921    11338    12110    13014    13645    14235 
   14986    15322    15276    15484    15681    15445    14997    14330 
   13385    12721    12816    13693    15129    16356    16621    16140 
   15379    14289    13055    12386    12715    13778    14983    15703 
   15530    14793    14230    14061    14087    14289    14615    14650 
   14021    12899    11920    11708    12347    13315    14172    14897 
   15506    15928    15946    15417    14817    14650    14605    14310 
   14103    14314    14623    14555    13979    13066    12191    11889 
   12656    14318    15973    16927    16966    16148    14941    13829 
   12982    12618    12939    13668    14450    15259    15988    16383 
   16301    15696    14763    13921    13424    13223    12987    12402 
   11724    11383    11425    11963    13166    14777    16359    17518 
   18007    17824    16995    15685    14339    13338    13035    13629 
   14486    14631    13932    13039    12557    12669    13140    13571 
   13863    14081    14104    14094    14431    14891    15024    14835 
   14409    13832    13541    13814    14269    14536    14697    14778 
   14771    14925    15287    15556    15560    15348    15018    14656 
   14345    14154    13910    13355    12668    12181    11978    12181 
   12846    13736    14661    15535    16101    16066    15407    14517 
   14011    14108    14470    14728    14627    14044    13378    13104 
   13196    13559    14141    14661    14902    14890    14693    14408 
   14125    13838    13610    13590    13814    14206    14625    14960 
   15207    15260    15026    14731    14416    13786    13069    13058 
   13918    14945    15696    16208    16360    15924    14855    13528 
   12638    12402    12487    12715    12999    13208    13441    13836 
   14445    15365    16445    17140    17088    16432    15476    14438 
   13489    12847    12625    12545    12374    12280    12428    12769 
   13254    13795    14211    14516    14976    15526    15847    15919 
   15782    15354    14783    14458    14527    14675    14423    13680 
   12897    12509    12541    12935    13689    14725    15846    16622 
   16715    16372    15986    15600    15107    14380    13440    12553 
   11893    11539    11603    12132    13042    14071    14964    15726 
   16285    16297    15699    14823    13914    13228    13122    13593 
   14233    14602    14504    14052    13483    13074    13066    13578 
   14644    15894    16538    16434    16082    15448    14563    14095 
   14007    13918    14087    14418    14520    14450    14335    14053 
   13475    12833    12360    12060    11975    12167    12815    13967 
   15219    16086    16360    16206    15780    14952    13871    13054 
   12707    12733    13197    14095    15083    15870    16279    16178 
   15804    15552    15365    14944    14351    13907    13772    13852 
   13995    14193    14388    14288    13810    13167    12583    12364 
   12703    13451    14319    14904    14937    14652    14322    13977 
   13896    14247    14561    14504    14281    14125    14227    14688 
   15272    15626    15658    15599    15531    15205    14554    13845 
   13216    12691    12440    12572    12891    13130    13366    13967 
   14971    15877    16278    16123    15502    14712    14102    13710 
   13446    13273    13055    12706    12564    13026    13911    14902 
   15811    16297    16079    15333    14609    14184    14058    14291 
   14538    14391    14013    13676    13497    13522    13671    13819 
   13936    14118    14481    14887    15068    15037    14963    14827 
   14574    14211    13753    13443    13501    13776    14084    14239 
   14197    14300    14600    14976    15572    16168    16276    15635 
   14523    13575    12980    12491    12091    12081    12351    12692 
   13437    14500    15454    16209    16541    16421    15975    15196 
   14291    13394    12663    12236    12177    12702    13751    14998 
   15807    15755    15340    14897    14488    14389    14451    14362 
   14141    13918    13737    13680    13979    14428    14650    14729 
