Origin Time       2025/03/28 03:50:00
Lat.              35.403
Long.             140.360
Depth. (km)       54
Mag.              4.4
Station Code      CHB010
Station Lat.      35.7086
Station Long.     140.5637
Station Height(m) 9
Record Time       2025/03/28 03:50:57
Sampling Freq(Hz) 100Hz
Duration Time(s)  62
Dir.              U-D
Scale Factor      7845(gal)/8223790
Max. Acc. (gal)   2.679
Last Correction   2025/03/28 03:50:56
Memo.             
[...]
   27256    27245    27253    27256    27247    27253    27256    27251 
   27248    27243    27256    27271    27251    27236    27252    27261 
   27252    27244    27249    27249    27241    27243    27256    27263 
   27249    27237    27241    27245    27245    27252    27245    27240 
   27249    27252    27249    27248    27251    27256    27243    27233 
   27249    27263    27255    27244    27241    27244    27249    27252 
   27252    27243    27233    27251    27271    27253    27230    27240 
   27259    27265    27255    27237    27238    27261    27261    27240 
   27238    27245    27243    27247    27255    27252    27252    27247 
   27236    27253    27263    27238    27234    27253    27257    27245 
   27243    27259    27265    27245    27236    27248    27256    27252 
   27247    27245    27257    27257    27245    27248    27251    27251 
   27256    27243    27237    27265    27257    27222    27238    27271 
   27264    27247    27237    27240    27260    27263    27243    27244 
   27253    27245    27243    27252    27268    27268    27236    27229 
   27257    27261    27248    27248    27256    27264    27252    27243 
   27264    27263    27244    27252    27256    27247    27255    27259 
   27249    27253    27264    27267    27253    27225    27232    27271 
   27275    27255    27249    27249    27253    27256    27249    27252 
   27259    27259    27260    27268    27265    27253    27248    27249 
   27255    27252    27252    27267    27261    27240    27251    27270 
   27264    27243    27230    27248    27268    27263    27255    27265 
   27272    27253    27230    27237    27252    27243    27240    27256 
   27259    27248    27245    27252    27261    27257    27244    27245 
   27249    27247    27253    27256    27245    27248    27253    27248 
   27247    27245    27247    27259    27265    27252    27234    27237 
   27247    27251    27249    27241    27240    27247    27244    27241 
   27249    27255    27251    27243    27236    27244    27251    27243 
   27247    27263    27259    27249    27241    27238    27251    27261 
   27256    27243    27237    27247    27255    27255    27257    27256 
   27244    27233    27236    27248    27264    27265    27244    27233 
   27251    27260    27248    27245    27255    27260    27253    27241 
   27237    27251    27264    27255    27237    27243    27256    27261 
   27260    27253    27253    27248    27237    27240    27244    27248 
   27263    27263    27253    27245    27236    27243    27268    27272 
   27247    27228    27241    27261    27260    27243    27247    27260 
   27251    27241    27253    27263    27256    27243    27236    27247 
   27259    27253    27251    27251    27238    27238    27249    27251 
   27251    27251    27248    27243    27236    27240    27257    27267 
   27259    27256    27251    27230    27228    27252    27270    27253 
   27237    27248    27253    27255    27252    27240    27251    27257 
   27236    27234    27248    27251    27264    27261    27236    27241 
   27260    27252    27240    27245    27255    27255    27248    27249 
   27245    27247    27259    27255    27247    27253    27249    27248 
   27270    27267    27245    27241    27240    27244    27251    27252 
   27253    27255    27255    27253    27247    27247    27252    27249 
   27247    27257    27264    27253    27247    27260    27257    27240 
   27259    27276    27257    27248    27255    27252    27251    27256 
   27257    27253    27251    27256    27260    27253    27247    27252 
   27253    27248    27252    27253    27248    27253    27256    27252 
   27252    27248    27243    27249    27259    27260    27240    27180 
   27101    27078    27095    27037    26943    26990    27147    27129 
   26894    26829    27132    27484    27615    27652    27654    27448 
   27211    27390    27772    27711    27253    27078    27468    27842 
   27591    27148    27344    27950    27927    27054    26474    27000 
   27751    27658    27082    26874    26955    26873    26902    27317 
   27270    26168    25357    26040    26917    26709    26671    27765 
   28412    27905    28080    29083    28929    28142    28416    28534 
   27186    25971    26190    26520    25843    25567    26924    27996 
   27014    26036    26928    27923    27438    26364    25855    26374 
   27687    28883    29323    29020    28310    27896    28340    28848 
   28111    26765    26400    26731    26766    26885    27090    26411 
   25726    26528    27434    26954    26504    27028    27191    26553 
   26616    27957    28864    28148    26746    25774    25834    27225 
   28642    28119    26393    26175    27549    28189    27615    27275 
   27446    27325    27156    27379    27191    26593    27133    28545 
   28555    27341    26982    27072    26671    26898    27544    27071 
   26437    27051    27615    26921    26183    26731    27832    27751 
   26438    25947    27317    28707    28236    26897    26824    28128 
   29095    28497    27006    26530    27410    27669    26778    26677 
   27411    26917    25694    25945    27114    27407    27079    27139 
   27645    27862    27417    27379    28088    27970    27008    26993 
   27830    27928    27157    26694    26941    27419    27966    28065 
   26947    25952    26701    27409    26287    25492    26865    28294 
   27662    26457    26887    28086    28075    27494    27810    28084 
   27290    26585    26697    27002    27233    27376    27388    27348 
   26974    26377    26640    27955    28628    27656    26345    26076 
   26754    27668    27939    27418    27162    27571    27882    27754 
   27356    27033    27265    27618    27180    26562    26971    27843 
   27780    26859    26223    26289    26955    27955    28146    27257 
   26946    27653    27969    27415    26534    26103    27054    28567 
   28391    26793    26447    27638    28001    27130    26821    27210 
   27175    26998    27314    27656    27398    26874    26981    27392 
   27029    26684    27448    27958    27303    26923    27264    27322 
   27234    27379    26936    26161    26848    28458    28258    26485 
   25963    27047    27731    27144    26439    27174    28663    28559 
   27025    26522    27410    27892    27496    27376    27649    27535 
   27556    28082    27579    25861    25444    26896    27677    27143 
   27432    28358    27600    26339    27153    28291    27639    27270 
   28389    28328    26019    24571    25677    26727    26342    26739 
   28298    28534    27319    27045    28023    28431    27753    27041 
   26887    26865    26720    27137    28316    28865    27700    26110 
   26235    27718    28204    27089    26127    26457    27008    26673 
   26249    26597    27214    27615    27801    27653    27315    27338 
   27714    27797    27672    27774    27491    26744    26869    27807 
   27922    26927    26095    26341    27082    27132    26921    27565 
   28085    27384    26704    27147    27958    28047    27541    27481 
   27824    27604    27117    26912    26554    26388    27020    27406 
   26917    26897    27681    27554    26362    26284    27777    28606 
   27893    27352    27562    27274    26622    26491    26431    26179 
   26455    27473    28324    28107    27465    27449    27531    27368 
   27580    27652    27020    26703    27140    27400    27141    27014 
   27511    28158    28073    27681    27849    27745    26759    26183 
   26612    27005    26766    26476    26639    26902    27017    27337 
   27745    27673    27179    26940    27475    28335    28306    27191 
   26302    26327    26711    27383    28335    28509    27704    27135 
   27153    27233    27357    27503    27229    26541    26204    26528 
   26520    25899    26249    27820    28402    27526    27342    28116 
   28090    27463    27465    27591    27267    27225    27546    27395 
   26966    27112    27510    27367    26955    26743    26763    27086 
   27270    26908    26775    27203    27298    27059    27217    27530 
   27649    27757    27866    27785    27276    26705    26927    27457 
   27156    26712    27302    27967    27529    27214    28000    28142 
   26859    26165    26535    26501    26469    27278    27801    27475 
   27205    27368    27774    28066    27745    27025    26635    26824 
   27125    26815    26103    26280    27595    28379    27747    27118 
   27514    27922    27575    27225    27249    27103    26858    27013 
   27415    27560    27267    27060    27411    27695    27449    27248 
   27243    27079    26920    26784    26601    27045    27819    27553 
   26912    27369    27884    27248    26685    27309    28177    28089 
   27259    26631    26539    26801    27338    27641    27056    26396 
   26819    27557    27504    27175    27079    26935    27085    27741 
   27869    27248    27066    27656    28062    27610    27021    27346 
   27845    27334    26743    27125    27449    26979    26681    26971 
   27049    26767    26886    27383    27426    27012    26990    27567 
   27932    27546    27035    27202    27634    27422    26964    27209 
   27733    27803    27734    27657    27198    26682    26619    26717 
   26635    26719    27238    27633    27387    27054    27411    28038 
   27932    27248    26912    27018    27139    27315    27585    27562 
   27392    27569    27504    26840    26782    27365    27194    26671 
   26775    26824    26586    26828    27222    27112    27063    27568 
   27961    27630    26951    26797    27440    27788    27087    26713 
   27540    28159    27793    27218    26916    27083    27746    28058 
   27473    26844    26987    27514    27511    26766    26291    26936 
   27743    27425    26777    27090    27460    26842    26615    27801 
   28603    27734    26921    27646    28649    28505    27881    27781 
   27724    27118    26742    27318    27866    27361    26697    26798 
   26947    26720    26788    27137    27193    27136    27183    26919 
   26568    26917    27492    27317    26924    27118    27141    26245 
   25498    26023    26947    26825    26041    26123    27054    27268 
   26671    26794    27629    27778    27361    27378    27730    28039 
   28142    27664    26913    26703    27022    27522    28034    28134 
   27653    27176    27195    27508    27711    27606    27442    27843 
   28548    28323    27341    27256    28097    28159    27249    26828 
   27079    26981    26613    26647    26725    26361    26145    26636 
   27172    27006    26590    26777    27492    27969    27940    27668 
   27292    26936    26784    26835    26963    27252    27827    28182 
   27877    27564    27804    28139    28120    27688    26987    26617 
   26879    27086    26671    26231    26542    27180    27272    27044 
   27218    27598    27476    27009    26977    27306    27326    27098 
   27056    27279    27576    27436    26754    26514    27198    27874 
   28113    28432    28522    27967    27561    27614    27279    26712 
   27062    27986    27967    27049    26620    26897    26946    26604 
   26667    27209    27313    26964    27113    27587    27437    26878 
   26761    27014    27224    27480    27623    27229    26622    26569 
   27201    27845    27904    27530    27056    26620    26508    26769 
   26933    26794    26730    27049    27530    27757    27718    27688 
   27708    27648    27546    27407    27036    26496    26226    26492 
   27099    27661    27949    27986    27881    27681    27480    27369 
   27183    26877    26967    27589    27982    27815    27625    27645 
   27577    27340    27187    27190    27098    26905    26920    27121 
   27162    27025    27076    27328    27371    27108    26739    26443 
   26457    26743    26883    26793    26913    27297    27469    27361 
   27234    27043    26792    26793    27135    27373    27217    27147 
   27612    28090    27982    27745    27980    28255    27889    27184 
   26933    27182    27423    27491    27425    27221    27025    26933 
   26840    26774    26879    27013    26947    26862    26940    26933 
   26680    26514    26682    26858    26740    26609    26769    27139 
   27476    27697    28074    28541    28570    28312    28304    28393 
   28163    27560    26885    26608    26678    26551    26276    26362 
   26932    27838    28709    28953    28593    28255    28136    27889 
   27364    26819    26370    25974    25825    25924    25902    25924 
   26460    27051    26937    26554    26692    27089    27071    26734 
   26855    27623    28225    28240    28090    27930    27585    27334 
   27592    28073    28155    27912    27872    28154    28472    28543 
   28287    27823    27297    26827    26523    26399    26343    26284 
   26302    26528    27152    28111    28629    28125    27329    27172 
   27360    27176    26646    26079    25600    25438    25655    25860 
   25928    26258    26912    27421    27602    27797    28210    28472 
   28196    27704    27507    27351    26879    26528    26676    26962 
   27081    27209    27491    27861    28202    28398    28470    28476 
   28301    27989    27850    27900    27834    27637    27564    27533 
   27265    26959    26998    27234    27198    26758    26245    25915 
   25667    25458    25470    25578    25531    25596    26076    26744 
   27291    27615    27654    27444    27272    27430    27718    27692 
   27440    27413    27618    27807    28113    28775    29555    30002 
   30059    29867    29343    28603    28007    27465    26761    26121 
   25731    25502    25447    25544    25637    25721    25829    25917 
   26098    26415    26754    27136    27491    27575    27492    27642 
   28028    28277    28209    27954    27630    27318    27145    27064 
   26929    26900    27232    27729    27920    27720    27481    27388 
   27237    27022    27048    27225    27129    26809    26671    26788 
   26967    27206    27579    27853    27787    27612    27538    27315 
   26901    26673    26711    26777    26867    27052    27180    27229 
   27369    27515    27457    27317    27317    27400    27449    27533 
   27741    28058    28318    28246    27896    27683    27604    27270 
   26850    26851    27025    26792    26399    26369    26474    26342 
   26235    26461    26767    26866    27055    27602    27949    27695 
   27504    27753    27727    27224    27094    27529    27741    27560 
   27484    27448    27132    26801    26840    27054    27048    26979 
   27230    27637    27808    27838    28082    28409    28336    27951 
   27733    27575    27121    26615    26454    26542    26630    26743 
   26920    26983    26885    26866    26973    26910    26703    26690 
   26782    26673    26557    26762    27063    27035    26801    26773 
   26936    27040    27090    27226    27442    27666    27959    28309 
   28429    28246    28170    28398    28557    28413    28100    27618 
   26989    26577    26543    26596    26612    26700    26804    26870 
   26970    27004    26887    26802    26882    27020    27174    27314 
   27241    27045    27141    27500    27733    27758    27773    27901 
   28039    28031    27986    28019    27927    27668    27565    27683 
   27612    27249    27000    26981    26935    26840    26848    26892 
   26731    26347    26111    26245    26492    26640    26757    26848 
   26886    26869    26792    26758    26893    27117    27228    27211 
   27272    27448    27561    27615    27754    27888    27803    27598 
   27467    27365    27292    27395    27661    27872    27889    27846 
   27885    27828    27507    27122    26905    26815    26719    26578 
   26507    26657    26952    27135    27110    27036    27051    27139 
   27286    27484    27565    27409    27163    27040    27095    27222 
   27286    27328    27483    27707    27862    27938    27919    27683 
   27286    27049    27045    26998    26846    26825    26991    27140 
   27268    27500    27676    27704    27819    28017    27997    27706 
   27349    27113    27012    26964    26962    26946    26809    26692 
   26781    26954    27056    27151    27238    27187    26971    26770 
   26769    26851    26738    26496    26464    26676    26781    26654 
   26577    26711    26931    27091    27160    27311    27666    28061 
   28314    28413    28448    28489    28476    28414    28347    28169 
   27904    27738    27688    27724    27897    28105    28202    28189 
   28017    27567    26921    26380    26076    25871    25671    25520 
   25474    25566    25759    26023    26418    26852    27093    27113 
   27085    27086    27028    26831    26655    26678    26843    27086 
   27403    27726    28067    28489    28869    29000    28833    28498 
   28125    27764    27457    27222    27041    26893    26742    26669 
   26784    26997    27174    27352    27537    27591    27456    27291 
   27209    27149    27083    26991    26858    26786    26825    26897 
   26973    27071    27217    27383    27496    27572    27695    27830 
   27855    27714    27438    27175    27102    27226    27395    27460 
   27375    27237    27174    27118    26882    26532    26338    26320 
   26322    26330    26449    26721    27036    27284    27523    27805 
   28088    28327    28453    28395    28179    27893    27626    27472 
   27452    27422    27278    27136    27133    27176    27081    26878 
   26765    26744    26692    26662    26777    26958    27032    26964 
   26925    27051    27216    27295    27365    27442    27519    27670 
   27787    27730    27615    27508    27317    27028    26716    26493 
   26435    26476    26566    26766    27060    27306    27430    27568 
   27832    28039    27985    27801    27654    27513    27373    27338 
   27398    27436    27405    27388    27434    27480    27484    27488 
   27550    27646    27679    27621    27499    27346    27218    27093 
   26887    26646    26472    26333    26198    26172    26281    26374 
   26399    26501    26769    27081    27301    27411    27450    27490 
   27577    27683    27780    27872    27930    27905    27819    27754 
   27735    27689    27579    27499    27531    27587    27568    27531 
   27519    27441    27247    27054    26921    26721    26424    26235 
   26291    26473    26642    26819    27064    27319    27472    27527 
   27548    27496    27371    27287    27292    27291    27222    27125 
   27048    27006    27031    27168    27379    27503    27526    27623 
   27807    27908    27904    27897    27903    27858    27756    27618 
   27407    27118    26866    26732    26693    26740    26886    27078 
   27234    27332    27426    27519    27506    27357    27199    27122 
   27072    26960    26860    26901    26998    26989    26920    26897 
   26882    26842    26805    26806    26887    27017    27130    27230 
   27324    27391    27425    27438    27440    27425    27396    27445 
   27633    27812    27846    27847    27897    27878    27769    27689 
   27679    27646    27508    27301    27102    26928    26781    26674 
   26605    26605    26701    26854    26928    26817    26646    26615 
   26724    26867    26997    27124    27303    27511    27625    27611 
   27587    27637    27673    27626    27589    27657    27812    28001 
   28152    28174    28042    27838    27638    27434    27194    26920 
