Origin Time       2025/03/28 03:50:00
Lat.              35.403
Long.             140.360
Depth. (km)       54
Mag.              4.4
Station Code      CHB019
Station Lat.      35.1106
Station Long.     139.8360
Station Height(m) 5
Record Time       2025/03/28 03:51:01
Sampling Freq(Hz) 100Hz
Duration Time(s)  66
Dir.              E-W
Scale Factor      7845(gal)/8223790
Max. Acc. (gal)   2.417
Last Correction   2025/03/28 03:51:01
Memo.             
[...]
    4291     4286     4286     4286     4288     4291     4290     4291 
    4293     4291     4291     4290     4286     4287     4290     4287 
    4288     4293     4290     4288     4288     4288     4288     4288 
    4287     4294     4297     4294     4298     4294     4293     4302 
    4301     4294     4293     4291     4294     4295     4294     4297 
    4295     4288     4288     4294     4293     4294     4295     4290 
    4288     4288     4284     4287     4288     4284     4288     4293 
    4288     4291     4290     4287     4293     4293     4287     4286 
    4282     4283     4293     4290     4284     4283     4283     4283 
    4283     4284     4287     4290     4286     4286     4288     4282 
    4280     4284     4282     4282     4282     4279     4282     4280 
    4276     4283     4294     4287     4282     4282     4282     4288 
    4287     4280     4291     4294     4279     4276     4284     4288 
    4293     4287     4286     4297     4293     4284     4287     4288 
    4291     4297     4293     4290     4293     4290     4293     4299 
    4297     4294     4297     4295     4295     4299     4294     4294 
    4303     4303     4302     4309     4309     4303     4301     4299 
    4305     4306     4299     4298     4295     4293     4297     4298 
    4293     4297     4302     4295     4290     4295     4298     4297 
    4298     4298     4301     4305     4302     4305     4311     4313 
    4315     4325     4332     4332     4326     4321     4320     4321 
    4313     4297     4280     4266     4249     4233     4221     4207 
    4193     4187     4193     4199     4207     4217     4221     4222 
    4224     4220     4212     4212     4214     4221     4239     4261 
    4286     4325     4382     4436     4464     4464     4452     4441 
    4418     4357     4261     4182     4153     4168     4197     4224 
    4261     4332     4417     4473     4479     4446     4414     4396 
    4357     4274     4172     4094     4059     4064     4097     4141 
    4199     4287     4401     4503     4558     4572     4553     4498 
    4384     4225     4077     3973     3936     3969     4037     4122 
    4218     4314     4407     4486     4544     4603     4662     4675 
    4621     4527     4428     4329     4240     4180     4131     4064 
    4008     3987     4012     4064     4128     4197     4240     4237 
    4210     4201     4229     4257     4256     4261     4298     4340 
    4380     4413     4438     4475     4510     4525     4502     4399 
    4232     4104     4068     4090     4108     4136     4221     4351 
    4488     4604     4671     4688     4649     4522     4315     4090 
    3921     3867     3908     3985     4068     4153     4257     4382 
    4471     4479     4448     4440     4442     4387     4263     4136 
    4068     4081     4155     4236     4283     4314     4351     4355 
    4286     4179     4105     4102     4137     4163     4195     4274 
    4382     4487     4569     4603     4603     4584     4527     4438 
    4322     4207     4144     4126     4124     4136     4153     4174 
    4207     4257     4324     4388     4423     4449     4479     4503 
    4499     4440     4340     4247     4179     4108     4025     3967 
    3985     4089     4237     4369     4464     4514     4513     4495 
    4463     4379     4264     4162     4090     4082     4126     4182 
    4248     4334     4432     4518     4542     4506     4440     4344 
    4230     4140     4102     4135     4205     4257     4276     4287 
    4303     4321     4305     4251     4197     4182     4201     4210 
    4185     4141     4098     4074     4072     4078     4110     4199 
    4332     4453     4526     4572     4608     4617     4579     4476 
    4309     4152     4102     4159     4259     4368     4477     4590 
    4712     4819     4841     4734     4545     4352     4183     4020 
    3862     3753     3751     3856     4000     4125     4236     4345 
    4438     4477     4452     4395     4329     4257     4195     4140 
    4093     4098     4193     4324     4390     4345     4234     4140 
    4097     4089     4097     4108     4114     4140     4203     4293 
    4375     4428     4441     4396     4295     4178     4105     4095 
    4155     4290     4483     4685     4854     4958     4993     4946 
    4788     4550     4317     4132     4006     3948     3939     3947 
    3963     3997     4043     4081     4108     4162     4272     4414 
    4538     4622     4666     4679     4646     4569     4463     4313 
    4139     3997     3894     3820     3804     3856     3973     4128 
    4297     4475     4658     4789     4816     4743     4590     4401 
    4220     4059     3932     3852     3827     3883     4013     4158 
    4264     4315     4325     4306     4275     4252     4240     4241 
    4268     4325     4383     4402     4382     4334     4249     4144 
    4066     4024     4020     4070     4162     4274     4405     4548 
    4665     4714     4708     4707     4708     4666     4577     4471 
    4375     4299     4252     4226     4197     4158     4126     4121 
    4152     4194     4241     4317     4433     4558     4652     4675 
    4617     4500     4333     4129     3936     3796     3724     3720 
    3780     3878     3977     4052     4098     4135     4190     4248 
    4286     4291     4270     4267     4303     4338     4356     4382 
    4434     4513     4590     4654     4711     4752     4780     4797 
    4776     4696     4572     4425     4299     4212     4148     4105 
    4089     4106     4131     4147     4175     4222     4286     4341 
    4347     4311     4263     4212     4183     4189     4207     4217 
    4224     4251     4297     4341     4380     4409     4401     4347 
    4257     4149     4056     4000     3963     3931     3896     3875 
    3898     3973     4067     4166     4267     4374     4469     4521 
    4514     4450     4352     4240     4141     4078     4062     4091 
    4152     4209     4247     4268     4287     4333     4401     4453 
    4482     4507     4554     4637     4726     4762     4738     4695 
    4657     4603     4525     4445     4392     4367     4345     4313 
    4259     4191     4135     4121     4186     4303     4413     4498 
    4540     4496     4365     4190     4037     3966     3966     3990 
    4009     4018     4017     4002     3979     3950     3931     3950 
    4012     4122     4279     4438     4560     4614     4585     4504 
    4413     4338     4283     4259     4278     4313     4309     4240 
    4153     4104     4101     4139     4207     4309     4432     4554 
    4677     4789     4855     4858     4797     4675     4504     4317 
    4140     3994     3861     3732     3653     3651     3734     3896 
    4077     4224     4338     4414     4433     4403     4338     4241 
    4140     4068     4051     4116     4257     4450     4650     4793 
    4855     4843     4781     4716     4646     4564     4500     4445 
    4378     4321     4284     4260     4248     4240     4210     4167 
    4122     4070     4014     3967     3925     3896     3897     3966 
    4114     4295     4450     4577     4668     4699     4669     4579 
    4428     4245     4082     3974     3929     3925     3942     3978 
    4045     4133     4229     4337     4430     4482     4502     4498 
    4476     4467     4477     4518     4573     4580     4506     4391 
    4274     4163     4066     3991     3939     3900     3879     3890 
    3921     3991     4114     4248     4357     4417     4419     4386 
    4330     4266     4220     4201     4210     4244     4274     4287 
    4320     4378     4433     4476     4510     4538     4569     4595 
    4603     4614     4625     4606     4558     4482     4357     4206 
    4074     3990     3960     3986     4083     4229     4384     4527 
    4630     4675     4666     4617     4544     4464     4380     4305 
    4230     4137     4025     3905     3792     3713     3680     3692 
    3763     3896     4072     4266     4423     4514     4544     4522 
    4475     4430     4387     4336     4309     4325     4359     4375 
    4356     4311     4263     4206     4163     4182     4286     4449 
    4627     4779     4858     4858     4796     4673     4498     4322 
    4179     4085     4039     4017     3985     3916     3808     3703 
    3624     3586     3611     3693     3821     3974     4120     4230 
    4295     4325     4355     4388     4425     4483     4573     4660 
    4696     4696     4689     4661     4607     4545     4484     4442 
    4425     4422     4425     4414     4374     4344     4359     4382 
    4386     4378     4374     4371     4338     4278     4226     4193 
    4170     4167     4205     4282     4371     4460     4538     4590 
    4606     4596     4563     4482     4363     4248     4180     4158 
    4147     4117     4070     4032     4027     4062     4112     4141 
    4143     4120     4081     4033     3996     3982     4014     4087 
    4170     4230     4271     4302     4320     4311     4268     4185 
    4093     4039     4037     4067     4108     4156     4229     4347 
    4499     4639     4726     4754     4735     4658     4538     4394 
    4237     4098     4002     3958     3969     4002     4032     4068 
    4101     4110     4097     4077     4101     4199     4359     4554 
    4742     4888     4973     4958     4835     4661     4496     4376 
    4326     4347     4430     4568     4731     4873     4976     5040 
    5059     4985     4793     4500     4158     3832     3561     3357 
    3233     3194     3229     3307     3385     3453     3519     3584 
    3639     3689     3769     3898     4066     4271     4502     4739 
    4954     5101     5161     5138     5026     4846     4652     4483 
    4372     4337     4364     4426     4503     4603     4725     4814 
    4819     4749     4630     4480     4332     4185     4023     3847 
    3678     3530     3412     3342     3337     3410     3568     3789 
    4033     4259     4440     4583     4712     4839     4958     5061 
    5139     5196     5224     5209     5171     5134     5108     5096 
    5074     5026     4959     4876     4799     4752     4718     4657 
    4561     4421     4218     3951     3638     3326     3076     2941 
    2929     3018     3171     3369     3593     3808     3979     4074 
    4068     3987     3869     3728     3581     3442     3331     3285 
    3308     3370     3465     3600     3781     4013     4271     4525 
    4737     4860     4864     4770     4619     4434     4252     4110 
    4035     4041     4135     4284     4438     4567     4681     4807 
    4958     5146     5356     5536     5632     5602     5413     5096 
    4742     4418     4163     4008     3955     4005     4140     4314 
    4504     4715     4914     5067     5154     5166     5130     5062 
    4961     4849     4741     4629     4514     4380     4228     4087 
    3979     3912     3885     3859     3812     3759     3703     3651 
    3624     3611     3616     3651     3717     3808     3909     3997 
    4048     4041     3981     3885     3802     3792     3889     4081 
    4324     4554     4725     4837     4903     4907     4845     4741 
    4606     4430     4220     3971     3692     3395     3098     2851 
    2716     2722     2876     3172     3596     4101     4619     5062 
    5348     5449     5377     5159     4828     4405     3947     3570 
    3362     3356     3554     3898     4302     4700     4990     5071 
    4931     4606     4171     3734     3387     3200     3215     3429 
    3796     4251     4720     5132     5418     5566     5607     5563 
    5460     5344     5243     5186     5189     5224     5265     5313 
    5347     5327     5236     5078     4889     4722     4610     4557 
    4556     4604     4704     4854     5024     5175     5275     5294 
    5223     5085     4878     4600     4287     3978     3697     3464 
    3277     3126     2995     2863     2714     2547     2396     2315 
    2326     2401     2520     2670     2826     2980     3099     3150 
    3157     3169     3244     3416     3669     3954     4239     4471 
    4603     4634     4585     4496     4430     4441     4544     4708 
    4892     5069     5208     5285     5285     5209     5100     5012 
    4969     4951     4909     4793     4584     4313     4029     3793 
    3670     3701     3879     4159     4473     4741     4893     4897 
    4756     4523     4291     4124     4060     4132     4338     4642 
    4980     5269     5464     5563     5563     5475     5317     5104 
    4877     4691     4567     4526     4557     4610     4642     4623 
    4542     4428     4305     4186     4091     4031     4001     3990 
    3969     3882     3703     3454     3196     2983     2841     2783 
    2830     2994     3249     3557     3869     4145     4374     4550 
    4681     4760     4774     4727     4627     4502     4380     4283 
    4230     4251     4349     4471     4540     4513     4375     4147 
    3882     3628     3418     3295     3287     3397     3624     3933 
    4295     4684     5047     5324     5451     5393     5184     4887 
    4575     4324     4176     4143     4212     4345     4494     4625 
    4738     4862     5031     5273     5568     5857     6066     6130 
    6007     5694     5208     4588     3886     3160     2508     2027 
    1773     1756     1948     2286     2700     3102     3426     3642 
    3746     3778     3813     3896     4037     4217     4395     4521 
    4552     4482     4360     4247     4164     4122     4121     4131 
    4129     4113     4070     4008     3955     3942     3994     4117 
    4302     4545     4812     5051     5228     5332     5364     5336 
    5260     5155     5059     4989     4936     4918     4958     5044 
    5152     5263     5358     5428     5471     5468     5421     5360 
    5297     5252     5252     5277     5300     5308     5262     5127 
    4900     4592     4217     3796     3364     2972     2677     2521 
    2517     2644     2874     3172     3485     3736     3865     3846 
    3704     3485     3254     3076     2999     3021     3107     3213 
    3276     3258     3140     2934     2706     2532     2465     2544 
    2798     3196     3662     4120     4514     4804     4966     4984 
    4873     4698     4521     4394     4357     4428     4617     4930 
    5343     5786     6185     6481     6625     6610     6462     6208 
    5890     5555     5244     4989     4807     4707     4691     4730 
    4792     4842     4850     4815     4749     4658     4557     4464 
    4391     4334     4268     4162     3983     3720     3396     3052 
    2741     2527     2434     2467     2629     2897     3248     3647 
    4041     4382     4633     4780     4806     4699     4500     4276 
    4083     3975     3977     4075     4249     4456     4642     4749 
    4741     4637     4484     4351     4309     4391     4598     4891 
    5178     5377     5445     5351     5101     4762     4415     4129 
    3940     3843     3821     3866     3936     3977     3956     3873 
    3723     3516     3279     3041     2851     2745     2737     2839 
    3046     3331     3654     3974     4268     4544     4803     5057 
    5325     5601     5869     6104     6257     6289     6192     5981 
    5701     5387     5057     4723     4411     4140     3915     3763 
    3701     3703     3730     3770     3819     3867     3904     3936 
    3983     4036     4087     4125     4120     4056     3942     3788 
    3607     3419     3253     3129     3049     3013     3032     3095 
    3190     3316     3493     3738     4043     4351     4604     4776 
    4822     4734     4542     4284     4025     3828     3716     3711 
    3835     4089     4465     4924     5413     5880     6278     6569 
    6741     6790     6720     6558     6331     6085     5883     5748 
    5661     5590     5497     5355     5167     4934     4650     4340 
    4033     3777     3603     3507     3466     3447     3399     3288 
    3118     2917     2704     2509     2369     2296     2297     2358 
    2454     2577     2720     2875     3045     3229     3443     3700 
    3993     4318     4635     4864     4969     4955     4831     4645 
    4450     4267     4113     3991     3869     3747     3643     3580 
    3596     3705     3886     4117     4376     4621     4823     4954 
    4999     4984     4950     4938     4968     5023     5080     5115 
    5117     5082     5026     4972     4936     4947     5026     5157 
    5316     5467     5589     5660     5636     5505     5277     4959 
    4602     4261     3963     3735     3585     3495     3451     3446 
    3460     3480     3495     3496     3488     3473     3450     3431 
    3434     3478     3591     3761     3943     4116     4267     4391 
    4484     4529     4510     4449     4364     4280     4247     4282 
    4390     4560     4757     4954     5139     5290     5391     5436 
    5409     5296     5108     4862     4571     4257     3951     3682 
    3483     3360     3327     3387     3507     3673     3867     4050 
    4193     4286     4311     4272     4176     4043     3919     3832 
    3798     3824     3877     3919     3950     3973     3994     4056 
    4194     4396     4639     4878     5074     5212     5281     5277 
    5211     5088     4916     4720     4515     4309     4121     3963 
    3847     3782     3750     3730     3730     3743     3754     3755 
    3751     3734     3697     3657     3622     3589     3559     3546 
    3549     3562     3591     3627     3665     3723     3805     3906 
    4031     4167     4305     4464     4639     4804     4942     5042 
    5103     5134     5150     5161     5178     5212     5251     5285 
    5306     5302     5265     5182     5061     4924     4804     4727 
    4693     4676     4661     4646     4629     4623     4646     4695 
    4764     4842     4927     5026     5117     5185     5225     5233 
    5204     5134     5012     4820     4571     4272     3936     3591 
    3260     2978     2785     2690     2686     2768     2916     3080 
    3217     3277     3248     3144     2997     2840     2716     2648 
    2654     2749     2934     3192     3495     3798     4085     4337 
    4529     4668     4766     4822     4835     4806     4738     4656 
    4575     4492     4421     4368     4332     4309     4280     4241 
    4214     4213     4247     4337     4468     4634     4838     5044 
    5211     5317     5352     5333     5283     5212     5138     5074 
    5007     4920     4810     4661     4479     4274     4067     3892 
    3762     3694     3704     3766     3839     3893     3917     3913 
    3912     3929     3971     4052     4179     4353     4584     4839 
    5086     5321     5529     5687     5790     5827     5815     5759 
    5640     5452     5208     4926     4635     4365     4131     3952 
    3829     3744     3692     3658     3620     3581     3547     3518 
    3510     3535     3574     3622     3662     3674     3654     3605 
    3535     3466     3412     3369     3346     3341     3341     3362 
    3406     3462     3545     3650     3766     3896     4037     4178 
