Origin Time       2025/03/28 03:50:00
Lat.              35.403
Long.             140.360
Depth. (km)       54
Mag.              4.4
Station Code      CHB014
Station Lat.      35.4710
Station Long.     140.0454
Station Height(m) 8
Record Time       2025/03/28 03:50:57
Sampling Freq(Hz) 100Hz
Duration Time(s)  60
Dir.              N-S
Scale Factor      7845(gal)/8223790
Max. Acc. (gal)   10.740
Last Correction   2025/03/28 03:50:57
Memo.             
[...]
    9058     9055     9063     9077     9086     9089     9086     9082 
    9086     9080     9061     9054     9053     9046     9042     9043 
    9042     9040     9047     9061     9074     9084     9096     9104 
    9100     9094     9096     9092     9086     9084     9072     9059 
    9051     9038     9034     9038     9042     9049     9059     9065 
    9066     9072     9077     9077     9074     9078     9085     9078 
    9069     9072     9070     9061     9061     9067     9065     9057 
    9054     9050     9047     9061     9070     9063     9062     9066 
    9062     9057     9050     9049     9054     9059     9057     9049 
    9043     9053     9066     9066     9070     9093     9107     9097 
    9082     9076     9074     9062     9045     9045     9050     9039 
    9027     9023     9018     9018     9032     9050     9054     9050 
    9051     9057     9072     9094     9108     9112     9104     9084 
    9066     9055     9051     9053     9055     9057     9055     9053 
    9050     9051     9057     9054     9046     9046     9054     9063 
    9063     9061     9063     9058     9046     9046     9059     9077 
    9084     9078     9081     9090     9090     9096     9105     9093 
    9072     9058     9042     9024     9013     9008     9008     9011 
    9024     9050     9062     9058     9066     9086     9101     9103 
    9105     9101     9094     9099     9096     9086     9090     9088 
    9073     9063     9058     9054     9040     9030     9040     9054 
    9055     9058     9058     9051     9051     9062     9069     9067 
    9069     9076     9081     9081     9069     9055     9058     9062 
    9063     9076     9084     9081     9078     9076     9077     9069 
    9051     9036     9028     9022     9023     9031     9036     9046 
    9061     9067     9066     9062     9062     9072     9084     9085 
    9086     9096     9099     9089     9073     9063     9058     9046 
    9032     9035     9047     9057     9062     9058     9053     9043 
    9034     9045     9055     9058     9061     9059     9055     9051 
    9042     9050     9076     9093     9092     9082     9078     9078 
    9073     9067     9069     9059     9042     9040     9049     9051 
    9051     9055     9059     9062     9062     9062     9066     9070 
    9072     9072     9076     9080     9081     9085     9096     9097 
    9081     9063     9054     9045     9045     9050     9039     9023 
    9019     9031     9055     9077     9078     9070     9074     9076 
    9063     9069     9089     9092     9078     9073     9076     9066 
    9051     9050     9063     9070     9061     9054     9057     9058 
    9050     9043     9049     9057     9063     9062     9054     9047 
    9045     9040     9055     9078     9074     9061     9063     9072 
    9069     9070     9090     9101     9090     9076     9065     9053 
    9042     9035     9039     9053     9062     9065     9063     9055 
    9045     9039     9050     9065     9063     9063     9080     9090 
    9084     9084     9088     9080     9070     9066     9061     9059 
    9059     9054     9057     9061     9057     9058     9063     9062 
    9058     9051     9046     9051     9058     9061     9074     9085 
    9074     9063     9070     9078     9076     9069     9074     9085 
    9080     9072     9074     9076     9065     9058     9058     9055 
    9047     9036     9024     9019     9024     9036     9054     9070 
    9072     9072     9084     9086     9081     9082     9086     9088 
    9080     9066     9067     9078     9062     9034     9031     9039 
    9042     9054     9067     9074     9077     9073     9063     9049 
    9039     9040     9046     9054     9059     9059     9063     9070 
    9073     9067     9059     9062     9067     9073     9084     9089 
    9080     9070     9063     9057     9058     9065     9061     9054 
    9054     9050     9047     9051     9059     9069     9069     9062 
    9059     9058     9065     9080     9092     9092     9089     9084 
    9076     9063     9053     9053     9049     9038     9039     9051 
    9062     9080     9096     9093     9088     9084     9073     9063 
    9061     9061     9069     9077     9073     9062     9057     9054 
    9051     9053     9053     9049     9050     9054     9063     9070 
    9066     9061     9062     9072     9077     9073     9073     9073 
    9066     9062     9067     9074     9077     9081     9086     9088 
    9077     9061     9054     9051     9040     9035     9043     9045 
    9038     9031     9030     9031     9032     9036     9045     9057 
    9070     9077     9086     9103     9109     9097     9085     9078 
    9072     9067     9061     9045     9036     9045     9050     9046 
    9040     9042     9042     9034     9030     9036     9047     9050 
    9053     9058     9063     9067     9066     9072     9084     9089 
    9088     9088     9092     9093     9086     9074     9065     9059 
    9051     9039     9034     9040     9045     9046     9045     9035 
    9023     9016     9019     9034     9059     9074     9081     9085 
    9085     9089     9093     9093     9088     9074     9070     9073 
    9062     9057     9062     9055     9045     9043     9042     9036 
    9036     9040     9040     9042     9047     9047     9046     9061 
    9073     9072     9073     9070     9062     9058     9065     9080 
    9089     9086     9080     9074     9070     9063     9055     9055 
    9055     9046     9046     9054     9057     9055     9055     9051 
    9049     9058     9073     9081     9077     9066     9062     9073 
    9078     9076     9070     9057     9059     9086     9093     9053 
    9027     9080     9126     9057     8961     8978     9070     9105 
    9084     9112     9173     9126     9020     9061     9197     9150 
    8965     8926     8977     8942     8965     9127     9217     9093 
    8974     9192     9494     9304     8873     8892     9181     9142 
    8912     8926     9019     8849     8637     8853     9301     9293 
    8835     8626     8869     9140     9192     9074     8910     8824 
    8878     9092     9371     9532     9594     9599     9402     9252 
    9618    10006     9616     9000     9061     9441     9382     8841 
    8441     8588     8657     8091     7612     7869     8256     8279 
    8517     9212     9697     9666     9418     9281     9383     9502 
    9406     9278     9441     9821     9784     9182     8839     9077 
    9292     9138     8743     8469     8681     9076     9051     8816 
    8869     8968     8789     8569     8672     9089     9356     9301 
    9371     9740    10035     9899     9377     8935     8733     8495 
    8306     8422     8750     8996     8966     8839     8876     9000 
    9093     9197     9371     9679     9876     9570     9018     8779 
    8815     8797     8667     8542     8637     8980     9211     9219 
    9332     9529     9539     9401     9250     9153     9092     8937 
    8785     8806     8784     8553     8380     8688     9563    10307 
   10218     9617     9058     8581     8205     8016     8058     8344 
    8676     8985     9377     9570     9451     9398     9420     9298 
    9178     9251     9433     9520     9416     9115     8723     8541 
    8654     8807     8935     9088     9148     9109     9147     9336 
    9552     9690     9744     9560     9107     8799     8919     9169 
    9146     8919     8851     8965     8961     8764     8557     8568 
    8856     9070     8903     8533     8257     8228     8503     8947 
    9346     9632     9787     9863     9960     9953     9666     9240 
    8989     9104     9433     9505     9154     8668     8182     7793 
    7773     8052     8248     8216     8190     8503     9123     9602 
    9755     9846    10006    10073     9957     9818     9701     9343 
    8808     8611     8901     9323     9528     9559     9603     9418 
    8841     8380     8442     8692     8573     8147     8039     8378 
    8711     9061     9670    10134    10057     9725     9532     9551 
    9651     9686     9531     9012     8291     7898     8028     8429 
    8860     9386    10042    10296     9848     9255     8914     8645 
    8374     8233     8278     8338     8251     8182     8217     8176 
    8210     8590     9121     9567     9906    10084    10157    10126 
    9803     9358     9108     8920     8764     8988     9410     9404 
    8995     8739     8845     8984     8846     8618     8642     8932 
    9285     9525     9698     9910     9937     9649     9366     9185 
    8876     8513     8380     8507     8772     9054     9235     9221 
    8908     8333     7836     7832     8364     8972     9217     9225 
    9211     9151     9258     9693    10125    10351    10450    10341 
   10031     9648     9115     8517     8283     8530     8769     8725 
    8685     8768     8716     8557     8599     8839     8932     8776 
    8572     8463     8537     8804     9117     9316     9352     9382 
    9535     9640     9444     8999     8715     8819     9096     9423 
    9730     9771     9439     8866     8341     8214     8453     8679 
    8795     8893     8807     8534     8521     9057     9771    10077 
    9994     9967    10076     9956     9474     9049     9057     9136 
    8810     8388     8314     8384     8468     8746     9121     9437 
    9718     9931     9960     9693     9212     8835     8734     8752 
    8777     8884     8999     8914     8662     8455     8360     8314 
    8397     8714     8958     8807     8498     8417     8684     9186 
    9684    10093    10357    10239     9707     9100     8708     8646 
    8884     9138     9150     9050     8996     8930     8866     8881 
    8911     8885     8803     8662     8522     8523     8791     9321 
    9868    10114    10026     9842     9732     9670     9636     9595 
    9310     8725     8206     7978     7904     7854     7884     8147 
    8723     9348     9612     9427     9150     9153     9262     9204 
    9223     9413     9553     9751    10057    10208    10137     9931 
    9593     9185     8847     8679     8599     8449     8384     8699 
    9216     9529     9506     9266     8985     8638     8235     8070 
    8162     8222     8239     8301     8382     8415     8361     8314 
    8380     8583     8988     9489     9815    10003    10191    10161 
    9842     9591     9543     9456     9175     8830     8696     8888 
    9309     9811    10172    10200    10000     9807     9666     9521 
    9297     8962     8506     7857     7227     7018     7157     7353 
    7635     8078     8561     8892     9093     9390     9722     9890 
    9963    10031    10007     9792     9405     9058     8965     9003 
    8964     9077     9598    10235    10619    10808    10940    10795 
   10092     9151     8503     8051     7503     7020     6912     7290 
    8029     8816     9382     9670     9782     9863     9956     9926 
    9641     9269     9061     8845     8406     7967     7736     7831 
    8383     9167     9817    10091     9713     8679     7447     6520 
    6141     6316     7110     8567    10250    11546    12172    12047 
   11313    10350     9460     8930     8938     9252     9551     9688 
    9540     9134     8714     8383     8035     7753     7871     8544 
    9425     9977     9988     9589     9066     8730     8714     8989 
    9433     9828    10048    10127    10112     9992     9736     9405 
    9062     8633     8063     7480     7171     7330     7684     7781 
    7618     7593     7998     8723     9464    10160    10894    11450 
   11502    10990    10104     9194     8565     8266     8213     8348 
    8607     8861     8964     8916     8822     8703     8619     8727 
    9076     9517     9714     9421     8883     8536     8479     8586 
    8788     9101     9495     9765     9722     9522     9398     9350 
    9293     9211     9097     8997     9024     9169     9154     8735 
    8094     7632     7531     7662     7923     8421     9213    10073 
   10647    10740    10388     9774     9154     8729     8607     8866 
    9381     9857    10150    10222    10029     9605     9126     8818 
    8742     8819     8934     8972     8930     8862     8721     8469 
    8186     7974     7904     7923     7967     8129     8411     8640 
    8830     9185     9722    10277    10632    10563    10102     9585 
    9325     9355     9417     9247     8829     8329     8017     8117 
    8654     9495    10377    10943    10895    10220     9327     8700 
    8424     8295     8206     8113     7981     7885     7909     8140 
    8695     9282     9439     9350     9447     9674     9733     9521 
    9293     9325     9504     9544     9347     8995     8727     8773 
    9153     9717    10227    10497    10592    10679    10713    10543 
   10139     9497     8645     7780     7051     6403     5800     5332 
    5111     5158     5351     5614     5992     6497     7167     8098 
    9288    10627    11916    12849    13242    13201    12897    12379 
   11715    11032    10403     9836     9290     8665     7932     7285 
    6899     6724     6670     6718     6860     7067     7358     7940 
    9066    10721    12604    14222    15043    14717    13205    10886 
    8482     6656     5667     5455     5898     6839     7962     8760 
    8810     8118     7018     5834     4838     4302     4514     5780 
    8190    11342    14584    17437    19526    20321    19453    17095 
   13767    10158     7144     5448     5148     5717     6513     7109 
    7252     6779     5761     4653     3989     3997     4572     5317 
    5737     5599     5111     4712     4710     5220     6367     8195 
   10512    12880    14823    16054    16509    16384    15900    15003 
   13664    11909     9603     6916     4614     3523     3987     5800 
    8460    11383    13994    15908    17028    17366    16827    15250 
   12638     9425     6396     4237     3319     3742     5217     6966 
    8040     7879     6446     4063     1478     -352     -864      -28 
    1792     3997     6164     8187     9979    11491    12769    13764 
   14446    14932    15176    14878    14000    12856    11734    11070 
   11234    11803    12102    11928    11403    11024    11099    11125 
   10897    10891    10966    10589     9494     7323     4303     1433 
    -561    -1165      -35     2452     5616     8935    11997    14509 
   16094    16174    14357    10937     6983     3674     1672     1073 
    1587     2845     4689     7010     9521    11885    13961    15934 
   17903    19453    19981    19149    16977    13894    10535     7553 
    5549     4672     4604     5178     6332     7569     8197     8029 
    7358     6636     6362     6633     6978     6980     6643     6249 
    6158     6450     6887     7330     7867     8522     9099     9451 
    9682    10014    10538    11080    11442    11682    11920    12124 
   12243    12214    11847    10914     9375     7672     6670     6932 
    8206     9798    11110    11776    11624    10737     9429     8155 
    7314     6959     6991     7580     8687     9667     9930     9505 
    8822     8232     7705     7137     6686     6527     6687     7233 
    8224     9512    10809    11997    13072    13863    14226    14122 
   13479    12393    10948     8931     6218     3177      583     -737 
    -319     1691     4657     7777    10450    12452    13738    14260 
   14122    13578    12862    12089    11133     9809     8267     6924 
    6102     5860     6061     6561     7337     8422     9722    11017 
   12040    12559    12552    12144    11265     9883     8399     7360 
    7018     7238     7608     7767     7585     7060     6299     5664 
    5648     6420     7751     9346    10936    12217    12954    13115 
   12873    12441    11830    10874     9522     7985     6602     5665 
    5374     5832     6963     8521    10154    11568    12631    13234 
   13284    12869    12191    11483    10917    10400     9688     8615 
    7129     5412     3925     3053     2878     3260     3904     4627 
    5501     6621     7986     9454    10755    11751    12407    12653 
   12479    11962    11298    10814    10628    10562    10412    10064 
    9580     9139     8735     8260     7855     7902     8623     9715 
   10536    10733    10454    10019     9691     9607     9718     9896 
   10000     9849     9401     8779     8113     7581     7306     7187 
    7042     6866     6791     6882     7040     7078     6887     6555 
    6358     6670     7638     8993    10278    11221    11843    12208 
   12235    11989    11734    11573    11371    11017    10593    10204 
    9792     9261     8681     8179     7761     7404     7183     7206 
    7418     7615     7709     7800     7971     8217     8576     9216 
   10246    11403    12197    12379    12000    11160     9964     8606 
    7402     6637     6362     6482     6943     7673     8499     9193 
    9607     9802     9922    10010     9979     9718     9285     8957 
    8974     9381    10107    11014    11834    12191    11874    11028 
    9950     8818     7692     6644     5807     5356     5296     5402 
    5521     5745     6234     6998     7892     8768     9474     9856 
   10029    10312    10829    11469    12009    12251    12204    11944 
   11485    10968    10598    10439    10461    10519    10366     9857 
    9062     8218     7543     7091     6763     6447     6195     6170 
    6463     7015     7639     8136     8417     8440     8251     8097 
    8205     8610     9239     9973    10692    11326    11774    11920 
   11751    11302    10633     9882     9153     8532     8083     7762 
    7518     7391     7383     7412     7426     7408     7398     7487 
    7762     8251     8970     9946    11133    12303    13127    13404 
   13096    12226    10903     9309     7661     6218     5236     4866 
    5053     5593     6339     7229     8233     9312    10312    11014 
   11284    11159    10851    10669    10775    11088    11445    11754 
   11938    11892    11573    11003    10208     9252     8268     7418 
    6872     6721     6959     7499     8120     8538     8592     8276 
    7713     7109     6604     6250     6107     6187     6434     6860 
    7533     8432     9406    10250    10821    11040    10890    10489 
   10007     9552     9174     8830     8459     8131     7996     8132 
    8557     9278    10206    11109    11781    12194    12399    12393 
   12163    11669    10894     9963     9085     8486     8293     8395 
    8565     8658     8622     8473     8241     7908     7493     7067 
    6723     6577     6655     6864     7157     7533     7981     8514 
    9107     9639    10015    10254    10374    10343    10103     9648 
    9124     8749     8649     8791     9034     9255     9436     9622 
    9806     9900     9873     9753     9574     9379     9194     8993 
    8745     8468     8222     8047     7948     8009     8301     8716 
    9097     9348     9445     9432     9352     9261     9288     9533 
    9910    10264    10552    10804    10982    10999    10774    10322 
    9701     8943     8121     7373     6867     6733     7015     7673 
    8613     9649    10501    10928    10858    10389     9668     8787 
