Origin Time       2025/03/28 03:50:00
Lat.              35.403
Long.             140.360
Depth. (km)       54
Mag.              4.4
Station Code      CHB003
Station Lat.      35.7926
Station Long.     140.0577
Station Height(m) 21
Record Time       2025/03/28 03:51:00
Sampling Freq(Hz) 100Hz
Duration Time(s)  60
Dir.              N-S
Scale Factor      7845(gal)/8223790
Max. Acc. (gal)   9.999
Last Correction   2025/03/28 03:51:00
Memo.             
[...]
    4158     4144     4137     4139     4145     4166     4178     4164 
    4149     4145     4143     4147     4151     4149     4149     4145 
    4145     4162     4171     4170     4162     4143     4129     4128 
    4128     4139     4148     4133     4121     4131     4143     4158 
    4164     4164     4166     4153     4141     4147     4156     4163 
    4166     4158     4147     4136     4135     4136     4129     4124 
    4128     4139     4151     4152     4141     4133     4139     4148 
    4159     4170     4170     4163     4163     4166     4160     4151 
    4143     4131     4126     4139     4151     4151     4148     4147 
    4141     4132     4128     4133     4141     4143     4145     4151 
    4143     4132     4140     4152     4158     4168     4179     4172 
    4159     4155     4155     4152     4153     4149     4139     4137 
    4135     4125     4133     4149     4149     4149     4145     4136 
    4143     4149     4147     4147     4147     4151     4156     4152 
    4152     4163     4166     4155     4143     4145     4145     4137 
    4133     4137     4141     4155     4168     4163     4151     4144 
    4145     4159     4170     4172     4160     4136     4125     4132 
    4148     4163     4162     4149     4139     4131     4126     4136 
    4158     4170     4168     4162     4151     4141     4145     4159 
    4168     4166     4151     4131     4120     4131     4145     4149 
    4152     4163     4174     4166     4145     4135     4129     4124 
    4131     4137     4143     4156     4155     4145     4152     4158 
    4151     4151     4171     4190     4186     4166     4145     4129 
    4126     4135     4145     4155     4164     4171     4163     4148 
    4133     4120     4122     4139     4153     4153     4148     4147 
    4137     4129     4135     4133     4132     4148     4162     4172 
    4180     4172     4163     4167     4176     4185     4179     4167 
    4162     4151     4147     4148     4139     4132     4141     4144 
    4135     4145     4162     4152     4137     4133     4129     4122 
    4131     4153     4159     4152     4156     4159     4158     4155 
    4149     4151     4156     4158     4160     4164     4164     4158 
    4159     4160     4152     4148     4148     4149     4159     4162 
    4158     4148     4131     4117     4124     4143     4148     4144 
    4149     4153     4156     4162     4148     4129     4132     4147 
    4158     4162     4159     4156     4162     4164     4163     4160 
    4162     4162     4153     4149     4158     4160     4149     4135 
    4129     4131     4144     4159     4149     4135     4136     4145 
    4147     4140     4139     4143     4144     4145     4144     4145 
    4152     4159     4170     4172     4160     4151     4149     4148 
    4155     4167     4163     4152     4148     4147     4145     4141 
    4145     4155     4148     4137     4133     4136     4155     4168 
    4162     4153     4145     4132     4132     4141     4152     4158 
    4158     4156     4143     4133     4145     4158     4158     4159 
    4158     4158     4162     4155     4140     4131     4143     4167 
    4178     4166     4143     4128     4126     4135     4140     4148 
    4153     4148     4147     4153     4152     4153     4156     4149 
    4147     4143     4135     4144     4164     4172     4160     4140 
    4126     4128     4141     4162     4174     4166     4153     4155 
    4164     4149     4122     4108     4121     4149     4167     4171 
    4152     4121     4114     4141     4166     4170     4160     4145 
    4136     4141     4147     4152     4158     4155     4152     4162 
    4167     4162     4162     4171     4174     4163     4143     4135 
    4143     4151     4152     4144     4135     4137     4143     4148 
    4159     4160     4153     4148     4149     4149     4141     4137 
    4144     4149     4156     4160     4151     4143     4147     4156 
    4159     4145     4132     4139     4160     4175     4172     4158 
    4144     4139     4148     4164     4164     4149     4137     4135 
    4139     4148     4135     4113     4131     4168     4194     4203 
    4183     4141     4112     4112     4132     4149     4156     4176 
    4209     4216     4176     4090     3986     3954     4039     4170 
    4271     4311     4261     4147     4047     3996     3974     3991 
    4091     4264     4437     4523     4450     4198     3865     3676 
    3827     4253     4665     4823     4660     4307     4012     3836 
    3732     3758     3894     4078     4344     4542     4476     4237 
    3912     3620     3627     3863     4060     4194     4321     4414 
    4388     4182     3921     3808     3925     4247     4577     4692 
    4579     4364     4166     4018     3878     3807     3917     4163 
    4376     4456     4464     4386     4124     3819     3692     3762 
    3990     4264     4357     4245     4075     3881     3793     4021 
    4430     4629     4444     4118     3950     3969     4087     4212 
    4220     4136     4099     4170     4337     4418     4160     3805 
    3770     4013     4367     4650     4541     4035     3572     3566 
    4004     4503     4719     4650     4507     4271     3931     3721 
    3645     3715     4126     4583     4671     4421     4033     3828 
    3924     3946     3819     3948     4318     4579     4712     4630 
    4144     3663     3545     3505     3568     3943     4388     4743 
    4914     4645     4162     3881     3805     3904     4120     4191 
    4082     4128     4437     4511     4089     3672     3550     3616 
    3955     4379     4457     4260     4044     3886     3879     3979 
    4028     4075     4288     4544     4548     4394     4392     4518 
    4622     4729     4783     4630     4348     4124     4051     4207 
    4449     4514     4480     4456     4348     4202     4060     3813 
    3483     3283     3406     3765     4031     4006     3780     3604 
    3769     4191     4452     4459     4379     4266     4261     4365 
    4330     4198     4116     3977     3831     3888     4108     4315 
    4471     4561     4436     4066     3762     3727     3816     3952 
    4245     4576     4707     4606     4251     3842     3827     4070 
    4144     4147     4137     3994     3973     4163     4179     3994 
    3888     3828     3901     4321     4703     4626     4403     4294 
    4064     3769     3712     3829     3998     4203     4194     3933 
    3825     4009     4317     4585     4554     4230     4037     4094 
    4159     4266     4456     4502     4407     4364     4386     4395 
    4218     3819     3434     3249     3451     4054     4509     4488 
    4221     3881     3788     4217     4669     4581     4104     3661 
    3522     3766     4222     4469     4218     3793     3777     4179 
    4638     5000     4962     4410     4028     4151     4337     4402 
    4378     4168     4021     4371     4882     4789     4149     3396 
    2752     2755     3547     4247     4345     4288     4433     4692 
    4966     5046     4598     3888     3607     3823     4251     4799 
    5040     4633     4136     4009     3956     3890     3920     3850 
    3704     3723     3898     4102     4153     3929     3542     3119 
    2914     3419     4372     4851     4926     4923     4504     4110 
    4203     4035     3659     3921     4390     4540     4699     4707 
    4365     4081     3967     3951     4155     4488     4704     4634 
    4337     4039     3790     3630     3709     3969     4193     4440 
    4710     4649     4247     3866     3539     3352     3542     3792 
    3797     3901     4301     4611     4467     3963     3508     3449 
    4035     5148     5832     5382     4452     3886     3766     4004 
    4391     4452     4151     3921     3913     3892     3684     3454 
    3334     3156     3099     3581     4360     4950     5258     5266 
    4981     4742     4797     4811     4569     4409     4321     4126 
    3996     3703     3099     2833     3142     3585     3948     4141 
    4020     3724     3659     4000     4448     4783     4969     4882 
    4672     4564     4367     4125     4166     4325     4471     4808 
    5113     5080     4784     4218     3468     2751     2265     2440 
    3184     3743     4105     4583     4804     4522     3916     3299 
    3227     3808     4495     4957     5194     5256     5233     5023 
    4441     3847     3809     4155     4391     4477     4407     4102 
    3773     3626     3565     3411     3280     3424     3805     4244 
    4610     4687     4391     3954     3566     3404     3663     4222 
    4834     5429     5733     5398     4714     4272     4102     3908 
    3778     3843     3893     3924     3933     3551     3029     3114 
    3723     4378     4949     5215     4963     4405     3829     3298 
    2978     3222     3816     4066     4158     4691     5125     4893 
    4459     3928     3208     3114     3896     4649     4999     5111 
    4882     4492     4311     4283     4299     4491     4811     4882 
    4533     4098     3775     3441     3264     3310     3277     3426 
    4144     4915     5143     4828     4056     3094     2552     2673 
    3022     3318     3780     4351     4727     5015     5215     5062 
    4733     4567     4561     4661     4877     5058     5035     4920 
    4866     4707     4357     4114     4059     3904     3717     3681 
    3497     3142     3048     3144     3222     3491     3874     4010 
    3925     3893     3894     3735     3559     3619     3905     4455 
    5120     5375     5074     4496     3844     3469     3682     4189 
    4437     4332     4175     4135     4198     4318     4287     4035 
    4009     4509     5107     5371     5297     4907     4395     4074 
    3983     4070     4170     4004     3586     3240     3283     3697 
    4029     3958     3692     3607     3807     4218     4633     4727 
    4534     4321     4118     3986     4077     4191     4108     3948 
    3809     3694     3655     3739     4027     4355     4456     4491 
    4590     4639     4641     4495     4137     3778     3435     3103 
    3105     3433     3747     4147     4649     4797     4584     4364 
    4182     4114     4337     4720     4988     5046     4996     4961 
    4935     4953     5032     4843     4210     3550     3169     3041 
    3071     2979     2721     2721     3160     3843     4603     5220 
    5404     5177     4963     4893     4719     4449     4159     3751 
    3396     3357     3527     3724     3863     3815     3574     3348 
    3334     3550     3869     4226     4585     4795     4914     5101 
    5104     4855     4789     4900     4905     4945     4993     4847 
    4614     4255     3677     3310     3512     3974     4222     4147 
    3913     3634     3346     3148     3010     2898     2933     3026 
    3010     3105     3523     4085     4514     4773     4916     4839 
    4665     4741     4997     5196     5251     5034     4646     4380 
    4217     4082     4087     4272     4585     4924     5103     4962 
    4553     4060     3607     3329     3338     3546     3828     4033 
    3974     3765     3608     3541     3727     4136     4359     4278 
    4072     3815     3537     3341     3354     3508     3681     3966 
    4291     4468     4626     4731     4577     4446     4502     4409 
    4151     3981     4044     4455     5020     5393     5491     5259 
    4784     4518     4642     4769     4523     3816     2947     2529 
    2693     2961     3094     3146     3181     3335     3618     3852 
    4040     4303     4572     4712     4638     4344     4120     4210 
    4460     4666     4773     4777     4743     4668     4519     4374 
    4220     4033     4047     4384     4727     4803     4596     4121 
    3609     3433     3553     3807     4198     4573     4792     4839 
    4689     4422     4098     3788     3720     3881     4089     4388 
    4654     4595     4320     4059     3746     3422     3272     3196 
    3184     3423     3647     3537     3369     3389     3458     3518 
    3653     3901     4279     4765     5256     5555     5574     5520 
    5466     5228     4828     4326     3619     2910     2551     2455 
    2353     2191     2089     2309     3083     4255     5316     5938 
    6254     6569     7009     7447     7777     8031     8052     7582 
    6721     5788     4815     3580     2073      639     -341     -777 
    -928    -1090    -1240    -1101     -400      955     2828     4919 
    6928     8635     9799    10215     9703     8095     5718     3326 
    1528      702      847     1649     3149     5194     6936     8214 
    9212     9505     9259     8548     6848     4395     1688     -955 
   -3052    -4383    -5058    -4946    -3762    -1566     1429     4781 
    7807    10320    12185    12934    12599    11227     8752     5972 
    3711     2091     1294     1359     1806     2203     2327     1998 
    1389      835      517      615     1005     1493     2216     3132 
    4151     5251     6154     6913     7757     8440     8688     8397 
    7497     6246     5266     4928     5024     5182     5262     5225 
    4833     4048     3368     3142     3358     3894     4449     4734 
    4772     4712     4542     4104     3308     2223     1008     -170 
   -1220    -2014    -2216    -1615     -442     1015     2727     4711 
    6909     9200    11279    12758    13626    14220    14631    14590 
   13867    12263     9628     6404     3430      936    -1170    -2741 
   -3919    -4928    -5526    -5610    -5456    -5108    -4437    -3403 
   -2035     -440     1360     3427     5628     7661     9317    10720 
   12078    13058    13089    12140    10378     7852     5089     2963 
    1856     1476     1263      876      468      364      706     1385 
    2076     2785     3813     5015     6096     6995     7384     6833 
    5541     4139     3041     2470     2478     2693     2828     3069 
    3545     4244     5159     6070     6837     7547     8059     8100 
    7861     7723     7554     6966     5780     3979     1653     -922 
   -3227    -4652    -4874    -3870    -1890      442     2775     5096 
    7034     8324     9180     9597     9335     8500     7381     6173 
    5040     4175     3743     3753     4114     4781     5541     6035 
    6084     5632     4754     3798     2953     2062     1061       97 
    -599     -687       52     1470     3181     4726     5751     6069 
    5616     4625     3573     2876     2789     3333     4318     5518 
    6660     7450     7722     7542     7142     6667     6065     5339 
    4572     3719     2836     2107     1556     1264     1489     2201 
    3154     4164     4997     5490     5652     5409     4785     4147 
    3825     3821     3989     4271     4677     5231     5846     6169 
    5953     5359     4550     3534     2411     1433      896      874 
    1040     1124     1309     1815     2489     3041     3335     3457 
    3673     4260     5308     6640     8001     9193    10006    10373 
   10382     9944     8957     7588     5934     3919     1659     -517 
   -2324    -3613    -4382    -4618    -4191    -2965     -966     1516 
    4151     6813     9262    11078    11979    11889    11057    10003 
    9063     8158     7067     5769     4271     2648     1287      395 
    -121     -252     -109       76      279      608     1100     1736 
    2548     3539     4646     5850     7067     8077     8654     8723 
    8399     7855     7114     6108     4891     3620     2525     1775 
    1332     1246     1632     2150     2343     2211     1895     1575 
    1667     2288     3038     3688     4303     4919     5645     6586 
    7538     8170     8317     7959     7144     5992     4688     3456 
    2511     2043     2087     2386     2705     2994     3138     3134 
    3149     3092     2911     2949     3404     4164     5109     6065 
    6812     7123     6793     5977     5073     4284     3655     3095 
    2511     2114     2153     2509     2882     3105     3323     3836 
    4707     5703     6490     6735     6351     5678     5125     4795 
    4513     4074     3443     2747     2126     1713     1590     1683 
    1833     2011     2304     2862     3848     5150     6349     7227 
    7832     8118     8016     7524     6593     5294     3940     2803 
    1989     1499     1239     1170     1367     1773     2232     2716 
    3287     3958     4626     5215     5713     6023     6025     5724 
    5215     4627     4139     3923     3963     4059     4087     4024 
    3840     3607     3454     3447     3592     3794     3928     4031 
    4240     4614     5086     5516     5734     5686     5464     5147 
    4716     4117     3385     2743     2361     2246     2421     2894 
    3547     4290     4996     5489     5788     6027     6135     5941 
    5397     4650     3979     3537     3272     3057     2776     2548 
    2617     2916     3194     3388     3531     3628     3618     3474 
    3365     3449     3651     3823     3937     4122     4467     4866 
    5231     5582     5914     6176     6318     6316     6185     5864 
    5282     4496     3618     2739     1926     1228      774      656 
     814     1269     2087     3144     4287     5425     6339     6863 
    7056     6944     6528     5975     5340     4544     3734     3084 
    2612     2427     2569     2883     3376     4094     4797     5248 
    5432     5374     5142     4855     4514     4087     3643     3300 
    3230     3526     4078     4688     5219     5638     5969     6141 
    6016     5518     4635     3546     2592     1934     1510     1310 
    1358     1632     2138     2836     3572     4243     4909     5578 
    6119     6543     6926     7169     7142     6831     6253     5505 
    4719     3936     3171     2542     2187     2072     2010     1953 
    2045     2304     2586     2817     3055     3310     3532     3770 
    4126     4581     5011     5333     5574     5805     6049     6199 
    6119     5869     5579     5177     4567     3886     3311     2901 
    2740     2835     2978     3033     3075     3149     3244     3369 
    3478     3457     3358     3348     3424     3523     3699     4004 
    4484     5177     5967     6625     7007     7040     6710     6131 
    5460     4816     4314     3971     3669     3329     2940     2498 
    2049     1753     1811     2251     2918     3663     4414     5109 
    5651     5845     5587     5051     4419     3802     3402     3280 
    3350     3578     3885     4106     4194     4226     4251     4221 
    4151     4101     4124     4305     4668     5081     5427     5640 
    5621     5351     4973     4608     4264     3894     3460     2972 
    2466     2012     1721     1636     1729     1952     2274     2706 
    3283     3996     4666     5076     5235     5327     5464     5637 
    5767     5841     5931     6072     6228     6378     6493     6427 
    5991     5194     4276     3442     2722     2150     1802     1653 
    1699     1992     2438     2920     3478     4077     4537     4814 
    4997     5140     5298     5508     5697     5759     5628     5209 
    4472     3618     2903     2450     2273     2304     2467     2695 
