Origin Time       2025/03/28 03:50:00
Lat.              35.403
Long.             140.360
Depth. (km)       54
Mag.              4.4
Station Code      CHB029
Station Lat.      35.6948
Station Long.     139.9176
Station Height(m) 3
Record Time       2025/03/28 03:51:00
Sampling Freq(Hz) 100Hz
Duration Time(s)  60
Dir.              E-W
Scale Factor      7845(gal)/8223790
Max. Acc. (gal)   2.891
Last Correction   2025/03/28 03:51:00
Memo.             
[...]
    -768     -770     -778     -781     -784     -788     -795     -805 
    -814     -811     -801     -792     -788     -791     -791     -789 
    -788     -784     -780     -780     -781     -772     -758     -769 
    -788     -793     -788     -783     -787     -787     -783     -792 
    -800     -793     -787     -793     -797     -792     -787     -792 
    -795     -785     -781     -793     -793     -792     -799     -795 
    -796     -805     -801     -793     -793     -784     -776     -787 
    -799     -795     -788     -791     -793     -793     -796     -799 
    -796     -793     -791     -785     -783     -780     -780     -787 
    -795     -792     -773     -760     -778     -801     -793     -777 
    -777     -781     -784     -788     -785     -777     -777     -784 
    -788     -788     -778     -768     -773     -781     -788     -793 
    -801     -804     -801     -801     -796     -784     -791     -800 
    -793     -791     -791     -778     -776     -777     -774     -777 
    -788     -796     -795     -792     -793     -793     -792     -792 
    -788     -783     -781     -785     -789     -784     -772     -768 
    -776     -777     -769     -773     -789     -792     -785     -787 
    -789     -789     -785     -784     -789     -796     -799     -791 
    -777     -778     -788     -778     -774     -788     -791     -787 
    -792     -795     -784     -777     -778     -776     -781     -788 
    -784     -773     -774     -785     -785     -787     -800     -803 
    -791     -787     -787     -785     -785     -788     -781     -768 
    -765     -773     -777     -776     -780     -784     -785     -788 
    -788     -791     -795     -792     -795     -804     -803     -796 
    -795     -797     -795     -791     -791     -789     -791     -795 
    -788     -785     -792     -791     -791     -799     -801     -795 
    -788     -789     -792     -777     -762     -768     -780     -781 
    -781     -792     -793     -781     -774     -776     -776     -776 
    -781     -789     -793     -785     -777     -785     -792     -787 
    -788     -799     -797     -788     -789     -795     -793     -791 
    -789     -791     -795     -793     -787     -778     -785     -791 
    -781     -781     -789     -791     -799     -814     -805     -791 
    -800     -805     -791     -783     -781     -781     -787     -789 
    -784     -783     -793     -796     -776     -769     -783     -793 
    -788     -774     -772     -780     -787     -785     -781     -774 
    -770     -773     -780     -784     -781     -780     -784     -788 
    -788     -788     -792     -792     -784     -785     -796     -801 
    -795     -787     -792     -803     -801     -791     -783     -791 
    -801     -788     -772     -772     -783     -791     -788     -776 
    -777     -797     -805     -793     -789     -793     -788     -778 
    -778     -783     -789     -792     -785     -777     -774     -783 
    -788     -777     -772     -778     -774     -768     -768     -770 
    -781     -793     -792     -785     -784     -784     -785     -787 
    -785     -783     -787     -793     -787     -778     -785     -795 
    -785     -772     -776     -784     -784     -789     -791     -781 
    -780     -792     -796     -784     -783     -787     -789     -795 
    -791     -784     -783     -783     -780     -773     -780     -788 
    -785     -788     -797     -797     -781     -781     -795     -792 
    -789     -797     -797     -792     -792     -789     -785     -792 
    -797     -796     -799     -800     -792     -791     -796     -792 
    -789     -799     -803     -796     -796     -803     -797     -784 
    -781     -784     -781     -773     -772     -780     -791     -789 
    -780     -777     -780     -774     -772     -780     -785     -783 
    -785     -791     -791     -785     -780     -781     -793     -810 
    -811     -801     -805     -807     -793     -784     -785     -780 
    -780     -795     -797     -772     -765     -801     -814     -789 
    -785     -789     -777     -769     -773     -787     -792     -776 
    -770     -783     -780     -778     -785     -781     -770     -777 
    -788     -776     -769     -791     -801     -795     -793     -804 
    -807     -791     -778     -783     -787     -792     -795     -788 
    -783     -795     -814     -814     -797     -788     -800     -810 
    -810     -803     -784     -773     -776     -778     -792     -800 
    -780     -750     -753     -801     -843     -810     -738     -737 
    -814     -846     -768     -669     -696     -834     -897     -803 
    -689     -699     -807     -870     -810     -737     -761     -816 
    -838     -812     -762     -743     -772     -820     -854     -834 
    -768     -706     -707     -774     -846     -877     -854     -765 
    -654     -645     -787     -936     -924     -764     -634     -680 
    -841     -908     -810     -712     -757     -872     -874     -746 
    -662     -715     -814     -869     -846     -770     -730     -753 
    -768     -761     -789     -835     -845     -820     -781     -746 
    -768     -842     -868     -805     -739     -731     -756     -745 
    -712     -750     -834     -846     -768     -687     -697     -804 
    -881     -841     -768     -758     -820     -868     -792     -666 
    -672     -808     -926     -908     -778     -700     -780     -904 
    -897     -783     -718     -772     -828     -801     -764     -789 
    -827     -816     -764     -735     -787     -872     -851     -707 
    -634     -739     -877     -892     -768     -623     -631     -787 
    -873     -805     -747     -801     -862     -859     -841     -830 
    -826     -834     -822     -772     -743     -768     -777     -724 
    -688     -737     -824     -865     -820     -754     -773     -850 
    -877     -832     -769     -727     -730     -781     -803     -724 
    -626     -634     -737     -810     -789     -747     -781     -854 
    -842     -747     -704     -758     -830     -853     -850     -858 
    -872     -899     -923     -869     -785     -807     -911     -958 
    -876     -722     -672     -768     -843     -789     -703     -720 
    -788     -769     -685     -653     -697     -765     -765     -683 
    -633     -677     -730     -738     -750     -770     -731     -661 
    -657     -727     -810     -839     -831     -881     -989    -1017 
    -899     -753     -733     -851     -969     -958     -847     -760 
    -751     -778     -801     -811     -772     -723     -739     -774 
    -742     -670     -672     -761     -820     -785     -708     -681 
    -750     -830     -818     -762     -758     -793     -784     -711 
    -653     -676     -785     -918     -978     -951     -912     -899 
    -881     -862     -873     -905     -904     -830     -707     -650 
    -733     -861     -900     -824     -745     -762     -812     -770 
    -681     -670     -730     -734     -648     -575     -572     -610 
    -649     -669     -675     -689     -724     -764     -792     -841 
    -953    -1090    -1152    -1108     -996     -888     -874     -947 
    -978     -884     -764     -746     -787     -784     -751     -739 
    -760     -799     -822     -822     -812     -746     -622     -560 
    -619     -699     -695     -639     -604     -625     -691     -724 
    -688     -657     -668     -677     -658     -679     -812    -1001 
   -1093    -1034     -946     -957     -994     -930     -808     -765 
    -820     -884     -880     -784     -642     -568     -639     -815 
    -930     -895     -826     -861     -963    -1005     -953     -869 
    -801     -757     -718     -638     -546     -529     -589     -669 
    -668     -544     -395     -346     -444     -630     -814     -967 
   -1074    -1081     -986     -845     -754     -814     -950    -1001 
    -927     -816     -780     -823     -858     -853     -845     -861 
    -911     -966     -962     -901     -839     -804     -814     -858 
    -866     -811     -749     -730     -746     -781     -780     -658 
    -486     -444     -568     -735     -851     -854     -783     -788 
    -876     -884     -774     -654     -643     -756     -862     -841 
    -738     -681     -726     -822     -889     -915     -903     -851 
    -815     -803     -745     -664     -643     -676     -695     -696 
    -715     -712     -654     -606     -615     -645     -704     -847 
    -997    -1050    -1039    -1028    -1011     -950     -850     -757 
    -749     -862     -965     -951     -922     -893     -791     -695 
    -716     -815     -893     -922     -932     -920     -896     -857 
    -720     -531     -453     -513     -584     -527     -387     -355 
    -476     -608     -646     -633     -702     -853     -931     -908 
    -924    -1034    -1136    -1100     -932     -774     -743     -822 
    -892     -904     -916     -945     -966     -981     -989    -1001 
   -1058    -1123    -1074     -891     -685     -565     -544     -546 
    -508     -450     -430     -442     -433     -430     -471     -533 
    -618     -712     -799     -878     -882     -828     -835     -896 
    -903     -822     -731     -700     -733     -818     -928    -1012 
   -1046    -1034     -966     -869     -793     -731     -724     -843 
    -999    -1061    -1020     -940     -899     -926     -976     -973 
    -880     -758     -697     -672     -648     -669     -704     -662 
    -542     -444     -468     -606     -743     -789     -762     -762 
    -824     -874     -841     -758     -716     -729     -729     -675 
    -611     -610     -692     -803     -901    -1024    -1175    -1266 
   -1225    -1080     -892     -738     -661     -619     -595     -619 
    -657     -666     -656     -635     -634     -666     -720     -772 
    -801     -805     -830     -903     -974     -977     -885     -762 
    -716     -754     -808     -847     -895     -961     -988     -943 
    -870     -795     -731     -699     -683     -627     -521     -446 
    -484     -596     -708     -776     -796     -810     -839     -824 
    -742     -669     -673     -746     -803     -793     -776     -804 
    -855     -905     -967    -1019    -1016     -973     -920     -885 
    -882     -870     -824     -769     -691     -599     -581     -688 
    -866    -1008    -1042     -986     -892     -778     -664     -568 
    -518     -550     -664     -812     -896     -846     -751     -730 
    -734     -664     -561     -508     -533     -657     -828     -928 
    -942     -931     -889     -751     -596     -595     -756     -926 
    -996     -996    -1016    -1050     -997     -858     -734     -689 
    -700     -722     -738     -726     -692     -697     -766     -834 
    -818     -745     -749     -846     -897     -819     -679     -602 
    -631     -666     -630     -583     -600     -672     -764     -870 
    -966    -1016    -1044    -1063    -1051    -1021     -982     -935 
    -886     -795     -643     -519     -527     -658     -783     -818 
    -784     -726     -716     -773     -816     -814     -803     -807 
    -815     -826     -859     -911     -950     -966     -920     -793 
    -641     -535     -495     -484     -519     -650     -803     -819 
    -666     -494     -461     -581     -743     -842     -876     -901 
    -939     -978    -1005    -1035    -1101    -1182    -1227    -1221 
   -1181    -1117    -1012     -858     -711     -588     -483     -442 
    -500     -591     -641     -680     -783     -913     -970     -928 
    -837     -761     -731     -692     -588     -452     -368     -341 
    -334     -355     -410     -504     -677     -904    -1096    -1221 
   -1313    -1351    -1287    -1138     -967     -859     -830     -853 
    -942    -1086    -1208    -1219    -1080     -904     -822     -828 
    -841     -811     -762     -735     -700     -599     -438     -314 
    -309     -368     -388     -357     -333     -340     -367     -411 
    -457     -504     -591     -720     -805     -796     -812     -999 
   -1290    -1476    -1437    -1248    -1054     -932     -866     -783 
    -700     -720     -869    -1074    -1233    -1300    -1273    -1150 
    -957     -737     -521     -336     -195     -145     -245     -429 
    -552     -594     -633     -699     -768     -832     -884     -913 
    -955    -1011    -1046    -1050    -1031     -996     -967     -947 
    -946    -1021    -1193    -1389    -1506    -1493    -1389    -1266 
   -1167    -1107    -1081    -1094    -1120    -1116    -1092    -1009 
    -788     -492     -248      -82       22       67       35      -71 
    -221     -351     -367     -252      -72      118      248      241 
     101     -114     -363     -625     -835     -903     -815     -669 
    -588     -569     -565     -615     -756     -981    -1275    -1575 
   -1800    -1902    -1867    -1729    -1513    -1254    -1017     -857 
    -766     -719     -747     -919    -1140    -1240    -1165     -942 
    -676     -546     -654     -935    -1251    -1475    -1521    -1387 
   -1121     -787     -486     -355     -423     -598     -770     -843 
    -729     -440     -113      112      203      175       49     -135 
    -356     -587     -747     -753     -594     -348      -81      193 
     434      581      616      526      260     -186     -703    -1151 
   -1428    -1495    -1443    -1408    -1448    -1609    -1979    -2581 
   -3250    -3716    -3817    -3557    -3065    -2508    -1957    -1439 
   -1013     -672     -330       21      298      415      382      299 
     241      191       82     -109     -299     -357     -257      -85 
     126      430      814     1152     1332     1294      986      402 
    -357    -1138    -1753    -2092    -2211    -2166    -1939    -1544 
   -1066     -635     -390     -434     -778    -1278    -1738    -2070 
   -2193    -2057    -1755    -1417    -1154    -1067    -1125    -1198 
   -1185    -1012     -653     -191      244      537      588      373 
     -40     -541    -1057    -1594    -2153    -2663    -2980    -2956 
   -2535    -1752     -719      325     1107     1516     1603     1435 
    1073      584       35     -502     -961    -1323    -1595    -1750 
   -1750    -1605    -1340    -1005     -656     -321      -17      226 
     376      445      502      552      507      276     -167     -807 
   -1566    -2270    -2778    -3029    -3007    -2728    -2245    -1671 
   -1166     -880     -895    -1188    -1648    -2087    -2305    -2212 
   -1795    -1142     -475       25      287      294      130      -78 
    -260     -369     -375     -275      -93      126      317      396 
     322      133      -86     -286     -467     -614     -708     -758 
    -791     -857     -990    -1175    -1381    -1624    -1903    -2114 
   -2162    -2056    -1811    -1399     -837     -283       47       13 
    -367     -907    -1364    -1610    -1649    -1499    -1148     -660 
    -174      229      553      785      838      630      187     -352 
    -812    -1077    -1142    -1058     -872     -642     -459     -414 
    -537     -741     -901     -990    -1089    -1267    -1474    -1638 
   -1765    -1906    -2080    -2216    -2187    -1968    -1653    -1305 
    -920     -514     -168        8      -29     -226     -469     -656 
    -747     -724     -564     -290       -9      130       41     -275 
    -733    -1169    -1452    -1541    -1422    -1117     -747     -487 
    -419     -496     -594     -634     -611     -542     -445     -305 
    -133       36      198      305      279      108     -170     -518 
    -888    -1190    -1335    -1331    -1274    -1239    -1233    -1243 
   -1277    -1316    -1309    -1258    -1205    -1181    -1178    -1177 
   -1175    -1198    -1251    -1306    -1340    -1366    -1391    -1377 
   -1269    -1035     -714     -403     -226     -260     -503     -880 
   -1273    -1528    -1524    -1208     -619       82      714     1183 
    1437     1399     1084      618      118     -355     -784    -1151 
   -1418    -1594    -1726    -1809    -1818    -1726    -1501    -1159 
    -803     -548     -459     -560     -859    -1305    -1760    -2083 
   -2220    -2209    -2069    -1760    -1293     -776     -334      -36 
     113      130       33     -156     -391     -619     -822     -986 
   -1112    -1201    -1194    -1015     -668     -191      386      967 
    1390     1551     1408      973      344     -371    -1094    -1741 
   -2235    -2536    -2587    -2335    -1861    -1358     -984     -804 
    -810     -930    -1080    -1205    -1273    -1262    -1174    -1036 
    -904     -815     -774     -751     -683     -564     -444     -348 
    -303     -365     -573     -888    -1224    -1509    -1657    -1621 
   -1418    -1065     -595     -105      309      572      638      518 
     265      -52     -407     -765    -1047    -1166    -1104     -897 
    -608     -319      -87       67      112       18     -193     -481 
    -814    -1147    -1452    -1715    -1917    -2045    -2100    -2083 
   -1983    -1818    -1606    -1356    -1123     -936     -774     -675 
    -720     -913    -1175    -1386    -1459    -1390    -1165     -765 
    -230      334      769      969      927      665      241     -244 
    -738    -1209    -1595    -1834    -1918    -1850    -1594    -1142 
    -604     -124      211      371      373      236      -74     -525 
    -976    -1305    -1485    -1529    -1456    -1320    -1175    -1011 
    -831     -727     -758     -888    -1026    -1135    -1210    -1233 
   -1197    -1101     -966     -866     -876     -981    -1063    -1026 
    -870     -641     -407     -253     -195     -214     -345     -596 
    -850     -996    -1026     -954     -784     -561     -379     -305 
    -365     -571     -919    -1337    -1680    -1868    -1933    -1879 
   -1688    -1408    -1096     -791     -527     -322     -162      -31 
      36      -39     -272     -583     -893    -1169    -1386    -1501 
   -1449    -1189     -754     -236      259      635      850      896 
     754      441       63     -286     -604     -905    -1127    -1212 
   -1173    -1063     -969     -957    -1024    -1140    -1263    -1368 
   -1435    -1432    -1398    -1432    -1575    -1775    -1934    -1984 
   -1953    -1890    -1803    -1691    -1536    -1333    -1082     -784 
    -480     -202       27      153      136       10     -159     -336 
    -481     -572     -621     -619     -530     -346      -48      345 
     722      954      999      877      648      346      -18     -414 
    -781    -1067    -1227    -1254    -1205    -1144    -1115    -1136 
   -1190    -1262    -1402    -1630    -1850    -1962    -1962    -1891 
   -1788    -1675    -1583    -1532    -1491    -1414    -1279    -1096 
    -878     -650     -463     -396     -511     -766    -1020    -1150 
   -1128     -985     -762     -517     -298     -163     -143     -229 
    -379     -537     -673     -772     -799     -726     -552     -326 
    -144      -59      -58     -117     -210     -282     -276     -199 
    -121     -133     -267     -500     -804    -1125    -1402    -1578 
   -1657    -1695    -1707    -1667    -1598    -1532    -1460    -1383 
   -1331    -1305    -1278    -1254    -1196    -1028     -777     -538 
