Origin Time       2025/03/28 03:50:00
Lat.              35.403
Long.             140.360
Depth. (km)       54
Mag.              4.4
Station Code      CHB013
Station Lat.      35.4294
Station Long.     140.2892
Station Height(m) 10
Record Time       2025/03/28 03:50:54
Sampling Freq(Hz) 100Hz
Duration Time(s)  65
Dir.              E-W
Scale Factor      7845(gal)/8223790
Max. Acc. (gal)   6.531
Last Correction   2025/03/28 03:50:53
Memo.             
[...]
  -16152   -16170   -16171   -16164   -16178   -16181   -16167   -16166 
  -16167   -16158   -16156   -16170   -16175   -16171   -16168   -16164 
  -16159   -16158   -16159   -16163   -16166   -16167   -16167   -16163 
  -16158   -16155   -16158   -16170   -16181   -16182   -16168   -16155 
  -16158   -16158   -16154   -16164   -16178   -16178   -16178   -16171 
  -16160   -16168   -16179   -16173   -16167   -16163   -16159   -16167 
  -16171   -16164   -16166   -16168   -16162   -16162   -16163   -16160 
  -16164   -16171   -16167   -16159   -16158   -16162   -16168   -16168 
  -16160   -16164   -16177   -16177   -16171   -16174   -16170   -16166 
  -16168   -16168   -16160   -16159   -16166   -16168   -16170   -16181 
  -16183   -16170   -16158   -16158   -16168   -16171   -16163   -16164 
  -16166   -16164   -16175   -16189   -16181   -16166   -16166   -16166 
  -16163   -16163   -16167   -16175   -16183   -16177   -16162   -16159 
  -16164   -16163   -16168   -16175   -16178   -16177   -16164   -16159 
  -16168   -16171   -16167   -16164   -16162   -16167   -16181   -16183 
  -16167   -16155   -16159   -16159   -16155   -16164   -16170   -16166 
  -16166   -16166   -16168   -16173   -16174   -16171   -16164   -16160 
  -16163   -16164   -16167   -16168   -16160   -16162   -16170   -16173 
  -16173   -16171   -16170   -16163   -16160   -16168   -16174   -16171 
  -16170   -16168   -16163   -16163   -16166   -16166   -16166   -16164 
  -16166   -16173   -16174   -16164   -16159   -16164   -16163   -16159 
  -16170   -16179   -16168   -16158   -16158   -16166   -16174   -16178 
  -16175   -16162   -16147   -16155   -16171   -16168   -16160   -16162 
  -16163   -16167   -16174   -16170   -16160   -16166   -16174   -16168 
  -16159   -16156   -16158   -16166   -16173   -16170   -16162   -16160 
  -16164   -16170   -16170   -16173   -16175   -16170   -16163   -16164 
  -16173   -16174   -16167   -16171   -16171   -16162   -16171   -16181 
  -16168   -16154   -16155   -16168   -16179   -16174   -16170   -16174 
  -16166   -16160   -16166   -16166   -16167   -16171   -16171   -16170 
  -16164   -16156   -16155   -16168   -16177   -16170   -16168   -16170 
  -16160   -16163   -16178   -16175   -16163   -16166   -16163   -16159 
  -16166   -16168   -16171   -16179   -16177   -16162   -16158   -16159 
  -16156   -16166   -16175   -16170   -16167   -16168   -16156   -16151 
  -16159   -16167   -16175   -16175   -16162   -16158   -16166   -16162 
  -16155   -16166   -16177   -16174   -16171   -16168   -16156   -16151 
  -16163   -16171   -16163   -16158   -16163   -16166   -16164   -16167 
  -16174   -16174   -16170   -16166   -16158   -16154   -16160   -16166 
  -16167   -16170   -16171   -16164   -16159   -16163   -16166   -16168 
  -16168   -16158   -16154   -16166   -16173   -16174   -16175   -16164 
  -16151   -16154   -16166   -16177   -16171   -16158   -16162   -16175 
  -16173   -16167   -16171   -16166   -16160   -16167   -16167   -16164 
  -16168   -16171   -16171   -16174   -16175   -16168   -16168   -16171 
  -16162   -16166   -16189   -16182   -16160   -16164   -16177   -16173 
  -16163   -16163   -16171   -16179   -16177   -16168   -16170   -16163 
  -16152   -16159   -16177   -16182   -16174   -16163   -16158   -16162 
  -16164   -16164   -16171   -16171   -16162   -16166   -16171   -16163 
  -16160   -16167   -16170   -16174   -16178   -16177   -16173   -16164 
  -16156   -16160   -16170   -16173   -16177   -16179   -16167   -16159 
  -16160   -16156   -16160   -16173   -16171   -16167   -16175   -16177 
  -16167   -16163   -16163   -16159   -16164   -16178   -16179   -16171 
  -16164   -16159   -16158   -16159   -16163   -16173   -16177   -16170 
  -16167   -16171   -16171   -16168   -16166   -16167   -16171   -16170 
  -16164   -16163   -16166   -16174   -16185   -16182   -16166   -16158 
  -16163   -16163   -16166   -16173   -16168   -16162   -16163   -16166 
  -16170   -16177   -16171   -16156   -16158   -16167   -16164   -16160 
  -16166   -16174   -16177   -16174   -16167   -16155   -16154   -16162 
  -16171   -16182   -16178   -16166   -16168   -16168   -16156   -16158 
  -16168   -16164   -16156   -16164   -16178   -16173   -16164   -16175 
  -16183   -16168   -16154   -16156   -16163   -16166   -16173   -16174 
  -16164   -16156   -16160   -16167   -16168   -16163   -16164   -16170 
  -16166   -16166   -16179   -16185   -16174   -16167   -16163   -16155 
  -16154   -16166   -16171   -16170   -16173   -16173   -16164   -16156 
  -16158   -16164   -16168   -16162   -16156   -16167   -16174   -16168 
  -16164   -16158   -16148   -16156   -16174   -16179   -16182   -16178 
  -16162   -16154   -16156   -16159   -16163   -16163   -16159   -16167 
  -16174   -16168   -16162   -16160   -16155   -16151   -16154   -16158 
  -16160   -16166   -16166   -16164   -16174   -16181   -16174   -16166 
  -16155   -16150   -16159   -16171   -16168   -16163   -16164   -16160 
  -16156   -16163   -16164   -16158   -16158   -16159   -16160   -16164 
  -16167   -16166   -16167   -16170   -16167   -16163   -16163   -16167 
  -16167   -16160   -16158   -16163   -16160   -16159   -16163   -16162 
  -16164   -16170   -16162   -16159   -16175   -16185   -16174   -16164 
  -16162   -16152   -16151   -16168   -16185   -16191   -16183   -16171 
  -16168   -16156   -16137   -16147   -16177   -16190   -16185   -16177 
  -16167   -16164   -16164   -16163   -16168   -16163   -16151   -16158 
  -16170   -16177   -16182   -16183   -16178   -16167   -16150   -16133 
  -16137   -16158   -16182   -16201   -16195   -16170   -16150   -16143 
  -16151   -16173   -16191   -16186   -16164   -16158   -16164   -16167 
  -16167   -16162   -16155   -16160   -16170   -16174   -16181   -16179 
  -16160   -16151   -16155   -16154   -16156   -16171   -16185   -16189 
  -16175   -16146   -16133   -16147   -16154   -16159   -16179   -16197 
  -16191   -16174   -16162   -16151   -16151   -16160   -16163   -16174 
  -16190   -16187   -16173   -16166   -16163   -16155   -16148   -16156 
  -16174   -16181   -16183   -16187   -16174   -16148   -16137   -16151 
  -16171   -16185   -16190   -16183   -16163   -16144   -16140   -16151 
  -16171   -16189   -16190   -16183   -16177   -16160   -16141   -16143 
  -16158   -16175   -16190   -16189   -16167   -16146   -16147   -16166 
  -16177   -16185   -16197   -16183   -16147   -16141   -16158   -16158 
  -16166   -16190   -16185   -16166   -16163   -16159   -16158   -16167 
  -16171   -16170   -16173   -16166   -16155   -16167   -16183   -16179 
  -16166   -16156   -16154   -16155   -16164   -16179   -16179   -16171 
  -16167   -16160   -16150   -16148   -16167   -16187   -16185   -16178 
  -16175   -16162   -16147   -16151   -16167   -16181   -16186   -16174 
  -16160   -16158   -16164   -16168   -16167   -16167   -16175   -16178 
  -16166   -16159   -16166   -16174   -16181   -16183   -16171   -16159 
  -16160   -16158   -16152   -16164   -16173   -16170   -16173   -16177 
  -16179   -16179   -16170   -16164   -16167   -16164   -16156   -16159 
  -16168   -16175   -16179   -16177   -16166   -16159   -16160   -16158 
  -16160   -16167   -16168   -16181   -16183   -16164   -16158   -16164 
  -16162   -16158   -16173   -16187   -16186   -16189   -16182   -16155 
  -16144   -16148   -16150   -16158   -16171   -16187   -16198   -16182 
  -16150   -16136   -16150   -16168   -16179   -16183   -16174   -16156 
  -16148   -16156   -16166   -16171   -16174   -16177   -16178   -16175 
  -16182   -16206   -16233   -16247   -16235   -16195   -16158   -16150 
  -16156   -16132   -16079   -16032   -15989   -15971   -16055   -16198 
  -16266   -16270   -16252   -16147   -16054   -16181   -16368   -16364 
  -16274   -16222   -16173   -16205   -16325   -16314   -16141   -15973 
  -15844   -15792   -15917   -16102   -16170   -16178   -16189   -16156 
  -16162   -16341   -16502   -16379   -16193   -16239   -16303   -16200 
  -16171   -16200   -16000   -15840   -16006   -16181   -16258   -16328 
  -16208   -16020   -16005   -16008   -16032   -16164   -16240   -16298 
  -16368   -16270   -16158   -16216   -16293   -16329   -16287   -16020 
  -15795   -15931   -16116   -16144   -16258   -16336   -16141   -16032 
  -16195   -16235   -16148   -16195   -16213   -16170   -16191   -16137 
  -16062   -16108   -16105   -16123   -16309   -16332   -16152   -16116 
  -16164   -16186   -16241   -16272   -16337   -16263   -15846   -15745 
  -16225   -16502   -16437   -16293   -15989   -15820   -15944   -16081 
  -16227   -16314   -16177   -16069   -16171   -16267   -16198   -16087 
  -16131   -16208   -16132   -16131   -16330   -16395   -16227   -16154 
  -16178   -16040   -15961   -16144   -16355   -16410   -16190   -15886 
  -15903   -15994   -16035   -16368   -16659   -16447   -16059   -15997 
  -16309   -16455   -16110   -15738   -15587   -15655   -16121   -16599 
  -16575   -16291   -16146   -16308   -16598   -16488   -16009   -15778 
  -15961   -16221   -16272   -16094   -15959   -16090   -16243   -16164 
  -16062   -16052   -16069   -16240   -16536   -16637   -16356   -15907 
  -15792   -16048   -16251   -16363   -16459   -16275   -15936   -15982 
  -16283   -16198   -15816   -15682   -15772   -15874   -16058   -16360 
  -16619   -16560   -16274   -16248   -16366   -16217   -16127   -16217 
  -16058   -15881   -16063   -16224   -16128   -16110   -16281   -16418 
  -16370   -16074   -15921   -16294   -16606   -16475   -16318   -16042 
  -15607   -15765   -16428   -16621   -16236   -15842   -15835   -16244 
  -16474   -16262   -16183   -16197   -15903   -15800   -16132   -16447 
  -16654   -16622   -16197   -15846   -15726   -15697   -15954   -16109 
  -15755   -15569   -15921   -16376   -16819   -17097   -16818   -16221 
  -15963   -16266   -16698   -16718   -16256   -15672   -15456   -15701 
  -15923   -15975   -16124   -16159   -16002   -16110   -16384   -16322 
  -15913   -15584   -15958   -16819   -17069   -16811   -16707   -16344 
  -15885   -15889   -15824   -15681   -15867   -15925   -15954   -16389 
  -16653   -16384   -15984   -15693   -15780   -16278   -16492   -16240 
  -16185   -16437   -16445   -16193   -16131   -16205   -16187   -16166 
  -16004   -15799   -16040   -16384   -16291   -16198   -16343   -16279 
  -15959   -15579   -15392   -15909   -16792   -16945   -16244   -15705 
  -16009   -16584   -16703   -16622   -16422   -15807   -15471   -15846 
  -15988   -15784   -15997   -16303   -16401   -16634   -16718   -16433 
  -16221   -16308   -16460   -16189   -15627   -15619   -15951   -15903 
  -15871   -15912   -15643   -15664   -16143   -16549   -17050   -17385 
  -16893   -16289   -16264   -16267   -16100   -16013   -15809   -15515 
  -15600   -16031   -16290   -16222   -16050   -15965   -16065   -16243 
  -16384   -16398   -16116   -15811   -15903   -16050   -15882   -15731 
  -15759   -15835   -16125   -16586   -16810   -16869   -17101   -17209 
  -16775   -16079   -15466   -15059   -15276   -16044   -16465   -16536 
  -16762   -16707   -16398   -16445   -16447   -16083   -15834   -15900 
  -16143   -16320   -16243   -15963   -15562   -15315   -15525   -15839 
  -15888   -16073   -16514   -16660   -16654   -16789   -16526   -16077 
  -16086   -16015   -15599   -15361   -15364   -15724   -16495   -16965 
  -16791   -16463   -16310   -16278   -16320   -16420   -16455   -16310 
  -16044   -15905   -16127   -16436   -16374   -16160   -16083   -15913 
  -15859   -16213   -16436   -16282   -16193   -16178   -16090   -16043 
  -15915   -15670   -15573   -15653   -15898   -16293   -16463   -16403 
  -16498   -16518   -16260   -16119   -16179   -16202   -16069   -15870 
  -15924   -16209   -16299   -16151   -16079   -16163   -16285   -16424 
  -16571   -16596   -16476   -16367   -16305   -16113   -15867   -15947 
  -16289   -16418   -16182   -15862   -15828   -16074   -16362   -16687 
  -16876   -16704   -16418   -16129   -15805   -15758   -15862   -15511 
  -14836   -14674   -15330   -16216   -16704   -16757   -16626   -16519 
  -16413   -16170   -15940   -15862   -15836   -16077   -16740   -17328 
  -17369   -16833   -16127   -15855   -15884   -15781   -15851   -16143 
  -16148   -16005   -16069   -16054   -15900   -16048   -16272   -16082 
  -15907   -16108   -16306   -16426   -16659   -16762   -16521   -16158 
  -15958   -15943   -15859   -15634   -15587   -15782   -16082   -16511 
  -16707   -16384   -16062   -16031   -15975   -15823   -15732   -15844 
  -16178   -16328   -15955   -15518   -15657   -16336   -17023   -17312 
  -17258   -17196   -17143   -16837   -16295   -15704   -15122   -14828 
  -15183   -15962   -16591   -16838   -16673   -16127   -15715   -15928 
  -16330   -16352   -16205   -16162   -16035   -15882   -16032   -16370 
  -16526   -16352   -16059   -16093   -16420   -16618   -16607   -16312 
  -15742   -15442   -15627   -15870   -15935   -15882   -15971   -16428 
  -16848   -16885   -16810   -16578   -15938   -15469   -15707   -16009 
  -15815   -15691   -16078   -16530   -16637   -16559   -16588   -16777 
  -16853   -16557   -16125   -15913   -15816   -15631   -15534   -15786 
  -16093   -16040   -15950   -16132   -16252   -16268   -16370   -16289 
  -16047   -16164   -16503   -16437   -16066   -16016   -16283   -16259 
  -15951   -15892   -15930   -15836   -15997   -16467   -16858   -16883 
  -16533   -16235   -15904   -14868   -13618   -13178   -13246   -13300 
  -13614   -14089   -14573   -15732   -17707   -19534   -20420   -20336 
  -19919   -19755   -19788   -19948   -20147   -19660   -17941   -15292 
  -12461   -10308    -9320    -9688   -11778   -14905   -16884   -16653 
  -15345   -14358   -14192   -14466   -14694   -15215   -16316   -17293 
  -17570   -17383   -17042   -16916   -17517   -18592   -19338   -19623 
  -19620   -18985   -17729   -16702   -16085   -15180   -14149   -13892 
  -14596   -15793   -16961   -17598   -17548   -17062   -16429   -16104 
  -16541   -17327   -17348   -16190   -14504   -13022   -12154   -12190 
  -13332   -15780   -18954   -20785   -19911   -17865   -17294   -18574 
  -19437   -18281   -16197   -14620   -13363   -11917   -10755   -10797 
  -12210   -14081   -15709   -17375   -19008   -19805   -19940   -20561 
  -21540   -21180   -18860   -16213   -14609   -13597   -12885   -13232 
  -14611   -15797   -15876   -15061   -14517   -15188   -16453   -16993 
  -16580   -15813   -15078   -14490   -14496   -15884   -18110   -19040 
  -17840   -15781   -14161   -13964   -15719   -18210   -19467   -18840 
  -17073   -15367   -14366   -13865   -13760   -14130   -14812   -15834 
  -16798   -16677   -15753   -15584   -16668   -17807   -17575   -15965 
  -14409   -14164   -15354   -17413   -19238   -19471   -17930   -15940 
  -14555   -14099   -14754   -15878   -16551   -16902   -17084   -16657 
  -15477   -14042   -13552   -14881   -17346   -19573   -20432   -19214 
  -16251   -13073   -11502   -12289   -14455   -16418   -17532   -17857 
  -17525   -17215   -17747   -18469   -17925   -16395   -15460   -15608 
  -16406   -17510   -18177   -17518   -15807   -14257   -13537   -13463 
  -13833   -14642   -15661   -16424   -16594   -16100   -15091   -14530 
  -15596   -17556   -18408   -17756   -16848   -16564   -16511   -16012 
  -15546   -15797   -16305   -16463   -16090   -15249   -14748   -15331 
  -16607   -17847   -18743   -18998   -18129   -16335   -14881   -14589 
  -15006   -15700   -16659   -17574   -18007   -17680   -16486   -15040 
  -14399   -14836   -15853   -16812   -17062   -16406   -15534   -15182 
  -15314   -15585   -15728   -15612   -15778   -16596   -17050   -16262 
  -15040   -14428   -14261   -14050   -14099   -14751   -15535   -16128 
  -16864   -17601   -17825   -17751   -17793   -18034   -18409   -18392 
  -17805   -17520   -17969   -18562   -18878   -18886   -18220   -16459 
  -14287   -13200   -13691   -14918   -15730   -15330   -13905   -12742 
  -12773   -13410   -13986   -14997   -16552   -17788   -18342   -18166 
  -17150   -16051   -15830   -16160   -16013   -15140   -14142   -13389 
  -12868   -12887   -13477   -13946   -14224   -14943   -16137   -17523 
  -18983   -20147   -20599   -20434   -19850   -18605   -16733   -15408 
  -15695   -16888   -17682   -17748   -17227   -16602   -16839   -17965 
  -18686   -18202   -17068   -15993   -14886   -13486   -12229   -11773 
  -12129   -13005   -14214   -15391   -16356   -17273   -17909   -17902 
  -17536   -17261   -17128   -16869   -16210   -15484   -15406   -15843 
  -15948   -15360   -14261   -13051   -12383   -12791   -14284   -16320 
  -18219   -19593   -20164   -19861   -19211   -18688   -18091   -17316 
  -16854   -16945   -17154   -17088   -16632   -15703   -14454   -13248 
  -12417   -12367   -13192   -14328   -15288   -16213   -17332   -18446 
  -19005   -18580   -17496   -16563   -15985   -15531   -15241   -15211 
  -15616   -16519   -17182   -16858   -15905   -15157   -15088   -15619 
  -16212   -16582   -16906   -17126   -16993   -16664   -16510   -16748 
  -17354   -18009   -18218   -17536   -15935   -13936   -12194   -11210 
  -11249   -12197   -13625   -15137   -16522   -17679   -18559   -19082 
  -19029   -18324   -17300   -16420   -15935   -15801   -15885   -16322 
  -17223   -18176   -18689   -18644   -18207   -17560   -16738   -15892 
  -15334   -15041   -14742   -14445   -14185   -13778   -13456   -13876 
  -15047   -16395   -17562   -18288   -18339   -17892   -17477   -17315 
  -16930   -15817   -14280   -13109   -12761   -13247   -14496   -16262 
  -17963   -19026   -19145   -18447   -17498   -16734   -16197   -15808 
  -15464   -15106   -14824   -14899   -15662   -16924   -17794   -17721 
  -17086   -16428   -16062   -16078   -16073   -15707   -15331   -15427 
  -15939   -16356   -16340   -16036   -15651   -15244   -14905   -14710 
  -14728   -15105   -15903   -16977   -17952   -18370   -18180   -17794 
  -17464   -17003   -16249   -15439   -14767   -14072   -13437   -13400 
  -14110   -15133   -16231   -17331   -18009   -17878   -17113   -16218 
  -15655   -15666   -16189   -17001   -17842   -18257   -17788   -16563 
  -15275   -14469   -14175   -14226   -14648   -15527   -16526   -17116 
  -17261   -17207   -16926   -16391   -15996   -16075   -16465   -16960 
  -17605   -18175   -18130   -17412   -16488   -15622   -14794   -14030 
  -13506   -13440   -13798   -14358   -15026   -15723   -16268   -16637 
  -16942   -17238   -17564   -17890   -18098   -18268   -18493   -18555 
  -18179   -17269   -16040   -15138   -14993   -15225   -15302   -15160 
  -14804   -14233   -13842   -13998   -14484   -14935   -15341   -15888 
  -16679   -17581   -18173   -18079   -17362   -16359   -15471   -15114 
  -15408   -16077   -16807   -17424   -17864   -18002   -17545   -16444 
  -15191   -14293   -13878   -13981   -14600   -15519   -16509   -17447 
  -18229   -18701   -18605   -17788   -16587   -15650   -15310   -15387 
  -15556   -15637   -15577   -15480   -15553   -15799   -16012   -16197 
  -16433   -16510   -16206   -15612   -15041   -14886   -15264   -15788 
  -15988   -15898   -15915   -16205   -16599   -16937   -17134   -17091 
  -16873   -16738   -16730   -16729   -16830   -17086   -17166   -16799 
  -16148   -15450   -14790   -14393   -14634   -15465   -16340   -16827 
  -16916   -16649   -15967   -15061   -14466   -14601   -15465   -16773 
  -18007   -18586   -18438   -17934   -17358   -16783   -16148   -15483 
  -15029   -14860   -14809   -14850   -15060   -15412   -15823   -16243 
