Origin Time       2025/03/28 03:50:00
Lat.              35.403
Long.             140.360
Depth. (km)       54
Mag.              4.4
Station Code      CHB004
Station Lat.      35.8889
Station Long.     140.4903
Station Height(m) 36
Record Time       2025/03/28 03:50:51
Sampling Freq(Hz) 100Hz
Duration Time(s)  68
Dir.              N-S
Scale Factor      7845(gal)/8223790
Max. Acc. (gal)   4.208
Last Correction   2025/03/28 03:50:50
Memo.             
[...]
    -564     -562     -575     -568     -567     -573     -571     -576 
    -585     -571     -546     -548     -565     -580     -583     -571 
    -564     -565     -562     -564     -569     -571     -558     -544 
    -561     -584     -572     -560     -573     -583     -571     -562 
    -573     -573     -558     -557     -561     -562     -561     -572 
    -579     -553     -541     -558     -562     -558     -564     -564 
    -568     -572     -558     -556     -577     -580     -561     -556 
    -562     -564     -562     -564     -564     -564     -573     -581 
    -569     -562     -576     -572     -560     -568     -565     -550 
    -560     -564     -545     -550     -581     -579     -554     -561 
    -572     -556     -557     -577     -577     -564     -554     -557 
    -564     -561     -557     -567     -573     -568     -564     -564 
    -562     -564     -572     -583     -577     -567     -569     -568 
    -568     -572     -571     -571     -571     -565     -562     -552 
    -542     -561     -585     -572     -549     -554     -567     -573 
    -580     -576     -560     -557     -573     -576     -569     -577 
    -581     -576     -571     -562     -573     -595     -599     -600 
    -615     -618     -594     -575     -553     -511     -479     -479 
    -503     -538     -584     -643     -676     -658     -629     -557 
    -410     -297     -279     -317     -427     -598     -738     -870 
   -1021    -1031     -807     -519     -324     -186      -97     -136 
    -345     -702    -1038    -1181    -1181    -1047     -661     -174 
      95      101       -8     -234     -650    -1078    -1123     -772 
    -554     -634     -612     -433     -400     -469     -390     -238 
    -337     -707    -1004    -1012     -768     -426     -243     -371 
    -656     -870     -904     -675     -334     -159     -108     -132 
    -386     -773    -1044    -1071     -811     -540     -604     -751 
    -526     -108      -36     -353     -627     -730     -846     -893 
    -712     -511     -540     -610     -481     -334     -422     -612 
    -648     -625     -820    -1038     -837     -365     -166     -283 
    -394     -483     -673     -870     -864     -625     -459     -630 
    -873     -839     -697     -665     -599     -477     -400     -243 
     -58     -164     -510     -845    -1098    -1105     -757     -263 
     175      395      207     -260     -650     -893    -1008     -859 
    -722     -909     -974     -630     -341     -329     -346     -400 
    -623     -843     -855     -627     -294     -186     -398     -660 
    -868    -1112    -1162     -797     -371     -157       82      315 
     117     -511    -1078    -1333    -1406    -1339    -1007     -398 
     220      479      332     -122     -916    -1630    -1653    -1236 
    -859     -383      193      426      125     -322     -405     -295 
    -510     -792     -722     -666     -827     -773     -604     -822 
   -1232    -1340    -1075     -587      -99      159      145     -135 
    -611     -970     -947     -753     -757     -849     -720     -453 
    -270     -225     -425     -834    -1080    -1034     -877     -583 
    -148      206      342      149     -352     -773     -854     -843 
    -976    -1096    -1004     -800     -596     -322     -116     -275 
    -683     -896     -764     -475     -218      -21       83     -136 
    -685    -1165    -1317    -1151     -804     -537     -499     -646 
    -749     -527      -33      355      346       -6     -500    -1028 
   -1398    -1352    -1021     -708     -469     -307     -225     -182 
    -214     -313     -402     -471     -480     -407     -468     -815 
   -1225    -1418    -1243     -788     -506     -594     -670     -538 
    -444     -545     -673     -567     -268     -140     -306     -540 
    -720     -866     -753     -264       21     -245     -488     -457 
    -494     -515     -359     -224     -243     -471     -805     -862 
    -630     -541     -743     -940     -911     -938    -1239    -1441 
   -1289    -1016     -726     -341      112      552      758      396 
    -473    -1225    -1363    -1042     -573      -21      348      148 
    -453    -1027    -1478    -1742    -1556     -924     -244      140 
     176      -13     -209     -336     -517     -707     -784     -861 
    -961     -874     -643     -535     -556     -535     -421     -407 
    -747    -1104     -885     -317      -36      -75     -202     -426 
    -618     -595     -486     -483     -572     -612     -587     -615 
    -643     -584     -579     -637     -576     -419     -319     -427 
    -839    -1254    -1371    -1362    -1282     -989     -638     -441 
    -315      -49      282      206     -359     -784     -850    -1098 
   -1495    -1339     -607       72      402      492      496      333 
     -59     -355     -460     -799    -1244    -1213     -935     -889 
    -757     -322       12       58       24      -14     -195     -491 
    -777    -1210    -1725    -1783    -1297     -672     -224     -315 
    -911    -1283    -1185    -1009     -689      -66      406      378 
      86     -143     -306     -463     -461     -315     -363     -760 
   -1129    -1094     -847     -700     -542     -220       17     -129 
    -479     -814    -1297    -1721    -1509     -774     -145      183 
     207     -191     -768    -1212    -1436    -1266     -827     -383 
      60      213      -67     -355     -554     -805     -873     -568 
    -148      -29     -256     -394     -255     -228     -526     -849 
    -928     -815     -712     -706     -711     -645     -507     -469 
    -761    -1139    -1089     -723     -499     -383     -194     -102 
    -282     -627     -859     -847     -793     -761     -531     -210 
    -166     -373     -562     -665     -714     -760     -818     -761 
    -627     -496     -261      -74     -228     -650    -1036    -1086 
    -750     -342     -232     -465     -730     -791     -699     -531 
    -295        2      193        0     -445     -629     -421     -221 
    -267     -494     -942    -1502    -1692    -1324     -868     -675 
    -571     -544     -702     -816     -822     -822     -626     -268 
    -184     -430     -654     -791     -918     -839     -514     -282 
    -234     -162     -144     -379     -749     -997     -969     -702 
    -299      101      186     -113     -444     -681     -865     -878 
    -789     -700     -567     -473     -438     -411     -557     -841 
    -977     -947     -851     -679     -425     -180     -122     -209 
    -206     -170     -194     -226     -433     -792     -982    -1023 
   -1001     -827     -645     -572     -529     -514     -414     -137 
      32     -176     -677    -1152    -1332    -1228     -992     -693 
    -341      -51      -71     -427     -881    -1289    -1478    -1248 
    -810     -411      -51       83      -63     -201     -315     -472 
    -502     -286      110      298       24     -359     -660    -1047 
   -1356    -1336    -1121     -899     -685     -511     -386     -267 
    -233     -380     -561     -610     -585     -517     -457     -573 
    -826    -1015    -1055     -981     -904     -878     -781     -449 
      76      433      314      -99     -441     -661     -962    -1256 
   -1148     -583      -41       58     -193     -577    -1078    -1564 
   -1698    -1366     -731       28      626      735      360     -198 
    -598     -631     -486     -495     -688     -816     -730     -602 
    -661     -791     -689     -409     -351     -627     -832     -724 
    -615     -810    -1150    -1233     -907     -419      -58      103 
      70     -141     -436     -749    -1088    -1356    -1386    -1201 
    -976     -684     -238       62      -74     -445     -834    -1174 
   -1189     -715      -70      346      284     -278     -849     -996 
    -927     -789     -406       60      303      379      310      -64 
    -614    -1008    -1084     -920     -747     -631     -534     -603 
    -800     -841     -814    -1005    -1282    -1385    -1259     -939 
    -625     -391      -81      106      -95     -314     -194      -98 
    -407     -893    -1185    -1201    -1055     -908     -722     -336 
      78      189       28      -86      -87     -193     -380     -472 
    -554     -688     -765     -907    -1182    -1350    -1298     -999 
    -390      203      405      292      -12     -449     -835    -1063 
   -1125    -1085    -1000     -826     -654     -666     -730     -666 
    -616     -614     -459     -140       93      116       31     -148 
    -467     -749     -862     -789     -480     -193     -392    -1073 
   -1719    -1880    -1516     -877     -214      341      664      608 
     222     -278     -649     -746     -774    -1096    -1599    -1811 
   -1590    -1158     -649     -126      210      263      114     -164 
    -418     -429     -275     -191     -202     -303     -603     -984 
   -1089     -903     -873    -1132    -1313    -1248    -1108     -943 
    -583        0      523      716      592      402      336      261 
       0     -391     -866    -1395    -1798    -1919    -1759    -1386 
    -911     -561     -540     -703     -765     -780     -930    -1057 
    -997    -1015    -1409    -2101    -2768    -3019    -2461    -1098 
     348     1067      972      594      454      726     1223     1575 
    1487      901      -37     -996    -1603    -1729    -1472    -1004 
    -495      -51      210      183      -45     -236     -167       27 
    -245    -1213    -2176    -2442    -1999    -1051       86      735 
     353     -801    -1823    -1998    -1354     -372      464      753 
     341     -425    -1036    -1244     -938     -116      841     1267 
     797     -226    -1086    -1309     -803      145      772      345 
    -976    -2201    -2614    -2438    -2056    -1314     -342      110 
    -287    -1019    -1250     -587      537     1474     1902     1584 
     460    -1020    -2172    -2451    -1691     -459      345      400 
     -39     -638    -1167    -1420    -1174     -603     -376     -726 
   -1120    -1192    -1108    -1120    -1248    -1290    -1104     -819 
    -591     -414     -271     -298     -602     -920     -878     -481 
     106      729     1085     1015      673      126     -642    -1242 
   -1250    -1007    -1127    -1628    -2042    -1987    -1541    -1019 
    -450      263      976     1426     1503     1225      607     -217 
    -837     -977     -918    -1016    -1188    -1239    -1231    -1391 
   -1877    -2371    -2284    -1618     -973     -623     -325      118 
     542      599      310       70     -113     -545    -1109    -1405 
   -1198     -594      -43      102        6       47      303      484 
     315     -155     -706    -1174    -1483    -1510    -1142     -544 
    -102      -10     -160     -376     -561     -649     -661     -803 
   -1142    -1431    -1517    -1422    -1084     -452      368     1069 
    1224      681     -286    -1260    -1910    -2052    -1745    -1256 
    -849     -722     -947    -1304    -1506    -1502    -1194     -409 
     488      800      467       75       32      203      299      271 
     126     -179     -558     -816     -873     -864     -949    -1027 
    -800     -206      338      346     -194    -1007    -1875    -2488 
   -2442    -1701     -684       31      -86    -1070    -2170    -2597 
   -2284    -1584     -726       59      477      529      518      675 
     945     1142     1183      976      344     -666    -1586    -1912 
   -1669    -1213     -702     -198      137      198      -25     -440 
    -766     -846     -893    -1166    -1632    -1996    -1992    -1636 
   -1100     -604     -382     -386     -314      -33      427     1026 
    1544     1773     1757     1379      351    -1084    -2270    -2898 
   -3032    -2631    -1637     -506      133      253      175      153 
     429      919     1167      912      234     -773    -1972    -2918 
   -3203    -2813    -1989    -1048     -238      373      762      881 
     861      857      722      224     -523    -1085    -1309    -1571 
   -2008    -2212    -1988    -1578    -1125     -602      -82      297 
     457      386      145     -217     -731    -1287    -1659    -1736 
   -1553    -1192     -795     -591     -695     -970    -1202    -1240 
   -1039     -731     -511     -379     -255     -202     -247     -352 
    -422     -232      209      577      622      245     -456    -1132 
   -1455    -1409    -1188     -966     -804     -677     -583     -484 
    -257      145      633     1143     1609     1718     1181      225 
    -681    -1360    -1809    -2034    -2116    -2172    -2177    -2004 
   -1647    -1165     -562       39      422      545      488      222 
    -238     -795    -1425    -2060    -2459    -2417    -1841     -861 
     176      959     1360     1474     1490     1412     1144      742 
     237     -486    -1360    -1979    -2038    -1676    -1219     -820 
    -530     -453     -571     -707     -727     -577     -268       68 
     206       37     -353     -936    -1798    -2886    -3917    -4491 
   -4369    -3701    -2791    -1760     -588      773     2200     3284 
    3727     3661     3357     2825     1883      545     -900    -2130 
   -2930    -3204    -2936    -2219    -1304     -457      211      724 
    1069     1228     1312     1395     1233      481     -791    -2205 
   -3510    -4526    -4977    -4619    -3485    -1961     -449      847 
    1792     2255     2245     1960     1575     1121      730      472 
      79     -608    -1409    -2077    -2382    -2131    -1456     -770 
    -344     -240     -441     -737     -866     -800     -649     -494 
    -490     -811    -1409    -2085    -2628    -2760    -2305    -1406 
    -444      280      789     1248     1652     1861     1782     1372 
     683     -153    -1082    -2007    -2592    -2623    -2276    -1767 
   -1258     -967     -919     -857     -608     -236       95      189 
      -9     -332     -666     -992    -1220    -1269    -1170    -1044 
    -959     -893     -777     -500        8      673     1254     1537 
    1597     1644     1695     1561     1131      465     -346    -1205 
   -1981    -2605    -3067    -3289    -3146    -2710    -2219    -1705 
   -1065     -386      189      661     1034     1260     1356     1271 
     881      194     -618    -1391    -2081    -2604    -2744    -2435 
   -1800     -959      -93      545      882      982      857      510 
      -9     -656    -1372    -2074    -2624    -2856    -2704    -2189 
   -1374     -498      143      444      461      336      249      294 
     419      526      521      328      -44     -461     -838    -1233 
   -1598    -1776    -1799    -1782    -1741    -1582    -1167     -567 
      51      685     1270     1583     1551     1252      784      278 
    -118     -376     -619    -1027    -1548    -1904    -1991    -1971 
   -1925    -1784    -1493    -1001     -295      487     1129     1483 
    1436      919       20    -1019    -1873    -2261    -2185    -1931 
   -1707    -1487    -1291    -1242    -1312    -1269     -872     -143 
     669     1273     1475     1270      845      402      -49     -553 
    -954    -1119    -1158    -1239    -1398    -1574    -1672    -1598 
   -1332     -954     -511      -29      387      633      670      529 
     290       49     -170     -486     -935    -1341    -1553    -1606 
   -1556    -1391    -1089     -669     -257        4       74      -55 
    -303     -436     -365     -248     -211     -236     -259     -306 
    -452     -689     -966    -1256    -1525    -1664    -1543    -1206 
    -835     -522     -271     -126     -103     -120     -108     -101 
    -174     -298     -392     -498     -718    -1055    -1405    -1606 
   -1533    -1262    -1000     -792     -562     -383     -317     -241 
     -67      106      132      -16     -291     -653     -976    -1132 
   -1146    -1104    -1017     -847     -599     -363     -199     -101 
     -86     -163     -260     -346     -442     -529     -583     -635 
    -707     -735     -664     -542     -429     -360     -399     -491 
    -518     -487     -445     -382     -355     -472     -733    -1058 
   -1350    -1547    -1624    -1526    -1215     -710      -49      696 
    1381     1796     1836     1533      949      162     -675    -1409 
   -1965    -2319    -2455    -2396    -2176    -1775    -1188     -504 
     126      581      781      693      375      -31     -410     -692 
    -850     -953    -1080    -1177    -1115     -931     -827     -870 
    -954    -1024    -1053     -935     -646     -284       10      112 
       2     -206     -409     -517     -504     -430     -371     -407 
    -502     -486     -317     -121      -13      -35     -176     -382 
    -577     -776     -997    -1151    -1219    -1341    -1563    -1779 
   -1890    -1783    -1441    -1011     -577     -110      302      521 
     592      629      558      325      -10     -418     -862    -1229 
   -1460    -1611    -1742    -1841    -1864    -1813    -1710    -1505 
   -1127     -607       -6      580      992     1170     1194     1108 
     893      576      232     -114     -453     -729     -912    -1031 
   -1116    -1188    -1240    -1200    -1015     -747     -514     -415 
    -483     -637     -780     -855     -812     -689     -571     -473 
    -395     -360     -338     -247     -110       -9       60      117 
     132       71      -54     -205     -395     -660     -957    -1227 
   -1408    -1426    -1293    -1119    -1011    -1008    -1078    -1159 
   -1185    -1121     -996     -872     -785     -730     -683     -600 
    -421     -143      151      375      477      405      147     -243 
    -658     -950    -1062    -1028     -884     -733     -648     -552 
    -440     -409     -434     -418     -357     -345     -461     -719 
   -1030    -1274    -1405    -1417    -1263     -994     -751     -561 
    -365     -197     -103      -62      -33      -24      -40      -66 
     -95     -182     -378     -649     -924    -1136    -1215    -1165 
   -1038     -873     -677     -429     -175      -10       39        2 
     -89     -234     -456     -672     -791     -846     -854     -787 
    -706     -691     -724     -780     -891    -1028    -1101    -1088 
   -1038     -961     -797     -567     -392     -330     -315     -309 
    -348     -434     -537     -634     -645     -526     -334     -113 
      67      124       63      -33      -87      -58       27       82 
      67      -18     -221     -518     -788     -943    -1000    -1012 
   -1005    -1017    -1058    -1080    -1066     -959     -729     -463 
    -256     -197     -380     -764    -1165    -1433    -1512    -1422 
   -1237    -1008     -774     -560     -341      -93      174      433 
     603      581      349      -56     -553    -1024    -1382    -1580 
   -1595    -1468    -1281    -1055     -792     -492     -168      106 
     263      264       86     -193     -461     -679     -814     -868 
    -864     -799     -673     -535     -433     -344     -241     -184 
    -240     -382     -588     -857    -1077    -1154    -1107     -966 
    -816     -734     -703     -669     -615     -561     -479     -367 
