Origin Time       2025/03/28 03:50:00
Lat.              35.403
Long.             140.360
Depth. (km)       54
Mag.              4.4
Station Code      CHB021
Station Lat.      34.9078
Station Long.     139.8994
Station Height(m) 9
Record Time       2025/03/28 03:51:03
Sampling Freq(Hz) 100Hz
Duration Time(s)  60
Dir.              E-W
Scale Factor      7845(gal)/8223790
Max. Acc. (gal)   1.842
Last Correction   2025/03/28 03:51:03
Memo.             
[...]
   10261    10257    10265    10269    10266    10265    10260    10262 
   10262    10260    10269    10268    10258    10266    10269    10260 
   10257    10258    10262    10272    10277    10269    10261    10266 
   10269    10260    10260    10262    10262    10270    10268    10254 
   10261    10273    10260    10253    10270    10274    10266    10264 
   10257    10260    10266    10262    10266    10277    10272    10258 
   10258    10269    10269    10261    10257    10265    10274    10264 
   10249    10251    10268    10276    10269    10266    10265    10258 
   10261    10266    10270    10274    10264    10255    10264    10273 
   10272    10264    10257    10261    10269    10268    10258    10257 
   10268    10272    10266    10264    10264    10261    10266    10272 
   10264    10258    10277    10277    10257    10266    10278    10257 
   10251    10272    10278    10268    10251    10254    10272    10272 
   10265    10264    10255    10258    10270    10268    10261    10261 
   10264    10266    10266    10268    10268    10264    10268    10274 
   10265    10253    10258    10269    10269    10269    10272    10261 
   10249    10258    10266    10260    10266    10272    10260    10264 
   10273    10270    10266    10257    10257    10276    10273    10251 
   10260    10277    10269    10254    10254    10262    10268    10264 
   10257    10260    10262    10260    10270    10274    10257    10261 
   10272    10270    10268    10251    10257    10285    10272    10245 
   10260    10277    10274    10262    10251    10266    10278    10261 
   10257    10272    10274    10266    10258    10257    10272    10273 
   10257    10268    10284    10262    10253    10269    10269    10274 
   10276    10255    10253    10266    10268    10264    10265    10265 
   10264    10264    10268    10270    10269    10262    10253    10264 
   10280    10268    10262    10276    10269    10258    10270    10276 
   10262    10261    10270    10265    10265    10270    10264    10262 
   10269    10268    10268    10266    10266    10269    10258    10258 
   10278    10277    10254    10253    10272    10280    10268    10254 
   10258    10274    10273    10264    10261    10265    10269    10262 
   10251    10262    10277    10266    10262    10269    10261    10266 
   10270    10258    10264    10265    10251    10261    10276    10270 
   10258    10260    10265    10261    10264    10274    10268    10249 
   10255    10270    10265    10261    10258    10261    10281    10273 
   10239    10251    10287    10280    10247    10241    10268    10280 
   10262    10251    10258    10270    10278    10262    10246    10255 
   10272    10269    10257    10257    10265    10274    10276    10257 
   10251    10269    10266    10255    10266    10269    10262    10262 
   10266    10272    10264    10247    10260    10284    10274    10246 
   10249    10277    10278    10255    10250    10266    10280    10266 
   10247    10255    10273    10276    10266    10260    10269    10274 
   10258    10260    10284    10292    10288    10292    10297    10303 
   10314    10307    10295    10297    10276    10246    10253    10264 
   10238    10206    10216    10234    10203    10158    10152    10172 
   10187    10191    10197    10226    10269    10305    10326    10335 
   10345    10376    10411    10397    10350    10330    10351    10397 
   10386    10288    10197    10170    10188    10215    10204    10135 
   10052    10030    10104    10204    10214    10147    10118    10199 
   10346    10420    10403    10415    10449    10461    10455    10377 
   10309    10397    10444    10265    10123    10189    10245    10266 
   10336    10274    10100    10068    10145    10180    10179    10147 
   10110    10112    10181    10262    10258    10255    10316    10309 
   10287    10354    10401    10378    10354    10326    10288    10355 
   10462    10354    10160    10173    10269    10250    10223    10207 
   10083     9994    10135    10357    10411    10284    10208    10303 
   10443    10498    10454    10411    10431    10377    10157    10000 
   10149    10386    10323    10018     9861    10012    10270    10395 
   10278    10092    10150    10380    10466    10404    10358    10359 
   10408    10508    10503    10334    10238    10255    10119     9861 
    9828    10038    10183    10129    10044    10110    10254    10341 
   10419    10534    10639    10678    10579    10415    10373    10407 
   10304    10081     9926     9929    10041    10191    10322    10341 
   10280    10281    10324    10299    10242    10296    10404    10314 
   10081    10066    10281    10386    10335    10318    10358    10435 
   10548    10554    10359    10173    10122    10115    10119    10085 
    9977     9937    10080    10327    10443    10362    10316    10376 
   10351    10233    10193    10245    10238    10160    10110    10122 
   10188    10289    10351    10320    10249    10237    10334    10494 
   10528    10319    10060    10006    10143    10284    10326    10262 
   10095    10033    10239    10438    10471    10540    10586    10466 
   10354    10273    10107    10062    10189    10207    10138    10145 
   10187    10266    10372    10370    10316    10351    10449    10536 
   10492    10284    10183    10341    10516    10489    10233     9859 
    9686     9849    10017    10048    10177    10380    10439    10420 
   10413    10350    10245    10120     9990    10017    10237    10407 
   10450    10474    10396    10233    10219    10338    10428    10450 
   10334    10126    10012     9994     9981    10011    10099    10197 
   10336    10562    10702    10589    10365    10311    10462    10550 
   10415    10254    10234    10258    10272    10241    10077     9931 
    9949    10011    10058    10160    10319    10385    10288    10285 
   10485    10647    10631    10486    10370    10404    10404    10238 
   10142    10174    10096     9940     9884     9958    10170    10359 
   10347    10276    10254    10243    10287    10282    10184    10223 
   10407    10458    10318    10195    10237    10353    10413    10370 
   10249    10207    10303    10330    10195    10081    10071    10035 
    9915     9849     9996    10204    10322    10527    10763    10732 
   10527    10370    10341    10535    10766    10616    10177     9864 
    9760     9761     9813     9910    10075    10242    10261    10119 
   10080    10322    10562    10586    10640    10787    10777    10605 
   10438    10361    10380    10357    10197    10033    10012    10104 
   10085     9904     9853    10031    10146    10046     9988    10179 
   10478    10666    10605    10378    10281    10404    10536    10513 
   10366    10179    10035    10017    10099    10220    10326    10241 
    9991     9960    10260    10481    10372    10216    10264    10357 
   10319    10249    10272    10354    10399    10316    10137    10053 
   10127    10210    10258    10297    10277    10257    10376    10600 
   10697    10531    10285    10164    10093     9994     9968    10046 
   10088    10061    10092    10212    10338    10407    10390    10343 
   10328    10285    10180    10154    10293    10471    10575    10628 
   10636    10538    10331    10110     9996    10102    10359    10462 
   10288    10079    10027    10131    10276    10349    10304    10126 
    9980    10035    10193    10307    10296    10181    10068    10026 
   10160    10426    10570    10535    10393    10153     9996    10114 
   10359    10482    10453    10351    10257    10201    10165    10176 
   10284    10368    10346    10373    10446    10455    10416    10300 
   10153    10137    10187    10141    10033     9992    10080    10274 
   10436    10389    10183    10081    10220    10447    10536    10405 
   10147     9983    10083    10354    10536    10578    10557    10438 
   10284    10246    10280    10242    10216    10301    10342    10242 
   10137    10145    10207    10220    10260    10305    10189    10049 
   10061    10127    10258    10451    10446    10238    10126    10142 
   10164    10224    10309    10255    10096    10122    10359    10544 
   10544    10399    10193    10080    10166    10308    10314    10222 
   10145    10134    10204    10338    10489    10555    10478    10332 
   10211    10173    10212    10218    10153    10110    10157    10274 
   10384    10411    10332    10215    10207    10326    10369    10210 
   10000     9915     9948    10102    10314    10386    10343    10376 
   10476    10496    10426    10426    10484    10446    10338    10253 
   10247    10295    10241    10084    10022    10092    10085     9957 
    9958    10192    10463    10579    10486    10277    10107    10045 
   10093    10287    10530    10547    10323    10152    10201    10365 
   10442    10412    10370    10282    10185    10188    10261    10299 
   10215    10077    10081    10173    10192    10303    10565    10596 
   10282     9958     9907    10204    10524    10454    10166     9995 
   10038    10318    10547    10482    10305    10135    10029    10123 
   10288    10377    10417    10365    10278    10362    10521    10482 
   10278    10146    10185    10239    10179    10088     9968     9880 
    9995    10224    10434    10546    10492    10409    10334    10162 
   10122    10307    10390    10288    10157    10103    10224    10436 
   10508    10430    10339    10349    10485    10524    10374    10270 
   10196    10076    10110    10214    10122     9994    10108    10403 
   10577    10378     9976     9876    10149    10403    10390    10181 
   10046    10100    10147    10130    10191    10308    10384    10416 
   10400    10420    10559    10639    10565    10470    10358    10204 
   10044     9933    10017    10219    10309    10272    10195    10168 
   10196    10166    10131    10214    10299    10320    10351    10349 
   10308    10237    10139    10214    10392    10335    10197    10253 
   10330    10373    10439    10358    10172    10098    10185    10341 
   10382    10239    10093    10142    10341    10447    10350    10201 
   10160    10239    10389    10476    10343    10123    10092    10254 
   10436    10470    10272     9983     9857    10004    10219    10207 
   10102    10129    10179    10288    10552    10698    10593    10408 
   10242    10203    10287    10251    10107    10087    10199    10361 
   10463    10419    10369    10320    10170    10100    10181    10278 
   10308    10193    10010     9952    10095    10338    10438    10377 
   10359    10385    10382    10341    10220    10115    10187    10374 
   10408    10293    10301    10326    10162    10053    10197    10439 
   10542    10454    10284    10103     9996    10069    10210    10246 
   10210    10179    10200    10318    10405    10327    10196    10120 
   10103    10245    10450    10426    10261    10284    10453    10457 
   10315    10299    10370    10361    10273    10191    10145    10112 
   10214    10440    10428    10165    10046    10081    10131    10338 
   10523    10361    10143    10153    10230    10274    10258    10195 
   10219    10318    10363    10385    10385    10277    10095     9984 
   10075    10293    10384    10326    10373    10521    10490    10260 
   10012     9903    10035    10270    10347    10308    10346    10382 
   10345    10342    10339    10338    10365    10280    10129    10072 
   10073    10138    10338    10517    10471    10284    10174    10245 
   10412    10432    10238    10065    10010    10038    10241    10439 
   10334    10158    10238    10525    10812    10822    10500    10152 
   10031    10100    10211    10309    10397    10405    10303    10238 
   10328    10424    10361    10260    10254    10269    10207    10004 
    9703     9603     9884    10241    10380    10376    10341    10273 
   10176    10057     9864     9594     9414     9524     9956    10492 
   10875    11060    11020    10836    10774    10795    10658    10345 
    9985     9749     9783    10004    10150    10147    10201    10561 
   11163    11604    11516    10885    10145     9803     9822     9698 
    9274     9008     9224     9752    10269    10449    10322    10295 
   10420    10485    10447    10269    10058    10142    10484    10696 
   10660    10467    10193    10079    10173    10145     9931     9838 
    9971    10241    10539    10647    10597    10643    10675    10554 
   10444    10297    10057    10033    10345    10636    10631    10477 
   10420    10505    10605    10524    10234     9880     9644     9733 
   10106    10372    10293    10075     9991    10207    10654    10859 
   10520     9998     9790     9871     9895     9787     9792    10129 
   10616    10759    10444    10075     9949    10015    10127    10129 
    9942     9730     9659     9737     9772     9599     9472     9529 
    9711    10197    10879    11443    11867    11986    11676    11389 
   11373    11249    10878    10602    10570    10577    10426    10118 
    9865     9876     9938     9722     9501     9691    10118    10324 
   10073     9547     9225     9254     9428     9811    10338    10617 
   10720    10872    10921    10879    10932    10975    10871    10732 
   10628    10498    10335    10201    10193    10308    10416    10374 
   10087     9570     9047     8896     9221     9661     9813     9610 
    9346     9220     9175     9256     9502     9838    10293    10855 
   11356    11651    11842    12094    12195    11942    11561    11200 
   10845    10586    10374    10049     9713     9643     9729     9718 
    9775     9998    10084     9884     9590     9343     9158     9082 
    9058     9001     9026     9266     9656    10160    10848    11434 
   11551    11484    11604    11709    11520    11187    10944    10733 
   10544    10469    10277     9840     9393     9094     9073     9441 
   10058    10704    11209    11412    11238    10808    10457    10389 
   10347    10142    10049    10161    10137     9836     9467     9306 
    9505     9867    10045    10015    10015    10158    10287    10341 
   10438    10497    10376    10146     9948     9926    10064    10160 
   10250    10527    10908    11061    10750    10147     9620     9495 
    9926    10523    10883    11056    11056    10890    10729    10662 
   10710    10777    10654    10378    10152    10049    10112    10288 
   10365    10341    10396    10438    10278     9979     9629     9224 
    8942     9035     9447     9952    10346    10457    10426    10496 
   10450    10210    10157    10328    10396    10173     9779     9640 
    9904    10153    10052     9813     9926    10536    11205    11511 
   11462    11207    10871    10530    10197     9981     9904     9753 
    9556     9656    10072    10489    10652    10536    10432    10527 
   10667    10693    10567    10389    10277    10141     9902     9622 
    9394     9378     9648    10092    10555    10879    10956    10883 
   10882    10971    10966    10847    10731    10561    10303    10050 
    9714     9254     9032     9305     9900    10436    10512    10196 
    9922     9807     9796     9861     9850     9892    10280    10728 
   10752    10350     9872     9801    10296    10952    11246    11034 
   10719    10758    11048    11178    10941    10488    10181    10127 
   10096     9969     9830     9740     9728     9856    10088    10165 
    9891     9568     9589     9845    10093    10243    10292    10374 
   10508    10535    10396    10195    10168    10395    10670    10887 
   10998    10843    10554    10427    10399    10338    10262    10112 
    9903     9725     9587     9641     9948    10233    10393    10512 
   10509    10311     9969     9734     9902    10331    10677    10862 
   10852    10665    10558    10663    10762    10631    10330    10104 
   10045    10053    10068    10057    10080    10231    10330    10219 
   10098    10044     9984     9967     9954    10011    10214    10323 
   10251    10224    10300    10431    10551    10496    10293    10172 
   10206    10347    10516    10555    10378    10093     9871     9794 
    9909    10120    10183    10131    10218    10413    10511    10489 
   10511    10638    10728    10679    10554    10446    10314    10018 
    9579     9352     9624    10104    10405    10538    10563    10494 
   10447    10463    10573    10719    10632    10338    10129     9964 
    9761     9616     9499     9437     9532     9767    10164    10721 
   11264    11526    11313    10783    10305    10002     9814     9668 
    9582     9644     9765     9844     9991    10223    10376    10381 
   10320    10343    10597    10940    11060    10894    10539    10158 
   10023    10206    10535    10800    10790    10525    10268    10161 
   10280    10570    10775    10751    10482    10062     9730     9598 
    9610     9745    10015    10303    10420    10357    10250    10174 
   10104    10000     9871     9840    10004    10197    10281    10393 
   10619    10839    10957    10926    10760    10538    10315    10153 
    9996     9698     9412     9389     9579     9828    10062    10228 
   10282    10245    10249    10376    10500    10519    10438    10284 
   10239    10473    10758    10839    10744    10486    10222    10228 
   10396    10461    10324    10126    10210    10474    10457    10192 
    9942     9783     9769     9855     9931     9985    10023    10106 
   10284    10485    10557    10439    10251    10164    10215    10265 
   10224    10204    10291    10444    10536    10548    10625    10716 
   10662    10494    10347    10296    10251    10102     9933     9884 
   10011    10231    10292    10120     9973    10021    10238    10542 
   10655    10485    10363    10422    10469    10435    10357    10212 
   10021     9922    10002    10164    10282    10291    10230    10262 
   10424    10535    10494    10396    10384    10497    10532    10334 
   10049     9782     9548     9479     9617     9913    10253    10444 
   10481    10524    10696    10920    10926    10673    10449    10408 
   10439    10407    10230    10003     9949    10093    10238    10183 
    9956     9810     9887    10133    10412    10552    10436    10115 
    9868     9948    10189    10288    10265    10273    10268    10201 
   10108     9994     9983    10169    10320    10295    10295    10423 
   10528    10531    10546    10673    10809    10748    10435    10065 
    9892     9999    10242    10359    10255    10138    10157    10197 
   10215    10208    10064     9890     9882     9990    10164    10318 
   10281    10161    10154    10307    10586    10821    10832    10663 
   10471    10357    10354    10385    10319    10196    10164    10218 
   10272    10218    10039     9973    10137    10289    10231    10017 
    9861     9936    10146    10309    10404    10516    10640    10652 
   10551    10492    10474    10355    10130     9957     9964    10107 
   10231    10247    10165    10079    10087    10141    10177    10241 
   10354    10493    10600    10604    10503    10324    10161    10149 
   10288    10466    10594    10562    10339    10112    10021    10006 
   10019    10065    10164    10296    10346    10282    10201    10164 
   10253    10386    10291    10007     9801     9860    10158    10407 
