Origin Time       2025/03/28 03:50:00
Lat.              35.403
Long.             140.360
Depth. (km)       54
Mag.              4.4
Station Code      CHB004
Station Lat.      35.8889
Station Long.     140.4903
Station Height(m) 36
Record Time       2025/03/28 03:50:51
Sampling Freq(Hz) 100Hz
Duration Time(s)  68
Dir.              U-D
Scale Factor      7845(gal)/8223790
Max. Acc. (gal)   2.235
Last Correction   2025/03/28 03:50:50
Memo.             
[...]
     843      846      843      838      843      854      841      832 
     851      857      841      835      841      850      853      849 
     851      853      841      835      849      849      839      845 
     841      838      857      858      843      841      849      847 
     832      834      847      846      842      846      847      847 
     851      843      835      846      854      850      845      841 
     843      841      837      853      859      839      831      845 
     847      838      849      859      845      842      850      839 
     838      850      849      839      835      847      866      849 
     823      845      862      845      835      846      853      850 
     847      858      857      845      849      849      843      854 
     853      839      846      855      850      849      851      843 
     838      839      846      854      853      849      851      851 
     842      838      849      847      837      847      851      832 
     835      853      849      845      846      847      854      849 
     830      841      861      853      843      846      850      842 
     834      842      847      849      853      851      853      857 
     845      838      853      851      838      843      849      837 
     837      849      850      837      834      853      857      834 
     828      855      861      832      830      854      855      842 
     845      854      851      849      854      854      847      846 
     853      853      842      839      849      855      851      843 
     847      853      849      835      834      845      839      835 
     857      855      832      839      850      841      835      838 
     841      850      853      839      837      850      850      842 
     849      853      843      837      845      851      849      850 
     861      861      849      851      853      838      842      859 
     854      843      850      855      849      846      850      845 
     832      832      838      835      839      850      847      839 
     835      834      835      839      839      841      845      845 
     849      849      846      853      851      842      849      858 
     849      842      855      859      842      839      862      862 
     835      828      843      850      843      843      849      846 
     850      845      831      838      846      842      847      849 
     835      834      843      839      835      842      839      835 
     843      849      841      841      853      850      847      849 
     837      837      855      858      845      838      846      854 
     851      846      849      850      839      838      850      850 
     851      854      842      837      845      846      841      835 
     837      850      850      835      839      850      845      847 
     847      837      839      849      845      841      842      842 
     843      845      843      847      857      853      839      841 
     843      843      854      864      849      835      843      845 
     846      849      838      842      862      855      832      831 
     850      855      835      832      858      851      827      842 
     858      843      839      849      849      837      839      854 
     845      828      846      866      853      834      841      849 
     846      850      851      846      841      842      846      851 
     851      841      839      846      843      845      849      838 
     831      810      747      668      589      496      380      315 
     400      589      788     1065     1478     1763     1610     1174 
     805      571      395      297      387      862     1655     2214 
    2232     1939     1332      270     -714     -922     -511      -36 
     437     1001     1505     1799     1887     1995     2116     1695 
     654     -232     -476     -261      248     1039     1740     1825 
    1297      569      102      163      560      832      796      684 
     819     1202     1583     1694     1397      891      483      220 
      85      149      488     1039     1286      849      341      467 
     900     1186     1553     2050     2197     1844     1235      604 
     184      -45     -218      -58      575     1082     1080     1046 
    1039      645      333      500      592      530      897     1699 
    2330     2377     1718      581     -295     -595     -734     -704 
    -117      727     1194     1217     1088     1323     2274     3015 
    2533     1582      897        8     -868     -851     -164      390 
     657      770      816      996     1231     1185      954      776 
     714     1003     1561     1748     1410     1053      787      425 
     167      238      685     1352     1661     1277      502     -117 
    -207       43      438     1107     1713     1752     1382     1092 
    1113     1340     1377      928      309       -2       71      522 
    1178     1498     1263      797      549      761     1097     1156 
    1065      888      503       45     -133      234      835     1050 
     966     1059     1194      992      670      630      795      950 
    1131     1489     1872     1857     1335      657      265      295 
     531      719      785      774      683      513      376      297 
     288      491      939     1580     2060     1830     1105      610 
     502      556      680      931     1340     1549     1223      692 
     271     -141     -376     -110      549     1151     1410     1302 
     788      152       47      533     1170     1792     2157     1977 
    1549     1194      855      518      174      -99     -101      201 
     679     1074     1198     1239     1285     1183     1009      815 
     565      560      912     1217     1190      881      540      550 
     962     1406     1524     1175      622      325      392      515 
     503      756     1354     1379      676      279      357      309 
     264      583     1044     1290     1305     1298     1233      931 
     526      174      -47      -27      194      638     1208     1483 
    1325      916      571      658     1085     1418     1521     1422 
    1185      932      733      839     1401     1861     1800     1568 
    1350      774      -55     -373       91      831     1312     1296 
     899      594      580      382      -79     -166       78      248 
     688     1513     2103     2158     1825     1262      703      326 
      76      -31      290     1053     1614     1489      868      332 
     522     1281     1529      846       58     -171      -24      278 
     757     1399     2007     2141     1610      814      244       66 
     118      237      465      812     1185     1375     1264     1198 
    1390     1366      920      665      792      764      607      719 
     915      838      595      569      792      935      889      884 
    1224     1644     1463      891      715      797      557      229 
     222      342      295      -20     -465     -477      380     1723 
    2671     2808     2331     1617     1111      851      418     -143 
    -407     -330     -110      191      625     1179     1710     1961 
    1753     1259      967     1035     1070      814      419      110 
      39      253      805     1561     1979     1779     1300      881 
     598      434      433      693     1128     1422     1424     1256 
     847      116     -442     -403      -18      357      734     1282 
    1763     1715     1233      716      436      500      795     1066 
    1111     1004      796      422      256      537      896     1116 
    1237     1273     1209     1134     1255     1476     1448     1158 
     901      888     1054     1220     1254     1032      496     -211 
    -680     -612     -193      291      672      882     1073     1287 
    1410     1570     1853     2034     1814     1116      351      -13 
     -64      -21      170      548      837      753      604      823 
    1262     1649     1802     1566     1148      849      697      619 
     587      646      706      619      475      477      762     1213 
    1532     1525     1127      506       22     -140       37      522 
    1040     1174      905      645      645      858     1151     1413 
    1571     1578     1495     1371     1192      981      625       72 
    -276      -47      510      911     1088     1113      961      773 
     746      961     1325     1524     1354      932      496      220 
     228      630     1129     1206      928      712      723      908 
    1070     1053      951      931      922      649      182      -90 
     -62      153      494      897     1312     1547     1439     1266 
    1360     1579     1590     1386     1213     1066      693      170 
    -174     -179      110      491      801     1063     1277     1370 
    1242      945      834      973      916      689      765     1046 
    1255     1491     1574     1298      986      834      704      565 
     464      415      407      406      313       78      -62       86 
     398      749     1032     1155     1247     1324     1259     1228 
    1395     1529     1327      750      118     -125      166      857 
    1574     1817     1570     1186      826      626      702      864 
     907      783      527      337      432      756     1096     1278 
    1147      804      614      691      823      839      738      529 
     268      179      498     1279     2145     2231     1251      143 
    -153      292     1007     1659     1944     1760     1262      558 
    -114     -468     -535     -422      -13      635     1183     1486 
    1668     1718     1590     1436     1348     1213      913      387 
    -209     -333      255     1078     1725     2151     2180     1705 
    1017      364     -202     -456     -214      294      758     1121 
    1426     1630     1740     1726     1489     1165      951      780 
     623      515      328       97       -2      -70     -199     -113 
     432     1148     1590     1737     1642     1232      727      533 
     751     1088     1250     1345     1416     1239      946      803 
     670      382       25     -241     -213      191      712     1050 
    1198     1210     1101     1054     1223     1510     1675     1472 
    1020      738      735      854     1065     1263     1112      589 
     163      159      448      653      619      770     1343     1794 
    1740     1354      865      488      251        5      -27      398 
     982     1394     1564     1395      924      411      160      459 
    1134     1570     1453      922      338       24       -6      164 
     475      754      913      959      849      765     1059     1636 
    2068     2133     1836     1355      904      552      290       91 
     -39      -83      -29      214      608      927     1058      936 
     623      548      880     1231     1414     1518     1472     1192 
     742      371      423      843     1158     1162     1050     1000 
     953      838      738      754      884      919      718      656 
     994     1313     1340     1266     1121      805      506      535 
     878     1152     1031      615      349      468      719      835 
     878      916      776      328     -170     -260      122      630 
    1101     1633     2160     2295     1755      886      275        0 
     -98        9      305      642      909     1067     1182     1329 
    1476     1455     1175      882      841      862      638      378 
     465      741      826      739      807     1102     1298     1287 
    1352     1537     1552     1252      766      355       86     -156 
    -255      -74      282      749     1166     1294     1179     1038 
    1013     1113     1235     1264     1115      803      487      247 
      -2     -189      -41      396      791      990     1085     1291 
    1755     2289     2617     2581     2085     1161       97     -621 
    -614       25      753     1188     1420     1417      993      384 
      43       85      275      325      234      241      459      742 
     943     1142     1425     1682     1783     1634     1156      629 
     542      831     1063     1166     1225     1202     1116      990 
     838      753      776      831      778      544      261      101 
     122      337      654     1007     1386     1642     1702     1709 
    1610     1219      666      217       31      279      886     1404 
    1502     1260      868      438       95      -54       43      411 
     893     1138      988      626      368      463      872     1255 
    1274      950      683      746     1012     1236     1219      896 
     502      259       87       21      361     1075     1692     1915 
    1814     1559     1223      724      145     -118      245     1042 
    1651     1661     1208      623      162       10      187      540 
     923     1223     1408     1491     1422     1254     1132      967 
     630      298      229      382      527      683      977     1259 
    1270     1011      742      679      743      828      973     1040 
     926      876      988     1071     1028      831      475      112 
      16      330      930     1574     1989     1934     1494     1007 
     707      696      972     1279     1289     1024      685      303 
     -40     -152       18      382      743      934     1027     1192 
    1486     1776     1749     1201      226     -830    -1498    -1493 
    -826      297     1494     2440     2971     2903     2216     1283 
     592      403      637      986     1192     1152      855      380 
     -21      -52      325      753      861      716      633      804 
    1260     1773     1991     1849     1520     1054      522      186 
     172      284      307      348      665     1192     1556     1487 
    1043      486       52     -101       63      384      626      681 
     580      410      322      530     1078     1671     1969     1926 
    1757     1678     1688     1718     1690     1460     1004      375 
    -278     -584     -313      326      946     1335     1443     1308 
    1058      812      660      734      967     1021      715      280 
      47      159      581     1084     1359     1417     1452     1370 
    1080      861      834      734      487      318      307      340 
     441      726     1092     1283     1183      924      710      568 
     421      298      309      467      687      882      993     1005 
     986     1017     1144     1289     1285     1205     1242     1281 
    1210     1189     1225     1161     1012      855      707      558 
     387      187       47       59      195      432      811     1185 
    1297     1196     1150     1252     1393     1449     1401     1251 
     931      504      247      270      337      291      306      486 
     630      596      486      440      557      789      949      961 
     908      834      745      739      962     1368     1732     1875 
    1744     1399     1104     1086     1229     1343     1382     1271 
    1008      781      680      677      773      831      652      342 
     141       16     -132     -202     -122      113      522      973 
    1267     1390     1455     1541     1647     1678     1518     1185 
     793      438      186      116      244      464      650      774 
     873      972     1044     1012      874      810      978     1209 
    1188      936      685      519      459      525      707      942 
    1062      911      598      440      621     1017     1371     1495 
    1406     1269     1206     1212     1212     1220     1242     1143 
     851      406     -120     -548     -669     -436       43      596 
    1067     1320     1304     1139     1040     1111     1252     1314 
    1237     1111     1054     1047     1039     1102     1274     1413 
    1408     1340     1325     1328     1239     1044      792      495 
     218       68       52       32     -114     -338     -449     -330 
     -21      419      980     1587     2122     2501     2637     2467 
    2039     1466      899      414       12     -259     -328      -85 
     507     1194     1661     1834     1742     1374      827      382 
     253      423      739     1008     1026      793      531      346 
     206      112       94      217      568     1120     1761     2374 
    2798     2816     2286     1344      344     -434     -926    -1107 
    -895     -371      186      588      807      904      945      969 
     994     1069     1189     1252     1236     1185     1116     1054 
     984      868      768      797     1003     1290     1501     1545 
    1364      985      612      436      477      692      982     1196 
    1196      967      685      494      351      175      -40     -195 
    -163        0      216      561     1055     1541     1892     2097 
    2161     2073     1821     1374      808      288      -54     -143 
      14      359      765     1054     1143     1031      780      554 
     519      676      872     1039     1169     1216     1198     1165 
    1146     1167     1159     1028      818      608      400      229 
     186      318      615      982     1273     1414     1433     1394 
    1339     1225     1069      934      805      649      454      260 
     122       56      112      333      623      869     1065     1223 
    1308     1323     1321     1336     1358     1332     1208     1043 
     966     1013     1115     1139      989      695      399      264 
     336      499      668      839      999     1096     1071      918 
     716      552      446      363      301      307      344      378 
     426      464      496      556      622      692      842     1101 
    1329     1390     1320     1262     1325     1544     1825     1942 
    1795     1522     1264      997      730      579      565      616 
     692      726      664      549      454      418      442      487 
     510      525      537      460      280      152      114      118 
     209      422      739     1127     1449     1570     1540     1509 
    1505     1522     1629     1760     1726     1526     1296     1004 
     626      317      166      162      310      522      629      604 
     557      556      612      765     1023     1290     1455     1386 
    1059      680      400      222      245      477      700      843 
     994     1147     1250     1269     1224     1151     1053      969 
     908      831      747      676      571      426      329      338 
     437      625      865     1047     1100     1030      868      706 
     634      654      768      961     1125     1174     1170     1194 
    1224     1220     1190     1142     1088     1016      899      747 
     596      465      380      384      475      577      662      784 
     957     1138     1302     1413     1441     1359     1120      776 
     499      382      360      403      556      783      976     1127 
    1298     1436     1422     1205      804      344       -5     -159 
     -93      145      419      615      719      738      697      730 
     904     1071     1093      988      849      789      870     1046 
    1275     1524     1706     1759     1692     1540     1354     1162 
