Origin Time       2025/03/28 03:50:00
Lat.              35.403
Long.             140.360
Depth. (km)       54
Mag.              4.4
Station Code      CHB017
Station Lat.      35.2976
Station Long.     140.0734
Station Height(m) 38
Record Time       2025/03/28 03:50:50
Sampling Freq(Hz) 100Hz
Duration Time(s)  77
Dir.              N-S
Scale Factor      7845(gal)/8223790
Max. Acc. (gal)   7.833
Last Correction   2025/03/28 03:50:50
Memo.             
[...]
   -6856    -6870    -6883    -6880    -6867    -6859    -6874    -6886 
   -6870    -6867    -6872    -6860    -6872    -6890    -6864    -6856 
   -6880    -6878    -6863    -6871    -6879    -6868    -6864    -6870 
   -6876    -6876    -6860    -6870    -6886    -6867    -6874    -6889 
   -6856    -6853    -6889    -6885    -6856    -6875    -6898    -6852 
   -6847    -6895    -6870    -6848    -6883    -6880    -6864    -6880 
   -6878    -6848    -6872    -6897    -6864    -6863    -6882    -6872 
   -6866    -6878    -6875    -6870    -6883    -6864    -6858    -6886 
   -6874    -6860    -6867    -6875    -6894    -6868    -6847    -6882 
   -6885    -6872    -6870    -6851    -6874    -6893    -6870    -6867 
   -6868    -6876    -6882    -6871    -6882    -6870    -6853    -6879 
   -6876    -6872    -6879    -6863    -6876    -6879    -6847    -6867 
   -6887    -6864    -6868    -6879    -6867    -6862    -6872    -6871 
   -6858    -6875    -6893    -6866    -6852    -6880    -6887    -6862 
   -6871    -6879    -6862    -6876    -6883    -6871    -6866    -6860 
   -6872    -6883    -6870    -6860    -6880    -6894    -6863    -6853 
   -6868    -6872    -6879    -6863    -6866    -6891    -6866    -6863 
   -6893    -6872    -6852    -6871    -6882    -6876    -6859    -6859 
   -6891    -6883    -6847    -6879    -6903    -6864    -6848    -6875 
   -6893    -6870    -6855    -6885    -6885    -6853    -6859    -6887 
   -6879    -6855    -6867    -6878    -6878    -6872    -6856    -6872 
   -6882    -6866    -6874    -6872    -6860    -6871    -6872    -6867 
   -6875    -6871    -6867    -6878    -6872    -6862    -6878    -6883 
   -6872    -6870    -6863    -6867    -6886    -6875    -6863    -6886 
   -6885    -6862    -6871    -6871    -6862    -6880    -6886    -6860 
   -6856    -6887    -6887    -6852    -6862    -6885    -6855    -6866 
   -6893    -6849    -6858    -6902    -6874    -6860    -6858    -6863 
   -6894    -6876    -6856    -6880    -6889    -6868    -6860    -6875 
   -6867    -6868    -6903    -6874    -6831    -6883    -6905    -6870 
   -6867    -6867    -6868    -6878    -6868    -6867    -6868    -6878 
   -6883    -6849    -6859    -6887    -6871    -6883    -6882    -6852 
   -6872    -6889    -6878    -6870    -6859    -6875    -6885    -6871 
   -6866    -6875    -6883    -6867    -6866    -6883    -6863    -6864 
   -6887    -6866    -6862    -6885    -6874    -6856    -6868    -6879 
   -6878    -6868    -6866    -6871    -6853    -6872    -6903    -6863 
   -6848    -6885    -6874    -6853    -6872    -6880    -6863    -6866 
   -6882    -6879    -6866    -6853    -6880    -6891    -6841    -6858 
   -6903    -6870    -6859    -6880    -6872    -6866    -6864    -6878 
   -6883    -6852    -6871    -6895    -6858    -6858    -6883    -6870 
   -6863    -6878    -6878    -6871    -6878    -6866    -6858    -6880 
   -6883    -6863    -6862    -6870    -6875    -6878    -6868    -6863 
   -6876    -6882    -6870    -6862    -6871    -6872    -6860    -6876 
   -6879    -6858    -6866    -6876    -6868    -6875    -6879    -6866 
   -6870    -6867    -6856    -6880    -6874    -6862    -6893    -6872 
   -6851    -6883    -6893    -6866    -6848    -6886    -6889    -6839 
   -6875    -6894    -6852    -6864    -6875    -6878    -6880    -6859 
   -6859    -6867    -6878    -6879    -6864    -6874    -6875    -6859 
   -6868    -6871    -6874    -6880    -6862    -6859    -6880    -6880 
   -6866    -6867    -6879    -6868    -6866    -6876    -6870    -6874 
   -6866    -6859    -6889    -6876    -6844    -6874    -6886    -6859 
   -6860    -6879    -6886    -6864    -6863    -6895    -6867    -6849 
   -6891    -6882    -6859    -6870    -6878    -6882    -6871    -6867 
   -6879    -6875    -6870    -6868    -6876    -6872    -6859    -6872 
   -6871    -6867    -6886    -6870    -6858    -6872    -6878    -6868 
   -6858    -6878    -6882    -6868    -6868    -6862    -6886    -6889 
   -6852    -6871    -6893    -6876    -6862    -6866    -6887    -6880 
   -6849    -6870    -6903    -6867    -6851    -6886    -6872    -6862 
   -6876    -6871    -6878    -6870    -6864    -6885    -6872    -6852 
   -6872    -6887    -6870    -6867    -6885    -6879    -6863    -6863 
   -6882    -6878    -6859    -6876    -6886    -6872    -6867    -6879 
   -6885    -6858    -6872    -6893    -6853    -6858    -6880    -6879 
   -6878    -6859    -6862    -6876    -6880    -6867    -6856    -6895 
   -6887    -6851    -6879    -6874    -6867    -6882    -6858    -6870 
   -6882    -6867    -6879    -6874    -6863    -6866    -6867    -6883 
   -6862    -6848    -6890    -6876    -6847    -6882    -6890    -6862 
   -6859    -6880    -6878    -6853    -6866    -6889    -6876    -6859 
   -6859    -6885    -6878    -6849    -6871    -6885    -6871    -6864 
   -6863    -6883    -6872    -6862    -6889    -6866    -6852    -6871 
   -6871    -6883    -6872    -6856    -6879    -6883    -6867    -6862 
   -6871    -6886    -6872    -6858    -6862    -6875    -6878    -6860 
   -6871    -6880    -6867    -6853    -6862    -6898    -6878    -6843 
   -6876    -6882    -6863    -6871    -6875    -6880    -6872    -6862 
   -6878    -6874    -6860    -6886    -6874    -6852    -6894    -6880 
   -6848    -6889    -6894    -6863    -6867    -6878    -6879    -6880 
   -6876    -6870    -6880    -6887    -6855    -6860    -6894    -6874 
   -6875    -6890    -6852    -6870    -6894    -6852    -6872    -6899 
   -6860    -6863    -6886    -6859    -6859    -6901    -6878    -6845 
   -6887    -6887    -6853    -6880    -6899    -6868    -6856    -6889 
   -6885    -6851    -6878    -6899    -6871    -6863    -6868    -6872 
   -6874    -6862    -6856    -6879    -6891    -6872    -6876    -6902 
   -6876    -6855    -6886    -6863    -6820    -6862    -6879    -6864 
   -6882    -6894    -6903    -6885    -6872    -6876    -6840    -6844 
   -6864    -6839    -6852    -6871    -6870    -6916    -6940    -6875 
   -6831    -6874    -6852    -6766    -6810    -6874    -6829    -6866 
   -6979    -6976    -6979    -7069    -6982    -6775    -6767    -6832 
   -6770    -6755    -6845    -6820    -6735    -6883    -7138    -7134 
   -6932    -6791    -6779    -6814    -6771    -6723    -6755    -6758 
   -6809    -6934    -6934    -6903    -6959    -7015    -7014    -6944 
   -7003    -7190    -7145    -6920    -6799    -6731    -6685    -6744 
   -6760    -6647    -6563    -6601    -6717    -6793    -6832    -7013 
   -7254    -7240    -6945    -6686    -6594    -6478    -6462    -6822 
   -7145    -7007    -6825    -7033    -7364    -7365    -7098    -6821 
   -6561    -6573    -7015    -7177    -6716    -6384    -6493    -6615 
   -6735    -7033    -7317    -7439    -7439    -7245    -6868    -6624 
   -6656    -6624    -6436    -6551    -7028    -7461    -7703    -7672 
   -7242    -6671    -6243    -5884    -5703    -6029    -6559    -6759 
   -6893    -7196    -7260    -7146    -7295    -7415    -7018    -6484 
   -6489    -6790    -6841    -6999    -7391    -7281    -6844    -6782 
   -6712    -6380    -6386    -6820    -7155    -7296    -7408    -7418 
   -7349    -7273    -7095    -6912    -6860    -6879    -6836    -6583 
   -6199    -5902    -5906    -6261    -6667    -6858    -6775    -6562 
   -6616    -7014    -7411    -7673    -7766    -7465    -7045    -7155 
   -7350    -6841    -6381    -6745    -7156    -7069    -6991    -7018 
   -6637    -6100    -6160    -6492    -6563    -6758    -7176    -7398 
   -7389    -7369    -7180    -6525    -5877    -5888    -6293    -6729 
   -7227    -7611    -7554    -7080    -6624    -6517    -6666    -6758 
   -6735    -6979    -7457    -7407    -6701    -6176    -6211    -6421 
   -6748    -7254    -7418    -7144    -7034    -7196    -7462    -7893 
   -8206    -7938    -7169    -6399    -5833    -5572    -5987    -6755 
   -7032    -6922    -6943    -6889    -6417    -5883    -5806    -5985 
   -6245    -6936    -7758    -7911    -7460    -7003    -6604    -6222 
   -6354    -6887    -7096    -7229    -7631    -7847    -7762    -7495 
   -7088    -6879    -6853    -6701    -6598    -6651    -6636    -6743 
   -7007    -6870    -6400    -6323    -6631    -6818    -6920    -7079 
   -6951    -6562    -6669    -7279    -7368    -6729    -6120    -5759 
   -5516    -5675    -6424    -7472    -8376    -8791    -8550    -7771 
   -6685    -5601    -5219    -5994    -7194    -7904    -8233    -8365 
   -7912    -7090    -6654    -6502    -6108    -5659    -5697    -6272 
   -6828    -6943    -6836    -6925    -7218    -7377    -7199    -6648 
   -5980    -5881    -6419    -6795    -6851    -6964    -7042    -6988 
   -6970    -6991    -6903    -6817    -7223    -8023    -8330    -7738 
   -6852    -6430    -6339    -6262    -6428    -6750    -7022    -7578 
   -8375    -8708    -8168    -6963    -5868    -5636    -5778    -5566 
   -5536    -6015    -6505    -6766    -6795    -6772    -6619    -6049 
   -5664    -5958    -6419    -6758    -7184    -7701    -8031    -7981 
   -7740    -7533    -7264    -7042    -7188    -7474    -7784    -8372 
   -8599    -7692    -6189    -5084    -4750    -5032    -5873    -7165 
   -8079    -8176    -8043    -7530    -6166    -4963    -4966    -5656 
   -6195    -6515    -6833    -7095    -7167    -7218    -7442    -7541 
   -7253    -7018    -7076    -7160    -7380    -7838    -8163    -8185 
   -8139    -8108    -7719    -6754    -5705    -5228    -5335    -5443 
   -5489    -6141    -7141    -7553    -7483    -7330    -6966    -6640 
   -6817    -7276    -7372    -6929    -6444    -6237    -6061    -5844 
   -5886    -6338    -6994    -7493    -7713    -7659    -7118    -6282 
   -5853    -6004    -6411    -6851    -7240    -7569    -7692    -7493 
   -7080    -6409    -5756    -5779    -6399    -6995    -7306    -7503 
   -7844    -7963    -7426    -6951    -7098    -7159    -6799    -6492 
   -6453    -6604    -6820    -7261    -7970    -8136    -7547    -7083 
   -6833    -6232    -5602    -5559    -5907    -6380    -7149    -7836 
   -7744    -7130    -6782    -6840    -6891    -6889    -7171    -7469 
   -7317    -7164    -7360    -7287    -6782    -6407    -6249    -6106 
   -6103    -6366    -6616    -6620    -6651    -6687    -6338    -5948 
   -6075    -6529    -6894    -7138    -7483    -7766    -7651    -7329 
   -7059    -6806    -6578    -6485    -6701    -7044    -7217    -7589 
   -8131    -8040    -7261    -6372    -5734    -5568    -6026    -6925 
   -7585    -7766    -7921    -7998    -7543    -6608    -5848    -5908 
   -6440    -6870    -7420    -7885    -7569    -6917    -6685    -6357 
   -5533    -5120    -5736    -6623    -6868    -6659    -6521    -6486 
   -6663    -6933    -6716    -6141    -6184    -7187    -8028    -7830 
   -7344    -7168    -6972    -6890    -7140    -7314    -7353    -7622 
   -8040    -8230    -8002    -7526    -7091    -6804    -6717    -6675 
   -6316    -6003    -6208    -6419    -6291    -6007    -5626    -5486 
   -5752    -5977    -6060    -6353    -6917    -7522    -8002    -8085 
   -7620    -7117    -7048    -7150    -7092    -7102    -7306    -7392 
   -7454    -7722    -7808    -7488    -7132    -6963    -6768    -6421 
   -6168    -6177    -6374    -6681    -6844    -6475    -5787    -5572 
   -5967    -6247    -6214    -6496    -7038    -7067    -6691    -6365 
   -5913    -5532    -5744    -6463    -7276    -7997    -8704    -9232 
   -9354    -9074    -8253    -7080    -6334    -6513    -7148    -7325 
   -7214    -7371    -7368    -7096    -6940    -6763    -6432    -6160 
   -6220    -6565    -6793    -6783    -6669    -6367    -5977    -5848 
   -5832    -5756    -5992    -6440    -6594    -6586    -6802    -7148 
   -7335    -7460    -7701    -7771    -7474    -7101    -6944    -7011 
   -7090    -7125    -7280    -7429    -7272    -6916    -6710    -6619 
   -6319    -5965    -6034    -6407    -6563    -6552    -6698    -6681 
   -6135    -5582    -5594    -5914    -6257    -6772    -7238    -7256 
   -7196    -7569    -8041    -8209    -8338    -8533    -8334    -7792 
   -7605    -7947    -8344    -8355    -7817    -7102    -6528    -5903 
   -5444    -5616    -6164    -6725    -7207    -7260    -6658    -5710 
   -4830    -4291    -4237    -4622    -5258    -5903    -6366    -6647 
   -6914    -7267    -7673    -8009    -8071    -7905    -7890    -8243 
   -8621    -8641    -8437    -8055    -7273    -6366    -5925    -6011 
   -6215    -6330    -6516    -6855    -7229    -7453    -7362    -7078 
   -6721    -6312    -6131    -6288    -6517    -6631    -6666    -6805 
   -6921    -6639    -6201    -5979    -5687    -5327    -5466    -6045 
   -6681    -7541    -8526    -9053    -8877    -8209    -7601    -7506 
   -7692    -7744    -7587    -7250    -6874    -6774    -6974    -7129 
   -7078    -7051    -7272    -7383    -6997    -6554    -6446    -6426 
   -6409    -6500    -6534    -6143    -5351    -4838    -4946    -5346 
   -5848    -6372    -6675    -6667    -6415    -6118    -6057    -6234 
   -6370    -6270    -5906    -5472    -5336    -5655    -6301    -7115 
   -7877    -8187    -7801    -6845    -5676    -4739    -4276    -4302 
   -5046    -6685    -8696   -10377   -11616   -12532   -13095   -13342 
  -13298   -12926   -12294   -11562   -10845   -10158    -9456    -8730 
   -8020    -7299    -6492    -5832    -5641    -5913    -6501    -7103 
   -7217    -6515    -5178    -3786    -2631    -1576     -575      398 
    1204     1340      630     -476    -1528    -2465    -3404    -4287 
   -4982    -5663    -6482    -7331    -8271    -9393   -10485   -11368 
  -12131   -12830   -13246   -13258   -13104   -12744   -11745   -10262 
   -8958    -7812    -6394    -4865    -3570    -2597    -2222    -2775 
   -3879    -4645    -4708    -4388    -4013    -3908    -4406    -5350 
   -6322    -7213    -8179    -9382   -10548   -11267   -11668   -11843 
  -11556   -10787    -9767    -8958    -8799    -9153    -9532    -9540 
   -8954    -7828    -6571    -5503    -4583    -3782    -3334    -3554 
   -4329    -5012    -5229    -4988    -4367    -3568    -2633    -1636 
   -1015    -1027    -1648    -2859    -4361    -5817    -7348    -9004 
  -10412   -11329   -11747   -11716   -11533   -11472   -11221   -10354 
   -9142    -8156    -7441    -6832    -6519    -6525    -6393    -5827 
   -4826    -3492    -2212    -1571    -2077    -3834    -6164    -8159 
   -9524   -10281   -10531   -10565   -10497   -10346   -10115    -9637 
   -8910    -8010    -6901    -5853    -5316    -5367    -5815    -6494 
   -7146    -7392    -7049    -6307    -5664    -5562    -5919    -6281 
   -6399    -6238    -5733    -5004    -4252    -3410    -2559    -2123 
   -2254    -2903    -4001    -5167    -6281    -7499    -8621    -9636 
  -10728   -11817   -12835   -13527   -13487   -12768   -11701   -10435 
   -8995    -7506    -6185    -5418    -5452    -5952    -6458    -6637 
   -6019    -4445    -2504     -885       90      126     -926    -2690 
   -4487    -5790    -6586    -7079    -7357    -7673    -8202    -8869 
   -9612   -10184   -10280   -10153   -10324   -10655   -10600   -10268 
  -10083    -9979    -9826    -9765    -9811    -9675    -9090    -8129 
   -7025    -5818    -4564    -3418    -2412    -1656    -1405    -1669 
   -2172    -2702    -3190    -3570    -4036    -5008    -6465    -7857 
   -8735    -9231    -9660    -9895    -9772    -9421    -8966    -8649 
   -8688    -8881    -8896    -8564    -7892    -7084    -6370    -6049 
   -6230    -6555    -6801    -6895    -6542    -5628    -4527    -3785 
   -3559    -3534    -3531    -3653    -3971    -4565    -5494    -6741 
   -8236    -9774   -11117   -12174   -12819   -12712   -11704   -10127 
   -8382    -6673    -5130    -3929    -3179    -2755    -2624    -2980 
   -3847    -4959    -5962    -6736    -7442    -8120    -8672    -9043 
   -9127    -8785    -8004    -7049    -6408    -6388    -6959    -7785 
   -8473    -8843    -8854    -8619    -8206    -7619    -7049    -6521 
   -5895    -5332    -5078    -5227    -5726    -6384    -7072    -7662 
   -7915    -7654    -6739    -5323    -4078    -3531    -3692    -4306 
   -5040    -5601    -5883    -6004    -6092    -6430    -7353    -8588 
   -9651   -10319   -10458   -10153    -9571    -8881    -8291    -7809 
   -7452    -7267    -7090    -6777    -6457    -6243    -6035    -5895 
   -5919    -5960    -5981    -6146    -6536    -6993    -7273    -7322 
   -7140    -6832    -6566    -6351    -6150    -5894    -5630    -5679 
   -6083    -6454    -6482    -6075    -5545    -5356    -5499    -5886 
   -6458    -7036    -7724    -8560    -9175    -9351    -9178    -8770 
   -8186    -7589    -7176    -6891    -6636    -6517    -6571    -6694 
   -6828    -6885    -6782    -6613    -6552    -6625    -6679    -6561 
   -6220    -5834    -5629    -5614    -5733    -5992    -6399    -6880 
   -7276    -7603    -7917    -8021    -7875    -7585    -7153    -6697 
   -6270    -5809    -5502    -5684    -6403    -7344    -8244    -9015 
   -9490    -9566    -9354    -8961    -8348    -7572    -6816    -6189 
   -5767    -5478    -5190    -4969    -4815    -4714    -4695    -4764 
   -5077    -5503    -5690    -5773    -6092    -6700    -7380    -7871 
   -8109    -8116    -7956    -7848    -7966    -8216    -8297    -8040 
   -7569    -7017    -6427    -5880    -5489    -5389    -5695    -6309 
   -6997    -7620    -7987    -7928    -7709    -7593    -7499    -7425 
   -7464    -7673    -8043    -8533    -9178    -9724    -9791    -9377 
   -8563    -7512    -6508    -5582    -4818    -4332    -3979    -3750 
   -3651    -3558    -3464    -3388    -3400    -3697    -4338    -5189 
   -6037    -6621    -6847    -6951    -7078    -7157    -7330    -7776 
   -8468    -9262    -9857   -10169   -10427   -10596   -10442    -9994 
   -9427    -8816    -8176    -7634    -7280    -6922    -6377    -5728 
   -5125    -4602    -4124    -3786    -3788    -4193    -4847    -5549 
   -6309    -7153    -7800    -8070    -8135    -8206    -8380    -8634 
   -8972    -9294    -9262    -8847    -8368    -7878    -7335    -6895 
   -6617    -6447    -6424    -6532    -6690    -6795    -6613    -6061 
   -5283    -4378    -3564    -3159    -3113    -3107    -3042    -3015 
   -3098    -3438    -4182    -5320    -6701    -8010    -9078    -9937 
  -10497   -10744   -10704   -10311    -9722    -9161    -8703    -8403 
   -8399    -8722    -9045    -9139    -9101    -8854    -8313    -7609 
   -6808    -5961    -5229    -4706    -4360    -4148    -4116    -4442 
   -5184    -6054    -6727    -7133    -7273    -7045    -6507    -5962 
   -5539    -5319    -5505    -6073    -6844    -7578    -8106    -8476 
   -8641    -8542    -8286    -7938    -7568    -7283    -7084    -6914 
   -6860    -7007    -7273    -7524    -7549    -7329    -7022    -6624 
   -6149    -5679    -5385    -5454    -5729    -6003    -6150    -6025 
   -5752    -5502    -5193    -4912    -4977    -5494    -6272    -7106 
   -7848    -8278    -8318    -8152    -7971    -7921    -8008    -8110 
   -8306    -8588    -8733    -8725    -8604    -8306    -7827    -7226 
   -6658    -6258    -6035    -5910    -5765    -5645    -5710    -5944 
   -6216    -6524    -6858    -7017    -6876    -6570    -6312    -6160 
   -6035    -5908    -5783    -5755    -5884    -6043    -6177    -6295 
