Origin Time       2025/03/28 03:50:00
Lat.              35.403
Long.             140.360
Depth. (km)       54
Mag.              4.4
Station Code      CHB026
Station Lat.      35.3858
Station Long.     140.2404
Station Height(m) 46
Record Time       2025/03/28 03:50:49
Sampling Freq(Hz) 100Hz
Duration Time(s)  69
Dir.              N-S
Scale Factor      7845(gal)/8223790
Max. Acc. (gal)   5.958
Last Correction   2025/03/28 03:50:48
Memo.             
[...]
    4018     4014     4093     4077     4012     4043     4072     4047 
    4032     4050     4067     4040     4040     4064     4027     4039 
    4089     4035     4027     4077     4045     4036     4055     4043 
    4063     4064     4035     4043     4056     4050     4051     4058 
    4059     4043     4028     4067     4072     4020     4055     4075 
    4016     4062     4085     4008     4037     4086     4055     4035 
    4040     4063     4051     4037     4070     4051     4025     4056 
    4068     4045     4025     4064     4087     4014     4014     4105 
    4070     3982     4059     4122     4009     3993     4098     4079 
    4017     4032     4068     4064     4020     4047     4089     4043 
    4045     4058     4021     4063     4071     4032     4070     4059 
    4027     4047     4064     4074     4018     4018     4102     4052 
    4009     4060     4062     4058     4047     4031     4063     4063 
    4024     4037     4086     4052     4018     4078     4058     4029 
    4081     4032     4023     4087     4047     4027     4059     4054 
    4064     4054     4016     4045     4085     4055     4028     4043 
    4066     4059     4025     4055     4079     4016     4044     4093 
    4021     4032     4086     4050     4044     4051     4031     4050 
    4064     4060     4047     4041     4060     4054     4048     4058 
    4048     4039     4054     4052     4044     4072     4047     4017 
    4067     4059     4033     4047     4043     4071     4052     4031 
    4075     4024     4036     4112     4013     4008     4108     4054 
    4012     4051     4072     4060     4016     4039     4081     4044 
    4032     4056     4056     4044     4041     4058     4050     4033 
    4047     4059     4063     4044     4028     4056     4067     4028 
    4035     4079     4040     4012     4090     4066     3997     4068 
    4085     4016     4024     4085     4070     3990     4043     4106 
    4033     4021     4054     4058     4066     4023     4033     4085 
    4045     4023     4062     4068     4032     4041     4063     4020 
    4052     4086     4024     4036     4071     4054     4036     4036 
    4064     4055     4050     4051     4024     4077     4074     4008 
    4048     4066     4064     4051     4001     4071     4094     4005 
    4048     4091     4010     4031     4102     4043     4010     4064 
    4072     4054     4031     4035     4082     4067     4018     4040 
    4071     4059     4040     4048     4060     4055     4047     4039 
    4043     4059     4055     4043     4051     4040     4031     4081 
    4070     4014     4054     4072     4033     4031     4064     4079 
    4028     4037     4078     4036     4058     4045     4010     4101 
    4070     4000     4052     4055     4071     4066     3994     4056 
    4104     4004     4020     4122     4058     3979     4072     4099 
    4012     4027     4075     4054     4040     4064     4066     4031 
    4031     4067     4066     4040     4040     4047     4044     4067 
    4062     4020     4054     4082     4031     4033     4071     4045 
    4036     4066     4051     4039     4058     4055     4043     4043 
    4062     4058     4032     4056     4054     4039     4075     4050 
    4033     4063     4035     4050     4074     4041     4039     4060 
    4064     4033     4043     4085     4036     4014     4079     4081 
    4032     4020     4067     4087     4033     4027     4059     4062 
    4044     4052     4072     4023     4021     4095     4054     4010 
    4077     4074     4029     4044     4052     4064     4071     4023 
    4029     4097     4054     3997     4072     4095     4018     4027 
    4072     4047     4041     4063     4043     4045     4071     4033 
    4021     4083     4067     4012     4047     4079     4047     4024 
    4064     4083     4013     4025     4095     4045     4016     4067 
    4081     4040     4024     4071     4067     4023     4043     4067 
    4062     4033     4031     4067     4077     4041     4012     4064 
    4089     4024     4047     4074     4037     4041     4044     4056 
    4056     4029     4060     4066     4036     4051     4047     4043 
    4067     4054     4028     4059     4058     4032     4082     4062 
    4001     4067     4082     4024     4028     4054     4083     4054 
    4014     4068     4068     4024     4052     4068     4035     4032 
    4062     4066     4047     4043     4039     4062     4070     4018 
    4021     4078     4074     4031     4045     4063     4025     4048 
    4082     4033     4031     4052     4050     4070     4035     4028 
    4089     4054     4006     4048     4072     4052     4032     4048 
    4064     4043     4040     4045     4052     4064     4032     4051 
    4078     4020     4036     4074     4037     4055     4058     4010 
    4056     4094     4041     4029     4067     4062     4028     4044 
    4072     4037     4032     4085     4054     4012     4067     4081 
    4033     4041     4050     4052     4077     4029     4021     4099 
    4071     4006     4032     4071     4063     4045     4044     4047 
    4055     4052     4052     4062     4029     4037     4091     4037 
    4004     4068     4097     4041     3994     4072     4106     4002 
    4028     4098     4039     4025     4062     4066     4048     4016 
    4056     4091     4024     4008     4071     4079     4032     4039 
    4066     4031     4028     4072     4060     4018     4023     4086 
    4081     3991     4047     4114     4028     3991     4025     4043 
    4052     4032     4067     4159     4232     4266     4156     4043 
    4153     4234     3978     3622     3580     3751     3747     3654 
    3766     4012     4248     4467     4579     4471     4341     4345 
    4310     4205     4068     3847     3630     3613     3828     3912 
    3744     3678     3889     4371     4681     4391     4093     4261 
    4311     3923     3746     3936     3928     3811     3893     3979 
    3944     4017     4216     4266     4334     4446     4229     3904 
    3931     4179     4050     3547     3476     3819     4052     4220 
    4228     4174     4255     4140     4016     4267     4378     4116 
    4079     4145     3877     3731     3801     3892     4116     4083 
    3812     3840     4060     4270     4450     4521     4450     4133 
    3765     3757     3835     3713     3747     3943     3979     4045 
    4342     4423     4162     4060     3958     3682     3816     4110 
    3993     3859     3935     4209     4583     4496     4172     4159 
    4187     4171     4228     4212     4009     3658     3485     3731 
    4113     4182     3994     4051     4293     4241     3944     3808 
    4114     4444     4171     3785     3645     3450     3599     4097 
    4279     4218     4245     4178     3940     4013     4340     4444 
    4396     4249     4054     3944     3890     3979     4032     3811 
    3636     3796     4010     4071     4229     4395     4301     4225 
    4325     4437     4433     4252     3983     3647     3304     3237 
    3519     3740     3777     4149     4536     4364     4241     4287 
    4207     4212     4067     4014     4402     4372     3925     3932 
    4035     3780     3666     3906     4028     3871     3735     3770 
    3989     4314     4558     4526     4336     4491     4654     4185 
    3828     4122     4311     3952     3415     3186     3377     3518 
    3253     3261     3996     4568     4579     4747     5040     4741 
    4176     4139     4271     4125     3933     3726     3757     4091 
    4097     3832     3878     4233     4405     4186     4105     4144 
    3933     3975     4126     3855     3703     3721     3504     3420 
    3757     4180     4247     4126     4218     4382     4437     4388 
    4392     4583     4654     4382     3996     3790     3746     3595 
    3387     3326     3331     3311     3520     4151     4626     4756 
    5051     5050     4514     4280     4360     4109     3505     3142 
    3245     3388     3528     3836     4224     4368     4151     4401 
    5116     5031     4322     3940     3838     3627     3227     3079 
    3541     4201     4581     4843     5125     5005     4387     3623 
    3034     2863     2890     3044     3643     4391     4922     5186 
    5049     4831     4677     4230     3770     3613     3520     3235 
    2967     3215     3642     3947     4463     4873     5049     5084 
    4662     4156     3928     3871     3863     3466     3083     3519 
    4263     4576     4469     4347     4423     4347     4178     4160 
    3735     3033     3034     3589     3975     4175     4264     4253 
    4226     4147     4028     3979     4129     4228     4167     4333 
    4382     4185     4337     4490     4355     4222     3939     3721 
    3680     3577     3674     3757     3669     3832     4126     4403 
    4649     4595     4310     3967     3568     3308     3519     3969 
    4018     4074     4572     4710     4422     4189     3996     4017 
    4081     3966     3927     3954     3805     3510     3531     3807 
    3924     4477     5375     5320     4522     4068     3912     3690 
    3545     3585     3408     3110     3446     3952     3973     4236 
    4785     4819     4471     4071     3650     3559     4021     4565 
    4726     4679     4541     4249     3996     3979     4233     4324 
    3889     3504     3558     3632     3446     3337     3759     4241 
    4120     3960     4110     3971     3678     3692     3674     3666 
    4086     4460     4463     4552     4722     4665     4449     4205 
    4054     3927     3699     3673     3913     4241     4610     4590 
    4137     3843     3754     3488     3134     3303     4075     4657 
    4699     4580     4460     4255     4025     3944     3997     4129 
    4295     4158     3836     3807     3705     3392     3434     3589 
    3453     3504     3974     4378     4399     4290     4379     4666 
    4862     4765     4622     4687     4756     4461     3929     3547 
    3061     2471     2717     3727     4294     4403     4723     4795 
    4379     4197     4133     3780     3628     3750     3603     3349 
    3369     3550     3839     4180     4483     4892     5143     4977 
    4626     4035     3426     3272     3333     3593     4066     4212 
    4234     4413     4426     4594     4907     4557     3913     3879 
    4028     3727     3388     3396     3603     3897     4183     4383 
    4606     4704     4468     4391     4606     4402     3844     3553 
    3508     3554     3681     3767     3604     3214     3207     3750 
    4064     4063     4164     4240     4218     4128     4001     3931 
    3734     3555     3730     4004     4171     4536     5185     5620 
    5437     4833     4291     4014     3758     3427     3172     3002 
    2998     3226     3527     3765     3948     4283     4800     5089 
    5196     5409     5490     5310     4716     3596     2631     2253 
    2085     2103     2650     3619     4531     5077     5227     5105 
    4903     4725     4473     4078     3762     3808     4075     4228 
    4255     4168     3916     3708     3785     4232     4797     5053 
    5032     4954     4584     3794     3141     2976     3107     3420 
    3759     4148     4576     4654     4683     4839     4517     4047 
    3946     3820     3607     3445     3195     2894     2744     2606 
    2330     2373     2721     3103     3952     4881     5289     5652 
    6131     6469     6683     6906     6709     5240     2941      934 
    -376     -855     -695      -43     1209     2853     4645     6327 
    7581     8083     7865     7520     7099     6502     6023     5387 
    4511     3619     2747     2408     2798     3383     3875     4263 
    4369     3916     2944     1902     1366     1466     1937     2906 
    4369     5848     6922     7041     5876     3836     1556     -221 
    -810     -251      934     2633     4679     6048     6299     6370 
    6737     7225     7952     8468     7832     6025     4010     2961 
    3395     4585     5134     4446     3140     1833      861      699 
    1348     2224     2920     3180     3140     3708     5298     7101 
    8228     8276     7298     5988     4982     4232     3439     2492 
    1680     1316     1556     2802     4733     5721     4774     2744 
     893     -414     -904       99     2454     5159     7547     9031 
    8719     6768     4764     3407     2388     2417     3655     4855 
    5930     7321     8236     7936     6655     4934     3183     1688 
     475     -484     -972     -886       27     1763     3411     4639 
    5568     5875     5834     6015     6512     7144     7375     6840 
    5670     4222     3137     2816     2882     3194     4067     4757 
    4213     2756     1413      999     1418     1968     2586     3403 
    4333     5468     6609     7327     7615     7547     7003     6146 
    5082     3538     2052     1857     2830     3723     3890     3384 
    2583     2062     2278     3202     4176     4652     4831     5125 
    5659     6251     6403     5702     4271     2612     1213      278 
     -20      611     1950     3423     4652     5306     5445     5302 
    4808     4247     4037     4078     4255     4576     4595     3832 
    2650     1691     1062      947     1602     2536     3127     3397 
    3604     3819     4078     4630     5756     7339     8737     9567 
   10110    10296     9869     8884     7163     5007     3196     1980 
    1593     2187     3516     5166     6222     6076     5155     4121 
    3333     2713     1939      967      -41     -999    -1671    -1644 
    -702      904     2635     4187     5601     6655     7133     7404 
    7655     7499     6527     4680     2585     1024       43     -557 
    -687     -333      634     2388     4394     5977     7153     7851 
    7592     6505     5389     4908     5233     5926     6675     7520 
    7862     7294     6280     5000     3674     2722     2007     1478 
    1254     1116     1004     1077     1313     1603     2003     2578 
    3249     4159     5296     6046     6185     6227     6361     6369 
    6272     6156     5964     5549     4804     3834     2808     1895 
    1441     1594     2104     2731     3188     3252     3144     3353 
    4070     4995     5791     6158     5836     5076     4472     4437 
    4884     5301     5317     5065     4915     4843     4561     4094 
    3626     3310     3217     3184     2991     2628     2191     1746 
    1436     1279     1286     1698     2316     2905     3973     5409 
    6426     6991     7134     6575     5582     4653     4012     3784 
    4170     5146     6070     6301     5883     5158     4271     3393 
    2843     2799     3252     3950     4576     4797     4091     2712 
    1759     1597     2023     2979     4106     5062     5679     5540 
    4557     3406     2840     3100     3771     4179     4213     4175 
    4081     3893     3784     3861     3924     3696     3384     3350 
    3591     3987     4467     5053     5626     5844     5611     4963 
    4050     3323     2921     2619     2479     2686     3230     4044 
    4934     5736     6336     6493     6124     5417     4756     4432 
    4244     3680     2515     1165       89     -405      -24      880 
    1854     3082     4738     6501     7754     8267     8121     7300 
    6291     5598     5131     4885     4799     4596     4164     3491 
    2806     2236     1669     1437     1740     2030     1976     1999 
    2301     2624     3219     4214     5038     5622     6133     6291 
    6205     6199     6173     6065     5832     5279     4382     3195 
    2035     1517     1842     2647     3549     4419     5058     5196 
    4935     4587     4225     3909     3877     4172     4625     5031 
    5205     4984     4313     3493     2862     2366     1957     1769 
    1849     2243     2999     3943     4905     5941     6806     7040 
    6777     6315     5618     4660     3457     2270     1455     1028 
     930     1242     1938     2848     4171     5922     7375     8185 
    8379     7766     6509     4897     3265     2204     1807     1811 
    2043     2261     2440     2647     2797     2930     3100     3375 
    3784     4136     4409     4638     4560     4129     3705     3427 
    3213     3241     3574     3967     4468     5169     5823     6203 
    6165     5656     4725     3609     2775     2430     2388     2624 
    3241     3985     4544     4841     4815     4618     4517     4515 
    4743     5328     5903     6031     5499     4461     3531     3095 
    3165     3758     4595     5219     5486     5344     4758     3966 
    3107     2296     1826     1710     1845     2332     3044     3750 
    4428     5054     5386     5158     4560     3967     3488     3171 
    3038     2976     2837     2739     2948     3233     3420     3851 
    4471     5134     5977     6731     7071     7021     6605     5910 
    5061     4197     3591     3373     3369     3369     3300     3183 
    3152     3360     3653     3704     3461     3079     2679     2339 
    2161     2255     2659     3264     3925     4580     5053     5258 
    5294     5103     4683     4271     4021     3937     4025     4174 
    4190     4293     4672     5004     5286     5815     6343     6501 
    6367     6134     5810     5236     4359     3304     2047      791 
      63     -143      -39      504     1410     2400     3252     3866 
    4213     4256     4288     4581     5039     5621     6057     6068 
    5833     5425     4857     4266     3696     3329     3349     3753 
    4449     5177     5620     5714     5625     5383     4892     4392 
    4082     3785     3555     3576     3636     3526     3385     3370 
    3426     3326     2963     2517     2150     1892     1887     2228 
    2789     3445     4125     4718     5131     5359     5462     5416 
    5132     4725     4472     4457     4510     4614     4853     4996 
    4857     4735     4685     4469     4392     4633     4855     4968 
    4861     4499     4113     3570     2922     2621     2644     2817 
    3161     3535     3742     3796     3874     3863     3607     3419 
    3326     3136     3079     3179     3279     3495     3840     4176 
    4460     4635     4776     5113     5470     5548     5393     5011 
    4580     4430     4388     4270     4194     4140     4193     4386 
    4455     4367     4183     3931     3778     3744     3700     3581 
    3545     3757     4013     4193     4342     4260     3916     3507 
    3053     2693     2612     2787     3316     4036     4572     4901 
    5009     4887     4676     4441     4295     4131     3763     3437 
    3202     2975     2968     3203     3561     3979     4303     4433 
    4413     4364     4388     4510     4726     4973     5017     4661 
    4124     3689     3338     3138     3284     3619     3839     4006 
    4233     4392     4523     4757     4958     5058     5166     5248 
    5194     4992     4695     4305     3890     3653     3499     3287 
    3140     2980     2887     3034     3279     3688     4151     4426 
    4773     5123     5155     5023     4874     4743     4668     4591 
    4442     4148     3748     3330     2940     2578     2224     2103 
