Origin Time       2025/03/28 03:50:00
Lat.              35.403
Long.             140.360
Depth. (km)       54
Mag.              4.4
Station Code      CHB019
Station Lat.      35.1106
Station Long.     139.8360
Station Height(m) 5
Record Time       2025/03/28 03:51:01
Sampling Freq(Hz) 100Hz
Duration Time(s)  66
Dir.              N-S
Scale Factor      7845(gal)/8223790
Max. Acc. (gal)   2.428
Last Correction   2025/03/28 03:51:01
Memo.             
[...]
    3831     3829     3823     3824     3828     3828     3831     3840 
    3850     3859     3863     3863     3870     3855     3828     3828 
    3824     3812     3823     3835     3832     3839     3848     3850 
    3846     3843     3836     3825     3811     3792     3770     3748 
    3735     3730     3735     3758     3793     3835     3879     3906 
    3912     3917     3917     3894     3854     3811     3781     3765 
    3753     3736     3727     3744     3786     3824     3848     3871 
    3909     3951     3973     3967     3950     3924     3878     3809 
    3734     3654     3581     3535     3539     3603     3719     3867 
    4027     4179     4311     4399     4433     4405     4287     4077 
    3819     3565     3345     3196     3161     3254     3411     3569 
    3727     3890     4048     4166     4213     4216     4207     4191 
    4159     4113     4059     3993     3897     3758     3592     3414 
    3260     3214     3318     3489     3634     3746     3854     3948 
    4005     4039     4081     4105     4078     4029     3979     3898 
    3805     3743     3712     3689     3635     3564     3527     3530 
    3565     3651     3763     3859     3952     4072     4229     4395 
    4523     4584     4556     4396     4109     3759     3443     3222 
    3091     3032     3084     3298     3640     3987     4228     4360 
    4432     4449     4415     4371     4325     4221     4031     3781 
    3519     3314     3200     3140     3094     3099     3199     3389 
    3634     3890     4122     4278     4311     4233     4099     3948 
    3820     3766     3780     3771     3672     3516     3412     3426 
    3528     3669     3839     4027     4167     4225     4217     4149 
    4051     3967     3894     3808     3723     3692     3746     3861 
    3979     4074     4137     4145     4126     4151     4222     4291 
    4309     4229     4045     3801     3551     3354     3253     3246 
    3304     3380     3460     3574     3716     3831     3902     3964 
    4020     4017     3935     3804     3663     3555     3503     3495 
    3510     3553     3645     3774     3900     3978     3990     3951 
    3917     3944     4010     4050     4035     3994     3951     3900 
    3855     3856     3910     3962     3979     3982     3963     3894 
    3820     3840     3959     4078     4121     4112     4101     4082 
    4017     3888     3705     3519     3373     3296     3311     3424 
    3616     3854     4089     4264     4342     4311     4194     4013 
    3777     3526     3346     3285     3311     3388     3505     3651 
    3800     3905     3954     3974     3978     3985     4027     4079 
    4093     4052     3973     3889     3824     3763     3716     3713 
    3731     3740     3759     3775     3771     3762     3780     3852 
    3959     4033     4036     3967     3858     3738     3635     3576 
    3543     3516     3507     3541     3612     3707     3827     3954 
    4054     4132     4205     4252     4248     4206     4151     4070 
    3931     3751     3582     3470     3453     3535     3682     3835 
    3955     4055     4149     4212     4220     4152     4024     3886 
    3765     3669     3599     3553     3550     3601     3693     3792 
    3874     3944     4001     4033     4037     4005     3947     3896 
    3870     3866     3862     3816     3720     3619     3559     3545 
    3553     3580     3659     3798     3931     4010     4062     4090 
    4054     3946     3821     3726     3674     3663     3712     3825 
    3970     4083     4131     4102     4009     3881     3753     3649 
    3589     3566     3572     3612     3685     3766     3842     3912 
    3958     3960     3932     3885     3811     3709     3597     3505 
    3465     3477     3531     3622     3743     3886     4039     4170 
    4267     4357     4432     4403     4224     3948     3676     3480 
    3388     3393     3477     3597     3703     3790     3875     3944 
    3989     3991     3951     3908     3877     3846     3828     3835 
    3858     3886     3915     3960     4023     4058     4039     3990 
    3954     3954     3985     4027     4047     4028     3979     3898 
    3809     3751     3715     3673     3627     3595     3597     3619 
    3620     3611     3620     3638     3653     3650     3631     3640 
    3707     3807     3898     3964     4016     4050     4056     4054 
    4060     4060     4014     3909     3775     3673     3628     3616 
    3605     3599     3631     3720     3847     3997     4159     4279 
    4307     4240     4098     3923     3759     3634     3545     3484 
    3454     3461     3522     3628     3734     3805     3858     3923 
    4021     4136     4222     4270     4278     4210     4071     3910 
    3762     3631     3514     3415     3370     3402     3493     3620 
    3746     3823     3844     3839     3852     3912     4016     4139 
    4230     4245     4182     4072     3962     3871     3801     3753 
    3721     3689     3677     3712     3782     3861     3900     3856 
    3753     3645     3577     3574     3616     3665     3719     3763 
    3786     3811     3835     3835     3809     3770     3731     3705 
    3690     3678     3669     3672     3712     3801     3943     4120 
    4284     4406     4456     4425     4326     4194     4075     4013 
    4032     4106     4182     4199     4131     4001     3848     3694 
    3570     3485     3431     3422     3476     3551     3584     3549 
    3473     3406     3384     3420     3495     3593     3680     3743 
    3828     3946     4052     4126     4152     4118     4039     3921 
    3801     3730     3705     3711     3747     3808     3890     3964 
    3975     3955     3947     3916     3858     3801     3757     3750 
    3786     3844     3912     4000     4122     4279     4423     4487 
    4436     4302     4145     3997     3838     3673     3538     3461 
    3434     3420     3399     3381     3381     3399     3429     3468 
    3508     3539     3553     3538     3499     3470     3489     3561 
    3674     3829     3998     4145     4267     4337     4330     4272 
    4195     4152     4178     4239     4293     4317     4305     4268 
    4201     4097     3985     3852     3674     3495     3353     3245 
    3191     3222     3337     3511     3705     3894     4070     4212 
    4307     4351     4317     4180     3952     3681     3420     3217 
    3114     3115     3196     3341     3545     3774     3979     4141 
    4237     4241     4168     4059     3955     3881     3835     3834 
    3881     3956     4052     4166     4275     4332     4293     4187 
    4079     3997     3939     3909     3904     3906     3878     3792 
    3677     3586     3532     3539     3613     3705     3786     3846 
    3862     3838     3765     3643     3508     3403     3373     3437 
    3547     3658     3743     3769     3731     3665     3599     3547 
    3520     3510     3511     3542     3609     3697     3797     3921 
    4072     4237     4391     4498     4552     4558     4517     4422 
    4293     4156     4028     3935     3893     3878     3869     3865 
    3867     3878     3873     3836     3798     3771     3753     3746 
    3759     3780     3767     3689     3549     3408     3334     3339 
    3402     3483     3546     3572     3562     3565     3626     3743 
    3875     3973     4005     3979     3929     3904     3924     3991 
    4113     4259     4371     4419     4402     4333     4230     4102 
    3944     3765     3604     3478     3383     3342     3380     3480 
    3616     3761     3894     4014     4109     4155     4163     4153 
    4128     4082     4023     3971     3908     3778     3599     3426 
    3298     3256     3321     3451     3597     3730     3823     3869 
    3877     3867     3846     3807     3774     3758     3740     3731 
    3731     3735     3769     3831     3866     3832     3747     3685 
    3685     3731     3812     3923     4054     4199     4352     4488 
    4576     4603     4558     4421     4183     3897     3639     3427 
    3253     3152     3144     3222     3368     3557     3781     4032 
    4263     4421     4484     4468     4402     4314     4199     4044 
    3865     3693     3570     3522     3546     3628     3757     3893 
    3978     3970     3870     3720     3572     3469     3441     3495 
    3599     3690     3734     3711     3627     3507     3361     3198 
    3084     3076     3160     3296     3454     3616     3774     3924 
    4077     4233     4361     4440     4467     4450     4437     4453 
    4498     4568     4635     4673     4685     4662     4588     4475 
    4342     4233     4202     4255     4372     4521     4635     4652 
    4549     4348     4079     3780     3496     3300     3241     3291 
    3391     3481     3489     3388     3230     3076     2953     2864 
    2812     2791     2781     2768     2740     2694     2641     2601 
    2569     2529     2496     2505     2593     2783     3060     3380 
    3700     3977     4183     4328     4422     4461     4456     4410 
    4322     4226     4155     4101     4058     4054     4104     4205 
    4348     4494     4617     4706     4749     4741     4685     4573 
    4388     4139     3862     3624     3483     3451     3522     3680 
    3878     4051     4143     4118     3989     3816     3662     3578 
    3591     3699     3894     4131     4353     4518     4595     4568 
    4456     4313     4172     4014     3834     3655     3511     3450 
    3523     3750     4101     4504     4895     5212     5390     5410 
    5292     5067     4788     4479     4151     3811     3461     3109 
    2778     2497     2285     2161     2145     2246     2462     2775 
    3144     3520     3852     4104     4271     4357     4363     4291 
    4152     3956     3734     3527     3353     3179     2980     2767 
    2565     2432     2430     2571     2840     3200     3611     4045 
    4471     4822     5050     5132     5061     4861     4581     4253 
    3915     3622     3399     3253     3194     3223     3366     3649 
    4040     4465     4835     5074     5157     5115     5011     4887 
    4758     4621     4467     4287     4064     3782     3461     3150 
    2907     2785     2820     3006     3291     3581     3790     3888 
    3890     3831     3739     3616     3458     3267     3038     2789 
    2577     2465     2479     2631     2898     3204     3481     3686 
    3775     3743     3627     3476     3333     3233     3181     3202 
    3323     3537     3816     4137     4465     4758     4977     5071 
    5053     4981     4922     4924     4990     5070     5131     5170 
    5146     5007     4760     4455     4163     3971     3900     3908 
    3960     4047     4162     4288     4419     4548     4666     4752 
    4768     4676     4452     4120     3728     3316     2940     2671 
    2560     2632     2866     3208     3570     3835     3942     3909 
    3785     3655     3580     3546     3524     3499     3460     3399 
    3323     3254     3206     3169     3136     3125     3175     3306 
    3522     3808     4135     4460     4718     4846     4828     4680 
    4449     4212     4020     3894     3811     3746     3693     3639 
    3559     3453     3343     3257     3196     3150     3126     3134 
    3169     3217     3257     3268     3229     3121     2932     2679 
    2397     2114     1850     1622     1464     1441     1610     1993 
    2585     3319     4082     4772     5317     5695     5935     6097 
    6214     6299     6358     6376     6338     6241     6073     5845 
    5598     5378     5200     5057     4930     4791     4619     4391 
    4110     3819     3557     3380     3350     3483     3730     4012 
    4257     4421     4476     4405     4195     3890     3568     3304 
    3153     3133     3218     3361     3522     3674     3789     3840 
    3819     3704     3488     3191     2855     2527     2253     2080 
    2033     2114     2315     2621     2995     3397     3798     4162 
    4452     4668     4819     4896     4877     4741     4463     4054 
    3568     3092     2729     2542     2512     2562     2616     2644 
    2659     2690     2766     2906     3094     3300     3488     3632 
    3743     3858     4005     4191     4409     4630     4823     4951 
    4970     4854     4611     4271     3896     3581     3411     3416 
    3577     3842     4153     4441     4662     4828     4947     5023 
    5088     5136     5147     5107     4997     4795     4519     4195 
    3846     3491     3146     2822     2521     2249     2046     1977 
    2093     2411     2909     3530     4179     4762     5223     5555 
    5791     5960     6077     6146     6149     6049     5811     5417 
    4880     4236     3564     2976     2562     2355     2342     2474 
    2690     2929     3167     3403     3628     3827     3958     3987 
    3917     3774     3592     3410     3275     3227     3288     3437 
    3643     3838     3924     3855     3636     3311     2947     2605 
    2350     2239     2300     2494     2772     3113     3492     3862 
    4174     4392     4491     4472     4353     4144     3882     3609 
    3354     3133     2951     2816     2733     2704     2716     2762 
    2833     2921     3025     3165     3377     3659     3982     4294 
    4553     4747     4880     4986     5098     5223     5389     5625 
    5888     6129     6304     6382     6345     6169     5850     5429 
    4955     4465     3998     3589     3250     2988     2805     2682 
    2601     2554     2542     2586     2709     2880     3071     3276 
    3485     3680     3839     3950     4028     4105     4197     4317 
    4452     4542     4544     4445     4252     3996     3740     3532 
    3400     3333     3303     3291     3295     3288     3244     3163 
    3053     2925     2814     2755     2749     2795     2910     3119 
    3424     3785     4141     4445     4660     4777     4810     4776 
    4696     4584     4453     4314     4186     4101     4082     4137 
    4263     4430     4571     4610     4513     4282     3940     3541 
    3134     2768     2493     2350     2361     2517     2801     3183 
    3622     4064     4471     4811     5039     5121     5061     4864 
    4556     4185     3813     3522     3353     3299     3322     3377 
    3419     3422     3406     3391     3404     3480     3611     3759 
    3902     4016     4099     4179     4275     4405     4548     4648 
    4661     4550     4310     3981     3612     3265     3002     2855 
    2825     2895     3040     3237     3464     3673     3839     3947 
    3979     3932     3815     3626     3370     3088     2826     2624 
    2504     2481     2552     2704     2910     3161     3445     3757 
    4068     4328     4502     4588     4595     4545     4473     4423 
    4429     4488     4588     4687     4737     4711     4634     4569 
    4573     4669     4866     5150     5472     5769     5975     6042 
    5967     5769     5485     5166     4853     4569     4344     4182 
    4055     3937     3812     3662     3493     3311     3115     2899 
    2663     2420     2199     2023     1910     1865     1884     1962 
    2079     2188     2257     2292     2319     2355     2412     2521 
    2710     2970     3277     3595     3855     4027     4120     4158 
    4158     4131     4098     4083     4101     4158     4249     4355 
    4449     4503     4502     4449     4372     4313     4302     4353 
    4471     4627     4773     4880     4949     4978     4977     4950 
    4887     4785     4648     4477     4291     4108     3940     3775 
    3601     3437     3318     3240     3179     3113     3028     2924 
    2805     2690     2613     2589     2616     2687     2798     2932 
    3063     3180     3272     3341     3408     3497     3627     3811 
    4048     4326     4598     4806     4922     4939     4876     4758 
    4598     4417     4247     4116     4044     4020     4032     4089 
    4186     4294     4391     4464     4517     4537     4511     4449 
    4378     4307     4245     4187     4112     4018     3925     3839 
    3771     3735     3735     3774     3840     3908     3977     4058 
    4155     4261     4353     4407     4403     4314     4121     3817 
    3416     2968     2544     2199     1984     1922     1973     2092 
    2247     2409     2548     2663     2759     2840     2901     2937 
    2965     3005     3053     3121     3234     3391     3572     3775 
    3975     4129     4226     4282     4309     4341     4411     4525 
    4665     4812     4954     5080     5174     5239     5271     5252 
    5185     5101     5026     4957     4897     4846     4777     4693 
    4611     4527     4440     4332     4185     4009     3828     3662 
    3538     3469     3450     3460     3474     3489     3481     3434 
    3357     3258     3156     3078     3033     3024     3056     3125 
    3229     3358     3500     3653     3807     3929     4010     4050 
    4031     3959     3847     3678     3470     3268     3087     2944 
    2870     2867     2921     3021     3148     3302     3493     3719 
    3970     4220     4437     4612     4745     4835     4878     4895 
    4901     4895     4864     4816     4758     4676     4557     4398 
    4186     3925     3645     3365     3109     2907     2774     2717 
    2754     2874     3046     3244     3441     3604     3712     3766 
    3771     3736     3688     3647     3607     3561     3518     3476 
    3453     3476     3550     3669     3824     4008     4201     4384 
    4548     4691     4830     4976     5111     5209     5254     5233 
    5146     5001     4833     4649     4453     4260     4075     3873 
    3632     3370     3095     2810     2547     2343     2231     2230 
    2346     2563     2839     3138     3442     3704     3892     4008 
    4050     4014     3923     3792     3646     3514     3430     3411 
    3458     3559     3672     3770     3851     3908     3940     3969 
    4000     4041     4102     4175     4233     4253     4226     4153 
    4054     3951     3871     3832     3847     3915     4025     4166 
    4302     4415     4500     4542     4549     4548     4536     4514 
    4479     4406     4278     4109     3913     3707     3512     3352 
    3225     3133     3086     3084     3119     3165     3206     3244 
    3271     3298     3342     3399     3461     3528     3582     3613 
    3632     3651     3681     3709     3727     3736     3727     3690 
    3631     3565     3510     3480     3495     3551     3631     3726 
    3828     3923     4000     4048     4067     4072     4093     4144 
    4222     4332     4457     4576     4676     4757     4810     4828 
    4808     4753     4681     4612     4541     4460     4378     4295 
    4209     4126     4040     3936     3829     3715     3585     3449 
    3315     3191     3087     3003     2943     2902     2880     2886 
    2922     2982     3053     3133     3225     3331     3442     3558 
    3689     3847     4028     4217     4388     4523     4608     4637 
    4615     4557     4477     4406     4368     4360     4374     4392 
    4387     4342     4245     4070     3817     3522     3210     2920 
