Origin Time       2025/03/28 03:50:00
Lat.              35.403
Long.             140.360
Depth. (km)       54
Mag.              4.4
Station Code      CHB020
Station Lat.      35.1132
Station Long.     140.1006
Station Height(m) 9
Record Time       2025/03/28 03:50:58
Sampling Freq(Hz) 100Hz
Duration Time(s)  60
Dir.              U-D
Scale Factor      7845(gal)/8223790
Max. Acc. (gal)   1.648
Last Correction   2025/03/28 03:50:58
Memo.             
[...]
    6664     6652     6643     6648     6659     6660     6654     6646 
    6647     6651     6646     6650     6667     6667     6658     6651 
    6655     6666     6655     6644     6647     6647     6652     6658 
    6666     6663     6646     6644     6663     6671     6662     6655 
    6662     6664     6646     6637     6656     6660     6647     6644 
    6659     6671     6651     6633     6651     6666     6656     6650 
    6662     6664     6646     6642     6660     6655     6636     6648 
    6662     6654     6644     6648     6664     6670     6655     6650 
    6662     6673     6656     6640     6652     6663     6651     6631 
    6642     6673     6656     6643     6673     6675     6669     6655 
    6636     6658     6656     6639     6650     6651     6652     6654 
    6647     6659     6666     6656     6659     6660     6643     6643 
    6654     6654     6663     6650     6631     6651     6666     6660 
    6660     6659     6660     6658     6655     6656     6655     6642 
    6644     6662     6652     6644     6659     6663     6662     6655 
    6652     6662     6650     6648     6666     6651     6637     6646 
    6643     6633     6608     6592     6593     6581     6586     6604 
    6616     6658     6694     6713     6735     6737     6740     6729 
    6673     6613     6558     6477     6432     6447     6485     6561 
    6686     6825     6933     6972     6945     6871     6748     6600 
    6475     6423     6434     6466     6554     6693     6802     6895 
    6963     6955     6895     6785     6633     6498     6426     6412 
    6413     6434     6544     6696     6755     6741     6759     6790 
    6706     6598     6619     6621     6547     6516     6524     6546 
    6612     6725     6795     6814     6864     6837     6691     6588 
    6558     6523     6490     6481     6462     6502     6683     6887 
    7032     7207     7369     7352     7118     6793     6462     6084 
    5713     5494     5508     5791     6227     6700     7250     7742 
    7959     7929     7677     7204     6629     6069     5643     5530 
    5817     6343     6876     7337     7693     7823     7631     7173 
    6586     5989     5529     5374     5547     5892     6309     6754 
    7109     7326     7408     7267     6922     6577     6340     6207 
    6184     6273     6427     6574     6679     6756     6793     6693 
    6447     6254     6274     6458     6579     6592     6733     6940 
    6949     6882     6933     7072     7226     7236     7021     6783 
    6579     6270     5998     6021     6272     6404     6289     6247 
    6411     6535     6608     6786     7032     7284     7510     7543 
    7252     6845     6602     6420     6257     6342     6552     6628 
    6675     6789     6855     6816     6741     6706     6651     6554 
    6467     6327     6245     6367     6484     6610     6876     6959 
    6832     6744     6596     6416     6423     6505     6552     6598 
    6554     6405     6262     6250     6421     6616     6750     6886 
    6986     7084     7175     7078     6909     6864     6790     6600 
    6399     6264     6249     6323     6534     6895     7059     6909 
    6714     6527     6382     6359     6353     6386     6525     6687 
    6822     6905     6974     7013     6941     6880     6905     6866 
    6763     6732     6791     6855     6883     6883     6805     6637 
    6515     6467     6407     6347     6293     6201     6145     6168 
    6220     6354     6594     6832     7017     7129     7087     6903 
    6744     6683     6669     6687     6767     6880     6936     6862 
    6686     6513     6428     6440     6462     6447     6459     6475 
    6423     6355     6355     6446     6608     6741     6772     6775 
    6817     6879     6916     6862     6705     6511     6366     6335 
    6442     6694     6959     7022     6913     6840     6880     6943 
    6903     6785     6666     6550     6458     6382     6293     6318 
    6484     6667     6859     6999     6980     6841     6655     6490 
    6354     6239     6245     6354     6494     6737     6970     7001 
    6964     6970     6922     6851     6790     6651     6500     6513 
    6592     6575     6539     6497     6424     6505     6721     6812 
    6775     6717     6625     6494     6365     6365     6508     6590 
    6582     6633     6750     6794     6701     6600     6579     6556 
    6543     6623     6771     6902     6966     6966     6917     6851 
    6791     6732     6755     6829     6763     6590     6405     6226 
    6200     6359     6528     6660     6802     6887     6885     6868 
    6814     6732     6681     6585     6448     6400     6475     6608 
    6685     6671     6643     6617     6573     6590     6781     7015 
    7082     7001     6897     6779     6620     6481     6457     6489 
    6500     6561     6632     6621     6601     6585     6493     6403 
    6421     6512     6567     6554     6561     6617     6639     6639 
    6660     6691     6743     6747     6627     6570     6683     6689 
    6509     6443     6502     6424     6309     6420     6621     6686 
    6713     6779     6841     6948     7057     7080     7069     7010 
    6808     6590     6542     6590     6640     6694     6720     6717 
    6696     6671     6669     6639     6546     6485     6558     6740 
    6897     6953     6994     7075     7071     6925     6793     6704 
    6562     6494     6547     6496     6311     6145     6034     5971 
    6011     6218     6508     6705     6787     6880     6949     6853 
    6681     6593     6586     6583     6488     6354     6378     6596 
    6867     7055     7113     7075     6974     6901     6899     6871 
    6759     6589     6373     6196     6192     6307     6386     6478 
    6663     6814     6837     6806     6794     6797     6783     6785 
    6829     6833     6754     6659     6594     6556     6493     6386 
    6372     6496     6623     6752     6936     7024     6967     6921 
    6952     6983     6966     6937     6883     6724     6554     6513 
    6528     6490     6401     6346     6397     6508     6600     6594 
    6502     6434     6353     6250     6253     6332     6390     6457 
    6590     6751     6859     6907     6907     6868     6791     6696 
    6720     6890     6998     6984     6966     6937     6828     6743 
    6759     6735     6623     6512     6373     6251     6289     6446 
    6582     6639     6593     6485     6426     6372     6323     6421 
    6598     6694     6750     6798     6766     6682     6659     6666 
    6663     6759     6933     7042     7098     7156     7128     6926 
    6616     6380     6340     6455     6601     6752     6891     6889 
    6728     6544     6401     6278     6177     6174     6304     6469 
    6601     6727     6775     6712     6678     6727     6763     6755 
    6714     6635     6508     6323     6160     6141     6320     6671 
    7001     7145     7202     7237     7188     7074     6984     6939 
    6866     6720     6529     6319     6170     6134     6178     6336 
    6528     6602     6659     6768     6874     7005     7090     7030 
    6944     6876     6752     6627     6508     6343     6243     6277 
    6376     6536     6708     6795     6831     6779     6574     6404 
    6427     6546     6667     6775     6875     6943     6951     6972 
    7017     6972     6822     6616     6378     6147     6002     5979 
    6016     6115     6332     6558     6714     6875     7002     7067 
    7107     7090     6993     6837     6698     6651     6617     6577 
    6631     6728     6775     6762     6677     6566     6504     6531 
    6615     6643     6593     6528     6455     6389     6381     6474 
    6689     6959     7195     7303     7213     7011     6808     6624 
    6481     6403     6417     6470     6520     6624     6795     6987 
    7095     7041     6880     6654     6393     6232     6188     6174 
    6214     6347     6513     6621     6700     6798     6781     6590 
    6444     6421     6380     6367     6467     6558     6610     6682 
    6752     6902     7125     7214     7165     7082     6944     6798 
    6723     6682     6632     6552     6453     6388     6405     6490 
    6605     6717     6791     6828     6814     6697     6528     6446 
    6482     6597     6729     6790     6789     6816     6886     6959 
    6991     6930     6785     6640     6575     6601     6650     6637 
    6609     6644     6646     6562     6517     6488     6365     6212 
    6110     6066     6114     6238     6382     6582     6835     6984 
    7002     6979     6875     6671     6501     6427     6426     6520 
    6667     6743     6737     6693     6613     6601     6689     6771 
    6847     6943     7018     7037     7014     6971     6858     6648 
    6455     6362     6335     6309     6304     6362     6409     6389 
    6345     6295     6265     6332     6486     6619     6683     6745 
    6868     7047     7214     7319     7388     7437     7418     7308 
    7164     7020     6874     6740     6578     6440     6407     6384 
    6300     6231     6241     6312     6377     6419     6462     6502 
    6504     6435     6380     6431     6548     6647     6712     6791 
    6886     6871     6706     6498     6285     6091     6016     6069 
    6215     6473     6758     6978     7161     7330     7423     7391 
    7267     7136     7030     6941     6836     6685     6563     6504 
    6428     6363     6388     6516     6690     6775     6782     6824 
    6828     6723     6588     6501     6501     6523     6488     6477 
    6554     6646     6663     6547     6326     6130     6056     6119 
    6318     6598     6836     6936     6914     6853     6766     6670 
    6616     6532     6427     6432     6511     6561     6613     6705 
    6770     6733     6666     6698     6747     6678     6609     6617 
    6651     6717     6766     6760     6772     6798     6814     6868 
    6925     6903     6839     6787     6767     6787     6844     6889 
    6853     6795     6786     6739     6632     6597     6659     6731 
    6795     6895     6979     6959     6839     6697     6619     6548 
    6376     6160     5998     5886     5790     5692     5629     5605 
    5610     5675     5840     6112     6459     6782     6997     7142 
    7299     7480     7649     7758     7753     7627     7430     7203 
    6984     6810     6690     6581     6481     6436     6435     6486 
    6600     6743     6920     7079     7159     7190     7152     7013 
    6833     6686     6585     6520     6516     6586     6664     6669 
    6628     6623     6594     6505     6470     6444     6343     6270 
    6269     6355     6497     6592     6647     6648     6563     6486 
    6428     6354     6261     6157     6129     6193     6282     6384 
    6455     6484     6535     6579     6602     6702     6859     6984 
    7126     7264     7287     7238     7167     7061     6994     6975 
    6922     6818     6689     6548     6400     6227     6104     6120 
    6231     6363     6504     6643     6760     6814     6791     6733 
    6674     6678     6790     6984     7221     7411     7438     7348 
    7244     7125     6976     6782     6554     6374     6254     6142 
    6041     5940     5822     5710     5659     5740     5930     6135 
    6324     6524     6714     6851     6949     7056     7160     7229 
    7230     7157     7067     6955     6793     6663     6619     6598 
    6534     6401     6241     6100     6016     6041     6137     6214 
    6311     6509     6762     7009     7279     7535     7686     7754 
    7827     7915     7925     7825     7657     7414     7090     6741 
    6400     6076     5815     5652     5564     5505     5455     5444 
    5513     5618     5697     5796     5954     6158     6427     6720 
    7024     7360     7607     7696     7715     7705     7666     7600 
    7501     7384     7279     7173     7036     6855     6671     6527 
    6424     6346     6286     6242     6192     6130     6104     6138 
    6145     6087     6035     5998     5935     5907     5961     6043 
    6114     6188     6278     6385     6505     6627     6743     6826 
    6899     7002     7103     7188     7280     7346     7348     7258 
    7088     6916     6809     6778     6795     6820     6874     6970 
    7036     7061     7082     7075     7052     7044     7051     7011 
    6878     6724     6596     6474     6389     6349     6335     6374 
    6435     6421     6339     6266     6214     6153     6115     6130 
    6146     6115     6066     6035     6026     6056     6120     6214 
    6353     6550     6762     6894     6897     6837     6771     6700 
    6664     6702     6782     6851     6929     7071     7236     7331 
    7335     7300     7268     7246     7240     7242     7237     7209 
    7126     7010     6922     6863     6817     6798     6787     6759 
    6698     6609     6512     6413     6320     6258     6245     6268 
    6328     6401     6451     6513     6612     6646     6554     6435 
    6372     6280     6104     5940     5834     5756     5722     5757 
    5871     6048     6262     6529     6872     7227     7504     7692 
    7836     7912     7888     7812     7697     7514     7267     6986 
    6739     6515     6255     6031     5892     5784     5687     5582 
    5494     5486     5525     5582     5690     5871     6115     6412 
    6767     7144     7492     7834     8128     8290     8367     8382 
    8248     7973     7655     7317     6961     6613     6280     6011 
    5849     5759     5721     5759     5865     5976     6014     6018 
    6041     6039     6043     6111     6201     6273     6323     6399 
    6583     6833     7052     7253     7438     7549     7562     7476 
    7310     7110     6916     6750     6651     6583     6474     6382 
    6388     6401     6372     6347     6309     6243     6204     6184 
    6178     6220     6273     6345     6490     6690     6939     7229 
    7496     7704     7859     7974     8023     7955     7797     7593 
    7323     7024     6771     6543     6284     6015     5779     5602 
    5505     5490     5535     5603     5680     5760     5825     5903 
    6057     6253     6428     6563     6646     6671     6671     6650 
    6631     6667     6747     6820     6890     6948     6983     7005 
    7025     7069     7118     7159     7248     7396     7546     7663 
    7763     7846     7866     7788     7623     7379     7041     6654 
    6296     5972     5671     5418     5243     5140     5089     5107 
    5197     5321     5479     5678     5904     6127     6296     6436 
    6598     6740     6849     6964     7053     7128     7250     7399 
    7515     7597     7646     7646     7591     7489     7388     7272 
    7088     6886     6744     6679     6663     6646     6629     6640 
    6673     6750     6844     6880     6851     6763     6612     6438 
    6305     6223     6166     6150     6176     6208     6241     6270 
    6299     6334     6359     6384     6426     6458     6486     6556 
    6642     6702     6758     6806     6801     6740     6659     6588 
    6567     6593     6635     6705     6801     6880     6937     6980 
    6980     6912     6799     6696     6633     6596     6582     6619 
    6654     6667     6685     6709     6751     6809     6855     6893 
    6936     6963     6960     6932     6872     6793     6691     6531 
    6327     6147     6015     5922     5876     5865     5881     5941 
    6045     6191     6393     6642     6883     7074     7198     7275 
    7323     7323     7272     7222     7161     7075     7011     6988 
    6994     7021     7033     7017     6979     6891     6741     6578 
    6465     6381     6292     6243     6259     6316     6411     6531 
    6659     6785     6866     6882     6847     6770     6646     6484 
    6335     6228     6139     6114     6165     6200     6189     6174 
    6143     6085     6041     6037     6073     6169     6326     6521 
    6745     6970     7148     7284     7403     7465     7464     7460 
    7441     7395     7379     7392     7410     7402     7314     7153 
    6953     6714     6474     6277     6110     5968     5876     5822 
    5795     5815     5879     5969     6072     6180     6305     6431 
    6535     6658     6797     6907     6993     7071     7130     7160 
    7150     7096     7024     6956     6883     6816     6778     6743 
    6687     6637     6598     6556     6546     6586     6663     6748 
    6812     6828     6797     6721     6624     6555     6513     6465 
    6417     6394     6376     6372     6385     6396     6399     6393 
    6377     6372     6403     6471     6556     6644     6764     6902 
    6984     7010     7029     7017     6949     6862     6783     6714 
    6662     6631     6615     6588     6536     6505     6511     6521 
    6536     6571     6604     6602     6596     6602     6617     6652 
    6713     6781     6840     6901     6953     6979     6988     6974 
    6918     6868     6835     6779     6720     6666     6589     6498 
    6440     6412     6382     6362     6363     6378     6400     6421 
    6457     6513     6578     6631     6679     6741     6812     6867 
    6902     6917     6924     6933     6940     6940     6933     6902 
    6829     6736     6637     6523     6400     6286     6177     6097 
    6062     6049     6064     6131     6235     6349     6453     6540 
    6598     6631     6683     6768     6843     6895     6940     6971 
    6995     7014     7017     7013     6980     6905     6841     6832 
    6835     6826     6837     6849     6839     6821     6810     6798 
    6783     6751     6686     6616     6567     6520     6457     6397 
    6349     6308     6288     6277     6273     6303     6357     6397 
    6446     6527     6604     6670     6740     6804     6883     6979 
    7048     7103     7175     7222     7198     7119     7021     6895 
    6739     6577     6407     6249     6135     6062     6025     6034 
    6100     6208     6328     6458     6586     6675     6725     6762 
    6771     6751     6724     6662     6559     6489     6467     6470 
    6507     6569     6643     6740     6855     6972     7079     7173 
    7256     7308     7346     7380     7381     7334     7260     7173 
    7067     6941     6794     6616     6415     6224     6070     5946 
    5864     5837     5845     5887     5949     6000     6058     6146 
    6243     6332     6434     6555     6690     6831     6957     7059 
    7129     7145     7126     7111     7091     7063     7044     7024 
    6999     6970     6924     6852     6754     6659     6585     6507 
    6431     6384     6358     6330     6293     6270     6269     6270 
    6254     6238     6245     6274     6335     6412     6473     6539 
    6636     6731     6809     6883     6952     7018     7078     7132 
    7179     7187     7167     7140     7090     7014     6920     6799 
    6671     6556     6470     6428     6413     6432     6504     6589 
    6667     6752     6816     6852     6870     6833     6743     6643 
    6516     6357     6227     6142     6054     5980     5971     6022 
    6097     6204     6355     6511     6647     6777     6890     6990 
