Origin Time       2025/03/28 03:50:00
Lat.              35.403
Long.             140.360
Depth. (km)       54
Mag.              4.4
Station Code      CHB004
Station Lat.      35.8889
Station Long.     140.4903
Station Height(m) 36
Record Time       2025/03/28 03:50:51
Sampling Freq(Hz) 100Hz
Duration Time(s)  68
Dir.              E-W
Scale Factor      7845(gal)/8223790
Max. Acc. (gal)   2.933
Last Correction   2025/03/28 03:50:50
Memo.             
[...]
   -2049    -2064    -2061    -2047    -2050    -2052    -2039    -2042 
   -2052    -2049    -2050    -2060    -2064    -2047    -2033    -2050 
   -2066    -2047    -2030    -2035    -2042    -2052    -2062    -2062 
   -2056    -2066    -2074    -2054    -2039    -2053    -2062    -2047 
   -2035    -2047    -2060    -2052    -2041    -2046    -2053    -2047 
   -2050    -2064    -2058    -2037    -2041    -2050    -2037    -2039 
   -2058    -2054    -2049    -2060    -2047    -2041    -2058    -2061 
   -2049    -2045    -2052    -2065    -2060    -2045    -2050    -2050 
   -2033    -2041    -2058    -2045    -2030    -2050    -2073    -2072 
   -2062    -2050    -2033    -2037    -2058    -2057    -2049    -2056 
   -2058    -2049    -2025    -2019    -2053    -2073    -2058    -2045 
   -2053    -2058    -2042    -2041    -2058    -2058    -2054    -2065 
   -2053    -2033    -2046    -2056    -2038    -2035    -2053    -2064 
   -2064    -2066    -2068    -2054    -2053    -2069    -2054    -2027 
   -2037    -2058    -2053    -2045    -2050    -2045    -2035    -2047 
   -2064    -2061    -2046    -2049    -2065    -2058    -2049    -2061 
   -2061    -2047    -2047    -2054    -2053    -2047    -2042    -2049 
   -2064    -2053    -2043    -2061    -2061    -2046    -2052    -2046 
   -2033    -2045    -2061    -2054    -2045    -2047    -2052    -2054 
   -2054    -2053    -2049    -2042    -2049    -2068    -2066    -2049 
   -2052    -2064    -2047    -2022    -2026    -2041    -2056    -2073 
   -2069    -2046    -2038    -2056    -2060    -2041    -2038    -2050 
   -2054    -2046    -2049    -2053    -2039    -2038    -2056    -2053 
   -2038    -2041    -2052    -2047    -2041    -2050    -2053    -2045 
   -2054    -2066    -2053    -2039    -2047    -2050    -2037    -2029 
   -2037    -2053    -2066    -2066    -2052    -2038    -2046    -2052 
   -2033    -2034    -2066    -2073    -2053    -2049    -2057    -2058 
   -2056    -2046    -2038    -2045    -2050    -2045    -2035    -2035 
   -2050    -2056    -2043    -2043    -2056    -2058    -2049    -2046 
   -2047    -2041    -2029    -2027    -2049    -2065    -2054    -2053 
   -2057    -2043    -2037    -2042    -2046    -2045    -2052    -2062 
   -2049    -2038    -2050    -2053    -2043    -2049    -2061    -2064 
   -2050    -2041    -2038    -2035    -2043    -2057    -2053    -2050 
   -2052    -2042    -2050    -2061    -2046    -2042    -2047    -2052 
   -2058    -2053    -2038    -2035    -2041    -2046    -2053    -2062 
   -2057    -2045    -2045    -2047    -2042    -2043    -2053    -2062 
   -2066    -2066    -2061    -2047    -2038    -2043    -2046    -2045 
   -2056    -2062    -2062    -2062    -2054    -2054    -2060    -2046 
   -2037    -2050    -2052    -2047    -2052    -2046    -2046    -2056 
   -2050    -2042    -2046    -2041    -2039    -2053    -2056    -2046 
   -2045    -2047    -2054    -2054    -2050    -2049    -2043    -2042 
   -2053    -2060    -2053    -2052    -2060    -2054    -2054    -2061 
   -2049    -2042    -2064    -2069    -2047    -2046    -2058    -2046 
   -2039    -2052    -2054    -2035    -2030    -2056    -2062    -2041 
   -2046    -2062    -2047    -2042    -2057    -2057    -2039    -2043 
   -2057    -2043    -2033    -2047    -2054    -2056    -2064    -2061 
   -2054    -2057    -2060    -2054    -2053    -2054    -2050    -2041 
   -2033    -2045    -2057    -2041    -2039    -2061    -2064    -2045 
   -2042    -2053    -2046    -2053    -2066    -2057    -2052    -2056 
   -2052    -2045    -2047    -2069    -2076    -2047    -2037    -2057 
   -2054    -2047    -2062    -2068    -2053    -2042    -2041    -2038 
   -2033    -2041    -2054    -2053    -2050    -2047    -2047    -2057 
   -2054    -2041    -2043    -2057    -2064    -2061    -2047    -2034 
   -2035    -2049    -2050    -2046    -2060    -2062    -2052    -2053 
   -2056    -2049    -2047    -2057    -2058    -2054    -2056    -2050 
   -2043    -2043    -2052    -2060    -2062    -2060    -2054    -2046 
   -2034    -2041    -2061    -2053    -2042    -2054    -2054    -2038 
   -2042    -2056    -2047    -2035    -2046    -2060    -2060    -2050 
   -2041    -2039    -2053    -2062    -2053    -2047    -2060    -2056 
   -2043    -2050    -2050    -2038    -2046    -2065    -2060    -2047 
   -2054    -2061    -2057    -2050    -2052    -2064    -2058    -2034 
   -2016    -2026    -2050    -2056    -2041    -2052    -2074    -2066 
   -2050    -2049    -2041    -2030    -2041    -2049    -2049    -2052 
   -2050    -2049    -2046    -2042    -2042    -2043    -2047    -2062 
   -2070    -2058    -2050    -2057    -2054    -2043    -2045    -2041 
   -2042    -2056    -2052    -2042    -2043    -2042    -2042    -2054 
   -2057    -2046    -2046    -2054    -2056    -2045    -2041    -2043 
   -2047    -2060    -2060    -2046    -2052    -2068    -2073    -2076 
   -2079    -2077    -2064    -2057    -2057    -2039    -2026    -2039 
   -2066    -2097    -2092    -2019    -1948    -1933    -1879    -1755 
   -1756    -1953    -2170    -2342    -2436    -2359    -2201    -2060 
   -1840    -1634    -1665    -1846    -2042    -2353    -2731    -2857 
   -2612    -2161    -1683    -1297    -1084    -1175    -1625    -2118 
   -2346    -2484    -2714    -2810    -2605    -2265    -1929    -1609 
   -1370    -1325    -1594    -2151    -2695    -2944    -2797    -2278 
   -1664    -1366    -1489    -1749    -1822    -1777    -1888    -2155 
   -2412    -2567    -2554    -2393    -2151    -1765    -1394    -1524 
   -2127    -2539    -2509    -2272    -1891    -1480    -1374    -1610 
   -1995    -2428    -2717    -2674    -2481    -2342    -2130    -1885 
   -1782    -1648    -1437    -1526    -2019    -2467    -2539    -2389 
   -2209    -1987    -1686    -1375    -1383    -1937    -2566    -2778 
   -2794    -2733    -2343    -1858    -1603    -1417    -1374    -1710 
   -2054    -2058    -1991    -2007    -1984    -2119    -2511    -2690 
   -2438    -2081    -1815    -1728    -1857    -1985    -2062    -2131 
   -2016    -1892    -2088    -2322    -2203    -1887    -1636    -1548 
   -1676    -1900    -2205    -2664    -2852    -2505    -2107    -1933 
   -1817    -1850    -2115    -2268    -2035    -1607    -1358    -1397 
   -1501    -1696    -2223    -2709    -2619    -2295    -2357    -2683 
   -2695    -2227    -1691    -1389    -1325    -1652    -2303    -2728 
   -2668    -2335    -1977    -1795    -1787    -1829    -1948    -2101 
   -2041    -1765    -1649    -1865    -2185    -2346    -2272    -2172 
   -2257    -2324    -2220    -2161    -2070    -1749    -1417    -1364 
   -1732    -2326    -2594    -2552    -2598    -2466    -1904    -1444 
   -1489    -1807    -2074    -2230    -2316    -2241    -1948    -1664 
   -1610    -1771    -2007    -2166    -2293    -2505    -2646    -2579 
   -2447    -2247    -1877    -1637    -1906    -2409    -2513    -2149 
   -1790    -1626    -1548    -1610    -1810    -1871    -1674    -1520 
   -1664    -1942    -2162    -2370    -2600    -2778    -2770    -2529 
   -2288    -2178    -1975    -1613    -1277    -1089    -1289    -1910 
   -2428    -2604    -2666    -2539    -2085    -1559    -1314    -1501 
   -1915    -2327    -2754    -2974    -2602    -1890    -1579    -1891 
   -2214    -2166    -2139    -2214    -1976    -1630    -1722    -2076 
   -2182    -2041    -1957    -1999    -2053    -2141    -2288    -2358 
   -2286    -2111    -1900    -1734    -1620    -1676    -2033    -2425 
   -2459    -2056    -1539    -1378    -1578    -1784    -2053    -2486 
   -2619    -2238    -1911    -1965    -2062    -2004    -1945    -2012 
   -2258    -2586    -2774    -2740    -2560    -2301    -1938    -1551 
   -1332    -1358    -1698    -2242    -2506    -2335    -2038    -1842 
   -1877    -2053    -2045    -1850    -1695    -1574    -1452    -1601 
   -2197    -2848    -3045    -2789    -2284    -1709    -1354    -1324 
   -1564    -2180    -2874    -2929    -2382    -1873    -1641    -1667 
   -1803    -1772    -1686    -1753    -1904    -2145    -2378    -2454 
   -2570    -2729    -2573    -2160    -1842    -1745    -1849    -1983 
   -2064    -2204    -2181    -1841    -1532    -1421    -1462    -1676 
   -1918    -2046    -2165    -2315    -2392    -2411    -2371    -2147 
   -1933    -2026    -2165    -2016    -1861    -2029    -2295    -2365 
   -2338    -2344    -2301    -2196    -2120    -1973    -1680    -1567 
   -1826    -2043    -1894    -1645    -1755    -2247    -2616    -2565 
   -2322    -2061    -1876    -1865    -1760    -1505    -1595    -2000 
   -2196    -2143    -2039    -1983    -2039    -2041    -1814    -1576 
   -1622    -1999    -2490    -2752    -2656    -2365    -2089    -1921 
   -1775    -1718    -1957    -2277    -2367    -2193    -1788    -1563 
   -1885    -2285    -2344    -2332    -2432    -2438    -2142    -1713 
   -1536    -1682    -1923    -2052    -2042    -2133    -2409    -2554 
   -2407    -2197    -2066    -1906    -1728    -1761    -2022    -2138 
   -1998    -1950    -2023    -1933    -1773    -1838    -2141    -2336 
   -2173    -1911    -1798    -1790    -1995    -2367    -2475    -2241 
   -2072    -2126    -2212    -2192    -2057    -1857    -1699    -1622 
   -1530    -1505    -1819    -2292    -2385    -2231    -2374    -2708 
   -2748    -2421    -2042    -1895    -1844    -1579    -1368    -1688 
   -2235    -2454    -2365    -2214    -2072    -1894    -1764    -1991 
   -2485    -2666    -2317    -1777    -1336    -1089    -1139    -1493 
   -1981    -2339    -2377    -2212    -2130    -2215    -2371    -2435 
   -2300    -2124    -2124    -2205    -2177    -2058    -1896    -1783 
   -1836    -1887    -1961    -2365    -2767    -2648    -2301    -2074 
   -1790    -1601    -1954    -2581    -2810    -2531    -2035    -1553 
   -1324    -1561    -2079    -2393    -2374    -2142    -1717    -1293 
   -1262    -1738    -2393    -2710    -2470    -1984    -1707    -1773 
   -2068    -2457    -2724    -2667    -2349    -1954    -1545    -1154 
   -1005    -1414    -2235    -2879    -3102    -3079    -2774    -2157 
   -1601    -1390    -1390    -1406    -1386    -1374    -1412    -1402 
   -1308    -1433    -1984    -2656    -3084    -3180    -2987    -2706 
   -2490    -2224    -1930    -1875    -2014    -2041    -1987    -2047 
   -2101    -1999    -1887    -1911    -2087    -2447    -2832    -2922 
   -2639    -2084    -1455    -1074    -1001    -1051    -1279    -1726 
   -2054    -2011    -1804    -1760    -2018    -2508    -2932    -2971 
   -2663    -2280    -1948    -1710    -1597    -1597    -1745    -2029 
   -2280    -2400    -2465    -2556    -2648    -2616    -2394    -2080 
   -1761    -1458    -1251    -1312    -1790    -2469    -2775    -2554 
   -2139    -1690    -1371    -1497    -1946    -2308    -2415    -2289 
   -2047    -1873    -1840    -1930    -2177    -2444    -2358    -1922 
   -1620    -1609    -1702    -1902    -2110    -2061    -1891    -1941 
   -2262    -2637    -2766    -2577    -2259    -1945    -1698    -1582 
   -1602    -1684    -1717    -1736    -1854    -2049    -2268    -2446 
   -2374    -2073    -1899    -1957    -2077    -2266    -2471    -2421 
   -2162    -2110    -2331    -2439    -2371    -2342    -2146    -1561 
    -922     -710    -1081    -1749    -2309    -2656    -2740    -2478 
   -2114    -1934    -1964    -2153    -2415    -2613    -2632    -2394 
   -2087    -1968    -1987    -2035    -2080    -2049    -1992    -1972 
   -1953    -1903    -1726    -1549    -1722    -2069    -2039    -1675 
   -1436    -1522    -1861    -2232    -2434    -2485    -2416    -2119 
   -1730    -1571    -1576    -1563    -1772    -2289    -2772    -3003 
   -2949    -2662    -2297    -1972    -1813    -1881    -2004    -2069 
   -2122    -2118    -2145    -2304    -2309    -2058    -1876    -1761 
   -1607    -1640    -1829    -1980    -2211    -2416    -2380    -2366 
   -2374    -1946    -1275     -969    -1097    -1425    -1849    -2404 
   -2991    -3241    -3010    -2512    -1910    -1447    -1379    -1599 
   -1964    -2411    -2648    -2570    -2370    -2108    -1867    -1767 
   -1698    -1578    -1463    -1472    -1782    -2300    -2633    -2556 
   -2254    -2039    -1980    -1968    -1966    -1934    -1860    -1830 
   -1814    -1840    -2081    -2353    -2367    -2239    -1964    -1437 
    -994    -1026    -1543    -2312    -2992    -3287    -3208    -2951 
   -2559    -2193    -2155    -2307    -2363    -2355    -2253    -2014 
   -1748    -1459    -1267    -1379    -1641    -1860    -2099    -2241 
   -2091    -1811    -1679    -1690    -1684    -1674    -1787    -1923 
   -1829    -1567    -1493    -1788    -2351    -2924    -3230    -3127 
   -2637    -1977    -1422    -1071     -945    -1051    -1259    -1447 
   -1607    -1798    -2106    -2502    -2875    -3148    -3110    -2587 
   -1944    -1794    -2255    -2956    -3554    -3831    -3446    -2176 
    -657      -17     -463    -1219    -1721    -1903    -1669     -973 
    -294     -388    -1557    -3275    -4572    -4996    -4793    -4260 
   -3551    -2770    -2080    -1709    -1541    -1300     -949     -387 
     388      815      396     -643    -1780    -2515    -2531    -2019 
   -1571    -1699    -2458    -3431    -4135    -4233    -3549    -2284 
   -1048     -504     -974    -2170    -3375    -4082    -4224    -3700 
   -2435    -1063     -487     -757    -1294    -1701    -1651     -899 
      94      421     -351    -1944    -3666    -4843    -5124    -4440 
   -3145    -2010    -1485    -1372    -1440    -1684    -2034    -2243 
   -2232    -2241    -2421    -2613    -2698    -2721    -2563    -1926 
    -849       48      133     -618    -1647    -2488    -3150    -3588 
   -3527    -3125    -2906    -3034    -3262    -3415    -3516    -3554 
   -3388    -2843    -1938     -955     -184      251      371      248 
    -130     -719    -1201    -1343    -1368    -1641    -2232    -2891 
   -3235    -3063    -2536    -2043    -1885    -2060    -2417    -2847 
   -3130    -3041    -2674    -2411    -2452    -2511    -2212    -1609 
   -1046     -778     -742     -706     -650     -735    -1016    -1534 
   -2236    -2756    -2880    -2814    -2716    -2598    -2550    -2731 
   -3208    -3640    -3456    -2601    -1555     -733     -324     -306 
    -449     -491     -378     -380     -765    -1433    -2313    -3379 
   -4091    -3990    -3406    -2805    -2299    -1942    -1838    -2065 
   -2616    -3210    -3429    -3117    -2461    -1764    -1302    -1136 
   -1192    -1534    -2177    -2863    -3265    -3179    -2671    -2081 
   -1632    -1317    -1206    -1363    -1539    -1502    -1372    -1350 
   -1502    -1815    -2181    -2501    -2632    -2313    -1551     -633 
      93       41    -1129    -2789    -4043    -4675    -4756    -4203 
   -3175    -2215    -1841    -2134    -2651    -2964    -2988    -2509 
   -1377     -106      533      179     -904    -1996    -2641    -2907 
   -2878    -2658    -2471    -2254    -1917    -1607    -1285     -967 
   -1011    -1575    -2424    -3206    -3731    -4078    -4105    -3427 
   -2203    -1123     -649     -784    -1298    -1979    -2542    -2520 
   -1879    -1248    -1031    -1131    -1520    -2188    -2798    -2898 
   -2521    -2157    -2099    -2323    -2724    -3033    -2965    -2489 
   -1745    -1023     -639     -670     -977    -1347    -1514    -1313 
    -904     -733    -1134    -2004    -2932    -3609    -3950    -3900 
   -3402    -2556    -1869    -1813    -2054    -2000    -1721    -1526 
   -1460    -1506    -1632    -1898    -2338    -2628    -2536    -2358 
   -2353    -2393    -2435    -2716    -3180    -3318    -2864    -2119 
   -1464     -996     -757     -950    -1482    -1858    -1852    -1655 
   -1464    -1321    -1215    -1256    -1620    -2070    -2215    -2134 
   -2151    -2373    -2656    -2756    -2671    -2563    -2362    -2011 
   -1745    -1771    -2045    -2354    -2384    -2060    -1680    -1474 
   -1489    -1788    -2312    -2809    -3009    -2775    -2253    -1753 
   -1462    -1417    -1617    -2004    -2389    -2461    -2130    -1764 
   -1760    -2141    -2620    -2859    -2793    -2535    -2089    -1521 
   -1007     -595     -338     -418     -880    -1556    -2282    -2963 
   -3410    -3404    -3007    -2473    -1993    -1745    -1806    -1988 
   -2064    -1993    -1755    -1328     -874     -672     -855    -1385 
   -2062    -2496    -2385    -1908    -1491    -1363    -1525    -1857 
   -2262    -2747    -3245    -3561    -3605    -3457    -3246    -3115 
   -3048    -2863    -2589    -2331    -1983    -1572    -1362    -1451 
   -1699    -1877    -1800    -1460    -1035     -826    -1044    -1686 
   -2600    -3364    -3439    -2839    -2066    -1491    -1262    -1377 
   -1634    -1856    -2019    -2088    -2020    -1991    -2266    -2797 
   -3207    -3240    -2929    -2353    -1644    -1223    -1524    -2463 
   -3427    -3861    -3597    -2786    -1776    -1017     -834    -1196 
   -1690    -1868    -1626    -1121     -514      -22       25     -441 
   -1097    -1615    -1944    -2177    -2432    -2794    -3260    -3751 
   -4071    -3978    -3460    -2759    -2135    -1782    -1782    -2016 
   -2216    -2162    -1939    -1833    -1910    -1958    -1844    -1661 
   -1543    -1528    -1652    -1930    -2293    -2544    -2504    -2191 
   -1732    -1206     -738     -595    -1023    -1911    -2878    -3608 
   -3921    -3700    -3044    -2265    -1607    -1084     -670     -554 
    -976    -1842    -2744    -3364    -3562    -3248    -2494    -1603 
    -859     -380     -184     -309     -776    -1501    -2289    -2922 
   -3244    -3238    -3011    -2687    -2378    -2143    -1954    -1772 
   -1620    -1568    -1660    -1857    -2096    -2315    -2484    -2667 
   -2844    -2839    -2612    -2371    -2339    -2492    -2621    -2566 
   -2257    -1675     -931     -257      217      422      210     -440 
   -1343    -2254    -2992    -3492    -3746    -3728    -3477    -3136 
   -2859    -2698    -2496    -2054    -1509    -1150    -1016    -1094 
   -1399    -1763    -2000    -2106    -2215    -2467    -2789    -3036 
   -3196    -3234    -3064    -2704    -2204    -1680    -1337    -1242 
   -1271    -1317    -1332    -1240     -949     -529     -279     -434 
   -1007    -1962    -3159    -4234    -4864    -4968    -4598    -3809 
   -2820    -1948    -1244     -662     -348     -330     -441     -685 
   -1147    -1717    -2188    -2505    -2720    -2755    -2538    -2261 
   -2138    -2193    -2382    -2583    -2674    -2619    -2326    -1825 
   -1422    -1281    -1304    -1474    -1746    -1902    -1879    -1815 
   -1858    -2172    -2713    -3130    -3204    -3018    -2720    -2431 
   -2258    -2292    -2544    -2851    -3010    -2968    -2732    -2326 
   -1915    -1686    -1583    -1429    -1170     -830     -459     -205 
    -228     -610    -1285    -1984    -2508    -2840    -2945    -2836 
   -2695    -2705    -2845    -2974    -2986    -2898    -2799    -2704 
   -2574    -2432    -2273    -2020    -1674    -1358    -1152    -1032 
    -985    -1009    -1082    -1152    -1155    -1101    -1067    -1098 
   -1278    -1683    -2243    -2791    -3194    -3397    -3387    -3192 
   -2893    -2598    -2371    -2143    -1863    -1637    -1521    -1447 
