Origin Time       2025/03/28 03:50:00
Lat.              35.403
Long.             140.360
Depth. (km)       54
Mag.              4.4
Station Code      CHB019
Station Lat.      35.1106
Station Long.     139.8360
Station Height(m) 5
Record Time       2025/03/28 03:51:01
Sampling Freq(Hz) 100Hz
Duration Time(s)  66
Dir.              U-D
Scale Factor      7845(gal)/8223790
Max. Acc. (gal)   1.674
Last Correction   2025/03/28 03:51:01
Memo.             
[...]
    5269     5178     5228     5374     5544     5725     5960     6259 
    6566     6767     6821     6785     6687     6521     6303     6076 
    5884     5756     5705     5688     5663     5661     5737     5863 
    5988     6116     6251     6338     6339     6316     6363     6448 
    6443     6320     6170     6026     5868     5756     5741     5778 
    5798     5796     5826     5933     6076     6154     6174     6223 
    6272     6230     6142     6093     6075     6052     6045     6058 
    6031     5935     5823     5751     5711     5710     5771     5859 
    5900     5904     5991     6191     6366     6434     6420     6353 
    6284     6214     6076     5903     5787     5705     5638     5691 
    5886     6057     6104     6091     6116     6242     6408     6488 
    6448     6335     6162     5964     5836     5809     5830     5846 
    5826     5802     5861     6022     6172     6249     6301     6363 
    6409     6417     6382     6323     6247     6130     6008     5944 
    5880     5783     5724     5742     5817     5904     5960     6006 
    6093     6205     6253     6218     6178     6161     6110     6023 
    5938     5877     5864     5881     5880     5848     5806     5761 
    5730     5768     5899     6061     6173     6223     6232     6234 
    6251     6289     6315     6293     6220     6100     5941     5800 
    5733     5756     5856     5965     6042     6115     6183     6228 
    6268     6282     6273     6288     6313     6291     6204     6072 
    5944     5890     5922     5998     6065     6083     6048     6018 
    6046     6093     6106     6050     5929     5814     5773     5786 
    5809     5825     5846     5879     5895     5926     6035     6181 
    6264     6258     6232     6251     6268     6197     6108     6084 
    6070     6042     6035     6031     6021     6030     6034     6012 
    6004     6038     6081     6092     6043     5954     5904     5953 
    6069     6180     6238     6258     6264     6253     6196     6092 
    6007     5972     5926     5876     5854     5822     5813     5887 
    5992     6068     6139     6204     6192     6095     5996     5948 
    5934     5923     5907     5931     6008     6083     6130     6168 
    6199     6200     6180     6164     6142     6100     6041     5961 
    5900     5900     5935     5979     6023     6061     6081     6084 
    6070     6061     6081     6116     6127     6116     6097     6058 
    6002     5952     5948     6000     6085     6168     6228     6251 
    6224     6156     6070     6002     5979     6006     6039     6030 
    5964     5884     5829     5832     5902     5977     6031     6089 
    6131     6134     6124     6102     6054     6000     5960     5921 
    5872     5832     5807     5817     5871     5934     5989     6048 
    6076     6064     6068     6115     6176     6227     6284     6346 
    6389     6411     6389     6318     6255     6212     6138     6043 
    5960     5857     5744     5680     5698     5775     5871     5958 
    6052     6150     6216     6241     6253     6257     6247     6212 
    6154     6115     6097     6054     5994     5949     5921     5894 
    5876     5869     5868     5886     5922     5961     5999     6031 
    6062     6072     6034     5994     5987     5977     5948     5926 
    5925     5931     5956     6011     6072     6115     6153     6193 
    6222     6242     6247     6216     6184     6201     6245     6272 
    6272     6219     6106     5992     5923     5895     5891     5907 
    5942     5988     6021     6050     6103     6151     6165     6147 
    6124     6102     6061     6016     5992     5972     5944     5894 
    5805     5709     5653     5665     5745     5848     5927     5989 
    6064     6168     6286     6376     6405     6361     6249     6119 
    6022     5985     6000     6010     5987     5968     5956     5934 
    5953     6058     6189     6282     6320     6297     6226     6154 
    6123     6122     6104     6046     5976     5914     5884     5930 
    6021     6076     6088     6076     6052     6052     6093     6122 
    6104     6069     6030     5988     5971     6006     6053     6048 
    6006     5969     5929     5899     5917     5979     6041     6081 
    6107     6104     6072     6049     6030     6003     6007     6038 
    6042     6006     5935     5848     5771     5733     5740     5778 
    5846     5931     6008     6092     6180     6257     6347     6461 
    6569     6658     6712     6706     6644     6542     6409     6270 
    6157     6087     6037     5979     5910     5837     5778     5759 
    5761     5753     5765     5792     5800     5799     5791     5752 
    5705     5680     5679     5702     5775     5887     6002     6092 
    6122     6096     6073     6043     6000     5996     6010     5992 
    5981     6000     6029     6079     6172     6320     6489     6589 
    6581     6496     6372     6222     6065     5948     5895     5873 
    5879     5911     5957     6006     6052     6106     6181     6238 
    6242     6220     6200     6192     6192     6160     6093     6052 
    6034     5996     5948     5902     5837     5756     5698     5667 
    5668     5715     5786     5848     5892     5910     5906     5900 
    5922     5942     5935     5956     6019     6058     6072     6081 
    6079     6068     6079     6110     6150     6210     6282     6355 
    6439     6535     6610     6627     6594     6542     6466     6370 
    6274     6158     6023     5923     5860     5795     5738     5717 
    5719     5748     5809     5891     5988     6079     6115     6080 
    5976     5807     5625     5521     5509     5541     5609     5713 
    5829     5948     6073     6216     6373     6512     6600     6621 
    6569     6453     6326     6237     6184     6151     6135     6115 
    6085     6080     6110     6130     6088     5988     5869     5779 
    5769     5841     5925     5977     6030     6092     6124     6122 
    6081     5995     5902     5836     5796     5796     5834     5879 
    5913     5962     6042     6115     6154     6157     6106     6026 
    5972     5964     5995     6029     6034     6031     6046     6073 
    6077     6034     5977     5960     6003     6084     6149     6158 
    6135     6124     6137     6180     6223     6208     6133     6042 
    5973     5950     5967     6002     6046     6108     6195     6280 
    6336     6362     6359     6334     6295     6250     6191     6087 
    5942     5819     5769     5784     5829     5886     5953     6031 
    6100     6141     6154     6138     6112     6095     6056     5976 
    5896     5865     5902     5976     6018     6010     5985     5958 
    5940     5940     5958     6014     6099     6164     6181     6138 
    6034     5926     5868     5842     5813     5787     5782     5817 
    5891     5960     6006     6049     6093     6133     6177     6200 
    6183     6134     6072     6042     6065     6119     6192     6241 
    6232     6188     6154     6158     6185     6222     6285     6357 
    6389     6378     6339     6288     6232     6158     6050     5929 
    5818     5710     5610     5526     5467     5460     5503     5583 
    5709     5861     5992     6080     6124     6160     6228     6320 
    6376     6351     6268     6173     6083     6007     5975     5976 
    5985     6014     6061     6108     6168     6238     6297     6327 
    6353     6385     6392     6340     6220     6056     5904     5791 
    5717     5683     5688     5749     5853     5935     5958     5950 
    5930     5906     5907     5953     6018     6080     6146     6223 
    6285     6315     6330     6324     6299     6282     6273     6228 
    6138     6038     5962     5921     5898     5880     5861     5853 
    5872     5899     5930     5989     6069     6130     6165     6196 
    6200     6157     6092     6003     5886     5778     5706     5670 
    5676     5737     5834     5940     6035     6131     6237     6331 
    6374     6346     6268     6165     6062     5999     5975     5975 
    5998     6031     6064     6107     6157     6180     6181     6195 
    6224     6261     6292     6289     6237     6160     6093     6050 
    6027     6018     6019     6035     6053     6049     6042     6056 
    6091     6135     6158     6139     6091     6021     5946     5871 
    5794     5751     5751     5752     5728     5698     5683     5683 
    5683     5697     5741     5819     5944     6099     6228     6311 
    6345     6324     6285     6257     6216     6135     6018     5903 
    5821     5788     5807     5860     5929     6006     6084     6160 
    6232     6296     6338     6346     6299     6205     6102     6015 
    5942     5906     5938     6034     6168     6331     6484     6567 
    6589     6597     6602     6601     6575     6511     6417     6311 
    6193     6070     5964     5886     5818     5734     5645     5578 
    5556     5590     5649     5725     5811     5881     5935     5980 
    5984     5927     5825     5690     5552     5449     5383     5337 
    5335     5398     5502     5633     5791     5965     6146     6305 
    6427     6515     6559     6550     6508     6440     6351     6266 
    6204     6180     6201     6247     6295     6335     6357     6358 
    6358     6354     6315     6228     6141     6097     6083     6060 
    5999     5883     5760     5678     5628     5602     5618     5691 
    5811     5949     6077     6178     6262     6346     6421     6462 
    6455     6394     6293     6191     6116     6066     6023     5975 
    5934     5935     5983     6058     6145     6200     6187     6123 
    6048     5976     5891     5782     5667     5582     5537     5535 
    5570     5626     5691     5771     5884     6033     6199     6373 
    6551     6697     6790     6826     6804     6754     6716     6677 
    6608     6498     6338     6153     5977     5799     5618     5460 
    5335     5247     5212     5250     5350     5471     5586     5694 
    5798     5886     5938     5961     5969     5945     5872     5769 
    5676     5624     5634     5706     5826     5979     6161     6372 
    6562     6691     6785     6867     6926     6964     6991     6987 
    6940     6870     6794     6724     6623     6466     6285     6119 
    5996     5923     5861     5788     5715     5660     5633     5625 
    5594     5537     5490     5459     5413     5347     5283     5250 
    5248     5283     5375     5520     5667     5761     5790     5765 
    5702     5628     5567     5543     5582     5684     5829     6011 
    6215     6396     6534     6648     6755     6866     6979     7087 
    7173     7210     7177     7084     6941     6771     6609     6478 
    6390     6359     6382     6436     6505     6578     6642     6669 
    6637     6561     6427     6215     5944     5645     5355     5108 
    4909     4765     4692     4687     4735     4828     4951     5082 
    5211     5360     5537     5729     5913     6066     6193     6286 
    6313     6269     6178     6073     5983     5937     5942     5973 
    6027     6137     6299     6462     6586     6646     6660     6666 
    6659     6639     6633     6643     6644     6631     6608     6573 
    6513     6413     6285     6165     6060     5957     5863     5782 
    5710     5648     5595     5533     5444     5335     5227     5143 
    5113     5157     5246     5347     5440     5522     5622     5764 
    5930     6070     6154     6183     6178     6165     6174     6230 
    6323     6419     6486     6528     6546     6544     6525     6484 
    6424     6362     6316     6327     6400     6508     6632     6744 
    6809     6812     6752     6632     6477     6324     6200     6116 
    6079     6068     6052     6027     5995     5934     5838     5711 
    5553     5373     5201     5082     5028     5024     5059     5132 
    5220     5293     5352     5437     5549     5668     5788     5903 
    6011     6138     6291     6440     6590     6743     6867     6955 
    7018     7040     6990     6867     6712     6552     6390     6245 
    6124     6031     5976     5958     5967     5991     5995     5942 
    5830     5670     5486     5317     5185     5093     5055     5098 
    5240     5470     5746     6018     6250     6438     6581     6666 
    6702     6713     6705     6681     6658     6640     6617     6589 
    6540     6463     6373     6292     6242     6235     6258     6284 
    6284     6247     6181     6091     5995     5894     5788     5703 
    5638     5582     5545     5518     5472     5417     5375     5350 
    5354     5394     5448     5483     5485     5472     5485     5543 
    5645     5778     5921     6052     6146     6212     6277     6355 
    6447     6543     6635     6731     6837     6933     6995     7029 
    7063     7106     7142     7148     7095     6984     6829     6633 
    6405     6173     5944     5718     5520     5381     5316     5321 
    5378     5448     5493     5502     5476     5414     5323     5219 
    5111     5008     4905     4818     4774     4777     4822     4931 
    5104     5301     5493     5680     5867     6060     6258     6457 
    6663     6871     7057     7215     7334     7416     7465     7470 
    7446     7418     7384     7354     7345     7344     7335     7322 
    7290     7207     7053     6818     6513     6165     5802     5436 
    5086     4781     4537     4364     4293     4334     4464     4652 
    4873     5092     5289     5466     5611     5705     5742     5746 
    5738     5721     5686     5645     5618     5611     5637     5718 
    5853     6022     6210     6399     6571     6702     6778     6809 
    6816     6808     6781     6731     6666     6602     6559     6536 
    6515     6485     6447     6399     6349     6308     6266     6212 
    6166     6154     6170     6200     6237     6254     6241     6214 
    6177     6118     6026     5891     5713     5522     5354     5213 
    5090     4973     4872     4799     4762     4781     4866     5003 
    5178     5387     5616     5868     6143     6413     6650     6844 
    7005     7148     7273     7364     7416     7434     7408     7356 
    7304     7258     7209     7149     7069     6963     6817     6625 
    6388     6131     5887     5651     5413     5182     4977     4800 
    4657     4561     4515     4498     4496     4529     4585     4656 
    4743     4854     4992     5166     5382     5640     5933     6230 
    6488     6706     6887     7003     7060     7068     7026     6956 
    6883     6806     6736     6685     6642     6598     6558     6528 
    6509     6498     6500     6512     6505     6458     6380     6272 
    6139     6000     5871     5775     5729     5733     5775     5830 
    5881     5935     5976     5976     5923     5830     5717     5594 
    5475     5379     5309     5267     5250     5244     5254     5304 
    5402     5540     5715     5917     6134     6376     6643     6891 
    7076     7182     7196     7126     7003     6832     6617     6399 
    6210     6061     5954     5888     5867     5867     5865     5852 
    5796     5679     5524     5370     5238     5144     5111     5130 
    5197     5320     5479     5660     5852     6029     6199     6367 
    6528     6683     6816     6893     6930     6948     6940     6902 
    6849     6793     6727     6648     6577     6527     6482     6427 
    6358     6285     6205     6124     6037     5942     5841     5717 
    5559     5401     5285     5217     5181     5188     5250     5337 
    5441     5570     5695     5814     5949     6073     6137     6139 
    6104     6052     5999     5946     5890     5844     5821     5814 
    5832     5875     5927     5994     6076     6161     6253     6354 
    6439     6498     6540     6559     6550     6523     6465     6381 
    6303     6235     6176     6122     6057     5976     5888     5802 
    5715     5626     5557     5533     5549     5610     5718     5857 
    6014     6170     6308     6416     6496     6529     6505     6420 
    6292     6145     6011     5925     5898     5907     5933     5983 
    6057     6145     6241     6331     6403     6446     6459     6453 
    6431     6385     6331     6282     6231     6174     6133     6099 
    6057     6011     5965     5913     5844     5745     5625     5520 
    5448     5417     5414     5418     5436     5485     5551     5616 
    5661     5674     5668     5676     5709     5771     5856     5946 
    6031     6092     6130     6158     6176     6185     6196     6207 
    6223     6255     6320     6417     6527     6629     6705     6745 
    6759     6755     6733     6701     6659     6616     6579     6542 
    6496     6451     6400     6331     6251     6172     6091     6003 
    5910     5827     5757     5682     5606     5545     5513     5510 
    5517     5512     5493     5455     5393     5323     5265     5228 
    5219     5247     5308     5401     5525     5651     5757     5859 
    5953     6031     6103     6165     6208     6237     6268     6309 
    6361     6420     6477     6536     6606     6685     6762     6821 
    6851     6868     6886     6902     6921     6934     6925     6882 
    6806     6702     6583     6459     6326     6172     6004     5829 
    5649     5478     5320     5193     5117     5085     5084     5113 
    5171     5252     5343     5428     5506     5568     5618     5664 
    5709     5756     5800     5833     5864     5899     5930     5969 
    6027     6093     6165     6246     6328     6403     6469     6511 
    6521     6520     6516     6502     6480     6455     6427     6384 
    6338     6297     6280     6285     6285     6272     6255     6243 
    6238     6235     6232     6226     6207     6178     6153     6134 
    6115     6088     6061     6030     5976     5906     5833     5757 
    5680     5616     5567     5537     5522     5509     5497     5498 
    5516     5541     5570     5599     5632     5675     5738     5821 
    5919     6027     6126     6210     6276     6311     6316     6305 
    6284     6262     6258     6270     6286     6307     6332     6359 
    6388     6416     6444     6473     6496     6505     6507     6505 
    6497     6478     6447     6407     6358     6299     6234     6162 
    6081     5984     5884     5811     5765     5729     5699     5678 
    5667     5664     5667     5675     5683     5690     5705     5729 
    5752     5767     5761     5740     5709     5671     5638     5620 
    5606     5611     5645     5705     5787     5886     5985     6070 
    6134     6181     6214     6234     6243     6242     6243     6261 
    6293     6347     6432     6527     6615     6698     6775     6839 
    6875     6880     6866     6821     6741     6642     6532     6417 
    6301     6184     6065     5950     5840     5742     5661     5593 
    5533     5478     5432     5397     5368     5347     5335     5329 
    5325     5328     5355     5405     5475     5563     5665     5763 
    5856     5960     6077     6197     6303     6390     6461     6516 
    6558     6571     6546     6496     6434     6359     6280     6205 
    6139     6080     6025     5973     5942     5933     5934     5940 
