Origin Time       2025/03/28 03:50:00
Lat.              35.403
Long.             140.360
Depth. (km)       54
Mag.              4.4
Station Code      CHB012
Station Lat.      35.5721
Station Long.     140.3436
Station Height(m) 60
Record Time       2025/03/28 03:50:48
Sampling Freq(Hz) 100Hz
Duration Time(s)  83
Dir.              N-S
Scale Factor      7845(gal)/8223790
Max. Acc. (gal)   10.515
Last Correction   2025/03/28 03:50:47
Memo.             
[...]
   -9506    -9502    -9499    -9501    -9506    -9505    -9502    -9505 
   -9508    -9509    -9508    -9501    -9501    -9510    -9516    -9509 
   -9505    -9509    -9508    -9508    -9508    -9501    -9504    -9512 
   -9510    -9510    -9512    -9508    -9506    -9510    -9509    -9506 
   -9508    -9508    -9508    -9506    -9504    -9502    -9502    -9504 
   -9508    -9506    -9505    -9502    -9499    -9502    -9509    -9517 
   -9520    -9509    -9501    -9506    -9510    -9508    -9508    -9505 
   -9502    -9508    -9510    -9509    -9506    -9499    -9498    -9505 
   -9505    -9501    -9502    -9505    -9502    -9501    -9504    -9509 
   -9509    -9506    -9502    -9502    -9509    -9510    -9504    -9499 
   -9504    -9506    -9506    -9510    -9506    -9498    -9504    -9508 
   -9502    -9499    -9501    -9504    -9502    -9499    -9501    -9504 
   -9505    -9506    -9505    -9502    -9502    -9504    -9505    -9501 
   -9495    -9498    -9505    -9502    -9501    -9506    -9504    -9501 
   -9501    -9499    -9501    -9504    -9501    -9498    -9495    -9495 
   -9497    -9497    -9501    -9505    -9499    -9501    -9508    -9506 
   -9506    -9509    -9502    -9504    -9509    -9504    -9501    -9505 
   -9505    -9506    -9504    -9499    -9501    -9499    -9499    -9501 
   -9499    -9502    -9508    -9502    -9495    -9499    -9505    -9502 
   -9504    -9508    -9505    -9509    -9514    -9504    -9497    -9504 
   -9505    -9501    -9501    -9502    -9501    -9509    -9514    -9508 
   -9501    -9508    -9510    -9505    -9502    -9502    -9498    -9501 
   -9504    -9498    -9501    -9504    -9504    -9508    -9506    -9504 
   -9508    -9510    -9508    -9501    -9497    -9504    -9510    -9505 
   -9504    -9508    -9510    -9510    -9508    -9501    -9499    -9505 
   -9508    -9508    -9506    -9505    -9509    -9509    -9505    -9506 
   -9499    -9498    -9508    -9506    -9501    -9506    -9505    -9504 
   -9510    -9512    -9506    -9506    -9512    -9510    -9504    -9502 
   -9506    -9512    -9514    -9509    -9505    -9510    -9512    -9505 
   -9502    -9505    -9506    -9504    -9502    -9506    -9512    -9508 
   -9501    -9504    -9509    -9508    -9505    -9505    -9502    -9501 
   -9504    -9506    -9506    -9508    -9508    -9510    -9516    -9512 
   -9502    -9504    -9514    -9513    -9504    -9499    -9505    -9510 
   -9506    -9499    -9501    -9505    -9508    -9509    -9509    -9508 
   -9506    -9505    -9506    -9504    -9504    -9508    -9508    -9504 
   -9502    -9504    -9502    -9501    -9499    -9499    -9502    -9509 
   -9514    -9516    -9513    -9510    -9510    -9506    -9505    -9505 
   -9506    -9508    -9508    -9505    -9504    -9508    -9510    -9506 
   -9501    -9498    -9499    -9504    -9505    -9504    -9505    -9506 
   -9505    -9506    -9506    -9506    -9502    -9499    -9499    -9501 
   -9502    -9505    -9504    -9499    -9499    -9502    -9509    -9513 
   -9509    -9508    -9506    -9505    -9505    -9502    -9501    -9502 
   -9499    -9499    -9502    -9501    -9502    -9505    -9504    -9499 
   -9495    -9499    -9506    -9505    -9502    -9508    -9508    -9504 
   -9509    -9512    -9504    -9498    -9505    -9508    -9505    -9508 
   -9514    -9513    -9508    -9506    -9506    -9508    -9512    -9510 
   -9506    -9504    -9504    -9509    -9508    -9501    -9501    -9506 
   -9508    -9505    -9504    -9506    -9512    -9514    -9506    -9499 
   -9504    -9509    -9508    -9506    -9510    -9514    -9513    -9512 
   -9512    -9506    -9505    -9506    -9508    -9508    -9506    -9502 
   -9501    -9505    -9509    -9508    -9505    -9502    -9501    -9504 
   -9510    -9512    -9510    -9510    -9506    -9505    -9512    -9513 
   -9505    -9504    -9505    -9502    -9504    -9506    -9502    -9499 
   -9505    -9506    -9504    -9505    -9504    -9501    -9502    -9504 
   -9499    -9499    -9504    -9502    -9497    -9497    -9501    -9502 
   -9504    -9505    -9505    -9506    -9505    -9505    -9509    -9506 
   -9504    -9504    -9497    -9493    -9499    -9505    -9504    -9504 
   -9505    -9501    -9501    -9509    -9512    -9499    -9491    -9495 
   -9499    -9497    -9497    -9499    -9498    -9497    -9499    -9499 
   -9497    -9499    -9498    -9495    -9495    -9495    -9498    -9499 
   -9497    -9498    -9497    -9494    -9501    -9505    -9498    -9499 
   -9505    -9499    -9493    -9495    -9497    -9497    -9502    -9505 
   -9506    -9509    -9508    -9508    -9506    -9501    -9501    -9502 
   -9501    -9504    -9504    -9499    -9501    -9498    -9497    -9498 
   -9497    -9501    -9508    -9505    -9504    -9510    -9509    -9505 
   -9505    -9505    -9499    -9497    -9501    -9504    -9501    -9505 
   -9508    -9504    -9506    -9509    -9510    -9512    -9508    -9505 
   -9504    -9505    -9508    -9501    -9494    -9499    -9505    -9506 
   -9509    -9506    -9504    -9505    -9508    -9510    -9510    -9505 
   -9506    -9509    -9514    -9518    -9517    -9510    -9505    -9504 
   -9504    -9509    -9516    -9510    -9504    -9508    -9513    -9514 
   -9513    -9509    -9506    -9506    -9505    -9506    -9514    -9518 
   -9513    -9513    -9512    -9504    -9504    -9514    -9516    -9506 
   -9504    -9505    -9504    -9509    -9509    -9501    -9499    -9513 
   -9520    -9513    -9509    -9508    -9505    -9505    -9508    -9504 
   -9506    -9513    -9509    -9508    -9510    -9510    -9509    -9506 
   -9504    -9504    -9508    -9508    -9501    -9497    -9502    -9502 
   -9499    -9505    -9509    -9509    -9512    -9509    -9506    -9510 
   -9510    -9505    -9504    -9505    -9505    -9505    -9509    -9512 
   -9509    -9506    -9510    -9512    -9509    -9509    -9508    -9505 
   -9506    -9505    -9497    -9495    -9502    -9499    -9493    -9494 
   -9504    -9509    -9512    -9509    -9499    -9502    -9514    -9514 
   -9509    -9509    -9504    -9505    -9512    -9505    -9494    -9501 
   -9508    -9504    -9502    -9501    -9494    -9498    -9505    -9502 
   -9501    -9504    -9505    -9509    -9509    -9504    -9502    -9502 
   -9498    -9499    -9505    -9504    -9501    -9502    -9499    -9497 
   -9505    -9510    -9508    -9508    -9508    -9502    -9504    -9509 
   -9504    -9499    -9502    -9499    -9502    -9512    -9510    -9504 
   -9504    -9499    -9499    -9506    -9505    -9505    -9512    -9512 
   -9505    -9504    -9504    -9502    -9508    -9512    -9508    -9504 
   -9505    -9505    -9501    -9506    -9512    -9506    -9502    -9505 
   -9504    -9505    -9512    -9510    -9499    -9504    -9512    -9508 
   -9506    -9508    -9501    -9499    -9504    -9502    -9501    -9499 
   -9497    -9501    -9508    -9502    -9495    -9504    -9510    -9501 
   -9498    -9510    -9512    -9505    -9506    -9510    -9508    -9510 
   -9514    -9508    -9501    -9505    -9508    -9501    -9501    -9508 
   -9509    -9512    -9529    -9541    -9529    -9481    -9413    -9369 
   -9371    -9452    -9609    -9752    -9751    -9509    -9074    -8729 
   -8862    -9590   -10601   -11375   -11403   -10412    -8680    -6979 
   -6281    -7204    -9123   -10681   -11573   -12155   -12013   -10768 
   -8969    -7531    -7055    -7335    -7927    -9000   -10669   -12091 
  -12098   -10957   -10187    -9996    -9317    -8094    -7188    -6913 
   -7057    -7743    -9263   -11202   -12771   -13572   -13078   -10690 
   -7342    -5302    -5791    -7916    -9834   -10693   -11048   -11211 
  -10881   -10254    -9802    -9351    -8518    -7709    -7705    -8638 
   -9975   -10790   -10509    -9467    -8598    -9105   -10779   -11481 
  -10415    -9050    -8353    -8287    -8712    -9051    -8896    -8777 
   -9244   -10322   -11637   -12271   -11485    -9624    -7697    -6743 
   -7298    -8483    -8984    -8977    -9297   -10174   -11456   -12460 
  -12222   -10624    -8696    -7441    -6960    -7055    -7627    -8598 
  -10019   -11777   -13205   -13263   -11577    -9213    -7398    -6367 
   -6095    -6804    -8333   -10018   -11415   -12204   -11990   -10959 
   -9855    -9173    -8676    -7982    -7487    -7722    -8498    -9552 
  -10917   -12213   -12391   -10810    -8419    -7156    -7908    -9501 
  -10201    -9738    -9128    -9027    -9178    -9343    -9558    -9679 
   -9747    -9799    -9543    -9212    -9175    -9008    -8804    -9625 
  -11319   -12106   -11005    -9126    -8214    -8648    -9258    -9062 
   -8353    -7946    -8305    -9282   -10270   -11006   -11541   -11516 
  -10728    -9448    -7963    -6839    -6778    -7888    -9528   -10778 
  -11118   -10624    -9813    -9652   -10681   -11992   -11981    -9977 
   -7059    -5121    -5192    -7013    -9402   -11152   -12262   -13159 
  -13242   -11646    -8907    -6647    -5640    -5684    -6735    -8368 
   -9929   -11497   -13045   -14002   -13880   -12348    -9778    -7508 
   -6313    -5868    -6096    -7156    -8487    -9691   -11340   -13393 
  -14116   -12021    -8168    -5356    -5174    -6791    -8533    -9718 
  -10868   -12344   -13336   -12810   -10891    -8428    -6057    -4716 
   -5524    -8171   -10831   -12155   -12604   -13089   -12843   -10606 
   -7547    -6191    -6751    -7557    -8279    -9586   -11086   -11965 
  -12070   -11549   -10524    -8949    -6858    -5155    -5178    -7034 
   -9607   -12071   -13734   -13632   -12046   -10467    -9494    -8669 
   -7681    -6654    -6328    -7439    -9414   -10852   -11134   -10813 
  -10666   -10872   -11009   -10484    -9070    -7303    -6303    -6903 
   -8689   -10235   -10917   -11510   -12070   -11354    -9193    -7372 
   -7516    -9312   -11149   -11435    -9747    -7739    -7322    -8264 
   -9378   -10319   -11018   -11017   -10214    -9281    -8991    -9294 
   -9336    -8635    -7842    -7861    -8742    -9948   -11055   -11755 
  -12016   -11967   -11385    -9973    -7902    -6066    -5557    -6453 
   -7896    -9213   -10177   -10804   -11210   -11157   -10454    -9900 
  -10003    -9728    -8492    -7562    -8263   -10278   -12114   -12555 
  -11535    -9817    -8299    -7577    -7595    -8043    -9015   -10422 
  -11410   -11171    -9876    -8557    -8125    -8684    -9583    -9828 
   -9143    -8549    -8780    -9112    -8957    -8951    -9418    -9747 
   -9833   -10007   -10272   -10836   -11438   -11045    -9661    -8402 
   -7811    -7693    -8010    -8800    -9828   -10876   -11649   -11604 
  -10656    -9431    -8426    -7681    -7419    -7793    -8436    -9348 
  -10766   -12047   -12360   -11647   -10328    -8888    -7638    -6656 
   -6351    -7315    -9270   -11163   -12366   -12799   -12333   -10868 
   -8781    -7034    -6455    -6867    -7511    -8008    -8604    -9695 
  -11119   -11959   -11422   -10006    -8908    -8542    -8607    -8999 
  -10011   -11686   -13051   -13005   -11701    -9927    -8199    -6997 
   -6532    -6423    -6520    -7366    -9090   -10732   -11427   -11361 
  -11064   -10720   -10300    -9790    -9084    -7854    -6293    -5522 
   -6320    -8235   -10326   -12044   -13039   -12847   -11647   -10494 
  -10037    -9991    -9724    -8895    -8174    -8626   -10053   -11249 
  -11438   -10612    -9277    -8195    -7543    -6598    -5239    -4758 
   -6292    -9356   -12275   -13768   -13792   -12962   -11925   -10939 
   -9687    -7992    -6585    -6643    -8240    -9837   -10183    -9752 
   -9609   -10037   -10527   -10574   -10230    -9722    -9040    -8409 
   -8343    -8789    -9238    -9633   -10022   -10033    -9666    -9386 
   -9263    -9099    -8752    -8402    -8789   -10000   -10825   -10717 
  -10575   -10716   -10396    -9572    -8777    -7973    -7280    -7287 
   -7923    -8608    -9319   -10309   -11319   -11789   -11553   -10840 
   -9952    -9078    -8448    -8465    -9140    -9690    -9513    -9234 
   -9707   -10530   -10593    -9734    -9117    -9602   -10327   -10093 
   -9200    -8627    -8656    -8949    -8942    -8360    -7861    -8110 
   -8667    -9139    -9860   -10562   -10552    -9911    -9397    -9641 
  -10386   -10785   -10659   -10659   -11107   -11261   -10145    -8253 
   -7465    -8406    -9364    -9155    -8795    -8977    -8926    -8475 
   -8445    -9294   -10536   -11109   -10652    -9921    -9599    -9602 
   -9367    -8615    -7777    -7514    -8019    -8969   -10048   -10876 
  -10844   -10072    -9543    -9564    -9468    -8976    -8642    -8850 
   -9329    -9883   -10631   -11443   -12021   -12232   -11801   -10508 
   -8868    -7816    -7727    -8325    -9184    -9900   -10291   -10330 
   -9814    -8673    -7271    -6118    -5653    -6102    -7290    -8779 
  -10185   -11227   -11736   -11817   -11623   -11111   -10243    -9325 
   -8827    -8793    -9105    -9846   -10808   -11465   -11610   -11462 
  -11215   -10582    -9306    -7960    -7254    -6997    -6791    -6868 
   -7479    -8453    -9518   -10231   -10338   -10416   -10804   -10824 
  -10316   -10156   -10679   -11156   -10673    -9082    -7145    -5934 
   -6127    -7280    -8179    -8626    -9555   -11087   -12553   -13846 
  -14972   -15419   -15126   -14812   -14550   -13367   -11055    -8812 
   -7458    -6617    -5899    -5728    -6555    -7789    -8527    -8985 
   -9796   -10575   -10498    -9467    -8009    -6848    -6534    -7084 
   -8014    -8526    -8005    -6741    -5563    -4880    -4926    -6103 
   -8156    -9994   -11047   -11988   -13564   -15078   -14716   -11826 
   -7974    -5244    -4101    -3294    -1930    -1119    -2639    -6613 
  -11137   -13907   -14574   -15392   -18022   -20528   -19939   -16318 
  -11974    -8622    -6650    -5572    -5028    -5394    -6529    -7500 
   -8553   -10773   -13186   -13050    -9825    -6372    -5702    -8298 
  -12013   -13841   -12771   -10484    -8870    -8626    -9988   -12064 
  -12611   -10914    -9177    -9922   -12860   -14987   -14207   -11441 
   -8931    -7800    -7076    -5686    -4626    -5004    -5899    -6050 
   -5840    -6648    -8807   -10611    -9715    -6100    -3203    -4531 
   -9182   -12380   -11195    -8484    -9174   -13462   -16584   -15018 
  -10855    -9277   -11619   -13239   -10034    -4283    -1719    -4280 
   -7911    -8090    -6083    -7024   -11842   -15803   -15533   -12189 
   -8405    -6570    -7955   -11014   -13227   -14241   -14935   -15392 
  -15022   -13177    -9952    -6804    -5503    -6462    -7863    -6916 
   -3586    -1366    -2463    -5242    -7342    -8361    -9078    -9988 
  -11033   -12181   -13537   -14827   -15503   -15122   -13383   -10828 
   -8864    -7870    -7018    -6636    -8016   -10663   -12290   -11534 
   -9386    -7811    -7518    -7658    -7361    -6868    -6940    -7578 
   -8275    -9232   -11090   -13447   -14748   -14118   -12461   -11030 
   -9972    -9154    -8941    -9162    -8865    -7705    -6523    -6318 
   -7092    -7827    -7639    -6841    -6596    -7572    -9150   -10161 
  -10142    -9495    -8799    -8536    -9116   -10247   -11020   -11322 
  -11866   -12899   -13822   -13774   -12555   -11053    -9976    -8883 
   -7514    -6666    -7080    -8518    -9915   -10349   -10153   -10542 
  -11699   -12299   -11634   -10690   -10365   -10183    -9202    -7233 
   -5293    -4684    -5179    -5146    -4075    -3738    -5705    -8685 
   -9979    -9269    -9000   -10781   -13290   -14658   -14953   -14908 
  -14253   -12633   -10246    -7456    -5215    -4893    -6639    -9256 
  -11800   -13778   -14528   -13690   -11816    -9941    -8843    -8938 
   -9899   -10366    -9526    -8483    -8473    -8858    -8403    -7350 
   -6791    -7111    -7884    -8440    -8492    -8600    -9410   -10611 
  -11435   -11577   -11106   -10250    -9112    -7406    -5391    -4453 
   -5283    -6578    -6818    -6363    -6670    -8140   -10118   -12159 
  -13953   -14967   -14953   -14231   -13535   -13401   -13311   -12222 
   -9987    -7550    -6146    -6177    -6709    -6724    -6376    -6343 
   -6797    -7357    -7411    -6802    -6235    -6249    -6604    -7342 
   -9019   -11286   -12592   -11985   -10575   -10278   -11600   -13707 
  -15655   -16735   -16694   -15927   -14974   -13930   -12536   -10913 
   -9774    -9211    -8376    -6964    -5617    -4801    -4549    -4974 
   -6158    -7755    -9202   -10164   -10497   -10223    -9829    -9880 
  -10327   -10683   -10512    -9695    -8687    -8139    -8181    -8548 
   -8962    -9304    -9860   -10932   -12043   -12333   -11734   -10930 
  -10061    -8631    -6980    -6261    -6693    -7236    -7049    -6405 
   -6169    -6762    -7651    -8009    -7782    -7850    -9092   -11298 
  -13211   -14100   -14492   -14796   -14472   -13034   -10859    -8729 
   -7025    -5675    -4698    -4452    -5267    -6848    -8334    -9031 
   -9046    -9097    -9541   -10062   -10462   -10953   -11495   -11475 
  -10613    -9684    -9599   -10242   -10918   -11384   -11861   -12486 
  -12981   -12896   -12233   -11325   -10230    -8966    -7727    -6586 
   -5798    -5799    -6282    -6269    -5556    -5112    -5875    -7774 
   -9855   -11326   -12301   -13284   -14359   -14947   -14220   -12124 
   -9675    -7778    -6474    -5697    -5630    -6127    -6817    -7673 
   -8788    -9998   -10935   -11265   -11033   -10702   -10798   -11527 
  -12472   -12838   -12248   -11095    -9902    -8738    -7607    -6875 
   -7132    -8633   -10612   -11705   -11516   -10933   -10808   -11018 
  -10910   -10261    -9576    -9201    -8478    -6602    -4216    -2955 
   -3399    -4569    -5518    -6335    -7346    -8357    -9244   -10314 
  -11566   -12441   -12533   -12154   -12017   -12415   -12953   -13065 
  -12544   -11727   -11264   -11315   -11163   -10049    -8167    -6554 
   -6097    -6693    -7526    -8236    -9201   -10512   -11604   -12017 
  -11743   -11072   -10500   -10369   -10658   -11250   -11870   -11966 
  -11345   -10353    -9177    -7788    -6393    -5233    -4438    -4349 
   -5204    -6558    -7736    -8526    -9066    -9477    -9757    -9798 
   -9502    -9143    -9209    -9768   -10532   -11232   -11643   -11834 
  -12070   -12339   -12555   -12806   -13000   -12895   -12433   -11643 
  -10478    -9086    -7789    -6570    -5142    -3613    -2502    -2184 
   -2619    -3480    -4552    -5989    -7848    -9649   -10962   -12009 
  -13144   -14303   -15384   -16470   -17377   -17655   -17120   -15888 
  -14087   -11813    -9138    -6258    -3707    -2053    -1494    -1962 
   -3376    -5354    -7065    -7904    -8041    -8091    -8468    -9244 
  -10463   -12195   -14106   -15399   -15614   -15186   -14782   -14327 
  -13244   -11492    -9733    -8548    -7882    -7307    -6635    -6178 
   -6346    -7040    -7650    -7798    -7781    -7983    -8340    -8791 
   -9533   -10442   -10960   -10809   -10423   -10442   -11006   -11782 
  -12344   -12442   -12237   -12044   -11753   -10868    -9167    -6956 
   -4772    -3034    -1941    -1642    -2254    -3670    -5629    -7942 
  -10361   -12306   -13292   -13537   -13539   -13377   -13035   -12754 
  -12590   -12260   -11716   -11294   -11210   -11358   -11425   -11075 
  -10285    -9269    -8183    -7303    -7088    -7574    -8067    -7827 
   -6912    -5965    -5481    -5628    -6316    -7330    -8600   -10115 
  -11665   -12918   -13520   -13112   -11589    -9439    -7501    -6504 
   -6745    -7785    -8927   -10083   -11395   -12436   -12752   -12648 
  -12665   -12802   -12681   -12160   -11519   -11007   -10431    -9528 
