Origin Time       2025/03/28 03:50:00
Lat.              35.403
Long.             140.360
Depth. (km)       54
Mag.              4.4
Station Code      CHB020
Station Lat.      35.1132
Station Long.     140.1006
Station Height(m) 9
Record Time       2025/03/28 03:50:58
Sampling Freq(Hz) 100Hz
Duration Time(s)  60
Dir.              N-S
Scale Factor      7845(gal)/8223790
Max. Acc. (gal)   2.183
Last Correction   2025/03/28 03:50:58
Memo.             
[...]
     303      297      298      302      303      303      301      307 
     310      306      298      287      291      292      290      306 
     322      318      302      298      302      298      294      299 
     302      303      305      295      292      298      294      292 
     301      310      317      303      302      313      287      274 
     287      290      309      314      303      303      295      298 
     306      301      301      302      299      301      301      292 
     288      299      297      287      291      305      310      303 
     294      295      295      287      291      301      297      291 
     295      303      306      298      287      290      301      315 
     310      292      299      303      288      286      301      314 
     315      310      305      295      295      309      307      288 
     284      302      311      299      284      286      291      299 
     313      321      322      318      309      313      313      294 
     294      307      309      303      301      305      314      329 
     346      340      324      299      259      255      279      278 
     292      330      355      364      359      337      299      274 
     268      229      202      247      275      253      256      298 
     329      314      305      315      280      233      238      255 
     253      249      270      295      301      325      341      315 
     299      294      272      265      310      352      355      355 
     345      310      291      294      275      259      294      346 
     351      359      414      407      310      243      218      237 
     305      333      334      386      418      372      322      291 
     228      175      156      136      174      290      378      406 
     430      450      423      344      256      190      139      101 
      72       78      126      178      214      233      297      418 
     479      460      429      373      298      253      241      286 
     372      417      413      383      355      363      337      253 
     186      144      163      276      372      430      525      589 
     558      510      481      396      247      136       91      113 
     263      425      414      349      402      472      444      337 
     166      -32     -114      -20       99      183      353      523 
     511      441      456      449      345      229      139       37 
     -32       -5       75      155      279      410      417      345 
     259      117       56      141      205      292      494      615 
     575      487      367      248      214      238      220      166 
     183      283      394      511      581      526      463      430 
     353      325      365      353      338      382      427      417 
     334      267      288      338      382      399      325      201 
     116       63       43      102      234      356      405      396 
     353      322      369      437      461      472      454      346 
     167       40       24       68      193      353      378      270 
     183      175      257      427      568      579      484      332 
     187      125      109       97      148      294      406      351 
     197       97       48       -8      -41      -33      -13       27 
      94      201      330      421      463      473      480      510 
     541      562      576      583      603      591      483      306 
     130       44       91      193      307      456      641      807 
     878      882      854      719      465      220       81       -5 
     -86     -121     -103        6      226      429      537      589 
     600      537      386      198       10     -209     -411     -484 
    -402     -155      216      500      589      575      484      353 
     314      378      472      599      688      583      325      101 
     -62     -191     -251     -295     -371     -360     -180       85 
     330      525      627      589      492      442      460      526 
     575      594      656      737      784      816      846      881 
     904      901      865      776      668      571      467      346 
     164      -49     -183     -245     -268     -182      -33       40 
      44       67      113      156      155       99       68      103 
     174      279      357      326      202       75        4       18 
      86      166      275      390      410      341      237      109 
      -8      -52       22      176      265      271      292      322 
     359      452      560      612      616      645      716      753 
     754      741      606      367      203      187      284      438 
     553      585      599      573      410      236      221      271 
     328      483      623      556      364      243      202      187 
     210      249      253      228      139      -21     -166     -241 
    -255     -190      -32      124      217      330      438      432 
     337      221      106       -4      -98     -137      -71       71 
     195      283      423      573      568      464      425      417 
     425      530      699      810      823      777      677      476 
     220       49       27       49       49       89      193      324 
     438      500      552      616      626      571      464      313 
     153       40        1       13       40       79      120      171 
     274      423      491      390      236      143      126      189 
     256      284      325      403      483      486      380      228 
      64      -85     -186     -211      -98      187      552      843 
     999     1047     1001      927      909      859      679      457 
     286      155       71       44       49       51       71      180 
     314      365      321      226      191      268      329      275 
     130      -60     -234     -309     -275     -210     -155      -59 
      90      252      411      530      629      761      818      711 
     537      329       36     -234     -311     -255     -206     -132 
      16      186      346      486      554      541      477      391 
     318      301      329      392      500      587      626      718 
     864      942      958      951      870      757      708      687 
     621      541      500      453      355      256      190      157 
     164      172      170      144       35      -90      -81       40 
     152      203      187      101      -27     -135     -195     -224 
    -221     -155      -79      -81     -122     -135     -122     -122 
    -145     -152     -109       16      232      471      665      778 
     772      656      525      457      418      383      417      518 
     627      716      720      619      523      496      504      515 
     510      480      472      468      398      326      348      438 
     553      622      600      558      511      432      368      349 
     384      449      477      472      445      372      251       86 
     -68     -157     -198     -164      -36       91      140      122 
      74       -9     -114     -178     -198     -224     -162       36 
     232      382      521      614      668      669      576      438 
     322      257      218      205      272      383      419      359 
     282      259      272      315      402      494      585      664 
     635      492      284       90       33       91      176      322 
     490      569      534      417      301      268      309      368 
     402      417      391      264       85      -21       12      166 
     353      494      564      554      515      488      457      394 
     288      220      209      149       67       22      -63     -182 
    -245     -211     -105       41      251      473      666      849 
     973     1015      990      880      741      616      461      286 
     157      124      193      332      465      576      649      602 
     454      257       16     -148     -190     -143       16      203 
     355      504      584      514      326       87     -140     -313 
    -392     -294       -9      345      697     1011     1185     1170 
    1040      841      523      109     -264     -542     -749     -846 
    -831     -743     -567     -330     -108      136      418      648 
     819      978     1073     1059      985      891      746      533 
     253      -66     -324     -414     -340     -156       83      286 
     402      521      645      687      681      712      772      796 
     777      731      588      307        5     -213     -314     -319 
    -276     -210     -122       -2      157      297      351      317 
     216      112       71       70       89      133      168      207 
     302      450      654      858      973      982      915      804 
     700      658      730      884     1030     1116     1113     1043 
     967      851      633      359      110      -67     -167     -198 
    -174     -144     -120      -70      -27        9      102      216 
     270      283      326      418      484      465      387      295 
     209      145      121      144      190      190       82      -93 
    -294     -544     -799     -985    -1059     -974     -722     -311 
     193      648      908      939      808      627      504      506 
     614      753      872      930      868      672      394      132 
     -31     -103     -132     -113      -35       99      264      436 
     638      855     1071     1305     1505     1545     1375     1085 
     777      495      315      295      373      495      594      561 
     330     -101     -658    -1175    -1495    -1571    -1455    -1212 
    -942     -799     -783     -738     -596     -341       74      584 
    1031     1348     1571     1702     1710     1656     1629     1651 
    1672     1641     1559     1439     1306     1202     1112     1016 
     912      777      631      480      270       -4     -317     -672 
   -1051    -1377    -1571    -1617    -1480    -1144     -658      -71 
     549     1053     1331     1389     1251      978      660      329 
      16     -229     -388     -454     -450     -454     -513     -599 
    -664     -641     -491     -257       13      310      611      878 
    1123     1370     1557     1579     1456     1273     1046      808 
     646      583      575      575      531      379       91     -240 
    -469     -510     -365      -93      234      541      760      853 
     815      688      533      415      392      473      627      781 
     830      753      591      346       62     -167     -291     -274 
     -83      206      469      599      541      306      -45     -399 
    -631     -707     -653     -499     -284      -76       72      159 
     197      248      376      558      719      800      803      764 
     707      677      685      660      545      351      112     -135 
    -313     -345     -237      -27      248      504      672      697 
     591      448      338      297      340      452      622      788 
     895      994     1121     1250     1354     1377     1278     1053 
     704      299      -87     -450     -761     -947     -980     -880 
    -702     -500     -290      -94       75      255      449      614 
     749      870      909      814      625      423      280      232 
     283      406      535      641      680      602      405       91 
    -305     -700    -1028    -1236    -1301    -1264    -1192    -1113 
   -1026     -886     -629     -244      211      692     1152     1533 
    1788     1912     1929     1857     1723     1561     1409     1286 
    1156      992      834      727      648      538      365      170 
      -5     -172     -332     -434     -464     -399     -202       85 
     353      525      568      477      321      233      287      425 
     535      600      635      633      618      608      585      562 
     561      569      557      507      444      382      333      329 
     340      288      168      -16     -290     -607     -859    -1003 
   -1046    -1007     -895     -729     -557     -419     -303     -206 
    -112       31      221      425      654      911     1165     1410 
    1607     1655     1544     1375     1205     1048      946      928 
     973     1019      996      851      583      244      -95     -398 
    -627     -750     -776     -735     -680     -611     -484     -306 
    -101      149      442      772     1131     1489     1787     1952 
    1945     1776     1482     1109      727      380       45     -284 
    -592     -843     -978     -973     -838     -610     -372     -206 
    -175     -279     -444     -583     -600     -434     -139      183 
     457      623      665      614      525      426      313      249 
     325      534      776      969     1090     1129     1085      985 
     857      746      700      708      746      769      707      549 
     315        9     -325     -604     -750     -765     -704     -567 
    -332      -45      230      461      648      796      874      841 
     715      541      346      182      121      182      287      375 
     463      534      556      577      608      580      499      437 
     429      461      504      550      572      564      518      392 
     211       14     -238     -533     -795    -1042    -1294    -1485 
   -1529    -1391    -1084     -626      -52      569     1170     1702 
    2139     2447     2589     2579     2420     2095     1640     1102 
     562      125     -174     -338     -364     -326     -295     -237 
    -130       -6      155      364      591      805      965     1050 
    1081     1032      882      649      346       20     -295     -594 
    -816     -927     -940     -862     -729     -596     -464     -333 
    -226     -140      -68      -18        0       -4      -12      -25 
     -29       14       95      198      337      506      693      926 
    1204     1490     1745     1930     1993     1925     1741     1459 
    1121      781      461      172      -82     -298     -464     -556 
    -567     -518     -445     -375     -337     -334     -361     -409 
    -460     -488     -479     -434     -344     -216      -94        1 
      83      175      288      419      568      716      834      920 
     996     1057     1074     1040      970      847      683      534 
     430      369      344      341      349      382      456      573 
     696      787      830      810      743      646      518      376 
     207       17     -125     -198     -187      -62      157      421 
     666      845      947      985      980      940      834      661 
     461      236      -10     -248     -473     -679     -838     -922 
    -916     -847     -723     -540     -338     -164      -14      118 
     245      391      548      688      792      810      739      635 
     510      376      264      190      171      228      329      446 
     550      618      656      669      650      604      541      480 
     446      418      378      330      302      337      432      575 
     735      862      920      892      776      621      475      345 
     232      143       63      -22      -98     -160     -214     -245 
    -256     -267     -276     -275     -257     -229     -210     -206 
    -222     -238     -232     -180      -74       99      326      550 
     742      901     1007     1044     1030      973      920      908 
     939      982      986      927      793      587      353      133 
     -49     -171     -236     -257     -236     -171      -66       60 
     198      337      449      529      583      588      541      496 
     463      409      371      390      442      527      604      598 
     523      414      264      137       87       75       45      -32 
    -148     -261     -351     -396     -378     -295     -166      -28 
     108      232      299      329      365      417      491      596 
     708      800      864      885      870      842      795      720 
     633      538      442      369      321      286      259      234 
     210      193      191      221      251      252      238      201 
     130       72       48       33       22        9      -10      -56 
    -136     -221     -274     -307     -349     -413     -499     -589 
    -664     -702     -662     -550     -399     -218       -4      230 
     467      687      885     1073     1223     1321     1418     1534 
    1638     1734     1829     1908     1935     1873     1738     1551 
    1329     1135     1028      985      942      889      816      695 
     540      400      299      237      187      112       -5     -167 
    -371     -592     -783     -920    -1023    -1119    -1233    -1371 
   -1509    -1622    -1691    -1691    -1599    -1409    -1136     -799 
    -410        2      407      783     1098     1337     1517     1653 
    1748     1804     1811     1748     1618     1418     1163      878 
     584      333      171       98       91      110      153      244 
     372      496      594      656      673      642      583      517 
     460      413      360      303      261      247      259      306 
     383      445      456      422      326      159      -51     -286 
    -529     -757     -965    -1115    -1190    -1208    -1140     -957 
    -691     -386      -43      333      708     1046     1310     1476 
    1551     1528     1416     1255     1088      911      712      513 
     344      221      149      140      195      309      463      627 
     756      827      831      797      758      696      611      542 
     481      402      313      229      143       47      -54     -143 
    -198     -207     -178     -128      -58       43      155      260 
     359      421      415      365      301      228      174      144 
     121      102       83       60       51       62       94      145 
     218      302      353      356      340      317      282      245 
     221      197      157      113       90      110      180      303 
     457      618      770      882      950     1007     1048     1050 
    1001      897      754      600      457      333      228      124 
      12      -94     -182     -237     -259     -265     -260     -233 
    -184     -109      -20       58      133      217      306      398 
     471      508      519      504      473      469      503      535 
     549      527      454      357      251      155      108      105 
      99       67       16      -43     -109     -160     -171     -145 
     -87        2       99      179      253      324      376      419 
     459      481      510      545      560      544      519      517 
     535      560      580      595      596      589      585      587 
     599      643      712      770      800      816      828      827 
     811      769      702      625      526      391      247      114 
     -16     -145     -264     -376     -476     -560     -629     -680 
    -684     -630     -521     -364     -179        1      157      288 
     392      465      525      575      611      635      656      669 
     669      648      606      546      467      384      336      334 
     352      378      426      484      530      557      573      573 
