Origin Time       2025/03/28 03:50:00
Lat.              35.403
Long.             140.360
Depth. (km)       54
Mag.              4.4
Station Code      CHB027
Station Lat.      35.1806
Station Long.     140.2655
Station Height(m) 98
Record Time       2025/03/28 03:50:55
Sampling Freq(Hz) 100Hz
Duration Time(s)  60
Dir.              N-S
Scale Factor      7845(gal)/8223790
Max. Acc. (gal)   2.850
Last Correction   2025/03/28 03:50:54
Memo.             
[...]
    -255     -249     -252     -257     -260     -256     -251     -253 
    -256     -253     -256     -260     -256     -253     -253     -255 
    -255     -253     -253     -255     -259     -257     -253     -255 
    -256     -253     -252     -260     -259     -251     -255     -257 
    -251     -248     -252     -256     -257     -255     -251     -249 
    -253     -256     -259     -259     -255     -252     -252     -252 
    -255     -257     -252     -251     -256     -260     -257     -253 
    -251     -253     -256     -256     -255     -252     -251     -256 
    -256     -253     -255     -255     -252     -257     -257     -252 
    -252     -256     -256     -256     -257     -253     -249     -251 
    -257     -263     -255     -252     -256     -252     -251     -257 
    -257     -252     -249     -255     -261     -256     -252     -255 
    -255     -251     -253     -257     -253     -248     -251     -257 
    -257     -252     -253     -257     -256     -255     -255     -256 
    -256     -253     -251     -255     -253     -248     -252     -261 
    -259     -255     -256     -256     -255     -255     -252     -249 
    -253     -255     -256     -257     -253     -248     -252     -256 
    -256     -255     -252     -253     -256     -255     -252     -252 
    -253     -253     -255     -255     -248     -245     -255     -260 
    -255     -251     -251     -252     -251     -251     -255     -259 
    -255     -251     -252     -252     -252     -252     -255     -256 
    -253     -249     -251     -249     -251     -257     -256     -249 
    -249     -251     -252     -256     -256     -253     -251     -251 
    -255     -253     -252     -257     -259     -255     -256     -253 
    -249     -251     -256     -260     -260     -255     -253     -255 
    -257     -259     -255     -253     -253     -252     -255     -257 
    -255     -257     -259     -253     -253     -253     -253     -256 
    -257     -256     -255     -251     -252     -256     -257     -259 
    -256     -255     -257     -256     -255     -256     -253     -251 
    -251     -255     -259     -257     -255     -253     -249     -251 
    -257     -261     -257     -253     -253     -256     -257     -255 
    -252     -252     -253     -256     -259     -257     -257     -257 
    -256     -256     -255     -255     -259     -259     -255     -255 
    -257     -260     -256     -251     -253     -256     -259     -257 
    -253     -255     -260     -260     -256     -256     -256     -257 
    -259     -253     -252     -259     -263     -257     -256     -256 
    -255     -255     -260     -259     -253     -252     -256     -255 
    -252     -259     -261     -257     -255     -255     -256     -259 
    -259     -256     -255     -255     -256     -259     -257     -256 
    -257     -257     -255     -253     -256     -255     -253     -256 
    -256     -256     -259     -259     -253     -251     -256     -259 
    -256     -255     -257     -257     -256     -256     -255     -253 
    -257     -259     -255     -252     -255     -256     -257     -256 
    -256     -259     -256     -255     -257     -256     -256     -259 
    -257     -255     -256     -257     -257     -256     -256     -255 
    -252     -253     -253     -253     -256     -257     -257     -253 
    -251     -256     -257     -256     -256     -256     -256     -259 
    -259     -256     -253     -253     -252     -253     -253     -255 
    -255     -253     -252     -253     -255     -256     -253     -252 
    -256     -256     -257     -256     -252     -253     -255     -252 
    -252     -253     -256     -256     -253     -252     -255     -259 
    -257     -252     -251     -256     -255     -249     -253     -257 
    -256     -256     -255     -252     -252     -255     -255     -253 
    -253     -252     -256     -256     -255     -255     -253     -252 
    -253     -253     -253     -253     -257     -257     -253     -253 
    -253     -251     -252     -257     -253     -252     -255     -256 
    -255     -257     -259     -253     -251     -253     -253     -253 
    -259     -257     -249     -251     -256     -256     -253     -253 
    -252     -252     -252     -253     -257     -256     -252     -253 
    -255     -252     -252     -253     -256     -256     -253     -253 
    -255     -253     -252     -253     -256     -256     -255     -251 
    -251     -256     -255     -249     -253     -257     -252     -249 
    -253     -253     -253     -256     -256     -251     -251     -253 
    -255     -253     -255     -253     -249     -251     -257     -256 
    -252     -253     -255     -255     -255     -255     -255     -255 
    -255     -253     -251     -253     -256     -253     -253     -252 
    -252     -253     -256     -256     -255     -253     -253     -255 
    -253     -253     -257     -256     -251     -253     -253     -252 
    -256     -257     -255     -253     -255     -255     -252     -255 
    -260     -260     -257     -256     -252     -253     -260     -259 
    -252     -252     -253     -256     -257     -256     -259     -257 
    -255     -256     -256     -256     -256     -253     -255     -256 
    -255     -255     -253     -253     -257     -259     -256     -256 
    -255     -253     -257     -260     -255     -253     -257     -256 
    -253     -256     -257     -256     -257     -259     -256     -256 
    -257     -259     -260     -259     -255     -252     -253     -257 
    -260     -256     -253     -257     -259     -257     -255     -253 
    -259     -260     -255     -256     -257     -257     -259     -257 
    -255     -256     -257     -256     -255     -255     -259     -260 
    -253     -253     -257     -256     -255     -255     -255     -256 
    -257     -255     -255     -257     -257     -257     -256     -256 
    -255     -255     -255     -255     -255     -257     -256     -253 
    -259     -257     -249     -253     -257     -256     -257     -257 
    -253     -252     -256     -255     -253     -255     -253     -253 
    -256     -255     -251     -256     -257     -252     -253     -257 
    -256     -256     -252     -253     -259     -255     -255     -260 
    -256     -253     -255     -252     -255     -257     -255     -252 
    -252     -252     -255     -252     -251     -253     -256     -256 
    -256     -255     -256     -257     -255     -257     -261     -255 
    -253     -257     -255     -253     -256     -255     -256     -256 
    -252     -252     -253     -256     -256     -255     -252     -255 
    -256     -255     -253     -255     -255     -253     -253     -256 
    -256     -252     -252     -253     -252     -251     -252     -255 
    -252     -252     -256     -257     -255     -251     -251     -253 
    -255     -253     -252     -252     -256     -256     -251     -251 
    -255     -255     -255     -256     -251     -252     -257     -253 
    -251     -255     -256     -256     -256     -255     -253     -252 
    -249     -244     -241     -244     -248     -248     -252     -260 
    -270     -276     -271     -265     -263     -249     -228     -216 
    -224     -253     -282     -282     -275     -305     -337     -315 
    -256     -226     -226     -195     -148     -162     -222     -251 
    -249     -288     -383     -434     -361     -251     -278     -382 
    -298      -82      -18      -49      -29      -99     -278     -421 
    -508     -429     -272     -360     -409     -209     -168     -224 
    -148      -55       17     -199     -561     -383      -74     -280 
    -491     -419     -338     -210     -112     -126      -28       -5 
    -278     -409     -280     -309     -438     -391     -352     -407 
    -287     -167     -329     -438     -249      -43      -40      -93 
     -63     -160     -410     -434     -248     -186     -237     -337 
    -383     -207     -159     -378     -446     -395     -353      -81 
     149      -75     -342     -290     -167     -149     -260     -324 
    -232     -292     -395     -311     -321     -363     -259     -278 
    -371     -324     -334     -249       55     -109     -529     -297 
      -2     -198     -310     -297     -334     -332     -333      -95 
     175      -75     -346     -318     -434     -398     -145     -259 
    -436     -328     -280     -267     -103      -78     -283     -256 
     -90     -326     -521     -238       -9      -94     -345     -517 
    -351     -218     -286     -182     -201     -433     -434     -442 
    -413     -110      -45     -183     -210     -292     -271     -174 
    -324     -464     -290      -41      -54     -139      -41      -72 
    -309     -341     -217     -283     -459     -433     -263     -255 
    -325     -274     -245     -272     -180       16      102     -101 
    -382     -459     -506     -545     -440     -361     -261     -117 
     -59       41       12     -238     -284     -209     -345     -445 
    -328     -220     -311     -492     -527     -426     -186       75 
      48      -70     -136     -280     -213      -35     -179     -413 
    -500     -467     -278     -151     -244     -425     -564     -465 
    -202      -74      -94     -172     -217     -198     -226     -265 
    -355     -519     -599     -573     -429     -199      -86      -94 
    -141     -233     -201      -24       39       72       28     -234 
    -256     -228     -500     -333       39     -144     -256     -144 
    -253     -270     -286     -460     -419     -338     -263      -85 
    -222     -361     -195     -270     -494     -498     -461     -537 
    -554     -238      106       72      -67     -218     -468     -391 
     -39     -117     -449     -492     -518     -557     -292      -56 
    -109     -126      -13        4     -194     -480     -538     -450 
    -526     -499     -313     -249      -58      191       86     -174 
    -268     -191      -59      120      271       94     -259     -459 
    -494     -272      -91     -166       24      197     -170     -427 
    -382     -463     -631     -878    -1001     -807     -649     -496 
    -157      -13     -247     -413     -176      198      449      529 
     270     -148     -388     -546     -654     -596     -556     -653 
    -664     -469     -137      135       -2     -332     -251        0 
     103      287      240     -167     -368     -465     -623     -529 
    -380     -324     -179     -170     -330     -329     -225     -190 
    -218     -409     -487     -206      -22     -129     -267     -432 
    -596     -585     -425     -109      211       18     -345     -280 
    -295     -419     -301     -359     -349       -4      -54     -367 
    -341     -346     -422     -143       79      -48      -33       86 
     -10     -113     -324     -666     -541     -224     -314     -396 
    -353     -453     -422     -295     -345     -367     -255     -137 
      -4       81        4     -163     -348     -453     -407     -410 
    -440     -240     -143     -395     -488     -457     -689     -695 
    -251      118      205       78      -52        2       29      -85 
    -168     -140     -187     -434     -522     -407     -515     -706 
    -676     -619     -538     -234       63       54     -153     -307 
    -252       13      224      121      -22       89       58     -203 
    -163      -17     -189     -379     -494     -608     -510     -351 
    -406     -503     -440     -303     -232     -197     -135     -263 
    -576     -499     -167     -225     -321     -222     -411     -558 
    -287     -124     -279     -432     -405     -290     -256     -167 
     -75     -247     -298     -109     -202     -330      -71      171 
      97     -136     -205      -55      -72     -244     -400     -589 
    -487     -244     -268     -197      -94     -226     -203     -110 
    -186     -221     -168      -41      -29     -206     -336     -558 
    -680     -351     -167     -274     -201     -168     -228     -184 
    -213     -160       45       31     -218     -444     -494     -506 
    -722     -912     -905     -924     -841     -460      -32       68 
    -136     -198     -122     -166     -117       14      144      283 
     122      -76       52       60     -182     -403     -486     -390 
    -407     -476     -257     -251     -658     -689     -338     -286 
    -344      -94      143      114       52      -89     -382     -249 
     176      -12     -371     -213     -102     -263     -464     -633 
    -483     -209     -197     -194     -167     -349     -531     -521 
    -395     -326     -400     -372     -194     -155     -210     -203 
    -251     -421     -548     -486     -334     -187        5       93 
     -29     -141     -168     -206     -116      124       89     -241 
    -238       60       18     -288     -507     -518     -225       39 
      43       63       -9     -326     -650     -796     -626     -386 
    -446     -596     -718     -845     -699     -314      -10      255 
     569      719      579      314      124       14      -82      -93 
     157      665     1032      940      689      479      118     -191 
    -303     -510     -834    -1113    -1328    -1582    -1892    -1834 
   -1321     -888     -650     -549     -673     -747     -669     -623 
    -414       14      338      571      729      648      603      730 
     638      418      292     -189    -1028    -1699    -2272    -2810 
   -3127    -3242    -2843    -1906    -1127     -496      294      778 
     986     1340     1344      896      546       62     -580     -785 
    -625     -240      562     1359     1667     1545      909     -238 
   -1368    -1971    -1792    -1009     -139      585     1059     1263 
    1390     1347     1020      589      -24     -913    -1702    -2033 
   -1850    -1240     -616     -457     -626     -735     -715     -473 
       2      272      137      -14      -59     -155     -187     -168 
    -168       33      371      664      950     1030      741      298 
     -82     -406     -870    -1472    -1856    -1927    -1894    -1628 
    -970     -418     -372     -531     -760     -951     -688     -168 
     272      757      986      926     1102     1163      710      206 
    -295     -793     -747     -419     -502     -715     -664     -568 
    -364       87      368      237      -72     -345     -253      333 
     904     1075      795       35     -841    -1375    -1549    -1468 
   -1332    -1413    -1621    -1672    -1471     -949     -180      413 
     634      749      923     1096     1159      996      552     -170 
    -996    -1497    -1448    -1146     -854     -569     -275       35 
     326      522      560      295     -244     -653     -762     -722 
    -460      -27      315      649      982     1043      903      708 
     283     -359     -982    -1557    -1888    -1672    -1200     -814 
    -448     -137      116      302      135     -360     -793     -985 
   -1031    -1090    -1077     -958     -974     -959     -672     -464 
    -407     -167       79      143      220      175      -51     -118 
    -166     -344     -319     -133       12      193      298      284 
     299      268      205      216      140        4       67      295 
     459      469      383      207     -106     -454     -654     -749 
    -849     -881     -818     -770     -723     -580     -415     -332 
    -214      -49      -81     -314     -583     -814     -857     -788 
    -859     -909     -815     -726     -409      170      554      774 
     985      895      529      157     -276     -646     -637     -479 
    -445     -355     -272     -369     -422     -429     -584     -676 
    -572     -391     -129       63       97      102      -39     -306 
    -473     -648     -872     -870     -594     -311     -183     -147 
     -98       51      233      341      411      313       44      -85 
    -128     -226     -224     -157      -39      145       21     -345 
    -507     -661     -965    -1131    -1177    -1081     -672     -292 
    -155       83      345      324      202        4     -363     -534 
    -459     -419     -298     -193     -367     -522     -492     -355 
     -31      240      257      225       79     -306     -664     -835 
    -835     -696     -592     -553     -400     -153      -24      -68 
    -157     -272     -317     -109      148      259      340      351 
     267      280      351      245       12     -151     -333     -641 
    -872     -957     -982     -816     -490     -268     -143      -64 
     -40        0     -153     -535     -750     -812     -842     -631 
    -367     -249      -94      -54     -232     -244     -101     -112 
    -233     -270     -129       85      203      189       36     -234 
    -503     -702     -803     -708     -438     -206     -112      -87 
     -37       54      143      190      114     -101     -243     -187 
     -91      -70     -155     -442     -722     -670     -549     -538 
    -434     -378     -421     -341     -288     -380     -433     -500 
    -704     -892     -901     -764     -581     -446     -421     -450 
    -386     -182       51      207      276      360      530      687 
     769      795      646      359      137      -31     -190     -359 
    -627     -909    -1084    -1119     -955     -710     -484     -272 
    -159      -66      125      193      128      183      140     -172 
    -378     -425     -542     -625     -662     -723     -706     -756 
    -892     -803     -627     -558     -346      -10      249      535 
     803      859      715      457      195       25     -128     -341 
    -560     -776     -996    -1219    -1356    -1216     -930     -814 
    -808     -768     -733     -707     -639     -502     -272      -10 
     232      461      587      591      495      270      121      121 
      22      -83      -52      -76     -144      -74       48       82 
      17     -101     -175     -121      -32      -70     -220     -429 
    -710     -919     -900     -720     -479     -253      -90       39 
     114      139      106      -21     -151     -294     -534     -664 
    -616     -600     -565     -448     -406     -437     -433     -418 
    -426     -329      -74       99      113       94      -47     -260 
    -305     -249     -234     -305     -515     -783     -939     -901 
    -704     -534     -540     -670     -823     -908     -764     -425 
    -141       66      252      297      257      279      302      253 
     110     -140     -382     -442     -282       13      396      760 
     865      756      585      267      -83     -284     -457     -591 
    -639     -699     -719     -695     -676     -615     -579     -569 
    -517     -500     -502     -436     -340     -243     -167     -140 
    -168     -280     -392     -386     -345     -348     -329     -294 
    -328     -384     -344     -270     -265     -284     -322     -433 
    -584     -739     -872     -895     -801     -662     -486     -264 
     -51       93      160      238      340      364      303      179 
     -31     -206     -260     -274     -237     -148     -132     -151 
     -87       -6      -16     -106     -203     -286     -373     -399 
    -298     -152      -89     -109     -117      -41       68       91 
