Origin Time       2025/03/28 03:50:00
Lat.              35.403
Long.             140.360
Depth. (km)       54
Mag.              4.4
Station Code      CHB006
Station Lat.      35.7790
Station Long.     140.3073
Station Height(m) 29
Record Time       2025/03/28 03:51:01
Sampling Freq(Hz) 100Hz
Duration Time(s)  60
Dir.              E-W
Scale Factor      7845(gal)/8223790
Max. Acc. (gal)   4.751
Last Correction   2025/03/28 03:51:01
Memo.             
    7048     7037     7040     7048     7030     7007     7017     7036 
    7038     7038     7042     7042     7040     7040     7036     7022 
    7032     7056     7055     7040     7037     7036     7032     7037 
    7045     7037     7024     7029     7040     7034     7026     7033 
    7047     7044     7032     7033     7037     7033     7036     7044 
    7044     7036     7026     7028     7038     7045     7047     7049 
    7045     7034     7034     7040     7040     7032     7028     7036 
    7045     7038     7034     7037     7033     7024     7018     7029 
    7047     7047     7038     7044     7051     7042     7037     7044 
    7040     7026     7029     7038     7034     7029     7037     7049 
    7053     7045     7036     7034     7025     7021     7036     7042 
    7034     7030     7028     7029     7048     7065     7055     7038 
    7032     7028     7026     7026     7032     7045     7048     7042 
    7041     7032     7022     7034     7049     7049     7048     7044 
    7033     7024     7018     7022     7040     7056     7053     7038 
    7026     7020     7025     7029     7025     7034     7047     7042 
    7037     7033     7024     7029     7040     7036     7030     7034 
    7038     7041     7042     7032     7024     7032     7047     7055 
    7051     7034     7021     7024     7033     7042     7045     7037 
    7028     7025     7026     7033     7045     7052     7049     7044 
    7040     7032     7028     7029     7033     7044     7051     7042 
    7038     7038     7033     7030     7030     7022     7021     7034 
    7044     7041     7033     7028     7028     7037     7040     7037 
    7044     7049     7040     7033     7037     7033     7029     7040 
    7047     7033     7028     7037     7040     7034     7032     7033 
    7038     7044     7044     7036     7028     7026     7034     7042 
    7038     7037     7045     7049     7045     7040     7037     7034 
    7041     7049     7047     7042     7038     7033     7036     7044 
    7047     7042     7036     7036     7044     7045     7042     7048 
    7052     7040     7028     7026     7025     7024     7040     7055 
    7048     7036     7036     7040     7038     7037     7038     7044 
    7048     7052     7049     7037     7029     7034     7040     7040 
    7041     7047     7042     7030     7028     7038     7052     7055 
    7047     7042     7038     7034     7034     7036     7040     7048 
    7051     7045     7036     7028     7028     7036     7044     7044 
    7042     7048     7047     7038     7034     7038     7041     7047 
    7051     7045     7041     7038     7030     7030     7038     7038 
    7032     7030     7030     7032     7038     7044     7040     7040 
    7045     7040     7030     7029     7026     7028     7038     7048 
    7042     7034     7040     7048     7045     7036     7030     7033 
    7037     7038     7034     7034     7036     7042     7052     7049 
    7032     7022     7025     7032     7036     7036     7030     7030 
    7037     7037     7032     7036     7042     7045     7048     7040 
    7025     7024     7032     7037     7037     7033     7030     7028 
    7029     7037     7040     7038     7045     7051     7045     7030 
    7017     7020     7037     7044     7042     7042     7040     7038 
    7034     7029     7030     7038     7045     7048     7045     7036 
    7026     7032     7037     7032     7029     7034     7041     7040 
    7040     7038     7030     7029     7037     7038     7036     7041 
    7041     7034     7032     7033     7037     7036     7021     7011 
    7022     7037     7041     7042     7056     7080     7087     7060 
    7020     7010     7011     6982     6961     6999     7041     7072 
    7134     7160     7094     7038     7022     6943     6859     6890 
    6984     7067     7123     7138     7140     7140     7075     6988 
    6941     6872     6847     6961     7053     7072     7168     7261 
    7231     7150     7022     6883     6844     6844     6864     6978 
    7122     7261     7337     7225     7076     7051     6963     6802 
    6802     6916     6955     7003     7227     7412     7250     7014 
    7001     6929     6744     6779     6995     7152     7186     7152 
    7146     7052     6810     6787     7041     7217     7307     7312 
    7126     6980     6886     6686     6629     6755     6856     7079 
    7452     7684     7650     7426     7059     6544     6162     6272 
    6629     6944     7404     7839     7854     7615     7294     6813 
    6389     6297     6507     6839     7128     7372     7557     7468 
    7199     7060     6937     6702     6632     6822     7048     7198 
    7260     7195     7013     6847     6901     7107     7156     7106 
    7210     7335     7314     7156     6875     6675     6701     6801 
    7020     7341     7387     7229     7202     7145     6966     6886 
    6848     6752     6805     7014     7107     6995     6899     7047 
    7218     7117     7011     7111     7109     6984     6999     6945 
    6643     6520     6793     7084     7200     7379     7626     7530 
    7095     6836     6759     6619     6720     7072     7159     7106 
    7362     7531     7106     6597     6664     6983     7111     7315 
    7547     7311     6940     7061     7234     6903     6648     6926 
    7126     6963     6956     7088     6997     6929     7068     7101 
    6912     6717     6743     7011     7307     7492     7546     7362 
    6928     6420     6180     6531     7191     7507     7507     7568 
    7480     7044     6619     6457     6454     6656     7196     7684 
    7570     7115     6928     6975     6947     6817     6702     6697 
    6825     7119     7523     7662     7285     6806     6735     7006 
    7296     7420     7403     7300     7034     6720     6648     6712 
    6741     6836     6940     7032     7288     7474     7276     6945 
    6758     6704     6832     7076     7226     7186     7099     7295 
    7600     7310     6508     6064     6195     6531     7024     7669 
    8052     7928     7612     7346     6894     6292     6112     6488 
    6970     7418     7789     7793     7491     7141     6818     6710 
    6840     6920     6889     6837     6766     6771     6848     6817 
    6750     6847     7061     7284     7592     7906     7836     7238 
    6397     5741     5744     6453     7217     7526     7524     7381 
    7080     6849     6968     7299     7495     7427     7257     7182 
    7141     6974     6736     6639     6762     6944     7003     6984 
    7003     7096     7217     7203     7047     7044     7377     7744 
    7561     6930     6670     6681     6255     5868     6264     7051 
    7780     8370     8175     6916     5745     5668     6335     7087 
    7713     8032     7821     7273     6826     6598     6637     7217 
    8199     8631     7824     6492     5682     5443     5724     6748 
    7952     8571     8653     8295     7371     6249     5603     5698 
    6227     6797     7322     7722     7758     7433     7010     6628 
    6381     6519     6883     6898     6643     6741     7177     7503 
    7704     7924     7904     7474     7042     6705     5945     5144 
    5387     6297     6863     7511     8511     8777     8085     7341 
    6700     6000     5734     6216     7045     7672     7920     7869 
    7585     7198     6897     6741     6678     6729     6924     7101 
    7121     7148     7318     7375     7128     6891     6889     6932 
    7052     7366     7549     7412     7319     7237     6744     6331 
    6635     7052     6920     6550     6342     6469     7111     7989 
    8471     8298     7684     7095     6673     6057     5463     5613 
    6342     6895     7136     7349     7551     7627     7705     7708 
    7188     6525     6497     6547     6157     6262     7168     7871 
    7982     7703     6907     6015     5989     6772     7461     7811 
    8127     8212     7630     6629     5875     5707     6181     7095 
    7855     8006     7762     7496     7169     6631     6135     6164 
    6862     7819     8356     8058     7128     6319     6280     6729 
    6934     6887     6929     7001     7018     6975     6867     7022 
    7582     8039     7978     7443     6690     6146     5972     5903 
    6026     6602     7245     7470     7483     7496     7292     7034 
    7254     7753     7905     7689     7312     6759     6173     5813 
    5738     5958     6559     7415     8058     8029     7435     6971 
    6945     6925     6806     6920     7106     7099     7086     7122 
    7003     6852     6975     7285     7469     7449     7210     6777 
    6538     6758     7025     7132     7460     7839     7673     7204 
    7006     6849     6380     5985     6060     6377     6694     7060 
    7522     7981     8222     7960     7148     6335     6230     6787 
    7333     7537     7547     7384     7106     7015     7067     6921 
    6743     6874     6961     6642     6461     6870     7168     6829 
    6652     7137     7489     7291     6979     6654     6338     6548 
    7339     7852     7696     7518     7526     7184     6590     6272 
    6096     6014     6561     7419     7584     7179     6891     6678 
    6419     6372     6662     7234     7938     8424     8460     8089 
    7426     6791     6490     6384     6313     6451     6735     6852 
    6922     7206     7466     7443     7310     7263     7215     7052 
    6951     7057     7095     6968     7083     7477     7568     7192 
    6848     6721     6581     6511     6720     7047     7354     7728 
    7944     7663     7138     6786     6612     6535     6605     6843 
    7130     7253     7159     6982     6812     6706     6604     6405 
    6382     6716     7091     7415     7659     7492     7130     7071 
    7106     7005     7028     7221     7283     7051     6655     6327 
    6218     6470     7117     7780     8082     8182     8205     7809 
    6944     6242     6108     6218     6365     6816     7366     7457 
    7290     7290     7156     6781     6744     7105     7303     7264 
    7125     6651     5988     5891     6643     7649     8260     8356 
    7989     7215     6486     6312     6573     6909     7260     7603 
    7700     7398     6895     6442     6115     6021     6299     6786 
    7013     6820     6716     7152     7712     7808     7574     7256 
    6790     6478     6675     7003     7020     6929     7002     7018 
    6783     6685     7037     7450     7611     7680     7615     7230 
    6758     6521     6507     6524     6555     6778     7175     7496 
    7732     8068     8376     8221     7496     6762     6554     6767 
    7071     7231     7034     6585     6354     6621     7109     7300 
    7103     6836     6561     6237     6180     6528     7156     8176 
    9335     9753     9013     7557     6080     5163     5100     5748 
    6567     7068     7280     7334     7137     6909     7042     7375 
    7534     7605     7684     7488     7028     6681     6610     6891 
    7469     7846     7719     7310     6740     6187     6107     6646 
    7515     8391     8857     8387     7040     5626     4741     4455 
    4973     6448     8172     8978     8434     6845     4684     3021 
    3069     4549     6158     7400     8356     8722     8384     7956 
    7975     8262     8484     8783     9215     9175     8213     6675 
    5030     3672     3318     4240     5625     6501     6714     6709 
    6925     7726     9153    10530    11179    11045    10127     8336 
    6031     3897     2536     2424     3773     6188     8676    10331 
   10901    10409     9105     7884     7358     6907     5907     4738 
    3944     3835     4712     6424     8190     9240     9304     8622 
    7620     6579     5690     5285     5667     6732     7998     8928 
    9193     8780     7720     6087     4517     3904     4473     5726 
    6952     7616     7684     7639     7854     8094     8159     8299 
    8384     7700     6087     4487     3946     4608     5931     7312 
    8182     8132     7361     6609     6717     8100    10133    11669 
   12017    10697     7700     4568     3246     3905     5351     6554 
    6893     6262     5409     5177     5571     6351     7692     9416 
   10662    10847    10107     8727     6898     4968     3530     3084 
    3708     5005     6273     7007     7329     7546     7604     7537 
    7952     9200    10490    10701     9532     7342     4769     2848 
    2478     3630     5634     7785     9189     9062     7612     5915 
    5015     5445     7110     9121    10195     9772     8345     6502 
    4784     4190     5316     7253     8588     9054     8991     8318 
    7140     6018     5383     5559     6612     7800     8105     7330 
    6093     4984     4338     4526     5562     6745     7485     7777 
    7646     7202     6882     6812     6709     6588     6635     6710 
    6632     6407     6043     5784     6130     6978     7516     7503 
    7630     8298     9139     9809    10273    10604    10936    11079 
   10442     9053     7967     8012     8850     9720    10193     9923 
    8735     7152     5992     5630     5981     6778     7672     8133 
    7839     7233     6886     6700     6509     6466     6400     5913 
    5089     4261     3478     2828     2598     2901     3711     4850 
    5772     6070     5968     5796     5556     5270     5192     5464 
    5899     6147     6114     6100     6350     6801     7330     7851 
    8225     8290     8012     7480     6840     6442     6632     7321 
    8175     9018     9724    10108    10126     9895     9436     8600 
    7327     5894     4720     3986     3676     3858     4550     5551 
    6740     8182     9687    10806    11329    11264    10654     9749 
    8858     8105     7584     7354     7331     7368     7306     7145 
    7115     7246     7245     6880     6189     5452     5062     5273 
    5950     6623     6978     7009     6791     6466     6207     6034 
    5799     5367     4731     4052     3720     4151     5174     6135 
    6880     7724     8502     8749     8444     7885     7420     7323 
    7303     6686     5485     4503     4332     4887     5883     7140 
    8357     9196     9633     9817     9710     9315     8811     8201 
    7342     6424     5861     5802     6097     6583     7202     7809 
    8159     8268     8367     8469     8430     8266     8093     7933 
    7777     7700     7730     7653     7150     6174     5005     3990 
    3478     3824     4974     6288     7268     8055     8696     8861 
    8565     8155     7736     7280     6798     6288     5738     5240 
    5035     5248     5724     6369     7252     8186     8715     8552 
    7736     6592     5651     5414     6041     7298     8727     9845 
   10207     9585     8244     6755     5583     5050     5301     6070 
    6833     7307     7588     7800     8043     8456     9011     9493 
    9613     9051     7823     6465     5424     4745     4564     5135 
    6193     7060     7456     7543     7376     6926     6473     6412 
    6674     6832     6810     6762     6639     6562     6810     7209 
    7344     7180     6879     6471     6029     5825     6107     6659 
    6897     6577     6014     5567     5435     5863     6890     8064 
    8869     9112     8802     8156     7551     7171     6944     6743 
    6454     6118     6038     6494     7399     8414     9198     9460 
    9157     8588     7998     7288     6438     5751     5382     5235 
    5348     5832     6590     7361     7898     8133     8201     8228 
    8230     8259     8330     8189     7595     6727     5892     5231 
    4846     4818     5043     5325     5613     5900     6091     6380 
    7071     7861     8216     8110     7734     7269     6967     6804 
    6632     6617     6855     7065     7079     7080     7149     7109 
    7013     7164     7616     8181     8719     9136     9298     9146 
    8754     8235     7630     7056     6750     6750     6794     6762 
    6787     6820     6675     6439     6311     6367     6640     7087 
    7457     7441     6987     6370     5868     5524     5321     5364 
    5636     5917     6095     6245     6381     6434     6409     6435 
    6659     7101     7636     8151     8592     8835     8706     8195 
    7595     7250     7264     7518     7784     7817     7565     7144 
    6767     6716     7018     7379     7489     7173     6493     5760 
    5220     4942     4936     5232     5833     6544     7051     7306 
    7476     7600     7651     7704     7784     7782     7600     7308 
    7063     6859     6550     6162     5871     5800     6066     6681 
    7348     7747     7904     7940     7819     7511     7140     6816 
    6552     6350     6212     6123     6119     6328     6839     7551 
    8245     8729     8989     9159     9261     9213     9070     8896 
    8600     8148     7715     7420     7190     6984     6812     6598 
    6396     6380     6573     6772     6808     6740     6655     6516 
    6416     6493     6602     6532     6335     6138     5968     5937 
    6142     6412     6497     6377     6170     5890     5555     5387 
    5518     5821     6231     6779     7298     7562     7597     7628 
    7811     8113     8413     8598     8523     8140     7611     7107 
    6682     6451     6566     6910     7227     7500     7804     8067 
    8199     8182     8029     7811     7581     7248     6720     6169 
    5908     6050     6419     6821     7256     7711     7994     7977 
    7743     7453     7155     6770     6311     5975     5879     5953 
    6129     6345     6482     6475     6377     6323     6405     6563 
    6654     6610     6511     6492     6647     7076     7797     8594 
    9186     9433     9277     8739     7978     7215     6590     6158 
    5910     5776     5733     5864     6247     6778     7229     7514 
    7709     7796     7639     7298     7007     6837     6685     6531 
    6502     6736     7184     7595     7770     7761     7755     7800 
    7794     7719     7631     7565     7522     7446     7229     6859 
    6421     6045     5836     5732     5634     5622     5792     6149 
    6666     7233     7657     7805     7731     7576     7358     7045 
    6712     6361     5930     5544     5381     5468     5756     6161 
    6598     7069     7636     8309     8931     9329     9504     9493 
    9290     8992     8748     8575     8286     7736     6987     6178 
    5425     4792     4297     4064     4333     5046     5756     6219 
    6578     6948     7306     7634     7870     7871     7578     7042 
    6349     5661     5200     5103     5390     6037     6937     7877 
    8622     9070     9169     8864     8307     7753     7287     6922 
    6735     6731     6870     7236     7854     8496     8977     9336 
    9551     9393     8737     7742     6662     5713     5152     5123 
    5508     6150     6974     7847     8499     8631     8252     7688 
    7099     6490     6015     5798     5783     5980     6408     6920 
    7334     7585     7657     7524     7229     6871     6534     6327 
    6327     6448     6540     6523     6378     6115     5796     5510 
    5294     5166     5170     5244     5329     5539     5881     6188 
