Origin Time       2025/03/28 03:50:00
Lat.              35.403
Long.             140.360
Depth. (km)       54
Mag.              4.4
Station Code      CHB015
Station Lat.      35.3738
Station Long.     139.9199
Station Height(m) 2
Record Time       2025/03/28 03:50:59
Sampling Freq(Hz) 100Hz
Duration Time(s)  60
Dir.              U-D
Scale Factor      7845(gal)/8223790
Max. Acc. (gal)   9.151
Last Correction   2025/03/28 03:50:59
Memo.             
[...]
   31179    31210    31253    31280    31324    31287    31180    31172 
   31237    31255    31244    31240    31236    31232    31228    31239 
   31282    31295    31225    31171    31218    31284    31283    31248 
   31226    31205    31182    31207    31274    31310    31271    31193 
   31174    31224    31266    31282    31282    31251    31206    31198 
   31239    31298    31311    31244    31195    31229    31255    31243 
   31253    31257    31218    31183    31203    31260    31293    31267 
   31205    31176    31203    31224    31224    31249    31253    31193 
   31178    31261    31325    31310    31261    31212    31195    31225 
   31259    31284    31301    31264    31199    31195    31256    31293 
   31263    31229    31225    31217    31225    31264    31295    31278 
   31214    31179    31221    31266    31260    31247    31245    31236 
   31222    31228    31264    31305    31268    31183    31180    31248 
   31271    31252    31251    31247    31217    31214    31253    31297 
   31307    31249    31180    31203    31268    31275    31260    31263 
   31230    31179    31183    31239    31294    31286    31210    31167 
   31203    31253    31275    31272    31252    31205    31168    31206 
   31295    31322    31248    31179    31187    31225    31259    31275 
   31248    31190    31164    31199    31256    31291    31271    31213 
   31182    31209    31248    31263    31279    31276    31224    31201 
   31245    31287    31288    31255    31210    31199    31222    31240 
   31260    31279    31239    31170    31185    31255    31279    31264 
   31253    31240    31222    31222    31256    31321    31329    31236 
   31178    31228    31271    31264    31257    31248    31226    31220 
   31233    31267    31297    31255    31178    31174    31226    31266 
   31282    31276    31241    31203    31206    31253    31299    31297 
   31255    31220    31213    31239    31272    31284    31275    31239 
   31185    31193    31259    31280    31239    31207    31207    31220 
   31241    31255    31270    31267    31205    31162    31214    31290 
   31295    31236    31202    31226    31249    31257    31278    31293 
   31253    31186    31176    31229    31290    31294    31237    31191 
   31201    31213    31209    31260    31302    31229    31168    31217 
   31268    31272    31259    31229    31210    31222    31239    31256 
   31272    31241    31187    31182    31237    31293    31291    31256 
   31233    31216    31212    31245    31298    31301    31236    31182 
   31210    31264    31279    31276    31256    31206    31179    31199 
   31248    31287    31255    31186    31189    31241    31257    31263 
   31282    31260    31207    31197    31255    31315    31311    31257 
   31207    31217    31257    31259    31260    31291    31247    31151 
   31164    31260    31298    31263    31207    31182    31203    31232 
   31245    31283    31306    31243    31179    31214    31291    31307 
   31263    31222    31222    31244    31248    31260    31298    31260 
   31162    31160    31240    31278    31261    31226    31193    31189 
   31209    31230    31279    31309    31226    31148    31209    31291 
   31295    31270    31237    31214    31220    31225    31249    31295 
   31280    31198    31170    31229    31279    31282    31267    31225 
   31182    31190    31239    31302    31317    31237    31175    31203 
   31247    31267    31268    31255    31228    31193    31195    31245 
   31287    31282    31234    31195    31225    31275    31282    31276 
   31263    31207    31190    31248    31294    31283    31243    31202 
   31199    31234    31257    31271    31280    31232    31179    31217 
   31280    31294    31272    31245    31217    31201    31210    31241 
   31294    31305    31221    31162    31210    31270    31274    31252 
   31230    31218    31213    31213    31251    31295    31251    31174 
   31190    31259    31293    31287    31251    31216    31206    31212 
   31251    31317    31307    31197    31117    31140    31186    31186 
   31159    31129    31094    31078    31137    31279    31440    31529 
   31567    31672    31851    31977    31995    31888    31599    31198 
   30871    30701    30667    30730    30780    30728    30665    30746 
   31014    31403    31799    32105    32285    32244    31822    31045 
   30195    29612    29473    29646    29822    29857    29901    30284 
   31299    32811    34128    34499    33708    32220    30919    30473 
   30828    31317    31164    30032    28557    28081    29436    32116 
   34528    35218    34076    32219    30901    30685    31122    31167 
   30275    29146    29041    30148    31303    31634    31503    31565 
   31869    32073    31900    31399    30898    30748    31083    31552 
   31595    31267    31164    31442    31621    31484    31375    31376 
   31110    30495    30013    30254    31279    32351    32501    31602 
   30522    30061    30294    30762    30983    30869    30732    31047 
   31945    32876    33064    32263    31097    30411    30442    30912 
   31449    31746    31622    31064    30429    30365    31090    31974 
   32205    31648    31078    31386    32136    31976    30948    30526 
   31239    32071    31930    30731    29389    28968    29601    30707 
   31853    32644    32815    32575    32084    31371    30654    30222 
   30412    31286    32124    32146    31522    30759    30037    29776 
   30369    31402    32065    31978    31422    30991    31070    31612 
   32166    32205    31693    31090    30777    30726    30719    30685 
   30678    30774    31051    31518    32054    32485    32652    32373 
   31569    30487    29658    29547    30183    31168    31835    31665 
   30936    30580    31174    32239    32805    32485    31662    30825 
   30277    30381    31124    31741    31645    31055    30478    30277 
   30539    30894    30975    31039    31387    31718    31692    31510 
   31595    32040    32432    32232    31437    30581    30121    30161 
   30531    30920    31218    31561    31851    31907    31882    31847 
   31577    31001    30262    29700    29783    30501    31348    32007 
   32343    32174    31603    31048    30873    31099    31433    31642 
   31760    31768    31506    31033    30782    31108    31634    31693 
   31274    30738    30315    30338    31027    32007    32530    32148 
   31226    30568    30508    30738    30801    30542    30289    30510 
   31212    31958    32242    31934    31465    31214    31221    31536 
   31996    32157    31891    31500    31267    31074    30651    30261 
   30453    31090    31483    31259    30650    30207    30300    30759 
   31182    31428    31587    31689    31600    31302    31132    31293 
   31536    31776    32200    32535    32242    31514    30978    30711 
   30500    30434    30721    31337    31897    31976    31556    30927 
   30368    30095    30244    30847    31772    32490    32332    31328 
   30373    30288    30970    31591    31567    31129    30935    31317 
   31912    32121    31837    31225    30461    30068    30472    31340 
   32020    32244    32017    31239    30080    29423    30024    31398 
   32324    32271    31716    31286    31126    31052    30894    30670 
   30492    30535    30997    31820    32545    32599    31835    30780 
   30257    30611    31469    32441    33286    33392    32306    30670 
   29705    29932    30681    31079    31148    31276    31328    31139 
   31113    31573    31966    31361    29825    28575    28579    29751 
   31445    32952    33581    32972    31569    30431    30350    31112 
   31765    31803    31657    31833    32101    31918    31244    30661 
   30667    31037    31247    31348    31560    31525    31063    30771 
   30993    31205    30956    30423    29921    29724    30123    31067 
   32058    32699    33072    33251    33041    32418    31553    30673 
   30188    30321    30781    31040    30786    30384    30514    31178 
   31745    31876    31851    32023    32162    31714    30661    29624 
   29219    29602    30364    30838    30888    31071    31585    31911 
   31827    31738    32004    32549    32848    32413    31465    30705 
   30497    30673    30955    31248    31530    31693    31568    31139 
   30620    30431    30800    31214    31044    30530    30298    30535 
   31018    31328    31255    31106    31239    31518    31598    31509 
   31576    31876    32185    32213    31810    31221    31000    31434 
   32077    32121    31437    30792    30809    31094    30865    30222 
   30018    30620    31509    31976    31868    31510    31189    31023 
   31025    31023    30767    30296    30044    30387    31199    32019 
   32456    32381    31969    31515    31112    30829    30935    31398 
   31708    31556    31136    30812    30840    31106    31280    31330 
   31395    31360    31125    30916    31041    31476    31812    31789 
   31537    31140    30662    30342    30330    30654    31228    31779 
   32107    32178    32022    31673    31133    30586    30465    30904 
   31526    31822    31511    30809    30326    30361    30736    31279 
   31795    31980    31733    31257    30910    30910    31163    31457 
   31695    31799    31707    31496    31307    31197    31095    30952 
   30892    30912    30743    30458    30519    30989    31491    31776 
   31826    31750    31626    31425    31190    30951    30585    30179 
   30254    31153    32397    33093    32876    32111    31352    30855 
   30599    30537    30700    31043    31309    31275    31089    31063 
   31259    31499    31677    31801    31765    31440    30952    30542 
   30370    30553    30925    31112    31052    30917    30770    30744 
   30946    31191    31280    31256    31314    31573    31900    31915 
   31452    30923    30862    31245    31565    31494    31228    31131 
   31162    31036    30916    31202    31847    32456    32645    32250 
   31552    31017    30839    30951    31108    30970    30514    30159 
   30333    31081    31973    32417    32247    31834    31472    31035 
   30481    30177    30454    31062    31401    31299    31153    31183 
   31233    31217    31176    31178    31256    31306    31252    31197 
   31241    31359    31347    31036    30751    30935    31320    31410 
   31294    31236    31253    31429    31845    32217    32120    31514 
   30840    30478    30434    30572    30727    30836    31025    31310 
   31488    31434    31310    31378    31615    31773    31787    31715 
   31490    31137    30917    30963    31174    31388    31384    31041 
   30623    30574    31062    31823    32359    32302    31719    31118 
   30906    30919    30801    30581    30503    30696    31140    31645 
   31930    31889    31688    31564    31537    31413    31102    30807 
   30747    30809    30680    30285    30007    30302    31121    31961 
   32343    32119    31534    31010    30844    31041    31351    31494 
   31450    31436    31576    31764    31766    31502    31187    31041 
   31002    30982    31067    31297    31550    31706    31666    31318 
   30750    30333    30354    30770    31237    31456    31518    31623 
   31727    31710    31521    31230    31004    30937    30944    30863 
   30792    30962    31364    31810    32058    31922    31455    31005 
   30936    31233    31475    31355    31114    31043    31004    30924 
   30882    30902    31040    31251    31380    31375    31303    31189 
   30983    30812    30774    30748    30753    30904    31201    31558 
   31774    31768    31688    31579    31441    31396    31502    31604 
   31563    31491    31549    31564    31259    30738    30435    30630 
   31095    31432    31579    31629    31542    31364    31241    31182 
   31066    30840    30661    30630    30578    30466    30477    30735 
   31239    31796    32130    32240    32327    32418    32389    32215 
   32020    31869    31706    31482    31156    30790    30551    30416 
   30256    30073    29976    30122    30501    30819    30910    30960 
   31156    31371    31361    31158    31025    31149    31450    31692 
   31877    32242    32803    33293    33481    33246    32591    31773 
   31072    30481    29898    29324    28786    28350    28136    28171 
   28368    28722    29376    30289    31094    31473    31527    31664 
   32170    32929    33628    34118    34458    34738    34965    35127 
   35197    35041    34558    33831    32981    32109    31257    30424 
   29631    28903    28275    27785    27492    27479    27689    28012 
   28468    29031    29493    29647    29475    29288    29461    29964 
   30420    30586    30527    30438    30535    30928    31517    32174 
   32792    33214    33466    33728    34079    34605    35289    35820 
   35959    35727    35297    34888    34460    33790    32906    31970 
   31055    30203    29497    28910    28224    27344    26478    25866 
   25562    25540    25864    26597    27544    28323    28760    29049 
   29546    30396    31457    32629    33868    35025    35965    36609 
   36855    36713    36316    35758    35029    34171    33362    32724 
   32215    31753    31193    30419    29559    28890    28505    28327 
   28282    28267    28140    27901    27649    27399    27189    27232 
   27706    28539    29550    30532    31307    31947    32734    33847 
   35213    36612    37847    38705    39020    38782    38045    36838 
   35172    33197    31168    29133    27017    24958    23257    22148 
   21648    21679    22280    23548    25490    27980    30735    33405 
   35673    37374    38564    39285    39445    39051    38318    37336 
   36009    34346    32425    30354    28435    27063    26387    26212 
   26329    26689    27190    27673    28112    28539    28996    29625 
   30510    31463    32165    32502    32628    32728    32921    33303 
   33841    34368    34771    35059    35302    35486    35402    34817 
   33682    32139    30488    29103    28243    27814    27486    27140 
   26900    26813    26843    27005    27334    27818    28460    29274 
   30215    31274    32464    33690    34819    35878    36872    37570 
   37743    37339    36391    35023    33409    31664    29890    28332 
   27233    26520    25949    25502    25400    25834    26798    28013 
   29151    30144    31067    31943    32791    33631    34434    35162 
   35797    36247    36342    36022    35365    34488    33535    32595 
   31633    30647    29721    28900    28227    27754    27546    27689 
   28190    28857    29481    29929    30044    29870    29803    30202 
   31021    31855    32313    32427    32506    32659    32719    32563 
   32310    32161    32150    32162    32069    31857    31658    31541 
   31426    31256    31044    30746    30337    29938    29729    29756 
   29917    30168    30578    31137    31753    32389    32973    33367 
   33517    33434    33107    32587    32028    31542    31097    30612 
   30102    29651    29312    29130    29122    29262    29613    30314 
   31305    32251    32852    33045    32853    32298    31529    30792 
   30246    29868    29620    29592    29886    30484    31217    31816 
   32088    32055    31865    31631    31410    31283    31287    31324 
   31341    31445    31695    31984    32201    32375    32543    32695 
   32840    32926    32890    32784    32571    32063    31332    30608 
   29948    29385    28900    28478    28247    28169    28146    28314 
   28802    29515    30198    30717    31185    31730    32390    33012 
   33342    33386    33367    33453    33733    34175    34577    34682 
   34373    33716    32880    32040    31291    30582    29772    28860 
   27967    27190    26588    26222    26200    26636    27495    28571 
   29704    30888    32111    33203    33986    34422    34611    34726 
   34882    35032    35037    34789    34253    33531    32810    32190 
   31585    30844    29979    29169    28530    28069    27781    27677 
   27818    28262    28899    29559    30196    30821    31417    31947 
   32368    32678    32891    32971    32876    32601    32170    31708 
   31337    31090    31028    31255    31719    32140    32278    32159 
   31880    31549    31314    31187    31063    30883    30701    30612 
   30627    30684    30740    30797    30869    30983    31072    30998 
   30797    30645    30612    30678    30834    31079    31384    31708 
   32007    32185    32186    32074    31958    31864    31711    31500 
   31368    31407    31621    31963    32306    32493    32472    32277 
   31895    31291    30514    29646    28803    28198    27920    27884 
   28085    28582    29334    30244    31209    32084    32724    33139 
   33430    33590    33573    33426    33243    33072    32917    32713 
   32368    31873    31338    30913    30638    30469    30407    30437 
   30616    31000    31403    31668    31760    31652    31357    30902 
   30350    29785    29299    29015    28941    29093    29511    30090 
   30690    31153    31495    31876    32243    32474    32528    32432 
   32248    32017    31869    31878    31947    31972    31908    31816 
   31806    31841    31788    31560    31201    30823    30499    30261 
   30121    30136    30396    30882    31460    31972    32320    32448 
   32383    32300    32324    32351    32184    31803    31352    30921 
   30514    30134    29798    29521    29319    29197    29151    29191 
   29393    29856    30549    31287    31931    32472    32907    33158 
   33218    33143    32899    32428    31824    31261    30861    30607 
   30370    30136    30045    30161    30399    30721    31172    31669 
   32038    32251    32405    32528    32552    32409    32098    31695 
   31306    31008    30808    30677    30604    30611    30713    30859 
   30928    30859    30700    30503    30337    30273    30307    30388 
   30489    30622    30842    31141    31440    31677    31834    31972 
   32186    32448    32624    32611    32417    32163    31969    31820 
   31719    31710    31706    31568    31309    30986    30607    30244 
   29983    29841    29849    30006    30202    30387    30655    31085 
   31626    32113    32377    32393    32285    32170    32039    31878 
   31768    31696    31541    31315    31104    30870    30599    30369 
   30191    29999    29845    29809    29855    29932    30073    30315 
   30667    31140    31677    32178    32563    32798    32890    32841 
   32652    32378    32049    31588    31018    30538    30289    30203 
   30164    30172    30292    30535    30836    31129    31384    31614 
   31868    32151    32359    32364    32157    31866    31654    31564 
   31533    31527    31548    31545    31522    31492    31341    31012 
   30647    30416    30391    30500    30562    30468    30299    30262 
   30473    30807    31089    31303    31521    31772    32013    32186 
   32240    32161    32008    31861    31706    31486    31194    30901 
   30688    30607    30676    30846    31000    31066    31075    31067 
   31018    30925    30869    30897    30955    30978    30952    30885 
   30861    31013    31286    31511    31711    31973    32274    32556 
   32745    32761    32566    32163    31634    31083    30532    30002 
   29583    29340    29290    29447    29771    30145    30514    30921 
   31340    31660    31835    31920    32009    32132    32229    32321 
