Origin Time       2025/03/28 03:50:00
Lat.              35.403
Long.             140.360
Depth. (km)       54
Mag.              4.4
Station Code      CHB028
Station Lat.      35.7664
Station Long.     139.9655
Station Height(m) 26
Record Time       2025/03/28 03:50:52
Sampling Freq(Hz) 100Hz
Duration Time(s)  65
Dir.              N-S
Scale Factor      7845(gal)/8223790
Max. Acc. (gal)   19.728
Last Correction   2025/03/28 03:50:52
Memo.             
[...]
   18792    18809    18787    18751    18781    18840    18843    18790 
   18750    18729    18739    18767    18762    18754    18804    18837 
   18793    18748    18756    18760    18758    18778    18808    18814 
   18812    18836    18813    18736    18729    18759    18766    18801 
   18831    18810    18781    18766    18763    18754    18748    18793 
   18841    18813    18766    18756    18752    18775    18820    18809 
   18763    18751    18773    18797    18801    18804    18809    18781 
   18751    18769    18792    18773    18767    18789    18769    18759 
   18789    18778    18748    18771    18805    18800    18781    18783 
   18805    18804    18779    18777    18789    18800    18813    18819 
   18800    18786    18797    18785    18778    18814    18814    18777 
   18769    18787    18814    18825    18809    18787    18770    18777 
   18808    18817    18806    18802    18783    18756    18750    18777 
   18812    18821    18809    18800    18787    18759    18758    18801 
   18820    18821    18827    18813    18800    18793    18793    18819 
   18833    18816    18810    18801    18765    18762    18783    18797 
   18816    18800    18786    18821    18837    18810    18775    18760 
   18792    18836    18846    18802    18733    18729    18810    18844 
   18814    18790    18773    18767    18766    18785    18821    18835 
   18825    18786    18756    18783    18812    18793    18783    18819 
   18804    18769    18802    18814    18792    18786    18773    18766 
   18770    18794    18847    18862    18798    18724    18711    18748 
   18821    18875    18846    18786    18758    18774    18797    18777 
   18769    18794    18800    18802    18819    18798    18769    18789 
   18802    18771    18769    18800    18789    18762    18773    18783 
   18779    18790    18796    18773    18783    18835    18825    18786 
   18804    18809    18775    18751    18738    18731    18751    18793 
   18819    18819    18810    18805    18794    18781    18770    18767 
   18794    18825    18817    18808    18801    18748    18693    18701 
   18759    18801    18824    18852    18833    18783    18777    18771 
   18765    18787    18810    18817    18774    18709    18724    18785 
   18810    18832    18831    18782    18774    18809    18796    18759 
   18782    18806    18763    18746    18790    18804    18783    18778 
   18789    18783    18770    18789    18794    18767    18777    18808 
   18817    18827    18823    18769    18712    18739    18819    18833 
   18787    18766    18756    18754    18777    18793    18794    18804 
   18836    18840    18774    18708    18712    18778    18817    18794 
   18785    18805    18789    18729    18724    18793    18847    18836 
   18775    18720    18736    18792    18824    18825    18794    18771 
   18783    18779    18771    18801    18805    18742    18712    18781 
   18835    18797    18751    18751    18785    18817    18804    18774 
   18774    18770    18755    18783    18833    18809    18740    18736 
   18782    18797    18793    18802    18806    18804    18790    18785 
   18809    18831    18812    18778    18755    18735    18750    18804 
   18836    18820    18804    18813    18798    18756    18763    18804 
   18806    18775    18754    18760    18781    18778    18775    18805 
   18823    18820    18829    18820    18789    18763    18756    18739 
   18746    18824    18859    18817    18798    18782    18765    18777 
   18817    18840    18802    18787    18806    18786    18767    18789 
   18789    18787    18832    18833    18796    18805    18790    18744 
   18760    18779    18754    18759    18804    18819    18817    18835 
   18839    18809    18771    18778    18801    18786    18762    18752 
   18747    18752    18778    18816    18850    18843    18792    18755 
   18754    18763    18769    18785    18816    18829    18810    18794 
   18800    18787    18765    18760    18760    18767    18785    18779 
   18774    18789    18813    18839    18824    18775    18765    18779 
   18763    18755    18789    18808    18801    18810    18832    18823 
   18801    18779    18724    18719    18796    18829    18800    18763 
   18733    18743    18820    18871    18844    18817    18801    18770 
   18752    18765    18782    18767    18756    18789    18805    18793 
   18794    18800    18793    18790    18797    18785    18743    18716 
   18759    18828    18850    18836    18798    18744    18712    18731 
   18787    18813    18786    18755    18742    18759    18793    18814 
   18819    18774    18746    18775    18781    18771    18806    18852 
   18873    18859    18837    18840    18843    18806    18744    18685 
   18671    18711    18743    18719    18580    18326    18192    18435 
   18975    19419    19386    18897    18435    18476    19039    19703 
   19919    19454    18616    17883    17560    17783    18414    19102 
   19515    19350    18619    17928    17871    18490    19423    20090 
   20062    19488    18846    18501    18567    18790    18763    18318 
   17741    17622    18199    18928    19083    18693    18451    18746 
   19214    19350    19137    18856    18765    19097    19823    20362 
   20100    19060    17851    17220    17388    17946    18522    18829 
   18679    18412    18613    19372    20128    20198    19499    18654 
   18122    17776    17744    18553    19878    20440    19556    17979 
   17113    17525    18411    18837    18759    18509    18345    18554 
   19210    20004    20412    19936    18779    18049    18486    19633 
   20542    20353    18759    16688    15611    15925    17014    18341 
   19603    20587    21122    20930    20042    19084    18561    18312 
   18033    17749    17685    18110    19025    19728    19457    18551 
   18000    18011    18094    18162    18569    19354    19998    19919 
   19330    19052    19302    19553    19399    18806    18044    17558 
   17417    17334    17436    18102    19051    19662    19847    19827 
   19734    19677    19498    18924    18323    18210    18515    18962 
   18989    18080    17012    17020    18131    19522    20386    20399 
   19954    19462    18862    18311    18397    19160    19758    19577 
   18805    17810    16926    16596    17047    17971    18760    18972 
   18700    18547    18864    19325    19553    19529    19508    19800 
   20351    20772    20628    19657    18127    16663    15678    15363 
   15804    16839    18160    19530    20721    21432    21506    21165 
   20779    20420    19890    19121    18426    18077    17878    17518 
   17014    16653    16622    16814    17192    17894    18836    19521 
   19461    18835    18496    19094    20248    21087    21236    20888 
   20332    19593    18580    17539    16929    16903    17254    17771 
   18362    18949    19479    19928    20318    20683    20914    20738 
   20004    19016    18219    17672    17162    16648    16378    16542 
   17066    17689    18133    18295    18241    18090    18003    18184 
   18817    19951    21265    22121    22177    21690    21034    20252 
   19106    17470    15800    14845    14879    15703    17020    18497 
   19916    21107    21739    21672    21181    20571    19963    19213 
   18037    16587    15687    15971    17130    18426    19336    19592 
   19291    18766    18274    18135    18631    19492    20128    20385 
   20441    20178    19383    18311    17541    17420    17764    18049 
   18050    18075    18391    18954    19523    19789    19700    19491 
   19344    19309    19284    19126    18855    18551    18202    17932 
   17937    18102    18148    18010    17963    18370    19240    20196 
   20745    20605    19908    18891    17753    16945    16999    17972 
   19284    20173    20274    19769    19013    18233    17658    17444 
   17388    17315    17513    18254    19398    20565    21423    21857 
   21852    21228    19836    18014    16394    15394    15298    16087 
   17161    18065    18786    19171    19130    18949    19013    19595 
   20540    21203    20966    19766    18279    17356    17262    17726 
   18408    19145    19851    20178    19811    19078    18559    18346 
   18241    18265    18570    19064    19292    18935    18276    17830 
   17852    18261    18748    18912    18666    18369    18207    17941 
   17508    17328    17903    19126    20320    21064    21334    21177 
   20761    20173    19299    18239    17359    16964    17167    17832 
   18623    19201    19394    19303    19098    18832    18549    18293 
   18042    17793    17726    18087    18760    19344    19683    19905 
   20083    20058    19542    18607    17778    17397    17419    17693 
   17986    18204    18503    18974    19425    19523    19198    18763 
   18565    18690    18944    19124    19269    19523    19940    20444 
   20738    20538    19907    19030    17980    16861    15936    15573 
   15985    16943    18033    19036    19915    20648    21143    21091 
   20231    18844    17510    16565    16141    16451    17508    18839 
   19855    20301    20237    19912    19638    19464    19188    18774 
   18435    18401    18666    18989    19257    19568    19942    20167 
   19947    19226    18328    17668    17470    17734    18296    18867 
   19030    18658    18338    18535    18991    19404    19448    18789 
   17876    17466    17635    18100    18601    18867    18874    18738 
   18511    18407    18646    19064    19456    19812    19973    19854 
   19669    19392    18881    18331    17942    17761    17841    18037 
   18148    18279    18623    19238    19989    20456    20281    19535 
   18542    17633    17064    16933    17265    17980    18705    19083 
   19215    19345    19476    19400    19013    18613    18574    18964 
   19653    20321    20511    20001    19048    18204    17899    18129 
   18543    18846    18937    18823    18654    18666    18897    19124 
   19145    18976    18886    19101    19390    19369    18983    18418 
   17906    17667    17763    17995    18150    18198    18126    17996 
   18014    18250    18688    19271    19724    19785    19543    19269 
   19137    19136    19070    18820    18520    18382    18519    18836 
   19137    19307    19299    19198    19103    18995    18935    19111 
   19533    19835    19645    18970    18080    17216    16528    16255 
   16650    17577    18457    18774    18607    18581    19122    20029 
   20857    21367    21421    20885    19961    19111    18477    17913 
   17417    16980    16506    16229    16569    17523    18627    19429 
   19815    19943    20005    20052    20052    19950    19672    19194 
   18642    18234    18073    18092    18144    18091    17971    17895 
   17960    18261    18640    18936    19322    19831    20198    20386 
   20434    20198    19650    18894    18195    17965    18157    18345 
   18346    18153    17880    17815    18135    18798    19473    19747 
   19629    19350    18964    18557    18281    18135    18060    18014 
   17928    17914    18231    18889    19645    20236    20383    19924 
   19086    18400    18192    18311    18395    18238    18011    18049 
   18457    19057    19558    19660    19309    18805    18430    18289 
   18384    18520    18559    18596    18658    18721    18918    19303 
   19647    19743    19526    18967    18382    18256    18565    18959 
   19134    18886    18416    18229    18477    18856    19071    19083 
   18960    18619    18044    17604    17598    17922    18369    18742 
   18886    18832    18752    18824    19215    19905    20424    20439 
   20175    19884    19565    19153    18612    17969    17273    16671 
   16507    16961    17801    18677    19426    19967    20198    20127 
   19889    19533    19075    18682    18357    17933    17490    17300 
   17566    18269    19107    19770    20204    20367    20178    19781 
   19380    18999    18658    18365    17972    17420    16978    17031 
   17632    18499    19341    19966    20240    20004    19265    18438 
   17963    17995    18516    19298    19997    20366    20282    19807 
   19118    18343    17572    16919    16530    16567    17069    17901 
   18828    19583    19996    20135    20155    20112    20056    20005 
   19781    19230    18485    17847    17539    17562    17761    17967 
   18090    18199    18490    19025    19554    19749    19526    19149 
   19001    19156    19387    19526    19525    19373    19111    18820 
   18616    18522    18439    18316    18183    18038    17825    17632 
   17697    18138    18827    19469    19890    20197    20468    20499 
   20096    19348    18523    17824    17248    16829    16700    16830 
   17103    17608    18431    19318    19813    19685    19147    18669 
   18624    19057    19664    20035    19948    19461    18840    18391 
   18299    18549    19002    19496    19889    20089    19973    19512 
   18927    18474    18231    18202    18399    18704    18989    19161 
   19121    18895    18495    17869    17201    16777    16698    16893 
   17240    17621    18010    18333    18446    18408    18476    18790 
   19245    19674    20100    20691    21467    22234    22761    22842 
   22333    21254    19911    18694    17691    16756    15786    14727 
   13737    13347    13891    15088    16575    18320    20322    22387 
   24327    26126    27761    28858    28584    26130    21547    15823 
   10211     5856     3439     2829     3680     5961     9549    14107 
   19364    25023    30604    35357    38452    39467    38392    35318 
   30439    24156    17301    11017     6060     2544      378     -502 
     -86     1877     5560    10617    16478    22447    27637    31449 
   33663    34199    33280    31348    28702    25582    22349    19265 
   16384    13863    12048    11148    11121    11743    12761    14069 
   15549    16920    18114    19365    20717    21938    22766    22933 
   22283    20946    19234    17409    15653    14206    13477    13809 
   15141    17136    19418    21562    23118    23851    23958    23718 
   23143    22154    20734    18954    17019    15267    13929    13007 
   12538    12680    13555    15310    17928    20968    23899    26393 
   28063    28548    27824    26094    23649    20812    17806    14832 
   11990     9333     7292     6547     7543    10368    14658    19603 
   24216    27707    29674    30021    28894    26735    24052    21012 
   17551    13838    10436     7998     7021     7851    10335    13792 
   17578    21069    23666    25222    25809    25477    24568    23510 
   22447    21474    20628    19781    18866    17988    17340    17078 
   17207    17568    18038    18509    18898    19307    19664    19657 
   19391    19292    19584    20177    20578    20205    18958    17147 
   15153    13506    12943    13825    15715    17867    19824    21443 
   22677    23496    23765    23268    21990    20133    18087    16289 
   14958    14164    13890    14002    14447    15213    16301    17717 
   19149    20189    20756    21041    21336    21872    22585    23095 
   23037    22246    20763    18914    17123    15682    14760    14481 
   14967    16125    17720    19523    21154    22234    22696    22530 
   21635    20206    18747    17629    16920    16491    16222    16151 
   16379    17027    18094    19269    20201    20765    20988    20945 
   20717    20441    20252    19997    19353    18242    16850    15469 
   14530    14407    15132    16352    17647    18805    19662    20090 
   20235    20343    20368    20123    19704    19377    19345    19689 
   20166    20506    20673    20525    20051    19427    18742    18281 
   17963    17389    16775    16421    16364    16557    17047    18090 
   19419    20457    21007    20999    20553    20139    19990    19780 
   19288    18704    18200    18045    18279    18576    18943    19429 
   19661    19349    18647    17928    17393    17126    17231    17655 
   18181    18569    18738    18778    18658    18342    18075    18065 
   18376    19068    19958    20648    20941    20844    20410    19869 
   19484    19272    19134    19037    19029    19221    19642    20121 
   20340    20093    19410    18303    16860    15414    14129    13058 
   12436    12340    12807    14033    16070    18735    21558    24025 
   25867    26852    26851    25987    24471    22615    20727    18931 
   17346    16152    15357    14767    14216    13806    13764    14100 
   14748    15859    17454    19260    21074    22731    23927    24459 
   24308    23494    22027    20101    18161    16578    15471    14840 
   14642    14936    15813    17092    18504    19889    21057    21789 
   21941    21451    20362    18966    17783    17207    17250    17706 
   18439    19388    20281    20814    20980    20846    20432    19807 
   18944    17836    16681    15688    15107    15165    15664    16276 
   16981    17726    18316    18762    19268    19975    20918    21976 
   22840    23319    23417    23153    22549    21581    20259    18805 
   17509    16584    16081    15849    15788    16032    16590    17153 
   17463    17408    17020    16664    16623    16788    16910    16902 
   16968    17379    18246    19441    20652    21681    22447    22816 
   22824    22666    22293    21609    20783    19912    18890    17806 
   16902    16297    16047    16146    16488    16889    17076    16977 
   16887    17072    17614    18592    19942    21369    22555    23252 
   23369    23072    22512    21652    20394    18773    17020    15414 
   14173    13392    13062    13252    14037    15303    16848    18473 
   19982    21178    21918    22237    22256    22044    21621    20988 
   20233    19472    18713    17960    17192    16490    16182    16490 
   17257    18179    19076    19908    20582    20935    20895    20533 
   19900    19056    18218    17540    17014    16687    16708    17158 
   17918    18759    19526    20174    20617    20698    20383    19815 
   19136    18439    17861    17533    17432    17477    17606    17761 
   17965    18268    18685    19156    19488    19599    19587    19537 
   19553    19662    19684    19542    19376    19271    19215    19094 
   18814    18466    18153    17872    17587    17269    17000    16981 
   17329    18026    18913    19791    20580    21213    21524    21456 
   21153    20765    20310    19751    19067    18300    17604    17072 
   16654    16285    15982    15927    16282    16956    17712    18361 
   18851    19246    19498    19441    19202    19232    19726    20436 
   21084    21512    21601    21436    21207    20980    20726    20278 
   19398    18134    16771    15596    14783    14304    14192    14534 
   15249    16266    17458    18608    19688    20775    21730    22296 
   22414    22207    21794    21267    20637    19865    18959    17990 
   17037    16125    15331    14778    14574    14814    15496    16544 
   17941    19654    21408    22777    23579    23853    23720    23390 
   22905    22145    21022    19519    17841    16363    15313    14621 
   14088    13606    13211    13077    13556    14913    16981    19326 
   21563    23387    24603    25131    24968    24213    23020    21497 
   19746    17960    16407    15287    14750    14885    15464    16214 
   17120    17991    18659    19353    20056    20507    20729    20700 
