Origin Time       2025/03/28 03:50:00
Lat.              35.403
Long.             140.360
Depth. (km)       54
Mag.              4.4
Station Code      CHB002
Station Lat.      35.7871
Station Long.     139.9024
Station Height(m) 12
Record Time       2025/03/28 03:51:01
Sampling Freq(Hz) 100Hz
Duration Time(s)  60
Dir.              U-D
Scale Factor      7845(gal)/8223790
Max. Acc. (gal)   2.760
Last Correction   2025/03/28 03:51:00
Memo.             
   17859    17856    17860    17859    17851    17865    17892    17890 
   17867    17855    17857    17865    17874    17869    17867    17884 
   17890    17871    17851    17837    17842    17865    17879    17878 
   17871    17867    17867    17872    17876    17867    17861    17868 
   17865    17853    17853    17860    17860    17852    17844    17847 
   17864    17871    17865    17871    17882    17875    17860    17861 
   17876    17883    17882    17887    17884    17869    17860    17859 
   17861    17861    17856    17868    17884    17878    17860    17860 
   17872    17875    17868    17869    17874    17863    17849    17853 
   17863    17868    17867    17860    17857    17860    17861    17867 
   17876    17871    17857    17864    17886    17896    17887    17865 
   17845    17841    17848    17853    17867    17887    17883    17855 
   17842    17863    17883    17878    17868    17879    17888    17883 
   17882    17878    17864    17859    17861    17865    17876    17878 
   17865    17868    17874    17859    17848    17855    17861    17864 
   17872    17871    17855    17856    17871    17867    17861    17871 
   17871    17861    17863    17872    17886    17894    17875    17845 
   17838    17848    17865    17890    17891    17864    17857    17875 
   17880    17876    17880    17872    17859    17869    17882    17875 
   17869    17860    17845    17849    17871    17882    17875    17861 
   17856    17861    17867    17865    17859    17863    17884    17894 
   17878    17859    17845    17840    17849    17861    17865    17875 
   17884    17874    17855    17849    17869    17888    17871    17855 
   17868    17882    17871    17863    17883    17890    17857    17832 
   17842    17878    17896    17878    17857    17859    17857    17865 
   17890    17882    17841    17828    17860    17892    17894    17867 
   17832    17833    17879    17902    17890    17880    17863    17838 
   17842    17872    17882    17863    17855    17869    17874    17871 
   17871    17856    17847    17869    17888    17883    17872    17859 
   17860    17884    17892    17869    17861    17875    17879    17879 
   17880    17872    17865    17857    17848    17863    17884    17880 
   17861    17856    17875    17891    17869    17844    17853    17865 
   17857    17853    17867    17883    17874    17848    17860    17894 
   17890    17855    17833    17856    17894    17894    17876    17876 
   17864    17847    17865    17895    17898    17879    17855    17840 
   17845    17851    17848    17861    17892    17898    17865    17852 
   17883    17880    17842    17852    17887    17886    17857    17836 
   17851    17892    17902    17855    17807    17824    17871    17892 
   17896    17894    17874    17857    17851    17855    17886    17892 
   17834    17818    17872    17890    17869    17867    17864    17859 
   17863    17860    17860    17878    17886    17865    17856    17855 
   17828    17836    17910    17929    17857    17813    17837    17868 
   17898    17911    17867    17818    17841    17884    17888    17887 
   17891    17855    17805    17834    17921    17944    17871    17803 
   17833    17894    17894    17860    17849    17855    17863    17871 
   17864    17871    17902    17890    17840    17845    17895    17887 
   17837    17837    17864    17869    17876    17875    17868    17883 
   17871    17822    17822    17882    17918    17903    17890    17888 
   17844    17805    17847    17914    17918    17876    17855    17859 
   17833    17809    17884    17975    17925    17815    17801    17834 
   17856    17901    17938    17923    17895    17865    17818    17826 
   17911    17945    17867    17803    17826    17867    17902    17930 
   17905    17838    17791    17788    17826    17894    17949    17937 
   17876    17833    17820    17824    17857    17896    17909    17899 
   17875    17840    17826    17848    17874    17895    17892    17849 
   17829    17871    17910    17918    17917    17878    17822    17822 
   17867    17905    17918    17899    17851    17809    17802    17836 
   17882    17899    17878    17840    17822    17834    17868    17918 
   17928    17878    17844    17856    17882    17899    17892    17869 
   17867    17887    17884    17851    17837    17857    17871    17853 
   17832    17837    17859    17861    17855    17860    17867    17868 
   17880    17895    17892    17879    17879    17886    17882    17869 
   17868    17871    17860    17847    17844    17848    17863    17871 
   17855    17836    17842    17868    17879    17874    17874    17864 
   17848    17856    17886    17914    17914    17882    17853    17845 
   17845    17864    17892    17890    17857    17851    17875    17867 
   17834    17840    17875    17883    17863    17849    17857    17872 
   17879    17884    17883    17868    17847    17840    17859    17879 
   17880    17872    17857    17848    17857    17876    17892    17882 
   17841    17815    17840    17883    17902    17894    17880    17879 
   17886    17882    17852    17829    17851    17872    17871    17875 
   17879    17855    17829    17842    17871    17886    17888    17882 
   17863    17847    17860    17880    17880    17876    17864    17841 
   17845    17868    17869    17856    17847    17845    17849    17865 
   17888    17896    17884    17863    17845    17852    17875    17880 
   17875    17880    17874    17847    17826    17824    17848    17898 
   17923    17890    17849    17861    17886    17867    17841    17865 
   17955    18071    18152    18158    18122    18094    18034    17972 
   18103    18427    18604    18261    17351    16290    15685    15936 
   17135    18804    19816    19357    17817    16394    16144    17190 
   18661    19596    19612    18756    17439    16337    15948    16455 
   17645    18781    19078    18414    17285    16384    16426    17770 
   19705    20760    20078    18272    16792    16533    17250    18216 
   18956    19233    18840    17849    16713    15946    15924    16703 
   17965    19109    19367    18601    17610    17043    17045    17679 
   18563    18937    18468    17618    17065    16800    16652    16919 
   17666    18451    18798    18536    17875    17261    17209    17756 
   18381    18728    18650    18180    17832    17988    18411    18640 
   18476    18061    17447    16536    15817    16114    17424    18886 
   19788    19907    19256    18241    17586    17631    18150    18605 
   18380    17536    16807    16479    16522    17217    18350    18868 
   18202    17042    16492    16996    18276    19546    19778    18624 
   16988    16150    16494    17397    18108    18287    17991    17494 
   17016    16858    17338    18161    18720    18940    19020    18816 
   18287    17841    17751    17938    18252    18476    18388    18073 
   17687    17127    16649    16750    17289    17922    18497    18632 
   18108    17338    16853    16996    17919    19049    19300    18411 
   17057    16001    15882    16933    18520    19615    19755    19094 
   18038    17159    16869    17240    18013    18543    18490    18137 
   17676    17161    16915    17226    17857    18347    18509    18276 
   17683    17122    17000    17404    18081    18771    19435    19766 
   19192    17911    16937    16857    17282    17555    17491    17373 
   17423    17633    18010    18384    18252    17560    17057    17320 
   18091    18832    19206    18898    17923    16929    16607    17073 
   17853    18404    18524    18301    17976    17725    17563    17554 
   17632    17547    17443    17621    17894    18056    18218    18358 
   18373    18300    18058    17652    17471    17570    17529    17429 
   17637    17938    17956    17884    17896    17794    17859    18426 
   18901    18652    17821    16920    16615    17275    18256    18615 
   18355    17848    17172    16706    16922    17614    18234    18553 
   18598    18395    18044    17929    18268    18527    18146    17429 
   16973    16919    17128    17460    17770    18083    18492    18771 
   18705    18365    17733    16972    16737    17261    18006    18573 
   18909    18771    17965    17030    16903    17710    18596    18882 
   18689    18372    17982    17567    17450    17645    17675    17347 
   17145    17423    17810    17933    17946    17944    17740    17494 
   17702    18389    18847    18423    17313    16375    16345    17396 
   18850    19506    18949    17860    16981    16721    17190    17992 
   18507    18558    18357    18068    17848    17868    17984    17875 
   17545    17259    17281    17624    17998    18285    18580    18779 
   18785    18604    18171    17647    17392    17460    17682    17836 
   17722    17490    17541    17865    18042    18025    18110    18206 
   18029    17602    17134    16869    16965    17454    18152    18526 
   18274    17822    17653    17763    17980    18161    18042    17496 
   16935    16985    17811    18900    19446    19147    18307    17324 
   16703    17026    18184    19275    19680    19344    18285    17019 
   16421    16518    16726    16893    17145    17509    18096    18644 
   18554    17987    17474    17113    17026    17277    17702    18295 
   18970    19240    18725    17718    16961    17039    17914    18846 
   19047    18489    17671    16964    16630    16775    17282    17986 
   18459    18350    17934    17536    17355    17632    18156    18486 
   18569    18559    18607    18715    18539    17847    17189    17177 
   17448    17556    17798    18121    18042    17707    17535    17620 
   17977    18334    18142    17533    17320    17695    18250    18777 
   19039    18738    17950    17051    16394    16240    16811    17844 
   18588    18681    18269    17666    17331    17558    18022    18130 
   18034    18211    18288    17838    17257    16953    16962    17327 
   17968    18496    18675    18547    18075    17382    16974    17329 
   18472    19788    20240    19431    18189    17239    16591    16495 
   17100    17802    18052    17922    17629    17262    17109    17451 
   18106    18597    18580    18088    17512    17281    17433    17548 
   17359    17108    17162    17622    18253    18621    18469    17984 
   17598    17536    17811    18269    18484    18369    18369    18571 
   18590    18242    17687    17127    16772    16830    17273    17888 
   18342    18341    18175    18312    18469    18274    18149    18324 
   18269    17734    17224    17290    17882    18428    18451    17998 
   17417    16974    17000    17601    18183    18327    18277    18050 
   17459    16853    16823    17467    18347    18874    18774    18211 
   17490    17019    17207    17921    18445    18293    17768    17392 
   17401    17919    18701    18994    18399    17481    17057    17292 
   17832    18262    18253    17809    17377    17405    17813    18104 
   18057    17948    17923    17926    18085    18399    18612    18558 
   18156    17489    17030    17111    17486    17915    18242    18061 
   17486    17092    16947    17076    17786    18760    19211    18967 
   18365    17718    17359    17304    17170    17038    17348    17963 
   18324    18246    17876    17493    17425    17724    18145    18424 
   18463    18361    18199    17977    17801    17830    17952    17886 
   17610    17424    17583    17984    18361    18574    18442    17879 
   17334    17351    17853    18323    18328    17894    17452    17274 
   17312    17513    17744    17797    17813    17948    17999    17932 
   17884    17793    17648    17539    17473    17585    18007    18454 
   18636    18596    18284    17733    17334    17246    17346    17683 
   18111    18148    17878    17874    18152    18331    18408    18388 
   18004    17478    17400    17790    18141    18149    17972    17801 
   17648    17610    17722    17772    17632    17455    17456    17725 
   18153    18412    18256    17761    17174    16883    17231    18065 
   18769    18814    18311    17706    17230    17042    17251    17753 
   18310    18580    18354    17879    17609    17667    17899    18246 
   18526    18360    17863    17518    17383    17383    17653    18015 
   18123    18056    18034    18004    17849    17618    17437    17421 
   17568    17833    18150    18245    18010    17774    17825    18104 
   18264    18119    17917    17855    17892    17986    18053    18018 
   17979    18049    17955    17448    17004    17124    17593    17918 
   17892    17694    17653    17949    18424    18735    18592    17961 
   17290    17103    17332    17636    17898    18048    17919    17628 
   17508    17643    17960    18337    18517    18407    18187    18000 
   17851    17753    17805    17932    17941    17861    17733    17497 
   17254    17126    17158    17423    17946    18493    18696    18453 
   17828    17043    16819    17732    19134    19888    19712    18840 
   17521    16367    15950    16241    17026    18073    18850    18867 
   18187    17280    16684    16891    17925    19041    19494    19221 
   18505    17664    17011    16698    16733    17130    17890    18724 
   19055    18738    18235    17809    17563    17906    18738    19167 
   18670    17581    16478    15934    16448    17876    19269    19726 
   19009    17533    16216    15861    16488    17566    18594    19144 
   18867    17990    17286    17200    17543    18003    18230    17915 
   17282    16862    16887    17319    17999    18601    18864    18804 
   18511    18112    17890    17961    18150    18238    18218    18202 
   18154    17988    17844    17878    17905    17716    17425    17166 
   16960    16984    17329    17679    17732    17563    17444    17585 
   17906    18222    18623    19157    19387    18949    18079    17189 
   16661    16829    17502    18173    18674    18862    18508    17923 
   17574    17397    17324    17562    18090    18526    18441    17798 
   17089    16787    16950    17518    18314    18821    18632    17883 
   17061    16737    17172    18088    18986    19257    18574    17589 
   17163    17200    17305    17539    17956    18337    18504    18492 
   18432    18354    18091    17591    17109    16866    16942    17406 
   17996    18137    17714    17293    17365    17875    18455    18779 
   18796    18612    18250    17874    17756    17784    17695    17644 
   17824    18083    18323    18492    18337    17856    17408    17227 
   17371    17766    18073    17971    17593    17280    17016    16852 
   17235    18144    18898    19043    18546    17660    17057    17292 
   18015    18458    18322    17753    17130    16811    16906    17359 
   17930    18323    18454    18381    18212    18103    18222    18486 
   18605    18434    17959    17393    17200    17490    17938    18247 
   18247    17896    17464    17405    17751    17977    17794    17413 
   17024    16696    16573    16702    16993    17521    18245    18775 
   18937    18918    18755    18328    17811    17616    17841    18196 
   18416    18439    18323    18115    17891    17824    17905    17896 
   17793    17718    17568    17321    17238    17604    18318    18717 
   18412    17852    17539    17582    17987    18590    18958    18711 
   17967    17343    17248    17528    17915    18187    18042    17481 
   16937    16791    17151    17845    18411    18495    18243    17917 
   17591    17447    17591    17818    17925    17766    17356    17103 
   17297    17702    18023    18168    18065    17747    17443    17464 
   18029    19014    19838    19905    19221    18243    17460    17250 
   17595    17987    17998    17656    17158    16757    16780    17305 
   17944    18237    18202    18058    17813    17599    17683    17968 
   18141    18090    17895    17662    17586    17902    18442    18723 
   18499    17926    17370    17145    17213    17369    17640    18080 
   18473    18578    18445    18342    18289    18002    17366    16636 
   16270    16486    17024    17521    17879    18206    18463    18562 
   18639    18696    18567    18384    18339    18330    18247    18125 
   17955    17626    17039    16424    16245    16615    17259    17968 
   18563    18762    18571    18388    18343    18225    18014    17938 
   18137    18504    18716    18526    18015    17408    16887    16621 
   16610    16741    17032    17477    17926    18252    18343    18204 
   18004    17876    17795    17666    17460    17242    17135    17289 
   17658    18061    18420    18669    18782    18754    18534    18226 
   17940    17674    17610    17949    18500    18878    18909    18675 
   18296    17841    17474    17307    17266    17298    17347    17302 
   17271    17389    17566    17815    18195    18399    18134    17663 
   17433    17425    17451    17660    18077    18397    18497    18432 
   18206    17892    17680    17680    17791    17817    17709    17618 
   17694    17876    18006    18011    17892    17645    17335    17140 
   17188    17433    17760    18095    18405    18630    18689    18505 
   18054    17602    17544    17891    18293    18516    18503    18203 
   17702    17257    17014    16951    17109    17517    17976    18284 
   18399    18293    18023    17799    17689    17602    17617    17833 
   18096    18214    18134    17902    17730    17830    17977    17841 
   17621    17602    17643    17663    17855    18171    18292    18176 
   18102    18150    18156    18075    18010    17991    17925    17672 
   17320    17196    17355    17493    17575    17802    17996    17928 
   17815    17879    18033    18247    18508    18547    18260    18017 
   18065    18181    18110    17875    17643    17529    17551    17670 
   17793    17821    17788    17767    17709    17651    17766    17992 
   18071    17983    17933    18041    18269    18338    18019    17593 
   17351    17209    17201    17424    17617    17586    17535    17590 
   17618    17621    17729    17915    18040    18083    18166    18373 
   18624    18783    18787    18644    18392    18083    17790    17629 
   17622    17590    17436    17286    17262    17362    17452    17477 
   17579    17772    17872    17809    17736    17759    17768    17775 
   17948    18203    18320    18307    18280    18200    18046    18063 
   18391    18747    18828    18650    18328    17936    17545    17205 
   17016    17084    17259    17315    17280    17317    17489    17701 
   17782    17693    17614    17670    17740    17745    17779    17851 
   17892    17923    18015    18203    18378    18395    18353    18412 
   18395    18148    17895    17810    17811    17890    18045    18071 
   17856    17635    17610    17685    17655    17481    17335    17412 
   17670    17949    18164    18166    17907    17664    17653    17775 
   17955    18142    18153    17964    17767    17640    17598    17685 
   17826    17882    17876    17907    17986    18117    18206    18079 
   17778    17562    17666    18045    18431    18623    18526    18177 
   17798    17533    17347    17257    17296    17321    17243    17246 
   17447    17699    17901    18030    18040    18025    18133    18257 
   18265    18246    18219    18123    18071    18111    18098    17995 
   17842    17680    17597    17608    17672    17817    18004    18108 
