Origin Time       2025/03/28 03:50:00
Lat.              35.403
Long.             140.360
Depth. (km)       54
Mag.              4.4
Station Code      CHB001
Station Lat.      35.9571
Station Long.     139.8731
Station Height(m) 17
Record Time       2025/03/28 03:51:09
Sampling Freq(Hz) 100Hz
Duration Time(s)  60
Dir.              N-S
Scale Factor      7845(gal)/8223790
Max. Acc. (gal)   4.052
Last Correction   2025/03/28 03:51:08
Memo.             
[...]
   -1032    -1016     -984     -958     -967     -996     -997     -958 
    -922     -940     -996     -976     -881     -889    -1004    -1093 
   -1100    -1017     -926     -915     -954    -1005    -1055    -1081 
   -1044     -946     -854     -838     -899     -982    -1039    -1066 
   -1003     -861     -807     -899    -1013    -1092    -1158    -1148 
    -989     -837     -849     -943    -1004    -1016    -1007     -981 
    -926     -876     -888     -934     -976    -1038    -1112    -1132 
   -1051     -926     -874     -926     -997    -1008     -969     -939 
    -939     -947     -940     -918     -920     -984    -1061    -1075 
   -1061    -1062    -1039     -972     -888     -861     -924     -984 
    -997     -980     -931     -930     -980    -1008    -1032     -994 
    -874     -858     -984    -1107    -1127    -1000     -850     -851 
    -924     -976    -1024    -1026    -1000    -1015    -1038    -1071 
   -1098    -1038     -911     -846     -909    -1007     -992     -854 
    -731     -773     -915     -990    -1015    -1035    -1032    -1063 
   -1142    -1155    -1089    -1054    -1067    -1102    -1166    -1177 
   -1043     -820     -645     -633     -799     -973     -997     -908 
    -820     -792     -822     -892     -996    -1147    -1256    -1174 
    -985     -892     -939    -1073    -1198    -1246    -1212    -1148 
   -1124    -1109    -1020     -885     -764     -665     -577     -529 
    -567     -657     -791     -940    -1040    -1212    -1468    -1526 
   -1351    -1169    -1067    -1048    -1128    -1217    -1146     -897 
    -599     -399     -432     -635     -824     -962    -1085    -1215 
   -1337    -1399    -1437    -1444    -1314    -1123     -978     -853 
    -751     -662     -602     -668     -787     -812     -777     -769 
    -795     -807     -804     -880    -1048    -1151    -1120    -1043 
    -920     -818     -904    -1058    -1138    -1235    -1324    -1377 
   -1418    -1355    -1209    -1104    -1042     -919     -677     -400 
    -251     -275     -384     -541     -812    -1156    -1412    -1526 
   -1614    -1683    -1601    -1336     -949     -550     -349     -378 
    -446     -486     -519     -569     -693     -850     -940    -1071 
   -1352    -1647    -1767    -1688    -1516    -1336    -1140    -1005 
   -1065    -1188    -1119     -900     -722     -608     -583     -679 
    -773     -788     -803     -834     -796     -672     -546     -504 
    -604     -881    -1193    -1336    -1358    -1366    -1335    -1305 
   -1355    -1413    -1367    -1219    -1000     -715     -409     -216 
    -243     -461     -815    -1231    -1532    -1633    -1610    -1494 
   -1312    -1186    -1132    -1036     -896     -793     -760     -715 
    -554     -384     -395     -608     -930    -1205    -1318    -1300 
   -1216    -1089     -945     -855     -881     -899     -843     -838 
    -845     -747     -665     -723     -845     -915     -927     -924 
    -966    -1140    -1435    -1682    -1813    -1875    -1802    -1541 
   -1198     -915     -645     -267       47       90     -120     -540 
    -962    -1135    -1111    -1051    -1078    -1259    -1443    -1428 
   -1216    -1007     -963     -996    -1038    -1206    -1435    -1432 
   -1101     -691     -479     -491     -594     -662     -616     -492 
    -422     -449     -473     -535     -804    -1208    -1556    -1811 
   -1948    -1934    -1840    -1771    -1645    -1291     -830     -463 
    -187     -108     -330     -606     -688     -689     -733     -757 
    -780     -907    -1136    -1371    -1517    -1539    -1437    -1217 
    -988     -899     -963    -1069    -1039     -862     -743     -762 
    -814     -827     -792     -745     -658     -575     -689     -951 
   -1085    -1043     -970     -966    -1098    -1310    -1418    -1398 
   -1378    -1340    -1181     -923     -702     -627     -643     -668 
    -749     -886    -1061    -1297    -1509    -1597    -1530    -1296 
   -1039     -909     -826     -672     -473     -306     -237     -301 
    -480     -733     -974    -1116    -1169    -1229    -1390    -1638 
   -1775    -1601    -1240    -1001     -996    -1140    -1260    -1183 
    -974     -845     -850     -913     -951     -926     -803     -519 
    -202     -105     -237     -484     -792    -1096    -1313    -1406 
   -1475    -1597    -1620    -1441    -1197     -988     -772     -537 
    -288      -71      -29     -168     -349     -603     -986    -1366 
   -1676    -1875    -1856    -1698    -1575    -1483    -1274     -965 
    -830     -928     -993     -912     -768     -649     -677     -949 
   -1317    -1506    -1459    -1293    -1082     -891     -665     -260 
     238      490      310     -190     -801    -1321    -1649    -1849 
   -2035    -2215    -2216    -1894    -1344     -804     -422     -260 
    -234     -151      -45      -99     -400    -1009    -1725    -2150 
   -2209    -2057    -1840    -1663    -1468    -1138     -707     -314 
     -59       -8     -187     -508     -812    -1021    -1136    -1140 
   -1088    -1054     -981     -769     -463     -256     -291     -614 
   -1147    -1598    -1759    -1721    -1566    -1387    -1304    -1192 
    -930     -648     -467     -402     -483     -672     -801     -761 
    -634     -600     -702     -865    -1055    -1235    -1393    -1588 
   -1750    -1729    -1586    -1435    -1271    -1097     -923     -762 
    -611     -473     -486     -683     -889     -972     -940     -846 
    -743     -708     -812     -970    -1047    -1082    -1096    -1017 
    -959    -1051    -1177    -1198    -1117     -988     -938    -1080 
   -1294    -1345    -1221    -1075     -945     -796     -646     -526 
    -442     -409     -506     -780    -1092    -1270    -1278    -1171 
   -1053     -978     -893     -811     -830     -938    -1035    -1081 
   -1132    -1235    -1355    -1408    -1281     -967     -691     -626 
    -692     -758     -816     -884     -901     -855     -816     -827 
    -889    -1017    -1194    -1397    -1594    -1675    -1606    -1464 
   -1305    -1201    -1155    -1017     -788     -596     -407     -193 
     -25      125      199       14     -384     -814    -1190    -1433 
   -1489    -1526    -1740    -1950    -1919    -1741    -1539    -1306 
   -1156    -1192    -1236    -1075     -757     -472     -318     -284 
    -295     -260     -202     -270     -591    -1078    -1548    -1922 
   -2076    -1911    -1672    -1586    -1498    -1263     -966     -707 
    -554     -526     -571     -612     -552     -418     -345     -351 
    -465     -739    -1096    -1366    -1443    -1383    -1271    -1111 
    -958     -859     -766     -683     -676     -715     -780    -1005 
   -1416    -1773    -1934    -1914    -1717    -1483    -1341    -1159 
    -876     -562     -210      137      330      310      135     -170 
    -598    -1058    -1493    -1915    -2214    -2261    -2069    -1595 
    -889     -248       94       44     -322     -789    -1262    -1709 
   -2046    -2192    -2033    -1572    -1020     -554     -209      -56 
    -103     -178     -197     -259     -392     -490     -549     -760 
   -1197    -1659    -1979    -2130    -2054    -1782    -1462    -1092 
    -669     -338     -152     -102     -274     -658    -1082    -1375 
   -1494    -1487    -1351    -1070     -800     -679     -594     -500 
    -492     -533     -622     -955    -1536    -2042    -2315    -2412 
   -2270    -1899    -1543    -1277     -930     -446       43      383 
     449      216     -214     -665     -965    -1112    -1216    -1267 
   -1269    -1286    -1221    -1026     -874     -826     -808     -876 
   -1048    -1237    -1371    -1339    -1121     -884     -731     -649 
    -621     -635     -762    -1053    -1291    -1270    -1127    -1005 
    -907     -913    -1050    -1174    -1209    -1189    -1139    -1062 
   -1009     -981     -868     -657     -457     -351     -399     -630 
    -935    -1171    -1313    -1377    -1296    -1020     -718     -625 
    -739     -911    -1011    -1030    -1085    -1206    -1397    -1684 
   -1919    -2012    -1961    -1605     -945     -288      139      341 
     360      180     -167     -599    -1032    -1356    -1485    -1464 
   -1406    -1370    -1351    -1383    -1472    -1467    -1332    -1289 
   -1355    -1337    -1263    -1237    -1269    -1317    -1260    -1061 
    -795     -545     -378     -275     -197     -162     -143     -157 
    -278     -398     -481     -704    -1020    -1274    -1497    -1678 
   -1719    -1607    -1377    -1032     -642     -413     -468     -712 
   -1008    -1220    -1250    -1158    -1066     -976     -881     -810 
    -729     -631     -625     -783    -1047    -1335    -1576    -1715 
   -1748    -1667    -1460    -1198     -935     -677     -556     -680 
    -905    -1054    -1140    -1200    -1206    -1113     -949     -874 
    -936    -1015    -1021     -858     -575     -411     -461     -683 
   -1007    -1259    -1378    -1462    -1533    -1518    -1387    -1196 
    -989     -783     -587     -383     -228     -270     -468     -648 
    -843    -1113    -1320    -1314    -1102     -784     -542     -541 
    -733     -946    -1090    -1092     -882     -615     -581     -846 
   -1196    -1432    -1559    -1648    -1663    -1591    -1537    -1557 
   -1624    -1644    -1428     -980     -549     -216       67      155 
     -43     -330     -579     -805     -955    -1028    -1116    -1237 
   -1364    -1476    -1494    -1344    -1075     -788     -589     -602 
    -849    -1215    -1497    -1549    -1378    -1090     -849     -751 
    -746     -822     -986    -1054     -909     -729     -633     -623 
    -769    -1013    -1182    -1243    -1296    -1375    -1389    -1305 
   -1212    -1127    -1020     -901     -791     -731     -715     -695 
    -684     -675     -699     -772     -777     -766     -885    -1009 
   -1054    -1092    -1124    -1142    -1123    -1071    -1086    -1152 
   -1201    -1287    -1360    -1351    -1328    -1255    -1108     -988 
    -842     -587     -317     -125      -60     -139     -334     -599 
    -815     -950    -1134    -1332    -1420    -1495    -1607    -1611 
   -1476    -1312    -1202    -1258    -1491    -1728    -1811    -1698 
   -1412    -1088     -834     -608     -330       33      442      706 
     676      473      224     -145     -638    -1069    -1304    -1348 
   -1236    -1058     -947     -895     -805     -675     -553     -481 
    -542     -831    -1233    -1534    -1686    -1715    -1644    -1557 
   -1540    -1514    -1309     -993     -838     -942    -1232    -1634 
   -2072    -2489    -2855    -3084    -3084    -2791    -2199    -1378 
    -441      564     1567     2343     2677     2592     2204     1556 
     683     -382    -1566    -2674    -3539    -4099    -4279    -4056 
   -3595    -3003    -2238    -1449     -811     -257      162      309 
     321      405      487      427      245        0     -249     -378 
    -267       28      298      376      197     -244     -855    -1549 
   -2228    -2754    -3071    -3214    -3177    -2932    -2488    -1891 
   -1227     -589      -43      405      776      965      866      577 
     190     -325     -958    -1665    -2350    -2794    -2864    -2627 
   -2201    -1765    -1474    -1327    -1294    -1371    -1476    -1543 
   -1564    -1487    -1227     -870     -592     -453     -475     -604 
    -720     -777     -697     -357      130      531      804      951 
     808      265     -587    -1561    -2450    -3017    -3195    -3152 
   -3028    -2798    -2423    -2012    -1651    -1281     -889     -453 
      82      658     1148     1422     1421     1171      673       18 
    -552     -949    -1270    -1499    -1549    -1418    -1115     -706 
    -295       32      151       17     -283     -733    -1339    -1989 
   -2583    -3127    -3538    -3638    -3456    -3100    -2527    -1756 
    -931     -147      519      897      900      575     -132    -1143 
   -2104    -2821    -3287    -3423    -3211    -2748    -2027    -1036 
      24      927     1630     2126     2292     2068     1561      930 
     287     -303     -847    -1294    -1506    -1475    -1337    -1151 
    -918     -702     -603     -633     -722     -918    -1259    -1668 
   -2141    -2682    -3145    -3366    -3288    -2975    -2497    -1733 
    -561      762     1776     2154     1768      787     -369    -1363 
   -2057    -2403    -2380    -2008    -1372     -642      -64      112 
    -112     -384     -556     -777    -1069    -1522    -2216    -2872 
   -3306    -3584    -3753    -3890    -3924    -3565    -2687    -1387 
      98     1422     2367     2925     3100     2882     2309     1486 
     561     -291     -993    -1611    -2204    -2704    -3026    -3003 
   -2457    -1602     -823     -305     -155     -333     -641     -954 
   -1248    -1472    -1580    -1591    -1499    -1301    -1136    -1117 
   -1250    -1528    -1822    -1896    -1698    -1370    -1007     -689 
    -492     -301      -75        4      -89     -348     -874    -1571 
   -2208    -2631    -2756    -2590    -2197    -1653    -1008     -321 
     251      584      685      600      337      -97     -535     -778 
    -843     -835     -843     -988    -1314    -1707    -2012    -2176 
   -2189    -2065    -1834    -1471    -1036     -681     -376       27 
     637     1426     2119     2544     2752     2586     1842      572 
    -963    -2408    -3581    -4484    -5071    -5224    -4916    -4332 
   -3672    -2965    -2236    -1502     -699      116      756     1178 
    1395     1355     1090      715      319     -114     -676    -1324 
   -1900    -2339    -2651    -2816    -2791    -2555    -2126    -1637 
   -1244     -920     -639     -533     -635     -781     -769     -499 
     -76      268      361      156     -166     -369     -494     -673 
    -885    -1081    -1206    -1298    -1494    -1783    -2092    -2304 
   -2282    -2083    -1787    -1270     -529      116      525      828 
     928      562     -210    -1044    -1706    -2135    -2268    -2133 
   -1786    -1143     -355      113      172       58     -224     -653 
   -1013    -1224    -1363    -1503    -1719    -2053    -2389    -2551 
   -2477    -2157    -1578     -787       45      706     1075     1084 
     691      -27     -903    -1683    -2068    -1950    -1512     -980 
    -525     -228      -71      -67     -203     -456     -923    -1586 
   -2165    -2439    -2378    -2050    -1590    -1197     -949     -758 
    -600     -491     -446     -480     -534     -666    -1039    -1579 
   -2038    -2277    -2286    -2084    -1829    -1702    -1534    -1093 
    -440      238      711      769      522      267       91     -176 
    -730    -1458    -1998    -2138    -1887    -1453    -1102     -911 
    -880    -1046    -1358    -1755    -2208    -2602    -2729    -2447 
   -1827    -1104     -400      230      649      886     1080     1144 
     954      510     -122     -801    -1358    -1678    -1845    -1981 
   -1931    -1548     -927     -199      450      757      699      454 
      10     -749    -1714    -2623    -3267    -3572    -3549    -3292 
   -2959    -2575    -2052    -1358     -554      214      846     1310 
    1498     1267      638     -164     -942    -1655    -2269    -2662 
   -2700    -2344    -1764    -1281    -1089    -1196    -1486    -1763 
   -1858    -1701    -1356     -936     -449       75      527      837 
    1034     1155     1186     1108      911      630      324       -6 
    -495    -1235    -2000    -2590    -3107    -3539    -3754    -3778 
   -3578    -3121    -2533    -1753     -757       97      711     1233 
    1494     1432     1159      571     -221     -896    -1460    -1972 
   -2331    -2516    -2444    -1972    -1221     -548     -222     -187 
    -275     -621    -1209    -1652    -1907    -2189    -2494    -2835 
   -3121    -3125    -2812    -2218    -1464     -731      -76      372 
     564      650      607      353       52     -137     -152      -20 
      63      -93     -481     -957    -1367    -1534    -1459    -1486 
   -1656    -1691    -1644    -1575    -1378    -1120     -832     -546 
    -386     -321     -226      -17      148       36     -303     -826 
   -1444    -1902    -2160    -2277    -2272    -2193    -1957    -1482 
    -799      -76      373      425      178     -221     -634    -1038 
   -1440    -1815    -2135    -2320    -2388    -2434    -2421    -2265 
   -1972    -1609    -1128     -471      201      739     1116     1251 
    1101      699      105     -585    -1254    -1764    -2083    -2218 
   -2118    -1837    -1475    -1108     -870     -741     -584     -460 
    -441     -469     -491     -514     -548     -589     -695     -919 
   -1197    -1437    -1630    -1838    -2087    -2288    -2374    -2347 
   -2141    -1769    -1341     -850     -326       89      309      270 
      29     -224     -442     -589     -603     -525     -363     -170 
     -87     -110     -118      -98     -153     -371     -714    -1098 
   -1501    -1946    -2500    -3009    -3203    -3088    -2776    -2330 
   -1854    -1397    -1005     -727     -464     -175      -54     -249 
    -685    -1167    -1448    -1393    -1075     -706     -502     -463 
    -380     -149      191      483      472       72     -548    -1155 
   -1549    -1656    -1609    -1567    -1628    -1836    -2026    -1988 
   -1642    -1063     -572     -359     -264     -132       99      267 
     137     -171     -554    -1096    -1606    -1821    -1819    -1741 
   -1618    -1404    -1059     -741     -557     -445     -483     -746 
   -1046    -1266    -1439    -1466    -1401    -1472    -1626    -1678 
   -1518    -1066     -434       43       40     -337     -561     -486 
    -407     -495     -839    -1323    -1680    -1948    -2246    -2484 
   -2502    -2261    -1925    -1698    -1480    -1105     -675     -373 
    -329     -500     -623     -608     -635     -714     -652     -492 
    -415     -357     -217       -5      251      456      500      280 
    -180     -661    -1127    -1628    -1939    -2011    -2107    -2239 
   -2258    -2180    -1972    -1579    -1058     -506     -148     -166 
    -384     -621     -893    -1154    -1335    -1497    -1671    -1867 
   -2058    -2111    -1972    -1667    -1175     -664     -371     -248 
    -214     -245     -198      -90      -98     -329     -695     -918 
    -969    -1051    -1121    -1101    -1113    -1270    -1540    -1756 
   -1759    -1566    -1201     -657      -90      297      500      544 
     378       55     -306     -664    -1001    -1317    -1644    -1899 
   -1929    -1775    -1664    -1660    -1618    -1533    -1482    -1377 
   -1143     -909     -799     -769     -837    -1004    -1088    -1034 
    -963     -878     -788     -739     -677     -518     -298     -205 
    -334     -531     -630     -577     -427     -337     -453     -837 
   -1402    -1872    -2103    -2247    -2340    -2276    -2091    -1792 
   -1390    -1121    -1081    -1138    -1270    -1431    -1466    -1350 
   -1119     -861     -711     -724     -909    -1100    -1031     -685 
    -237       76      113      -86     -411     -783    -1182    -1505 
   -1575    -1482    -1464    -1502    -1458    -1293    -1004     -603 
