Origin Time       2025/03/28 03:50:00
Lat.              35.403
Long.             140.360
Depth. (km)       54
Mag.              4.4
Station Code      CHB016
Station Lat.      35.2998
Station Long.     140.3866
Station Height(m) 7
Record Time       2025/03/28 03:50:48
Sampling Freq(Hz) 100Hz
Duration Time(s)  69
Dir.              N-S
Scale Factor      7845(gal)/8223790
Max. Acc. (gal)   7.563
Last Correction   2025/03/28 03:50:47
Memo.             
[...]
    -814     -810     -808     -815     -823     -814     -799     -810 
    -819     -810     -808     -812     -805     -804     -814     -816 
    -814     -815     -814     -812     -815     -815     -814     -812 
    -814     -818     -818     -812     -807     -808     -816     -820 
    -810     -808     -824     -818     -797     -807     -827     -820 
    -804     -807     -815     -814     -803     -805     -819     -818 
    -803     -803     -810     -810     -807     -799     -803     -816 
    -819     -810     -811     -815     -799     -789     -812     -827 
    -815     -807     -815     -812     -805     -814     -810     -800 
    -807     -816     -818     -819     -819     -816     -811     -811 
    -814     -810     -807     -811     -816     -815     -810     -812 
    -826     -823     -808     -805     -807     -812     -818     -810 
    -807     -816     -816     -818     -815     -805     -812     -820 
    -819     -820     -812     -805     -814     -816     -811     -814 
    -819     -819     -816     -812     -810     -808     -803     -808 
    -816     -816     -816     -814     -808     -810     -801     -796 
    -816     -827     -807     -797     -814     -822     -804     -793 
    -804     -812     -811     -808     -799     -804     -827     -828 
    -805     -791     -805     -826     -815     -800     -808     -816 
    -814     -807     -807     -816     -815     -810     -815     -810 
    -801     -812     -822     -815     -808     -808     -812     -819 
    -815     -807     -808     -818     -823     -822     -818     -818 
    -814     -810     -812     -812     -815     -818     -812     -814 
    -819     -815     -810     -811     -812     -812     -820     -820 
    -811     -804     -807     -816     -808     -799     -810     -814 
    -805     -804     -808     -810     -805     -804     -814     -815 
    -803     -800     -804     -807     -814     -814     -804     -804 
    -812     -808     -807     -812     -803     -800     -819     -826 
    -810     -801     -812     -820     -810     -805     -815     -815 
    -810     -807     -810     -816     -812     -810     -824     -823 
    -808     -812     -819     -815     -815     -819     -823     -820 
    -814     -814     -822     -830     -831     -822     -808     -811 
    -823     -815     -805     -823     -835     -819     -803     -818 
    -832     -818     -805     -814     -823     -824     -822     -819 
    -815     -811     -816     -823     -816     -811     -812     -811 
    -812     -820     -814     -800     -801     -812     -815     -818 
    -812     -804     -810     -816     -812     -805     -811     -820 
    -807     -801     -818     -816     -799     -801     -818     -819 
    -805     -796     -803     -814     -814     -805     -801     -807 
    -815     -811     -800     -805     -815     -811     -811     -816 
    -810     -804     -805     -804     -810     -816     -812     -805 
    -800     -805     -818     -811     -804     -814     -816     -805 
    -804     -814     -814     -811     -814     -812     -812     -811 
    -801     -804     -808     -808     -820     -823     -814     -812 
    -812     -803     -800     -811     -822     -811     -804     -812 
    -815     -810     -804     -805     -819     -822     -808     -810 
    -815     -808     -804     -805     -814     -824     -818     -807 
    -811     -816     -814     -808     -812     -815     -810     -812 
    -814     -807     -814     -822     -814     -814     -818     -807 
    -800     -811     -818     -812     -811     -815     -815     -815 
    -812     -805     -807     -819     -820     -812     -816     -820 
    -812     -808     -805     -808     -822     -815     -804     -818 
    -816     -800     -807     -816     -810     -814     -819     -812 
    -814     -814     -803     -805     -818     -816     -810     -807 
    -805     -815     -822     -811     -810     -827     -816     -793 
    -803     -819     -815     -805     -803     -811     -823     -818 
    -805     -807     -814     -812     -810     -811     -812     -818 
    -819     -812     -808     -807     -810     -818     -816     -814 
    -818     -812     -804     -808     -815     -807     -804     -815 
    -811     -800     -807     -816     -818     -810     -797     -801 
    -816     -812     -803     -812     -815     -807     -808     -812 
    -807     -805     -807     -805     -810     -811     -804     -800 
    -810     -816     -807     -808     -819     -811     -807     -811 
    -805     -808     -820     -812     -797     -803     -820     -818 
    -799     -796     -811     -820     -814     -805     -808     -814 
    -811     -808     -810     -812     -815     -812     -808     -815 
    -816     -807     -810     -815     -811     -816     -827     -818 
    -804     -808     -808     -805     -824     -835     -815     -804 
    -815     -820     -818     -819     -818     -815     -819     -819 
    -818     -814     -810     -818     -823     -819     -820     -819 
    -812     -810     -815     -820     -816     -812     -816     -814 
    -815     -820     -808     -799     -816     -826     -812     -803 
    -804     -810     -811     -811     -814     -811     -805     -812 
    -808     -801     -815     -824     -814     -805     -803     -803 
    -812     -814     -810     -812     -811     -807     -814     -823 
    -819     -811     -818     -830     -819     -801     -811     -828 
    -826     -814     -811     -814     -811     -815     -827     -826 
    -812     -805     -814     -826     -819     -811     -822     -824 
    -814     -810     -816     -824     -820     -807     -805     -812 
    -815     -819     -818     -810     -812     -816     -808     -807 
    -818     -816     -803     -800     -808     -815     -818     -811 
    -803     -810     -819     -808     -797     -810     -823     -818 
    -807     -807     -810     -815     -819     -810     -800     -803 
    -804     -808     -819     -812     -797     -801     -814     -811 
    -803     -807     -812     -812     -808     -800     -797     -805 
    -810     -811     -807     -800     -801     -805     -803     -805 
    -816     -819     -810     -803     -807     -811     -811     -815 
    -818     -816     -812     -810     -811     -815     -816     -814 
    -808     -814     -820     -807     -801     -820     -826     -814 
    -811     -810     -808     -812     -815     -814     -812     -808 
    -812     -818     -811     -807     -812     -812     -810     -811 
    -810     -805     -812     -814     -803     -805     -820     -818 
    -807     -805     -811     -819     -819     -805     -801     -812 
    -812     -804     -810     -814     -811     -814     -812     -804 
    -808     -816     -814     -805     -810     -820     -823     -818 
    -814     -814     -808     -805     -814     -819     -818     -812 
    -808     -810     -820     -824     -816     -810     -818     -823 
    -814     -810     -814     -812     -818     -826     -819     -811 
    -819     -824     -818     -808     -811     -822     -824     -812 
    -804     -811     -815     -818     -820     -811     -807     -815 
    -812     -807     -816     -815     -800     -807     -822     -818 
    -810     -804     -803     -807     -811     -810     -805     -803 
    -804     -808     -810     -807     -800     -807     -822     -818 
    -810     -820     -830     -824     -812     -808     -795     -764 
    -733     -708     -706     -737     -788     -854     -916     -961 
   -1005    -1066    -1107    -1075     -962     -814     -688     -604 
    -553     -533     -530     -583     -693     -758     -778     -893 
   -1027     -980     -888     -889     -830     -745     -777     -816 
    -873    -1062    -1134     -949     -828     -846     -774     -718 
    -716     -575     -430     -433     -495     -607     -665     -615 
    -734    -1013    -1051     -946    -1135    -1390    -1297    -1009 
    -780     -702     -754     -733     -588     -518     -538     -646 
    -989    -1165     -742     -425     -774    -1142    -1129    -1073 
    -945     -641     -564     -803     -936     -859     -708     -649 
    -716     -618     -463     -753    -1269    -1229     -720     -589 
    -888    -1071    -1031     -865     -801     -901     -874     -862 
    -936     -631     -274     -660    -1152     -783     -153     -116 
    -571    -1101    -1271    -1015     -772     -893    -1231    -1413 
   -1399    -1142     -639     -406     -483     -461     -406     -467 
    -733    -1069     -946     -514     -565     -877     -653     -348 
    -618     -850     -832    -1174    -1630    -1591    -1267    -1152 
   -1208    -1057     -649     -225       71       43     -450     -992 
   -1088     -951     -874     -704     -554     -704     -930    -1088 
   -1377    -1506    -1135     -870    -1075     -905     -234     -207 
    -818     -888     -488     -442     -506     -340     -429     -826 
    -946     -837    -1019    -1358    -1355    -1088     -842     -500 
    -156     -274     -656     -781     -819     -904     -835     -753 
    -882    -1233    -1536    -1258     -594     -368     -499     -407 
    -384     -843    -1306    -1167     -665     -564     -936    -1124 
    -958     -959    -1289    -1393     -868     -159      -68     -567 
    -787     -561     -490     -638     -913    -1379    -1543    -1166 
    -938    -1058     -961     -646     -494     -672    -1109    -1223 
    -716     -326     -561     -766     -407     -114     -436    -1004 
   -1497    -1713    -1399     -859     -611     -699     -723     -510 
    -441     -552     -503     -517     -789    -1042    -1143    -1075 
   -1009    -1190    -1310    -1159     -881     -471     -175     -234 
    -550    -1054    -1244     -778     -442     -795    -1231    -1086 
    -457      -33     -356    -1058    -1313    -1044     -810     -803 
    -907     -962     -810     -838    -1329    -1410     -730     -346 
    -521     -440      -94     -183     -733    -1008     -908     -997 
   -1193    -1179    -1089     -954     -855     -978    -1020     -669 
    -259     -261     -595     -749     -496     -379     -903    -1293 
    -801     -399     -781    -1101    -1129    -1399    -1526    -1138 
    -743     -573     -441     -392     -495     -750    -1147    -1382 
   -1260    -1088     -882     -333      121     -187     -830    -1016 
    -901     -911     -930     -886     -877     -851     -919    -1129 
   -1093     -758     -583     -545     -352     -329     -854    -1498 
   -1779    -1725    -1263     -573     -413     -920    -1409    -1171 
     -99      874      915      310     -388     -859    -1051    -1306 
   -1744    -2084    -2093    -1665    -1048     -641     -523     -756 
   -1163    -1086     -352      410      616      356      189      218 
     -45     -680    -1038     -891    -1044    -1744    -2074    -1645 
   -1069     -978    -1220    -1028     -332      156      251      297 
     310      186       -8     -614    -2084    -3684    -4141    -3649 
   -3273    -3051    -2407    -1277       93     1248     1576     1120 
     811     1024      792     -405    -1652    -2261    -2547    -2840 
   -2890    -2385    -1435     -151     1174     1649     1179      785 
     554     -198    -1123    -1553    -1777    -2103    -2241    -2108 
   -1961    -1834    -1526     -912     -189      298      507      680 
     816      577     -121     -916    -1452    -1644    -1792    -2169 
   -2303    -1692     -627      546     1615     2111     1811     1271 
    1034      718      -85    -1073    -1992    -2828    -3368    -3272 
   -2532    -1711    -1259     -928     -425       45      302      427 
     324     -172     -963    -1768    -2239    -2474    -2902    -3221 
   -2778    -1655     -345      737     1121      611     -163     -414 
    -326     -621    -1341    -2007    -2357    -2351    -2107    -1764 
   -1217     -546      -97       76       83       83      301      472 
     174     -292     -568     -992    -1607    -1823    -1605    -1390 
   -1155     -839     -756     -843     -756     -599     -432     -256 
    -598    -1329    -1340     -399      369      144     -638    -1189 
   -1212     -803     -373     -121      210      612      773      410 
    -477    -1327    -1738    -1838    -1741    -1607    -1487    -1158 
    -838     -972    -1167     -931     -687     -669     -438      -72 
     -51     -423     -988    -1421    -1437    -1344    -1506    -1533 
   -1239    -1147    -1212     -984     -962    -1478    -1692    -1395 
   -1223     -967     -332      -62     -437     -688     -571     -479 
    -583     -832     -947     -727     -398      -25      355      255 
    -388     -822     -811    -1063    -1838    -2389    -2064    -1236 
    -846    -1062    -1142     -904     -831     -946    -1011     -911 
    -463       56       66     -145      145      688      660       64 
    -499     -761     -753     -608     -548     -730    -1100    -1260 
    -920     -500     -607    -1077    -1385    -1490    -1512    -1381 
   -1190    -1156    -1171     -839     -164      396      646      618 
     507      776     1302     1390      954      369      -95     -283 
    -364     -519     -427      -10      106     -376     -951    -1220 
   -1370    -1532    -1682    -1984    -2594    -3568    -4783    -5904 
   -6925    -8023    -8741    -8436    -7267    -5686    -3784    -1792 
    -189      627      560      172      118      372      757     1282 
    1726     1817     1744     1926     2501     3276     3959     4506 
    4900     4806     4243     3653     2839     1367     -518    -2493 
   -4476    -5926    -5954    -4490    -2382     -407      927     1159 
     187    -1537    -3029    -3294    -2199     -465      703      345 
    -970    -1817    -1976    -2069    -2135    -1686     -364     1424 
    2535     2164      616    -1113    -2357    -3198    -3962    -4552 
   -4440    -3595    -3056    -3615    -4321    -3447     -741     2222 
    3844     4031     3842     3932     3909     3117     1366     -905 
   -2983    -4422    -4970    -4592    -3707    -2682    -1410      260 
    1931     2760     2412     1304     -132    -1648    -2617    -2242 
    -680     1044     2203     2257      661    -2247    -5189    -6774 
   -6277    -4217    -1763      596     2786     4171     4194     3009 
     945    -1567    -3654    -4351    -3554    -2273    -1460    -1178 
   -1210    -1327    -1116     -562      -40      271      156     -313 
    -495     -548    -1568    -3751    -5902    -6604    -5243    -2249 
    1320     4429     6320     6448     4783     1988     -986    -3172 
   -4039    -4048    -3688    -2716    -1294     -390     -403     -492 
     135     1008     1129      346     -761    -1620    -1775    -1360 
   -1246    -2018    -3615    -5103    -4577    -1425     2185     3672 
    2586      399    -1264    -1922    -1938    -1674    -1269     -642 
     241      931      923      276     -803    -2268    -3453    -3350 
   -1922      152     2029     2691     2019      901     -322    -1784 
   -2767    -2226     -445     1174     1935     1877      525    -2289 
   -5134    -6463    -6366    -5601    -4349    -2849    -1707     -986 
    -170     1090     2774     4383     5062     4527     3368     1952 
      82    -2039    -3882    -5158    -5439    -4521    -2901    -1143 
     195      676      553      368      299      129     -346     -904 
   -1215    -1437    -1919    -2484    -2803    -2909    -2528    -1332 
      48      816     1078      963      187     -922    -1539    -1575 
   -1587    -1672    -1452     -882     -396     -589    -1447    -1696 
    -386     1408     2297     2427     2120     1077     -394    -1372 
   -1614    -1660    -1809    -1707    -1054     -132      491      388 
    -357    -1111    -1459    -1532    -1478    -1476    -1763    -2307 
   -2968    -3480    -3466    -2951    -2265    -1638    -1246    -1148 
   -1125     -859     -210      564      990     1065     1159     1316 
    1310      994      247     -926    -2153    -2839    -2632    -1640 
    -236     1026     1541     1183      515      175      271      668 
    1256     1464      429    -1715    -3732    -4865    -5252    -4866 
   -3369    -1086      858     1663     1314      121    -1205    -1728 
   -1399    -1146    -1566    -2328    -2849    -2818    -2174    -1209 
    -279      598     1332     1522     1084      297     -735    -2076 
   -3537    -4530    -4563    -3731    -2461    -1146     -102      500 
     787      939      845      463      229      359      247     -550 
   -1544    -2209    -2454    -2265    -1719     -912      -49      441 
     558      743      970      799      315       55      120       87 
    -283     -643     -579     -363     -646    -1452    -2084    -2147 
   -1937    -1703    -1366     -884     -317      183      334      163 
      -4     -229     -735    -1243    -1329    -1061     -909    -1067 
   -1158     -972     -751     -552     -147      363      504      -39 
   -1113    -2181    -2774    -2974    -3076    -3150    -3229    -3141 
   -2432    -1069      345     1169     1235      986      999     1293 
    1549     1675     1522      788     -571    -2154    -3219    -3245 
   -2408    -1406     -831     -699     -700     -650     -625     -785 
   -1165    -1803    -2612    -3071    -2760    -1876     -858       29 
     584      680      619      776      912      449     -761    -2405 
   -4028    -4895    -4405    -3022    -1723     -706      218      741 
     704      476      205     -265     -990    -1826    -2396    -2317 
   -1505     -280      766     1262     1331     1201      785      130 
    -288     -307     -276     -419     -751    -1196    -1428    -1167 
    -554       44      390      419       93     -461     -832     -814 
    -529      -47      614     1205     1229      453     -642    -1283 
   -1182     -776     -695     -992    -1169    -1061    -1150    -1742 
   -2478    -2889    -2906    -2812    -2779    -2637    -2371    -2358 
   -2670    -2832    -2466    -1818    -1397    -1308    -1231     -931 
    -643     -749    -1074    -1158    -1023     -688      351     2058 
    3457     3757     2864     1166     -712    -2224    -3121    -3406 
   -3090    -2087     -589      719     1210      900      270     -306 
    -712     -903     -886     -926    -1170    -1291    -1150    -1146 
   -1470    -1710    -1458     -957     -783    -1057    -1570    -2277 
   -2988    -3056    -2142     -696      603     1325     1350      830 
      87     -750    -1732    -2450    -2295    -1335     -236      499 
     812      864      727      305     -434    -1200    -1568    -1414 
    -958     -448      -48      125      113       -5     -294     -841 
   -1490    -1775    -1413     -718     -249     -315     -800    -1278 
   -1451    -1441    -1452    -1422    -1242    -1023     -989    -1260 
   -1741    -2168    -2378    -2390    -2250    -2143    -2338    -2659 
   -2501    -1556     -189      980     1525     1344      625     -341 
   -1297    -1922    -1829    -1051     -224      209      334      247 
    -102     -672    -1170    -1209     -765     -217       13     -292 
