Origin Time       2025/03/28 03:50:00
Lat.              35.403
Long.             140.360
Depth. (km)       54
Mag.              4.4
Station Code      CHB026
Station Lat.      35.3858
Station Long.     140.2404
Station Height(m) 46
Record Time       2025/03/28 03:50:49
Sampling Freq(Hz) 100Hz
Duration Time(s)  69
Dir.              U-D
Scale Factor      7845(gal)/8223790
Max. Acc. (gal)   3.373
Last Correction   2025/03/28 03:50:48
Memo.             
[...]
   12136    12171    12172    12118    12135    12198    12145    12100 
   12177    12179    12121    12145    12154    12159    12171    12124 
   12135    12181    12156    12132    12151    12177    12158    12121 
   12151    12186    12144    12117    12167    12174    12140    12145 
   12154    12167    12152    12120    12163    12175    12133    12140 
   12154    12162    12171    12132    12129    12178    12154    12128 
   12171    12163    12125    12154    12171    12152    12144    12143 
   12156    12162    12147    12155    12162    12148    12150    12152 
   12154    12160    12143    12139    12166    12163    12152    12150 
   12141    12155    12154    12145    12171    12143    12124    12187 
   12156    12116    12187    12166    12096    12166    12193    12125 
   12143    12164    12144    12177    12152    12109    12179    12182 
   12109    12147    12194    12145    12124    12163    12166    12144 
   12154    12150    12147    12181    12147    12116    12194    12168 
   12097    12174    12183    12131    12151    12139    12170    12189 
   12106    12132    12205    12168    12109    12135    12198    12159 
   12120    12160    12175    12162    12120    12137    12208    12156 
   12110    12163    12168    12144    12148    12155    12166    12155 
   12121    12163    12199    12123    12121    12193    12155    12136 
   12158    12139    12170    12170    12120    12159    12177    12140 
   12143    12141    12164    12182    12123    12131    12189    12171 
   12120    12128    12194    12166    12105    12162    12177    12144 
   12156    12127    12137    12204    12144    12086    12179    12208 
   12123    12118    12160    12158    12155    12140    12147    12170 
   12128    12136    12182    12145    12131    12151    12150    12156 
   12143    12140    12167    12158    12128    12133    12177    12168 
   12100    12136    12198    12143    12123    12163    12143    12139 
   12164    12147    12144    12144    12132    12160    12158    12133 
   12160    12152    12128    12147    12163    12155    12135    12145 
   12164    12135    12136    12162    12144    12147    12155    12135 
   12168    12162    12109    12159    12177    12124    12147    12151 
   12137    12170    12151    12128    12159    12156    12133    12148 
   12167    12139    12131    12167    12159    12140    12136    12143 
   12175    12151    12110    12155    12181    12135    12137    12164 
   12140    12158    12156    12108    12164    12191    12129    12140 
   12148    12150    12178    12137    12129    12172    12159    12136 
   12136    12160    12164    12139    12147    12163    12152    12148 
   12140    12158    12172    12133    12141    12181    12129    12121 
   12204    12154    12104    12182    12156    12133    12183    12123 
   12136    12209    12136    12117    12183    12166    12124    12137 
   12179    12166    12123    12147    12167    12152    12162    12151 
   12129    12164    12163    12133    12163    12160    12139    12162 
   12147    12152    12185    12124    12131    12205    12148    12127 
   12174    12144    12152    12177    12131    12151    12178    12133 
   12151    12172    12140    12151    12160    12148    12152    12144 
   12160    12170    12136    12148    12167    12151    12147    12140 
   12162    12164    12139    12166    12158    12136    12160    12158 
   12159    12154    12133    12154    12172    12144    12132    12174 
   12168    12131    12150    12156    12162    12152    12124    12177 
   12167    12123    12159    12152    12162    12156    12120    12172 
   12168    12128    12159    12151    12151    12163    12135    12145 
   12164    12147    12150    12163    12140    12133    12175    12163 
   12121    12145    12172    12160    12144    12150    12147    12147 
   12175    12147    12121    12182    12163    12116    12167    12154 
   12125    12191    12144    12106    12202    12154    12101    12187 
   12155    12133    12183    12128    12132    12185    12136    12135 
   12178    12144    12129    12167    12162    12143    12156    12150 
   12141    12159    12159    12128    12147    12189    12128    12110 
   12201    12168    12093    12152    12193    12147    12129    12144 
   12162    12174    12132    12120    12178    12178    12127    12121 
   12181    12181    12093    12147    12216    12118    12120    12175 
   12150    12158    12132    12136    12191    12143    12113    12172 
   12168    12117    12147    12185    12133    12128    12175    12148 
   12136    12163    12148    12140    12159    12152    12140    12163 
   12158    12124    12156    12171    12123    12144    12178    12136 
   12141    12164    12139    12154    12152    12125    12172    12182 
   12124    12140    12164    12147    12160    12148    12143    12177 
   12133    12116    12195    12166    12105    12156    12174    12150 
   12144    12143    12171    12160    12120    12151    12183    12151 
   12127    12145    12172    12171    12141    12135    12159    12163 
   12148    12140    12164    12167    12121    12156    12182    12125 
   12160    12167    12114    12156    12178    12145    12141    12163 
   12158    12132    12160    12159    12133    12171    12151    12132 
   12175    12145    12128    12172    12167    12136    12145    12147 
   12137    12179    12154    12104    12177    12174    12120    12160 
   12147    12137    12183    12139    12118    12175    12178    12135 
   12123    12167    12174    12125    12145    12170    12143    12158 
   12155    12137    12168    12145    12135    12186    12154    12113 
   12162    12178    12144    12144    12154    12145    12155    12147 
   12135    12172    12163    12120    12171    12187    12106    12135 
   12208    12136    12118    12195    12148    12129    12182    12133 
   12140    12195    12136    12123    12168    12159    12162    12143 
   12125    12167    12171    12139    12129    12154    12178    12144 
   12127    12162    12167    12159    12128    12118    12195    12168 
   12086    12171    12204    12109    12144    12182    12124    12151 
   12168    12132    12159    12160    12137    12164    12155    12135 
   12156    12160    12152    12141    12139    12166    12159    12132 
   12144    12162    12151    12136    12151    12166    12144    12141 
   12162    12140    12150    12177    12132    12137    12179    12147 
   12124    12163    12179    12139    12127    12163    12170    12135 
   12140    12172    12150    12148    12167    12127    12145    12185 
   12128    12144    12178    12123    12150    12182    12143    12147 
   12151    12147    12158    12147    12147    12170    12156    12116 
   12143    12199    12154    12105    12164    12194    12133    12120 
   12167    12167    12151    12133    12133    12201    12160    12064 
   12167    12228    12110    12112    12190    12168    12127    12128 
   12181    12179    12112    12136    12185    12162    12139    12128 
   12171    12190    12121    12128    12174    12171    12158    12118 
   12155    12201    12125    12120    12195    12162    12112    12150 
   12168    12156    12168    12132    12124    12202    12155    12096 
   12183    12174    12125    12166    12148    12145    12190    12135 
   12112    12187    12181    12125    12143    12163    12167    12154 
   12131    12167    12166    12125    12154    12168    12159    12150 
   12127    12168    12179    12125    12148    12172    12143    12151 
   12155    12147    12166    12158    12139    12150    12159    12158 
   12147    12143    12171    12162    12137    12160    12137    12136 
   12185    12135    12127    12179    12137    12156    12164    12104 
   12175    12177    12096    12155    12175    12144    12156    12129 
   12148    12185    12129    12118    12179    12166    12121    12150 
   12175    12132    12133    12170    12155    12147    12139    12139 
   12163    12151    12139    12154    12151    12147    12159    12141 
   12128    12178    12168    12109    12150    12175    12137    12144 
   12141    12154    12172    12124    12124    12187    12181    12104 
   12117    12213    12163    12087    12167    12182    12133    12145 
   12147    12148    12166    12154    12123    12155    12186    12133 
   12135    12159    12143    12171    12160    12124    12144    12177 
   12163    12109    12152    12202    12124    12127    12168    12150 
   12174    12135    12128    12201    12135    12108    12199    12154 
   12108    12186    12163    12124    12172    12132    12139    12209 
   12131    12098    12194    12183    12113    12139    12183    12158 
   12136    12147    12160    12166    12148    12145    12163    12144 
   12135    12177    12164    12109    12167    12197    12113    12139 
   12178    12132    12158    12163    12131    12167    12164    12120 
   12132    12193    12175    12094    12147    12195    12135    12135 
   12147    12163    12183    12110    12116    12205    12159    12105 
   12156    12171    12150    12150    12136    12143    12178    12137 
   12117    12190    12168    12098    12148    12198    12139    12114 
   12170    12163    12139    12155    12150    12145    12152    12143 
   12145    12160    12159    12141    12139    12159    12170    12139 
   12127    12164    12159    12131    12152    12156    12141    12145 
   12156    12159    12147    12147    12137    12150    12178    12125 
   12139    12195    12131    12116    12174    12174    12145    12132 
   12158    12171    12141    12131    12158    12175    12147    12121 
   12155    12177    12150    12133    12152    12168    12141    12143 
   12160    12144    12158    12166    12140    12145    12148    12155 
   12170    12125    12125    12209    12159    12073    12175    12216 
   12113    12133    12183    12145    12150    12151    12124    12174 
   12182    12102    12145    12216    12131    12102    12191    12174 
   12120    12155    12163    12152    12160    12128    12151    12187 
   12129    12129    12181    12154    12127    12155    12168    12144 
   12147    12156    12150    12158    12133    12140    12199    12158 
   12097    12155    12201    12133    12117    12185    12154    12125 
   12167    12156    12151    12147    12143    12166    12150    12154 
   12162    12127    12154    12181    12143    12145    12156    12137 
   12160    12168    12124    12162    12185    12113    12141    12186 
   12150    12147    12129    12144    12194    12135    12116    12182 
   12162    12121    12148    12171    12151    12132    12147    12170 
   12168    12129    12128    12181    12170    12124    12152    12178 
   12137    12133    12177    12167    12144    12148    12150    12167 
   12148    12117    12185    12179    12096    12159    12195    12129 
   12145    12155    12143    12183    12148    12104    12186    12202 
   12109    12132    12204    12147    12113    12174    12162    12152 
   12164    12114    12158    12201    12109    12136    12204    12136 
   12131    12171    12147    12152    12162    12137    12156    12167 
   12135    12143    12172    12158    12128    12159    12189    12124 
   12112    12201    12174    12100    12156    12174    12136    12162 
   12150    12129    12172    12160    12128    12156    12159    12136 
   12163    12162    12121    12164    12185    12120    12125    12183 
   12172    12116    12137    12189    12148    12139    12155    12137 
   12175    12154    12108    12189    12175    12086    12162    12195 
   12121    12147    12170    12128    12156    12177    12152    12193 
   12249    12302    12424    12563    12676    12745    12663    12484 
   12336    12155    11893    11495    10929    10459    10443    10941 
   11576    12085    12799    13705    13878    12819    11612    11816 
   13265    14031    13072    11630    11249    11813    12301    11992 
   10984    10540    11489    12621    12842    12731    12519    11831 
   11367    11753    12208    12124    11923    12079    12517    12802 
   12532    11882    12101    13302    13316    12051    11708    12098 
   11952    11595    11280    10886    11061    11998    12712    12704 
   12488    12452    12422    12298    12291    12376    12152    11747 
   12010    12582    12534    12669    12864    11919    11267    12015 
   12618    12484    12163    11913    12035    12420    12631    12480 
   12199    12043    11767    11489    11588    11715    11785    12112 
   12649    12992    12078    10382    10276    11341    11628    11854 
   12744    13381    13597    13694    13185    12557    12846    12835 
   11826    11585    12226    12222    11867    12199    12750    12677 
   12209    11578    11090    11462    11815    11499    12023    13086 
   13207    12926    12457    11627    11095    10998    11620    12664 
   12563    11599    11421    11920    11923    11445    11477    12036 
   12453    12591    12449    12460    12876    12731    11792    11180 
   11443    12178    12405    11703    11392    12217    13059    13462 
   13771    13833    13452    12795    12360    12118    11691    11408 
   11499    11600    11288    10706    10508    10563    10794    11780 
   12942    13616    14133    14130    13189    12168    12086    12731 
   12872    12159    11688    11742    11510    11106    11101    11666 
   12723    13301    13038    12887    12442    11225    10682    11304 
   12244    13305    14154    14071    13090    11615     9744     8615 
    9624    11133    11392    12252    14073    14276    13012    12097 
   11628    11893    12760    12625    11863    12293    12798    11707 
   10995    11988    12640    12490    12579    12460    12055    11685 
   11267    11298    11875    12162    11619    11195    11998    12757 
   12328    11924    12240    12683    12596    12156    12390    13081 
   13641    14207    14044    13421    13316    12727    11592    11299 
   11639    11693    11242    10729    10616    10628    10762    11542 
   12729    13601    13942    13803    13043    11780    10890    11067 
   11686    12024    12177    12214    12244    11886    10767    10455 
   11219    11534    12360    13848    13776    12429    11556    11701 
   12456    12791    12688    12837    12587    11557    10940    10890 
   10700    10905    11549    12318    13788    14948    14199    12622 
   12033    12066    11931    12602    13837    13755    12860    12121 
   11047    10093     9568     9328     9988    11106    11967    12892 
   13792    14472    14451    13365    12402    12189    12124    11858 
   11453    11466    11758    11815    11915    12214    12796    12991 
   12143    11583    11732    11620    11460    11551    11939    12233 
   11712    11730    12843    12993    12478    12826    13234    13022 
   12490    11982    11668    11591    12190    12618    11959    11546 
   11479    11137    11654    12556    12421    11938    12239    12845 
   12395    11485    11510    11722    11763    12039    12131    12403 
   12833    12783    12753    12575    12100    12145    12301    12206 
   12070    11585    11533    12272    12880    13514    13860    12973 
   11742    11226    11458    12071    12217    11952    12118    12452 
   12259    11295    10191    10077    10647    11465    12822    13662 
   13709    13861    13385    12355    11821    11126    10737    11948 
   13196    12866    12047    11978    12032    11518    11334    11553 
   11539    12140    12847    12397    11929    12139    12541    13084 
   13429    13506    13300    12626    12029    11677    11372    11070 
   10708    11129    12160    12204    11919    12328    12451    12452 
   12856    12814    12523    12467    12009    11449    11372    11361 
   11430    11630    11530    11634    12449    12995    12661    12137 
   11874    11997    12514    12910    13105    13443    13460    12750 
   11815    11215    11217    11693    12101    12127    11959    11907 
   11790    11360    11126    11406    12058    13020    13456    12870 
   12147    11700    11554    11902    12303    12599    12837    12642 
   12298    12271    12339    12067    11223    10426    10540    11396 
   12263    12722    13007    13347    13292    12918    12780    12494 
   11855    11786    12467    12965    12951    12684    12155    11541 
   11354    11426    11253    11250    11681    12185    12712    12981 
   12769    12688    12791    12507    12066    11599    10913    10837 
   11512    11947    12333    12699    12514    12514    12580    11720 
   10800    10844    11570    12548    13130    12981    12714    12568 
   12212    11720    11485    11614    11863    12206    12621    12661 
   12345    12056    11794    11770    11848    11518    11535    12278 
   12583    12640    13319    13876    13857    13601    12942    11997 
   11410    11404    11637    11616    11302    11365    12071    12428 
   11962    11546    11475    11406    11502    11921    12409    12803 
   13138    13375    13433    13115    12434    11959    11707    11222 
   10903    11020    11161    11519    12093    12174    12040    12325 
   12515    12294    12262    12572    12619    12181    12002    12492 
   12943    13008    12946    12637    12118    11796    11601    11334 
   11259    11533    11870    12144    12387    12448    12344    12249 
   12310    12587    12722    12476    12322    12482    12349    11766 
   11520    11929    12150    11727    11554    11919    11893    11533 
   11703    12236    12403    12170    12033    12235    12623    12688 
   12266    12178    12690    13174    13335    12969    12334    11958 
   11623    11369    11565    11888    11898    11699    11755    12090 
   12191    12063    12139    12334    12264    12052    12009    11971 
   11932    12118    12343    12341    11878    11044    10729    11175 
   11581    11851    12286    12490    12476    12673    12792    12918 
   13309    13144    12552    12861    13774    14048    13649    13069 
   12379    11712    11190    10731    10698    11157    11286    10937 
   10689    10831    11484    12317    12727    12614    12405    12588 
   12933    13065    13242    13211    12586    11885    11279    10589 
   10326    10820    11673    12390    12800    13154    13544    13821 
   14196    14531    14079    12884    11655    10714    10250    10399 
   10573    10107     9678    10297    11426    12245    12989    13594 
   13454    12517    11296    10531    10689    11369    11727    11850 
   12513    13429    14098    14812    15433    15616    15132    13772 
   12298    11624    11448    11164    10787    10451    10112     9922 
    9917    10038    10471    11052    11666    12513    12877    12135 
   11369    11750    13003    14258    14913    14716    14026    13591 
   13447    13117    12590    11882    11097    10831    11020    10943 
   10660    10724    11287    12276    13279    13824    14089    13925 
   12776    11307    10376     9923     9961    10365    10727    11121 
   11585    11643    11233    11044    11379    11947    12721    13568 
   14179    14817    15476    15483    14856    13921    12590    11429 
   10986    10719    10632    11094    11457    11601    11854    11718 
   11296    11373    11892    12271    12299    12160    12044    12082 
