Origin Time       2025/03/28 03:50:00
Lat.              35.403
Long.             140.360
Depth. (km)       54
Mag.              4.4
Station Code      CHB014
Station Lat.      35.4710
Station Long.     140.0454
Station Height(m) 8
Record Time       2025/03/28 03:50:57
Sampling Freq(Hz) 100Hz
Duration Time(s)  60
Dir.              E-W
Scale Factor      7845(gal)/8223790
Max. Acc. (gal)   10.526
Last Correction   2025/03/28 03:50:57
Memo.             
[...]
   -8884    -8910    -8916    -8897    -8883    -8892    -8896    -8885 
   -8895    -8916    -8914    -8895    -8892    -8900    -8892    -8876 
   -8883    -8899    -8907    -8905    -8897    -8893    -8897    -8897 
   -8904    -8914    -8910    -8900    -8901    -8897    -8881    -8869 
   -8869    -8872    -8876    -8880    -8885    -8889    -8877    -8869 
   -8884    -8888    -8883    -8896    -8896    -8885    -8899    -8920 
   -8930    -8934    -8920    -8899    -8885    -8885    -8889    -8888 
   -8883    -8876    -8874    -8874    -8877    -8883    -8892    -8899 
   -8901    -8903    -8895    -8888    -8889    -8885    -8874    -8858 
   -8843    -8853    -8876    -8896    -8922    -8924    -8904    -8892 
   -8891    -8896    -8919    -8934    -8924    -8910    -8895    -8887 
   -8895    -8897    -8885    -8869    -8860    -8866    -8869    -8869 
   -8881    -8891    -8887    -8887    -8895    -8893    -8889    -8888 
   -8884    -8877    -8878    -8884    -8887    -8888    -8884    -8876 
   -8880    -8901    -8920    -8916    -8910    -8911    -8908    -8899 
   -8900    -8911    -8907    -8895    -8889    -8885    -8885    -8887 
   -8885    -8893    -8892    -8876    -8868    -8881    -8895    -8893 
   -8905    -8934    -8942    -8930    -8914    -8904    -8897    -8880 
   -8872    -8885    -8889    -8874    -8869    -8878    -8887    -8888 
   -8895    -8903    -8907    -8908    -8903    -8895    -8895    -8888 
   -8881    -8888    -8889    -8877    -8858    -8842    -8847    -8870 
   -8892    -8907    -8915    -8910    -8892    -8893    -8908    -8903 
   -8896    -8904    -8908    -8911    -8910    -8901    -8900    -8900 
   -8900    -8905    -8911    -8904    -8897    -8893    -8885    -8878 
   -8874    -8869    -8868    -8870    -8877    -8883    -8888    -8899 
   -8897    -8887    -8893    -8899    -8900    -8918    -8932    -8931 
   -8930    -8931    -8922    -8901    -8884    -8888    -8899    -8899 
   -8905    -8922    -8918    -8893    -8870    -8865    -8868    -8873 
   -8883    -8891    -8900    -8907    -8911    -8916    -8905    -8885 
   -8878    -8889    -8901    -8901    -8892    -8885    -8887    -8887 
   -8889    -8895    -8893    -8892    -8897    -8901    -8904    -8904 
   -8897    -8889    -8889    -8889    -8880    -8861    -8843    -8842 
   -8858    -8878    -8900    -8923    -8928    -8918    -8912    -8905 
   -8897    -8897    -8904    -8907    -8905    -8907    -8900    -8883 
   -8872    -8876    -8881    -8887    -8891    -8893    -8900    -8904 
   -8908    -8914    -8915    -8912    -8907    -8903    -8907    -8899 
   -8881    -8884    -8892    -8885    -8878    -8881    -8884    -8881 
   -8881    -8883    -8892    -8905    -8911    -8914    -8910    -8895 
   -8884    -8887    -8895    -8899    -8897    -8893    -8878    -8858 
   -8858    -8872    -8885    -8900    -8910    -8919    -8927    -8918 
   -8897    -8891    -8893    -8892    -8884    -8883    -8887    -8883 
   -8872    -8868    -8874    -8880    -8891    -8900    -8908    -8915 
   -8922    -8931    -8928    -8900    -8881    -8878    -8880    -8889 
   -8896    -8895    -8892    -8873    -8858    -8865    -8872    -8874 
   -8874    -8878    -8897    -8911    -8916    -8923    -8911    -8885 
   -8874    -8874    -8876    -8881    -8884    -8896    -8908    -8899 
   -8897    -8908    -8905    -8903    -8895    -8876    -8870    -8872 
   -8874    -8885    -8893    -8899    -8889    -8872    -8860    -8857 
   -8876    -8893    -8893    -8900    -8910    -8914    -8915    -8908 
   -8904    -8907    -8901    -8893    -8889    -8870    -8851    -8864 
   -8883    -8889    -8896    -8899    -8888    -8881    -8889    -8899 
   -8900    -8903    -8910    -8915    -8918    -8916    -8915    -8904 
   -8888    -8883    -8880    -8868    -8868    -8878    -8884    -8884 
   -8885    -8893    -8904    -8903    -8891    -8881    -8884    -8889 
   -8877    -8866    -8876    -8878    -8873    -8880    -8889    -8889 
   -8891    -8904    -8918    -8916    -8907    -8904    -8914    -8915 
   -8901    -8897    -8897    -8896    -8899    -8893    -8884    -8878 
   -8873    -8874    -8881    -8888    -8897    -8905    -8914    -8907 
   -8892    -8889    -8892    -8895    -8893    -8891    -8900    -8896 
   -8880    -8883    -8887    -8888    -8899    -8912    -8920    -8919 
   -8901    -8883    -8876    -8873    -8865    -8851    -8857    -8872 
   -8870    -8878    -8903    -8907    -8899    -8897    -8897    -8905 
   -8908    -8910    -8924    -8928    -8922    -8922    -8920    -8914 
   -8904    -8892    -8887    -8876    -8858    -8851    -8857    -8870 
   -8881    -8884    -8903    -8920    -8918    -8915    -8910    -8905 
   -8900    -8885    -8896    -8926    -8924    -8912    -8916    -8915 
   -8901    -8869    -8837    -8869    -8937    -8943    -8916    -8927 
   -8937    -8887    -8842    -8887    -8951    -8923    -8845    -8824 
   -8856    -8862    -8873    -8962    -9024    -8954    -8922    -8993 
   -8947    -8754    -8627    -8656    -8725    -8742    -8795    -8942 
   -9000    -8857    -8750    -8881    -9031    -8961    -8858    -8943 
   -9096    -9169    -9198    -9177    -9067    -8927    -8770    -8595 
   -8521    -8633    -8742    -8640    -8480    -8561    -8872    -9123 
   -9131    -9078    -9229    -9374    -9100    -8731    -8866    -9174 
   -9112    -8995    -9192    -9425    -9387    -9159    -8881    -8623 
   -8507    -8533    -8598    -8710    -8730    -8510    -8249    -8206 
   -8441    -8788    -8966    -8939    -8907    -8973    -9081    -9198 
   -9381    -9543    -9414    -8989    -8572    -8417    -8552    -8791 
   -9005    -9217    -9410    -9483    -9310    -8880    -8490    -8407 
   -8482    -8581    -8842    -9084    -8953    -8633    -8546    -8766 
   -9074    -9223    -9082    -8746    -8530    -8540    -8522    -8523 
   -8803    -9100    -9182    -9275    -9386    -9308    -9018    -8563 
   -8113    -8021    -8445    -9109    -9620    -9896   -10079   -10174 
  -10019    -9533    -8951    -8548    -8280    -8035    -7894    -7947 
   -8158    -8388    -8557    -8780    -9034    -8999    -8703    -8621 
   -8849    -8957    -8791    -8723    -8943    -9201    -9298    -9250 
   -9104    -8905    -8793    -8918    -9130    -9153    -9018    -8949 
   -9034    -9109    -8924    -8594    -8527    -8757    -8911    -8799 
   -8626    -8706    -9055    -9312    -9254    -9050    -8847    -8600 
   -8391    -8517    -9043    -9579    -9752    -9541    -9173    -8969 
   -8914    -8698    -8357    -8125    -7993    -7958    -8128    -8526 
   -9027    -9458    -9755    -9871    -9682    -9252    -8857    -8681 
   -8754    -8999    -9169    -9031    -8685    -8487    -8575    -8777 
   -8993    -9231    -9366    -9317    -9225    -9101    -8858    -8662 
   -8619    -8584    -8627    -8864    -9049    -9019    -8900    -8654 
   -8154    -7643    -7512    -7738    -8040    -8402    -8858    -9171 
   -9197    -9101    -9116    -9309    -9574    -9882   -10210   -10393 
  -10315    -9891    -9200    -8773    -8923    -9166    -8991    -8559 
   -8236    -8071    -8014    -8131    -8289    -8217    -8051    -8098 
   -8237    -8316    -8652    -9522   -10582   -11268   -11433   -11098 
  -10203    -9081    -8220    -7573    -6987    -6639    -6644    -6920 
   -7353    -7898    -8634    -9505   -10150   -10301   -10103    -9814 
   -9379    -8645    -7935    -7740    -8016    -8453    -9032    -9776 
  -10377   -10509   -10169    -9493    -8689    -8059    -7761    -7900 
   -8484    -9096    -9352    -9397    -9466    -9456    -9194    -8878 
   -8797    -8851    -8946    -9231    -9644    -9911    -9872    -9489 
   -8864    -8212    -7734    -7562    -7798    -8429    -9058    -9258 
   -9147    -9030    -8972    -8978    -8996    -8938    -8772    -8407 
   -7870    -7457    -7416    -7797    -8552    -9458   -10135   -10304 
   -9975    -9444    -8989    -8592    -8318    -8425    -8845    -9285 
   -9643    -9965   -10269   -10322    -9840    -8922    -7958    -7229 
   -6752    -6569    -6887    -7744    -8926   -10102   -10831   -10881 
  -10516   -10184    -9967    -9508    -8614    -7730    -7523    -7974 
   -8410    -8596    -8834    -9136    -9286    -9140    -8563    -7761 
   -7371    -7651    -8249    -8868    -9444    -9927   -10246   -10331 
  -10137    -9695    -9138    -8576    -8077    -7809    -8005    -8789 
   -9918   -10802   -11051   -10656    -9795    -8816    -8121    -7747 
   -7345    -6832    -6624    -6978    -7677    -8432    -9150    -9850 
  -10385   -10397    -9828    -9117    -8587    -8270    -8282    -8614 
   -9016    -9354    -9575    -9521    -9053    -8278    -7636    -7534 
   -7912    -8356    -8594    -8770    -9151    -9670   -10021   -10057 
   -9844    -9408    -8788    -8279    -8128    -8294    -8706    -9255 
   -9721    -9926    -9834    -9618    -9466    -9252    -8814    -8330 
   -8139    -8417    -9049    -9602    -9643    -9202    -8729    -8432 
   -8104    -7697    -7427    -7334    -7411    -7823    -8635    -9610 
  -10359   -10685   -10644   -10272    -9563    -8739    -8156    -7956 
   -8039    -8287    -8611    -8777    -8677    -8472    -8147    -7654 
   -7402    -7734    -8379    -8932    -9427    -9969   -10253   -10052 
   -9620    -9184    -8760    -8502    -8642    -9175    -9923   -10700 
  -11256   -11422   -11232   -10764   -10042    -9166    -8437    -8041 
   -7695    -7307    -7391    -8102    -8799    -8934    -8746    -8779 
   -9023    -9001    -8469    -7658    -6990    -6689    -6691    -6905 
   -7322    -7929    -8680    -9471   -10066   -10220    -9900    -9346 
   -8993    -9103    -9413    -9459    -9126    -8691    -8488    -8577 
   -8765    -8953    -9188    -9408    -9436    -9174    -8830    -8749 
   -8888    -8982    -9082    -9285    -9412    -9313    -9146    -9177 
   -9443    -9826   -10196   -10380   -10316    -9999    -9379    -8714 
   -8324    -8098    -7906    -7871    -7985    -8131    -8407    -8891 
   -9305    -9402    -9327    -9259    -9100    -8708    -8152    -7604 
   -7069    -6551    -6277    -6457    -7047    -7716    -8152    -8540 
   -9117    -9663    -9930    -9961    -9898    -9837    -9714    -9452 
   -9188    -9101    -9157    -9270    -9562   -10162   -10836   -11148 
  -10906   -10203    -9356    -8768    -8588    -8727    -9035    -9305 
   -9333    -9076    -8662    -8226    -7889    -7894    -8303    -8873 
   -9410    -9788    -9760    -9202    -8364    -7628    -7219    -7207 
   -7524    -8016    -8475    -8637    -8430    -8054    -7684    -7447 
   -7465    -7720    -8147    -8703    -9259    -9630    -9772    -9767 
   -9671    -9558    -9572    -9795   -10218   -10721   -11056   -11070 
  -10763   -10141    -9320    -8576    -8166    -8205    -8500    -8714 
   -8811    -8997    -9261    -9315    -8941    -8228    -7542    -7245 
   -7389    -7754    -8108    -8306    -8359    -8422    -8634    -8959 
   -9254    -9344    -9189    -9005    -9007    -9058    -8930    -8725 
   -8645    -8661    -8677    -8718    -8804    -8854    -8772    -8626 
   -8544    -8549    -8637    -8694    -8568    -8390    -8453    -8849 
   -9405    -9902   -10299   -10601   -10751   -10733   -10539   -10184 
   -9809    -9587    -9558    -9580    -9502    -9278    -8945    -8619 
   -8378    -8137    -7825    -7506    -7308    -7389    -7798    -8359 
   -8785    -8919    -8846    -8706    -8468    -8089    -7717    -7589 
   -7815    -8276    -8741    -9026    -9051    -8883    -8758    -8849 
   -9088    -9301    -9385    -9385    -9382    -9346    -9301    -9387 
   -9598    -9757    -9790    -9724    -9478    -8969    -8356    -7927 
   -7878    -8220    -8733    -9113    -9254    -9347    -9535    -9618 
   -9410    -9000    -8617    -8433    -8451    -8584    -8748    -8912 
   -9127    -9302    -9207    -8837    -8507    -8530    -8922    -9435 
   -9784    -9815    -9579    -9228    -8908    -8719    -8633    -8571 
   -8633    -8927    -9298    -9543    -9672    -9774    -9802    -9709 
   -9563    -9412    -9205    -8884    -8333    -7566    -6893    -6608 
   -6820    -7506    -8442    -9298    -9855   -10062    -9981    -9864 
  -10037   -10469   -10809   -10874   -10670   -10177    -9423    -8421 
   -7071    -5440    -3915    -2925    -2695    -3200    -4345    -6021 
   -7869    -9435   -10426   -10679   -10234    -9405    -8662    -8310 
   -8263    -8398    -8802    -9497   -10451   -11638   -12775   -13450 
  -13516   -13038   -11997   -10301    -8171    -6192    -4887    -4522 
   -5146    -6540    -8229    -9587   -10222   -10199    -9767    -9117 
   -8482    -8286    -8904   -10243   -11901   -13424   -14249   -14056 
  -13042   -11578    -9833    -7813    -5661    -3805    -2717    -2565 
   -3119    -3994    -4819    -5259    -5355    -5692    -6759    -8478 
  -10473   -12391   -14033   -15229   -15741   -15649   -15408   -15300 
  -15276   -15210   -14953   -14381   -13524   -12445   -10993    -8888 
   -6160    -3419    -1551    -1093    -1942    -3570    -5289    -6405 
   -6569    -6002    -5275    -4885    -5004    -5657    -6970    -8866 
  -10854   -12302   -12800   -12525   -12017   -11389   -10515    -9601 
   -8918    -8596    -8537    -8291    -7515    -6316    -4997    -3839 
   -3172    -3424    -4745    -6628    -8444   -10162   -12087   -14060 
  -15261   -15053   -13807   -12282   -10786    -9483    -8530    -7839 
   -7381    -7136    -7053    -7523    -8993   -11584   -15025   -18262 
  -19927   -19291   -16460   -12100    -7210    -2921      -51     1109 
     689     -853    -2998    -5229    -6902    -7469    -6829    -5405 
   -3800    -2490    -1941    -2520    -4318    -7199   -10723   -14089 
  -16475   -17491   -17257   -16170   -14689   -13065   -11427   -10064 
   -9235    -9104    -9759   -11002   -12401   -13420   -13633   -12896 
  -11198    -8766    -6295    -4536    -3829    -4055    -4758    -5582 
   -6496    -7464    -8341    -9020    -9370    -9310    -8961    -8542 
   -8172    -7844    -7546    -7360    -7430    -7742    -8009    -7943 
   -7573    -7184    -6993    -6976    -6999    -6975    -6945    -7065 
   -7524    -8491    -9967   -11792   -13767   -15562   -16676   -16683 
  -15546   -13679   -11700   -10083    -8804    -7587    -6444    -5566 
   -5119    -5421    -6562    -8114    -9487   -10304   -10552   -10432 
  -10010    -9188    -7994    -6754    -5895    -5632    -5880    -6389 
   -6937    -7326    -7474    -7608    -8028    -8860   -10084   -11500 
  -12749   -13431   -13205   -11997   -10111    -8051    -6291    -5225 
   -5028    -5522    -6351    -7165    -7786    -8268    -8691    -9013 
   -9215    -9408    -9755   -10197   -10397   -10062    -9121    -7738 
   -6305    -5197    -4681    -4986    -6065    -7645    -9466   -11340 
  -13140   -14708   -15801   -16194   -15769   -14629   -13124   -11704 
  -10569    -9539    -8538    -7736    -7161    -6747    -6547    -6525 
   -6513    -6386    -6146    -5834    -5420    -4943    -4700    -5049 
   -6201    -8152   -10605   -13022   -14760   -15237   -14206   -11956 
   -9178    -6550    -4490    -3273    -3064    -3809    -5252    -6978 
   -8557    -9729   -10465   -10894   -11098   -11115   -10991   -10713 
  -10277    -9726    -9193    -8893    -8947    -9356   -10087   -11071 
  -12108   -12816   -12866   -12197   -10960    -9437    -7944    -6696 
   -5784    -5193    -4895    -4924    -5309    -6016    -6928    -7836 
   -8584    -9111    -9393    -9464    -9474    -9495    -9420    -9252 
   -9190    -9339    -9544    -9575    -9390    -9153    -9067    -9247 
   -9636   -10056   -10336   -10478   -10582   -10592   -10372    -9936 
   -9396    -8833    -8247    -7626    -6999    -6388    -5832    -5525 
   -5764    -6690    -8102    -9606   -10930   -11925   -12339   -11970 
  -10933    -9509    -7900    -6320    -5097    -4527    -4688    -5476 
   -6756    -8388   -10130   -11554   -12248   -12154   -11578   -10818 
  -10042    -9464    -9265    -9390    -9589    -9601    -9366    -9026 
   -8688    -8361    -8159    -8299    -8876    -9799   -10913   -12012 
  -12802   -12911   -12101   -10542    -8634    -6650    -4862    -3609 
   -3032    -3076    -3643    -4600    -5757    -6882    -7861    -8708 
   -9328    -9671    -9964   -10466   -11194   -12028   -12910   -13757 
  -14226   -13886   -12656   -10816    -8707    -6662    -5055    -4180 
   -4135    -4853    -6124    -7622    -8978    -9956   -10504   -10623 
  -10389   -10052    -9830    -9806    -9985   -10335   -10758   -11079 
  -11145   -10920   -10426    -9730    -9005    -8367    -7788    -7245 
   -6843    -6706    -6843    -7099    -7198    -6891    -6204    -5394 
   -4764    -4681    -5386    -6754    -8523   -10412   -12051   -13178 
  -13663   -13471   -12772   -11854   -10955   -10230    -9794    -9706 
   -9929   -10342   -10782   -11071   -11028   -10546    -9587    -8222 
   -6673    -5227    -4135    -3516    -3318    -3500    -4128    -5179 
   -6421    -7543    -8351    -8861    -9212    -9521    -9856   -10277 
  -10824   -11480   -12168   -12847   -13481   -13913   -13936   -13489 
  -12695   -11755   -10821    -9948    -9131    -8357    -7580    -6801 
   -6210    -6014    -6145    -6334    -6417    -6442    -6542    -6810 
   -7265    -7838    -8352    -8580    -8401    -7951    -7565    -7464 
   -7626    -7935    -8317    -8735    -9162    -9508    -9730    -9880 
   -9956    -9963    -9927    -9788    -9509    -9131    -8698    -8283 
   -8043    -8129    -8540    -9140    -9814   -10462   -10984   -11331 
  -11519   -11530   -11318   -10929   -10423    -9779    -8965    -8043 
   -7200    -6650    -6565    -6982    -7747    -8619    -9360    -9849 
  -10081   -10017    -9621    -8945    -8116    -7375    -6907    -6733 
   -6852    -7271    -7906    -8548    -8962    -9059    -8941    -8814 
   -8812    -8924    -9049    -9090    -9073    -9105    -9223    -9315 
   -9231    -8954    -8567    -8162    -7898    -7971    -8486    -9360 
  -10376   -11348   -12131   -12517   -12378   -11746   -10743    -9514 
   -8237    -7072    -6131    -5494    -5205    -5228    -5510    -6072 
   -6918    -7944    -8991    -9949   -10720   -11149   -11142   -10805 
  -10357   -10021    -9925    -9991   -10003    -9747    -9111    -8186 
   -7236    -6610    -6559    -7063    -7919    -8934    -9967   -10871 
  -11557   -12046   -12383   -12498   -12305   -11838   -11140   -10218 
   -9130    -7927    -6623    -5294    -4116    -3283    -2906    -2963 
   -3416    -4243    -5325    -6521    -7753    -8976   -10123   -11045 
  -11588   -11712   -11507   -11145   -10773   -10513   -10461   -10505 
  -10440   -10196    -9805    -9363    -8974    -8762    -8888    -9356 
   -9988   -10590   -11026   -11238   -11250   -11133   -10924   -10584 
  -10079    -9485    -8899    -8333    -7743    -7128    -6565    -6131 
   -5857    -5782    -5945    -6377    -7079    -7920    -8685    -9174 
   -9265    -8985    -8472    -7896    -7452    -7281    -7400    -7711 
   -8077    -8437    -8788    -9094    -9375    -9703   -10085   -10498 
  -10905   -11240   -11453   -11519   -11479   -11439   -11402   -11284 
  -11041   -10628   -10045    -9367    -8671    -8001    -7393    -6916 
   -6664    -6700    -6957    -7299    -7608    -7842    -8037    -8220 
   -8305    -8235    -8060    -7906    -7844    -7840    -7873    -7969 
