Origin Time       2025/03/28 03:50:00
Lat.              35.403
Long.             140.360
Depth. (km)       54
Mag.              4.4
Station Code      CHB024
Station Lat.      35.6337
Station Long.     140.0781
Station Height(m) 3
Record Time       2025/03/28 03:50:58
Sampling Freq(Hz) 100Hz
Duration Time(s)  60
Dir.              U-D
Scale Factor      7845(gal)/8223790
Max. Acc. (gal)   1.797
Last Correction   2025/03/28 03:50:58
Memo.             
[...]
    9270     9273     9283     9301     9308     9305     9312     9328 
    9325     9300     9277     9278     9283     9288     9310     9333 
    9329     9313     9294     9278     9269     9256     9235     9227 
    9254     9302     9335     9328     9296     9273     9286     9319 
    9337     9329     9315     9308     9298     9285     9270     9259 
    9258     9271     9300     9332     9335     9289     9251     9255 
    9273     9286     9298     9300     9290     9274     9262     9263 
    9283     9304     9302     9292     9296     9305     9293     9269 
    9263     9277     9292     9304     9292     9251     9225     9243 
    9283     9317     9331     9324     9312     9301     9290     9279 
    9283     9297     9304     9297     9286     9282     9274     9265 
    9281     9304     9297     9277     9267     9261     9258     9259 
    9265     9283     9297     9294     9297     9300     9285     9275 
    9282     9289     9289     9283     9271     9255     9251     9271 
    9317     9355     9336     9277     9240     9239     9242     9239 
    9252     9282     9301     9300     9279     9266     9274     9283 
    9270     9254     9255     9254     9250     9261     9277     9282 
    9283     9281     9286     9300     9294     9269     9258     9273 
    9285     9271     9263     9271     9270     9255     9262     9290 
    9302     9297     9293     9288     9300     9333     9346     9317 
    9296     9292     9275     9263     9279     9304     9316     9294 
    9244     9221     9238     9244     9251     9279     9301     9300 
    9296     9290     9281     9285     9298     9304     9301     9298 
    9297     9283     9269     9278     9292     9288     9279     9273 
    9265     9261     9261     9278     9309     9305     9265     9234 
    9236     9265     9289     9292     9290     9304     9323     9325 
    9317     9305     9289     9270     9248     9251     9278     9286 
    9273     9270     9290     9320     9335     9312     9271     9248 
    9256     9290     9333     9354     9340     9324     9308     9270 
    9232     9234     9256     9269     9277     9293     9298     9285 
    9275     9282     9290     9279     9256     9261     9288     9297 
    9288     9279     9273     9277     9304     9328     9316     9289 
    9285     9301     9305     9292     9277     9259     9255     9283 
    9316     9317     9285     9248     9255     9300     9331     9332 
    9317     9305     9286     9263     9269     9301     9312     9290 
    9267     9263     9274     9275     9262     9254     9250     9258 
    9294     9324     9301     9270     9267     9261     9252     9265 
    9277     9269     9263     9290     9317     9302     9262     9239 
    9258     9302     9337     9328     9263     9201     9204     9252 
    9298     9319     9324     9313     9281     9252     9243     9250 
    9275     9305     9306     9285     9270     9261     9255     9259 
    9275     9292     9290     9281     9283     9300     9309     9292 
    9261     9247     9256     9281     9309     9325     9321     9310 
    9305     9298     9275     9262     9262     9259     9269     9282 
    9283     9278     9266     9269     9298     9312     9293     9283 
    9296     9306     9298     9283     9281     9283     9292     9304 
    9312     9306     9286     9265     9250     9243     9262     9293 
    9297     9279     9275     9285     9300     9308     9301     9281 
    9262     9256     9274     9301     9302     9277     9269     9286 
    9288     9267     9256     9263     9281     9293     9286     9271 
    9265     9252     9250     9277     9308     9316     9308     9288 
    9261     9254     9286     9336     9350     9309     9261     9240 
    9232     9231     9254     9300     9332     9329     9294     9244 
    9223     9251     9290     9315     9331     9323     9302     9293 
    9288     9274     9259     9256     9278     9309     9315     9297 
    9286     9279     9292     9313     9298     9266     9248     9229 
    9228     9266     9325     9381     9387     9315     9232     9216 
    9244     9271     9286     9293     9293     9285     9282     9301 
    9317     9304     9267     9242     9248     9269     9275     9278 
    9301     9336     9354     9321     9255     9240     9319     9420 
    9487     9479     9344     9154     9062     9126     9274     9390 
    9387     9282     9162     9069     9058     9151     9254     9331 
    9429     9478     9401     9323     9348     9354     9192     8903 
    8642     8488     8472     8716     9180     9505     9528     9418 
    9309     9336     9564     9799     9958    10080     9985     9734 
    9745     9960     9895     9578     9379     9279     9181     9163 
    9101     8942     8938     9051     9007     8959     9170     9370 
    9364     9356     9304     9103     8895     8738     8672     8761 
    8935     9157     9425     9558     9383     9121     9139     9428 
    9618     9541     9513     9652     9622     9404     9250     9163 
    9167     9333     9401     9240     9155     9163     9023     8870 
    8880     9027     9286     9460     9406     9310     9283     9313 
    9493     9691     9589     9255     9076     9202     9381     9298 
    9070     8984     9061     9204     9367     9579     9707     9567 
    9459     9535     9391     9103     9042     9024     8926     8946 
    9112     9328     9342     9069     9012     9317     9468     9371 
    9247     9105     9135     9375     9454     9382     9352     9265 
    9227     9356     9459     9489     9510     9494     9459     9358 
    9182     9204     9477     9666     9562     9201     8922     9061 
    9348     9474     9502     9375     9150     9092     9138     9067 
    8947     8961     9026     8962     8893     9027     9262     9481 
    9701     9783     9690     9602     9552     9520     9458     9279 
    9120     9111     9103     9013     8991     9100     9197     9254 
    9393     9543     9606     9606     9441     9232     9298     9428 
    9305     9178     9140     9043     9015     9030     8981     9072 
    9283     9409     9521     9664     9707     9552     9298     9213 
    9324     9401     9342     9182     9109     9239     9306     9192 
    9121     9084     9072     9186     9135     8914     8964     9123 
    9159     9266     9319     9180     9063     9120     9402     9703 
    9779     9855     9872     9463     8996     8953     9232     9651 
    9936     9875     9589     9190     8949     9138     9452     9590 
    9509     9167     8843     8791     8876     9067     9209     9085 
    9067     9352     9560     9612     9568     9271     8874     8657 
    8515     8410     8588     9043     9479     9757     9895     9864 
    9713     9639     9840    10160    10098     9636     9333     9347 
    9297     8991     8633     8461     8572     8883     9121     9169 
    9185     9240     9286     9278     9265     9390     9582     9547 
    9377     9467     9566     9228     8930     9163     9535     9571 
    9315     9094     9140     9343     9490     9467     9261     9031 
    8912     8976     9325     9756     9823     9518     9235     9194 
    9240     9020     8631     8669     9080     9348     9575     9884 
    9923     9605     9212     8816     8461     8444     8833     9331 
    9741    10029    10162    10110     9857     9510     9181     8851 
    8680     8891     9281     9525     9429     8943     8421     8124 
    7983     8228     8968     9707    10133    10257    10061     9818 
    9748     9599     9387     9387     9483     9440     9301     9202 
    9121     8950     8834     8915     9027     9205     9506     9647 
    9595     9501     9293     9109     9167     9335     9526     9771 
    9891     9909    10112    10355    10139     9526     9042     8735 
    8413     8326     8596     8826     8829     8775     8739     8718 
    8799     9067     9418     9617     9616     9474     9306     9400 
    9699     9799     9647     9343     8823     8375     8391     8656 
    8827     8943     9061     9224     9547     9914     9987     9688 
    9348     9217     9288     9614    10008     9990     9630     9312 
    9024     8868     9073     9378     9451     9450     9467     9244 
    8887     8839     8977     9001     9043     9053     8995     9269 
    9779     9985     9884     9732     9671     9720     9595     9151 
    8641     8297     8247     8479     8873     9336     9598     9591 
    9620     9579     9355     9378     9652     9722     9630     9567 
    9423     9184     8996     9031     9290     9539     9684     9657 
    9410     9274     9263     8999     8726     8858     9140     9412 
    9784     9871     9452     9022     8802     8715     8838     9005 
    9080     9186     9302     9414     9571     9555     9246     8984 
    9004     9135     9360     9794    10165    10062     9425     8762 
    8650     8908     9130     9324     9400     9247     9173     9378 
    9667     9807     9652     9211     8824     8816     9121     9429 
    9525     9402     9158     9046     9196     9298     9269     9352 
    9451     9417     9286     9030     8812     8862     9024     9112 
    9138     9081     9143     9528     9846     9809     9765     9792 
    9613     9418     9468     9468     9347     9327     9217     9034 
    9076     9088     8907     8920     9120     9161     9105     9107 
    9127     9208     9335     9413     9464     9464     9429     9468 
    9491     9404     9258     9120     9144     9335     9428     9389 
    9285     9053     8922     9194     9636     9860     9805     9570 
    9317     9189     9142     9128     9180     9165     8988     8838 
    8905     9121     9346     9455     9354     9175     9058     8862 
    8567     8379     8365     8519     9008     9759    10292    10403 
   10243     9903     9475     9109     9043     9482    10102    10339 
   10188     9917     9501     9063     8892     8854     8815     8881 
    8941     8903     8865     8830     8776     8714     8810     9275 
    9856    10103     9996     9759     9487     9182     8911     8845 
    8950     8959     8918     9081     9393     9749    10135    10316 
   10207     9995     9648     9193     8962     8945     8891     8858 
    8930     9066     9269     9474     9595     9625     9541     9427 
    9431     9416     9180     8903     8797     8847     8996     9073 
    8951     8787     8769     8822     8814     8887     9171     9485 
    9605     9597     9672     9790     9674     9290     8914     8765 
    8838     9027     9220     9300     9244     9238     9467     9809 
    9950     9799     9516     9317     9286     9308     9347     9452 
    9531     9509     9423     9346     9363     9409     9332     9132 
    8843     8506     8391     8634     8946     9186     9474     9744 
    9877     9869     9711     9478     9267     9039     8781     8619 
    8680     8789     8673     8514     8563     8762     9112     9517 
    9715     9763     9807     9767     9618     9433     9220     9109 
    9259     9597     9877     9963     9958     9876     9570     9201 
    8932     8633     8460     8679     9045     9163     9022     8851 
    8843     9057     9389     9709    10003    10197    10143     9961 
    9899     9911     9810     9622     9506     9541     9645     9622 
    9405     9061     8627     8255     8194     8475     8869     9161 
    9346     9475     9459     9306     9262     9387     9471     9386 
    9126     8722     8449     8538     8869     9266     9648     9879 
    9895     9799     9621     9316     9045     8939     8907     8996 
    9256     9464     9491     9487     9525     9576     9796    10191 
   10416    10319     9994     9544     9097     8758     8623     8730 
    8803     8607     8380     8332     8336     8349     8492     8762 
    8991     9084     9124     9166     9146     9073     9061     9181 
    9416     9622     9666     9564     9431     9394     9529     9742 
    9941    10125    10200    10123     9972     9751     9495     9348 
    9412     9668     9954    10077     9984     9767     9579     9454 
    9391     9520     9840    10072    10029     9768     9332     8858 
    8626     8552     8328     8106     8028     7854     7661     7717 
    7938     8232     8654     9094     9410     9558     9562     9660 
    9900     9946     9805     9578     9011     8221     7693     7547 
    7727     8290     9063     9736    10143    10181    10019    10035 
   10268    10621    10995    11057    10736    10400    10189     9977 
    9765     9614     9470     9364     9370     9212     8854     8661 
    8563     8456     8467     8452     8460     8738     9167     9513 
    9684     9630     9425     9220     9040     8860     8722     8689 
    8808     8978     9117     9312     9504     9572     9587     9590 
    9532     9401     9293     9321     9439     9494     9335     8942 
    8603     8691     9154     9666    10037    10069     9765     9406 
    9094     8920     8969     8984     8924     8984     8843     8355 
    8152     8457     8914     9524    10108    10187     9938     9769 
    9697     9853    10183    10346    10465    10505    10107     9423 
    8710     8041     7749     8014     8529     8955     9178     9158 
    8919     8761     8989     9533    10241    10854    11142    11142 
   10789    10119     9393     8769     8280     7780     7400     7430 
    7542     7511     7643     7956     8359     8966     9671    10303 
   10790    10959    10862    10759    10590    10126     9409     8680 
    8148     7896     7982     8409     8955     9401     9745    10010 
   10143    10045     9706     9364     9188     9104     9039     8961 
    8881     8926     9185     9553     9892    10211    10435    10372 
   10064     9697     9371     9185     9189     9244     9217     9082 
    8843     8635     8606     8765     8959     8996     8968     8919 
    8664     8414     8415     8577     9011     9629    10065    10291 
   10206     9724     9227     8962     8866     8989     9269     9563 
    9776     9722     9485     9413     9549     9711     9872    10038 
   10107     9956     9589     9217     8926     8619     8390     8338 
    8386     8527     8727     8829     8897     8982     8981     9024 
    9221     9460     9761    10168    10481    10519    10220     9676 
    9174     8791     8527     8554     8731     8864     9038     9100 
    8858     8622     8613     8672     8869     9298     9729     9936 
    9964    10027    10130    10154    10112     9987     9726     9346 
    8946     8614     8451     8517     8687     8957     9302     9514 
    9624     9752     9794     9765     9811     9832     9768     9705 
    9510     9242     9166     9198     9119     8988     8820     8522 
    8307     8324     8414     8463     8374     8233     8305     8680 
    9266     9834    10191    10366    10438    10444    10416    10370 
   10319    10118     9711     9328     9036     8739     8482     8251 
    8068     8214     8650     9005     9231     9344     9223     9018 
    8942     9003     9221     9617    10125    10606    10849    10746 
   10370     9813     9185     8662     8374     8340     8448     8556 
    8635     8681     8810     9207     9624     9706     9583     9428 
    9244     9126     9159     9302     9410     9383     9275     9174 
    9123     9236     9529     9815    10017    10021     9749     9444 
    9213     8978     8811     8829     9007     9163     9186     9113 
    9047     9132     9431     9749     9863     9838     9769     9583 
    9400     9337     9243     9154     9201     9185     9004     8842 
    8735     8691     8841     9104     9263     9317     9267     9055 
    8862     8854     8966     9186     9483     9616     9535     9470 
    9502     9562     9553     9432     9305     9261     9263     9310 
    9396     9467     9541     9630     9734     9868     9855     9617 
    9440     9413     9420     9416     9219     8793     8370     8078 
    8010     8205     8519     8850     9243     9694    10042    10153 
   10052     9869     9721     9656     9674     9660     9477     9193 
    9036     9046     9047     9039     9167     9327     9404     9495 
    9586     9628     9713     9780     9690     9549     9551     9728 
    9904     9772     9263     8633     8106     7820     7781     7765 
    7685     7788     8222     8793     9242     9456     9441     9433 
    9725    10161    10419    10435    10297    10195    10224    10250 
   10176    10039     9857     9590     9223     8827     8544     8459 
    8486     8467     8372     8316     8428     8676     8903     9036 
    9107     9146     9242     9474     9682     9670     9621     9715 
    9845     9911     9863     9672     9467     9409     9452     9467 
    9436     9358     9248     9238     9405     9541     9431     9180 
    8953     8748     8537     8341     8176     8160     8414     8893 
    9378     9720     9958    10077    10135    10264    10295    10131 
    9925     9630     9238     8923     8673     8468     8464     8618 
    8776     8991     9265     9517     9769    10029    10300    10570 
   10671    10542    10314     9972     9475     8972     8586     8330 
    8229     8252     8295     8340     8421     8507     8552     8565 
    8645     8819     9027     9232     9344     9240     9015     8910 
    8982     9153     9385     9649     9936    10192    10366    10470 
   10420    10127     9726     9367     9088     8997     9189     9535 
    9814     9940     9968     9946     9817     9564     9240     8908 
    8685     8640     8735     8861     8901     8876     8884     8955 
    9024     9028     8943     8831     8822     8950     9142     9278 
    9351     9406     9355     9178     9092     9198     9356     9462 
    9516     9452     9165     8752     8503     8600     8955     9309 
    9479     9506     9568     9741     9877     9825     9680     9668 
    9961    10505    10895    10723    10044     9267     8735     8540 
    8476     8257     7939     7866     8212     8860     9489     9748 
    9591     9336     9321     9651    10048    10103     9803     9428 
    9231     9310     9512     9586     9431     9120     8872     8839 
    8934     9020     9073     9086     9092     9189     9337     9362 
    9208     8970     8814     8904     9255     9659     9819     9614 
    9205     8847     8691     8695     8715     8665     8587     8615 
    8833     9196     9586     9872    10011     9987     9783     9535 
    9356     9231     9192     9242     9313     9396     9458     9513 
    9683     9984    10297    10508    10546    10420    10134     9751 
    9443     9204     8976     8833     8752     8644     8545     8538 
    8656     8866     9063     9184     9254     9302     9359     9458 
    9486     9301     8974     8617     8262     8019     7939     8050 
    8426     8918     9370     9895    10395    10665    10755    10642 
   10292     9877     9460     8999     8572     8193     7882     7801 
    7959     8283     8743     9200     9579     9952    10241    10454 
   10666    10720    10542    10161     9602     9053     8698     8507 
