Origin Time       2025/03/28 03:50:00
Lat.              35.403
Long.             140.360
Depth. (km)       54
Mag.              4.4
Station Code      CHB029
Station Lat.      35.6948
Station Long.     139.9176
Station Height(m) 3
Record Time       2025/03/28 03:51:00
Sampling Freq(Hz) 100Hz
Duration Time(s)  60
Dir.              U-D
Scale Factor      7845(gal)/8223790
Max. Acc. (gal)   1.395
Last Correction   2025/03/28 03:51:00
Memo.             
[...]
    2311     2311     2300     2304     2309     2307     2305     2297 
    2288     2288     2281     2277     2282     2285     2288     2295 
    2297     2296     2292     2296     2304     2307     2299     2292 
    2299     2305     2295     2284     2284     2281     2282     2286 
    2289     2299     2304     2288     2278     2289     2293     2292 
    2285     2276     2284     2293     2288     2289     2293     2290 
    2292     2299     2296     2288     2289     2296     2292     2289 
    2299     2301     2290     2280     2280     2289     2293     2284 
    2284     2296     2290     2284     2296     2300     2293     2293 
    2292     2293     2299     2288     2281     2286     2284     2284 
    2290     2284     2282     2289     2285     2288     2296     2295 
    2295     2295     2299     2309     2304     2292     2296     2297 
    2290     2292     2293     2288     2284     2281     2282     2290 
    2300     2305     2304     2288     2285     2305     2312     2303 
    2292     2286     2288     2289     2284     2288     2295     2293 
    2297     2311     2315     2307     2301     2307     2313     2313 
    2305     2295     2289     2284     2286     2296     2297     2301 
    2305     2301     2297     2301     2304     2303     2299     2297 
    2297     2297     2295     2288     2285     2288     2286     2280 
    2278     2292     2297     2285     2281     2300     2313     2300 
    2290     2297     2296     2292     2300     2303     2289     2282 
    2289     2286     2278     2277     2278     2274     2278     2285 
    2290     2297     2297     2297     2299     2293     2292     2297 
    2290     2281     2284     2288     2285     2284     2281     2278 
    2276     2281     2296     2303     2293     2288     2292     2290 
    2295     2304     2297     2286     2285     2290     2299     2293 
    2280     2281     2285     2284     2285     2286     2281     2281 
    2290     2297     2297     2300     2305     2304     2295     2293 
    2295     2289     2285     2295     2305     2300     2289     2293 
    2300     2292     2290     2295     2289     2296     2308     2305 
    2297     2296     2299     2301     2295     2286     2286     2288 
    2289     2296     2290     2276     2272     2281     2288     2289 
    2286     2284     2292     2300     2301     2304     2297     2286 
    2299     2308     2308     2301     2290     2293     2295     2284 
    2282     2289     2280     2270     2277     2284     2285     2286 
    2282     2288     2303     2303     2295     2292     2292     2286 
    2285     2288     2293     2295     2280     2270     2284     2295 
    2299     2295     2281     2277     2285     2290     2292     2296 
    2299     2300     2301     2303     2304     2304     2304     2311 
    2304     2285     2280     2288     2292     2289     2290     2290 
    2274     2266     2286     2296     2286     2281     2290     2297 
    2290     2284     2289     2299     2303     2299     2295     2296 
    2296     2293     2301     2305     2297     2300     2303     2300 
    2300     2299     2296     2301     2303     2297     2293     2289 
    2282     2289     2299     2292     2285     2288     2282     2285 
    2293     2290     2292     2293     2282     2281     2286     2288 
    2299     2305     2296     2282     2278     2290     2307     2304 
    2292     2296     2299     2290     2296     2305     2309     2301 
    2280     2289     2313     2299     2282     2295     2300     2288 
    2284     2282     2282     2301     2308     2290     2282     2290 
    2300     2301     2289     2288     2296     2286     2274     2282 
    2285     2276     2277     2290     2286     2278     2288     2295 
    2292     2296     2300     2300     2304     2305     2301     2297 
    2290     2293     2309     2303     2288     2293     2293     2286 
    2292     2296     2289     2285     2285     2284     2286     2289 
    2296     2301     2292     2289     2305     2307     2299     2304 
    2309     2305     2300     2301     2315     2317     2323     2339 
    2338     2319     2324     2361     2401     2416     2396     2346 
    2305     2324     2397     2419     2263     1987     1877     2130 
    2500     2563     2284     2018     2029     2192     2192     2081 
    2308     2871     3052     2385     1439     1213     1945     2897 
    3254     2786     1929     1468     1706     2265     2760     2916 
    2552     2076     2080     2428     2556     2378     2249     2290 
    2316     2315     2411     2384     2042     1788     2095     2731 
    2955     2376     1549     1456     2170     2744     2619     2278 
    2332     2635     2608     2112     1637     1734     2378     2918 
    2866     2424     1987     1802     2026     2396     2438     2211 
    2097     2204     2455     2683     2629     2385     2369     2543 
    2443     2154     2145     2292     2261     2300     2578     2570 
    1964     1393     1529     2138     2581     2596     2299     2095 
    2416     2979     2918     2023     1221     1509     2589     3169 
    2775     2128     1844     2006     2385     2519     2367     2361 
    2490     2477     2411     2419     2403     2332     2369     2501 
    2420     2180     2201     2362     2261     2108     2245     2371 
    2135     1788     1838     2357     2787     2583     1998     1752 
    2030     2346     2366     2342     2500     2609     2500     2316 
    2196     2187     2255     2270     2205     2168     2223     2309 
    2257     2065     2007     2246     2621     2847     2755     2430 
    2124     2083     2384     2650     2405     1960     1918     2118 
    2127     2100     2346     2689     2702     2311     1880     1867 
    2313     2670     2467     2007     1849     2019     2215     2284 
    2220     2161     2389     2820     2872     2358     1822     1784 
    2130     2344     2327     2486     2814     2825     2482     2151 
    1980     2039     2407     2732     2569     2145     1961     2053 
    2304     2646     2681     2168     1692     1852     2340     2560 
    2428     2243     2307     2551     2536     2239     2182     2398 
    2425     2249     2137     2066     1980     2035     2301     2562 
    2610     2452     2219     2112     2154     2153     2170     2397 
    2600     2435     2043     1868     2056     2328     2412     2358 
    2362     2455     2520     2455     2311     2254     2272     2166 
    1937     1827     1988     2299     2497     2494     2504     2644 
    2678     2434     2083     1860     1887     2204     2578     2623 
    2413     2431     2725     2754     2268     1858     2089     2613 
    2808     2668     2439     2126     1775     1610     1649     1790 
    2145     2637     2755     2355     2025     2172     2471     2489 
    2204     1867     1831     2323     2980     3092     2569     2065 
    1991     2187     2431     2590     2539     2289     2039     1935 
    1938     2011     2158     2297     2397     2523     2581     2446 
    2259     2180     2147     2158     2288     2415     2371     2222 
    2087     2058     2327     2855     3130     2840     2334     2050 
    2050     2169     2227     2187     2193     2330     2405     2180 
    1740     1464     1663     2307     2952     3036     2513     2079 
    2316     2830     2894     2558     2246     1948     1641     1672 
    2000     2216     2443     2901     3173     2866     2200     1667 
    1574     1829     2130     2286     2359     2509     2617     2484 
    2268     2141     2065     2101     2176     2070     1991     2242 
    2625     2770     2635     2485     2417     2293     2209     2276 
    2304     2268     2347     2585     2887     2911     2359     1706 
    1595     1885     2158     2231     1966     1574     1691     2400 
    2953     2884     2486     2124     2042     2439     2899     2724 
    2103     1803     2003     2278     2288     2135     2192     2594 
    3032     3055     2610     2153     1984     1930     1881     1845 
    1764     1881     2413     2947     3019     2732     2367     2045 
    1857     1868     1942     1949     2089     2463     2731     2755 
    2739     2581     2122     1695     1667     1933     2235     2481 
    2616     2635     2605     2479     2259     2114     2034     1879 
    1703     1730     2054     2494     2872     3109     3113     2899 
    2567     2174     1867     1840     2141     2506     2533     2234 
    2033     2076     2092     1906     1772     2064     2620     2882 
    2733     2501     2303     2122     2052     2061     2060     2118 
    2270     2419     2448     2317     2169     2203     2386     2455 
    2295     2150     2257     2515     2690     2674     2525     2416 
    2362     2181     1929     1906     2087     2284     2520     2668 
    2547     2335     2270     2381     2533     2411     1948     1632 
    1863     2386     2687     2579     2201     1849     1881     2336 
    2708     2544     2046     1696     1729     1996     2172     2249 
    2408     2497     2405     2358     2398     2371     2385     2605 
    2867     2862     2631     2461     2292     1935     1648     1749 
    2089     2338     2384     2394     2548     2656     2430     2066 
    2020     2323     2581     2515     2259     2097     2091     2134 
    2209     2384     2605     2677     2467     2137     1987     2077 
    2195     2266     2363     2435     2461     2494     2500     2500 
    2481     2303     2104     2091     2049     1794     1593     1779 
    2327     2797     2805     2558     2417     2349     2234     2149 
    2146     2208     2351     2504     2462     2269     2297     2579 
    2701     2513     2176     1783     1610     2022     2691     2847 
    2405     1996     2027     2309     2427     2290     2211     2338 
    2430     2290     2085     2034     2045     1919     1823     2089 
    2596     2862     2829     2833     2803     2435     1987     1902 
    2038     2064     2034     2099     2249     2447     2575     2496 
    2313     2231     2261     2320     2354     2297     2262     2432 
    2621     2531     2263     2135     2199     2236     2155     2130 
    2249     2361     2408     2479     2496     2334     2111     1975 
    1912     1948     2158     2396     2398     2274     2331     2505 
    2552     2446     2245     2066     2124     2415     2612     2512 
    2261     2134     2290     2583     2598     2223     1898     1992 
    2277     2334     2170     2070     2114     2149     2023     1860 
    1971     2295     2494     2519     2444     2251     2033     2006 
    2209     2340     2170     2016     2263     2698     2845     2671 
    2558     2737     3063     3199     2924     2443     2166     2205 
    2343     2326     2080     1759     1576     1664     1998     2355 
    2517     2531     2593     2662     2543     2346     2292     2236 
    1976     1740     1896     2295     2435     2276     2274     2569 
    2724     2461     2054     1836     1803     1837     1925     2039 
    2128     2280     2489     2517     2285     1961     1745     1836 
    2228     2597     2717     2721     2803     2941     2928     2667 
    2393     2365     2461     2369     2058     1821     1876     2160 
    2409     2401     2220     2161     2243     2222     2077     1991 
    2015     2168     2494     2774     2678     2340     2154     2130 
    2050     1964     2006     2080     2111     2293     2647     2801 
    2620     2409     2403     2563     2667     2475     2087     1825 
    1831     2020     2230     2365     2440     2559     2736     2771 
    2538     2254     2150     2134     2047     1872     1687     1723 
    2070     2376     2394     2442     2821     3275     3322     2940 
    2547     2392     2343     2227     1945     1544     1389     1726 
    2235     2521     2551     2420     2257     2285     2508     2582 
    2338     2049     2008     2226     2513     2571     2309     2053 
    2008     1995     1971     2092     2359     2613     2712     2648 
    2512     2339     2196     2215     2335     2355     2326     2396 
    2509     2550     2462     2249     2097     2165     2257     2104 
    1838     1815     2097     2462     2718     2720     2461     2216 
    2137     2137     2230     2388     2435     2401     2438     2440 
    2273     2061     1992     2126     2297     2199     1865     1734 
    2008     2366     2458     2342     2232     2209     2304     2430 
    2434     2374     2369     2389     2404     2443     2452     2312 
    2072     1934     1949     2087     2367     2577     2417     2072 
    1999     2235     2427     2475     2544     2597     2548     2559 
    2635     2546     2327     2236     2277     2253     2093     1879 
    1675     1530     1576     1895     2274     2419     2373     2401 
    2575     2697     2612     2442     2409     2532     2671     2749 
    2739     2560     2254     2101     2199     2245     2084     1888 
    1795     1908     2274     2563     2435     2146     2115     2313 
    2535     2643     2552     2409     2452     2581     2525     2290 
    2018     1730     1486     1417     1495     1634     1875     2184 
    2457     2687     2864     2936     2943     2957     3003     3094 
    3196     3195     3014     2722     2451     2192     1813     1332 
     957      830      943     1282     1807     2285     2559     2743 
    2853     2798     2687     2613     2489     2289     2069     1881 
    1811     1899     2046     2200     2440     2740     2847     2701 
    2554     2502     2478     2496     2479     2334     2222     2250 
    2258     2228     2297     2421     2474     2455     2409     2340 
    2251     2197     2215     2266     2308     2297     2130     1784 
    1439     1332     1540     1907     2218     2459     2801     3260 
    3585     3604     3430     3190     2841     2384     2003     1826 
    1761     1701     1649     1613     1541     1439     1439     1698 
    2166     2594     2853     3015     3090     2990     2735     2452 
    2263     2178     2130     2081     2106     2247     2358     2299 
    2208     2239     2243     2038     1726     1507     1425     1490 
    1775     2243     2755     3238     3608     3712     3496     3088 
    2639     2157     1664     1372     1425     1645     1850     2077 
    2373     2713     3052     3272     3298     3142     2779     2241 
    1723     1426     1399     1489     1525     1575     1783     2145 
    2540     2820     2948     2987     2884     2505     1892     1317 
    1105     1348     1786     2084     2219     2417     2744     3011 
    3129     3215     3318     3288     3075     2786     2444     2039 
    1663     1391     1281     1394     1721     2114     2330     2289 
    2235     2381     2589     2616     2432     2239     2236     2338 
    2319     2158     2022     2004     2022     1979     1880     1813 
    1950     2351     2729     2868     2953     3145     3276     3126 
    2736     2386     2238     2150     1996     1779     1501     1285 
    1337     1649     2020     2344     2648     2970     3231     3265 
    3069     2809     2512     2204     2052     2019     1931     1822 
    1819     1954     2174     2362     2451     2501     2520     2412 
    2189     1977     1823     1744     1802     2004     2231     2336 
    2357     2475     2759     3061     3219     3183     2960     2585 
    2170     1814     1553     1455     1551     1749     1929     2066 
    2203     2361     2520     2637     2668     2636     2635     2651 
    2601     2515     2417     2239     1995     1849     1933     2180 
    2390     2485     2515     2490     2415     2344     2296     2192 
    1983     1765     1669     1684     1776     1950     2127     2245 
    2378     2574     2749     2802     2747     2704     2714     2666 
    2484     2219     1960     1838     1915     2073     2158     2161 
    2200     2293     2304     2204     2131     2161     2297     2519 
    2751     2925     3057     3153     3117     2862     2458     2110 
    1954     1926     1931     1977     2077     2214     2332     2305 
    2072     1813     1748     1861     1979     2006     1981     2039 
    2278     2616     2882     2944     2778     2535     2344     2143 
    1953     1926     2019     2108     2227     2394     2539     2660 
    2820     2974     2980     2783     2465     2130     1826     1566 
    1437     1529     1765     2004     2218     2408     2517     2540 
    2589     2700     2747     2608     2338     2081     1898     1787 
    1725     1672     1665     1821     2209     2720     3083     3194 
    3196     3171     3009     2646     2176     1752     1452     1263 
    1247     1476     1790     1944     2011     2236     2592     2864 
    2997     3033     2979     2848     2604     2246     1903     1718 
    1728     1871     2073     2303     2546     2839     3203     3481 
    3500     3284     2926     2482     2008     1586     1343     1347 
    1449     1521     1651     1863     2037     2168     2281     2328 
    2365     2505     2712     2817     2737     2562     2448     2431 
    2405     2250     1985     1838     1958     2189     2300     2331 
    2485     2797     3059     3082     2903     2667     2434     2178 
    1894     1621     1399     1293     1378     1576     1717     1826 
    2015     2255     2475     2652     2740     2751     2812     2914 
    2841     2562     2317     2245     2274     2307     2289     2241 
    2219     2286     2407     2434     2351     2307     2382     2520 
    2587     2556     2543     2554     2475     2312     2158     2046 
    1965     1891     1815     1756     1746     1908     2282     2655 
    2862     2999     3117     3078     2812     2447     2165     1964 
    1730     1468     1296     1281     1401     1540     1594     1634 
    1830     2212     2633     2918     3017     3065     3167     3223 
    3109     2833     2494     2189     1988     1938     2006     2080 
    2139     2293     2563     2774     2812     2747     2613     2423 
    2284     2253     2211     2060     1883     1802     1825     1869 
    1863     1830     1841     1927     2130     2428     2648     2662 
    2579     2546     2525     2471     2394     2297     2262     2339 
    2374     2251     2088     2052     2124     2174     2146     2076 
    1972     1857     1837     1996     2277     2551     2763     2914 
    2997     3002     2940     2852     2776     2685     2498     2219 
    1973     1830     1755     1767     1892     2029     2084     2146 
    2299     2454     2501     2457     2382     2327     2343     2408 
    2413     2331     2203     2074     2002     1979     1918     1807 
    1776     1934     2227     2494     2662     2781     2876     2879 
    2732     2500     2292     2146     2057     2012     2015     2073 
    2147     2189     2223     2316     2479     2631     2710     2749 
    2770     2709     2556     2432     2363     2204     1900     1633 
    1571     1669     1803     1948     2178     2508     2820     3022 
    3086     2968     2693     2424     2259     2099     1838     1571 
