Origin Time       2025/03/28 03:50:00
Lat.              35.403
Long.             140.360
Depth. (km)       54
Mag.              4.4
Station Code      CHB015
Station Lat.      35.3738
Station Long.     139.9199
Station Height(m) 2
Record Time       2025/03/28 03:50:59
Sampling Freq(Hz) 100Hz
Duration Time(s)  60
Dir.              E-W
Scale Factor      7845(gal)/8223790
Max. Acc. (gal)   7.376
Last Correction   2025/03/28 03:50:59
Memo.             
[...]
   -8797    -8752    -8787    -8827    -8795    -8730    -8777    -8851 
   -8806    -8739    -8748    -8815    -8814    -8753    -8766    -8811 
   -8800    -8743    -8733    -8802    -8818    -8738    -8702    -8769 
   -8797    -8745    -8742    -8787    -8783    -8722    -8696    -8758 
   -8819    -8793    -8754    -8791    -8826    -8756    -8695    -8750 
   -8814    -8781    -8735    -8762    -8789    -8765    -8722    -8711 
   -8796    -8823    -8725    -8734    -8800    -8752    -8703    -8734 
   -8791    -8820    -8787    -8741    -8768    -8791    -8726    -8715 
   -8803    -8831    -8779    -8739    -8757    -8792    -8762    -8706 
   -8746    -8826    -8792    -8712    -8746    -8827    -8807    -8737 
   -8757    -8816    -8791    -8729    -8737    -8806    -8830    -8776 
   -8765    -8819    -8807    -8731    -8716    -8781    -8803    -8766 
   -8768    -8793    -8802    -8752    -8699    -8772    -8850    -8799 
   -8748    -8784    -8816    -8783    -8741    -8765    -8816    -8788 
   -8715    -8729    -8793    -8785    -8739    -8760    -8808    -8784 
   -8716    -8711    -8779    -8807    -8752    -8723    -8779    -8814 
   -8772    -8737    -8772    -8799    -8757    -8742    -8802    -8826 
   -8764    -8719    -8758    -8800    -8770    -8733    -8754    -8796 
   -8791    -8753    -8773    -8831    -8800    -8723    -8742    -8819 
   -8833    -8787    -8765    -8806    -8819    -8742    -8715    -8812 
   -8839    -8741    -8718    -8796    -8812    -8745    -8716    -8770 
   -8823    -8792    -8735    -8765    -8826    -8784    -8703    -8734 
   -8827    -8810    -8729    -8746    -8811    -8796    -8748    -8754 
   -8803    -8803    -8738    -8704    -8752    -8788    -8745    -8723 
   -8797    -8841    -8770    -8710    -8749    -8781    -8749    -8748 
   -8808    -8835    -8788    -8734    -8752    -8795    -8776    -8731 
   -8749    -8804    -8807    -8768    -8762    -8787    -8766    -8718 
   -8735    -8806    -8814    -8757    -8739    -8781    -8796    -8752 
   -8734    -8781    -8807    -8761    -8734    -8793    -8831    -8768 
   -8725    -8777    -8810    -8770    -8746    -8777    -8804    -8765 
   -8715    -8757    -8823    -8791    -8727    -8743    -8785    -8779 
   -8748    -8741    -8775    -8784    -8714    -8696    -8793    -8820 
   -8746    -8737    -8781    -8784    -8756    -8743    -8779    -8814 
   -8784    -8760    -8799    -8812    -8758    -8721    -8748    -8789 
   -8785    -8756    -8776    -8819    -8788    -8731    -8757    -8820 
   -8808    -8748    -8743    -8793    -8793    -8737    -8734    -8800 
   -8814    -8743    -8718    -8780    -8808    -8750    -8715    -8765 
   -8811    -8772    -8730    -8775    -8803    -8743    -8702    -8748 
   -8810    -8797    -8729    -8719    -8784    -8780    -8715    -8748 
   -8822    -8800    -8749    -8754    -8788    -8793    -8760    -8752 
   -8799    -8811    -8738    -8698    -8770    -8834    -8795    -8756 
   -8789    -8803    -8743    -8710    -8761    -8811    -8785    -8749 
   -8788    -8835    -8802    -8753    -8772    -8806    -8779    -8750 
   -8784    -8818    -8795    -8742    -8749    -8820    -8824    -8766 
   -8768    -8803    -8784    -8735    -8742    -8796    -8804    -8754 
   -8745    -8803    -8830    -8779    -8753    -8783    -8791    -8764 
   -8737    -8768    -8827    -8784    -8695    -8735    -8812    -8766 
   -8721    -8752    -8785    -8783    -8733    -8742    -8820    -8804 
   -8725    -8711    -8768    -8804    -8765    -8729    -8776    -8807 
   -8742    -8715    -8775    -8787    -8749    -8737    -8760    -8808 
   -8785    -8715    -8792    -8860    -8764    -8721    -8775    -8811 
   -8799    -8741    -8742    -8810    -8811    -8739    -8726    -8796 
   -8820    -8762    -8731    -8788    -8822    -8758    -8722    -8772 
   -8797    -8776    -8777    -8804    -8815    -8766    -8710    -8757 
   -8829    -8788    -8738    -8770    -8800    -8752    -8699    -8737 
   -8800    -8793    -8752    -8750    -8788    -8793    -8752    -8734 
   -8762    -8773    -8741    -8737    -8780    -8776    -8725    -8733 
   -8797    -8811    -8757    -8731    -8776    -8789    -8731    -8723 
   -8792    -8823    -8781    -8729    -8746    -8812    -8806    -8745 
   -8760    -8806    -8770    -8722    -8756    -8808    -8785    -8721 
   -8711    -8776    -8799    -8737    -8723    -8802    -8816    -8739 
   -8735    -8818    -8822    -8752    -8748    -8811    -8838    -8792 
   -8748    -8781    -8827    -8775    -8703    -8752    -8830    -8796 
   -8716    -8735    -8804    -8788    -8742    -8783    -8858    -8834 
   -8726    -8711    -8810    -8830    -8770    -8776    -8833    -8829 
   -8749    -8711    -8765    -8784    -8700    -8671    -8785    -8877 
   -8833    -8792    -8847    -8885    -8823    -8749    -8789    -8896 
   -8893    -8770    -8696    -8694    -8631    -8577    -8660    -8764 
   -8789    -8785    -8811    -8895    -8937    -8870    -8843    -8861 
   -8749    -8557    -8457    -8494    -8608    -8687    -8714    -8776 
   -8781    -8708    -8731    -8853    -8976    -9086    -9067    -8843 
   -8542    -8306    -8298    -8642    -9113    -9323    -9107    -8635 
   -8313    -8365    -8672    -9024    -9194    -8997    -8587    -8453 
   -8792    -9161    -9157    -8914    -8672    -8467    -8334    -8397 
   -8714    -9053    -9050    -8762    -8590    -8710    -8970    -9163 
   -9189    -8985    -8644    -8494    -8590    -8594    -8451    -8483 
   -8837    -9252    -9356    -9054    -8607    -8325    -8267    -8368 
   -8618    -8920    -9043    -8869    -8587    -8530    -8803    -9153 
   -9232    -8926    -8459    -8202    -8378    -8856    -9256    -9255 
   -8856    -8505    -8540    -8743    -8927    -9099    -9026    -8641 
   -8372    -8519    -8904    -9221    -9285    -9162    -9000    -8735 
   -8461    -8421    -8510    -8514    -8460    -8500    -8776    -9173 
   -9286    -8927    -8498    -8424    -8594    -8734    -8818    -8849 
   -8804    -8814    -8910    -8815    -8471    -8351    -8675    -8957 
   -8850    -8654    -8654    -8722    -8743    -8796    -8919    -9047 
   -9015    -8757    -8523    -8548    -8725    -8845    -8873    -8869 
   -8799    -8656    -8618    -8698    -8661    -8529    -8536    -8711 
   -8910    -9022    -9080    -9167    -9219    -9062    -8760    -8648 
   -8800    -8858    -8629    -8384    -8383    -8556    -8795    -9089 
   -9281    -9198    -8977    -8780    -8622    -8564    -8614    -8685 
   -8769    -8823    -8743    -8598    -8503    -8483    -8595    -8830 
   -9077    -9180    -8945    -8515    -8309    -8379    -8536    -8748 
   -9007    -9175    -9089    -8831    -8741    -8857    -8869    -8700 
   -8517    -8519    -8770    -8954    -8834    -8648    -8561    -8546 
   -8640    -8762    -8839    -8927    -8974    -8884    -8654    -8429 
   -8459    -8743    -9018    -9104    -8977    -8729    -8495    -8397 
   -8580    -8993    -9308    -9290    -9009    -8748    -8688    -8694 
   -8671    -8698    -8684    -8565    -8532    -8739    -9077    -9235 
   -9043    -8770    -8764    -8911    -8893    -8691    -8506    -8376 
   -8237    -8276    -8617    -8986    -9190    -9283    -9293    -9153 
   -8815    -8503    -8482    -8584    -8588    -8617    -8727    -8768 
   -8695    -8509    -8310    -8395    -8754    -9070    -9205    -9174 
   -8995    -8711    -8452    -8348    -8309    -8282    -8519    -8986 
   -9266    -9212    -9018    -8878    -8766    -8553    -8436    -8695 
   -9116    -9286    -9185    -9034    -8876    -8669    -8538    -8630 
   -8877    -8995    -8849    -8711    -8807    -8954    -8970    -8914 
   -8845    -8677    -8428    -8379    -8606    -8783    -8699    -8457 
   -8276    -8317    -8602    -8978    -9209    -9166    -8950    -8769 
   -8707    -8654    -8529    -8432    -8506    -8699    -8891    -9073 
   -9151    -9024    -8824    -8683    -8592    -8541    -8568    -8765 
   -9093    -9292    -9143    -8730    -8351    -8244    -8433    -8765 
   -9024    -9051    -8889    -8768    -8824    -8870    -8706    -8494 
   -8515    -8773    -9049    -9201    -9297    -9363    -9234    -8829 
   -8410    -8251    -8328    -8492    -8637    -8746    -8858    -8839 
   -8600    -8472    -8734    -9104    -9180    -9026    -8884    -8668 
   -8332    -8190    -8302    -8411    -8534    -8770    -8932    -8851 
   -8606    -8383    -8382    -8676    -9150    -9549    -9621    -9418 
   -9180    -8922    -8656    -8502    -8388    -8272    -8367    -8742 
   -9181    -9505    -9656    -9467    -8856    -8240    -8105    -8391 
   -8760    -8932    -8841    -8696    -8581    -8376    -8228    -8376 
   -8700    -8893    -8860    -8752    -8723    -8874    -9211    -9485 
   -9421    -9035    -8532    -8149    -8105    -8370    -8611    -8621 
   -8617    -8799    -8949    -8872    -8675    -8553    -8640    -8865 
   -9009    -8981    -8873    -8772    -8672    -8581    -8590    -8712 
   -8795    -8799    -8827    -8792    -8631    -8588    -8770    -9016 
   -9235    -9429    -9510    -9402    -9167    -8876    -8549    -8379 
   -8532    -8789    -8959    -9124    -9300    -9410    -9369    -9062 
   -8596    -8253    -8170    -8257    -8286    -8225    -8329    -8606 
   -8816    -8900    -8862    -8710    -8542    -8382    -8189    -8055 
   -8186    -8590    -8951    -9126    -9224    -9108    -8700    -8353 
   -8299    -8457    -8764    -9074    -9213    -9192    -9050    -8799 
   -8575    -8496    -8573    -8788    -9043    -9116    -8883    -8495 
   -8249    -8286    -8471    -8640    -8831    -9086    -9250    -9239 
   -9182    -9142    -9062    -8980    -8966    -8968    -8887    -8735 
   -8610    -8575    -8667    -8846    -8986    -9070    -9140    -9131 
   -8996    -8849    -8807    -8865    -8924    -8850    -8673    -8599 
   -8629    -8596    -8442    -8187    -7960    -7939    -8136    -8438 
   -8684    -8748    -8718    -8830    -9146    -9429    -9433    -9174 
   -8788    -8413    -8239    -8280    -8365    -8446    -8568    -8692 
   -8780    -8856    -8953    -9032    -9076    -9180    -9332    -9359 
   -9177    -8824    -8441    -8240    -8311    -8606    -8969    -9157 
   -9039    -8745    -8529    -8580    -8860    -9144    -9298    -9304 
   -9082    -8677    -8407    -8455    -8672    -8865    -8950    -8919 
   -8861    -8884    -8930    -8829    -8606    -8499    -8576    -8602 
   -8486    -8360    -8260    -8237    -8390    -8600    -8714    -8745 
   -8733    -8722    -8811    -8949    -8970    -8905    -8896    -8980 
   -9082    -9092    -8954    -8683    -8356    -8202    -8392    -8803 
   -9243    -9559    -9522    -9194    -8928    -8776    -8580    -8407 
   -8365    -8448    -8640    -8916    -9154    -9116    -8730    -8282 
   -8086    -8217    -8641    -9181    -9485    -9443    -9274    -9085 
   -8826    -8603    -8576    -8684    -8704    -8546    -8299    -8070 
   -7990    -8167    -8533    -8935    -9251    -9348    -9196    -8912 
   -8665    -8606    -8665    -8658    -8630    -8677    -8729    -8708 
   -8590    -8434    -8353    -8406    -8634    -9005    -9325    -9506 
   -9594    -9540    -9306    -8970    -8587    -8283    -8272    -8553 
   -8893    -9151    -9289    -9333    -9416    -9535    -9441    -9022 
   -8483    -8094    -7936    -7965    -8133    -8309    -8332    -8256 
   -8183    -8182    -8397    -8835    -9323    -9740    -9950    -9769 
   -9238    -8661    -8314    -8263    -8353    -8413    -8446    -8536 
   -8699    -8964    -9302    -9448    -9239    -8953    -8769    -8688 
   -8850    -9031    -9053    -9084    -9026    -8857    -8556    -8205 
   -8086    -8141    -8290    -8394    -8370    -8351    -8310    -8257 
   -8257    -8397    -8664    -8911    -9051    -9050    -9030    -8997 
   -8932    -8923    -8812    -8658    -8664    -8738    -8853    -8973 
   -9042    -9070    -9078    -9246    -9464    -9537    -9517    -9329 
   -9086    -8938    -8776    -8671    -8676    -8710    -8810    -8904 
   -8874    -8731    -8536    -8561    -8924    -9279    -9331    -9051 
   -8662    -8429    -8436    -8658    -8969    -9157    -9177    -9201 
   -9363    -9607    -9740    -9655    -9516    -9518    -9666    -9803 
   -9715    -9324    -8754    -8156    -7659    -7280    -6874    -6403 
   -6076    -6043    -6212    -6496    -6957    -7495    -7819    -7830 
   -7641    -7389    -7280    -7476    -7869    -8353    -8941    -9531 
  -10002   -10311   -10322    -9952    -9389    -8833    -8267    -7600 
   -6883    -6339    -6220    -6644    -7543    -8671    -9701   -10399 
  -10625   -10361    -9790    -9148    -8637    -8506    -8957    -9868 
  -10845   -11612   -12140   -12455   -12550   -12515   -12553   -12750 
  -12977   -13092   -13089   -12949   -12523   -11863   -11271   -10737 
  -10152    -9647    -9045    -8110    -7130    -6392    -5854    -5409 
   -4860    -4005    -3040    -2350    -2185    -2601    -3392    -4409 
   -5513    -6523    -7400    -7974    -8051    -7735    -7287    -7042 
   -7310    -8112    -9109    -9769    -9598    -8545    -7109    -5753 
   -4666    -4059    -4212    -5250    -7069    -9358   -11519   -12904 
  -13401   -13378   -13095   -12789   -12672   -12541   -12325   -12317 
  -12583   -12879   -13022   -12976   -12702   -12324   -11986   -11722 
  -11507   -11221   -10968   -10885   -10949   -11172   -11338   -11256 
  -10952   -10301    -9139    -7526    -5613    -3649    -2014    -1048 
   -1038    -1949    -3343    -4911    -6335    -7215    -7472    -7187 
   -6620    -5987    -5395    -5125    -5202    -5593    -6274    -6934 
   -7295    -7267    -7188    -7572    -8527    -9768   -10951   -12090 
  -13235   -14200   -14740   -14702   -14138   -13169   -12025   -10887 
   -9741    -8656    -7720    -7022    -6650    -6583    -6743    -6921 
   -6963    -7010    -7253    -7746    -8530    -9576   -10623   -11412 
  -11971   -12411   -12754   -13030   -13143   -12891   -12164   -10914 
   -9286    -7689    -6448    -5670    -5400    -5643    -6200    -6872 
   -7600    -8144    -8442    -8650    -8684    -8648    -8665    -8484 
   -8110    -7789    -7600    -7488    -7412    -7281    -6944    -6524 
   -6332    -6647    -7562    -8831   -10138   -11219   -11881   -12075 
  -11780   -11033   -10052    -9131    -8437    -8025    -7927    -8016 
   -8064    -7901    -7470    -6805    -6019    -5355    -4986    -4927 
   -5232    -6019    -7312    -8985   -10709   -12064   -12831   -13026 
  -12699   -11888   -10704    -9351    -8062    -7111    -6789    -7223 
   -8282    -9660   -11011   -12012   -12414   -12178   -11473   -10561 
   -9741    -9193    -8897    -8849    -9009    -9228    -9385    -9377 
   -9096    -8571    -7960    -7497    -7314    -7326    -7499    -7804 
   -7993    -7879    -7507    -6920    -6201    -5536    -5023    -4729 
   -4800    -5325    -6268    -7483    -8667    -9504    -9830    -9726 
   -9533    -9545    -9759    -9992   -10057   -10014   -10245   -10962 
  -11886   -12586   -12718   -12154   -11136   -10087    -9269    -8757 
   -8530    -8581    -8911    -9350    -9591    -9452    -8985    -8472 
   -8240    -8413    -8876    -9309    -9385    -9046    -8448    -7755 
   -7103    -6620    -6377    -6370    -6570    -6930    -7352    -7750 
   -8070    -8264    -8409    -8615    -8824    -8937    -8997    -9081 
   -9165    -9147    -8949    -8653    -8434    -8333    -8334    -8519 
   -8931    -9472   -10044   -10516   -10702   -10558   -10180    -9672 
   -9138    -8645    -8201    -7803    -7481    -7254    -7044    -6813 
   -6716    -6980    -7645    -8502    -9308    -9886   -10118   -10019 
   -9787    -9632    -9617    -9703    -9841    -9936    -9834    -9463 
   -8978    -8610    -8468    -8607    -9047    -9620   -10029   -10220 
  -10301   -10200   -10031   -10062   -10054    -9887    -9699    -9300 
   -8768    -8110    -7204    -6255    -5269    -4444    -4028    -4117 
   -4855    -5989    -7265    -8418    -9248    -9742    -9872    -9783 
   -9533    -9229    -9000    -8830    -8760    -8754    -8768    -8843 
   -9072    -9460    -9981   -10627   -11159   -11326   -11092   -10477 
   -9567    -8488    -7402    -6524    -6048    -6088    -6640    -7551 
   -8475    -9150    -9636   -10042   -10498   -11136   -11804   -12208 
  -12162   -11593   -10640    -9661    -8861    -8232    -7870    -7807 
   -7905    -8101    -8409    -8802    -9261    -9736   -10025    -9899 
   -9358    -8583    -7674    -6799    -6196    -5899    -5917    -6242 
   -6818    -7549    -8081    -8422    -8699    -8730    -8687    -8665 
   -8545    -8380    -8172    -7955    -7719    -7496    -7395    -7415 
   -7531    -7790    -8349    -9192   -10169   -11203   -12035   -12414 
  -12334   -11859   -11068   -10096    -9111    -8263    -7746    -7662 
   -7900    -8306    -8769    -9248    -9725   -10103   -10255   -10145 
   -9838    -9428    -9007    -8611    -8187    -7723    -7253    -6907 
   -6809    -6841    -6843    -6829    -6785    -6696    -6740    -6986 
   -7318    -7794    -8473    -9231    -9926   -10426   -10619   -10524 
  -10335   -10255   -10327   -10461   -10515   -10368    -9992    -9532 
   -9169    -8938    -8779    -8665    -8654    -8733    -8766    -8857 
   -9011    -8937    -8788    -8629    -8278    -7978    -7642    -7238 
   -6991    -6848    -7005    -7396    -7773    -8017    -8098    -8179 
   -8129    -8074    -8201    -8236    -8225    -8260    -8301    -8491 
   -8779    -9036    -9278    -9516    -9930   -10473   -10972   -11408 
  -11643   -11753   -11699   -11454   -11153   -10714   -10296    -9977 
   -9687    -9466    -9151    -8671    -8122    -7614    -7267    -7117 
   -7167    -7338    -7500    -7627    -7749    -7770    -7618    -7393 
   -7211    -7094    -7061    -7214    -7608    -8133    -8619    -8941 
   -9050    -8992    -8815    -8540    -8191    -7812    -7480    -7263 
   -7140    -7099    -7159    -7275    -7385    -7533    -7843    -8410 
   -9173    -9995   -10795   -11507   -12082   -12461   -12514   -12237 
  -11780   -11222   -10650   -10200    -9876    -9597    -9375    -9273 
   -9347    -9528    -9586    -9408    -9023    -8438    -7734    -7109 
   -6717    -6643    -6874    -7277    -7681    -7946    -7992    -7889 
   -7807    -7817    -7925    -8155    -8441    -8646    -8707    -8610 
   -8380    -8139    -8020    -8051    -8174    -8287    -8313    -8274 
   -8199    -8093    -8040    -8127    -8367    -8746    -9180    -9579 
   -9926   -10195   -10314   -10218    -9942    -9620    -9329    -9066 
   -8860    -8762    -8806    -9022    -9358    -9645    -9778    -9705 
   -9359    -8804    -8251    -7886    -7855    -8158    -8607    -9094 
   -9548    -9838    -9987   -10060   -10054   -10039   -10096   -10058 
   -9849    -9670    -9479    -9212    -8858    -8245    -7422    -6588 
   -5887    -5479    -5459    -5753    -6216    -6817    -7530    -8248 
   -8850    -9269    -9508    -9543    -9487    -9494    -9552    -9648 
   -9748    -9755    -9621    -9400    -9105    -8704    -8225    -7730 
   -7331    -7160    -7214    -7430    -7780    -8224    -8683    -9089 
   -9398    -9531    -9431    -9185    -8930    -8742    -8691    -8833 
   -9112    -9428    -9736   -10031   -10264   -10359   -10311   -10165 
   -9995    -9911    -9964   -10112   -10314   -10505   -10573   -10403 
