Origin Time       2025/03/28 03:50:00
Lat.              35.403
Long.             140.360
Depth. (km)       54
Mag.              4.4
Station Code      CHB007
Station Lat.      35.7237
Station Long.     140.2246
Station Height(m) 30
Record Time       2025/03/28 03:50:50
Sampling Freq(Hz) 100Hz
Duration Time(s)  74
Dir.              U-D
Scale Factor      7845(gal)/8223790
Max. Acc. (gal)   5.222
Last Correction   2025/03/28 03:50:50
Memo.             
[...]
   15418    15431    15431    15422    15402    15396    15419    15437 
   15425    15399    15391    15414    15446    15437    15404    15402 
   15410    15406    15418    15429    15414    15404    15421    15430 
   15421    15412    15423    15429    15396    15384    15431    15452 
   15426    15415    15407    15406    15437    15446    15408    15385 
   15400    15427    15429    15411    15408    15412    15422    15429 
   15411    15406    15417    15415    15412    15412    15415    15426 
   15433    15419    15407    15411    15414    15417    15422    15421 
   15423    15410    15400    15425    15434    15426    15429    15410 
   15403    15427    15411    15387    15415    15441    15417    15384 
   15384    15415    15438    15430    15407    15399    15421    15438 
   15437    15421    15408    15414    15407    15402    15421    15423 
   15411    15422    15425    15406    15404    15421    15427    15419 
   15406    15402    15407    15415    15425    15419    15399    15398 
   15417    15431    15427    15414    15417    15414    15392    15398 
   15425    15422    15417    15425    15414    15402    15410    15415 
   15415    15418    15415    15417    15403    15402    15435    15435 
   15395    15392    15422    15426    15414    15408    15410    15404 
   15403    15421    15437    15423    15390    15391    15423    15431 
   15415    15410    15417    15400    15390    15411    15426    15415 
   15403    15408    15418    15430    15441    15430    15406    15396 
   15404    15417    15417    15408    15410    15402    15404    15430 
   15434    15414    15407    15411    15407    15403    15412    15422 
   15418    15408    15404    15412    15434    15433    15402    15408 
   15427    15399    15402    15438    15434    15402    15383    15406 
   15439    15427    15404    15407    15407    15411    15423    15426 
   15423    15411    15396    15400    15414    15425    15426    15410 
   15400    15417    15431    15427    15423    15429    15412    15392 
   15406    15422    15423    15422    15422    15422    15415    15415 
   15430    15434    15417    15400    15407    15421    15419    15419 
   15421    15412    15411    15419    15422    15427    15425    15415 
   15419    15415    15403    15422    15435    15421    15414    15410 
   15412    15423    15415    15414    15422    15418    15425    15426 
   15402    15396    15417    15430    15426    15406    15400    15429 
   15439    15421    15418    15430    15426    15418    15417    15411 
   15418    15427    15407    15392    15407    15423    15429    15431 
   15421    15414    15418    15421    15415    15407    15414    15427 
   15422    15417    15429    15427    15407    15408    15422    15417 
   15407    15417    15429    15423    15418    15417    15411    15410 
   15411    15414    15417    15414    15419    15430    15423    15417 
   15425    15426    15412    15404    15411    15426    15427    15414 
   15411    15407    15407    15419    15422    15414    15408    15410 
   15418    15419    15421    15418    15417    15423    15427    15425 
   15415    15408    15418    15430    15422    15411    15407    15406 
   15421    15444    15435    15406    15403    15421    15418    15411 
   15417    15407    15392    15404    15419    15422    15430    15431 
   15417    15407    15407    15410    15417    15426    15433    15429 
   15417    15407    15403    15408    15406    15399    15425    15435 
   15418    15421    15419    15418    15438    15422    15387    15387 
   15391    15372    15337    15314    15299    15269    15256    15272 
   15299    15360    15435    15476    15499    15518    15516    15477 
   15434    15456    15495    15473    15430    15371    15263    15153 
   15164    15376    15639    15701    15612    15677    15920    16042 
   15896    15624    15433    15419    15380    15082    14759    14732 
   14936    15140    15014    14531    14450    15233    16190    16424 
   15774    15122    15530    16459    16463    15585    14972    15010 
   15213    15165    14990    14972    15064    15087    14995    14840 
   14890    15372    16040    16339    16051    15692    15736    15869 
   15701    15498    15488    15284    14717    14431    14794    15213 
   15091    14786    15168    16229    17145    17810    18501    18833 
   18648    18443    18391    17871    16200    13976    12731    12849 
   13200    12722    11604    11006    11627    12769    13316    13188 
   12972    13051    13717    14962    16308    17393    17834    17431 
   17039    17427    18252    18819    18149    16005    14087    13819 
   14640    15373    15460    15354    16062    17698    19170    19332 
   18092    16499    15541    15130    14494    13111    11303    10103 
   10030    10778    12471    14947    16571    16565    16232    16563 
   17262    17556    16837    15682    15103    15182    16065    17487 
   17577    15761    14307    14673    15766    16272    15892    14872 
   13732    13057    13616    15746    18079    18800    18058    17296 
   17055    16825    16085    14770    13204    11809    10933    10963 
   12198    14081    15153    15080    15341    16641    18083    18800 
   18470    17432    16476    15836    15388    15080    14615    14013 
   13810    14215    15056    16036    16548    16121    15129    14504 
   14723    15593    16511    16627    15754    14755    14489    15286 
   16823    18065    18401    18099    17220    15518    13254    11281 
   10478    10991    12209    13774    15712    17421    17959    17343 
   16645    16804    17643    18117    17298    15163    12800    11638 
   12186    13698    15087    15797    15808    15449    15234    15376 
   15498    15277    15066    15287    15664    15774    15709    15539 
   15288    15310    15930    16988    17771    17712    16972    15998 
   15376    15689    16490    16567    15526    14245    14104    15296 
   16293    15992    14895    14004    13909    14392    14782    14985 
   15109    14663    13633    13011    13531    14925    16070    16013 
   15269    15006    15495    16212    16632    16881    17355    17517 
   16626    15141    14029    13917    15005    16580    17463    17343 
   16937    16942    17119    16363    14247    12353    12372    13539 
   13940    13286    12951    13861    15311    16347    17132    17953 
   18347    17928    16857    15692    14872    14049    13046    12663 
   13150    13948    14939    16023    16752    16922    16579    16132 
   16135    16510    17004    17479    17219    15867    14451    13821 
   13643    13527    13649    14372    15677    16819    17081    16478 
   15391    14503    14374    14575    14426    14106    14358    15487 
   16459    15880    14440    14418    16399    18310    17875    15345 
   13100    12795    14142    15853    16771    16931    17104    16943 
   15805    14681    14705    15404    15390    13986    12745    13780 
   16235    17429    16725    15682    15681    16580    17146    16571 
   15261    14108    13755    14318    15124    15321    15132    15572 
   16653    17184    16677    15884    15435    15303    15171    14863 
   14520    14219    13711    12888    12289    12753    14310    16038 
   17217    17879    18426    19109    19446    18585    16491    14011 
   12089    11263    11298    11499    11871    13232    15628    17840 
   18802    18750    18746    18932    18058    15776    13887    13941 
   15121    15519    14500    13470    14100    15842    16690    15952 
   14848    14939    16305    17262    16524    14779    13594    13657 
   14187    14150    14035    14995    16796    18046    17892    16708 
   15452    14835    14856    15074    15412    15958    16308    16067 
   15298    14395    14079    14758    15715    15938    15415    14728 
   14293    14289    14490    14577    14748    15215    15576    15660 
   15846    16125    16120    15628    14763    14168    14399    15101 
   15769    16416    16949    16930    16387    15988    15913    15834 
   15822    15904    15819    15600    15149    14404    14094    14604 
   15248    15498    15591    15862    16063    15576    14467    13813 
   14334    15207    15357    15124    15209    15535    15957    16244 
   15894    15014    14185    13774    14099    15079    16033    16599 
   16854    16861    16826    16852    16613    15840    14758    14017 
   14118    14747    15321    15681    15726    15422    15176    15348 
   15628    15523    15211    15178    15457    15719    15681    15493 
   15550    15784    15719    15319    15064    15265    15847    16421 
   16459    15890    15228    14840    14547    13952    13084    12819 
   13909    15746    17166    17799    17936    17971    17971    17374 
   15984    14632    13869    13373    12835    12434    12636    13463 
   14260    14805    15553    16429    17032    17485    17788    17582 
   16953    16386    16035    15476    14310    13030    12718    13617 
   14936    15900    16274    16330    16282    15857    15184    15049 
   15595    16098    16009    15390    14786    14677    14887    14998 
   14933    14821    14854    15363    16271    16750    16278    15391 
   14943    15318    16228    16808    16540    15931    15704    15957 
   16266    16043    15295    14735    14586    14373    14130    14251 
   14675    15056    15039    14783    15084    16085    16954    17073 
   16474    15596    15002    14763    14477    14250    14547    15095 
   15249    15013    15021    15776    16803    17109    16642    16189 
   16152    16163    15662    14782    14142    14027    14463    15155 
   15569    15741    16011    16401    16649    16267    15250    14391 
   14165    14260    14184    13811    13676    14318    15337    16137 
   16729    17149    17358    17317    16632    15261    14065    13737 
   14116    14662    14916    14948    15300    16047    16646    16738 
   16285    15438    14589    14096    14026    14188    14391    14893 
   15913    16761    16750    16209    15708    15419    15225    15045 
   15202    15847    16389    16355    15990    15807    15997    16113 
   15614    14667    13929    13868    14289    14516    14534    15120 
   16470    17655    17763    16973    16056    15340    14775    14376 
   14038    13568    13084    13138    14251    16011    17135    17081 
   16654    16718    17194    17401    16900    15874    14820    14169 
   14130    14512    14775    14615    14399    14584    15017    15460 
   15981    16432    16590    16579    16440    16117    15660    15010 
   14339    14110    14297    14453    14426    14497    15029    15795 
   16125    16038    16193    16690    16827    16181    15276    14847 
   14920    15080    15142    15206    15253    14998    14399    14000 
   14303    15103    15859    16472    17068    17239    16646    15826 
   15472    15649    15898    15739    15288    14944    14555    13922 
   13467    13535    13949    14451    14958    15533    16168    16610 
   16727    16668    16444    16017    15597    15313    14947    14393 
   14008    14110    14550    15129    15768    16177    16106    15759 
   15570    15747    15952    15800    15579    15681    15842    15634 
   15074    14601    14725    15363    15751    15410    14689    14408 
   15098    16313    17076    16985    16303    15396    14616    14238 
   14256    14482    14709    14715    14643    15020    15990    17258 
   18473    19122    18864    17899    16707    15813    15453    15303 
   14835    13798    12418    11333    11084    11685    12775    13988 
   14939    15199    14932    15037    16152    18029    19750    20245 
   19207    17420    15870    14921    14409    14135    14042    14072 
   14164    14300    14473    14686    14991    15542    16341    16834 
   16375    15217    14432    14810    16016    16984    17199    17043 
   16934    16708    15851    14293    12731    11826    11722    12345 
   13501    14870    16044    16606    16534    16236    15940    15627 
   15527    15990    16869    17610    17788    17509    17244    17031 
   16476    15654    15016    14709    14561    14382    14152    13755 
   13124    12799    13188    13906    14617    15363    16249    17230 
   17778    17436    16546    15819    15626    15788    15831    15681 
   15665    15758    15529    14850    14084    13554    13258    13207 
   13518    14284    15481    16714    17274    16930    16316    16171 
   16615    17275    17594    17118    16071    15191    14708    14266 
   13694    13242    13267    13682    13975    13998    14261    15190 
   16452    17481    18168    18492    18069    16690    14910    13707 
   13616    14245    14801    14967    15007    15280    15773    16121 
   16191    16217    16274    16042    15160    13868    13073    13298 
   13968    14204    13956    13907    14501    15444    16235    16939 
   17825    18553    18503    17521    16105    15052    14656    14586 
   14574    14553    14540    14728    15194    15743    16187    16505 
   16734    16816    16717    16602    16572    16484    16166    15533 
   14723    14138    13906    13706    13421    13211    13201    13536 
   14149    14766    15411    16164    16850    17427    17921    18115 
   17702    16448    14511    12665    11641    11483    12039    13432 
   15380    16992    17883    18418    18790    18673    17851    16735 
   15768    14744    13374    11923    10941    10777    11430    12745 
   14451    16159    17651    18959    20115    20889    20834    19800 
   18085    16011    13809    11749    10292     9992    10885    12344 
   13720    14835    15832    16752    17410    17656    17558    17346 
   17142    16915    16738    16684    16509    15839    14670    13460 
   12738    12753    13443    14567    15834    16931    17703    18164 
   18156    17509    16457    15337    14351    13554    12888    12672 
   13275    14245    14935    15268    15349    15419    15786    16317 
   16644    16572    16112    15492    15014    14885    15145    15543 
   15726    15634    15387    15188    15360    15882    16268    16202 
   15850    15520    15383    15448    15570    15573    15446    15202 
   14821    14611    14963    15704    16330    16436    15772    14588 
   13560    13073    13095    13586    14593    16033    17506    18459 
   18665    18342    17656    16528    15072    13676    12599    11844 
   11416    11445    12186    13830    15939    17604    18395    18535 
   18349    17922    17184    16197    15174    14386    14013    13963 
   14125    14427    14778    15268    15876    16413    16904    17294 
   17379    17159    16688    16011    15291    14656    14096    13643 
   13512    13934    14794    15641    16023    15816    15396    15273 
   15570    16078    16436    16237    15435    14500    13950    14008 
   14539    15151    15599    16011    16524    17031    17289    17099 
   16451    15495    14430    13564    13197    13312    13680    14106 
   14570    15182    15877    16355    16394    16036    15515    15045 
   14670    14393    14378    14760    15376    15884    16092    16089 
   16056    16093    16218    16399    16621    16877    17034    16927 
   16542    15911    15097    14339    13949    14058    14492    14877 
   14956    14791    14696    14852    15070    15103    14897    14574 
   14407    14554    14995    15673    16461    17169    17670    17952 
   18027    17833    17250    16290    15125    13990    13157    12835 
   13085    13733    14426    14959    15323    15421    15190    14909 
   14913    15228    15711    16290    16900    17332    17285    16707 
   15900    15206    14693    14146    13482    13003    13032    13636 
   14688    15913    16983    17699    17986    17867    17483    16912 
   16174    15391    14756    14396    14287    14326    14442    14627 
   14814    14890    14893    14952    15044    15083    15151    15319 
   15449    15433    15309    15176    15201    15340    15425    15472 
   15464    15353    15269    15304    15477    15719    15846    15907 
   16024    16028    15808    15546    15427    15557    15857    16059 
   16044    15869    15606    15377    15236    15110    15020    15134 
   15553    16025    16167    15936    15608    15349    15087    14743 
   14428    14373    14554    14654    14527    14395    14459    14721 
   15134    15653    16137    16399    16387    16195    15905    15670 
   15689    15932    16181    16290    16276    16255    16227    15975 
   15425    14898    14700    14763    14854    14814    14742    14832 
   15009    15029    14832    14561    14416    14527    14837    15234 
   15700    16189    16513    16479    16087    15614    15357    15295 
   15257    15186    15052    14913    14948    15232    15743    16366 
   16799    16812    16405    15704    14999    14594    14528    14673 
   14844    14848    14760    14836    15140    15520    15741    15638 
   15292    14894    14594    14503    14646    15053    15742    16484 
   16915    16903    16634    16387    16208    15894    15377    14899 
   14766    14980    15273    15483    15651    15876    16136    16205 
   15882    15317    14802    14430    14146    13963    14011    14484 
   15310    16079    16525    16582    16252    15742    15238    14796 
   14538    14604    15005    15650    16289    16617    16629    16506 
   16298    15997    15631    15271    15063    15021    14998    14974 
   15034    15114    15037    14716    14292    14116    14411    14972 
   15410    15499    15283    14960    14770    14856    15176    15595 
   15967    16181    16245    16287    16390    16534    16621    16522 
   16212    15784    15356    15001    14756    14650    14671    14762 
   14877    15012    15148    15269    15348    15395    15507    15732 
   16025    16298    16505    16630    16560    16209    15705    15196 
   14735    14349    14031    13815    13784    13872    13984    14208 
   14666    15345    16078    16634    16866    16748    16367    15919 
   15616    15547    15633    15750    15808    15746    15619    15541 
   15592    15803    16028    16087    15934    15612    15259    15001 
   14824    14640    14377    14085    13948    14087    14436    14847 
   15245    15574    15750    15786    15789    15813    15842    15834 
   15785    15768    15850    15990    16073    16028    15877    15650 
   15392    15182    15118    15325    15769    16206    16448    16420 
   16124    15730    15419    15174    14909    14620    14400    14405 
   14616    14824    14893    14828    14696    14573    14446    14327 
   14339    14523    14824    15221    15714    16240    16622    16684 
   16474    16218    16066    15986    15873    15658    15381    15098 
   14852    14735    14802    15026    15364    15708    15966    16140 
   16178    15993    15650    15314    15097    15030    15102    15252 
   15417    15591    15800    16038    16267    16433    16487    16432 
   16293    16104    15877    15579    15183    14671    14108    13690 
   13589    13811    14235    14752    15306    15812    16152    16287 
   16239    16031    15709    15334    14960    14697    14602    14627 
   14748    14974    15248    15488    15623    15628    15587    15583 
   15643    15801    16011    16127    16110    16062    16070    16055 
