Origin Time       2025/03/28 03:50:00
Lat.              35.403
Long.             140.360
Depth. (km)       54
Mag.              4.4
Station Code      CHB018
Station Lat.      35.1520
Station Long.     140.3204
Station Height(m) 38
Record Time       2025/03/28 03:50:49
Sampling Freq(Hz) 100Hz
Duration Time(s)  65
Dir.              N-S
Scale Factor      7845(gal)/8223790
Max. Acc. (gal)   10.675
Last Correction   2025/03/28 03:50:48
Memo.             
[...]
    1390     1414     1401     1379     1394     1409     1393     1393 
    1408     1398     1402     1414     1391     1391     1398     1379 
    1386     1409     1413     1404     1391     1395     1404     1391 
    1393     1413     1412     1398     1397     1391     1383     1390 
    1394     1397     1413     1414     1390     1394     1417     1395 
    1377     1405     1408     1387     1395     1408     1389     1377 
    1398     1402     1386     1402     1412     1394     1395     1401 
    1390     1390     1409     1417     1398     1391     1404     1390 
    1374     1399     1410     1395     1399     1395     1381     1401 
    1413     1397     1395     1410     1404     1378     1381     1413 
    1404     1374     1405     1421     1386     1399     1416     1391 
    1391     1398     1395     1389     1391     1414     1402     1397 
    1418     1399     1387     1406     1391     1371     1393     1412 
    1386     1387     1428     1401     1374     1422     1420     1382 
    1398     1395     1371     1402     1433     1405     1378     1394 
    1399     1371     1378     1421     1416     1381     1393     1414 
    1395     1382     1405     1414     1399     1398     1393     1382 
    1390     1395     1378     1378     1424     1418     1377     1416 
    1437     1382     1375     1394     1387     1386     1397     1404 
    1402     1399     1395     1395     1398     1401     1398     1391 
    1391     1397     1385     1387     1418     1413     1390     1397 
    1391     1393     1417     1397     1372     1399     1405     1382 
    1391     1412     1399     1378     1402     1424     1398     1390 
    1408     1395     1383     1399     1405     1387     1390     1406 
    1393     1389     1402     1390     1381     1402     1413     1399 
    1397     1406     1401     1395     1401     1399     1391     1382 
    1395     1413     1393     1386     1402     1397     1391     1389 
    1383     1395     1402     1399     1408     1420     1414     1394 
    1397     1414     1389     1372     1393     1391     1394     1414 
    1401     1395     1408     1391     1383     1399     1397     1389 
    1383     1395     1421     1405     1389     1414     1406     1379 
    1399     1405     1378     1389     1408     1389     1390     1410 
    1393     1382     1414     1416     1381     1391     1413     1402 
    1398     1401     1390     1389     1399     1404     1401     1397 
    1394     1390     1387     1401     1412     1404     1402     1398 
    1375     1406     1449     1386     1371     1414     1368     1391 
    1428     1364     1406     1416     1358     1402     1395     1393 
    1432     1381     1370     1443     1435     1359     1382     1426 
    1387     1395     1412     1391     1401     1393     1389     1394 
    1397     1406     1383     1386     1425     1424     1385     1374 
    1412     1401     1368     1413     1428     1383     1381     1397 
    1387     1394     1410     1389     1391     1424     1406     1401 
    1417     1397     1386     1385     1397     1404     1386     1401 
    1410     1389     1387     1390     1393     1397     1397     1397 
    1404     1412     1410     1412     1413     1404     1389     1383 
    1395     1382     1368     1398     1394     1372     1401     1432 
    1418     1393     1404     1418     1389     1375     1398     1391 
    1386     1412     1404     1386     1408     1409     1387     1402 
    1413     1393     1383     1398     1402     1393     1395     1406 
    1401     1398     1413     1406     1386     1402     1412     1382 
    1383     1409     1390     1372     1406     1418     1395     1402 
    1417     1405     1405     1408     1389     1386     1394     1382 
    1381     1408     1418     1405     1395     1405     1409     1389 
    1379     1397     1395     1387     1404     1402     1379     1389 
    1408     1399     1398     1409     1398     1389     1404     1406 
    1391     1399     1408     1382     1381     1405     1398     1387 
    1402     1402     1397     1404     1399     1387     1395     1406 
    1395     1394     1408     1401     1382     1382     1399     1395 
    1390     1410     1409     1390     1387     1394     1397     1397 
    1404     1397     1389     1410     1404     1371     1395     1416 
    1387     1391     1416     1404     1385     1398     1412     1399 
    1397     1402     1390     1389     1402     1397     1393     1409 
    1412     1390     1385     1409     1412     1394     1405     1409 
    1385     1385     1397     1387     1397     1413     1405     1401 
    1408     1404     1391     1395     1409     1397     1382     1397 
    1405     1394     1401     1420     1406     1387     1397     1397 
    1390     1404     1404     1393     1399     1402     1393     1394 
    1404     1405     1389     1390     1408     1394     1382     1404 
    1405     1391     1399     1406     1393     1389     1401     1401 
    1404     1412     1397     1387     1397     1399     1393     1393 
    1398     1404     1398     1385     1394     1405     1391     1405 
    1410     1387     1398     1398     1383     1405     1405     1390 
    1395     1399     1399     1393     1401     1408     1389     1386 
    1402     1399     1391     1402     1408     1395     1398     1406 
    1391     1386     1397     1387     1387     1405     1399     1386 
    1395     1406     1404     1394     1397     1397     1385     1390 
    1402     1399     1395     1398     1398     1401     1399     1398 
    1394     1393     1402     1393     1378     1399     1410     1389 
    1395     1405     1387     1387     1404     1395     1386     1395 
    1395     1387     1399     1404     1389     1406     1412     1382 
    1381     1402     1408     1394     1389     1399     1393     1387 
    1399     1395     1397     1404     1398     1390     1395     1406 
    1394     1390     1409     1401     1378     1389     1402     1393 
    1387     1405     1410     1398     1398     1398     1383     1389 
    1404     1399     1399     1414     1406     1387     1397     1410 
    1399     1390     1398     1397     1382     1395     1417     1404 
    1394     1406     1401     1386     1402     1406     1397     1422 
    1420     1371     1367     1406     1414     1385     1359     1397 
    1540     1684     1603     1313     1190     1475     1807     1579 
     918      652     1050     1451     1283      897     1192     2157 
    2527     1570      334      403     1649     2409     1818      573 
     117     1071     2316     2833     2562     1661      949     1224 
    2323     2930     1328    -1327    -1746      661     3466     3819 
    1578      -82      426     1795     2751     2484     1499      380 
   -1283    -1229     1799     3649     2339      901     1632     3711 
    4147     2069       76     -402      288      893      106     -148 
    1279     1910     1611     1903     2610     3296     2967     1512 
     280     -189      546     1925     1807      283     -421      537 
    2259     3537     3819     3249     2258      942     -976    -2124 
    -723     1555     1868      611      481     2416     4433     4727 
    3329     1146     -222      480     1891     1676      193     -992 
    -765     1686     4171     3622     1210     -251     -114      544 
    1016     1999     3111     2937     1914      765     -136      756 
    2620     2481     1078      789     1335     1798     1651      743 
     274      907     1637     1667     1237     1173     1583     1644 
    1418     1414     1439     1564     1999     2292     2026     1335 
     804     1124     1919     1894      787       39      664     1539 
    1611     1439     1451     1549     1734     1711     1167      791 
    1401     2108     1721      784      638     1587     2425     2396 
    1979     1433      999      629       16     -157      325     1069 
    2046     2693     2926     2992     2272     1291     1113     1190 
    1135     1345     1595     1186       95     -452      355     1686 
    2308     1769     1197     1845     2791     2722     1818      832 
     244       -4      207     1144     2077     2232     1817     1429 
    1802     2717     2845     2026     1202      700      534      569 
     635      858      851      271     -141      271     1267     2335 
    3145     3443     3040     2166     1420     1359     1873     1914 
    1020      390     1136     2073     1301     -430    -1189     -622 
     724     1911     2305     2390     2493     2477     2517     2660 
    2550     1813      729      248      507      946     1405     1351 
     577      153      629     1405     1841     1827     1787     1829 
    1777     1807     1755     1325      984     1124     1404     1506 
    1506     1399     1197     1300     1702     1628     1046      811 
    1205     1987     2640     2714     2446     1733      400     -448 
     153     1436     1837     1167      828     1541     2506     2551 
    1625      843      594      696      990      976      973     1237 
     966      402      823     2373     3635     3372     2069     1129 
    1286     1935     1742      421     -440      473     2006     2563 
    2200     1359      611      679     1386     1790     1278      723 
     967     1048      400      -28      711     2473     3796     3915 
    3661     3316     2332      693     -781    -1132     -445      353 
     868     1119      920      521      785     1858     2710     2498 
    1879     2139     3109     3451     2489      788     -147      319 
     891      558      106      716     2112     2624     1713      918 
    1096     1275      962      977     1736     2342     1979     1413 
    1638     2081     1953     1491     1159     1035      603     -307 
    -425     1151     2872     2851     1840     1617     1962     1679 
     845      318      415     1152     2436     3377     3157     2062 
     441    -1255    -1842     -742     1420     3554     4271     3179 
    1806     1233     1217     1601     1748     1263      737      430 
     936     2062     2181     1671     1287      459      172      855 
    1093     1120     1536     1649     1679     1934     1618      612 
    -195       49     1321     2451     2655     2305     2112     2551 
    2983     2396     1448     1082      884      751     1027     1345 
    1355      954      180     -186      197      506      615     1235 
    2193     2758     2710     2289     1953     1908     1854     1614 
    1378     1225     1101     1107     1416     1869     1914     1429 
     873      591      635      423     -332     -396      950     2424 
    2713     2315     2506     3059     2789     1664      623      467 
    1074     1572     1486      961      463      454     1019     1860 
    2385     2320     2196     2386     2448     1992     1306      681 
     144      -16      314      762     1048     1100     1007      939 
    1086     1699     2417     2484     1903     1314     1395     2157 
    2413     1420      310      257      815     1393     2112     2751 
    2868     2538     2091     1557      819      184     -136     -392 
    -411      129      924     1682     2154     1883     1254     1435 
    2435     2844     2232     1593     1464     1872     2528     2579 
    1618      368       -6      712     1660     1975     1190       58 
     -47      676     1243     1533     1768     1961     1921     1543 
    1248     1470     1732     1517     1278     1386     1711     2135 
    2261     1784      986      317      360     1201     1779     1645 
    1418     1197     1279     2031     2350     1566      801      974 
    1667     1873     1520     1335     1065      436      282      926 
    1900     2570     2246     1274      795     1158     1655     1471 
     872      675      841     1204     1765     1918     1460      927 
     846     1637     2531     2328     1664     1480     1536     1669 
    1760     1482     1142     1244     1593     1756     1782     1794 
    1775     1786     1705     1291      684      241      -45     -468 
   -1028    -1391    -1328    -1031     -635      247     1821     3615 
    4733     4702     4091     3352     2370     1398      859     1239 
    3002     5390     6894     7227     6882     5841     4163     2061 
    -367    -2783    -4849    -5998    -5163    -2010     2295     6007 
    7998     7869     5640     1950    -1861    -4185    -4052    -2061 
     164     1691     2521     2438     1478      781     1119     1846 
    1809      261    -2533    -5356    -7083    -7456    -6573    -4441 
   -1518     1449     4078     6031     7237     8110     8689     8815 
    8500     7314     5024     2513      800       35     -117     -256 
    -866    -1402    -1034      130     1437     2155     1968     1410 
    1109     1155     1297     1409     1621     1663     1053     -141 
   -1375    -2104    -2123    -1196      904     3672     6184     7546 
    7113     4969     1954     -608    -1541     -421     1980     3720 
    3573     2037      -66    -1784    -2004     -766      940     2457 
    3566     3888     2947     1009     -885    -1709    -1134      251 
    1597     2376     2228     1285      406      271      881     1784 
    2250     2218     2322     2434     2292     2693     4067     5672 
    6609     6305     4556     1514    -2346    -6235    -9008    -9417 
   -7163    -3322      912     5055     8685    11288    12588    11905 
    8592     3618    -1297    -5228    -7500    -7437    -5108    -1215 
    3321     7209     9000     7933     4475        2    -3925    -6108 
   -6207    -4872    -2832     -333     2246     4259     5228     4908 
    3605     2300     1645     1441     1351     1262     1262     1761 
    3110     4993     6426     6523     5441     4036     2637     1039 
    -598    -1931    -2924    -3551    -3561    -2679    -1281     -368 
    -328     -234     1040     3330     5406     6305     5873     4445 
    2521      864      -22     -467     -738     -495      521     2097 
    3630     4334     3931     3057     2305     1518      750      464 
     579      643      288     -738    -2112    -3064    -2949    -1692 
     -81     1229     2394     3727     5331     6674     6966     6238 
    5047     3604     1750     -209    -1494    -1891    -1964    -2367 
   -2909    -2644    -1285      427     1637     2223     2781     3670 
    4522     4770     4313     3585     2944     2204     1012     -492 
   -1505    -1348     -290      972     2168     3333     4482     5337 
    5323     4270     2666      963     -803    -2525    -3713    -3991 
   -3264    -1683      166     1614     2174     1860     1702     2606 
    4018     4824     4486     3195     1761     1024     1229     1950 
    2543     2790     2859     2938     3022     2679     1594      259 
    -719    -1059     -530      490     1146     1085      410     -483 
    -988     -870     -116     1177     2416     3110     3288     2983 
    2199     1146      337      461     1548     2763     3329     3092 
    2436     1919     1696     1482     1144      907      888      808 
     388     -251     -645     -355      472     1156     1350     1468 
    1953     2474     2498     2239     2313     2697     2766     2251 
    1502     1102     1209     1266      897      399      124       32 
      78      584     1702     3030     4068     4423     4002     3214 
    2596     2377     2253     1647      463     -837    -1733    -1953 
   -1696    -1277     -533      761     2377     3642     3952     3546 
    3076     2563     1474     -224    -1570    -1686     -729      576 
    1595     2116     2351     2585     2920     3312     3699     3955 
    3855     3192     1925      375     -884    -1529    -1424     -576 
     459      930      619       21     -205      -31      152      248 
     553     1444     2879     4274     5227     5740     5616     4587 
    2871     1096     -133     -565     -426     -278     -459     -634 
    -333      483     1611     2685     3323     3546     3601     3657 
    3555     2913     1736      369     -904    -1846    -2286    -2031 
   -1073      176     1178     1520     1273      970      893     1028 
    1402     1944     2484     2789     2594     2054     1777     2112 
    2895     3771     4240     3900     2851     1521      333     -445 
    -832    -1038    -1098     -683      353     1715     3169     4519 
    5277     4972     3686     2119      851      -82     -692     -897 
    -784     -562     -411     -157      558     1688     2655     2889 
    2419     1665      999      719      891     1208     1399     1521 
    1715     2000     2326     2578     2532     1977      945     -153 
    -743     -615      -70      491     1001     1560     2074     2396 
    2334     1753     1084     1032     1784     2808     3312     3005 
    2258     1586     1224     1074      950      770      476      -32 
    -673    -1038     -826     -167      700     1625     2498     3338 
    4190     4912     5209     4951     4207     2961     1270     -481 
   -1853    -2528    -2358    -1513     -407      642     1598     2520 
    3250     3469     3188     2794     2497     2249     2054     1925 
    1836     1815     1815     1711     1387      745      -71     -633 
    -519      260     1098     1467     1458     1282     1044      838 
     621      508      723     1194     1717     1965     1885     1837 
    1806     1579     1277     1129     1293     1796     2520     3233 
    3611     3442     2851     2154     1548     1011      502      140 
     -32     -255     -572     -676     -357      330     1011     1260 
    1173     1216     1637     2188     2466     2389     2150     1992 
    1957     1863     1605     1198      830      768     1023     1448 
    1837     2027     2130     2118     1656      792       68      -98 
     315     1073     1819     2353     2671     2863     3065     3254 
    3198     2841     2311     1765     1324      819      140     -414 
    -612     -517     -234      168      592      889     1089     1418 
    2012     2662     2882     2485     1857     1402     1208     1293 
    1553     1717     1680     1447      970      349      -94       12 
     702     1696     2673     3214     3144     2633     1875     1121 
     572      283      260      449      889     1483     1772     1584 
    1233      947      758      714      787      837      777      760 
     997     1340     1456     1399     1514     1992     2698     3165 
    3144     2972     2936     2920     2694     2220     1865     1753 
    1490      912      257     -209     -382      -13      855     1653 
    2138     2319     2266     2112     1692     1075      498      -10 
    -384     -766    -1186    -1239     -635      490     1709     2689 
    3241     3446     3694     3912     3711     3084     2317     1784 
    1503     1237      985      762      598      472      229      -52 
    -207     -141      236      889     1622     2119     2342     2631 
    3051     3306     3244     2941     2494     1964     1410      866 
     402      102      -51      -91       18      297      724     1256 
    1755     1985     1844     1495     1189     1043     1075     1231 
