Origin Time       2025/03/28 03:50:00
Lat.              35.403
Long.             140.360
Depth. (km)       54
Mag.              4.4
Station Code      CHB011
Station Lat.      35.5877
Station Long.     140.4971
Station Height(m) 2
Record Time       2025/03/28 03:50:55
Sampling Freq(Hz) 100Hz
Duration Time(s)  67
Dir.              N-S
Scale Factor      7845(gal)/8223790
Max. Acc. (gal)   14.428
Last Correction   2025/03/28 03:50:54
Memo.             
[...]
   -7118    -7126    -7110    -7098    -7098    -7113    -7110    -7105 
   -7128    -7119    -7078    -7092    -7133    -7119    -7094    -7099 
   -7111    -7115    -7122    -7118    -7092    -7087    -7117    -7140 
   -7121    -7082    -7091    -7129    -7118    -7099    -7106    -7095 
   -7090    -7118    -7133    -7114    -7091    -7087    -7106    -7132 
   -7129    -7087    -7060    -7099    -7137    -7110    -7083    -7106 
   -7126    -7114    -7096    -7092    -7107    -7119    -7114    -7102 
   -7083    -7072    -7101    -7134    -7126    -7110    -7106    -7094 
   -7110    -7145    -7126    -7087    -7102    -7123    -7114    -7115 
   -7123    -7096    -7090    -7141    -7152    -7094    -7078    -7134 
   -7157    -7105    -7076    -7110    -7126    -7114    -7123    -7119 
   -7096    -7099    -7105    -7119    -7146    -7126    -7092    -7102 
   -7128    -7137    -7110    -7088    -7128    -7152    -7107    -7087 
   -7113    -7128    -7114    -7099    -7113    -7114    -7092    -7125 
   -7157    -7107    -7074    -7111    -7129    -7105    -7110    -7134 
   -7111    -7092    -7130    -7137    -7094    -7095    -7129    -7117 
   -7095    -7110    -7122    -7117    -7115    -7109    -7099    -7110 
   -7126    -7118    -7102    -7098    -7091    -7091    -7115    -7126 
   -7098    -7088    -7117    -7111    -7096    -7122    -7122    -7099 
   -7109    -7113    -7086    -7087    -7132    -7145    -7099    -7080 
   -7117    -7118    -7096    -7114    -7121    -7090    -7098    -7136 
   -7118    -7099    -7134    -7126    -7082    -7098    -7125    -7121 
   -7126    -7121    -7106    -7106    -7101    -7103    -7122    -7140 
   -7140    -7098    -7082    -7133    -7145    -7106    -7107    -7115 
   -7098    -7106    -7119    -7111    -7123    -7137    -7109    -7080 
   -7103    -7125    -7102    -7098    -7129    -7125    -7084    -7080 
   -7125    -7153    -7115    -7064    -7090    -7137    -7118    -7090 
   -7110    -7121    -7095    -7092    -7111    -7102    -7092    -7119 
   -7121    -7096    -7111    -7129    -7114    -7109    -7113    -7113 
   -7103    -7105    -7123    -7118    -7095    -7105    -7113    -7102 
   -7107    -7119    -7110    -7091    -7098    -7123    -7119    -7096 
   -7118    -7138    -7107    -7095    -7128    -7134    -7115    -7107 
   -7107    -7111    -7117    -7126    -7133    -7111    -7103    -7132 
   -7128    -7098    -7101    -7123    -7117    -7098    -7113    -7122 
   -7096    -7099    -7132    -7128    -7102    -7103    -7125    -7123 
   -7110    -7109    -7096    -7096    -7126    -7125    -7091    -7094 
   -7129    -7130    -7102    -7099    -7115    -7119    -7117    -7109 
   -7094    -7095    -7107    -7114    -7114    -7113    -7109    -7096 
   -7096    -7118    -7121    -7098    -7098    -7117    -7121    -7106 
   -7099    -7113    -7115    -7099    -7101    -7111    -7107    -7113 
   -7125    -7113    -7087    -7090    -7117    -7130    -7114    -7105 
   -7113    -7106    -7101    -7121    -7129    -7110    -7102    -7118 
   -7128    -7114    -7103    -7111    -7115    -7105    -7101    -7117 
   -7141    -7145    -7117    -7101    -7113    -7114    -7098    -7102 
   -7122    -7123    -7099    -7096    -7115    -7121    -7113    -7110 
   -7117    -7114    -7095    -7099    -7115    -7106    -7102    -7114 
   -7109    -7092    -7105    -7129    -7118    -7101    -7114    -7113 
   -7088    -7106    -7128    -7113    -7105    -7114    -7105    -7092 
   -7110    -7134    -7126    -7110    -7105    -7101    -7110    -7129 
   -7115    -7080    -7084    -7117    -7118    -7099    -7110    -7118 
   -7101    -7103    -7123    -7118    -7107    -7113    -7109    -7096 
   -7106    -7122    -7103    -7098    -7129    -7122    -7091    -7105 
   -7118    -7102    -7096    -7107    -7111    -7109    -7115    -7121 
   -7109    -7091    -7096    -7115    -7115    -7105    -7106    -7111 
   -7118    -7114    -7096    -7102    -7113    -7106    -7111    -7118 
   -7099    -7095    -7118    -7121    -7109    -7109    -7117    -7118 
   -7109    -7115    -7122    -7101    -7099    -7129    -7129    -7106 
   -7094    -7102    -7121    -7117    -7105    -7114    -7126    -7115 
   -7101    -7109    -7129    -7123    -7107    -7117    -7119    -7099 
   -7096    -7111    -7114    -7107    -7102    -7107    -7121    -7118 
   -7107    -7119    -7130    -7105    -7094    -7126    -7128    -7092 
   -7102    -7133    -7113    -7084    -7106    -7126    -7107    -7094 
   -7102    -7105    -7107    -7119    -7118    -7099    -7101    -7121 
   -7121    -7107    -7111    -7123    -7125    -7129    -7123    -7101 
   -7096    -7114    -7117    -7111    -7114    -7125    -7123    -7115 
   -7121    -7122    -7105    -7113    -7134    -7125    -7105    -7114 
   -7122    -7111    -7103    -7111    -7122    -7125    -7121    -7118 
   -7114    -7107    -7117    -7122    -7095    -7087    -7123    -7137 
   -7107    -7092    -7114    -7128    -7117    -7115    -7123    -7114 
   -7106    -7119    -7115    -7105    -7109    -7111    -7115    -7121 
   -7113    -7103    -7098    -7107    -7128    -7125    -7099    -7082 
   -7102    -7130    -7110    -7088    -7113    -7119    -7096    -7105 
   -7125    -7114    -7101    -7115    -7123    -7107    -7096    -7106 
   -7117    -7113    -7113    -7119    -7107    -7094    -7114    -7122 
   -7095    -7099    -7134    -7119    -7072    -7090    -7136    -7119 
   -7087    -7102    -7109    -7092    -7107    -7129    -7119    -7096 
   -7101    -7128    -7126    -7106    -7113    -7117    -7110    -7114 
   -7111    -7103    -7096    -7090    -7101    -7109    -7105    -7111 
   -7115    -7110    -7102    -7096    -7106    -7117    -7121    -7113 
   -7091    -7092    -7126    -7134    -7106    -7098    -7126    -7138 
   -7110    -7098    -7119    -7118    -7098    -7107    -7130    -7122 
   -7092    -7092    -7121    -7123    -7099    -7102    -7125    -7128 
   -7111    -7099    -7103    -7113    -7110    -7107    -7106    -7103 
   -7110    -7119    -7122    -7119    -7114    -7117    -7125    -7111 
   -7087    -7096    -7114    -7103    -7103    -7126    -7119    -7095 
   -7098    -7126    -7137    -7105    -7087    -7122    -7133    -7094 
   -7087    -7115    -7128    -7115    -7102    -7106    -7115    -7103 
   -7099    -7121    -7119    -7107    -7114    -7106    -7105    -7121 
   -7115    -7110    -7107    -7096    -7111    -7123    -7107    -7105 
   -7122    -7125    -7103    -7101    -7128    -7126    -7098    -7094 
   -7115    -7128    -7114    -7114    -7128    -7110    -7091    -7109 
   -7118    -7092    -7090    -7117    -7117    -7107    -7109    -7090 
   -7071    -7090    -7118    -7129    -7140    -7179    -7209    -7184 
   -7134    -7088    -7041    -7006    -7010    -7051    -7080    -7059 
   -7056    -7184    -7323    -7272    -7111    -7036    -7087    -7161 
   -7118    -6983    -6960    -7103    -7207    -7126    -6999    -7038 
   -7230    -7335    -7217    -7047    -7028    -7155    -7269    -7169 
   -6955    -6897    -6949    -6964    -6986    -7079    -7250    -7398 
   -7349    -7163    -7076    -7114    -7080    -6953    -6926    -7029 
   -7101    -7121    -7187    -7287    -7308    -7172    -7017    -7002 
   -7052    -7082    -7022    -6898    -6998    -7352    -7499    -7269 
   -7059    -7121    -7207    -7099    -6890    -6714    -6735    -7075 
   -7446    -7415    -7086    -7038    -7395    -7460    -7028    -6809 
   -7007    -7164    -7103    -6951    -6856    -6930    -7196    -7442 
   -7373    -7187    -7164    -7107    -7017    -7063    -7150    -7171 
   -7065    -6937    -6970    -7037    -7013    -6984    -7087    -7402 
   -7636    -7453    -7101    -6988    -7053    -6945    -6682    -6681 
   -6964    -7227    -7373    -7327    -7222    -7300    -7384    -7273 
   -7032    -6774    -6689    -6829    -7041    -7184    -7238    -7299 
   -7357    -7329    -7191    -6963    -6864    -7028    -7110    -6893 
   -6728    -6894    -7134    -7160    -7175    -7453    -7666    -7356 
   -6890    -6929    -7226    -7137    -6910    -7092    -7358    -7308 
   -7142    -6999    -6978    -7182    -7358    -7226    -6825    -6535 
   -6725    -7113    -7183    -7107    -7268    -7526    -7545    -7236 
   -6876    -6824    -7094    -7327    -7142    -6777    -6925    -7380 
   -7371    -7109    -7132    -7292    -7315    -7132    -6947    -7003 
   -7053    -6901    -6798    -6853    -6937    -7036    -7165    -7302 
   -7497    -7560    -7272    -6980    -6939    -6957    -6990    -6839 
   -6475    -6559    -7198    -7712    -7896    -7738    -7145    -6627 
   -6724    -7109    -7203    -7152    -7277    -7281    -7145    -7196 
   -7183    -7032    -6945    -6736    -6646    -7138    -7754    -7734 
   -7121    -6621    -6714    -7061    -7088    -6941    -6968    -7007 
   -6955    -6878    -6822    -7137    -7794    -7939    -7441    -7263 
   -7429    -7115    -6613    -6629    -6835    -6644    -6477    -7244 
   -8368    -8324    -7364    -6824    -6824    -6840    -6889    -7221 
   -7500    -7145    -6466    -6265    -6708    -7244    -7258    -6948 
   -7032    -7477    -7674    -7462    -7168    -7106    -7123    -6868 
   -6566    -6650    -7005    -7269    -7273    -7132    -7155    -7345 
   -7466    -7639    -7831    -7506    -6714    -6254    -6473    -6932 
   -7063    -6895    -6980    -7280    -7276    -7145    -7169    -6980 
   -6647    -6794    -7283    -7472    -7376    -7292    -7090    -6712 
   -6559    -7030    -7855    -8149    -7596    -6960    -7009    -7452 
   -7450    -7109    -7094    -7160    -6898    -6755    -7061    -7230 
   -6795    -6446    -6679    -6787    -6590    -6777    -7252    -7430 
   -7321    -7319    -7460    -7267    -6867    -6922    -7219    -7210 
   -7003    -6947    -7341    -7971    -8062    -7647    -7445    -7169 
   -6492    -6448    -7209    -7272    -6477    -6266    -6943    -7503 
   -7418    -7064    -6860    -6845    -7001    -7240    -7285    -7094 
   -6972    -7083    -7198    -7022    -6795    -6987    -7352    -7429 
   -7221    -6963    -7034    -7219    -7032    -7009    -7462    -7619 
   -7145    -6783    -7156    -7582    -7298    -6880    -6808    -6717 
   -6686    -6926    -7080    -7102    -7269    -7329    -7219    -7466 
   -7761    -7319    -6704    -6735    -7009    -7049    -6984    -6951 
   -6941    -6979    -7047    -7014    -6971    -7199    -7547    -7526 
   -7187    -7157    -7527    -7658    -7325    -6874    -6474    -6380 
   -6837    -7330    -7322    -7048    -6945    -7168    -7410    -7233 
   -6905    -7011    -7177    -6736    -6423    -6980    -7300    -6589 
   -6129    -6882    -7967    -8375    -8194    -7998    -7917    -7604 
   -7044    -6633    -6465    -6265    -6085    -6420    -7067    -7219 
   -7169    -7537    -7666    -7210    -6998    -7375    -7619    -7225 
   -6839    -6920    -6853    -6627    -6808    -7095    -7102    -7065 
   -7144    -7261    -7431    -7661    -7724    -7384    -6759    -6223 
   -6085    -6394    -6853    -7117    -7288    -7593    -7820    -7801 
   -7634    -7349    -7156    -7123    -6909    -6517    -6316    -6488 
   -6990    -7506    -7728    -7712    -7701    -7769    -7676    -7237 
   -6583    -6000    -5830    -6116    -6519    -7071    -7896    -8359 
   -8044    -7576    -7429    -7312    -6961    -6606    -6562    -6689 
   -6853    -7402    -8105    -8008    -7033    -6201    -6350    -7149 
   -7348    -6588    -6041    -6520    -7410    -7784    -7614    -7352 
   -6864    -6093    -5850    -6601    -7712    -8417    -8395    -7773 
   -7146    -7137    -7680    -7946    -7277    -6180    -5822    -6474 
   -7159    -7155    -6868    -6937    -7375    -7774    -7950    -7879 
   -7357    -6536    -6153    -6497    -6966    -7032    -6872    -6794 
   -6736    -6664    -6948    -7663    -8133    -7920    -7284    -6620 
   -6396    -6786    -7241    -7341    -7338    -7493    -7690    -7722 
   -7553    -7171    -6639    -6326    -6459    -6686    -6640    -6548 
   -6694    -6862    -6901    -7055    -7357    -7504    -7410    -7276 
   -7281    -7465    -7568    -7304    -6932    -6841    -7055    -7504 
   -7947    -7893    -7294    -6675    -6509    -6878    -7298    -7109 
   -6617    -6592    -6897    -7088    -7218    -7366    -7483    -7514 
   -7449    -7342    -7146    -6855    -6740    -6902    -7088    -7249 
   -7335    -7113    -6806    -6782    -6853    -6914    -7194    -7561 
   -7561    -7191    -6890    -6737    -6417    -6066    -6282    -6940 
   -7187    -6984    -7068    -7416    -7581    -7796    -8310    -8621 
   -8248    -7362    -6262    -5152    -4409    -4255    -4573    -5289 
   -6439    -7969    -9732   -11541   -13153   -14166   -14229   -13595 
  -12885   -12110   -10791    -8699    -5981    -3095     -581     1242 
    2188     2142     1197     -251    -1954    -4627    -8974   -13853 
  -17343   -18816   -18257   -15336   -10435    -5113    -1154      670 
    1140     1209      436    -1660    -3790    -5117    -7503   -12348 
  -17431   -19452   -17697   -13645    -8290    -1742     4275     6636 
    5084     2494     -170    -4629   -10600   -14733   -14816   -11996 
   -8754    -7408    -9180   -12306   -13748   -13431   -13103   -12025 
   -7982    -1733     3055     4392     3796     2745      550    -2810 
   -5933    -8972   -13061   -17366   -20016   -20277   -18069   -13086 
   -5579     2353     7466     7863     3750    -3635   -12406   -19656 
  -22235   -19579   -14686   -10531    -7754    -5945    -4168    -1661 
     572      912     -577    -2708    -5020    -7790   -10800   -13146 
  -13863   -12268    -8716    -4842    -1991     -557     -916    -3110 
   -6049    -8048    -8178    -7677    -8923   -11581   -12920   -12160 
  -10122    -7248    -4849    -4245    -5138    -6736    -8310    -9051 
   -8437    -6565    -4845    -5201    -7484    -9624   -10731   -11252 
  -10212    -6555    -2315     -278     -692    -2891    -6571    -9906 
  -10341    -7848    -4513    -2662    -4251    -8548   -11416    -9931 
   -6251    -4661    -6015    -7726    -8101    -7812    -7869    -8345 
   -8993    -9497    -9225    -8349    -8037    -8498    -8750    -8221 
   -7015    -5540    -4425    -4059    -4168    -4417    -5000    -5960 
   -6767    -7461    -8583    -9406    -8560    -6519    -5169    -5274 
   -5922    -6142    -6085    -6739    -8731   -11232   -12421   -11392 
   -8947    -6899    -6797    -8041    -8330    -7055    -5583    -4445 
   -3800    -4538    -6308    -7306    -6674    -5337    -4665    -4818 
   -5057    -5540    -6959    -8572    -9132    -9049    -9208    -9247 
   -8731    -8232    -8464    -9306    -9836    -9444    -8615    -7978 
   -7373    -6500    -5845    -6142    -7211    -8244    -8579    -7780 
   -5935    -3871    -2783    -3420    -5049    -6354    -7141    -7442 
   -6853    -5722    -4869    -4506    -4450    -4737    -5725    -7470 
   -9509   -11379   -12459   -12274   -11207    -9524    -7056    -4684 
   -3878    -4720    -6048    -6952    -7240    -7007    -6408    -6323 
   -8005   -10617   -11448    -9456    -6289    -4125    -3777    -4390 
   -4846    -5202    -6250    -8110    -9742   -10011    -9185    -8419 
   -7778    -6575    -5363    -5590    -7268    -8698    -8872    -8365 
   -7862    -7406    -6758    -5813    -5080    -5204    -5795    -6100 
   -6291    -6536    -6430    -6062    -6049    -6436    -6473    -5865 
   -5535    -6358    -8154    -9984   -10824   -10528    -9653    -8398 
   -7107    -6736    -7487    -8125    -7681    -6902    -6870    -7500 
   -8287    -8858    -8580    -7203    -5547    -4472    -3770    -3091 
   -3073    -4206    -5771    -6868    -7213    -7176    -7608    -8356 
   -7973    -6448    -5671    -6300    -7372    -8573   -10076   -11333 
  -11593   -10692    -9072    -7557    -6852    -7064    -7624    -7738 
   -7098    -6172    -5726    -6033    -6562    -6745    -6682    -6462 
   -5771    -4796    -4341    -4892    -6192    -7557    -8469    -8760 
   -8496    -7893    -6917    -5715    -5255    -5848    -6022    -4648 
   -2754    -2054    -3129    -5702    -9003   -11495   -11885   -10470 
   -8614    -7526    -7678    -8471    -8802    -8482    -8249    -8345 
   -8244    -7765    -7357    -7175    -6721    -6043    -6097    -7113 
   -8220    -8672    -8213    -7260    -6912    -7585    -8276    -7928 
   -6779    -5900    -5705    -5718    -5709    -5752    -5694    -5690 
   -6218    -7110    -7638    -7442    -6961    -6972    -7614    -8205 
   -8243    -7874    -7481    -7364    -7635    -8216    -8968    -9629 
   -9815    -9432    -8731    -7847    -6916    -6151    -5400    -4460 
   -3809    -4171    -5400    -6600    -7323    -7565    -7129    -6164 
   -5352    -4887    -4417    -3971    -3843    -3960    -4155    -4318 
   -4384    -4796    -6088    -7958    -9790   -11330   -12366   -12590 
  -11902   -10489    -8808    -7580    -7195    -7361    -7781    -8399 
   -8915    -8787    -7800    -6482    -5725    -6161    -7792    -9666 
  -10677   -10686    -9846    -8041    -5667    -3743    -3036    -3461 
   -4394    -5366    -6205    -6913    -7535    -7804    -7449    -6926 
   -6798    -6648    -5890    -5108    -5233    -5914    -6268    -6539 
   -7389    -8333    -8313    -7240    -5996    -5267    -5157    -5690 
   -6777    -7838    -8206    -7812    -7067    -6353    -5957    -6262 
   -7480    -9057   -10046   -10054    -9252    -8074    -7078    -6554 
   -6440    -6601    -6879    -7157    -7438    -7755    -7965    -7911 
   -7765    -7827    -8090    -8172    -7753    -7150    -7010    -7593 
   -8743    -9833    -9987    -9086    -7727    -6289    -4958    -4101 
   -3960    -4394    -5159    -6119    -7149    -8010    -8151    -7053 
   -5143    -3651    -3487    -4788    -6916    -8640    -9143    -8684 
   -7942    -7456    -7703    -8627    -9312    -9128    -8617    -8417 
   -8380    -8240    -7986    -7404    -6265    -5015    -4479    -4926 
   -5992    -7200    -8067    -8282    -8098    -7832    -7222    -6058 
   -4661    -3380    -2459    -2182    -2620    -3669    -5324    -7392 
   -9425   -11219   -12664   -13259   -12521   -10694    -8673    -7240 
   -6583    -6372    -6215    -6277    -6939    -7857    -8357    -8468 
   -8546    -8532    -8212    -7627    -7001    -6496    -6022    -5401 
   -4706    -4144    -3835    -3852    -4118    -4506    -5269    -6616 
   -8067    -8904    -8976    -8638    -8132    -7458    -6818    -6488 
   -6349    -6176    -6099    -6274    -6593    -7064    -7875    -8927 
   -9772   -10157   -10239   -10189    -9933    -9271    -8023    -6228 
   -4521    -3838    -4293    -4976    -5152    -4928    -4715    -4687 
   -4874    -5455    -6462    -7435    -7906    -8062    -8461    -9138 
   -9607    -9720    -9775    -9895    -9791    -9261    -8613    -8216 
   -7974    -7754    -7705    -7761    -7523    -6814    -5857    -4996 
   -4488    -4441    -4668    -4826    -4924    -5373    -6269    -7103 
   -7431    -7352    -7204    -7311    -7740    -8090    -7870    -7107 
   -6296    -5742    -5436    -5535    -6222    -7249    -8236    -8945 
   -9084    -8571    -7861    -7469    -7399    -7333    -7168    -7009 
   -6782    -6311    -5719    -5471    -5876    -6643    -7219    -7465 
   -7530    -7425    -7194    -7052    -7094    -7303    -7707    -8244 
