Origin Time       2025/03/28 03:50:00
Lat.              35.403
Long.             140.360
Depth. (km)       54
Mag.              4.4
Station Code      CHB022
Station Lat.      35.3033
Station Long.     139.8555
Station Height(m) 12
Record Time       2025/03/28 03:50:59
Sampling Freq(Hz) 100Hz
Duration Time(s)  60
Dir.              E-W
Scale Factor      7845(gal)/8223790
Max. Acc. (gal)   6.767
Last Correction   2025/03/28 03:50:58
Memo.             
[...]
   -4432    -4423    -4440    -4421    -4399    -4415    -4422    -4421 
   -4418    -4410    -4418    -4434    -4428    -4413    -4413    -4433 
   -4441    -4436    -4450    -4453    -4441    -4445    -4441    -4440 
   -4455    -4444    -4434    -4448    -4444    -4434    -4434    -4425 
   -4423    -4436    -4423    -4405    -4410    -4423    -4436    -4445 
   -4448    -4442    -4432    -4425    -4426    -4432    -4450    -4463 
   -4448    -4437    -4442    -4436    -4430    -4438    -4453    -4467 
   -4453    -4428    -4426    -4425    -4422    -4444    -4455    -4436 
   -4422    -4418    -4417    -4423    -4423    -4426    -4440    -4449 
   -4449    -4442    -4440    -4446    -4450    -4449    -4440    -4434 
   -4438    -4438    -4425    -4421    -4432    -4430    -4413    -4409 
   -4418    -4430    -4441    -4438    -4433    -4442    -4440    -4425 
   -4426    -4441    -4440    -4425    -4419    -4423    -4421    -4421 
   -4425    -4425    -4436    -4455    -4455    -4434    -4426    -4430 
   -4434    -4430    -4421    -4417    -4425    -4442    -4444    -4421 
   -4418    -4432    -4436    -4425    -4417    -4423    -4430    -4436 
   -4442    -4441    -4436    -4426    -4423    -4434    -4434    -4436 
   -4453    -4444    -4429    -4432    -4426    -4436    -4453    -4444 
   -4437    -4434    -4421    -4422    -4429    -4428    -4430    -4429 
   -4429    -4433    -4437    -4434    -4426    -4430    -4446    -4452 
   -4444    -4440    -4442    -4446    -4452    -4446    -4438    -4442 
   -4442    -4429    -4425    -4423    -4419    -4429    -4432    -4432 
   -4438    -4432    -4430    -4440    -4440    -4444    -4453    -4449 
   -4444    -4446    -4441    -4430    -4425    -4428    -4436    -4444 
   -4445    -4442    -4434    -4432    -4446    -4445    -4426    -4425 
   -4429    -4426    -4426    -4425    -4421    -4418    -4415    -4418 
   -4419    -4429    -4449    -4450    -4440    -4450    -4455    -4446 
   -4452    -4442    -4430    -4444    -4437    -4425    -4426    -4421 
   -4421    -4419    -4411    -4421    -4423    -4423    -4433    -4419 
   -4417    -4436    -4425    -4421    -4445    -4441    -4438    -4455 
   -4450    -4441    -4438    -4432    -4437    -4442    -4445    -4453 
   -4444    -4425    -4425    -4421    -4419    -4436    -4436    -4421 
   -4417    -4414    -4407    -4403    -4407    -4425    -4441    -4436 
   -4433    -4444    -4442    -4441    -4445    -4444    -4446    -4460 
   -4460    -4450    -4441    -4429    -4429    -4433    -4423    -4418 
   -4432    -4445    -4436    -4430    -4433    -4422    -4426    -4436 
   -4421    -4423    -4445    -4449    -4434    -4419    -4423    -4436 
   -4442    -4444    -4438    -4436    -4444    -4441    -4434    -4442 
   -4450    -4446    -4441    -4442    -4444    -4434    -4423    -4423 
   -4432    -4444    -4456    -4452    -4426    -4392    -4390    -4418 
   -4434    -4441    -4444    -4426    -4411    -4410    -4419    -4434 
   -4434    -4433    -4449    -4450    -4448    -4459    -4455    -4442 
   -4437    -4436    -4441    -4438    -4423    -4418    -4415    -4410 
   -4406    -4401    -4410    -4433    -4433    -4417    -4413    -4419 
   -4432    -4452    -4463    -4457    -4446    -4434    -4436    -4449 
   -4445    -4436    -4442    -4436    -4417    -4411    -4415    -4425 
   -4437    -4438    -4425    -4405    -4413    -4434    -4437    -4436 
   -4442    -4433    -4422    -4422    -4421    -4422    -4423    -4423 
   -4433    -4448    -4464    -4463    -4444    -4437    -4441    -4438 
   -4445    -4455    -4444    -4426    -4413    -4401    -4410    -4425 
   -4433    -4448    -4446    -4428    -4426    -4425    -4418    -4425 
   -4440    -4448    -4455    -4448    -4433    -4438    -4445    -4440 
   -4450    -4471    -4464    -4448    -4444    -4442    -4440    -4437 
   -4436    -4441    -4440    -4426    -4411    -4401    -4399    -4411 
   -4436    -4459    -4450    -4434    -4437    -4437    -4440    -4446 
   -4449    -4456    -4452    -4438    -4438    -4450    -4456    -4452 
   -4437    -4426    -4429    -4432    -4433    -4428    -4417    -4425 
   -4434    -4423    -4414    -4417    -4428    -4426    -4417    -4429 
   -4449    -4445    -4438    -4440    -4436    -4434    -4441    -4449 
   -4450    -4442    -4441    -4448    -4440    -4432    -4432    -4430 
   -4433    -4433    -4429    -4426    -4407    -4394    -4409    -4415 
   -4410    -4415    -4421    -4426    -4432    -4430    -4441    -4459 
   -4457    -4448    -4441    -4441    -4444    -4441    -4442    -4445 
   -4440    -4432    -4430    -4433    -4428    -4421    -4419    -4418 
   -4419    -4428    -4425    -4406    -4391    -4380    -4388    -4419 
   -4445    -4456    -4471    -4482    -4490    -4506    -4518    -4525 
   -4534    -4526    -4487    -4452    -4430    -4418    -4387    -4305 
   -4267    -4338    -4401    -4374    -4334    -4364    -4455    -4531 
   -4515    -4448    -4461    -4544    -4560    -4476    -4375    -4371 
   -4463    -4440    -4245    -4129    -4259    -4514    -4619    -4491 
   -4388    -4495    -4671    -4712    -4594    -4457    -4418    -4446 
   -4468    -4382    -4166    -4027    -4108    -4283    -4376    -4324 
   -4286    -4500    -4796    -4855    -4743    -4700    -4776    -4822 
   -4644    -4278    -4013    -4075    -4330    -4375    -4104    -3917 
   -4093    -4425    -4571    -4430    -4328    -4577    -4926    -5023 
   -4891    -4633    -4391    -4307    -4256    -4098    -3955    -3990 
   -4207    -4430    -4496    -4503    -4603    -4774    -4843    -4644 
   -4378    -4372    -4482    -4459    -4361    -4249    -4166    -4178 
   -4228    -4256    -4305    -4476    -4801    -5031    -4930    -4691 
   -4595    -4569    -4409    -4158    -3966    -3869    -3929    -4166 
   -4345    -4374    -4483    -4707    -4797    -4707    -4594    -4552 
   -4627    -4722    -4626    -4318    -4028    -3998    -4163    -4214 
   -4122    -4203    -4599    -4978    -5027    -4893    -4738    -4511 
   -4348    -4341    -4317    -4171    -4021    -4059    -4264    -4387 
   -4365    -4303    -4252    -4342    -4607    -4777    -4735    -4691 
   -4715    -4639    -4428    -4257    -4260    -4375    -4471    -4426 
   -4245    -4237    -4540    -4810    -4780    -4552    -4422    -4515 
   -4544    -4369    -4225    -4164    -4081    -4048    -4114    -4118 
   -4039    -4113    -4329    -4506    -4710    -4954    -5082    -5111 
   -5086    -4963    -4777    -4560    -4280    -4037    -3927    -3879 
   -3913    -4036    -4075    -4031    -4074    -4197    -4371    -4675 
   -5059    -5378    -5544    -5618    -5625    -5319    -4580    -3773 
   -3295    -3137    -3094    -3213    -3572    -3910    -4094    -4303 
   -4585    -4939    -5410    -5800    -5896    -5753    -5432    -4947 
   -4372    -3746    -3153    -2786    -2778    -3069    -3439    -3788 
   -4217    -4765    -5302    -5686    -5859    -5844    -5629    -5225 
   -4849    -4673    -4537    -4259    -3928    -3620    -3298    -3091 
   -3191    -3554    -3973    -4340    -4703    -5055    -5244    -5086 
   -4602    -4170    -4191    -4588    -5000    -5211    -5177    -5058 
   -5038    -4935    -4521    -4023    -3769    -3778    -3883    -3900 
   -3761    -3599    -3558    -3626    -3789    -4167    -4827    -5553 
   -5946    -5888    -5664    -5454    -5151    -4718    -4239    -3797 
   -3470    -3261    -3144    -3167    -3376    -3735    -4144    -4576 
   -5080    -5499    -5644    -5649    -5598    -5321    -4893    -4510 
   -4152    -3928    -3920    -3875    -3707    -3645    -3740    -3894 
   -4126    -4459    -4765    -4966    -5113    -5159    -5003    -4769 
   -4615    -4494    -4280    -3985    -3777    -3757    -3813    -3906 
   -4099    -4257    -4313    -4546    -4985    -5265    -5285    -5166 
   -4958    -4806    -4803    -4774    -4527    -4090    -3685    -3537 
   -3576    -3613    -3717    -4004    -4371    -4747    -5113    -5300 
   -5239    -5100    -5008    -4897    -4719    -4504    -4232    -3886 
   -3531    -3256    -3195    -3468    -3975    -4429    -4715    -4887 
   -4911    -4837    -4845    -4927    -4976    -4990    -4985    -4892 
   -4611    -4249    -4082    -4058    -3960    -3924    -4071    -4222 
   -4259    -4243    -4264    -4365    -4500    -4633    -4746    -4761 
   -4676    -4637    -4675    -4745    -4893    -4957    -4722    -4421 
   -4340    -4422    -4527    -4540    -4326    -3919    -3499    -3172 
   -2970    -3029    -3518    -4347    -5108    -5439    -5418    -5375 
   -5375    -5314    -5242    -5193    -5107    -4966    -4727    -4333 
   -3854    -3415    -3113    -2986    -2999    -3123    -3461    -4145 
   -5009    -5705    -6100    -6191    -5948    -5475    -4963    -4513 
   -4126    -3770    -3429    -3160    -3037    -3091    -3339    -3724 
   -4144    -4594    -5044    -5404    -5683    -5918    -6006    -5756 
   -5174    -4587    -4249    -4043    -3801    -3558    -3383    -3331 
   -3491    -3755    -3952    -4178    -4538    -4876    -5089    -5228 
   -5301    -5242    -5042    -4800    -4560    -4225    -3800    -3520 
   -3507    -3592    -3723    -3940    -4140    -4324    -4591    -4897 
   -5185    -5445    -5625    -5660    -5548    -5224    -4664    -4099 
   -3715    -3453    -3342    -3504    -3801    -3948    -3952    -4128 
   -4595    -5017    -5090    -4946    -4834    -4793    -4700    -4486 
   -4259    -4067    -3820    -3597    -3592    -3801    -4089    -4403 
   -4799    -5238    -5567    -5692    -5586    -5258    -4884    -4683 
   -4637    -4545    -4237    -3746    -3334    -3145    -3096    -3277 
   -3827    -4441    -4745    -4806    -4851    -4955    -5058    -5016 
   -4814    -4621    -4502    -4419    -4406    -4368    -4131    -3897 
   -4051    -4459    -4654    -4548    -4386    -4337    -4359    -4315 
   -4264    -4413    -4716    -4868    -4672    -4330    -4220    -4374 
   -4537    -4565    -4487    -4442    -4506    -4530    -4409    -4268 
   -4263    -4353    -4411    -4365    -4263    -4302    -4572    -4846 
   -4916    -4864    -4777    -4588    -4267    -3931    -3778    -3882 
   -4052    -4099    -4133    -4275    -4472    -4737    -5078    -5296 
   -5287    -5154    -4839    -4318    -3862    -3670    -3685    -3850 
   -4056    -4043    -3865    -3924    -4301    -4733    -5069    -5289 
   -5375    -5251    -4909    -4590    -4530    -4638    -4639    -4465 
   -4267    -4095    -3916    -3829    -3912    -4017    -4002    -3944 
   -3971    -4094    -4336    -4743    -5202    -5464    -5390    -5103 
   -4773    -4430    -4151    -4035    -4000    -3933    -3870    -3882 
   -3981    -4148    -4409    -4731    -5003    -5108    -4945    -4621 
   -4438    -4450    -4455    -4382    -4334    -4369    -4380    -4294 
   -4267    -4413    -4595    -4687    -4708    -4653    -4536    -4452 
   -4299    -3950    -3705    -3836    -4135    -4398    -4658    -4849 
   -4874    -4806    -4698    -4517    -4288    -4195    -4365    -4625 
   -4733    -4681    -4533    -4283    -4036    -3946    -3946    -3928 
   -4006    -4202    -4360    -4491    -4657    -4796    -4861    -4849 
   -4754    -4617    -4506    -4414    -4355    -4429    -4583    -4669 
   -4706    -4689    -4575    -4453    -4359    -4213    -4000    -3784 
   -3636    -3604    -3740    -4021    -4330    -4681    -5130    -5528 
   -5737    -5817    -5729    -5367    -4881    -4430    -3964    -3564 
   -3322    -3196    -3172    -3248    -3422    -3727    -4132    -4571 
   -4990    -5325    -5497    -5526    -5458    -5239    -4973    -4814 
   -4657    -4405    -4114    -3809    -3535    -3461    -3686    -4106 
   -4585    -4993    -5165    -5139    -5084    -5022    -4900    -4761 
   -4718    -4637    -4286    -3704    -3032    -2465    -2228    -2403 
   -2948    -3651    -4372    -5140    -5686    -5788    -5715    -5694 
   -5667    -5591    -5408    -5058    -4629    -4249    -3966    -3716 
   -3407    -3064    -2871    -3019    -3480    -4120    -4972    -5902 
   -6498    -6573    -6227    -5630    -4999    -4464    -4058    -3836 
   -3763    -3663    -3465    -3238    -3091    -3186    -3591    -4197 
   -4831    -5355    -5725    -5925    -5965    -5952    -5810    -5317 
   -4575    -3928    -3403    -2852    -2419    -2315    -2570    -3130 
   -3854    -4584    -5301    -5987    -6458    -6583    -6485    -6255 
   -5995    -5871    -5742    -5439    -5113    -4842    -4531    -4186 
   -3819    -3481    -3424    -3716    -4077    -4337    -4453    -4361 
   -4118    -3707    -2945    -1884     -812      145      907     1197 
     912      189     -896    -2281    -3746    -5053    -6120    -6922 
   -7404    -7585    -7580    -7549    -7616    -7798    -8071    -8451 
   -8781    -8861    -8807    -8726    -8372    -7537    -6365    -5116 
   -3844    -2529    -1262     -145      648      891      554     -241 
   -1451    -2982    -4599    -6046    -7111    -7641    -7519    -6828 
   -5873    -4828    -3851    -3204    -2824    -2450    -2107    -1912 
   -1818    -1890    -2347    -3137    -4028    -4947    -5873    -6673 
   -7168    -7252    -6899    -6112    -4899    -3581    -2664    -2161 
   -1898    -2025    -2658    -3622    -4480    -5044    -5702    -6696 
   -7859    -8939    -9610    -9628    -8915    -7495    -5621    -3674 
   -1834     -255      795     1227     1078      321    -1026    -2775 
   -4612    -6403    -8056    -9155    -9612    -9756    -9300    -7850 
   -5929    -4033    -2096     -207     1433     2567     2660     1543 
    -364    -2668    -5121    -7215    -8411    -8916    -9108    -8630 
   -7408    -6006    -4753    -4037    -4095    -4148    -3716    -3426 
   -3307    -2883    -2439    -2220    -2220    -3034    -5042    -7553 
   -9697   -10940   -10848    -9568    -7770    -5559    -2791     -274 
    1100     1683     1894     1337       33    -1672    -3713    -5563 
   -6656    -7113    -7153    -7006    -6930    -6870    -6566    -5910 
   -5003    -4029    -3163    -2521    -2161    -2149    -2612    -3489 
   -4422    -5082    -5217    -4791    -4182    -3724    -3496    -3465 
   -3570    -3906    -4614    -5597    -6504    -6974    -6891    -6434 
   -5923    -5589    -5471    -5414    -5209    -4961    -4787    -4533 
   -4255    -4075    -3867    -3586    -3257    -2822    -2284    -1709 
   -1156     -785     -822    -1429    -2664    -4228    -5684    -6920 
   -7925    -8642    -8922    -8483    -7372    -5945    -4409    -2925 
   -1755    -1150    -1188    -1813    -2944    -4255    -5266    -5827 
   -6089    -6138    -5952    -5435    -4635    -3870    -3350    -3159 
   -3433    -4148    -5030    -5742    -6139    -6274    -6166    -5826 
   -5277    -4475    -3514    -2681    -2219    -2162    -2378    -2797 
   -3427    -4194    -4891    -5297    -5432    -5563    -5765    -5842 
   -5722    -5557    -5464    -5355    -5059    -4567    -4051    -3655 
   -3419    -3296    -3206    -3177    -3269    -3412    -3537    -3678 
   -3955    -4405    -4995    -5616    -5953    -5815    -5386    -4834 
   -4164    -3495    -3011    -2640    -2284    -2076    -2097    -2438 
   -3196    -4302    -5599    -6849    -7836    -8487    -8721    -8496 
   -7933    -7111    -6014    -4731    -3468    -2339    -1399     -824 
    -783    -1128    -1755    -2799    -4036    -5094    -5890    -6304 
   -6324    -6135    -5817    -5406    -5044    -4774    -4471    -4091 
   -3762    -3530    -3225    -2843    -2664    -2737    -2925    -3225 
   -3603    -4083    -4779    -5574    -6241    -6593    -6473    -5903 
   -5005    -3946    -3025    -2428    -2278    -2713    -3519    -4336 
   -4988    -5401    -5663    -5788    -5633    -5277    -4864    -4437 
   -4172    -4202    -4545    -5212    -5984    -6501    -6565    -6156 
   -5451    -4698    -4020    -3403    -2870    -2509    -2342    -2384 
   -2667    -3199    -4020    -4989    -5791    -6214    -6154    -5545 
   -4438    -3118    -1957    -1165     -884    -1263    -2219    -3578 
   -5301    -7126    -8560    -9344    -9436    -8853    -7661    -5999 
   -4190    -2633    -1583    -1090    -1071    -1408    -1958    -2631 
   -3403    -4168    -4820    -5308    -5610    -5732    -5593    -5185 
   -4710    -4347    -4234    -4471    -4923    -5398    -5805    -6070 
   -6142    -6002    -5647    -5130    -4571    -4041    -3541    -3064 
   -2635    -2323    -2196    -2253    -2494    -2980    -3715    -4585 
   -5371    -5940    -6293    -6381    -6210    -5933    -5607    -5154 
   -4519    -3731    -2897    -2187    -1809    -1887    -2423    -3366 
   -4517    -5559    -6326    -6754    -6872    -6855    -6750    -6438 
   -5857    -5061    -4168    -3285    -2488    -1891    -1680    -1956 
   -2558    -3245    -3913    -4480    -4846    -5031    -5167    -5367 
   -5599    -5764    -5772    -5564    -5225    -4892    -4646    -4548 
   -4575    -4604    -4557    -4425    -4233    -3978    -3707    -3576 
   -3653    -3813    -3904    -3908    -3886    -3843    -3788    -3739 
   -3631    -3530    -3638    -3946    -4340    -4834    -5412    -5944 
   -6270    -6315    -6115    -5763    -5335    -4896    -4558    -4384 
   -4284    -4168    -4006    -3816    -3693    -3700    -3784    -3850 
   -3815    -3619    -3350    -3207    -3302    -3595    -4009    -4565 
   -5258    -5900    -6384    -6814    -7234    -7534    -7580    -7180 
   -6254    -4980    -3557    -2126     -953     -287     -140     -403 
   -1005    -1822    -2690    -3559    -4446    -5277    -5946    -6448 
   -6758    -6839    -6775    -6660    -6458    -6137    -5744    -5317 
   -4882    -4421    -3921    -3523    -3311    -3210    -3213    -3341 
   -3555    -3854    -4217    -4484    -4486    -4237    -3916    -3694 
   -3665    -3850    -4194    -4568    -4872    -5032    -5031    -4995 
   -4974    -4889    -4834    -4922    -5016    -4959    -4791    -4627 
   -4511    -4371    -4099    -3697    -3276    -2916    -2694    -2783 
   -3303    -4191    -5233    -6116    -6615    -6698    -6396    -5798 
   -5055    -4228    -3360    -2619    -2199    -2168    -2531    -3295 
   -4286    -5238    -5999    -6466    -6570    -6339    -5845    -5157 
   -4374    -3605    -2913    -2331    -1933    -1818    -2085    -2727 
   -3630    -4706    -5794    -6647    -7207    -7584    -7770    -7734 
   -7534    -7110    -6281    -5065    -3646    -2231    -1090     -471 
    -423     -880    -1725    -2790    -3906    -4965    -5914    -6704 
   -7261    -7458    -7148    -6403    -5521    -4673    -3863    -3118 
   -2451    -1929    -1710    -1814    -2120    -2571    -3148    -3804 
   -4457    -5062    -5638    -6103    -6372    -6509    -6521    -6345 
   -6029    -5643    -5192    -4679    -4108    -3522    -2990    -2577 
   -2405    -2509    -2798    -3300    -4001    -4712    -5335    -5818 
   -6033    -5949    -5602    -4995    -4236    -3520    -2978    -2752 
   -2928    -3366    -3896    -4423    -4855    -5171    -5447    -5749 
   -6079    -6393    -6600    -6601    -6394    -5985    -5306    -4401 
   -3424    -2506    -1753    -1244    -1067    -1306    -2011    -3136 
   -4480    -5834    -7088    -8036    -8457    -8347    -7788    -6790 
   -5427    -3916    -2486    -1350     -711     -681    -1209    -2104 
   -3183    -4329    -5444    -6431    -7160    -7449    -7202    -6532 
