Origin Time       2025/03/28 03:50:00
Lat.              35.403
Long.             140.360
Depth. (km)       54
Mag.              4.4
Station Code      CHB010
Station Lat.      35.7086
Station Long.     140.5637
Station Height(m) 9
Record Time       2025/03/28 03:50:57
Sampling Freq(Hz) 100Hz
Duration Time(s)  62
Dir.              N-S
Scale Factor      7845(gal)/8223790
Max. Acc. (gal)   6.503
Last Correction   2025/03/28 03:50:56
Memo.             
[...]
   -6141    -6166    -6162    -6126    -6135    -6170    -6173    -6141 
   -6134    -6164    -6168    -6147    -6142    -6150    -6157    -6156 
   -6151    -6156    -6156    -6149    -6143    -6147    -6162    -6170 
   -6150    -6138    -6154    -6153    -6139    -6162    -6183    -6156 
   -6138    -6153    -6166    -6168    -6147    -6135    -6157    -6165 
   -6157    -6158    -6149    -6149    -6165    -6157    -6142    -6156 
   -6161    -6151    -6151    -6151    -6149    -6160    -6164    -6149 
   -6146    -6157    -6161    -6165    -6161    -6141    -6146    -6170 
   -6158    -6130    -6143    -6173    -6165    -6139    -6141    -6150 
   -6157    -6170    -6158    -6135    -6146    -6160    -6145    -6150 
   -6158    -6143    -6154    -6164    -6145    -6130    -6130    -6160 
   -6178    -6146    -6135    -6151    -6139    -6142    -6164    -6160 
   -6153    -6149    -6135    -6134    -6139    -6150    -6170    -6157 
   -6124    -6157    -6172    -6137    -6151    -6158    -6127    -6138 
   -6157    -6157    -6147    -6141    -6149    -6153    -6157    -6154 
   -6138    -6149    -6165    -6146    -6139    -6161    -6164    -6143 
   -6142    -6162    -6156    -6133    -6142    -6158    -6146    -6146 
   -6172    -6162    -6126    -6137    -6160    -6160    -6158    -6151 
   -6147    -6149    -6139    -6146    -6162    -6157    -6138    -6146 
   -6165    -6157    -6154    -6160    -6145    -6149    -6157    -6141 
   -6145    -6156    -6158    -6168    -6150    -6127    -6147    -6154 
   -6157    -6180    -6149    -6124    -6160    -6145    -6138    -6170 
   -6147    -6142    -6160    -6145    -6164    -6165    -6138    -6153 
   -6156    -6149    -6165    -6157    -6150    -6160    -6141    -6141 
   -6166    -6145    -6133    -6157    -6145    -6149    -6165    -6139 
   -6157    -6164    -6120    -6142    -6176    -6137    -6112    -6143 
   -6176    -6173    -6135    -6126    -6168    -6168    -6129    -6137 
   -6165    -6164    -6139    -6130    -6156    -6169    -6157    -6156 
   -6157    -6139    -6130    -6154    -6168    -6150    -6139    -6147 
   -6157    -6157    -6135    -6131    -6165    -6169    -6141    -6134 
   -6137    -6157    -6178    -6153    -6127    -6153    -6164    -6139 
   -6134    -6147    -6150    -6157    -6158    -6146    -6141    -6138 
   -6145    -6160    -6156    -6134    -6147    -6177    -6154    -6131 
   -6145    -6141    -6147    -6165    -6154    -6153    -6158    -6145 
   -6137    -6147    -6156    -6147    -6137    -6147    -6161    -6160 
   -6142    -6138    -6158    -6161    -6153    -6156    -6146    -6141 
   -6149    -6151    -6153    -6145    -6139    -6149    -6153    -6137 
   -6134    -6154    -6164    -6158    -6138    -6134    -6162    -6161 
   -6142    -6146    -6146    -6139    -6149    -6162    -6153    -6149 
   -6142    -6127    -6145    -6157    -6146    -6146    -6142    -6150 
   -6153    -6143    -6157    -6160    -6133    -6135    -6154    -6154 
   -6150    -6146    -6141    -6151    -6145    -6139    -6161    -6153 
   -6142    -6161    -6146    -6131    -6161    -6169    -6147    -6138 
   -6141    -6151    -6157    -6147    -6151    -6150    -6147    -6177 
   -6169    -6131    -6162    -6174    -6130    -6139    -6162    -6156 
   -6173    -6168    -6138    -6143    -6151    -6147    -6161    -6157 
   -6139    -6151    -6160    -6150    -6143    -6142    -6157    -6178 
   -6160    -6131    -6149    -6154    -6143    -6165    -6161    -6134 
   -6154    -6165    -6143    -6154    -6156    -6138    -6161    -6174 
   -6151    -6143    -6139    -6141    -6164    -6165    -6149    -6143 
   -6139    -6151    -6174    -6164    -6141    -6145    -6160    -6147 
   -6141    -6157    -6157    -6158    -6162    -6147    -6150    -6173 
   -6169    -6133    -6135    -6164    -6156    -6150    -6160    -6168 
   -6169    -6146    -6134    -6158    -6162    -6142    -6153    -6161 
   -6153    -6165    -6151    -6142    -6165    -6156    -6143    -6157 
   -6150    -6154    -6168    -6146    -6139    -6158    -6149    -6149 
   -6153    -6145    -6170    -6162    -6119    -6146    -6178    -6147 
   -6133    -6147    -6154    -6158    -6149    -6137    -6150    -6158 
   -6142    -6137    -6149    -6166    -6164    -6138    -6137    -6146 
   -6137    -6149    -6164    -6150    -6145    -6149    -6149    -6151 
   -6156    -6147    -6149    -6168    -6162    -6143    -6146    -6146 
   -6139    -6153    -6162    -6153    -6153    -6157    -6157    -6146 
   -6138    -6141    -6150    -6160    -6147    -6134    -6161    -6183 
   -6151    -6138    -6158    -6146    -6126    -6153    -6174    -6160 
   -6147    -6138    -6149    -6173    -6153    -6130    -6145    -6158 
   -6165    -6156    -6130    -6146    -6169    -6153    -6146    -6145 
   -6124    -6137    -6170    -6160    -6146    -6149    -6150    -6145 
   -6133    -6143    -6158    -6151    -6154    -6157    -6147    -6137 
   -6139    -6166    -6178    -6147    -6122    -6126    -6138    -6169 
   -6178    -6139    -6134    -6157    -6147    -6134    -6142    -6172 
   -6170    -6131    -6123    -6151    -6168    -6154    -6143    -6146 
   -6143    -6145    -6145    -6141    -6154    -6169    -6150    -6130 
   -6153    -6168    -6151    -6150    -6156    -6146    -6149    -6153 
   -6153    -6161    -6153    -6138    -6146    -6156    -6154    -6151 
   -6147    -6161    -6161    -6131    -6127    -6157    -6176    -6153 
   -6133    -6162    -6172    -6142    -6146    -6153    -6145    -6160 
   -6157    -6141    -6143    -6150    -6172    -6173    -6133    -6120 
   -6145    -6164    -6168    -6146    -6138    -6162    -6165    -6146 
   -6147    -6154    -6154    -6145    -6137    -6156    -6168    -6150 
   -6141    -6146    -6149    -6145    -6141    -6153    -6154    -6147 
   -6154    -6153    -6150    -6145    -6133    -6145    -6168    -6165 
   -6146    -6146    -6158    -6156    -6157    -6164    -6145    -6146 
   -6174    -6162    -6137    -6143    -6146    -6149    -6181    -6172 
   -6102    -6085    -6145    -6199    -6188    -6111    -6072    -6100 
   -6118    -6154    -6208    -6173    -6111    -6097    -6131    -6200 
   -6193    -6143    -6165    -6164    -6088    -6049    -6127    -6259 
   -6270    -6169    -6116    -6160    -6203    -6129    -6062    -6243 
   -6401    -6124    -5798    -6010    -6386    -6297    -6012    -6061 
   -6181    -5975    -5908    -6326    -6488    -6015    -5744    -6176 
   -6566    -6228    -5868    -6293    -6617    -6188    -6079    -6389 
   -6089    -5599    -5865    -6459    -6463    -5930    -5656    -5998 
   -6461    -6462    -6214    -6174    -6093    -5796    -5911    -6502 
   -6581    -6046    -5842    -6115    -6382    -6386    -6193    -6112 
   -5950    -5697    -6114    -6733    -6416    -5765    -5853    -6373 
   -6546    -6328    -6060    -5830    -5764    -6118    -6617    -6575 
   -6091    -5879    -5904    -5933    -6211    -6466    -6295    -6095 
   -6162    -6216    -6108    -6166    -6450    -6394    -6077    -6106 
   -6296    -6301    -6288    -6185    -5853    -5760    -6103    -6347 
   -6129    -5613    -5516    -6193    -6652    -6382    -6157    -5958 
   -5547    -5706    -6339    -6397    -6066    -5991    -5917    -5842 
   -6185    -6505    -6411    -6381    -6376    -6164    -6157    -6393 
   -6494    -6361    -6313    -6723    -7083    -6737    -6150    -5788 
   -5553    -5559    -5521    -5248    -5313    -5422    -5302    -5861 
   -6755    -6825    -6590    -6817    -7107    -7009    -6585    -6130 
   -5934    -5967    -6011    -6134    -6385    -6448    -6245    -6022 
   -5853    -5778    -5834    -5773    -5348    -4912    -5138    -5879 
   -6133    -5853    -6191    -7084    -7430    -7229    -6848    -6365 
   -6166    -6210    -6227    -6434    -6519    -6089    -5815    -5988 
   -6065    -5984    -5892    -5937    -6080    -5787    -5568    -6307 
   -6878    -6438    -6223    -6588    -6608    -6378    -6326    -6199 
   -5906    -5725    -5917    -6407    -6579    -6037    -5433    -5481 
   -5811    -5719    -5325    -5352    -5879    -6246    -6259    -6295 
   -6416    -6484    -6608    -6714    -6660    -6627    -6639    -6615 
   -6436    -5871    -5543    -6180    -6625    -5869    -5289    -5763 
   -6242    -6386    -6535    -6276    -5782    -5807    -6168    -6286 
   -5999    -5637    -5730    -6212    -6575    -6434    -6010    -6023 
   -6262    -6137    -6118    -6308    -6258    -6376    -6613    -6255 
   -5782    -5933    -6235    -6022    -5552    -5568    -6049    -6269 
   -6126    -6195    -6562    -6673    -6300    -5923    -5871    -5873 
   -5975    -6450    -6696    -6166    -5798    -6411    -6768    -5848 
   -5244    -6238    -7253    -6976    -6353    -6119    -5938    -5880 
   -6208    -6536    -6361    -6069    -6447    -6845    -6200    -5341 
   -5312    -5786    -6224    -6280    -6058    -5849    -5363    -5061 
   -5883    -7020    -7094    -6397    -6119    -6466    -6319    -5356 
   -5169    -6245    -6821    -6378    -6203    -6450    -6228    -5621 
   -5494    -5944    -6288    -6173    -5989    -6276    -6679    -6750 
   -6922    -6999    -6381    -5794    -5902    -6272    -6451    -6114 
   -5409    -5157    -5516    -5980    -6184    -5898    -5563    -5895 
   -6485    -6624    -6594    -6659    -6409    -5923    -5964    -6450 
   -6424    -6126    -6386    -6511    -5976    -5724    -6004    -6210 
   -6216    -6238    -6501    -6590    -6010    -5636    -5877    -5744 
   -5404    -5751    -6316    -6443    -6448    -6436    -6093    -5649 
   -5516    -5856    -6469    -6610    -6247    -6308    -6760    -6660 
   -6088    -5903    -6258    -6648    -6658    -6227    -5665    -5459 
   -5732    -6058    -6216    -6434    -6754    -6939    -6898    -6669 
   -6253    -5714    -5158    -4965    -5440    -5895    -5805    -5773 
   -6172    -6762    -7163    -7037    -6681    -6366    -5773    -5324 
   -5725    -6299    -6218    -5732    -5374    -5439    -5832    -6330 
   -6779    -6860    -6605    -6507    -6519    -6142    -5653    -5805 
   -6242    -6311    -6535    -6949    -6691    -6052    -5701    -5598 
   -5690    -5776    -5778    -5857    -5806    -5755    -6228    -6831 
   -6693    -6122    -6057    -6347    -6394    -6174    -5914    -6022 
   -6286    -5996    -5717    -6250    -6821    -6670    -6446    -6623 
   -6659    -6382    -6220    -6130    -5644    -4966    -5019    -5676 
   -5917    -6018    -6616    -6940    -6520    -6211    -6247    -6131 
   -6131    -6265    -6162    -6195    -6176    -5860    -6007    -6331 
   -6103    -5888    -5914    -5852    -6035    -6409    -6354    -6220 
   -6413    -6353    -6189    -6486    -6648    -6318    -5934    -5786 
   -6156    -6713    -6555    -6006    -5944    -6027    -5950    -6054 
   -6000    -5643    -5686    -6097    -6264    -6261    -6354    -6340 
   -6177    -6073    -5869    -5630    -5802    -6183    -6328    -6188 
   -5956    -6018    -6124    -5796    -5738    -6370    -6705    -6458 
   -6420    -6598    -6478    -6150    -5846    -5768    -6056    -6278 
   -6366    -6737    -6851    -6343    -6135    -6473    -6558    -6367 
   -6259    -6056    -6037    -6393    -6328    -5740    -5483    -5773 
   -6072    -5941    -5556    -5463    -5795    -6210    -6508    -6739 
   -6731    -6238    -5686    -5648    -5841    -5891    -5981    -6228 
   -6431    -6338    -6091    -6048    -6104    -6081    -6234    -6728 
   -7109    -6762    -5946    -5431    -5298    -5341    -5638    -6056 
   -6224    -6093    -6031    -6173    -6253    -6409    -6751    -6729 
   -6285    -6007    -6015    -6216    -6547    -6609    -6363    -6224 
   -6181    -6104    -5985    -5668    -5370    -5526    -5892    -6056 
   -6205    -6399    -6373    -6340    -6513    -6444    -6014    -5850 
   -6062    -6088    -5985    -6259    -6685    -6650    -6195    -5888 
   -5953    -6102    -6134    -6164    -6386    -6670    -6523    -6018 
   -5698    -5583    -5593    -5934    -6304    -6189    -5984    -6327 
   -6802    -6567    -5863    -5746    -6359    -6698    -6304    -5850 
   -5767    -5675    -5613    -6143    -6886    -6820    -6177    -6062 
   -6332    -6103    -5634    -5522    -5478    -5359    -5659    -6312 
   -6567    -6335    -6324    -6728    -6967    -6678    -6330    -6404 
   -6471    -6185    -5952    -5821    -5633    -5810    -6463    -6882 
   -6768    -6535    -6176    -5634    -5371    -5498    -5814    -6247 
   -6505    -6454    -6455    -6430    -6014    -5759    -6133    -6304 
   -5898    -5695    -5780    -5725    -5877    -6470    -6903    -6808 
   -6559    -6516    -6577    -6538    -6334    -6219    -6407    -6451 
   -5983    -5348    -5040    -5224    -5626    -5886    -6057    -6405 
   -7009    -7503    -7317    -6708    -6416    -6223    -5780    -5582 
   -5674    -5452    -5028    -5076    -5597    -5929    -5954    -6157 
   -6534    -6689    -6527    -6174    -5931    -5919    -5968    -6303 
   -6993    -7368    -7330    -7400    -7531    -7452    -7211    -6974 
   -6902    -6882    -6708    -6624    -6809    -6987    -7186    -7674 
   -8160    -8226    -8014    -7731    -7352    -6978    -6489    -5715 
   -5244    -5486    -5850    -5792    -5491    -5184    -4704    -4025 
   -3537    -3705    -4650    -5759    -6299    -6147    -5219    -3458 
   -1755    -1116     -903      -89      618      442      135      135 
    -387    -2016    -4020    -5421    -6312    -6982    -7276    -7479 
   -8074    -9147   -10559   -11946   -12845   -12968   -12491   -11904 
  -11406   -11087   -10941   -10598   -10096    -9813    -9406    -8421 
   -7238    -6446    -6135    -6166    -6324    -6330    -6089    -5583 
   -4718    -3636    -2573    -1645    -1201    -1602    -2663    -3856 
   -4799    -5347    -5644    -5976    -6131    -5709    -5015    -4592 
   -4698    -5389    -6258    -6853    -7273    -7780    -8378    -8739 
   -8483    -7869    -7735    -8278    -8716    -8492    -7830    -7080 
   -6385    -5813    -5346    -5051    -5304    -6168    -6876    -6569 
   -5240    -3960    -3666    -3916    -4075    -4425    -5161    -5884 
   -6116    -5736    -5088    -4527    -4106    -3877    -4041    -4584 
   -5161    -5595    -6064    -6775    -7547    -7824    -7597    -7549 
   -7950    -8469    -8711    -8429    -7870    -7474    -7041    -6270 
   -5647    -5574    -5738    -5953    -6282    -6629    -6879    -6845 
   -6540    -6450    -6774    -7092    -7053    -6616    -5832    -4954 
   -4399    -4333    -4716    -5296    -5697    -5975    -6311    -6523 
   -6353    -5691    -4900    -4688    -5109    -5544    -5684    -5819 
   -6367    -7288    -7861    -7622    -7055    -6627    -6305    -5989 
   -5532    -5069    -5179    -6052    -7109    -7812    -8148    -8316 
   -8298    -7803    -6659    -5358    -4764    -5009    -5481    -5872 
   -6142    -5988    -5269    -4359    -3800    -3958    -4737    -5586 
   -6052    -6134    -6002    -5757    -5591    -5741    -6200    -6841 
   -7491    -7785    -7524    -6982    -6527    -6185    -5832    -5580 
   -5553    -5389    -4658    -3669    -3123    -3380    -4438    -5989 
   -7377    -8087    -8168    -8032    -7792    -7198    -6377    -5998 
   -6446    -7437    -8442    -8897    -8390    -7234    -6224    -5748 
   -5818    -6358    -6941    -7049    -6728    -6318    -5979    -5773 
   -5509    -5047    -4801    -5038    -5456    -5852    -6227    -6430 
   -6278    -5865    -5375    -4784    -4094    -3608    -3600    -4105 
   -4977    -5832    -6413    -6848    -7144    -7142    -6968    -6810 
   -6679    -6559    -6448    -6473    -6812    -7280    -7527    -7564 
   -7541    -7530    -7549    -7300    -6579    -5707    -4816    -3832 
   -3119    -3132    -3950    -5239    -6412    -7142    -7492    -7665 
   -7773    -7763    -7695    -7703    -7565    -6859    -5562    -4199 
   -3414    -3445    -4175    -5281    -6358    -7211    -7608    -7271 
   -6458    -5705    -5375    -5746    -6673    -7473    -7555    -6932 
   -6103    -5494    -5143    -4968    -4978    -5061    -5103    -5198 
   -5308    -5339    -5485    -5857    -6218    -6377    -6470    -6628 
   -6655    -6319    -5783    -5443    -5462    -5709    -5989    -6201 
   -6473    -7032    -7859    -8652    -8964    -8509    -7460    -6257 
   -5301    -4988    -5429    -6172    -6759    -7153    -7337    -7194 
   -6822    -6527    -6543    -6890    -7453    -8125    -8688    -8883 
   -8634    -8081    -7493    -6947    -6264    -5553    -5086    -4622 
   -3871    -3307    -3397    -3793    -4147    -4529    -4793    -4752 
   -4722    -4951    -5061    -4757    -4406    -4275    -4012    -3443 
   -3007    -3149    -3933    -5023    -6041    -7098    -8203    -8846 
   -9018    -9250    -9505    -9506    -9483    -9626    -9585    -9000 
   -7956    -6713    -5555    -4843    -4765    -5065    -5265    -5197 
   -5013    -4795    -4614    -4602    -4827    -5329    -5904    -6191 
   -6250    -6411    -6642    -6824    -7080    -7260    -7056    -6620 
   -6077    -5312    -4627    -4436    -4527    -4472    -4344    -4492 
   -4885    -5278    -5782    -6701    -7898    -8827    -9170    -8941 
   -8284    -7522    -6920    -6484    -6269    -6299    -6318    -6189 
   -6029    -5865    -5748    -5759    -5787    -5734    -5611    -5344 
   -4868    -4376    -4241    -4603    -5219    -5756    -6120    -6478 
   -6851    -7010    -6986    -7064    -7280    -7365    -7195    -6866 
   -6401    -5819    -5350    -5202    -5267    -5337    -5455    -5738 
   -6065    -6247    -6264    -6251    -6367    -6517    -6465    -6161 
   -5686    -5209    -4896    -4734    -4754    -5107    -5742    -6498 
   -7254    -7763    -7955    -8062    -8078    -7851    -7468    -7007 
   -6542    -6228    -5979    -5717    -5656    -5699    -5597    -5626 
   -5969    -6265    -6328    -6291    -6228    -6192    -6207    -6215 
   -6124    -5823    -5265    -4619    -4240    -4284    -4569    -4947 
   -5391    -5849    -6269    -6516    -6493    -6365    -6357    -6544 
   -6832    -7067    -7236    -7391    -7492    -7488    -7393    -7214 
   -6960    -6821    -6990    -7369    -7693    -7830    -7766    -7442 
   -6837    -6061    -5215    -4438    -3990    -3954    -4197    -4623 
   -5086    -5367    -5386    -5254    -5134    -5061    -4990    -4982 
   -5084    -5244    -5331    -5232    -5088    -5115    -5377    -5917 
   -6739    -7615    -8102    -7942    -7381    -6894    -6702    -6810 
   -7196    -7641    -7865    -7846    -7626    -7326    -7132    -6826 
   -6178    -5545    -5204    -4932    -4698    -4712    -4993    -5513 
   -6164    -6581    -6617    -6544    -6507    -6327    -5883    -5296 
   -4833    -4720    -4949    -5412    -6110    -6963    -7634    -7867 
   -7832    -7816    -7807    -7550    -6956    -6232    -5572    -5058 
   -4828    -4907    -5140    -5493    -5953    -6286    -6241    -5872 
   -5467    -5281    -5400    -5638    -5725    -5645    -5448    -5092 
   -4712    -4504    -4518    -4749    -5150    -5617    -6076    -6550 
   -7122    -7803    -8434    -8812    -8851    -8627    -8264    -7898 
   -7615    -7387    -7222    -7122    -6982    -6791    -6605    -6389 
   -6097    -5813    -5632    -5494    -5348    -5281    -5327    -5470 
   -5733    -6041    -6239    -6222    -5931    -5458    -5059    -4903 
