Origin Time       2025/03/28 03:50:00
Lat.              35.403
Long.             140.360
Depth. (km)       54
Mag.              4.4
Station Code      CHB016
Station Lat.      35.2998
Station Long.     140.3866
Station Height(m) 7
Record Time       2025/03/28 03:50:48
Sampling Freq(Hz) 100Hz
Duration Time(s)  69
Dir.              E-W
Scale Factor      7845(gal)/8223790
Max. Acc. (gal)   8.694
Last Correction   2025/03/28 03:50:47
Memo.             
[...]
   -3782    -3796    -3794    -3785    -3784    -3788    -3790    -3786 
   -3785    -3794    -3798    -3789    -3781    -3785    -3790    -3788 
   -3788    -3794    -3790    -3784    -3789    -3792    -3788    -3785 
   -3785    -3782    -3790    -3794    -3785    -3782    -3794    -3798 
   -3784    -3775    -3788    -3807    -3812    -3789    -3765    -3780 
   -3805    -3801    -3797    -3802    -3789    -3778    -3788    -3800 
   -3805    -3797    -3780    -3775    -3786    -3798    -3797    -3790 
   -3792    -3784    -3781    -3793    -3793    -3798    -3800    -3780 
   -3781    -3798    -3793    -3786    -3788    -3790    -3792    -3793 
   -3790    -3789    -3794    -3794    -3785    -3782    -3786    -3792 
   -3805    -3804    -3777    -3763    -3790    -3812    -3792    -3771 
   -3786    -3801    -3800    -3796    -3786    -3782    -3781    -3785 
   -3800    -3804    -3793    -3785    -3785    -3800    -3811    -3794 
   -3782    -3786    -3796    -3800    -3782    -3778    -3805    -3811 
   -3786    -3778    -3797    -3809    -3797    -3785    -3780    -3785 
   -3802    -3812    -3801    -3792    -3790    -3785    -3784    -3796 
   -3800    -3784    -3781    -3796    -3794    -3780    -3784    -3802 
   -3800    -3786    -3790    -3792    -3788    -3789    -3790    -3793 
   -3802    -3800    -3788    -3788    -3790    -3794    -3797    -3782 
   -3775    -3793    -3805    -3788    -3773    -3786    -3802    -3796 
   -3786    -3786    -3788    -3790    -3797    -3790    -3781    -3785 
   -3786    -3785    -3798    -3802    -3785    -3771    -3780    -3797 
   -3801    -3789    -3778    -3780    -3785    -3788    -3792    -3788 
   -3784    -3793    -3792    -3780    -3784    -3794    -3792    -3778 
   -3773    -3786    -3796    -3793    -3792    -3786    -3780    -3782 
   -3796    -3794    -3784    -3786    -3788    -3780    -3789    -3805 
   -3797    -3784    -3790    -3797    -3792    -3790    -3793    -3789 
   -3786    -3792    -3801    -3805    -3794    -3775    -3780    -3801 
   -3800    -3782    -3785    -3797    -3801    -3797    -3793    -3793 
   -3793    -3797    -3801    -3786    -3777    -3793    -3797    -3788 
   -3790    -3800    -3798    -3789    -3785    -3788    -3789    -3785 
   -3785    -3792    -3797    -3792    -3785    -3786    -3794    -3797 
   -3789    -3784    -3780    -3778    -3788    -3794    -3789    -3792 
   -3794    -3782    -3780    -3792    -3788    -3784    -3790    -3792 
   -3781    -3781    -3794    -3797    -3786    -3785    -3789    -3788 
   -3797    -3797    -3781    -3785    -3800    -3792    -3781    -3786 
   -3800    -3797    -3782    -3788    -3800    -3797    -3789    -3788 
   -3790    -3796    -3797    -3792    -3794    -3797    -3790    -3785 
   -3785    -3796    -3802    -3790    -3782    -3785    -3784    -3793 
   -3800    -3784    -3774    -3788    -3800    -3794    -3782    -3782 
   -3796    -3798    -3785    -3780    -3792    -3792    -3781    -3789 
   -3798    -3794    -3793    -3786    -3778    -3794    -3798    -3781 
   -3782    -3789    -3784    -3786    -3792    -3790    -3790    -3794 
   -3794    -3792    -3796    -3793    -3781    -3785    -3798    -3792 
   -3782    -3792    -3802    -3786    -3773    -3784    -3797    -3798 
   -3796    -3794    -3794    -3790    -3786    -3794    -3804    -3798 
   -3789    -3785    -3786    -3794    -3793    -3790    -3796    -3798 
   -3798    -3793    -3788    -3790    -3800    -3796    -3782    -3793 
   -3804    -3792    -3788    -3796    -3793    -3781    -3784    -3801 
   -3801    -3786    -3782    -3788    -3796    -3797    -3786    -3786 
   -3797    -3792    -3785    -3792    -3798    -3794    -3792    -3794 
   -3789    -3777    -3789    -3802    -3793    -3790    -3788    -3773 
   -3784    -3804    -3798    -3785    -3788    -3793    -3792    -3789 
   -3784    -3784    -3790    -3792    -3784    -3788    -3797    -3793 
   -3784    -3788    -3792    -3789    -3784    -3780    -3784    -3788 
   -3790    -3790    -3786    -3788    -3788    -3777    -3775    -3790 
   -3792    -3785    -3788    -3781    -3774    -3785    -3789    -3784 
   -3785    -3786    -3788    -3785    -3775    -3777    -3785    -3784 
   -3786    -3790    -3784    -3780    -3784    -3777    -3782    -3794 
   -3786    -3781    -3788    -3788    -3786    -3785    -3785    -3785 
   -3786    -3793    -3800    -3796    -3788    -3788    -3797    -3798 
   -3788    -3788    -3793    -3793    -3800    -3801    -3788    -3784 
   -3790    -3788    -3785    -3794    -3796    -3789    -3786    -3797 
   -3802    -3789    -3785    -3796    -3798    -3797    -3794    -3789 
   -3792    -3800    -3796    -3784    -3782    -3792    -3800    -3793 
   -3782    -3789    -3805    -3794    -3770    -3777    -3797    -3800 
   -3792    -3794    -3793    -3788    -3788    -3793    -3793    -3788 
   -3786    -3789    -3790    -3790    -3788    -3780    -3780    -3796 
   -3809    -3800    -3784    -3778    -3785    -3797    -3793    -3784 
   -3794    -3801    -3789    -3790    -3797    -3786    -3784    -3800 
   -3807    -3797    -3792    -3794    -3790    -3788    -3794    -3796 
   -3794    -3797    -3790    -3785    -3788    -3793    -3802    -3804 
   -3785    -3781    -3797    -3796    -3785    -3793    -3800    -3798 
   -3793    -3785    -3788    -3804    -3804    -3788    -3781    -3785 
   -3798    -3798    -3784    -3788    -3797    -3788    -3788    -3797 
   -3790    -3780    -3782    -3785    -3782    -3794    -3805    -3790 
   -3784    -3792    -3785    -3778    -3792    -3802    -3796    -3786 
   -3782    -3785    -3794    -3798    -3793    -3785    -3780    -3786 
   -3788    -3786    -3796    -3796    -3780    -3778    -3792    -3792 
   -3790    -3794    -3788    -3780    -3784    -3800    -3808    -3789 
   -3771    -3789    -3807    -3797    -3788    -3786    -3788    -3790 
   -3785    -3785    -3794    -3793    -3793    -3794    -3792    -3794 
   -3790    -3785    -3794    -3793    -3782    -3789    -3802    -3800 
   -3784    -3777    -3790    -3797    -3792    -3790    -3788    -3788 
   -3788    -3786    -3788    -3784    -3781    -3790    -3789    -3781 
   -3785    -3790    -3790    -3786    -3786    -3789    -3790    -3792 
   -3789    -3784    -3788    -3789    -3785    -3793    -3794    -3777 
   -3777    -3792    -3792    -3785    -3784    -3782    -3780    -3784 
   -3794    -3790    -3778    -3785    -3796    -3789    -3785    -3785 
   -3792    -3797    -3786    -3785    -3801    -3798    -3788    -3792 
   -3797    -3789    -3782    -3786    -3790    -3794    -3798    -3789 
   -3781    -3793    -3807    -3793    -3780    -3789    -3797    -3794 
   -3789    -3785    -3792    -3796    -3781    -3778    -3794    -3796 
   -3786    -3785    -3788    -3793    -3796    -3793    -3792    -3788 
   -3777    -3785    -3797    -3790    -3784    -3785    -3785    -3785 
   -3784    -3790    -3797    -3786    -3777    -3792    -3798    -3790 
   -3796    -3790    -3778    -3786    -3789    -3780    -3782    -3793 
   -3792    -3781    -3781    -3796    -3794    -3781    -3796    -3809 
   -3785    -3763    -3788    -3811    -3800    -3789    -3786    -3784 
   -3797    -3807    -3792    -3777    -3784    -3807    -3819    -3793 
   -3766    -3785    -3812    -3800    -3775    -3782    -3796    -3792 
   -3789    -3790    -3794    -3797    -3782    -3778    -3797    -3797 
   -3786    -3788    -3793    -3798    -3802    -3788    -3773    -3792 
   -3817    -3811    -3792    -3782    -3775    -3771    -3769    -3761 
   -3750    -3736    -3723    -3738    -3790    -3835    -3855    -3866 
   -3877    -3902    -3915    -3873    -3817    -3796    -3781    -3732 
   -3689    -3696    -3704    -3693    -3730    -3748    -3680    -3670 
   -3743    -3755    -3773    -3881    -3969    -3959    -3913    -3902 
   -3971    -4120    -4179    -3970    -3673    -3628    -3767    -3689 
   -3375    -3235    -3338    -3381    -3376    -3541    -3800    -4009 
   -4226    -4314    -4097    -3878    -3948    -4117    -4190    -4153 
   -3956    -3630    -3439    -3497    -3589    -3551    -3530    -3620 
   -3586    -3416    -3492    -3952    -4518    -4646    -4158    -3669 
   -3592    -3623    -3434    -3298    -3758    -4328    -4031    -3322 
   -3295    -3831    -4125    -4012    -3870    -3883    -3909    -3861 
   -3866    -3989    -4128    -4044    -3595    -3137    -3096    -3484 
   -3990    -4182    -4104    -4039    -3778    -3380    -3380    -3717 
   -3846    -3657    -3437    -3518    -4006    -4441    -4386    -4075 
   -3890    -4008    -4247    -4062    -3491    -3129    -3219    -3699 
   -4128    -3874    -3141    -2897    -3411    -3865    -3942    -4143 
   -4279    -3954    -3585    -3593    -3921    -4209    -4013    -3578 
   -3661    -4102    -3902    -3117    -3064    -4112    -4892    -4518 
   -3798    -3546    -3585    -3554    -3346    -3164    -3271    -3595 
   -3901    -3967    -3889    -4083    -4448    -4484    -4230    -3985 
   -3858    -3840    -3762    -3688    -3843    -3807    -3248    -2798 
   -2890    -3348    -4058    -4641    -4611    -4198    -3946    -3807 
   -3518    -3289    -3276    -3200    -3100    -3414    -4045    -4352 
   -4365    -4742    -5265    -4943    -3639    -2484    -2498    -3254 
   -3665    -3716    -3851    -3726    -3253    -3130    -3576    -3978 
   -3967    -3889    -4101    -4430    -4515    -4307    -4016    -3819 
   -3759    -3642    -3380    -3273    -3483    -3790    -3964    -3943 
   -3751    -3538    -3528    -3811    -4163    -4228    -4164    -4347 
   -4199    -3234    -2443    -2763    -3584    -4079    -4287    -4387 
   -4438    -4371    -4041    -3665    -3424    -3484    -4086    -4573 
   -4174    -3350    -2948    -3227    -3754    -3910    -3708    -3430 
   -3196    -3360    -4070    -4756    -4800    -4228    -3572    -3250 
   -3245    -3383    -3638    -3950    -3996    -3678    -3451    -3581 
   -3740    -3622    -3532    -3985    -4716    -4950    -4434    -3591 
   -3113    -3176    -3240    -3229    -3580    -4021    -3897    -3408 
   -3358    -3925    -4568    -4877    -4722    -4028    -3183    -3032 
   -3559    -3759    -3481    -3354    -3348    -3354    -3673    -4214 
   -4572    -4473    -4006    -3744    -3927    -4118    -4117    -4035 
   -3855    -3659    -3754    -4213    -4440    -3921    -3153    -2737 
   -2632    -2928    -3618    -4031    -3994    -4114    -4307    -4072 
   -3762    -3790    -3761    -3464    -3389    -3732    -3947    -3682 
   -3443    -3793    -4310    -4324    -4055    -3991    -4071    -4071 
   -3904    -3603    -3358    -3287    -3292    -3315    -3450    -3721 
   -3917    -3924    -3985    -4278    -4603    -4596    -4170    -3711 
   -3389    -3138    -3126    -3226    -3181    -3256    -3793    -4569 
   -4761    -4032    -3214    -3134    -3682    -4218    -4369    -4239 
   -3974    -3809    -3956    -3969    -3438    -2957    -2920    -2836 
   -2851    -3492    -4256    -4502    -4390    -4371    -4685    -5003 
   -5024    -5109    -5431    -5536    -4958    -3786    -2812    -2619 
   -2646    -2242    -1993    -2686    -3732    -3865    -3289    -3410 
   -4167    -4175    -3237    -2536    -2930    -3896    -4253    -3977 
   -4097    -4720    -4889    -4407    -3947    -3709    -3565    -3750 
   -4230    -4248    -3341    -2160    -1656    -2034    -2724    -3130 
   -3338    -3951    -5022    -5651    -5274    -4602    -4438    -4415 
   -3924    -3481    -3753    -3985    -3356    -2745    -2994    -3227 
   -2813    -2575    -3177    -4160    -4737    -4873    -5051    -5138 
   -4765    -4222    -3865    -3662    -3591    -3483    -3171    -3028 
   -3339    -3786    -4171    -4432    -4383    -4360    -4870    -5429 
   -5125    -4059    -3171    -3028    -3281    -3354    -3312    -3414 
   -3532    -3559    -3519    -3379    -3190    -3105    -3140    -3005 
   -2791    -3345    -4599    -5223    -4776    -4024    -3565    -3481 
   -3461    -3364    -3595    -4122    -4357    -4218    -3842    -3299 
   -3153    -3676    -4245    -4256    -3744    -3306    -3335    -3666 
   -3936    -3655    -3056    -3163    -3888    -4290    -4345    -4383 
   -4315    -4189    -4089    -3927    -3829    -3703    -3159    -2764 
   -3249    -3771    -3446    -3032    -3426    -4240    -4737    -4899 
   -5008    -4968    -4720    -4606    -4626    -4270    -3504    -2955 
   -2903    -2936    -2705    -2424    -2528    -3244    -4152    -4504 
   -4318    -4064    -3805    -3650    -3874    -4293    -4530    -4386 
   -3823    -3207    -2909    -2889    -3238    -3971    -4453    -4302 
   -4099    -4406    -4810    -4430    -3233    -2282    -2425    -3200 
   -3523    -3102    -2732    -3180    -4058    -4460    -4301    -4190 
   -4511    -4915    -4760    -4113    -3630    -3559    -3657    -3707 
   -3747    -3973    -4414    -4687    -4297    -3469    -2955    -2956 
   -3161    -3505    -3989    -4178    -3900    -3755    -4090    -4464 
   -4461    -4183    -3910    -3688    -3603    -3956    -4591    -4800 
   -4210    -3260    -2710    -2832    -3287    -3650    -3763    -3771 
   -3709    -3348    -2832    -2663    -2867    -3303    -3989    -4465 
   -4298    -3751    -3060    -2296    -1895    -2123    -2648    -3154 
   -3441    -3279    -2959    -3005    -3260    -3191    -2818    -2656 
   -2830    -3032    -3192    -3427    -3751    -4206    -4774    -5240 
   -5363    -5223    -5124    -5274    -6042    -7792   -10076   -11955 
  -12904   -12735   -11215    -8405    -4936    -1480     1561     3916 
    5285     5293     3994     2011     -189    -2158    -3288    -3514 
   -3323    -3372    -4021    -4795    -5124    -4834    -3605    -1771 
    -727    -1274    -3080    -5636    -8206    -9728    -9597    -8102 
   -6045    -4017    -2273    -1073     -615     -961    -2066    -3491 
   -4580    -5082    -5142    -4980    -4746    -4560    -4546    -4762 
   -5282    -5892    -5745    -4349    -2454    -1034     -205      -24 
   -1240    -4155    -7557    -9481    -8838    -6408    -4234    -3688 
   -4126    -4158    -3663    -3248    -2739    -1591       83     1354 
    1031    -1069    -3759    -6064    -7874    -8634    -7495    -5023 
   -2732    -1270     -380      265      810      951      206    -1167 
   -2566    -4009    -5283    -5478    -4591    -4093    -4908    -6064 
   -6351    -5579    -3715    -1117      648      167    -2317    -5355 
   -7632    -8847    -9348    -9051    -7539    -5023    -2340     -298 
     673      421    -1185    -3615    -5481    -6355    -7152    -7842 
   -7268    -5332    -3442    -2967    -3927    -4959    -4703    -3461 
   -2470    -1827    -1075     -783    -1672    -3322    -4654    -4877 
   -4040    -3272    -3767    -5166    -5984    -5857    -5891    -6515 
   -6855    -6405    -5614    -4696    -3086     -598     1730     2575 
    1692       82    -1040    -1267    -1154    -1557    -2764    -4504 
   -6218    -7084    -6795    -5834    -4526    -2963    -1730    -1618 
   -2666    -3896    -4348    -4336    -4876    -6038    -6876    -6968 
   -6818    -6706    -6092    -4410    -2278    -1269    -1836    -2679 
   -2745    -2428    -2820    -4522    -6597    -7160    -5738    -3793 
   -2655    -2452    -2756    -3002    -2944    -3106    -4004    -5358 
   -6519    -7022    -6605    -5071    -2690     -556      280     -149 
   -1132    -2241    -3535    -5020    -6280    -6883    -6569    -5038 
   -2681     -918     -738    -1719    -2874    -3510    -3510    -3512 
   -4342    -5799    -6562    -5715    -3885    -2358    -1598    -1339 
   -1421    -1845    -2555    -3364    -4067    -4688    -5236    -5375 
   -4779    -3626    -2586    -2312    -2953    -4118    -5152    -5589 
   -5529    -5359    -5097    -4476    -3538    -2682    -2074    -1647 
   -1702    -2682    -4264    -5244    -4820    -3657    -2949    -3010 
   -3422    -3873    -4363    -4776    -4853    -4711    -4773    -5162 
   -5595    -5760    -5714    -5672    -5474    -4801    -3908    -3599 
   -4298    -5197    -5071    -4010    -3191    -3105    -3152    -3010 
   -3213    -3977    -4699    -4681    -3569    -1593      351     1248 
     639    -1074    -3018    -4434    -4954    -4729    -4209    -3678 
   -3341    -3561    -4283    -4653    -4068    -3069    -2485    -2286 
   -2089    -2073    -2619    -3495    -3905    -3547    -3063    -2887 
   -2751    -2678    -3086    -3892    -4622    -5278    -6297    -7614 
   -8451    -8311    -7500    -6474    -5391    -4450    -4016    -4082 
   -4056    -3526    -2953    -2948    -3370    -3781    -4037    -4180 
   -4186    -3889    -3358    -3260    -3997    -4922    -5217    -4927 
   -4421    -3665    -2555    -1175      151      594     -486    -2563 
   -4467    -5401    -5281    -4634    -4193    -4334    -4888    -5292 
   -5009    -3998    -2755    -1730     -880     -152       93     -583 
   -2087    -3562    -4193    -3959    -3335    -2825    -2705    -2934 
   -3431    -4114    -4656    -4770    -4703    -4781    -4860    -4683 
   -4352    -4437    -5489    -7069    -7784    -6872    -5152    -3908 
   -3416    -2992    -2226    -1648    -2011    -3346    -4927    -5868 
   -5764    -4924    -3951    -3084    -2303    -1948    -2317    -3022 
   -3505    -3688    -3792    -4012    -4422    -5008    -5686    -6277 
   -6524    -6165    -5058    -3377    -1822    -1144    -1431    -2386 
   -3693    -4784    -5227    -5194    -4887    -4018    -2411     -745 
    -121     -919    -2386    -3488    -4008    -4423    -4928    -5246 
   -5080    -4486    -3883    -3615    -3734    -4175    -4652    -4873 
   -4897    -4779    -4475    -4276    -4541    -5042    -5138    -4506 
   -3338    -2168    -1624    -1818    -2319    -2891    -3510    -3954 
   -4031    -3861    -3635    -3326    -2694    -1644     -594     -272 
    -874    -1841    -2763    -3832    -5165    -6423    -7048    -6609 
   -5439    -4523    -4239    -3996    -3381    -2702    -2396    -2593 
   -3265    -4328    -5510    -6423    -6843    -6789    -6282    -5305 
   -3986    -2532    -1063      191      862      630     -720    -3041 
   -5686    -7873    -9004    -8951    -8075    -6775    -5305    -3893 
   -2682    -1861    -1715    -2211    -2930    -3624    -4338    -5003 
   -5343    -5101    -4309    -3369    -2739    -2562    -2582    -2434 
   -2041    -1591    -1318    -1383    -1736    -2126    -2509    -3127 
   -3920    -4456    -4527    -4307    -4098    -3959    -3709    -3430 
   -3388    -3507    -3439    -3159    -3229    -4112    -5528    -6820 
   -7454    -7122    -5904    -4356    -3099    -2366    -2112    -2326 
   -2965    -3798    -4429    -4519    -4058    -3396    -2934    -2744 
   -2687    -2689    -2783    -3127    -3750    -4255    -4257    -3838 
   -3429    -3531    -4264    -5262    -6146    -6702    -6681    -6068 
   -5267    -4561    -3947    -3476    -3214    -3126    -3196    -3446 
   -3821    -4128    -4029    -3360    -2513    -1980    -1807    -1908 
   -2367    -3281    -4388    -5038    -4799    -3986    -3289    -3072 
   -3298    -3828    -4414    -4734    -4738    -4723    -4857    -4977 
   -4912    -4576    -3927    -3032    -2045    -1069     -248        6 
    -641    -1917    -3184    -4013    -4263    -4020    -3566    -3117 
   -2841    -3024    -3721    -4538    -5100    -5427    -5710    -5983 
