Origin Time       2025/03/28 03:50:00
Lat.              35.403
Long.             140.360
Depth. (km)       54
Mag.              4.4
Station Code      CHB006
Station Lat.      35.7790
Station Long.     140.3073
Station Height(m) 29
Record Time       2025/03/28 03:51:01
Sampling Freq(Hz) 100Hz
Duration Time(s)  60
Dir.              U-D
Scale Factor      7845(gal)/8223790
Max. Acc. (gal)   2.153
Last Correction   2025/03/28 03:51:01
Memo.             
   10935    10952    10963    10955    10959    10968    10964    10949 
   10936    10940    10963    10971    10956    10947    10955    10964 
   10959    10949    10951    10966    10975    10970    10959    10956 
   10952    10955    10970    10962    10941    10948    10968    10970 
   10957    10944    10940    10951    10957    10953    10962    10970 
   10953    10936    10936    10951    10967    10967    10957    10956 
   10962    10959    10956    10953    10947    10956    10979    10979 
   10952    10937    10943    10955    10957    10953    10952    10951 
   10944    10944    10952    10963    10964    10960    10957    10948 
   10940    10947    10960    10967    10966    10960    10953    10949 
   10953    10957    10959    10960    10960    10960    10960    10953 
   10947    10949    10953    10957    10964    10959    10948    10948 
   10949    10947    10949    10949    10949    10963    10966    10957 
   10955    10951    10941    10943    10952    10963    10970    10957 
   10945    10948    10949    10953    10967    10968    10960    10957 
   10952    10948    10953    10956    10956    10964    10957    10940 
   10937    10945    10953    10956    10951    10951    10960    10962 
   10953    10952    10952    10951    10955    10964    10971    10967 
   10955    10949    10951    10957    10959    10955    10955    10959 
   10952    10944    10951    10957    10956    10955    10956    10955 
   10948    10937    10939    10957    10970    10970    10964    10953 
   10945    10948    10956    10962    10963    10963    10964    10964 
   10959    10948    10945    10953    10960    10957    10951    10948 
   10948    10952    10956    10953    10949    10951    10957    10964 
   10966    10962    10960    10962    10962    10964    10966    10963 
   10962    10962    10963    10957    10952    10953    10953    10951 
   10955    10957    10955    10951    10952    10959    10959    10952 
   10952    10957    10960    10959    10956    10955    10960    10963 
   10957    10952    10956    10962    10960    10964    10972    10967 
   10957    10952    10948    10953    10966    10974    10975    10966 
   10951    10941    10947    10959    10968    10967    10960    10949 
   10941    10945    10956    10960    10960    10959    10949    10941 
   10949    10959    10960    10960    10962    10956    10951    10952 
   10955    10963    10968    10963    10955    10949    10951    10959 
   10967    10966    10957    10947    10945    10951    10960    10964 
   10960    10955    10951    10948    10948    10951    10957    10959 
   10953    10951    10947    10945    10953    10957    10953    10952 
   10955    10959    10960    10957    10955    10951    10948    10949 
   10952    10957    10963    10959    10952    10952    10953    10956 
   10964    10959    10947    10944    10944    10944    10955    10963 
   10960    10956    10953    10952    10951    10945    10948    10959 
   10962    10957    10955    10952    10949    10953    10962    10964 
   10955    10947    10951    10957    10962    10960    10957    10955 
   10956    10957    10957    10960    10960    10955    10951    10948 
   10947    10952    10962    10967    10960    10947    10939    10945 
   10957    10966    10967    10963    10962    10956    10948    10945 
   10948    10956    10964    10960    10953    10951    10952    10957 
   10957    10955    10955    10953    10953    10959    10960    10951 
   10940    10933    10918    10893    10854    10810    10790    10802 
   10837    10895    10968    11033    11057    11017    10953    10928 
   10918    10870    10809    10821    10937    11070    11126    11168 
   11280    11322    11152    10908    10775    10782    10912    11094 
   11187    11199    11233    11209    11030    10841    10822    10912 
   10844    10523    10297    10521    11007    11373    11515    11416 
   11083    10731    10497    10409    10593    10925    11095    11060 
   10941    10970    11249    11453    11287    10833    10407    10331 
   10602    10902    11114    11368    11493    11183    10751    10793 
   11151    11188    11028    11203    11290    10710    10065    10131 
   10766    11318    11489    11588    11723    11619    11399    11265 
   10956    10322     9672     9491     9996    10814    11518    12043 
   12145    11558    10743    10347    10277    10103     9919    10152 
   10813    11581    12228    12430    12087    11713    11425    10845 
   10369    10582    11070    11195    11078    11051    11122    11264 
   11462    11549    11407    11118    10828    10469     9977     9741 
   10019    10453    10663    10678    10802    11163    11388    11149 
   10648    10255    10230    10612    10976    10868    10461    10316 
   10697    11215    11334    11207    11202    11087    10839    10902 
   11145    11149    11007    10929    11074    11639    12330    12472 
   11988    11441    11183    11071    10890    10862    11183    11280 
   10795    10304    10100     9918     9846    10099    10385    10334 
   10184    10380    10837    11419    12182    12584    12043    11124 
   10578    10165     9691     9782    10640    11487    11794    11753 
   11384    10756    10616    11261    11866    11820    11337    10597 
    9840     9961    11259    12337    11961    10775     9975     9838 
   10273    11118    11796    11742    11049    10416    10412    10787 
   10974    10895    10804    10782    10835    11184    11734    11650 
   10713    10112    10581    11146    10833    10168    10007    10250 
   10535    10809    10879    10642    10592    11240    12318    13000 
   12694    11605    10551     9995     9782     9915    10488    11084 
   11407    11709    11979    11765    11111    10716    10949    11323 
   11406    11412    11416    11155    10492     9644     9373    10158 
   11156    11381    11129    11052    11113    11227    11519    11658 
   11219    10453     9964    10022    10497    11222    11948    12008 
   10960     9625     9456    10671    11816    11765    11206    11109 
   11180    11010    11020    11470    11973    12096    11691    11001 
   10453    10293    10457    10497    10218    10021    10102    10253 
   10358    10540    10968    11596    12064    12055    11628    11091 
   10721    10656    10802    10833    10492    10093    10207    10816 
   11588    12232    12218    11286    10081     9540     9980    11045 
   12087    12351    11497    10169     9410     9844    11335    12623 
   12309    10835     9888    10026    10477    10952    11859    12719 
   12424    11110    10093    10077    10620    11173    11156    10116 
    9228     9990    11591    12313    11882    11006    10474    10882 
   11776    11742    10598     9864    10220    10771    11028    11427 
   11956    11893    10949     9807     9277     9513    10473    11956 
   12880    12434    11407    10843    10752    10729    10594    10278 
    9817     9505     9730    10498    11449    12345    12982    12827 
   11593     9950     8942     8881     9350    10002    10781    11591 
   12123    12031    11448    11113    11415    11713    11360    11001 
   11533    12263    12231    11869    11295     9930     8716     9053 
   10282    11045    11237    11234    11168    11272    11527    11427 
   10910    10650    10982    11335    11059    10332     9904    10133 
   10789    11568    12135    12120    11461    10494     9775     9757 
   10405    11061    10997    10396    10265    11044    12090    12467 
   11742    10400     9639     9984    10570    10852    11434    12329 
   12618    11970    10949    10335    10629    11408    11570    10797 
    9979    10029    10786    11350    11398    11360    11389    11180 
   10673    10292    10423    10878    11206    11242    10914    10401 
   10384    10895    11055    10615    10257    10405    10963    11677 
   12059    11692    10999    10743    10821    10798    10960    11577 
   12039    11624    10477     9483     9495    10590    11843    12222 
   11745    11155    10976    11365    11955    11978    11295    10573 
   10197     9963     9765     9802    10215    10856    11229    11024 
   10521    10184    10346    11030    11716    11890    11596    11132 
   10739    10581    10593    10633    10817    11146    11333    11353 
   11364    11340    11345    11537    11700    11427    10798    10274 
   10130    10417    11002    11421    11259    10689    10277    10297 
   10451    10281     9944     9956    10343    10964    11886    12791 
   13035    12420    11368    10481    10150    10346    10629    10655 
   10546    10477    10492    10756    11207    11442    11394    11408 
   11479    11229    10839    10779    10910    10953    11079    11234 
   10920    10238    10017    10547    11322    11739    11457    10669 
   10100    10307    11016    11574    11881    12052    11691    10636 
    9682     9482     9697     9958    10466    11159    11592    11731 
   11788    11645    11175    10859    11240    11766    11539    10894 
   10681    10836    10916    10966    10984    10632    10087     9925 
   10035    10137    10592    11418    11912    11859    11492    10793 
   10180    10349    11080    11635    11651    11169    10592    10465 
   10960    11672    12033    11809    11200    10635    10291    10085 
   10234    10974    11808    11944    11268    10359     9832     9936 
   10569    11384    12021    12290    12079    11350    10386     9859 
   10131    10681    10947    11043    10980    10454     9875    10135 
   11129    11794    11665    11260    11146    11419    11827    12037 
   11861    11326    10697    10253     9967     9741     9751    10142 
   10729    11238    11664    12015    12064    11753    11460    11453 
   11364    10953    10557    10277    10085    10327    10993    11506 
   11587    11442    11088    10320     9510     9490    10231    10883 
   11151    11288    11242    11052    11141    11500    11705    11766 
   12013    12266    11979    11388    11223    11284    10866    10142 
    9755     9764     9786     9610     9383     9323     9560    10118 
   10716    11055    11372    12010    12741    13042    12683    11836 
   10875    10162    10004    10361    10600    10285     9907    10106 
   10704    11124    11254    11337    11395    11443    11761    12199 
   12154    11794    11750    11747    11259    10575    10116     9772 
    9541     9830    10606    11141    11132    11129    11388    11578 
   11550    11238    10546     9833     9626     9894    10328    10818 
   11178    11168    10949    10801    10708    10620    10640    10844 
   11241    11796    12388    12858    13023    12671    11869    11044 
   10392     9738     9153     9103     9825    10843    11487    11665 
   11658    11580    11456    11280    10843    10044     9416     9620 
   10449    11160    11493    11580    11394    11025    10773    10546 
   10129     9906    10264    10859    11250    11394    11338    11164 
   11048    11134    11411    11650    11638    11452    11234    10951 
   10728    10845    11133    11213    11192    11256    11241    11136 
   11134    11226    11387    11736    12027    11666    10700    10022 
   10168    10512    10355    10104    10291    10451    10224    10177 
   10512    10584    10358    10598    11337    11813    11767    11488 
   11006    10380    10235    10876    11561    11568    11086    10555 
   10158    10141    10708    11578    12260    12604    12703    12514 
   11935    10998     9944     9240     9208     9713    10400    10905 
   11026    10953    11140    11781    12402    12371    11726    10901 
   10115     9695     9984    10615    10929    10921    10939    10962 
   10681    10014     9378     9454    10498    11955    12946    13053 
   12498    11727    11002    10424    10081     9979    10037    10246 
   10558    10797    10912    10937    10743    10403    10484    11277 
   12252    12707    12447    11789    11400    11653    12013    11718 
   10733     9653     9067     9189     9826    10476    10678    10566 
   10631    10971    11403    11958    12526    12657    12197    11519 
   10982    10598    10287     9992     9613     9242     9161     9387 
    9850    10696    11861    12787    12972    12498    11780    11223 
   11118    11292    11161    10489     9680     9346     9699    10301 
   10597    10519    10400    10588    11230    12235    13126    13213 
   12364    11187    10357    10161    10527    11103    11403    11192 
   10728    10347    10073     9971    10374    11202    11773    11727 
   11379    11227    11415    11628    11511    10998    10272     9722 
    9672     9944    10065     9979    10069    10478    10997    11493 
   11959    12349    12575    12594    12420    12104    11707    11195 
   10547    10037     9888     9838     9702     9756    10065    10288 
   10311    10390    10746    11338    11935    12317    12394    12106 
   11480    10821    10520    10620    10878    11098    11192    11101 
   10752    10146     9443     8878     8754     9359    10485    11464 
   11905    11878    11516    11052    10937    11227    11408    11375 
   11620    12212    12668    12725    12483    12012    11360    10856 
   10848    11157    11318    11221    11017    10682    10161     9653 
    9431     9549     9855    10142    10462    11034    11723    12152 
   12190    11924    11472    11001    10675    10498    10320    10037 
    9711     9556     9786    10284    10716    10974    11105    11003 
   10628    10288    10350    10759    11232    11650    11919    11863 
   11569    11337    11288    11344    11533    11965    12421    12403 
   11780    10970    10349     9977     9907    10119    10411    10754 
   11280    11880    12224    12102    11547    10794    10255    10297 
   10845    11423    11592    11295    10762    10191     9783     9690 
    9747     9721     9645     9659     9844    10287    11007    11813 
   12440    12718    12517    11858    11074    10493    10134     9927 
    9925    10102    10285    10536    11064    11657    11967    12177 
   12517    12707    12505    12112    11668    11001    10077     9213 
    8791     8942     9505    10203    10816    11207    11345    11304 
   11217    11244    11527    12005    12330    12163    11545    10816 
   10215     9794     9583     9605     9829    10233    10775    11281 
   11507    11425    11281    11314    11539    11830    12039    12043 
   11746    11206    10662    10291    10200    10449    10813    11014 
   11144    11368    11588    11749    11931    12079    12075    11928 
   11677    11330    10886    10331     9779     9462     9425     9528 
    9768    10166    10505    10563    10417    10377    10659    11134 
   11460    11462    11226    10874    10478    10106     9859     9842 
   10023    10272    10547    10872    11226    11585    11950    12249 
   12378    12326    12228    12256    12402    12429    12213    11817 
   11213    10484    10081    10307    10901    11437    11730    11731 
   11377    10789    10293     9975     9609     9333     9566    10138 
   10521    10592    10501    10409    10496    10839    11275    11543 
   11570    11507    11452    11279    10885    10477    10299    10274 
   10266    10331    10467    10531    10561    10755    11125    11508 
   11844    12132    12232    12043    11674    11236    10733    10270 
   10060    10226    10659    11126    11473    11659    11728    11755 
   11738    11534    11057    10461     9994     9728     9655     9794 
   10064    10351    10589    10671    10706    11047    11700    12241 
   12372    12123    11632    11137    10903    10933    10949    10814 
   10643    10511    10396    10385    10485    10586    10787    11179 
   11530    11713    11902    12097    12132    12008    11700    11072 
   10211     9448     9077     9219     9841    10627    11065    11032 
   10982    11267    11688    11936    11998    11942    11758    11583 
   11558    11518    11250    10806    10258     9593     9009     8888 
    9292     9888    10419    10797    10908    10818    10881    11222 
   11534    11587    11462    11277    11087    10990    11070    11261 
   11431    11556    11651    11681    11655    11595    11419    11124 
   10878    10767    10687    10608    10571    10581    10646    10767 
   10910    11053    11157    11219    11256    11202    11051    10955 
   11026    11229    11442    11527    11387    11053    10677    10451 
   10492    10678    10831    10940    11030    11078    11072    11026 
   11020    11057    11011    10798    10463    10138    10000    10123 
   10338    10469    10548    10619    10652    10741    11022    11431 
   11712    11740    11628    11466    11281    11072    10793    10494 
   10331    10386    10660    11044    11281    11221    10982    10743 
   10569    10528    10687    10959    11211    11408    11491    11430 
   11375    11461    11618    11709    11722    11692    11622    11550 
   11577    11720    11820    11659    11155    10420     9710     9243 
    9055     9053     9146     9305     9512     9784    10181    10693 
   11222    11646    11882    11938    11867    11759    11736    11790 
   11831    11817    11778    11738    11607    11271    10759    10188 
    9707     9551     9879    10573    11299    11749    11846    11734 
   11605    11504    11315    11024    10760    10594    10577    10760 
   11045    11223    11168    10949    10744    10598    10463    10415 
   10508    10663    10764    10760    10723    10716    10665    10524 
   10381    10287    10207    10173    10292    10598    11033    11507 
   11861    11920    11732    11572    11630    11858    12043    11986 
   11676    11319    11114    11047    11028    11044    11099    11149 
   11133    11013    10831    10723    10713    10619    10342    10026 
    9803     9680     9667     9813    10080    10365    10646    10936 
   11137    11136    11029    11016    11133    11248    11250    11184 
   11167    11219    11254    11205    11133    11136    11241    11445 
   11711    11932    12027    11993    11858    11711    11603    11464 
   11288    11109    10854    10538    10291    10184    10224    10400 
   10710    11091    11360    11412    11279    10960    10536    10173 
    9886     9606     9409     9397     9533     9756    10069    10481 
   10917    11241    11399    11458    11475    11448    11422    11493 
   11688    11938    12159    12267    12218    12008    11654    11250 
   10885    10627    10574    10717    10908    11068    11196    11238 
   11144    10971    10836    10754    10636    10403    10103     9931 
   10027    10386    10858    11184    11281    11306    11367    11470 
   11603    11678    11635    11512    11367    11209    10983    10617 
   10184     9868     9776     9892    10104    10299    10473    10673 
   10882    11057    11203    11369    11549    11649    11624    11527 
   11373    11165    11013    10963    10890    10710    10465    10203 
   10027    10042    10223    10442    10593    10678    10782    10970 
   11209    11416    11515    11452    11244    11029    10926    10955 
   11109    11340    11535    11634    11654    11655    11669    11655 
   11573    11479    11380    11232    11090    10993    10914    10886 
