Origin Time       2025/03/28 03:50:00
Lat.              35.403
Long.             140.360
Depth. (km)       54
Mag.              4.4
Station Code      CHB007
Station Lat.      35.7237
Station Long.     140.2246
Station Height(m) 30
Record Time       2025/03/28 03:50:50
Sampling Freq(Hz) 100Hz
Duration Time(s)  74
Dir.              E-W
Scale Factor      7845(gal)/8223790
Max. Acc. (gal)   10.828
Last Correction   2025/03/28 03:50:50
Memo.             
[...]
    3834     3842     3842     3827     3800     3815     3873     3871 
    3819     3804     3828     3848     3858     3852     3843     3840 
    3836     3846     3850     3831     3832     3855     3854     3831 
    3821     3838     3829     3819     3848     3840     3792     3811 
    3858     3871     3865     3836     3821     3838     3852     3852 
    3843     3824     3815     3836     3863     3855     3839     3831 
    3829     3840     3858     3875     3854     3798     3807     3855 
    3850     3836     3847     3829     3808     3838     3888     3878 
    3813     3793     3844     3886     3867     3832     3827     3802 
    3778     3819     3858     3859     3870     3875     3855     3852 
    3862     3829     3789     3815     3870     3886     3838     3773 
    3793     3862     3874     3863     3854     3812     3819     3870 
    3869     3844     3846     3846     3813     3780     3812     3870 
    3879     3854     3847     3859     3839     3815     3847     3850 
    3802     3824     3873     3855     3820     3835     3867     3859 
    3842     3843     3816     3798     3850     3894     3858     3801 
    3809     3851     3850     3824     3825     3838     3828     3815 
    3836     3867     3869     3855     3844     3825     3809     3809 
    3835     3859     3856     3859     3869     3854     3813     3804 
    3848     3867     3839     3834     3828     3808     3832     3861 
    3848     3846     3851     3832     3820     3838     3850     3842 
    3834     3840     3843     3839     3855     3870     3840     3808 
    3831     3862     3847     3823     3844     3878     3863     3824 
    3821     3840     3844     3850     3859     3843     3820     3812 
    3817     3827     3838     3863     3873     3842     3838     3861 
    3852     3817     3811     3865     3896     3843     3794     3801 
    3832     3861     3856     3847     3861     3850     3834     3850 
    3839     3817     3839     3850     3840     3842     3844     3856 
    3847     3802     3801     3836     3847     3859     3850     3817 
    3842     3856     3823     3827     3850     3870     3873     3829 
    3820     3843     3842     3843     3847     3846     3839     3842 
    3861     3851     3815     3809     3838     3854     3856     3850 
    3834     3831     3824     3815     3854     3879     3840     3831 
    3852     3842     3842     3859     3847     3813     3808     3848 
    3879     3862     3832     3824     3821     3836     3866     3874 
    3859     3850     3835     3825     3834     3840     3844     3834 
    3821     3827     3829     3839     3852     3850     3843     3846 
    3854     3835     3805     3809     3834     3874     3877     3816 
    3798     3832     3844     3862     3892     3882     3829     3800 
    3821     3834     3836     3866     3861     3824     3824     3835 
    3836     3851     3859     3844     3821     3809     3817     3847 
    3866     3856     3852     3846     3817     3804     3820     3836 
    3846     3852     3852     3850     3843     3832     3829     3835 
    3839     3848     3852     3835     3828     3847     3856     3843 
    3816     3815     3846     3855     3844     3838     3835     3844 
    3839     3824     3835     3852     3865     3851     3829     3834 
    3836     3831     3836     3842     3840     3838     3834     3835 
    3846     3863     3863     3843     3820     3807     3831     3862 
    3852     3848     3867     3846     3811     3827     3854     3851 
    3839     3835     3847     3838     3805     3823     3854     3834 
    3821     3840     3852     3838     3813     3824     3861     3870 
    3842     3816     3842     3881     3862     3821     3817     3834 
    3838     3844     3859     3847     3821     3824     3850     3877 
    3877     3855     3821     3794     3804     3827     3828     3836 
    3846     3827     3831     3856     3852     3844     3859     3861 
    3834     3815     3809     3804     3811     3831     3858     3863 
    3846     3848     3846     3839     3889     3909     3851     3817 
    3812     3804     3819     3829     3840     3856     3839     3831 
    3869     3881     3856     3844     3846     3847     3856     3870 
    3871     3855     3831     3838     3838     3784     3750     3778 
    3828     3875     3889     3862     3811     3767     3775     3852 
    3946     3958     3878     3765     3663     3673     3802     3893 
    3910     3939     3931     3835     3731     3690     3816     4147 
    4325     4056     3673     3627     3950     4291     4190     3689 
    3356     3443     3693     3840     3807     3709     3781     3960 
    3870     3534     3515     3994     4426     4324     3850     3516 
    3588     3840     3921     3813     3708     3661     3592     3694 
    4175     4550     4313     3723     3325     3420     3840     4174 
    4268     4135     3886     3716     3478     3018     2778     3172 
    3807     3997     3650     3271     3353     3933     4600     4873 
    4592     4060     3906     4529     5501     5822     5047     4050 
    3850     4043     3846     3519     3424     3457     3424     3037 
    2492     2431     2709     2655     2285     2142     2548     3438 
    4326     4649     4467     4190     3847     3361     3044     3348 
    4322     5525     6320     6161     5201     4329     3923     3869 
    4433     5305     5402     4554     3451     2587     2412     3002 
    3661     3856     3539     2825     2355     2660     3242     3565 
    3700     3569     3246     3179     3310     3514     4170     5050 
    5393     5116     4548     3856     3244     2840     2533     2531 
    3469     5157     6315     6286     5678     5227     4986     4575 
    3875     3234     2610     1669     1039     1524     2674     3782 
    4831     5637     5547     4310     2551     1372     1628     3013 
    4185     4276     3538     2821     3007     4185     5661     6810 
    6978     5799     4070     2855     2473     2868     3674     4226 
    4228     4013     3987     4070     4090     4306     4738     4837 
    4275     3233     2019      928      333      688     2133     4252 
    6316     7384     6759     4892     2998     1869     1603     1788 
    1985     2285     3001     4369     6340     8010     8290     7225 
    5694     4310     3346     3105     3485     3889     3939     3603 
    3087     2920     3321     3819     4005     3871     3404     2700 
    2101     1726     1312      842     1020     2438     4568     6243 
    6744     6255     5460     4641     3784     3304     3539     4144 
    4496     4090     3082     2543     3271     4700     5698     5865 
    5638     5255     4351     3044     2258     2230     2191     1823 
    1656     2327     3979     5714     6149     5105     3862     3499 
    3993     4824     5467     5476     4835     3979     3287     2874 
    2903     3523     4436     4830     3981     2131      414     -172 
     703     2571     4132     4444     4036     3785     3858     4411 
    5458     6249     6178     5460     4499     3526     2868     2943 
    3908     5466     6771     6886     5520     3273     1495     1208 
    1976     2882     3790     4714     5071     4417     3280     2743 
    3273     4276     4703     4039     2852     2232     2556     3262 
    3762     3974     4145     4510     5066     5518     5439     4811 
    4135     3439     2350     1359     1344     2207     2987     2857 
    2211     2486     4163     6089     7152     7142     6129     4453 
    3173     3179     4198     5306     5428     3985     2091     1692 
    3307     5356     5567     3580     1543     1333     2548     3623 
    3723     3196     2760     2840     3605     4885     5953     6120 
    5359     4274     3647     3732     4260     4828     4841     3923 
    2589     1896     2367     3427     4090     3909     3227     2855 
    3249     3996     4438     4534     4653     4847     4957     5125 
    5481     5566     4710     2963     1374     1093     2120     3190 
    3384     3284     3770     4741     5459     5269     4113     2690 
    1849     1825     2326     3122     4216     5543     6550     6386 
    5096     3699     2848     2662     3056     3545     3736     3746 
    3634     3358     3210     3499     4077     4419     4144     3653 
    3802     4671     5327     5188     4824     4873     5055     4723 
    3730     2772     2710     3391     3794     3357     2559     2204 
    2548     3223     3580     3403     3295     3739     4411     4681 
    4260     3543     3157     3005     2704     2745     3657     4969 
    6018     6439     5941     4746     3824     3807     4195     4151 
    3333     2118     1431     1810     2826     3910     4903     5628 
    5880     5563     4496     2960     1930     1872     2440     3268 
    4002     4486     4955     5286     5151     4766     4272     3497 
    2803     2801     3442     4153     4527     4542     4089     2917 
    1425      653     1219     2832     4527     5279     5007     4703 
    5038     5570     5620     5090     4407     4210     4822     5726 
    5960     5105     3481     1792      889     1094     1992     3132 
    4229     5049     5358     4903     3835     2835     2392     2328 
    2199     1668      807      565     1825     3944     5746     6822 
    7101     6737     6218     5713     5161     4665     4110     3199 
    2261     2120     3114     4758     6219     6951     6814     5867 
    4376     2694     1108      -32     -244      832     2866     4801 
    5922     6399     6448     5813     4392     2644     1240      665 
     908     1512     2246     3360     4880     6168     6378     5292 
    3707     2797     3041     4014     4847     4799     3954     3198 
    3098     3303     3372     3346     3331     3364     3569     4021 
    4650     5151     5000     4004     2705     1867     2076     3646 
    5903     7399     7356     6019     4355     3504     3537     3765 
    4058     4253     3920     3484     3697     4380     4742     4068 
    2354      687      162      618     1250     1975     3200     4600 
    5409     5394     4839     4394     4568     5047     5286     5277 
    5177     4938     4444     3701     2952     2575     2781     3368 
    3829     3894     3802     3801     3906     4168     4351     3956 
    3103     2434     2235     2470     3148     4075     4796     4922 
    4320     3388     3005     3495     4275     4776     4861     4594 
    4175     3871     3815     3862     3820     3680     3402     3033 
    2951     3450     4309     4986     5300     5522     5670     5437 
    4905     4361     3900     3673     3730     3900     4055     3892 
    3150     2151     1225      434      218     1119     2917     4698 
    5545     5186     4178     3338     2947     2731     2498     2496 
    3052     4087     5194     5975     6093     5483     4591     4017 
    4097     4693     5162     5011     4472     4039     3909     3964 
    3956     3916     4214     4943     5655     5791     5140     4023 
    3073     2627     2442     2249     2160     2301     2565     2801 
    2806     2412     1845     1667     2270     3458     4565     5192 
    5501     5632     5418     4607     3171     1813     1711     3109 
    5008     6516     7438     7803     7638     6983     5927     4660 
    3496     2837     2775     3084     3650     4141     3970     3230 
    2663     2502     2506     2625     2791     2878     2909     2849 
    2674     2297     1476      375     -162      772     3321     6570 
    9120    10019     9332     7846     6219     4760     3481     2130 
     746     -155     -336      -60      418     1059     1885     2921 
    3981     4675     4946     5320     6243     7538     8599     8845 
    8201     7055     5772     4509     3311     2330     1691      984 
    -413    -2223    -3276    -2582     -125     2976     5451     7063 
    8116     8606     8463     7744     6663     5810     5571     5417 
    4587     2851      483    -1652    -2585    -2209     -986      645 
    2363     4236     6184     7341     7063     5844     4588     3940 
    4240     5398     7013     8536     9196     8325     6072     3647 
    2512     3196     5084     6832     7152     5923     3951     1715 
    -641    -2678    -3599    -2654       43     3167     5171     5539 
    5039     4847     5262     5670     5555     4949     4626     5482 
    7006     7609     6313     3276     -209    -2377    -2462     -973 
    1313     3790     5660     6031     4662     2278      205     -438 
     433     1958     3439     4822     5846     5764     4212     1814 
     -17       87     2463     6224     9890    12159    12553    11360 
    9082     6242     3445     1379      430      390      672      650 
     306      333     1171     2392     3219     3435     3684     4764 
    6681     8588     9568     9146     7437     5244     3609     3149 
    3866     5352     7013     8212     8401     7281     5027     2378 
     290     -679     -587      221     1458     2755     3396     2924 
    1918     1485     2097     3474     5267     7138     8676     9567 
    9575     8750     7414     5802     4283     3326     2795     1988 
     664     -306      179     2108     4448     6088     6469     5751 
    4525     3393     2674     2382     2317     2034      922    -1390 
   -4383    -6774    -7511    -6372    -3888     -916     1891     4141 
    5435     5634     5278     5192     5980     7641     9336    10049 
    9436     7815     5819     4162     3154     2623     2650     3597 
    5217     6930     8610    10203    11318    11315     9774     7291 
    5103     3854     3472     3753     4641     5977     7053     6968 
    5397     2725      -58    -1848    -2204    -1397     -295      -93 
   -1171    -2832    -4225    -4727    -3894    -1553     1969     5745 
    8839    11032    12510    13100    12472    10816     8646     6447 
    4579     3125     2014     1221      760      660      855     1309 
    2070     2882     3321     3298     3001     2675     2632     3134 
    4077     5063     5898     6606     7013     6694     5370     3258 
    1193       44       25      966     2604     4245     4919     4216 
    2501      488     -959    -1097      286     2813     5618     7823 
    9198    10021    10484    10444     9552     7676     5236     2909 
    1209      584     1119     2080     2686     2990     3204     3055 
    2412     1447      357     -481     -646      132     1830     4082 
    6322     7838     8190     7773     7323     7195     7389     7600 
    7414     6849     6127     5042     3376     1377     -643    -2277 
   -2907    -2471    -1445      -90     1432     2875     4307     5983 
    7873     9686    10848    10536     8468     5559     3256     2259 
    2401     3254     4203     4688     4473     3612     2447     1300 
     372      -43      217     1005     2002     3057     4201     5213 
    5823     5987     5564     4491     3248     2463     2438     3142 
    4332     5579     6399     6438     5589     4189     3092     2890 
    3370     3954     4140     3758     3114     2639     2431     2424 
    2469     2411     2551     3229     4236     5285     6154     6519 
    6201     5201     3858     2841     2471     2509     2666     2898 
    3329     4140     5335     6413     6671     5981     4887     3817 
    2829     2029     1580     1566     2064     2882     3491     3572 
    3331     3229     3537     4229     5093     5675     5665     5248 
    4592     3746     2951     2361     1980     1953     2238     2579 
    3036     3715     4288     4363     3967     3592     3778     4664 
    5833     6685     6939     6539     5513     4209     3049     2232 
    1888     2112     2727     3299     3626     3923     4429     5143 
    5876     6362     6423     6083     5535     5085     4959     4904 
    4247     2718      730    -1189    -2598    -3005    -2196     -585 
    1209     2768     3831     4382     4665     5034     5927     7558 
    9497    10971    11383    10450     8368     5809     3547     2061 
    1431     1432     1669     1854     1836     1467      805      243 
     240      980     2238     3618     4831     5676     5848     5138 
    3866     2762     2423     3053     4395     5836     6813     7041 
    6500     5441     4145     2812     1809     1547     2106     3188 
    4268     4854     4725     3932     2789     1891     1667     2089 
    3006     4243     5439     6123     6014     5243     4168     3126 
    2408     2189     2469     3096     3788     4356     4797     5086 
    5202     5243     5297     5370     5413     5383     5333     5239 
    4892     4318     3909     3913     4205     4575     4918     5061 
    4704     3736     2528     1655     1356     1394     1494     1703 
    2046     2313     2451     2596     2758     2875     2992     3192 
    3461     3676     3690     3505     3323     3315     3408     3407 
    3237     2970     2808     3029     3693     4511     5038     4995 
    4604     4247     4009     3986     4290     4760     5209     5463 
    5274     4730     4268     4137     4226     4260     3986     3488 
    3138     3056     3117     3404     4044     4742     4988     4571 
    3717     2945     2647     2785     3123     3539     3989     4421 
    4757     4787     4325     3554     2774     2151     1830     1907 
    2347     2976     3546     3927     4207     4515     4903     5383 
    5944     6612     7380     8170     8923     9466     9517     8907 
    7686     6223     4936     3908     2978     2061     1192      391 
    -441    -1417    -2420    -3196    -3624    -3613    -3072    -2104 
    -911      402     1729     2965     4122     5250     6343     7356 
    8143     8415     8010     7145     6183     5416     5015     4939 
    4996     4932     4587     4171     4063     4320     4792     5304 
    5668     5872     5956     5833     5440     4711     3642     2529 
    1676     1084      714      676     1044     1875     3276     5146 
    7047     8453     9028     8800     8081     7233     6401     5432 
    4306     3211     2193     1317      675      133     -380     -697 
    -645     -110      870     2061     3210     4167     4846     5204 
    5314     5325     5244     5011     4712     4554     4719     5228 
    5863     6300     6332     5965     5336     4588     3871     3285 
    2743     2074     1256      444     -184     -673    -1183    -1622 
   -1597     -770      835     2886     4928     6528     7331     7233 
    6496     5556     4864     4750     5161     5742     6211     6490 
    6620     6589     6401     6085     5622     5109     4726     4534 
    4487     4359     3900     3208     2610     2326     2326     2458 
    2716     3188     3819     4399     4695     4581     4050     3169 
    2165     1331      920     1074     1695     2484     3111     3442 
    3597     3771     4017     4234     4390     4585     4869     5216 
    5548     5702     5547     5055     4307     3485     2775     2241 
    1900     1845     2124     2667     3365     4085     4669     5040 
    5275     5510     5769     5925     5850     5574     5243     4980 
