Origin Time       2025/03/28 03:50:00
Lat.              35.403
Long.             140.360
Depth. (km)       54
Mag.              4.4
Station Code      CHB015
Station Lat.      35.3738
Station Long.     139.9199
Station Height(m) 2
Record Time       2025/03/28 03:50:59
Sampling Freq(Hz) 100Hz
Duration Time(s)  60
Dir.              N-S
Scale Factor      7845(gal)/8223790
Max. Acc. (gal)   9.147
Last Correction   2025/03/28 03:50:59
Memo.             
[...]
   15831    15803    15828    15889    15836    15766    15804    15861 
   15855    15807    15800    15831    15816    15804    15839    15873 
   15866    15804    15772    15832    15867    15832    15820    15844 
   15843    15812    15803    15843    15874    15832    15774    15795 
   15862    15859    15808    15823    15873    15839    15769    15789 
   15859    15866    15815    15797    15849    15869    15809    15792 
   15847    15847    15785    15809    15903    15903    15826    15788 
   15797    15828    15835    15812    15828    15846    15789    15750 
   15812    15876    15859    15812    15797    15820    15828    15803 
   15813    15894    15903    15785    15750    15840    15854    15796 
   15803    15840    15847    15813    15759    15784    15854    15819 
   15776    15847    15884    15811    15781    15800    15803    15831 
   15855    15867    15905    15836    15712    15766    15877    15870 
   15854    15880    15871    15811    15766    15809    15889    15904 
   15842    15793    15826    15855    15815    15809    15878    15897 
   15831    15796    15827    15847    15819    15790    15823    15880 
   15867    15817    15836    15859    15813    15790    15835    15881 
   15865    15801    15800    15851    15850    15820    15827    15855 
   15844    15799    15816    15896    15889    15811    15793    15804 
   15811    15822    15823    15876    15924    15838    15768    15830 
   15865    15813    15784    15828    15870    15839    15804    15830 
   15861    15834    15774    15781    15854    15857    15792    15797 
   15843    15832    15799    15808    15853    15858    15792    15757 
   15816    15858    15824    15815    15854    15851    15797    15773 
   15823    15881    15838    15762    15786    15839    15822    15781 
   15804    15854    15830    15776    15808    15873    15855    15793 
   15790    15839    15867    15840    15819    15849    15843    15770 
   15772    15858    15878    15823    15788    15805    15835    15827 
   15809    15840    15869    15830    15784    15820    15878    15849 
   15789    15809    15851    15830    15800    15830    15880    15851 
   15768    15780    15863    15853    15793    15811    15859    15853 
   15817    15816    15861    15876    15801    15762    15846    15896 
   15835    15808    15839    15839    15812    15793    15816    15870 
   15859    15780    15782    15871    15871    15800    15819    15874 
   15842    15782    15792    15847    15871    15809    15762    15823 
   15863    15820    15807    15838    15844    15817    15808    15853 
   15897    15859    15799    15820    15878    15863    15823    15846 
   15869    15823    15784    15827    15880    15851    15792    15795 
   15840    15844    15809    15822    15870    15846    15766    15769 
   15850    15867    15820    15808    15831    15834    15817    15815 
   15850    15869    15812    15768    15820    15871    15847    15826 
   15842    15854    15847    15831    15838    15877    15861    15795 
   15830    15911    15880    15819    15817    15811    15797    15792 
   15800    15863    15880    15778    15741    15807    15828    15801 
   15804    15844    15862    15811    15778    15840    15878    15824 
   15799    15840    15867    15854    15823    15819    15847    15826 
   15795    15850    15901    15858    15800    15799    15838    15869 
   15850    15835    15871    15857    15776    15777    15857    15874 
   15816    15782    15812    15842    15826    15795    15811    15861 
   15835    15772    15815    15888    15855    15789    15788    15836 
   15851    15792    15792    15881    15857    15757    15788    15862 
   15835    15782    15785    15828    15849    15815    15805    15846 
   15835    15770    15772    15840    15873    15840    15809    15820 
   15823    15790    15796    15855    15896    15859    15782    15784 
   15843    15843    15800    15820    15869    15849    15807    15826 
   15880    15876    15799    15780    15840    15849    15804    15804 
   15844    15849    15801    15785    15832    15861    15817    15773 
   15803    15855    15843    15816    15854    15878    15816    15772 
   15834    15890    15858    15812    15811    15835    15846    15815 
   15811    15862    15850    15770    15782    15876    15878    15801 
   15789    15831    15843    15834    15828    15859    15896    15839 
   15773    15834    15893    15844    15807    15819    15824    15831 
   15827    15839    15888    15861    15765    15776    15877    15893 
   15832    15809    15831    15844    15815    15793    15854    15894 
   15826    15772    15824    15867    15822    15800    15838    15839 
   15801    15778    15812    15869    15835    15777    15816    15862 
   15835    15793    15796    15850    15866    15824    15830    15854 
   15820    15780    15780    15819    15867    15866    15830    15828 
   15811    15747    15772    15876    15885    15815    15801    15828 
   15835    15817    15803    15846    15890    15826    15769    15839 
   15885    15820    15789    15831    15862    15854    15815    15813 
   15865    15857    15792    15811    15885    15876    15801    15774 
   15815    15851    15835    15823    15874    15882    15780    15723 
   15792    15859    15839    15803    15830    15859    15817    15778 
   15820    15877    15849    15785    15809    15878    15853    15780 
   15789    15842    15834    15797    15811    15869    15884    15804 
   15768    15849    15892    15828    15799    15847    15853    15788 
   15770    15832    15858    15797    15765    15824    15865    15830 
   15823    15896    15927    15840    15761    15799    15840    15786 
   15738    15781    15842    15858    15828    15776    15765    15761 
   15759    15940    16190    16173    15943    15708    15561    15573 
   15691    15843    15978    15919    15654    15538    15746    16063 
   16282    16256    15946    15566    15372    15466    15819    16152 
   16131    15766    15430    15422    15700    16020    16221    16320 
   16301    16027    15604    15381    15422    15534    15668    15835 
   15897    15786    15749    16013    16271    16116    15757    15618 
   15712    15820    15863    15955    15998    15735    15399    15430 
   15742    16039    16167    16101    15986    15943    15979    15965 
   15730    15488    15580    15907    16119    15970    15581    15390 
   15570    15876    16066    16077    15928    15763    15728    15853 
   16065    16162    15951    15556    15357    15492    15747    16082 
   16464    16463    15884    15179    14951    15373    15967    16241 
   16237    16094    15843    15736    15952    16139    15996    15703 
   15488    15506    15674    15669    15558    15614    15758    15900 
   16096    16241    16146    15828    15554    15623    15977    16133 
   15959    15823    15739    15568    15595    15873    15959    15723 
   15557    15770    16144    16252    16069    15862    15711    15560 
   15504    15707    16074    16186    15865    15483    15376    15500 
   15709    15944    16133    16276    16332    16105    15700    15472 
   15431    15537    15901    16244    16170    15865    15699    15768 
   15978    16102    16048    15896    15645    15441    15506    15695 
   15832    15996    16119    15992    15641    15381    15458    15751 
   16004    16063    15928    15784    15722    15673    15727    15898 
   15912    15755    15662    15670    15808    15979    15932    15786 
   15801    15985    16264    16378    16148    15822    15587    15412 
   15323    15344    15493    15720    15886    16077    16335    16362 
   16005    15508    15180    15168    15408    15766    16101    16220 
   16112    15984    15944    16000    16077    16000    15700    15354 
   15310    15692    16105    16187    16063    15985    16019    16096 
   16146    16154    16032    15749    15531    15557    15677    15684 
   15685    15873    16011    15803    15502    15488    15722    15943 
   16087    16247    16305    16020    15541    15303    15403    15655 
   15878    15886    15772    15789    15874    15858    15843    15990 
   16281    16476    16289    15793    15358    15140    15159    15376 
   15583    15761    16000    16100    16008    15930    15884    15763 
   15583    15587    15930    16276    16235    15932    15746    15772 
   15827    15869    15954    16016    16005    15881    15692    15633 
   15705    15784    15880    16005    16106    16081    15927    15777 
   15576    15322    15307    15580    15881    16051    16146    16283 
   16295    15905    15290    14933    15076    15525    15955    16233 
   16352    16271    16023    15739    15535    15500    15599    15701 
   15849    16086    16310    16351    15981    15333    14993    15226 
   15768    16364    16845    16912    16417    15722    15296    15198 
   15287    15522    15904    16272    16343    16151    16013    15959 
   15758    15348    14985    15091    15749    16456    16738    16587 
   16229    15866    15489    15052    14832    15057    15537    16032 
   16491    16843    16794    16158    15408    15040    14964    15106 
   15430    15742    16005    16197    16205    15992    15595    15299 
   15403    15754    16031    16102    16020    15948    16009    16124 
   16059    15819    15700    15788    15927    16011    16002    15982 
   15950    15765    15556    15550    15658    15732    15807    15911 
   16019    16163    16276    16112    15591    15056    15079    15758 
   16437    16596    16326    15954    15757    15608    15338    15344 
   15836    16413    16788    16893    16545    15822    15264    15215 
   15434    15643    15843    16075    16262    16160    15753    15425 
   15318    15257    15199    15171    15323    15739    16117    16206 
   16070    15811    15530    15361    15392    15534    15552    15367 
   15183    15188    15321    15480    15739    16109    16411    16498 
   16460    16428    16353    16209    16060    15950    15909    15923 
   15967    16017    15986    15948    16067    16228    16286    16272 
   16245    16286    16291    16052    15692    15419    15284    15342 
   15477    15531    15588    15714    15889    16123    16317    16301 
   16023    15649    15431    15473    15685    15847    15819    15616 
   15360    15295    15503    15689    15657    15489    15361    15458 
   15724    15919    15935    15823    15711    15722    15840    15986 
   16079    16011    15804    15665    15685    15820    16019    16136 
   16131    16164    16225    16177    16066    16015    16035    15984 
   15876    15975    16212    16206    15940    15672    15516    15481 
   15595    15817    16042    16135    16036    15820    15549    15249 
   15149    15473    16009    16290    16179    15936    15757    15612 
   15461    15418    15628    15917    15957    15808    15708    15645 
   15539    15418    15334    15340    15465    15728    16071    16353 
   16513    16580    16479    16200    15969    15898    15881    15807 
   15688    15662    15738    15753    15689    15635    15603    15622 
   15735    15943    16255    16615    16791    16534    15948    15465 
   15304    15319    15352    15365    15429    15592    15746    15763 
   15620    15502    15665    16001    16227    16278    16173    15984 
   15812    15643    15539    15574    15600    15541    15496    15506 
   15616    15838    16029    16117    16097    15965    15886    15993 
   16167    16290    16289    16096    15799    15481    15186    15106 
   15295    15533    15762    16044    16301    16552    16853    16931 
   16536    15900    15417    15188    15169    15398    15778    15948 
   15755    15558    15616    15753    15828    15935    16148    16402 
   16552    16519    16241    15704    15205    15071    15252    15520 
   15685    15673    15627    15657    15776    15915    15873    15681 
   15573    15574    15657    15842    16001    16001    15880    15743 
   15689    15766    15932    16090    16185    16194    16093    15978 
   15979    16047    16086    16093    16067    16001    15862    15664 
   15519    15511    15591    15697    15826    16027    16270    16360 
   16229    16002    15808    15696    15620    15573    15508    15240 
   14858    14773    15133    15661    16081    16332    16398    16260 
   16024    15840    15830    15997    16175    16240    16194    16025 
   15774    15512    15323    15404    15672    15776    15723    15692 
   15732    15840    15882    15768    15565    15325    15222    15406 
   15738    16027    16140    16109    16046    15962    15894    15842 
   15780    15805    15908    15982    16047    16146    16368    16711 
   16906    16845    16605    16189    15711    15317    15051    14889 
   14797    14883    15120    15237    15261    15384    15619    15869 
   15998    16106    16359    16664    16930    17105    17177    17238 
   17207    16999    16757    16623    16592    16517    16349    16228 
   16132    16004    15946    16016    16113    15985    15483    14858 
   14381    14123    14170    14451    14665    14558    14131    13720 
   13612    13801    14393    15485    16794    17925    18577    18549 
   17799    16447    14791    13266    12256    11965    12329    13126 
   14075    14877    15302    15221    14627    13626    12440    11466 
   11107    11476    12471    13960    15770    17664    19413    20872 
   22156    23508    24777    25417    25231    24568    23769    22878 
   21718    20073    18023    15921    14056    12579    11695    11642 
   12429    13734    15001    15714    15745    15236    14347    13242 
   12104    11205    10704    10573    10770    11110    11357    11630 
   12177    13084    14307    15577    16615    17294    17471    17155 
   16571    15963    15553    15340    15169    15060    15075    15228 
   15570    16066    16622    17216    17851    18551    19307    20011 
   20497    20640    20613    20772    21162    21416    21112    20000 
   18156    16002    13967    12345    11265    10571    10146    10010 
   10084    10319    10750    11245    11773    12560    13621    14790 
   15959    17053    18185    19531    20961    22080    22523    22222 
   21392    20321    19240    18262    17367    16456    15491    14567 
   13810    13132    12301    11313    10447    10056    10314    11003 
   11792    12505    13059    13468    13784    14195    14998    16166 
   17459    18593    19256    19392    19124    18635    18270    18139 
   18071    18036    17983    17824    17577    17213    16789    16391 
   15925    15356    14666    13888    13274    12930    12733    12698 
   12962    13657    14797    16143    17346    18148    18536    18682 
   18739    18765    18662    18287    17670    16951    16376    16158 
   16137    16059    15912    15727    15483    15133    14617    13959 
   13285    12796    12729    13282    14424    15757    16752    17204 
   17284    17028    16298    15282    14382    13837    13788    14219 
   14775    15057    14944    14585    14242    14168    14463    15007 
   15637    16301    17030    17853    18580    18871    18590    17853 
   16933    16104    15538    15408    15753    16422    17282    18112 
   18609    18657    18229    17254    15824    14291    13072    12386 
   12220    12484    13004    13612    14396    15522    16850    17957 
   18470    18372    17910    17278    16605    16038    15736    15842 
   16333    17039    17771    18261    18247    17659    16568    15188 
   13890    13007    12607    12459    12309    12159    12140    12340 
   12726    13146    13548    14057    14814    15931    17280    18462 
   19248    19657    19723    19530    19186    18678    18019    17304 
   16534    15712    14909    14185    13603    13209    13041    13158 
   13525    13996    14499    15118    16019    17182    18331    19165 
   19537    19441    19013    18415    17803    17352    17149    17163 
   17266    17281    17111    16694    16059    15430    15016    14844 
   14805    14615    13979    12951    11842    10897    10296    10126 
   10350    10941    11862    13027    14374    15776    16961    17671 
   17768    17396    16995    16933    17239    17761    18303    18671 
   18748    18531    18083    17591    17352    17504    17921    18365 
   18596    18490    18069    17428    16789    16343    15985    15549 
   14998    14399    13815    13196    12496    11882    11535    11520 
   11901    12683    13718    14850    15958    16899    17558    17872 
   17822    17533    17207    16918    16706    16698    16927    17216 
   17355    17219    16839    16395    15904    15325    14833    14508 
   14354    14466    14704    14841    14862    14852    14952    15250 
   15704    16197    16457    16240    15666    15060    14755    14960 
   15643    16633    17664    18563    19238    19525    19322    18613 
   17597    16699    16195    16048    15959    15535    14678    13663 
   12842    12537    12842    13489    14212    14909    15525    16008 
   16313    16467    16486    16310    15940    15441    14895    14447 
   14172    14084    14268    14692    15229    15828    16399    16835 
   17076    17027    16710    16276    15836    15483    15241    15067 
   15068    15395    16004    16706    17339    17814    18061    18068 
   17941    17756    17500    17190    16843    16438    15986    15503 
   15078    14879    14932    15161    15512    15788    15811    15635 
   15360    15130    15103    15223    15360    15402    15273    15010 
   14670    14312    14021    13896    14065    14512    15086    15731 
   16438    17099    17571    17761    17709    17525    17244    16916 
   16576    16190    15803    15468    15187    15051    15099    15169 
   15149    15114    15088    15036    15017    15084    15202    15395 
   15672    15907    15993    15884    15639    15469    15491    15684 
   16004    16379    16810    17258    17537    17536    17325    17018 
   16710    16479    16340    16256    16181    16032    15736    15337 
   14989    14739    14526    14364    14265    14299    14528    14800 
   15040    15291    15476    15573    15611    15561    15519    15584 
   15700    15892    16233    16659    17064    17415    17639    17732 
   17813    17761    17456    17101    16831    16586    16387    16429 
   16723    17015    17159    17046    16482    15543    14472    13394 
   12457    11839    11670    11911    12356    12922    13620    14386 
   15061    15547    15932    16320    16718    17151    17683    18261 
   18685    18797    18504    17803    16893    16048    15449    15215 
   15376    15858    16555    17238    17590    17436    16827    15955 
   15033    14291    13941    14023    14424    15007    15587    15892 
   15774    15367    14960    14758    14740    14824    15063    15484 
   15957    16351    16622    16772    16792    16607    16200    15700 
   15237    14898    14783    14943    15375    15994    16592    16974 
   17035    16783    16389    16051    15849    15808    15912    16005 
   15951    15753    15496    15313    15259    15304    15498    15854 
   16255    16578    16745    16757    16679    16545    16397    16316 
   16341    16379    16336    16260    16210    16210    16339    16521 
