Origin Time       2025/03/28 03:50:00
Lat.              35.403
Long.             140.360
Depth. (km)       54
Mag.              4.4
Station Code      CHB007
Station Lat.      35.7237
Station Long.     140.2246
Station Height(m) 30
Record Time       2025/03/28 03:50:50
Sampling Freq(Hz) 100Hz
Duration Time(s)  74
Dir.              N-S
Scale Factor      7845(gal)/8223790
Max. Acc. (gal)   15.878
Last Correction   2025/03/28 03:50:50
Memo.             
[...]
     588      572      562      579      592      576      561      562 
     561      561      567      569      569      567      579      579 
     550      562      598      585      557      546      567      625 
     642      569      503      541      621      635      584      540 
     544      562      562      565      569      579      583      573 
     594      591      545      537      556      569      589      599 
     585      573      573      564      567      596      588      572 
     596      608      589      561      549      556      561      562 
     561      556      556      576      606      594      556      544 
     553      581      619      611      548      513      533      564 
     579      594      610      602      594      602      577      540 
     537      561      591      579      545      564      583      569 
     575      573      545      534      556      565      562      579 
     594      573      552      567      585      573      560      564 
     567      573      581      583      571      558      575      594 
     591      589      571      541      533      544      567      576 
     544      531      572      600      588      572      560      529 
     518      567      607      591      587      603      572      538 
     557      594      610      576      538      561      583      569 
     572      587      571      546      557      572      552      552 
     576      561      545      558      569      579      587      594 
     589      562      545      552      569      584      579      572 
     580      599      599      572      553      556      562      558 
     552      576      619      612      568      550      560      581 
     575      527      527      569      585      602      598      561 
     577      612      583      561      576      572      556      537 
     549      595      584      552      556      546      549      598 
     629      600      553      548      568      560      549      568 
     576      581      598      598      581      569      576      576 
     562      565      568      573      584      568      557      564 
     550      546      562      572      588      599      602      603 
     557      519      535      557      591      626      591      531 
     562      626      603      564      573      569      553      560 
     594      619      571      521      546      579      587      583 
     565      550      552      577      599      585      564      557 
     558      569      580      600      618      595      562      560 
     576      581      568      575      577      540      537      569 
     571      573      573      548      567      603      591      575 
     560      538      556      581      557      549      575      568 
     567      595      588      560      557      569      587      595 
     584      581      576      554      544      548      562      583 
     592      585      569      545      540      558      561      565 
     598      594      561      567      576      568      576      585 
     572      554      557      571      569      576      580      560 
     557      567      564      579      579      544      526      545 
     581      604      608      600      568      553      584      585 
     561      572      577      562      567      567      569      581 
     571      557      557      564      581      572      546      558 
     580      579      569      568      569      567      581      611 
     615      584      558      560      552      546      576      594 
     575      567      591      600      577      550      544      560 
     580      589      585      567      537      531      573      612 
     599      571      541      508      533      600      622      589 
     565      598      633      602      568      594      592      556 
     548      526      504      538      583      604      607      596 
     579      554      554      583      589      571      542      527 
     535      557      588      591      568      571      552      515 
     549      600      618      629      621      611      618      602 
     553      484      449      479      508      523      596      687 
     680      619      611      603      567      576      604      610 
     614      592      541      444      298      253      392      577 
     693      760      801      841      839      649      329      256 
     475      639      625      502      391      477      650      595 
     341      174      355      938     1374     1055      450      442 
     799      688      222      125      436      700      797      729 
     495      463      707      625      114     -155      225      918 
    1251      961      541      540      695      576      448      697 
    1116     1152      803      565      376      -78     -423     -330 
     -67      330     1021     1629     1718     1464     1156      695 
     135     -214     -569    -1102    -1042       27     1113     1482 
    1552     1483     1092      757      561      226      156      414 
     411      392      986     1942     2438     1980     1057      754 
    1409     1925      978    -1040    -2378    -2274    -1452     -675 
    -189      229     1055     2061     2343     1679      614     -373 
    -823     -726     -699     -600     -129       60       82     1071 
    3095     4951     5374     4075     2019      110    -1513    -2411 
   -2227    -1736    -1194      303     2323     2975     1950      708 
      49     -201     -124       67     -210     -864    -1048     -614 
     108     1422     3154     3996     3186     1360     -325    -1304 
   -1730    -1448     -268      886     1262     1348     1287      696 
      54       12      460     1263     2200     2444     1449     -216 
   -1399    -1586    -1239     -618      653     2282     3105     2783 
    2143     1574      683     -580    -1603    -1761     -869      658 
    1728     1416      144     -850     -932     -244      785     1710 
    2216     2022     1047     -310    -1401    -1683    -1020      330 
    1966     3331     3711     2789     1212       24     -117     1073 
    3165     4673     4214     1989     -537    -2097    -2263    -1152 
     491     1485     1493     1013      -20    -1894    -3721    -4229 
   -3639    -2959    -2347    -1684    -1167     -588      491     1860 
    3034     3952     4461     4297     3786     3342     2952     2799 
    2999     2976     2292     1206      164     -436     -506     -502 
    -731     -880     -687     -460     -556     -810    -1046    -1637 
   -2442    -2411    -1337     -205      519      946     1055     1256 
    1995     2681     2805     3040     3773     3871     2122     -654 
   -2239    -1593      464     2469     3160     2216      486    -1271 
   -2856    -3631    -2731     -473     1552     2131     1378      -49 
   -1302    -1314      -21     1636     3257     4665     5004     3937 
    2276      751     -209     -194      546     1193     1242      704 
    -252    -1487    -2550    -2799    -2219    -1275     -326      333 
     446      -14     -812    -1522    -1757    -1486     -993     -274 
    1150     3535     6111     7198     6088     4023     2390     1512 
    1046      457     -406    -1019     -908     -494     -496     -729 
    -457      449     1502     2072     1602       66    -1622    -2443 
   -2439    -1926     -761      441      738      434      184      371 
    1547     3149     3504     2536     2012     2585     2921     1912 
      36    -1437    -1649     -673      622     1309     1247      789 
     -71    -1321    -2312    -2249    -1125      110      800     1413 
    2299     2783     2381     1590     1008      893     1228     1497 
    1127      133     -922    -1204     -270     1270     2367     2698 
    2575     2010      773     -880    -2403    -3273    -2988    -1844 
    -886     -449       52     1038     2087     2316     1486      522 
     558     1497     2062     1551      908     1328     2347     2693 
    2236     1881     2211     2794     2813     2164     1327      380 
   -1105    -3203    -5042    -5462    -4442    -3138    -2069     -564 
    1737     4109     5336     4666     2670      974      342      -85 
    -804    -1105     -544      642     1953     2594     2257     1796 
    1895     1912     1197      190     -611    -1167    -1193     -560 
     233      927     1632     2031     1710      868       70     -344 
    -395     -108      641     1611     2201     2300     2057     1151 
    -187     -999    -1386    -2084    -2705    -2682    -2262    -1429 
      97     1634     2230     2087     1846     1579     1252     1011 
    1048     1363     1225      129     -849     -252     1848     4082 
    5297     5378     4770     3804     2443      461    -1884    -3766 
   -4698    -4878    -4533    -3549    -1879       14     1474     2289 
    2690     2751     2284     1483      868      373     -268     -693 
    -648     -517     -305      596     2218     3689     4214     3580 
    2170      854      240       -6     -477     -864     -467      646 
    1891     2641     2411     1352      170     -739    -1570    -2315 
   -2486    -2131    -1846    -1548     -650      805     2123     2693 
    2369     1609     1216     1375     1555     1597     2006     2859 
    3217     2362      841     -446    -1155    -1250     -788        6 
     842     1526     1914     1744      859     -456    -1575    -2025 
   -1890    -1521    -1262    -1252     -903      365     1938     2883 
    3063     2654     1726      581     -176      -41      780     1390 
    1273      796      469      429      611      785      653      467 
     696      911      402     -483    -1070    -1318    -1116     -174 
    1143     2114     2560     2852     3067     2810     2079     1281 
     488     -378    -1200    -1868    -2177    -1929    -1409     -954 
    -344      641     1671     2261     2249     1734     1117     1082 
    1629     1966     1930     1983     1998     1510      730      225 
     205      714     1552     1919     1262       14    -1255    -2373 
   -3015    -2925    -2259    -1279     -287      378      753     1395 
    2633     3771     3846     2878     1605      629      179       18 
    -108      -17      170      -47     -535     -738     -448      168 
     801     1366     1899     2084     1682      853     -247    -1337 
   -1908    -1586     -384     1073     1966     2146     1944     1609 
    1426     1638     2089     2404     2330     1780      722     -679 
   -1881    -2417    -2370    -1890     -777     1027     3032     4426 
    4654     3790     2304      631     -966    -2413    -3595    -4112 
   -3591    -2135     -288     1428     2729     3365     3227     2598 
    1817      909      -85     -766     -834     -409      257      822 
    1005     1042     1428     2259     3064     3306     2882     1995 
     862     -352    -1540    -2511    -2909    -2482    -1428     -267 
     737     1694     2593     3199     3314     2910     2187     1440 
     710     -287    -1539    -2447    -2654    -2350    -1611     -410 
     916     1826     2081     1890     1574     1287     1055      889 
     824      804      723      544      207     -270     -610     -500 
     194     1452     2830     3462     2967     1879      865      174 
    -346    -1015    -1900    -2851    -3591    -3535    -2297     -417 
    1035     1424      834      -91     -541     -363     -136      -25 
     496     1698     3183     4311     4711     4371     3469     2305 
    1202      465      283      430      542      583      575      525 
     700     1152     1513     1671     1922     2444     3052     3473 
    3704     3709     3196     2034      321    -1864    -4144    -5625 
   -5722    -4881    -3927    -2934    -1383      689     2548     3657 
    3794     2833     1054     -908    -2212    -1831      275     2452 
    3142     2452     1440     1004     1366     2057     2558     2562 
    1705      -59    -1958    -3001    -2976    -2551    -2320    -2226 
   -2123    -2064    -1791     -743     1370     4105     6431     7581 
    7638     7206     6613     5547     3609     1032    -1721    -4523 
   -7172    -9032    -9564    -8824    -7241    -5007    -1917     2089 
    6401     9867    11453    10885     8667     5633     2716      893 
     707     1617     2292     1792      348    -1123    -2107    -2616 
   -2709    -2674    -3130    -4395    -6058    -7214    -7057    -5556 
   -3489    -1649     -160     1431     3473     5547     6775     7006 
    6974     7033     6794     6072     5003     3681     2369     1209 
     -63    -1501    -2794    -3771    -4473    -4811    -4425    -3127 
   -1301      203      426     -776    -2334    -3144    -2697     -734 
    2466     5931     8660    10142    10289     9097     6592     3338 
     564     -911    -1432    -1900    -2805    -3866    -4494    -4434 
   -3852    -2833    -1259      629     2076     2517     2133     1489 
     980      673      438       70     -673    -1736    -2582    -2725 
   -2280    -1872    -1860    -1714     -584     1679     4429     7033 
    9321    11195    12195    11693     9621     6754     3863     1036 
   -1981    -5344    -8704   -11192   -12197   -11685    -9867    -7362 
   -5120    -3573    -2528    -1823    -1439    -1244     -990     -378 
     923     3235     6674    10832    14759    17216    17158    14527 
   10440     6138     2173    -1300    -4243    -6787    -8999   -10655 
  -11462   -11394   -10685    -9493    -7874    -6019    -3994    -1540 
    1404     4326     6655     8187     8949     9072     8748     8101 
    7226     6211     5130     4164     3519     3098     2479     1306 
    -322    -1891    -2874    -3136    -3198    -3848    -5250    -6970 
   -8613    -9676    -9656    -8532    -6458    -3623     -584     2083 
    4147     5526     6415     7334     8707    10311    11273    10913 
    9240     6660     3674      757    -1617    -3237    -4411    -5287 
   -5427    -4441    -2268      704     3235     3916     2408     -549 
   -3712    -5876    -6513    -5736    -3933    -1768      133     1806 
    3742     5906     7588     8433     8785     8887     8510     7402 
    5567     3172      452    -2263    -4675    -6571    -7570    -7241 
   -5779    -4009    -2612    -1759    -1409    -1428    -1409     -877 
     292     1742     2824     3098     2855     2743     2808     2709 
    2498     2416     2621     3262     4135     4588     4106     2631 
     413    -2018    -4008    -5270    -5856    -5728    -4872    -3389 
   -1258     1363     3979     6207     7717     8005     6933     5001 
    2621     -114    -2830    -4947    -6223    -6646    -6173    -4912 
   -3225    -1510      -44     1043     1883     2685     3330     3612 
    3699     3874     4214     4514     4298     3454     2520     1883 
    1458     1086      695      259     -156     -376     -322     -143 
    -112     -477    -1156    -1771    -2085    -1979    -1402     -606 
     153      973     1971     2920     3478     3481     2847     1552 
    -105    -1505    -2150    -2060    -1699    -1480    -1329     -970 
    -324      544     1448     2135     2602     3029     3464     3761 
    3588     2748     1470       90    -1089    -1625    -1198      -59 
    1016     1381     1011      305     -400     -927    -1084     -776 
     -63      919     1896     2602     2961     2817     2064     1128 
     614      519      379     -114     -927    -1737    -2157    -2093 
   -1729    -1328    -1174    -1332    -1428    -1069     -237      816 
    1819     2791     3986     5358     6489     7013     6777     5833 
    4379     2660      804    -1247    -3443    -5449    -6983    -7861 
   -7813    -6777    -4995    -2685     -160     1977     3403     4224 
    4473     4194     3626     2901     2116     1588     1512     1609 
    1537     1339     1188     1084     1026      973      683       12 
    -764    -1237    -1323    -1105     -526      407     1489     2466 
    3114     3406     3464     3292     2902     2390     1810     1178 
     565      -52     -923    -2231    -3678    -4598    -4595    -3869 
   -2805    -1665     -610      380     1370     2281     2982     3346 
    3362     3154     2748     2122     1470     1057      909      893 
     888      874      864      762      611      584      581      378 
     -37     -583    -1135    -1452    -1453    -1359    -1293    -1111 
    -731     -213      463     1325     2324     3300     3970     4068 
    3473     2338     1062       28     -538     -523       29      874 
    1641     2053     2107     2003     1838     1530     1065      573 
     180      -54      -63      117      265       76     -584    -1479 
   -2203    -2496    -2207    -1386     -380      508     1283     1961 
    2343     2367     2277     2209     2124     1995     1676     1012 
     168     -490     -784     -855     -935    -1092    -1296    -1471 
   -1526    -1532    -1576    -1603    -1566    -1524    -1395     -886 
      36     1101     2154     3171     4202     5263     6008     6077 
    5630     4966     4278     3775     3456     3040     2253      899 
    -993    -3087    -5016    -6505    -7246    -7048    -6115    -4892 
   -3705    -2640    -1516      -89     1559     2997     3835     4032 
    3782     3380     3051     2895     3010     3312     3426     3095 
    2440     1695     1013      530      338      349      433      600 
     862     1131     1394     1723     2178     2737     3229     3369 
    2918     1880      498     -992    -2425    -3592    -4220    -4174 
   -3672    -3013    -2238    -1333     -407      409     1102     1776 
    2432     2917     3059     2766     2150     1390      544     -260 
    -800     -939     -692     -228      184      328      203       71 
     164      396      538      621      847     1255     1676     1899 
    1800     1364      685       89      -44      338     1042     1804 
    2331     2504     2505     2536     2570     2462     2145     1638 
     999      291     -352     -770     -932    -1003    -1213    -1636 
   -2116    -2467    -2509    -2166    -1591     -927     -203      506 
    1139     1641     1894     1872     1734     1665     1698     1798 
    1999     2257     2388     2346     2176     1814     1239      550 
     -64     -465     -718     -930    -1077    -1112    -1027     -895 
    -697     -345      -48     -187     -812    -1593    -2041    -1772 
    -727      783     2277     3473     4348     4834     4799     4253 
    3368     2350     1328      473       29        6      120      129 
      14     -143     -330     -591     -913    -1183    -1182     -773 
     -22      904     1819     2484     2647     2195     1278      297 
    -321     -442     -259       33      369      734     1181     1746 
    2290     2604     2513     1949      980     -240    -1506    -2587 
   -3306    -3543    -3260    -2477    -1321     -133      795     1506 
    2143     2695     3086     3285     3354     3357     3288     3105 
    2772     2293     1672      880     -106    -1208    -2214    -2938 
   -3327    -3376    -3067    -2403    -1539     -735     -124      310 
