Origin Time       2025/03/28 03:50:00
Lat.              35.403
Long.             140.360
Depth. (km)       54
Mag.              4.4
Station Code      CHB008
Station Lat.      35.6556
Station Long.     139.9027
Station Height(m) 0
Record Time       2025/03/28 03:51:00
Sampling Freq(Hz) 100Hz
Duration Time(s)  60
Dir.              E-W
Scale Factor      7845(gal)/8223790
Max. Acc. (gal)   5.380
Last Correction   2025/03/28 03:50:59
Memo.             
[...]
    9645     9622     9560     9509     9522     9605     9676     9680 
    9633     9593     9587     9594     9605     9605     9563     9514 
    9510     9539     9578     9613     9618     9612     9612     9599 
    9595     9617     9641     9639     9599     9566     9564     9582 
    9597     9585     9539     9508     9539     9607     9666     9666 
    9612     9567     9560     9578     9610     9644     9664     9652 
    9594     9532     9509     9541     9605     9639     9616     9575 
    9552     9568     9607     9617     9590     9570     9567     9568 
    9563     9558     9564     9570     9562     9567     9589     9580 
    9558     9576     9605     9594     9587     9597     9587     9572 
    9576     9576     9551     9535     9547     9560     9585     9632 
    9647     9612     9590     9602     9610     9595     9582     9594 
    9617     9624     9605     9566     9536     9528     9528     9563 
    9622     9628     9605     9602     9579     9576     9617     9626 
    9621     9628     9598     9553     9553     9578     9605     9621 
    9613     9595     9568     9532     9526     9541     9555     9590 
    9610     9614     9626     9612     9609     9636     9624     9603 
    9605     9580     9572     9624     9655     9626     9598     9589 
    9563     9543     9563     9582     9587     9614     9625     9601 
    9612     9637     9617     9591     9579     9552     9551     9593 
    9614     9589     9574     9587     9591     9580     9568     9559 
    9555     9556     9574     9587     9575     9583     9610     9617 
    9618     9612     9587     9586     9606     9609     9629     9659 
    9637     9598     9587     9574     9570     9593     9583     9556 
    9587     9616     9587     9572     9595     9616     9624     9621 
    9605     9576     9547     9540     9574     9602     9571     9543 
    9566     9585     9578     9585     9599     9597     9603     9639 
    9653     9630     9610     9586     9560     9583     9626     9637 
    9632     9607     9547     9508     9529     9583     9633     9647 
    9624     9589     9564     9572     9607     9633     9628     9599 
    9574     9556     9553     9555     9560     9582     9599     9598 
    9595     9602     9603     9583     9543     9516     9520     9533 
    9549     9559     9556     9548     9532     9516     9536     9593 
    9637     9647     9633     9609     9589     9586     9603     9621 
    9628     9622     9583     9543     9549     9576     9587     9599 
    9620     9613     9597     9610     9621     9616     9610     9589 
    9560     9558     9578     9605     9597     9548     9512     9513 
    9532     9563     9585     9570     9540     9528     9537     9566 
    9601     9625     9624     9614     9617     9626     9640     9649 
    9644     9640     9647     9649     9622     9579     9568     9582 
    9590     9593     9601     9603     9593     9582     9574     9568 
    9568     9563     9558     9545     9532     9540     9559     9572 
    9578     9591     9587     9540     9510     9555     9617     9632 
    9622     9601     9555     9541     9579     9616     9628     9617 
    9576     9531     9525     9552     9582     9614     9612     9575 
    9578     9602     9606     9605     9601     9583     9568     9578 
    9591     9595     9595     9585     9555     9537     9559     9576 
    9570     9579     9598     9593     9589     9602     9621     9625 
    9606     9595     9613     9634     9637     9617     9591     9580 
    9578     9580     9583     9575     9572     9614     9678     9684 
    9632     9579     9552     9558     9598     9629     9607     9570 
    9575     9603     9602     9570     9544     9566     9618     9671 
    9698     9682     9641     9590     9552     9571     9607     9602 
    9590     9591     9574     9528     9494     9516     9572     9624 
    9645     9616     9576     9583     9621     9659     9675     9651 
    9613     9579     9568     9586     9599     9576     9529     9501 
    9531     9579     9597     9598     9586     9570     9585     9607 
    9617     9634     9643     9622     9591     9580     9599     9609 
    9591     9579     9586     9575     9543     9535     9545     9547 
    9543     9543     9562     9586     9590     9566     9536     9541 
    9594     9641     9639     9622     9620     9617     9601     9578 
    9570     9598     9637     9661     9675     9660     9603     9535 
    9495     9513     9555     9556     9559     9601     9612     9583 
    9566     9541     9539     9594     9634     9613     9574     9549 
    9556     9599     9629     9602     9544     9516     9544     9583 
    9610     9633     9616     9602     9663     9690     9612     9555 
    9570     9599     9634     9614     9508     9474     9560     9617 
    9620     9622     9585     9545     9559     9571     9579     9595 
    9572     9518     9466     9460     9536     9612     9614     9582 
    9549     9580     9706     9748     9636     9537     9505     9513 
    9591     9664     9667     9657     9625     9562     9547     9583 
    9610     9648     9710     9705     9575     9408     9321     9355 
    9518     9724     9778     9651     9543     9555     9568     9544 
    9552     9555     9548     9601     9639     9621     9674     9819 
    9898     9783     9555     9433     9494     9621     9693     9636 
    9521     9529     9643     9693     9659     9578     9420     9259 
    9229     9347     9566     9767     9796     9713     9659     9636 
    9640     9656     9644     9630     9618     9548     9440     9437 
    9578     9690     9684     9632     9570     9510     9482     9522 
    9599     9634     9670     9714     9664     9580     9571     9553 
    9537     9598     9610     9522     9520     9612     9618     9574 
    9587     9599     9599     9656     9699     9634     9540     9470 
    9401     9435     9606     9729     9726     9691     9624     9531 
    9532     9628     9694     9713     9722     9659     9499     9359 
    9339     9402     9460     9493     9535     9590     9610     9574 
    9518     9498     9549     9605     9574     9539     9599     9691 
    9753     9771     9720     9657     9622     9583     9589     9652 
    9656     9609     9607     9614     9597     9606     9594     9501 
    9425     9421     9410     9439     9589     9726     9752     9732 
    9725     9769     9846     9850     9751     9567     9373     9304 
    9325     9351     9459     9612     9670     9683     9734     9795 
    9829     9756     9556     9401     9412     9501     9556     9529 
    9428     9391     9506     9699     9857     9846     9666     9506 
    9427     9354     9336     9404     9462     9491     9572     9736 
    9917     9967     9834     9633     9470     9406     9454     9495 
    9451     9406     9455     9601     9778     9855     9771     9614 
    9463     9427     9609     9853     9919     9767     9556     9477 
    9537     9632     9722     9738     9558     9277     9107     9073 
    9151     9366     9598     9755     9849     9873     9931    10049 
    9965     9647     9416     9445     9644     9830     9818     9567 
    9227     9020     9088     9364     9655     9818     9809     9656 
    9475     9383     9428     9585     9705     9653     9512     9471 
    9529     9582     9632     9676     9683     9721     9795     9826 
    9819     9780     9668     9548     9547     9628     9632     9489 
    9293     9235     9377     9558     9686     9798     9872     9872 
    9786     9620     9466     9359     9259     9252     9433     9671 
    9806     9821     9730     9632     9648     9693     9617     9471 
    9396     9439     9548     9622     9574     9475     9495     9656 
    9823     9902     9898     9809     9595     9385     9360     9481 
    9601     9645     9568     9424     9363     9456     9651     9844 
    9917     9841     9678     9479     9329     9282     9305     9416 
    9547     9570     9553     9605     9648     9639     9694     9821 
    9872     9787     9595     9375     9281     9342     9440     9532 
    9579     9537     9510     9563     9570     9472     9358     9300 
    9308     9354     9448     9564     9652     9794     9999    10064 
    9936     9799     9779     9819     9819     9783     9759     9728 
    9656     9535     9393     9339     9451     9626     9680     9606 
    9540     9493     9370     9213     9221     9482     9853    10112 
   10114     9890     9605     9427     9454     9607     9659     9563 
    9505     9562     9614     9559     9458     9475     9622     9690 
    9582     9487     9543     9656     9710     9648     9481     9319 
    9308     9441     9563     9641     9744     9786     9680     9483 
    9243     9094     9196     9452     9726     9969    10021     9846 
    9703     9686     9663     9591     9543     9564     9632     9702 
    9709     9602     9452     9374     9412     9512     9564     9618 
    9778     9898     9814     9632     9548     9649     9848     9981 
    9964     9806     9597     9433     9348     9315     9283     9232 
    9194     9178     9154     9184     9316     9451     9506     9536 
    9614     9736     9814     9791     9755     9787     9807     9709 
    9533     9417     9375     9316     9265     9296     9424     9693 
   10042    10187     9998     9687     9410     9165     9038     9074 
    9175     9278     9378     9513     9729     9969    10143    10237 
   10210    10027     9813     9693     9603     9472     9348     9285 
    9306     9435     9629     9799     9859     9813     9776     9803 
    9809     9709     9537     9347     9171     9119     9293     9633 
    9973    10131    10022     9780     9605     9628     9813     9933 
    9884     9784     9655     9490     9400     9413     9478     9525 
    9440     9248     9177     9346     9622     9809     9832     9752 
    9616     9406     9155     8984     8977     9101     9266     9400 
    9498     9583     9651     9699     9769     9913    10141    10296 
   10096     9585     9181     9104     9216     9366     9483     9576 
    9680     9717     9664     9645     9684     9683     9563     9302 
    9058     9012     9161     9424     9751    10064    10262    10260 
   10083     9859     9732     9756     9791     9699     9539     9421 
    9413     9540     9707     9791     9780     9718     9645     9568 
    9470     9391     9363     9351     9387     9522     9722     9890 
    9907     9782     9622     9474     9406     9486     9607     9663 
    9651     9582     9521     9520     9540     9595     9733     9876 
    9884     9724     9468     9232     9171     9294     9393     9454 
    9668     9948    10060     9969     9674     9248     8924     8775 
    8702     8695     8851     9207     9640    10044    10381    10547 
   10489    10289     9991     9670     9499     9501     9472     9320 
    9159     9108     9228     9493     9693     9679     9520     9279 
    9086     9163     9493     9860    10143    10268    10176     9975 
    9860     9861     9825     9637     9383     9252     9340     9578 
    9729     9599     9327     9178     9190     9271     9397     9566 
    9774     9998    10131    10080     9894     9693     9562     9537 
    9616     9713     9751     9772     9782     9706     9593     9551 
    9576     9579     9533     9568     9756     9892     9702     9269 
    8966     8969     9198     9572     9910     9994     9806     9499 
    9256     9196     9286     9404     9459     9486     9531     9552 
    9583     9724     9918     9980     9844     9593     9306     9081 
    9084     9385     9753     9868     9721     9487     9211     8924 
    8746     8729     8870     9112     9370     9653     9979    10247 
   10419    10565    10687    10704    10558    10207     9721     9296 
    9026     8932     9015     9146     9250     9396     9564     9656 
    9683     9737     9850     9953     9972     9869     9657     9439 
    9308     9283     9405     9622     9807     9934     9976     9913 
    9850     9855     9861     9790     9589     9320     9135     9124 
    9294     9580     9838     9952     9898     9730     9582     9518 
    9467     9359     9151     8810     8429     8141     8059     8280 
    8715     9170     9594    10003    10369    10650    10821    10778 
   10381     9693     8953     8317     7812     7480     7383     7558 
    7986     8648     9552    10590    11461    11886    11851    11508 
   10980    10444    10127     9981     9736     9343     8988     8779 
    8687     8714     8953     9460    10191    11006    11732    12256 
   12434    12097    11392    10733    10353    10253    10296    10196 
    9794     9132     8363     7784     7632     7888     8437     9073 
    9479     9504     9256     8986     8961     9282     9829    10373 
   10713    10770    10534    10084     9634     9332     9140     8900 
    8464     7909     7435     7086     6829     6686     6729     7165 
    8259     9995    11915    13343    13757    13016    11421     9597 
    8283     8043     8849    10057    10949    11124    10558     9574 
    8645     8147     8220     8764     9521    10197    10554    10435 
    9809     8843     7943     7614     8114     9216    10366    10976 
   10666     9609     8530     8136     8738    10276    12326    14196 
   15228    15047    13674    11472     8928     6562     4935     4471 
    5182     6643     8253     9540    10272    10442    10261    10000 
    9725     9398     9100     8974     9113     9445     9783     9968 
    9876     9575     9416     9680    10372    11200    11588    11146 
    9988     8425     6918     6052     6084     6920     8395    10185 
   11715    12463    12204    11034     9409     7933     7091     7202 
    8198     9605    10920    11742    11827    11290    10455     9580 
    8892     8572     8604     8920     9510    10274    11021    11585 
   11870    11835    11425    10609     9498     8330     7403     6956 
    7125     7924     9166    10520    11713    12633    13196    13193 
   12464    11161     9644     8270     7353     7048     7237     7700 
    8270     8815     9297     9725    10044    10172    10079     9850 
    9670     9639     9687     9659     9450     9078     8669     8399 
    8371     8537     8807     9074     9151     9026     8914     8946 
    9204     9845    10829    11827    12445    12441    11766    10531 
    9028     7684     6866     6689     6983     7479     7885     8050 
    8089     8151     8340     8773     9406    10174    11126    12085 
   12656    12629    12035    11017     9861     8860     8226     8110 
    8379     8716     8954     9090     9175     9266     9401     9579 
    9792    10053    10320    10530    10635    10547    10216     9772 
    9379     9059     8777     8573     8564     8865     9429    10088 
   10727    11203    11379    11304    11084    10787    10515    10324 
   10165     9950     9652     9265     8827     8514     8406     8359 
    8305     8303     8384     8630     9134     9783    10338    10639 
   10687    10551    10230     9674     8968     8395     8198     8421 
    8978     9663    10177    10368    10264     9973     9726     9779 
   10164    10717    11178    11291    11011    10536    10060     9649 
    9377     9294     9325     9371     9417     9439     9390     9224 
    8884     8395     7917     7635     7700     8214     9119    10153 
   11002    11435    11367    10848    10049     9171     8380     7794 
    7439     7245     7214     7434     7900     8549     9374    10376 
   11475    12468    13122    13312    12934    11880    10260     8426 
    6851     5994     6039     6817     7989     9161     9991    10358 
   10359    10238    10220    10359    10596    10833    10997    11067 
   10972    10629    10143     9688     9261     8837     8467     8149 
    7904     7808     7950     8372     8985     9607    10085    10308 
   10226     9904     9516     9251     9217     9414     9810    10319 
   10821    11236    11485    11472    11095    10336     9271     8081 
    7068     6579     6822     7731     9024    10397    11626    12534 
   12931    12737    12062    11109    10076     9135     8429     8052 
    7989     8183     8623     9250     9906    10401    10615    10600 
   10484    10345    10220    10084     9877     9613     9363     9146 
    8988     8951     8991     8993     8920     8746     8491     8302 
    8228     8102     7813     7460     7263     7402     7981     8993 
   10147    11122    11889    12353    12330    11857    11091    10247 
    9525     8973     8626     8638     9080     9717    10257    10534 
   10400     9910     9321     8780     8409     8361     8579     8954 
    9517    10168    10708    11067    11206    11060    10663    10174 
    9678     9171     8768     8581     8633     8950     9451     9907 
   10161    10216    10122     9946     9809     9686     9448     9140 
    8930     8923     9126     9495     9963    10363    10590    10625 
   10350     9825     9335     8966     8707     8676     8846     9043 
    9246     9448     9593     9732     9876     9930     9876     9765 
    9687     9660     9564     9331     8992     8644     8441     8471 
    8685     8941     9100     9131     9046     8888     8788     8860 
    9159     9706    10351    10862    11161    11267    11207    11055 
   10870    10646    10304     9779     9124     8523     8181     8158 
    8364     8708     9103     9447     9728     9942    10037    10042 
   10100    10287    10462    10494    10390    10146     9794     9437 
    9124     8907     8905     9173     9597    10011    10318    10493 
   10459    10125     9568     8965     8498     8347     8576     9107 
    9718    10220    10582    10773    10771    10628    10357     9949 
    9413     8797     8256     7946     7977     8398     9035     9602 
    9953    10057     9941     9647     9242     8862     8618     8599 
    8881     9390     9917    10241    10257    10044     9759     9501 
    9297     9128     9005     8984     9119     9440     9934    10509 
   11006    11306    11358    11070    10430     9629     8869     8314 
    8131     8340     8826     9443     9960    10215    10305    10353 
   10342    10292    10207    10042     9837     9633     9479     9477 
    9639     9914    10176    10266    10169     9872     9377     8839 
    8345     8027     8089     8472     8974     9421     9630     9540 
    9288     9151     9236     9433     9664     9802     9737     9602 
    9589     9757    10025    10253    10395    10396    10164     9799 
    9459     9151     8915     8833     8934     9262     9790    10316 
   10605    10559    10260     9871     9579     9471     9464     9512 
    9562     9460     9215     8978     8831     8799     8853     8938 
    9020     9049     9023     8991     8981     9009     9150     9489 
    9949    10407    10828    11117    11167    10983    10558     9944 
    9344     8916     8707     8669     8687     8765     8947     9147 
    9275     9320     9292     9304     9486     9805    10150    10413 
   10484    10426    10353    10214     9968     9703     9458     9251 
