Origin Time       2025/03/28 03:50:00
Lat.              35.403
Long.             140.360
Depth. (km)       54
Mag.              4.4
Station Code      CHB009
Station Lat.      35.5871
Station Long.     140.2378
Station Height(m) 41
Record Time       2025/03/28 03:50:50
Sampling Freq(Hz) 100Hz
Duration Time(s)  60
Dir.              N-S
Scale Factor      7845(gal)/8223790
Max. Acc. (gal)   12.617
Last Correction   2025/03/28 03:50:50
Memo.             
[...]
     128      126      122      116      114      117      113      116 
     124      125      120      120      122      118      109      113 
     121      118      117      121      121      120      122      122 
     120      122      124      120      122      128      126      120 
     112      108      110      117      122      124      124      128 
     130      125      121      124      128      125      124      125 
     125      122      118      117      121      126      126      126 
     128      122      114      118      128      128      122      126 
     129      120      113      118      125      126      128      130 
     126      120      121      122      120      118      120      124 
     128      128      118      114      121      125      122      125 
     129      124      117      120      118      113      112      117 
     122      125      125      126      126      120      116      118 
     122      126      125      121      124      122      114      116 
     118      117      113      110      116      121      120      122 
     126      116      108      118      126      125      122      118 
     116      116      112      113      122      124      122      125 
     125      121      117      116      121      122      118      124 
     124      114      114      125      125      121      121      120 
     117      116      120      129      129      122      118      121 
     124      120      116      118      120      122      122      121 
     126      126      121      118      118      118      118      122 
     126      122      121      120      113      114      120      124 
     132      136      128      124      126      126      124      122 
     124      124      120      118      116      109      110      121 
     129      128      125      124      121      116      118      125 
     129      126      122      122      125      124      122      121 
     118      118      118      121      128      129      125      128 
     126      117      112      114      117      120      120      125 
     126      121      120      121      121      121      120      121 
     128      126      120      120      120      113      113      122 
     129      129      128      128      122      116      114      118 
     124      118      114      121      126      124      124      124 
     125      124      120      118      120      117      116      120 
     122      120      116      120      122      121      122      129 
     128      121      120      120      116      118      124      125 
     125      125      122      125      128      125      126      132 
     128      124      116      113      120      121      120      130 
     130      117      114      114      116      124      130      133 
     132      124      117      117      116      118      126      130 
     130      126      118      114      117      117      116      124 
     132      125      118      120      117      113      116      118 
     121      120      114      118      122      118      121      122 
     120      121      117      112      114      110      108      116 
     122      124      129      130      125      116      108      113 
     120      116      118      128      124      116      117      117 
     114      112      112      118      126      125      117      116 
     114      113      117      124      128      126      118      116 
     121      120      117      126      126      120      118      117 
     118      122      122      126      132      128      121      117 
     113      116      121      125      130      128      125      128 
     124      114      118      126      126      121      120      124 
     125      120      116      124      129      124      124      129 
     126      121      118      118      125      128      125      129 
     128      117      113      121      129      128      125      124 
     121      114      113      120      124      124      122      124 
     122      121      121      120      122      125      120      117 
     121      116      109      117      121      120      122      125 
     122      118      118      124      126      122      122      122 
     114      109      110      118      128      128      122      121 
     122      122      118      114      112      112      117      124 
     122      121      125      129      128      120      113      114 
     114      116      121      118      120      126      126      118 
     113      113      118      122      121      117      116      118 
     118      118      120      118      117      117      120      124 
     122      120      121      121      117      114      114      117 
     117      116      118      120      118      124      124      117 
     120      121      118      124      128      118      117      118 
     116      118      124      122      120      114      116      120 
     117      118      122      121      126      128      122      124 
     124      120      122      128      125      117      113      113 
     113      116      124      132      130      122      118      121 
     120      117      120      122      120      120      121      120 
     121      120      117      117      122      125      124      126 
     124      114      113      124      125      122      124      124 
     118      118      122      124      122      125      126      125 
     122      120      121      124      128      130      129      126 
     118      110      113      121      124      124      128      132 
     129      124      125      128      128      124      120      121 
     120      117      118      125      128      124      121      126 
     128      122      125      135      140      141      143      133 
     105       74       66       90      130      153      129       59 
     -22      -59       27      245      469      549      468      311 
     109     -133     -280     -248     -194     -224     -166      103 
     415      588      685      710      463      -31     -386     -332 
     -52      112       99       66       55      -10      -24      171 
     383      390      357      463      546      383       51     -282 
    -603     -704     -390       22      224      332      519      745 
     834      729      479       28     -594    -1136    -1221     -572 
     422     1140     1532     1539      982      170     -561    -1050 
   -1101     -834     -558     -176      552     1366     1736     1343 
     367     -464     -768     -764     -491      102      808     1125 
     675     -125     -650     -891    -1084    -1042     -205     1117 
    1706     1382      984      737      257     -599    -1309    -1240 
    -731     -400      112     1266     2446     2628     1576     -271 
   -2434    -3819    -3125     -847     1244     2388     2754     2343 
    1352      549      313       68     -638    -1221     -997     -562 
   -1004    -1917    -1752     -180     1449     2045     1791     1298 
    1003     1201     1543     1278      469     -302    -1135    -2346 
   -3534    -3784    -2288      583     2968     3566     2948     2034 
    1105      523      392     -195    -1686    -2918    -2779    -1302 
     734     2066     2143     1883     1842     1244     -178    -1309 
   -1459    -1193    -1047    -1097    -1123     -537      550     1251 
    1505     1896     2293     2066     1263      349     -799    -2266 
   -3334    -3069    -1167     1378     2879     2731     1695      334 
   -1391    -2701    -2420     -523     2083     3928     3987     2560 
     -14    -3040    -4720    -4279    -2351      603     3611     4550 
    2810      425    -1171    -2160    -2096     -592     1173     2095 
    2280     1818      581     -805    -1686    -2061    -1852    -1131 
    -373      187      579     1100     1956     2524     2047      481 
   -1300    -2066    -1782    -1259     -467      861     2014     2123 
    1543     1035      256    -1028    -2038    -2388    -2010     -648 
    1031     1831     1846     1966     1933      981     -441    -1448 
   -1849    -1680     -845      503     1491     1354      687      252 
     -59     -190      -56       81      205      395      626      592 
     103     -264      -32      607     1121      978      399      222 
     681      974      299    -1043    -2203    -2651    -2205     -976 
     561     1753     2404     2621     1962      324    -1316    -2160 
   -2107    -1441     -807     -625     -561       24     1003     1525 
    1429     1155      693      387      837     1237      689      -93 
    -387     -191      426      950      738      -29     -729    -1216 
   -1480    -1143     -463       27      693     1487     1736     1422 
     714      124      410     1066     1042      274     -521     -803 
    -664     -452     -730    -1734    -2559    -2324    -1001      961 
    2555     2910     2268     1462      826      125     -503     -625 
    -318       91      544      650     -460    -2574    -3871    -3307 
   -1713      199     2462     4398     5030     4329     2724      669 
   -1294    -2679    -3075    -2485    -1352     -128      702      791 
     521      724     1530     1919     1069     -193     -805    -1254 
   -1757    -1274      275     1853     2794     2563     1178     -145 
    -683     -905    -1170    -1475    -1723    -1659    -1186     -468 
     295      859      926      541      180      180      660     1490 
    1971     1494      487     -141     -214     -135     -132      -91 
      89      -52     -908    -1736    -1657     -981     -417      136 
     945     1760     2457     2855     2582     1872     1057       59 
    -851    -1390    -2034    -2999    -3433    -2492     -272     1952 
    2635     1818      855      614      854      805      236     -271 
    -126      318      106     -414       28     1048     1254      525 
    -151     -454    -1239    -2478    -2686    -1294      795     2327 
    2425     1634     1158      931      390     -201     -569     -938 
   -1260    -1182     -623      294     1129     1173      589      241 
      63     -367     -500      175     1248     1933     1495      141 
    -598      -40      445       25     -279     -155     -399    -1024 
   -1833    -2631    -2463    -1120      446     1753     2855     3488 
    3200     2203     1048     -145    -1034    -1198    -1035    -1061 
   -1464    -1972    -1802     -915        0      749     1537     2276 
    2384     1687      862      243     -279     -612     -731     -542 
    -121       87      143      280      163     -363     -774     -627 
     -99      461      676      355      171      571     1017     1381 
    1653     1182        9     -801     -804     -504     -352     -704 
   -1570    -1773     -599      522      405       18      160      271 
     133       66       56      -95     -453     -939    -1266     -857 
     183      808      675      342      203      414     1065     2008 
    2820     3176     3002     2373     1833     1571      715    -1111 
   -2884    -3534    -2979    -1611      157     1566     2116     2007 
    1321      298     -490     -916    -1146    -1358    -1498    -1196 
    -527       25      160      -74     -261     -387     -864    -1413 
   -1239     -346      351      546      733     1050     1530     2039 
    1977     1390      849      765     1271     1794     1664      903 
    -135    -1148    -2116    -2967    -3235    -2658    -1533     -137 
    1426     2644     3037     2839     2303     1352      124     -916 
   -1383    -1397    -1313    -1286    -1271    -1032     -340      719 
    1873     2590     2212      882     -396    -1151    -1571    -1490 
    -664      627     1865     2416     1926      892       59     -328 
    -392     -375     -422     -552     -928    -1629    -2089    -1547 
    -171     1051     1665     1973     2114     1806      757     -881 
   -2220    -2299    -1324     -186     1003     2253     2724     1802 
      68    -1422    -2220    -2440    -2219    -1540     -361      854 
    1372     1150      533     -238     -776     -940    -1112    -1512 
   -1977    -2203    -1509      614     3234     4896     5310     4712 
    3092      561    -2469    -4936    -5579    -4139    -1389     1204 
    2133     1335       70     -870    -1225     -436     1551     3908 
    5915     7155     7134     5564     2691     -850    -4160    -6095 
   -6211    -5320    -4268    -3153    -1771     -101     1468     2594 
    3231     3233     2648     1979     1728     2081     2797     3364 
    3130     1771        0    -1232    -1784    -1981    -2440    -3694 
   -5297    -6243    -6170    -5190    -3017      760     5575     9741 
   11853    11836     9977     6072      368    -5733   -10486   -12661 
  -11873    -8814    -4338     1377     7192    10339     9256     5265 
    1013    -1804    -3520    -5432    -7627    -8434    -6444    -2062 
    3033     6836     8235     7759     6220     3461     -704    -5022 
   -7221    -6016    -2193     1826     3624     2984     1819     1675 
    2371     2663     1382    -1116    -2781    -2133      274     2659 
    3171     1097    -2301    -4648    -4267    -1323     2598     5478 
    5513     2203    -2897    -7187    -8692    -7056    -3562      -20 
    2444     3508     3505     3597     5142     8205    10721     9703 
    4060    -4032   -10704   -13105   -11211    -7230    -3430     -737 
    1228     2925     4072     4291     3713     2953     2269     1067 
    -633    -1674    -1213      346     1360      253    -2511    -4761 
   -4807    -2496      973     3692     4247     2643      372     -735 
    -221     1128     2249     2224     1237      423      195      317 
    1161     3092     5111     5462     3500      415    -1714    -1568 
     480     2752     3616     2531      116    -2272    -3497    -3429 
   -2620    -1640     -756       91      908     1169      419     -730 
   -1402    -1586    -1491    -1159     -830     -564      -45      584 
     484     -523    -1367    -1502    -1417    -1000      191     1819 
    3348     4353     4463     3859     2650      249    -3219    -6508 
   -8696    -9310    -7963    -5379    -3057    -1105     1645     5186 
    7919     8625     7290     4522     1661      228       54     -364 
   -1692    -3295    -4036    -3177     -965     1706     4090     5953 
    7063     6596     4017      419    -2230    -3061    -2789    -2749 
   -3653    -4949    -5521    -4565    -2018     1185     3657     4583 
    4004     2340      189    -1629    -2610    -2882    -2629    -2041 
   -1298     -184     1174     1748     1142      337      129      464 
    1112     1806     2284     2679     3358     4232     4718     4388 
    3302     1888      525    -1043    -3453    -6664    -9670   -11179 
  -10162    -6575    -1710     2790     5684     6664     6824     7298 
    7815     7404     5589     2582    -1112    -4780    -7646    -9386 
   -9691    -8132    -5283    -2222      816     3832     6320     7677 
    7500     5994     4295     3589     3851     3994     3172     1467 
    -612    -2729    -4669    -6133    -6751    -6416    -5616    -5020 
   -4495    -2990      175     4214     7560     9161     8712     6655 
    4106     1742     -750    -3318    -4999    -5220    -4301    -2987 
   -2014    -1467     -828       33      572      496      490     1417 
    3252     5105     5759     4710     2778      691    -1784    -4727 
   -7342    -8347    -7051    -4070     -500     2978     5802     7018 
    5881     2955     -340    -2947    -4182    -3730    -2331    -1044 
      47     1190     2285     3435     4409     4294     2924     1047 
    -710    -1732    -1624     -901     -407     -500    -1034    -1674 
   -2174    -2297    -1858     -891      463     2126     3694     4172 
    3090     1216     -596    -1849    -1952     -683     1412     3261 
    3746     2601      642    -1174    -2500    -3366    -3769    -3592 
   -2751    -1439      -79     1080     1931     2353     2425     2307 
    1960     1425      831       81     -828    -1684    -2347    -2529 
   -1902     -800       66      445      487      361      182      175 
     814     2320     3921     4201     2390     -702    -3191    -3800 
   -2876    -1551     -526       21      148        0     -371     -800 
    -683      471     2404     4476     6049     6438     5410     3510 
    1331     -811    -2555    -3784    -4730    -5306    -5290    -4827 
   -3973    -2602     -965      534     1861     3071     3897     4024 
    3358     2265     1790     2617     3870     4009     2442     -189 
   -2689    -4282    -5023    -5092    -4361    -2880    -1086      523 
    1618     2056     1840      958     -441    -1597    -1605     -575 
     441      700      405      261      595      962      938      882 
    1304     2074     2689     2701     2014     1015      217     -303 
    -843    -1479    -1975    -2146    -1922    -1417     -961     -548 
     297     1860     3823     5386     5768     4606     2130     -800 
   -3225    -4764    -5517    -5594    -4908    -3377    -1210     1269 
    3697     5306     5162     3056     -201    -3288    -5151    -5560 
   -4823    -3078     -405     2498     4438     4703     3631     2231 
    1393     1193     1135      932      584      214       25      -14 
    -130     -319     -496     -862    -1522    -1950    -1406      198 
    2162     3557     3758     2737     1124     -313    -1229    -1605 
   -1668    -1790    -1921    -1698     -994       94     1320     2178 
    2228     1544      633      -56     -382     -527     -873    -1567 
   -2328    -2671    -2104     -527     1460     3072     3920     3904 
    3129     1991      764     -573    -1834    -2655    -2997    -2899 
   -2115     -672      815     1790     2025     1575      858      287 
    -114     -427     -503     -126      722     1857     2758     2695 
    1422     -635    -2739    -4114    -4338    -3453    -1755      305 
    2259     3796     4731     4827     3873     2116      276    -1034 
   -1711    -2201    -2856    -3310    -2986    -1804     -203     1094 
    1510      996      -52    -1065    -1524    -1154      -13     1487 
    2781     3420     3183     2135      577    -1055    -2245    -2689 
   -2505    -1949    -1146     -149      837     1468     1553     1204 
     622      -14     -530     -855    -1043    -1104     -958     -438 
     502     1510     2042     1876     1192      317     -422     -704 
    -395      245      866     1358     1676     1698     1339      641 
    -168     -778    -1047    -1071    -1003     -924     -805     -522 
     -60      291      234      -97     -187      322     1181     1672 
    1297      263     -815    -1483    -1566    -1092     -348      298 
     758     1096     1223     1065      693      237      -94     -149 
      12      194      151     -263     -822    -1120    -1005     -423 
     727     2180     3272     3511     2886     1714      429     -622 
   -1263    -1355     -970     -664     -901    -1377    -1468    -1032 
    -398       86      330      449      576      770     1063     1459 
    1809     1935     1842     1622     1323      989      575     -178 
