Origin Time       2025/03/28 03:50:00
Lat.              35.403
Long.             140.360
Depth. (km)       54
Mag.              4.4
Station Code      CHB017
Station Lat.      35.2976
Station Long.     140.0734
Station Height(m) 38
Record Time       2025/03/28 03:50:50
Sampling Freq(Hz) 100Hz
Duration Time(s)  77
Dir.              E-W
Scale Factor      7845(gal)/8223790
Max. Acc. (gal)   8.281
Last Correction   2025/03/28 03:50:50
Memo.             
[...]
  -14458   -14474   -14458   -14459   -14482   -14462   -14443   -14478 
  -14492   -14457   -14447   -14466   -14473   -14474   -14465   -14455 
  -14480   -14476   -14435   -14461   -14496   -14455   -14439   -14485 
  -14488   -14446   -14453   -14493   -14477   -14442   -14473   -14497 
  -14463   -14440   -14459   -14492   -14485   -14447   -14454   -14493 
  -14472   -14442   -14480   -14490   -14455   -14455   -14477   -14476 
  -14451   -14447   -14482   -14484   -14450   -14454   -14469   -14461 
  -14467   -14469   -14458   -14465   -14473   -14481   -14473   -14453 
  -14469   -14478   -14459   -14463   -14466   -14451   -14476   -14486 
  -14457   -14457   -14466   -14480   -14488   -14449   -14454   -14496 
  -14466   -14451   -14485   -14457   -14455   -14504   -14459   -14435 
  -14496   -14472   -14439   -14480   -14474   -14467   -14484   -14472 
  -14462   -14438   -14453   -14513   -14477   -14435   -14476   -14477 
  -14459   -14458   -14467   -14486   -14467   -14462   -14472   -14451 
  -14462   -14496   -14486   -14447   -14438   -14476   -14485   -14461 
  -14470   -14469   -14454   -14476   -14467   -14445   -14473   -14485 
  -14461   -14457   -14462   -14465   -14474   -14484   -14463   -14436 
  -14467   -14490   -14459   -14450   -14467   -14478   -14470   -14454 
  -14463   -14461   -14457   -14485   -14473   -14447   -14458   -14470 
  -14486   -14472   -14457   -14485   -14455   -14435   -14497   -14488 
  -14438   -14465   -14484   -14449   -14451   -14485   -14472   -14443 
  -14466   -14489   -14457   -14447   -14493   -14473   -14435   -14484 
  -14488   -14435   -14449   -14485   -14484   -14462   -14443   -14466 
  -14489   -14453   -14457   -14497   -14458   -14442   -14494   -14480 
  -14442   -14466   -14481   -14463   -14457   -14473   -14472   -14447 
  -14461   -14478   -14474   -14485   -14458   -14434   -14477   -14485 
  -14447   -14461   -14478   -14462   -14477   -14482   -14434   -14445 
  -14499   -14474   -14449   -14467   -14459   -14457   -14480   -14474 
  -14463   -14462   -14466   -14476   -14465   -14462   -14473   -14472 
  -14467   -14467   -14470   -14463   -14457   -14474   -14478   -14449 
  -14454   -14493   -14466   -14439   -14488   -14478   -14436   -14467 
  -14488   -14466   -14443   -14458   -14489   -14477   -14461   -14443 
  -14455   -14499   -14472   -14454   -14477   -14454   -14458   -14489 
  -14480   -14458   -14459   -14469   -14466   -14480   -14488   -14453 
  -14450   -14474   -14476   -14476   -14462   -14461   -14477   -14467 
  -14458   -14462   -14476   -14474   -14455   -14477   -14477   -14440 
  -14461   -14490   -14478   -14454   -14455   -14473   -14458   -14474 
  -14504   -14454   -14434   -14482   -14489   -14463   -14454   -14472 
  -14477   -14451   -14466   -14485   -14461   -14465   -14473   -14459 
  -14473   -14480   -14459   -14461   -14467   -14465   -14470   -14462 
  -14457   -14480   -14473   -14436   -14462   -14503   -14472   -14450 
  -14457   -14467   -14486   -14463   -14454   -14478   -14470   -14462 
  -14470   -14473   -14461   -14440   -14465   -14497   -14477   -14451 
  -14461   -14467   -14457   -14470   -14484   -14461   -14451   -14474 
  -14485   -14463   -14454   -14476   -14470   -14457   -14463   -14466 
  -14477   -14474   -14454   -14470   -14477   -14451   -14462   -14469 
  -14463   -14480   -14470   -14463   -14466   -14450   -14484   -14489 
  -14439   -14457   -14482   -14474   -14476   -14454   -14454   -14485 
  -14482   -14458   -14459   -14474   -14463   -14469   -14481   -14449 
  -14451   -14476   -14470   -14465   -14458   -14481   -14481   -14434 
  -14457   -14488   -14474   -14469   -14463   -14469   -14465   -14446 
  -14482   -14507   -14451   -14431   -14486   -14489   -14440   -14463 
  -14488   -14459   -14465   -14474   -14463   -14467   -14469   -14474 
  -14474   -14462   -14461   -14469   -14486   -14472   -14442   -14469 
  -14480   -14454   -14469   -14480   -14473   -14469   -14453   -14459 
  -14469   -14465   -14473   -14466   -14457   -14466   -14458   -14459 
  -14484   -14476   -14446   -14453   -14485   -14478   -14454   -14459 
  -14477   -14466   -14449   -14477   -14489   -14445   -14450   -14490 
  -14459   -14442   -14485   -14476   -14442   -14467   -14478   -14451 
  -14461   -14484   -14462   -14447   -14474   -14481   -14465   -14459 
  -14453   -14463   -14482   -14473   -14463   -14457   -14447   -14473 
  -14481   -14461   -14469   -14467   -14455   -14461   -14473   -14482 
  -14466   -14462   -14467   -14457   -14472   -14466   -14450   -14478 
  -14488   -14465   -14451   -14461   -14484   -14474   -14459   -14477 
  -14466   -14442   -14477   -14492   -14446   -14453   -14488   -14473 
  -14451   -14453   -14478   -14485   -14462   -14476   -14486   -14476 
  -14480   -14488   -14500   -14459   -14409   -14474   -14513   -14458 
  -14459   -14488   -14484   -14494   -14508   -14496   -14455   -14434 
  -14434   -14409   -14427   -14470   -14439   -14434   -14499   -14481 
  -14405   -14435   -14463   -14355   -14339   -14473   -14496   -14505 
  -14608   -14588   -14523   -14584   -14623   -14544   -14450   -14404 
  -14330   -14280   -14427   -14620   -14638   -14600   -14602   -14598 
  -14582   -14469   -14328   -14392   -14427   -14237   -14202   -14351 
  -14382   -14424   -14492   -14445   -14389   -14319   -14328   -14523 
  -14594   -14577   -14632   -14531   -14407   -14413   -14355   -14369 
  -14405   -14168   -14104   -14513   -14797   -14870   -15060   -15051 
  -14775   -14642   -14547   -14357   -14327   -14303   -14014   -13805 
  -14004   -14395   -14631   -14639   -14571   -14526   -14523   -14627 
  -14631   -14305   -14165   -14535   -14627   -14316   -14415   -14628 
  -14415   -14280   -14314   -14170   -14150   -14447   -14743   -14863 
  -14743   -14419   -14222   -14266   -14396   -14611   -14750   -14617 
  -14494   -14584   -14737   -14783   -14462   -13991   -14096   -14598 
  -14756   -14720   -14802   -14674   -14301   -14172   -14326   -14326 
  -14251   -14405   -14454   -14261   -14269   -14438   -14423   -14338 
  -14316   -14233   -14262   -14609   -14850   -14825   -14890   -14902 
  -14613   -14173   -13933   -14227   -14723   -14759   -14431   -14291 
  -14501   -14833   -14994   -14751   -14181   -13948   -14374   -14717 
  -14720   -14886   -14871   -14435   -14318   -14453   -14073   -13410 
  -13103   -13235   -13805   -14647   -15275   -15514   -15419   -15060 
  -14696   -14422   -14191   -14115   -14237   -14562   -15013   -15141 
  -14763   -14435   -14515   -14473   -14035   -13825   -13851   -13698 
  -14048   -15144   -15727   -15241   -14607   -14512   -14648   -14553 
  -14170   -13791   -13860   -14353   -14709   -14632   -14195   -13782 
  -13972   -14605   -14851   -14658   -14747   -15121   -15265   -15075 
  -14625   -14056   -13533   -13257   -13605   -14355   -14706   -14647 
  -14721   -14814   -14632   -14458   -14377   -14121   -14000   -14434 
  -15067   -15364   -15325   -15191   -14831   -14193   -13736   -13578 
  -13560   -13771   -14013   -14204   -14728   -15372   -15749   -15938 
  -15726   -15121   -14581   -13857   -12943   -12762   -13379   -14071 
  -14632   -14887   -14694   -14413   -14237   -14107   -14108   -14280 
  -14673   -15124   -15261   -15082   -14697   -14281   -14142   -14037 
  -13802   -13941   -14366   -14597   -14917   -15425   -15603   -15402 
  -14978   -14322   -13871   -14011   -14418   -14624   -14547   -14493 
  -14646   -14550   -13909   -13383   -13566   -14037   -14349   -14665 
  -14945   -14955   -14833   -14598   -14143   -13736   -13672   -13902 
  -14238   -14717   -15300   -15604   -15526   -15133   -14384   -13764 
  -13698   -13991   -14527   -15036   -15113   -14817   -14281   -13779 
  -13666   -13763   -13887   -13994   -14100   -14463   -14843   -15101 
  -15587   -15882   -15681   -15271   -14559   -13792   -13435   -13386 
  -13643   -14129   -14526   -15064   -15588   -15169   -14202   -13809 
  -13807   -13825   -14041   -14407   -14828   -15129   -15029   -14701 
  -14534   -14503   -14431   -14426   -14629   -14874   -14947   -14920 
  -14688   -14008   -13286   -13099   -13473   -13998   -14358   -14754 
  -15083   -14783   -14238   -14218   -14327   -14123   -14226   -14810 
  -15192   -15095   -14724   -14451   -14354   -14025   -13763   -14118 
  -14562   -14746   -15022   -15223   -15083   -15006   -15265   -15344 
  -14998   -14775   -14654   -14328   -14184   -14045   -13555   -13450 
  -13851   -14129   -14453   -14736   -14512   -14220   -14299   -14547 
  -14733   -14673   -14478   -14499   -14546   -14269   -13973   -13979 
  -14158   -14447   -14814   -15076   -15049   -14681   -14218   -14085 
  -14251   -14173   -13807   -13632   -13734   -14011   -14397   -14678 
  -14802   -14754   -14438   -14042   -13788   -13792   -14200   -14858 
  -15495   -15942   -15881   -15414   -15010   -14532   -13830   -13417 
  -13525   -13945   -14689   -15483   -15815   -15705   -15172   -14403 
  -14175   -14403   -14350   -14249   -14412   -14416   -14092   -13803 
  -13744   -13641   -13425   -13649   -14428   -15125   -15527   -15784 
  -15707   -15209   -14503   -13828   -13379   -13197   -13329   -13713 
  -14108   -14700   -15367   -15298   -14720   -14488   -14413   -14250 
  -14220   -14135   -14000   -14270   -14843   -15325   -15565   -15392 
  -14940   -14619   -14450   -14364   -14447   -14472   -14342   -14382 
  -14440   -14200   -13986   -14129   -14546   -14868   -14679   -14184 
  -13888   -13863   -14030   -14220   -14193   -14108   -14239   -14593 
  -15094   -15412   -15325   -15284   -15471   -15403   -14897   -14158 
  -13554   -13336   -13286   -13259   -13405   -13743   -14227   -14682 
  -14829   -14686   -14432   -14310   -14440   -14623   -14675   -14497 
  -14296   -14443   -14553   -14349   -14423   -14877   -15269   -15601 
  -15870   -15758   -15125   -14295   -13770   -13351   -12772   -12853 
  -13833   -14602   -14926   -15273   -15365   -15244   -15307   -15175 
  -14670   -14372   -14399   -14284   -14025   -13988   -14130   -14338 
  -14571   -14432   -13953   -13701   -13822   -14145   -14542   -14817 
  -14785   -14565   -14415   -14278   -13984   -13660   -13610   -13938 
  -14449   -14931   -15097   -14829   -14692   -14894   -14850   -14544 
  -14534   -14670   -14573   -14782   -15431   -15476   -14986   -14924 
  -14874   -14173   -13414   -13370   -13819   -14162   -14424   -14766 
  -14941   -14794   -14482   -14134   -13683   -13406   -13734   -14237 
  -14436   -14736   -15267   -15531   -15384   -15199   -15245   -15199 
  -14800   -14477   -14489   -14589   -14721   -14864   -14700   -14200 
  -13738   -13386   -13265   -13745   -14392   -14478   -14272   -14315 
  -14432   -14276   -13946   -13663   -13552   -13767   -14183   -14594 
  -15079   -15491   -15520   -15255   -14894   -14519   -14177   -13884 
  -13926   -14450   -14939   -15159   -15234   -14886   -14351   -14200 
  -14089   -13802   -13807   -14045   -14106   -14152   -14527   -15037 
  -15222   -15036   -14759   -14422   -14014   -13915   -14227   -14512 
  -14611   -14685   -14721   -14727   -14654   -14332   -14013   -13948 
  -14042   -14470   -15160   -15499   -15406   -15203   -14805   -14183 
  -13672   -13436   -13428   -13621   -13969   -14413   -14821   -15003 
  -14886   -14632   -14366   -14022   -13707   -13637   -13872   -14424 
  -15075   -15400   -15341   -15183   -15024   -14802   -14574   -14401 
  -14316   -14397   -14617   -14783   -14814   -14724   -14388   -13899 
  -13549   -13343   -13401   -13838   -14207   -14439   -14737   -14783 
  -14715   -14746   -14400   -13844   -13609   -13579   -13748   -14212 
  -14688   -14933   -14960   -14828   -14629   -14440   -14299   -14288 
  -14474   -14929   -15588   -16110   -16235   -15965   -15665   -15801 
  -15992   -15576   -14844   -14256   -13853   -13863   -14180   -14243 
  -14103   -13983   -13622   -13155   -13100   -13566   -14270   -14791 
  -15030   -15213   -15256   -15048   -14698   -14089   -13185   -12409 
  -12044   -12006   -12232   -12609   -12970   -13356   -13717   -13942 
  -14206   -14513   -14497   -14015   -13444   -13265   -13585   -14335 
  -15577   -17188   -18677   -19599   -19877   -19639   -18914   -17766 
  -16502   -15442   -14740   -14416   -14345   -14281   -13949   -13208 
  -12168   -11115   -10353   -10131   -10760   -12421   -14565   -16127 
  -16787   -17077   -17282   -17378   -17394   -17074   -16187   -15013 
  -13892   -13123   -13000   -13433   -14015   -14385   -14409   -14129 
  -13678   -13344   -13217   -12915   -12167   -11399   -11199   -11354 
  -11367   -11452   -11719   -11695   -11504   -11684   -12097   -12479 
  -12964   -13483   -13845   -14200   -14805   -15757   -17032   -18495 
  -19892   -20738   -20695   -20210   -19732   -19101   -18326   -17446 
  -16214   -14778   -13680   -13244   -13305   -13524   -13764   -13853 
  -13618   -13250   -12901   -12368   -11666   -11191   -11219   -11875 
  -13019   -14150   -14908   -15202   -15021   -14440   -13629   -12999 
  -12943   -13451   -14411   -15685   -16868   -17493   -17254   -16352 
  -15406   -14540   -13589   -12888   -12703   -12846   -13320   -14080 
  -14609   -14794   -15041   -15148   -14581   -13473   -12239   -11094 
  -10486   -11074   -12907   -15097   -16698   -17612   -18138   -18268 
  -18110   -18044   -18044   -17836   -17508   -17123   -16482   -15808 
  -15628   -15900   -16291   -16686   -16815   -16374   -15338   -13660 
  -11429    -9262    -7608    -6416    -5786    -6010    -7057    -8544 
  -10093   -11380   -12197   -12717   -13225   -13861   -14674   -15691 
  -17054   -18750   -20385   -21536   -21870   -21149   -19604   -17891 
  -16372   -15129   -14539   -14720   -15082   -15061   -14531   -13760 
  -13119   -12619   -12253   -12275   -12625   -13090   -13784   -14758 
  -15651   -16102   -16110   -15727   -14856   -13633   -12544   -12036 
  -12073   -12413   -13039   -13894   -14751   -15525   -16274   -16889 
  -17216   -17346   -17305   -16843   -15817   -14396   -12891   -11554 
  -10602   -10174   -10185   -10557   -11334   -12447   -13485   -14026 
  -14149   -14268   -14751   -15782   -17012   -17744   -17652   -16849 
  -15588   -14229   -13158   -12567   -12457   -12877   -13859   -15225 
  -16664   -17884   -18731   -19122   -18928   -18122   -16889   -15491 
  -14145   -13089   -12565   -12523   -12765   -13234   -13747   -14149 
  -14538   -14802   -14561   -13702   -12653   -11780   -11036   -10471 
  -10273   -10417   -10881   -11766   -12884   -13815   -14559   -15336 
  -16006   -16510   -17123   -17841   -18295   -18360   -18180   -17833 
  -17427   -17147   -17085   -17199   -17193   -16660   -15547   -14110 
  -12541   -11053    -9914    -9270    -9171    -9636   -10544   -11681 
  -12958   -14335   -15504   -16081   -16135   -16020   -15869   -15608 
  -15221   -14760   -14268   -13895   -13707   -13522   -13467   -13911 
  -14729   -15520   -16086   -16322   -16264   -16112   -15958   -15678 
  -15187   -14697   -14332   -14030   -13996   -14347   -14681   -14571 
  -13977   -13142   -12371   -11931   -12027   -12619   -13481   -14451 
  -15349   -15954   -16262   -16305   -16100   -15865   -15630   -15194 
  -14665   -14359   -14273   -14145   -14050   -14210   -14516   -14875 
  -15295   -15653   -15622   -14970   -13969   -12993   -12175   -11658 
  -11588   -11950   -12505   -13072   -13782   -14682   -15415   -15777 
  -16021   -16214   -16170   -15927   -15773   -15831   -15840   -15678 
  -15529   -15334   -15103   -15184   -15634   -16093   -16212   -15850 
  -15114   -14272   -13560   -13077   -12733   -12413   -12108   -11915 
  -11931   -12016   -12046   -12252   -12818   -13487   -14023   -14602 
  -15341   -15959   -16255   -16225   -15855   -15336   -14945   -14602 
  -14060   -13286   -12476   -12023   -12150   -12611   -13174   -13813 
  -14320   -14554   -14778   -15132   -15426   -15614   -15804   -15984 
  -16040   -15961   -15931   -16016   -16105   -16282   -16621   -17041 
  -17508   -17988   -18319   -18289   -17853   -17101   -16137   -15230 
  -14644   -14331   -14052   -13612   -12903   -11770   -10192    -8518 
   -7252    -6720    -6939    -7749    -8911   -10007   -10708   -11053 
  -11315   -11786   -12579   -13717   -15183   -16703   -18088   -19348 
  -20281   -20664   -20559   -20239   -19921   -19514   -18924   -18156 
  -17197   -16260   -15480   -14721   -14060   -13652   -13315   -12830 
  -12266   -11830   -11731   -12029   -12642   -13471   -14289   -14825 
  -15059   -15130   -15134   -15037   -14837   -14727   -14764   -14835 
  -14840   -14559   -13909   -13139   -12582   -12464   -12719   -13180 
  -13690   -13990   -14102   -14098   -13790   -13298   -12972   -12991 
  -13323   -13751   -14165   -14507   -14634   -14666   -14806   -14966 
  -15152   -15520   -15894   -16077   -16146   -16075   -15867   -15785 
  -15938   -16155   -16240   -16092   -15743   -15283   -14835   -14482 
  -14224   -14152   -14276   -14395   -14455   -14504   -14461   -14331 
  -14089   -13653   -13225   -13074   -13215   -13463   -13620   -13736 
  -13887   -13902   -13799   -13788   -13803   -13748   -13778   -13976 
  -14148   -14030   -13657   -13304   -13003   -12696   -12588   -12783 
  -13119   -13522   -14102   -14862   -15619   -16210   -16630   -16916 
  -17042   -16992   -16853   -16700   -16532   -16393   -16348   -16367 
  -16318   -16110   -15781   -15283   -14578   -13869   -13343   -13068 
  -13036   -13046   -12966   -12893   -12845   -12827   -12982   -13259 
  -13462   -13610   -13721   -13778   -13973   -14339   -14713   -15094 
  -15452   -15707   -15898   -15901   -15402   -14472   -13437   -12515 
  -11977   -11952   -12245   -12663   -13155   -13757   -14424   -15057 
  -15661   -16117   -16324   -16345   -16067   -15444   -14802   -14297 
  -13826   -13510   -13514   -13710   -13942   -14238   -14594   -14874 
  -15083   -15354   -15550   -15537   -15456   -15392   -15268   -15107 
  -14994   -14832   -14590   -14434   -14364   -14361   -14536   -14778 
  -14966   -15147   -15223   -15156   -15059   -14894   -14640   -14419 
  -14231   -13996   -13718   -13454   -13292   -13316   -13473   -13595 
  -13586   -13501   -13471   -13529   -13635   -13906   -14345   -14705 
  -14913   -14985   -14839   -14488   -14079   -13778   -13595   -13494 
  -13564   -13822   -14230   -14804   -15402   -15878   -16275   -16642 
  -16908   -17030   -17059   -16996   -16812   -16456   -15790   -14835 
  -13871   -13149   -12712   -12546   -12552   -12556   -12569   -12658 
  -12734   -12791   -12924   -13182   -13502   -13774   -13959   -13992 
  -13915   -13899   -13868   -13729   -13662   -13761   -13919   -14104 
  -14376   -14578   -14577   -14586   -14762   -15047   -15406   -15790 
  -16221   -16634   -16792   -16781   -16922   -17197   -17348   -17307 
  -17172   -16958   -16605   -16063   -15419   -14854   -14312   -13699 
  -13100   -12475   -11715   -10916   -10295    -9991    -9991   -10246 
  -10687   -11199   -11734   -12347   -13092   -13929   -14744   -15519 
  -16297   -17000   -17477   -17686   -17706   -17612   -17420   -17140 
  -16858   -16692   -16528   -16173   -15668   -15114   -14490   -13702 
  -12815   -12110   -11677   -11425   -11354   -11476   -11782   -12245 
  -12760   -13151   -13321   -13417   -13605   -13969   -14607   -15333 
