Origin Time       2025/03/28 03:50:00
Lat.              35.403
Long.             140.360
Depth. (km)       54
Mag.              4.4
Station Code      CHB022
Station Lat.      35.3033
Station Long.     139.8555
Station Height(m) 12
Record Time       2025/03/28 03:50:59
Sampling Freq(Hz) 100Hz
Duration Time(s)  60
Dir.              N-S
Scale Factor      7845(gal)/8223790
Max. Acc. (gal)   5.841
Last Correction   2025/03/28 03:50:58
Memo.             
[...]
  -12572   -12561   -12550   -12573   -12571   -12560   -12560   -12541 
  -12544   -12565   -12575   -12584   -12579   -12563   -12569   -12569 
  -12555   -12550   -12560   -12571   -12571   -12569   -12567   -12561 
  -12559   -12556   -12550   -12550   -12552   -12553   -12556   -12563 
  -12573   -12576   -12560   -12555   -12567   -12565   -12555   -12563 
  -12571   -12565   -12573   -12579   -12557   -12545   -12560   -12568 
  -12563   -12563   -12561   -12568   -12584   -12573   -12567   -12577 
  -12567   -12559   -12571   -12567   -12561   -12563   -12561   -12559 
  -12552   -12555   -12565   -12565   -12563   -12567   -12564   -12559 
  -12556   -12563   -12576   -12573   -12564   -12571   -12568   -12557 
  -12557   -12556   -12557   -12568   -12556   -12545   -12560   -12569 
  -12571   -12580   -12577   -12556   -12553   -12567   -12564   -12560 
  -12559   -12553   -12565   -12577   -12563   -12555   -12563   -12561 
  -12563   -12572   -12563   -12553   -12564   -12571   -12561   -12557 
  -12563   -12563   -12563   -12553   -12548   -12567   -12572   -12568 
  -12579   -12577   -12569   -12568   -12560   -12555   -12563   -12563 
  -12560   -12568   -12565   -12553   -12560   -12573   -12572   -12567 
  -12559   -12556   -12568   -12572   -12559   -12559   -12559   -12546 
  -12553   -12564   -12563   -12569   -12567   -12557   -12567   -12576 
  -12569   -12564   -12565   -12565   -12560   -12559   -12561   -12560 
  -12556   -12556   -12555   -12553   -12560   -12571   -12575   -12572 
  -12565   -12555   -12549   -12559   -12571   -12569   -12561   -12560 
  -12556   -12556   -12565   -12565   -12565   -12569   -12567   -12560 
  -12549   -12559   -12569   -12545   -12541   -12555   -12541   -12536 
  -12548   -12555   -12556   -12556   -12561   -12568   -12569   -12575 
  -12569   -12550   -12559   -12576   -12565   -12548   -12556   -12565 
  -12561   -12567   -12579   -12580   -12568   -12555   -12541   -12533 
  -12549   -12571   -12567   -12567   -12568   -12552   -12550   -12556 
  -12549   -12556   -12563   -12561   -12571   -12565   -12557   -12564 
  -12563   -12559   -12567   -12576   -12576   -12567   -12557   -12555 
  -12556   -12568   -12587   -12584   -12563   -12560   -12569   -12565 
  -12553   -12561   -12576   -12568   -12550   -12548   -12555   -12561 
  -12575   -12577   -12563   -12557   -12559   -12557   -12559   -12563 
  -12569   -12582   -12591   -12582   -12563   -12565   -12568   -12557 
  -12559   -12568   -12569   -12568   -12575   -12575   -12561   -12555 
  -12561   -12561   -12561   -12563   -12565   -12573   -12568   -12552 
  -12548   -12552   -12557   -12560   -12555   -12549   -12553   -12567 
  -12583   -12590   -12580   -12567   -12561   -12560   -12563   -12572 
  -12580   -12573   -12559   -12552   -12555   -12557   -12559   -12564 
  -12561   -12552   -12555   -12564   -12573   -12580   -12571   -12553 
  -12556   -12568   -12572   -12577   -12582   -12573   -12559   -12552 
  -12556   -12559   -12559   -12561   -12555   -12541   -12541   -12555 
  -12568   -12577   -12571   -12555   -12553   -12564   -12567   -12568 
  -12573   -12571   -12559   -12545   -12545   -12563   -12576   -12569 
  -12555   -12546   -12560   -12577   -12577   -12571   -12561   -12552 
  -12541   -12537   -12553   -12564   -12552   -12549   -12553   -12548 
  -12546   -12550   -12561   -12577   -12569   -12546   -12556   -12577 
  -12584   -12587   -12584   -12565   -12542   -12536   -12549   -12568 
  -12567   -12553   -12545   -12540   -12542   -12561   -12577   -12565 
  -12553   -12561   -12569   -12568   -12567   -12567   -12560   -12553 
  -12552   -12563   -12577   -12592   -12594   -12572   -12553   -12548 
  -12548   -12560   -12569   -12565   -12563   -12556   -12555   -12564 
  -12565   -12559   -12559   -12555   -12555   -12565   -12568   -12564 
  -12560   -12561   -12573   -12580   -12573   -12577   -12569   -12546 
  -12549   -12563   -12572   -12576   -12567   -12552   -12548   -12553 
  -12567   -12572   -12560   -12544   -12549   -12563   -12553   -12540 
  -12553   -12565   -12561   -12564   -12571   -12567   -12568   -12579 
  -12579   -12573   -12577   -12576   -12568   -12572   -12576   -12563 
  -12563   -12575   -12569   -12563   -12564   -12555   -12550   -12552 
  -12550   -12555   -12561   -12571   -12579   -12568   -12564   -12575 
  -12576   -12573   -12576   -12571   -12560   -12555   -12553   -12555 
  -12565   -12575   -12568   -12565   -12565   -12556   -12563   -12579 
  -12580   -12588   -12594   -12580   -12577   -12586   -12595   -12595 
  -12563   -12522   -12517   -12530   -12534   -12523   -12521   -12533 
  -12556   -12587   -12609   -12615   -12606   -12588   -12594   -12617 
  -12609   -12577   -12545   -12505   -12488   -12484   -12453   -12440 
  -12471   -12514   -12565   -12613   -12642   -12680   -12723   -12725 
  -12646   -12538   -12486   -12501   -12526   -12507   -12468   -12475 
  -12518   -12544   -12525   -12472   -12457   -12565   -12730   -12796 
  -12760   -12726   -12721   -12668   -12494   -12266   -12177   -12274 
  -12414   -12480   -12528   -12676   -12842   -12834   -12672   -12522 
  -12476   -12545   -12622   -12610   -12591   -12618   -12594   -12517 
  -12474   -12461   -12463   -12519   -12630   -12715   -12700   -12596 
  -12506   -12480   -12426   -12312   -12270   -12394   -12576   -12641 
  -12640   -12734   -12887   -12942   -12812   -12540   -12314   -12276 
  -12363   -12469   -12563   -12629   -12642   -12602   -12522   -12429 
  -12422   -12598   -12835   -12899   -12752   -12569   -12494   -12498 
  -12479   -12424   -12386   -12378   -12393   -12409   -12394   -12414 
  -12579   -12784   -12856   -12811   -12765   -12769   -12796   -12784 
  -12690   -12526   -12368   -12241   -12189   -12287   -12482   -12626 
  -12660   -12609   -12560   -12588   -12640   -12587   -12482   -12490 
  -12575   -12622   -12638   -12646   -12664   -12681   -12687   -12669 
  -12533   -12333   -12260   -12317   -12406   -12517   -12615   -12636 
  -12652   -12734   -12773   -12719   -12664   -12606   -12513   -12434 
  -12444   -12563   -12660   -12614   -12441   -12262   -12252   -12405 
  -12511   -12565   -12711   -12907   -12991   -12858   -12592   -12459 
  -12495   -12511   -12536   -12625   -12652   -12607   -12571   -12521 
  -12424   -12298   -12243   -12325   -12437   -12499   -12598   -12749 
  -12845   -12852   -12841   -12845   -12800   -12683   -12577   -12529 
  -12533   -12569   -12542   -12411   -12243   -12070   -11919   -11886 
  -12051   -12432   -12915   -13254   -13431   -13587   -13579   -13211 
  -12609   -12016   -11607   -11462   -11518   -11684   -11951   -12339 
  -12783   -13142   -13382   -13533   -13509   -13277   -12954   -12656 
  -12445   -12283   -12073   -11832   -11646   -11584   -11769   -12244 
  -12795   -13171   -13354   -13440   -13386   -13096   -12706   -12433 
  -12306   -12278   -12344   -12502   -12707   -12804   -12672   -12456 
  -12322   -12163   -11929   -11848   -12082   -12487   -12771   -12810 
  -12761   -12798   -12845   -12775   -12672   -12702   -12852   -13000 
  -13069   -13009   -12789   -12469   -12185   -12010   -11932   -11934 
  -12027   -12195   -12375   -12517   -12619   -12679   -12723   -12835 
  -12947   -12919   -12823   -12796   -12796   -12750   -12690   -12638 
  -12603   -12550   -12359   -12071   -11936   -12044   -12280   -12502 
  -12637   -12719   -12831   -12985   -13073   -13022   -12931   -12866 
  -12729   -12478   -12226   -12089   -12074   -12156   -12287   -12372 
  -12393   -12356   -12266   -12301   -12600   -13022   -13331   -13369 
  -13150   -12900   -12769   -12657   -12438   -12166   -11950   -11862 
  -11932   -12077   -12233   -12442   -12702   -12891   -12951   -13030 
  -13216   -13302   -13146   -12885   -12700   -12573   -12348   -12017 
  -11776   -11713   -11754   -11873   -12123   -12507   -12923   -13189 
  -13225   -13124   -12966   -12779   -12672   -12690   -12658   -12488 
  -12347   -12339   -12349   -12314   -12332   -12455   -12656   -12896 
  -13077   -13134   -13086   -12922   -12631   -12320   -12087   -11942 
  -11831   -11711   -11646   -11805   -12218   -12684   -13042   -13266 
  -13328   -13250   -13108   -12916   -12719   -12604   -12526   -12372 
  -12166   -12063   -12150   -12388   -12704   -13005   -13198   -13232 
  -13139   -13003   -12870   -12734   -12538   -12217   -11823   -11578 
  -11618   -11762   -11839   -11917   -12089   -12382   -12837   -13367 
  -13803   -14061   -14053   -13639   -12880   -12116   -11637   -11493 
  -11630   -11902   -12091   -12190   -12325   -12438   -12456   -12488 
  -12631   -12850   -13051   -13153   -13184   -13209   -13150   -12896 
  -12556   -12310   -12178   -12091   -12063   -12177   -12468   -12818 
  -13035   -13030   -12834   -12569   -12333   -12151   -12064   -12075 
  -12105   -12135   -12221   -12403   -12673   -12961   -13153   -13246 
  -13351   -13446   -13350   -13022   -12613   -12262   -12001   -11859 
  -11898   -12132   -12401   -12515   -12482   -12409   -12355   -12333 
  -12293   -12204   -12198   -12384   -12627   -12799   -13019   -13288 
  -13366   -13158   -12784   -12391   -12143   -12143   -12290   -12397 
  -12409   -12407   -12506   -12731   -12939   -12985   -12907   -12798 
  -12698   -12622   -12583   -12517   -12340   -12137   -12070   -12166 
  -12363   -12568   -12727   -12864   -13004   -13086   -12992   -12753 
  -12568   -12502   -12449   -12343   -12186   -12040   -11993   -12048 
  -12158   -12322   -12536   -12742   -12951   -13153   -13234   -13169 
  -13086   -13015   -12826   -12486   -12124   -11915   -11932   -12056 
  -12172   -12324   -12498   -12553   -12415   -12222   -12208   -12429 
  -12733   -12947   -13030   -13070   -13143   -13209   -13188   -13045 
  -12850   -12641   -12351   -12042   -11866   -11835   -11931   -12139 
  -12312   -12325   -12262   -12352   -12654   -12970   -13211   -13436 
  -13595   -13551   -13240   -12752   -12274   -11955   -11800   -11709 
  -11678   -11828   -12121   -12398   -12610   -12688   -12622   -12587 
  -12604   -12587   -12645   -12881   -13188   -13369   -13259   -12937 
  -12672   -12600   -12622   -12587   -12513   -12517   -12510   -12309 
  -11965   -11711   -11709   -11877   -12001   -12094   -12378   -12885 
  -13360   -13556   -13456   -13217   -13019   -12883   -12712   -12513 
  -12359   -12266   -12179   -12059   -11963   -11988   -12128   -12328 
  -12544   -12764   -13022   -13247   -13308   -13208   -13005   -12748 
  -12464   -12140   -11909   -11986   -12287   -12553   -12690   -12700 
  -12613   -12476   -12306   -12133   -12073   -12137   -12229   -12363 
  -12611   -12934   -13279   -13591   -13767   -13682   -13251   -12614 
  -12081   -11821   -11811   -11929   -12056   -12147   -12195   -12270 
  -12492   -12760   -12884   -12922   -12942   -12842   -12634   -12463 
  -12384   -12298   -12145   -12010   -12006   -12195   -12594   -13061 
  -13383   -13497   -13374   -12985   -12509   -12208   -12120   -12108 
  -12066   -11994   -12002   -12208   -12545   -12866   -13153   -13404 
  -13551   -13524   -13305   -12977   -12604   -12209   -11848   -11554 
  -11431   -11564   -11790   -11962   -12123   -12341   -12657   -13031 
  -13336   -13547   -13718   -13768   -13508   -12920   -12224   -11622 
  -11214   -11078   -11237   -11608   -12073   -12553   -12999   -13305 
  -13383   -13282   -13089   -12912   -12853   -12839   -12722   -12523 
  -12391   -12410   -12501   -12486   -12347   -12240   -12279   -12421 
  -12565   -12691   -12825   -12939   -12981   -12970   -12972   -12938 
  -12803   -12667   -12609   -12465   -12114   -11716   -11503   -11539 
  -11742   -12004   -12332   -12804   -13437   -14045   -14335   -14242 
  -13895   -13333   -12617   -11985   -11576   -11384   -11460   -11742 
  -12017   -12163   -12190   -12201   -12340   -12587   -12787   -12879 
  -12892   -12853   -12745   -12526   -12244   -12028   -11988   -12159 
  -12468   -12776   -13012   -13236   -13420   -13379   -13157   -13011 
  -12958   -12811   -12584   -12433   -12299   -12025   -11703   -11529 
  -11485   -11480   -11639   -12083   -12614   -12923   -12895   -12630 
  -12303   -11961   -11550   -11165   -10972   -10971   -11159   -11626 
  -12259   -12757   -13070   -13400   -13813   -14208   -14527   -14773 
  -14909   -14860   -14642   -14455   -14493   -14682   -14839   -14877 
  -14710   -14318   -13775   -13055   -12152   -11163   -10118    -9065 
   -8225    -7852    -7996    -8538    -9398   -10478   -11587   -12579 
  -13404   -14013   -14366   -14484   -14409   -14184   -13803   -13315 
  -12937   -12850   -12976   -13147   -13365   -13639   -13882   -14050 
  -14094   -13896   -13485   -13054   -12677   -12182   -11410   -10486 
   -9620    -8868    -8249    -7867    -7908    -8515    -9644   -11087 
  -12580   -13921   -15021   -15984   -16919   -17674   -17980   -17775 
  -17298   -16777   -16158   -15373   -14412   -13277   -12144   -11128 
  -10224    -9490    -8874    -8437    -8460    -8982    -9803   -10781 
  -11858   -13012   -14069   -14737   -14872   -14503   -13842   -13169 
  -12555   -12033   -11646   -11246   -10754   -10265    -9941   -10015 
  -10582   -11437   -12236   -12826   -13466   -14368   -15329   -16100 
  -16498   -16228   -15213   -13767   -12206   -10660    -9317    -8461 
   -8247    -8714    -9799   -11207   -12749   -14470   -16228   -17667 
  -18528   -18543   -17458   -15657   -13756   -11665    -9321    -7454 
   -6578    -6439    -6925    -8108    -9630   -11182   -12723   -14115 
  -15264   -16154   -16617   -16568   -16240   -15709   -14648   -13112 
  -11711   -10751   -10250   -10152   -10108    -9850    -9572    -9586 
   -9967   -10720   -11794   -12996   -14287   -15773   -17243   -18153 
  -18077   -17008   -15242   -13139   -10989    -9097    -7758    -7194 
   -7605    -8891   -10629   -12451   -14064   -15206   -15776   -15822 
  -15377   -14544   -13608   -12845   -12320   -11986   -11811   -11665 
  -11357   -10885   -10357    -9961   -10017   -10623   -11550   -12582 
  -13571   -14342   -14770   -14877   -14771   -14507   -14087   -13548 
  -12955   -12469   -12226   -12189   -12241   -12287   -12278   -12185 
  -11956   -11662   -11407   -11218   -11156   -11276   -11562   -11988 
  -12571   -13354   -14234   -15018   -15596   -15788   -15491   -14845 
  -13999   -13093   -12305   -11654   -11026   -10331    -9579    -8943 
   -8703    -8962    -9570   -10358   -11307   -12417   -13560   -14573 
  -15369   -15903   -16089   -15862   -15210   -14207   -13140   -12379 
  -12028   -11944   -11956   -11966   -11965   -11958   -11913   -11854 
  -11797   -11659   -11349   -10905   -10524   -10431   -10638   -11049 
  -11653   -12370   -13035   -13556   -13894   -14042   -14038   -13883 
  -13562   -13120   -12717   -12518   -12536   -12669   -12853   -13077 
  -13336   -13659   -14018   -14292   -14423   -14292   -13664   -12555 
  -11294   -10299    -9817    -9811   -10189   -10867   -11763   -12820 
  -13915   -14867   -15457   -15515   -15043   -14027   -12540   -11003 
   -9730    -8638    -7897    -7839    -8519    -9861   -11551   -13293 
  -14894   -16102   -16946   -17393   -17132   -16173   -14770   -13151 
  -11701   -10690   -10015    -9643    -9632    -9953   -10585   -11375 
  -12113   -12542   -12569   -12614   -12955   -13501   -14238   -15045 
  -15631   -15777   -15415   -14682   -13825   -13049   -12417   -11828 
  -11232   -10733   -10436   -10343   -10384   -10462   -10463   -10384 
  -10389   -10632   -11165   -12052   -13244   -14435   -15300   -15726 
  -15660   -15097   -14239   -13347   -12573   -12033   -11703   -11398 
  -11026   -10759   -10777   -11014   -11349   -11730   -12143   -12680 
  -13406   -14169   -14763   -15178   -15429   -15479   -15365   -15055 
  -14415   -13431   -12221   -10972    -9853    -9020    -8626    -8662 
   -8980    -9467   -10058   -10774   -11682   -12735   -13834   -14893 
  -15704   -16028   -15789   -15087   -14114   -13096   -12208   -11510 
  -11041   -10821   -10809   -11020   -11466   -12087   -12773   -13381 
  -13805   -14034   -14064   -13964   -13902   -13911   -13884   -13763 
  -13547   -13207   -12756   -12256   -11731   -11219   -10790   -10493 
  -10390   -10519   -10855   -11326   -11770   -12097   -12425   -12802 
  -13123   -13246   -13043   -12536   -11935   -11480   -11357   -11649 
  -12258   -12964   -13610   -14164   -14638   -15083   -15442   -15465 
  -15044   -14343   -13506   -12563   -11601   -10832   -10444   -10505 
  -10964   -11682   -12464   -13080   -13342   -13230   -12881   -12476 
  -12113   -11762   -11412   -11133   -10982   -10987   -11088   -11265 
  -11645   -12263   -12982   -13625   -14018   -14170   -14204   -14118 
  -13941   -13805   -13725   -13629   -13443   -13171   -12911   -12672 
  -12394   -12043   -11581   -11068   -10696   -10588   -10751   -11155 
  -11719   -12295   -12726   -12985   -13169   -13293   -13324   -13207 
  -12896   -12507   -12162   -11878   -11693   -11670   -11835   -12105 
  -12364   -12595   -12815   -13073   -13396   -13717   -13980   -14071 
  -13852   -13394   -12858   -12352   -11982   -11835   -11966   -12289 
  -12582   -12673   -12507   -12221   -12047   -12002   -11979   -11952 
  -11929   -11919   -11961   -12158   -12618   -13290   -13992   -14524 
  -14748   -14655   -14262   -13558   -12602   -11581   -10767   -10374 
  -10411   -10768   -11327   -11971   -12615   -13198   -13651   -13953 
  -14137   -14187   -14091   -13922   -13729   -13425   -12899   -12151 
  -11325   -10629   -10220   -10085   -10125   -10347   -10787   -11394 
  -12035   -12613   -13136   -13579   -13829   -13863   -13770   -13629 
  -13455   -13231   -12914   -12479   -12021   -11720   -11697   -11963 
  -12491   -13190   -13873   -14373   -14612   -14625   -14458   -14083 
  -13508   -12845   -12239   -11776   -11445   -11230   -11129   -11099 
  -11119   -11192   -11307   -11488   -11718   -11943   -12163   -12352 
  -12479   -12604   -12723   -12800   -12887   -12988   -13089   -13198 
  -13221   -13063   -12723   -12255   -11813   -11568   -11599   -11924 
  -12465   -13049   -13517   -13772   -13784   -13625   -13396   -13142 
  -12903   -12745   -12718   -12818   -12964   -13045   -13011   -12897 
  -12765   -12623   -12453   -12293   -12183   -12108   -12046   -11967 
  -11857   -11720   -11554   -11403   -11380   -11545   -11898   -12380 
  -12865   -13192   -13212   -13012   -12847   -12815   -12922   -13190 
  -13537   -13834   -14015   -14080   -14031   -13848   -13520   -13020 
  -12384   -11745   -11167   -10665   -10284   -10064   -10029   -10165 
  -10423   -10790   -11283   -11874   -12556   -13312   -14053   -14677 
  -15122   -15364   -15354   -15028   -14407   -13645   -12904   -12260 
  -11769   -11461   -11356   -11445   -11626   -11799   -12008   -12287 
  -12546   -12725   -12785   -12626   -12228   -11693   -11137   -10723 
  -10604   -10816   -11346   -12155   -13074   -13871   -14388   -14555 
  -14384   -13953   -13405   -12885   -12474   -12183   -12036   -12077 
  -12310   -12694   -13131   -13521   -13845   -14092   -14184   -14050 
  -13666   -13073   -12403   -11767   -11257   -10976   -10932   -11044 
  -11271   -11677   -12267   -12872   -13347   -13574   -13435   -13023 
  -12483   -11915   -11484   -11287   -11322   -11549   -11884   -12274 
