Origin Time       2025/03/28 03:50:00
Lat.              35.403
Long.             140.360
Depth. (km)       54
Mag.              4.4
Station Code      CHB011
Station Lat.      35.5877
Station Long.     140.4971
Station Height(m) 2
Record Time       2025/03/28 03:50:55
Sampling Freq(Hz) 100Hz
Duration Time(s)  67
Dir.              E-W
Scale Factor      7845(gal)/8223790
Max. Acc. (gal)   13.494
Last Correction   2025/03/28 03:50:54
Memo.             
[...]
     756      770      783      788      792      777      756      757 
     772      791      797      785      783      776      764      783 
     791      772      776      789      773      751      774      804 
     783      756      769      788      789      776      758      765 
     776      772      762      758      772      793      783      769 
     776      770      758      769      787      785      765      746 
     750      778      789      773      774      796      781      746 
     769      797      774      772      787      765      747      766 
     787      793      780      758      772      797      777      753 
     776      793      769      773      805      788      750      774 
     796      760      760      807      792      756      777      795 
     765      758      799      810      768      753      777      789 
     792      785      756      754      800      818      785      762 
     772      784      781      788      796      774      757      768 
     787      788      777      792      796      754      745      781 
     784      765      792      811      761      737      778      797 
     778      770      772      764      765      792      801      780 
     773      766      751      768      789      789      785      780 
     772      774      777      768      764      784      796      781 
     780      791      781      781      797      774      761      789 
     791      777      787      787      776      776      787      789 
     789      803      791      772      784      785      773      778 
     793      801      787      765      778      787      770      783 
     780      750      777      805      769      754      770      770 
     787      804      783      750      754      796      805      764 
     766      792      762      757      811      823      773      754 
     781      792      773      764      783      789      766      754 
     768      777      774      778      788      777      762      765 
     776      791      780      751      758      778      776      781 
     784      772      774      778      776      785      783      776 
     781      778      774      762      766      800      791      762 
     773      783      781      777      769      777      781      773 
     777      783      777      773      776      778      781      787 
     784      778      772      751      758      789      789      787 
     791      780      780      770      751      769      799      799 
     778      760      761      778      797      795      772      762 
     772      774      778      778      772      774      774      768 
     770      778      777      777      781      762      739      750 
     781      796      783      754      746      772      792      787 
     774      756      751      772      780      778      777      761 
     751      768      769      757      766      780      774      766 
     761      760      770      778      774      760      749      764 
     787      769      754      777      784      773      781      783 
     762      762      778      783      777      769      765      774 
     784      777      776      793      796      774      764      780 
     795      778      753      769      787      765      773      811 
     799      770      770      777      783      780      776      780 
     781      776      774      781      792      789      781      785 
     783      776      783      791      778      766      770      780 
     785      785      788      797      789      762      754      768 
     778      796      795      762      754      772      783      793 
     789      778      781      784      787      789      781      777 
     777      761      750      777      799      778      770      781 
     769      761      774      787      787      787      783      773 
     774      784      783      773      768      774      784      776 
     766      777      792      785      783      799      801      783 
     773      788      787      766      777      796      789      780 
     772      773      787      780      761      764      772      772 
     772      788      792      768      768      796      795      772 
     766      778      778      772      778      791      796      785 
     770      777      784      772      776      788      773      761 
     768      772      769      773      788      791      764      756 
     787      797      781      780      766      743      765      795 
     784      778      784      769      777      803      795      774 
     770      770      772      777      774      770      773      776 
     764      753      768      787      791      777      764      756 
     747      762      787      781      773      773      766      766 
     784      797      778      768      780      770      765      791 
     788      760      766      787      780      774      773      769 
     784      792      772      761      776      780      770      772 
     776      776      778      780      781      784      778      778 
     783      772      766      777      783      784      784      781 
     777      777      781      785      778      766      776      797 
     789      774      780      778      772      778      778      768 
     758      764      787      789      766      772      793      787 
     780      797      796      774      774      789      783      768 
     773      793      801      783      764      774      780      766 
     776      780      756      761      795      796      780      781 
     778      768      770      778      765      754      774      792 
     783      774      780      784      778      777      784      792 
     789      777      778      789      768      754      784      789 
     760      769      797      789      764      776      808      797 
     768      769      772      764      772      785      774      761 
     777      799      797      784      773      781      797      784 
     766      776      784      769      757      776      793      770 
     760      792      804      765      750      788      796      760 
     749      772      784      772      770      780      766      761 
     784      787      769      774      781      770      773      776 
     766      773      778      766      768      774      757      756 
     784      781      753      758      789      784      757      757 
     774      773      757      761      783      781      764      784 
     807      784      766      760      738      753      795      793 
     773      783      795      776      738      719      749      781 
     776      781      812      837      837      805      764      737 
     718      729      757      754      753      792      843      835 
     770      741      768      815      835      773      716      758 
     800      781      742      679      692      824      861      799 
     810      832      845      868      793      648      564      594 
     700      751      758      882     1039      999      795      638 
     657      803      924      911      753      664      789      861 
     719      598      668      842      885      733      611      710 
     901      923      773      692      754      869      934      850 
     702      638      630      664      785      893      881      815 
     835      972      990      788      633      652      707      669 
     564      554      714      945     1024      896      877     1013 
     919      606      419      415      615      927     1032      958 
     857      734      697      777      823      789      784      805 
     795      793      731      631      723      869      864      958 
    1109      949      645      465      361      390      621      908 
    1098     1102      907      726      801      969      930      749 
     623      635      805      907      679      421      614     1035 
    1128      876      573      390      433      637      830      903 
     815      777      868      822      754      830      865      835 
     677      446      562      907     1094     1144     1038      843 
     702      523      546      872      892      521      373      518 
     707      931     1093     1023      761      661      881     1019 
     900      828      861      799      595      479      589      727 
     907     1148     1023      653      722     1059      963      594 
     561      760      746      619      626      623      608      785 
     808      463      526     1305     1539      706      245      849 
    1387     1081      521      480      745      718      488      545 
     992     1464     1453      788      229      608     1260      954 
      40     -153      407      766      784      899     1093     1075 
     866      693      598      712     1098     1239      832      288 
     182      719     1247     1058      599      653     1027     1024 
     702      741     1158      990      117      -20      868     1318 
    1039      849      747      602      657      676      519      695 
    1080      988      830     1129     1171      847      788      604 
     148      218      773     1063     1013      839      602      621 
     959     1071      816      646      649      657      795      976 
     824      631      850      970      631      483      797     1120 
    1275     1239      874      379      108      172      529      940 
     986      614      562     1167     1462      869      162      110 
     629     1078     1225     1252      942      506      594      865 
     891      923      963      965     1038     1031      899      712 
     448      309      365      311      216      552     1182     1300 
     966     1119     1417      869      174      324      810     1084 
     967       83     -675      147     1625     1912     1162      490 
     345      638      927      981     1121     1425     1479     1023 
     387      198      476      681      592      514      903     1549 
    1578      896      344      268      438      608      561      332 
     174      139      163      388      919     1526     1858     1698 
    1294     1092      830      202     -209        2      506      972 
    1188     1183     1235     1179      970     1048     1216     1004 
     660      519      480      330      201      475      927      962 
     784      716      683      905     1213     1074      799      881 
    1096      963      463      229      475      606      552      684 
     900      927      727      660      878      804      506      776 
    1182     1005      869     1000      838      697      969     1216 
    1155      913      648      337      -29     -218      -99      351 
     891      932      799     1144     1491     1543     1645     1587 
    1112      529      334      742     1204     1040      418      -62 
      52      722     1185      953      549      638     1155     1375 
     805       18     -228     -128     -148      -29      535     1016 
    1148     1451     1804     1711     1354     1162     1305     1294 
     751      645     1355     1560      889      216     -205     -322 
     -52      159      199      426      780      978      947      758 
     623      735     1093     1383     1096      434      341      924 
    1318     1104      603      369      656     1140     1452     1640 
    1692     1285      661      525      761      920     1036      818 
      89     -284      194      741      770      729      787      490 
     267      864     1563     1433      729       -6     -314      -24 
     405      724     1140     1593     1800     1614     1112      638 
     510      795     1340     1682     1485     1034      626      225 
     -90     -186     -201     -438     -747     -367      839     1952 
    2286     1792      804      202      544     1159     1291     1167 
    1031      634      243      533     1333     1707     1304      734 
     726     1366     1696      916       12        0      251      247 
     222      341      751     1098      799      233       70      457 
    1159     1479     1166      905     1032     1135      862      580 
     873      953      -14     -614      275     1363     1537     1225 
    1123     1309     1345     1138     1044     1034      845      560 
     279       13       98      635      828       93     -780     -542 
     764     1857     1952     1460     1204     1518     1841     1447 
     564       40      209      652      918     1115     1482     1787 
    1773     1710     2123     3026     3622     3221     2089      595 
   -1503    -4004    -5859    -6378    -5575    -3518     -463     2833 
    5678     7916     9355     9277     7110     3098    -1822    -5757 
   -6427    -4017    -1555     -895     -950     -348      939     2675 
    5046     7543     7836     4040    -1329    -3433    -1625      432 
     510     -459    -1502    -3194    -5572    -6610    -4838    -1663 
    1237     3952     6278     7403     7893     8518     7932     4749 
     477    -2385    -3762    -5024    -5630    -3846     -572     1748 
    2697     2459     1162     1023     3262     4671     2204    -1945 
   -3414    -1810     -445     -922    -1714    -1250      367     1687 
    1097    -1444    -4112    -4999    -3442      496     6196    11836 
   14922    13505     7375     -638    -5950    -6619    -4888    -3294 
   -1394     2192     6358     8380     7609     5568     3044      209 
   -2124    -3940    -6133    -8623   -10521   -10867    -8372    -2428 
    5571    12413    14895    12768     8317     3542      144    -1190 
   -2042    -3250    -3758    -3593    -3123    -1132     2232     4735 
    5891     6743     6602     3484    -2376    -6713    -5366      178 
    4923     6010     3437    -1063    -4684    -5891    -4939    -2289 
    1007     2983     2484      368    -1692    -2686    -2201    -1007 
    -313      780     3011     3840     1563     -985     -336     3307 
    7403    10180    10755     8514     4264      264    -1713    -1617 
    -801     -670    -1794    -3584    -4359    -3782    -3526    -3730 
   -3296    -2712    -2317    -1150      881     2743     4112     5448 
    6115     4912     2597      800     -299     -630      676     3117 
    4476     3519     1107    -1169    -1736      407     4197     6644 
    5845     3115      583    -1756    -4785    -8055    -9838    -8569 
   -4428      436     3958     6108     7511     7678     6315     4639 
    3974     3635     1578    -2312    -5483    -5703    -3067      567 
    3126     3620     2524     1309     1125     1717     2096     1962 
    1737     1688     1753     1575      541    -1344    -2913    -3002 
   -1996    -1035     -105     1132     2088     2509     2536     1996 
    1377     1032      315     -398     -236       98      168      797 
    1845     2386     2600     3061     3079     1530     -862    -2160 
   -2141    -2022    -1907    -1119      247     1564     2436     3046 
    3734     4205     4174     3998     3761     2832      743    -1939 
   -3807    -3990    -2844    -1156      382     1323     1503      916 
     -52     -637     -295     1115     2987     3805     2886     1387 
     369     -243     -272      608     1555     1464      778      670 
    1046      932       59    -1136    -1917    -1559     -252     1019 
    1649     1628     1124      734     1121     1915     2531     3365 
    4371     4340     2871     1267      688      502     -479    -2187 
   -3646    -4113    -3445    -1691     1123     4163     5863     5258 
    2606     -718    -2853    -2621     -456     1651     2089     1389 
     669      -52     -726     -525      808     2232     2689     2363 
    2122     2492     3361     3900     3142      977    -1723    -3680 
   -4052    -3065    -1471      292     2062     3681     4866     5229 
    4622     3210     1282     -660    -1993    -2678    -3294    -3896 
   -3839    -2874    -1202     1098     3639     5225     4791     2771 
     807      -86      -95      390     1179     1815     1718     1027 
     325     -272     -657     -159     1476     3434     4703     4973 
    4401     3145     1624      526      -18     -415     -696     -878 
   -1621    -3272    -5084    -5867    -4905    -2415      638     3192 
    4446     4055     2781     2135     2452     2768     2867     3119 
    2967     1872      554       54      533     1443     2520     3634 
    3916     2830     1127     -519    -1992    -2713    -2080     -693 
      90     -210     -734     -444      861     2394     2740     1267 
   -1032    -2907    -3935    -4027    -3203    -1698       67     1487 
    2358     3068     3678     3824     3576     3491     3848     4351 
    4463     3721     2196      718        2      105      838     1760 
    2261     2133     1428      407     -259     -394     -859    -2161 
   -3501    -3847    -3106    -1875     -815     -508    -1030    -1513 
    -814     1333     4048     6097     6836     6372     5059     3361 
    2000     1401     1117      469     -336     -421      222      457 
    -364    -1783    -3233    -4275    -4186    -2643     -471     1185 
    1980     2135     1798     1242     1093     1624     2150     2052 
    1726     1637     1568     1455     1543     1637     1362      962 
    1119     1980     2901     3204     2766     1794      560     -500 
   -1020    -1074     -850     -437     -222     -507     -820     -645 
    -371     -730    -1580    -1842     -942      226      577      271 
     268     1269     3277     5455     6519     5929     4317     2581 
    1351     1090     1653     2131     1749      554     -930    -2087 
   -2226    -1198      265     1526     2444     2763     2319     1530 
     781       -2     -727    -1144    -1371    -1463    -1347    -1386 
   -1840    -2354    -2473    -2015    -1012      433     2127     3564 
    4279     4342     3850     2714     1404      643      526      726 
    1023     1466     2150     2724     2629     1939     1215      683 
     203     -306     -818    -1186    -1181     -733       28      878 
    1498     1574     1104      376     -307     -549       94     1520 
    3019     3902     3819     2852     1474      175     -715    -1078 
   -1108    -1007     -722     -272      193      707     1341     1892 
    2079     1892     1615     1520     1449      961      118     -477 
    -634     -657     -588     -152      666     1420     1726     1695 
    1416      810      117     -360     -575     -402      232     1062 
    1750     2095     2039     1660     1023      299     -125       29 
     558     1019     1363     1813     2205     2188     1822     1383 
     882      199     -661    -1418    -1521     -684      745     2099 
    2921     3269     3500     3813     4071     3909     3100     1699 
    -189    -2207    -3553    -3615    -2486     -670     1258     2678 
    3111     2533     1333        5    -1047    -1620    -1717    -1501 
   -1139     -703     -263       44      137      101      141      402 
     828     1240     1560     1898     2362     2852     3048     2724 
    2088     1522     1158      930      670      264     -101     -222 
