Origin Time       2025/03/28 03:50:00
Lat.              35.403
Long.             140.360
Depth. (km)       54
Mag.              4.4
Station Code      CHB012
Station Lat.      35.5721
Station Long.     140.3436
Station Height(m) 60
Record Time       2025/03/28 03:50:48
Sampling Freq(Hz) 100Hz
Duration Time(s)  83
Dir.              U-D
Scale Factor      7845(gal)/8223790
Max. Acc. (gal)   7.287
Last Correction   2025/03/28 03:50:47
Memo.             
[...]
   15666    15662    15661    15664    15662    15660    15662    15664 
   15660    15662    15664    15664    15666    15666    15664    15665 
   15664    15662    15662    15660    15661    15668    15670    15668 
   15664    15660    15661    15665    15666    15665    15665    15662 
   15665    15668    15661    15658    15664    15662    15661    15664 
   15662    15661    15661    15662    15664    15665    15664    15664 
   15662    15660    15665    15668    15662    15660    15660    15658 
   15662    15665    15661    15660    15660    15657    15661    15666 
   15662    15658    15660    15661    15662    15662    15660    15661 
   15662    15661    15662    15657    15653    15661    15662    15658 
   15658    15660    15660    15657    15660    15664    15662    15661 
   15661    15664    15666    15662    15657    15658    15660    15657 
   15657    15658    15654    15657    15662    15660    15660    15662 
   15662    15664    15662    15661    15665    15665    15662    15662 
   15662    15661    15661    15664    15664    15660    15660    15661 
   15664    15666    15664    15660    15661    15665    15662    15654 
   15658    15665    15660    15658    15662    15661    15658    15664 
   15664    15657    15660    15666    15664    15657    15664    15670 
   15661    15660    15668    15662    15658    15666    15664    15658 
   15661    15664    15661    15661    15668    15669    15664    15664 
   15664    15660    15661    15666    15666    15662    15662    15668 
   15665    15662    15666    15669    15666    15661    15658    15661 
   15662    15664    15660    15654    15665    15672    15664    15666 
   15669    15664    15665    15668    15664    15664    15662    15664 
   15666    15665    15665    15665    15664    15661    15660    15662 
   15664    15662    15664    15666    15666    15664    15665    15666 
   15666    15669    15666    15662    15661    15664    15664    15662 
   15665    15666    15662    15665    15665    15654    15657    15666 
   15664    15658    15661    15665    15665    15662    15665    15664 
   15661    15664    15665    15664    15665    15664    15664    15664 
   15661    15662    15664    15660    15660    15662    15660    15661 
   15669    15666    15661    15665    15665    15661    15661    15664 
   15665    15660    15657    15661    15665    15665    15665    15666 
   15665    15665    15668    15666    15664    15664    15661    15662 
   15666    15665    15665    15668    15664    15661    15668    15668 
   15662    15664    15665    15661    15660    15664    15664    15661 
   15664    15668    15665    15664    15665    15664    15661    15662 
   15664    15662    15661    15661    15664    15665    15665    15666 
   15664    15664    15665    15665    15664    15661    15664    15665 
   15662    15664    15668    15666    15665    15665    15664    15661 
   15662    15664    15662    15658    15662    15666    15660    15658 
   15665    15664    15664    15668    15662    15662    15668    15665 
   15662    15664    15664    15664    15662    15661    15665    15666 
   15662    15661    15661    15660    15662    15665    15664    15665 
   15668    15662    15657    15662    15665    15657    15654    15662 
   15662    15660    15664    15665    15664    15664    15662    15660 
   15658    15662    15664    15661    15662    15661    15658    15665 
   15662    15658    15664    15661    15660    15664    15660    15657 
   15662    15660    15655    15657    15661    15661    15658    15664 
   15666    15662    15662    15666    15664    15658    15661    15668 
   15664    15655    15660    15662    15658    15657    15660    15662 
   15665    15660    15658    15661    15658    15660    15662    15657 
   15657    15661    15660    15660    15665    15665    15661    15661 
   15664    15662    15662    15664    15664    15662    15660    15658 
   15661    15664    15665    15665    15660    15657    15661    15664 
   15662    15662    15661    15661    15661    15661    15665    15665 
   15662    15662    15660    15661    15666    15666    15666    15665 
   15660    15662    15662    15661    15668    15666    15662    15666 
   15664    15662    15668    15664    15662    15661    15657    15661 
   15661    15658    15662    15664    15660    15662    15660    15657 
   15657    15655    15660    15660    15655    15655    15655    15657 
   15660    15655    15654    15658    15658    15657    15661    15660 
   15654    15658    15661    15654    15651    15657    15665    15664 
   15657    15653    15657    15664    15662    15657    15657    15660 
   15660    15661    15661    15658    15662    15665    15660    15661 
   15664    15661    15660    15660    15662    15664    15661    15665 
   15669    15665    15665    15665    15661    15661    15662    15665 
   15665    15665    15664    15664    15666    15669    15668    15666 
   15665    15662    15660    15664    15672    15672    15665    15668 
   15670    15661    15660    15668    15669    15664    15662    15662 
   15665    15666    15662    15665    15669    15664    15662    15673 
   15670    15661    15665    15669    15660    15657    15665    15669 
   15664    15661    15660    15664    15666    15665    15666    15664 
   15662    15664    15661    15664    15665    15661    15664    15664 
   15660    15662    15664    15660    15662    15662    15658    15662 
   15668    15664    15662    15664    15664    15662    15664    15664 
   15662    15661    15662    15664    15662    15661    15665    15665 
   15664    15665    15665    15662    15658    15658    15661    15664 
   15668    15664    15658    15661    15664    15662    15657    15658 
   15665    15664    15660    15661    15657    15658    15665    15665 
   15662    15661    15660    15660    15662    15665    15664    15662 
   15665    15665    15664    15661    15658    15662    15664    15658 
   15658    15665    15664    15662    15664    15662    15661    15658 
   15657    15657    15660    15661    15662    15662    15658    15657 
   15660    15665    15664    15661    15660    15661    15664    15661 
   15657    15660    15662    15661    15661    15661    15662    15660 
   15658    15661    15662    15662    15664    15664    15664    15662 
   15661    15661    15660    15658    15660    15660    15662    15664 
   15655    15653    15662    15669    15662    15658    15664    15666 
   15666    15668    15662    15657    15658    15658    15660    15661 
   15662    15662    15664    15664    15662    15662    15661    15661 
   15664    15660    15654    15657    15664    15665    15661    15661 
   15661    15662    15662    15660    15660    15660    15658    15658 
   15660    15661    15664    15662    15660    15661    15662    15662 
   15662    15661    15662    15662    15661    15660    15660    15661 
   15662    15664    15664    15661    15661    15665    15665    15662 
   15658    15658    15661    15660    15661    15664    15658    15658 
   15662    15661    15660    15665    15666    15664    15664    15664 
   15665    15668    15665    15661    15661    15661    15662    15662 
   15661    15658    15661    15665    15664    15658    15658    15661 
   15665    15664    15661    15665    15665    15661    15664    15662 
   15665    15668    15665    15661    15662    15661    15661    15660 
   15662    15664    15660    15662    15669    15664    15661    15661 
   15658    15660    15660    15658    15665    15666    15665    15668 
   15668    15665    15664    15660    15660    15664    15662    15664 
   15666    15665    15662    15665    15665    15662    15664    15661 
   15660    15662    15662    15661    15662    15665    15668    15665 
   15662    15665    15666    15664    15661    15664    15662    15658 
   15660    15664    15665    15662    15662    15668    15666    15661 
   15665    15670    15664    15658    15660    15662    15665    15668 
   15666    15665    15664    15664    15662    15661    15664    15661 
   15658    15664    15665    15664    15669    15666    15660    15661 
   15661    15657    15660    15665    15664    15666    15665    15661 
   15661    15664    15665    15666    15662    15661    15664    15665 
   15664    15666    15666    15661    15661    15664    15664    15664 
   15662    15658    15660    15664    15662    15660    15661    15662 
   15665    15664    15665    15665    15662    15660    15658    15661 
   15662    15665    15666    15666    15664    15662    15664    15660 
   15655    15658    15661    15660    15660    15661    15661    15664 
   15665    15664    15664    15661    15661    15664    15658    15655 
   15658    15658    15658    15660    15661    15664    15664    15662 
   15664    15661    15657    15658    15661    15662    15662    15662 
   15664    15661    15661    15665    15665    15664    15660    15661 
   15661    15660    15664    15662    15658    15662    15665    15660 
   15658    15658    15660    15664    15664    15662    15661    15661 
   15662    15664    15662    15662    15660    15658    15664    15662 
   15658    15658    15662    15664    15662    15660    15661    15664 
   15662    15662    15665    15666    15665    15661    15660    15660 
   15661    15664    15662    15660    15662    15662    15660    15664 
   15662    15660    15664    15668    15664    15661    15664    15668 
   15664    15657    15658    15662    15662    15662    15669    15670 
   15664    15664    15664    15658    15657    15664    15668    15664 
   15661    15661    15662    15664    15665    15665    15664    15664 
   15668    15669    15665    15665    15665    15658    15658    15661 
   15660    15664    15669    15665    15664    15666    15664    15662 
   15666    15665    15661    15660    15661    15665    15664    15658 
   15664    15666    15665    15669    15668    15660    15661    15666 
   15662    15658    15660    15664    15665    15664    15662    15664 
   15665    15664    15664    15666    15664    15664    15662    15660 
   15662    15664    15660    15662    15665    15662    15664    15670 
   15666    15658    15661    15665    15664    15665    15666    15665 
   15662    15662    15662    15664    15662    15661    15665    15666 
   15665    15664    15661    15662    15664    15662    15660    15658 
   15661    15665    15666    15665    15660    15660    15662    15664 
   15664    15664    15664    15662    15661    15665    15664    15657 
   15657    15661    15660    15658    15658    15662    15665    15661 
   15662    15660    15657    15664    15666    15661    15662    15668 
   15664    15658    15660    15664    15662    15660    15660    15660 
   15655    15658    15664    15664    15661    15662    15666    15664 
   15664    15665    15662    15661    15665    15662    15660    15658 
   15664    15668    15662    15658    15665    15664    15661    15662 
   15660    15657    15662    15668    15664    15658    15661    15666 
   15664    15660    15664    15664    15662    15665    15665    15662 
   15665    15664    15660    15661    15666    15668    15668    15691 
   15747    15830    15925    15975    15927    15780    15573    15434 
   15518    15839    16218    16268    15576    14226    12941    12495 
   13316    15396    18023    19920    20042    18268    15793    14179 
   13377    12573    12356    13390    15237    17496    19352    19800 
   18949    16892    13730    11271    11439    13603    15408    15897 
   16112    16830    18122    19872    20584    18459    14575    11776 
   11030    11778    13764    16282    17990    18342    17585    16201 
   15330    15344    14794    13493    13134    14091    15597    17096 
   17729    17213    16460    15923    15168    14438    14562    15622 
   16864    16957    15516    14450    14840    15426    15944    16880 
   17262    16816    16474    15874    14631    13886    13833    13475 
   13115    13899    16038    18574    19950    19496    17945    16114 
   14601    13599    12762    12486    13292    14600    15954    17255 
   18220    18670    18233    16804    15120    13555    12118    11862 
   13443    15619    17427    18742    18792    17585    16468    15792 
   14740    13436    13140    14067    15199    16379    17698    18273 
   17730    16618    15283    14168    13714    13662    14099    15626 
   17585    18469    17713    15982    14570    14320    14958    15685 
   15951    15630    15191    15461    16502    17583    18129    17454 
   15425    13710    13435    13396    12982    13011    13501    14409 
   15957    17035    17055    17128    17525    17493    16490    14354 
   12270    11669    12415    14170    16640    18723    19824    19854 
   18816    17838    17836    17855    16737    14821    13282    12545 
   12283    12583    13629    15169    17124    19087    19701    18152 
   15587    13740    12559    11195    10405    11514    14585    18578 
   21718    22366    20487    17547    14634    12050    10678    11202 
   12775    14392    15796    17059    18407    19364    18748    16551 
   14490    13702    13478    13271    13876    15913    18778    20919 
   20872    18573    15427    12781    11083    10656    11666    13544 
   15784    18122    20287    21917    21429    17501    12128     8785 
    8521    10054    12386    15450    18719    20999    21573    20468 
   17944    14877    12669    11425    10739    11669    14771    18821 
   22176    23301    21659    18293    14580    11553    10126    10656 
   12266    13740    15113    16706    18081    19191    19850    18932 
   16507    14342    13232    12703    12745    13219    13346    13466 
   14751    16904    18593    19110    18393    16896    15561    14998 
   15156    15657    15896    15481    14716    13923    13205    13360 
   15047    16980    17586    17211    16637    16011    15816    16086 
   15955    15313    14841    14941    15655    16626    17307    17455 
   16920    15496    13521    12158    12312    13614    15161    16452 
   17382    18076    18458    18129    17145    16042    14997    14049 
   13602    13959    15037    16335    17274    17876    17922    16706 
   14632    12931    12293    12775    13999    15786    17944    19226 
   18918    17788    16259    14447    12906    12005    12209    13679 
   15396    16441    16815    16723    16507    16285    15927    16004 
   16771    17347    17497    17604    17031    15314    13255    11664 
   11230    12664    15205    17169    18102    18400    18193    17687 
   17099    16166    14725    13421    13138    13892    15145    16636 
   17724    17653    16903    16097    15117    14266    13937    14150 
   15202    16654    17347    17412    17451    17024    15859    14332 
   13028    12861    13981    15337    16418    17385    17709    16918 
   15660    14766    14472    14593    14708    14594    14732    15774 
   17392    18362    17874    16267    14558    13379    12780    12883 
   13756    15191    16939    18283    18472    17976    17675    17463 
   16949    16212    15155    13612    12361    12474    13759    15174 
   16217    17039    17787    18265    17963    16572    14629    13146 
   12642    13159    14573    16393    17933    18721    18453    17061 
   15136    13555    12598    12168    12387    13448    15421    17753 
   19232    19438    18991    18102    16665    15059    13761    13026 
   13084    14060    15418    16298    16799    17528    18102    17632 
   16117    14536    13625    13263    13251    13572    14092    14936 
   16325    17894    18998    19116    17990    16129    14462    13300 
   12816    13521    15029    16241    16920    17215    17027    16599 
   16139    15645    15314    15145    15088    15504    16266    16501 
   16019    15593    15388    14881    14358    14436    14790    14941 
   15149    15697    16433    17024    17074    16648    16248    15658 
   14496    13617    13991    15277    16384    16488    15724    15124 
   15195    15238    14931    14940    15417    15859    16276    16821 
   17221    17410    17483    17277    16831    16258    15388    14407 
   13797    13748    14084    14258    14210    14702    15716    16293 
   16163    15961    16146    16374    16052    15363    15088    15383 
   15649    15900    16675    17528    17602    16895    15696    14378 
   13701    13987    14872    16025    17182    17928    18081    17807 
   17127    15950    14351    12864    12383    12946    13657    14310 
   15233    16276    17130    17590    17597    17323    16800    15992 
   15059    14237    13991    14679    15828    16753    17161    16783 
   15653    14370    13379    12838    13080    14126    15454    16823 
   18095    18701    18488    17892    16931    15484    14243    13994 
   14548    15282    15851    16066    16044    16271    16638    16402 
   15477    14566    14199    14446    14991    15415    15633    15731 
   15672    15574    15784    16155    16148    15907    15855    15855 
   15878    16067    16102    15773    15248    14567    13937    13738 
   13940    14488    15561    16841    17691    17879    17578    16976 
   16043    15115    14751    14635    14542    15249    16722    17626 
   17340    16474    15522    14565    13959    13933    14222    14698 
   15206    15380    15396    15799    16754    17879    18330    17806 
   17188    16879    16208    15223    14585    14177    13724    13413 
   13470    13975    14543    14700    14959    16104    17633    18306 
   17806    16960    16430    16050    15799    16187    17005    17177 
   16206    14736    13636    12885    11894    10913    10967    12482 
   14964    17626    19782    21070    21506    21096    19568    16919 
   14092    12212    11384    11277    11823    12842    14488    16976 
   19187    19920    19546    18485    16551    14476    13545    13859 
   14469    14600    14108    13674    14241    15711    17169    17863 
   17377    16039    15110    15670    17433    18981    19126    17837 
   15851    13845    12332    11788    12123    12820    13819    15109 
   16271    17189    17837    17848    17211    16374    15804    15831 
   16098    15709    14497    13412    13421    14539    15984    16864 
   16957    16988    17450    17655    16775    15142    14034    14191 
   14816    14850    14590    15071    16461    17578    17253    16110 
   15507    15210    14428    13540    13011    12880    13522    14912 
   16244    17007    17104    16725    16580    16852    16819    16293 
   15529    14735    14648    15460    16194    16530    16869    17016 
   16749    16357    15946    15468    15059    14743    14481    14337 
   14382    14793    15404    15618    15620    16272    17428    18103 
   17851    16769    15310    14423    14612    15303    15892    16220 
   16125    15635    15098    14647    14199    14072    14859    16509 
   17986    18117    16872    15406    14567    14150    13891    14154 
   15151    16302    16991    17204    17166    17054    16799    16110 
   15190    14663    14623    14679    14651    14646    14721    14928 
   15469    16232    16694    16771    16702    16428    15966    15535 
   15284    15372    15607    15329    14431    13672    13649    14368 
   15564    16680    17154    17068    16902    16861    16750    16341 
