Origin Time       2025/03/28 03:50:00
Lat.              35.403
Long.             140.360
Depth. (km)       54
Mag.              4.4
Station Code      CHB027
Station Lat.      35.1806
Station Long.     140.2655
Station Height(m) 98
Record Time       2025/03/28 03:50:55
Sampling Freq(Hz) 100Hz
Duration Time(s)  60
Dir.              U-D
Scale Factor      7845(gal)/8223790
Max. Acc. (gal)   1.416
Last Correction   2025/03/28 03:50:54
Memo.             
[...]
   16903    16900    16899    16902    16904    16903    16899    16902 
   16906    16903    16903    16904    16903    16903    16906    16903 
   16902    16900    16902    16903    16904    16903    16902    16900 
   16904    16906    16903    16904    16907    16903    16903    16904 
   16903    16906    16906    16900    16904    16906    16903    16903 
   16902    16904    16910    16904    16902    16906    16903    16903 
   16908    16906    16902    16904    16907    16904    16902    16904 
   16908    16906    16904    16904    16900    16902    16908    16907 
   16903    16904    16904    16902    16900    16902    16906    16904 
   16904    16906    16903    16903    16906    16902    16903    16908 
   16904    16903    16904    16902    16903    16906    16903    16900 
   16902    16904    16902    16902    16907    16907    16903    16902 
   16902    16902    16903    16902    16903    16904    16902    16897 
   16899    16904    16906    16899    16896    16900    16903    16903 
   16902    16900    16903    16904    16902    16900    16902    16902 
   16902    16900    16902    16904    16903    16902    16902    16903 
   16904    16900    16900    16906    16906    16899    16900    16902 
   16899    16902    16903    16903    16904    16902    16900    16902 
   16900    16900    16900    16904    16906    16900    16897    16902 
   16904    16902    16900    16900    16902    16903    16900    16899 
   16903    16903    16900    16900    16902    16902    16903    16904 
   16906    16903    16902    16902    16902    16903    16903    16900 
   16902    16904    16903    16902    16907    16907    16903    16904 
   16904    16903    16903    16904    16903    16902    16902    16903 
   16904    16904    16906    16903    16903    16906    16903    16900 
   16903    16904    16902    16903    16906    16903    16904    16904 
   16903    16904    16906    16902    16903    16904    16903    16903 
   16904    16904    16907    16907    16903    16903    16904    16903 
   16902    16902    16902    16903    16903    16906    16907    16904 
   16903    16904    16907    16906    16904    16904    16906    16906 
   16906    16904    16904    16904    16904    16904    16906    16906 
   16903    16904    16908    16907    16904    16904    16903    16903 
   16906    16904    16904    16907    16906    16904    16903    16904 
   16906    16903    16902    16902    16900    16904    16907    16904 
   16903    16903    16903    16903    16904    16904    16900    16900 
   16906    16906    16902    16903    16906    16907    16906    16903 
   16900    16900    16903    16904    16900    16902    16902    16900 
   16902    16903    16903    16903    16904    16903    16902    16902 
   16902    16902    16902    16900    16899    16899    16900    16902 
   16900    16903    16906    16900    16896    16899    16902    16902 
   16902    16900    16902    16903    16900    16900    16903    16900 
   16897    16897    16899    16902    16903    16902    16900    16902 
   16903    16899    16900    16903    16903    16902    16902    16903 
   16902    16900    16900    16903    16904    16903    16902    16903 
   16903    16903    16903    16904    16900    16899    16902    16903 
   16902    16902    16903    16904    16904    16903    16904    16906 
   16902    16903    16906    16903    16903    16904    16906    16904 
   16903    16904    16902    16900    16902    16904    16906    16903 
   16903    16903    16902    16903    16904    16903    16904    16904 
   16903    16903    16903    16904    16903    16903    16906    16903 
   16902    16906    16906    16903    16902    16902    16903    16903 
   16904    16903    16903    16902    16903    16904    16902    16904 
   16903    16900    16902    16904    16902    16900    16903    16904 
   16903    16900    16902    16903    16902    16904    16904    16903 
   16903    16900    16899    16902    16904    16903    16902    16902 
   16904    16904    16900    16902    16903    16900    16902    16903 
   16900    16900    16902    16900    16902    16902    16899    16902 
   16903    16900    16900    16902    16899    16899    16903    16903 
   16900    16903    16903    16902    16903    16902    16900    16900 
   16903    16903    16902    16899    16902    16903    16902    16902 
   16902    16903    16903    16902    16902    16906    16906    16900 
   16902    16903    16903    16906    16903    16900    16903    16904 
   16902    16902    16903    16902    16900    16900    16900    16899 
   16900    16903    16903    16903    16906    16904    16902    16900 
   16902    16903    16902    16902    16904    16904    16900    16902 
   16904    16903    16902    16902    16902    16902    16902    16904 
   16903    16903    16907    16906    16902    16903    16903    16902 
   16902    16903    16904    16906    16906    16904    16902    16904 
   16906    16903    16903    16907    16904    16904    16906    16904 
   16904    16904    16904    16903    16902    16903    16906    16904 
   16906    16908    16907    16907    16906    16900    16902    16906 
   16904    16902    16904    16906    16903    16902    16902    16904 
   16906    16904    16904    16903    16903    16904    16902    16900 
   16904    16906    16904    16906    16906    16904    16904    16904 
   16903    16903    16904    16903    16903    16903    16903    16903 
   16904    16903    16903    16904    16900    16899    16902    16903 
   16902    16903    16900    16900    16906    16906    16900    16900 
   16900    16900    16902    16904    16906    16902    16899    16900 
   16900    16900    16902    16900    16900    16902    16902    16900 
   16903    16904    16903    16903    16903    16902    16902    16903 
   16903    16899    16897    16902    16902    16900    16900    16902 
   16903    16903    16900    16899    16897    16895    16884    16865 
   16849    16833    16821    16823    16845    16877    16914    16949 
   16966    16973    16978    16947    16841    16740    16765    16904 
   17011    16966    16896    17070    17394    17409    17058    16853 
   16970    16930    16623    16494    16542    16506    16606    17020 
   17307    17181    16992    17015    17266    17598    17367    16470 
   16144    16642    16490    15846    16282    17355    17610    16920 
   16426    16930    17427    17208    16731    16128    16394    17720 
   17799    16595    16380    16945    17259    17585    17504    16781 
   16545    17078    17275    16571    16025    16598    17193    16900 
   16776    17163    17053    16619    17001    17761    17401    16642 
   17177    17779    16807    15828    16336    16954    16638    16557 
   17176    17127    16274    16270    17307    17631    16644    15916 
   16487    17497    17755    17047    16436    16717    17323    17806 
   17712    16769    16308    16992    17394    16625    15784    16340 
   17416    17041    16089    16362    17107    17155    16771    16595 
   17135    17865    17606    16883    16632    16545    16684    17019 
   17157    17128    16823    16718    17213    17136    16086    15695 
   16659    17506    17450    17269    17115    16947    17348    17589 
   16802    16178    16484    16972    17012    16443    16154    16825 
   17234    16951    16973    17178    17308    17452    17139    16825 
   17086    17211    17115    17050    16641    16244    16326    16372 
   16109    16148    16795    17334    17329    17355    17741    17880 
   17289    16841    17086    16864    16222    16432    16954    16811 
   16395    16472    16972    17045    16803    16834    16783    16918 
   17658    17957    17200    16366    16421    16900    16771    16308 
   16357    16713    16980    17127    17136    17301    17271    16471 
   16137    17050    17599    16995    16306    16453    17307    17612 
   16870    16330    16606    17004    16920    16634    16794    17213 
   17513    17350    16565    16301    17078    17489    16920    16538 
   16988    17401    17142    16772    16777    16938    16941    16687 
   16649    17142    17351    16966    16573    16344    16556    17265 
   17604    17020    16146    16067    16946    17653    17356    16830 
   16819    16715    16459    16556    16773    16856    16663    16815 
   17780    18004    17119    16455    16108    16349    17146    17192 
   16750    16694    16796    17209    17491    16965    16532    16842 
   17404    17456    16987    16852    16961    17055    17203    16586 
   15650    15935    16938    17265    16912    16611    16862    17653 
   18033    17502    17099    17158    17127    17062    16721    16222 
   16393    16686    16393    16047    16094    16852    17770    17548 
   16812    16768    16968    16819    16411    16405    16989    17398 
   17548    17247    16399    16444    17512    18119    17667    16598 
   16545    17595    17209    15955    16411    17298    16745    15759 
   16009    17450    17883    16630    15770    16306    17298    17558 
   17162    17069    17296    17367    17000    16366    16360    17066 
   17367    16877    16495    16825    17262    17182    16831    16559 
   16355    16224    16672    17690    17802    16760    16372    17193 
   17863    17338    16352    16332    17015    17151    16648    16332 
   16648    17091    17158    17038    16992    16945    16816    17003 
   17317    16958    16340    16429    16991    17109    16845    16965 
   17365    17316    16884    16915    17072    16394    15905    16389 
   16772    16947    17231    17085    16939    17371    17482    16906 
   16667    16966    17031    16870    16827    16794    16714    16540 
   16492    16915    17277    17149    16885    16690    16748    17192 
   17369    16931    16838    17383    17447    16835    16429    16447 
   16505    16382    16478    17158    17691    17520    17061    16565 
   16538    17092    16974    16476    17092    17721    16900    15973 
   16387    17275    17301    16881    16962    17221    17081    16773 
   16942    17431    17161    16328    16217    16827    16992    16390 
   16074    16449    16992    17527    17695    17289    16749    16357 
   16405    17104    17609    17088    16498    16707    16839    16611 
   16718    17139    17420    17217    16846    16892    17053    17003 
   16845    16440    16175    16765    17552    17532    17047    16586 
   16422    16861    17278    17230    16977    16524    16484    17232 
   17622    17127    16452    16318    16875    17037    16532    16700 
   17346    17409    16954    16438    16524    16950    16896    16910 
   17185    17163    17254    17335    16984    16794    16698    16645 
   16947    16950    16613    16526    16893    17641    17825    17159 
   16533    16256    16429    16660    16592    17064    17652    17243 
   16771    17000    17284    17061    16363    16135    17024    18011 
   17810    16771    16478    17135    17154    16321    16000    16502 
   16984    16984    16877    16715    16305    16409    17146    17273 
   16838    16962    17336    17045    16505    16865    17676    17261 
   16185    16225    16896    17135    17032    16888    17005    17296 
   17200    16640    16406    17005    17545    17204    16714    16918 
   17394    17334    16586    16024    16557    17146    16745    16497 
   16806    16829    16696    16816    17209    17551    17389    17101 
   16978    16714    16569    16636    16605    16680    16881    17058 
   17188    16954    16510    16299    16341    16654    17092    17435 
   17703    17581    16833    16175    16345    16919    17207    17139 
   16927    16896    17014    16860    16602    16540    16476    16617 
   17155    17540    17699    17780    17401    16897    16839    16807 
   16533    16437    16633    16572    16151    16391    17290    17474 
   16919    16657    16865    16956    16740    16663    16660    16565 
   16800    17163    17024    16870    17409    17892    17512    16965 
   16977    17186    17010    16559    16444    16757    17107    17319 
   17363    17201    16796    16560    16780    16663    16267    16572 
   17092    17315    17679    17671    16735    15958    16222    16708 
   16634    16405    16595    17115    17275    16819    16583    16827 
   16788    16708    16972    17095    17211    17247    16792    16536 
   16879    17325    17591    17400    16776    16588    16839    16544 
   16114    16266    16537    16850    17211    17234    17162    17235 
   17170    16943    16772    16637    16552    16713    17146    17497 
   17259    16768    16826    17228    17401    17181    16667    16518 
   17057    17496    17309    16938    16644    16349    16208    16128 
   16016    16484    17486    17834    17464    17239    17072    16773 
   16596    16399    16258    16588    17000    17054    17074    17235 
   17504    17552    17045    16814    17386    17616    16862    16248 
   16490    16842    16757    16449    16351    16580    16657    16762 
   17321    17525    17224    17100    16779    16443    16738    16995 
   16899    16794    16675    16769    17043    17150    17219    17323 
   17119    16632    16472    16702    16727    16667    16895    17097 
   17280    17639    17691    17381    17153    17011    17000    17145 
   17199    17118    16866    16401    15907    15623    15804    16406 
   17015    17373    17386    16968    16436    16363    16707    16911 
   16800    16671    16761    17003    17405    18057    18387    17764 
   16838    16556    16737    16818    16718    16544    16343    16181 
   16133    16243    16573    16933    17015    17088    17358    17431 
   17228    17099    17100    17100    17055    17065    17257    17417 
   17267    17101    17178    17176    17023    16885    16713    16575 
   16559    16634    16773    16960    17099    16899    16438    16260 
   16401    16565    16764    16889    16764    16721    17037    17239 
   16931    16494    16360    16580    16861    16889    17045    17475 
   17455    17039    16854    16740    16580    16623    16744    16803 
   16946    17123    17085    16910    16900    17023    17108    17181 
   17209    17181    17104    16852    16614    16646    16789    16838 
   16762    16686    16827    17132    17207    17011    16949    17127 
   17456    17626    17244    16695    16448    16440    16526    16295 
   15865    16197    17054    17320    17092    17050    17267    17567 
   17697    17435    17112    17113    17116    16895    16684    16546 
   16659    17112    17275    16966    16834    17010    17142    16988 
   16499    16129    16216    16476    16758    17077    17273    17356 
   17455    17347    16830    16398    16410    16538    16573    16486 
   16511    16933    17308    17413    17500    17381    17077    16775 
   16390    16232    16414    16505    16511    16665    16764    16723 
   16860    17119    17139    17016    16884    16779    16991    17238 
   17011    16695    16756    17231    17811    17743    17131    17022 
   17317    17173    16803    16784    16888    16677    16407    16568 
   16916    16981    16822    16671    16657    16772    16802    16742 
   16794    16996    17149    16908    16575    16738    16988    16897 
   16764    16690    16745    16929    16907    16792    16903    17136 
   17307    17367    17356    17385    17464    17409    17184    17089 
   16991    16472    16023    16222    16623    16814    16881    16833 
   16875    17180    17317    17065    16769    16564    16475    16553 
   16584    16495    16424    16495    16758    17005    17180    17250 
   17064    16984    17177    17204    17112    17278    17612    17734 
   17536    17230    17073    17124    17077    16796    16571    16448 
   16407    16575    16749    16802    16811    16614    16352    16384 
   16530    16660    16958    17277    17410    17412    17309    17140 
   16929    16677    16505    16438    16436    16540    16692    16761 
   16708    16638    16711    16881    17000    17012    16942    16996 
   17275    17458    17373    17182    16976    16920    17039    16938 
   16636    16534    16560    16591    16717    16951    17212    17219 
   17072    17073    16949    16767    16888    17059    17145    17270 
   17343    17451    17539    17180    16735    16848    17046    16883 
   16684    16552    16463    16488    16491    16557    16671    16555 
   16551    16949    17258    17239    17197    17327    17433    17277 
   17022    16842    16637    16449    16421    16452    16441    16537 
   16734    16883    17035    17031    16756    16567    16627    16684 
   16592    16559    16785    16997    16991    17073    17257    17247 
   17181    17182    17173    17166    16980    16572    16355    16422 
   16502    16632    16858    17064    17304    17564    17675    17589 
   17424    17219    16900    16711    16821    16889    16795    16777 
   16900    17031    17028    16962    16946    16926    16900    16845 
   16826    17001    17113    17005    17010    17159    17128    16875 
   16677    16638    16580    16575    16768    16934    16962    16893 
   16717    16711    16907    16973    17004    17054    16995    16956 
   16848    16619    16632    16866    16895    16660    16434    16432 
   16672    16926    16993    16997    16980    16924    16981    17031 
   16900    16822    17003    17258    17227    16961    16889    17023 
   17138    17157    17000    16902    16983    16908    16780    16811 
   16881    16983    16945    16730    16668    16710    16746    16798 
   16756    16752    16875    16996    17076    17005    16861    16802 
   16672    16553    16694    16889    16873    16771    16856    17184 
   17432    17284    16957    16868    16934    16815    16602    16636 
   16823    16883    16915    17001    16977    16895    16852    16852 
   16924    16927    16816    16780    16810    16856    16922    16978 
   17122    17277    17257    17182    17116    16951    16825    16910 
   17154    17293    17123    16922    16993    17111    17031    16869 
   16772    16780    16827    16764    16563    16421    16483    16617 
   16684    16713    16717    16702    16730    16784    16765    16718 
   16730    16742    16767    16892    17026    17107    17231    17367 
   17386    17271    17151    17115    17100    17140    17254    17235 
   17064    17000    17099    17097    16911    16721    16583    16557 
   16676    16772    16802    16814    16818    16823    16811    16753 
   16609    16502    16603    16776    16846    16849    16897    17039 
   17130    17070    16939    16866    16938    17010    16937    16881 
   16943    17024    17076    17086    17062    17000    16931    17011 
   17212    17258    17145    17154    17227    17107    16861    16680 
   16710    16880    16858    16634    16457    16437    16619    16745 
   16605    16567    16742    16843    16860    16879    16968    17112 
   17095    16884    16749    16826    16858    16711    16699    16908 
   17046    17061    17058    17022    16989    16992    16946    16873 
   16837    16891    17041    17135    17166    17261    17301    17169 
   17010    17001    17103    17120    17039    16970    16922    16879 
   16822    16719    16642    16615    16557    16429    16279    16241 
