Origin Time       2025/03/28 03:50:00
Lat.              35.403
Long.             140.360
Depth. (km)       54
Mag.              4.4
Station Code      CHB010
Station Lat.      35.7086
Station Long.     140.5637
Station Height(m) 9
Record Time       2025/03/28 03:50:57
Sampling Freq(Hz) 100Hz
Duration Time(s)  62
Dir.              E-W
Scale Factor      7845(gal)/8223790
Max. Acc. (gal)   6.864
Last Correction   2025/03/28 03:50:56
Memo.             
[...]
    9201     9209     9194     9202     9227     9202     9184     9205 
    9201     9198     9221     9216     9192     9181     9198     9228 
    9215     9181     9196     9220     9201     9180     9196     9223 
    9223     9198     9184     9196     9217     9213     9196     9205 
    9220     9202     9182     9188     9208     9220     9208     9196 
    9208     9217     9209     9207     9207     9202     9209     9207 
    9190     9201     9223     9212     9198     9198     9198     9204 
    9209     9211     9209     9202     9201     9201     9193     9194 
    9211     9217     9198     9186     9205     9220     9216     9209 
    9192     9190     9220     9221     9196     9198     9212     9198 
    9192     9205     9205     9209     9220     9204     9202     9205 
    9193     9198     9196     9198     9216     9205     9192     9197 
    9208     9221     9215     9194     9196     9204     9196     9194 
    9202     9205     9219     9224     9198     9184     9185     9201 
    9221     9204     9197     9217     9197     9188     9213     9212 
    9204     9189     9185     9211     9219     9213     9215     9196 
    9190     9198     9192     9207     9229     9220     9202     9194 
    9197     9207     9212     9211     9192     9188     9220     9229 
    9209     9209     9208     9193     9190     9192     9215     9229 
    9202     9188     9193     9204     9220     9209     9188     9201 
    9216     9211     9205     9205     9205     9207     9201     9201 
    9204     9197     9207     9219     9198     9190     9209     9211 
    9188     9177     9209     9248     9227     9173     9174     9224 
    9234     9193     9173     9204     9236     9216     9193     9193 
    9204     9217     9182     9173     9224     9221     9197     9204 
    9207     9208     9202     9196     9213     9213     9192     9209 
    9231     9193     9167     9205     9238     9217     9174     9185 
    9229     9215     9175     9188     9227     9238     9209     9184 
    9192     9207     9204     9198     9208     9221     9205     9190 
    9196     9213     9229     9197     9169     9208     9235     9212 
    9196     9202     9204     9207     9215     9207     9197     9209 
    9224     9232     9211     9169     9186     9239     9219     9180 
    9197     9224     9208     9190     9215     9223     9190     9184 
    9204     9225     9232     9204     9181     9198     9225     9213 
    9185     9197     9217     9211     9201     9197     9208     9213 
    9188     9190     9223     9212     9194     9204     9209     9213 
    9204     9198     9202     9188     9200     9223     9208     9196 
    9202     9212     9219     9205     9182     9189     9213     9213 
    9215     9212     9190     9197     9207     9207     9220     9201 
    9194     9221     9208     9186     9209     9228     9200     9174 
    9200     9235     9224     9186     9192     9229     9209     9155 
    9175     9243     9247     9190     9175     9207     9219     9208 
    9196     9212     9219     9181     9188     9223     9212     9196 
    9189     9194     9208     9208     9213     9213     9197     9190 
    9200     9213     9213     9205     9207     9201     9194     9209 
    9209     9194     9204     9202     9188     9211     9232     9204 
    9185     9205     9217     9207     9197     9216     9229     9197 
    9175     9207     9229     9224     9201     9184     9208     9227 
    9204     9188     9204     9225     9216     9192     9198     9220 
    9216     9194     9190     9200     9215     9217     9197     9200 
    9215     9205     9205     9216     9205     9189     9192     9202 
    9215     9211     9197     9200     9213     9215     9204     9192 
    9190     9197     9212     9216     9202     9202     9200     9190 
    9194     9212     9224     9200     9180     9202     9219     9212 
    9201     9200     9209     9204     9182     9192     9219     9216 
    9196     9192     9204     9220     9219     9198     9194     9211 
    9216     9202     9201     9219     9212     9190     9188     9197 
    9220     9224     9208     9205     9201     9190     9190     9215 
    9240     9212     9170     9186     9213     9205     9201     9224 
    9227     9204     9192     9186     9211     9236     9213     9197 
    9198     9196     9208     9204     9200     9216     9213     9193 
    9180     9202     9236     9213     9188     9196     9193     9198 
    9212     9204     9197     9208     9215     9200     9188     9200 
    9217     9209     9181     9186     9217     9220     9205     9189 
    9190     9207     9200     9207     9228     9215     9189     9178 
    9186     9213     9220     9200     9192     9198     9208     9207 
    9190     9200     9219     9201     9186     9188     9200     9220 
    9213     9202     9212     9197     9193     9213     9205     9194 
    9211     9212     9209     9212     9197     9209     9213     9184 
    9215     9227     9185     9193     9211     9213     9217     9193 
    9194     9223     9205     9186     9192     9200     9228     9223 
    9192     9209     9208     9188     9208     9215     9208     9202 
    9182     9197     9229     9221     9194     9185     9200     9205 
    9194     9208     9228     9224     9201     9182     9202     9224 
    9209     9204     9221     9219     9192     9184     9215     9231 
    9209     9194     9202     9208     9211     9211     9200     9196 
    9196     9185     9200     9229     9216     9201     9219     9215 
    9188     9196     9225     9220     9202     9202     9196     9201 
    9221     9212     9198     9211     9205     9186     9196     9209 
    9212     9209     9186     9184     9209     9201     9189     9202 
    9202     9190     9173     9194     9251     9238     9190     9192 
    9200     9175     9159     9209     9275     9235     9169     9211 
    9259     9228     9171     9163     9235     9296     9239     9136 
    9157     9266     9254     9155     9188     9301     9266     9103 
    9050     9158     9282     9242     9101     9155     9283     9211 
    9177     9285     9244     9115     9184     9273     9115     9085 
    9366     9329     9051     9236     9405     9057     9054     9512 
    9485     9084     8887     8953     9221     9335     9174     9142 
    9211     9261     9382     9369     9212     9123     9013     8982 
    9274     9472     9173     9035     9378     9405     9161     9390 
    9544     8997     8703     9154     9342     9085     9159     9397 
    9209     9009     9371     9626     9150     8749     8970     9220 
    9293     9363     9159     8912     9229     9614     9359     9000 
    9043     9144     9277     9551     9509     9005     8648     8865 
    9333     9586     9590     9412     9023     8576     8544     9173 
    9622     9254     8939     9001     8777     8854     9795    10119 
    9221     8768     9162     9379     9455     9433     8969     8745 
    9269     9622     9382     9370     9583     9387     9132     9192 
    9259     9323     9452     9171     8664     8919     9621     9648 
    9263     9113     9009     8874     8807     8669     8627     8796 
    8849     9003     9551     9796     9522     9522     9859     9930 
    9682     9374     9173     9213     9279     8932     8413     8530 
    9162     9270     8857     8799     8976     8866     8789     9007 
    9188     9198     9159     9135     9336     9859    10301    10315 
   10021     9655     9256     8922     9077     9679     9737     9019 
    8733     9146     9270     9035     8768     8338     8306     8796 
    8700     8364     9042     9968     9987     9509     9321     9544 
    9463     8818     8534     8837     9031     9047     9205     9483 
    9572     9408     9423     9749     9787     9254     8754     8761 
    9107     9342     9113     8908     9316     9467     8862     8811 
    9521     9512     8895     8943     9135     8704     8657     9310 
    9686     9823    10076     9979     9401     8861     8857     9468 
   10050     9810     8961     8406     8328     8432     8934     9687 
    9787     9209     8918     9117     9369     9424     9113     8854 
    9016     8847     8324     8552     9290     9506     9545    10069 
   10420     9940     9383     9258     8791     8110     8311     8954 
    9231     9728    10355    10158     9616     9645     9648     8957 
    8388     8544     8599     8229     8318     9081     9784     9934 
    9706     9587     9485     8916     8272     8279     8762     9224 
    9424     9285     9188     9381     9478     9568     9991    10048 
    9211     8467     8644     8887     8553     8618     9458    10183 
   10350     9906     9043     8461     8502     8851     9031     8985 
    9220     9694     9630     9247     9495    10021     9945     9472 
    9142     9069     8993     8679     8546     8861     9173     9227 
    9174     9117     8928     8685     8924     9586     9765     9127 
    8464     8525     9022     9378     9622     9832     9853     9779 
    9645     9375     9111     8932     8826     8834     9000     9379 
    9745     9693     9333     9001     8679     8424     8509     8847 
    9096     9167     9192     9216     9325     9582     9634     9421 
    9486     9675     9454     9236     9458     9691     9509     9012 
    8691     8781     8949     9112     9352     9463     9547     9553 
    9027     8409     8333     8355     8229     8433     9097     9894 
   10424    10424     9918     9370     9175     9072     8908     8811 
    8491     8075     8274     9058     9884    10385    10257     9896 
   10017    10188     9693     8927     8568     8538     8382     8283 
    8858     9679     9825     9474     9286     9342     9225     8772 
    8625     8942     8901     8721     9089     9315     9054     9032 
    9246     9536    10164    10407     9698     9097     9115     8919 
    8499     8619     9131     9418     9618     9771     9271     8442 
    8294     8721     9150     9589     9998     9991     9612     9458 
    9460     9121     8864     8877     8641     8436     8618     8858 
    9076     9178     9074     9157     9424     9479     9493     9724 
    9817     9607     9445     9374     9381     9590     9553     9142 
    8947     8827     8413     8217     8456     8762     9022     8957 
    8503     8378     8804     9406    10106    10632    10546    10096 
    9761     9528     9362     9321     9197     8965     8918     8949 
    8924     9016     9031     8912     9088     9347     9170     8772 
    8368     7947     8058     8947     9733     9903    10030    10314 
   10215     9768     9614     9707     9572     9227     8881     8598 
    8390     8322     8432     8571     8857     9428     9734     9539 
    9389     9433     9301     9063     9184     9518     9725     9980 
   10054     9572     9004     8656     8380     8428     8710     8694 
    8602     8799     9162     9636     9850     9526     9281     9369 
    9254     8930     8856     9055     9406     9940    10277    10027 
    9450     8915     8537     8486     8885     9351     9417     9323 
    9337     9336     9432     9621     9333     8532     8149     8588 
    9288     9879    10223    10065     9418     8540     7915     8190 
    9045     9359     9175     9355     9729     9714     9455     9159 
    8885     8930     9315     9590     9663     9798     9737     9270 
    9040     9208     8985     8445     8352     8468     8437     8739 
    9289     9448     9354     9364     9319     9215     9366     9717 
    9915     9842     9625     9439     9346     9229     9134     9142 
    9177     9198     9081     8850     8959     9328     9204     8743 
    8868     9329     9146     8557     8503     8884     9116     9364 
    9823    10031     9841     9655     9452     9032     8722     8737 
    8937     9243     9458     9485     9468     9296     8970     8876 
    8928     8723     8479     8669     9146     9543     9930    10250 
   10062     9558     9470     9757     9825     9526     9121     8950 
    9024     8850     8445     8556     9038     8891     8336     8479 
    9003     8959     8804     9072     9324     9547     9803     9672 
    9470     9624     9628     9247     8900     8765     8781     8883 
    9022     9293     9632     9711     9545     9482     9475     9184 
    8735     8703     9159     9517     9610     9826    10152    10187 
    9829     9362     9073     9096     9328     9505     9621     9749 
    9680     9436     9343     9352     9196     8955     8788     8626 
    8445     8290     8341     8864     9556     9784     9513     9209 
    9024     8818     8706     8811     9039     9344     9551     9657 
    9981    10309    10235     9837     9243     8625     8371     8567 
    8839     8897     8714     8349     8036     7898     7770     7715 
    7773     7603     7410     7981     9343    10785    11920    12552 
   12297    11157     9664     8291     7276     6781     6774     7102 
    7782     8719     9595    10400    11233    11878    12058    11566 
   10449     9136     7967     7122     6941     7211     7141     6704 
    6446     6436     6574     6841     7219     7893     8941    10072 
   11025    11815    12444    12798    12920    12962    12825    12441 
   12023    11813    11997    12459    12737    12656    12411    11978 
   11115     9769     7989     5861     3804     2431     2010     2493 
    3978     6139     7915     8829     9333     9529     9130     8478 
    8384     9031     9875    10505    10810    10798    10679    10538 
   10349    10304    10365    10210     9910     9745     9795    10088 
   10430    10500    10152     9144     7615     6523     6552     7353 
    8181     8658     8702     8384     8170     8478     9092     9377 
    8982     8371     8133     8268     8729     9605    10604    11319 
   11626    11495    11222    11130    10829    10053     9232     8564 
    8125     8276     8914     9394     9316     8725     7900     7206 
    6878     6916     7330     8189     9335    10467    11269    11358 
   10693    10061    10216    10671    10552    10079     9940    10026 
    9666     8658     7615     7321     7963     8942     9539     9725 
    9703     9248     8415     7816     7738     8046     8629     9166 
    9166     8572     7884     7658     8073     9112    10536    11514 
   11583    11310    10899    10011     9078     8716     8764     8884 
    9003     9293     9934    10505    10351     9606     9067     9107 
    9267     9050     8532     8043     7703     7453     7281     7368 
    7925     8831     9846    10863    11572    11523    10567     8947 
    7150     5946     6041     7249     8753     9988    10619    10619 
   10454    10389    10253     9972     9509     8758     8073     8105 
    8800     9292     9126     8873     9093     9645    10303    10922 
   11237    11206    10936    10392     9741     9213     8672     8055 
    7663     7889     8993    10575    11641    11639    10638     8912 
    7125     6076     5950     6448     7218     7839     8106     8305 
    8635     8745     8376     7938     7951     8496     9364    10322 
   11203    11948    12367    12140    11337    10434     9869     9795 
    9988    10176    10212     9899     9401     9196     9200     8966 
    8596     8486     8588     8645     8560     8284     7985     7990 
    8307     8754     9216     9447     9169     8378     7516     7218 
    7587     8160     8483     8533     8684     9116     9624    10087 
   10465    10520    10095     9355     8611     8226     8409     8986 
    9767    10521    10881    10750    10311     9845     9680     9751 
    9653     9333     9154     9381     9792     9876     9570     9225 
    8877     8506     8437     8726     9054     9229     9247     9175 
    9093     9073     9105     8950     8459     7778     7088     6690 
    6868     7584     8722    10039    10943    10966    10323     9628 
    9198     9173     9733    10608    11232    11322    10835     9903 
    8996     8664     8939     9431     9918    10206    10219    10243 
   10145     9568     8905     8638     8646     8834     9344     9871 
    9823     9340     9046     9165     9526     9803     9680     9147 
    8525     8037     7591     7200     7069     7231     7647     8314 
    9158    10015    10444     9937     8700     7531     6851     6596 
    6704     7111     7584     7940     8337     8958     9587     9979 
   10253    10561    10858    11080    11137    10974    10822    10864 
   10910    10827    10594    10203     9925     9971    10058     9925 
    9765     9722     9571     9308     9236     9321     9301     9198 
    9208     9309     9254     8931     8460     8020     7877     8137 
    8469     8545     8348     7948     7512     7230     7059     7001 
    7285     7979     8935    10030    11017    11512    11326    10612 
    9745     9166     9126     9448     9772     9856     9548     8928 
    8383     8201     8441     9077     9979    10860    11304    11117 
   10569     9976     9602     9761    10251    10415    10069     9556 
    9121     8712     8121     7329     6689     6544     6866     7395 
    7843     7924     7615     7376     7647     8347     9069     9490 
    9582     9514     9441     9493     9747    10242    10891    11369 
   11354    10856    10156     9493     9090     9223     9933    10936 
   11785    12017    11423    10245     8911     7716     6868     6594 
    6986     7885     8850     9417     9586     9586     9440     9243 
    9178     9224     9296     9340     9283     9127     8912     8749 
    8807     8997     9111     9103     8937     8783     8957     9319 
    9502     9397     8991     8397     7902     7727     7931     8419 
    9072     9776    10326    10663    10890    10897    10590    10102 
    9549     9013     8552     8154     7875     7889     8255     8745 
    9050     9167     9277     9439     9643     9790     9791     9714 
    9571     9424     9485     9668     9726     9648     9413     8957 
    8451     8124     8037     8186     8583     9201     9876    10331 
   10377     9991     9339     8731     8432     8525     8903     9439 
   10048    10578    10905    10979    10778    10312     9693     9157 
    8869     8748     8584     8279     7893     7547     7365     7439 
    7738     8075     8290     8351     8379     8590     8958     9279 
    9591     9973    10273    10312    10079     9737     9459     9271 
    9139     9046     8973     8915     8924     9078     9410     9872 
   10324    10578    10500    10131     9683     9439     9437     9431 
    9350     9394     9647     9934    10066     9988     9687     9173 
    8621     8244     8087     8106     8221     8364     8564     8748 
    8735     8588     8500     8544     8731     9016     9279     9406 
    9383     9312     9212     9113     9138     9134     8945     8753 
    8753     8965     9247     9427     9575     9798    10017    10187 
   10280    10179     9888     9504     9045     8592     8303     8191 
    8221     8351     8480     8611     8810     9107     9491     9829 
    9950     9855     9661     9464     9301     9147     8959     8741 
