Origin Time       2025/03/28 03:50:00
Lat.              35.403
Long.             140.360
Depth. (km)       54
Mag.              4.4
Station Code      IBR010
Station Lat.      36.1844
Station Long.     139.9652
Station Height(m) 22
Record Time       2025/03/28 03:51:12
Sampling Freq(Hz) 100Hz
Duration Time(s)  60
Dir.              U-D
Scale Factor      7845(gal)/8223790
Max. Acc. (gal)   0.539
Last Correction   2025/03/28 03:51:12
Memo.             
[...]
   13483    13466    13574    13651    13586    13475    13468    13527 
   13498    13431    13520    13729    13792    13667    13562    13581 
   13598    13491    13339    13302    13412    13539    13563    13548 
   13587    13587    13479    13419    13509    13643    13678    13601 
   13493    13455    13533    13618    13563    13409    13333    13409 
   13544    13606    13558    13482    13471    13512    13563    13630 
   13663    13571    13456    13502    13649    13709    13613    13458 
   13419    13544    13671    13639    13513    13470    13509    13552 
   13614    13648    13560    13425    13375    13405    13446    13470 
   13458    13423    13458    13579    13686    13722    13663    13471 
   13259    13248    13437    13595    13635    13639    13637    13608 
   13563    13506    13464    13490    13529    13479    13421    13475 
   13554    13545    13510    13518    13589    13691    13707    13575 
   13443    13467    13559    13602    13656    13683    13547    13356 
   13315    13401    13490    13540    13563    13582    13598    13575 
   13528    13528    13581    13609    13608    13621    13624    13555 
   13462    13464    13539    13533    13431    13371    13429    13514 
   13500    13439    13475    13571    13593    13522    13432    13402 
   13470    13555    13603    13651    13674    13622    13541    13497 
   13485    13467    13425    13406    13441    13497    13543    13556 
   13549    13587    13664    13678    13589    13485    13463    13498 
   13513    13517    13544    13554    13481    13389    13400    13493 
   13535    13479    13437    13518    13666    13757    13737    13621 
   13487    13416    13394    13382    13386    13408    13428    13482 
   13609    13744    13818    13797    13671    13514    13444    13478 
   13506    13478    13444    13413    13398    13475    13614    13702 
   13698    13629    13541    13481    13485    13544    13579    13587 
   13616    13624    13590    13559    13578    13653    13705    13648 
   13533    13487    13533    13539    13436    13328    13324    13432 
   13549    13572    13524    13467    13450    13489    13554    13613 
   13618    13532    13432    13396    13386    13369    13367    13405 
   13486    13571    13593    13567    13555    13544    13520    13493 
   13468    13435    13400    13412    13462    13501    13555    13602 
   13601    13624    13675    13680    13644    13581    13555    13640 
   13726    13686    13586    13572    13667    13706    13575    13417 
   13390    13447    13485    13506    13571    13689    13767    13710 
   13552    13413    13342    13315    13319    13387    13551    13687 
   13641    13489    13412    13437    13414    13257    13101    13139 
   13381    13608    13591    13452    13500    13706    13792    13699 
   13617    13613    13559    13468    13485    13587    13674    13676 
   13556    13390    13332    13420    13498    13470    13433    13493 
   13618    13714    13721    13668    13629    13610    13554    13475 
   13478    13575    13630    13545    13467    13566    13697    13664 
   13554    13512    13520    13498    13471    13491    13529    13594 
   13702    13743    13670    13572    13544    13579    13591    13543 
   13477    13435    13451    13522    13572    13556    13471    13320 
   13178    13139    13211    13332    13439    13514    13586    13668 
   13721    13713    13672    13680    13780    13837    13680    13397 
   13250    13327    13443    13436    13390    13441    13536    13555 
   13531    13548    13570    13521    13450    13463    13574    13678 
   13703    13656    13560    13485    13435    13378    13379    13456 
   13517    13522    13500    13502    13571    13651    13672    13618 
   13491    13351    13293    13358    13495    13635    13706    13676 
   13590    13545    13570    13586    13544    13485    13471    13505 
   13537    13547    13543    13583    13649    13582    13396    13320 
   13416    13533    13587    13599    13601    13583    13537    13502 
   13524    13629    13737    13698    13544    13470    13518    13555 
   13498    13433    13474    13585    13633    13563    13416    13297 
   13275    13313    13383    13474    13516    13520    13591    13710 
   13770    13726    13635    13548    13466    13408    13419    13466 
   13500    13483    13432    13413    13435    13464    13508    13572 
   13672    13765    13764    13675    13617    13660    13730    13711 
   13599    13460    13358    13354    13419    13467    13527    13632 
   13694    13625    13502    13458    13474    13455    13404    13385 
   13433    13548    13668    13702    13637    13539    13471    13439 
   13409    13397    13452    13551    13612    13597    13559    13571 
   13635    13682    13628    13487    13406    13437    13458    13427 
   13428    13474    13521    13543    13529    13518    13578    13655 
   13622    13528    13528    13587    13568    13463    13378    13366 
   13387    13427    13485    13524    13520    13504    13504    13531 
   13552    13495    13405    13414    13501    13540    13562    13639 
   13722    13738    13693    13651    13633    13608    13540    13448 
   13416    13481    13564    13589    13574    13564    13572    13581 
   13582    13586    13583    13535    13446    13404    13468    13527 
   13477    13401    13412    13504    13568    13510    13409    13397 
   13446    13482    13541    13602    13571    13501    13521    13605 
   13655    13668    13670    13651    13612    13559    13506    13491 
   13520    13522    13493    13494    13506    13463    13417    13462 
   13533    13513    13433    13408    13477    13589    13635    13594 
   13559    13544    13505    13477    13493    13521    13531    13522 
   13505    13497    13518    13551    13560    13568    13597    13635 
   13660    13664    13671    13724    13792    13753    13576    13401 
   13344    13390    13455    13487    13466    13409    13397    13478 
   13564    13562    13524    13524    13547    13583    13613    13616 
   13593    13506    13366    13311    13393    13486    13504    13495 
   13532    13582    13603    13624    13670    13698    13693    13676 
   13616    13490    13371    13317    13342    13471    13626    13643 
   13522    13454    13478    13466    13408    13433    13532    13583 
   13547    13462    13420    13490    13601    13630    13599    13602 
   13621    13595    13570    13582    13574    13524    13486    13473 
   13427    13362    13358    13397    13416    13435    13510    13639 
   13734    13747    13728    13702    13613    13448    13302    13275 
   13333    13387    13466    13583    13594    13436    13302    13385 
   13581    13637    13551    13549    13682    13753    13679    13606 
   13649    13699    13618    13506    13536    13628    13599    13482 
   13408    13394    13419    13482    13551    13581    13590    13629 
   13687    13678    13586    13513    13506    13521    13482    13400 
   13400    13505    13541    13447    13392    13489    13625    13636 
   13541    13510    13598    13689    13706    13684    13645    13554 
   13405    13306    13344    13444    13470    13424    13424    13528 
   13682    13734    13616    13482    13462    13489    13490    13471 
   13489    13590    13705    13724    13610    13420    13255    13153 
   13135    13255    13443    13535    13512    13518    13657    13856 
   13949    13864    13716    13624    13567    13473    13321    13193 
   13216    13370    13479    13487    13513    13620    13705    13686 
   13649    13717    13848    13891    13776    13583    13450    13410 
   13370    13244    13100    13092    13242    13404    13491    13586 
   13732    13821    13717    13494    13398    13504    13616    13581 
   13505    13517    13555    13547    13545    13614    13721    13765 
   13701    13575    13478    13439    13398    13347    13382    13487 
   13513    13431    13387    13490    13674    13775    13722    13620 
   13575    13552    13479    13421    13454    13513    13497    13423 
   13406    13502    13613    13614    13535    13508    13575    13622 
   13560    13477    13466    13485    13471    13448    13477    13556 
   13639    13675    13637    13536    13466    13464    13440    13371 
   13363    13460    13552    13549    13512    13489    13463    13490 
   13591    13656    13624    13582    13605    13660    13701    13680 
   13602    13537    13525    13522    13506    13524    13591    13643 
   13636    13613    13583    13539    13516    13516    13491    13436 
   13375    13369    13455    13560    13590    13543    13489    13471 
   13486    13514    13512    13441    13386    13437    13525    13556 
   13563    13572    13567    13551    13528    13494    13482    13501 
   13510    13505    13543    13587    13563    13527    13575    13687 
   13748    13675    13527    13425    13404    13397    13362    13348 
   13383    13416    13425    13427    13423    13451    13532    13616 
   13684    13803    13950    13950    13740    13517    13443    13448 
   13412    13320    13252    13286    13367    13397    13439    13576 
   13682    13632    13536    13543    13641    13713    13695    13606 
   13495    13450    13509    13567    13551    13516    13500    13522 
   13589    13617    13564    13508    13501    13505    13510    13532 
   13551    13570    13622    13668    13644    13576    13525    13489 
   13464    13486    13524    13531    13527    13483    13400    13381 
   13454    13516    13536    13583    13682    13795    13851    13792 
   13660    13547    13450    13327    13213    13161    13181    13248 
   13319    13423    13575    13683    13690    13639    13612    13664 
   13763    13786    13678    13528    13456    13483    13549    13622 
   13668    13632    13517    13410    13363    13344    13316    13293 
   13301    13327    13352    13402    13489    13579    13635    13609 
   13532    13547    13679    13770    13721    13579    13423    13332 
   13379    13501    13543    13481    13437    13490    13605    13718 
   13761    13686    13543    13451    13458    13524    13549    13495 
   13475    13543    13602    13597    13555    13528    13562    13632 
   13684    13694    13667    13614    13522    13436    13458    13576 
   13671    13668    13614    13605    13655    13691    13640    13512 
   13408    13379    13367    13365    13393    13398    13359    13347 
   13382    13389    13390    13462    13510    13460    13419    13459 
   13505    13493    13440    13406    13428    13494    13556    13576 
   13581    13624    13694    13745    13772    13794    13794    13744 
   13675    13632    13635    13649    13617    13564    13536    13500 
   13435    13350    13258    13192    13139    13105    13155    13290 
   13433    13500    13495    13521    13618    13713    13751    13755 
   13751    13732    13702    13686    13699    13745    13778    13721 
   13587    13493    13490    13495    13440    13371    13350    13352 
   13340    13286    13240    13301    13429    13471    13441    13495 
   13635    13684    13609    13581    13674    13770    13765    13695 
   13628    13590    13574    13572    13591    13635    13655    13609 
   13516    13439    13413    13394    13300    13167    13154    13304 
   13482    13559    13581    13653    13747    13770    13701    13606 
   13616    13721    13749    13641    13501    13420    13381    13331 
   13286    13297    13383    13524    13648    13738    13869    14021 
   14084    14019    13892    13753    13602    13446    13313    13258 
   13305    13360    13346    13306    13320    13410    13475    13416 
   13311    13261    13269    13289    13271    13269    13414    13679 
   13859    13855    13760    13694    13647    13564    13494    13508 
   13549    13528    13452    13421    13506    13635    13651    13564 
   13532    13605    13657    13610    13540    13529    13541    13473 
   13308    13153    13108    13185    13323    13460    13616    13775 
   13849    13809    13728    13666    13635    13620    13591    13575 
   13612    13670    13682    13636    13602    13630    13657    13599 
   13474    13366    13360    13436    13471    13448    13450    13473 
   13460    13440    13490    13581    13576    13456    13346    13335 
   13405    13483    13494    13432    13397    13440    13487    13475 
   13431    13414    13481    13594    13662    13682    13690    13693 
   13690    13672    13652    13648    13608    13478    13328    13269 
   13301    13328    13304    13297    13375    13490    13572    13616 
   13641    13678    13725    13740    13679    13598    13583    13597 
   13537    13444    13435    13504    13566    13582    13593    13660 
   13798    13927    13964    13906    13784    13639    13532    13498 
   13495    13444    13350    13302    13342    13414    13459    13458 
   13456    13498    13564    13590    13554    13497    13447    13389 
   13360    13392    13417    13427    13485    13586    13698    13818 
   13891    13830    13666    13545    13518    13504    13468    13432 
   13406    13433    13478    13439    13366    13356    13358    13313 
   13248    13196    13185    13246    13348    13459    13579    13698 
   13763    13768    13795    13895    14003    14046    14030    13992 
   13965    13921    13783    13591    13458    13358    13209    13047 
   12965    13003    13103    13182    13232    13315    13462    13587 
   13608    13591    13640    13693    13653    13579    13564    13590 
   13566    13474    13413    13482    13633    13730    13722    13676 
   13635    13582    13532    13497    13432    13360    13362    13402 
   13404    13402    13454    13493    13436    13324    13275    13350 
   13475    13540    13536    13545    13624    13757    13878    13927 
   13894    13801    13662    13501    13369    13278    13204    13134 
   13117    13259    13517    13694    13751    13834    13975    14056 
   13998    13869    13763    13647    13474    13277    13136    13104 
   13123    13122    13167    13327    13528    13668    13724    13740 
   13759    13741    13630    13478    13389    13382    13429    13516 
   13625    13745    13867    13969    14027    13998    13879    13753 
   13662    13528    13331    13181    13159    13198    13189    13140 
   13176    13309    13441    13521    13581    13668    13744    13752 
   13741    13768    13778    13718    13609    13500    13417    13339 
   13257    13198    13185    13201    13246    13313    13378    13419 
   13451    13522    13632    13724    13774    13806    13818    13787 
   13722    13672    13640    13560    13433    13352    13408    13562 
   13679    13686    13621    13539    13459    13383    13321    13254 
   13188    13188    13282    13420    13541    13636    13695    13693 
   13664    13678    13701    13652    13533    13444    13456    13536 
   13617    13657    13647    13605    13576    13572    13556    13535 
   13552    13564    13486    13360    13296    13313    13338    13340 
   13365    13419    13486    13562    13605    13591    13574    13587 
   13599    13576    13531    13502    13535    13629    13713    13717 
   13666    13621    13589    13522    13393    13257    13207    13266 
   13378    13464    13508    13574    13705    13837    13909    13940 
   13953    13933    13860    13765    13716    13725    13717    13626 
   13512    13466    13471    13436    13350    13293    13300    13352 
   13404    13378    13301    13269    13281    13278    13252    13246 
   13306    13456    13671    13868    13938    13876    13767    13662 
   13586    13558    13563    13581    13581    13556    13536    13527 
   13525    13486    13373    13259    13257    13358    13462    13525 
   13587    13645    13629    13545    13489    13506    13547    13545 
   13524    13539    13594    13672    13748    13778    13744    13686 
   13628    13549    13437    13311    13205    13178    13227    13298 
   13382    13467    13475    13381    13292    13319    13432    13535 
   13602    13686    13799    13899    13944    13930    13888    13838 
   13741    13587    13459    13402    13346    13227    13113    13131 
   13285    13446    13508    13540    13680    13883    13948    13836 
   13682    13532    13333    13149    13088    13150    13244    13346 
   13487    13651    13756    13768    13711    13633    13552    13468 
   13419    13414    13405    13402    13463    13558    13602    13587 
   13559    13551    13548    13527    13527    13618    13767    13857 
   13856    13811    13751    13649    13512    13416    13436    13509 
   13517    13458    13423    13446    13470    13455    13428    13416 
   13414    13417    13441    13493    13514    13500    13529    13616 
   13662    13618    13535    13483    13475    13448    13378    13336 
   13360    13401    13439    13513    13614    13698    13748    13772 
   13774    13759    13740    13703    13624    13521    13432    13396 
   13405    13417    13428    13487    13583    13651    13687    13744 
   13809    13792    13678    13531    13423    13371    13335    13292 
   13277    13304    13340    13352    13347    13362    13401    13444 
   13493    13548    13608    13667    13724    13788    13846    13855 
   13798    13690    13582    13514    13478    13429    13352    13263 
   13209    13208    13234    13269    13324    13417    13512    13566 
   13575    13555    13524    13520    13552    13578    13564    13560 
   13628    13729    13787    13776    13734    13711    13699    13643 
   13525    13398    13316    13271    13216    13174    13248    13436 
   13598    13671    13729    13814    13840    13760    13675    13680 
   13740    13755    13678    13585    13564    13582    13529    13390 
   13267    13242    13274    13281    13271    13319    13410    13473 
   13489    13491    13524    13599    13663    13682    13720    13814 
   13875    13810    13691    13647    13655    13601    13463    13338 
   13312    13369    13431    13483    13559    13630    13635    13587 
   13525    13451    13369    13316    13325    13405    13532    13640 
   13682    13664    13589    13451    13324    13277    13297    13366 
   13482    13643    13818    13946    13986    13940    13825    13686 
   13578    13490    13400    13342    13325    13325    13340    13371 
   13392    13393    13413    13455    13494    13560    13655    13695 
   13649    13564    13500    13473    13470    13481    13502    13527 
   13556    13609    13686    13738    13724    13648    13531    13412 
   13363    13365    13342    13315    13328    13377    13436    13481 
   13493    13483    13460    13431    13413    13427    13467    13494 
   13491    13505    13562    13616    13617    13594    13595    13633 
   13705    13792    13864    13894    13895    13882    13844    13788 
   13710    13594    13466    13373    13301    13220    13167    13192 
   13254    13290    13309    13339    13390    13433    13441    13441 
   13468    13502    13524    13535    13539    13536    13518    13512 
   13554    13621    13674    13694    13657    13593    13559    13563 
   13568    13537    13498    13540    13656    13724    13676    13586 
