Origin Time       2025/03/28 03:50:00
Lat.              35.403
Long.             140.360
Depth. (km)       54
Mag.              4.4
Station Code      IBR010
Station Lat.      36.1844
Station Long.     139.9652
Station Height(m) 22
Record Time       2025/03/28 03:51:12
Sampling Freq(Hz) 100Hz
Duration Time(s)  60
Dir.              E-W
Scale Factor      7845(gal)/8223790
Max. Acc. (gal)   1.365
Last Correction   2025/03/28 03:51:12
Memo.             
[...]
    3708     3694     3713     3738     3767     3798     3812     3811 
    3796     3773     3774     3812     3855     3859     3825     3797 
    3790     3790     3816     3856     3869     3862     3846     3834 
    3843     3838     3807     3780     3758     3739     3755     3805 
    3850     3861     3831     3778     3750     3765     3785     3798 
    3817     3825     3793     3738     3727     3755     3766     3790 
    3865     3933     3948     3923     3897     3878     3854     3839 
    3823     3817     3850     3886     3877     3817     3754     3740 
    3753     3753     3750     3766     3802     3840     3848     3811 
    3731     3658     3653     3701     3758     3805     3848     3882 
    3888     3854     3796     3738     3705     3709     3732     3755 
    3786     3828     3847     3832     3808     3794     3784     3766 
    3766     3804     3839     3846     3865     3889     3871     3801 
    3713     3669     3689     3724     3736     3762     3820     3871 
    3879     3859     3832     3780     3720     3735     3821     3877 
    3865     3844     3840     3828     3793     3747     3730     3762 
    3829     3900     3931     3912     3869     3840     3831     3815 
    3785     3773     3789     3800     3798     3802     3794     3757 
    3715     3686     3684     3699     3709     3719     3731     3742 
    3775     3834     3885     3920     3933     3915     3855     3773 
    3708     3703     3753     3820     3879     3908     3886     3827 
    3754     3703     3705     3765     3839     3879     3901     3932 
    3929     3862     3778     3732     3726     3734     3750     3786 
    3809     3793     3775     3775     3789     3798     3773     3727 
    3719     3774     3842     3856     3843     3835     3824     3819 
    3827     3848     3877     3888     3888     3881     3836     3759 
    3697     3701     3763     3805     3805     3821     3877     3917 
    3915     3904     3881     3827     3757     3689     3643     3627 
    3657     3734     3804     3856     3894     3886     3843     3782 
    3728     3739     3801     3858     3881     3869     3855     3852 
    3838     3807     3771     3755     3765     3761     3723     3715 
    3771     3819     3804     3755     3697     3658     3646     3642 
    3667     3716     3742     3774     3842     3923     3979     3963 
    3892     3819     3771     3758     3750     3723     3738     3827 
    3913     3920     3865     3815     3802     3808     3798     3766 
    3731     3730     3780     3838     3854     3848     3846     3832 
    3819     3815     3808     3815     3842     3883     3913     3898 
    3843     3765     3674     3596     3558     3565     3604     3681 
    3794     3863     3838     3790     3798     3829     3832     3842 
    3883     3913     3905     3886     3855     3796     3721     3697 
    3750     3809     3838     3862     3871     3848     3808     3759 
    3731     3759     3851     3939     3952     3929     3948     3978 
    3943     3871     3824     3813     3832     3848     3838     3808 
    3746     3688     3696     3734     3759     3790     3831     3870 
    3897     3883     3807     3692     3613     3622     3667     3690 
    3680     3665     3704     3781     3825     3835     3824     3794 
    3761     3723     3705     3721     3746     3780     3812     3819 
    3808     3773     3732     3740     3774     3812     3886     3978 
    4023     4006     3956     3871     3763     3697     3693     3699 
    3705     3757     3851     3929     3958     3962     3937     3877 
    3832     3858     3889     3850     3800     3807     3836     3847 
    3832     3802     3747     3670     3645     3667     3643     3578 
    3562     3600     3630     3632     3674     3771     3867     3939 
    3958     3905     3861     3861     3848     3796     3717     3667 
    3693     3769     3825     3834     3817     3809     3801     3789 
    3775     3771     3805     3873     3923     3931     3931     3952 
    3973     3959     3904     3834     3800     3821     3856     3883 
    3924     3950     3908     3817     3736     3700     3694     3690 
    3670     3650     3673     3723     3727     3688     3673     3692 
    3688     3666     3690     3750     3789     3807     3843     3915 
    3989     4023     4013     3975     3919     3874     3852     3828 
    3801     3819     3882     3920     3901     3869     3843     3804 
    3753     3703     3677     3666     3678     3738     3812     3859 
    3902     3931     3886     3804     3763     3766     3766     3719 
    3640     3601     3642     3721     3778     3781     3754     3727 
    3727     3774     3835     3842     3812     3827     3881     3908 
    3912     3897     3862     3838     3802     3715     3627     3599 
    3631     3709     3786     3819     3831     3850     3855     3813 
    3748     3709     3719     3762     3815     3874     3940     3983 
    3977     3902     3798     3751     3782     3870     3985     4048 
    4033     4008     3994     3933     3801     3670     3603     3584 
    3612     3689     3763     3789     3789     3788     3746     3655 
    3582     3565     3603     3672     3721     3754     3809     3861 
    3869     3836     3769     3690     3655     3676     3723     3797 
    3889     3943     3944     3927     3910     3888     3848     3817 
    3824     3863     3904     3924     3910     3867     3829     3843 
    3896     3932     3935     3925     3921     3904     3855     3778 
    3696     3655     3684     3747     3789     3788     3761     3755 
    3804     3856     3856     3820     3793     3792     3793     3762 
    3707     3681     3734     3817     3855     3843     3829     3829 
    3811     3755     3684     3631     3627     3678     3734     3758 
    3778     3827     3882     3893     3850     3780     3717     3701 
    3720     3723     3709     3748     3859     3956     3975     3959 
    3952     3939     3905     3866     3836     3819     3812     3811 
    3801     3800     3820     3817     3778     3758     3785     3821 
    3840     3850     3842     3808     3781     3755     3700     3647 
    3649     3694     3707     3639     3561     3528     3539     3585 
    3630     3655     3709     3805     3878     3896     3870     3840 
    3852     3921     4000     4027     3993     3981     4059     4162 
    4163     4052     3931     3874     3844     3780     3724     3751 
    3817     3832     3789     3762     3773     3740     3663     3622 
    3600     3581     3615     3685     3721     3727     3759     3823 
    3856     3817     3754     3746     3786     3797     3769     3790 
    3898     3991     3966     3870     3798     3727     3620     3531 
    3519     3581     3685     3794     3879     3932     3948     3919 
    3867     3844     3855     3874     3908     3978     4028     3981 
    3858     3730     3650     3647     3707     3788     3850     3882 
    3900     3885     3815     3751     3753     3789     3832     3866 
    3882     3894     3909     3901     3856     3804     3782     3777 
    3763     3770     3824     3896     3929     3915     3858     3777 
    3701     3632     3553     3503     3532     3616     3700     3732 
    3724     3739     3781     3792     3747     3703     3732     3820 
    3889     3916     3943     3971     3951     3897     3865     3861 
    3852     3813     3746     3688     3688     3754     3831     3879 
    3935     4013     4048     3986     3867     3793     3790     3798 
    3796     3823     3883     3931     3927     3875     3770     3632 
    3531     3492     3473     3461     3473     3512     3577     3657 
    3708     3730     3770     3840     3900     3913     3890     3865 
    3838     3809     3784     3742     3686     3661     3708     3812 
    3909     3970     4004     4028     4064     4098     4082     4036 
    4010     3998     3958     3890     3825     3742     3638     3601 
    3657     3728     3766     3770     3739     3682     3623     3589 
    3595     3651     3770     3927     4067     4145     4152     4083 
    3990     3935     3901     3858     3801     3758     3755     3750 
    3689     3607     3573     3595     3630     3650     3669     3696 
    3730     3774     3793     3754     3700     3696     3738     3785 
    3821     3852     3882     3908     3948     4005     4028     4000 
    3959     3919     3861     3800     3761     3732     3674     3577 
    3485     3426     3400     3420     3478     3553     3646     3767 
    3883     3963     4000     4008     4017     4047     4075     4059 
    3985     3875     3786     3757     3753     3730     3711     3731 
    3777     3821     3819     3740     3631     3569     3580     3634 
    3678     3715     3766     3812     3821     3802     3794     3808 
    3817     3817     3825     3839     3871     3898     3882     3844 
    3815     3813     3844     3867     3850     3802     3770     3798 
    3870     3924     3948     3971     3981     3951     3913     3898 
    3892     3888     3904     3942     3977     4000     4016     4008 
    3944     3829     3705     3600     3510     3415     3326     3296 
    3331     3370     3407     3480     3588     3704     3815     3886 
    3889     3882     3925     3978     3998     4004     3990     3923 
    3816     3726     3670     3635     3624     3634     3657     3681 
    3693     3705     3740     3781     3817     3894     4020     4114 
    4153     4195     4240     4221     4135     4059     4058     4114 
    4170     4187     4168     4139     4109     4031     3878     3701 
    3569     3492     3449     3416     3377     3343     3353     3419 
    3503     3578     3666     3789     3927     4047     4116     4108 
    4062     4027     4024     4048     4056     4024     3970     3902 
    3839     3763     3665     3604     3603     3611     3589     3549 
    3520     3505     3496     3504     3539     3623     3765     3890 
    3944     3967     4001     4041     4056     4024     3967     3925 
    3916     3910     3870     3769     3623     3477     3353     3227 
    3100     2995     2964     3036     3172     3356     3596     3892 
    4207     4480     4675     4800     4872     4912     4923     4872 
    4747     4554     4302     4010     3707     3414     3152     2960 
    2874     2875     2937     3030     3122     3231     3379     3566 
    3811     4085     4330     4526     4650     4693     4673     4596 
    4468     4309     4136     3981     3858     3747     3643     3565 
    3512     3465     3420     3383     3321     3200     3053     2948 
    2926     3001     3152     3318     3445     3549     3659     3759 
    3824     3866     3928     4017     4086     4104     4072     3987 
    3828     3608     3402     3289     3281     3339     3441     3599 
    3807     4005     4160     4283     4394     4495     4579     4637 
    4639     4567     4434     4256     4040     3820     3615     3441 
    3294     3133     2986     2903     2852     2813     2840     2982 
    3246     3569     3870     4144     4392     4604     4770     4865 
    4881     4854     4797     4695     4554     4392     4202     4006 
    3843     3709     3620     3596     3623     3690     3785     3889 
    3971     4012     4024     3977     3820     3605     3395     3226 
    3156     3176     3244     3326     3395     3476     3578     3658 
    3727     3844     4008     4144     4194     4137     4023     3912 
    3801     3686     3620     3622     3643     3636     3581     3477 
    3342     3223     3188     3254     3377     3512     3623     3676 
    3685     3719     3775     3817     3855     3913     3987     4062 
    4106     4105     4093     4094     4081     4029     3983     3989 
    4025     4012     3898     3730     3608     3576     3591     3630 
    3720     3870     4018     4090     4066     4000     3943     3916 
    3927     3958     3979     3989     4001     4006     3978     3892 
    3750     3601     3480     3383     3311     3256     3200     3167 
    3203     3312     3465     3623     3801     4045     4317     4519 
    4603     4592     4538     4464     4376     4298     4217     4109 
    3990     3889     3797     3705     3618     3539     3478     3429 
    3384     3354     3329     3291     3253     3240     3242     3246 
    3268     3348     3505     3694     3834     3919     3994     4048 
    4051     3986     3889     3839     3873     3951     4000     3954 
    3823     3670     3553     3495     3497     3566     3731     3970 
    4212     4394     4507     4595     4702     4816     4853     4730 
    4484     4222     4010     3850     3705     3565     3431     3312 
    3200     3078     2963     2918     2995     3171     3396     3639 
    3813     3840     3762     3692     3684     3716     3775     3896 
    4078     4260     4368     4379     4328     4272     4251     4255 
    4255     4226     4175     4112     3981     3732     3442     3222 
    3107     3092     3168     3307     3501     3720     3908     4020 
    4040     3974     3836     3676     3580     3572     3603     3622 
    3616     3609     3613     3586     3496     3414     3412     3492 
    3605     3713     3774     3762     3696     3631     3630     3727 
    3925     4207     4526     4815     5004     5019     4823     4464 
    4033     3619     3260     2952     2687     2474     2369     2428 
    2639     2930     3264     3636     4018     4329     4529     4653 
    4719     4710     4625     4506     4394     4282     4174     4095 
    4033     3948     3827     3707     3639     3607     3582     3581 
    3603     3619     3616     3584     3528     3495     3496     3512 
    3547     3645     3835     4074     4249     4314     4322     4309 
    4261     4160     3985     3780     3635     3585     3592     3595 
    3580     3581     3608     3624     3580     3485     3442     3527 
    3715     3932     4152     4378     4545     4588     4541     4483 
    4422     4299     4097     3866     3657     3478     3314     3167 
    3053     2967     2902     2887     2911     2932     2947     2999 
    3100     3217     3333     3465     3634     3840     4050     4202 
    4294     4388     4509     4595     4615     4602     4563     4479 
    4378     4294     4187     4033     3912     3881     3901     3915 
    3898     3852     3796     3766     3785     3809     3781     3716 
    3665     3636     3607     3557     3492     3411     3308     3218 
    3207     3308     3497     3717     3877     3909     3834     3720 
    3603     3493     3450     3539     3735     3933     4074     4174 
    4266     4371     4467     4503     4453     4388     4376     4368 
    4311     4220     4109     3982     3846     3689     3485     3246 
    3030     2909     2911     3003     3142     3292     3402     3445 
    3445     3441     3461     3515     3616     3773     3944     4048 
    4059     4032     4025     4045     4052     4024     4009     4048 
    4106     4097     3966     3778     3645     3589     3559     3527 
    3515     3545     3626     3744     3873     3991     4081     4136 
    4147     4109     4044     3982     3944     3955     4009     4075 
    4131     4159     4136     4055     3946     3844     3771     3740 
    3761     3800     3815     3790     3743     3709     3734     3820 
    3921     4010     4108     4198     4226     4178     4058     3888 
    3716     3555     3373     3169     3014     2970     2999     3026 
    3029     3030     3033     3038     3087     3210     3357     3493 
    3665     3920     4232     4536     4769     4893     4903     4811 
    4633     4374     4067     3794     3626     3581     3612     3655 
    3688     3721     3766     3805     3821     3824     3839     3871 
    3886     3842     3735     3572     3373     3230     3222     3299 
    3369     3429     3539     3707     3861     3952     4020     4099 
    4176     4214     4207     4162     4059     3909     3766     3659 
    3595     3564     3564     3616     3723     3865     4037     4247 
    4456     4591     4610     4534     4398     4212     3987     3770 
    3599     3447     3308     3208     3127     3046     2982     2975 
    3078     3306     3586     3819     3983     4120     4233     4278 
    4240     4158     4059     3950     3832     3703     3565     3466 
    3477     3615     3811     3958     4005     3982     3928     3852 
    3767     3693     3669     3726     3809     3851     3847     3807 
    3747     3704     3693     3704     3743     3838     3987     4139 
    4248     4298     4305     4306     4320     4310     4236     4099 
    3924     3740     3584     3447     3294     3123     2999     2976 
    3024     3102     3238     3445     3663     3827     3909     3913 
    3848     3754     3681     3665     3696     3753     3817     3896 
    3991     4071     4116     4140     4141     4116     4090     4081 
    4095     4136     4197     4267     4340     4410     4468     4487 
    4445     4340     4174     3979     3824     3726     3636     3512 
    3325     3094     2898     2781     2718     2706     2771     2910 
    3084     3262     3430     3568     3682     3793     3889     3950 
    4000     4094     4225     4303     4295     4260     4222     4140 
    4024     3921     3867     3866     3867     3817     3758     3746 
    3748     3709     3638     3586     3589     3636     3690     3750 
    3842     3956     4051     4114     4172     4226     4252     4245 
    4206     4112     3969     3825     3707     3608     3534     3481 
    3450     3442     3437     3430     3437     3446     3445     3447 
    3470     3524     3597     3658     3701     3727     3754     3785 
    3798     3793     3807     3879     4014     4149     4217     4217 
    4201     4205     4228     4255     4290     4336     4376     4396 
    4355     4210     3975     3715     3492     3338     3254     3227 
    3268     3393     3580     3751     3829     3805     3723     3645 
    3626     3661     3693     3709     3731     3761     3770     3746 
    3681     3581     3485     3422     3391     3414     3508     3672 
    3852     4000     4105     4163     4168     4153     4159     4207 
    4279     4333     4349     4321     4256     4148     4000     3847 
    3739     3667     3605     3564     3553     3541     3514     3503 
    3508     3512     3516     3526     3537     3531     3507     3520 
    3630     3815     4016     4171     4237     4206     4099     3933 
    3743     3597     3531     3515     3528     3570     3615     3634 
    3634     3642     3689     3780     3896     4018     4126     4189 
    4174     4094     3987     3874     3759     3674     3627     3596 
    3554     3487     3408     3352     3354     3437     3568     3704 
    3831     3954     4068     4171     4237     4245     4228     4225 
    4210     4148     4074     4036     4041     4052     4010     3908 
    3801     3747     3751     3785     3832     3879     3898     3878 
    3817     3707     3555     3408     3316     3304     3368     3478 
    3578     3622     3623     3640     3700     3774     3842     3920 
