Origin Time       2025/03/28 03:50:00
Lat.              35.403
Long.             140.360
Depth. (km)       54
Mag.              4.4
Station Code      IBR013
Station Lat.      36.1587
Station Long.     140.4892
Station Height(m) 29
Record Time       2025/03/28 03:51:08
Sampling Freq(Hz) 100Hz
Duration Time(s)  60
Dir.              U-D
Scale Factor      7845(gal)/8223790
Max. Acc. (gal)   1.902
Last Correction   2025/03/28 03:51:08
Memo.             
   11885    11874    11878    11890    11882    11874    11875    11873 
   11875    11878    11873    11877    11882    11886    11888    11877 
   11875    11882    11884    11878    11871    11866    11871    11877 
   11875    11877    11881    11878    11880    11884    11882    11878 
   11877    11878    11877    11880    11882    11871    11865    11881 
   11896    11884    11867    11871    11880    11875    11873    11875 
   11882    11881    11878    11885    11882    11873    11875    11877 
   11877    11880    11875    11875    11871    11865    11873    11885 
   11882    11871    11873    11882    11881    11873    11871    11874 
   11873    11875    11888    11888    11873    11874    11878    11866 
   11870    11882    11874    11871    11873    11869    11877    11880 
   11873    11875    11878    11875    11881    11884    11880    11873 
   11874    11882    11884    11881    11877    11877    11881    11884 
   11880    11867    11873    11890    11882    11869    11877    11885 
   11878    11874    11881    11878    11869    11873    11877    11873 
   11863    11867    11878    11870    11865    11870    11869    11861 
   11848    11847    11854    11842    11839    11848    11843    11848 
   11857    11858    11881    11905    11905    11893    11873    11843 
   11811    11803    11862    11967    12037    12050    12025    11958 
   11888    11873    11923    11989    12027    12032    11993    11907 
   11817    11789    11832    11874    11840    11735    11605    11489 
   11453    11580    11859    12159    12344    12418    12428    12324 
   12112    11947    11869    11720    11464    11241    11180    11307 
   11632    12083    12406    12383    12104    11853    11765    11781 
   11851    11912    11843    11701    11696    11884    12131    12294 
   12317    12154    11826    11502    11350    11398    11556    11742 
   11894    11954    11977    12073    12224    12390    12507    12402 
   12043    11657    11422    11372    11454    11519    11526    11584 
   11719    11911    12125    12245    12232    12151    12055    11979 
   11927    11844    11720    11631    11655    11770    11848    11813 
   11794    11892    11963    11900    11805    11816    11954    12101 
   12150    12083    11881    11649    11635    11838    11981    11939 
   11761    11593    11666    11912    12046    12028    11925    11762 
   11695    11794    11888    11898    11875    11862    11979    12194 
   12233    12073    11936    11884    11880    11931    11959    11897 
   11753    11592    11574    11697    11776    11848    12005    12152 
   12302    12475    12529    12432    12247    11996    11730    11448 
   11172    11053    11095    11223    11507    11861    12090    12253 
   12399    12414    12297    12110    11890    11686    11518    11421 
   11415    11499    11730    12050    12270    12366    12411    12353 
   12152    11881    11547    11140    10767    10615    10832    11352 
   11901    12383    12834    13101    13081    12962    12835    12541 
   12096    11626    11071    10561    10395    10515    10809    11371 
   12075    12691    13184    13441    13317    12897    12313    11731 
   11330    11072    10887    10818    10872    11080    11492    12005 
   12420    12685    12854    12842    12563    12182    11815    11379 
   10995    10921    11130    11465    11828    12075    12175    12247 
   12334    12438    12467    12235    11886    11713    11653    11614 
   11673    11689    11530    11303    11124    11172    11623    12268 
   12761    12947    12800    12476    12183    11938    11686    11377 
   11061    10984    11253    11728    12244    12587    12644    12533 
   12378    12258    12137    11782    11211    10817    10804    11097 
   11530    11954    12386    12750    12811    12591    12297    12013 
   11865    11865    11700    11291    11013    11088    11485    12046 
   12428    12451    12204    11850    11592    11476    11380    11335 
   11489    11769    12009    12167    12255    12399    12677    12835 
   12646    12164    11600    11169    10962    10916    10898    10835 
   10914    11495    12548    13483    13872    13728    13095    12221 
   11547    11115    10750    10471    10380    10540    11026    11772 
   12478    12896    12999    12874    12633    12375    12193    12016 
   11699    11329    11064    10948    11118    11622    12291    12883 
   13082    12837    12370    11824    11352    11068    10883    10831 
   11051    11410    11770    12202    12594    12783    12860    12762 
   12339    11720    11122    10813    11061    11674    12199    12415 
   12271    11874    11608    11807    12347    12758    12710    12355 
   11994    11707    11531    11457    11260    10898    10675    10806 
   11237    11782    12263    12604    12791    12815    12671    12405 
   12124    11875    11677    11577    11529    11430    11333    11437 
   11820    12240    12384    12179    11757    11398    11335    11541 
   11820    12048    12160    12104    11962    11929    12048    12164 
   12078    11761    11458    11450    11819    12429    12960    13089 
   12688    11912    11142    10735    10782    11084    11352    11480 
   11634    11983    12407    12680    12733    12515    12046    11587 
   11375    11342    11388    11483    11500    11497    11700    12056 
   12399    12617    12526    12125    11713    11545    11604    11715 
   11662    11421    11322    11681    12393    13140    13543    13258 
   12314    11176    10355    10038    10220    10821    11511    11962 
   12221    12553    13092    13622    13802    13568    13054    12348 
   11618    11091    10813    10696    10705    10847    11121    11403 
   11510    11519    11658    11940    12155    12170    12139    12240 
   12448    12637    12590    12162    11604    11365    11562    11907 
   12143    12148    11839    11415    11226    11377    11774    12213 
   12441    12390    12174    11908    11767    11915    12151    12168 
   11909    11373    10804    10725    11241    11990    12634    12914 
   12722    12356    12229    12324    12303    11952    11333    10689 
   10323    10447    11030    11804    12438    12735    12766    12668 
   12491    12402    12467    12313    11674    10874    10384    10399 
   10899    11707    12507    12993    13101    13122    13197    13042 
   12507    11757    10949    10273     9981    10193    10771    11398 
   11859    12252    12739    13215    13437    13247    12664    11917 
   11307    11021    11038    11218    11403    11439    11441    11686 
   12083    12312    12306    12247    12236    12213    12187    12228 
   12276    12197    11948    11647    11402    11226    11078    10917 
   10902    11267    11907    12518    12957    13155    13026    12617 
   12209    12044    11955    11659    11290    11078    10986    11052 
   11389    11832    12144    12316    12417    12468    12444    12282 
   11947    11511    11179    11084    11146    11300    11565    11965 
   12451    12811    12892    12766    12499    12135    11796    11466 
   11124    10959    10998    11056    11246    11703    12260    12771 
   13081    12953    12383    11682    11183    10980    10997    11145 
   11311    11506    11909    12494    12969    13116    12918    12491 
   11954    11433    11142    11138    11209    11281    11546    11981 
   12278    12386    12513    12631    12540    12186    11696    11198 
   10829    10817    11151    11523    11844    12179    12417    12433 
   12295    12218    12237    12117    11766    11445    11435    11674 
   11962    12163    12140    11940    11804    11844    11994    12024 
   11774    11497    11562    12023    12567    12746    12344    11597 
   10993    10821    11005    11341    11722    12112    12464    12703 
   12783    12688    12393    12000    11777    11708    11503    11190 
   11017    11063    11306    11658    11956    12133    12282    12480 
   12621    12546    12232    11732    11211    10947    11037    11325 
   11668    11992    12179    12251    12364    12552    12669    12604 
   12410    12127    11759    11491    11469    11572    11641    11605 
   11466    11330    11280    11307    11460    11731    12001    12287 
   12604    12798    12849    12749    12391    11915    11570    11448 
   11508    11565    11437    11215    11097    11164    11468    11974 
   12444    12618    12484    12253    12059    11886    11759    11684 
   11603    11570    11651    11784    11925    12090    12247    12348 
   12345    12155    11808    11461    11242    11260    11476    11711 
   11890    12000    12031    12070    12123    12171    12262    12330 
   12262    12054    11804    11603    11475    11470    11661    11998 
   12345    12567    12533    12229    11854    11608    11475    11350 
   11238    11186    11210    11340    11627    11990    12232    12272 
   12197    12121    12105    12148    12151    11982    11701    11435 
   11277    11387    11777    12229    12557    12621    12379    12028 
   11790    11712    11700    11607    11362    11124    11126    11431 
   11917    12334    12456    12313    12172    12221    12328    12235 
   11886    11439    11118    11119    11458    11908    12220    12378 
   12495    12564    12456    12170    11875    11672    11538    11458 
   11403    11304    11254    11483    11989    12421    12482    12198 
   11827    11684    11880    12208    12387    12283    11940    11626 
   11605    11808    11965    11855    11480    11159    11080    11175 
   11497    12044    12505    12692    12717    12602    12295    11921 
   11623    11456    11437    11456    11446    11539    11816    12193 
   12548    12760    12673    12297    11886    11600    11396    11276 
   11237    11267    11460    11850    12264    12483    12437    12186 
   11873    11689    11668    11692    11624    11429    11299    11423 
   11753    12109    12310    12302    12159    11990    11912    11951 
   11973    11865    11703    11583    11550    11666    11908    12155 
   12268    12156    11942    11797    11732    11723    11769    11828 
   11873    11955    12121    12293    12366    12298    12096    11847 
   11649    11550    11564    11666    11770    11753    11626    11493 
   11421    11479    11712    12051    12348    12518    12569    12483 
   12306    12167    12085    12010    11931    11801    11527    11180 
   10998    11010    11122    11381    11728    12032    12299    12471 
   12410    12164    11919    11784    11812    12027    12262    12283 
   12087    11884    11819    11835    11838    11773    11603    11356 
   11176    11291    11707    12198    12619    12777    12523    12093 
   11816    11792    11929    12058    12114    12170    12181    11974 
   11553    11159    10975    11041    11317    11704    12039    12170 
   12135    12113    12117    11997    11759    11600    11599    11685 
   11819    11900    11827    11758    11855    12035    12198    12287 
   12240    12133    12021    11826    11556    11323    11260    11535 
   12078    12536    12721    12672    12424    12094    11848    11624 
   11303    10987    10864    11048    11535    12135    12584    12758 
   12673    12441    12208    12047    11905    11701    11469    11291 
   11171    11124    11230    11483    11788    12093    12345    12491 
   12518    12468    12391    12285    12124    11946    11790    11699 
   11686    11689    11634    11538    11423    11264    11156    11271 
   11605    12077    12564    12807    12694    12455    12293    12128 
   11861    11595    11422    11314    11311    11441    11601    11755 
   11955    12160    12252    12172    11911    11545    11277    11311 
   11686    12210    12549    12537    12309    12074    11893    11826 
   11943    12145    12276    12322    12274    12058    11728    11415 
   11169    11061    11202    11526    11811    11890    11803    11727 
   11847    12156    12382    12321    12075    11815    11662    11649 
   11682    11724    11785    11847    11974    12225    12429    12314 
   11902    11493    11340    11531    11971    12364    12449    12248 
   11996    11839    11776    11773    11735    11595    11446    11462 
   11701    11989    12158    12183    12089    11919    11727    11546 
   11421    11398    11480    11592    11699    11877    12078    12171 
   12155    12098    12075    12143    12307    12541    12735    12768 
   12626    12382    12043    11603    11138    10721    10469    10550 
   10955    11515    12037    12313    12326    12348    12534    12657 
   12480    12098    11735    11511    11389    11294    11217    11207 
   11325    11568    11904    12330    12737    12901    12741    12339 
   11850    11470    11371    11600    12047    12390    12337    12000 
   11735    11703    11809    11873    11738    11427    11163    11142 
   11373    11696    11947    12077    12101    12058    12036    12082 
   12060    11869    11677    11692    11874    12093    12271    12294 
   12127    11917    11794    11770    11796    11800    11770    11774 
   11863    12033    12243    12398    12399    12247    12067    11975 
   11869    11581    11237    11038    11005    11179    11611    12091 
   12351    12356    12244    12086    11936    11898    11988    12106 
   12118    11958    11686    11365    11033    10800    10832    11237 
   11885    12486    12896    13076    12960    12623    12344    12256 
   12221    12117    11935    11570    10982    10436    10314    10727 
   11453    12186    12737    13014    13038    12931    12721    12347 
   11928    11637    11392    11079    10825    10831    11140    11666 
   12233    12567    12468    12052    11668    11535    11632    11839 
   12044    12197    12266    12235    12168    12110    12040    11966 
   11884    11769    11604    11387    11237    11337    11692    12106 
   12363    12383    12237    12058    11943    11934    11982    11955 
   11816    11624    11398    11207    11190    11388    11691    11916 
   12001    12000    11956    11969    12104    12286    12410    12399 
   12208    11873    11564    11468    11592    11761    11844    11885 
   11971    12128    12298    12384    12351    12182    11875    11515 
   11159    10821    10598    10678    11182    11944    12634    13028 
   13088    12931    12719    12511    12310    12145    12036    11905 
   11701    11439    11145    10972    11102    11479    11924    12289 
   12414    12244    11954    11763    11742    11831    11858    11708 
   11506    11426    11564    11946    12414    12710    12657    12241 
   11654    11221    11151    11362    11637    11788    11738    11632 
   11711    12001    12305    12395    12236    11969    11736    11612 
   11580    11577    11627    11759    11907    11992    12010    11950 
   11832    11759    11853    12141    12451    12541    12397    12148 
   11913    11813    11827    11732    11408    11007    10768    10881 
   11357    11927    12270    12339    12347    12567    13036    13382 
   13136    12301    11334    10650    10401    10608    11163    11828 
   12340    12641    12847    12924    12722    12224    11537    10843 
   10412    10478    11017    11743    12402    12862    13034    12934 
   12710    12525    12402    12206    11824    11306    10828    10520 
   10447    10727    11319    11981    12607    13099    13163    12762 
   12164    11499    10860    10538    10705    11229    11878    12482 
   12864    12946    12883    12748    12414    11873    11304    10903 
   10786    10957    11322    11751    12135    12359    12403    12333 
   12166    11847    11396    11011    10991    11454    12187    12749 
   12814    12464    11990    11659    11654    11901    12105    12137 
   12124    12135    12167    12225    12197    11939    11537    11269 
   11335    11655    11990    12177    12151    11927    11676    11631 
   11838    12132    12324    12290    12008    11561    11153    11028 
   11226    11587    11959    12197    12198    12063    11983    11979 
   11925    11761    11546    11441    11588    11947    12345    12613 
   12645    12469    12226    11990    11758    11585    11489    11439 
   11483    11611    11750    11855    11880    11842    11777    11627 
   11460    11395    11398    11460    11647    11919    12237    12626 
   12922    12935    12731    12366    11854    11468    11408    11530 
   11661    11730    11718    11664    11608    11566    11533    11543 
   11720    12040    12263    12218    11966    11665    11497    11607 
   11996    12461    12739    12745    12533    12140    11659    11223 
   10876    10687    10802    11254    11893    12536    13007    13130 
   12907    12515    12074    11664    11434    11446    11556    11619 
   11608    11535    11484    11551    11709    11880    11993    12024 
   12009    11996    11966    11890    11834    11869    11962    12063 
   12154    12195    12171    12156    12168    12106    11989    11890 
   11745    11523    11304    11107    10986    11078    11434    11947 
   12447    12788    12885    12710    12272    11759    11431    11330 
   11369    11523    11732    11870    11882    11842    11826    11851 
   11956    12091    12121    12002    11816    11674    11622    11626 
   11665    11763    11881    11885    11781    11736    11816    11970 
   12132    12212    12187    12129    12094    12137    12310    12472 
   12378    12015    11585    11248    11097    11196    11504    11865 
   12212    12534    12692    12602    12370    12137    11967    11784 
   11512    11261    11182    11279    11526    11884    12170    12206 
   12059    11870    11669    11481    11425    11566    11796    11970 
   12051    12066    12073    12082    12031    11962    11965    12009 
   12023    12002    11990    11998    12012    11986    11893    11731 
   11531    11404    11464    11689    11952    12116    12144    12121 
   12152    12198    12100    11815    11495    11281    11186    11178 
   11306    11601    11943    12194    12332    12317    12112    11826 
   11628    11592    11691    11832    11934    11997    12027    12028 
   12085    12171    12164    12093    12013    11898    11759    11653 
   11581    11572    11668    11784    11857    11942    12047    12143 
   12233    12279    12217    12089    11978    11880    11718    11485 
   11325    11348    11464    11584    11711    11838    11998    12225 
   12468    12614    12560    12306    11982    11785    11796    11858 
   11823    11722    11614    11550    11599    11773    11986    12167 
   12302    12317    12128    11794    11457    11207    11095    11173 
   11431    11761    12090    12391    12563    12502    12244    11944 
   11751    11691    11664    11623    11588    11538    11556    11757 
   12005    12118    12178    12290    12325    12150    11880    11659 
   11531    11530    11626    11747    11871    11947    11967    12025 
   12090    12042    11921    11826    11767    11719    11688    11723 
   11847    12024    12194    12256    12144    11942    11780    11761 
   11888    11996    11931    11745    11564    11477    11533    11637 
   11651    11666    11830    12074    12295    12424    12364    12158 
   11974    11913    11880    11732    11550    11477    11483    11529 
