Origin Time       2025/03/28 03:50:00
Lat.              35.403
Long.             140.360
Depth. (km)       54
Mag.              4.4
Station Code      IBR010
Station Lat.      36.1844
Station Long.     139.9652
Station Height(m) 22
Record Time       2025/03/28 03:51:12
Sampling Freq(Hz) 100Hz
Duration Time(s)  60
Dir.              N-S
Scale Factor      7845(gal)/8223790
Max. Acc. (gal)   1.502
Last Correction   2025/03/28 03:51:12
Memo.             
[...]
   -1999    -2052    -2012    -1975    -1987    -2003    -1981    -1945 
   -1937    -1944    -1948    -1958    -1954    -1922    -1873    -1814 
   -1777    -1814    -1894    -1939    -1957    -2011    -2077    -2104 
   -2100    -2057    -1957    -1844    -1810    -1899    -2030    -2095 
   -2072    -2027    -2010    -1983    -1915    -1849    -1838    -1881 
   -1933    -1998    -2089    -2153    -2149    -2084    -1988    -1938 
   -1942    -1938    -1906    -1868    -1881    -1949    -1993    -1984 
   -1945    -1896    -1853    -1826    -1840    -1888    -1911    -1888 
   -1908    -1987    -2011    -1972    -1942    -1903    -1834    -1773 
   -1750    -1794    -1892    -1981    -2033    -2068    -2083    -2034 
   -1918    -1826    -1815    -1833    -1853    -1917    -1995    -2029 
   -2004    -1945    -1902    -1907    -1910    -1871    -1846    -1884 
   -1957    -2016    -2049    -2083    -2106    -2074    -2008    -1953 
   -1915    -1906    -1926    -1956    -1979    -1995    -1989    -1950 
   -1899    -1877    -1884    -1911    -1973    -2056    -2103    -2077 
   -2014    -1969    -1949    -1921    -1875    -1844    -1853    -1894 
   -1923    -1898    -1842    -1825    -1853    -1911    -1976    -2007 
   -1987    -1946    -1945    -1984    -2003    -1991    -1973    -1956 
   -1944    -1942    -1960    -1977    -1962    -1927    -1902    -1914 
   -1956    -1969    -1953    -1941    -1938    -1961    -2004    -2029 
   -2033    -2018    -1985    -1944    -1918    -1933    -1954    -1957 
   -1977    -1985    -1957    -1938    -1945    -1949    -1944    -1939 
   -1931    -1945    -1985    -1971    -1906    -1875    -1879    -1894 
   -1894    -1869    -1853    -1856    -1875    -1907    -1939    -1992 
   -2046    -2050    -2022    -2010    -2008    -1984    -1950    -1944 
   -1946    -1931    -1900    -1894    -1927    -1937    -1930    -1954 
   -2006    -2084    -2137    -2104    -2046    -2022    -2041    -2066 
   -2026    -1935    -1860    -1809    -1765    -1728    -1741    -1827 
   -1934    -1998    -2008    -1985    -1954    -1911    -1849    -1823 
   -1877    -1933    -1941    -1952    -1969    -1977    -1981    -1942 
   -1883    -1885    -1911    -1877    -1783    -1707    -1753    -1879 
   -1957    -1972    -1975    -2019    -2101    -2110    -2022    -1989 
   -2077    -2160    -2141    -2079    -2049    -2018    -1933    -1821 
   -1771    -1817    -1895    -1941    -1939    -1937    -1971    -2003 
   -1980    -1929    -1926    -1991    -2061    -2093    -2081    -2045 
   -2029    -2039    -2041    -2007    -1958    -1934    -1892    -1795 
   -1719    -1709    -1699    -1657    -1636    -1680    -1760    -1848 
   -1902    -1898    -1879    -1869    -1873    -1895    -1907    -1934 
   -2022    -2108    -2115    -2053    -1972    -1908    -1845    -1802 
   -1821    -1907    -2065    -2238    -2297    -2230    -2158    -2133 
   -2100    -2037    -1991    -2026    -2138    -2222    -2224    -2211 
   -2192    -2124    -2030    -1935    -1860    -1819    -1792    -1782 
   -1811    -1833    -1809    -1783    -1786    -1814    -1819    -1736 
   -1659    -1705    -1817    -1914    -1975    -2004    -2049    -2089 
   -2064    -1995    -1912    -1848    -1853    -1902    -1956    -2014 
   -2046    -2033    -1989    -1906    -1780    -1676    -1661    -1718 
   -1787    -1857    -1949    -2061    -2155    -2189    -2149    -2065 
   -1973    -1917    -1933    -1968    -1962    -1980    -2073    -2161 
   -2150    -2074    -2006    -1953    -1903    -1836    -1772    -1780 
   -1846    -1872    -1840    -1821    -1861    -1944    -1992    -1950 
   -1869    -1857    -1930    -2015    -2056    -2046    -2033    -2035 
   -2029    -1976    -1880    -1779    -1714    -1736    -1836    -1942 
   -2025    -2092    -2135    -2126    -2053    -1981    -1957    -1942 
   -1910    -1891    -1929    -1969    -1902    -1779    -1771    -1890 
   -1989    -1983    -1933    -1942    -1980    -1969    -1922    -1895 
   -1919    -1991    -2052    -2054    -2019    -2006    -2014    -1989 
   -1958    -1989    -2084    -2196    -2230    -2155    -2045    -1925 
   -1792    -1678    -1615    -1657    -1791    -1908    -1949    -1972 
   -2030    -2060    -2004    -1923    -1891    -1925    -1984    -2015 
   -1998    -1971    -1935    -1887    -1871    -1879    -1871    -1881 
   -1923    -1949    -1965    -2010    -2100    -2191    -2188    -2089 
   -2004    -1975    -1941    -1876    -1823    -1838    -1926    -2014 
   -2022    -1981    -1973    -2000    -1987    -1926    -1904    -1957 
   -2007    -2011    -1965    -1865    -1757    -1713    -1746    -1802 
   -1838    -1869    -1923    -2002    -2050    -2023    -1972    -1976 
   -2030    -2058    -2027    -1992    -1964    -1908    -1834    -1765 
   -1728    -1741    -1772    -1779    -1795    -1834    -1856    -1861 
   -1875    -1896    -1931    -1969    -1983    -1998    -2073    -2192 
   -2268    -2285    -2312    -2338    -2269    -2111    -1948    -1799 
   -1667    -1594    -1587    -1620    -1675    -1753    -1842    -1927 
   -2012    -2110    -2212    -2280    -2255    -2180    -2142    -2135 
   -2101    -2019    -1900    -1791    -1706    -1597    -1479    -1448 
   -1521    -1624    -1740    -1895    -2068    -2201    -2258    -2263 
   -2250    -2230    -2222    -2199    -2146    -2118    -2073    -1939 
   -1776    -1667    -1597    -1556    -1570    -1647    -1787    -1968 
   -2135    -2242    -2270    -2245    -2204    -2158    -2093    -2008 
   -1927    -1873    -1877    -1929    -1966    -1980    -1984    -1961 
   -1906    -1814    -1717    -1680    -1710    -1757    -1810    -1880 
   -1961    -1999    -2008    -2060    -2139    -2182    -2181    -2160 
   -2133    -2107    -2074    -2034    -2000    -1983    -1957    -1899 
   -1836    -1795    -1761    -1709    -1664    -1678    -1752    -1831 
   -1892    -1941    -1957    -1918    -1871    -1876    -1948    -2042 
   -2084    -2072    -2085    -2130    -2114    -1995    -1853    -1771 
   -1755    -1788    -1869    -1953    -1995    -2011    -2031    -2031 
   -1999    -1979    -1991    -1987    -1952    -1946    -1988    -2027 
   -2035    -2029    -2023    -2012    -1973    -1896    -1825    -1792 
   -1746    -1672    -1676    -1817    -1971    -2023    -2018    -2014 
   -1977    -1890    -1813    -1811    -1888    -1981    -2027    -2035 
   -2070    -2122    -2115    -2050    -2026    -2068    -2122    -2151 
   -2131    -2049    -1950    -1872    -1810    -1764    -1742    -1767 
   -1842    -1898    -1887    -1884    -1962    -2088    -2162    -2134 
   -2062    -2033    -2002    -1892    -1777    -1761    -1809    -1838 
   -1850    -1863    -1844    -1782    -1709    -1675    -1703    -1764 
   -1834    -1923    -2060    -2218    -2293    -2262    -2201    -2126 
   -2039    -1993    -1973    -1930    -1885    -1864    -1863    -1876 
   -1884    -1898    -1939    -1992    -2049    -2128    -2211    -2246 
   -2228    -2216    -2238    -2214    -2085    -1891    -1713    -1617 
   -1605    -1594    -1570    -1605    -1709    -1822    -1904    -1934 
   -1958    -2014    -2058    -2077    -2104    -2141    -2149    -2093 
   -2002    -1942    -1918    -1879    -1804    -1702    -1625    -1652 
   -1760    -1844    -1884    -1985    -2149    -2219    -2145    -2066 
   -2110    -2212    -2230    -2146    -2061    -2020    -1983    -1891 
   -1764    -1699    -1745    -1836    -1891    -1896    -1891    -1881 
   -1848    -1798    -1769    -1767    -1761    -1784    -1877    -1953 
   -1931    -1895    -1939    -2042    -2141    -2205    -2242    -2268 
   -2272    -2212    -2069    -1885    -1746    -1702    -1706    -1705 
   -1701    -1714    -1755    -1804    -1861    -1937    -2042    -2146 
   -2204    -2227    -2239    -2224    -2193    -2176    -2161    -2130 
   -2089    -2046    -1980    -1872    -1760    -1682    -1628    -1595 
   -1595    -1636    -1733    -1869    -1999    -2097    -2155    -2182 
   -2193    -2180    -2115    -2006    -1884    -1772    -1705    -1676 
   -1667    -1683    -1696    -1691    -1713    -1772    -1858    -1950 
   -2026    -2093    -2146    -2173    -2199    -2224    -2226    -2207 
   -2196    -2191    -2177    -2188    -2234    -2241    -2146    -1998 
   -1846    -1702    -1605    -1588    -1603    -1625    -1679    -1773 
   -1892    -2016    -2123    -2178    -2154    -2099    -2050    -1980 
   -1898    -1833    -1803    -1806    -1794    -1764    -1780    -1854 
   -1933    -1991    -2037    -2058    -2033    -1989    -1944    -1896 
   -1867    -1840    -1786    -1717    -1687    -1729    -1800    -1853 
   -1904    -1992    -2097    -2151    -2134    -2083    -2049    -2043 
   -2030    -1993    -1976    -1977    -1965    -1921    -1880    -1888 
   -1915    -1911    -1904    -1937    -2012    -2103    -2184    -2261 
   -2319    -2335    -2309    -2238    -2126    -2015    -1931    -1883 
   -1868    -1845    -1776    -1692    -1645    -1610    -1551    -1491 
   -1499    -1607    -1750    -1857    -1922    -1954    -1975    -1976 
   -1930    -1902    -1961    -2093    -2239    -2320    -2308    -2254 
   -2205    -2154    -2076    -1991    -1945    -1929    -1900    -1850 
   -1779    -1710    -1674    -1649    -1629    -1659    -1749    -1845 
   -1908    -1952    -1981    -2015    -2070    -2122    -2150    -2191 
   -2242    -2238    -2161    -2057    -1941    -1813    -1718    -1686 
   -1678    -1665    -1641    -1642    -1687    -1726    -1768    -1868 
   -2011    -2149    -2246    -2290    -2299    -2274    -2201    -2079 
   -1938    -1829    -1771    -1777    -1844    -1929    -1984    -1991 
   -1983    -1976    -1960    -1948    -1948    -1972    -2026    -2118 
   -2243    -2335    -2313    -2188    -2023    -1881    -1765    -1656 
   -1599    -1622    -1659    -1683    -1698    -1709    -1722    -1728 
   -1738    -1796    -1892    -1999    -2091    -2119    -2096    -2101 
   -2128    -2133    -2137    -2162    -2178    -2176    -2168    -2137 
   -2047    -1914    -1810    -1767    -1756    -1772    -1814    -1865 
   -1934    -1998    -2006    -1966    -1908    -1856    -1833    -1829 
   -1829    -1811    -1782    -1792    -1857    -1945    -2038    -2111 
   -2174    -2261    -2349    -2389    -2370    -2315    -2207    -2025 
   -1852    -1771    -1773    -1823    -1869    -1888    -1900    -1906 
   -1884    -1829    -1768    -1725    -1657    -1571    -1545    -1609 
   -1718    -1819    -1880    -1922    -1995    -2111    -2219    -2278 
   -2300    -2290    -2230    -2106    -1973    -1883    -1817    -1768 
   -1775    -1830    -1918    -2020    -2080    -2110    -2170    -2243 
   -2286    -2284    -2255    -2241    -2200    -2077    -1902    -1763 
   -1706    -1679    -1595    -1453    -1310    -1204    -1159    -1196 
   -1302    -1456    -1642    -1819    -1966    -2096    -2189    -2226 
   -2238    -2272    -2344    -2409    -2423    -2416    -2405    -2363 
   -2290    -2208    -2165    -2218    -2322    -2385    -2365    -2268 
   -2149    -2037    -1892    -1706    -1518    -1375    -1263    -1139 
   -1036    -1012    -1053    -1136    -1258    -1417    -1610    -1829 
   -2025    -2135    -2197    -2309    -2466    -2606    -2698    -2758 
   -2830    -2893    -2876    -2783    -2659    -2528    -2353    -2110 
   -1858    -1688    -1603    -1543    -1455    -1355    -1297    -1304 
   -1328    -1320    -1325    -1401    -1537    -1709    -1914    -2150 
   -2385    -2563    -2641    -2610    -2539    -2478    -2413    -2354 
   -2317    -2249    -2083    -1833    -1571    -1359    -1239    -1219 
   -1282    -1421    -1626    -1852    -2011    -2079    -2111    -2151 
   -2165    -2135    -2099    -2064    -2035    -2047    -2089    -2110 
   -2112    -2127    -2160    -2162    -2073    -1922    -1795    -1714 
   -1678    -1667    -1659    -1667    -1688    -1719    -1809    -1973 
   -2146    -2274    -2374    -2470    -2523    -2455    -2241    -1958 
   -1710    -1518    -1350    -1197    -1101    -1109    -1201    -1318 
   -1447    -1625    -1898    -2218    -2448    -2539    -2542    -2486 
   -2377    -2232    -2119    -2070    -2006    -1879    -1755    -1682 
   -1653    -1651    -1642    -1629    -1651    -1715    -1794    -1842 
   -1868    -1938    -2068    -2199    -2284    -2313    -2315    -2286 
   -2162    -1949    -1784    -1741    -1741    -1728    -1753    -1864 
   -2037    -2239    -2431    -2571    -2632    -2637    -2629    -2604 
   -2521    -2355    -2108    -1842    -1605    -1401    -1235    -1124 
   -1088    -1116    -1165    -1240    -1383    -1578    -1798    -2000 
   -2124    -2164    -2137    -2062    -1981    -1954    -2027    -2192 
   -2401    -2625    -2836    -2994    -3084    -3098    -3014    -2833 
   -2582    -2292    -1996    -1682    -1382    -1215    -1194    -1209 
   -1224    -1259    -1324    -1416    -1524    -1625    -1705    -1767 
   -1804    -1772    -1657    -1534    -1474    -1498    -1641    -1890 
   -2153    -2351    -2454    -2485    -2493    -2454    -2335    -2158 
   -1962    -1771    -1575    -1367    -1210    -1167    -1231    -1371 
   -1555    -1752    -1971    -2177    -2284    -2330    -2424    -2573 
   -2709    -2790    -2837    -2863    -2803    -2606    -2296    -1934 
   -1613    -1378    -1201    -1061     -980     -994    -1115    -1309 
   -1526    -1753    -2007    -2238    -2419    -2606    -2814    -2983 
   -3055    -2994    -2790    -2461    -2068    -1652    -1212     -801 
    -518     -394     -371     -415     -569     -838    -1159    -1510 
   -1899    -2346    -2813    -3172    -3342    -3362    -3273    -3069 
   -2760    -2417    -2120    -1888    -1698    -1548    -1463    -1462 
   -1526    -1602    -1680    -1837    -2068    -2266    -2377    -2416 
   -2382    -2295    -2185    -2087    -2003    -1914    -1827    -1795 
   -1829    -1894    -1960    -2026    -2072    -2072    -2016    -1930 
   -1863    -1784    -1632    -1478    -1435    -1495    -1606    -1750 
   -1954    -2199    -2412    -2554    -2631    -2625    -2511    -2326 
   -2173    -2087    -2015    -1930    -1852    -1792    -1733    -1640 
   -1517    -1412    -1371    -1410    -1525    -1688    -1844    -1952 
   -2023    -2084    -2141    -2180    -2157    -2066    -1991    -1950 
   -1900    -1884    -1968    -2122    -2258    -2330    -2363    -2385 
   -2363    -2270    -2100    -1895    -1738    -1653    -1579    -1472 
   -1366    -1293    -1264    -1318    -1494    -1771    -2092    -2381 
   -2562    -2623    -2610    -2566    -2485    -2349    -2169    -1993 
   -1869    -1782    -1680    -1570    -1494    -1480    -1499    -1497 
   -1452    -1354    -1235    -1202    -1296    -1478    -1729    -2018 
   -2288    -2540    -2756    -2845    -2782    -2646    -2493    -2339 
   -2189    -2027    -1854    -1732    -1709    -1760    -1833    -1895 
   -1952    -2014    -2049    -2003    -1879    -1733    -1617    -1541 
   -1464    -1371    -1340    -1443    -1632    -1821    -1976    -2106 
   -2250    -2436    -2616    -2735    -2799    -2794    -2662    -2405 
   -2089    -1765    -1486    -1282    -1140    -1062    -1048    -1048 
   -1059    -1143    -1339    -1630    -1975    -2316    -2612    -2852 
   -3041    -3148    -3150    -3064    -2901    -2687    -2479    -2293 
   -2120    -1971    -1829    -1690    -1586    -1514    -1458    -1467 
   -1578    -1706    -1769    -1817    -1896    -1980    -2029    -2052 
   -2076    -2101    -2081    -1991    -1840    -1648    -1460    -1340 
   -1318    -1374    -1494    -1659    -1790    -1852    -1868    -1865 
   -1865    -1858    -1806    -1719    -1653    -1638    -1682    -1794 
   -1975    -2195    -2400    -2538    -2574    -2525    -2419    -2281 
   -2134    -2008    -1915    -1846    -1798    -1794    -1861    -1988 
   -2093    -2119    -2106    -2107    -2101    -2035    -1911    -1807 
   -1741    -1648    -1518    -1436    -1451    -1524    -1621    -1757 
   -1946    -2134    -2278    -2404    -2497    -2498    -2436    -2384 
   -2369    -2385    -2377    -2309    -2187    -2030    -1875    -1744 
   -1636    -1537    -1437    -1366    -1391    -1516    -1637    -1703 
   -1773    -1865    -1908    -1875    -1809    -1763    -1745    -1733 
   -1703    -1665    -1664    -1702    -1742    -1810    -1953    -2151 
   -2335    -2470    -2565    -2605    -2552    -2416    -2232    -2022 
   -1834    -1744    -1771    -1871    -1979    -2068    -2150    -2236 
   -2293    -2308    -2317    -2323    -2269    -2139    -1985    -1854 
   -1759    -1691    -1653    -1676    -1761    -1852    -1890    -1863 
   -1790    -1713    -1676    -1684    -1705    -1742    -1831    -1958 
   -2085    -2188    -2269    -2334    -2377    -2378    -2304    -2154 
   -1961    -1757    -1594    -1513    -1502    -1520    -1536    -1547 
   -1575    -1633    -1725    -1830    -1922    -2010    -2092    -2162 
   -2218    -2230    -2174    -2084    -2027    -2023    -2026    -1991 
   -1917    -1834    -1779    -1750    -1725    -1694    -1679    -1705 
   -1775    -1876    -1973    -2041    -2110    -2193    -2262    -2315 
   -2355    -2359    -2326    -2259    -2174    -2096    -2039    -1999 
   -1958    -1883    -1775    -1674    -1598    -1543    -1490    -1439 
   -1431    -1528    -1722    -1933    -2085    -2178    -2273    -2396 
   -2474    -2466    -2435    -2430    -2417    -2322    -2114    -1869 
   -1695    -1622    -1630    -1674    -1737    -1823    -1900    -1915 
   -1876    -1838    -1836    -1831    -1803    -1794    -1811    -1826 
   -1822    -1796    -1771    -1777    -1786    -1752    -1691    -1644 
   -1628    -1648    -1701    -1782    -1880    -1991    -2126    -2274 
   -2390    -2477    -2539    -2546    -2506    -2451    -2371    -2289 
   -2241    -2232    -2235    -2208    -2147    -2072    -1977    -1864 
   -1757    -1659    -1547    -1441    -1408    -1467    -1556    -1614 
   -1637    -1655    -1688    -1741    -1813    -1894    -1960    -1989 
   -1993    -1983    -1952    -1898    -1844    -1853    -1961    -2099 
   -2191    -2219    -2218    -2216    -2187    -2123    -2056    -1987 
   -1919    -1872    -1849    -1819    -1775    -1748    -1748    -1767 
   -1803    -1818    -1807    -1829    -1887    -1931    -1973    -2062 
   -2193    -2319    -2415    -2478    -2473    -2365    -2177    -1960 
   -1734    -1521    -1368    -1317    -1372    -1503    -1655    -1795 
   -1939    -2095    -2226    -2297    -2327    -2336    -2312    -2268 
   -2201    -2092    -1968    -1853    -1746    -1676    -1651    -1648 
   -1656    -1674    -1711    -1783    -1864    -1926    -1971    -2020 
   -2076    -2123    -2178    -2259    -2322    -2316    -2241    -2149 
   -2096    -2066    -2031    -2006    -1989    -1946    -1863    -1769 
   -1692    -1626    -1578    -1553    -1536    -1536    -1570    -1621 
   -1669    -1721    -1794    -1904    -2034    -2145    -2223    -2263 
   -2266    -2234    -2143    -2007    -1899    -1841    -1794    -1765 
   -1784    -1834    -1900    -1971    -2039    -2133    -2245    -2336 
   -2396    -2428    -2440    -2447    -2447    -2432    -2392    -2319 
   -2242    -2165    -2035    -1846    -1647    -1482    -1375    -1331 
   -1333    -1374    -1418    -1449    -1494    -1571    -1652    -1699 
   -1722    -1738    -1745    -1753    -1768    -1795    -1853    -1948 
