Origin Time       2025/03/28 03:50:00
Lat.              35.403
Long.             140.360
Depth. (km)       54
Mag.              4.4
Station Code      IBR012
Station Lat.      36.1954
Station Long.     140.2713
Station Height(m) 25
Record Time       2025/03/28 03:51:10
Sampling Freq(Hz) 100Hz
Duration Time(s)  60
Dir.              U-D
Scale Factor      7845(gal)/8223790
Max. Acc. (gal)   0.769
Last Correction   2025/03/28 03:51:09
Memo.             
    2482     2535     2609     2648     2652     2592     2490     2435 
    2431     2447     2493     2567     2637     2655     2602     2525 
    2484     2509     2617     2709     2668     2558     2478     2425 
    2438     2531     2624     2702     2706     2566     2409     2330 
    2311     2408     2587     2693     2697     2651     2571     2575 
    2705     2745     2605     2420     2301     2336     2513     2636 
    2652     2694     2733     2674     2593     2573     2585     2606 
    2617     2585     2544     2542     2573     2602     2602     2587 
    2579     2590     2582     2479     2390     2486     2663     2743 
    2735     2705     2667     2586     2462     2373     2370     2423 
    2504     2605     2628     2538     2508     2554     2505     2400 
    2398     2538     2741     2840     2712     2459     2253     2160 
    2193     2276     2319     2378     2519     2705     2860     2844 
    2627     2412     2376     2488     2629     2720     2731     2671 
    2600     2582     2606     2640     2666     2650     2616     2641 
    2705     2740     2697     2559     2412     2373     2454     2552 
    2631     2714     2706     2543     2384     2384     2493     2578 
    2524     2376     2359     2563     2771     2772     2602     2439 
    2373     2401     2527     2663     2681     2632     2554     2440 
    2438     2566     2651     2641     2559     2484     2540     2663 
    2674     2527     2367     2346     2444     2577     2659     2686 
    2744     2809     2782     2643     2451     2357     2435     2531 
    2529     2521     2617     2758     2770     2609     2401     2277 
    2308     2463     2619     2667     2604     2504     2463     2539 
    2678     2758     2693     2502     2344     2357     2467     2527 
    2536     2556     2619     2720     2798     2797     2668     2435 
    2320     2475     2743     2933     2944     2716     2384     2223 
    2290     2371     2326     2299     2424     2586     2639     2575 
    2458     2353     2338     2486     2783     3061     3109     2878 
    2521     2246     2155     2197     2351     2679     3087     3276 
    3073     2632     2259     2234     2524     2701     2493     2170 
    2061     2255     2693     3063     3046     2678     2261     2143 
    2373     2571     2471     2241     2130     2204     2390     2597 
    2825     3045     3082     2795     2299     1987     2224     2758 
    3001     2835     2586     2579     2821     2990     2801     2386 
    2111     2142     2448     2883     3138     3021     2639     2254 
    2111     2304     2668     2844     2683     2432     2346     2380 
    2371     2316     2381     2629     2820     2744     2590     2598 
    2700     2714     2569     2304     2112     2224     2544     2721 
    2654     2555     2602     2720     2751     2687     2597     2528 
    2500     2493     2529     2623     2659     2565     2396     2286 
    2376     2581     2579     2338     2246     2565     2979     2971 
    2531     2172     2259     2619     2818     2677     2454     2544 
    2934     3175     3002     2623     2411     2540     2759     2686 
    2442     2382     2413     2326     2243     2324     2529     2682 
    2596     2382     2419     2741     2879     2567     2218     2285 
    2663     2893     2677     2232     2035     2230     2567     2766 
    2768     2745     2783     2670     2327     2068     2185     2593 
    2901     2895     2772     2705     2550     2269     2203     2554 
    3010     3094     2732     2332     2227     2365     2596     2808 
    2871     2764     2544     2292     2137     2070     2029     2110 
    2412     2849     3208     3323     3195     2898     2538     2300 
    2272     2344     2393     2415     2489     2641     2740     2663 
    2521     2516     2635     2732     2709     2539     2359     2423 
    2695     2843     2700     2455     2396     2502     2527     2396 
    2177     2042     2196     2498     2691     2812     2932     2902 
    2667     2457     2425     2450     2396     2359     2524     2767 
    2790     2632     2471     2313     2297     2590     2983     3106 
    2909     2646     2455     2334     2359     2493     2513     2470 
    2593     2843     2974     2887     2756     2714     2654     2490 
    2297     2173     2178     2289     2413     2455     2378     2262 
    2231     2290     2335     2408     2565     2583     2424     2403 
    2585     2778     2928     3024     2988     2806     2555     2357 
    2316     2380     2452     2636     2991     3321     3364     3013 
    2390     1880     1854     2261     2670     2758     2594     2511 
    2697     2905     2776     2463     2344     2365     2328     2342 
    2446     2512     2513     2425     2292     2334     2628     2910 
    2876     2592     2386     2461     2732     2925     2860     2660 
    2577     2687     2786     2609     2263     2149     2378     2633 
    2554     2188     2012     2227     2540     2646     2506     2409 
    2590     2874     2974     2785     2412     2134     2097     2215 
    2434     2752     3052     3191     3140     2922     2600     2374 
    2405     2577     2727     2790     2712     2556     2458     2411 
    2357     2378     2567     2810     2903     2776     2508     2285 
    2277     2455     2631     2650     2417     2011     1811     2054 
    2513     2814     2810     2675     2659     2741     2701     2497 
    2366     2478     2705     2829     2805     2749     2814     2911 
    2752     2385     2150     2161     2312     2459     2508     2524 
    2614     2744     2745     2559     2373     2390     2582     2731 
    2714     2641     2578     2470     2382     2448     2598     2700 
    2722     2562     2308     2327     2637     2853     2749     2519 
    2506     2710     2809     2650     2380     2245     2380     2658 
    2779     2690     2662     2779     2728     2327     1949     1999 
    2339     2600     2660     2639     2682     2713     2490     2193 
    2235     2569     2906     3036     2913     2736     2617     2517 
    2411     2328     2393     2632     2847     2841     2686     2608 
    2686     2754     2563     2180     1946     1979     2184     2473 
    2724     2875     2976     2972     2754     2474     2430     2600 
    2700     2664     2637     2628     2551     2423     2304     2173 
    2062     2143     2473     2824     2879     2710     2641     2705 
    2770     2745     2555     2280     2103     2181     2501     2795 
    2903     2864     2674     2462     2459     2581     2585     2492 
    2416     2424     2559     2717     2764     2662     2478     2432 
    2614     2797     2766     2571     2408     2377     2478     2612 
    2598     2462     2377     2416     2536     2593     2563     2605 
    2735     2789     2755     2728     2718     2747     2748     2566 
    2327     2277     2354     2454     2516     2438     2417     2593 
    2671     2486     2228     2166     2424     2795     2960     2879 
    2704     2486     2253     2089     2162     2535     2855     2793 
    2569     2448     2466     2637     2812     2791     2658     2565 
    2574     2660     2695     2652     2606     2548     2496     2582 
    2735     2751     2614     2401     2290     2401     2539     2592 
    2617     2574     2527     2594     2659     2616     2556     2585 
    2610     2444     2147     1971     2081     2469     2905     3087 
    2926     2655     2555     2613     2597     2415     2254     2307 
    2488     2586     2592     2670     2830     2836     2629     2459 
    2500     2652     2682     2517     2336     2280     2338     2415 
    2405     2374     2477     2650     2701     2648     2671     2794 
    2864     2790     2629     2529     2586     2706     2721     2612 
    2463     2369     2404     2521     2600     2640     2678     2646 
    2535     2469     2469     2419     2343     2398     2575     2690 
    2690     2644     2585     2516     2378     2245     2285     2473 
    2687     2813     2744     2612     2635     2760     2752     2583 
    2466     2489     2515     2458     2346     2265     2313     2471 
    2582     2520     2411     2447     2543     2516     2431     2484 
    2675     2822     2810     2689     2593     2594     2627     2641 
    2709     2843     2922     2849     2637     2442     2458     2613 
    2625     2451     2357     2511     2759     2843     2706     2497 
    2382     2374     2363     2334     2373     2490     2592     2596 
    2508     2411     2403     2484     2539     2511     2466     2462 
    2447     2404     2454     2664     2925     3045     2934     2644 
    2340     2231     2353     2525     2596     2563     2542     2604 
    2624     2544     2517     2562     2583     2592     2587     2520 
    2398     2308     2367     2609     2884     3010     2934     2690 
    2432     2369     2484     2619     2717     2768     2712     2554 
    2401     2351     2421     2579     2732     2756     2602     2378 
    2253     2259     2327     2463     2652     2712     2536     2280 
    2191     2346     2617     2828     2849     2656     2444     2452 
    2628     2748     2732     2647     2593     2600     2597     2535 
    2409     2349     2543     2891     3096     3048     2816     2552 
    2404     2343     2305     2316     2331     2322     2334     2344 
    2409     2623     2856     2938     2853     2691     2585     2602 
    2691     2698     2517     2259     2138     2207     2365     2521 
    2610     2597     2542     2540     2573     2558     2475     2369 
    2344     2478     2646     2714     2716     2681     2633     2651 
    2709     2732     2708     2632     2539     2521     2543     2485 
    2359     2289     2398     2710     3001     2980     2687     2415 
    2381     2552     2675     2596     2471     2512     2690     2820 
    2747     2482     2216     2116     2157     2222     2312     2471 
    2610     2640     2613     2619     2701     2776     2673     2404 
    2228     2361     2704     2964     2979     2824     2690     2706 
    2782     2736     2565     2396     2347     2481     2712     2824 
    2693     2394     2142     2139     2354     2511     2416     2191 
    2097     2251     2524     2735     2856     2952     3038     3061 
    2947     2744     2628     2650     2695     2681     2635     2593 
    2444     2161     1989     2119     2448     2724     2762     2624 
    2501     2473     2489     2481     2451     2446     2481     2523 
    2498     2393     2315     2363     2462     2502     2498     2496 
    2539     2617     2668     2700     2783     2917     2963     2849 
    2689     2562     2469     2451     2506     2543     2489     2382 
    2316     2317     2363     2459     2620     2830     3018     3044 
    2851     2594     2479     2529     2597     2567     2486     2498 
    2616     2659     2509     2265     2128     2219     2440     2566 
    2498     2393     2459     2652     2708     2567     2438     2423 
    2463     2532     2663     2830     2929     2871     2691     2547 
    2532     2571     2590     2578     2552     2590     2656     2589 
    2409     2343     2470     2671     2826     2835     2663     2482 
    2452     2501     2515     2482     2474     2543     2590     2502 
    2343     2272     2361     2563     2713     2644     2430     2311 
    2398     2587     2720     2755     2735     2690     2643     2619 
    2628     2683     2789     2884     2839     2617     2358     2205 
    2155     2169     2303     2560     2770     2762     2582     2362 
    2182     2146     2303     2596     2894     3015     2893     2652 
    2448     2376     2425     2528     2654     2762     2793     2737 
    2627     2528     2471     2443     2497     2659     2824     2916 
    2929     2839     2663     2505     2373     2191     2057     2115 
    2286     2415     2478     2533     2627     2720     2756     2759 
    2698     2559     2501     2606     2720     2695     2533     2338 
    2222     2239     2378     2551     2650     2656     2670     2762 
    2841     2809     2679     2479     2292     2262     2366     2393 
    2324     2363     2554     2702     2648     2439     2255     2212 
    2282     2376     2475     2679     3006     3258     3225     2940 
    2656     2587     2637     2565     2392     2304     2382     2592 
    2768     2739     2563     2447     2489     2640     2754     2749 
    2695     2635     2567     2539     2550     2571     2610     2621 
    2552     2452     2373     2342     2324     2239     2155     2191 
    2317     2469     2597     2675     2739     2820     2847     2752 
    2623     2585     2633     2697     2673     2493     2290     2220 
    2288     2462     2695     2899     2983     2871     2571     2243 
    2130     2308     2573     2667     2571     2459     2461     2566 
    2651     2614     2536     2565     2709     2848     2868     2745 
    2569     2482     2544     2671     2724     2662     2552     2470 
    2471     2524     2506     2416     2326     2224     2108     2054 
    2099     2234     2461     2752     2988     3037     2917     2782 
    2755     2813     2797     2604     2334     2169     2185     2330 
    2444     2467     2543     2776     3030     3069     2879     2717 
    2722     2770     2727     2606     2550     2621     2671     2558 
    2335     2178     2231     2490     2739     2728     2508     2362 
    2424     2515     2439     2313     2385     2654     2862     2798 
    2519     2250     2166     2297     2490     2550     2494     2431 
    2392     2397     2496     2640     2714     2695     2654     2666 
    2762     2867     2849     2663     2404     2276     2407     2686 
    2856     2774     2556     2398     2351     2353     2334     2273 
    2239     2336     2582     2847     2967     2947     2879     2791 
    2687     2613     2624     2706     2801     2874     2863     2717 
    2513     2367     2323     2353     2336     2238     2176     2195 
    2218     2222     2259     2413     2679     2891     2880     2681 
    2462     2400     2528     2716     2813     2759     2608     2479 
    2417     2377     2380     2485     2639     2728     2702     2639 
    2639     2647     2575     2443     2285     2174     2192     2324 
    2513     2689     2810     2902     2956     2938     2899     2910 
    2943     2880     2686     2451     2301     2366     2575     2652 
    2546     2461     2482     2594     2760     2839     2718     2493 
    2331     2255     2168     2022     1865     1798     1885     2050 
    2214     2420     2662     2803     2802     2754     2747     2856 
    3079     3208     3080     2820     2640     2629     2779     2974 
    3028     2884     2656     2448     2319     2342     2469     2492 
    2346     2165     2062     2079     2192     2272     2293     2398 
    2608     2793     2883     2857     2767     2770     2903     2994 
    2948     2870     2821     2729     2543     2322     2211     2322 
    2540     2663     2693     2717     2697     2571     2371     2182 
    2058     2026     2061     2112     2212     2420     2666     2814 
    2809     2700     2606     2614     2677     2690     2643     2613 
    2608     2546     2493     2571     2718     2824     2833     2718 
    2550     2397     2254     2174     2255     2475     2736     2926 
    2925     2729     2520     2436     2450     2450     2311     2134 
    2162     2363     2521     2571     2574     2594     2700     2860 
    2965     3006     2982     2847     2708     2656     2617     2594 
    2632     2635     2505     2309     2137     2029     2070     2276 
    2506     2652     2689     2623     2550     2608     2756     2836 
    2853     2907     2918     2808     2632     2436     2226     2050 
    1976     2052     2250     2490     2673     2756     2826     2940 
    3018     2967     2774     2523     2400     2458     2501     2416 
    2324     2293     2274     2300     2398     2511     2644     2818 
    2895     2793     2658     2636     2733     2849     2824     2623 
    2423     2328     2309     2303     2242     2173     2182     2223 
    2253     2342     2520     2687     2745     2706     2690     2791 
    2907     2913     2898     2976     3095     3134     3019     2771 
    2498     2324     2255     2220     2196     2187     2178     2177 
    2227     2339     2482     2639     2755     2768     2725     2729 
    2795     2825     2751     2575     2393     2299     2241     2208 
    2292     2435     2509     2520     2512     2473     2431     2455 
    2525     2567     2628     2752     2782     2679     2616     2601 
    2589     2608     2612     2592     2596     2552     2484     2571 
    2772     2891     2889     2799     2637     2488     2457     2520 
    2536     2481     2497     2573     2519     2357     2295     2390 
    2604     2813     2856     2795     2760     2764     2786     2740 
    2586     2401     2263     2187     2162     2203     2268     2315 
    2389     2497     2566     2575     2573     2560     2535     2523 
    2528     2577     2658     2678     2605     2515     2470     2457 
    2475     2558     2635     2687     2791     2889     2875     2786 
    2655     2470     2389     2462     2542     2631     2724     2731 
    2701     2718     2736     2675     2575     2477     2398     2404 
    2498     2621     2725     2763     2697     2535     2382     2344 
    2401     2452     2452     2478     2556     2608     2619     2575 
    2498     2470     2442     2351     2272     2241     2235     2295 
    2408     2452     2396     2363     2423     2566     2782     2957 
    2984     2895     2785     2718     2679     2624     2566     2569 
    2668     2749     2713     2592     2454     2376     2361     2363 
    2381     2405     2440     2509     2604     2656     2654     2693 
    2782     2824     2810     2782     2729     2662     2625     2623 
    2632     2619     2542     2438     2361     2297     2276     2297 
    2316     2351     2409     2446     2428     2339     2278     2343 
    2446     2481     2501     2577     2633     2624     2647     2706 
    2755     2806     2820     2781     2720     2660     2675     2749 
    2779     2754     2728     2735     2741     2683     2538     2349 
    2253     2315     2438     2558     2631     2605     2578     2574 
    2529     2542     2610     2625     2613     2621     2639     2640 
    2602     2547     2529     2540     2539     2542     2540     2501 
    2482     2525     2565     2544     2467     2355     2249     2230 
    2276     2301     2327     2363     2388     2423     2500     2598 
    2660     2698     2751     2805     2817     2790     2717     2598 
    2560     2640     2655     2501     2326     2320     2477     2667 
    2797     2830     2820     2797     2747     2693     2610     2492 
    2427     2424     2423     2398     2346     2347     2407     2457 
    2563     2690     2706     2678     2702     2744     2749     2725 
    2658     2556     2513     2500     2451     2394     2354     2385 
