Origin Time       2025/03/28 03:50:00
Lat.              35.403
Long.             140.360
Depth. (km)       54
Mag.              4.4
Station Code      IBR013
Station Lat.      36.1587
Station Long.     140.4892
Station Height(m) 29
Record Time       2025/03/28 03:51:08
Sampling Freq(Hz) 100Hz
Duration Time(s)  60
Dir.              E-W
Scale Factor      7845(gal)/8223790
Max. Acc. (gal)   3.829
Last Correction   2025/03/28 03:51:08
Memo.             
[...]
   13408    13409    13477    13597    13547    13385    13308    13279 
   13308    13377    13351    13244    13157    13163    13271    13413 
   13516    13585    13679    13752    13697    13502    13235    13108 
   13209    13269    13180    13105    13124    13279    13505    13618 
   13663    13749    13782    13652    13421    13258    13236    13255 
   13188    13045    12964    13054    13275    13471    13544    13578 
   13593    13548    13516    13478    13390    13386    13464    13467 
   13416    13335    13174    13084    13176    13300    13378    13504 
   13640    13743    13886    13859    13516    13205    13058    12937 
   12947    13062    13174    13409    13678    13806    13879    13923 
   13851    13649    13335    12985    12741    12664    12668    12726 
   12972    13373    13728    14014    14215    14215    14088    13872 
   13501    13088    12753    12523    12495    12723    13050    13328 
   13626    13888    13986    14006    13922    13718    13555    13358 
   13085    12935    12899    12897    13008    13193    13332    13389 
   13427    13585    13887    14131    14091    13791    13437    13142 
   12887    12711    12691    12838    13128    13490    13741    13802 
   13798    13817    13818    13694    13366    12999    12862    12915 
   13016    13180    13320    13419    13645    13911    14015    13930 
   13622    13212    12993    12949    12912    12908    13019    13316 
   13729    13948    13818    13591    13454    13366    13302    13207 
   13134    13294    13608    13737    13536    13207    13043    13074 
   13163    13294    13467    13597    13705    13784    13640    13352 
   13197    13117    13039    13023    13008    13065    13390    13864 
   14135    14134    13988    13779    13572    13265    12754    12309 
   12197    12418    12856    13298    13666    14013    14281    14404 
   14365    14157    13790    13262    12768    12528    12464    12526 
   12737    12997    13377    13898    14188    14091    13927    13842 
   13744    13599    13297    12858    12614    12637    12745    12906 
   13099    13394    13948    14521    14710    14520    14116    13606 
   13095    12572    12116    11996    12195    12533    13057    13755 
   14430    14897    14945    14546    13967    13417    12897    12425 
   12112    12021    12195    12636    13192    13732    14281    14798 
   15055    14783    14040    13230    12604    12191    12055    12172 
   12486    13022    13668    14176    14440    14470    14251    13805 
   13278    12868    12691    12777    13032    13246    13298    13273 
   13344    13566    13711    13610    13412    13290    13359    13603 
   13786    13802    13743    13659    13525    13296    13062    13030 
   13244    13531    13697    13684    13481    13225    13072    12866 
   12595    12506    12613    12885    13355    13875    14295    14509 
   14405    14041    13613    13230    12908    12730    12722    12807 
   13031    13441    13824    13992    14004    13876    13571    13147 
   12679    12401    12579    13058    13475    13717    13911    14142 
   14226    13967    13427    12825    12476    12536    12850    13248 
   13668    14126    14496    14465    13988    13343    12887    12812 
   12864    12735    12571    12636    13054    13702    14211    14310 
   14040    13635    13252    12919    12703    12703    12946    13293 
   13537    13706    13959    14256    14445    14382    13936    13266 
   12702    12252    11970    12085    12480    13000    13686    14272 
   14482    14469    14341    14040    13656    13269    12874    12648 
   12760    13054    13258    13278    13146    13051    13223    13597 
   13921    14054    13990    13767    13428    13135    13053    13095 
   13078    12937    12777    12795    13045    13489    14008    14295 
   14169    13784    13344    13001    12876    12889    12937    13077 
   13261    13455    13801    14233    14511    14513    14170    13551 
   12888    12313    11862    11665    11843    12380    13267    14328 
   15090    15334    15178    14678    13969    13246    12584    12063 
   11817    11931    12376    13005    13633    14175    14590    14696 
   14354    13756    13185    12784    12546    12390    12343    12572 
   13032    13474    13770    13894    13945    14013    14014    13953 
   13852    13602    13286    13101    13074    13150    13235    13240 
   13190    13189    13271    13344    13370    13429    13483    13436 
   13381    13458    13656    13838    13841    13602    13220    12866 
   12721    12838    13062    13244    13471    13751    13872    13805 
   13660    13475    13439    13670    13894    13873    13655    13393 
   13122    12833    12683    12704    12758    12852    13008    13271 
   13644    13923    14014    13992    13925    13817    13591    13235 
   12880    12725    12819    13007    13259    13649    14040    14143 
   13840    13381    13069    12935    12897    12858    12839    13020 
   13440    13975    14443    14604    14335    13776    13178    12629 
   12129    11789    11774    12274    13286    14381    15082    15207 
   14812    14158    13450    12760    12256    12066    12135    12438 
   12995    13651    14216    14620    14729    14521    14160    13626 
   12889    12233    11961    12091    12533    13150    13763    14319 
   14743    14843    14621    14176    13533    12792    12091    11615 
   11600    12064    12748    13365    13856    14316    14692    14808 
   14611    14160    13563    13030    12757    12734    12800    12869 
   12924    12903    12800    12745    12795    12995    13459    14084 
   14534    14648    14557    14391    14192    13921    13458    12893 
   12494    12330    12357    12548    12808    13126    13512    13815 
   13991    14125    14104    13871    13556    13198    12876    12781 
   12888    13024    13131    13254    13412    13558    13628    13603 
   13539    13450    13311    13192    13204    13355    13559    13764 
   13961    14092    14058    13801    13362    12914    12586    12383 
   12318    12407    12676    13127    13602    13972    14246    14341 
   14173    13846    13512    13208    12942    12815    12938    13227 
   13441    13452    13339    13266    13319    13444    13508    13482 
   13514    13649    13756    13819    13902    13934    13871    13720 
   13500    13328    13267    13144    12831    12486    12382    12618 
   12970    13180    13292    13478    13767    14013    14045    13879 
   13645    13378    13022    12631    12480    12760    13302    13826 
   14129    14131    13915    13641    13432    13282    13178    13174 
   13234    13302    13447    13676    13867    13905    13767    13504 
   13246    13139    13193    13261    13203    13032    12873    12826 
   12910    13112    13443    13832    14077    14129    14054    13863 
   13626    13400    13126    12819    12586    12519    12629    12873 
   13204    13508    13757    14000    14166    14266    14293    14041 
   13481    12823    12290    12097    12298    12702    13134    13562 
   13968    14291    14497    14531    14355    14010    13460    12807 
   12388    12336    12461    12660    13015    13539    14045    14323 
   14289    14010    13657    13317    12966    12618    12383    12430 
   12806    13316    13716    13964    14116    14134    13960    13636 
   13285    13046    12931    12895    13003    13289    13630    13846 
   13821    13632    13525    13566    13528    13273    12968    12846 
   12903    12981    13093    13336    13676    13980    14075    13836 
   13339    12846    12576    12556    12757    13180    13733    14184 
   14308    14119    13888    13802    13710    13413    13012    12823 
   12993    13342    13603    13709    13733    13695    13554    13309 
   13055    12897    12880    13000    13180    13321    13393    13410 
   13439    13441    13375    13355    13374    13328    13252    13163 
   13061    13036    13146    13320    13471    13583    13637    13609 
   13527    13405    13238    13092    13105    13298    13547    13738 
   13824    13828    13771    13664    13629    13632    13563    13493 
   13378    13115    12820    12629    12590    12765    13122    13462 
   13716    13977    14218    14268    14021    13568    13161    12954 
   12912    12901    12811    12696    12804    13208    13613    13801 
   13878    13979    14079    14068    13872    13551    13308    13200 
   13063    12912    12888    12974    13134    13252    13252    13354 
   13648    13857    13786    13535    13289    13217    13400    13680 
   13895    14058    14095    13872    13436    12924    12556    12544 
   12798    13077    13278    13356    13269    13112    13070    13221 
   13535    13936    14308    14494    14462    14276    13936    13463 
   12915    12395    12054    11859    11777    11994    12525    13174 
   13886    14575    15041    15188    14967    14359    13591    12920 
   12364    11938    11792    11978    12399    12943    13543    14095 
   14470    14567    14350    13971    13657    13482    13414    13408 
   13378    13300    13261    13265    13204    13078    12969    12903 
   12919    13072    13298    13456    13524    13609    13805    14102 
   14269    14107    13756    13396    13097    12916    12834    12845 
   12992    13250    13383    13203    12919    12849    13046    13317 
   13467    13605    13860    14099    14158    14018    13811    13606 
   13320    13001    12834    12945    13325    13774    14058    14061 
   13888    13721    13521    13224    12873    12523    12276    12239 
   12434    12830    13302    13666    13794    13771    13778    13905 
   14084    14102    13795    13251    12769    12650    12950    13456 
   13856    13954    13787    13506    13273    13185    13230    13358 
   13462    13354    13047    12784    12738    12906    13086    13105 
   13054    13127    13308    13486    13672    13932    14281    14580 
   14516    14019    13392    12858    12451    12213    12235    12584 
   13182    13759    14179    14536    14847    14951    14736    14262 
   13683    13116    12583    12067    11578    11233    11249    11763 
   12727    13946    15026    15556    15453    14910    14156    13393 
   12800    12456    12345    12418    12577    12787    13113    13529 
   13940    14197    14095    13670    13205    12888    12787    12891 
   13008    12997    13019    13275    13767    14361    14820    14925 
   14733    14419    13990    13405    12727    12025    11472    11352 
   11723    12422    13282    14094    14629    14756    14463    13956 
   13525    13247    13073    12973    12866    12800    12989    13454 
   13981    14380    14575    14573    14332    13790    13024    12340 
   12031    12112    12442    12885    13311    13657    13905    14007 
   13960    13826    13733    13651    13316    12663    12047    11901 
   12295    12961    13626    14106    14361    14524    14642    14625 
   14378    13864    13150    12334    11570    11090    11053    11516 
   12414    13474    14377    14990    15364    15541    15456    15098 
   14540    13863    13169    12488    11853    11422    11322    11577 
   12123    12842    13620    14335    14878    15176    15217    15045 
   14697    14219    13684    13120    12579    12166    11900    11747 
   11722    11858    12162    12617    13163    13776    14395    14759 
   14669    14310    14007    13937    14087    14278    14343    14216 
   13860    13333    12756    12155    11638    11427    11657    12262 
   13045    13864    14671    15353    15703    15603    15169    14623 
   14072    13471    12671    11653    10802    10638    11308    12491 
   13670    14555    15153    15476    15481    15172    14617    13944 
   13189    12262    11279    10601    10486    10899    11604    12390 
   13240    14172    15026    15661    16035    16058    15681    15003 
   14170    13346    12704    12280    11989    11842    11846    11911 
   12001    12121    12259    12484    12831    13247    13744    14254 
   14563    14604    14457    14173    13845    13618    13551    13567 
   13495    13174    12675    12316    12310    12615    13051    13406 
   13621    13786    13971    14220    14485    14632    14621    14457 
   14127    13703    13244    12806    12429    12073    11799    11793 
   12174    12953    13902    14554    14682    14455    14035    13471 
   12808    12090    11508    11396    11875    12820    14053    15253 
   15998    16128    15774    15121    14347    13576    12789    11950 
   11133    10550    10439    10881    11767    12900    14041    14963 
   15483    15522    15159    14534    13873    13439    13257    13178 
   13111    13059    13115    13285    13387    13331    13262    13306 
   13444    13639    13779    13647    13282    12969    12810    12768 
   12788    12722    12545    12436    12475    12590    12766    13054 
   13420    13851    14370    14914    15365    15564    15388    14970 
   14543    14141    13613    12870    12002    11322    11198    11664 
   12429    13193    13718    13840    13551    13066    12681    12494 
   12463    12550    12719    13015    13468    13959    14339    14593 
   14810    14953    14845    14427    13834    13293    12920    12652 
   12483    12542    12856    13219    13417    13311    12881    12382 
   12101    12187    12762    13778    14955    15959    16534    16627 
   16260    15407    14133    12626    11118     9914     9374     9628 
   10501    11790    13212    14359    14987    15078    14796    14403 
   14084    13964    14067    14175    14010    13572    13050    12596 
   12394    12507    12776    13065    13315    13520    13721    13902 
   14029    14161    14280    14296    14214    13979    13467    12831 
   12268    11792    11558    11738    12268    13046    13922    14644 
   15022    14990    14605    14077    13590    13204    12942    12810 
   12795    12901    13085    13221    13250    13257    13296    13324 
   13327    13300    13304    13477    13783    14022    14064    13859 
   13427    12912    12552    12471    12545    12667    12864    13167 
   13556    13957    14289    14500    14570    14485    14192    13745 
   13274    12847    12521    12307    12160    12047    11951    11951 
   12193    12734    13520    14445    15344    15974    16114    15726 
   14972    14013    12945    11965    11275    10966    11091    11578 
   12272    13095    13940    14662    15168    15334    15072    14469 
   13733    12965    12216    11677    11529    11786    12391    13215 
   14103    14963    15630    15885    15731    15314    14650    13734 
   12706    11739    11003    10627    10662    11187    12193    13393 
   14408    15097    15473    15516    15242    14735    14114    13543 
   13043    12496    11923    11531    11507    11911    12681    13552 
   14229    14613    14648    14339    13886    13460    13100    12773 
   12464    12243    12231    12567    13225    13932    14388    14526 
   14440    14230    13934    13552    13132    12857    12800    12839 
   12870    12868    12858    12937    13116    13323    13552    13884 
   14238    14365    14114    13597    13082    12777    12680    12669 
   12684    12708    12699    12691    12771    12946    13236    13660 
   14098    14388    14463    14324    14040    13776    13671    13671 
   13645    13556    13437    13298    13092    12837    12653    12590 
   12629    12771    12977    13235    13570    13917    14166    14303 
   14310    14131    13799    13428    13101    12856    12703    12721 
   12965    13275    13466    13609    13787    13887    13879    13811 
   13610    13284    13016    12873    12850    12977    13155    13252 
   13267    13203    13074    13001    13050    13211    13475    13779 
   14017    14099    13942    13589    13211    12951    12919    13139 
   13473    13744    13938    14081    14077    13915    13743    13629 
   13570    13539    13452    13258    13027    12856    12702    12528 
   12429    12483    12699    13042    13410    13745    14069    14335 
   14411    14247    13963    13682    13412    13089    12699    12332 
   12129    12208    12546    13041    13645    14246    14644    14797 
   14770    14620    14432    14231    13936    13563    13239    13016 
   12895    12808    12675    12525    12440    12415    12403    12434 
   12505    12561    12699    12996    13416    13892    14246    14310 
   14134    13864    13645    13570    13672    13923    14208    14440 
   14557    14489    14283    14061    13859    13554    13066    12499 
   12025    11797    11863    12101    12386    12636    12768    12806 
   12872    13023    13266    13613    14025    14391    14581    14551 
   14376    14131    13879    13656    13487    13382    13340    13365 
   13378    13284    13124    12937    12738    12629    12622    12644 
   12739    12996    13379    13819    14249    14517    14509    14234 
   13743    13231    12912    12781    12784    12900    13055    13238 
   13435    13529    13429    13230    13080    12976    12869    12775 
   12717    12785    13090    13576    14049    14327    14351    14206 
   14006    13772    13556    13525    13662    13751    13725    13686 
   13741    13892    13969    13814    13490    13180    12934    12738 
   12634    12627    12717    12899    13072    13108    12992    12853 
   12814    12892    13072    13294    13508    13726    13933    14108 
   14222    14206    14067    13894    13736    13609    13502    13379 
   13234    13070    12884    12710    12602    12561    12615    12823 
   13147    13486    13791    14050    14258    14369    14251    13860 
   13346    12933    12771    12818    12906    12970    13063    13235 
   13477    13707    13861    13919    13867    13666    13302    12903 
   12669    12622    12641    12741    13020    13446    13856    14073 
   14033    13855    13697    13578    13462    13383    13356    13298 
   13166    13015    12910    12922    13105    13421    13763    14026 
   14196    14322    14357    14227    13923    13447    12891    12407 
   12052    11859    11946    12390    13105    13895    14548    14906 
   14929    14685    14230    13613    12984    12536    12332    12320 
   12415    12579    12835    13158    13481    13736    13842    13821 
   13730    13563    13360    13203    13138    13203    13373    13556 
   13701    13821    13900    13865    13706    13460    13163    12942 
   12854    12829    12849    12941    13077    13223    13355    13490 
   13655    13817    13922    13953    13905    13821    13721    13535 
   13275    13000    12746    12638    12737    12928    13139    13398 
   13707    14017    14257    14350    14285    14104    13821    13475 
   13146    12839    12560    12398    12405    12523    12726    13032 
   13356    13609    13834    14021    14073    14013    13903    13751 
   13632    13633    13674    13686    13756    13903    14037    14048 
   13802    13319    12816    12456    12287    12330    12540    12827 
   13149    13463    13697    13815    13849    13833    13790    13701 
   13558    13416    13296    13180    13078    13014    13015    13116 
   13288    13427    13486    13487    13409    13234    13059    12991 
