Origin Time       2025/03/28 03:50:00
Lat.              35.403
Long.             140.360
Depth. (km)       54
Mag.              4.4
Station Code      IBR014
Station Lat.      36.0729
Station Long.     140.1948
Station Height(m) 18
Record Time       2025/03/28 03:51:06
Sampling Freq(Hz) 100Hz
Duration Time(s)  60
Dir.              N-S
Scale Factor      7845(gal)/8223790
Max. Acc. (gal)   2.024
Last Correction   2025/03/28 03:51:05
Memo.             
[...]
     606      600      598      606      607      602      604      603 
     604      606      602      602      607      611      615      612 
     604      603      606      600      603      611      606      598 
     596      598      603      611      619      614      604      606 
     614      622      622      610      607      619      616      603 
     606      614      614      607      604      616      626      614 
     606      608      600      594      603      614      614      610 
     604      606      610      611      616      618      610      606 
     608      604      596      594      595      604      618      616 
     606      608      614      606      600      602      598      595 
     602      607      607      610      611      598      588      595 
     603      606      608      615      623      612      592      581 
     576      577      591      607      621      623      608      594 
     589      584      579      587      599      611      626      634 
     631      623      607      585      567      562      575      587 
     589      598      607      600      591      567      537      556 
     610      638      646      665      691      697      679      639 
     592      564      571      583      584      580      580      581 
     549      491      461      464      499      557      571      567 
     621      704      757      758      724      695      660      614 
     583      576      602      629      627      633      630      606 
     600      599      565      531      521      521      571      692 
     791      796      768      726      665      596      504      427 
     444      521      596      629      596      546      519      515 
     503      486      542      666      766      843      901      899 
     822      695      557      444      382      454      638      751 
     739      658      540      436      359      280      216      225 
     384      599      724      793      839      868      855      729 
     568      527      603      699      751      778      811      831 
     795      702      687      799      874      882      903      876 
     781      735      742      741      703      594      465      429 
     429      364      302      309      305      274      279      324 
     371      423      487      556      595      529      413      405 
     457      460      535      711      795      780      787      756 
     656      558      414      253      252      363      483      679 
     889      915      739      550      471      475      557      741 
     920      977      901      746      584      510      565      631 
     568      479      504      523      456      471      618      723 
     720      714      772      824      805      851     1039     1152 
    1061      842      602      391      191       56       60      120 
     163      222      313      442      606      753      820      760 
     618      537      635      823      888      820      726      598 
     461      394      396      475      607      693      710      765 
     865      907      918      946      882      687      500      426 
     407      414      522      706      827      847      801      699 
     534      355      267      332      465      581      696      830 
     911      823      548      205      -35      -25      198      453 
     661      777      760      687      604      507      480      545 
     660      822      974     1066     1061      885      589      307 
     101       49      230      544      789      926     1040     1108 
    1011      726      407      282      371      564      805      967 
     918      792      753      726      673      619      409       59 
     -97       25      272      579      789      784      723      699 
     642      538      386      180       39       76      274      525 
     760      951     1053     1020      920      816      623      373 
     241      280      518      945     1289     1336     1156      795 
     388      240      351      483      540      554      645      814 
     853      719      607      585      602      660      803      965 
     973      761      477      286      178      101      130      356 
     672      893      961      928      785      508      284      286 
     441      600      720      832      903      892      819      642 
     365      152      160      348      494      499      450      378 
     348      433      506      527      629      758      805      832 
     939     1117     1159      909      641      656      783      772 
     688      652      648      634      589      513      472      540 
     657      746      827      849      704      444      205       97 
     210      460      631      676      662      638      715      899 
     992      862      589      382      340      367      409      479 
     484      410      403      530      687      777      793      735 
     642      562      467      363      298      282      344      399 
     303      168      137      187      324      552      807     1038 
    1186     1159      963      795      830      934      869      681 
     654      857     1044     1071      996      869      768      781 
     830      791      691      560      426      342      271      238 
     334      535      737      757      518      172      -95     -149 
      78      409      598      707      884      986      874      719 
     669      668      631      508      314      216      402      735 
     835      675      571      589      598      634      703      669 
     567      581      707      827      930      962      812      476 
     114      -48       44      319      688      973     1066     1028 
     901      704      561      599      781     1020     1255     1320 
    1078      569       -9     -291      -74      421      901     1279 
    1506     1455     1017      357      -91     -148       -6      228 
     441      446      344      294      234      153      164      349 
     638      774      654      507      461      415      386      446 
     642     1030     1480     1690     1503     1043      503      -13 
    -306     -137      307      658      934     1251     1435     1316 
     951      557      357      375      490      603      634      530 
     386      407      596      769      885      981      985      830 
     550      205      -99     -191      -82      108      436      843 
    1046      946      729      504      259       70       89      325 
     643      893      988      918      743      565      473      473 
     514      641      857      923      781      684      685      735 
     896     1089     1138     1013      747      419      233      260 
     287      230      313      603      816      726      504      483 
     685      820      777      758      820      773      584      430 
     368      313      249      210      224      378      676      974 
    1113      977      675      456      314      141       75      271 
     592      757      697      616      629      616      553      588 
     805     1120     1278     1113      851      783      822      788 
     669      487      310      197      145      259      571      858 
     986     1058     1117     1067      895      707      622      672 
     723      723      757      792      804      754      483       37 
    -332     -508     -471     -251       14      222      372      496 
     654      830      947     1028     1067      896      480       59 
    -153      -78      216      533      770      967     1098     1082 
     973      916      882      768      649      623      658      702 
     772      909     1021      980      843      734      700      660 
     506      334      295      334      392      507      654      768 
     812      766      738      834      905      891      945      992 
     857      576      229      -68     -180     -118       95      513 
     978     1215     1150      904      631      479      467      494 
     537      594      611      576      454      292      216      216 
     183       95       29       90      328      662      935     1112 
    1270     1429     1513     1368      986      556      222       95 
     217      468      776     1131     1398     1490     1471     1293 
     899      446       21     -319     -384     -191       40      226 
     322      315      348      479      621      764      904      918 
     784      670      666      702      699      688      716      661 
     445      290      319      386      471      703     1067     1420 
    1613     1575     1308      873      382      -79     -398     -405 
    -114      168      230      163       82       39      110      330 
     711     1147     1350     1246     1026      758      541      537 
     692      913     1150     1204      985      720      567      456 
     387      388      386      386      438      504      575      675 
     766      828      884      903      861      854      924      915 
     653      233      -37      -35       71      170      329      514 
     622      646      607      561      589      660      681      677 
     689      696      737      892     1124     1264     1200     1012 
     830      633      403      303      373      433      471      576 
     631      554      479      473      452      388      360      429 
     581      723      720      602      504      403      290      314 
     499      711      849      797      540      324      298      349 
     406      456      483      553      629      608      618      791 
    1027     1158     1097      920      778      670      510      284 
      40      -94       -4      257      575      855      997      965 
     850      776      795      866      916      920      931      940 
     900      808      621      353      148       82      124      243 
     433      657      765      681      571      541      549      656 
     849      939      942      984      928      680      411      225 
     116      193      483      791      949      959      866      702 
     549      432      303      214      236      286      253      174 
     171      283      436      580      707      781      750      656 
     603      607      656      805      992     1070     1104     1206 
    1256     1202     1189     1210     1161     1047      869      614 
     353      135      -86     -257     -226      -28      171      321 
     425      487      475      398      391      558      837     1062 
    1078      913      706      486      274      159      174      274 
     411      540      630      724      868      980      970      884 
     835      885      985     1042     1019      953      905      828 
     604      314      198      290      438      599      842     1102 
    1246     1282     1232     1016      672      387      214       86 
     -10     -114     -230     -198      -16       51      -66     -114 
      87      461      878     1232     1367     1250     1047      916 
     923     1054     1185     1163      911      491       78     -148 
    -117       29       58      -62     -167     -121      118      460 
     749      911      965      989     1065     1144     1146     1135 
    1128     1011      824      739      776      859      962     1034 
    1061     1127     1250     1336     1325     1196      896      403 
    -175     -626     -808     -735     -475      -66      411      819 
    1094     1247     1260     1105      811      465      187       44 
      10       86      276      480      588      630      711      837 
     938      932      781      531      267       89      157      577 
    1167     1576     1603     1209      490     -234     -653     -637 
    -128      699     1421     1792     1836     1593     1129      642 
     322      152       -1     -163     -230      -67      338      799 
    1134     1260     1127      832      638      599      499      295 
     180      205      294      426      562      684      793      746 
     395      -87     -409     -473     -292       99      607     1129 
    1547     1771     1776     1503     1001      531      282      249 
     442      831     1231     1505     1630     1584     1383     1085 
     745      472      283       33     -302     -534     -523     -314 
     -60      109      226      411      654      864     1035     1182 
    1215     1112      946      722      495      363      199     -174 
    -630     -841     -625       29      923     1656     1989     2015 
    1881     1647     1387     1171      989      861      811      756 
     716      861     1163     1410     1464     1213      603     -163 
    -796    -1165    -1194     -812     -160      487     1000     1358 
    1534     1560     1514     1405     1170      793      379      117 
     126      326      523      603      518      236     -149     -515 
    -812     -938     -832     -621     -294      307     1043     1552 
    1671     1468     1135      891      718      460      251      298 
     456      549      627      733      873     1097     1348     1536 
    1711     1900     1993     1917     1669     1260      714       99 
    -432     -718     -784     -743     -569     -191      314      789 
    1101     1170     1061      984     1062     1204     1298     1302 
    1159      800      152     -699    -1382    -1516    -1043     -186 
     758     1470     1730     1686     1674     1741     1637     1246 
     739      349      218      356      692     1121     1416     1351 
     959      463       67     -157     -321     -448     -328      112 
     616     1030     1378     1590     1559     1233      619     -109 
    -703    -1032     -992     -494      365     1324     2116     2501 
    2357     1834     1228      741      398      136      -85     -297 
    -537     -733     -762     -599     -248      259      764     1112 
    1285     1329     1343     1426     1537     1579     1498     1251 
     923      669      496      342      218      156      214      449 
     797     1101     1240     1206     1044      751      387      102 
     -74     -211     -274     -230     -137      -48      -29      -91 
     -94      109      521     1034     1470     1633     1456     1062 
     625      243      -66     -259     -236       -5      284      479 
     502      419      425      623      966     1347     1647     1814 
    1829     1630     1236      804      413       27     -253     -259 
      36      527     1017     1302     1386     1394     1371     1325 
    1308     1293     1166      882      548      338      317      392 
     479      541      496      330      174      129      168      202 
     206      287      564      982     1278     1186      766      297 
     -39     -213     -290     -275     -101      148      337      476 
     585      664      760      911     1152     1502     1838     1954 
    1734     1205      515     -101     -454     -514     -367     -102 
     224      554      818      974     1048     1104     1120      984 
     677      334       63      -89      -82       89      369      657 
     881     1005      988      877      835      947     1121     1263 
    1358     1363     1236     1017      769      542      333      101 
    -137     -294     -279      -94      199      534      800      907 
     843      648      405      199       -5     -260     -441     -386 
     -97      282      641      947     1169     1248     1169     1005 
     895      892      942      982      999      999      981      931 
     858      753      576      340      129       33      130      406 
     753     1061     1232     1223     1119     1057     1078     1061 
     857      491       87     -257     -436     -356      -85      179 
     306      305      245      217      338      704     1251     1732 
    1911     1707     1263      850      572      384      373      635 
    1071     1506     1821     1906     1648     1040      220     -571 
   -1082    -1233    -1085     -735     -328       12      292      596 
     970     1317     1495     1525     1490     1356     1152     1023 
    1000      976      855      615      321       55     -193     -386 
    -411     -232       87      453      737      842      704      341 
     -44     -243     -214       35      508     1077     1540     1756 
    1699     1482     1298     1244     1297     1398     1432     1269 
     924      535      218       14      -83      -67       63      230 
     319      233      -56     -438     -724     -762     -456      145 
     835     1377     1632     1578     1294      926      602      367 
     236      224      275      337      472      673      787      801 
     839      947     1159     1470     1744     1858     1750     1443 
    1086      800      630      629      711      722      677      627 
     531      448      461      483      398      216      -27     -314 
    -548     -595     -446     -163      217      610      954     1235 
    1355     1232      959      683      510      476      518      572 
     600      553      477      506      677      924     1121     1162 
    1039      797      490      183      -62     -170     -133      -33 
     118      337      589      828     1008     1147     1274     1310 
    1212     1046      881      738      606      500      498      561 
     519      363      276      302      387      556      789      980 
    1035      920      696      472      310      232      271      409 
     561      610      552      521      535      515      486      502 
     527      540      583      675      812      992     1102     1021 
     797      577      396      238      197      346      592      812 
     938      880      621      319      171      241      459      719 
     946     1073     1061      888      526       56     -322     -452 
    -291      102      606     1116     1528     1702     1574     1175 
     614       67     -306     -484     -508     -414     -210       85 
     442      872     1360     1788     2027     2011     1725     1269 
     793      441      307      324      360      373      314      152 
      13        1       95      287      575      918     1285     1598 
    1742     1649     1397     1151      962      749      476      153 
    -198     -488     -615     -558     -309      106      577      986 
    1225     1242     1080      849      699      692      711      685 
     735      900     1038     1038      903      664      410      257 
     217      201      141       54      -45     -114      -51      156 
     419      675      874      970      958      889      869     1001 
    1274     1561     1722     1679     1445     1097      706      328 
      35      -91      -32      141      376      642      850      947 
     963      872      649      398      203       41     -101     -213 
    -272     -214      -18      244      502      683      726      724 
     795      904     1017     1146     1215     1173     1084      963 
     756      499      306      225      220      220      211      253 
     336      365      332      317      398      565      718      812 
