Origin Time       2025/03/28 03:50:00
Lat.              35.403
Long.             140.360
Depth. (km)       54
Mag.              4.4
Station Code      IBR012
Station Lat.      36.1954
Station Long.     140.2713
Station Height(m) 25
Record Time       2025/03/28 03:51:10
Sampling Freq(Hz) 100Hz
Duration Time(s)  60
Dir.              E-W
Scale Factor      7845(gal)/8223790
Max. Acc. (gal)   2.324
Last Correction   2025/03/28 03:51:09
Memo.             
[...]
     885      886      905      988     1044     1003      940      916 
     907      911      935      940      907      874      857      838 
     826      819      827      858      881      891      912      942 
     947      899      827      808      862      959     1013      978 
     928      889      870      911      949      919      900      945 
     966      935      915      903      885      854      799      761 
     747      749      800      868      877      834      773      722 
     719      778      884     1017     1132     1144     1048      923 
     831      826      889      940      938      893      866      912 
     980      999      973      895      799      781      834      909 
     984      978      907      846      765      696      751      877 
     961     1020     1069     1077     1063     1007      899      842 
     868      889      896      922      907      841      800      760 
     677      615      615      687      818      901      886      846 
     807      800      873      967     1017     1026      988      930 
     892      888      935     1019     1073     1065     1016      967 
     939      930      924      899      897      938      935      922 
     936      858      734      722      808      934     1063     1108 
    1034      907      797      739      772      862      923      951 
     940      893      872      862      799      726      753      893 
    1034     1053      940      785      670      656      758      868 
     892      882      901      967     1057     1069      955      820 
     778      815      853      861      859      884      943     1003 
    1035     1024      967      911      895      884      824      789 
     872      986      988      893      795      753      839      973 
     977      868      729      591      572      706      850      943 
    1035     1112     1108     1028      934      915     1038     1162 
    1077      858      691      653      754      855      828      781 
     814      878      947      982      928      842      792      812 
     908     1015     1075     1094     1073      982      838      729 
     746      889     1032     1044      958      901      893      873 
     824      793      795      827      934     1094     1166     1080 
     857      599      468      500      658      899     1069     1067 
     966      839      758      805      901      918      934     1043 
    1123     1074      959      870      858      908      963      985 
     954      946     1042     1166     1158      942      629      436 
     473      672      878      938      841      739      718      768 
     931     1098     1055      849      699      693      837     1066 
    1208     1194     1098      989      895      815      787      791 
     749      673      616      634      777      984     1077     1012 
     912      818      766      842      967     1027      992      846 
     718      803     1071     1314     1399     1273      953      602 
     433      496      711      972     1144     1150     1024      881 
     827      880     1000     1117     1152     1074      892      681 
     594      692      858      926      803      600      511      579 
     757      916      924      876      896      928      962     1044 
    1093     1070     1035      935      801      796      855      862 
     862      862      841      861      940     1011     1032      977 
     850      780      877     1071     1239     1328     1296     1097 
     826      685      738      896     1043     1013      826      691 
     689      760      827      858      827      735      688      746 
     812      827      824      815      812      812      787      778 
     801      826      832      781      730      842     1086     1229 
    1167      989      757      580      611      838     1165     1422 
    1501     1451     1278     1077     1023     1042      977      838 
     747      747      745      688      581      486      502      595 
     707      838      900      826      734      751      872     1019 
    1098     1061      932      749      576      498      550      747 
     982     1098     1120     1093     1035     1024     1031      994 
     942      908      903      931     1007     1155     1345     1421 
    1224      909      785      880     1005     1005      900      818 
     760      689      648      626      614      668      772      823 
     785      750      807      928     1028     1024      896      800 
     850      909      882      826      808      846      905      915 
     811      692      712      791      832      897      970     1004 
    1042     1074     1040     1019     1077     1138     1177     1173 
    1050      957     1000     1074     1147     1173     1092      963 
     815      600      380      310      436      652      861      980 
     923      758      687      774      924     1046     1048      908 
     742      616      564      618      749      901     1003     1027 
     986      896      869      963     1080     1143     1098      950 
     830      768      710      714      807      945     1040     1042 
     988      924      927      966      942      972     1090     1150 
    1129     1047      940      880      918     1009      990      899 
     820      704      658      724      783      824      855      818 
     730      621      494      460      608      859     1105     1251 
    1236     1058      835      785      915     1032     1059     1057 
    1075     1090     1008      854      762      704      675      764 
     866      922     1046     1167     1112      985      945      934 
     907      858      855      942      985      985     1031     1012 
     909      870      878      843      783      702      598      558 
     580      579      568      552      549      625      711      761 
     876     1051     1200     1278     1244     1125     1003      891 
     868      980     1050      994      924      913      977     1075 
    1143     1147     1090     1013      958      931      913      864 
     770      723      788      913     1023     1019      877      723 
     650      703      885     1067     1165     1193     1088      882 
     747      673      629      598      538      523      515      481 
     554      658      673      695      758      823      961     1150 
    1260     1337     1401     1314     1131      990      934     1030 
    1188     1219     1129      994      858      780      774      810 
     843      891      939      899      747      588      542      635 
     781      893      961      958      851      750      784      873 
     913      945      970      922      820      804      927     1096 
    1208     1183     1011      754      521      441      529      677 
     828      940      930      846      819      877      969     1058 
    1129     1154     1128     1094     1098     1162     1159      993 
     846      827      878      989     1047      990      951      947 
     920      920      973      989      893      727      606      596 
     677      777      814      745      614      553      611      711 
     820      905      905      805      668      633      750      966 
    1221     1348     1242     1048      949      951      954      955 
    1034     1107     1113     1134     1154     1077      886      657 
     480      417      525      742      931     1088     1204     1182 
    1026      838      704      650      664      681      695      774 
     901     1036     1169     1233     1192     1063      862      669 
     610      692      803      880      945      970      922      810 
     638      510      529      619      703      789      888      993 
    1054     1042     1020     1059     1152     1262     1323     1221 
    1026      904      858      853      927     1046     1117     1065 
     895      723      660      711      841      996     1108     1132 
    1074      950      824      768      710      575      409      302 
     348      507      675      841      957      954      907      885 
     850      812      872     1042     1262     1445     1509     1470 
    1363     1197     1004      796      641      646      769      911 
     993      932      784      672      619      634      689      730 
     753      785      828      858      882      895      855      793 
     742      696      696      785      915      982     1005     1063 
    1144     1213     1212     1102      997      953      926      926 
     926      874      820      805      803      799      820      865 
     912      986     1034      973      865      857     1008     1192 
    1236     1113      908      747      715      788      878      896 
     862      857      895      972     1055     1073      984      811 
     637      531      498      577      787      966      957      766 
     521      406      519      754      953     1062     1135     1196 
    1215     1197     1190     1239     1309     1297     1220     1155 
    1085      978      903      935     1015      996      787      481 
     267      183      216      406      722     1039     1240     1325 
    1321     1201      992      724      481      449      650      877 
     969      918      769      602      490      440      476      591 
     677      750      961     1285     1566     1710     1663     1459 
    1219     1026      949      974      989      961      947      982 
    1017      988      854      637      448      364      313      253 
     247      338      527      757      930      974      896      730 
     552      504      622      766      897     1084     1291     1421 
    1437     1390     1310     1173     1008      873      811      843 
     908      935      928      903      814      619      380      253 
     352      648      988     1216     1302     1375     1539     1768 
    1966     1964     1669     1281     1016      896      858      799 
     608      283      -95     -352     -314       -1      433      815 
     989      953      923     1031     1143     1165     1150     1104 
    1055     1070     1116     1121     1031      854      718      757 
     920     1078     1216     1301     1251     1093      954      927 
    1000     1062      984      737      417      205      283      695 
    1262     1713     1849     1637     1258      992      982     1171 
    1350     1282      895      383       60       62      237      392 
     472      459      427      517      765     1112     1395     1448 
    1302     1112      978      927      927      924      899      888 
     919      969      994      965      853      652      456      407 
     530      770     1042     1174     1053      769      517      445 
     594      869     1147     1332     1314     1136     1017     1077 
    1233     1302     1138      842      642      579      558      488 
     342      172       62      144      514     1071     1517     1571 
    1269      901      718      749      936     1178     1267     1107 
     865      681      564      537      588      670      791      945 
    1138     1383     1588     1664     1633     1502     1291     1089 
     939      810      634      402      220      190      282      388 
     373      214       87      155      436      911     1449     1856 
    2031     2016     1975     2023     2104     2118     1961     1563 
     977      364     -120     -356     -324     -147      -18      -21 
    -101     -116       35      305      618      932     1200     1429 
    1624     1765     1883     1964     1922     1722     1459     1239 
    1084     1000     1008     1096     1179     1167     1082     1008 
     923      749      533      392      318      243      174      147 
     159      201      299      504      734      766      490       71 
    -199      -90      409     1020     1462     1647     1591     1408 
    1289     1340     1537     1787     1939     1914     1786     1586 
    1286      980      793      765      868      943      800      421 
      -2     -197       -4      518     1104     1440     1386     1021 
     560      216       97      140      270      483      714      892 
    1027     1162     1368     1611     1740     1729     1659     1553 
    1364     1054      703      432      232       89       78      202 
     369      527      681      835      984     1156     1410     1701 
    1872     1861     1714     1472     1242     1186     1285     1355 
    1318     1225     1129     1020      846      535       59     -445 
    -769     -770     -436       64      529      822      869      714 
     496      410      584      942     1285     1394     1215      988 
     982     1165     1332     1352     1193      928      764      843 
    1124     1436     1575     1476     1243     1048     1074     1354 
    1710     1902     1788     1408      947      645      594      670 
     720      637      427      264      240      287      396      552 
     621      523      341      210      238      475      831     1169 
    1455     1657     1688     1543     1304     1054      828      615 
     375      137       33       78      147      241      415      621 
     845     1113     1343     1459     1524     1636     1892     2278 
    2612     2785     2795     2570     2131     1640     1209      954 
     877      766      415     -172     -838    -1354    -1545    -1409 
   -1077     -747     -550     -442     -264       94      630     1314 
    2031     2506     2608     2432     2131     1852     1686     1633 
    1602     1435     1098      753      517      368      251      145 
     112      216      427      697     1013     1309     1497     1548 
    1479     1298     1061      886      834      864      861      762 
     692      808     1105     1367     1363     1140      880      679 
     607      712      928     1066      967      689      382      135 
      60      179      348      498      592      612      635      681 
     710      724      720      684      621      619      781     1089 
    1516     1996     2308     2326     2146     1867     1599     1439 
    1317     1177     1067      946      729      492      373      375 
     360      191      -97     -295     -287      -94      232      627 
     989     1215     1332     1412     1467     1551     1709     1880 
    2015     2118     2128     1985     1738     1416      994      533 
     120     -237     -500     -591     -537     -440     -338     -205 
     -79      -22       68      284      569      884     1178     1428 
    1732     2068     2277     2351     2349     2272     2137     1941 
    1669     1360     1051      753      508      371      309      265 
     248      286      342      384      467      602      753      895 
     934      815      664      668      873     1159     1399     1479 
    1313      940      522      290      349      544      700      689 
     436      113      -47       22      309      696     1007     1209 
    1406     1638     1840     1952     1954     1881     1806     1746 
    1691     1603     1343      861      324      -49     -106      155 
     494      675      681      589      523      625      855     1088 
    1233     1200     1015      877      912     1082     1266     1290 
    1015      498        2     -247     -216       13      256      368 
     391      436      599      880     1159     1340     1399     1386 
    1386     1472     1660     1821     1852     1742     1462     1144 
     982      958     1030     1127     1108     1020     1046     1185 
    1281     1204      940      588      275      153      346      760 
    1146     1310     1213      950      689      553      560      693 
     849      891      793      584      395      367      444      562 
     727      793      645      434      306      233      209      274 
     448      696      976     1254     1436     1512     1532     1464 
    1409     1516     1684     1775     1725     1513     1233     1035 
    1005     1046     1038     1024      986      892      881      939 
     915      882      958     1104     1200     1107      774      255 
    -257     -569     -672     -631     -492     -291      -48      232 
     544      783      865      886      961     1171     1544     1925 
    2176     2284     2222     2037     1894     1831     1750     1579 
    1310     1031      850      784      774      765      681      463 
     171      -47      -85      113      492      835      989     1013 
     951      882      961     1144     1297     1331     1215      984 
     692      450      321      264      286      334      340      359 
     433      545      684      849     1026     1178     1302     1435 
    1528     1470     1309     1210     1240     1370     1525     1584 
    1476     1233      935      696      616      652      677      688 
     654      508      382      419      589      805      985     1089 
    1136     1129     1078     1036     1044     1109     1201     1243 
    1163      942      643      396      317      405      579      781 
     936      926      753      546      394      369      499      695 
     865      977     1013      994      989     1051     1120     1078 
     912      708      603      650      758      882     1017     1156 
    1366     1572     1617     1525     1354     1151     1042     1032 
    1050     1050      961      756      514      322      247      326 
     530      770      967     1088     1112     1063     1007     1005 
    1048     1075     1050      976      855      706      583      560 
     656      757      750      699      668      661      720      784 
     789      778      797      903     1081     1183     1152     1066 
     989     1024     1239     1524     1726     1733     1497     1115 
     746      525      529      703      866      880      762      591 
     461      495      645      776      847      854      814      799 
     877      976     1001      974      936      924      907      877 
     904      969     1024     1058     1077     1084     1021      881 
     706      523      346      214      159      170      237      292 
     321      427      629      926     1314     1620     1730     1752 
    1729     1633     1561     1528     1432     1282     1105      924 
     795      716      710      789      884      950     1015     1040 
     936      749      608      573      641      783      913      951 
     900      764      616      531      467      468      558      641 
     654      626      596      546      529      581      598      544 
     525      587      695      891     1147     1366     1615     1895 
    2079     2157     2091     1811     1425     1105      903      808 
     832      911      896      753      552      337      210      270 
     425      550      634      724      835      895      950     1066 
    1138     1101      997      834      643      498      417      437 
     562      675      684      616      548      515      571      787 
    1077     1263     1358     1413     1448     1517     1609     1680 
    1707     1645     1470     1210      940      745      635      564 
