Origin Time       2025/03/28 03:50:00
Lat.              35.403
Long.             140.360
Depth. (km)       54
Mag.              4.4
Station Code      IBR016
Station Lat.      35.9114
Station Long.     140.0494
Station Height(m) 20
Record Time       2025/03/28 03:51:03
Sampling Freq(Hz) 100Hz
Duration Time(s)  60
Dir.              N-S
Scale Factor      7845(gal)/8223790
Max. Acc. (gal)   4.714
Last Correction   2025/03/28 03:51:02
Memo.             
[...]
    2188     2172     2197     2219     2212     2219     2263     2284 
    2231     2181     2199     2234     2246     2239     2232     2242 
    2247     2223     2184     2172     2208     2253     2272     2290 
    2284     2226     2172     2160     2200     2257     2263     2261 
    2288     2265     2184     2149     2185     2250     2296     2290 
    2247     2185     2142     2180     2272     2308     2265     2207 
    2196     2241     2250     2168     2116     2208     2347     2373 
    2263     2147     2130     2188     2242     2251     2250     2282 
    2293     2212     2160     2222     2262     2226     2205     2234 
    2258     2242     2220     2249     2273     2227     2173     2191 
    2242     2251     2219     2209     2223     2219     2218     2231 
    2254     2273     2255     2203     2178     2201     2234     2263 
    2269     2239     2208     2193     2204     2249     2272     2239 
    2231     2270     2268     2203     2172     2209     2245     2243 
    2227     2205     2211     2238     2231     2204     2212     2251 
    2274     2250     2224     2220     2201     2178     2188     2226 
    2255     2241     2222     2266     2313     2290     2216     2157 
    2180     2253     2289     2277     2251     2223     2195     2178 
    2191     2215     2227     2239     2249     2235     2227     2245 
    2259     2253     2238     2211     2169     2166     2231     2289 
    2251     2192     2222     2285     2290     2250     2209     2192 
    2199     2212     2242     2273     2273     2242     2200     2170 
    2177     2205     2242     2273     2257     2214     2218     2262 
    2269     2226     2199     2214     2230     2218     2193     2212 
    2254     2257     2242     2238     2239     2234     2239     2242 
    2209     2203     2227     2236     2231     2219     2216     2204 
    2199     2238     2268     2258     2227     2226     2247     2226 
    2216     2268     2269     2182     2147     2224     2297     2278 
    2228     2205     2220     2254     2261     2208     2160     2196 
    2251     2262     2234     2212     2242     2222     2162     2214 
    2281     2251     2230     2258     2269     2241     2215     2184 
    2157     2196     2257     2277     2270     2235     2212     2219 
    2227     2250     2263     2228     2211     2234     2216     2176 
    2201     2261     2247     2192     2222     2293     2270     2199 
    2199     2251     2258     2223     2189     2174     2227     2266 
    2228     2222     2251     2266     2273     2234     2204     2207 
    2181     2182     2245     2288     2269     2230     2239     2269 
    2247     2177     2130     2196     2304     2289     2222     2235 
    2262     2227     2199     2226     2232     2203     2208     2236 
    2232     2211     2212     2212     2216     2251     2255     2197 
    2185     2246     2228     2160     2223     2338     2309     2191 
    2170     2251     2280     2234     2211     2241     2265     2251 
    2222     2211     2230     2234     2203     2182     2187     2215 
    2243     2223     2232     2281     2268     2230     2216     2197 
    2188     2200     2216     2253     2300     2284     2231     2234 
    2243     2196     2180     2232     2259     2224     2220     2235 
    2207     2185     2174     2173     2232     2293     2295     2277 
    2265     2258     2239     2182     2139     2172     2228     2270 
    2308     2303     2223     2130     2130     2197     2220     2200 
    2195     2207     2243     2285     2241     2162     2191     2258 
    2243     2188     2192     2216     2199     2201     2242     2276 
    2305     2323     2315     2272     2161     2083     2127     2207 
    2238     2236     2278     2357     2353     2250     2158     2127 
    2104     2054     2020     2062     2181     2282     2295     2269 
    2261     2297     2336     2277     2178     2154     2164     2184 
    2242     2328     2405     2427     2386     2323     2272     2250 
    2228     2222     2301     2421     2451     2403     2371     2343 
    2249     2161     2147     2119     2087     2151     2259     2327 
    2358     2355     2331     2300     2214     2083     2035     2104 
    2170     2200     2257     2328     2359     2336     2220     2081 
    2077     2155     2227     2326     2365     2296     2201     2111 
    2058     2053     2041     2015     2023     2111     2201     2220 
    2239     2238     2118     2007     2083     2263     2374     2389 
    2396     2412     2362     2218     2081     2053     2128     2212 
    2239     2286     2378     2373     2278     2251     2253     2150 
    1998     1954     2053     2161     2216     2311     2448     2555 
    2587     2512     2344     2133     1968     1979     2147     2322 
    2436     2479     2435     2359     2282     2189     2153     2189 
    2199     2187     2207     2281     2373     2367     2257     2089 
    1880     1749     1817     2034     2223     2276     2296     2411 
    2509     2423     2199     2045     2058     2154     2284     2471 
    2602     2552     2398     2322     2308     2215     2074     2020 
    2092     2230     2328     2432     2619     2718     2605     2388 
    2195     2057     1894     1687     1651     1814     1907     1902 
    2008     2223     2305     2182     2122     2276     2431     2438 
    2413     2443     2415     2216     2033     2110     2286     2355 
    2444     2613     2675     2559     2396     2251     2101     1958 
    1842     1803     1900     2022     2081     2168     2324     2440 
    2357     2073     1830     1827     2004     2195     2328     2412 
    2486     2520     2477     2443     2390     2200     2011     2004 
    2126     2262     2388     2529     2613     2497     2293     2236 
    2280     2251     2141     2037     2062     2168     2172     2169 
    2297     2338     2224     2165     2155     2139     2180     2226 
    2277     2416     2521     2496     2454     2451     2416     2246 
    1998     1900     1991     2096     2142     2235     2389     2361 
    2074     1813     1744     1790     1876     2012     2173     2246 
    2223     2215     2234     2276     2309     2247     2168     2180 
    2253     2378     2539     2687     2793     2789     2687     2550 
    2257     1873     1761     1965     2191     2295     2312     2304 
    2235     2062     1962     2053     2218     2369     2458     2424 
    2299     2173     2072     1956     1834     1849     2026     2184 
    2300     2474     2644     2743     2774     2682     2466     2189 
    1904     1734     1786     1991     2187     2268     2218     2087 
    1937     1748     1584     1678     2093     2636     3118     3337 
    3122     2682     2390     2324     2258     2087     1987     2045 
    2116     2087     2018     2064     2204     2258     2236     2269 
    2313     2265     2111     1958     1931     2011     2081     2092 
    2120     2239     2359     2378     2285     2089     1973     2070 
    2208     2293     2373     2353     2197     2066     2076     2191 
    2276     2280     2281     2259     2158     2091     2150     2293 
    2463     2532     2385     2114     1927     1969     2149     2227 
    2172     2165     2307     2548     2751     2794     2727     2555 
    2253     1977     1845     1814     1895     2079     2259     2350 
    2307     2231     2255     2251     2128     2072     2127     2188 
    2307     2502     2600     2500     2276     2054     1961     2011 
    2087     2160     2307     2400     2290     2164     2177     2199 
    2216     2407     2650     2670     2548     2504     2493     2407 
    2292     2195     2126     2123     2092     1921     1723     1653 
    1738     1987     2315     2477     2403     2322     2312     2247 
    2176     2177     2177     2172     2177     2119     2025     2012 
    2069     2128     2219     2338     2393     2362     2293     2214 
    2142     2137     2241     2413     2511     2436     2232     1995 
    1869     1921     2004     2101     2327     2550     2620     2585 
    2552     2569     2596     2605     2627     2624     2478     2146 
    1760     1533     1533     1584     1553     1524     1607     1775 
    1935     2097     2328     2589     2826     3009     3056     2965 
    2794     2565     2305     2107     2101     2299     2497     2496 
    2292     2074     2006     2029     2100     2226     2290     2289 
    2353     2454     2473     2365     2155     1923     1737     1586 
    1520     1703     2119     2523     2752     2837     2870     2828 
    2596     2212     1880     1705     1659     1703     1883     2214 
    2484     2509     2454     2436     2272     1944     1752     1864 
    2104     2219     2218     2245     2300     2277     2137     2047 
    2143     2246     2196     2072     2006     2087     2349     2714 
    2975     2959     2652     2182     1880     1965     2173     2195 
    2074     1962     1881     1806     1732     1702     1800     2085 
    2471     2805     2970     2921     2775     2664     2567     2407 
    2139     1799     1520     1444     1575     1813     2068     2281 
    2467     2655     2791     2875     2889     2714     2436     2288 
    2231     2091     1903     1852     2043     2357     2532     2434 
    2182     2081     2207     2326     2284     2139     2012     1935 
    1914     1991     2184     2400     2482     2377     2224     2181 
    2266     2397     2471     2459     2400     2278     2029     1746 
    1696     1898     2110     2222     2246     2192     2050     1827 
    1634     1642     1921     2336     2658     2818     2934     2965 
    2758     2513     2462     2408     2227     2027     1872     1900 
    2112     2239     2245     2309     2452     2586     2643     2619 
    2581     2558     2601     2686     2601     2309     1964     1667 
    1534     1587     1672     1680     1652     1722     1921     2138 
    2326     2427     2344     2166     2010     1799     1540     1489 
    1729     2066     2436     2871     3268     3462     3365     3007 
    2552     2157     1883     1807     1973     2281     2520     2482 
    2250     2045     1872     1705     1640     1730     1933     2189 
    2384     2386     2326     2403     2528     2546     2443     2265 
    2062     1879     1777     1891     2242     2585     2749     2768 
    2679     2577     2486     2350     2177     2025     1968     1934 
    1783     1645     1679     1845     2093     2335     2489     2621 
    2754     2864     2957     2940     2747     2489     2262     2061 
    1840     1630     1567     1671     1848     1977     1929     1706 
    1518     1491     1605     1877     2245     2521     2643     2652 
    2577     2440     2316     2327     2486     2679     2855     2941 
    2835     2565     2239     1985     1927     1999     2073     2207 
    2403     2504     2438     2243     2037     1914     1796     1707 
    1826     2064     2207     2265     2293     2272     2231     2234 
    2269     2320     2394     2424     2361     2324     2398     2516 
    2625     2655     2555     2409     2241     2010     1831     1796 
    1795     1763     1795     1968     2236     2502     2670     2613 
    2290     1904     1736     1817     2015     2282     2451     2331 
    2015     1651     1404     1478     1819     2234     2608     2868 
    3002     2979     2789     2621     2556     2438     2270     2234 
    2363     2482     2413     2284     2339     2558     2752     2770 
    2556     2234     1919     1570     1208     1000     1030     1305 
    1782     2316     2816     3227     3407     3369     3358     3522 
    3728     3773     3613     3296     2803     2143     1530     1225 
    1170     1165     1177     1178     1055      846      730      719 
     776      997     1372     1753     2015     2080     1956     1733 
    1572     1634     2031     2816     3807     4602     4993     5077 
    4922     4401     3537     2662     1998     1493     1142      943 
     745      584      668      951     1277     1607     1898     2070 
    2114     2061     1992     1961     1938     1945     2084     2334 
    2609     2862     2995     2972     2932     3007     3173     3339 
    3457     3518     3514     3412     3114     2619     2157     1826 
    1537     1302     1086      757      372      125      155      567 
    1301     2070     2656     2986     3037     2914     2793     2775 
    2844     2812     2570     2349     2394     2596     2713     2706 
    2673     2689     2751     2843     2965     3028     3011     2957 
    2741     2284     1755     1283      897      739      940     1343 
    1699     2006     2371     2651     2662     2498     2242     1895 
    1568     1281      900      473      311      603     1298     2266 
    3233     3912     4287     4437     4340     3978     3464     2932 
    2404     1923     1597     1414     1317     1379     1691     2215 
    2828     3279     3416     3391     3248     2879     2380     1883 
    1436     1139     1035     1043     1146     1381     1680     2012 
    2407     2829     3219     3419     3227     2722     2177     1718 
    1362     1150     1143     1335     1528     1489     1186      778 
     513      569      876     1313     1977     2889     3865     4830 
    5798     6647     7172     7107     6262     4781     3010     1331 
      99     -589     -908    -1036    -1073    -1005     -745     -279 
     426     1405     2471     3393     4071     4471     4587     4402 
    3906     3153     2247     1372      716      407      527     1040 
    1794     2555     3033     3076     2808     2423     2037     1742 
    1583     1547     1679     1998     2405     2764     2949     2952 
    2936     3075     3400     3777     4090     4302     4239     3785 
    3103     2281     1383      672      256      -21     -184      -68 
     275      565      706      839     1046     1273     1482     1663 
    1873     2207     2647     3165     3728     4174     4347     4255 
    4004     3608     3015     2241     1440      939      963     1426 
    2176     2987     3480     3404     2826     2064     1371      815 
     515      626     1066     1597     2039     2285     2327     2289 
    2289     2392     2539     2565     2421     2266     2307     2600 
    2945     3087     2983     2781     2583     2509     2644     2921 
    3295     3767     4239     4456     4202     3472     2376     1196 
     317     -103     -133      149      731     1468     2072     2344 
    2265     1957     1533     1080      795      826     1116     1502 
    1973     2663     3500     4337     5031     5283     5003     4421 
    3676     2802     1966     1323      934      808      745      508 
     176      -27       22      315      751     1386     2288     3172 
    3689     3784     3551     3167     2764     2401     2261     2432 
    2673     2814     2917     2995     2893     2524     2064     1645 
    1298     1165     1308     1644     2172     2864     3561     4082 
    4297     4139     3603     2832     2135     1672     1282      849 
     556      603      877     1134     1300     1402     1555     1965 
    2636     3323     3788     3927     3786     3526     3318     3249 
    3287     3361     3338     3057     2443     1529      521     -274 
    -706     -768     -522     -207      -66      -37      162      750 
    1756     3042     4387     5533     6157     6064     5397     4452 
    3553     2922     2508     2218     2011     1783     1520     1355 
    1368     1536     1757     1929     2085     2269     2336     2226 
    2035     1761     1336      831      395      118       62      224 
     549     1142     2072     3091     3923     4475     4706     4622 
    4359     4070     3753     3323     2805     2349     2037     1722 
    1279      869      685      789     1225     1848     2366     2712 
    2868     2728     2363     1965     1629     1413     1402     1653 
    2100     2559     2941     3370     3869     4176     4131     3896 
    3623     3176     2454     1663     1030      642      602      928 
    1456     1993     2366     2386     2042     1605     1367     1367 
    1471     1590     1659     1624     1574     1713     2091     2623 
    3196     3662     3950     4041     3942     3738     3462     3063 
    2531     1933     1414     1147     1138     1266     1447     1624 
    1788     1949     2041     1944     1517      838      330      367 
     923     1732     2501     3032     3273     3318     3296     3275 
    3215     3045     2859     2889     3140     3350     3299     2951 
    2461     2079     1934     1979     2061     2062     2006     1956 
    1922     1846     1686     1495     1356     1325     1401     1533 
    1775     2247     2897     3473     3716     3581     3268     2925 
    2600     2324     2057     1733     1398     1217     1291     1495 
    1647     1753     1842     1861     1807     1671     1479     1447 
    1738     2253     2830     3375     3784     3966     3866     3528 
    3094     2596     2084     1690     1383     1132     1102     1354 
    1753     2185     2533     2718     2799     2814     2705     2427 
    2019     1626     1332     1057      761      530      473      626 
    1031     1768     2789     3831     4577     4909     4900     4579 
    3991     3392     2952     2524     1948     1306      862      816 
    1092     1402     1607     1775     1853     1734     1551     1499 
    1626     1946     2478     3091     3574     3758     3580     3150 
    2614     2029     1513     1281     1425     1788     2091     2204 
    2205     2177     2097     2016     2069     2263     2470     2612 
    2725     2859     3001     3051     2914     2598     2085     1395 
     784      506      519      676      938     1316     1759     2093 
    2200     2230     2328     2419     2489     2682     3002     3265 
    3357     3285     3152     3038     2913     2776     2646     2492 
    2311     2127     2025     2069     2214     2405     2643     2836 
    2847     2632     2241     1811     1518     1372     1251     1152 
    1173     1281     1375     1466     1644     1983     2431     2809 
    3002     3046     3060     3102     3113     3007     2770     2408 
    1976     1655     1620     1800     2018     2269     2552     2694 
    2643     2548     2492     2482     2532     2621     2713     2768 
    2739     2589     2347     2016     1566     1102      791      724 
     858     1058     1355     1825     2316     2678     2898     2960 
    2903     2755     2482     2126     1783     1522     1441     1629 
    1984     2266     2384     2425     2515     2701     2944     3190 
    3346     3215     2727     2110     1602     1273     1138     1215 
    1553     2137     2759     3223     3514     3713     3861     3878 
    3701     3326     2770     2091     1387      792      460      479 
     754     1077     1335     1602     1953     2209     2199     2020 
    1873     1871     2041     2357     2731     2990     3030     2934 
    2814     2664     2490     2400     2411     2469     2574     2698 
