Origin Time       2025/03/28 03:50:00
Lat.              35.403
Long.             140.360
Depth. (km)       54
Mag.              4.4
Station Code      IBR017
Station Lat.      35.9538
Station Long.     140.3196
Station Height(m) 14
Record Time       2025/03/28 03:50:55
Sampling Freq(Hz) 100Hz
Duration Time(s)  66
Dir.              N-S
Scale Factor      7845(gal)/8223790
Max. Acc. (gal)   4.234
Last Correction   2025/03/28 03:50:55
Memo.             
[...]
   14612    14627    14636    14670    14681    14623    14528    14485 
   14547    14670    14755    14747    14670    14562    14482    14445 
   14457    14585    14697    14623    14507    14501    14590    14702 
   14710    14640    14600    14544    14557    14770    14964    14894 
   14581    14189    13995    14161    14553    14908    15030    14906 
   14644    14397    14372    14588    14777    14729    14554    14451 
   14488    14654    14836    14820    14539    14288    14365    14648 
   14791    14669    14512    14561    14720    14755    14620    14478 
   14412    14401    14463    14628    14898    15063    14949    14760 
   14571    14214    13818    13783    14230    14777    15007    14958 
   14840    14737    14723    14710    14451    14118    14157    14539 
   14805    14812    14931    15191    15121    14744    14534    14532 
   14446    14230    14089    14227    14609    14891    14859    14613 
   14413    14461    14662    14878    15118    15148    14739    14319 
   14343    14584    14616    14423    14455    14825    14920    14542 
   14231    14318    14620    14783    14594    14235    14084    14304 
   14808    15295    15518    15446    14914    14122    13782    13977 
   14274    14486    14642    14898    15147    15003    14586    14310 
   14181    14107    14184    14424    14835    15282    15356    15055 
   14712    14330    13980    13911    14071    14409    14737    14650 
   14408    14439    14527    14488    14536    14854    15210    15163 
   14674    14214    14269    14867    15519    15759    15535    14856 
   13846    13150    13263    13925    14663    15202    15491    15607 
   15310    14675    14505    14781    14854    14777    14683    14536 
   14378    14114    13941    14229    14715    14963    14933    14704 
   14497    14449    14462    14666    14868    14547    13961    13552 
   13378    13725    14419    14910    15284    15534    15546    15418 
   14917    14216    13957    14150    14399    14476    14415    14382 
   14337    14280    14453    14789    14998    15093    15107    14987 
   14823    14648    14532    14578    14597    14287    13744    13664 
   14482    15506    15808    15380    14774    14372    14314    14407 
   14319    14154    14326    14913    15412    15309    14821    14571 
   14677    14737    14540    14146    13690    13653    14355    15226 
   15485    15128    14531    13878    13582    13972    14526    14717 
   14686    14747    15113    15423    15086    14369    13780    13402 
   13401    13899    14621    15130    15412    15790    16075    15938 
   15327    14223    13267    13319    14133    14922    15199    14994 
   14785    14698    14409    14052    14134    14507    14667    14616 
   14508    14361    14258    14239    14364    14682    14890    14736 
   14477    14490    14924    15352    15199    14617    14038    13965 
   14832    15998    16359    15630    14212    13108    13304    14476 
   15479    15504    14732    14180    14092    14084    14241    14481 
   14760    15124    15068    14484    13792    13257    13269    13927 
   14751    15363    15615    15473    15045    14493    14107    14152 
   14651    15257    15283    14561    13749    13373    13543    14133 
   14813    15471    15838    15403    14638    14499    14989    15388 
   15124    14478    14234    14503    14806    14829    14532    14134 
   13977    14053    14191    14405    14551    14499    14449    14596 
   14883    14960    14723    14570    14669    14652    14342    14229 
   14793    15666    16004    15672    15250    14791    14056    13221 
   12658    12812    13691    14725    15626    16146    15905    15255 
   14689    14364    14423    14466    14226    14112    14142    14183 
   14481    15007    15388    15288    14785    14307    13905    13612 
   13886    14632    15287    15483    15063    14323    13875    14018 
   14489    14823    14805    14625    14678    14922    14924    14578 
   14134    13882    13909    14104    14318    14476    14831    15341 
   15603    15797    15962    15530    14472    13441    12962    13024 
   13347    13907    14845    15707    15815    15404    15082    14918 
   14719    14461    14295    14243    14242    14419    14936    15599 
   15994    15782    14955    14019    13400    13278    13676    14180 
   14605    14962    14998    14747    14455    14266    14196    14222 
   14409    14716    14951    14862    14466    14253    14535    15203 
   15819    15761    14940    14114    14010    14407    14615    14373 
   13911    13581    13559    13979    14958    15988    16267    15614 
   14440    13518    13487    14162    14928    15491    15772    15601 
   15079    14677    14543    14482    14474    14543    14801    15201 
   15064    14111    13072    12646    13015    13914    14724    15003 
   14881    14785    14918    15221    15487    15348    14766    14184 
   13950    14119    14474    14728    14948    15315    15681    15697 
   15151    14350    13822    13559    13474    13824    14466    14910 
   14994    14814    14619    14584    14744    15176    15574    15396 
   14574    13555    12982    13194    13895    14496    14704    14735 
   14823    14860    14814    14945    15233    15218    14744    14368 
   14669    15203    15140    14580    14103    14048    14350    14486 
   14220    13981    14111    14513    14945    15206    15159    14859 
   14420    13894    13535    13660    14381    15573    16630    16808 
   15905    14366    13030    12502    12738    13576    14958    16272 
   16652    16024    14910    13830    13340    13651    14447    15376 
   16065    16054    15346    14515    14062    14131    14361    14077 
   13327    13041    13747    14840    15390    15103    14450    14080 
   14058    14106    14397    15064    15639    15912    16065    15979 
   15449    14651    14018    13734    13647    13531    13379    13621 
   14400    15082    15087    14553    14126    14157    14216    13915 
   13572    13794    14721    15781    16432    16567    16029    14833 
   13504    12672    12683    13347    14142    14922    15766    16470 
   16756    16492    15701    14665    13718    13011    12858    13477 
   14366    15072    15680    16133    16195    15689    14655    13674 
   13323    13510    13946    14395    14679    15006    15415    15448 
   14845    13917    13234    13235    13848    14625    15223    15552 
   15604    15303    14752    14227    13744    13439    13570    13932 
   14192    14332    14527    14827    15121    15391    15473    15009 
   14162    13532    13423    13797    14477    15264    15920    16227 
   16329    16344    15884    14829    13649    12877    12784    13221 
   13875    14553    15083    15462    15811    15912    15587    15179 
   14871    14477    14023    13761    13832    14173    14635    14894 
   14700    14368    14293    14462    14670    14698    14469    14121 
   13872    13873    14114    14528    14841    14739    14326    13863 
   13525    13599    14172    14817    15215    15502    15689    15612 
   15257    14762    14458    14617    14995    15083    14654    14049 
   13911    14332    14731    14755    14656    14731    14848    14793 
   14685    14667    14665    14740    14962    15250    15523    15476 
   14956    14354    13911    13518    13212    13194    13626    14430 
   15219    15742    15959    15696    14940    14080    13637    13900 
   14480    14755    14798    14983    15165    14844    14017    13441 
   13667    14396    14939    14999    14980    15248    15496    15298 
   14747    14211    13863    13709    13755    14061    14592    15161 
   15651    15867    15526    14731    13990    13752    13906    14030 
   14125    14418    14889    15225    15145    14771    14439    14288 
   14277    14415    14690    14970    15094    15021    14910    14864 
   14674    14287    14049    14150    14588    15326    15874    15599 
   14584    13497    12965    13306    14268    15041    15091    14721 
   14474    14536    14793    15033    15184    15223    15010    14607 
   14278    14189    14465    15057    15496    15348    14747    13954 
   13159    12883    13540    14893    16166    16563    16011    15165 
   14536    14110    13667    13163    12870    13051    13498    13705 
   13493    13221    13328    13791    14281    14623    14839    15010 
   15283    15746    16210    16313    15958    15406    14953    14616 
   14237    13795    13516    13691    14293    15020    15647    16021 
   16052    15985    16240    16842    17281    16964    15853    14435 
   13292    12764    12691    12819    13096    13406    13674    13807 
   13744    13738    13950    14230    14650    15346    15853    15569 
   14586    13432    12633    12526    13117    14123    15145    15867 
   16191    16247    16262    16328    16330    16106    15477    14404 
   13234    12382    11973    12058    12611    13439    14490    15547 
   16062    15957    15597    15201    14940    14940    15014    14786 
   14199    13691    13599    13880    14391    14913    15330    15734 
   15901    15321    14112    13278    13630    14871    15950    16181 
   15758    15090    14334    13784    13867    14590    15473    16027 
   16082    15669    14962    14239    13718    13567    13717    13809 
   13780    13799    13842    13852    13732    13463    13367    13597 
   13903    14350    15098    15699    15547    14665    13873    13936 
   14760    15687    16104    15908    15406    14972    14746    14400 
   13774    13304    13502    14288    14862    14717    14324    14354 
   14949    15749    16260    16197    15552    14661    13936    13578 
   13589    13795    14054    14449    15034    15633    16047    16212 
   16083    15784    15512    15147    14513    13814    13410    13616 
   14391    14958    14517    13347    12398    12397    13516    15155 
   16434    17020    17058    16723    16085    15331    14612    13734 
   12660    11726    11313    11596    12391    13414    14604    15817 
   16475    16128    15105    14013    13230    13077    13703    14798 
   15727    15925    15311    14364    13675    13516    13802    14238 
   14526    14627    14804    15207    15664    15917    15823    15311 
   14584    14235    14686    15645    16506    16892    16711    16069 
   15244    14528    13856    13124    12768    13221    14242    15049 
   15020    14405    13910    13802    13919    14050    14099    13998 
   13852    14088    14877    15734    15958    15392    14705    14488 
   14538    14391    13950    13603    13875    14812    15755    16042 
   15684    15051    14463    14247    14466    14565    14049    13203 
   12532    12174    12143    12550    13435    14499    15272    15507 
   15174    14450    13824    13721    14121    14835    15692    16335 
   16391    15904    15353    15263    15755    16424    16744    16691 
   16525    16186    15460    14354    13159    12399    12415    12884 
   13331    13747    14233    14758    15356    15878    15961    15488 
   14685    13818    13140    12785    12671    12734    12958    13207 
   13520    14206    15253    16173    16534    16329    15986    15940 
   16179    16406    16370    15882    14983    14095    13676    13757 
   14091    14470    14746    14829    14736    14548    14440    14512 
   14623    14558    14295    14033    13813    13549    13560    14138 
   14800    14813    14037    12939    12235    12383    13239    14304 
   15142    15489    15317    14759    14141    13948    14219    14524 
   14704    14860    14953    14947    14956    15183    15662    16011 
   15892    15431    14937    14713    14818    15160    15811    16641 
   17320    17599    17145    15912    14338    12731    11435    10972 
   11313    12059    13107    14450    15854    16877    17177    16775 
   15919    14808    13586    12491    11809    11707    12117    12776 
   13509    14334    15083    15426    15340    15144    15194    15628 
   16254    16726    16761    16141    14978    13822    13095    12842 
   12935    13068    13069    13150    13435    13801    14208    14721 
   15340    15861    16077    16062    15970    15908    15931    15770 
   15190    14474    13925    13500    13281    13529    14204    14902 
   15261    15269    15226    15481    16112    16795    17093    16827 
   16146    15376    14831    14573    14426    14150    13574    12815 
   12244    12013    12035    12255    12667    13116    13343    13401 
   13676    14399    15331    16013    16270    16286    16210    15981 
   15363    14158    12714    11874    12056    12852    13792    14825 
   15846    16553    16802    16757    16690    16571    16137    15431 
   14840    14566    14393    14130    13934    13930    13973    13984 
   14021    14176    14466    14674    14639    14395    13946    13452 
   13255    13535    14289    15331    16283    16864    17034    16802 
   16168    15172    13965    12864    12217    12270    13055    14230 
   15225    15716    15799    15812    16036    16316    16233    15762 
   15115    14197    12919    11614    10778    10686    11198    11884 
   12452    13030    13876    14925    15954    16923    17791    18388 
   18527    18018    16868    15454    14287    13686    13582    13564 
   13352    13041    12941    13338    14191    15105    15788    16270 
   16632    16860    16950    16758    15985    14555    12822    11345 
   10443    10164    10531    11431    12663    14084    15379    16237 
   16690    16808    16641    16413    16343    16465    16657    16611 
   16033    14939    13593    12262    11219    10810    11263    12480 
   14137    15866    17308    18144    18227    17671    16748    15693 
   14693    13891    13331    12988    12879    12988    13196    13420 
   13674    14052    14581    15061    15315    15395    15376    15280 
   15152    14983    14659    14200    13886    13898    14121    14388 
   14586    14636    14681    14916    15221    15431    15496    15356 
   15093    14800    14482    14299    14358    14480    14447    14230 
   13923    13510    13030    12829    13043    13468    13969    14399 
   14816    15412    15867    15962    15930    15734    15241    14598 
   13995    13649    13747    14100    14355    14407    14374    14346 
   14323    14469    15057    16062    17104    17732    17725    17188 
   16228    14937    13630    12696    12252    12150    12260    12537 
   12978    13521    13867    13921    14075    14511    14904    14967 
   14854    14926    15221    15356    15110    14790    14847    15387 
   16141    16713    16879    16660    16083    15156    14013    12904 
   12048    11631    11838    12640    13687    14648    15483    16245 
   16823    16983    16598    15770    14804    13991    13431    13053 
   12789    12679    12768    13093    13657    14426    15334    16173 
   16600    16414    15745    14932    14215    13660    13328    13250 
   13351    13601    14034    14627    15265    15745    15911    15908 
   15944    16002    16024    15974    15724    15192    14427    13629 
   13143    13131    13366    13625    13964    14373    14661    14769 
   14832    14936    15049    15067    14845    14391    13887    13475 
   13177    13003    12992    13171    13548    14061    14548    14802 
   14800    14794    15044    15549    16071    16256    15924    15340 
   14906    14778    14908    15121    15207    15145    15009    14747 
   14319    13826    13462    13402    13724    14338    14956    15261 
   15241    15088    14920    14735    14494    14272    14231    14400 
   14658    14921    15179    15408    15493    15361    15134    14952 
   14823    14752    14794    14932    15109    15259    15252    15043 
   14716    14291    13720    13001    12224    11628    11511    11948 
   12779    13741    14585    15199    15623    15876    15924    15788 
   15588    15439    15314    15172    15072    15032    15045    15082 
   14991    14719    14469    14500    14810    15078    15016    14628 
   14031    13402    13001    12992    13294    13755    14314    14851 
   15219    15391    15394    15286    15186    15179    15228    15228 
   15125    14974    14839    14713    14612    14608    14755    15025 
   15242    15211    14860    14300    13829    13676    13834    14277 
   14936    15550    15886    15907    15672    15268    14723    14072 
   13479    13103    13023    13251    13668    14121    14478    14670 
   14736    14682    14470    14254    14239    14459    14804    15059 
   15074    14877    14538    14206    14084    14238    14611    15034 
   15276    15237    14987    14617    14243    13994    13903    13910 
   14034    14388    14937    15445    15730    15813    15826    15835 
   15805    15654    15298    14725    14089    13614    13393    13382 
   13459    13518    13602    13834    14222    14667    15097    15488 
   15855    16143    16159    15790    15128    14334    13635    13240 
   13134    13149    13194    13273    13456    13788    14172    14482 
   14735    15017    15265    15326    15222    15182    15358    15628 
   15789    15815    15730    15398    14744    13998    13479    13274 
   13255    13348    13575    13895    14216    14542    14908    15253 
   15481    15600    15664    15695    15684    15611    15439    15134 
   14724    14268    13802    13378    13165    13304    13705    14137 
   14457    14690    14867    14916    14852    14827    14918    15090 
   15259    15349    15365    15353    15248    14978    14669    14469 
   14337    14203    14150    14310    14661    14990    15088    14913 
   14531    14137    13979    14060    14229    14401    14474    14440 
   14426    14439    14489    14608    14736    14848    14939    14945 
   14854    14708    14535    14349    14111    13841    13701    13682 
   13628    13601    13707    13925    14234    14575    14897    15236 
   15542    15630    15438    15067    14629    14287    14111    14053 
   14111    14247    14384    14590    14968    15438    15843    16087 
   16135    16001    15757    15499    15336    15303    15279    15072 
   14609    14017    13473    13068    12870    13005    13525    14235 
   14817    15138    15248    15228    15175    15163    15163    15079 
   14893    14636    14351    14110    13927    13759    13579    13458 
   13513    13782    14180    14559    14858    15101    15230    15201 
   15041    14750    14430    14278    14293    14299    14214    14119 
   14004    13795    13629    13645    13775    13983    14320    14747 
   15145    15379    15441    15552    15780    15877    15681    15327 
   15034    14914    14945    15075    15241    15314    15172    14831 
   14458    14230    14141    14084    14044    14075    14129    14050 
   13883    13848    13933    14007    14125    14351    14646    14902 
   15059    15196    15392    15546    15547    15408    15206    14994 
   14737    14428    14168    13948    13653    13298    13034    13014 
   13293    13794    14408    15026    15530    15907    16181    16301 
   16260    16087    15777    15361    14901    14445    14071    13853 
   13803    13828    13833    13799    13711    13597    13558    13630 
   13802    14121    14521    14895    15269    15591    15709    15591 
