Origin Time       2025/03/28 03:50:00
Lat.              35.403
Long.             140.360
Depth. (km)       54
Mag.              4.4
Station Code      IBR017
Station Lat.      35.9538
Station Long.     140.3196
Station Height(m) 14
Record Time       2025/03/28 03:50:55
Sampling Freq(Hz) 100Hz
Duration Time(s)  66
Dir.              U-D
Scale Factor      7845(gal)/8223790
Max. Acc. (gal)   2.508
Last Correction   2025/03/28 03:50:55
Memo.             
[...]
   17898    17880    17882    17884    17896    17906    17892    17890 
   17906    17899    17869    17852    17884    17941    17925    17852 
   17842    17894    17917    17909    17895    17887    17898    17898 
   17891    17898    17880    17878    17911    17905    17869    17879 
   17895    17892    17888    17883    17909    17926    17882    17856 
   17874    17891    17928    17929    17884    17886    17901    17871 
   17861    17884    17892    17895    17910    17899    17876    17878 
   17887    17905    17898    17861    17876    17913    17887    17878 
   17928    17929    17875    17863    17882    17888    17896    17895 
   17882    17892    17888    17864    17884    17902    17890    17895 
   17903    17906    17902    17856    17837    17891    17919    17902 
   17903    17907    17898    17894    17861    17847    17901    17919 
   17894    17911    17906    17880    17902    17898    17859    17855 
   17876    17913    17953    17932    17865    17848    17872    17901 
   17915    17894    17874    17876    17875    17895    17911    17890 
   17895    17911    17883    17882    17914    17890    17861    17880 
   17895    17894    17891    17895    17913    17906    17890    17901 
   17896    17882    17896    17895    17875    17890    17911    17919 
   17907    17869    17901    17915    17832    17856    17923    17913 
   17969    17922    17805    17879    17884    17829    17945    17963 
   17871    17906    17901    17847    17891    17902    17884    17937 
   17919    17856    17865    17871    17895    17945    17906    17864 
   17883    17892    17896    17883    17868    17891    17898    17894 
   17901    17869    17834    17861    17886    17861    17847    17837 
   17794    17776    17814    17842    17845    17838    17821    17828 
   17860    17863    17849    17917    18060    18135    18081    18004 
   17949    17859    17844    17992    18114    18068    17918    17749 
   17629    17597    17662    17749    17851    18099    18292    18148 
   18003    18146    18125    17743    17510    17608    17776    17973 
   18203    18273    18007    17583    17425    17544    17709    18018 
   18377    18364    18027    17732    17529    17496    17722    17867 
   17784    17942    18388    18516    18202    17910    17802    17593 
   17319    17447    17859    17952    17778    17798    18063    18387 
   18567    18361    17882    17659    17813    17771    17316    17205 
   17865    18423    18210    17794    17649    17653    17845    18053 
   17784    17356    17566    18091    18063    17847    18064    18119 
   17825    18069    18760    18848    18301    17957    17953    17775 
   17393    17216    17381    17739    18044    18161    18320    18642 
   18697    18237    17679    17416    17428    17610    17825    17918 
   17925    17887    17674    17369    17405    17772    17884    17663 
   17555    17510    17321    17375    17896    18357    18411    18154 
   17551    17051    17365    18118    18482    18493    18536    18563 
   18376    17936    17520    17582    17987    18135    18030    18254 
   18495    17872    17122    17392    17983    18029    17944    18150 
   18397    18212    17550    17011    17001    17381    17936    18171 
   17879    17782    17915    17595    17309    17749    18312    18524 
   18792    18874    18060    16904    16569    17157    18019    18646 
   18701    18235    17782    17467    17093    17091    17784    18715 
   19275    18985    18061    17424    17123    16719    16757    17540 
   18230    18462    18566    18495    18176    17757    17396    17616 
   18536    19043    18395    17506    17340    17550    17556    17432 
   17501    17956    18504    18597    18195    17726    17702    18168 
   18342    18004    17838    17581    16834    16567    17190    17847 
   18238    18554    18674    18685    18605    18003    16995    16588 
   17267    18103    18253    18306    18706    18713    18111    17722 
   17760    17694    17713    18266    18666    18126    17327    17290 
   17841    18165    17820    17174    17109    17683    18095    18138 
   18222    18517    18881    18982    18380    17059    15944    16048 
   17244    18600    19302    18983    18166    17922    18257    18199 
   17682    17396    17354    17284    17228    17043    16630    16476 
   17099    18293    19386    19800    19379    18681    18322    18126 
   17815    17435    17039    16960    17282    17554    17691    17941 
   18416    19070    19309    18682    17853    17436    17201    17170 
   17535    17771    17598    17747    18472    18792    18250    17686 
   17585    17454    17265    17691    18449    18611    18223    17473 
   16413    16148    17393    19017    19672    19041    17622    16438 
   16470    17712    18840    18904    18605    18636    18539    17894 
   17111    16880    17223    17663    18021    18207    18150    18013 
   17743    17394    17552    18299    18885    18910    18666    18226 
   17235    16065    15885    17047    18640    19550    19298    18372 
   17593    17155    16835    16660    16976    17702    18071    18036 
   18389    18893    18624    17676    17065    17624    18810    19099 
   18188    17289    17248    17629    17536    17192    17631    18493 
   18530    17940    17714    17987    18415    18802    18856    18489 
   18204    18052    17544    17127    17479    17929    17818    17713 
   17678    17228    16807    16893    17444    18247    18490    17938 
   17645    17807    17564    17082    17238    18049    18759    18755 
   18204    17965    18411    18805    18594    18354    18457    18229 
   17431    16773    16785    17512    18300    18366    18239    18648 
   18931    18418    17658    17300    17223    17088    17054    17643 
   18667    19029    18289    17397    17145    17172    17254    17625 
   17918    17883    17834    17729    17597    17703    17767    17749 
   18115    18594    18662    18546    18393    18103    17949    17886 
   17551    17386    17895    18488    18388    17821    17510    17648 
   18033    18449    18403    17790    17338    17278    17348    17662 
   18112    18318    18235    17979    17703    17539    17412    17328 
   17477    17825    18127    18351    18640    18796    18472    17930 
   17663    17581    17362    17037    16908    17158    17644    18023 
   18071    18026    18013    17790    17832    18531    18885    18451 
   18192    18291    18048    17355    16659    16497    17124    17925 
   18210    18342    18804    19167    18900    18107    17259    16897 
   17166    17752    18528    19094    18635    17523    17047    17282 
   17297    16929    16883    17578    18505    18848    18507    18079 
   17972    18119    18391    18677    18625    18063    17624    17861 
   18103    17633    16958    16686    16822    17502    18517    19097 
   19272    19426    18962    17647    16518    16347    16966    17917 
   18654    18760    18339    17809    17350    16981    17030    17648 
   18239    18303    17968    17427    17019    17228    17842    18258 
   18477    18584    18368    18258    18585    18438    17620    17335 
   17690    17702    17367    17428    17977    18446    18578    18590 
   18476    18154    17807    17339    16568    16123    16602    17433 
   18072    18771    19388    19322    18499    17442    16834    16924 
   17362    17883    18436    18777    18779    18432    17595    16789 
   16911    17658    18179    18504    18733    18474    17814    17398 
   17548    17915    17865    17381    17285    17960    18517    18131 
   17452    17578    18337    18553    17809    17134    17416    18073 
   18235    17940    17625    17644    18040    18303    18075    17813 
   17876    17941    17928    18071    18161    17956    17682    17703 
   18021    18112    17613    17001    17061    17901    18740    18825 
   18451    18274    18227    18013    17689    17429    17385    17547 
   17606    17417    17386    17929    18665    18812    18385    18044 
   17901    17683    17574    17783    18063    18080    17691    17193 
   17146    17479    17755    18061    18472    18650    18513    18258 
   18041    17911    17803    17613    17292    17062    17292    17778 
   17976    17982    18185    18449    18388    18023    17734    17659 
   17658    17787    18118    18378    18216    17651    17203    17379 
   17988    18409    18432    18295    18107    17826    17444    17103 
   17162    17690    18187    18430    18586    18366    17644    17213 
   17518    17950    17953    17707    17805    18335    18515    17971 
   17344    17128    17320    17787    18110    18058    18179    18697 
   18713    17905    17363    17489    17533    17559    18064    18538 
   18432    18088    17825    17628    17582    17710    17990    18382 
   18450    17853    17155    16964    17012    16987    17131    17728 
   18646    19192    18894    18396    18353    18319    17917    17671 
   17883    18036    17761    17425    17420    17571    17581    17550 
   17756    18029    17967    17752    17872    18242    18351    17988 
   17560    17612    18010    18222    18222    18287    18403    18272 
   17680    17101    17258    17830    18060    17976    17864    17806 
   17882    17918    17826    17976    18480    18964    19064    18582 
   17652    16875    16692    16875    17088    17410    17907    18391 
   18677    18692    18401    17934    17620    17691    17942    17874 
   17410    17072    17273    17898    18438    18551    18468    18405 
   18129    17490    16934    17096    17844    18364    18273    17766 
   17081    16625    16745    17309    18011    18581    18817    18932 
   19078    18937    18500    18129    17825    17540    17535    17899 
   18335    18391    17899    17325    17224    17462    17537    17451 
   17535    17828    18187    18457    18407    18153    18065    18036 
   17763    17355    17112    17189    17382    17417    17649    18462 
   19157    18747    17456    16490    16582    17316    17875    18111 
   18557    19341    19714    19136    18081    17396    17475    18045 
   18536    18590    18015    16945    16121    16194    16902    17536 
   17911    18268    18549    18415    17884    17539    17813    18318 
   18480    18411    18330    17995    17406    17064    17334    18158 
   19070    19411    18967    18219    17691    17311    16920    16911 
   17374    17639    17473    17447    17782    18090    18176    18207 
   18270    18312    18280    18075    17755    17687    17836    17747 
   17606    17745    17678    17169    16856    17151    17791    18522 
   19240    19646    19530    18947    17895    16627    15822    15858 
   16509    17393    18160    18532    18557    18419    18183    17988 
   18061    18432    18868    19005    18682    18125    17631    17278 
   17074    17209    17814    18478    18453    17649    16991    17267 
   18076    18481    18247    17802    17491    17390    17486    17822 
   18331    18590    18308    17825    17513    17242    16885    16762 
   17365    18524    19218    18839    18034    17666    17729    17767 
   17683    17678    17876    18227    18488    18505    18441    18219 
   17517    16687    16525    17231    18430    19453    19626    19074 
   18526    18210    17783    17109    16532    16501    17131    18017 
   18419    17794    16492    15805    16491    17890    19097    19769 
   19823    19352    18546    17516    16569    16299    16819    17645 
   18481    19070    18962    18238    17535    17232    17331    17752 
   18246    18412    18246    18083    17998    17950    17919    17697 
   17401    17540    18063    18405    18366    18094    17767    17602 
   17645    17703    17807    18199    18607    18453    17837    17286 
   17035    17082    17355    17793    18296    18542    18299    17865 
   17714    17949    18391    18717    18550    17973    17529    17400 
   17378    17513    17821    17933    17716    17451    17239    16976 
   16911    17498    18465    18949    18735    18342    18145    18160 
   18156    17896    17618    17737    18065    18173    18204    18411 
   18512    18249    17729    17037    16445    16411    16865    17490 
   18322    19134    19214    18439    17597    17289    17365    17547 
   17852    18216    18320    17960    17255    16529    16193    16511 
   17378    18507    19549    20058    19843    19143    18381    18053 
   18274    18415    18084    17707    17531    17370    17205    17108 
   17209    17622    18011    17960    17691    17687    18018    18478 
   18800    18719    18297    17864    17431    16794    16206    16150 
   16621    17342    18076    18457    18387    18377    18654    18771 
   18630    18642    18770    18549    17861    16987    16274    16112 
   16707    17780    18825    19521    19761    19488    18732    17775 
   17084    17081    17664    18110    18063    17984    18149    18226 
   18040    17853    17810    17616    17086    16584    16464    16744 
   17258    17716    18053    18505    18975    19083    18746    18207 
   17825    17783    17864    17764    17536    17344    17166    17054 
   17267    17984    18999    19742    19795    19143    18069    17147 
   16816    17019    17482    17807    17531    16784    16313    16542 
   17238    18021    18792    19562    20074    19938    19020    17686 
   16827    17020    17770    18303    18368    17871    16783    15654 
   15345    16015    17124    18380    19695    20520    20407    19572 
   18412    17389    16988    17081    17089    16950    16938    16939 
   16754    16634    17058    18141    19383    20112    20088    19541 
   18698    17737    17086    17088    17490    17756    17699    17622 
   17806    18175    18532    18652    18461    18252    18135    17867 
   17550    17467    17532    17577    17529    17358    17221    17292 
   17473    17562    17591    17740    17837    17645    17473    17666 
   18058    18392    18671    18978    19140    18889    18407    18085 
   17952    17869    17676    17226    16692    16455    16621    16978 
   17417    18017    18546    18625    18435    18355    18324    18235 
   18235    18346    18382    18229    17892    17397    16829    16429 
   16455    16969    17743    18422    18848    19063    19010    18613 
   18104    17845    17949    18277    18620    18852    18952    18887 
   18715    18550    18230    17555    16713    16077    15951    16406 
   17100    17678    18115    18350    18249    17994    17865    17936 
   18085    17964    17442    16985    16997    17323    17683    17980 
   18058    17803    17494    17494    17801    18200    18468    18442 
   18229    18112    18056    17830    17601    17610    17744    17929 
   18234    18544    18643    18443    18000    17567    17548    17965 
   18361    18457    18354    18176    18006    17932    17944    17948 
   17995    18165    18276    18146    17805    17363    17085    17155 
   17448    17849    18252    18441    18389    18165    17674    16966 
   16463    16569    17250    18038    18430    18349    18153    18069 
   17972    17811    17703    17707    17810    17952    18069    18185 
   18225    18023    17685    17459    17392    17427    17593    17909 
   18252    18420    18387    18324    18400    18651    18890    18786 
   18391    18137    18127    18036    17564    16773    16206    16335 
   16988    17782    18474    18769    18539    18065    17702    17599 
   17714    17925    18106    18157    18056    17880    17732    17670 
   17725    17963    18419    18893    19020    18669    18057    17447 
   16912    16461    16287    16573    17184    17714    17874    17783 
   17806    18087    18436    18644    18733    18800    18758    18576 
   18422    18314    18090    17733    17386    17250    17419    17718 
   17950    18107    18173    18146    18072    17891    17595    17340 
   17127    16862    16703    16857    17265    17699    18007    18285 
   18666    18962    18908    18597    18301    18056    17690    17232 
   16992    17112    17388    17655    17948    18285    18565    18627 
   18357    17957    17853    17983    17902    17682    17720    18019 
   18342    18490    18361    18054    17760    17552    17452    17489 
   17648    17836    17921    17949    18023    18044    17971    17982 
   18114    18210    18218    18238    18350    18570    18798    18860 
   18708    18424    18040    17604    17254    17080    17089    17203 
   17275    17211    17045    16951    17076    17365    17633    17686 
   17528    17447    17635    17941    18135    18158    18117    18146 
   18257    18384    18458    18426    18346    18333    18293    18063 
   17743    17624    17776    17929    17860    17698    17664    17726 
   17648    17389    17228    17371    17691    17988    18218    18354 
   18280    18009    17770    17763    17952    18152    18227    18199 
   18219    18354    18436    18361    18268    18198    17991    17745 
   17694    17716    17680    17763    17942    17956    17786    17579 
   17433    17500    17759    17905    17879    17941    18072    18030 
   17779    17415    17023    16754    16767    17031    17331    17558 
   17764    17964    18153    18333    18473    18581    18612    18504 
   18312    18117    17945    17857    17871    18014    18318    18592 
   18601    18419    18225    18065    17945    17917    18002    18139 
   18220    18125    17788    17365    17128    17174    17413    17744 
   18038    18133    17987    17699    17415    17297    17416    17624 
   17741    17712    17547    17385    17393    17506    17548    17595 
   17880    18349    18738    18958    18956    18616    18069    17612 
   17359    17309    17437    17660    17875    17968    17913    17815 
   17772    17795    17880    17980    18087    18277    18505    18573 
   18423    18198    17999    17809    17586    17382    17309    17347 
   17443    17625    17830    17928    17933    17969    18088    18206 
   18202    18091    17991    17976    18064    18218    18330    18346 
   18354    18454    18594    18570    18301    17998    17805    17640 
   17521    17516    17531    17543    17587    17591    17594    17716 
   17856    17871    17778    17624    17463    17398    17448    17544 
   17639    17675    17626    17567    17531    17437    17354    17447 
   17693    17953    18173    18316    18387    18441    18451    18362 
   18210    18073    17998    17942    17847    17809    17942    18121 
   18153    18073    18044    18125    18230    18223    18067    17879 
   17780    17755    17740    17720    17734    17809    17914    18049 
   18181    18202    18139    18138    18165    18083    17844    17532 
   17347    17404    17578    17697    17705    17579    17356    17211 
   17289    17578    17955    18277    18468    18526    18453    18257 
   18054    17986    18033    18052    17952    17776    17585    17370 
   17250    17433    17855    18207    18361    18345    18149    17847 
   17636    17612    17716    17849    17919    17907    17884    17898 
   17975    18126    18222    18166    18123    18195    18181    17913 
   17574    17482    17632    17712    17640    17637    17743    17786 
   17707    17583    17568    17763    18052    18272    18382    18342 
