Origin Time       2025/03/28 03:50:00
Lat.              35.403
Long.             140.360
Depth. (km)       54
Mag.              4.4
Station Code      IBR012
Station Lat.      36.1954
Station Long.     140.2713
Station Height(m) 25
Record Time       2025/03/28 03:51:10
Sampling Freq(Hz) 100Hz
Duration Time(s)  60
Dir.              N-S
Scale Factor      7845(gal)/8223790
Max. Acc. (gal)   1.324
Last Correction   2025/03/28 03:51:09
Memo.             
   -2943    -2961    -2968    -2970    -2940    -2917    -2929    -2941 
   -2941    -2949    -2941    -2929    -2956    -2967    -2929    -2913 
   -2922    -2917    -2914    -2924    -2913    -2899    -2913    -2928 
   -2930    -2913    -2878    -2884    -2917    -2932    -2934    -2934 
   -2943    -2949    -2953    -2948    -2938    -2956    -2974    -2957 
   -2920    -2886    -2895    -2916    -2911    -2916    -2911    -2891 
   -2876    -2862    -2875    -2922    -2947    -2930    -2921    -2945 
   -2980    -2998    -3003    -3002    -2999    -2998    -2970    -2926 
   -2911    -2947    -2995    -2960    -2875    -2848    -2859    -2863 
   -2875    -2928    -2988    -2983    -2918    -2863    -2864    -2916 
   -2978    -3028    -3021    -2925    -2829    -2787    -2793    -2867 
   -2968    -2997    -2953    -2867    -2775    -2768    -2883    -3028 
   -3096    -3025    -2876    -2820    -2866    -2895    -2883    -2849 
   -2820    -2810    -2794    -2814    -2907    -2998    -3021    -2995 
   -2965    -2960    -2955    -2971    -3010    -3003    -2975    -2955 
   -2920    -2910    -2925    -2949    -2995    -3021    -3019    -3068 
   -3138    -3142    -3110    -3100    -3107    -3102    -3061    -2987 
   -2909    -2855    -2844    -2822    -2770    -2774    -2820    -2860 
   -2941    -3018    -3017    -2984    -2979    -3011    -3038    -3024 
   -2965    -2882    -2866    -2921    -2936    -2921    -2890    -2808 
   -2747    -2768    -2839    -2961    -3076    -3052    -2895    -2766 
   -2787    -2872    -2914    -2922    -2890    -2853    -2866    -2880 
   -2889    -2911    -2918    -2897    -2887    -2940    -3067    -3184 
   -3192    -3111    -3049    -3065    -3099    -3059    -2971    -2882 
   -2787    -2754    -2814    -2884    -2902    -2856    -2794    -2803 
   -2874    -2930    -2978    -2978    -2870    -2759    -2764    -2902 
   -3113    -3219    -3118    -2934    -2820    -2821    -2868    -2902 
   -2944    -2957    -2882    -2787    -2785    -2874    -2957    -2971 
   -2928    -2856    -2795    -2806    -2879    -2901    -2878    -2905 
   -2943    -2945    -2940    -2961    -2982    -2922    -2812    -2776 
   -2875    -3040    -3127    -3087    -2986    -2924    -2979    -3103 
   -3196    -3241    -3187    -3010    -2849    -2828    -2879    -2925 
   -2932    -2855    -2763    -2743    -2736    -2717    -2743    -2821 
   -2918    -2947    -2890    -2879    -2924    -2948    -2964    -2949 
   -2922    -2914    -2921    -3025    -3196    -3229    -3082    -2928 
   -2889    -3013    -3211    -3221    -3045    -2965    -2970    -2897 
   -2794    -2712    -2714    -2847    -2967    -2968    -2897    -2813 
   -2776    -2809    -2929    -3095    -3134    -2999    -2840    -2795 
   -2878    -3002    -3056    -3005    -2937    -2948    -3013    -3055 
   -3015    -2875    -2704    -2604    -2605    -2764    -3095    -3364 
   -3314    -2988    -2666    -2602    -2844    -3180    -3303    -3167 
   -2982    -2866    -2870    -2995    -3094    -3063    -2902    -2666 
   -2563    -2759    -3094    -3242    -3087    -2764    -2486    -2442 
   -2674    -3006    -3168    -3060    -2855    -2768    -2797    -2866 
   -2983    -3082    -3030    -2883    -2793    -2890    -3191    -3454 
   -3422    -3126    -2779    -2629    -2793    -3033    -3067    -2964 
   -2895    -2824    -2714    -2717    -2894    -3076    -3109    -2957 
   -2721    -2632    -2754    -2918    -2988    -2930    -2870    -2945 
   -3026    -2964    -2920    -3003    -3072    -3001    -2812    -2713 
   -2860    -3045    -3017    -2814    -2608    -2582    -2749    -2878 
   -2930    -3010    -3009    -2920    -2871    -2909    -3106    -3357 
   -3395    -3214    -3030    -3017    -3140    -3152    -2941    -2729 
   -2718    -2864    -3038    -3146    -3200    -3241    -3087    -2659 
   -2301    -2319    -2609    -2902    -3067    -3129    -3138    -3083 
   -2957    -2901    -3007    -3152    -3173    -3036    -2879    -2847 
   -2879    -2910    -2976    -3006    -2895    -2755    -2722    -2782 
   -2803    -2704    -2637    -2755    -2936    -3056    -3142    -3196 
   -3188    -3111    -2975    -2840    -2786    -2851    -2980    -3038 
   -2975    -2866    -2789    -2775    -2867    -3065    -3234    -3157 
   -2837    -2597    -2606    -2731    -2870    -2957    -2902    -2795 
   -2803    -2868    -2882    -2910    -2983    -2998    -2887    -2824 
   -2995    -3260    -3400    -3408    -3322    -3157    -2965    -2802 
   -2713    -2697    -2670    -2565    -2436    -2421    -2625    -2992 
   -3268    -3283    -3129    -2968    -2871    -2887    -3024    -3180 
   -3242    -3181    -3078    -3060    -3125    -3138    -3064    -2965 
   -2860    -2818    -2847    -2824    -2794    -2805    -2774    -2647 
   -2454    -2425    -2614    -2716    -2679    -2670    -2713    -2833 
   -3013    -3153    -3235    -3299    -3310    -3221    -3133    -3196 
   -3362    -3466    -3388    -3122    -2853    -2767    -2864    -3028 
   -3080    -2994    -2934    -2894    -2775    -2673    -2651    -2679 
   -2725    -2794    -2884    -2889    -2837    -2867    -2875    -2817 
   -2801    -2808    -2868    -2991    -2976    -2741    -2493    -2454 
   -2628    -2875    -3055    -3099    -3123    -3204    -3261    -3310 
   -3422    -3493    -3397    -3192    -3030    -2945    -2899    -2903 
   -2947    -2941    -2818    -2582    -2381    -2435    -2698    -2884 
   -2897    -2880    -2959    -3136    -3299    -3372    -3360    -3222 
   -2914    -2573    -2427    -2543    -2781    -2995    -3118    -3113 
   -3013    -2934    -2902    -2862    -2793    -2683    -2606    -2635 
   -2736    -2886    -3033    -3055    -2928    -2856    -2920    -2975 
   -3032    -3134    -3192    -3204    -3217    -3204    -3154    -3142 
   -3222    -3218    -3001    -2709    -2513    -2498    -2590    -2714 
   -2868    -2957    -2944    -2925    -2947    -3025    -3078    -2984 
   -2828    -2673    -2563    -2691    -2921    -2914    -2749    -2671 
   -2700    -2835    -3032    -3160    -3289    -3364    -3176    -2953 
   -2897    -2951    -3122    -3190    -3030    -2917    -2891    -2839 
   -2817    -2790    -2690    -2652    -2771    -2967    -3127    -3169 
   -3106    -3001    -2867    -2783    -2822    -2952    -3099    -3059 
   -2816    -2720    -2844    -2894    -2820    -2797    -2872    -2952 
   -2953    -2913    -2943    -3082    -3203    -3223    -3211    -3186 
   -3125    -3033    -2967    -2965    -2907    -2828    -2837    -2840 
   -2817    -2791    -2747    -2724    -2716    -2755    -2879    -3019 
   -3181    -3360    -3384    -3187    -2894    -2629    -2516    -2668 
   -2972    -3133    -3037    -2855    -2763    -2768    -2868    -3067 
   -3225    -3192    -3009    -2851    -2826    -2902    -3040    -3134 
   -3048    -2870    -2760    -2705    -2698    -2722    -2681    -2586 
   -2579    -2755    -3037    -3245    -3302    -3231    -3083    -2891 
   -2766    -2840    -3007    -3098    -3099    -3076    -3103    -3119 
   -3049    -2970    -2880    -2754    -2673    -2667    -2724    -2821 
   -2964    -3148    -3186    -2986    -2768    -2720    -2789    -2866 
   -2883    -2826    -2794    -2798    -2814    -2953    -3171    -3275 
   -3265    -3211    -3095    -2984    -2936    -2898    -2875    -2862 
   -2805    -2782    -2841    -2853    -2805    -2781    -2721    -2612 
   -2577    -2679    -2913    -3152    -3215    -3055    -2825    -2745 
   -2882    -3079    -3142    -3099    -3052    -2938    -2808    -2855 
   -3045    -3165    -3115    -2911    -2668    -2573    -2716    -2941 
   -3079    -3165    -3226    -3250    -3272    -3275    -3231    -3133 
   -3009    -2930    -2913    -2906    -2828    -2700    -2667    -2749 
   -2801    -2740    -2660    -2659    -2706    -2729    -2754    -2824 
   -2893    -2926    -2953    -2999    -3038    -3007    -2884    -2713 
   -2606    -2725    -3019    -3242    -3326    -3375    -3391    -3285 
   -3109    -2982    -2963    -3049    -3129    -3137    -3184    -3298 
   -3326    -3196    -2967    -2679    -2392    -2254    -2326    -2523 
   -2787    -2994    -2971    -2840    -2825    -2941    -3076    -3138 
   -3105    -2986    -2852    -2758    -2713    -2783    -2929    -2997 
   -2953    -2837    -2701    -2706    -2916    -3094    -3055    -2884 
   -2728    -2687    -2798    -2978    -3133    -3210    -3144    -2984 
   -2879    -2909    -3034    -3126    -3065    -2921    -2867    -2956 
   -3114    -3213    -3146    -3030    -3006    -2974    -2876    -2836 
   -2889    -2910    -2786    -2574    -2469    -2552    -2712    -2795 
   -2802    -2835    -2928    -3015    -3086    -3183    -3260    -3237 
   -3145    -3048    -2968    -2921    -2917    -2936    -2953    -2984 
   -3038    -3114    -3148    -3033    -2781    -2516    -2343    -2331 
   -2525    -2895    -3218    -3240    -2972    -2625    -2425    -2543 
   -2897    -3217    -3412    -3508    -3441    -3231    -3029    -2964 
   -3083    -3249    -3273    -3141    -2928    -2733    -2670    -2727 
   -2799    -2817    -2748    -2635    -2597    -2721    -2929    -3037 
   -3009    -2947    -2895    -2898    -3024    -3160    -3096    -2820 
   -2532    -2477    -2709    -3042    -3252    -3221    -3024    -2837 
   -2763    -2853    -3079    -3318    -3416    -3267    -3005    -2880 
   -2917    -3015    -3121    -3127    -3007    -2852    -2712    -2632 
   -2644    -2728    -2903    -3136    -3296    -3304    -3157    -2914 
   -2690    -2547    -2474    -2466    -2519    -2605    -2697    -2782 
   -2863    -2903    -2863    -2841    -2952    -3173    -3414    -3551 
   -3535    -3402    -3191    -2990    -2871    -2832    -2817    -2758 
   -2633    -2478    -2366    -2444    -2767    -3159    -3392    -3388 
   -3230    -3092    -3068    -3110    -3141    -3109    -3015    -2910 
   -2833    -2826    -2901    -2925    -2755    -2462    -2257    -2280 
   -2531    -2828    -2951    -2864    -2693    -2602    -2722    -3037 
   -3354    -3483    -3392    -3229    -3148    -3141    -3146    -3180 
   -3238    -3217    -3037    -2775    -2567    -2473    -2479    -2569 
   -2768    -3048    -3248    -3240    -3052    -2845    -2776    -2841 
   -2959    -3100    -3273    -3397    -3377    -3229    -2945    -2536 
   -2188    -2093    -2304    -2698    -2984    -2957    -2716    -2535 
   -2614    -2934    -3304    -3500    -3392    -3028    -2655    -2547 
   -2755    -3122    -3443    -3607    -3618    -3468    -3260    -3207 
   -3268    -3300    -3333    -3404    -3481    -3439    -3140    -2673 
   -2234    -1873    -1632    -1547    -1607    -1848    -2246    -2691 
   -3111    -3442    -3646    -3758    -3794    -3732    -3532    -3218 
   -2922    -2758    -2739    -2820    -2916    -2925    -2739    -2374 
   -2041    -1944    -2142    -2542    -2941    -3252    -3520    -3685 
   -3655    -3469    -3156    -2758    -2421    -2293    -2393    -2625 
   -2810    -2833    -2782    -2832    -3028    -3268    -3442    -3487 
   -3410    -3268    -3096    -2995    -3090    -3319    -3426    -3291 
   -3079    -2916    -2789    -2678    -2578    -2496    -2447    -2486 
   -2716    -3082    -3329    -3275    -2992    -2706    -2579    -2656 
   -2884    -3191    -3491    -3578    -3392    -3160    -3059    -3095 
   -3199    -3296    -3416    -3522    -3414    -3065    -2716    -2506 
   -2370    -2290    -2330    -2492    -2677    -2749    -2710    -2674 
   -2667    -2641    -2596    -2592    -2659    -2760    -2847    -2991 
   -3235    -3416    -3435    -3387    -3360    -3350    -3261    -3048 
   -2806    -2596    -2357    -2177    -2246    -2494    -2779    -3034 
   -3152    -3111    -2963    -2809    -2841    -3069    -3339    -3534 
   -3573    -3442    -3245    -3100    -3051    -3079    -3169    -3219 
   -3086    -2797    -2485    -2273    -2288    -2543    -2897    -3113 
   -3040    -2749    -2403    -2133    -2072    -2236    -2458    -2633 
   -2812    -3051    -3346    -3577    -3600    -3434    -3218    -3111 
   -3159    -3262    -3299    -3159    -2824    -2446    -2226    -2300 
   -2660    -3094    -3298    -3123    -2693    -2295    -2218    -2548 
   -3088    -3528    -3719    -3728    -3735    -3827    -3921    -3855 
   -3545    -3129    -2867    -2772    -2683    -2565    -2394    -2093 
   -1791    -1746    -2049    -2524    -2934    -3144    -3115    -2940 
   -2826    -3032    -3581    -4033    -3940    -3352    -2631    -2174 
   -2216    -2650    -3148    -3438    -3424    -3149    -2760    -2443 
   -2274    -2284    -2459    -2658    -2812    -2960    -3126    -3353 
   -3662    -3924    -3987    -3829    -3507    -3115    -2813    -2698 
   -2721    -2743    -2654    -2516    -2489    -2628    -2832    -2943 
   -2901    -2744    -2582    -2543    -2627    -2785    -3025    -3256 
   -3364    -3412    -3441    -3330    -3003    -2556    -2211    -2134 
   -2284    -2469    -2533    -2474    -2436    -2562    -2845    -3168 
   -3349    -3257    -2994    -2785    -2798    -3038    -3325    -3492 
   -3468    -3269    -3084    -3095    -3294    -3542    -3650    -3564 
   -3383    -3144    -2829    -2493    -2216    -2026    -1969    -2192 
   -2698    -3202    -3392    -3246    -2992    -2868    -2943    -3092 
   -3149    -2988    -2660    -2434    -2506    -2789    -3026    -3032 
   -2828    -2579    -2432    -2489    -2752    -3055    -3210    -3188 
   -3105    -3160    -3392    -3553    -3445    -3106    -2733    -2547 
   -2655    -2983    -3234    -3098    -2637    -2259    -2297    -2698 
   -3106    -3250    -3149    -2948    -2791    -2856    -3218    -3704 
   -3993    -3865    -3379    -2862    -2610    -2625    -2709    -2736 
   -2733    -2768    -2899    -3132    -3348    -3391    -3179    -2737 
   -2232    -1895    -1827    -2014    -2401    -2839    -3122    -3198 
   -3172    -3146    -3181    -3303    -3460    -3577    -3635    -3608 
   -3473    -3299    -3190    -3123    -2979    -2712    -2400    -2184 
   -2226    -2555    -2986    -3246    -3149    -2725    -2203    -1854 
   -1871    -2245    -2795    -3261    -3472    -3460    -3326    -3188 
   -3188    -3369    -3659    -3947    -4066    -3944    -3684    -3416 
   -3208    -2998    -2698    -2357    -2047    -1795    -1615    -1543 
   -1626    -1783    -1867    -1957    -2259    -2840    -3541    -4031 
   -4093    -3784    -3354    -3053    -2947    -2918    -2817    -2600 
   -2421    -2478    -2802    -3238    -3572    -3704    -3593    -3198 
   -2702    -2411    -2415    -2633    -2929    -3171    -3300    -3329 
   -3302    -3242    -3142    -3010    -2863    -2820    -3036    -3429 
   -3728    -3765    -3554    -3184    -2721    -2262    -1960    -1879 
   -1962    -2106    -2211    -2320    -2513    -2745    -2928    -2982 
   -2890    -2787    -2864    -3165    -3601    -3979    -4094    -3886 
   -3446    -2938    -2519    -2253    -2157    -2228    -2403    -2637 
   -2975    -3439    -3915    -4145    -3993    -3595    -3176    -2914 
   -2913    -3111    -3343    -3443    -3291    -2937    -2565    -2320 
   -2238    -2218    -2099    -1892    -1817    -2025    -2452    -2941 
   -3350    -3582    -3612    -3514    -3462    -3555    -3701    -3761 
   -3673    -3462    -3233    -3080    -3019    -2967    -2802    -2509 
   -2200    -1992    -1925    -1980    -2123    -2278    -2366    -2363 
   -2324    -2420    -2758    -3214    -3585    -3751    -3738    -3681 
   -3604    -3422    -3181    -2972    -2798    -2671    -2636    -2731 
   -2957    -3190    -3238    -3080    -2826    -2606    -2577    -2776 
   -2961    -2901    -2612    -2223    -1945    -1993    -2370    -2875 
   -3296    -3469    -3337    -3073    -2971    -3109    -3361    -3591 
   -3705    -3713    -3654    -3527    -3383    -3272    -3134    -2883 
   -2528    -2227    -2168    -2343    -2593    -2793    -2878    -2779 
   -2542    -2354    -2327    -2438    -2581    -2686    -2816    -3015 
   -3268    -3549    -3790    -3906    -3843    -3654    -3515    -3522 
   -3581    -3582    -3531    -3424    -3241    -3032    -2863    -2762 
   -2729    -2694    -2535    -2253    -1980    -1807    -1719    -1721 
   -1846    -2046    -2230    -2401    -2636    -2999    -3468    -3866 
   -4035    -4009    -3843    -3569    -3330    -3153    -2948    -2790 
   -2740    -2724    -2766    -2876    -2941    -2947    -2903    -2816 
   -2781    -2826    -2875    -2864    -2781    -2664    -2612    -2677 
   -2816    -2976    -3099    -3119    -3057    -3005    -3037    -3145 
   -3291    -3423    -3460    -3338    -3088    -2878    -2890    -3026 
   -3026    -2820    -2505    -2220    -2126    -2268    -2493    -2670 
   -2755    -2700    -2533    -2413    -2461    -2674    -2901    -2961 
   -2868    -2776    -2778    -2860    -3030    -3288    -3461    -3426 
   -3341    -3318    -3319    -3368    -3408    -3392    -3380    -3406 
   -3492    -3618    -3666    -3609    -3480    -3306    -3119    -2921 
   -2683    -2409    -2087    -1765    -1615    -1736    -2047    -2389 
   -2600    -2656    -2682    -2820    -3049    -3203    -3233    -3195 
   -3105    -3033    -3063    -3190    -3364    -3472    -3373    -3148 
   -3048    -3164    -3345    -3456    -3429    -3233    -2956    -2743 
   -2629    -2566    -2492    -2396    -2390    -2597    -2914    -3177 
   -3403    -3518    -3362    -3049    -2835    -2808    -2909    -3041 
   -3076    -2998    -2874    -2708    -2598    -2610    -2594    -2520 
   -2452    -2470    -2656    -2898    -3088    -3229    -3294    -3319 
   -3294    -3168    -2960    -2691    -2434    -2300    -2361    -2579 
   -2822    -3009    -3123    -3138    -3052    -2926    -2817    -2801 
   -2961    -3183    -3362    -3553    -3684    -3686    -3620    -3461 
   -3186    -2907    -2732    -2673    -2697    -2722    -2685    -2609 
   -2485    -2295    -2143    -2168    -2362    -2586    -2755    -2890 
   -3036    -3219    -3391    -3476    -3441    -3364    -3368    -3430 
   -3411    -3287    -3079    -2793    -2540    -2440    -2484    -2612 
   -2709    -2658    -2525    -2457    -2448    -2455    -2519    -2624 
   -2685    -2716    -2812    -3005    -3265    -3520    -3615    -3519 
   -3373    -3269    -3258    -3400    -3593    -3666    -3634    -3586 
   -3505    -3366    -3173    -2926    -2643    -2351    -2103    -1993 
   -2079    -2273    -2419    -2446    -2357    -2199    -2093    -2149 
   -2401    -2756    -3013    -3130    -3207    -3258    -3318    -3476 
   -3685    -3852    -3966    -3993    -3929    -3789    -3550    -3300 
   -3144    -3048    -2975    -2911    -2813    -2643    -2436    -2200 
   -1937    -1821    -1927    -2142    -2434    -2771    -3067    -3318 
   -3501    -3619    -3735    -3802    -3736    -3534    -3252    -2999 
   -2849    -2820    -2872    -2867    -2731    -2501    -2289    -2250 
   -2358    -2473    -2532    -2521    -2475    -2420    -2380    -2444 
   -2631    -2775    -2767    -2697    -2667    -2712    -2871    -3163 
   -3518    -3797    -3900    -3866    -3831    -3823    -3782    -3711 
   -3586    -3383    -3168    -3024    -2952    -2911    -2844    -2671 
   -2404    -2160    -2011    -1983    -2083    -2204    -2261    -2304 
   -2350    -2394    -2477    -2582    -2694    -2813    -2924    -3040 
   -3190    -3346    -3484    -3618    -3734    -3798    -3821    -3809 
