Origin Time       2025/03/28 03:50:00
Lat.              35.403
Long.             140.360
Depth. (km)       54
Mag.              4.4
Station Code      IBR014
Station Lat.      36.0729
Station Long.     140.1948
Station Height(m) 18
Record Time       2025/03/28 03:51:06
Sampling Freq(Hz) 100Hz
Duration Time(s)  60
Dir.              E-W
Scale Factor      7845(gal)/8223790
Max. Acc. (gal)   2.184
Last Correction   2025/03/28 03:51:05
Memo.             
[...]
   -1310    -1312    -1305    -1305    -1309    -1306    -1310    -1316 
   -1306    -1296    -1304    -1312    -1309    -1312    -1314    -1310 
   -1309    -1312    -1316    -1309    -1301    -1301    -1305    -1309 
   -1312    -1310    -1310    -1312    -1309    -1309    -1312    -1306 
   -1298    -1302    -1306    -1310    -1314    -1313    -1310    -1310 
   -1309    -1305    -1302    -1310    -1309    -1300    -1304    -1310 
   -1304    -1301    -1304    -1304    -1310    -1317    -1317    -1313 
   -1309    -1304    -1304    -1309    -1320    -1325    -1313    -1301 
   -1302    -1310    -1318    -1320    -1305    -1298    -1304    -1309 
   -1313    -1317    -1316    -1312    -1309    -1306    -1305    -1313 
   -1324    -1320    -1310    -1302    -1305    -1316    -1312    -1304 
   -1308    -1310    -1308    -1309    -1313    -1314    -1318    -1325 
   -1324    -1314    -1309    -1313    -1312    -1306    -1308    -1316 
   -1318    -1310    -1305    -1314    -1321    -1317    -1308    -1301 
   -1302    -1305    -1310    -1320    -1320    -1313    -1306    -1302 
   -1308    -1313    -1304    -1301    -1309    -1310    -1312    -1317 
   -1314    -1312    -1313    -1310    -1305    -1308    -1310    -1302 
   -1297    -1302    -1310    -1313    -1310    -1304    -1296    -1300 
   -1305    -1300    -1302    -1314    -1310    -1302    -1305    -1305 
   -1300    -1301    -1310    -1310    -1301    -1301    -1308    -1314 
   -1318    -1310    -1298    -1300    -1302    -1305    -1308    -1316 
   -1323    -1320    -1316    -1320    -1316    -1302    -1300    -1305 
   -1304    -1304    -1312    -1314    -1310    -1304    -1298    -1297 
   -1300    -1302    -1306    -1306    -1306    -1312    -1312    -1304 
   -1298    -1298    -1309    -1323    -1327    -1321    -1318    -1321 
   -1316    -1302    -1296    -1290    -1287    -1297    -1314    -1327 
   -1327    -1316    -1306    -1300    -1293    -1291    -1297    -1305 
   -1325    -1347    -1355    -1351    -1339    -1316    -1296    -1282 
   -1270    -1269    -1298    -1329    -1336    -1321    -1293    -1269 
   -1255    -1242    -1229    -1243    -1291    -1351    -1406    -1425 
   -1394    -1364    -1351    -1324    -1291    -1263    -1250    -1270 
   -1310    -1332    -1318    -1278    -1247    -1229    -1201    -1178 
   -1179    -1213    -1297    -1387    -1445    -1479    -1471    -1436 
   -1381    -1281    -1206    -1186    -1192    -1252    -1332    -1375 
   -1378    -1358    -1359    -1363    -1304    -1229    -1208    -1231 
   -1297    -1364    -1405    -1447    -1458    -1414    -1343    -1252 
   -1178    -1158    -1189    -1233    -1250    -1285    -1372    -1440 
   -1435    -1360    -1263    -1232    -1271    -1320    -1374    -1401 
   -1382    -1378    -1390    -1352    -1263    -1170    -1089    -1046 
   -1089    -1175    -1283    -1421    -1516    -1525    -1437    -1313 
   -1293    -1327    -1318    -1281    -1220    -1233    -1359    -1462 
   -1505    -1494    -1389    -1259    -1197    -1217    -1293    -1364 
   -1402    -1433    -1408    -1282    -1148    -1074    -1050    -1054 
   -1101    -1254    -1453    -1601    -1678    -1653    -1525    -1350 
   -1192    -1086    -1069    -1161    -1306    -1398    -1410    -1352 
   -1216    -1059    -1015    -1101    -1204    -1318    -1529    -1741 
   -1732    -1493    -1223    -1032     -949    -1001    -1174    -1437 
   -1719    -1869    -1809    -1579    -1251     -927     -747     -774 
    -958    -1200    -1452    -1665    -1713    -1579    -1339    -1020 
    -845     -992    -1289    -1605    -1896    -1987    -1790    -1363 
    -851     -540     -557     -751    -1028    -1360    -1626    -1779 
   -1890    -1958    -1884    -1599    -1221     -974     -903     -930 
   -1024    -1194    -1375    -1391    -1224    -1084    -1043    -1030 
   -1100    -1300    -1528    -1653    -1656    -1598    -1480    -1300 
   -1134    -1047    -1059    -1193    -1398    -1566    -1630    -1617 
   -1586    -1497    -1296    -1058     -858     -734     -808    -1128 
   -1524    -1800    -1884    -1838    -1726    -1501    -1182     -897 
    -722     -737     -958    -1281    -1584    -1769    -1763    -1555 
   -1229     -928     -758     -787     -992    -1252    -1506    -1692 
   -1733    -1647    -1494    -1277    -1046     -942    -1007    -1181 
   -1426    -1649    -1753    -1713    -1545    -1323    -1078     -831 
    -716     -804    -1035    -1366    -1713    -1918    -1906    -1688 
   -1377    -1140    -1023    -1001    -1078    -1162    -1170    -1117 
   -1093    -1190    -1378    -1544    -1618    -1595    -1540    -1501 
   -1499    -1540    -1509    -1301    -1001     -757     -714     -969 
   -1367    -1669    -1776    -1691    -1524    -1367    -1181     -993 
    -891     -897    -1047    -1298    -1548    -1702    -1656    -1378 
    -996     -720     -689     -924    -1343    -1730    -1915    -1935 
   -1821    -1568    -1296    -1082     -905     -870    -1074    -1397 
   -1687    -1790    -1632    -1368    -1088     -828     -799     -942 
   -1021    -1098    -1290    -1552    -1763    -1777    -1605    -1364 
   -1096     -922     -992    -1239    -1498    -1702    -1879    -1960 
   -1786    -1378     -950     -731     -769     -888    -1030    -1223 
   -1351    -1401    -1463    -1460    -1383    -1335    -1293    -1285 
   -1405    -1630    -1844    -1804    -1436    -1012     -699     -472 
    -440     -680    -1065    -1418    -1651    -1721    -1640    -1497 
   -1395    -1417    -1520    -1583    -1594    -1552    -1421    -1225 
   -1051     -981    -1031    -1162    -1340    -1517    -1618    -1597 
   -1471    -1345    -1237    -1074     -905     -882    -1073    -1412 
   -1718    -1823    -1776    -1715    -1555    -1167     -731     -492 
    -508     -761    -1173    -1537    -1711    -1767    -1800    -1750 
   -1547    -1275    -1054     -957    -1028    -1192    -1296    -1339 
   -1408    -1460    -1440    -1360    -1291    -1377    -1617    -1788 
   -1777    -1628    -1394    -1208    -1098     -976     -922    -1070 
   -1350    -1547    -1507    -1271    -1034     -935     -980    -1089 
   -1183    -1242    -1266    -1281    -1331    -1393    -1433    -1478 
   -1437    -1242    -1004     -865     -951    -1256    -1553    -1678 
   -1669    -1630    -1549    -1387    -1237    -1154    -1142    -1255 
   -1377    -1308    -1134    -1075    -1169    -1341    -1521    -1621 
   -1622    -1571    -1494    -1371    -1156     -901     -785     -899 
   -1152    -1426    -1644    -1725    -1692    -1602    -1394    -1155 
   -1063    -1066    -1102    -1186    -1258    -1294    -1306    -1298 
   -1333    -1417    -1516    -1625    -1661    -1543    -1347    -1206 
   -1188    -1271    -1347    -1325    -1205    -1020     -832     -805 
   -1012    -1277    -1475    -1647    -1757    -1725    -1530    -1217 
    -903     -699     -611     -664     -962    -1470    -1992    -2313 
   -2246    -1854    -1390     -988     -733     -661     -766    -1070 
   -1452    -1699    -1771    -1733    -1602    -1410    -1221    -1090 
   -1105    -1242    -1389    -1520    -1555    -1448    -1306    -1212 
   -1193    -1244    -1270    -1246    -1250    -1256    -1233    -1209 
   -1117     -994     -996    -1071    -1205    -1467    -1706    -1759 
   -1640    -1433    -1229    -1061     -926     -882     -916     -969 
   -1085    -1235    -1381    -1620    -1881    -1981    -1954    -1856 
   -1634    -1290     -950     -785     -816     -949    -1102    -1197 
   -1182    -1136    -1175    -1291    -1459    -1675    -1784    -1664 
   -1428    -1196     -982     -847     -888    -1066    -1313    -1557 
   -1692    -1768    -1867    -1853    -1648    -1340    -1027     -787 
    -729     -946    -1360    -1737    -1922    -1883    -1617    -1166 
    -699     -449     -535     -899    -1372    -1776    -1971    -1873 
   -1525    -1048     -621     -414     -490     -764    -1090    -1402 
   -1696    -1948    -2134    -2165    -1922    -1512    -1174     -974 
    -877     -923    -1112    -1370    -1615    -1713    -1626    -1472 
   -1296    -1107     -994    -1017    -1171    -1372    -1516    -1591 
   -1552    -1356    -1131     -949     -859     -978    -1233    -1466 
   -1680    -1867    -1864    -1572    -1148     -855     -830    -1020 
   -1277    -1512    -1690    -1707    -1512    -1192     -899     -731 
    -689     -726     -832    -1003    -1229    -1526    -1818    -1971 
   -1896    -1563    -1178    -1015    -1016    -1101    -1317    -1548 
   -1630    -1548    -1355    -1119     -893     -776     -870    -1107 
   -1370    -1645    -1887    -2025    -2038    -1891    -1610    -1331 
   -1154    -1093    -1124    -1251    -1451    -1591    -1572    -1421 
   -1189     -978     -907     -965    -1073    -1185    -1252    -1294 
   -1375    -1443    -1435    -1348    -1233    -1196    -1198    -1136 
   -1116    -1205    -1296    -1354    -1371    -1224     -951     -796 
    -858    -1092    -1414    -1660    -1722    -1638    -1499    -1404 
   -1359    -1306    -1287    -1359    -1476    -1564    -1522    -1399 
   -1364    -1408    -1417    -1395    -1385    -1331    -1197    -1089 
   -1082    -1136    -1147    -1108    -1181    -1370    -1482    -1494 
   -1493    -1501    -1524    -1514    -1456    -1435    -1443    -1363 
   -1228    -1129    -1059    -1066    -1136    -1186    -1206    -1128 
   -1001    -1039    -1182    -1283    -1428    -1603    -1676    -1656 
   -1548    -1381    -1279    -1219    -1084     -893     -699     -572 
    -642     -913    -1221    -1479    -1680    -1780    -1790    -1686 
   -1405    -1074     -897     -977    -1244    -1472    -1605    -1745 
   -1825    -1787    -1792    -1868    -1861    -1749    -1570    -1313 
   -1065     -900     -811     -846    -1004    -1117    -1058     -954 
   -1030    -1262    -1412    -1431    -1466    -1534    -1543    -1475 
   -1350    -1151     -963     -911     -943     -943     -932     -972 
   -1075    -1287    -1556    -1696    -1679    -1636    -1645    -1675 
   -1669    -1642    -1601    -1479    -1281    -1115    -1019     -954 
    -957    -1071    -1278    -1507    -1648    -1687    -1729    -1790 
   -1809    -1726    -1520    -1251     -988     -787     -727     -831 
    -977    -1028     -953     -780     -648     -697     -886    -1147 
   -1494    -1806    -1942    -1939    -1848    -1676    -1518    -1432 
   -1328    -1166    -1089    -1179    -1317    -1406    -1479    -1476 
   -1341    -1205    -1186    -1247    -1337    -1447    -1544    -1594 
   -1547    -1345    -1040     -762     -653     -791    -1048    -1233 
   -1333    -1395    -1348    -1169     -997     -974    -1124    -1397 
   -1674    -1810    -1756    -1568    -1344    -1209    -1254    -1460 
   -1699    -1819    -1787    -1663    -1467    -1258    -1104     -959 
    -831     -772     -746     -765     -897    -1088    -1215    -1282 
   -1368    -1452    -1490    -1490    -1398    -1239    -1194    -1340 
   -1555    -1721    -1809    -1792    -1638    -1377    -1132    -1011 
   -1017    -1142    -1294    -1305    -1189    -1082    -1003     -959 
   -1021    -1170    -1340    -1529    -1734    -1865    -1817    -1645 
   -1467    -1287    -1151    -1119    -1089     -984     -927    -1016 
   -1215    -1459    -1660    -1707    -1576    -1345    -1143    -1115 
   -1308    -1649    -1992    -2150    -2065    -1804    -1422    -1020 
    -743     -611     -646     -908    -1264    -1505    -1567    -1476 
   -1286    -1108     -982     -889     -878    -1003    -1264    -1606 
   -1922    -2172    -2313    -2218    -1869    -1399     -953     -661 
    -608     -789    -1112    -1382    -1426    -1304    -1190    -1186 
   -1300    -1489    -1707    -1927    -2097    -2142    -2004    -1641 
   -1107     -596     -238       -9       81        5     -207     -525 
    -900    -1281    -1607    -1769    -1776    -1744    -1690    -1586 
   -1483    -1452    -1487    -1547    -1607    -1663    -1705    -1721 
   -1664    -1524    -1401    -1360    -1327    -1273    -1215    -1144 
   -1120    -1113     -997     -832     -778     -823     -897    -1004 
   -1127    -1216    -1271    -1323    -1345    -1308    -1270    -1306 
   -1406    -1513    -1561    -1502    -1345    -1166    -1009     -885 
    -841     -977    -1310    -1686    -1922    -1935    -1755    -1463 
   -1161     -961     -942    -1059    -1208    -1362    -1495    -1521 
   -1460    -1448    -1513    -1529    -1379    -1151    -1020    -1016 
   -1123    -1313    -1475    -1548    -1533    -1437    -1391    -1471 
   -1525    -1485    -1444    -1437    -1456    -1521    -1570    -1449 
   -1156     -891     -811     -896    -1057    -1271    -1474    -1572 
   -1583    -1601    -1702    -1848    -1881    -1717    -1368     -888 
    -405      -45       67     -206     -830    -1570    -2199    -2528 
   -2451    -2038    -1503    -1062     -780     -634     -642     -812 
   -1092    -1404    -1682    -1911    -2080    -2149    -2111    -1945 
   -1626    -1219     -789     -361      -52      -63     -429     -977 
   -1489    -1775    -1683    -1263     -811     -603     -749    -1196 
   -1773    -2307    -2652    -2700    -2463    -2011    -1417     -849 
    -422     -135      -41     -206     -565    -1013    -1416    -1587 
   -1479    -1229     -996     -909    -1055    -1367    -1665    -1798 
   -1749    -1641    -1512    -1325    -1154     -984     -708     -473 
    -519     -938    -1690    -2552    -3231    -3595    -3599    -3291 
   -2824    -2281    -1696    -1171     -784     -519     -360     -305 
    -307     -283     -201     -110      -49      -74     -325     -876 
   -1580    -2189    -2544    -2679    -2667    -2421    -1856    -1059 
    -255      321      585      585      353      -81     -589    -1020 
   -1375    -1740    -2095    -2412    -2697    -2882    -2876    -2620 
   -2161    -1648    -1202     -920     -884    -1107    -1521    -1999 
   -2403    -2636    -2632    -2374    -1925    -1385     -886     -538 
    -310     -110       49      102       22     -148     -386     -706 
   -1098    -1505    -1830    -2011    -2083    -2100    -2029    -1799 
   -1395     -899     -500     -315     -301     -434     -703     -988 
   -1182    -1286    -1370    -1570    -1922    -2297    -2583    -2764 
   -2782    -2600    -2338    -2110    -1881    -1563    -1078     -430 
     207      614      650      318     -280    -1017    -1722    -2185 
   -2342    -2304    -2158    -1917    -1637    -1436    -1433    -1669 
   -1965    -2073    -1917    -1509     -915     -341      -47     -211 
    -795    -1514    -2068    -2242    -1949    -1383     -877     -531 
    -328     -325     -487     -676     -831     -940    -1039    -1147 
   -1225    -1294    -1355    -1317    -1193    -1111    -1123    -1219 
   -1390    -1595    -1802    -2003    -2150    -2197    -2164    -2111 
   -2108    -2165    -2219    -2205    -2064    -1695    -1085     -421 
      78      306      243      -59     -521    -1078    -1599    -1931 
   -2077    -2092    -1925    -1640    -1463    -1463    -1475    -1328 
   -1039     -784     -610     -441     -279     -183     -190     -314 
    -514     -743    -1024    -1310    -1537    -1763    -1979    -2057 
   -1958    -1773    -1624    -1576    -1560    -1475    -1363    -1306 
   -1302    -1345    -1476    -1657    -1819    -1919    -1950    -1989 
   -2034    -2027    -1984    -1884    -1686    -1451    -1185     -843 
    -558     -529     -780    -1240    -1795    -2216    -2359    -2234 
   -1885    -1418     -992     -711     -581     -530     -514     -496 
    -368      -93      160      156     -202     -788    -1305    -1590 
   -1764    -1922    -1991    -1937    -1806    -1641    -1463    -1269 
   -1119    -1097    -1125    -1108    -1120    -1260    -1505    -1701 
   -1683    -1486    -1270    -1123    -1071    -1129    -1236    -1291 
   -1266    -1219    -1217    -1300    -1490    -1738    -1939    -2080 
   -2169    -2119    -1914    -1653    -1418    -1223    -1047     -916 
    -888     -972    -1111    -1219    -1196    -1047     -858     -696 
    -643     -762     -976    -1136    -1155    -1092    -1097    -1240 
   -1478    -1722    -1871    -1857    -1737    -1632    -1607    -1633 
   -1641    -1576    -1422    -1217    -1090    -1129    -1274    -1456 
   -1587    -1561    -1404    -1185    -1000     -999    -1252    -1695 
   -2128    -2371    -2382    -2203    -1957    -1773    -1682    -1669 
   -1692    -1598    -1262     -738     -144      375      619      476 
      -5     -658    -1266    -1706    -1957    -2030    -1950    -1749 
   -1455    -1121     -820     -589     -438     -376     -419     -591 
    -908    -1329    -1752    -2047    -2164    -2161    -2106    -2004 
   -1902    -1856    -1804    -1682    -1571    -1547    -1556    -1530 
   -1432    -1256    -1032     -770     -529     -441     -583     -988 
   -1664    -2451    -3117    -3466    -3321    -2656    -1696     -687 
     162      688      857      689      244     -356    -1021    -1696 
   -2258    -2558    -2589    -2506    -2388    -2150    -1765    -1309 
    -843     -372       78      406      503      344       28     -337 
    -757    -1262    -1749    -2035    -2053    -1869    -1580    -1306 
   -1163    -1178    -1305    -1459    -1553    -1617    -1732    -1898 
   -2043    -2095    -2027    -1892    -1738    -1591    -1485    -1424 
   -1395    -1378    -1263     -969     -568     -226      -93     -240 
    -633    -1202    -1864    -2467    -2890    -3060    -2911    -2479 
   -1942    -1478    -1163     -992     -961    -1078    -1282    -1449 
   -1497    -1425    -1260    -1015     -727     -427     -166      -18 
     -16     -189     -580    -1139    -1738    -2228    -2486    -2494 
   -2300    -1908    -1394     -923     -592     -438     -499     -691 
    -886    -1036    -1098    -1101    -1179    -1333    -1441    -1480 
   -1425    -1223     -946     -731     -653     -718     -905    -1232 
   -1688    -2216    -2708    -2995    -2994    -2751    -2309    -1744 
   -1167     -643     -193      124      225      128      -75     -379 
    -808    -1287    -1722    -2099    -2363    -2396    -2139    -1647 
   -1070     -581     -288     -270     -519     -950    -1483    -1969 
   -2242    -2285    -2139    -1867    -1607    -1467    -1456    -1529 
   -1613    -1634    -1576    -1493    -1391    -1270    -1151    -1048 
    -994     -994    -1023    -1080    -1120    -1094    -1047    -1020 
    -992     -985    -1058    -1155    -1192    -1206    -1278    -1382 
   -1447    -1491    -1594    -1723    -1787    -1786    -1752    -1722 
   -1703    -1664    -1618    -1593    -1530    -1367    -1147     -969 
    -874     -819     -780     -828    -1004    -1210    -1364    -1460 
   -1507    -1539    -1571    -1580    -1522    -1333    -1012     -648 
    -355     -234     -345     -672    -1125    -1599    -2002    -2258 
   -2286    -2072    -1738    -1444    -1254    -1189    -1304    -1586 
   -1892    -2065    -2023    -1798    -1502    -1198     -920     -765 
    -800     -976    -1186    -1339    -1395    -1341    -1167     -916 
    -668     -454     -291     -221     -275     -446     -685     -936 
   -1144    -1279    -1360    -1417    -1444    -1437    -1404    -1370 
