Origin Time       2025/03/28 03:50:00
Lat.              35.403
Long.             140.360
Depth. (km)       54
Mag.              4.4
Station Code      IBR014
Station Lat.      36.0729
Station Long.     140.1948
Station Height(m) 18
Record Time       2025/03/28 03:51:06
Sampling Freq(Hz) 100Hz
Duration Time(s)  60
Dir.              U-D
Scale Factor      7845(gal)/8223790
Max. Acc. (gal)   0.987
Last Correction   2025/03/28 03:51:05
Memo.             
[...]
   11939    11946    11955    11955    11947    11942    11946    11947 
   11948    11950    11947    11950    11952    11947    11951    11954 
   11948    11954    11955    11943    11943    11944    11942    11950 
   11950    11950    11950    11939    11944    11955    11948    11947 
   11946    11940    11950    11952    11943    11946    11947    11946 
   11952    11951    11939    11946    11954    11951    11947    11942 
   11939    11946    11950    11951    11952    11944    11940    11943 
   11950    11954    11944    11936    11946    11946    11936    11939 
   11942    11934    11931    11931    11921    11916    11920    11924 
   11923    11927    11929    11924    11924    11932    11932    11938 
   11954    11962    11963    11961    11951    11939    11928    11919 
   11909    11908    11928    11954    11965    11962    11950    11938 
   11936    11935    11931    11943    11981    12013    12015    11996 
   11981    11981    11978    11947    11908    11902    11920    11921 
   11900    11882    11889    11900    11869    11821    11830    11882 
   11948    12035    12098    12085    12046    12081    12174    12172 
   12037    11932    11967    12009    11956    11915    11888    11805 
   11739    11730    11735    11722    11715    11790    11885    11880 
   11855    11923    12096    12307    12368    12247    12097    11985 
   11975    12019    11988    11970    12008    12040    12081    12121 
   12197    12235    12098    11992    11986    11912    11911    12043 
   12120    12123    12036    11908    11894    11911    11811    11655 
   11568    11564    11638    11796    11862    11745    11708    11843 
   11948    11962    11959    12013    12097    12087    12004    11971 
   11938    11861    11847    11857    11817    11873    12023    12083 
   12081    12025    11813    11705    11861    11916    11792    11730 
   11754    11820    11793    11686    11731    11855    11965    12124 
   12247    12255    12105    11938    11931    11874    11781    11871 
   11923    11811    11732    11708    11736    11931    12135    12125 
   12132    12390    12606    12519    12317    12189    12082    11924 
   11799    11817    11875    11781    11647    11619    11541    11435 
   11634    12073    12337    12329    12175    11990    11934    12001 
   12008    11940    11962    12116    12270    12294    12158    11988 
   11927    11813    11612    11676    11904    11893    11823    11959 
   12137    12251    12290    12193    11986    11691    11520    11821 
   12272    12317    12096    11884    11703    11624    11700    11866 
   11936    11782    11638    11711    11830    11830    11834    11901 
   11916    11902    11994    12077    11971    11815    11820    11896 
   11943    12047    12191    12255    12144    11943    11908    12016 
   12094    12154    12100    11851    11589    11503    11686    11963 
   12048    11979    11913    12001    12291    12471    12332    12002 
   11692    11650    11803    11904    11974    11974    11917    12004 
   12194    12314    12267    11974    11545    11246    11179    11287 
   11591    12032    12345    12430    12434    12395    12325    12274 
   12136    11826    11520    11448    11616    11862    12097    12297 
   12352    12247    12106    11958    11770    11589    11480    11557 
   11846    12104    12145    12140    12186    12152    12064    11998 
   11900    11796    11731    11753    11890    11983    12047    12212 
   12225    11988    11780    11666    11573    11497    11491    11651 
   11834    11847    11848    11951    12033    12124    12384    12603 
   12372    11916    11678    11589    11596    11790    12036    12205 
   12209    12027    11893    11862    11747    11709    11892    12023 
   12082    12241    12247    11998    11858    11934    11973    11823 
   11651    11642    11688    11778    12112    12506    12478    12085 
   11853    11873    11897    11955    12101    12151    12012    11844 
   11898    12175    12303    12181    12074    11925    11731    11776 
   11874    11777    11649    11577    11686    11983    12082    11974 
   11986    12147    12351    12486    12451    12178    11716    11422 
   11412    11479    11655    11880    11981    12015    12023    12051 
   12036    11815    11607    11661    11859    12067    12201    12158 
   11959    11803    11870    12054    12056    11821    11583    11483 
   11497    11604    11767    11979    12259    12464    12440    12256 
   12120    12159    12239    12113    11842    11722    11839    12070 
   12271    12314    12181    11958    11730    11577    11515    11533 
   11628    11736    11813    11901    12044    12224    12367    12460 
   12452    12178    11781    11616    11618    11512    11416    11603 
   11986    12299    12447    12426    12314    12252    12237    12100 
   11700    11246    11165    11464    11777    11904    11890    11898 
   12001    12114    12231    12321    12263    12166    12195    12118 
   11743    11395    11337    11466    11746    12040    12067    11911 
   11874    12017    12154    12116    12058    12143    12231    12239 
   12186    12055    11947    11993    12101    12058    11846    11720 
   11861    12112    12183    11943    11620    11599    11821    11955 
   12000    12037    12015    11928    11750    11519    11394    11537 
   11970    12334    12361    12318    12421    12468    12224    11803 
   11502    11448    11615    11819    11851    11844    11967    12059 
   12037    12098    12260    12245    12028    11894    11874    11846 
   11931    12124    12204    12136    12012    11908    11877    11905 
   12033    12167    12004    11583    11323    11385    11611    11877 
   12102    12259    12286    12070    11794    11800    12009    12082 
   11966    11865    11873    11959    11967    11839    11886    12097 
   12042    11893    11978    12010    11851    11747    11782    11943 
   12081    11979    11853    11820    11661    11610    11858    12054 
   12116    12124    11981    11858    11881    11839    11772    11831 
   11858    11847    12012    12294    12445    12289    11929    11727 
   11801    11943    11956    11873    11898    12005    11990    11975 
   12004    11951    12032    12194    12073    11934    12002    12017 
   12055    12167    12156    12172    12237    12077    11808    11700 
   11649    11491    11372    11557    11998    12252    12102    11884 
   11838    11875    11950    12055    12120    12082    11947    11828 
   11869    12075    12244    12268    12249    12150    11951    11843 
   11801    11624    11415    11488    11838    12114    12166    12185 
   12293    12380    12332    12151    11915    11693    11480    11325 
   11400    11709    12032    12124    11998    11924    11870    11643 
   11481    11614    11834    11983    12085    12097    12082    12156 
   12243    12274    12237    12102    11994    12005    12021    12020 
   12027    11974    11919    11911    11835    11736    11732    11730 
   11705    11742    11755    11751    11880    12046    12106    12135 
   12158    12201    12306    12310    12150    11989    11824    11647 
   11611    11684    11773    11850    11816    11866    12131    12213 
   12086    12090    12131    12042    11884    11786    11875    12032 
   12074    12079    12154    12216    12163    12051    11962    11894 
   11828    11765    11751    11755    11651    11574    11665    11789 
   11920    12015    11978    12000    12058    11871    11645    11659 
   11745    11867    12128    12355    12438    12376    12228    12182 
   12140    11893    11623    11531    11568    11637    11655    11666 
   11804    12083    12380    12528    12521    12442    12275    12108 
   11993    11863    11797    11788    11723    11665    11673    11665 
   11637    11686    11807    11874    11859    11842    11928    12105 
   12221    12262    12301    12286    12167    11962    11797    11804 
   11796    11676    11713    11867    11813    11720    11907    12160 
   12198    12125    12074    12019    11898    11770    11830    12001 
   12031    11973    11943    11905    11884    11944    12071    12167 
   12205    12198    12141    12090    12031    11936    11850    11820 
   11901    11882    11674    11589    11566    11362    11269    11480 
   11781    12004    12073    12140    12440    12687    12603    12403 
   12158    11902    11858    11861    11789    11832    11838    11792 
   11977    12155    12120    12125    12135    12031    11904    11638 
   11318    11356    11677    11908    12070    12191    12171    12118 
   12028    11836    11745    11736    11664    11608    11593    11704 
   12020    12252    12298    12334    12258    12050    11965    11982 
   11934    11884    11928    12019    12132    12190    12105    12035 
   12098    12147    12085    11943    11751    11524    11299    11238 
   11464    11766    11942    12089    12239    12263    12189    12097 
   12064    12164    12293    12340    12345    12258    12012    11728 
   11558    11591    11772    11862    11831    11904    12023    12044 
   12079    12083    11950    11794    11654    11523    11576    11808 
   11988    12074    12137    12167    12226    12275    12212    12151 
   12116    11971    11808    11763    11780    11851    11982    12001 
   11880    11774    11751    11790    11786    11739    11854    12090 
   12197    12154    12064    12009    12044    12077    12033    11974 
   11909    11830    11727    11534    11399    11556    11842    11979 
   12012    12054    12079    12114    12198    12251    12216    12144 
   12106    12102    12037    11890    11807    11870    12020    12167 
   12218    12148    12046    11954    11853    11777    11736    11720 
   11767    11843    11882    11923    11982    11989    11954    11886 
   11751    11677    11735    11803    11902    12021    12033    12006 
   11996    11962    11962    11988    11932    11754    11564    11561 
   11786    12039    12177    12225    12229    12212    12190    12136 
   12033    11947    11921    11921    11971    12052    11992    11800 
   11724    11759    11750    11762    11850    11878    11742    11506 
   11371    11454    11689    11986    12226    12301    12353    12563 
   12764    12696    12420    12195    12093    11993    11863    11755 
   11715    11782    11836    11736    11666    11774    11866    11884 
   11958    12005    11977    12006    12035    11967    11936    11971 
   11928    11855    11919    12047    12039    11912    11861    11932 
   12017    12077    12121    12123    12127    12117    11943    11742 
   11754    11854    11865    11811    11763    11769    11780    11759 
   11778    11844    11901    11934    11951    11967    12010    12031 
   11902    11739    11758    11812    11770    11811    11928    12001 
   12048    12047    12023    12054    12071    12046    12039    12064 
   12164    12262    12182    12075    12145    12253    12253    12162 
   12021    11971    12058    12071    11894    11643    11402    11242 
   11306    11578    11820    11932    12017    12044    11979    11977 
   12048    12082    12048    11917    11734    11646    11692    11784 
   11862    11916    11893    11854    11956    12118    12136    12032 
   11936    11974    12208    12463    12588    12611    12492    12239 
   12017    11854    11642    11407    11276    11319    11479    11655 
   11851    12077    12212    12209    12208    12251    12231    12112 
   11946    11766    11597    11524    11669    11947    12148    12249 
   12316    12379    12482    12510    12353    12118    11894    11680 
   11496    11352    11264    11268    11304    11377    11587    11827 
   11951    12074    12212    12204    12064    11948    11951    12002 
   12029    12096    12158    12133    12114    12121    12054    11935 
   11867    11904    12013    12089    12093    12129    12231    12289 
   12290    12285    12182    11938    11704    11564    11522    11638 
   11803    11847    11888    12087    12321    12418    12345    12109 
   11813    11572    11392    11291    11300    11434    11707    11963 
   11970    11855    11967    12231    12314    12195    11994    11809 
   11792    11924    12071    12233    12403    12514    12479    12187 
   11754    11514    11524    11553    11543    11553    11545    11607 
   11847    12106    12229    12218    12104    11997    11978    12024 
   12189    12422    12536    12474    12306    12128    11990    11867 
   11742    11577    11402    11391    11593    11828    11977    12036 
   12002    11904    11840    11875    11956    11997    12028    12097 
   12121    12043    11907    11804    11786    11732    11574    11484 
   11561    11684    11782    11898    12059    12279    12501    12549 
   12366    12116    11946    11908    12015    12109    12032    11890 
   11776    11730    11919    12276    12491    12460    12276    12024 
   11781    11651    11638    11618    11526    11427    11422    11547 
   11678    11723    11801    11979    12170    12361    12515    12490 
   12244    11940    11746    11635    11543    11538    11619    11693 
   11816    12071    12340    12463    12445    12418    12437    12426 
   12348    12243    12098    11855    11542    11250    11029    10930 
   11025    11283    11577    11827    12024    12236    12510    12721 
   12804    12879    12961    12943    12791    12538    12262    12023 
   11830    11655    11423    11113    10910    10930    11057    11253 
   11573    11923    12206    12441    12604    12671    12609    12372 
   12060    11740    11354    11055    11047    11268    11596    11908 
   12054    12091    12208    12355    12367    12199    11943    11776 
   11712    11615    11616    11897    12263    12496    12610    12599 
   12426    12145    11869    11708    11666    11630    11592    11684 
   11847    11896    11824    11742    11695    11682    11684    11697 
   11778    11924    12128    12384    12532    12521    12491    12357 
   12008    11610    11311    11179    11237    11354    11530    11909 
   12333    12552    12634    12679    12623    12484    12347    12235 
   12114    11913    11620    11350    11206    11217    11345    11487 
   11634    11846    12019    12090    12194    12347    12434    12413 
   12285    12110    12004    11894    11618    11341    11342    11516 
   11669    11813    11939    12029    12125    12231    12368    12525 
   12580    12475    12298    12151    12051    11952    11789    11645 
   11647    11738    11769    11703    11677    11836    12056    12135 
   12070    11963    11909    11904    11886    11886    11888    11817 
   11763    11819    11839    11709    11585    11587    11715    11978 
   12249    12356    12366    12349    12249    12123    12062    12047 
   12024    11983    11969    12005    12046    12027    11962    11936 
   11934    11886    11867    11859    11750    11657    11662    11645 
   11605    11627    11712    11873    12089    12294    12422    12359 
   12098    11848    11742    11728    11739    11750    11827    12042 
   12306    12457    12418    12218    11962    11713    11537    11493 
   11537    11626    11758    11893    12029    12177    12316    12436 
   12506    12474    12333    12162    12024    11917    11835    11767 
   11696    11672    11728    11801    11816    11790    11757    11681 
   11601    11611    11730    11886    11974    11969    11921    11893 
   11969    12127    12240    12286    12255    12116    11961    11855 
   11735    11619    11572    11557    11562    11549    11476    11484 
   11641    11848    12089    12343    12503    12550    12550    12506 
   12387    12245    12097    11901    11704    11591    11597    11684 
   11774    11911    12093    12185    12260    12460    12652    12675 
   12530    12290    12029    11777    11533    11396    11448    11566 
   11618    11642    11699    11800    11967    12128    12209    12258 
   12285    12271    12228    12151    12042    11881    11692    11630 
   11749    11908    11977    11946    11858    11734    11608    11580 
   11691    11824    11842    11780    11769    11866    12040    12160 
   12163    12145    12137    12133    12145    12046    11751    11438 
   11321    11412    11588    11747    11854    11943    12100    12264 
   12359    12445    12479    12424    12390    12359    12274    12156 
   11969    11761    11645    11596    11581    11627    11708    11780 
   11820    11808    11758    11723    11745    11821    11907    11904 
   11788    11653    11628    11777    11996    12177    12371    12546 
   12565    12436    12244    12056    11897    11759    11703    11809 
   12013    12168    12248    12259    12182    12098    12070    12013 
   11865    11685    11515    11350    11337    11547    11753    11858 
   11974    12089    12198    12343    12397    12299    12202    12164 
   12113    12032    11901    11720    11553    11439    11391    11377 
   11367    11412    11568    11809    12083    12318    12460    12530 
   12571    12556    12438    12280    12181    12120    12035    11923 
   11819    11726    11608    11547    11616    11713    11807    11938 
   12001    11965    11951    11993    12055    12106    12097    12031 
   11988    11967    11938    11925    11962    12069    12220    12293 
   12216    12091    12036    12023    11983    11936    11896    11824 
   11713    11639    11673    11736    11747    11750    11782    11792 
   11754    11704    11703    11734    11700    11654    11738    11917 
   12087    12224    12278    12198    12020    11859    11794    11809 
   11901    12046    12116    12096    12105    12210    12334    12341 
   12232    12114    11994    11869    11823    11874    11915    11866 
   11788    11757    11765    11808    11894    11979    12075    12237 
   12379    12391    12260    12002    11680    11418    11317    11356 
   11445    11522    11564    11615    11713    11811    11932    12112 
   12260    12357    12440    12471    12467    12457    12371    12195 
   11997    11808    11686    11645    11581    11480    11461    11576 
   11750    11916    12098    12314    12486    12540    12492    12397 
   12232    11955    11665    11487    11395    11329    11308    11387 
   11577    11812    12020    12204    12353    12442    12505    12542 
   12538    12519    12469    12355    12193    11998    11784    11593 
   11431    11275    11149    11102    11205    11431    11618    11781 
   12001    12164    12279    12430    12549    12592    12561    12494 
   12476    12455    12393    12329    12179    11947    11769    11607 
   11415    11276    11187    11133    11192    11330    11470    11615 
   11743    11890    12097    12237    12291    12380    12459    12452 
   12395    12293    12137    11970    11807    11654    11533    11449 
   11430    11512    11651    11786    11919    12051    12170    12248 
   12278    12271    12208    12105    12046    12040    12032    12029 
   12037    12037    12091    12190    12210    12170    12128    12017 
   11843    11705    11620    11537    11457    11453    11547    11664 
   11782    11898    11961    12020    12113    12158    12139    12131 
   12156    12148    12087    12039    12064    12151    12174    12075 
