Origin Time       2025/03/28 03:50:00
Lat.              35.403
Long.             140.360
Depth. (km)       54
Mag.              4.4
Station Code      IBR013
Station Lat.      36.1587
Station Long.     140.4892
Station Height(m) 29
Record Time       2025/03/28 03:51:08
Sampling Freq(Hz) 100Hz
Duration Time(s)  60
Dir.              N-S
Scale Factor      7845(gal)/8223790
Max. Acc. (gal)   2.820
Last Correction   2025/03/28 03:51:08
Memo.             
   17694    17694    17694    17695    17699    17699    17695    17697 
   17699    17699    17697    17694    17701    17706    17701    17693 
   17698    17701    17693    17695    17702    17702    17705    17703 
   17690    17686    17698    17705    17701    17701    17697    17694 
   17693    17690    17697    17699    17695    17702    17710    17713 
   17718    17710    17694    17691    17693    17690    17687    17685 
   17683    17695    17707    17705    17698    17702    17706    17698 
   17697    17703    17702    17702    17706    17705    17698    17690 
   17687    17694    17702    17706    17705    17698    17702    17707 
   17695    17682    17691    17707    17712    17707    17706    17702 
   17690    17690    17699    17699    17691    17687    17695    17702 
   17706    17712    17707    17703    17713    17714    17698    17685 
   17689    17701    17701    17691    17695    17714    17718    17703 
   17701    17706    17705    17701    17690    17685    17695    17701 
   17697    17695    17698    17709    17714    17705    17699    17703 
   17697    17689    17703    17713    17701    17691    17691    17695 
   17701    17695    17693    17701    17703    17694    17683    17686 
   17691    17693    17699    17707    17707    17701    17689    17690 
   17697    17689    17686    17699    17709    17713    17722    17728 
   17716    17695    17690    17703    17706    17689    17690    17701 
   17695    17690    17698    17714    17714    17680    17622    17585 
   17604    17666    17728    17757    17772    17793    17778    17728 
   17718    17751    17755    17714    17664    17601    17520    17474 
   17535    17697    17841    17872    17824    17749    17676    17655 
   17693    17736    17724    17652    17577    17578    17682    17810 
   17867    17826    17698    17545    17467    17506    17631    17760 
   17824    17818    17768    17714    17713    17786    17841    17780 
   17666    17604    17575    17555    17604    17706    17741    17674 
   17610    17629    17706    17813    17913    17942    17884    17797 
   17716    17668    17698    17747    17676    17491    17378    17450 
   17625    17741    17741    17734    17768    17749    17724    17810 
   17914    17883    17718    17550    17525    17652    17764    17748 
   17663    17578    17514    17514    17578    17680    17822    17925 
   17901    17795    17699    17664    17705    17751    17702    17568 
   17463    17521    17699    17824    17857    17841    17787    17741 
   17714    17698    17667    17567    17498    17566    17694    17801 
   17867    17892    17869    17793    17732    17724    17691    17612 
   17551    17547    17578    17587    17577    17624    17748    17899 
   17930    17730    17518    17570    17784    17928    17902    17737 
   17559    17448    17435    17536    17671    17767    17810    17798 
   17832    17959    17999    17828    17564    17370    17294    17308 
   17375    17532    17752    17905    18003    18134    18214    18148 
   17940    17679    17502    17396    17269    17209    17343    17564 
   17693    17729    17776    17895    18073    18199    18192    18083 
   17861    17567    17388    17386    17428    17448    17451    17469 
   17610    17844    17961    17961    17983    17934    17759    17655 
   17667    17666    17648    17593    17509    17486    17485    17562 
   17788    17946    17936    17838    17656    17460    17382    17444 
   17579    17671    17697    17726    17771    17867    17972    17932 
   17814    17755    17680    17575    17570    17649    17662    17558 
   17392    17293    17370    17551    17757    18004    18198    18220 
   18153    18096    18014    17806    17466    17151    17004    17045 
   17286    17647    17950    18153    18227    18108    17887    17705 
   17626    17653    17722    17734    17633    17479    17424    17505 
   17613    17670    17671    17631    17604    17633    17740    17919 
   18019    17921    17775    17680    17541    17425    17487    17640 
   17740    17745    17618    17498    17648    17967    18041    17767 
   17470    17392    17455    17547    17635    17697    17734    17752 
   17845    18053    18171    18061    17844    17625    17463    17450 
   17593    17743    17802    17779    17664    17562    17658    17901 
   18069    18041    17821    17529    17401    17529    17697    17676 
   17473    17253    17235    17473    17770    17965    18010    17865 
   17671    17625    17645    17626    17658    17753    17876    17957 
   17837    17578    17455    17539    17702    17851    17880    17763 
   17599    17516    17590    17748    17842    17856    17836    17779 
   17691    17655    17713    17774    17725    17567    17397    17315 
   17354    17502    17749    18041    18247    18257    18069    17728 
   17379    17282    17479    17770    17987    18048    17992    17918 
   17753    17432    17140    17101    17236    17281    17248    17420 
   17847    18241    18380    18285    18073    17861    17680    17482 
   17309    17267    17296    17308    17452    17853    18289    18434 
   18235    17878    17566    17435    17459    17493    17455    17431 
   17516    17709    17984    18254    18311    18063    17729    17558 
   17510    17452    17419    17496    17614    17655    17667    17767 
   17955    18122    18103    17863    17572    17381    17338    17429 
   17551    17635    17698    17707    17685    17776    17946    17969 
   17784    17537    17378    17327    17296    17201    17081    17099 
   17431    18023    18619    19041    19192    18986    18415    17606 
   16877    16540    16557    16703    16853    17035    17358    17760 
   18077    18323    18519    18536    18335    18045    17865    17888 
   17946    17874    17740    17558    17227    16887    16848    17150 
   17521    17770    17856    17786    17706    17780    17961    18087 
   18045    17837    17577    17413    17397    17491    17707    17936 
   17895    17604    17381    17363    17500    17699    17798    17734 
   17649    17718    17965    18249    18432    18414    18129    17679 
   17262    16968    16819    16891    17189    17501    17599    17578 
   17680    17934    18216    18399    18331    18029    17736    17660 
   17857    18142    18215    18021    17675    17347    17236    17363 
   17574    17737    17805    17776    17644    17469    17451    17632 
   17798    17817    17714    17571    17502    17502    17446    17300 
   17153    17135    17402    17852    18192    18374    18465    18438 
   18322    18202    18162    18125    17775    17120    16617    16551 
   16912    17564    18126    18247    18017    17721    17544    17558 
   17725    17922    18007    17911    17672    17428    17371    17559 
   17778    17744    17450    17216    17236    17297    17235    17244 
   17508    17874    18114    18195    18218    18257    18203    17977 
   17767    17764    17926    18104    18115    17845    17458    17224 
   17231    17460    17811    18048    18063    17942    17733    17496 
   17328    17215    17078    16973    17053    17343    17770    18245 
   18586    18639    18366    17813    17153    16668    16614    17012 
   17645    18195    18411    18349    18215    18052    17815    17554 
   17429    17547    17736    17826    17894    17984    18000    17929 
   17802    17629    17479    17390    17298    17123    16916    16893 
   17122    17462    17840    18214    18519    18747    18817    18651 
   18316    17865    17358    16987    16904    17084    17394    17679 
   17845    17879    17770    17482    17095    16941    17259    17826 
   18243    18366    18256    18010    17807    17834    17965    17844 
   17431    17096    17085    17240    17371    17500    17643    17728 
   17732    17763    17887    17991    17969    17855    17734    17672 
   17683    17712    17706    17718    17772    17756    17663    17689 
   17879    18010    17964    17874    17844    17830    17809    17818 
   17852    17872    17824    17643    17397    17248    17216    17184 
   17085    16934    16842    16973    17389    17991    18546    18751 
   18490    18015    17674    17566    17552    17547    17640    17845 
   17980    17942    17848    17810    17787    17678    17494    17323 
   17212    17167    17238    17481    17836    18148    18345    18403 
   18307    18196    18157    18058    17852    17578    17269    17054 
   17030    17130    17257    17343    17402    17528    17751    18034 
   18301    18411    18285    18033    17860    17838    17829    17670 
   17404    17177    17046    17053    17232    17501    17745    17869 
   17787    17601    17550    17710    17968    18165    18191    18057 
   17864    17699    17613    17587    17567    17567    17581    17595 
   17658    17699    17616    17531    17568    17667    17776    17903 
   17969    17825    17491    17263    17309    17444    17551    17756 
   18094    18396    18497    18368    18079    17703    17321    17058 
   17014    17134    17308    17489    17629    17663    17582    17481 
   17525    17741    17975    18160    18308    18368    18300    18117 
   17821    17491    17247    17173    17311    17566    17793    17945 
   17998    17919    17697    17412    17315    17498    17763    17901 
   17848    17730    17739    17886    18064    18161    18122    18017 
   17844    17558    17354    17377    17398    17215    16973    16933 
   17194    17644    18045    18231    18179    17965    17710    17518 
   17494    17656    17878    18031    18080    18011    17888    17860 
   17883    17737    17401    17096    17035    17196    17342    17455 
   17725    18046    18161    18098    17984    17807    17609    17552 
   17689    17913    18030    17913    17679    17520    17487    17550 
   17641    17718    17779    17851    17905    17817    17550    17304 
   17290    17500    17761    17928    17994    18042    18041    17890 
   17653    17419    17158    16930    16895    17142    17668    18324 
   18751    18669    18195    17671    17289    17072    17030    17166 
   17466    17880    18303    18625    18732    18528    18144    17787 
   17440    17058    16764    16683    16850    17158    17446    17672 
   17826    17906    18022    18210    18346    18306    18073    17786 
   17577    17478    17450    17385    17242    17140    17178    17327 
   17539    17783    18011    18177    18241    18183    18087    18044 
   17977    17784    17537    17419    17517    17741    17888    17840 
   17675    17504    17348    17266    17319    17474    17666    17840 
   17999    18154    18218    18045    17649    17227    16919    16794 
   16938    17334    17828    18225    18365    18274    18118    17990 
   17878    17698    17424    17215    17228    17425    17690    17884 
   17880    17725    17571    17491    17506    17618    17755    17828 
   17899    18030    18077    17949    17759    17617    17535    17496 
   17545    17732    17982    18150    18138    17956    17699    17486 
   17383    17340    17271    17278    17494    17786    17984    18088 
   18077    17921    17698    17483    17296    17212    17300    17439 
   17435    17335    17363    17567    17857    18176    18430    18458 
   18193    17757    17401    17304    17444    17683    17869    17852 
   17590    17307    17244    17388    17620    17936    18335    18701 
   18813    18574    18160    17752    17421    17269    17269    17277 
   17265    17335    17543    17753    17779    17628    17463    17348 
   17230    17147    17155    17204    17304    17514    17780    18030 
   18268    18466    18507    18314    17956    17613    17435    17401 
   17404    17390    17378    17487    17809    18261    18669    18909 
   19024    19071    18954    18519    17729    16698    15687    14975 
   14743    15041    15800    16831    17923    18908    19580    19789 
   19651    19356    18891    18295    17772    17448    17286    17209 
   17182    17219    17302    17397    17539    17784    18144    18534 
   18771    18763    18567    18230    17741    17166    16688    16409 
   16343    16534    16919    17361    17752    17952    17875    17599 
   17247    16942    16810    16947    17355    17822    18107    18210 
   18297    18443    18534    18453    18202    17901    17740    17821 
   18072    18387    18652    18720    18532    18189    17837    17489 
   17065    16525    15969    15678    15912    16542    17258    17901 
   18366    18620    18797    18909    18789    18451    18046    17610 
   17173    16922    17001    17347    17767    18036    18000    17705 
   17393    17312    17475    17733    18004    18245    18323    18088 
   17500    16761    16263    16232    16615    17270    17949    18387 
   18581    18665    18659    18561    18392    18146    17799    17346 
   16884    16603    16640    16984    17491    17999    18396    18574 
   18578    18617    18716    18665    18310    17674    16988    16569 
   16576    16884    17209    17419    17629    17903    18137    18239 
   18179    17968    17699    17535    17544    17612    17570    17421 
   17294    17275    17361    17525    17740    17896    17910    17863 
   17878    17949    18041    18053    17813    17382    17074    17051 
   17227    17458    17636    17737    17799    17857    17915    17977 
   17982    17840    17566    17278    17205    17504    17986    18257 
   18123    17759    17559    17752    18157    18404    18322    17995 
   17585    17235    17050    17097    17312    17446    17394    17389 
   17683    18243    18773    18979    18804    18368    17853    17444 
   17227    17153    17089    16938    16785    16816    17103    17560 
   18034    18361    18415    18183    17803    17458    17192    16941 
   16707    16596    16699    17035    17582    18268    18901    19240 
   19183    18847    18451    18076    17674    17254    16866    16661 
   16860    17448    18133    18667    18982    19084    18947    18554 
   18002    17455    17014    16708    16532    16509    16681    16999 
   17379    17815    18308    18706    18731    18382    17961    17571 
   17130    16696    16398    16310    16401    16505    16540    16695 
   17205    18031    18914    19580    19770    19481    19049    18708 
   18420    18058    17482    16738    16094    15747    15770    16181 
   16812    17325    17529    17613    17847    18250    18743    19241 
   19577    19608    19330    18827    18139    17285    16390    15669 
   15336    15588    16424    17494    18387    18954    19143    18894 
   18300    17616    17159    17126    17456    17950    18373    18593 
   18671    18654    18411    17833    17053    16320    15804    15711 
   16213    17155    18121    18796    19086    19037    18736    18295 
   17918    17805    17934    18220    18551    18694    18469    17884 
   17046    16125    15398    15175    15550    16306    17196    18075 
   18797    19180    19116    18677    18154    17930    18123    18495 
   18790    18875    18638    18069    17327    16652    16210    15993 
   15959    16217    16850    17706    18544    19236    19691    19816 
   19633    19165    18357    17334    16488    16082    16079    16312 
   16634    16999    17410    17815    18125    18299    18289    17976 
   17397    16872    16726    17057    17734    18445    18922    19167 
   19213    18940    18301    17443    16596    16015    15838    16082 
   16707    17525    18234    18644    18759    18689    18616    18603 
   18438    17976    17423    17078    17062    17201    17126    16707 
   16160    15763    15772    16372    17543    18928    20005    20472 
   20364    19828    19021    18110    17255    16579    16212    16267 
   16703    17275    17728    17948    17937    17791    17617    17455 
   17423    17593    17793    17833    17733    17629    17697    17987 
   18331    18509    18450    18200    17813    17374    17051    16984 
   17127    17302    17410    17452    17431    17386    17373    17439 
   17590    17741    17898    18144    18495    18890    19137    19003 
   18492    17817    17190    16783    16746    17104    17712    18322 
   18673    18665    18414    18068    17606    16895    16028    15358 
   15160    15476    16218    17223    18225    18910    19159    19114 
   18917    18590    18137    17568    16993    16694    16854    17288 
   17651    17871    18098    18384    18621    18706    18590    18250 
   17734    17199    16773    16482    16389    16606    17115    17783 
   18517    19203    19600    19426    18650    17593    16641    15958 
   15570    15539    15907    16603    17487    18354    18985    19305 
   19414    19379    19156    18756    18218    17556    16887    16326 
   15903    15685    15795    16258    16914    17589    18314    19149 
   19926    20348    20259    19703    18883    18044    17304    16669 
   16148    15822    15819    16174    16780    17478    18041    18312 
   18357    18284    18154    18058    18126    18395    18724    18910 
   18839    18486    17923    17313    16798    16438    16235    16170 
   16314    16776    17518    18341    18940    19066    18789    18393 
   18003    17616    17270    16976    16718    16614    16826    17313 
   17880    18346    18558    18387    17932    17560    17516    17625 
   17653    17639    17706    17821    17882    17875    17797    17574 
   17200    16791    16510    16503    16804    17312    17869    18343 
   18715    19013    19202    19222    19036    18640    18115    17571 
   17069    16675    16468    16460    16557    16677    16853    17176 
   17651    18141    18476    18538    18320    17984    17760    17728 
   17826    18017    18280    18562    18797    18858    18621    18145 
   17612    17127    16648    16124    15685    15580    15934    16645 
   17551    18528    19348    19661    19337    18573    17701    17054 
   16794    16834    17084    17516    17994    18306    18337    18131 
   17829    17587    17497    17568    17790    18135    18509    18725 
   18623    18241    17803    17487    17289    17118    16977    16968 
   17070    17142    17139    17162    17266    17402    17547    17760 
   18067    18380    18550    18538    18472    18416    18257    17906 
   17413    16880    16416    16147    16193    16555    17107    17743 
   18430    19086    19573    19809    19731    19264    18485    17612 
   16841    16329    16135    16200    16492    17010    17662    18291 
   18727    18860    18709    18345    17790    17118    16540    16271 
   16399    16848    17332    17545    17455    17340    17448    17728 
   18022    18257    18362    18258    17957    17574    17239    17072 
   17145    17416    17736    18017    18289    18546    18685    18601 
   18265    17751    17154    16578    16240    16318    16757    17356 
   17932    18428    18862    19171    19210    18897    18355    17828 
   17470    17301    17213    17095    16991    16962    16949    16988 
   17228    17635    18027    18276    18327    18272    18314    18511 
   18708    18740    18527    18072    17496    16995    16726    16708 
   16823    16942    17047    17177    17348    17572    17836    18090 
   18266    18297    18172    17949    17667    17293    16839    16424 
