Origin Time       2025/03/28 03:50:00
Lat.              35.403
Long.             140.360
Depth. (km)       54
Mag.              4.4
Station Code      IBR017
Station Lat.      35.9538
Station Long.     140.3196
Station Height(m) 14
Record Time       2025/03/28 03:50:55
Sampling Freq(Hz) 100Hz
Duration Time(s)  66
Dir.              E-W
Scale Factor      7845(gal)/8223790
Max. Acc. (gal)   4.268
Last Correction   2025/03/28 03:50:55
Memo.             
[...]
    4665     4657     4634     4645     4650     4650     4656     4642 
    4641     4676     4699     4664     4615     4630     4668     4664 
    4657     4673     4671     4638     4627     4641     4654     4676 
    4672     4657     4671     4662     4639     4634     4625     4615 
    4602     4637     4766     4797     4688     4590     4506     4542 
    4662     4704     4812     4797     4612     4606     4523     4480 
    4707     4718     4702     4789     4668     4653     4637     4496 
    4633     4729     4666     4738     4683     4576     4606     4585 
    4626     4706     4684     4722     4720     4618     4603     4594 
    4594     4689     4698     4649     4685     4679     4626     4630 
    4657     4664     4634     4618     4666     4698     4665     4641 
    4654     4669     4671     4676     4680     4656     4637     4656 
    4662     4641     4648     4684     4677     4612     4565     4581 
    4641     4676     4641     4587     4591     4634     4661     4691 
    4739     4768     4741     4660     4621     4675     4708     4671 
    4600     4549     4603     4685     4650     4591     4607     4577 
    4513     4604     4810     4903     4822     4696     4662     4669 
    4600     4546     4560     4557     4592     4666     4665     4638 
    4673     4745     4761     4666     4560     4507     4519     4679 
    4891     4905     4722     4509     4372     4417     4665     4907 
    4923     4810     4699     4546     4436     4464     4556     4610 
    4608     4665     4758     4758     4814     4993     5000     4718 
    4419     4349     4423     4509     4608     4660     4708     4931 
    5097     4865     4518     4475     4523     4330     4135     4307 
    4716     5015     5094     4990     4822     4760     4742     4648 
    4553     4434     4315     4379     4580     4742     4708     4498 
    4375     4476     4676     4818     4869     4884     4915     4903 
    4799     4729     4725     4662     4569     4552     4556     4504 
    4407     4302     4270     4357     4561     4824     5015     5169 
    5297     5204     4945     4731     4519     4210     3936     3883 
    4113     4549     4912     5080     5281     5479     5422     5057 
    4401     3788     3693     4072     4572     4914     5027     5063 
    5000     4704     4445     4563     4785     4737     4577     4429 
    4221     4178     4452     4792     4830     4499     4256     4429 
    4888     5354     5398     5026     4823     4757     4544     4487 
    4469     4137     3908     4075     4442     4862     5089     5090 
    5057     4868     4571     4495     4549     4494     4471     4658 
    4864     4672     4054     3716     4218     5085     5566     5514 
    5201     4923     4702     4449     4298     4386     4558     4677 
    4946     5265     5170     4799     4549     4495     4604     4742 
    4797     4684     4368     4239     4483     4652     4644     4783 
    4945     4776     4310     3893     3790     3940     4158     4402 
    4696     5008     5113     4905     4696     4698     4818     5023 
    5293     5422     5252     4973     4788     4484     3862     3333 
    3480     4185     4853     5138     5169     5270     5323     5089 
    4839     4693     4445     4252     4418     4688     4671     4530 
    4496     4414     4226     4079     4109     4394     4808     5094 
    5232     5562     6097     6110     5313     4282     3503     3287 
    3651     4191     4614     4742     4704     4828     4984     4989 
    4881     4726     4742     4857     4824     4743     4617     4334 
    4139     4321     4648     4573     4129     3840     3943     4375 
    4866     5223     5445     5391     5270     5337     5117     4544 
    4126     3890     3809     3981     4260     4518     4734     4977 
    5267     5412     5381     5212     4776     4243     3943     3929 
    4008     3996     4135     4710     5498     6081     6061     5494 
    5022     4862     4700     4391     4002     3707     3577     3572 
    3890     4637     5505     6126     6231     5794     5061     4291 
    3726     3512     3711     4210     4456     4280     4261     4434 
    4391     4455     4995     5556     5544     4985     4399     4085 
    3904     3844     4147     4797     5401     5651     5499     5059 
    4618     4450     4606     4758     4525     4145     4148     4552 
    4947     4988     4576     4045     3960     4464     5211     5707 
    5852     5900     5742     5239     4531     3763     3427     3619 
    3751     3929     4453     5016     5304     5135     4673     4361 
    4449     4930     5197     4723     4085     3959     4252     4599 
    4700     4500     4257     4224     4465     4750     4874     4950 
    4972     4888     4880     5040     5220     5112     4784     4723 
    4990     5215     5128     4795     4518     4388     4301     4085 
    3669     3430     3743     4538     5449     6025     6083     5659 
    4820     3885     3412     3638     4118     4333     4322     4457 
    4807     5013     4984     4946     4911     4843     4831     4916 
    4963     4665     4252     4351     4746     4811     4644     4685 
    4978     5111     4780     4222     3890     3950     4141     4307 
    4606     4961     5142     5093     4928     4904     5024     5015 
    4800     4525     4338     4222     4160     4280     4517     4765 
    5150     5514     5579     5506     5355     4934     4425     4091 
    4002     4272     4600     4511     4309     4483     4656     4290 
    3726     3613     3985     4456     4799     5005     5093     5054 
    5101     5312     5173     4491     3921     3898     4198     4521 
    4781     4968     4986     4800     4710     5080     5710     5945 
    5583     5042     4664     4446     4222     3952     3808     3843 
    4031     4371     4669     4880     5147     5189     4799     4321 
    3950     3855     4340     4976     5117     4934     4720     4496 
    4330     4284     4391     4429     4074     3730     4133     5107 
    5834     6042     6021     5919     5630     5140     4614     4175 
    3813     3631     3796     4085     4139     4185     4617     5189 
    5400     5229     5024     4915     4789     4580     4302     4072 
    3987     3969     3921     3982     4405     4968     5228     5298 
    5368     5313     5111     4823     4623     4752     4963     4891 
    4675     4460     4237     4151     4239     4445     4780     4980 
    4857     4765     4843     4735     4341     3946     3955     4540 
    5196     5378     5204     4838     4307     3842     3640     3815 
    4321     4862     5225     5347     5197     4895     4641     4531 
    4496     4455     4434     4411     4382     4503     4872     5290 
    5452     5282     4869     4452     4352     4507     4716     4946 
    5105     5205     5140     4626     3975     3771     4067     4552 
    4800     4702     4642     4785     4860     4698     4500     4401 
    4197     3908     3879     4280     4951     5456     5611     5757 
    5869     5409     4230     3032     2690     3256     4151     4924 
    5451     5856     6103     5992     5636     5217     4784     4395 
    3977     3555     3423     3701     4212     4652     4877     4928 
    4704     4206     3991     4573     5598     6153     5792     5008 
    4419     4055     3754     3559     3597     3932     4490     5103 
    5520     5526     5263     5053     5001     4963     4749     4456 
    4332     4357     4540     4857     4965     4750     4503     4464 
    4720     5098     5259     5136     4911     4650     4352     4124 
    4020     4002     4106     4353     4657     4896     4870     4504 
    4194     4251     4325     4158     4006     4040     4229     4657 
    5254     5499     5209     4951     5051     5333     5614     5617 
    5144     4444     3978     3963     4218     4463     4649     4837 
    4949     4824     4533     4394     4577     4941     5219     5265 
    5112     4727     4132     3727     3905     4536     5046     5013 
    4658     4413     4369     4391     4425     4577     4772     4637 
    4135     3798     4082     4792     5346     5524     5451     5158 
    4684     4194     3904     4016     4353     4477     4549     4986 
    5497     5547     5103     4646     4653     4806     4507     3993 
    4013     4760     5606     5977     5825     5158     4156     3345 
    3123     3423     3834     4222     4776     5256     5228     4787 
    4325     4101     4144     4263     4334     4441     4660     5063 
    5694     6269     6231     5393     4297     3635     3626     4148 
    4880     5316     5205     4725     4217     3964     3993     4145 
    4468     5128     5864     6029     5463     4831     4752     5035 
    5107     4810     4494     4487     4675     4788     4787     4544 
    3850     2984     2502     2660     3334     4028     4325     4423 
    4675     5042     5275     5389     5736     6307     6682     6744 
    6567     6114     5476     4924     4590     4313     3906     3465 
    3273     3447     3832     4297     4808     5209     5335     5193 
    4860     4511     4329     4217     4066     4140     4723     5545 
    5867     5213     3950     2871     2330     2224     2511     3171 
    4159     5383     6382     6613     6091     5401     5092     5177 
    5386     5566     5611     5404     4793     3935     3523     3827 
    4247     4374     4414     4610     4949     5362     5834     6178 
    6039     5255     4137     3299     2944     2735     2479     2424 
    2795     3411     3813     3738     3604     4158     5475     6898 
    7785     7971     7707     7179     6339     5262     4109     2991 
    2205     2180     2933     3871     4395     4692     5266     5881 
    5985     5699     5595     5941     6497     6720     6080     4513 
    2701     1564     1410     1719     1813     1834     2660     4561 
    6650     7811     7750     7086     6532     6292     6139     5733 
    4885     3615     2165     1044      787     1529     2844     4248 
    5683     7091     7958     7738     6659     5719     5687     6265 
    6446     5656     4234     2764     1695     1447     2060     3053 
    3797     4027     4275     5219     6559     7429     7442     6833 
    6061     5290     4383     3534     3091     2944     2762     2617 
    2967     3904     4864     5274     5298     5521     5827     5575 
    4824     4213     4109     4471     5026     5454     5587     5352 
    4737     4116     4014     4310     4382     4002     3503     3380 
    3902     4801     5455     5532     5309     5201     5139     4858 
    4569     4618     4707     4221     3225     2543     2775     3801 
    5221     6601     7323     6805     5236     3694     3026     3242 
    4012     5051     6150     6855     6654     5768     4962     4661 
    4626     4379     3808     3219     3107     3834     5228     6658 
    7306     6700     5391     4503     4504     4949     5286     5331 
    4989     4261     3422     2728     2300     2258     2674     3489 
    4483     5333     5675     5267     4360     3630     3532     3915 
    4307     4436     4428     4560     4727     4590     4418     4773 
    5508     6019     5929     5281     4455     3964     4167     4846 
    5370     5308     4699     4027     3924     4676     6000     7291 
    8095     8145     7460     6581     5846     5059     4261     3607 
    2918     2139     1506     1271     1529     2145     2886     3557 
    4095     4521     4718     4727     5031     5964     7083     7628 
    7362     6417     5051     3820     3123     2910     2937     2995 
    3118     3345     3512     3678     3981     4132     3944     3828 
    4152     4661     4882     4812     5046     6061     7484     8475 
    8568     7851     6718     5617     4919     4738     4588     3925 
    3029     2500     2469     2717     2994     3272     3576     3734 
    3774     3985     4409     4905     5408     6006     6895     7971 
    8800     9082     8750     7798     6361     4927     4031     3717 
    3654     3462     2906     2095     1333      855      796     1178 
    2000     3191     4465     5387     5699     5659     5751     6045 
    6201     5768     4548     2953     1669     1161     1699     3200 
    4972     6172     6489     6245     6096     6454     7117     7580 
    7422     6463     4943     3408     2273     1664     1526     1714 
    2168     2940     4063     5458     6724     7420     7592     7514 
    7292     6885     6195     5287     4388     3674     3208     3076 
    3372     3882     4195     4306     4425     4496     4418     4232 
    4091     4244     4800     5559     6076     6018     5464     4691 
    4025     3622     3248     2776     2452     2558     3186     4059 
    4781     5364     5967     6455     6608     6399     5952     5363 
    4691     4099     3808     3856     4078     4299     4500     4820 
    5329     5927     6462     6799     6814     6454     5838     5188 
    4519     3690     2728     1761      963      676     1135     2150 
    3249     4072     4627     5135     5628     6003     6354     6750 
    7002     7074     7176     7358     7447     7206     6415     5130 
    3707     2493     1628     1131     1140     1772     2856     4160 
    5466     6390     6686     6575     6528     6772     6945     6467 
    5215     3447     1620      382      180      924     2169     3408 
    4432     5260     5737     5829     5806     5796     5768     5732 
    5809     6147     6498     6393     5794     4953     4021     3029 
    2176     1933     2532     3692     4951     5891     6270     6228 
    6142     6216     6380     6480     6254     5544     4652     3944 
    3457     3167     3057     3032     3148     3520     4070     4642 
    5104     5383     5498     5567     5701     5715     5404     5026 
    4843     4726     4548     4324     4102     3971     3946     4087 
    4572     5262     5676     5637     5449     5313     5108     4691 
    4075     3395     2798     2351     2106     2169     2625     3343 
    4052     4702     5459     6322     7018     7299     7199     6841 
    6164     5100     3767     2482     1692     1669     2367     3546 
    4789     5674     5998     5957     6008     6292     6594     6805 
    6840     6685     6455     6049     5356     4552     3797     3132 
    2512     1906     1551     1736     2363     3067     3643     4155 
    4657     5089     5512     6062     6625     6844     6548     5938 
    5260     4617     4155     3981     3985     4001     3974     3940 
    3987     4199     4587     5112     5671     6041     6050     5657 
    4923     4070     3387     3114     3335     3808     4198     4457 
    4712     4997     5266     5478     5632     5722     5715     5632 
    5535     5467     5533     5744     5881     5749     5293     4536 
    3667     3084     3073     3481     4012     4452     4537     4257 
    3923     3649     3451     3419     3524     3690     3877     4035 
    4164     4214     4260     4627     5375     6099     6386     6102 
    5464     4888     4583     4615     4970     5331     5360     5125 
    4823     4521     4249     4118     4282     4725     5148     5309 
    5259     5165     5055     4845     4542     4270     4031     3724 
    3433     3423     3767     4179     4352     4303     4245     4260 
    4279     4264     4313     4514     4804     5073     5281     5373 
    5336     5319     5491     5783     5868     5552     4930     4187 
    3483     2922     2640     2759     3237     3951     4758     5401 
    5636     5537     5456     5529     5578     5471     5251     5067 
    5023     5017     4909     4760     4730     4876     5092     5260 
    5343     5341     5281     5148     4922     4683     4507     4399 
    4422     4590     4698     4538     4185     3874     3700     3585 
    3481     3426     3515     3715     3808     3777     3921     4432 
    5223     6127     6882     7122     6674     5818     4961     4197 
    3458     2794     2394     2461     2891     3330     3595     3751 
    3924     4225     4726     5373     5985     6381     6523     6469 
    6219     5796     5304     4810     4415     4270     4388     4671 
    5032     5412     5718     5840     5791     5830     6042     6061 
    5576     4720     3886     3404     3307     3456     3726     3947 
    3952     3767     3569     3464     3356     3088     2724     2529 
    2671     3111     3747     4487     5305     6160     6809     7053 
    6898     6420     5757     5031     4340     3875     3762     3937 
    4298     4762     5197     5435     5456     5441     5495     5516 
    5391     5169     4936     4723     4519     4305     4108     4014 
    3978     3852     3692     3703     3996     4499     5026     5422 
    5667     5817     5907     5883     5698     5386     5057     4878 
    4849     4772     4573     4311     3979     3595     3283     3164 
    3226     3350     3524     3798     4047     4116     4066     3979 
    3877     3802     3802     3939     4256     4602     4826     5005 
    5294     5744     6277     6698     6840     6689     6346     5981 
    5714     5433     5008     4542     4239     4143     4054     3804 
    3457     3127     2924     2978     3323     3910     4575     5035 
    5192     5112     4851     4517     4244     4167     4386     4733 
    4932     4982     5047     5177     5298     5360     5397     5397 
    5296     5144     5043     4974     4866     4742     4630     4537 
    4483     4503     4638     4846     4955     4855     4634     4448 
    4379     4450     4595     4702     4800     4942     5036     4976 
    4776     4573     4471     4445     4455     4432     4315     4160 
    4085     4160     4328     4444     4422     4353     4391     4519 
    4594     4579     4585     4743     5070     5462     5753     5815 
    5602     5113     4434     3788     3345     3130     3176     3466 
    3917     4452     4931     5194     5252     5265     5336     5424 
    5462     5443     5381     5259     5119     5051     5026     4897 
    4600     4202     3800     3466     3265     3264     3538     4039 
    4573     5043     5436     5664     5637     5391     5077     4791 
    4492     4193     4012     4008     4129     4257     4282     4236 
    4253     4399     4625     4837     4997     5190     5462     5676 
    5703     5552     5290     4957     4521     3994     3553     3338 
    3314     3445     3792     4337     4853     5147     5263     5298 
    5273     5200     5124     5120     5169     5150     5017     4889 
    4846     4792     4644     4476     4337     4233     4297     4635 
    5177     5702     5952     5802     5348     4810     4376     4162 
    4205     4436     4704     4891     4959     4880     4607     4203 
    3874     3766     3874     4081     4259     4398     4483     4430 
    4313     4212     4028     3761     3600     3690     4033     4455 
    4788     5063     5343     5560     5640     5566     5310     4876 
    4322     3732     3280     3129     3273     3697     4402     5232 
    6027     6702     7130     7227     7022     6563     5929     5221 
