Origin Time       2025/03/28 03:50:00
Lat.              35.403
Long.             140.360
Depth. (km)       54
Mag.              4.4
Station Code      IBR016
Station Lat.      35.9114
Station Long.     140.0494
Station Height(m) 20
Record Time       2025/03/28 03:51:03
Sampling Freq(Hz) 100Hz
Duration Time(s)  60
Dir.              E-W
Scale Factor      7845(gal)/8223790
Max. Acc. (gal)   5.602
Last Correction   2025/03/28 03:51:02
Memo.             
[...]
   -6546    -6579    -6594    -6570    -6536    -6565    -6604    -6592 
   -6593    -6594    -6570    -6550    -6525    -6548    -6642    -6671 
   -6588    -6493    -6492    -6570    -6609    -6567    -6543    -6586 
   -6621    -6594    -6562    -6573    -6588    -6570    -6582    -6628 
   -6610    -6559    -6547    -6565    -6586    -6571    -6521    -6523 
   -6574    -6582    -6554    -6574    -6612    -6601    -6577    -6592 
   -6616    -6610    -6570    -6519    -6513    -6588    -6646    -6604 
   -6554    -6573    -6606    -6602    -6565    -6542    -6561    -6561 
   -6542    -6573    -6610    -6593    -6555    -6535    -6535    -6551 
   -6575    -6615    -6636    -6589    -6520    -6504    -6565    -6643 
   -6616    -6538    -6562    -6606    -6590    -6566    -6539    -6567 
   -6644    -6635    -6574    -6548    -6548    -6548    -6517    -6531 
   -6615    -6646    -6600    -6556    -6551    -6552    -6527    -6513 
   -6547    -6606    -6652    -6635    -6590    -6579    -6534    -6474 
   -6534    -6650    -6666    -6590    -6547    -6600    -6625    -6575 
   -6555    -6567    -6590    -6600    -6558    -6546    -6596    -6604 
   -6546    -6523    -6556    -6577    -6567    -6581    -6610    -6589 
   -6528    -6494    -6534    -6605    -6623    -6585    -6552    -6579 
   -6621    -6579    -6521    -6570    -6648    -6613    -6546    -6571 
   -6617    -6596    -6521    -6509    -6602    -6635    -6574    -6500 
   -6478    -6562    -6621    -6605    -6598    -6592    -6570    -6511 
   -6500    -6612    -6637    -6569    -6592    -6597    -6552    -6570 
   -6562    -6542    -6571    -6583    -6578    -6615    -6660    -6617 
   -6535    -6511    -6525    -6577    -6581    -6521    -6542    -6601 
   -6609    -6596    -6590    -6602    -6592    -6536    -6502    -6547 
   -6616    -6619    -6592    -6601    -6602    -6561    -6535    -6567 
   -6566    -6504    -6515    -6602    -6660    -6632    -6532    -6505 
   -6609    -6666    -6593    -6520    -6536    -6574    -6540    -6523 
   -6602    -6663    -6617    -6515    -6462    -6539    -6659    -6664 
   -6593    -6548    -6531    -6550    -6592    -6601    -6556    -6492 
   -6515    -6615    -6679    -6659    -6582    -6523    -6523    -6566 
   -6575    -6538    -6538    -6581    -6602    -6590    -6592    -6635 
   -6637    -6531    -6482    -6565    -6590    -6544    -6546    -6608 
   -6679    -6646    -6524    -6502    -6562    -6543    -6492    -6534 
   -6609    -6593    -6558    -6602    -6654    -6646    -6590    -6542 
   -6546    -6563    -6547    -6532    -6561    -6609    -6624    -6605 
   -6585    -6571    -6550    -6516    -6511    -6561    -6606    -6594 
   -6562    -6582    -6617    -6597    -6544    -6531    -6577    -6578 
   -6521    -6521    -6578    -6654    -6697    -6655    -6581    -6509 
   -6466    -6494    -6567    -6628    -6636    -6592    -6561    -6555 
   -6512    -6462    -6481    -6578    -6691    -6708    -6606    -6532 
   -6566    -6574    -6498    -6507    -6613    -6639    -6570    -6532 
   -6555    -6610    -6637    -6593    -6555    -6566    -6565    -6546 
   -6565    -6605    -6589    -6528    -6513    -6559    -6624    -6663 
   -6642    -6586    -6555    -6505    -6455    -6524    -6615    -6606 
   -6621    -6674    -6658    -6616    -6569    -6493    -6493    -6594 
   -6646    -6605    -6588    -6602    -6593    -6565    -6540    -6555 
   -6589    -6579    -6536    -6513    -6502    -6490    -6529    -6602 
   -6615    -6565    -6559    -6637    -6682    -6633    -6551    -6490 
   -6494    -6562    -6612    -6605    -6609    -6631    -6616    -6558 
   -6507    -6538    -6609    -6627    -6585    -6515    -6486    -6515 
   -6556    -6577    -6577    -6550    -6507    -6552    -6659    -6644 
   -6562    -6597    -6659    -6615    -6550    -6525    -6552    -6623 
   -6610    -6497    -6448    -6524    -6620    -6633    -6551    -6436 
   -6417    -6517    -6582    -6556    -6536    -6554    -6596    -6629 
   -6613    -6582    -6550    -6508    -6504    -6536    -6543    -6552 
   -6624    -6690    -6671    -6643    -6670    -6683    -6651    -6590 
   -6520    -6497    -6513    -6531    -6601    -6701    -6705    -6632 
   -6606    -6646    -6660    -6555    -6424    -6461    -6596    -6636 
   -6606    -6617    -6635    -6619    -6574    -6498    -6461    -6521 
   -6594    -6601    -6612    -6670    -6721    -6740    -6640    -6431 
   -6332    -6390    -6497    -6620    -6635    -6501    -6455    -6582 
   -6716    -6750    -6640    -6512    -6632    -6826    -6735    -6494 
   -6403    -6447    -6494    -6502    -6467    -6380    -6388    -6538 
   -6604    -6562    -6538    -6538    -6558    -6569    -6588    -6686 
   -6805    -6855    -6794    -6583    -6334    -6258    -6377    -6567 
   -6748    -6802    -6682    -6606    -6696    -6736    -6592    -6385 
   -6297    -6421    -6613    -6648    -6582    -6488    -6381    -6442 
   -6652    -6750    -6713    -6679    -6671    -6667    -6625    -6543 
   -6504    -6532    -6531    -6475    -6502    -6609    -6593    -6436 
   -6339    -6394    -6484    -6544    -6650    -6786    -6853    -6831 
   -6789    -6704    -6451    -6114    -6035    -6381    -6816    -6933 
   -6799    -6744    -6813    -6786    -6633    -6542    -6612    -6735 
   -6723    -6616    -6620    -6655    -6528    -6354    -6286    -6303 
   -6328    -6378    -6539    -6710    -6697    -6536    -6447    -6573 
   -6725    -6667    -6608    -6764    -6875    -6716    -6459    -6246 
   -6045    -5900    -5973    -6386    -6882    -7067    -7069    -7076 
   -6909    -6621    -6399    -6226    -6218    -6354    -6394    -6471 
   -6760    -7011    -7013    -6810    -6574    -6513    -6594    -6567 
   -6440    -6374    -6316    -6237    -6218    -6268    -6358    -6432 
   -6525    -6731    -6883    -6860    -6790    -6733    -6752    -6860 
   -6868    -6817    -6868    -6864    -6700    -6477    -6303    -6274 
   -6223    -6018    -6052    -6462    -6825    -6930    -6864    -6714 
   -6643    -6686    -6664    -6606    -6670    -6754    -6760    -6686 
   -6467    -6272    -6318    -6466    -6600    -6718    -6662    -6489 
   -6489    -6598    -6606    -6551    -6462    -6326    -6291    -6404 
   -6498    -6475    -6376    -6343    -6432    -6525    -6600    -6758 
   -6972    -7048    -6897    -6648    -6426    -6274    -6222    -6292 
   -6415    -6528    -6805    -7190    -7283    -7069    -6820    -6615 
   -6488    -6389    -6265    -6238    -6324    -6388    -6376    -6327 
   -6301    -6284    -6311    -6436    -6604    -6832    -7056    -7060 
   -6874    -6671    -6453    -6277    -6365    -6675    -6887    -6851 
   -6666    -6463    -6353    -6458    -6713    -6871    -6867    -6752 
   -6539    -6338    -6237    -6200    -6226    -6359    -6581    -6713 
   -6669    -6615    -6669    -6779    -6799    -6685    -6586    -6517 
   -6385    -6308    -6412    -6565    -6600    -6575    -6652    -6855 
   -7030    -6926    -6521    -6205    -6234    -6403    -6523    -6625 
   -6755    -6845    -6786    -6681    -6670    -6624    -6509    -6454 
   -6412    -6350    -6365    -6432    -6539    -6671    -6612    -6389 
   -6330    -6447    -6593    -6704    -6721    -6740    -6786    -6705 
   -6585    -6620    -6729    -6752    -6706    -6687    -6660    -6508 
   -6227    -6002    -5964    -6060    -6257    -6515    -6801    -7078 
   -7090    -6841    -6683    -6619    -6447    -6214    -6166    -6407 
   -6609    -6500    -6357    -6562    -6975    -7150    -6978    -6739 
   -6674    -6704    -6589    -6411    -6330    -6218    -6102    -6255 
   -6647    -6920    -6968    -7005    -7014    -6832    -6538    -6384 
   -6546    -6839    -6879    -6620    -6424    -6496    -6519    -6219 
   -5890    -5922    -6284    -6709    -6944    -6924    -6791    -6650 
   -6529    -6474    -6556    -6740    -6814    -6728    -6659    -6678 
   -6687    -6583    -6459    -6458    -6516    -6500    -6357    -6166 
   -6087    -6174    -6343    -6471    -6556    -6631    -6647    -6682 
   -6799    -6862    -6859    -6805    -6627    -6481    -6598    -6909 
   -7180    -7257    -7088    -6743    -6399    -6143    -5944    -5898 
   -6083    -6346    -6556    -6621    -6525    -6415    -6389    -6461 
   -6566    -6628    -6708    -6785    -6704    -6610    -6714    -6818 
   -6781    -6831    -7029    -7137    -6963    -6582    -6334    -6363 
   -6392    -6353    -6463    -6596    -6484    -6196    -5953    -5872 
   -5961    -6103    -6239    -6459    -6669    -6694    -6721    -7007 
   -7410    -7582    -7542    -7504    -7345    -6862    -6218    -5787 
   -5751    -5902    -5948    -5935    -6115    -6461    -6706    -6818 
   -6894    -6859    -6666    -6501    -6565    -6710    -6656    -6473 
   -6393    -6434    -6502    -6531    -6525    -6627    -6777    -6712 
   -6504    -6457    -6592    -6679    -6648    -6640    -6691    -6720 
   -6654    -6466    -6355    -6492    -6763    -7074    -7365    -7369 
   -6998    -6606    -6399    -6258    -6042    -5761    -5644    -5764 
   -5861    -5794    -5741    -5962    -6513    -7145    -7516    -7580 
   -7585    -7601    -7488    -7246    -6945    -6654    -6438    -6246 
   -6011    -5768    -5574    -5518    -5719    -6112    -6486    -6770 
   -7025    -7140    -6976    -6729    -6606    -6604    -6810    -7161 
   -7337    -7250    -7051    -6825    -6539    -6219    -6056    -6057 
   -6084    -6114    -6120    -6176    -6353    -6550    -6767    -6971 
   -7011    -6926    -6812    -6737    -6685    -6582    -6631    -6941 
   -7226    -7268    -7103    -6832    -6531    -6187    -5767    -5464 
   -5454    -5628    -5944    -6377    -6764    -7079    -7342    -7506 
   -7604    -7619    -7412    -6929    -6292    -5645    -5148    -4941 
   -4932    -5119    -5634    -6219    -6528    -6629    -6731    -6951 
   -7225    -7373    -7435    -7570    -7716    -7716    -7500    -7165 
   -6939    -6801    -6529    -6100    -5667    -5485    -5672    -5948 
   -6173    -6467    -6794    -7105    -7294    -7234    -7094    -6909 
   -6632    -6536    -6608    -6520    -6336    -6282    -6377    -6573 
   -6625    -6369    -6073    -6008    -6166    -6392    -6524    -6598 
   -6748    -6941    -7057    -6991    -6812    -6716    -6671    -6567 
   -6507    -6558    -6606    -6497    -6312    -6281    -6386    -6454 
   -6428    -6388    -6458    -6612    -6710    -6656    -6432    -6224 
   -6239    -6466    -6770    -6956    -6918    -6798    -6748    -6747 
   -6760    -6710    -6513    -6373    -6392    -6396    -6382    -6367 
   -6343    -6484    -6729    -6754    -6548    -6465    -6675    -6948 
   -7040    -6982    -6937    -7020    -7146    -7182    -7125    -6928 
   -6547    -6084    -5626    -5297    -5275    -5582    -6072    -6529 
   -6836    -6995    -7011    -6859    -6508    -6146    -6039    -6188 
   -6590    -7186    -7593    -7622    -7408    -7017    -6494    -6008 
   -5670    -5536    -5645    -5798    -5782    -5786    -5957    -6172 
   -6369    -6550    -6809    -7217    -7659    -8060    -8268    -8127 
   -7747    -7265    -6772    -6363    -6102    -6027    -6035    -6049 
   -6118    -6199    -6212    -6204    -6226    -6212    -6154    -6134 
   -6195    -6462    -6876    -7184    -7399    -7537    -7488    -7258 
   -6872    -6458    -6207    -6203    -6392    -6581    -6606    -6408 
   -6137    -6173    -6521    -6813    -6998    -7136    -7122    -6972 
   -6764    -6579    -6485    -6442    -6399    -6370    -6393    -6447 
   -6471    -6488    -6581    -6789    -6999    -7080    -7155    -7292 
   -7341    -7304    -7194    -6978    -6813    -6744    -6678    -6682 
   -6744    -6691    -6481    -6191    -5907    -5733    -5584    -5323 
   -5092    -5027    -5042    -5078    -5081    -4982    -4901    -5049 
   -5485    -6150    -6910    -7534    -7925    -8208    -8361    -8185 
   -7722    -7260    -6974    -6802    -6623    -6458    -6355    -6176 
   -5840    -5637    -5809    -6106    -6322    -6524    -6744    -7051 
   -7439    -7639    -7539    -7418    -7407    -7419    -7518    -7695 
   -7728    -7554    -7284    -7076    -6980    -6789    -6436    -6130 
   -5994    -5940    -5709    -5197    -4757    -4760    -5084    -5437 
   -5813    -6197    -6366    -6301    -6261    -6435    -6793    -7086 
   -7119    -6858    -6265    -5481    -4815    -4472    -4519    -4841 
   -5335    -6052    -7001    -8104    -9178    -9996   -10438   -10451 
   -9999    -9123    -7974    -6667    -5363    -4371    -3900    -3969 
   -4522    -5335    -6142    -6828    -7267    -7403    -7273    -6984 
   -6766    -6635    -6520    -6504    -6465    -6201    -5722    -5266 
   -5090    -5094    -5119    -5317    -5810    -6513    -7314    -8058 
   -8596    -8856    -8707    -8082    -7287    -6804    -6651    -6593 
   -6567    -6421    -6092    -5776    -5563    -5595    -5996    -6597 
   -7317    -8113    -8680    -8733    -8307    -7582    -6737    -5972 
   -5397    -5097    -5182    -5564    -6072    -6623    -7056    -7294 
   -7411    -7307    -6994    -6659    -6204    -5584    -5167    -5223 
   -5663    -6224    -6610    -6794    -6963    -7191    -7461    -7695 
   -7854    -7943    -7836    -7427    -6728    -5756    -4615    -3570 
   -2930    -2783    -2983    -3613    -4811    -6413    -8214    -9992 
  -11426   -12264   -12403   -11755   -10254    -8144    -5872    -3839 
   -2432    -1694    -1393    -1530    -2091    -2911    -4002    -5447 
   -7252    -9302   -11188   -12322   -12447   -11653   -10102    -8024 
   -5732    -3630    -2261    -1938    -2513    -3726    -5339    -6966 
   -8212    -8922    -9134    -9012    -8746    -8333    -7738    -7020 
   -6072    -4837    -3638    -2921    -2876    -3407    -4359    -5664 
   -7202    -8735   -10006   -10863   -11171   -10721    -9553    -8094 
   -6751    -5651    -4695    -3838    -3406    -3674    -4407    -5333 
   -6407    -7466    -8206    -8378    -7997    -7446    -7010    -6509 
   -5941    -5629    -5503    -5260    -4866    -4452    -4212    -4266 
   -4506    -4950    -5795    -6960    -8160    -9247   -10038   -10133 
   -9369    -8067    -6701    -5760    -5528    -5775    -6251    -6890 
   -7433    -7712    -7839    -7769    -7319    -6601    -5923    -5427 
   -5138    -4995    -4961    -5119    -5427    -5788    -6174    -6490 
   -6700    -6905    -7169    -7456    -7709    -7794    -7622    -7318 
   -6986    -6652    -6424    -6288    -6103    -5861    -5683    -5657 
   -5836    -6266    -6735    -6975    -7047    -6972    -6760    -6531 
   -6272    -6054    -6033    -6166    -6334    -6606    -7030    -7333 
   -7388    -7304    -7155    -7095    -7109    -7074    -7148    -7350 
   -7376    -7087    -6648    -6251    -5968    -5830    -5914    -6245 
   -6642    -6899    -6956    -6797    -6474    -6104    -5834    -5810 
   -6021    -6223    -6143    -5849    -5676    -5713    -5822    -6021 
   -6303    -6554    -6839    -7209    -7588    -8052    -8517    -8684 
   -8604    -8407    -7925    -7122    -6211    -5439    -5007    -4931 
   -5055    -5325    -5791    -6301    -6740    -7199    -7611    -7871 
   -7985    -7862    -7429    -6671    -5652    -4747    -4345    -4361 
   -4576    -5008    -5645    -6307    -6856    -7236    -7384    -7290 
   -6993    -6659    -6581    -6779    -6979    -7056    -6983    -6752 
   -6585    -6627    -6818    -7152    -7504    -7628    -7537    -7345 
   -7040    -6735    -6598    -6581    -6639    -6767    -6705    -6273 
   -5668    -5117    -4756    -4742    -5067    -5509    -5956    -6403 
   -6714    -6859    -6907    -6805    -6588    -6463    -6548    -6879 
   -7350    -7668    -7695    -7514    -7202    -6909    -6794    -6805 
   -6793    -6687    -6430    -6011    -5566    -5236    -5098    -5228 
   -5637    -6261    -7087    -7993    -8714    -9219    -9420    -9147 
   -8559    -7803    -6955    -6249    -5701    -5132    -4641    -4368 
   -4220    -4156    -4182    -4245    -4407    -4710    -5128    -5732 
   -6531    -7368    -8083    -8526    -8596    -8395    -8097    -7719 
   -7318    -7072    -6940    -6806    -6686    -6550    -6443    -6498 
   -6669    -6835    -6939    -6937    -6818    -6667    -6728    -7090 
   -7443    -7519    -7357    -7076    -6770    -6498    -6231    -5863 
   -5378    -4885    -4529    -4442    -4661    -5065    -5459    -5741 
   -5992    -6380    -6991    -7758    -8446    -8862    -9049    -9088 
   -8889    -8370    -7614    -6791    -6099    -5626    -5341    -5279 
   -5386    -5498    -5584    -5655    -5738    -5989    -6500    -7080 
   -7407    -7373    -7059    -6597    -6195    -5994    -5968    -5956 
   -5864    -5834    -5940    -6110    -6254    -6281    -6264    -6304 
   -6297    -6196    -6087    -6095    -6382    -6948    -7582    -8106 
   -8394    -8438    -8375    -8333    -8316    -8209    -7906    -7399 
   -6783    -6189    -5686    -5254    -4995    -5059    -5350    -5651 
   -5811    -5764    -5622    -5574    -5734    -6170    -6794    -7345 
   -7655    -7762    -7732    -7503    -6961    -6295    -5902    -5879 
   -6025    -6251    -6525    -6690    -6712    -6704    -6706    -6772 
   -6835    -6670    -6288    -5844    -5402    -5111    -5124    -5421 
   -5918    -6481    -7044    -7650    -8154    -8361    -8321    -8171 
   -8029    -7925    -7735    -7420    -7121    -6839    -6492    -6143 
   -5881    -5702    -5520    -5362    -5373    -5516    -5670    -5763 
   -5734    -5653    -5599    -5548    -5556    -5813    -6285    -6723 
   -7063    -7338    -7407    -7172    -6729    -6301    -6093    -6131 
   -6340    -6691    -7099    -7420    -7636    -7774    -7830    -7830 
   -7777    -7663    -7503    -7281    -7002    -6739    -6493    -6204 
   -5983    -5902    -5927    -6133    -6462    -6691    -6741    -6675 
   -6515    -6269    -5919    -5428    -5011    -4908    -5015    -5208 
   -5506    -5906    -6355    -6824    -7291    -7719    -8095    -8336 
   -8297    -7981    -7468    -6768    -5989    -5316    -4857    -4752 
   -5042    -5579    -6265    -7003    -7701    -8301    -8649    -8613 
   -8253    -7750    -7177    -6575    -6048    -5590    -5235    -5121 
   -5165    -5211    -5329    -5522    -5674    -5914    -6382    -6986 
   -7573    -7958    -8050    -7951    -7771    -7551    -7353    -7219 
   -7067    -6818    -6478    -6042    -5640    -5428    -5370    -5501 
   -5811    -6060    -6239    -6544    -6910    -7173    -7346    -7501 
   -7627    -7622    -7372    -7002    -6775    -6656    -6498    -6372 
   -6367    -6455    -6548    -6531    -6427    -6397    -6419    -6405 
   -6345    -6165    -5818    -5346    -4860    -4600    -4757    -5267 
   -5887    -6419    -6808    -7055    -7238    -7435    -7635    -7836 
   -7965    -7948    -7821    -7576    -7164    -6610    -6077    -5761 
   -5686    -5795    -6069    -6504    -6978    -7233    -7236    -7175 
   -7091    -6924    -6732    -6632    -6629    -6650    -6609    -6431 
   -6151    -5863    -5529    -5200    -5071    -5215    -5540    -5898 
   -6266    -6754    -7335    -7836    -8101    -8176    -8167    -8029 
   -7812    -7562    -7258    -7013    -6826    -6685    -6705    -6735 
   -6556    -6301    -6150    -6073    -6027    -6039    -6142    -6323 
   -6462    -6550    -6696    -6818    -6750    -6532    -6324    -6183 
