Origin Time       2025/03/28 03:50:00
Lat.              35.403
Long.             140.360
Depth. (km)       54
Mag.              4.4
Station Code      IBR016
Station Lat.      35.9114
Station Long.     140.0494
Station Height(m) 20
Record Time       2025/03/28 03:51:03
Sampling Freq(Hz) 100Hz
Duration Time(s)  60
Dir.              U-D
Scale Factor      7845(gal)/8223790
Max. Acc. (gal)   2.393
Last Correction   2025/03/28 03:51:02
Memo.             
[...]
    3897     3958     4023     4013     3974     3969     4005     4002 
    3975     3989     3991     3951     3935     3981     4029     3998 
    3950     3982     4018     3983     3920     3897     3989     4097 
    4044     3912     3889     3963     4006     3973     3975     4074 
    4079     3931     3842     3892     3989     4050     4024     4017 
    4048     3960     3840     3900     4037     4059     4001     3962 
    3981     4018     3963     3912     3986     4028     3971     3929 
    3960     4041     4027     3906     3898     3993     4041     4018 
    3944     3928     3994     4008     3966     3955     3974     3996 
    4000     3966     3950     3983     4005     3974     3958     4009 
    4032     3981     3971     4008     3982     3898     3904     4029 
    4078     3994     3952     3982     3979     3943     3936     3978 
    4014     3982     3917     3954     4037     4018     3966     3958 
    3964     3981     3969     3950     3997     4067     4032     3937 
    3955     4018     3971     3901     3929     4005     4013     3969 
    3975     4024     4032     3985     3900     3902     4043     4077 
    3951     3913     3960     3950     3937     3966     4013     4062 
    4031     3935     3924     3973     3993     4010     4020     4004 
    3979     3928     3886     3939     4029     4032     4000     4012 
    4000     3936     3913     3982     4039     3993     3913     3898 
    4006     4113     4017     3870     3900     4006     4037     3986 
    3970     4021     4009     3935     3917     3987     4058     4020 
    3942     3924     3940     3994     4039     3994     3932     3956 
    4023     4059     4037     3939     3866     3908     3981     4044 
    4074     3981     3878     3928     3996     4005     4058     4070 
    3969     3897     3909     3969     4035     4002     3920     3944 
    3994     3989     3996     3994     3996     3997     3960     3993 
    4062     4006     3908     3889     3943     4025     4032     3960 
    3944     4001     4027     3962     3925     4014     4064     3975 
    3916     3975     4018     3991     3958     3929     3933     3956 
    3982     4043     4071     4017     3947     3915     3942     4002 
    4001     3924     3904     3977     3983     3908     3897     3954 
    3977     3975     4010     4032     4002     3932     3875     3958 
    4082     4043     3981     4071     4133     4016     3877     3883 
    3997     4078     4037     3952     3931     3948     3955     3916 
    3867     3898     3919     3813     3742     3831     3931     3932 
    3946     3997     3993     3973     4056     4180     4210     4158 
    4074     3991     3974     4018     4040     4021     4037     4093 
    4087     4074     4144     4190     4129     4010     3943     4025 
    4070     3929     3848     3956     4085     4144     4099     3948 
    3854     3892     3931     3900     3862     3865     3877     3897 
    3973     4108     4221     4172     3982     3798     3688     3724 
    3852     3905     3838     3747     3809     4059     4278     4295 
    4207     4085     3916     3819     3825     3836     3882     3997 
    4075     4083     4075     4068     4095     4089     3939     3727 
    3623     3708     3871     3981     4009     4016     4143     4293 
    4206     3955     3842     3915     3986     3913     3769     3825 
    4132     4383     4347     4174     4079     4014     3882     3636 
    3420     3524     3912     4287     4456     4382     4139     3902 
    3781     3697     3613     3649     3851     4109     4270     4301 
    4315     4288     4037     3692     3581     3650     3662     3655 
    3761     3967     4166     4205     4095     3967     3800     3645 
    3704     3927     4166     4337     4232     3944     3863     4005 
    4160     4268     4279     4274     4426     4550     4382     4059 
    3780     3596     3559     3604     3611     3638     3840     4220 
    4521     4452     4079     3804     3824     3865     3666     3419 
    3474     3827     4112     4113     4041     4152     4345     4332 
    4040     3670     3576     3892     4224     4203     4035     3993 
    3946     3746     3576     3565     3685     3959     4334     4650 
    4741     4432     3913     3662     3758     3954     4170     4413 
    4556     4440     4077     3639     3343     3241     3260     3420 
    3689     3932     4132     4279     4294     4243     4256     4302 
    4259     4140     3946     3649     3600     4048     4509     4483 
    4132     3832     3703     3663     3731     3986     4202     4145 
    4048     4152     4240     4075     3915     4059     4294     4213 
    3861     3751     4087     4249     3751     3230     3395     3839 
    3924     3839     4072     4418     4294     3812     3578     3582 
    3389     3186     3466     4048     4329     4180     4118     4449 
    4558     4055     3696     3855     3967     3843     3816     4195 
    4788     4880     4415     4145     4108     3747     3304     3287 
    3503     3611     3657     3879     4341     4733     4681     4306 
    4058     4001     3900     3731     3620     3677     3839     3870 
    3811     3990     4433     4779     4753     4436     4060     3674 
    3285     3113     3373     3879     4155     4179     4274     4224 
    3825     3561     3581     3584     3565     3584     3735     4144 
    4445     4360     4261     4405     4572     4384     3769     3356 
    3507     3709     3658     3665     3991     4523     4893     4822 
    4430     3969     3485     3179     3276     3607     4028     4390 
    4340     4037     3962     4002     3888     3802     3904     4077 
    4175     4077     3970     4170     4369     4237     4041     3906 
    3851     3955     3928     3732     3942     4477     4548     4070 
    3573     3304     3364     3681     4018     4376     4695     4712 
    4438     4020     3516     3233     3461     3828     3836     3690 
    3771     3954     3954     3821     3844     4037     4089     3929 
    3786     3838     4043     4210     4297     4372     4336     4094 
    3828     3766     3889     4028     4051     3910     3611     3300 
    3373     3966     4561     4772     4749     4644     4444     4062 
    3596     3437     3661     4001     4372     4735     4885     4646 
    4162     3775     3636     3654     3634     3481     3400     3607 
    3950     4078     3987     3981     4112     4108     3696     3119 
    3019     3380     3634     3801     4202     4671     4837     4610 
    4279     4072     3834     3508     3334     3500     3973     4549 
    4954     4923     4463     3935     3616     3433     3241     3130 
    3350     3898     4363     4428     4293     4283     4279     4086 
    3955     4063     4249     4344     4153     3755     3616     3739 
    3736     3670     3754     3955     4064     3817     3597     4070 
    4780     4855     4384     3979     3871     3805     3616     3655 
    4136     4522     4347     3931     3731     3707     3622     3620 
    3950     4257     4187     4094     4205     4144     3686     3287 
    3495     3969     3986     3627     3489     3726     3925     3812 
    3734     4170     4909     5219     4804     4148     3834     3778 
    3581     3358     3489     3873     4002     3766     3649     3904 
    4191     4247     4236     4342     4472     4492     4344     4081 
    4000     4109     4000     3658     3449     3512     3719     3793 
    3743     3996     4486     4591     4233     3906     3885     3956 
    3808     3522     3431     3566     3757     4081     4515     4592 
    4064     3408     3250     3592     3937     4081     4248     4475 
    4521     4345     4243     4303     4234     4052     4079     4203 
    4120     3932     3843     3819     3726     3655     3866     4213 
    4149     3558     3107     3333     3896     4167     4176     4436 
    4801     4716     4240     3815     3603     3443     3299     3400 
    3728     3960     4044     4217     4498     4554     4153     3690 
    3601     3604     3484     3519     3856     4410     4860     4893 
    4788     4842     4652     3928     3213     3045     3204     3339 
    3550     3940     4288     4364     4247     4205     4153     3730 
    3168     3100     3520     3959     4178     4217     4330     4621 
    4675     4320     3929     3638     3404     3322     3357     3514 
    3889     4364     4715     4826     4607     4131     3794     3802 
    3856     3775     3775     4006     4282     4299     4036     3882 
    4054     4214     4060     3654     3253     3246     3665     4020 
    4140     4280     4464     4540     4459     4320     4245     4153 
    3893     3564     3406     3412     3442     3597     3866     4005 
    4068     4218     4436     4625     4507     4004     3555     3483 
    3667     3923     4108     4141     4170     4361     4504     4379 
    4141     3877     3550     3354     3377     3485     3692     3960 
    4143     4252     4286     4222     4113     3902     3565     3300 
    3325     3638     4091     4536     4866     5053     4990     4602 
    4143     3883     3697     3427     3264     3356     3632     3967 
    4162     4213     4286     4332     4170     3748     3433     3662 
    4122     4255     4120     4082     4261     4247     3715     3202 
    3235     3549     3805     3896     3840     3985     4344     4471 
    4341     4201     4128     4102     4041     3987     4018     3987 
    3858     3784     3815     3908     3977     4047     4291     4500 
    4360     4101     3936     3808     3715     3592     3426     3447 
    3732     4012     4089     4070     4166     4336     4322     4086 
    3946     4128     4293     4108     3878     3929     4050     3944 
    3713     3655     3796     3842     3715     3626     3716     3924 
    4048     4050     4068     4137     4276     4487     4585     4442 
    4152     3777     3392     3213     3339     3620     3813     3885 
    4072     4387     4469     4257     4070     4075     4212     4286 
    4112     3793     3623     3704     3937     4143     4071     3812 
    3743     3808     3726     3658     3852     4168     4348     4398 
    4423     4461     4540     4523     4342     4243     4251     4210 
    4148     4047     3858     3672     3592     3690     3875     3828 
    3580     3510     3532     3357     3194     3267     3487     3757 
    3979     4139     4351     4538     4542     4317     3925     3630 
    3667     3967     4272     4357     4263     4147     3955     3739 
    3736     3874     3919     3927     4036     4171     4120     3873 
    3809     4144     4541     4711     4695     4557     4382     4205 
    3991     3843     3844     3904     3904     3804     3635     3381 
    3192     3349     3682     3854     3913     4018     4129     4113 
    4039     4176     4506     4603     4256     3738     3341     3125 
    3032     3053     3335     3861     4367     4706     4901     4974 
    4837     4364     3766     3505     3619     3696     3639     3721 
    4018     4275     4234     4008     3974     4110     4058     3932 
    4118     4521     4819     4928     4885     4716     4487     4226 
    3879     3445     3063     2898     2991     3233     3523     3866 
    4236     4542     4637     4371     3807     3200     2855     2841 
    2944     3146     3662     4380     4851     4838     4638     4552 
    4440     4180     3973     3983     4137     4266     4260     4264 
    4445     4556     4364     4016     3564     2974     2452     2296 
    2729     3667     4617     5166     5405     5526     5316     4619 
    3796     3318     3272     3327     3277     3300     3414     3458 
    3526     3669     3844     4124     4386     4467     4509     4536 
    4274     3723     3204     2910     2891     3180     3694     4248 
    4629     4708     4587     4440     4256     4018     3855     3820 
    3807     3732     3694     3782     3893     3952     4047     4222 
    4333     4260     4148     4110     4032     3821     3591     3549 
    3731     3919     4001     4090     4151     4104     4089     4229 
    4548     4965     5178     4992     4617     4322     4197     4186 
    4121     3931     3699     3500     3388     3443     3667     3875 
    3985     4072     4078     3925     3645     3369     3295     3380 
    3555     3959     4459     4768     4909     4862     4526     4135 
    3800     3415     3137     3119     3307     3650     4121     4743 
    5491     5871     5421     4486     3612     2890     2242     1780 
    1817     2560     3681     4518     4951     5328     5616     5498 
    4949     4175     3365     2704     2309     2235     2597     3271 
    3898     4475     5128     5580     5544     5044     4261     3559 
    3214     3056     3014     3306     3829     4279     4423     4190 
    3987     4091     4112     3852     3627     3628     3786     3919 
    3952     4083     4392     4545     4345     4054     3892     3932 
    4186     4429     4519     4510     4203     3518     2979     2955 
    3152     3343     3667     4232     4923     5445     5675     5806 
    5751     5067     3788     2560     1875     1638     1684     2134 
    3092     4220     4833     4800     4739     4919     4958     4729 
    4631     4916     5260     5103     4502     4143     4016     3399 
    2313     1548     1471     1804     2242     2851     3870     5071 
    5834     5977     5742     5215     4436     3692     3267     3199 
    3384     3640     3836     4029     4156     4040     3861     3905 
    4095     4240     4290     4318     4492     4764     4893     4884 
    4791     4448     3892     3437     3234     3338     3797     4315 
    4573     4595     4345     3834     3329     2870     2428     2384 
    2916     3642     4222     4536     4557     4411     4163     3812 
    3588     3674     3919     4158     4361     4513     4575     4506 
    4321     4131     4027     3950     3820     3681     3655     3867 
    4183     4398     4630     4893     4846     4413     3893     3423 
    2990     2693     2604     2791     3267     3759     4126     4549 
    4993     5205     5213     5182     5061     4648     3874     3052 
    2596     2430     2269     2336     2907     3592     3993     4217 
    4345     4428     4517     4507     4581     4919     5121     4927 
    4553     4174     3842     3545     3230     3100     3427     3971 
    4249     4230     4149     4062     3969     3974     4132     4321 
    4351     4144     3883     3707     3532     3438     3520     3569 
    3462     3395     3518     3784     3954     3844     3709     3821 
    4052     4248     4361     4283     4031     3861     3991     4419 
    4899     5054     4818     4433     3991     3616     3584     3842 
    4158     4480     4741     4923     5101     5046     4573     4062 
    3823     3703     3558     3357     3121     2990     2952     2891 
    3024     3519     4047     4282     4158     3730     3265     3018 
    3017     3271     3731     4174     4464     4626     4567     4240 
    3915     3856     4048     4256     4243     4063     4067     4353 
    4579     4641     4745     4820     4653     4186     3651     3460 
    3562     3613     3763     4226     4650     4729     4568     4224 
    3735     3211     2816     2872     3474     4190     4596     4708 
    4688     4568     4241     3676     3132     2905     3056     3446 
    3947     4558     5148     5314     4892     4241     3712     3244 
    2849     2887     3384     3869     4110     4195     4212     4213 
    4112     3757     3310     3141     3365     3747     3935     3871 
    3856     3990     4170     4402     4638     4815     4936     4935 
    4808     4664     4473     4202     3948     3758     3642     3682 
    3820     3819     3580     3396     3487     3574     3441     3269 
    3281     3500     3701     3711     3726     3970     4322     4541 
    4621     4693     4781     4773     4594     4356     4075     3650 
    3276     3219     3465     3855     4239     4503     4600     4610 
    4592     4509     4268     3859     3541     3481     3464     3393 
    3400     3435     3443     3501     3681     4008     4270     4224 
    4089     4140     4230     4179     4036     3909     3840     3789 
    3724     3742     3877     3983     3998     4063     4185     4221 
    4144     4035     3998     4002     3966     3985     4087     4117 
    4004     3802     3653     3731     4013     4307     4537     4684 
    4708     4610     4334     3896     3547     3445     3453     3508 
    3666     3856     3955     3919     3775     3623     3600     3739 
    3959     4105     4072     4027     4183     4450     4553     4457 
    4365     4205     3836     3519     3547     3827     4051     4113 
    4210     4434     4549     4402     4180     3983     3732     3500 
    3366     3241     3064     2880     2844     3126     3600     3967 
    4220     4453     4585     4642     4779     4905     4830     4573 
    4226     3933     3877     3932     3923     3991     4198     4401 
    4564     4673     4742     4818     4742     4351     3815     3335 
    2943     2687     2636     2836     3238     3676     4025     4209 
    4249     4224     4244     4367     4360     4108     3815     3592 
    3443     3380     3410     3647     4033     4236     4201     4218 
    4394     4496     4322     4068     4010     4039     3932     3765 
    3726     3843     4036     4176     4167     4070     4001     4039 
    4133     4162     4203     4320     4330     4114     3750     3403 
    3198     3164     3343     3793     4301     4581     4693     4738 
    4629     4387     4131     3898     3753     3701     3669     3658 
    3653     3645     3753     4027     4317     4401     4217     3975 
    3869     3762     3530     3435     3678     4025     4167     4097 
    3991     3929     3823     3574     3381     3495     3758     3963 
    4105     4206     4288     4310     4272     4278     4310     4271 
    4151     3969     3759     3654     3719     3886     4125     4332 
    4375     4348     4329     4194     3874     3581     3524     3634 
    3754     3775     3682     3649     3755     3843     3878     4012 
    4216     4293     4220     4151     4201     4310     4247     3971 
    3754     3746     3866     4008     4095     4183     4303     4287 
    4139     4086     4137     4120     4021     3921     3898     4035 
    4193     4199     4168     4132     4005     3923     3935     3824 
    3601     3518     3640     3843     3973     4031     4163     4276 
    4106     3746     3586     3750     3923     3866     3721     3751 
    3924     3978     3902     3897     3989     4060     4102     4256 
    4591     4874     4887     4749     4577     4270     3824     3422 
    3210     3187     3281     3437     3581     3651     3605     3553 
    3677     3882     3983     3991     3994     4060     4187     4340 
    4461     4496     4379     4054     3754     3732     3834     3931 
    4040     4079     4041     3916     3649     3392     3354     3484 
    3662     3946     4326     4699     4951     4938     4741     4548 
