Origin Time       2025/03/28 03:50:00
Lat.              35.403
Long.             140.360
Depth. (km)       54
Mag.              4.4
Station Code      KNG002
Station Lat.      35.4372
Station Long.     139.6334
Station Height(m) 2
Record Time       2025/03/28 03:51:03
Sampling Freq(Hz) 100Hz
Duration Time(s)  60
Dir.              N-S
Scale Factor      7845(gal)/8223790
Max. Acc. (gal)   3.959
Last Correction   2025/03/28 03:51:02
Memo.             
[...]
   -8490    -8488    -8479    -8457    -8444    -8444    -8449    -8460 
   -8467    -8465    -8452    -8441    -8445    -8451    -8461    -8468 
   -8457    -8448    -8453    -8471    -8486    -8482    -8480    -8491 
   -8494    -8486    -8483    -8492    -8491    -8475    -8461    -8452 
   -8456    -8465    -8457    -8448    -8449    -8449    -8453    -8473 
   -8492    -8492    -8491    -8494    -8495    -8507    -8523    -8513 
   -8492    -8495    -8507    -8513    -8509    -8486    -8471    -8479 
   -8475    -8463    -8463    -8464    -8464    -8469    -8471    -8467 
   -8463    -8461    -8467    -8475    -8473    -8469    -8464    -8468 
   -8479    -8478    -8480    -8488    -8484    -8482    -8488    -8492 
   -8492    -8480    -8472    -8484    -8495    -8484    -8472    -8472 
   -8473    -8463    -8449    -8459    -8472    -8464    -8446    -8442 
   -8456    -8464    -8452    -8445    -8461    -8488    -8487    -8476 
   -8486    -8486    -8475    -8487    -8509    -8515    -8514    -8511 
   -8499    -8491    -8492    -8483    -8465    -8459    -8460    -8457 
   -8451    -8433    -8417    -8422    -8445    -8453    -8444    -8445 
   -8465    -8478    -8472    -8473    -8492    -8495    -8492    -8515 
   -8527    -8506    -8484    -8483    -8491    -8502    -8502    -8482 
   -8472    -8487    -8492    -8484    -8487    -8491    -8491    -8491 
   -8483    -8473    -8479    -8486    -8480    -8471    -8473    -8480 
   -8467    -8452    -8463    -8475    -8472    -8480    -8491    -8479 
   -8476    -8503    -8522    -8518    -8506    -8492    -8480    -8473 
   -8482    -8479    -8452    -8434    -8436    -8440    -8456    -8468 
   -8460    -8449    -8441    -8442    -8448    -8446    -8459    -8478 
   -8468    -8446    -8442    -8453    -8469    -8482    -8479    -8472 
   -8469    -8463    -8452    -8463    -8491    -8496    -8492    -8510 
   -8519    -8505    -8494    -8488    -8480    -8491    -8494    -8468 
   -8451    -8445    -8441    -8448    -8459    -8460    -8452    -8445 
   -8455    -8455    -8440    -8451    -8468    -8460    -8448    -8461 
   -8478    -8480    -8479    -8480    -8491    -8506    -8510    -8509 
   -8506    -8502    -8492    -8488    -8498    -8500    -8490    -8491 
   -8495    -8490    -8484    -8467    -8456    -8471    -8476    -8469 
   -8467    -8463    -8459    -8455    -8463    -8494    -8510    -8496 
   -8487    -8487    -8479    -8479    -8498    -8519    -8533    -8526 
   -8495    -8471    -8459    -8446    -8456    -8472    -8463    -8456 
   -8457    -8445    -8440    -8445    -8441    -8438    -8455    -8467 
   -8453    -8440    -8453    -8465    -8449    -8440    -8459    -8461 
   -8446    -8453    -8460    -8455    -8468    -8484    -8494    -8502 
   -8498    -8496    -8500    -8494    -8494    -8503    -8499    -8494 
   -8510    -8523    -8510    -8488    -8478    -8467    -8453    -8456 
   -8464    -8463    -8451    -8440    -8441    -8446    -8449    -8461 
   -8472    -8472    -8472    -8476    -8480    -8484    -8495    -8499 
   -8488    -8492    -8511    -8502    -8490    -8498    -8486    -8452 
   -8415    -8391    -8397    -8440    -8514    -8577    -8573    -8513 
   -8436    -8367    -8364    -8444    -8557    -8640    -8611    -8478 
   -8355    -8338    -8453    -8629    -8710    -8611    -8409    -8240 
   -8213    -8353    -8575    -8710    -8656    -8499    -8361    -8291 
   -8356    -8554    -8725    -8696    -8459    -8195    -8083    -8154 
   -8352    -8580    -8716    -8733    -8673    -8569    -8469    -8469 
   -8571    -8634    -8579    -8436    -8259    -8154    -8218    -8394 
   -8549    -8631    -8644    -8613    -8591    -8586    -8556    -8510 
   -8472    -8392    -8257    -8183    -8264    -8445    -8590    -8645 
   -8602    -8496    -8482    -8565    -8596    -8536    -8438    -8359 
   -8384    -8519    -8611    -8541    -8364    -8176    -8035    -8060 
   -8291    -8550    -8681    -8698    -8603    -8461    -8432    -8542 
   -8687    -8779    -8753    -8621    -8473    -8397    -8399    -8395 
   -8341    -8286    -8268    -8333    -8518    -8739    -8845    -8780 
   -8602    -8413    -8311    -8322    -8363    -8403    -8472    -8492 
   -8391    -8294    -8286    -8316    -8442    -8679    -8826    -8810 
   -8735    -8596    -8379    -8243    -8268    -8355    -8414    -8388 
   -8263    -8202    -8328    -8549    -8706    -8722    -8669    -8600 
   -8502    -8455    -8480    -8448    -8372    -8361    -8355    -8287 
   -8236    -8317    -8492    -8592    -8598    -8617    -8622    -8591 
   -8594    -8586    -8521    -8478    -8499    -8534    -8518    -8437 
   -8374    -8370    -8378    -8383    -8382    -8357    -8394    -8513 
   -8603    -8603    -8495    -8340    -8341    -8536    -8721    -8756 
   -8613    -8340    -8131    -8141    -8299    -8482    -8673    -8861 
   -8969    -8876    -8556    -8225    -8098    -8168    -8313    -8414 
   -8418    -8359    -8316    -8322    -8349    -8405    -8483    -8526 
   -8576    -8656    -8707    -8756    -8784    -8665    -8422    -8229 
   -8141    -8121    -8225    -8541    -8954    -9204    -9158    -8888 
   -8517    -8187    -8032    -8029    -8077    -8175    -8345    -8480 
   -8467    -8353    -8298    -8370    -8554    -8766    -8856    -8779 
   -8649    -8561    -8509    -8452    -8384    -8295    -8208    -8221 
   -8340    -8457    -8560    -8622    -8563    -8449    -8424    -8517 
   -8661    -8739    -8681    -8546    -8438    -8394    -8413    -8448 
   -8432    -8368    -8280    -8201    -8216    -8343    -8465    -8525 
   -8556    -8594    -8668    -8743    -8719    -8621    -8561    -8473 
   -8301    -8199    -8245    -8321    -8378    -8402    -8360    -8344 
   -8449    -8595    -8665    -8665    -8638    -8541    -8365    -8235 
   -8243    -8361    -8499    -8556    -8519    -8483    -8550    -8711 
   -8822    -8777    -8635    -8463    -8279    -8151    -8137    -8225 
   -8376    -8523    -8611    -8685    -8725    -8637    -8507    -8486 
   -8559    -8600    -8533    -8368    -8186    -8068    -8058    -8162 
   -8364    -8629    -8887    -9057    -9057    -8865    -8580    -8345 
   -8229    -8209    -8197    -8168    -8210    -8334    -8441    -8502 
   -8542    -8536    -8503    -8515    -8564    -8608    -8644    -8669 
   -8654    -8557    -8405    -8268    -8199    -8236    -8379    -8538 
   -8634    -8633    -8529    -8368    -8240    -8201    -8260    -8391 
   -8527    -8610    -8649    -8672    -8614    -8449    -8314    -8324 
   -8430    -8530    -8561    -8509    -8441    -8444    -8488    -8517 
   -8532    -8556    -8572    -8541    -8473    -8399    -8294    -8214 
   -8280    -8468    -8631    -8699    -8687    -8638    -8617    -8638 
   -8625    -8554    -8515    -8532    -8529    -8484    -8422    -8363 
   -8336    -8337    -8356    -8433    -8537    -8569    -8521    -8432 
   -8353    -8333    -8341    -8332    -8314    -8333    -8409    -8495 
   -8537    -8557    -8613    -8653    -8606    -8523    -8492    -8517 
   -8561    -8586    -8553    -8444    -8306    -8182    -8081    -8059 
   -8158    -8316    -8487    -8633    -8685    -8646    -8621    -8667 
   -8729    -8726    -8633    -8487    -8371    -8337    -8357    -8347 
   -8305    -8305    -8353    -8442    -8561    -8623    -8600    -8563 
   -8573    -8641    -8729    -8810    -8873    -8896    -8870    -8808 
   -8706    -8568    -8405    -8232    -8100    -8035    -8054    -8179 
   -8334    -8392    -8345    -8237    -8141    -8155    -8267    -8386 
   -8465    -8484    -8464    -8469    -8492    -8494    -8483    -8529 
   -8648    -8734    -8718    -8638    -8532    -8428    -8363    -8333 
   -8341    -8371    -8371    -8367    -8394    -8419    -8479    -8629 
   -8780    -8835    -8818    -8769    -8726    -8695    -8635    -8534 
   -8411    -8306    -8282    -8336    -8405    -8451    -8418    -8289 
   -8179    -8183    -8247    -8330    -8425    -8457    -8413    -8419 
   -8514    -8575    -8550    -8503    -8479    -8523    -8648    -8752 
   -8742    -8638    -8507    -8399    -8333    -8293    -8268    -8274 
   -8334    -8459    -8536    -8490    -8433    -8480    -8596    -8681 
   -8658    -8554    -8499    -8557    -8630    -8630    -8596    -8561 
   -8522    -8523    -8561    -8552    -8468    -8410    -8434    -8424 
   -8255    -8009    -7844    -7821    -7965    -8205    -8398    -8533 
   -8649    -8723    -8789    -8858    -8857    -8762    -8621    -8502 
   -8487    -8571    -8669    -8710    -8653    -8538    -8441    -8355 
   -8263    -8236    -8301    -8406    -8526    -8637    -8700    -8733 
   -8741    -8676    -8525    -8370    -8289    -8263    -8274    -8302 
   -8313    -8353    -8469    -8592    -8645    -8633    -8583    -8511 
   -8438    -8356    -8294    -8301    -8328    -8355    -8402    -8444 
   -8473    -8478    -8417    -8325    -8293    -8336    -8374    -8387 
   -8434    -8484    -8507    -8533    -8519    -8449    -8424    -8475 
   -8523    -8521    -8486    -8464    -8506    -8606    -8687    -8684 
   -8656    -8692    -8741    -8727    -8691    -8660    -8630    -8621 
   -8595    -8500    -8386    -8290    -8201    -8155    -8168    -8190 
   -8191    -8201    -8249    -8343    -8440    -8519    -8545    -8491 
   -8434    -8479    -8581    -8672    -8739    -8757    -8730    -8699 
   -8644    -8568    -8510    -8483    -8453    -8390    -8328    -8334 
   -8424    -8506    -8522    -8518    -8482    -8387    -8298    -8256 
   -8256    -8290    -8351    -8448    -8545    -8575    -8549    -8483 
   -8367    -8283    -8276    -8293    -8353    -8469    -8564    -8606 
   -8610    -8599    -8635    -8711    -8733    -8679    -8583    -8476 
   -8417    -8405    -8403    -8422    -8463    -8488    -8459    -8432 
   -8478    -8499    -8433    -8379    -8355    -8329    -8382    -8505 
   -8567    -8565    -8568    -8554    -8556    -8607    -8649    -8614 
   -8515    -8441    -8413    -8405    -8438    -8484    -8506    -8510 
   -8468    -8387    -8343    -8333    -8345    -8428    -8523    -8544 
   -8507    -8464    -8487    -8602    -8692    -8654    -8505    -8329 
   -8228    -8210    -8256    -8351    -8440    -8488    -8495    -8428 
   -8316    -8295    -8414    -8541    -8583    -8565    -8532    -8518 
   -8538    -8541    -8499    -8478    -8519    -8594    -8652    -8626 
   -8523    -8442    -8405    -8370    -8334    -8311    -8299    -8307 
   -8334    -8384    -8467    -8529    -8522    -8503    -8544    -8627 
   -8691    -8687    -8608    -8500    -8418    -8365    -8343    -8405 
   -8521    -8603    -8653    -8680    -8650    -8611    -8610    -8549 
   -8374    -8216    -8198    -8286    -8384    -8425    -8394    -8343 
   -8325    -8314    -8303    -8351    -8441    -8495    -8515    -8573 
   -8672    -8743    -8768    -8748    -8694    -8662    -8664    -8631 
   -8560    -8519    -8510    -8499    -8510    -8514    -8469    -8452 
   -8487    -8471    -8374    -8280    -8266    -8340    -8457    -8552 
   -8576    -8537    -8490    -8451    -8379    -8293    -8229    -8185 
   -8162    -8151    -8128    -8137    -8195    -8276    -8411    -8611 
   -8768    -8793    -8718    -8631    -8592    -8595    -8575    -8490 
   -8409    -8426    -8494    -8533    -8575    -8646    -8694    -8671 
   -8572    -8449    -8394    -8429    -8517    -8637    -8731    -8733 
   -8692    -8680    -8683    -8669    -8607    -8479    -8334    -8220 
   -8166    -8175    -8185    -8160    -8136    -8167    -8256    -8324 
   -8357    -8401    -8446    -8483    -8495    -8475    -8492    -8577 
   -8630    -8599    -8549    -8515    -8496    -8521    -8584    -8619 
   -8586    -8541    -8519    -8465    -8370    -8274    -8190    -8131 
   -8121    -8163    -8240    -8351    -8455    -8503    -8514    -8534 
   -8577    -8634    -8680    -8696    -8667    -8568    -8415    -8275 
   -8183    -8129    -8132    -8189    -8218    -8213    -8224    -8240 
   -8239    -8197    -8118    -8079    -8114    -8166    -8216    -8294 
   -8407    -8519    -8560    -8511    -8434    -8383    -8384    -8488 
   -8683    -8901    -9135    -9373    -9533    -9607    -9649    -9664 
   -9652    -9616    -9537    -9437    -9337    -9202    -9016    -8841 
   -8719    -8621    -8437    -8102    -7712    -7403    -7213    -7119 
   -7096    -7133    -7238    -7453    -7796    -8201    -8590    -8923 
   -9180    -9332    -9336    -9211    -9031    -8884    -8900    -9139 
   -9509    -9886   -10176   -10268   -10099    -9721    -9232    -8726 
   -8284    -7958    -7771    -7723    -7790    -7946    -8113    -8217 
   -8240    -8151    -7886    -7461    -6960    -6474    -6073    -5821 
   -5733    -5809    -6048    -6427    -6943    -7616    -8345    -8985 
   -9485    -9794    -9872    -9768    -9555    -9246    -8869    -8526 
   -8275    -8083    -7975    -8044    -8305    -8700    -9186    -9671 
  -10057   -10322   -10392   -10188    -9787    -9306    -8842    -8467 
   -8237    -8202    -8297    -8414    -8494    -8499    -8482    -8567 
   -8804    -9094    -9288    -9281    -8989    -8433    -7785    -7177 
   -6677    -6370    -6305    -6494    -6967    -7643    -8370    -9049 
   -9513    -9598    -9369    -9022    -8689    -8407    -8210    -8145 
   -8199    -8371    -8669    -8973    -9117    -9072    -8905    -8745 
   -8752    -9000    -9418    -9910   -10397   -10759   -10890   -10783 
  -10480   -10006    -9382    -8591    -7627    -6612    -5756    -5148 
   -4727    -4449    -4324    -4448    -5016    -6022    -7183    -8251 
   -9159    -9906   -10474   -10771   -10669   -10216    -9655    -9205 
   -8978    -8985    -9144    -9340    -9532    -9730    -9832    -9695 
   -9417    -9157    -8920    -8694    -8456    -8206    -8047    -8032 
   -8148    -8365    -8552    -8596    -8499    -8262    -7896    -7500 
   -7221    -7155    -7261    -7453    -7689    -7933    -8186    -8456 
   -8668    -8748    -8681    -8529    -8379    -8260    -8182    -8181 
   -8262    -8399    -8565    -8768    -9035    -9296    -9458    -9510 
   -9482    -9378    -9189    -8951    -8729    -8537    -8349    -8140 
   -7886    -7604    -7384    -7312    -7469    -7879    -8429    -8978 
   -9460    -9823   -10053   -10106    -9863    -9313    -8586    -7828 
   -7217    -6853    -6693    -6697    -6870    -7133    -7385    -7616 
   -7847    -8067    -8305    -8618    -8997    -9391    -9722    -9872 
   -9803    -9616    -9427    -9279    -9146    -8962    -8689    -8376 
   -8171    -8163    -8284    -8403    -8432    -8383    -8347    -8367 
   -8406    -8432    -8486    -8623    -8775    -8803    -8634    -8275 
   -7866    -7623    -7666    -8006    -8572    -9177    -9633    -9861 
   -9846    -9607    -9200    -8695    -8175    -7703    -7308    -6974 
   -6691    -6551    -6601    -6767    -7038    -7437    -7881    -8336 
   -8827    -9266    -9559    -9756    -9879    -9869    -9715    -9466 
   -9215    -9055    -8970    -8888    -8773    -8608    -8388    -8191 
   -8117    -8166    -8259    -8322    -8347    -8352    -8317    -8262 
   -8241    -8251    -8268    -8279    -8256    -8218    -8176    -8094 
   -7982    -7909    -7919    -7996    -8136    -8357    -8625    -8896 
   -9143    -9358    -9580    -9768    -9807    -9675    -9408    -9027 
   -8553    -8028    -7593    -7395    -7453    -7722    -8089    -8432 
   -8703    -8873    -8947    -8988    -8991    -8915    -8799    -8668 
   -8526    -8411    -8295    -8116    -7920    -7798    -7759    -7774 
   -7808    -7823    -7800    -7749    -7707    -7744    -7921    -8186 
   -8421    -8604    -8780    -8946    -9069    -9120    -9111    -9080 
   -9049    -8992    -8878    -8756    -8683    -8629    -8583    -8622 
   -8779    -9012    -9262    -9436    -9468    -9386    -9219    -8962 
   -8618    -8176    -7682    -7242    -6886    -6604    -6451    -6467 
   -6662    -7030    -7488    -7928    -8303    -8613    -8884    -9136 
   -9309    -9367    -9350    -9251    -9062    -8854    -8714    -8689 
   -8760    -8888    -9049    -9169    -9192    -9165    -9135    -9116 
   -9109    -9099    -9103    -9112    -9049    -8908    -8788    -8729 
   -8671    -8579    -8465    -8322    -8147    -7978    -7847    -7731 
   -7604    -7519    -7539    -7620    -7715    -7811    -7875    -7879 
   -7838    -7776    -7685    -7564    -7437    -7315    -7242    -7295 
   -7450    -7666    -7952    -8253    -8468    -8634    -8856    -9134 
   -9460    -9864   -10261   -10555   -10756   -10816   -10694   -10481 
  -10249   -10054    -9953    -9857    -9620    -9228    -8795    -8397 
   -8058    -7811    -7646    -7493    -7319    -7115    -6867    -6583 
   -6322    -6129    -6003    -5991    -6149    -6454    -6876    -7387 
   -7927    -8436    -8888    -9304    -9709   -10087   -10385   -10546 
  -10511   -10289    -9990    -9703    -9447    -9275    -9217    -9182 
   -9100    -8974    -8818    -8658    -8530    -8463    -8429    -8386 
   -8360    -8341    -8256    -8094    -7865    -7585    -7346    -7223 
   -7214    -7304    -7453    -7592    -7676    -7701    -7732    -7809 
   -7878    -7960    -8116    -8275    -8424    -8590    -8694    -8734 
   -8806    -8928    -9120    -9367    -9575    -9659    -9613    -9521 
   -9459    -9441    -9471    -9466    -9331    -9086    -8764    -8422 
   -8159    -8000    -7924    -7890    -7857    -7842    -7890    -8019 
   -8193    -8365    -8483    -8534    -8569    -8583    -8557    -8490 
   -8314    -8078    -7904    -7811    -7848    -8066    -8363    -8610 
   -8764    -8856    -8935    -9019    -9070    -9057    -9003    -8905 
   -8777    -8676    -8600    -8541    -8488    -8388    -8241    -8106 
   -8035    -8054    -8122    -8195    -8259    -8307    -8351    -8387 
   -8383    -8318    -8218    -8145    -8133    -8151    -8159    -8158 
   -8127    -8041    -7932    -7854    -7825    -7870    -8005    -8190 
   -8382    -8556    -8683    -8804    -8989    -9192    -9346    -9468 
   -9532    -9517    -9456    -9370    -9329    -9358    -9352    -9329 
   -9373    -9414    -9386    -9278    -9055    -8733    -8371    -8013 
   -7697    -7439    -7272    -7211    -7246    -7380    -7572    -7765 
   -7917    -7985    -8000    -8027    -8071    -8141    -8195    -8129 
   -7936    -7728    -7580    -7497    -7518    -7646    -7807    -7979 
   -8170    -8355    -8559    -8807    -9054    -9228    -9312    -9323 
   -9273    -9205    -9121    -8999    -8884    -8762    -8596    -8448 
   -8329    -8218    -8151    -8144    -8154    -8185    -8272    -8390 
   -8526    -8703    -8876    -9003    -9062    -9020    -8895    -8765 
   -8704    -8731    -8799    -8905    -9094    -9298    -9424    -9467 
   -9413    -9221    -8935    -8640    -8370    -8141    -7985    -7933 
   -7994    -8144    -8311    -8446    -8544    -8586    -8603    -8631 
   -8625    -8581    -8513    -8426    -8397    -8445    -8529    -8598 
   -8590    -8541    -8527    -8530    -8545    -8560    -8554    -8545 
   -8526    -8503    -8503    -8505    -8476    -8409    -8272    -8101 
   -7963    -7852    -7759    -7716    -7704    -7712    -7777    -7854 
   -7866    -7803    -7661    -7489    -7384    -7352    -7379    -7454 
   -7531    -7591    -7672    -7821    -8019    -8228    -8486    -8785 
   -9063    -9337    -9586    -9717    -9741    -9728    -9695    -9651 
