Origin Time       2025/03/28 03:50:00
Lat.              35.403
Long.             140.360
Depth. (km)       54
Mag.              4.4
Station Code      KNG007
Station Lat.      35.3382
Station Long.     139.4926
Station Height(m) 10
Record Time       2025/03/28 03:51:05
Sampling Freq(Hz) 100Hz
Duration Time(s)  60
Dir.              U-D
Scale Factor      7845(gal)/8223790
Max. Acc. (gal)   1.108
Last Correction   2025/03/28 03:51:05
Memo.             
   13383    13435    13456    13460    13439    13381    13369    13459 
   13521    13428    13319    13393    13545    13506    13327    13308 
   13490    13572    13414    13277    13377    13536    13506    13365 
   13343    13435    13485    13460    13417    13377    13375    13444 
   13510    13456    13339    13347    13494    13548    13404    13289 
   13398    13554    13493    13319    13321    13487    13541    13410 
   13325    13406    13497    13470    13412    13398    13400    13419 
   13478    13491    13390    13321    13432    13567    13489    13296 
   13304    13513    13582    13400    13266    13396    13564    13505 
   13333    13331    13470    13516    13433    13371    13392    13437 
   13467    13473    13424    13358    13386    13506    13529    13379 
   13286    13421    13576    13497    13306    13316    13502    13566 
   13419    13302    13400    13529    13490    13378    13363    13421 
   13460    13468    13440    13381    13369    13448    13522    13458 
   13329    13344    13497    13545    13393    13285    13417    13579 
   13505    13308    13312    13505    13567    13417    13304    13387 
   13508    13490    13409    13374    13397    13444    13479    13456 
   13374    13335    13429    13539    13470    13311    13331    13509 
   13559    13394    13284    13401    13539    13486    13356    13351 
   13454    13493    13436    13387    13400    13428    13452    13466 
   13424    13362    13394    13502    13509    13371    13297    13425 
   13566    13483    13302    13323    13500    13537    13389    13311 
   13420    13517    13459    13369    13383    13448    13458    13435 
   13424    13394    13375    13440    13510    13451    13338    13363 
   13508    13531    13371    13293    13437    13559    13460    13320 
   13360    13486    13486    13392    13375    13437    13458    13429 
   13419    13419    13408    13421    13467    13464    13379    13348 
   13463    13549    13441    13296    13360    13540    13532    13348 
   13301    13462    13548    13436    13342    13406    13487    13448 
   13387    13417    13462    13433    13406    13436    13440    13398 
   13417    13490    13471    13360    13347    13475    13539    13424 
   13321    13396    13513    13481    13366    13369    13466    13477 
   13404    13392    13439    13441    13416    13427    13450    13432 
   13405    13431    13462    13424    13375    13419    13500    13473 
   13366    13359    13471    13513    13406    13343    13435    13505 
   13431    13350    13402    13487    13460    13390    13409    13462 
   13435    13387    13423    13459    13419    13385    13433    13466 
   13405    13367    13446    13514    13436    13332    13385    13509 
   13500    13371    13338    13451    13508    13433    13379    13421 
   13460    13436    13408    13419    13431    13416    13420    13450 
   13441    13397    13405    13470    13471    13378    13358    13466 
   13513    13405    13319    13408    13528    13475    13340    13352 
   13485    13505    13397    13359    13432    13470    13427    13413 
   13439    13425    13405    13444    13482    13427    13352    13405 
   13513    13485    13352    13346    13486    13533    13404    13315 
   13414    13527    13464    13354    13370    13454    13463    13420 
   13402    13410    13423    13440    13463    13436    13365    13382 
   13489    13509    13389    13316    13432    13554    13471    13323 
   13362    13518    13520    13367    13321    13448    13525    13437 
   13356    13397    13452    13447    13435    13435    13401    13385 
   13448    13504    13441    13343    13401    13562    13564    13393 
   13328    13489    13621    13518    13374    13436    13598    13614 
   13513    13493    13575    13633    13612    13528    13406    13294 
   13244    13225    13153    13053    13074    13252    13401    13390 
   13370    13505    13616    13448    13135    13011    13123    13216 
   13150    13108    13289    13593    13810    13913    13949    13884 
   13678    13359    13053    12939    13100    13451    13783    13815 
   13525    13315    13443    13608    13508    13406    13628    13852 
   13629    13158    12945    13117    13335    13259    13073    13186 
   13545    13724    13545    13308    13448    14004    14419    14048 
   13003    12266    12590    13508    13926    13582    13220    13355 
   13725    13896    13756    13535    13481    13462    13315    13248 
   13281    13192    13085    13045    13011    13158    13541    13852 
   13855    13574    13228    13182    13486    13734    13774    13813 
   13743    13306    12819    12808    13185    13567    13786    13813 
   13803    13768    13455    13051    12993    13186    13370    13516 
   13517    13354    13377    13729    13957    13702    13306    13275 
   13513    13533    13113    12633    12695    13246    13695    13852 
   13909    13882    13730    13535    13298    13020    12823    12874 
   13213    13593    13755    13790    13838    13736    13423    13242 
   13348    13421    13240    13011    13061    13486    13909    13778 
   13252    13055    13261    13482    13697    13861    13706    13328 
   13146    13306    13522    13478    13305    13243    13188    13109 
   13182    13363    13464    13495    13598    13733    13738    13610 
   13446    13373    13396    13263    12996    13081    13589    13937 
   13844    13641    13635    13747    13713    13441    13082    12908 
   13109    13535    13784    13626    13319    13370    13687    13643 
   13198    12931    13045    13294    13464    13456    13369    13339 
   13271    13178    13306    13539    13489    13266    13274    13473 
   13593    13637    13594    13356    13146    13294    13720    14002 
   13865    13509    13362    13512    13651    13555    13335    13263 
   13371    13405    13282    13244    13311    13248    13167    13281 
   13414    13459    13520    13537    13446    13336    13261    13216 
   13252    13382    13539    13666    13655    13491    13464    13698 
   13806    13502    13167    13254    13581    13733    13640    13466 
   13340    13281    13258    13250    13220    13225    13360    13522 
   13548    13458    13325    13247    13342    13448    13371    13336 
   13485    13543    13441    13440    13570    13585    13446    13451 
   13740    13963    13763    13305    13011    13049    13240    13359 
   13378    13382    13402    13486    13674    13730    13443    13123 
   13142    13286    13203    13055    13185    13450    13518    13462 
   13527    13664    13674    13541    13420    13439    13528    13466 
   13270    13209    13355    13556    13730    13772    13560    13286 
   13259    13413    13448    13359    13440    13725    13880    13720 
   13425    13209    13058    12969    13057    13251    13328    13297 
   13377    13625    13883    13959    13743    13405    13257    13313 
   13375    13348    13235    13138    13266    13625    13805    13554 
   13250    13343    13655    13660    13277    12965    13063    13377 
   13610    13729    13652    13360    13188    13338    13563    13624 
   13505    13292    13174    13236    13355    13495    13617    13556 
   13375    13373    13587    13653    13374    13085    13146    13433 
   13643    13686    13641    13556    13425    13333    13352    13359 
   13269    13211    13319    13531    13618    13498    13362    13356 
   13420    13473    13482    13392    13223    13153    13323    13633 
   13763    13552    13289    13270    13366    13352    13277    13294 
   13423    13570    13672    13726    13662    13444    13225    13189 
   13313    13462    13564    13613    13572    13441    13354    13447 
   13612    13571    13323    13181    13265    13340    13323    13400 
   13582    13701    13693    13564    13350    13188    13167    13234 
   13290    13274    13259    13423    13699    13767    13555    13382 
   13443    13529    13439    13297    13301    13408    13428    13367 
   13454    13705    13845    13706    13389    13140    13155    13356 
   13524    13516    13338    13194    13323    13576    13574    13325 
   13204    13292    13319    13220    13228    13396    13537    13591 
   13662    13749    13680    13390    13100    13070    13298    13541 
   13603    13491    13367    13410    13574    13587    13371    13203 
   13323    13598    13670    13420    13250    13521    13875    13741 
   13236    12949    13132    13506    13657    13467    13192    13126 
   13286    13482    13537    13444    13369    13429    13504    13468 
   13443    13505    13556    13529    13448    13433    13579    13698 
   13518    13205    13158    13336    13436    13425    13458    13517 
   13485    13413    13342    13182    13019    13078    13362    13643 
   13747    13659    13497    13385    13306    13282    13377    13444 
   13342    13271    13441    13659    13682    13566    13467    13495 
   13639    13728    13651    13494    13324    13155    13084    13078 
   13046    13120    13419    13740    13803    13595    13333    13201 
   13234    13324    13412    13528    13578    13485    13463    13637 
   13748    13591    13316    13174    13266    13504    13714    13751 
   13612    13466    13439    13489    13510    13401    13257    13323 
   13571    13687    13564    13362    13221    13169    13185    13259 
   13366    13452    13536    13602    13509    13227    12982    13032 
   13397    13775    13848    13641    13412    13359    13497    13625 
   13498    13143    12945    13220    13736    13892    13491    12989 
   12830    13041    13402    13626    13605    13535    13490    13375 
   13335    13456    13455    13274    13265    13490    13694    13744 
   13599    13286    13051    13122    13435    13744    13768    13474 
   13242    13344    13508    13423    13204    13119    13248    13431 
   13502    13501    13527    13585    13663    13732    13643    13367 
   13182    13266    13410    13396    13285    13243    13294    13335 
   13374    13473    13559    13614    13699    13736    13621    13433 
   13367    13529    13718    13585    13193    12972    13089    13350 
   13585    13694    13582    13365    13270    13369    13575    13686 
   13562    13379    13351    13398    13408    13448    13582    13683 
   13514    13128    12904    12955    13072    13205    13427    13589 
   13481    13265    13305    13589    13815    13855    13713    13416 
   13155    13149    13340    13500    13513    13431    13366    13405 
   13497    13521    13532    13602    13621    13524    13433    13401 
   13304    13180    13289    13655    13965    13956    13645    13238 
   12970    13000    13281    13545    13522    13279    13170    13321 
   13528    13603    13560    13508    13405    13177    13050    13267 
   13555    13543    13351    13278    13428    13724    13899    13740 
   13408    13223    13250    13362    13423    13340    13194    13174 
   13342    13512    13489    13417    13483    13567    13575    13585 
   13563    13423    13269    13285    13432    13478    13328    13163 
   13213    13474    13697    13707    13590    13514    13528    13549 
   13494    13373    13262    13252    13385    13571    13644    13601 
   13560    13506    13379    13273    13297    13354    13254    13068 
   13062    13258    13405    13377    13309    13343    13474    13621 
   13676    13562    13328    13162    13215    13417    13545    13509 
   13522    13695    13734    13533    13393    13440    13514    13495 
   13367    13255    13270    13312    13311    13404    13597    13652 
   13527    13431    13435    13443    13437    13432    13315    13130 
   13176    13508    13765    13649    13298    13134    13306    13497 
   13466    13413    13564    13763    13726    13450    13204    13227 
   13440    13570    13537    13460    13383    13320    13306    13267 
   13181    13204    13392    13564    13608    13618    13652    13579 
   13336    13166    13313    13585    13595    13300    13007    13069 
   13482    13807    13714    13405    13252    13321    13443    13500 
   13444    13362    13466    13706    13714    13477    13397    13513 
   13508    13369    13319    13365    13373    13296    13219    13251 
   13348    13414    13439    13444    13485    13509    13374    13178 
   13204    13459    13660    13664    13535    13331    13190    13290 
   13510    13558    13471    13536    13724    13740    13518    13339 
   13404    13551    13581    13485    13378    13352    13390    13404 
   13340    13277    13360    13514    13450    13174    13009    13124 
   13416    13608    13500    13320    13366    13493    13456    13373 
   13463    13635    13628    13433    13335    13508    13695    13614 
   13383    13262    13325    13487    13624    13618    13486    13382 
   13421    13485    13413    13352    13527    13726    13583    13201 
   13041    13227    13401    13306    13097    13072    13343    13710 
   13849    13680    13425    13305    13358    13433    13371    13225 
   13134    13157    13313    13529    13652    13599    13377    13127 
   13161    13551    13842    13689    13404    13405    13601    13691 
   13551    13297    13223    13423    13629    13655    13533    13317 
   13159    13204    13301    13285    13323    13579    13871    13918 
   13707    13450    13281    13177    13120    13163    13309    13417 
   13369    13301    13425    13637    13653    13444    13304    13466 
   13757    13813    13545    13213    13095    13252    13493    13583 
   13495    13413    13481    13589    13517    13278    13092    13100 
   13243    13379    13448    13466    13455    13451    13528    13705 
   13803    13635    13358    13247    13265    13257    13220    13142 
   13003    12977    13205    13559    13733    13620    13502    13639 
   13865    13907    13784    13617    13389    13132    12987    13032 
   13208    13371    13410    13333    13286    13356    13482    13656 
   13855    13886    13716    13564    13473    13317    13138    13027 
   13003    13027    13028    13049    13180    13339    13417    13494 
   13633    13725    13741    13795    13868    13841    13697    13551 
   13548    13689    13745    13590    13420    13382    13385    13397 
   13423    13327    13120    13105    13387    13693    13778    13637 
   13475    13455    13452    13316    13127    12997    12933    12943 
   13036    13181    13328    13374    13348    13467    13728    13822 
   13655    13466    13394    13479    13706    13787    13521    13151 
   12977    13031    13132    13103    12977    12965    13126    13308 
   13466    13626    13765    13929    14110    14152    14064    14002 
   13933    13815    13682    13466    13238    13184    13221    13167 
   13092    13099    13097    13030    12996    13105    13346    13556 
   13629    13616    13568    13477    13331    13185    13150    13232 
   13311    13335    13340    13363    13454    13593    13705    13776 
   13813    13813    13791    13755    13755    13857    13963    13852 
   13475    13076    12968    13158    13265    13049    12787    12808 
   13055    13244    13205    13089    13176    13462    13651    13568 
   13366    13324    13517    13707    13655    13428    13313    13416 
   13524    13444    13311    13344    13518    13693    13830    13960 
   14067    14049    13856    13624    13552    13643    13659    13404 
   12988    12731    12785    13001    13167    13242    13336    13516 
   13630    13485    13219    13201    13433    13533    13397    13311 
   13425    13563    13547    13424    13346    13356    13373    13302 
   13176    13193    13450    13721    13743    13528    13339    13382 
   13506    13383    12997    12702    12746    12988    13147    13167 
   13223    13397    13529    13441    13254    13288    13574    13832 
   13909    13898    13909    13977    14071    14083    14004    13942 
   13921    13856    13690    13514    13485    13589    13645    13528 
   13332    13234    13193    13086    12949    12860    12788    12703 
   12664    12749    12977    13227    13365    13385    13378    13439 
   13568    13697    13726    13605    13501    13589    13741    13763 
   13745    13861    13972    13869    13586    13313    13212    13220 
   13170    13135    13270    13447    13485    13419    13331    13331 
   13451    13486    13306    13059    12931    12995    13184    13316 
   13304    13325    13477    13536    13410    13331    13446    13662 
   13795    13722    13548    13513    13614    13662    13601    13471 
   13328    13261    13270    13243    13176    13144    13149    13167 
   13215    13312    13508    13779    13950    13940    13946    14084 
   14143    13923    13539    13247    13113    13004    12837    12723 
   12804    13007    13158    13240    13308    13397    13525    13616 
   13556    13381    13244    13215    13197    13136    13132    13284 
   13512    13651    13676    13772    14002    14165    14150    14098 
   14141    14224    14192    14050    13949    13934    13905    13736 
   13414    13030    12730    12629    12664    12637    12503    12437 
   12576    12820    12982    13055    13147    13223    13216    13216 
   13301    13414    13512    13622    13745    13815    13787    13697 
   13636    13649    13683    13674    13637    13614    13640    13743 
   13875    13906    13765    13572    13490    13497    13452    13319 
   13216    13242    13308    13255    13143    13131    13178    13207 
   13239    13270    13267    13244    13221    13196    13174    13163 
   13166    13200    13262    13373    13552    13670    13575    13377 
   13329    13505    13711    13720    13574    13547    13740    13950 
   13983    13875    13782    13767    13803    13830    13784    13674 
   13552    13447    13369    13300    13239    13207    13161    13034 
   12888    12852    12937    13062    13134    13159    13224    13281 
   13248    13228    13346    13494    13501    13400    13305    13312 
   13441    13552    13529    13460    13481    13547    13531    13441 
   13400    13477    13587    13576    13421    13259    13262    13458 
   13635    13606    13493    13489    13549    13576    13554    13452 
   13309    13209    13120    13023    13065    13285    13464    13485 
   13501    13632    13767    13756    13630    13531    13587    13818 
   14046    14073    13941    13915    14022    13973    13740    13590 
   13590    13575    13446    13252    13108    13028    12933    12826 
   12772    12758    12781    12810    12753    12626    12580    12681 
   12857    13019    13116    13180    13277    13360    13390    13467 
   13622    13722    13701    13676    13783    14022    14250    14305 
   14212    14104    14038    13981    13837    13572    13346    13332 
   13446    13458    13333    13224    13243    13324    13296    13138 
   13059    13158    13252    13216    13158    13166    13190    13165 
   13120    13166    13343    13522    13595    13621    13707    13888 
   14058    14030    13814    13672    13775    13967    13965    13713 
   13455    13413    13481    13437    13292    13169    13080    12996 
   12924    12862    12830    12829    12811    12815    12943    13181 
