Origin Time       2025/03/28 03:50:00
Lat.              35.403
Long.             140.360
Depth. (km)       54
Mag.              4.4
Station Code      KNG003
Station Lat.      35.2731
Station Long.     139.6582
Station Height(m) 25
Record Time       2025/03/28 03:51:01
Sampling Freq(Hz) 100Hz
Duration Time(s)  60
Dir.              N-S
Scale Factor      7845(gal)/8223790
Max. Acc. (gal)   2.399
Last Correction   2025/03/28 03:51:02
Memo.             
[...]
   -7361    -7360    -7362    -7362    -7356    -7356    -7362    -7365 
   -7360    -7357    -7358    -7358    -7356    -7361    -7371    -7366 
   -7352    -7354    -7368    -7362    -7352    -7360    -7366    -7360 
   -7357    -7361    -7360    -7361    -7364    -7362    -7362    -7366 
   -7362    -7361    -7366    -7364    -7354    -7361    -7366    -7357 
   -7354    -7365    -7366    -7358    -7358    -7361    -7361    -7358 
   -7360    -7364    -7362    -7357    -7361    -7365    -7360    -7353 
   -7357    -7369    -7369    -7360    -7357    -7364    -7364    -7360 
   -7364    -7365    -7362    -7360    -7362    -7361    -7361    -7361 
   -7360    -7365    -7369    -7361    -7356    -7364    -7365    -7356 
   -7358    -7368    -7368    -7364    -7364    -7364    -7362    -7358 
   -7361    -7369    -7366    -7358    -7360    -7361    -7358    -7361 
   -7362    -7360    -7361    -7366    -7365    -7360    -7358    -7358 
   -7361    -7362    -7362    -7365    -7364    -7357    -7356    -7362 
   -7361    -7358    -7361    -7361    -7358    -7360    -7360    -7360 
   -7357    -7361    -7369    -7365    -7361    -7362    -7362    -7365 
   -7365    -7360    -7353    -7357    -7362    -7358    -7360    -7362 
   -7360    -7361    -7362    -7357    -7358    -7365    -7366    -7360 
   -7357    -7358    -7360    -7362    -7358    -7354    -7361    -7366 
   -7358    -7352    -7358    -7361    -7356    -7358    -7364    -7358 
   -7358    -7364    -7361    -7358    -7356    -7356    -7362    -7366 
   -7357    -7350    -7358    -7361    -7357    -7360    -7361    -7358 
   -7360    -7362    -7362    -7357    -7356    -7365    -7371    -7360 
   -7358    -7364    -7357    -7357    -7365    -7361    -7357    -7358 
   -7361    -7362    -7358    -7357    -7361    -7366    -7361    -7357 
   -7361    -7364    -7362    -7361    -7360    -7358    -7360    -7362 
   -7364    -7362    -7360    -7361    -7366    -7365    -7362    -7361 
   -7360    -7362    -7361    -7354    -7360    -7372    -7368    -7358 
   -7365    -7369    -7360    -7361    -7368    -7362    -7357    -7361 
   -7366    -7362    -7360    -7366    -7365    -7360    -7360    -7364 
   -7365    -7364    -7361    -7361    -7362    -7361    -7357    -7364 
   -7366    -7354    -7360    -7372    -7364    -7356    -7360    -7362 
   -7358    -7358    -7358    -7360    -7362    -7360    -7360    -7364 
   -7362    -7358    -7365    -7366    -7360    -7358    -7360    -7357 
   -7354    -7360    -7362    -7361    -7360    -7361    -7361    -7364 
   -7366    -7361    -7356    -7358    -7362    -7357    -7361    -7371 
   -7361    -7352    -7356    -7360    -7358    -7358    -7361    -7366 
   -7362    -7353    -7361    -7369    -7360    -7357    -7365    -7362 
   -7358    -7360    -7358    -7361    -7362    -7357    -7357    -7361 
   -7361    -7361    -7361    -7361    -7360    -7361    -7364    -7361 
   -7357    -7362    -7365    -7358    -7356    -7364    -7364    -7361 
   -7368    -7368    -7362    -7364    -7361    -7358    -7366    -7366 
   -7357    -7362    -7361    -7352    -7362    -7371    -7361    -7357 
   -7364    -7366    -7362    -7358    -7362    -7364    -7357    -7358 
   -7366    -7366    -7364    -7364    -7365    -7364    -7361    -7360 
   -7366    -7366    -7361    -7364    -7361    -7357    -7361    -7360 
   -7358    -7368    -7371    -7360    -7360    -7365    -7362    -7358 
   -7360    -7362    -7365    -7365    -7364    -7365    -7362    -7358 
   -7362    -7365    -7358    -7360    -7365    -7364    -7360    -7360 
   -7360    -7360    -7360    -7361    -7362    -7362    -7362    -7361 
   -7358    -7356    -7360    -7365    -7366    -7361    -7357    -7362 
   -7365    -7361    -7361    -7366    -7362    -7356    -7362    -7371 
   -7361    -7354    -7362    -7369    -7373    -7379    -7375    -7365 
   -7358    -7342    -7321    -7314    -7325    -7345    -7375    -7411 
   -7431    -7431    -7411    -7368    -7308    -7269    -7284    -7335 
   -7379    -7407    -7416    -7399    -7358    -7338    -7360    -7388 
   -7393    -7396    -7408    -7392    -7339    -7326    -7371    -7380 
   -7294    -7192    -7179    -7234    -7308    -7391    -7493    -7631 
   -7724    -7641    -7407    -7226    -7195    -7182    -7111    -7095 
   -7169    -7249    -7283    -7292    -7354    -7515    -7658    -7680 
   -7650    -7607    -7489    -7364    -7302    -7202    -7033    -6932 
   -6966    -7090    -7221    -7329    -7493    -7709    -7850    -7866 
   -7776    -7601    -7420    -7296    -7202    -7057    -6868    -6797 
   -6953    -7198    -7380    -7558    -7784    -7904    -7739    -7396 
   -7210    -7283    -7365    -7329    -7306    -7346    -7354    -7264 
   -7090    -6951    -6980    -7171    -7438    -7711    -7905    -7946 
   -7801    -7524    -7285    -7159    -7095    -7144    -7300    -7387 
   -7322    -7167    -7021    -7063    -7383    -7773    -7921    -7763 
   -7539    -7468    -7345    -6918    -6546    -6714    -7237    -7573 
   -7550    -7430    -7477    -7605    -7576    -7435    -7406    -7491 
   -7539    -7543    -7546    -7425    -7103    -6818    -6848    -7101 
   -7339    -7560    -7771    -7819    -7627    -7371    -7277    -7298 
   -7187    -6983    -6976    -7315    -7777    -7839    -7373    -6975 
   -7049    -7300    -7389    -7400    -7518    -7626    -7523    -7354 
   -7248    -7082    -7010    -7302    -7673    -7684    -7437    -7294 
   -7338    -7416    -7414    -7416    -7504    -7523    -7398    -7300 
   -7250    -7117    -6994    -7056    -7272    -7484    -7587    -7588 
   -7526    -7395    -7234    -7157    -7218    -7346    -7430    -7365 
   -7249    -7319    -7492    -7489    -7393    -7425    -7584    -7751 
   -7704    -7369    -7037    -6937    -6991    -7086    -7215    -7438 
   -7643    -7611    -7445    -7393    -7422    -7395    -7345    -7315 
   -7299    -7350    -7506    -7564    -7326    -7022    -6994    -7164 
   -7354    -7558    -7676    -7582    -7381    -7285    -7321    -7296 
   -7130    -7044    -7250    -7636    -7909    -7851    -7487    -7153 
   -7107    -7152    -7038    -6914    -6998    -7219    -7430    -7614 
   -7789    -7909    -7850    -7612    -7412    -7265    -7048    -6953 
   -7048    -7029    -6922    -7119    -7585    -7871    -7805    -7636 
   -7568    -7507    -7357    -7237    -7230    -7219    -7177    -7207 
   -7299    -7339    -7290    -7196    -7145    -7223    -7441    -7689 
   -7844    -7871    -7763    -7512    -7223    -7029    -6934    -6912 
   -7009    -7207    -7373    -7431    -7457    -7551    -7672    -7704 
   -7624    -7487    -7315    -7128    -7017    -7025    -7061    -7102 
   -7249    -7489    -7645    -7646    -7597    -7607    -7607    -7445 
   -7215    -7144    -7233    -7361    -7466    -7434    -7195    -6963 
   -6971    -7161    -7348    -7485    -7630    -7704    -7578    -7381 
   -7360    -7479    -7539    -7553    -7585    -7522    -7350    -7246 
   -7234    -7115    -6812    -6604    -6778    -7207    -7573    -7776 
   -7902    -7981    -7884    -7609    -7396    -7319    -7192    -6997 
   -6871    -6845    -6894    -6978    -7105    -7365    -7693    -7904 
   -7932    -7815    -7657    -7584    -7568    -7499    -7356    -7192 
   -7088    -7094    -7146    -7102    -6953    -6924    -7179    -7566 
   -7790    -7782    -7670    -7533    -7388    -7295    -7263    -7245 
   -7233    -7248    -7288    -7331    -7379    -7404    -7365    -7319 
   -7380    -7496    -7496    -7365    -7294    -7372    -7420    -7302 
   -7175    -7227    -7372    -7449    -7476    -7492    -7449    -7372 
   -7362    -7392    -7338    -7200    -7098    -7101    -7209    -7373 
   -7554    -7730    -7792    -7641    -7403    -7277    -7240    -7165 
   -7060    -6995    -7010    -7128    -7373    -7690    -7878    -7821 
   -7641    -7461    -7304    -7211    -7173    -7157    -7233    -7396 
   -7515    -7497    -7371    -7258    -7230    -7234    -7258    -7325 
   -7396    -7442    -7442    -7393    -7372    -7395    -7369    -7260 
   -7190    -7241    -7298    -7294    -7346    -7453    -7485    -7433 
   -7337    -7249    -7264    -7377    -7473    -7514    -7570    -7626 
   -7600    -7519    -7430    -7285    -7094    -6966    -6979    -7128 
   -7308    -7437    -7518    -7545    -7480    -7364    -7327    -7407 
   -7446    -7357    -7256    -7223    -7249    -7342    -7446    -7447 
   -7329    -7195    -7155    -7221    -7317    -7429    -7616    -7794 
   -7786    -7578    -7335    -7210    -7186    -7146    -7111    -7163 
   -7269    -7415    -7580    -7632    -7545    -7465    -7434    -7368 
   -7257    -7165    -7150    -7198    -7249    -7303    -7371    -7435 
   -7415    -7272    -7192    -7302    -7393    -7344    -7364    -7530 
   -7601    -7487    -7375    -7365    -7345    -7283    -7269    -7294 
   -7275    -7242    -7294    -7443    -7558    -7479    -7294    -7287 
   -7503    -7709    -7717    -7553    -7361    -7222    -7153    -7155 
   -7173    -7171    -7159    -7136    -7165    -7306    -7462    -7570 
   -7695    -7782    -7705    -7495    -7302    -7200    -7157    -7134 
   -7119    -7140    -7229    -7326    -7321    -7233    -7210    -7331 
   -7522    -7653    -7654    -7510    -7352    -7384    -7537    -7555 
   -7443    -7371    -7369    -7349    -7249    -7125    -7042    -7014 
   -7098    -7306    -7504    -7588    -7593    -7591    -7574    -7483 
   -7321    -7195    -7211    -7337    -7443    -7472    -7441    -7371 
   -7303    -7283    -7295    -7315    -7349    -7365    -7321    -7275 
   -7321    -7415    -7443    -7406    -7389    -7368    -7281    -7231 
   -7308    -7438    -7479    -7335    -7088    -6994    -7134    -7334 
   -7499    -7639    -7688    -7580    -7360    -7188    -7238    -7447 
   -7561    -7487    -7366    -7333    -7399    -7503    -7553    -7460 
   -7272    -7157    -7187    -7295    -7399    -7442    -7406    -7338 
   -7277    -7218    -7200    -7275    -7389    -7452    -7419    -7315 
   -7223    -7238    -7372    -7496    -7472    -7358    -7312    -7384 
   -7492    -7550    -7542    -7495    -7399    -7214    -7030    -7044 
   -7219    -7361    -7425    -7442    -7411    -7400    -7456    -7537 
   -7608    -7638    -7587    -7422    -7204    -7102    -7136    -7125 
   -7029    -6998    -7134    -7360    -7495    -7519    -7591    -7730 
   -7759    -7596    -7388    -7306    -7303    -7248    -7188    -7256 
   -7364    -7339    -7267    -7303    -7353    -7263    -7144    -7188 
   -7352    -7434    -7403    -7381    -7402    -7410    -7408    -7414 
   -7396    -7338    -7339    -7473    -7562    -7461    -7321    -7277 
   -7279    -7315    -7411    -7460    -7400    -7344    -7333    -7317 
   -7317    -7383    -7458    -7449    -7364    -7261    -7192    -7190 
   -7217    -7252    -7329    -7408    -7416    -7407    -7466    -7530 
   -7539    -7549    -7535    -7441    -7353    -7356    -7383    -7365 
   -7331    -7318    -7304    -7206    -7026    -6949    -7086    -7306 
   -7472    -7573    -7609    -7550    -7441    -7402    -7466    -7526 
   -7500    -7415    -7300    -7237    -7265    -7271    -7221    -7218 
   -7227    -7168    -7114    -7180    -7319    -7431    -7528    -7638 
   -7668    -7566    -7445    -7426    -7492    -7516    -7403    -7253 
   -7210    -7207    -7148    -7086    -7111    -7226    -7349    -7441 
   -7557    -7672    -7645    -7480    -7337    -7268    -7219    -7172 
   -7161    -7234    -7375    -7485    -7462    -7312    -7182    -7200 
   -7352    -7503    -7568    -7593    -7642    -7654    -7538    -7325 
   -7117    -6970    -6922    -7047    -7295    -7468    -7439    -7303 
   -7226    -7258    -7333    -7410    -7528    -7666    -7693    -7551 
   -7331    -7182    -7160    -7219    -7337    -7493    -7554    -7469 
   -7404    -7468    -7528    -7427    -7203    -7030    -6978    -7007 
   -7126    -7302    -7414    -7406    -7346    -7321    -7304    -7285 
   -7387    -7635    -7800    -7708    -7468    -7257    -7109    -7020 
   -7069    -7296    -7564    -7709    -7707    -7591    -7398    -7241 
   -7171    -7063    -6855    -6679    -6679    -6879    -7219    -7587 
   -7840    -7861    -7681    -7510    -7518    -7684    -7869    -7948 
   -7893    -7735    -7473    -7146    -6948    -7011    -7245    -7530 
   -7794    -7893    -7732    -7442    -7213    -7094    -7068    -7110 
   -7200    -7379    -7639    -7821    -7730    -7331    -6859    -6589 
   -6555    -6654    -6829    -7064    -7349    -7632    -7821    -7859 
   -7782    -7599    -7254    -6826    -6570    -6718    -7256    -7894 
   -8298    -8325    -8027    -7496    -6886    -6463    -6480    -6963 
   -7676    -8263    -8467    -8249    -7731    -7157    -6848    -6994 
   -7485    -7962    -8120    -7917    -7434    -6829    -6378    -6269 
   -6459    -6817    -7242    -7680    -8054    -8182    -7884    -7331 
   -6988    -7065    -7388    -7701    -7811    -7622    -7298    -7137 
   -7194    -7273    -7229    -7091    -6998    -6987    -6961    -6874 
   -6831    -6978    -7322    -7781    -8297    -8738    -8861    -8565 
   -7960    -7196    -6467    -6003    -5935    -6226    -6631    -6836 
   -6743    -6582    -6670    -7110    -7797    -8461    -8756    -8617 
   -8275    -7850    -7362    -6998    -6949    -7223    -7724    -8201 
   -8257    -7840    -7317    -6993    -6897    -6934    -7030    -7157 
   -7345    -7596    -7789    -7781    -7477    -6880    -6228    -5841 
   -5846    -6273    -7141    -8282    -9325    -9876    -9730    -9008 
   -8027    -7115    -6494    -6156    -6002    -5971    -5983    -6033 
   -6218    -6554    -6930    -7176    -7254    -7356    -7597    -7794 
   -7744    -7639    -7794    -8117    -8270    -8124    -7803    -7425 
   -7018    -6633    -6373    -6399    -6822    -7452    -7874    -7902 
   -7720    -7580    -7622    -7851    -8132    -8291    -8272    -8131 
   -7905    -7611    -7310    -7102    -7021    -7001    -6947    -6797 
   -6579    -6471    -6667    -7090    -7452    -7603    -7666    -7797 
   -7971    -8077    -8012    -7659    -6994    -6247    -5765    -5765 
   -6253    -7007    -7742    -8297    -8583    -8527    -8120    -7457 
   -6845    -6675    -7020    -7528    -7825    -7807    -7534    -7134 
   -6821    -6729    -6826    -7047    -7349    -7658    -7888    -8036 
   -8189    -8380    -8542    -8577    -8428    -8089    -7690    -7371 
   -7052    -6573    -6002    -5544    -5240    -5027    -5022    -5486 
   -6439    -7501    -8255    -8573    -8565    -8434    -8353    -8301 
   -8136    -7859    -7653    -7605    -7545    -7311    -7022    -6952 
   -7199    -7626    -8025    -8235    -8203    -8055    -7911    -7688 
   -7271    -6797    -6535    -6555    -6747    -6941    -6964    -6820 
   -6704    -6724    -6860    -7083    -7307    -7414    -7420    -7485 
   -7692    -7963    -8213    -8411    -8419    -8028    -7258    -6431 
   -5911    -5896    -6366    -7069    -7676    -7962    -7897    -7674 
   -7566    -7690    -7955    -8172    -8191    -7942    -7420    -6764 
   -6273    -6174    -6432    -6880    -7425    -7947    -8178    -7983 
   -7642    -7523    -7628    -7717    -7654    -7480    -7280    -7042 
   -6750    -6520    -6504    -6729    -7145    -7636    -8008    -8135 
   -8124    -8159    -8213    -8122    -7835    -7450    -7071    -6696 
   -6316    -6054    -6042    -6268    -6609    -6926    -7183    -7465 
   -7817    -8148    -8313    -8294    -8176    -7982    -7713    -7439 
   -7194    -6957    -6737    -6554    -6443    -6455    -6582    -6825 
   -7222    -7705    -8174    -8608    -8976    -9134    -8958    -8457 
   -7713    -6883    -6278    -6161    -6424    -6767    -7049    -7260 
   -7335    -7204    -6991    -6952    -7184    -7518    -7692    -7608 
   -7356    -7080    -6975    -7144    -7416    -7551    -7535    -7510 
   -7545    -7596    -7607    -7518    -7287    -6986    -6701    -6548 
   -6706    -7157    -7612    -7881    -8017    -8043    -7894    -7646 
   -7454    -7372    -7402    -7530    -7624    -7574    -7414    -7199 
   -6944    -6690    -6534    -6562    -6771    -7080    -7392    -7622 
   -7746    -7754    -7669    -7605    -7628    -7663    -7646    -7564 
   -7416    -7256    -7177    -7233    -7389    -7501    -7439    -7219 
   -6967    -6856    -6997    -7356    -7771    -8050    -8105    -8020 
   -7897    -7770    -7628    -7468    -7280    -7063    -6848    -6717 
   -6729    -6891    -7132    -7292    -7260    -7123    -7020    -7001 
   -7117    -7369    -7631    -7788    -7817    -7770    -7742    -7740 
   -7649    -7438    -7222    -7063    -6930    -6805    -6721    -6751 
   -6889    -7044    -7159    -7237    -7287    -7306    -7272    -7198 
   -7142    -7194    -7426    -7817    -8226    -8552    -8730    -8664 
   -8337    -7900    -7499    -7187    -6968    -6814    -6712    -6662 
   -6659    -6720    -6812    -6859    -6886    -6997    -7233    -7514 
   -7746    -7900    -7935    -7874    -7813    -7754    -7670    -7615 
   -7550    -7360    -7042    -6762    -6662    -6756    -7005    -7329 
   -7604    -7757    -7790    -7747    -7680    -7596    -7485    -7399 
   -7368    -7319    -7194    -6994    -6795    -6747    -6918    -7234 
   -7558    -7784    -7870    -7870    -7854    -7805    -7672    -7508 
   -7415    -7381    -7269    -7040    -6841    -6798    -6872    -6984 
   -7119    -7304    -7500    -7593    -7492    -7225    -6986    -6956 
   -7088    -7241    -7387    -7533    -7647    -7717    -7727    -7638 
   -7474    -7300    -7126    -6956    -6843    -6817    -6872    -7032 
   -7303    -7600    -7821    -7927    -7925    -7831    -7695    -7649 
   -7731    -7834    -7846    -7653    -7294    -7005    -6901    -6899 
   -6953    -7080    -7244    -7356    -7411    -7495    -7630    -7697 
   -7628    -7491    -7344    -7175    -7018    -6986    -7122    -7310 
   -7420    -7414    -7295    -7113    -6975    -6979    -7133    -7314 
   -7422    -7500    -7589    -7622    -7582    -7535    -7503    -7487 
   -7503    -7550    -7614    -7646    -7595    -7458    -7252    -7055 
   -7032    -7211    -7433    -7568    -7595    -7511    -7357    -7231 
   -7176    -7184    -7292    -7485    -7614    -7572    -7395    -7173 
   -7013    -7007    -7150    -7310    -7341    -7237    -7134    -7121 
   -7160    -7184    -7182    -7159    -7121    -7071    -7056    -7146 
   -7376    -7678    -7897    -7920    -7782    -7588    -7408    -7279 
   -7222    -7264    -7427    -7672    -7863    -7908    -7852    -7781 
   -7668    -7460    -7206    -7011    -6912    -6890    -6951    -7084 
   -7261    -7461    -7641    -7720    -7692    -7582    -7392    -7199 
   -7128    -7188    -7338    -7541    -7699    -7681    -7485    -7234 
   -7021    -6849    -6698    -6575    -6551    -6689    -6959    -7268 
   -7570    -7798    -7861    -7812    -7798    -7838    -7881    -7881 
   -7819    -7730    -7618    -7460    -7338    -7322    -7375    -7449 
   -7487    -7388    -7168    -6998    -6956    -6943    -6880    -6828 
   -6871    -7025    -7250    -7479    -7624    -7620    -7458    -7249 
   -7134    -7152    -7288    -7511    -7720    -7781    -7665    -7487 
   -7353    -7272    -7254    -7317    -7380    -7362    -7333    -7387 
   -7465    -7480    -7437    -7379    -7342    -7335    -7345    -7362 
