Origin Time       2025/03/28 03:50:00
Lat.              35.403
Long.             140.360
Depth. (km)       54
Mag.              4.4
Station Code      KNG003
Station Lat.      35.2731
Station Long.     139.6582
Station Height(m) 25
Record Time       2025/03/28 03:51:01
Sampling Freq(Hz) 100Hz
Duration Time(s)  60
Dir.              E-W
Scale Factor      7845(gal)/8223790
Max. Acc. (gal)   1.733
Last Correction   2025/03/28 03:51:02
Memo.             
[...]
    3906     3906     3902     3901     3901     3904     3902     3901 
    3904     3908     3908     3901     3897     3898     3904     3904 
    3902     3905     3902     3900     3906     3909     3900     3898 
    3906     3906     3897     3897     3909     3910     3905     3904 
    3904     3897     3897     3905     3905     3902     3909     3909 
    3904     3902     3898     3894     3901     3906     3898     3894 
    3901     3905     3902     3898     3898     3905     3908     3898 
    3893     3901     3905     3902     3904     3906     3898     3896 
    3902     3902     3896     3898     3906     3906     3902     3901 
    3897     3896     3901     3905     3901     3894     3898     3908 
    3906     3901     3898     3900     3905     3901     3896     3898 
    3901     3902     3900     3898     3902     3905     3898     3896 
    3900     3898     3898     3901     3904     3904     3904     3902 
    3902     3898     3898     3904     3904     3904     3906     3902 
    3894     3896     3904     3904     3900     3901     3900     3897 
    3898     3901     3901     3904     3905     3905     3904     3902 
    3905     3908     3900     3896     3901     3905     3905     3904 
    3904     3904     3898     3898     3908     3906     3897     3897 
    3902     3904     3904     3902     3904     3905     3900     3896 
    3901     3904     3904     3908     3905     3894     3892     3900 
    3902     3904     3908     3904     3900     3902     3902     3901 
    3902     3905     3904     3896     3897     3902     3902     3904 
    3906     3902     3900     3901     3901     3901     3901     3896 
    3896     3902     3902     3900     3904     3905     3900     3897 
    3900     3900     3901     3905     3904     3900     3897     3900 
    3904     3906     3904     3900     3898     3901     3900     3900 
    3902     3902     3901     3900     3896     3900     3904     3904 
    3902     3902     3898     3898     3906     3905     3897     3900 
    3898     3901     3906     3901     3900     3904     3900     3901 
    3906     3905     3902     3900     3898     3900     3901     3902 
    3902     3901     3898     3902     3902     3897     3897     3900 
    3902     3904     3900     3901     3904     3900     3901     3906 
    3904     3900     3901     3902     3900     3902     3906     3902 
    3897     3900     3901     3900     3901     3902     3900     3897 
    3901     3902     3901     3902     3904     3904     3905     3904 
    3897     3898     3898     3896     3900     3905     3904     3902 
    3898     3896     3897     3901     3904     3901     3901     3905 
    3904     3900     3898     3901     3902     3904     3909     3910 
    3908     3910     3917     3906     3892     3883     3871     3850 
    3836     3844     3867     3892     3923     3962     3985     3985 
    3971     3939     3883     3832     3811     3811     3817     3851 
    3908     3935     3931     3951     3994     4014     4002     3981 
    3951     3888     3778     3684     3678     3743     3825     3905 
    3975     4031     4067     4035     3939     3889     3906     3851 
    3716     3707     3890     4077     4114     4044     3990     3977 
    3900     3757     3732     3847     3890     3867     3924     3970 
    3920     3912     3975     3981     3870     3758     3790     3861 
    3821     3792     3896     4051     4102     3996     3832     3732 
    3720     3829     4029     4145     4128     4124     4148     4062 
    3846     3673     3693     3762     3684     3677     3904     4012 
    3829     3774     4067     4326     4220     3910     3688     3569 
    3491     3574     3815     3964     3967     3948     3950     4000 
    4086     4140     4176     4135     3893     3642     3667     3800 
    3790     3800     3923     3979     3975     4004     4027     4050 
    4067     4016     3875     3694     3601     3643     3735     3946 
    4330     4507     4179     3735     3580     3554     3504     3586 
    3832     4006     3994     4008     4081     3937     3713     3817 
    4120     4224     4141     4116     4040     3744     3480     3419 
    3511     3874     4355     4531     4421     4176     3775     3400 
    3260     3350     3658     4083     4415     4503     4214     3734 
    3541     3703     3889     3977     3986     3859     3690     3666 
    3727     3773     3838     3909     4035     4268     4425     4301 
    3977     3769     3827     3929     3908     3767     3522     3427 
    3703     3987     3977     3929     3964     3970     4129     4394 
    4356     4086     3838     3636     3577     3555     3387     3318 
    3580     4050     4367     4230     3975     4060     4170     3996 
    3834     3856     3913     3906     3929     4066     4110     3923 
    3748     3721     3735     3765     3823     3927     4052     4054 
    3883     3682     3612     3746     3947     3978     3964     4143 
    4224     3970     3731     3711     3770     3916     4086     4044 
    3808     3632     3678     3905     4099     4135     4145     4099 
    3844     3680     3854     4039     4072     4135     4140     3971 
    3767     3605     3487     3496     3630     3850     4163     4368 
    4264     4041     3917     3832     3711     3601     3609     3727 
    3831     3915     3977     3862     3628     3651     4039     4361 
    4333     4176     4071     3960     3832     3726     3669     3705 
    3790     3821     3823     3946     4170     4253     4112     3920 
    3808     3785     3874     4048     4170     4113     3867     3565 
    3410     3434     3572     3832     4093     4145     4040     3905 
    3754     3712     3924     4195     4237     4104     4000     3901 
    3766     3721     3784     3840     3883     3964     4031     4017 
    4012     4072     4079     3993     3897     3804     3734     3696 
    3685     3751     3829     3816     3758     3699     3694     3811 
    3943     4008     4043     4081     4144     4168     4106     4043 
    3948     3778     3694     3777     3932     4025     3982     3915 
    3896     3869     3908     4014     4002     3886     3831     3832 
    3797     3754     3800     3913     4018     4064     3970     3762 
    3642     3700     3774     3746     3740     3866     3981     3958 
    3896     3909     4012     4162     4256     4217     4137     4102 
    3983     3761     3669     3759     3792     3684     3620     3727 
    3960     4202     4302     4198     4005     3821     3645     3537 
    3573     3662     3747     3920     4052     3928     3734     3767 
    3967     4143     4236     4209     4062     3851     3647     3627 
    3832     4008     4010     3886     3708     3655     3797     3998 
    4210     4384     4374     4172     3875     3572     3411     3516 
    3828     4050     3942     3711     3689     3828     3975     4095 
    4089     3946     3843     3834     3847     3913     4074     4189 
    4087     3839     3643     3647     3834     4045     4156     4105 
    3947     3838     3758     3700     3786     3942     4055     4141 
    4086     3861     3662     3627     3720     3829     3902     3950 
    3959     3908     3820     3747     3769     3901     4006     4020 
    4072     4182     4201     4117     4004     3832     3649     3626 
    3766     3863     3821     3743     3777     3943     4075     4067 
    4032     4039     3955     3797     3789     3933     4018     3989 
    3920     3861     3798     3711     3712     3863     4004     4036 
    4005     3937     3865     3817     3851     3960     3993     3923 
    3898     3939     3942     3906     3929     4006     4014     3925 
    3823     3754     3742     3790     3834     3866     3865     3750 
    3684     3851     4051     4099     4082     4074     4101     4101 
    3975     3824     3719     3627     3619     3673     3720     3840 
    4004     4135     4213     4110     3879     3808     3937     4081 
    4120     4050     3946     3850     3726     3558     3458     3596 
    3878     4018     3991     3944     3947     3983     3983     3973 
    3983     3962     3939     3967     4005     3973     3825     3720 
    3771     3793     3753     3828     3952     4000     4024     4032 
    3978     3879     3812     3823     3832     3812     3842     3902 
    3958     4016     4018     4009     4067     4091     4014     3900 
    3812     3842     4027     4209     4218     4032     3738     3496 
    3437     3515     3624     3755     3910     4012     4006     3950 
    3923     3946     4004     4052     4009     3862     3657     3481 
    3537     3839     4087     4166     4234     4271     4141     3928 
    3832     3905     4005     4009     3912     3797     3763     3797 
    3840     3885     3898     3931     4091     4216     4090     3823 
    3613     3551     3680     3924     4104     4109     3997     3856 
    3715     3634     3642     3699     3846     4068     4170     4067 
    3909     3874     3944     3936     3852     3820     3832     3883 
    3924     3893     3915     4035     4131     4082     3871     3700 
    3670     3697     3850     4062     4074     3940     3852     3811 
    3807     3865     3960     4036     4051     4029     3969     3827 
    3678     3701     3917     4058     4008     3966     3925     3800 
    3786     3929     4005     3937     3839     3823     3878     3942 
    4008     4037     3986     3859     3708     3628     3659     3792 
    4039     4257     4214     3963     3773     3720     3740     3813 
    3896     3925     3904     3881     3919     3986     3935     3766 
    3708     3847     4002     4035     3978     3912     3928     4093 
    4264     4220     4031     3947     3925     3823     3730     3703 
    3684     3693     3747     3829     3908     3883     3786     3794 
    3889     3898     3844     3851     3920     3978     3959     3886 
    3886     3940     3951     4010     4151     4190     4039     3807 
    3676     3731     3844     3886     3886     3861     3786     3740 
    3812     3981     4108     4101     4025     3955     3889     3832 
    3800     3828     3932     3990     3950     3928     3952     3964 
    3951     3870     3750     3703     3743     3842     3944     3967 
    3923     3859     3805     3796     3824     3889     3954     3937 
    3886     3886     3917     3947     3979     4041     4082     3983 
    3816     3743     3774     3873     3985     4025     4001     3929 
    3831     3790     3777     3754     3790     3847     3846     3820 
    3828     3928     4132     4324     4391     4341     4282     4237 
    4055     3744     3573     3623     3730     3740     3674     3657 
    3662     3650     3731     3854     3878     3855     3798     3704 
    3653     3628     3649     3778     3855     3716     3477     3356 
    3403     3561     3811     4105     4307     4391     4440     4477 
    4513     4592     4696     4722     4658     4537     4288     3908 
    3569     3372     3227     3034     2781     2596     2678     3017 
    3399     3682     3959     4367     4742     4897     4961     4997 
    4895     4716     4521     4247     4059     4170     4409     4518 
    4507     4402     4129     3744     3404     3173     3044     3060 
    3241     3416     3418     3304     3238     3267     3306     3327 
    3408     3577     3820     4121     4357     4399     4338     4374 
    4519     4680     4745     4544     4032     3385     2906     2891 
    3333     3935     4545     5117     5485     5464     4986     4226 
    3572     3273     3280     3383     3477     3676     3963     4064 
    3839     3451     3132     2976     2937     2906     2857     2817 
    2798     2859     3049     3307     3628     4124     4737     5238 
    5501     5536     5397     5202     4990     4714     4433     4216 
    4077     4102     4244     4309     4253     4147     4056     4068 
    4182     4259     4136     3794     3325     2774     2342     2327 
    2686     3141     3454     3500     3322     3026     2733     2601 
    2712     3095     3650     4079     4217     4218     4302     4504 
    4747     4969     5131     5113     4839     4575     4625     4843 
    4943     4807     4441     4023     3724     3512     3323     3146 
    3010     3048     3285     3501     3578     3601     3651     3727 
    3804     3942     4133     4271     4379     4473     4422     4191 
    3869     3555     3399     3449     3589     3677     3663     3600 
    3476     3229     2988     3001     3295     3661     4035     4585 
    5215     5517     5352     4931     4550     4430     4519     4502 
    4207     3744     3269     2868     2619     2569     2748     3110 
    3488     3753     3900     4018     4214     4374     4299     4095 
    3975     3990     4163     4502     4855     4981     4711     4099 
    3418     2971     2911     3195     3667     4136     4407     4361 
    4093     3808     3558     3343     3272     3321     3364     3400 
    3441     3474     3595     3882     4257     4556     4684     4699 
    4625     4398     4166     4220     4591     4993     5178     5157 
    4981     4581     4013     3453     2944     2532     2297     2170 
    2165     2473     3075     3724     4236     4514     4540     4384 
    4186     4074     4001     3750     3284     2849     2679     2925 
    3627     4538     5309     5718     5599     5000     4276     3765 
    3619     3835     4155     4249     4031     3582     3076     2806 
    2963     3480     4160     4712     4850     4557     4091     3703 
    3510     3541     3721     3871     3921     3963     4012     4016 
    3966     3854     3692     3531     3454     3566     3763     3730 
    3381     2986     2814     2932     3316     3932     4629     5136 
    5287     5205     5080     4954     4854     4818     4793     4693 
    4429     3951     3424     3049     2903     3046     3365     3514 
    3292     2866     2598     2686     3046     3539     4052     4418 
    4507     4357     4139     4002     3973     3947     3867     3797 
    3754     3705     3739     3900     4048     4104     4144     4257 
    4452     4591     4482     4210     4029     3952     3865     3817 
    3910     4074     4117     3960     3721     3561     3512     3468 
    3372     3307     3339     3462     3669     3909     4075     4126 
    4101     4060     4068     4125     4164     4170     4170     4228 
    4367     4480     4455     4290     4108     4044     4093     4158 
    4141     3947     3586     3180     2878     2768     2829     2994 
    3192     3364     3503     3655     3906     4260     4563     4735 
    4838     4854     4738     4545     4356     4225     4149     4077 
    3942     3705     3453     3264     3145     3195     3469     3807 
    4047     4153     4083     3767     3299     2965     3006     3415 
    3963     4383     4580     4594     4471     4291     4112     3978 
    4004     4216     4472     4635     4664     4563     4349     4048 
    3692     3316     3017     2956     3160     3462     3731     3885 
    3877     3751     3555     3361     3300     3430     3694     3990 
    4218     4336     4325     4241     4203     4233     4259     4214 
    4086     3928     3807     3769     3836     3948     4006     3993 
    3929     3821     3719     3701     3801     3993     4180     4225 
    4095     3867     3599     3377     3333     3499     3775     3967 
    3928     3717     3516     3419     3456     3634     3906     4205 
    4438     4537     4502     4353     4195     4166     4275     4375 
    4297     4010     3647     3360     3223     3287     3518     3751 
    3865     3854     3763     3673     3681     3843     4136     4441 
    4587     4507     4302     4078     3869     3735     3735     3828 
    3974     4122     4120     3932     3732     3657     3730     3885 
    3986     3971     3848     3674     3597     3624     3628     3599 
    3593     3662     3807     3946     4045     4152     4301     4418 
    4379     4237     4151     4128     4086     3994     3866     3735 
    3589     3451     3357     3294     3294     3408     3576     3661 
    3607     3539     3628     3827     4000     4132     4243     4321 
    4382     4414     4365     4280     4290     4453     4661     4761 
    4712     4563     4348     4129     3946     3762     3543     3315 
    3163     3167     3298     3437     3553     3703     3900     4075 
    4136     4039     3817     3568     3407     3416     3541     3673 
    3771     3863     3996     4156     4263     4245     4128     4047 
    4055     4014     3859     3692     3574     3470     3377     3393 
    3535     3689     3820     3964     4089     4164     4195     4205 
    4228     4214     4113     3991     3932     3963     4078     4198 
    4241     4201     4087     3904     3739     3715     3796     3838 
    3805     3743     3662     3636     3769     4001     4166     4185 
    4109     4014     3937     3878     3851     3885     3927     3917 
    3910     3935     3960     3974     3951     3910     3943     4058 
    4170     4178     4035     3812     3608     3447     3353     3356 
    3430     3518     3596     3678     3762     3832     3913     4025 
    4152     4291     4436     4527     4517     4390     4137     3813 
    3546     3416     3438     3586     3811     4052     4255     4355 
    4307     4133     3906     3701     3543     3416     3296     3249 
    3384     3667     3931     4091     4189     4212     4126     3967 
    3809     3753     3846     4017     4164     4268     4356     4399 
    4365     4328     4297     4186     3971     3713     3524     3501 
    3626     3792     3912     3974     3970     3881     3794     3802 
    3852     3858     3805     3699     3570     3520     3604     3771 
    3912     3958     3924     3829     3676     3538     3507     3570 
    3674     3800     3913     3985     4004     3975     3940     3948 
    4005     4071     4141     4245     4348     4361     4253     4093 
    3987     3959     3944     3927     3928     3970     4045     4106 
    4104     4039     3928     3780     3618     3484     3453     3561 
    3742     3910     4005     3973     3858     3758     3701     3676 
    3709     3835     4005     4106     4121     4114     4090     4023 
    3970     4006     4122     4287     4455     4521     4452     4310 
    4099     3842     3626     3472     3362     3308     3296     3295 
    3304     3348     3408     3435     3478     3604     3785     3983 
    4203     4388     4442     4345     4175     4054     4036     4087 
    4186     4306     4395     4382     4218     3993     3794     3577 
    3379     3350     3528     3782     3958     4035     4056     4024 
    3982     4000     4081     4190     4282     4291     4147     3851 
    3561     3423     3407     3433     3493     3612     3773     3886 
    3906     3900     3885     3840     3834     3919     4013     4027 
    3985     3952     3927     3873     3800     3784     3863     3963 
    4031     4090     4151     4183     4136     3996     3847     3757 
    3701     3661     3655     3682     3721     3786     3873     3948 
