Origin Time       2025/03/28 03:50:00
Lat.              35.403
Long.             140.360
Depth. (km)       54
Mag.              4.4
Station Code      KNG005
Station Lat.      35.3191
Station Long.     139.5461
Station Height(m) 10
Record Time       2025/03/28 03:50:54
Sampling Freq(Hz) 100Hz
Duration Time(s)  60
Dir.              N-S
Scale Factor      7845(gal)/8223790
Max. Acc. (gal)   1.937
Last Correction   2025/03/28 03:50:54
Memo.             
[...]
   10299    10309    10323    10319    10307    10303    10308    10318 
   10320    10315    10312    10311    10312    10312    10312    10314 
   10312    10314    10322    10318    10311    10315    10315    10309 
   10308    10316    10322    10315    10303    10308    10319    10316 
   10309    10311    10318    10319    10314    10308    10311    10318 
   10320    10312    10309    10318    10320    10312    10308    10311 
   10316    10318    10315    10318    10320    10315    10309    10312 
   10315    10312    10312    10318    10316    10315    10316    10314 
   10312    10312    10311    10314    10315    10312    10314    10318 
   10314    10309    10312    10316    10318    10315    10312    10314 
   10311    10311    10315    10314    10316    10323    10316    10307 
   10305    10312    10314    10307    10311    10319    10315    10311 
   10312    10304    10307    10318    10319    10315    10312    10309 
   10315    10319    10314    10308    10311    10312    10312    10315 
   10312    10309    10316    10315    10303    10305    10318    10316 
   10309    10312    10314    10307    10307    10312    10315    10311 
   10311    10319    10319    10305    10307    10318    10314    10311 
   10318    10309    10304    10316    10319    10316    10320    10315 
   10303    10305    10314    10318    10319    10314    10304    10309 
   10314    10309    10312    10311    10307    10315    10318    10307 
   10312    10322    10309    10299    10311    10318    10316    10315 
   10309    10301    10311    10324    10318    10307    10309    10312 
   10304    10304    10319    10323    10311    10304    10309    10309 
   10305    10314    10316    10309    10311    10309    10307    10314 
   10316    10311    10309    10315    10309    10304    10311    10319 
   10318    10308    10308    10315    10315    10315    10319    10312 
   10303    10309    10315    10312    10312    10312    10311    10314 
   10319    10318    10308    10308    10314    10314    10311    10307 
   10309    10318    10323    10319    10307    10301    10308    10315 
   10314    10315    10318    10312    10312    10316    10307    10309 
   10322    10318    10311    10309    10312    10314    10311    10311 
   10318    10314    10305    10315    10323    10308    10304    10315 
   10312    10311    10319    10316    10311    10309    10312    10312 
   10315    10320    10318    10312    10314    10309    10309    10315 
   10314    10309    10311    10320    10323    10311    10305    10315 
   10312    10304    10316    10322    10308    10307    10308    10305 
   10314    10318    10308    10304    10308    10318    10323    10311 
   10307    10315    10314    10309    10311    10312    10311    10307 
   10314    10320    10316    10314    10309    10305    10314    10316 
   10308    10311    10307    10303    10314    10316    10311    10311 
   10312    10309    10312    10323    10318    10303    10309    10319 
   10315    10314    10316    10314    10314    10318    10316    10314 
   10311    10316    10327    10319    10305    10315    10319    10308 
   10312    10320    10309    10303    10315    10322    10307    10307 
   10322    10316    10305    10308    10314    10319    10316    10311 
   10314    10314    10309    10315    10318    10315    10314    10318 
   10316    10309    10309    10311    10311    10316    10314    10307 
   10311    10315    10314    10311    10309    10309    10305    10309 
   10319    10319    10312    10307    10308    10318    10322    10314 
   10303    10309    10326    10323    10308    10308    10309    10304 
   10301    10297    10292    10292    10299    10308    10320    10328 
   10327    10322    10323    10327    10323    10315    10304    10291 
   10276    10285    10315    10330    10339    10353    10353    10336 
   10328    10345    10355    10342    10328    10326    10314    10291 
   10270    10268    10276    10285    10295    10303    10309    10316 
   10319    10319    10326    10351    10370    10309    10195    10157 
   10223    10291    10320    10362    10399    10331    10227    10250 
   10347    10390    10416    10447    10412    10280    10177    10224 
   10295    10253    10218    10309    10494    10656    10650    10450 
   10211    10084    10095    10147    10169    10231    10359    10423 
   10420    10477    10520    10434    10324    10291    10304    10308 
   10187     9967     9925    10129    10308    10287    10206    10277 
   10444    10524    10555    10578    10489    10320    10154     9984 
    9954    10224    10566    10624    10428    10218    10079    10039 
   10166    10423    10705    10864    10700    10309    10100    10166 
   10228    10152    10048    10096    10378    10759    10889    10496 
    9869     9578     9756    10278    10971    11340    11074    10477 
    9891     9509     9468     9653     9984    10508    10922    10903 
   10613    10249     9883     9780    10095    10546    10782    10729 
   10512    10238     9992     9873     9877     9949    10107    10309 
   10446    10562    10708    10716    10527    10349    10316    10343 
   10315    10289    10376    10467    10438    10343    10210    10108 
   10188    10331    10368    10355    10350    10347    10345    10295 
   10152     9973     9934    10138    10473    10756    10862    10673 
   10226     9818     9701     9899    10322    10728    10837    10669 
   10416    10220    10162    10210    10285    10342    10326    10254 
   10170    10106    10142    10239    10273    10280    10323    10368 
   10457    10613    10655    10422    10066     9906    10075    10396 
   10594    10604    10478    10226     9972     9933    10137    10446 
   10692    10766    10629    10288     9952     9925    10183    10430 
   10504    10424    10270    10162    10137    10134    10131    10110 
   10110    10269    10573    10775    10655    10285    10042    10145 
   10424    10640    10633    10359     9995     9803     9902    10215 
   10612    10928    10898    10463     9973     9769     9907    10260 
   10638    10854    10777    10438    10049     9796     9782    10064 
   10505    10786    10717    10395    10089    10003    10073    10157 
   10300    10559    10767    10729    10431    10046     9795     9836 
   10222    10781    11105    10953    10462     9875     9472     9504 
    9868    10253    10516    10647    10615    10440    10276    10246 
   10350    10505    10588    10570    10528    10423    10157     9852 
    9794    10085    10478    10671    10638    10524    10392    10212 
   10091    10195    10424    10507    10330    10022     9869    10037 
   10308    10403    10359    10385    10500    10519    10345    10120 
   10088    10309    10528    10542    10458    10377    10293    10216 
   10150    10135    10188    10214    10208    10288    10416    10435 
   10376    10430    10596    10678    10567    10355    10180    10048 
    9956     9992    10180    10395    10482    10363    10123     9965 
   10038    10293    10544    10675    10701    10584    10300    10025 
    9933     9985    10107    10327    10606    10810    10839    10659 
   10361    10157    10129    10142    10122    10129    10195    10274 
   10293    10242    10214    10282    10353    10349    10322    10300 
   10314    10407    10476    10422    10300    10153    10065    10203 
   10511    10713    10709    10574    10368    10180    10091    10061 
   10107    10253    10350    10296    10185    10120    10110    10119 
   10192    10408    10687    10827    10750    10538    10265    10033 
    9954     9969    10033    10251    10509    10558    10476    10450 
   10458    10436    10349    10200    10118    10161    10242    10312 
   10295    10115     9950     9984    10169    10430    10687    10822 
   10802    10604    10251     9971     9937    10098    10308    10440 
   10440    10431    10531    10633    10631    10532    10328    10083 
    9950     9956    10000    10045    10103    10203    10349    10494 
   10569    10557    10489    10331    10080     9931    10029    10233 
   10343    10357    10397    10503    10588    10612    10582    10477 
   10308    10162    10100    10166    10347    10492    10477    10355 
   10226    10120    10042    10025    10104    10255    10388    10442 
   10474    10508    10417    10174     9958     9917    10073    10335 
   10524    10570    10544    10493    10461    10508    10582    10558 
   10341    10002     9806     9895    10149    10393    10540    10586 
   10550    10438    10332    10331    10395    10415    10399    10411 
   10382    10242    10092    10046    10096    10191    10326    10497 
   10601    10544    10372    10189    10099    10157    10278    10328 
   10291    10210    10122    10064    10076    10177    10350    10523 
   10594    10512    10361    10301    10370    10462    10498    10424 
   10215    10012     9976    10096    10288    10459    10511    10455 
   10365    10268    10211    10258    10370    10473    10527    10478 
   10341    10215    10118    10048    10075    10172    10297    10505 
   10720    10698    10372     9972     9787     9914    10273    10658 
   10843    10731    10434    10169    10050    10069    10173    10288 
   10403    10504    10496    10363    10218    10115    10088    10189 
   10368    10509    10552    10505    10422    10339    10241    10146 
   10126    10195    10307    10393    10363    10238    10180    10268 
   10381    10405    10372    10362    10350    10261    10181    10220 
   10322    10404    10424    10353    10278    10292    10320    10316 
   10326    10338    10323    10323    10351    10355    10324    10314 
   10343    10355    10308    10265    10270    10282    10295    10319 
   10326    10284    10207    10157    10196    10311    10431    10470 
   10422    10342    10239    10115    10066    10181    10397    10574 
   10613    10508    10332    10145    10012    10027    10170    10338 
   10486    10575    10509    10322    10181    10153    10184    10270 
   10386    10438    10434    10463    10485    10432    10365    10332 
   10278    10168    10081    10110    10196    10242    10272    10355 
   10457    10477    10427    10417    10430    10396    10342    10276 
   10211    10227    10288    10289    10250    10246    10301    10376 
   10382    10347    10384    10432    10332    10142    10050    10118 
   10253    10305    10278    10346    10494    10497    10319    10152 
   10150    10301    10432    10435    10411    10432    10407    10309 
   10223    10174    10179    10243    10308    10318    10260    10157 
   10125    10220    10336    10415    10469    10490    10501    10500 
   10436    10351    10281    10180    10108    10173    10326    10438 
   10474    10463    10380    10201    10049    10073    10268    10498 
   10624    10581    10408    10203    10066    10041    10126    10289 
   10388    10355    10320    10326    10309    10287    10273    10254 
   10245    10281    10388    10466    10416    10308    10219    10176 
   10257    10411    10428    10300    10241    10324    10400    10386 
   10349    10339    10355    10403    10446    10417    10330    10295 
   10349    10381    10326    10242    10157    10073    10098    10254 
   10380    10390    10373    10374    10343    10284    10260    10285 
   10346    10389    10324    10189    10137    10222    10358    10397 
   10309    10241    10264    10326    10392    10378    10251    10188 
   10266    10323    10324    10369    10408    10386    10339    10277 
   10264    10362    10461    10465    10424    10334    10188    10091 
   10099    10173    10260    10323    10390    10447    10444    10420 
   10403    10377    10358    10307    10189    10102    10156    10355 
   10559    10609    10500    10335    10210    10191    10247    10266 
   10249    10287    10342    10339    10287    10212    10199    10297 
   10430    10513    10512    10411    10277    10172    10112    10179 
   10357    10480    10490    10424    10274    10099    10027    10068 
   10184    10374    10570    10651    10585    10412    10218    10107 
   10146    10292    10388    10363    10314    10285    10234    10187 
   10199    10270    10386    10525    10594    10542    10450    10382 
   10328    10288    10243    10177    10120    10108    10185    10351 
   10484    10485    10396    10326    10332    10399    10446    10395 
   10289    10234    10193    10100    10007     9991    10084    10270 
   10459    10540    10515    10466    10413    10336    10292    10350 
   10465    10520    10480    10432    10405    10326    10288    10409 
   10528    10469    10288    10095     9991    10008    10045    10057 
   10080    10080    10065    10135    10307    10539    10760    10810 
   10666    10512    10396    10214    10049    10069    10233    10382 
   10416    10377    10389    10424    10400    10358    10353    10416 
   10517    10473    10210     9933     9809     9857    10129    10578 
   10943    11028    10903    10701    10462    10247    10093     9914 
    9668     9393     9072     8718     8488     8549     8889     9374 
    9942    10525    10944    11114    11107    11044    11003    10978 
   10987    11122    11323    11404    11280    10962    10517    10125 
    9906     9822     9841     9948    10035    10010     9842     9636 
    9602     9814    10196    10660    11140    11610    12036    12307 
   12343    12101    11541    10728     9891     9231     8791     8581 
    8618     8857     9177     9439     9632     9857    10157    10544 
   11024    11410    11407    10914    10125     9405     9058     9181 
    9725    10542    11361    11877    11896    11445    10741    10100 
    9819     9952    10227    10308    10089     9741     9498     9472 
    9672    10048    10476    10802    10901    10679    10214     9801 
    9713     9976    10378    10667    10809    10894    10930    10945 
   10991    11055    11124    11136    10944    10521     9973     9394 
    8918     8694     8702     8823     9045     9431     9977    10535 
   10916    11086    11107    11005    10839    10736    10782    10994 
   11323    11580    11464    10887    10102     9389     8937     8932 
    9379    10050    10702    11129    11163    10797    10211     9740 
    9676    10039    10647    11215    11437    11217    10674    10002 
    9475     9331     9570     9983    10231    10062     9590     9180 
    9097     9371     9871    10404    10781    10930    10947    10948 
   10937    10821    10566    10280    10116    10138    10301    10513 
   10633    10557    10324    10118    10150    10509    11045    11449 
   11475    11136    10651    10203     9876     9784     9977    10281 
   10450    10362    10060     9787     9776     9979    10247    10477 
   10503    10268     9914     9624     9553     9763    10157    10600 
   10941    11011    10744    10208     9625     9333     9517    10065 
   10729    11279    11515    11340    10828    10226     9795     9652 
    9779    10091    10380    10420    10204     9917     9782     9934 
   10319    10714    10918    10876    10621    10211     9802     9586 
    9618     9857    10197    10496    10698    10778    10681    10451 
   10204    10041    10029    10164    10403    10704    10918    10912 
   10706    10353     9977     9846    10065    10474    10930    11323 
   11487    11317    10878    10385    10021     9810     9713     9702 
    9714     9688     9641     9586     9529     9552     9738    10048 
   10386    10651    10770    10735    10569    10362    10253    10311 
   10546    10864    11049    10948    10605    10218     9985     9987 
   10156    10363    10546    10716    10844    10844    10693    10447 
   10162     9934     9848     9868     9921     9929     9841     9728 
    9715     9861    10145    10474    10739    10879    10844    10623 
   10304    10007     9845     9917    10161    10396    10473    10328 
   10038     9823     9828    10007    10280    10546    10666    10589 
   10407    10253    10219    10314    10497    10741    10975    11118 
   11146    11024    10724    10315     9907     9636     9667     9991 
   10339    10503    10482    10323    10096     9944     9983    10222 
   10561    10810    10822    10616    10335    10089     9914     9852 
    9938    10138    10378    10592    10717    10731    10650    10461 
   10173     9922     9795     9706     9624     9630     9734     9899 
   10158    10559    11032    11385    11454    11221    10793    10335 
    9984     9796     9776     9907    10112    10269    10320    10292 
   10206    10130    10150    10249    10381    10508    10558    10476 
   10273    10042     9909     9936    10104    10343    10511    10465 
   10228     9983     9890    10022    10388    10831    11094    11079 
   10886    10648    10476    10440    10523    10631    10687    10632 
   10415    10093     9822     9751     9890    10079    10177    10173 
   10083     9987    10044    10268    10521    10652    10561    10326 
   10160    10183    10408    10764    11075    11175    11030    10694 
   10268     9894     9671     9653     9837    10092    10270    10330 
   10295    10214    10149    10125    10095    10052    10065    10125 
   10162    10206    10262    10246    10157    10114    10191    10362 
   10557    10679    10647    10480    10320    10285    10342    10397 
   10423    10434    10446    10442    10388    10303    10223    10161 
   10152    10206    10285    10365    10401    10355    10280    10270 
   10390    10646    10912    10972    10728    10287     9863     9613 
    9587     9809    10214    10570    10690    10606    10415    10211 
   10152    10301    10547    10744    10820    10770    10611    10355 
   10093     9958     9940     9930     9903     9869     9871     9981 
   10174    10341    10424    10443    10400    10296    10176    10102 
   10127    10274    10474    10642    10768    10848    10871    10832 
   10679    10416    10169    10061    10096    10158    10154    10116 
   10095    10099    10135    10214    10343    10531    10693    10667 
   10382     9963     9618     9479     9560     9806    10106    10316 
   10380    10358    10334    10378    10543    10777    10940    10953 
   10809    10524    10181     9903     9776     9813     9940    10104 
   10322    10538    10686    10768    10751    10642    10527    10411 
   10282    10218    10234    10288    10341    10357    10372    10419 
   10465    10512    10552    10508    10395    10284    10162     9994 
    9802     9632     9528     9531     9664     9898    10157    10392 
   10574    10669    10669    10629    10590    10530    10419    10273 
   10160    10168    10324    10563    10789    10909    10916    10872 
   10818    10764    10728    10705    10658    10551    10399    10227 
   10029     9837     9753     9856    10111    10365    10423    10247 
   10023     9913     9934    10065    10253    10399    10419    10280 
   10056     9915     9967    10165    10381    10469    10380    10210 
   10073     9990     9967    10033    10168    10336    10496    10578 
   10586    10570    10520    10435    10362    10284    10180    10123 
   10153    10216    10278    10359    10467    10569    10627    10631 
