Origin Time       2025/03/28 03:50:00
Lat.              35.403
Long.             140.360
Depth. (km)       54
Mag.              4.4
Station Code      KNG004
Station Lat.      35.1442
Station Long.     139.6223
Station Height(m) 31
Record Time       2025/03/28 03:50:58
Sampling Freq(Hz) 100Hz
Duration Time(s)  65
Dir.              E-W
Scale Factor      7845(gal)/8223790
Max. Acc. (gal)   4.429
Last Correction   2025/03/28 03:50:58
Memo.             
[...]
    2020     2023     2031     2031     2033     2035     2033     2031 
    2031     2033     2030     2020     2023     2031     2025     2023 
    2026     2019     2023     2030     2026     2031     2034     2026 
    2026     2029     2020     2016     2023     2025     2027     2033 
    2022     2018     2030     2035     2033     2027     2020     2019 
    2022     2027     2029     2027     2022     2019     2029     2035 
    2030     2026     2031     2030     2026     2025     2020     2020 
    2025     2019     2014     2019     2027     2033     2038     2034 
    2029     2033     2031     2019     2018     2022     2026     2034 
    2037     2029     2026     2022     2015     2023     2033     2025 
    2022     2030     2033     2033     2033     2029     2030     2027 
    2019     2018     2016     2019     2035     2038     2025     2025 
    2030     2026     2025     2022     2019     2023     2035     2042 
    2037     2033     2030     2023     2019     2019     2026     2033 
    2031     2029     2027     2029     2030     2029     2029     2030 
    2027     2027     2033     2033     2027     2023     2023     2031 
    2037     2029     2027     2029     2023     2027     2030     2025 
    2026     2027     2026     2030     2035     2033     2025     2022 
    2019     2023     2025     2022     2034     2046     2038     2023 
    2022     2029     2026     2029     2041     2041     2031     2029 
    2025     2012     2010     2026     2041     2033     2022     2019 
    2020     2033     2042     2033     2026     2030     2031     2030 
    2027     2029     2031     2035     2031     2022     2015     2020 
    2025     2027     2035     2033     2027     2029     2027     2031 
    2041     2041     2030     2019     2019     2034     2037     2031 
    2033     2031     2025     2022     2027     2043     2056     2053 
    2047     2043     2038     2035     2035     2035     2034     2033 
    2023     2018     2019     2010     1998     1987     1975     1969 
    1964     1950     1946     1968     1996     2010     2015     2012 
    1999     1987     1988     2010     2035     2050     2081     2134 
    2182     2208     2204     2173     2139     2112     2073     2020 
    1977     1966     1971     1977     1991     2015     2035     2034 
    1995     1923     1876     1904     1977     2007     1941     1857 
    1875     1975     2068     2118     2138     2153     2193     2230 
    2193     2124     2154     2261     2281     2154     1961     1840 
    1861     1929     1927     1836     1714     1642     1617     1609 
    1642     1788     2054     2276     2331     2297     2272     2308 
    2400     2407     2270     2154     2170     2232     2258     2269 
    2230     2056     1768     1497     1426     1621     1842     1852 
    1706     1638     1817     2101     2187     2018     1829     1819 
    2003     2290     2515     2516     2413     2389     2319     2122 
    1950     1840     1719     1668     1800     2019     2081     1954 
    1825     1759     1817     2106     2470     2571     2317     2019 
    2042     2328     2571     2585     2309     1914     1728     1822 
    1910     1787     1621     1517     1408     1408     1567     1713 
    1788     1867     1992     2119     2280     2552     2704     2511 
    2222     2096     2169     2394     2619     2691     2544     2187 
    1811     1617     1625     1772     1845     1610     1202      980 
    1102     1489     1935     2272     2444     2497     2505     2438 
    2242     2151     2430     2864     2964     2587     2027     1602 
    1471     1667     2006     2169     2027     1763     1653     1782 
    1964     1985     1786     1514     1462     1691     1973     2208 
    2431     2540     2405     2093     1860     1879     2084     2304 
    2392     2266     2030     1930     2000     2068     2077     2064 
    2041     2039     2057     2045     1966     1860     1814     1837 
    1887     1931     1954     2004     2061     2066     2111     2204 
    2201     2133     2160     2288     2390     2366     2158     1850 
    1672     1647     1595     1489     1422     1422     1514     1722 
    1989     2246     2485     2666     2639     2434     2340     2450 
    2548     2504     2380     2274     2166     1999     1796     1605 
    1499     1494     1522     1595     1698     1800     1926     1981 
    1907     1840     1863     1981     2173     2327     2392     2424 
    2466     2540     2558     2444     2272     2081     1907     1831 
    1788     1652     1474     1406     1498     1647     1795     1983 
    2145     2191     2184     2193     2211     2218     2235     2322 
    2439     2448     2278     2046     1975     2092     2164     2035 
    1777     1506     1321     1301     1426     1637     1852     1972 
    2026     2107     2285     2616     2970     3100     2913     2552 
    2276     2143     2034     1910     1798     1710     1661     1626 
    1549     1421     1317     1300     1314     1359     1560     1941 
    2293     2408     2261     2103     2259     2671     2982     3021 
    2856     2635     2470     2355     2253     2119     1950     1815 
    1711     1571     1417     1343     1391     1494     1567     1605 
    1611     1611     1676     1815     1976     2135     2315     2519 
    2710     2851     2903     2821     2697     2647     2570     2359 
    2069     1776     1526     1339     1213     1163     1208     1348 
    1509     1545     1466     1498     1764     2134     2473     2741 
    2914     2982     2940     2768     2525     2357     2300     2235 
    2056     1772     1539     1447     1399     1345     1372     1490 
    1630     1748     1823     1884     2035     2332     2616     2732 
    2768     2799     2728     2469     2100     1833     1814     1969 
    2083     1989     1740     1545     1521     1549     1502     1387 
    1301     1345     1489     1656     1927     2392     2925     3257 
    3238     2968     2635     2320     2085     1973     1912     1864 
    1891     1979     2030     2006     1908     1760     1587     1445 
    1421     1520     1661     1767     1795     1814     1929     2081 
    2201     2328     2473     2635     2829     2988     3048     2991 
    2778     2413     1987     1626     1408     1270     1081      823 
     652      711      981     1350     1713     2039     2353     2685 
    2974     3127     3199     3231     3123     2822     2420     2066 
    1844     1733     1699     1696     1640     1514     1383     1305 
    1335     1486     1675     1802     1890     2025     2192     2308 
    2343     2301     2208     2165     2238     2355     2435     2492 
    2515     2479     2451     2409     2232     1973     1783     1671 
    1578     1451     1306     1240     1289     1426     1644     1900 
    2135     2308     2425     2516     2593     2668     2689     2542 
    2281     2068     1935     1860     1817     1763     1737     1818 
    1915     1861     1701     1637     1772     2049     2346     2556 
    2619     2498     2232     1949     1798     1810     1884     1927 
    1922     1941     2006     2000     1884     1786     1788     1825 
    1807     1767     1795     1911     2085     2223     2266     2288 
    2355     2417     2416     2377     2380     2413     2347     2130 
    1861     1659     1544     1528     1622     1736     1769     1791 
    1871     1996     2149     2253     2220     2130     2119     2187 
    2226     2160     2027     1945     1965     2070     2212     2288 
    2253     2181     2133     2093     2058     2056     2057     2000 
    1896     1779     1641     1512     1479     1579     1723     1834 
    1930     2029     2111     2205     2331     2371     2268     2147 
    2134     2236     2374     2435     2381     2232     2054     1896 
    1734     1617     1626     1748     1872     1892     1860     1926 
    2096     2266     2355     2320     2178     2006     1907     1934 
    2034     2161     2265     2257     2153     2064     2053     2074 
    2062     2030     1968     1867     1792     1804     1890     1983 
    2007     1950     1864     1804     1798     1826     1853     1891 
    1985     2107     2166     2142     2091     2076     2126     2254 
    2413     2525     2563     2523     2371     2141     1950     1883 
    1883     1858     1794     1682     1486     1255     1131     1212 
    1506     1931     2326     2587     2741     2799     2735     2567 
    2382     2262     2196     2119     2034     1973     1922     1857 
    1769     1632     1448     1332     1383     1566     1796     2022 
    2196     2300     2350     2384     2424     2434     2397     2365 
    2365     2377     2366     2263     2035     1782     1613     1551 
    1543     1561     1636     1790     1961     2064     2080     2069 
    2107     2204     2307     2369     2386     2392     2401     2376 
    2309     2201     2026     1786     1514     1316     1273     1327 
    1402     1478     1583     1803     2120     2394     2529     2540 
    2508     2477     2451     2439     2419     2357     2277     2195 
    2081     1933     1786     1649     1529     1468     1507     1621 
    1771     1922     2020     2060     2096     2126     2122     2154 
    2272     2416     2506     2493     2378     2243     2168     2142 
    2101     1984     1784     1598     1520     1534     1618     1764 
    1898     1962     2003     2087     2211     2297     2319     2324 
    2327     2316     2270     2115     1871     1703     1714     1848 
    1979     2007     1956     1906     1899     1954     2045     2135 
    2239     2350     2412     2416     2408     2401     2362     2238 
    2025     1771     1524     1347     1314     1383     1452     1475 
    1493     1566     1701     1904     2143     2295     2317     2323 
    2412     2548     2650     2704     2682     2556     2400     2223 
    1971     1725     1624     1661     1718     1742     1815     1949 
    2046     2052     1960     1834     1809     1918     2064     2161 
    2223     2286     2285     2169     2054     2050     2126     2191 
    2169     2053     1888     1734     1651     1678     1814     2016 
    2168     2143     1957     1753     1660     1686     1780     1900 
    2015     2119     2177     2177     2232     2404     2606     2724 
    2686     2494     2222     1972     1842     1868     1948     1960 
    1892     1767     1594     1463     1468     1567     1663     1736 
    1798     1841     1908     2064     2308     2604     2903     3114 
    3129     2898     2493     2046     1638     1289     1023      876 
     842      865      918     1013     1173     1387     1649     1949 
    2216     2392     2532     2708     2922     3150     3338     3383 
    3199     2814     2363     1973     1701     1526     1410     1310 
    1166      957      778      770     1017     1478     2007     2479 
    2909     3341     3690     3874     3948     3985     3964     3825 
    3538     3119     2633     2150     1687     1242      876      679 
     641      695      850     1128     1479     1802     2030     2178 
    2246     2214     2141     2130     2226     2397     2551     2585 
    2434     2057     1476      822      248     -143     -344     -391 
    -271       36      531     1217     2006     2747     3423     4087 
    4673     5078     5283     5294     5101     4671     4001     3168 
    2300     1486      719       20     -527     -862     -955     -830 
    -572     -252      126      616     1216     1887     2577     3192 
    3665     3982     4124     4094     3986     3901     3839     3743 
    3588     3337     2953     2467     1979     1551     1140      657 
     112     -353     -581     -511     -194      268      762     1220 
    1668     2162     2752     3457     4240     4955     5328     5128 
    4357     3225     2041     1107      573      378      371      452 
     552      603      612      619      607      619      776     1190 
    1896     2764     3612     4317     4762     4862     4622     4139 
    3576     3064     2605     2124     1509      716     -112     -756 
   -1016     -797     -199      577     1325     1908     2326     2644 
    2952     3326     3731     4029     4101     3910     3549     3173 
    2905     2745     2617     2471     2238     1807     1201      571 
      64     -236     -305     -118      346     1044     1803     2454 
    2922     3134     3123     3072     3078     3092     3038     2916 
    2766     2590     2384     2154     1873     1526     1127      669 
     175     -253     -426     -168      503     1390     2236     2813 
    3049     3134     3316     3686     4179     4617     4787     4641 
    4264     3661     2833     1906     1031      371       29      -62 
     -22       79      203      357      557      796     1059     1329 
    1661     2178     2875     3534     3871     3790     3468     3136 
    2883     2735     2679     2667     2663     2650     2554     2322 
    2031     1829     1733     1607     1339      893      325     -180 
    -440     -373       25      707     1599     2592     3458     4036 
    4365     4515     4504     4411     4314     4179     3923     3511 
    2898     2004      900     -135     -895    -1404    -1695    -1692 
   -1383     -862     -211      558     1470     2492     3585     4706 
    5710     6416     6670     6347     5499     4401     3304     2280 
    1332      492     -248     -943    -1570    -2018    -2203    -2049 
   -1503     -631      456     1640     2745     3689     4515     5217 
    5741     6016     5958     5570     4951     4209     3430     2670 
    1961     1305      665       63     -417     -689     -672     -342 
     234      959     1723     2432     2982     3246     3161     2820 
    2443     2187     2076     2103     2207     2316     2411     2435 
    2347     2147     1837     1478     1190     1051     1088     1235 
    1352     1366     1282     1216     1321     1610     2003     2457 
    2899     3246     3437     3414     3230     3063     3025     3091 
    3127     2986     2629     2119     1559     1051      625      284 
      79       48      191      513     1017     1652     2261     2709 
    3010     3261     3512     3750     3970     4172     4298     4206 
    3808     3145     2322     1471      703       48     -465     -792 
    -935     -934     -799     -491        1      673     1505     2415 
    3325     4104     4583     4711     4536     4210     3975     3909 
    3851     3615     3154     2531     1868     1283      814      410 
      52     -186     -265     -230      -90      197      631     1181 
    1777     2331     2779     3145     3483     3788     4067     4283 
    4293     4005     3453     2729     1976     1335      885      611 
     448      371      387      496      687      931     1229     1620 
    2123     2729     3365     3928     4363     4641     4693     4492 
    4062     3426     2650     1834     1032      267     -373     -770 
    -896     -784     -453       45      648     1308     2000     2687 
    3329     3885     4290     4460     4367     4056     3611     3100 
    2544     1961     1385      845      417      171      128      271 
     549      899     1308     1783     2250     2587     2770     2866 
    2899     2871     2816     2745     2641     2544     2471     2347 
    2120     1865     1656     1491     1360     1290     1286     1344 
    1463     1621     1782     1892     1937     1983     2095     2263 
    2442     2567     2602     2547     2417     2269     2168     2173 
    2340     2660     3010     3260     3368     3284     2945     2394 
    1760     1159      683      380      255      279      429      675 
     994     1398     1877     2374     2803     3107     3275     3319 
    3267     3136     2921     2623     2296     1972     1649     1348 
    1102      976     1020     1198     1439     1701     1961     2243 
    2569     2903     3181     3302     3223     3002     2708     2430 
    2214     1989     1688     1309      893      523      286      243 
     422      788     1259     1737     2106     2304     2373     2413 
    2506     2663     2841     3001     3107     3127     3045     2876 
    2664     2470     2358     2296     2176     2006     1864     1786 
    1815     1946     2061     2060     1922     1695     1471     1325 
    1283     1313     1344     1366     1410     1491     1587     1696 
    1854     2033     2146     2193     2251     2386     2613     2878 
    3088     3150     3049     2863     2635     2367     2093     1860 
    1667     1464     1258     1104     1023     1017     1063     1109 
    1143     1210     1391     1713     2083     2444     2824     3188 
    3427     3512     3508     3437     3280     3036     2691     2268 
    1815     1386     1039      810      700      730      861     1008 
    1167     1393     1702     2068     2463     2856     3187     3391 
    3445     3370     3191     2932     2598     2127     1518      907 
     405       52      -74       41      336      766     1267     1775 
    2289     2821     3325     3717     3956     4064     4043     3879 
    3570     3106     2550     2004     1549     1233     1000      737 
     442      222      152      260      565     1034     1561     2064 
    2473     2722     2814     2855     2922     3015     3100     3099 
    2945     2706     2455     2207     1992     1802     1598     1422 
    1339     1328     1382     1509     1682     1908     2189     2457 
    2670     2798     2789     2628     2366     2057     1777     1641 
    1665     1757     1841     1885     1898     1887     1822     1741 
    1719     1768     1849     1915     1948     1973     1965     1898 
    1814     1769     1829     2006     2235     2454     2608     2702 
    2799     2889     2906     2845     2716     2527     2288     2033 
    1815     1657     1543     1422     1248     1073      990     1036 
    1229     1530     1825     2066     2216     2255     2254     2230 
    2173     2141     2141     2157     2228     2322     2367     2373 
    2342     2289     2227     2119     1980     1884     1867     1919 
    2000     2026     1993     1972     1964     1952     1944     1903 
    1807     1709     1644     1618     1680     1817     1927     2004 
    2095     2162     2177     2200     2270     2347     2394     2411 
    2407     2390     2371     2331     2247     2120     1948     1740 
    1560     1456     1420     1483     1680     1915     2068     2124 
    2135     2103     2014     1927     1885     1908     2035     2246 
    2420     2467     2443     2415     2367     2276     2120     1931 
    1794     1729     1737     1846     2016     2155     2236     2259 
    2214     2162     2153     2101     1968     1814     1694     1630 
    1625     1655     1668     1628     1566     1510     1422     1327 
    1337     1514     1830     2177     2432     2606     2740     2821 
    2883     2974     3051     3073     3005     2797     2497     2218 
    2012     1829     1609     1387     1236     1165     1154     1213 
    1340     1544     1803     2039     2230     2431     2648     2829 
