Origin Time       2025/03/28 03:50:00
Lat.              35.403
Long.             140.360
Depth. (km)       54
Mag.              4.4
Station Code      KNG005
Station Lat.      35.3191
Station Long.     139.5461
Station Height(m) 10
Record Time       2025/03/28 03:50:54
Sampling Freq(Hz) 100Hz
Duration Time(s)  60
Dir.              E-W
Scale Factor      7845(gal)/8223790
Max. Acc. (gal)   2.111
Last Correction   2025/03/28 03:50:54
Memo.             
[...]
  -11495   -11506   -11511   -11499   -11496   -11520   -11519   -11491 
  -11496   -11520   -11512   -11500   -11507   -11507   -11503   -11508 
  -11508   -11495   -11497   -11519   -11508   -11485   -11502   -11523 
  -11511   -11496   -11500   -11504   -11497   -11500   -11515   -11515 
  -11499   -11497   -11502   -11500   -11508   -11512   -11503   -11499 
  -11502   -11506   -11504   -11502   -11512   -11510   -11493   -11500 
  -11512   -11502   -11500   -11514   -11511   -11503   -11504   -11502 
  -11496   -11502   -11507   -11504   -11506   -11511   -11511   -11495 
  -11493   -11512   -11508   -11496   -11499   -11506   -11507   -11496 
  -11495   -11511   -11512   -11500   -11497   -11511   -11514   -11493 
  -11492   -11510   -11507   -11497   -11503   -11512   -11514   -11497 
  -11483   -11499   -11518   -11512   -11504   -11500   -11499   -11510 
  -11510   -11493   -11496   -11507   -11499   -11497   -11516   -11515 
  -11499   -11500   -11504   -11500   -11503   -11503   -11506   -11512 
  -11508   -11503   -11499   -11500   -11511   -11507   -11499   -11503 
  -11499   -11500   -11508   -11510   -11504   -11495   -11493   -11503 
  -11507   -11506   -11508   -11504   -11492   -11496   -11506   -11506 
  -11508   -11504   -11499   -11510   -11512   -11511   -11506   -11491 
  -11496   -11512   -11507   -11503   -11512   -11515   -11507   -11499 
  -11502   -11511   -11510   -11500   -11502   -11511   -11506   -11497 
  -11503   -11510   -11500   -11496   -11504   -11508   -11510   -11511 
  -11504   -11497   -11493   -11495   -11511   -11523   -11514   -11500 
  -11504   -11502   -11485   -11497   -11524   -11518   -11503   -11511 
  -11512   -11499   -11495   -11510   -11516   -11507   -11499   -11491 
  -11495   -11511   -11514   -11511   -11503   -11489   -11499   -11511 
  -11506   -11503   -11507   -11507   -11500   -11495   -11504   -11516 
  -11515   -11502   -11496   -11511   -11519   -11499   -11495   -11514 
  -11512   -11497   -11500   -11503   -11500   -11506   -11504   -11497 
  -11511   -11522   -11502   -11489   -11510   -11507   -11491   -11510 
  -11523   -11502   -11496   -11515   -11510   -11492   -11503   -11518 
  -11512   -11508   -11502   -11496   -11511   -11515   -11499   -11493 
  -11500   -11516   -11518   -11499   -11508   -11523   -11496   -11481 
  -11497   -11511   -11508   -11496   -11507   -11522   -11502   -11487 
  -11497   -11507   -11506   -11507   -11518   -11508   -11491   -11500 
  -11506   -11500   -11508   -11507   -11508   -11518   -11502   -11488 
  -11496   -11502   -11508   -11519   -11514   -11499   -11499   -11511 
  -11511   -11499   -11493   -11496   -11502   -11512   -11515   -11507 
  -11510   -11508   -11492   -11485   -11500   -11516   -11512   -11508 
  -11503   -11489   -11492   -11516   -11523   -11503   -11491   -11504 
  -11512   -11508   -11510   -11504   -11491   -11496   -11515   -11512 
  -11506   -11510   -11508   -11502   -11502   -11499   -11499   -11499 
  -11508   -11516   -11504   -11496   -11504   -11512   -11515   -11506 
  -11493   -11499   -11510   -11507   -11507   -11514   -11507   -11492 
  -11493   -11511   -11518   -11503   -11496   -11506   -11510   -11503 
  -11500   -11503   -11508   -11504   -11487   -11489   -11508   -11507 
  -11512   -11518   -11496   -11491   -11504   -11497   -11496   -11507 
  -11507   -11512   -11519   -11495   -11480   -11506   -11519   -11502 
  -11493   -11506   -11515   -11502   -11493   -11510   -11510   -11491 
  -11493   -11510   -11512   -11504   -11496   -11492   -11506   -11522 
  -11508   -11489   -11499   -11507   -11492   -11495   -11520   -11522 
  -11499   -11499   -11512   -11500   -11488   -11500   -11512   -11511 
  -11514   -11520   -11514   -11497   -11493   -11497   -11502   -11512 
  -11512   -11503   -11500   -11502   -11499   -11507   -11518   -11506 
  -11496   -11514   -11518   -11500   -11502   -11518   -11507   -11485 
  -11493   -11518   -11516   -11500   -11503   -11515   -11508   -11493 
  -11500   -11515   -11512   -11504   -11502   -11503   -11512   -11511 
  -11495   -11496   -11511   -11504   -11488   -11499   -11520   -11511 
  -11497   -11508   -11512   -11492   -11493   -11510   -11508   -11510 
  -11510   -11502   -11503   -11504   -11507   -11510   -11506   -11510 
  -11504   -11484   -11492   -11518   -11519   -11508   -11499   -11495 
  -11499   -11508   -11511   -11499   -11489   -11508   -11527   -11511 
  -11492   -11493   -11499   -11502   -11507   -11512   -11511   -11504 
  -11510   -11511   -11500   -11511   -11519   -11502   -11493   -11504 
  -11511   -11512   -11519   -11512   -11491   -11497   -11516   -11511 
  -11504   -11507   -11504   -11500   -11506   -11508   -11492   -11487 
  -11514   -11530   -11508   -11489   -11496   -11508   -11507   -11506 
  -11512   -11506   -11493   -11502   -11514   -11506   -11495   -11510 
  -11512   -11497   -11499   -11508   -11507   -11508   -11506   -11495 
  -11496   -11510   -11508   -11504   -11500   -11489   -11497   -11514 
  -11512   -11506   -11500   -11489   -11489   -11506   -11522   -11520 
  -11502   -11491   -11499   -11507   -11508   -11511   -11506   -11496 
  -11499   -11506   -11507   -11504   -11503   -11503   -11499   -11502 
  -11510   -11507   -11496   -11502   -11516   -11507   -11491   -11496 
  -11503   -11502   -11507   -11511   -11499   -11491   -11499   -11510 
  -11514   -11506   -11495   -11493   -11506   -11518   -11507   -11500 
  -11511   -11503   -11495   -11508   -11512   -11496   -11493   -11515 
  -11520   -11504   -11492   -11497   -11507   -11507   -11506   -11504 
  -11497   -11497   -11511   -11520   -11514   -11492   -11477   -11493 
  -11518   -11523   -11508   -11497   -11499   -11495   -11497   -11522 
  -11520   -11492   -11491   -11508   -11510   -11504   -11507   -11503 
  -11496   -11504   -11518   -11507   -11495   -11503   -11514   -11514 
  -11500   -11491   -11497   -11503   -11507   -11512   -11499   -11495 
  -11507   -11507   -11508   -11510   -11504   -11497   -11497   -11514 
  -11511   -11489   -11496   -11510   -11506   -11508   -11514   -11502 
  -11495   -11503   -11508   -11502   -11499   -11506   -11508   -11508 
  -11500   -11493   -11506   -11512   -11504   -11511   -11510   -11496 
  -11497   -11495   -11500   -11522   -11518   -11493   -11496   -11507 
  -11506   -11503   -11503   -11504   -11504   -11507   -11508   -11502 
  -11500   -11511   -11511   -11497   -11496   -11510   -11510   -11506 
  -11510   -11508   -11497   -11495   -11504   -11510   -11508   -11518 
  -11514   -11492   -11497   -11512   -11499   -11502   -11518   -11511 
  -11502   -11507   -11506   -11499   -11504   -11511   -11506   -11502 
  -11507   -11511   -11510   -11507   -11503   -11503   -11511   -11512 
  -11500   -11499   -11502   -11502   -11510   -11515   -11504   -11492 
  -11497   -11515   -11518   -11500   -11496   -11511   -11512   -11500 
  -11492   -11495   -11508   -11515   -11510   -11503   -11499   -11502 
  -11508   -11507   -11500   -11499   -11508   -11508   -11502   -11508 
  -11512   -11506   -11504   -11503   -11496   -11506   -11516   -11506 
  -11496   -11499   -11493   -11502   -11520   -11508   -11496   -11506 
  -11504   -11499   -11507   -11511   -11508   -11507   -11502   -11491 
  -11497   -11510   -11504   -11510   -11520   -11506   -11491   -11493 
  -11503   -11514   -11508   -11493   -11502   -11514   -11503   -11496 
  -11507   -11506   -11506   -11516   -11510   -11493   -11499   -11510 
  -11511   -11508   -11499   -11496   -11507   -11507   -11500   -11500 
  -11504   -11507   -11502   -11492   -11496   -11515   -11516   -11499 
  -11497   -11502   -11496   -11502   -11512   -11507   -11507   -11510 
  -11500   -11497   -11507   -11516   -11514   -11496   -11491   -11507 
  -11515   -11500   -11492   -11504   -11512   -11507   -11502   -11500 
  -11506   -11508   -11503   -11507   -11515   -11504   -11493   -11504 
  -11512   -11506   -11503   -11507   -11511   -11510   -11502   -11500 
  -11507   -11500   -11499   -11515   -11514   -11502   -11508   -11507 
  -11496   -11500   -11508   -11512   -11515   -11510   -11500   -11500 
  -11503   -11502   -11507   -11511   -11506   -11503   -11507   -11508 
  -11499   -11495   -11503   -11508   -11504   -11504   -11519   -11519 
  -11492   -11487   -11514   -11511   -11492   -11500   -11514   -11515 
  -11508   -11500   -11502   -11497   -11495   -11503   -11506   -11506 
  -11511   -11510   -11495   -11492   -11506   -11512   -11510   -11503 
  -11496   -11500   -11510   -11504   -11493   -11502   -11507   -11508 
  -11510   -11507   -11504   -11500   -11500   -11507   -11507   -11511 
  -11518   -11507   -11492   -11495   -11502   -11507   -11511   -11512 
  -11507   -11495   -11496   -11506   -11503   -11503   -11506   -11503 
  -11500   -11506   -11510   -11504   -11500   -11510   -11510   -11502 
  -11510   -11516   -11506   -11502   -11511   -11514   -11507   -11506 
  -11510   -11507   -11503   -11512   -11515   -11500   -11500   -11508 
  -11503   -11496   -11502   -11510   -11510   -11503   -11507   -11511 
  -11504   -11503   -11503   -11504   -11512   -11507   -11500   -11510 
  -11510   -11500   -11502   -11511   -11511   -11504   -11504   -11502 
  -11496   -11503   -11512   -11508   -11496   -11493   -11506   -11511 
  -11506   -11502   -11502   -11497   -11497   -11506   -11510   -11502 
  -11496   -11500   -11504   -11507   -11503   -11500   -11506   -11510 
  -11503   -11497   -11500   -11507   -11508   -11499   -11497   -11504 
  -11502   -11497   -11504   -11507   -11502   -11500   -11506   -11506 
  -11504   -11503   -11497   -11500   -11514   -11511   -11502   -11507 
  -11508   -11497   -11497   -11510   -11510   -11499   -11499   -11506 
  -11506   -11506   -11508   -11506   -11499   -11504   -11510   -11503 
  -11504   -11511   -11503   -11499   -11507   -11499   -11493   -11508 
  -11516   -11507   -11499   -11502   -11502   -11499   -11503   -11507 
  -11506   -11503   -11502   -11500   -11503   -11508   -11508   -11506 
  -11506   -11503   -11506   -11510   -11502   -11500   -11514   -11512 
  -11502   -11508   -11515   -11503   -11499   -11507   -11507   -11503 
  -11502   -11507   -11510   -11503   -11496   -11504   -11515   -11510 
  -11503   -11506   -11507   -11504   -11503   -11507   -11507   -11502 
  -11508   -11516   -11511   -11502   -11507   -11515   -11510   -11500 
  -11503   -11508   -11508   -11508   -11507   -11507   -11511   -11503 
  -11492   -11503   -11512   -11502   -11503   -11516   -11506   -11495 
  -11507   -11510   -11499   -11503   -11510   -11508   -11511   -11507 
  -11504   -11507   -11503   -11502   -11510   -11504   -11497   -11510 
  -11514   -11499   -11500   -11510   -11497   -11500   -11515   -11500 
  -11493   -11512   -11511   -11500   -11506   -11507   -11503   -11503 
  -11500   -11504   -11515   -11511   -11497   -11504   -11512   -11500 
  -11496   -11507   -11507   -11503   -11503   -11499   -11506   -11512 
  -11500   -11499   -11512   -11502   -11485   -11503   -11515   -11504 
  -11502   -11507   -11504   -11499   -11500   -11507   -11514   -11512 
  -11502   -11497   -11507   -11506   -11497   -11506   -11515   -11506 
  -11499   -11497   -11496   -11506   -11516   -11514   -11504   -11497 
  -11496   -11500   -11504   -11503   -11503   -11507   -11506   -11503 
  -11503   -11503   -11497   -11497   -11503   -11503   -11502   -11506 
  -11510   -11506   -11499   -11500   -11504   -11502   -11506   -11512 
  -11506   -11497   -11499   -11507   -11511   -11506   -11506   -11510 
  -11507   -11502   -11497   -11503   -11510   -11506   -11500   -11503 
  -11503   -11502   -11504   -11504   -11504   -11510   -11504   -11492 
  -11500   -11510   -11504   -11504   -11508   -11502   -11493   -11497 
  -11507   -11510   -11507   -11502   -11503   -11511   -11510   -11497 
  -11499   -11510   -11503   -11500   -11507   -11499   -11497   -11512 
  -11514   -11502   -11497   -11499   -11507   -11512   -11506   -11504 
  -11508   -11506   -11504   -11506   -11503   -11504   -11507   -11507 
  -11507   -11511   -11511   -11511   -11508   -11500   -11495   -11500 
  -11512   -11514   -11504   -11503   -11510   -11510   -11506   -11503 
  -11504   -11512   -11514   -11502   -11496   -11504   -11512   -11512 
  -11510   -11507   -11506   -11500   -11502   -11516   -11516   -11503 
  -11503   -11511   -11511   -11504   -11499   -11500   -11510   -11512 
  -11504   -11508   -11519   -11507   -11493   -11507   -11514   -11506 
  -11507   -11508   -11506   -11507   -11504   -11503   -11500   -11497 
  -11508   -11514   -11503   -11508   -11512   -11504   -11504   -11506 
  -11510   -11511   -11503   -11503   -11511   -11508   -11504   -11504 
  -11504   -11503   -11507   -11507   -11504   -11511   -11518   -11510 
  -11496   -11499   -11506   -11504   -11511   -11519   -11514   -11515 
  -11519   -11506   -11499   -11510   -11514   -11511   -11522   -11529 
  -11523   -11524   -11514   -11484   -11466   -11470   -11476   -11479 
  -11480   -11485   -11503   -11527   -11550   -11564   -11558   -11556 
  -11547   -11488   -11404   -11381   -11410   -11423   -11407   -11385 
  -11437   -11626   -11866   -11959   -11786   -11434   -11146   -11056 
  -11084   -11203   -11475   -11809   -12024   -12004   -11696   -11222 
  -10916   -11010   -11377   -11718   -11947   -12145   -12137   -11685 
  -11070   -10827   -11052   -11392   -11589   -11662   -11541   -11225 
  -11051   -11190   -11475   -11820   -12193   -12434   -12348   -11815 
  -10925   -10019    -9625   -10212   -11686   -13182   -13718   -13041 
  -11669   -10405    -9873   -10188   -11072   -12073   -12619   -12517 
  -12102   -11515   -10741   -10265   -10582   -11500   -12355   -12592 
  -12174   -11411   -10756   -10767   -11429   -11904   -11735   -11402 
  -11392   -11614   -11769   -11755   -11614   -11418   -11283   -11340 
  -11616   -11848   -11664   -11215   -11018   -11164   -11404   -11653 
  -11901   -12074   -12054   -11740   -11252   -10870   -10870   -11330 
  -11782   -11700   -11321   -11041   -10944   -11260   -11940   -12326 
  -12077   -11551   -11205   -11067   -10894   -10887   -11491   -12340 
  -12621   -12143   -11323   -10650   -10459   -10891   -11790   -12553 
  -12517   -11785   -11099   -10909   -11098   -11392   -11588   -11658 
  -11753   -11919   -11962   -11682   -11121   -10638   -10670   -11244 
  -11907   -12190   -12035   -11781   -11623   -11454   -11248   -11075 
  -11047   -11308   -11700   -11867   -11750   -11534   -11361   -11276 
  -11399   -11773   -11956   -11642   -11281   -11250   -11383   -11524 
  -11584   -11492   -11442   -11560   -11708   -11765   -11622   -11250 
  -10971   -11130   -11624   -12040   -12070   -11772   -11450   -11279 
  -11267   -11333   -11311   -11246   -11307   -11450   -11570   -11601 
  -11520   -11497   -11642   -11759   -11661   -11411   -11242   -11372 
  -11732   -12009   -12012   -11740   -11321   -11043   -11115   -11407 
  -11638   -11634   -11452   -11361   -11461   -11518   -11392   -11234 
  -11265   -11522   -11761   -11738   -11508   -11260   -11164   -11345 
  -11697   -11954   -11986   -11824   -11527   -11199   -10974   -11016 
  -11392   -11947   -12398   -12418   -11890   -11126   -10534   -10334 
  -10632   -11350   -12158   -12614   -12441   -11804   -11161   -10793 
  -10724   -10984   -11574   -12197   -12383   -12006   -11365   -10821 
  -10638   -10906   -11480   -12042   -12240   -11990   -11600   -11313 
  -11101   -11029   -11221   -11557   -11839   -11921   -11784   -11615 
  -11511   -11407   -11360   -11388   -11356   -11323   -11462   -11730 
  -11898   -11827   -11600   -11357   -11173   -11153   -11349   -11620 
  -11761   -11696   -11556   -11527   -11546   -11388   -11114   -11028 
  -11249   -11568   -11736   -11713   -11607   -11503   -11469   -11499 
  -11461   -11288   -11080   -10975   -11098   -11504   -12050   -12413 
  -12330   -11877   -11388   -11084   -11028   -11279   -11715   -11998 
  -11913   -11550   -11194   -11064   -11178   -11427   -11681   -11817 
  -11759   -11542   -11302   -11153   -11191   -11445   -11728   -11808 
  -11664   -11408   -11209   -11234   -11480   -11745   -11859   -11830 
  -11697   -11530   -11481   -11515   -11443   -11313   -11257   -11218 
  -11124   -11137   -11470   -11959   -12189   -12058   -11762   -11389 
  -10984   -10775   -10974   -11477   -11979   -12212   -12025   -11508 
  -11017   -10845   -11016   -11434   -11859   -12005   -11884   -11672 
  -11446   -11288   -11291   -11421   -11543   -11580   -11534   -11430 
  -11323   -11314   -11454   -11670   -11805   -11790   -11654   -11415 
  -11172   -11087   -11153   -11317   -11599   -11851   -11908   -11857 
  -11734   -11446   -11164   -11171   -11402   -11589   -11639   -11651 
  -11723   -11813   -11819   -11684   -11416   -11132   -11044   -11198 
  -11452   -11743   -11978   -11936   -11649   -11385   -11240   -11178 
  -11234   -11389   -11554   -11662   -11635   -11515   -11466   -11460 
  -11388   -11315   -11269   -11267   -11430   -11701   -11846   -11751 
  -11535   -11425   -11449   -11446   -11415   -11480   -11572   -11561 
  -11483   -11437   -11446   -11489   -11556   -11622   -11634   -11599 
  -11576   -11537   -11434   -11375   -11449   -11526   -11479   -11410 
  -11470   -11553   -11464   -11329   -11371   -11489   -11497   -11425 
  -11388   -11461   -11650   -11862   -11969   -11909   -11692   -11375 
  -11088   -10998   -11178   -11527   -11836   -11908   -11719   -11457 
  -11306   -11299   -11392   -11480   -11457   -11338   -11248   -11290 
  -11414   -11510   -11558   -11518   -11373   -11302   -11465   -11794 
  -12071   -12062   -11762   -11442   -11319   -11389   -11520   -11627 
  -11696   -11655   -11469   -11295   -11261   -11327   -11411   -11453 
  -11453   -11496   -11608   -11654   -11558   -11465   -11503   -11615 
  -11658   -11531   -11306   -11160   -11209   -11473   -11821   -12048 
  -12083   -11913   -11510   -11040   -10827   -11024   -11475   -11821 
  -11863   -11720   -11520   -11329   -11261   -11329   -11452   -11583 
  -11605   -11485   -11368   -11325   -11356   -11489   -11661   -11778 
  -11820   -11726   -11483   -11246   -11134   -11105   -11130   -11240 
  -11439   -11711   -11938   -11947   -11734   -11457   -11310   -11425 
  -11699   -11884   -11824   -11497   -11074   -10894   -11087   -11434 
  -11701   -11788   -11676   -11480   -11422   -11612   -11873   -11931 
  -11762   -11518   -11283   -11105   -11072   -11244   -11591   -11892 
  -11843   -11495   -11211   -11161   -11294   -11612   -12006   -12198 
  -12048   -11654   -11206   -10897   -10871   -11130   -11469   -11630 
  -11624   -11622   -11593   -11497   -11472   -11554   -11619   -11619 
  -11553   -11430   -11340   -11379   -11556   -11732   -11736   -11585 
  -11454   -11402   -11407   -11480   -11583   -11635   -11589   -11426 
  -11284   -11335   -11495   -11595   -11630   -11642   -11614   -11500 
  -11321   -11191   -11199   -11304   -11435   -11530   -11553   -11551 
  -11585   -11638   -11643   -11569   -11475   -11421   -11404   -11439 
  -11568   -11730   -11813   -11788   -11665   -11460   -11236   -11092 
  -11092   -11222   -11443   -11724   -11947   -11951   -11736   -11480 
  -11321   -11271   -11319   -11437   -11565   -11668   -11665   -11507 
  -11392   -11512   -11700   -11724   -11654   -11619   -11550   -11383 
