Origin Time       2025/03/28 03:50:00
Lat.              35.403
Long.             140.360
Depth. (km)       54
Mag.              4.4
Station Code      KNG001
Station Lat.      35.5291
Station Long.     139.7061
Station Height(m) 2
Record Time       2025/03/28 03:51:01
Sampling Freq(Hz) 100Hz
Duration Time(s)  60
Dir.              U-D
Scale Factor      7845(gal)/8223790
Max. Acc. (gal)   3.416
Last Correction   2025/03/28 03:51:01
Memo.             
[...]
    8492     8469     8491     8515     8495     8456     8441     8472 
    8522     8526     8495     8498     8527     8532     8510     8495 
    8500     8523     8537     8513     8479     8492     8530     8515 
    8468     8465     8503     8526     8513     8486     8490     8513 
    8503     8465     8455     8487     8511     8500     8488     8488 
    8505     8526     8518     8498     8507     8525     8515     8491 
    8488     8515     8526     8507     8498     8510     8515     8495 
    8471     8480     8511     8511     8476     8459     8475     8496 
    8500     8491     8482     8502     8532     8510     8475     8499 
    8542     8541     8510     8486     8483     8494     8486     8453 
    8451     8496     8529     8507     8486     8505     8526     8518 
    8490     8469     8490     8529     8514     8468     8467     8495 
    8500     8479     8459     8476     8515     8517     8482     8467 
    8492     8521     8511     8487     8500     8529     8527     8499 
    8471     8488     8537     8534     8469     8442     8483     8515 
    8506     8490     8487     8499     8503     8472     8453     8480 
    8510     8509     8502     8507     8510     8509     8490     8467 
    8480     8517     8527     8502     8491     8519     8530     8503 
    8498     8513     8510     8498     8486     8480     8494     8505 
    8499     8490     8494     8513     8532     8522     8498     8500 
    8521     8519     8494     8483     8506     8525     8506     8476 
    8478     8511     8529     8503     8480     8499     8518     8499 
    8483     8506     8530     8515     8484     8478     8502     8540 
    8544     8506     8487     8503     8503     8482     8473     8488 
    8506     8503     8472     8453     8483     8529     8534     8507 
    8496     8503     8502     8491     8486     8492     8509     8502 
    8471     8467     8510     8538     8517     8486     8487     8502 
    8502     8492     8483     8483     8490     8471     8448     8471 
    8515     8540     8522     8492     8506     8541     8530     8486 
    8479     8522     8533     8482     8442     8457     8491     8510 
    8495     8457     8452     8479     8486     8472     8496     8542 
    8550     8522     8503     8513     8533     8523     8473     8446 
    8483     8515     8499     8483     8503     8527     8517     8473 
    8446     8471     8514     8514     8491     8492     8517     8523 
    8494     8468     8486     8525     8536     8495     8469     8505 
    8522     8486     8463     8482     8514     8521     8496     8483 
    8505     8534     8525     8472     8451     8498     8527     8496 
    8471     8492     8517     8503     8467     8464     8515     8554 
    8519     8461     8438     8444     8468     8499     8526     8561 
    8583     8542     8468     8442     8491     8538     8522     8469 
    8440     8461     8502     8523     8530     8544     8538     8480 
    8415     8430     8491     8511     8488     8464     8480     8541 
    8565     8502     8438     8467     8541     8575     8553     8507 
    8482     8478     8459     8451     8498     8560     8557     8496 
    8446     8451     8483     8505     8510     8507     8495     8479 
    8465     8492     8565     8599     8536     8445     8411     8456 
    8532     8556     8536     8530     8502     8422     8384     8445 
    8544     8600     8580     8517     8467     8448     8438     8430 
    8456     8518     8564     8561     8532     8499     8464     8434 
    8442     8486     8548     8598     8577     8500     8478     8510 
    8518     8498     8475     8471     8486     8479     8461     8490 
    8529     8514     8463     8444     8480     8529     8536     8510 
    8496     8499     8498     8494     8496     8510     8533     8540 
    8533     8542     8548     8536     8541     8583     8641     8684 
    8677     8631     8618     8692     8830     8947     8961     8815 
    8522     8187     7946     7915     8131     8460     8691     8676 
    8437     8155     7966     7796     7665     7836     8318     8715 
    8791     8608     8282     8056     8075     8118     8158     8554 
    9273     9722     9552     8884     7975     7311     7512     8469 
    9289     9526     9359     8779     7915     7469     7830     8571 
    9151     9413     9394     9170     8829     8417     8032     7855 
    8037     8480     8772     8741     8679     8622     8291     7893 
    7942     8338     8588     8672     8773     8642     8195     8002 
    8247     8444     8576     8853     8884     8587     8494     8598 
    8617     8758     8885     8469     7851     7777     8154     8581 
    9024     9309     9188     8834     8410     7870     7399     7241 
    7433     8037     8974     9751     9890     9433     8675     7852 
    7437     7870     8818     9437     9259     8568     8019     7871 
    7950     8240     8826     9402     9493     9121     8675     8233 
    7855     7823     7992     8024     8120     8487     8920     9211 
    9208     8878     8478     8194     8056     8232     8656     8843 
    8645     8415     8176     7720     7588     8298     9057     9104 
    8985     9034     8769     8280     8175     8338     8276     8186 
    8403     8548     8398     8405     8584     8455     8151     8181 
    8533     8866     9008     8918     8590     8214     8131     8361 
    8607     8773     8820     8560     8212     8286     8650     8761 
    8685     8730     8638     8268     8013     7947     7898     8143 
    8760     9221     9315     9282     9131     8804     8446     8097 
    7821     7928     8356     8534     8232     7867     7902     8314 
    8721     8878     8876     8861     8789     8491     8075     7873 
    7881     8000     8356     8764     8937     9046     9126     8911 
    8521     8271     8257     8469     8739     8791     8630     8440 
    8187     7900     7944     8419     8853     8977     8964     8781 
    8378     8104     8158     8295     8436     8793     9267     9283 
    8676     8091     8021     8293     8652     8914     8920     8741 
    8383     7892     7730     8079     8525     8779     8797     8579 
    8348     8418     8675     8611     8237     8077     8093     8067 
    8355     8884     8986     8730     8584     8309     7839     7919 
    8711     9396     9558     9396     8877     8135     7778     7906 
    8062     8171     8387     8522     8507     8592     8731     8668 
    8556     8604     8619     8529     8615     8838     8745     8279 
    7874     7763     7973     8522     9154     9414     9126     8500 
    7954     7830     8144     8625     8873     8602     8104     8025 
    8415     8857     9242     9531     9378     8762     8152     7753 
    7555     7766     8298     8648     8708     8827     9047     9050 
    8716     8253     7954     7996     8241     8500     8893     9339 
    9289     8618     7939     7719     7933     8433     8908     8908 
    8399     7863     7631     7761     8378     9285     9702     9290 
    8552     7946     7631     7723     8129     8622     9018     9039 
    8650     8360     8486     8710     8792     8750     8498     8220 
    8356     8784     8974     8884     8779     8631     8387     8216 
    8220     8429     8739     8729     8224     7754     7848     8398 
    8978     9263     9042     8399     7830     7739     8093     8641 
    9077     9127     8735     8097     7589     7609     8229     9004 
    9294     8970     8515     8171     7820     7668     7985     8515 
    8835     8989     9232     9342     8989     8556     8483     8479 
    8266     8156     8355     8487     8334     8264     8401     8388 
    8318     8479     8548     8274     8093     8306     8621     8815 
    8966     8910     8471     8063     8075     8395     8843     9120 
    8935     8546     8310     8187     8213     8537     8914     8970 
    8799     8640     8472     8222     7919     7731     7933     8371 
    8596     8753     9101     9282     9078     8818     8613     8257 
    7823     7673     7946     8398     8729     8814     8727     8591 
    8469     8430     8444     8376     8326     8499     8702     8681 
    8600     8635     8691     8675     8635     8594     8537     8608 
    8830     8829     8467     8155     8075     8017     7947     8006 
    8262     8656     8935     8870     8676     8591     8425     8266 
    8607     9224     9406     9139     8757     8294     7851     7705 
    7844     8004     8160     8498     8777     8600     8274     8332 
    8653     8850     8856     8772     8629     8415     8210     8145 
    8283     8577     8837     8912     8830     8596     8309     8270 
    8410     8310     8062     8060     8256     8487     8785     8965 
    8770     8463     8452     8614     8704     8803     8827     8567 
    8202     7996     8004     8298     8731     8901     8765     8594 
    8437     8213     8014     8016     8198     8382     8490     8554 
    8622     8795     8954     8695     8108     7834     8021     8360 
    8850     9369     9458     9212     9012     8726     8426     8494 
    8591     8166     7547     7350     7670     8309     8972     9227 
    9004     8729     8527     8297     8394     8899     9040     8479 
    7836     7524     7549     8024     8668     8984     9123     9277 
    9072     8563     8376     8473     8363     8203     8357     8611 
    8671     8642     8653     8598     8387     8170     8144     8293 
    8546     8839     8930     8675     8326     8213     8345     8472 
    8475     8506     8634     8700     8575     8314     8108     8048 
    8064     8271     8835     9358     9250     8683     8248     8083 
    8125     8490     8997     9162     8924     8622     8317     7933 
    7757     7917     7965     7762     7755     8012     8432     9223 
   10039    10125     9562     8907     8294     7828     7797     8074 
    8260     8386     8588     8573     8282     8140     8230     8372 
    8671     9066     9200     9076     8958     8749     8345     8063 
    8010     7981     8082     8383     8499     8298     8167     8270 
    8374     8429     8548     8622     8575     8564     8680     8903 
    9116     9051     8656     8299     8252     8413     8640     8760 
    8490     7881     7501     7672     8106     8608     9169     9386 
    8977     8410     8190     8290     8572     8918     9039     8827 
    8550     8444     8453     8464     8461     8371     8164     8086 
    8216     8263     8214     8371     8725     8993     8996     8803 
    8668     8718     8829     8862     8815     8746     8626     8411 
    8241     8182     8050     7854     7763     7754     7875     8311 
    8885     9254     9401     9410     9177     8694     8205     7882 
    7761     7839     7960     8039     8179     8247     8101     8063 
    8353     8764     9165     9490     9545     9320     8977     8614 
    8352     8313     8469     8676     8610     8081     7578     7608 
    7898     8179     8583     8905     8866     8679     8565     8463 
    8336     8295     8430     8669     8831     8789     8642     8598 
    8614     8563     8563     8664     8683     8623     8617     8548 
    8356     8255     8291     8298     8426     8827     9028     8723 
    8353     8143     7882     7720     7928     8341     8687     8915 
    9039     9059     9007     8993     9090     9085     8715     8106 
    7612     7403     7380     7506     7989     8699     9112     9134 
    9016     8796     8631     8793     9055     9059     8923     8754 
    8378     7951     7873     8090     8295     8395     8325     8008 
    7669     7615     7905     8445     9035     9425     9510     9323 
    9023     8910     9027     8954     8448     7897     7692     7705 
    7763     7989     8391     8685     8715     8577     8446     8422 
    8445     8456     8532     8691     8845     8949     8992     8949 
    8814     8613     8384     8078     7708     7600     7925     8318 
    8509     8669     8872     8951     8945     8992     8972     8733 
    8428     8266     8247     8280     8348     8446     8445     8190 
    7850     7766     7973     8305     8679     8988     9016     8745 
    8529     8590     8727     8880     9161     9308     9023     8484 
    7955     7647     7831     8363     8775     8981     9165     9250 
    9054     8627     8233     8023     7831     7535     7350     7472 
    7809     8191     8464     8567     8660     8860     9043     9165 
    9394     9648     9485     8916     8573     8779     9243     9637 
    9794     9570     8842     7712     6569     5786     5471     5648 
    6376     7514     8660     9587    10324    10704    10581    10179 
    9578     8773     8206     8182     8375     8440     8424     8380 
    8187     7929     7913     8098     8210     8270     8390     8503 
    8599     8707     8711     8590     8500     8403     8155     7939 
    8036     8347     8559     8661     8901     9244     9315     9090 
    8988     8981     8695     8232     7882     7595     7345     7317 
    7520     7812     8310     9193    10131    10658    10804    10670 
   10008     8891     7836     6991     6258     5825     5782     5938 
    6238     6779     7487     8241     9112    10073    10852    11371 
   11804    12033    11745    11016    10150     9243     8367     7676 
    7136     6609     6129     5678     5182     4918     5319     6342 
    7506     8507     9320     9873    10039     9888     9670     9535 
    9490     9513     9609     9840    10130    10150     9710     9043 
    8401     7773     7152     6714     6624     6791     6990     7126 
    7353     7943     8866     9661    10022    10064     9913     9559 
    9186     9050     9073     9045     8939     8780     8614     8522 
    8428     8105     7415     6562     5972     5875     6270     7144 
    8365     9605    10551    11011    10903    10376     9728     9108 
    8530     8124     7990     8006     8070     8286     8710     9143 
    9320     9085     8467     7647     6833     6181     5825     5894 
    6486     7510     8634     9555    10137    10363    10293     9991 
    9572     9312     9373     9510     9416     9240     9279     9315 
    8914     8102     7229     6601     6401     6608     7015     7423 
    7704     7821     7938     8290     8880     9486     9892     9987 
    9857     9694     9367     8673     7892     7431     7368     7654 
    8241     8892     9239     9171     8968     8901     8949     9057 
    9275     9494     9435     8985     8236     7365     6686     6493 
    6758     7218     7709     8174     8540     8820     9088     9286 
    9405     9508     9478     9273     9213     9456     9645     9505 
    9107     8502     7780     7227     6943     6720     6597     6802 
    7256     7812     8529     9211     9544     9560     9350     8870 
    8365     8294     8738     9304     9710     9973    10002     9702 
    9308     8938     8409     7696     7007     6485     6161     6162 
    6609     7236     7757     8359     9096     9606     9813     9892 
    9747     9359     9090     9117     9223     9282     9401     9590 
    9670     9514     9135     8518     7777     7182     6772     6531 
    6693     7242     7700     7800     7790     7931     8137     8253 
    8413     8752     9086     9348     9694    10015    10079     9956 
    9707     9161     8376     7763     7510     7476     7604     7909 
    8310     8658     8799     8711     8541     8347     8050     7771 
    7797     8132     8507     8795     9080     9355     9526     9679 
    9884     9934     9648     9089     8348     7488     6700     6262 
    6251     6473     6750     7117     7608     8152     8739     9335 
    9697     9726     9690     9809     9999    10103     9980     9494 
    8738     8094     7765     7597     7593     7933     8384     8515 
    8353     8222     8205     8213     8256     8287     8256     8328 
    8576     8773     8787     8734     8644     8453     8248     8181 
    8386     8916     9495     9678     9404     8926     8230     7322 
    6752     6890     7365     7834     8336     8835     9188     9459 
    9745     9868     9666     9337     9158     9101     8962     8667 
    8295     7900     7543     7371     7434     7628     7866     8118 
    8287     8186     7848     7588     7599     7825     8229     8754 
    9273     9697     9915     9864     9606     9224     8853     8618 
    8464     8392     8518     8708     8673     8428     8235     8125 
    7921     7666     7539     7460     7284     7096     6993     7052 
    7441     8202     9196    10274    11225    11712    11616    11110 
   10296     9292     8382     7601     6798     6216     6156     6461 
    6897     7398     7863     8266     8654     8974     9212     9440 
    9613     9649     9633     9671     9656     9379     8793     8085 
    7506     7157     7022     7136     7510     7998     8521     9143 
    9702     9817     9412     8721     7890     7041     6473     6415 
    6843     7673     8731     9666    10304    10724    10887    10700 
   10234     9548     8641     7717     7123     6951     7067     7379 
    7773     8067     8247     8405     8495     8513     8608     8810 
    9003     9132     9169     9055     8803     8506     8264     8112 
    7935     7630     7342     7291     7439     7658     7966     8343 
    8691     9078     9556     9900     9992    10083    10258    10227 
    9910     9499     8981     8314     7742     7407     7125     6825 
    6664     6741     7088     7670     8337     8932     9351     9532 
    9456     9170     8858     8754     8822     8753     8409     8000 
    7755     7684     7727     7867     8052     8289     8665     9073 
    9328     9545     9787     9737     9223     8567     8067     7720 
    7592     7801     8178     8500     8714     8727     8502     8233 
    8062     7920     7767     7695     7793     8063     8415     8712 
    8887     8972     8972     8864     8776     8953     9328     9547 
    9529     9455     9270     8887     8488     8181     7906     7723 
    7636     7512     7446     7676     8083     8376     8569     8830 
    9132     9302     9229     9019     8945     9070     9140     8982 
    8718     8449     8137     7867     7743     7642     7510     7524 
    7728     8017     8344     8633     8808     8883     8837     8681 
    8553     8554     8626     8688     8783     8949     9121     9220 
    9161     8806     8163     7526     7176     7101     7152     7335 
    7731     8282     8857     9367     9769    10017    10002     9706 
    9367     9135     8847     8487     8251     8125     7989     7917 
    7992     8074     8052     8095     8330     8580     8680     8669 
    8602     8505     8521     8749     9030     9148     9040     8711 
    8243     7838     7636     7574     7592     7790     8208     8726 
    9236     9563     9471     8993     8402     7862     7442     7296 
    7526     7986     8468     8928     9325     9466     9297     9066 
    8930     8775     8581     8509     8563     8617     8660     8696 
    8641     8511     8395     8240     8009     7827     7794     7827 
