Origin Time       2025/03/28 03:50:00
Lat.              35.403
Long.             140.360
Depth. (km)       54
Mag.              4.4
Station Code      KNG004
Station Lat.      35.1442
Station Long.     139.6223
Station Height(m) 31
Record Time       2025/03/28 03:50:58
Sampling Freq(Hz) 100Hz
Duration Time(s)  65
Dir.              N-S
Scale Factor      7845(gal)/8223790
Max. Acc. (gal)   3.744
Last Correction   2025/03/28 03:50:58
Memo.             
[...]
     244      251      255      240      237      251      249      245 
     253      260      257      251      249      244      243      253 
     251      237      244      251      244      247      251      244 
     251      260      256      247      244      248      245      245 
     252      251      251      255      241      229      237      248 
     251      248      248      252      249      244      247      248 
     237      240      265      264      241      238      240      240 
     243      248      257      257      248      248      251      247 
     236      228      237      256      259      251      252      255 
     255      255      247      243      249      253      245      238 
     241      247      247      244      243      245      249      256 
     259      256      252      244      240      255      260      245 
     238      247      248      247      249      244      238      253 
     264      253      244      243      251      256      251      253 
     255      251      249      240      238      255      264      252 
     234      237      249      252      251      256      256      253 
     259      256      247      249      251      249      252      251 
     243      237      241      249      248      248      252      248 
     248      251      249      253      252      251      252      248 
     249      253      253      251      244      243      252      248 
     241      248      252      248      251      255      249      251 
     263      255      247      252      256      261      257      245 
     249      256      249      243      243      251      255      248 
     245      255      256      252      248      244      251      257 
     256      255      253      251      255      257      248      229 
     232      253      263      256      247      244      251      252 
     248      251      251      247      244      244      251      257 
     260      252      238      241      255      255      252      259 
     251      238      245      249      247      252      252      245 
     249      253      247      241      247      252      253      249 
     245      251      256      255      255      249      234      240 
     255      253      249      253      256      253      248      248 
     244      237      245      252      243      238      251      257 
     255      251      248      248      249      256      257      249 
     248      241      233      245      255      247      241      247 
     252      247      238      241      256      267      260      251 
     251      253      248      238      247      263      259      247 
     247      249      249      244      240      247      253      256 
     263      270      264      260      255      238      225      222 
     217      202      189      195      214      230      247      261 
     276      291      288      284      290      292      297      301 
     303      317      326      325      326      319      287      240 
     206      189      162      124      112      130      152      168 
     183      205      229      228      198      180      205      259 
     321      346      310      268      263      274      291      307 
     290      226      122       74      157      302      413      508 
     599      580      418      287      265      228      166      140 
      51     -128     -234     -159       64      355      610      720 
     677      569      460      351      236      182      224      218 
      71     -103     -190     -147       14      147      139      130 
     283      480      561      571      521      352      201      247 
     375      290      -17     -213     -113      106      236      313 
     454      554      452      272      272      461      558      364 
      78      -48      -33       31       81       95      180      319 
     396      473      514      353      139      164      449      741 
     758      423      -16     -153       64      255      175      -63 
    -216     -148       72      326      442      326      267      442 
     589      581      558      519      303      -33     -174      -31 
     201      433      521      321        2     -156      -13      348 
     618      616      468      359      324      233       44      -22 
      81      114       93      209      307      166      -74      -87 
     230      572      584      360      205      190      199      201 
     278      394      387      267      251      421      529      419 
     315      376      444      402      299      214      218      286 
     272      112      -25      -33     -114     -333     -398     -125 
     368      754      695      351      225      419      656      733 
     626      445      278       64     -159     -265     -286     -291 
    -179      124      454      585      537      537      689      831 
     818      723      622      438      130     -184     -324     -325 
    -414     -523     -415     -157       74      244      356      456 
     571      627      611      625      697      757      814      810 
     579      253      105       83       72       76       71       33 
     -49     -175     -263     -189       18       93      -25      -58 
      55      139      207      413      770     1115     1255     1166 
     935      691      498      255      -16     -162     -306     -594 
    -801     -750     -548     -295        6      365      723      965 
    1047     1036     1040     1128     1148      870      361     -112 
    -403     -522     -534     -481     -384     -301     -234     -114 
      93      402      785     1084     1127      864      425       67 
     -60       28      155       99      -40      -60        4      112 
     280      487      677      796      843      781      508      139 
     -91     -149     -151     -180     -189      -71       58       49 
      27      159      436      645      550      297      229      411 
     648      688      437       66     -198     -243      -79      172 
     414      594      673      653      533      330      168      145 
     217      276      275      252      202       70      -60      -86 
     -45       62      302      577      638      418      159       95 
     209      338      332      234      232      309      283      116 
     -18       43      205      271      259      282      340      372 
     361      321      267      256      305      371      425      371 
     155      -86     -187      -87      145      352      461      490 
     445      396      437      534      541      410      221       31 
    -108     -155     -153      -45      228      472      475      340 
     322      507      680      599      344      144       28     -117 
    -306     -394     -244       49      259      307      294      394 
     650      851      857      718      473      229      152      203 
     251      243      121      -82     -225     -272     -225      -24 
     279      523      643      673      629      504      340      220 
     179      203      278      317      256      176      170      280 
     504      673      616      376       63     -228     -360     -279 
    -102       31       93      130      184      267      355      406 
     440      483      490      433      330      218      176      217 
     248      220      198      238      265      234      211      241 
     295      332      334      352      432      495      427      302 
     330      506      560      387      179      109      113       90 
      59        0     -118     -230     -297     -275      -66      244 
     441      517      575      637      692      702      598      436 
     315      211      105       32      -29     -103     -145     -130 
     -18      203      386      415      418      507      565      496 
     410      409      469      495      409      261      166      113 
      22      -44       17      122      113       -1      -67       49 
     282      429      476      548      615      558      367      170 
     140      252      307      243      172      149      105       28 
     -12       12       94      211      319      405      483      550 
     594      583      469      298      210      214      211      176 
     118      -16     -218     -309     -176       36      160      197 
     244      352      473      531      526      518      519      503 
     460      390      318      283      256      172       66       47 
     152      329      460      452      337      195       63      -31 
     -74      -93      -89      -33       76      217      329      410 
     530      680      795      814      702      504      299      126 
       4      -68     -118     -160     -141       -9      126      106 
      13       45      203      345      394      400      441      483 
     475      415      334      303      399      572      623      491 
     322      218      183      153       51      -56      -97     -113 
    -140     -184     -190      -82       87      282      522      695 
     684      568      481      479      546      638      699      696 
     621      475      288      125       -9     -194     -414     -515 
    -452     -351     -270     -143       81      349      569      708 
     797      885      959      950      862      712      475      214 
      18     -130     -222     -224     -211     -275     -392     -464 
    -430     -279      -31      222      426      629      815      943 
    1034     1057      989      873      729      553      369      191 
      20     -128     -229     -299     -357     -372     -305     -175 
     -18      145      286      382      457      508      527      552 
     604      656      673      646      571      433      267      144 
      79       70      103       98       22     -118     -349     -531 
    -490     -264        9      257      477      666      799      874 
     881      804      695      584      445      310      255      279 
     287      199       72        6      -18      -62      -98     -125 
    -163     -143      -21      124      240      356      446      468 
     463      468      461      473      534      573      538      444 
     315      209      145       98       72       60       48       95 
     224      373      446      398      324      305      284      234 
     197      145       67       59      159      257      249      163 
      97      108      176      263      340      394      437      438 
     373      342      418      479      391      168      -60     -201 
    -257     -222      -87       22       21       20      140      383 
     660      847      919      923      891      799      618      399 
     220       98        6     -105     -245     -386     -521     -558 
    -413     -180       10      176      361      514      569      615 
     764      976     1152     1179      969      634      345      132 
     -32     -163     -257     -322     -379     -434     -483     -437 
    -199      168      529      846     1123     1279     1243     1065 
     868      697      499      226      -91     -373     -584     -731 
    -801     -727     -480     -201      -68      -54       13      195 
     438      703      999     1277     1413     1367     1246     1138 
    1016      801      472       70     -352     -729     -958     -977 
    -837     -670     -545     -414     -229       10      305      630 
     936     1181     1302     1277     1194     1107      970      843 
     787      715      531      209     -232     -720    -1151    -1383 
   -1318    -1004     -589     -184      195      548      832     1065 
    1341     1683     1921     1891     1598     1143      616       91 
    -326     -557     -675     -865    -1181    -1436    -1409    -1086 
    -619      -94      481     1040     1463     1684     1692     1545 
    1348     1132      842      454       31     -341     -627     -839 
   -1007    -1135    -1183    -1140    -1081    -1017     -796     -313 
     337      993     1544     1915     2050     1912     1555     1097 
     567      -45     -665    -1193    -1557    -1784    -1907    -1796 
   -1304     -531      334     1259     2218     3067     3616     3774 
    3600     3168     2481     1580      665      -49     -544     -934 
   -1298    -1625    -1849    -1919    -1800    -1474     -989     -426 
     103      457      531      345       39     -182     -198      -28 
     238      511      727      851      862      811      812      909 
    1104     1323     1402     1264      931      459      -49     -464 
    -629     -506     -282     -101       29       85       76       67 
      90      197      369      473      419      286      197      122 
     -71     -392     -695     -868     -818     -498      -37      384 
     666      708      545      394      418      685     1170     1680 
    1976     1980     1752     1436     1235     1244     1341     1313 
    1001      344     -525    -1296    -1767    -1954    -1868    -1561 
   -1306    -1340    -1591    -1740    -1428     -572      522     1463 
    1999     2119     2045     2057     2297     2679     2960     2880 
    2300     1264      -29    -1273    -2155    -2592    -2756    -2841 
   -2924    -3024    -3014    -2643    -1810     -658      610     1834 
    2878     3613     3950     3954     3794     3531     3149     2614 
    1875      963      -25    -1021    -1977    -2847    -3483    -3676 
   -3319    -2435    -1205        2      868     1341     1598     1827 
    2092     2381     2658     2821     2768     2434     1736      679 
    -518    -1507    -2097    -2297    -2166    -1795    -1333     -950 
    -742     -700     -662     -422       85      764     1382     1725 
    1767     1552     1152      761      514      425      562      893 
    1144     1116      877      618      490      492      495      367 
      86     -299     -727    -1077    -1271    -1379    -1453    -1420 
   -1201     -822     -330      261      942     1626     2143     2386 
    2416     2350     2251     2139     1948     1549      881       72 
    -630    -1136    -1512    -1818    -2088    -2238    -2212    -2110 
   -1910    -1417     -562      440     1281     1806     2041     2093 
    2080     2049     2058     2139     2161     1996     1588      913 
     135     -460     -815    -1107    -1476    -1917    -2335    -2620 
   -2667    -2415    -1890    -1152     -288      600     1468     2293 
    3010     3578     3973     4095     3861     3281     2465     1587 
     741      -97     -918    -1683    -2407    -3083    -3564    -3645 
   -3254    -2506    -1602     -724       81      841     1510     2081 
    2602     2987     3082     2902     2574     2150     1599      942 
     222     -541    -1275    -1829    -2077    -2027    -1784    -1402 
    -886     -351       56      305      441      542      685      865 
    1017     1081     1048      976      855      626      365      241 
     340      641     1036     1351     1449     1308      954      440 
    -120     -595     -927    -1181    -1441    -1683    -1798    -1713 
   -1370     -746       45      845     1563     2181     2714     3118 
    3291     3141     2648     1921     1084      211     -591    -1227 
   -1729    -2196    -2621    -2920    -3021    -2851    -2340    -1510 
    -508      467     1329     2124     2867     3434     3720     3730 
    3462     2871     1977      951       -4     -800    -1435    -1890 
   -2146    -2197    -2047    -1721    -1197     -498      214      784 
    1174     1439     1648     1780     1814     1782     1628     1286 
     805      243     -317     -731    -1031    -1336    -1584    -1664 
   -1571    -1316     -934     -491      -29      460     1008     1547 
    1962     2235     2415     2481     2335     1915     1262      496 
    -252     -920    -1533    -2079    -2412    -2448    -2249    -1879 
   -1335     -600      263     1111     1810     2304     2602     2732 
    2721     2623     2466     2170     1620      837      -44     -866 
   -1437    -1664    -1634    -1490    -1358    -1282    -1205    -1051 
    -702      -67      691     1305     1649     1733     1637     1451 
    1236     1062      974      920      772      477      103     -263 
    -572     -804     -942     -955     -864     -751     -633     -407 
     -45      321      572      735      889      986      947      820 
     677      507      286       29     -176     -241     -170      -24 
     159      353      523      631      665      657      653      683 
     706      621      400      139      -60     -149     -135      -79 
     -44      -45      -89     -170     -222     -159       63      406 
     726      934     1030     1008      904      781      639      434 
     121     -288     -718    -1081    -1313    -1314    -1034     -572 
     -94      299      602      896     1248     1621     1900     1972 
    1813     1466     1011      567      190     -109     -326     -500 
    -672     -859    -1062    -1152     -981     -598     -140      318 
     745     1128     1431     1599     1651     1602     1426     1136 
     787      417       49     -257     -449     -557     -643     -723 
    -812     -905     -953     -904     -716     -403      -47      278 
     500      596      633      685      812     1021     1231     1348 
    1343     1250     1129      992      815      591      303      -17 
    -318     -595     -846    -1020    -1104    -1117    -1039     -843 
    -513      -66      387      796     1161     1443     1647     1803 
    1852     1732     1447     1050      638      291      -21     -352 
    -693    -1008    -1264    -1467    -1610    -1628    -1451    -1071 
    -565      -17      594     1277     1917     2394     2668     2762 
    2704     2497     2131     1632     1066      533       79     -369 
    -876    -1394    -1865    -2209    -2311    -2127    -1717    -1136 
    -468      167      695     1086     1385     1674     1919     2007 
    1896     1597     1146      616       95     -324     -592     -719 
    -727     -687     -649     -606     -569     -515     -371      -97 
     288      738     1154     1455     1613     1601     1394     1046 
     696      448      297      180       52      -94     -251     -394 
    -498     -521     -450     -329     -197      -28      187      394 
     557      693      797      862      919      965      930      756 
     467      129     -198     -476     -657     -741     -749     -653 
    -452     -180      139      463      730      892      919      838 
     714      569      384      157      -81     -295     -453     -545 
    -583     -553     -440     -238       83      530      984     1313 
    1480     1487     1387     1227     1001      749      530      298 
      -5     -352     -660     -819     -783     -630     -463     -356 
    -305     -201        5      284      606      919     1193     1425 
    1561     1530     1367     1148      916      681      399       24 
    -414     -858    -1231    -1406    -1345    -1140     -899     -669 
    -445     -182      160      575     1019     1431     1726     1844 
    1802     1674     1513     1283      951      544       68     -383 
