Origin Time       2025/03/28 03:50:00
Lat.              35.403
Long.             140.360
Depth. (km)       54
Mag.              4.4
Station Code      KNG002
Station Lat.      35.4372
Station Long.     139.6334
Station Height(m) 2
Record Time       2025/03/28 03:51:03
Sampling Freq(Hz) 100Hz
Duration Time(s)  60
Dir.              E-W
Scale Factor      7845(gal)/8223790
Max. Acc. (gal)   3.247
Last Correction   2025/03/28 03:51:02
Memo.             
[...]
   -3966    -3982    -3994    -4008    -4017    -4016    -4008    -3998 
   -3997    -4009    -4028    -4029    -4006    -3996    -4001    -4005 
   -4006    -4005    -3993    -3973    -3963    -3981    -4002    -3997 
   -3975    -3970    -3982    -3983    -3986    -4009    -4032    -4017 
   -3986    -3987    -4020    -4037    -4016    -3990    -3994    -4005 
   -3996    -3991    -4002    -4013    -4014    -4000    -3993    -4018 
   -4036    -4013    -3977    -3955    -3960    -3986    -4006    -4004 
   -3983    -3969    -3981    -4008    -4024    -4013    -4000    -4002 
   -3998    -4005    -4043    -4063    -4041    -3993    -3970    -4006 
   -4041    -4033    -4006    -3990    -3978    -3963    -3974    -4009 
   -4020    -4000    -3977    -3981    -4024    -4056    -4039    -4001 
   -3978    -3994    -4037    -4050    -4024    -3998    -3982    -3975 
   -3994    -4021    -4016    -3993    -3977    -3966    -3978    -4013 
   -4020    -3996    -3973    -3973    -4001    -4039    -4050    -4017 
   -3991    -4002    -4010    -4008    -4018    -4028    -4021    -4001 
   -3987    -4001    -4028    -4033    -4005    -3985    -4004    -4029 
   -4035    -4027    -4012    -4000    -3997    -4001    -4010    -4010 
   -3998    -3989    -3986    -3993    -4008    -4016    -4009    -3994 
   -3982    -3986    -4010    -4020    -4001    -3994    -3998    -3985 
   -3985    -4004    -4013    -4012    -3990    -3966    -3979    -4016 
   -4016    -3986    -3975    -3985    -3991    -4008    -4027    -4025 
   -4010    -3990    -3985    -4006    -4017    -3997    -3982    -3990 
   -4002    -4005    -4012    -4013    -3989    -3970    -3979    -4001 
   -4020    -4005    -3969    -3973    -3998    -4001    -4001    -4014 
   -4012    -3989    -3977    -3996    -4029    -4041    -4018    -3990 
   -3981    -3994    -4016    -4017    -4016    -4020    -4005    -4006 
   -4043    -4062    -4036    -4012    -4010    -4006    -4008    -4025 
   -4020    -3998    -3997    -3987    -3978    -4002    -4008    -3982 
   -3977    -3986    -3993    -4017    -4040    -4021    -4001    -4009 
   -4016    -4031    -4047    -4031    -4004    -3997    -4006    -4023 
   -4029    -4028    -4009    -3974    -3960    -3981    -3996    -3983 
   -3973    -3969    -3956    -3958    -3981    -3989    -3982    -3978 
   -3974    -3987    -4020    -4035    -4016    -3991    -3994    -4017 
   -4041    -4048    -4039    -4035    -4029    -4016    -4029    -4039 
   -4005    -3981    -3982    -3978    -3982    -3993    -3985    -3970 
   -3971    -3983    -3998    -4023    -4032    -4005    -3981    -3996 
   -4009    -4012    -4025    -4032    -4016    -3991    -3978    -3986 
   -4013    -4012    -3974    -3969    -3990    -3996    -4000    -4004 
   -4005    -3997    -3981    -3998    -4035    -4036    -4020    -4009 
   -4001    -4014    -4023    -4004    -3997    -4004    -3983    -3975 
   -4010    -4016    -3979    -3970    -3978    -3975    -3986    -4004 
   -3996    -3977    -3982    -4000    -4017    -4033    -4021    -3998 
   -3991    -3990    -4006    -4021    -4004    -3998    -4008    -3993 
   -3998    -4033    -4035    -4001    -3986    -3989    -3996    -4016 
   -4032    -4020    -3990    -3966    -3975    -4013    -4032    -4018 
   -3998    -3981    -3986    -4013    -4016    -3996    -3989    -3990 
   -3989    -3997    -4014    -4017    -3986    -3963    -3997    -4029 
   -4024    -4025    -4025    -4000    -3989    -4013    -4035    -4031 
   -4010    -4001    -3994    -3985    -4012    -4039    -4005    -3974 
   -3985    -3987    -3985    -4006    -4021    -3993    -3956    -3966 
   -4001    -4008    -3998    -4008    -4018    -4001    -3998    -4032 
   -4045    -4025    -4013    -4013    -4016    -4029    -4041    -4036 
   -4031    -4047    -4055    -4036    -4025    -4012    -3956    -3886 
   -3867    -3906    -3958    -4008    -4085    -4128    -4078    -3991 
   -3924    -3893    -3943    -4060    -4172    -4190    -4047    -3834 
   -3734    -3804    -3993    -4203    -4276    -4156    -3993    -3916 
   -3916    -3964    -4045    -4093    -4037    -3910    -3789    -3724 
   -3790    -3991    -4153    -4155    -4082    -4058    -4045    -3975 
   -3931    -3959    -3966    -3948    -3940    -3878    -3775    -3763 
   -3848    -3935    -4032    -4158    -4236    -4275    -4309    -4232 
   -4013    -3825    -3827    -3983    -4136    -4167    -4090    -4008 
   -3978    -3954    -3910    -3952    -4120    -4279    -4298    -4136 
   -3858    -3704    -3816    -3977    -3985    -3928    -3901    -3936 
   -4087    -4249    -4212    -4021    -3923    -3962    -4018    -4112 
   -4209    -4170    -4039    -3901    -3724    -3612    -3731    -4016 
   -4255    -4294    -4132    -3897    -3767    -3865    -4136    -4355 
   -4361    -4163    -3858    -3635    -3627    -3758    -3879    -3937 
   -3917    -3820    -3762    -3832    -3974    -4167    -4356    -4332 
   -4108    -3924    -3807    -3761    -3975    -4326    -4426    -4217 
   -3901    -3676    -3719    -4023    -4349    -4467    -4325    -4058 
   -3840    -3719    -3666    -3667    -3685    -3746    -3921    -4113 
   -4198    -4205    -4167    -4122    -4116    -4137    -4213    -4291 
   -4244    -4121    -3983    -3767    -3580    -3615    -3825    -4039 
   -4179    -4185    -4020    -3804    -3724    -3870    -4155    -4417 
   -4498    -4264    -3862    -3646    -3689    -3867    -4089    -4136 
   -3952    -3832    -3900    -4070    -4288    -4390    -4271    -4118 
   -4047    -3982    -3944    -3950    -3877    -3709    -3574    -3570 
   -3751    -4043    -4271    -4351    -4271    -4110    -4099    -4295 
   -4441    -4369    -4180    -3955    -3721    -3586    -3554    -3557 
   -3657    -3840    -3963    -3990    -3939    -3856    -3892    -4068 
   -4234    -4257    -4145    -4004    -3908    -3889    -3975    -4101 
   -4145    -4071    -3963    -3913    -3929    -4050    -4229    -4229 
   -4039    -3898    -3801    -3684    -3677    -3743    -3720    -3699 
   -3834    -4048    -4195    -4276    -4367    -4415    -4336    -4191 
   -4071    -4021    -4079    -4095    -3894    -3643    -3607    -3780 
   -3989    -4095    -4087    -4036    -4001    -4025    -4105    -4151 
   -4136    -4174    -4290    -4337    -4274    -4191    -4105    -4023 
   -3977    -3932    -3863    -3816    -3823    -3862    -3874    -3800 
   -3704    -3705    -3780    -3851    -3939    -4056    -4167    -4237 
   -4236    -4163    -4066    -4032    -4083    -4139    -4160    -4186 
   -4207    -4186    -4083    -3913    -3742    -3607    -3586    -3673 
   -3724    -3794    -3969    -4106    -4160    -4214    -4206    -4126 
   -4122    -4167    -4131    -4064    -4014    -3954    -3933    -3982 
   -4050    -4122    -4167    -4156    -4098    -4000    -3901    -3832 
   -3797    -3807    -3865    -3910    -3856    -3720    -3658    -3738 
   -3885    -4031    -4114    -4113    -4086    -4109    -4186    -4225 
   -4160    -4085    -4072    -4091    -4104    -4055    -3947    -3888 
   -3937    -4017    -4012    -3889    -3727    -3677    -3816    -4013 
   -4151    -4232    -4244    -4178    -4098    -4074    -4089    -4095 
   -4136    -4216    -4240    -4185    -4066    -3912    -3846    -3894 
   -3916    -3847    -3738    -3662    -3694    -3865    -4085    -4203 
   -4217    -4247    -4290    -4279    -4212    -4099    -3956    -3866 
   -3894    -3939    -3927    -3905    -3863    -3804    -3809    -3831 
   -3786    -3757    -3817    -3904    -4000    -4155    -4259    -4212 
   -4133    -4108    -4143    -4248    -4286    -4170    -4043    -4010 
   -4050    -4059    -3932    -3742    -3657    -3694    -3767    -3805 
   -3796    -3808    -3905    -4056    -4160    -4162    -4083    -3966 
   -3913    -4008    -4164    -4275    -4313    -4236    -4060    -3929 
   -3892    -3885    -3892    -3917    -3936    -3935    -3900    -3829 
   -3757    -3767    -3902    -4044    -4125    -4194    -4206    -4140 
   -4105    -4152    -4237    -4288    -4259    -4163    -4055    -3958 
   -3886    -3885    -3955    -4032    -4078    -4079    -4024    -3977 
   -4020    -4091    -4060    -3944    -3871    -3889    -3971    -4056 
   -4052    -3981    -3948    -4001    -4101    -4152    -4102    -3978 
   -3867    -3878    -3962    -3955    -3839    -3708    -3684    -3815 
   -3975    -4040    -4054    -4075    -4116    -4210    -4298    -4302 
   -4252    -4117    -3894    -3727    -3666    -3657    -3703    -3824 
   -3990    -4120    -4166    -4198    -4241    -4203    -4125    -4112 
   -4079    -3973    -3873    -3802    -3742    -3726    -3766    -3815 
   -3874    -3964    -4060    -4168    -4240    -4175    -4047    -3990 
   -3955    -3871    -3794    -3770    -3767    -3794    -3901    -4044 
   -4155    -4272    -4406    -4467    -4438    -4391    -4315    -4186 
   -4072    -3989    -3821    -3593    -3492    -3550    -3647    -3750 
   -3846    -3861    -3858    -3996    -4236    -4421    -4503    -4472 
   -4337    -4191    -4087    -4002    -3956    -3933    -3894    -3843 
   -3809    -3809    -3796    -3747    -3773    -3892    -3997    -4070 
   -4087    -4029    -3978    -3962    -3917    -3852    -3829    -3897 
   -4024    -4149    -4271    -4315    -4218    -4132    -4155    -4178 
   -4145    -4093    -4029    -3982    -3973    -3950    -3912    -3958 
   -4086    -4152    -4112    -4083    -4121    -4183    -4232    -4243 
   -4209    -4141    -4031    -3905    -3898    -3997    -4017    -3942 
   -3867    -3782    -3711    -3728    -3788    -3782    -3724    -3693 
   -3690    -3676    -3677    -3736    -3850    -3950    -3974    -3977 
   -4013    -4037    -4055    -4148    -4282    -4348    -4334    -4280 
   -4210    -4117    -3978    -3792    -3642    -3645    -3754    -3827 
   -3893    -4018    -4095    -4082    -4033    -3942    -3898    -4010 
   -4147    -4182    -4129    -4052    -4059    -4151    -4232    -4274 
   -4295    -4290    -4244    -4180    -4124    -4074    -4010    -3928 
   -3878    -3889    -3906    -3940    -4027    -4104    -4121    -4070 
   -3974    -3927    -3948    -3955    -3932    -3902    -3840    -3771 
   -3775    -3831    -3856    -3869    -3908    -3952    -3994    -4039 
   -4064    -4070    -4101    -4170    -4187    -4114    -4047    -4009 
   -3979    -4005    -4094    -4180    -4213    -4176    -4099    -4035 
   -3983    -3955    -3989    -4010    -3950    -3892    -3871    -3862 
   -3875    -3882    -3844    -3855    -4023    -4244    -4311    -4218 
   -4086    -3950    -3862    -3892    -3947    -3952    -3987    -4033 
   -4006    -3964    -3942    -3889    -3855    -3890    -3937    -3969 
   -4000    -3990    -3936    -3917    -3948    -3973    -3983    -3967 
   -3874    -3769    -3751    -3788    -3858    -3946    -3944    -3858 
   -3820    -3881    -3977    -4083    -4237    -4378    -4425    -4417 
   -4359    -4245    -4133    -4018    -3892    -3808    -3775    -3771 
   -3816    -3913    -4025    -4124    -4251    -4407    -4469    -4379 
   -4193    -3993    -3888    -3908    -3948    -3943    -3917    -3867 
   -3832    -3913    -4074    -4156    -4109    -4013    -3970    -4018 
   -4091    -4117    -4087    -4020    -3966    -3989    -4093    -4180 
   -4179    -4145    -4140    -4144    -4143    -4079    -3919    -3739 
   -3607    -3526    -3511    -3553    -3591    -3605    -3632    -3681 
   -3730    -3797    -3906    -4018    -4101    -4158    -4203    -4214 
   -4190    -4206    -4299    -4405    -4437    -4353    -4221    -4132 
   -4083    -4052    -4039    -4033    -4025    -3987    -3916    -3865 
   -3878    -3905    -3874    -3836    -3890    -3977    -4001    -4014 
   -4009    -3909    -3805    -3811    -3900    -4008    -4063    -4016 
   -3940    -3925    -3932    -3917    -3931    -3985    -4002    -3991 
   -4035    -4091    -4106    -4110    -4077    -4013    -4014    -4077 
   -4120    -4141    -4143    -4104    -4059    -4090    -4162    -4187 
   -4206    -4239    -4224    -4174    -4116    -4032    -3951    -3898 
   -3858    -3828    -3843    -3893    -3940    -3990    -4005    -3954 
   -3956    -4063    -4162    -4179    -4116    -4033    -4017    -4028 
   -4005    -3946    -3847    -3739    -3699    -3765    -3858    -3858 
   -3761    -3624    -3516    -3551    -3758    -3975    -4090    -4135 
   -4132    -4108    -4133    -4199    -4234    -4257    -4297    -4305 
   -4270    -4248    -4234    -4160    -4025    -3897    -3781    -3680 
   -3650    -3708    -3851    -4067    -4239    -4290    -4303    -4364 
   -4441    -4472    -4446    -4401    -4336    -4203    -4050    -3956 
   -3917    -3924    -3993    -4071    -4133    -4197    -4270    -4378 
   -4475    -4469    -4396    -4353    -4395    -4521    -4631    -4639 
   -4580    -4496    -4364    -4151    -3846    -3423    -2936    -2508 
   -2127    -1757    -1509    -1390    -1351    -1498    -1873    -2382 
   -2976    -3624    -4239    -4762    -5213    -5560    -5782    -5937 
   -6012    -5949    -5792    -5618    -5449    -5270    -5015    -4641 
   -4210    -3807    -3460    -3171    -2922    -2681    -2461    -2327 
   -2355    -2523    -2705    -2837    -2957    -3084    -3268    -3582 
   -3978    -4349    -4672    -4927    -5097    -5277    -5472    -5520 
   -5343    -5009    -4565    -4039    -3505    -3098    -2932    -3076 
   -3503    -4041    -4572    -5130    -5690    -6122    -6361    -6408 
   -6232    -5871    -5482    -5119    -4698    -4182    -3542    -2725 
   -1833    -1092     -650     -598    -1000    -1728    -2552    -3341 
   -4009    -4507    -4869    -5159    -5362    -5413    -5344    -5206 
   -5013    -4803    -4585    -4318    -4017    -3699    -3323    -2964 
   -2775    -2795    -2943    -3138    -3388    -3744    -4203    -4718 
   -5232    -5607    -5710    -5559    -5247    -4814    -4229    -3500 
   -2791    -2258    -1876    -1638    -1599    -1721    -1946    -2317 
   -2872    -3512    -4139    -4762    -5373    -5919    -6374    -6651 
   -6671    -6547    -6426    -6284    -6065    -5740    -5260    -4641 
   -3963    -3308    -2677    -2095    -1699    -1568    -1679    -2011 
   -2451    -2857    -3256    -3650    -3917    -4063    -4168    -4207 
   -4198    -4207    -4193    -4114    -4037    -3960    -3835    -3708 
   -3627    -3615    -3723    -3952    -4214    -4438    -4704    -5059 
   -5400    -5679    -5836    -5733    -5402    -5000    -4649    -4441 
   -4352    -4193    -3784    -3157    -2446    -1722    -1123     -827 
    -889    -1275    -1962    -2916    -4063    -5251    -6273    -7001 
   -7376    -7377    -7003    -6342    -5587    -4868    -4249    -3789 
   -3478    -3238    -2965    -2621    -2251    -1968    -1931    -2208 
   -2700    -3273    -3804    -4232    -4553    -4716    -4672    -4464 
   -4180    -3929    -3789    -3773    -3877    -4050    -4206    -4305 
   -4325    -4228    -3966    -3549    -3126    -2884    -2878    -3061 
   -3366    -3708    -4064    -4459    -4838    -5147    -5352    -5360 
   -5155    -4831    -4440    -4044    -3720    -3483    -3370    -3435 
   -3608    -3786    -3933    -4044    -4148    -4256    -4322    -4311 
   -4243    -4180    -4190    -4260    -4336    -4411    -4506    -4630 
   -4776    -4830    -4671    -4305    -3836    -3387    -3036    -2828 
   -2768    -2781    -2836    -2968    -3148    -3365    -3591    -3676 
   -3638    -3627    -3676    -3813    -4081    -4410    -4781    -5196 
   -5493    -5589    -5593    -5540    -5382    -5188    -5016    -4823 
   -4592    -4345    -4105    -3897    -3755    -3659    -3515    -3292 
   -3059    -2870    -2762    -2763    -2882    -3078    -3310    -3554 
   -3750    -3886    -3990    -4027    -3983    -3906    -3828    -3765 
   -3755    -3815    -3873    -3889    -3921    -3954    -3971    -4062 
   -4212    -4313    -4345    -4336    -4332    -4406    -4527    -4602 
   -4619    -4576    -4438    -4274    -4202    -4194    -4149    -4037 
   -3829    -3549    -3283    -3032    -2795    -2671    -2683    -2755 
   -2866    -3040    -3272    -3527    -3800    -4102    -4388    -4602 
   -4750    -4854    -4976    -5181    -5413    -5586    -5706    -5773 
   -5755    -5676    -5540    -5263    -4873    -4463    -4023    -3588 
   -3261    -3022    -2851    -2776    -2752    -2794    -3003    -3330 
   -3666    -3977    -4212    -4318    -4255    -4021    -3731    -3483 
   -3329    -3294    -3323    -3377    -3435    -3454    -3451    -3492 
   -3546    -3565    -3593    -3662    -3742    -3851    -4002    -4131 
   -4226    -4324    -4405    -4468    -4521    -4541    -4580    -4668 
   -4725    -4695    -4608    -4494    -4368    -4239    -4090    -3939 
   -3801    -3667    -3566    -3514    -3497    -3549    -3661    -3788 
   -3928    -4075    -4180    -4205    -4156    -4091    -4070    -4094 
   -4105    -4094    -4162    -4329    -4525    -4769    -5055    -5215 
   -5161    -4970    -4703    -4399    -4160    -4029    -3925    -3789 
   -3650    -3561    -3551    -3577    -3612    -3650    -3613    -3497 
   -3411    -3420    -3515    -3627    -3682    -3663    -3618    -3600 
   -3599    -3605    -3688    -3812    -3831    -3719    -3539    -3319 
   -3115    -3018    -3045    -3173    -3403    -3650    -3828    -3985 
   -4152    -4279    -4374    -4494    -4603    -4665    -4743    -4873 
   -5017    -5178    -5309    -5304    -5124    -4838    -4510    -4170 
   -3821    -3450    -3122    -2974    -3009    -3130    -3342    -3619 
   -3825    -3939    -4039    -4136    -4251    -4421    -4606    -4715 
   -4715    -4630    -4500    -4365    -4255    -4160    -4077    -4012 
   -3946    -3859    -3740    -3601    -3507    -3487    -3499    -3511 
   -3516    -3483    -3383    -3302    -3345    -3470    -3619    -3859 
   -4189    -4484    -4720    -4912    -4996    -5023    -5096    -5219 
   -5370    -5451    -5306    -4950    -4510    -4064    -3618    -3191 
   -2820    -2529    -2397    -2470    -2679    -2922    -3167    -3426 
   -3670    -3866    -4036    -4120    -4029    -3846    -3692    -3588 
   -3570    -3680    -3861    -4025    -4125    -4176    -4245    -4324 
   -4349    -4299    -4183    -4083    -4105    -4264    -4517    -4787 
   -4943    -4946    -4887    -4814    -4735    -4664    -4550    -4325 
   -4001    -3649    -3341    -3087    -2835    -2612    -2509    -2519 
   -2632    -2876    -3194    -3520    -3856    -4195    -4515    -4792 
   -4990    -5078    -5080    -5085    -5097    -5050    -4969    -4884 
   -4745    -4557    -4402    -4324    -4293    -4243    -4145    -4017 
   -3852    -3636    -3420    -3308    -3330    -3465    -3666    -3851 
   -3971    -4009    -3962    -3889    -3850    -3835    -3816    -3773 
   -3746    -3759    -3761    -3739    -3735    -3711    -3636    -3595 
   -3647    -3723    -3774    -3862    -3982    -4086    -4190    -4301 
   -4375    -4372    -4267    -4050    -3788    -3559    -3404    -3400 
   -3543    -3708    -3883    -4097    -4234    -4217    -4113    -3937 
   -3709    -3584    -3639    -3804    -4010    -4193    -4291    -4352 
   -4440    -4534    -4581    -4572    -4491    -4349    -4222    -4156 
   -4109    -4045    -4000    -4025    -4148    -4325    -4463    -4504 
   -4442    -4295    -4120    -3932    -3716    -3546    -3518    -3596 
   -3720    -3906    -4148    -4357    -4514    -4675    -4806    -4814 
