Origin Time       2025/03/28 03:50:00
Lat.              35.403
Long.             140.360
Depth. (km)       54
Mag.              4.4
Station Code      KNG005
Station Lat.      35.3191
Station Long.     139.5461
Station Height(m) 10
Record Time       2025/03/28 03:50:54
Sampling Freq(Hz) 100Hz
Duration Time(s)  60
Dir.              U-D
Scale Factor      7845(gal)/8223790
Max. Acc. (gal)   1.173
Last Correction   2025/03/28 03:50:54
Memo.             
[...]
    5181     5182     5179     5184     5188     5184     5188     5185 
    5174     5185     5194     5177     5171     5189     5188     5177 
    5182     5186     5184     5186     5186     5185     5185     5184 
    5184     5186     5184     5182     5185     5182     5185     5188 
    5179     5179     5190     5185     5177     5182     5188     5184 
    5174     5175     5190     5189     5178     5184     5186     5181 
    5186     5185     5175     5182     5190     5181     5179     5189 
    5186     5178     5184     5193     5179     5177     5197     5188 
    5169     5194     5200     5173     5181     5197     5179     5175 
    5194     5188     5179     5194     5194     5174     5175     5196 
    5186     5171     5186     5193     5182     5184     5188     5182 
    5182     5186     5188     5188     5179     5181     5186     5182 
    5182     5188     5189     5186     5185     5185     5186     5190 
    5188     5182     5185     5184     5184     5189     5182     5178 
    5185     5186     5185     5185     5182     5185     5188     5185 
    5184     5181     5184     5188     5182     5179     5185     5185 
    5178     5178     5185     5188     5184     5181     5185     5184 
    5179     5186     5188     5182     5179     5178     5184     5189 
    5181     5177     5186     5188     5182     5182     5182     5181 
    5182     5184     5179     5178     5186     5186     5178     5181 
    5185     5185     5181     5179     5189     5184     5175     5186 
    5188     5178     5184     5185     5178     5182     5182     5175 
    5184     5189     5178     5182     5193     5185     5175     5192 
    5193     5171     5179     5200     5185     5174     5188     5189 
    5175     5181     5190     5178     5174     5192     5189     5174 
    5178     5186     5184     5182     5185     5182     5182     5186 
    5184     5179     5184     5189     5186     5178     5178     5185 
    5184     5182     5185     5185     5177     5179     5192     5184 
    5177     5196     5186     5165     5184     5201     5177     5173 
    5196     5186     5169     5188     5197     5181     5181     5184 
    5181     5193     5190     5177     5185     5194     5190     5182 
    5181     5194     5193     5177     5184     5200     5185     5167 
    5192     5202     5173     5174     5200     5189     5174     5186 
    5189     5181     5184     5188     5181     5181     5190     5182 
    5173     5186     5194     5178     5179     5194     5185     5170 
    5185     5198     5186     5178     5186     5193     5188     5178 
    5181     5188     5186     5182     5178     5185     5193     5178 
    5173     5190     5190     5177     5179     5189     5189     5184 
    5177     5184     5192     5181     5177     5189     5192     5182 
    5181     5190     5189     5178     5185     5193     5179     5175 
    5190     5192     5181     5182     5188     5185     5178     5177 
    5186     5189     5181     5178     5188     5190     5177     5177 
    5190     5184     5178     5189     5182     5174     5186     5189 
    5184     5188     5184     5181     5189     5189     5184     5185 
    5182     5181     5190     5193     5182     5185     5196     5181 
    5174     5194     5193     5175     5185     5194     5181     5178 
    5189     5189     5182     5182     5185     5188     5185     5182 
    5189     5186     5179     5186     5188     5184     5189     5188 
    5181     5184     5188     5188     5186     5185     5189     5186 
    5179     5181     5182     5186     5188     5178     5179     5189 
    5181     5181     5190     5184     5174     5181     5193     5188 
    5177     5182     5189     5184     5185     5189     5185     5179 
    5179     5184     5185     5182     5188     5185     5174     5185 
    5189     5170     5178     5196     5185     5175     5181     5185 
    5184     5184     5189     5186     5177     5184     5189     5177 
    5182     5193     5184     5177     5185     5188     5182     5185 
    5188     5177     5178     5198     5188     5165     5185     5198 
    5173     5173     5192     5190     5179     5177     5186     5194 
    5186     5178     5185     5189     5179     5179     5189     5189 
    5184     5184     5185     5185     5186     5188     5186     5184 
    5186     5188     5179     5179     5188     5188     5181     5181 
    5185     5184     5184     5188     5182     5177     5185     5185 
    5179     5182     5188     5182     5179     5189     5193     5185 
    5182     5184     5185     5185     5185     5184     5185     5186 
    5182     5179     5186     5190     5186     5179     5178     5189 
    5190     5182     5181     5188     5188     5178     5179     5188 
    5181     5182     5188     5181     5182     5190     5181     5178 
    5194     5188     5171     5186     5194     5182     5186     5185 
    5177     5188     5192     5182     5181     5188     5186     5179 
    5184     5190     5181     5178     5188     5184     5174     5181 
    5189     5185     5175     5179     5188     5177     5177     5188 
    5178     5178     5190     5185     5174     5185     5192     5178 
    5178     5193     5190     5175     5177     5189     5188     5179 
    5182     5186     5186     5184     5182     5185     5181     5178 
    5185     5186     5184     5186     5188     5186     5185     5185 
    5188     5184     5186     5190     5185     5184     5186     5184 
    5188     5188     5182     5185     5185     5184     5186     5184 
    5179     5186     5188     5186     5186     5184     5185     5186 
    5184     5184     5186     5188     5186     5186     5188     5184 
    5181     5186     5188     5181     5184     5190     5188     5179 
    5181     5188     5185     5181     5188     5186     5178     5190 
    5193     5175     5181     5193     5177     5178     5189     5177 
    5181     5194     5178     5174     5192     5188     5178     5185 
    5186     5188     5190     5181     5178     5189     5188     5184 
    5189     5189     5182     5182     5186     5185     5181     5185 
    5188     5178     5179     5192     5181     5178     5189     5181 
    5179     5192     5181     5175     5190     5189     5179     5185 
    5188     5184     5184     5182     5184     5186     5185     5184 
    5184     5182     5185     5181     5178     5186     5185     5178 
    5179     5184     5186     5181     5178     5188     5188     5178 
    5185     5189     5178     5179     5186     5179     5184     5189 
    5178     5184     5189     5175     5182     5190     5182     5182 
    5184     5182     5188     5185     5174     5182     5189     5177 
    5178     5197     5188     5171     5188     5197     5178     5178 
    5194     5188     5178     5185     5189     5184     5184     5189 
    5181     5178     5192     5192     5177     5186     5198     5186 
    5182     5192     5182     5179     5194     5186     5173     5185 
    5193     5184     5185     5188     5184     5182     5181     5181 
    5185     5184     5184     5184     5175     5178     5193     5186 
    5171     5184     5194     5177     5173     5194     5186     5171 
    5188     5193     5178     5177     5190     5192     5177     5175 
    5184     5178     5178     5186     5188     5178     5175     5188 
    5188     5179     5186     5188     5175     5182     5196     5184 
    5177     5190     5190     5175     5182     5193     5188     5184 
    5185     5182     5185     5188     5179     5182     5193     5184 
    5174     5186     5190     5182     5181     5186     5189     5184 
    5182     5188     5186     5185     5189     5188     5179     5185 
    5192     5184     5179     5186     5190     5186     5182     5182 
    5184     5185     5186     5181     5178     5186     5189     5181 
    5184     5189     5181     5177     5185     5186     5182     5185 
    5188     5182     5179     5185     5188     5179     5179     5188 
    5186     5179     5182     5185     5182     5179     5185     5190 
    5182     5173     5182     5194     5182     5175     5186     5184 
    5178     5186     5184     5178     5185     5186     5177     5178 
    5192     5188     5174     5181     5188     5185     5188     5189 
    5185     5179     5181     5184     5188     5189     5182     5177 
    5185     5190     5182     5178     5188     5188     5175     5178 
    5192     5186     5177     5182     5184     5181     5181     5184 
    5182     5179     5181     5185     5185     5186     5188     5179 
    5179     5193     5192     5178     5178     5189     5188     5178 
    5185     5189     5179     5181     5189     5182     5178     5188 
    5188     5181     5184     5188     5189     5185     5181     5189 
    5190     5181     5181     5185     5186     5185     5181     5184 
    5190     5186     5178     5181     5196     5188     5171     5185 
    5196     5181     5182     5192     5184     5179     5186     5188 
    5179     5179     5192     5186     5178     5186     5190     5181 
    5179     5189     5190     5175     5178     5196     5184     5173 
    5188     5188     5178     5184     5188     5182     5181     5184 
    5179     5178     5184     5185     5181     5177     5182     5190 
    5181     5175     5184     5186     5177     5179     5188     5181 
    5177     5188     5186     5178     5184     5185     5177     5181 
    5188     5184     5179     5188     5189     5182     5182     5188 
    5188     5184     5182     5184     5188     5186     5181     5181 
    5184     5184     5184     5182     5182     5186     5185     5179 
    5185     5189     5182     5182     5188     5184     5181     5186 
    5185     5179     5184     5186     5182     5182     5188     5186 
    5182     5185     5184     5184     5185     5182     5181     5184 
    5184     5184     5181     5182     5186     5184     5181     5186 
    5189     5184     5182     5185     5184     5181     5188     5186 
    5175     5182     5192     5182     5175     5190     5188     5169 
    5182     5196     5177     5177     5196     5186     5174     5186 
    5190     5179     5178     5184     5185     5186     5185     5184 
    5186     5186     5186     5184     5181     5186     5188     5181 
    5185     5188     5181     5182     5186     5184     5184     5188 
    5188     5184     5182     5188     5185     5181     5185     5190 
    5186     5184     5188     5189     5181     5181     5190     5188 
    5178     5188     5194     5179     5177     5193     5189     5181 
    5188     5190     5181     5179     5189     5190     5181     5184 
    5189     5181     5182     5189     5182     5181     5193     5189 
    5175     5182     5193     5184     5179     5193     5188     5177 
    5185     5189     5182     5186     5190     5182     5181     5186 
    5188     5186     5185     5185     5185     5186     5185     5185 
    5185     5185     5186     5186     5182     5181     5190     5189 
    5179     5184     5186     5184     5182     5181     5185     5186 
    5181     5181     5190     5188     5179     5179     5182     5182 
    5182     5178     5184     5189     5182     5181     5184     5184 
    5188     5185     5181     5184     5186     5185     5181     5179 
    5182     5184     5178     5177     5185     5181     5178     5188 
    5182     5175     5189     5189     5178     5184     5186     5182 
    5185     5185     5184     5181     5173     5178     5189     5181 
    5178     5190     5185     5174     5186     5192     5174     5177 
    5193     5182     5173     5185     5189     5179     5179     5182 
    5184     5185     5181     5184     5189     5182     5179     5188 
    5185     5185     5192     5184     5178     5189     5189     5182 
    5186     5186     5174     5182     5193     5181     5178     5192 
    5184     5174     5185     5186     5178     5182     5194     5185 
    5174     5186     5189     5179     5184     5188     5182     5179 
    5184     5188     5185     5182     5188     5188     5182     5186 
    5185     5181     5188     5190     5175     5171     5190     5193 
    5175     5181     5194     5182     5179     5192     5189     5179 
    5189     5193     5182     5181     5193     5189     5181     5188 
    5190     5185     5188     5188     5185     5189     5185     5184 
    5193     5188     5177     5182     5192     5188     5179     5188 
    5194     5185     5181     5189     5192     5184     5181     5188 
    5189     5184     5182     5186     5189     5188     5182     5184 
    5192     5184     5177     5190     5190     5179     5184     5186 
    5185     5185     5188     5186     5181     5186     5196     5186 
    5178     5184     5179     5179     5200     5228     5256     5290 
    5316     5325     5321     5300     5254     5198     5142     5085 
    5034     5009     5013     5057     5139     5238     5317     5374 
    5417     5413     5332     5223     5138     5069     4986     4900 
    4909     5059     5229     5294     5221     5040     4876     4868 
    4959     4999     5028     5184     5358     5336     5165     4985 
    4779     4638     4757     5000     5202     5566     6069     6224 
    5807     5335     5356     5518     5217     4762     4649     4654 
    4525     4563     4999     5462     5672     5915     6181     6002 
    5358     4622     4051     3954     4557     5518     6183     6176 
    5633     5020     4639     4558     4909     5529     5849     5713 
    5447     5259     5143     4882     4442     4374     4839     5198 
    5312     5539     5641     5425     5333     5482     5350     4853 
    4585     4792     5082     5225     5382     5610     5678     5379 
    4946     4845     5004     4963     4834     5063     5420     5401 
    5275     5422     5444     5217     5223     5317     5309     5541 
    5632     5089     4550     4472     4629     4977     5373     5606 
    5621     5258     4908     5113     5352     5175     5094     5296 
    5408     5224     4938     5067     5460     5296     4846     4985 
    5373     5329     5059     4974     5053     5040     4922     4912 
    4977     5074     5346     5576     5547     5481     5382     5120 
    4993     5092     5109     5080     5127     5197     5347     5497 
    5481     5350     5185     5028     4927     5007     5337     5530 
    5337     5185     5219     5131     4997     5084     5306     5363 
    5150     4941     4946     5008     5026     5019     4965     4981 
    5084     5136     5301     5563     5530     5293     5178     5131 
    5158     5262     5265     5224     5221     5165     5139     5217 
    5242     5166     5121     5179     5258     5211     5120     5201 
    5387     5445     5297     5027     4872     4881     4874     4942 
    5190     5286     5097     5003     5175     5402     5518     5486 
    5393     5370     5340     5186     4992     4899     4930     4974 
    5009     5151     5324     5363     5309     5211     5077     5063 
    5182     5282     5363     5386     5319     5258     5127     4851 
    4707     4897     5238     5475     5549     5410     5069     4838 
    4896     4973     5003     5221     5460     5393     5233     5308 
    5436     5327     5117     5120     5267     5301     5221     5184 
    5289     5355     5082     4850     5132     5368     5201     5198 
    5386     5321     5185     5205     5194     5085     5026     5082 
    5138     5119     5123     5124     5022     4905     4854     4951 
    5227     5382     5262     5221     5398     5464     5267     5059 
    5069     5198     5209     5163     5290     5435     5305     5090 
    5112     5244     5255     5144     5011     4973     5107     5336 
    5435     5285     5096     5078     5074     4919     4896     5204 
    5412     5242     5093     5161     5189     5178     5235     5266 
    5244     5225     5211     5196     5240     5337     5382     5364 
    5377     5408     5358     5166     4976     4961     5024     5035 
    5059     5152     5235     5251     5269     5259     5173     5188 
    5228     5030     4924     5224     5404     5158     4926     4914 
    4949     4985     5069     5258     5545     5718     5649     5497 
    5360     5117     4808     4672     4714     4820     5007     5178 
    5274     5379     5412     5346     5343     5305     5178     5208 
    5313     5260     5185     5170     5094     5040     5093     5105 
    5049     5032     5078     5166     5259     5354     5459     5422 
    5217     5097     5036     4903     4968     5236     5306     5301 
    5506     5570     5312     5124     5042     4853     4785     4997 
    5205     5298     5394     5421     5283     5139     5148     5188 
    5085     4981     5026     5066     5069     5204     5370     5437 
    5486     5394     5166     5128     5162     5026     4999     5159 
    5211     5219     5350     5437     5336     5173     5132     5159 
    5103     5034     5069     5134     5166     5197     5217     5216 
    5175     5062     4974     4986     5063     5233     5359     5240 
    5123     5252     5341     5227     5209     5368     5362     5073 
    4893     5035     5186     5161     5136     5161     5198     5281 
    5301     5233     5232     5289     5289     5263     5252     5242 
    5224     5148     4999     4924     5011     5081     5043     5063 
    5174     5198     5138     5138     5173     5127     5111     5278 
    5449     5414     5286     5216     5248     5371     5389     5223 
    5128     5147     5066     4951     4968     5082     5194     5216 
    5162     5152     5197     5220     5211     5204     5254     5375 
    5417     5321     5243     5155     4990     4941     5062     5196 
    5319     5395     5304     5105     4968     4988     5140     5232 
    5165     5080     5055     5034     4995     5013     5144     5271 
    5309     5339     5367     5331     5287     5221     5103     5096 
    5212     5248     5217     5220     5246     5339     5401     5238 
    5065     5130     5181     5071     5043     5096     5081     5128 
    5258     5283     5235     5206     5148     5094     5175     5339 
    5374     5233     5121     5105     5078     5113     5296     5439 
    5414     5320     5236     5200     5243     5305     5363     5416 
    5331     5055     4797     4765     4876     4916     4968     5215 
    5462     5421     5224     5131     5148     5181     5173     5123 
    5086     5067     5051     5051     5004     4977     5125     5260 
    5198     5192     5304     5301     5282     5391     5437     5379 
    5348     5300     5224     5208     5216     5235     5285     5243 
    5101     5036     5071     5098     5040     4947     4954     5015 
    4995     4981     5053     5119     5173     5255     5312     5301 
    5263     5242     5197     5136     5148     5178     5147     5163 
    5252     5319     5366     5341     5246     5269     5323     5177 
    5043     5096     5101     5047     5150     5287     5289     5296 
    5359     5297     5131     5066     5105     5151     5178     5112 
    4977     4990     5167     5252     5198     5240     5431     5513 
