Origin Time       2025/03/28 03:50:00
Lat.              35.403
Long.             140.360
Depth. (km)       54
Mag.              4.4
Station Code      KNG003
Station Lat.      35.2731
Station Long.     139.6582
Station Height(m) 25
Record Time       2025/03/28 03:51:01
Sampling Freq(Hz) 100Hz
Duration Time(s)  60
Dir.              U-D
Scale Factor      7845(gal)/8223790
Max. Acc. (gal)   0.825
Last Correction   2025/03/28 03:51:02
Memo.             
[...]
   35947    35949    35949    35949    35951    35953    35951    35951 
   35951    35951    35953    35950    35947    35949    35951    35954 
   35954    35951    35951    35953    35953    35953    35951    35951 
   35955    35954    35951    35951    35951    35954    35955    35954 
   35953    35953    35951    35951    35949    35953    35955    35953 
   35953    35953    35950    35953    35953    35949    35950    35953 
   35954    35951    35950    35954    35950    35950    35957    35954 
   35949    35951    35955    35953    35950    35951    35953    35953 
   35949    35947    35950    35951    35953    35953    35947    35947 
   35953    35953    35950    35947    35949    35951    35950    35949 
   35949    35950    35950    35951    35950    35949    35949    35951 
   35950    35947    35950    35953    35951    35949    35947    35947 
   35950    35951    35951    35950    35947    35953    35953    35947 
   35946    35947    35949    35947    35949    35949    35949    35950 
   35950    35950    35953    35950    35946    35950    35953    35949 
   35950    35951    35950    35950    35950    35949    35953    35954 
   35950    35949    35947    35946    35951    35951    35947    35951 
   35955    35954    35949    35945    35949    35955    35951    35946 
   35949    35950    35950    35950    35951    35953    35951    35950 
   35953    35954    35951    35950    35949    35949    35950    35949 
   35946    35950    35954    35951    35953    35950    35950    35954 
   35951    35947    35947    35950    35951    35951    35949    35949 
   35951    35951    35950    35951    35953    35953    35950    35949 
   35951    35953    35951    35951    35955    35957    35951    35950 
   35951    35949    35950    35957    35954    35949    35951    35951 
   35951    35954    35955    35951    35949    35949    35953    35954 
   35953    35951    35949    35951    35953    35953    35951    35947 
   35946    35954    35953    35949    35953    35953    35949    35946 
   35947    35953    35953    35951    35950    35950    35951    35950 
   35950    35953    35950    35953    35954    35949    35947    35951 
   35951    35950    35951    35950    35947    35949    35947    35947 
   35951    35951    35950    35953    35953    35949    35949    35947 
   35947    35947    35946    35950    35953    35950    35950    35950 
   35950    35953    35951    35946    35946    35951    35953    35950 
   35950    35953    35953    35951    35954    35951    35949    35953 
   35950    35949    35953    35954    35954    35954    35949    35946 
   35950    35954    35954    35950    35949    35949    35950    35954 
   35951    35947    35949    35951    35953    35951    35949    35954 
   35955    35954    35955    35951    35947    35954    35955    35950 
   35951    35951    35949    35950    35949    35950    35953    35954 
   35953    35950    35950    35954    35955    35953    35951    35950 
   35947    35941    35927    35911    35887    35857    35830    35833 
   35881    35959    36055    36181    36317    36412    36421    36319 
   36109    35847    35603    35433    35375    35472    35738    36054 
   36240    36302    36393    36458    36310    36047    35891    35766 
   35506    35274    35303    35510    35676    35775    35966    36270 
   36428    36342    36159    35949    35800    35851    35976    35942 
   35888    36032    36213    36248    36150    35965    35900    36022 
   35992    35726    35611    35785    36036    36221    36192    35942 
   35814    35854    35735    35592    35661    35700    35715    35868 
   35887    35714    35746    36084    36467    36679    36616    36335 
   36018    35784    35683    35667    35734    35954    36065    35854 
   35726    35914    36117    36207    36189    36007    35866    35984 
   36099    35896    35598    35646    35974    36088    35923    35884 
   35970    35955    35958    35989    35889    35837    35989    36131 
   36042    35911    36049    36188    35996    35853    35869    35668 
   35572    35830    35791    35587    36018    36525    36367    36109 
   36115    36040    35860    35808    35919    35939    35849    35958 
   36107    35973    35904    36130    36116    35758    35688    35903 
   35937    35816    35695    35669    35843    36097    36283    36387 
   36373    36216    35980    35834    35888    35912    35700    35499 
   35650    36062    36316    36277    36136    35978    35923    36058 
   35986    35610    35569    35846    35820    35700    35779    35812 
   35888    36058    36012    35930    36136    36316    36169    35945 
   35865    35864    35839    35834    35988    36196    36289    36251 
   36084    36026    36132    35957    35622    35644    35753    35649 
   35638    35708    35802    36190    36482    36248    36038    36011 
   35861    35910    36007    35716    35714    36161    36193    35928 
   35910    35930    35897    35893    35843    35854    35919    35946 
   36019    35927    35735    35856    35970    35860    35950    36128 
   36077    36067    36175    36096    35916    35904    35928    35858 
   35807    35719    35557    35714    36273    36541    36325    36150 
   36080    35981    35947    35849    35681    35644    35669    35788 
   36008    35973    35847    36100    36282    36018    35869    35930 
   35811    35814    36047    36051    35997    36159    36154    36019 
   36069    35961    35662    35699    35918    35914    35903    36015 
   36032    35938    35839    35799    35869    36022    36208    36238 
   35989    35810    35858    35857    35858    35962    35961    35939 
   36066    36072    35868    35807    35954    35988    35865    35893 
   36099    36074    35769    35700    35928    35972    35865    35932 
   36007    35945    35947    36038    36119    36194    36138    35950 
   35903    35953    35869    35807    35892    35937    35931    35954 
   35932    35928    36026    36093    36077    36024    35941    35893 
   35876    35773    35683    35802    36015    36113    36078    35915 
   35769    35861    36020    36039    36013    35995    36000    36035 
   36007    35961    35962    35945    35931    35955    35969    35968 
   35924    35887    35977    36055    35964    35849    35843    35922 
   35968    35946    35992    36038    35973    35947    35943    35865 
   35858    35938    35962    35968    36001    36020    35984    35889 
   35804    35777    35792    35877    36053    36212    36243    36186 
   36111    35980    35812    35765    35873    35946    35864    35808 
   35911    35945    35827    35788    35833    35803    35816    35961 
   36024    35961    35924    35953    36078    36217    36136    35937 
   35957    36158    36178    35981    35866    35915    35941    35957 
   36080    36120    36023    36024    36005    35789    35644    35700 
   35826    36003    36089    35934    35830    35977    36077    36034 
   36034    35985    35857    35812    35826    35860    35931    35996 
   36062    36031    35856    35796    35903    35916    35903    36001 
   36015    35934    35988    36128    36161    36055    35962    35995 
   36003    35949    35966    35938    35815    35837    35968    35961 
   35885    35900    35918    35916    35947    35937    35920    35939 
   35920    35884    35853    35845    35897    35905    35899    36004 
   36062    36000    36003    36028    35986    36016    36089    36011 
   35911    35969    36023    36001    36046    36127    36072    35900 
   35808    35797    35721    35629    35608    35662    35804    35982 
   36115    36223    36281    36201    36099    36123    36130    36004 
   35918    35908    35834    35784    35860    35910    35897    35918 
   35888    35841    35932    36000    35923    35916    36042    36113 
   35982    35721    35640    35823    35986    35995    35961    35981 
   36057    36120    36115    36067    35958    35802    35765    35916 
   36065    36081    36054    36061    36073    36058    36028    35978 
   35961    36016    35977    35831    35807    35883    35992    36162 
   36173    35985    35874    35911    36013    36004    35792    35677 
   35757    35814    35841    35822    35745    35792    35916    35970 
   36004    35943    35793    35822    35957    35931    35903    36045 
   36153    36113    36051    35996    36000    36111    36158    36084 
   36026    36020    36032    36016    36001    36047    36058    36024 
   36072    36076    35922    35799    35738    35665    35662    35656 
   35629    35779    35959    35968    35981    36093    36139    36100 
   36128    36190    36085    35834    35633    35519    35500    35653 
   35926    36180    36316    36267    36130    36040    35934    35819 
   35815    35847    35864    35955    36049    35954    35765    35750 
   35932    36128    36229    36182    35982    35824    35839    35914 
   35965    35985    35972    36015    36081    36045    35996    36007 
   35943    35835    35893    36065    36094    35959    35833    35788 
   35815    35910    36019    36055    35982    35846    35783    35885 
   35982    35935    35930    36023    36074    36121    36185    36123 
   35941    35826    35870    35959    35996    36018    36074    36124 
   36082    36016    36051    36084    36004    35880    35826    35874 
   35883    35781    35760    35822    35787    35735    35795    35891 
   35893    35826    35903    36072    36040    35954    36013    35935 
   35712    35745    35985    36112    36077    35995    35964    35958 
   35935    35988    36108    36119    36038    36015    35989    35923 
   35926    35908    35853    35896    35920    35857    35854    35912 
   35970    36051    36123    36124    36092    36080    36035    35964 
   35972    36005    35900    35752    35737    35745    35721    35788 
   35889    35916    35920    35931    35988    36115    36167    36093 
   36090    36165    36049    35784    35679    35725    35789    35885 
   35939    35887    35881    35980    36031    36046    36116    36126 
   36053    36028    35951    35756    35662    35721    35811    35980 
   36208    36305    36247    36111    35945    35858    35846    35829 
   35862    35935    36013    36116    36101    35919    35812    35876 
   35955    35982    35949    35903    35961    36043    36038    36045 
   36050    35955    35869    35847    35804    35783    35861    35961 
   35953    35877    35884    35916    35878    35897    35995    36042 
   36045    36005    35938    35986    36109    36120    36042    36000 
   36053    36120    36077    35989    35924    35834    35760    35784 
   35891    35973    35935    35837    35769    35788    35958    36167 
   36202    36038    35864    35865    35978    35993    35868    35710 
   35640    35714    35823    35910    36042    36108    36036    35972 
   35939    35911    35920    35937    35970    36059    36103    36066 
   36024    35980    35965    36003    35984    35930    35961    36004 
   35962    35928    36013    36134    36194    36175    35999    35814 
   35857    35941    35928    35999    36030    35839    35650    35645 
   35742    35849    35918    35950    35935    35842    35749    35757 
   35838    35981    36188    36350    36382    36309    36193    36111 
   36076    35980    35793    35691    35719    35712    35633    35646 
   35795    35891    35903    35991    36062    35972    35908    35959 
   35965    35961    35992    35912    35824    35889    35966    36011 
   36131    36242    36269    36263    36190    36042    35931    35873 
   35833    35853    35920    35978    36023    36040    36036    36040 
   36045    36012    35908    35745    35630    35702    35922    36067 
   36049    36045    36105    36046    35893    35792    35691    35649 
   35726    35760    35768    35853    35928    36008    36144    36223 
   36197    36099    35943    35803    35733    35721    35770    35897 
   36061    36163    36193    36217    36201    36063    35893    35788 
   35669    35604    35722    35860    35924    36042    36180    36281 
   36358    36270    35981    35754    35710    35741    35872    36072 
   36135    36059    35957    35830    35715    35627    35572    35598 
   35668    35779    35931    36000    35949    35846    35780    35862 
   36053    36228    36340    36363    36323    36274    36227    36167 
   36093    36092    36259    36386    36243    36009    35924    35931 
   35931    35911    35849    35733    35611    35580    35626    35610 
   35618    35807    35981    35982    35912    35789    35635    35594 
   35685    35818    35950    36089    36234    36333    36413    36566 
   36637    36458    36225    36132    36096    35976    35764    35569 
   35413    35301    35390    35667    35877    35958    36035    36100 
   36092    36032    35957    35907    35897    35846    35742    35706 
   35718    35731    35839    35991    36018    35993    36088    36248 
   36304    36153    35856    35648    35681    35880    36142    36358 
   36406    36310    36220    36200    36163    36031    35850    35698 
   35592    35596    35797    36040    36196    36351    36441    36323 
   36107    35946    35847    35806    35842    35901    35899    35819 
   35703    35581    35461    35382    35395    35430    35395    35356 
   35359    35430    35722    36174    36477    36572    36618    36682 
   36747    36751    36682    36613    36560    36452    36275    36119 
   36000    35850    35685    35525    35299    35093    35086    35232 
   35363    35463    35554    35675    35856    35993    36057    36150 
   36239    36235    36246    36324    36319    36202    36066    35899 
   35691    35559    35631    35804    35851    35831    35916    36042 
   36177    36428    36675    36729    36624    36351    35946    35689 
   35635    35602    35646    35811    35918    35991    36148    36235 
   36099    35862    35649    35456    35356    35403    35515    35652 
   35827    35962    36013    36057    36085    36067    36085    36143 
   36166    36136    36042    35922    35899    35993    36124    36240 
   36293    36242    36116    36015    36050    36136    36089    35988 
   35958    35889    35780    35735    35748    35827    35914    35862 
   35743    35691    35716    35856    36031    36053    35931    35818 
   35788    35819    35837    35823    35856    35954    36050    36108 
   36099    36043    36078    36197    36274    36286    36217    36045 
   35910    35912    35928    35899    35864    35745    35573    35482 
   35425    35388    35471    35618    35718    35833    36015    36158 
   36242    36339    36400    36385    36381    36397    36405    36459 
   36505    36420    36263    36130    36011    35911    35824    35714 
   35603    35540    35525    35554    35607    35629    35586    35583 
   35696    35792    35788    35795    35849    35869    35877    35964 
   36054    36061    36085    36162    36194    36188    36228    36352 
   36464    36390    36202    36126    36138    36112    36059    35996 
   35883    35785    35781    35791    35764    35799    35874    35831 
   35696    35584    35473    35387    35397    35446    35525    35730 
   35997    36173    36258    36220    36018    35873    35939    36040 
   36111    36238    36363    36409    36397    36325    36209    36108 
   36073    36065    36023    35974    35958    35947    35922    35831 
   35667    35599    35689    35814    35937    36066    36174    36254 
   36290    36251    36115    35923    35789    35764    35765    35683 
   35537    35441    35444    35506    35573    35635    35711    35811 
   35924    36011    36066    36066    35984    35955    36057    36142 
   36186    36262    36302    36292    36273    36235    36212    36185 
   36086    36005    35986    35953    35926    35935    35927    35915 
   35930    35926    35915    35915    35901    35905    35926    35896 
   35834    35839    35938    35993    35903    35793    35788    35816 
   35858    35939    35974    35968    36024    36100    36112    36101 
   36089    36063    36000    35864    35742    35780    35903    35962 
   36034    36148    36136    35992    35854    35681    35500    35482 
   35572    35644    35710    35785    35874    35959    36024    36112 
   36220    36289    36315    36315    36298    36286    36271    36220 
   36112    35970    35845    35722    35613    35576    35595    35637 
   35719    35833    35955    36078    36171    36217    36236    36244 
   36250    36242    36169    36019    35876    35822    35820    35784 
   35745    35765    35795    35838    35927    35972    35923    35860 
   35860    35918    35966    35958    35932    35951    35978    35951 
   35922    35922    35873    35761    35719    35808    35908    35947 
   35995    36072    36115    36101    36077    36018    35876    35769 
   35800    35904    36009    36081    36117    36162    36205    36232 
   36266    36265    36190    36093    36016    35966    35934    35901 
   35864    35846    35833    35769    35696    35707    35742    35723 
   35735    35800    35860    35943    36011    35981    35937    35896 
   35787    35704    35710    35718    35789    35972    36089    36088 
   36117    36184    36211    36205    36142    36027    35978    35992 
   35959    35891    35878    35945    36020    36065    36074    36051 
   36043    36040    36009    35992    36008    36030    36049    36049 
   35982    35865    35762    35726    35718    35673    35679    35804 
   35904    35922    35962    36020    36019    35977    35934    35900 
   35903    35977    36066    36066    35999    35950    35878    35749 
   35619    35526    35521    35654    35838    35946    35996    36058 
   36115    36117    36120    36180    36267    36331    36336    36312 
   36305    36308    36282    36258    36252    36202    36090    35974 
   35858    35738    35638    35550    35498    35526    35604    35671 
   35749    35862    35928    35935    35953    35938    35846    35784 
   35824    35888    35949    36043    36089    36011    35920    35901 
   35891    35885    35923    35926    35868    35846    35876    35914 
   35985    36058    36077    36092    36119    36136    36190    36269 
   36286    36200    36050    35946    35916    35864    35797    35803 
   35835    35847    35872    35878    35833    35800    35868    36007 
   36103    36115    36117    36170    36220    36198    36139    36072 
   35976    35876    35785    35727    35733    35749    35749    35788 
   35830    35827    35838    35861    35868    35910    35974    36027 
   36104    36193    36208    36150    36113    36131    36131    36057 
   35950    35910    35931    35932    35896    35847    35816    35777 
   35679    35608    35642    35676    35691    35779    35865    35888 
   35938    36003    35996    35977    36047    36166    36232    36238 
   36217    36154    36082    36063    36026    35926    35866    35868 
   35849    35802    35789    35830    35846    35837    35893    35962 
   35969    35985    36051    36126    36184    36213    36197    36143 
   36086    36047    36003    35931    35868    35850    35866    35889 
   35907    35891    35853    35854    35877    35858    35838    35819 
   35754    35719    35753    35783    35816    35870    35851    35787 
