Origin Time       2025/03/28 03:50:00
Lat.              35.403
Long.             140.360
Depth. (km)       54
Mag.              4.4
Station Code      KNG001
Station Lat.      35.5291
Station Long.     139.7061
Station Height(m) 2
Record Time       2025/03/28 03:51:01
Sampling Freq(Hz) 100Hz
Duration Time(s)  60
Dir.              E-W
Scale Factor      7845(gal)/8223790
Max. Acc. (gal)   5.189
Last Correction   2025/03/28 03:51:01
Memo.             
[...]
    1611     1603     1636     1671     1665     1630     1606     1621 
    1647     1653     1648     1634     1622     1630     1624     1599 
    1614     1651     1665     1645     1617     1625     1640     1617 
    1583     1584     1626     1664     1656     1626     1610     1614 
    1628     1626     1622     1634     1647     1622     1578     1571 
    1610     1636     1625     1615     1618     1629     1628     1615 
    1622     1642     1644     1620     1603     1615     1636     1641 
    1625     1606     1624     1644     1618     1587     1598     1626 
    1641     1633     1613     1609     1625     1636     1625     1606 
    1614     1642     1647     1618     1606     1625     1640     1622 
    1607     1617     1628     1630     1613     1603     1628     1642 
    1632     1628     1641     1655     1652     1636     1632     1642 
    1647     1633     1615     1617     1638     1652     1642     1615 
    1603     1609     1617     1615     1611     1618     1622     1620 
    1630     1640     1637     1630     1606     1591     1613     1632 
    1620     1607     1621     1637     1626     1607     1613     1629 
    1634     1628     1618     1617     1625     1624     1615     1614 
    1628     1641     1647     1655     1651     1634     1626     1622 
    1614     1609     1621     1637     1626     1620     1640     1652 
    1640     1617     1614     1637     1645     1632     1615     1617 
    1641     1647     1632     1625     1629     1637     1637     1618 
    1609     1629     1645     1638     1629     1640     1657     1648 
    1622     1614     1615     1617     1613     1611     1628     1634 
    1620     1618     1620     1613     1625     1634     1618     1601 
    1614     1637     1626     1598     1598     1617     1622     1613 
    1605     1610     1626     1621     1597     1598     1614     1620 
    1615     1618     1642     1651     1618     1606     1634     1640 
    1609     1594     1603     1620     1638     1645     1611     1583 
    1603     1636     1636     1613     1601     1617     1636     1636 
    1634     1648     1657     1640     1615     1620     1642     1638 
    1614     1613     1642     1667     1661     1642     1645     1657 
    1648     1621     1613     1632     1640     1628     1620     1620 
    1644     1680     1679     1649     1622     1614     1641     1629 
    1593     1611     1624     1609     1605     1613     1651     1657 
    1618     1609     1629     1641     1633     1611     1605     1629 
    1644     1624     1607     1617     1629     1628     1602     1580 
    1597     1633     1649     1633     1601     1587     1607     1625 
    1610     1610     1630     1625     1606     1625     1660     1668 
    1638     1594     1583     1618     1645     1647     1642     1644 
    1651     1642     1622     1624     1641     1655     1649     1628 
    1636     1656     1641     1607     1575     1571     1618     1655 
    1640     1625     1641     1642     1624     1618     1622     1626 
    1624     1621     1633     1642     1632     1621     1624     1638 
    1636     1611     1594     1597     1610     1626     1637     1628 
    1625     1649     1651     1622     1597     1603     1637     1649 
    1630     1613     1617     1630     1621     1613     1630     1636 
    1626     1610     1602     1625     1648     1634     1590     1576 
    1634     1692     1676     1603     1561     1588     1629     1638 
    1638     1652     1660     1624     1593     1630     1683     1676 
    1618     1560     1547     1605     1671     1675     1642     1606 
    1567     1556     1598     1674     1722     1694     1613     1548 
    1561     1647     1722     1723     1668     1601     1547     1544 
    1602     1674     1702     1663     1590     1548     1579     1633 
    1638     1622     1622     1633     1655     1663     1648     1625 
    1587     1560     1597     1668     1707     1686     1614     1541 
    1530     1576     1644     1690     1672     1620     1578     1555 
    1570     1622     1671     1683     1661     1634     1615     1601 
    1598     1602     1611     1629     1641     1642     1642     1645 
    1620     1566     1556     1602     1632     1624     1613     1607 
    1615     1652     1671     1641     1620     1628     1625     1613 
    1606     1624     1651     1655     1629     1595     1576     1567 
    1544     1529     1571     1634     1632     1594     1610     1637 
    1630     1640     1671     1672     1683     1717     1671     1613 
    1692     1749     1656     1598     1632     1638     1638     1669 
    1687     1675     1674     1672     1628     1622     1707     1679 
    1456     1316     1441     1699     1922     1989     1837     1634 
    1560     1524     1455     1464     1640     1867     1883     1653 
    1443     1360     1316     1350     1557     1825     1942     1827 
    1597     1412     1323     1394     1614     1830     2016     2073 
    1723     1175     1007     1205     1478     1853     2128     2029 
    1857     1755     1456     1182     1281     1543     1764     1977 
    2012     1768     1497     1362     1335     1482     1757     1906 
    1798     1598     1536     1583     1575     1587     1740     1860 
    1784     1647     1560     1533     1618     1680     1555     1424 
    1441     1468     1497     1597     1723     1864     1864     1633 
    1468     1482     1476     1459     1467     1460     1595     1834 
    1895     1879     1929     1787     1452     1273     1320     1428 
    1514     1503     1316     1204     1539     2095     2317     2108 
    1773     1571     1601     1772     1841     1607     1204     1063 
    1324     1637     1837     1939     1795     1503     1344     1282 
    1278     1431     1694     1934     2087     2174     2111     1764 
    1397     1360     1495     1555     1687     1881     1825     1597 
    1491     1426     1325     1397     1628     1759     1794     1809 
    1688     1551     1624     1717     1723     1869     2034     1958 
    1752     1548     1393     1381     1499     1649     1767     1837 
    1887     1760     1313      953     1058     1402     1752     2011 
    2043     1900     1652     1324     1197     1413     1679     1836 
    1894     1742     1482     1417     1526     1601     1661     1721 
    1602     1328     1142     1146     1364     1756     2042     2000 
    1722     1425     1344     1541     1768     1890     1904     1757 
    1663     1779     1864     1864     1769     1497     1375     1571 
    1699     1625     1553     1525     1482     1474     1532     1593 
    1684     1904     2093     2000     1756     1549     1297     1119 
    1246     1489     1663     1898     2106     2025     1740     1510 
    1390     1420     1578     1574     1359     1348     1620     1760 
    1632     1467     1385     1409     1624     1934     2083     2012 
    1809     1495     1209     1221     1548     1823     1898     1962 
    1960     1746     1522     1394     1259     1227     1335     1441 
    1610     1823     1872     1768     1622     1537     1722     2104 
    2296     2182     1927     1580     1216     1032     1043     1129 
    1262     1356     1310     1260     1379     1578     1725     1853 
    1937     1969     2069     2189     2134     1934     1779     1676 
    1529     1421     1405     1309     1070      955     1135     1409 
    1688     1996     2085     1873     1667     1567     1525     1659 
    1933     2164     2328     2312     1960     1552     1368     1156 
     888      932     1262     1584     1765     1718     1487     1300 
    1256     1332     1557     1804     1809     1699     1744     1841 
    1898     2029     2255     2420     2278     1810     1313      984 
     831      904     1189     1524     1798     1950     1857     1591 
    1466     1598     1850     2084     2130     1941     1771     1713 
    1617     1580     1691     1726     1556     1277     1059     1042 
    1166     1363     1644     1840     1844     1846     1919     1838 
    1526     1233     1151     1239     1498     1900     2199     2254 
    2160     1995     1811     1641     1467     1331     1344     1509 
    1625     1572     1533     1647     1807     1957     2066     1975 
    1728     1564     1502     1512     1653     1737     1597     1418 
    1287     1169     1210     1321     1221     1085     1154     1293 
    1463     1755     2074     2268     2253     2049     1844     1768 
    1675     1472     1294     1182     1121     1167     1248     1317 
    1552     1945     2231     2292     2149     1856     1587     1463 
    1444     1529     1711     1896     2027     2033     1857     1642 
    1476     1321     1305     1433     1462     1456     1624     1764 
    1769     1840     1864     1699     1537     1385     1193     1202 
    1436     1667     1818     1872     1829     1750     1611     1443 
    1360     1309     1243     1239     1294     1464     1795     2053 
    2083     2025     1952     1841     1772     1746     1647     1536 
    1582     1613     1401     1231     1345     1502     1576     1702 
    1830     1885     1923     1898     1788     1703     1664     1628 
    1661     1849     2012     1856     1491     1279     1269     1331 
    1417     1467     1498     1583     1647     1644     1672     1748 
    1768     1671     1501     1302     1038      868     1078     1545 
    1979     2319     2392     2111     1892     1895     1753     1561 
    1613     1617     1494     1583     1752     1746     1752     1814 
    1740     1620     1590     1563     1587     1825     2084     2039 
    1776     1582     1455     1305     1240     1277     1368     1602 
    1830     1763     1579     1534     1448     1312     1417     1617 
    1533     1294     1190     1178     1210     1378     1609     1776 
    1846     1802     1674     1591     1668     1825     1857     1775 
    1738     1718     1660     1684     1745     1667     1495     1344 
    1271     1391     1692     1950     2016     1953     1838     1671 
    1509     1525     1794     2143     2349     2332     2088     1669 
    1293     1165     1255     1398     1520     1570     1418     1194 
    1182     1215     1138     1254     1549     1749     1988     2257 
    2214     1960     1841     1776     1620     1505     1462     1339 
    1216     1262     1324     1216     1139     1290     1499     1664 
    1834     1853     1721     1752     1935     1985     1965     2050 
    2142     2178     2168     1976     1552     1166     1013      936 
     841      870     1021     1233     1591     2010     2269     2373 
    2378     2263     2155     2150     2061     1761     1413     1150 
     940      873     1046     1285     1443     1617     1813     1925 
    2042     2223     2255     2069     1895     1823     1723     1597 
    1525     1412     1206     1061     1005      911      842      895 
     939     1019     1372     1957     2442     2597     2470     2269 
    2143     2104     2007     1742     1472     1335     1205     1077 
    1093     1169     1237     1383     1517     1603     1811     2074 
    2161     2091     1989     1865     1815     1948     2062     2007 
    1877     1649     1370     1270     1246     1085      969     1116 
    1490     1902     2083     1935     1695     1526     1377     1350 
    1487     1540     1513     1557     1533     1516     1691     1818 
    1814     1896     1941     1807     1638     1464     1304     1305 
    1398     1379     1282     1240     1237     1298     1566     2010 
    2397     2532     2397     2158     1998     1915     1806     1634 
    1541     1638     1686     1443     1134     1011     1061     1300 
    1630     1744     1634     1549     1502     1501     1667     1931 
    2161     2324     2408     2292     1885     1425     1166     1030 
     970      982      892      774      884     1111     1328     1661 
    2049     2347     2562     2547     2187     1757     1509     1343 
    1152     1044     1062     1154     1306     1474     1584     1672 
    1767     1836     1876     1890     1841     1784     1813     1931 
    2099     2180     2056     1810     1570     1399     1305     1202 
    1096     1140     1352     1587     1803     2035     2239     2338 
    2303     2149     1927     1703     1514     1359     1304     1426 
    1615     1709     1703     1610     1433     1248     1131     1175 
    1476     1902     2169     2257     2290     2265     2195     2088 
    1834     1486     1206      977      753      580      508      522 
     519      513      630      838      957      946      892      900 
    1008     1035      918      955     1279     1734     2274     2795 
    3171     3507     3759     3693     3381     3029     2636     2219 
    1863     1582     1382     1194      976      901      997     1065 
    1097     1177     1181      970      675      530      614      958 
    1615     2509     3461     4237     4684     4853     4800     4444 
    3753     2767     1524      162    -1051    -1957    -2691    -3330 
   -3388    -2442     -908      631     1988     3055     3797     4183 
    4209     4209     4324     4243     4059     4141     4347     4256 
    3730     2855     1590     -114    -1850    -3005    -3484    -3557 
   -3262    -2494    -1225      460     2335     4102     5406     6119 
    6612     7065     6961     5994     4633     3338     2100      853 
    -325    -1458    -2544    -3252    -3418    -3312    -3045    -2442 
   -1436      -67     1663     3640     5323     6195     6475     6470 
    6003     5074     4008     2961     1948      970       64     -703 
   -1251    -1466    -1441    -1368    -1139     -661       31     1024 
    2259     3361     3924     3912     3681     3569     3708     3962 
    3982     3573     2795     1726      491     -649    -1669    -2577 
   -2895    -2282    -1051      349     1705     2905     3786     4172 
    4077     3674     3145     2606     2158     1926     2019     2369 
    2686     2783     2763     2690     2451     2033     1444      575 
    -453    -1142    -1086     -421      422     1174     1748     2157 
    2505     2785     2822     2512     1973     1451     1144     1094 
    1196     1345     1539     1809     2087     2191     2118     2097 
    2145     2064     1900     1827     1825     1722     1393      888 
     395      -25     -379     -438       95     1107     2160     3030 
    3672     3908     3605     2874     2041     1435     1162     1174 
    1390     1675     1956     2250     2484     2520     2317     1846 
    1094      340       28      252      810     1448     1857     1935 
    1910     1911     1860     1802     1841     1867     1806     1748 
    1674     1572     1552     1528     1387     1347     1541     1742 
    1756     1603     1404     1313     1343     1372     1447     1753 
    2296     2787     2855     2390     1586      645     -240     -739 
    -654      -95      788     1814     2644     3084     3137     2814 
    2288     1941     1885     1880     1894     2092     2390     2597 
    2600     2255     1634     1120      981     1096     1159     1008 
     700      353      213      615     1436     2153     2551     2760 
    2909     3061     3133     2922     2405     1756     1125      572 
     171       10        5       51      241      612     1013     1379 
    1744     2047     2199     2255     2373     2546     2633     2648 
    2667     2720     2863     2971     2820     2489     2133     1641 
     996      405      -48     -357     -423     -189      309      915 
    1516     2161     2724     2999     3052     2886     2373     1744 
    1340     1158     1088     1155     1390     1757     2153     2458 
    2570     2300     1564      635     -117     -523     -538     -172 
     436     1075     1615     1957     2054     2070     2111     2107 
    2211     2556     2816     2708     2374     2069     1934     1987 
    2088     2025     1707     1310     1105     1175     1404     1707 
    2050     2319     2473     2598     2664     2547     2203     1703 
    1169      687      337      193      232      406      700      980 
    1127     1262     1537     1857     2074     2277     2587     2847 
    2822     2455     1884     1444     1385     1575     1687     1632 
    1576     1601     1661     1672     1499     1134      746      486 
     365      407      691     1143     1638     2214     2749     2913 
    2709     2516     2457     2338     2154     2002     1788     1505 
    1267     1090      954      949     1132     1352     1408     1300 
    1152     1066     1092     1177     1275     1456     1769     2137 
    2412     2546     2548     2428     2280     2203     2174     2123 
    1948     1603     1251     1048      930      810      777      965 
    1324     1595     1607     1497     1475     1610     1836     2033 
    2174     2297     2353     2331     2305     2259     2107     1788 
    1325      868      504      178     -118     -272     -152      317 
    1034     1680     2053     2265     2446     2581     2673     2678 
    2504     2245     2004     1764     1607     1629     1714     1780 
    1853     1923     2049     2270     2440     2412     2212     1934 
    1648     1391     1081      710      527      681     1021     1355 
    1579     1652     1656     1746     1838     1771     1684     1806 
    2095     2311     2350     2236     1876     1229      519       41 
     -35      228      638     1100     1606     2099     2519     2845 
    3024     2987     2724     2254     1659     1046      545      310 
     303      353      477      777     1270     1922     2562     2894 
    2797     2455     2128     1961     1962     2084     2293     2469 
    2431     2204     1915     1552     1078      635      372      298 
     426      819     1405     1929     2192     2218     2077     1880 
    1811     1834     1745     1606     1582     1602     1568     1509 
    1424     1298     1174     1066     1048     1271     1707     2153 
    2366     2268     2084     2038     2064     2041     1962     1867 
    1730     1505     1263     1125     1058     1003      974      997 
    1123     1372     1665     1852     1900     1988     2242     2632 
    3063     3292     3148     2810     2501     2218     1857     1372 
     851      457      276      292      484      805     1125     1309 
    1332     1329     1424     1578     1740     1840     1683     1343 
    1171     1240     1356     1476     1624     1688     1632     1518 
    1317     1004      687      449      368      596     1144     1814 
    2431     2914     3186     3195     2988     2640     2219     1856 
    1640     1493     1382     1416     1571     1725     1841     1854 
    1687     1393     1147     1128     1370     1742     2080     2273 
    2336     2322     2203     1950     1668     1483     1391     1377 
    1431     1444     1356     1233     1080      919      877      984 
    1167     1412     1691     1981     2319     2586     2517     2135 
    1725     1382     1043      727      495      384      427      614 
     854     1101     1422     1908     2478     2972     3341     3510 
