Origin Time       2025/03/28 03:50:00
Lat.              35.403
Long.             140.360
Depth. (km)       54
Mag.              4.4
Station Code      KNG002
Station Lat.      35.4372
Station Long.     139.6334
Station Height(m) 2
Record Time       2025/03/28 03:51:03
Sampling Freq(Hz) 100Hz
Duration Time(s)  60
Dir.              U-D
Scale Factor      7845(gal)/8223790
Max. Acc. (gal)   2.958
Last Correction   2025/03/28 03:51:02
Memo.             
[...]
   11556    11551    11533    11516    11526    11529    11510    11492 
   11473    11457    11460    11470    11477    11476    11457    11452 
   11491    11526    11523    11511    11502    11493    11496    11508 
   11534    11566    11558    11519    11520    11546    11547    11530 
   11515    11515    11527    11531    11531    11534    11519    11483 
   11454    11462    11492    11496    11483    11480    11487    11488 
   11497    11531    11556    11542    11519    11519    11529    11527 
   11520    11510    11499    11496    11500    11497    11497    11503 
   11480    11460    11495    11535    11520    11491    11489    11491 
   11485    11492    11520    11543    11530    11504    11503    11511 
   11502    11487    11481    11496    11516    11518    11524    11543 
   11531    11497    11496    11523    11524    11511    11504    11481 
   11461    11469    11480    11491    11514    11507    11481    11487 
   11512    11526    11524    11512    11506    11518    11533    11534 
   11531    11523    11515    11524    11543    11545    11535    11519 
   11495    11489    11508    11516    11506    11489    11473    11469 
   11484    11495    11492    11491    11493    11485    11476    11481 
   11492    11493    11485    11484    11503    11526    11537    11533 
   11518    11534    11578    11587    11574    11587    11577    11524 
   11492    11504    11519    11516    11502    11472    11443    11437 
   11431    11427    11446    11462    11460    11470    11497    11510 
   11504    11499    11511    11541    11561    11562    11561    11562 
   11541    11527    11557    11589    11581    11547    11515    11497 
   11492    11492    11504    11508    11499    11484    11465    11466 
   11480    11468    11443    11452    11488    11512    11515    11507 
   11476    11453    11477    11518    11547    11572    11566    11546 
   11538    11530    11531    11553    11550    11522    11520    11538 
   11531    11508    11491    11480    11485    11496    11495    11497 
   11503    11485    11469    11489    11512    11511    11504    11495 
   11483    11481    11484    11499    11524    11526    11499    11491 
   11519    11551    11546    11519    11518    11533    11531    11526 
   11524    11518    11492    11458    11462    11496    11506    11487 
   11472    11466    11476    11491    11487    11475    11470    11468 
   11484    11522    11541    11539    11524    11504    11519    11550 
   11554    11543    11515    11470    11461    11495    11531    11543 
   11534    11510    11506    11538    11566    11573    11591    11614 
   11616    11614    11635    11677    11693    11692    11722    11784 
   11820    11758    11583    11329    11020    10717    10547    10616 
   10956    11506    12078    12429    12361    11874    11200    10728 
   10831    11491    12190    12390    11890    10903    10133    10345 
   11527    12820    13257    12491    11071    10008     9875    10481 
   11304    11915    12043    11561    10728    10216    10552    11585 
   12626    13038    12696    11982    11422    11237    11344    11734 
   12263    12506    12316    11774    10917    10170    10091    10539 
   10986    11250    11448    11699    12056    12364    12252    11766 
   11542    11943    12567    12749    12229    11371    10698    10405 
   10380    10567    11210    12237    12810    12333    11205    10288 
   10366    11369    12144    11905    11144    10708    11001    11827 
   12359    11921    11063    10849    11356    11997    12514    12727 
   12442    11781    10929    10242    10305    11090    11836    11943 
   11319    10349     9728    10026    11307    12887    13702    13402 
   12532    11731    11369    11438    11529    11383    11192    11086 
   10994    11032    11234    11407    11722    12247    12322    11730 
   11067    10663    10732    11565    12523    12572    11700    10660 
   10172    10593    11618    12528    12765    12159    11214    10774 
   10947    11236    11419    11522    11643    11811    11785    11554 
   11326    11105    11005    11168    11450    11681    11677    11439 
   11368    11574    11809    12054    12270    12231    11936    11558 
   11094    10567    10266    10493    11191    11925    12264    12017 
   11327    10847    11110    11719    12058    12052    11722    11268 
   11157    11380    11707    12162    12530    12538    12333    11979 
   11358    10682    10299    10295    10554    10895    11265    11650 
   11747    11484    11360    11510    11619    11838    12286    12445 
   12106    11727    11538    11464    11508    11461    11109    10762 
   10746    10975    11317    11646    11811    11776    11572    11353 
   11371    11645    11939    12000    11736    11356    11142    11003 
   10729    10627    11080    11830    12452    12711    12301    11461 
   11026    11265    11742    12005    11847    11456    11242    11276 
   11295    11164    11103    11389    11847    12044    11911    11569 
   11156    10945    10972    11048    11248    11601    11857    11847 
   11584    11263    11234    11568    11965    12114    11940    11703 
   11676    11665    11454    11315    11388    11381    11275    11280 
   11298    11353    11638    11915    11907    11638    11219    10962 
   11079    11334    11485    11507    11456    11453    11507    11495 
   11469    11576    11722    11727    11630    11585    11684    11967 
   12313    12403    12085    11469    10862    10708    10993    11214 
   11287    11364    11271    11026    10930    11040    11296    11601 
   11646    11426    11331    11425    11502    11615    11904    12267 
   12401    12216    11912    11554    11156    10941    11094    11542 
   11975    12071    11777    11245    10750    10646    11057    11681 
   12052    11952    11520    11151    11168    11475    11716    11774 
   11763    11762    11772    11730    11515    11256    11302    11616 
   11835    11838    11708    11564    11516    11514    11418    11173 
   10839    10619    10683    10959    11341    11777    12133    12278 
   12116    11665    11232    11101    11280    11678    12044    12046 
   11672    11280    11180    11291    11344    11256    11124    11091 
   11260    11483    11570    11614    11718    11792    11873    12040 
   12066    11843    11647    11587    11531    11430    11268    11114 
   11148    11331    11476    11646    11912    11965    11650    11346 
   11403    11745    12025    11904    11422    10979    10808    10889 
   11056    11047    10926    10964    11180    11510    11827    11924 
   11904    12006    12125    12024    11727    11372    10995    10754 
   10856    11168    11415    11526    11538    11599    11834    12059 
   12073    11934    11759    11618    11545    11556    11573    11403 
   11090    10935    11032    11259    11460    11464    11323    11340 
   11608    11928    12097    12008    11673    11329    11160    11130 
   11292    11668    11955    11911    11596    11223    11134    11492 
   11858    11745    11334    11079    11155    11538    11967    12017 
   11657    11349    11437    11712    11770    11520    11186    11080 
   11400    11897    12071    11800    11437    11340    11473    11511 
   11346    11133    10940    10870    11053    11354    11623    11877 
   11985    11893    11826    11846    11823    11755    11712    11670 
   11530    11277    11087    11044    11048    11192    11520    11688 
   11584    11452    11315    11178    11218    11416    11661    11959 
   12171    12102    11836    11553    11327    11244    11345    11470 
   11437    11263    11121    11145    11338    11580    11726    11691 
   11593    11569    11414    11076    11044    11499    11952    12075 
   11996    11846    11670    11578    11599    11572    11367    11059 
   10844    10894    11198    11541    11790    11992    12093    11973 
   11676    11412    11376    11516    11578    11446    11169    10935 
   11003    11306    11562    11703    11718    11635    11626    11695 
   11724    11719    11673    11569    11477    11446    11558    11796 
   11877    11638    11172    10693    10617    11056    11506    11700 
   11842    11934    11765    11385    11144    11303    11755    12086 
   11961    11561    11315    11263    11249    11287    11372    11499 
   11655    11673    11583    11650    11831    11904    11863    11668 
   11334    11194    11342    11434    11234    10905    10764    10922 
   11237    11518    11662    11704    11677    11607    11664    11870 
   11954    11813    11620    11485    11385    11271    11129    10999 
   10881    10828    10952    11291    11766    12118    12205    12272 
   12379    12221    11851    11549    11360    11306    11300    11136 
   10957    11068    11453    11863    12012    11801    11441    11196 
   11230    11557    11847    11738    11437    11380    11529    11619 
   11595    11448    11241    11125    11144    11307    11558    11731 
   11828    11936    11981    11858    11549    11194    11079    11272 
   11468    11427    11275    11226    11298    11392    11470    11520 
   11558    11734    12091    12271    12051    11784    11723    11689 
   11619    11585    11515    11387    11230    10986    10733    10671 
   10886    11273    11526    11560    11699    11998    12136    12010 
   11718    11306    11014    11137    11470    11556    11421    11314 
   11238    11280    11558    11821    11893    11920    11875    11622 
   11299    11151    11180    11249    11352    11545    11723    11715 
   11537    11345    11211    11145    11232    11503    11727    11739 
   11754    11848    11819    11726    11701    11553    11225    11011 
   11109    11394    11664    11820    11745    11538    11547    11728 
   11770    11708    11681    11601    11360    11060    10972    11253 
   11715    11917    11642    11209    11078    11317    11643    11739 
   11580    11442    11492    11615    11691    11677    11541    11406 
   11412    11427    11331    11210    11148    11259    11576    11861 
   11855    11593    11361    11365    11531    11700    11700    11465 
   11260    11327    11549    11711    11746    11792    11961    12058 
   11913    11693    11568    11480    11389    11356    11340    11275 
   11222    11210    11157    11026    10875    10831    10974    11276 
   11664    12021    12187    12102    11902    11812    11907    12063 
   12174    12100    11703    11188    10937    11030    11298    11514 
   11443    11076    10775    10845    11111    11317    11468    11524 
   11473    11550    11827    12042    11962    11696    11524    11493 
   11473    11422    11392    11522    11777    11817    11581    11387 
   11294    11164    11068    11142    11379    11676    11888    11896 
   11695    11410    11202    11175    11322    11460    11508    11661 
   11894    12013    12070    12089    11948    11669    11292    10912 
   10768    10918    11156    11407    11655    11685    11475    11377 
   11539    11731    11670    11304    11014    11144    11485    11707 
   11808    11835    11761    11745    11893    11919    11627    11237 
   10922    10721    10764    11072    11425    11647    11750    11777 
   11753    11788    11916    11967    11881    11805    11796    11749 
   11700    11753    11718    11383    10909    10546    10411    10571 
   10968    11462    11874    12023    11954    11878    11863    11832 
   11742    11665    11716    11816    11732    11542    11518    11626 
   11686    11684    11604    11457    11311    11209    11164    11053 
   10808    10660    10756    10993    11280    11514    11592    11587 
   11577    11484    11350    11392    11547    11623    11730    11882 
   11938    11947    11898    11738    11645    11647    11580    11535 
   11634    11685    11562    11358    11134    11080    11362    11678 
   11681    11449    11246    11272    11541    11835    11929    11819 
   11662    11561    11556    11749    12066    12240    12283    12329 
   12270    11986    11564    11191    10947    10735    10551    10469 
   10476    10588    10775    10971    11191    11388    11537    11728 
   11874    11803    11523    11225    11113    11263    11646    12101 
   12305    12106    11778    11618    11628    11736    11859    11835 
   11708    11742    11931    12077    12244    12464    12509    12329 
   12013    11562    11105    10787    10567    10370    10138     9841 
    9562     9439     9518     9737    10072    10512    10952    11313 
   11642    12009    12437    12896    13225    13215    12906    12611 
   12591    12818    13034    12997    12688    12264    11896    11680 
   11630    11645    11556    11307    11043    10855    10702    10592 
   10500    10342    10253    10488    10986    11414    11638    11754 
   11815    11962    12348    12691    12596    12093    11352    10505 
    9826     9504     9423     9440     9599     9969    10524    11175 
   11804    12339    12785    13162    13473    13716    13834    13740 
   13495    13286    13073    12696    12178    11574    10920    10366 
    9998     9780     9799    10075    10405    10682    10995    11306 
   11458    11488    11527    11530    11395    11211    11074    11092 
   11449    11900    12002    11807    11551    11286    11065    10912 
   10717    10476    10359    10563    11103    11749    12239    12538 
   12773    13049    13420    13851    14158    14160    13871    13420 
   12812    12009    11176    10458     9767     9096     8602     8407 
    8599     9128     9749    10233    10566    10848    11078    11219 
   11323    11431    11596    11894    12272    12557    12610    12484 
   12411    12501    12667    12795    12734    12445    12141    11996 
   12017    12144    12295    12441    12515    12387    12066    11653 
   11171    10629    10104     9688     9471     9468     9645    10018 
   10516    10925    11198    11462    11782    12129    12382    12411 
   12260    12040    11794    11562    11399    11329    11329    11372 
   11488    11689    11842    11788    11576    11385    11313    11308 
   11294    11271    11310    11476    11832    12325    12793    13085 
   13062    12712    12177    11649    11283    10982    10605    10341 
   10332    10446    10677    11053    11419    11722    11969    12021 
   11877    11730    11604    11341    10898    10396     9942     9640 
    9641    10061    10833    11711    12445    12982    13385    13632 
   13613    13262    12656    11978    11406    11053    10953    11070 
   11362    11740    12020    12101    12028    11838    11539    11222 
   10917    10563    10288    10282    10507    10827    11146    11367 
   11511    11618    11628    11538    11379    11168    10974    10876 
   10876    10956    11145    11419    11704    12039    12433    12779 
   13012    13085    12934    12618    12252    11871    11449    11048 
   10785    10608    10465    10536    10852    11173    11427    11627 
   11674    11592    11508    11403    11269    11245    11346    11453 
   11511    11530    11542    11631    11790    11931    12075    12195 
   12152    11956    11704    11400    11152    11056    11007    10971 
   11007    11068    11126    11194    11202    11117    11007    10956 
   10974    11038    11151    11329    11583    11859    12052    12158 
   12263    12414    12569    12587    12395    12096    11788    11572 
   11488    11368    11145    10971    10926    11044    11283    11427 
   11437    11561    11878    12202    12395    12411    12226    11908 
   11649    11561    11477    11137    10586    10118     9882     9846 
    9957    10120    10245    10343    10498    10779    11213    11743 
   12239    12665    13090    13448    13655    13756    13697    13410 
   13086    12888    12711    12387    11886    11306    10756    10300 
    9984     9814     9742     9778     9915    10012    10010    10075 
   10320    10654    10978    11184    11171    11067    11083    11263 
   11576    11911    12079    12074    12069    12139    12243    12394 
   12573    12650    12603    12534    12519    12617    12842    13051 
   13019    12735    12366    11904    11318    10814    10530    10354 
   10222    10153    10092    10065    10204    10493    10812    11082 
   11206    11211    11254    11341    11410    11456    11414    11319 
   11300    11344    11489    11826    12216    12495    12629    12560 
   12384    12336    12383    12349    12231    12067    11851    11637 
   11491    11404    11335    11281    11196    11028    10828    10654 
   10562    10593    10701    10851    10982    11052    11179    11429 
   11659    11759    11723    11577    11441    11419    11512    11688 
   11834    11819    11749    11762    11784    11745    11676    11596 
   11500    11346    11115    10913    10863    10926    10999    11097 
   11283    11485    11637    11788    11948    12043    12021    11974 
   12039    12106    12043    12012    12170    12403    12534    12472 
   12189    11784    11466    11333    11273    11164    10974    10756 
   10588    10504    10528    10629    10719    10790    10894    11048 
   11287    11595    11842    11931    11850    11639    11412    11290 
   11315    11466    11682    11908    12113    12243    12251    12183 
   12106    12055    12010    11901    11750    11655    11696    11867 
   12040    12077    11952    11668    11264    10917    10701    10485 
   10172     9848     9667     9688     9884    10226    10658    11114 
   11530    11836    11997    12066    12144    12226    12241    12222 
   12236    12258    12283    12286    12168    11981    11870    11834 
   11794    11712    11551    11384    11354    11464    11623    11776 
   11830    11727    11587    11588    11692    11722    11654    11576 
   11481    11358    11265    11211    11132    10970    10763    10623 
   10642    10813    11036    11196    11272    11308    11323    11371 
   11492    11634    11788    12005    12293    12567    12673    12584 
   12421    12202    11942    11784    11705    11539    11287    11033 
   10779    10547    10412    10411    10507    10656    10816    10898 
   10937    11109    11421    11723    11965    12085    12000    11853 
   11831    11909    12012    12118    12156    12097    12044    12055 
   12019    11865    11668    11485    11326    11252    11294    11326 
   11277    11223    11196    11234    11357    11456    11512    11546 
   11433    11180    10960    10847    10827    10843    10847    10881 
   11005    11269    11664    12005    12140    12154    12167    12232 
   12349    12382    12224    11966    11720    11564    11510    11442 
   11319    11238    11203    11192    11277    11421    11520    11634 
   11743    11732    11642    11589    11595    11599    11499    11242 
   10943    10756    10694    10724    10845    10964    11026    11121 
   11260    11387    11520    11680    11832    11917    11853    11691 
   11623    11678    11750    11870    12032    12081    12012    11989 
   12112    12299    12359    12247    12069    11851    11604    11421 
   11350    11276    11103    10881    10638    10435    10393    10478 
   10613    10798    11002    11195    11410    11628    11801    11885 
   11854    11790    11811    11901    11982    11994    11921    11819 
