Origin Time       2025/03/28 03:50:00
Lat.              35.403
Long.             140.360
Depth. (km)       54
Mag.              4.4
Station Code      KNG001
Station Lat.      35.5291
Station Long.     139.7061
Station Height(m) 2
Record Time       2025/03/28 03:51:01
Sampling Freq(Hz) 100Hz
Duration Time(s)  60
Dir.              N-S
Scale Factor      7845(gal)/8223790
Max. Acc. (gal)   5.215
Last Correction   2025/03/28 03:51:01
Memo.             
[...]
   19398    19340    19319    19365    19407    19388    19338    19337 
   19388    19413    19381    19357    19390    19434    19426    19369 
   19344    19391    19438    19413    19359    19354    19392    19406 
   19373    19344    19364    19418    19423    19364    19345    19404 
   19441    19410    19356    19342    19392    19430    19392    19349 
   19356    19384    19388    19353    19340    19384    19411    19372 
   19334    19367    19421    19418    19379    19363    19386    19404 
   19383    19357    19368    19395    19414    19386    19329    19342 
   19404    19410    19376    19361    19383    19421    19402    19338 
   19342    19407    19429    19383    19338    19365    19414    19402 
   19354    19345    19388    19421    19394    19360    19380    19407 
   19403    19381    19359    19369    19411    19410    19367    19364 
   19404    19411    19369    19338    19353    19390    19408    19387 
   19361    19387    19425    19403    19361    19377    19423    19417 
   19379    19376    19398    19404    19375    19342    19359    19395 
   19394    19363    19354    19375    19396    19391    19372    19365 
   19377    19381    19361    19344    19371    19411    19403    19365 
   19357    19379    19396    19390    19363    19359    19396    19413 
   19380    19367    19384    19386    19376    19373    19375    19390 
   19410    19399    19375    19379    19388    19381    19363    19354 
   19383    19407    19386    19356    19361    19381    19387    19369 
   19363    19388    19403    19384    19364    19368    19387    19398 
   19383    19367    19386    19408    19381    19342    19338    19375 
   19404    19371    19334    19369    19407    19395    19367    19353 
   19381    19414    19404    19391    19402    19417    19415    19376 
   19329    19342    19392    19395    19353    19349    19404    19442 
   19414    19364    19349    19379    19404    19390    19376    19395 
   19411    19396    19368    19371    19400    19408    19380    19338 
   19334    19388    19418    19386    19367    19395    19415    19386 
   19349    19360    19402    19418    19390    19360    19386    19429 
   19408    19356    19349    19383    19400    19379    19341    19341 
   19391    19404    19356    19333    19361    19381    19363    19330 
   19334    19387    19423    19398    19363    19373    19403    19396 
   19363    19364    19413    19438    19388    19337    19354    19398 
   19410    19377    19352    19386    19430    19408    19359    19360 
   19404    19427    19381    19330    19356    19414    19418    19377 
   19346    19360    19402    19406    19364    19356    19395    19413 
   19377    19348    19381    19422    19403    19364    19369    19399 
   19399    19368    19359    19394    19426    19410    19364    19348 
   19380    19410    19400    19369    19361    19395    19413    19376 
   19338    19357    19392    19379    19342    19330    19348    19377 
   19384    19381    19414    19440    19414    19375    19376    19408 
   19413    19390    19373    19371    19396    19403    19364    19357 
   19396    19415    19387    19346    19352    19379    19375    19346 
   19333    19359    19402    19410    19388    19384    19398    19395 
   19368    19348    19367    19417    19431    19383    19346    19377 
   19422    19403    19352    19342    19390    19418    19383    19360 
   19373    19380    19377    19369    19369    19388    19398    19381 
   19364    19375    19404    19414    19379    19345    19372    19425 
   19413    19363    19372    19419    19410    19349    19323    19361 
   19410    19400    19342    19318    19356    19386    19361    19340 
   19365    19408    19417    19372    19341    19384    19422    19365 
   19291    19323    19435    19488    19421    19340    19359    19419 
   19422    19388    19380    19391    19384    19354    19350    19410 
   19487    19481    19372    19280    19314    19404    19427    19381 
   19354    19388    19427    19396    19322    19309    19372    19419 
   19413    19406    19398    19354    19309    19319    19384    19449 
   19468    19431    19376    19359    19384    19387    19352    19337 
   19383    19438    19431    19380    19368    19419    19430    19359 
   19313    19357    19396    19384    19380    19390    19392    19375 
   19345    19348    19392    19413    19371    19318    19319    19371 
   19411    19391    19348    19338    19373    19408    19394    19363 
   19379    19408    19388    19349    19354    19402    19426    19391 
   19352    19359    19394    19408    19386    19348    19348    19390 
   19419    19417    19402    19384    19361    19327    19338    19402 
   19435    19402    19352    19348    19387    19421    19411    19377 
   19368    19375    19353    19332    19369    19430    19431    19386 
   19363    19386    19421    19419    19388    19375    19384    19390 
   19367    19344    19375    19415    19396    19356    19365    19407 
   19407    19327    19248    19306    19438    19471    19433    19427 
   19418    19372    19284    19184    19218    19415    19548    19502 
   19421    19413    19423    19373    19278    19255    19364    19512 
   19526    19365    19275    19427    19565    19429    19217    19202 
   19361    19534    19575    19468    19346    19271    19256    19314 
   19384    19481    19561    19467    19326    19375    19445    19325 
   19198    19271    19445    19539    19485    19371    19311    19302 
   19313    19295    19234    19310    19553    19615    19444    19377 
   19406    19367    19375    19415    19354    19257    19192    19175 
   19329    19599    19642    19406    19217    19256    19454    19606 
   19568    19491    19457    19337    19168    19130    19248    19433 
   19583    19522    19267    19186    19379    19468    19345    19287 
   19373    19435    19371    19257    19259    19396    19542    19568 
   19450    19387    19508    19539    19287    19075    19164    19375 
   19498    19504    19454    19426    19388    19292    19268    19340 
   19333    19286    19360    19448    19413    19456    19661    19722 
   19572    19467    19395    19244    19116    19093    19140    19218 
   19310    19437    19529    19452    19300    19236    19251    19326 
   19402    19372    19334    19408    19523    19588    19602    19603 
   19575    19469    19323    19190    19079    19063    19195    19325 
   19333    19376    19481    19380    19149    19232    19589    19786 
   19778    19731    19615    19458    19354    19238    19165    19257 
   19345    19327    19411    19634    19762    19619    19295    19138 
   19255    19372    19437    19565    19669    19669    19534    19233 
   18991    19045    19291    19499    19481    19188    18871    18786 
   18928    19195    19454    19570    19558    19433    19188    19016 
   19079    19271    19483    19703    19770    19554    19300    19246 
   19226    19118    19107    19334    19711    19993    19989    19791 
   19554    19327    19236    19284    19224    19083    19125    19388 
   19699    19819    19708    19554    19380    19245    19357    19593 
   19607    19400    19229    19192    19246    19350    19437    19415 
   19278    19141    19083    19074    19165    19350    19379    19194 
   19133    19310    19458    19464    19429    19438    19516    19596 
   19562    19421    19357    19471    19585    19549    19429    19300 
   19170    19080    19129    19310    19440    19441    19415    19402 
   19445    19589    19610    19368    19180    19253    19336    19309 
   19348    19550    19762    19749    19527    19363    19396    19530 
   19553    19367    19199    19296    19446    19326    19074    18968 
   19001    19125    19349    19561    19647    19629    19549    19441 
   19423    19508    19527    19527    19676    19799    19666    19375 
   19110    18948    18927    19001    19084    19175    19232    19226 
   19242    19292    19348    19433    19442    19359    19359    19398 
   19391    19554    19832    19858    19616    19399    19342    19375 
   19294    19047    18889    18931    19032    19152    19303    19407 
   19458    19476    19377    19201    19210    19535    20012    20374 
   20391    20044    19638    19415    19300    19192    19067    18929 
   18840    18774    18658    18652    19003    19608    20086    20175 
   19926    19606    19481    19525    19537    19530    19603    19678 
   19627    19367    18991    18783    18809    18918    19075    19241 
   19272    19203    19282    19546    19714    19604    19381    19248 
   19259    19375    19557    19742    19809    19718    19539    19286 
   19021    18998    19237    19368    19245    19155    19260    19360 
   19346    19360    19445    19526    19562    19496    19377    19437 
   19676    19842    19900    19936    19828    19538    19315    19221 
   19068    18898    18931    19206    19514    19589    19454    19306 
   19097    18806    18738    18939    19130    19296    19580    19808 
   19743    19460    19180    19059    19126    19282    19445    19607 
   19677    19600    19545    19577    19530    19376    19246    19153 
   19094    19109    19209    19386    19545    19592    19639    19739 
   19741    19615    19426    19157    18877    18785    19005    19458 
   19840    19882    19720    19591    19435    19251    19213    19345 
   19539    19643    19462    19129    19010    19120    19203    19232 
   19298    19406    19485    19453    19392    19423    19477    19539 
   19654    19687    19495    19225    19130    19232    19368    19414 
   19336    19213    19194    19245    19211    19132    19113    19194 
   19475    19880    20069    19993    19867    19645    19199    18721 
   18530    18701    19066    19433    19684    19755    19645    19395 
   19147    19094    19252    19446    19579    19657    19701    19770 
   19838    19792    19604    19302    18962    18755    18800    19097 
   19554    19916    19969    19805    19579    19319    19138    19109 
   19145    19238    19356    19391    19442    19581    19669    19669 
   19606    19423    19174    18994    18893    18848    18877    18924 
   18964    19089    19296    19452    19495    19503    19561    19627 
   19635    19629    19647    19658    19616    19498    19332    19211 
   19180    19186    19236    19360    19483    19530    19499    19438 
   19395    19367    19315    19252    19192    19141    19184    19340 
   19437    19479    19608    19711    19619    19464    19422    19479 
   19611    19807    19919    19812    19504    19095    18777    18777 
   19010    19124    19118    19317    19676    19882    19939    19975 
   19857    19514    19170    19006    19016    19125    19253    19346 
   19363    19280    19103    18852    18675    18746    18951    19147 
   19410    19681    19759    19665    19508    19341    19264    19309 
   19371    19438    19581    19716    19723    19630    19577    19604 
   19500    19136    18787    18750    19001    19357    19593    19697 
   19859    20047    20044    19842    19568    19300    19053    18890 
   18966    19267    19556    19676    19708    19765    19785    19593 
   19155    18786    18851    19278    19672    19795    19762    19758 
   19714    19492    19125    18770    18553    18489    18627    19063 
   19681    20098    20094    19804    19481    19256    19040    18812 
   18785    19003    19267    19418    19469    19577    19728    19673 
   19441    19273    19174    19125    19229    19445    19620    19688 
   19642    19514    19367    19298    19333    19368    19398    19542 
   19726    19765    19599    19261    18990    19018    19176    19234 
   19241    19269    19306    19368    19457    19516    19535    19525 
   19472    19426    19445    19504    19556    19568    19519    19488 
   19523    19429    19117    18850    18782    18829    19021    19371 
   19743    20067    20220    20065    19808    19600    19299    19020 
   18921    18863    18902    19122    19241    19172    19155    19183 
   19151    19138    19209    19357    19527    19527    19345    19309 
   19522    19696    19677    19597    19599    19707    19792    19701 
   19485    19264    19047    18882    18910    19132    19336    19338 
   19252    19413    19853    20178    20185    20031    19820    19538 
   19219    19022    19099    19298    19330    19182    19016    19006 
   19192    19319    19194    19003    18993    19161    19383    19553 
   19688    19824    19873    19828    19819    19776    19531    19143 
   18819    18742    18900    19076    19165    19283    19479    19661 
   19776    19774    19603    19310    19018    18783    18659    18775 
   19118    19484    19755    19917    19978    19977    19827    19454 
   19095    19017    19165    19350    19492    19579    19626    19611 
   19500    19345    19205    19091    19017    19022    19143    19319 
   19441    19484    19543    19664    19723    19549    19209    19021 
   19083    19170    19161    19098    19072    19180    19326    19317 
   19236    19321    19597    19909    20123    20229    20374    20578 
   20694    20710    20710    20691    20607    20403    20083    19712 
   19264    18634    17898    17301    17022    17118    17516    18092 
   18751    19296    19599    19757    19835    19884    20019    20201 
   20337    20495    20644    20574    20194    19565    18698    17568 
   16178    14794    13950    13914    14569    15796    17451    19207 
   20749    21956    22785    23152    23122    22914    22574    22033 
   21429    20981    20758    20656    20349    19576    18509    17486 
   16642    16185    16297    16819    17587    18531    19467    20298 
   20966    21327    21425    21498    21625    21644    21433    21216 
   21315    21540    21393    20698    19731    18868    18183    17562 
   17084    16942    17101    17344    17672    18292    19182    20110 
   21008    21811    22198    21879    20915    19764    18846    18048 
   17230    16686    16568    16788    17293    17832    18110    18185 
   18176    17979    17686    17733    18382    19408    20309    20819 
   21081    21228    21273    21371    21670    22011    22173    22003 
   21354    20318    19156    18021    17211    17095    17535    18042 
   18490    19062    19718    20146    20097    19722    19452    19592 
   20089    20592    20703    20359    19912    19562    19086    18374 
   17748    17493    17524    17697    17946    18214    18531    18952 
   19415    19867    20270    20517    20525    20290    19892    19546 
   19445    19568    19758    19867    19839    19677    19415    19070 
   18604    18056    17672    17757    18324    19035    19673    20332 
   21001    21535    21863    21914    21686    21363    21091    20790 
   20314    19727    19330    19272    19263    19010    18603    18187 
   17721    17135    16497    16109    16281    16933    17745    18562 
   19340    19923    20043    19645    19057    18690    18688    19013 
   19646    20434    20981    20991    20511    19835    19245    18785 
   18418    18270    18418    18763    19290    20016    20772    21278 
   21378    21097    20590    20171    20093    20216    20286    20301 
   20331    20302    20150    19908    19641    19396    19113    18658 
   18125    17793    17675    17560    17517    17857    18698    19839 
   20829    21317    21389    21289    21065    20641    20090    19661 
   19441    19260    19006    18750    18411    17766    16943    16397 
   16393    16829    17451    18148    18939    19670    20042    19988 
   19704    19336    18873    18407    18246    18678    19705    20935 
   21803    22040    21794    21236    20348    19178    18013    17234 
   17028    17274    17811    18611    19535    20287    20719    20937 
   21111    21266    21284    21087    20771    20528    20389    20185 
   19869    19580    19383    19219    18975    18620    18324    18310 
   18661    19305    20016    20560    20860    20914    20580    19695 
   18490    17493    16933    16738    16887    17315    17848    18436 
   19049    19462    19620    19707    19738    19697    19723    19884 
   20117    20322    20405    20332    20086    19755    19543    19403 
   19084    18643    18384    18431    18684    18990    19234    19406 
   19558    19728    19880    19957    20000    20017    19900    19641 
   19448    19456    19507    19471    19441    19484    19576    19724 
   19843    19766    19507    19147    18713    18416    18488    18863 
   19407    20054    20613    20865    20742    20322    19772    19248 
   18802    18358    17826    17344    17204    17410    17705    18004 
   18416    18963    19529    19970    20297    20584    20726    20609 
   20308    19978    19823    19958    20198    20277    20142    19951 
   19842    19710    19429    19109    18871    18713    18593    18463 
   18382    18486    18736    18998    19273    19569    19861    20183 
   20525    20787    20862    20664    20231    19747    19349    19028 
   18801    18719    18704    18636    18468    18219    18003    17950 
   18108    18486    19033    19584    20027    20412    20773    21034 
   21158    21192    21128    20871    20416    19894    19342    18661 
   17888    17257    16912    16834    16930    17135    17518    18134 
   18812    19375    19874    20418    20947    21296    21382    21227 
   20861    20376    19913    19479    19006    18549    18254    18196 
   18301    18478    18769    19201    19602    19801    19876    19996 
   20198    20453    20745    20972    21012    20869    20615    20239 
   19656    18893    18198    17838    17882    18208    18620    19001 
   19357    19650    19822    19869    19696    19232    18665    18208 
   17914    17888    18246    18914    19781    20584    20898    20603 
   19948    19134    18314    17676    17373    17537    18185    19064 
   19884    20528    20893    20846    20393    19653    18851    18358 
   18416    18904    19568    20317    21092    21610    21608    21159 
   20541    19932    19373    18867    18496    18407    18566    18717 
   18698    18617    18659    18877    19151    19380    19629    20002 
   20449    20785    20888    20763    20497    20119    19620    19125 
   18755    18485    18280    18160    18193    18389    18585    18678 
   18728    18723    18597    18445    18409    18540    18833    19211 
   19541    19792    19985    20011    19722    19224    18843    18759 
   18808    18754    18673    18832    19275    19776    20058    20065 
   20077    20329    20746    21143    21400    21552    21629    21444 
   20833    19948    19121    18573    18337    18319    18432    18652 
   18868    18904    18778    18616    18382    18102    18076    18470 
   19057    19591    20027    20353    20428    20101    19454    18787 
   18345    18172    18169    18258    18484    18913    19461    19919 
   20173    20277    20355    20472    20553    20509    20353    20133 
   19889    19641    19364    19063    18793    18534    18268    18077 
   17972    17941    18050    18337    18767    19291    19788    20137 
   20362    20495    20471    20335    20310    20459    20563    20475 
   20314    20194    19996    19538    18837    18122    17662    17591 
