Origin Time       2025/03/28 03:50:00
Lat.              35.403
Long.             140.360
Depth. (km)       54
Mag.              4.4
Station Code      KNG004
Station Lat.      35.1442
Station Long.     139.6223
Station Height(m) 31
Record Time       2025/03/28 03:50:58
Sampling Freq(Hz) 100Hz
Duration Time(s)  65
Dir.              U-D
Scale Factor      7845(gal)/8223790
Max. Acc. (gal)   1.486
Last Correction   2025/03/28 03:50:58
Memo.             
[...]
    7565     7565     7569     7569     7568     7569     7569     7562 
    7561     7576     7580     7568     7565     7564     7555     7562 
    7572     7570     7572     7572     7565     7564     7564     7568 
    7569     7560     7554     7562     7568     7570     7576     7578 
    7573     7558     7551     7561     7568     7568     7566     7570 
    7576     7566     7562     7572     7568     7558     7562     7568 
    7570     7572     7572     7574     7576     7570     7558     7547 
    7560     7574     7570     7570     7578     7572     7564     7566 
    7568     7562     7564     7570     7570     7576     7581     7577 
    7574     7564     7554     7561     7566     7565     7573     7581 
    7576     7573     7577     7570     7557     7562     7574     7572 
    7562     7565     7573     7573     7568     7565     7561     7558 
    7568     7578     7580     7577     7570     7562     7558     7558 
    7565     7576     7580     7569     7564     7573     7569     7558 
    7565     7570     7566     7564     7558     7566     7581     7573 
    7562     7573     7572     7560     7558     7560     7562     7564 
    7562     7573     7581     7573     7568     7572     7566     7558 
    7562     7562     7561     7566     7566     7565     7570     7578 
    7577     7566     7561     7566     7569     7569     7568     7566 
    7569     7568     7564     7565     7562     7562     7572     7580 
    7578     7568     7560     7568     7570     7564     7564     7568 
    7573     7574     7572     7568     7562     7565     7569     7565 
    7557     7562     7572     7572     7570     7576     7564     7551 
    7562     7569     7564     7569     7574     7572     7566     7568 
    7564     7551     7550     7564     7578     7580     7574     7568 
    7564     7565     7570     7573     7566     7553     7553     7565 
    7573     7570     7562     7562     7574     7574     7568     7566 
    7561     7555     7562     7569     7570     7572     7569     7564 
    7562     7564     7568     7574     7574     7565     7565     7569 
    7566     7562     7561     7568     7569     7568     7570     7574 
    7577     7573     7568     7566     7560     7553     7554     7562 
    7576     7580     7573     7570     7572     7572     7572     7566 
    7562     7557     7557     7568     7569     7562     7566     7570 
    7568     7572     7574     7570     7572     7570     7562     7555 
    7553     7561     7574     7581     7581     7574     7568     7568 
    7569     7565     7561     7564     7568     7562     7554     7562 
    7574     7576     7574     7572     7568     7562     7562     7569 
    7569     7568     7570     7572     7568     7565     7565     7564 
    7560     7566     7576     7570     7566     7570     7572     7576 
    7577     7569     7562     7569     7578     7574     7554     7543 
    7560     7577     7574     7572     7578     7573     7570     7574 
    7568     7557     7555     7565     7573     7573     7573     7573 
    7568     7566     7570     7572     7568     7566     7565     7564 
    7564     7565     7568     7568     7562     7558     7553     7534 
    7512     7497     7484     7480     7484     7484     7495     7515 
    7530     7543     7555     7551     7551     7560     7551     7542 
    7562     7596     7638     7692     7754     7815     7862     7878 
    7865     7842     7820     7793     7744     7689     7666     7681 
    7713     7734     7720     7653     7533     7383     7240     7115 
    6995     6901     6895     6995     7171     7395     7603     7713 
    7747     7782     7788     7726     7659     7634     7589     7480 
    7353     7292     7304     7365     7531     7793     7971     7978 
    7943     7932     7863     7695     7503     7379     7314     7257 
    7214     7210     7257     7384     7582     7742     7816     7911 
    8033     8037     7885     7717     7600     7433     7233     7186 
    7338     7550     7639     7528     7457     7635     7867     7947 
    7875     7681     7430     7272     7334     7582     7730     7539 
    7190     7063     7229     7425     7492     7526     7677     7846 
    7788     7635     7700     7796     7577     7237     7253     7635 
    7901     7812     7657     7743     7994     8118     7997     7746 
    7462     7214     7164     7352     7570     7584     7342     7076 
    7105     7484     7900     7979     7726     7442     7271     7245 
    7410     7581     7454     7074     6899     7183     7712     8193 
    8345     8122     7861     7777     7842     7962     7967     7798 
    7503     7145     6917     6893     6956     7009     7034     7227 
    7792     8482     8783     8519     8035     7750     7622     7333 
    6926     6674     6534     6501     6898     7712     8332     8283 
    7927     7973     8332     8343     7947     7549     7292     7153 
    7083     7026     7042     7090     7065     7153     7520     8047 
    8569     8856     8634     7983     7238     6735     6704     6975 
    7238     7487     7697     7825     8054     8289     8179     7695 
    7144     6941     7187     7412     7306     7177     7304     7469 
    7437     7358     7507     7879     8194     8299     8341     8333 
    8116     7744     7441     7265     7099     6798     6446     6342 
    6600     7041     7538     8047     8432     8540     8376     8181 
    8158     8154     7923     7514     7113     6794     6538     6469 
    6806     7369     7705     7767     7894     8182     8367     8309 
    8131     7981     7944     7908     7641     7134     6588     6276 
    6343     6631     7052     7650     8253     8631     8714     8554 
    8263     7844     7373     7148     7217     7269     7202     7167 
    7171     7136     7173     7431     7781     7954     7906     7861 
    7982     8158     8190     8032     7703     7245     6837     6675 
    6794     7107     7465     7734     7919     8036     7971     7695 
    7410     7341     7477     7581     7507     7419     7519     7692 
    7678     7484     7356     7469     7758     8010     8056     7847 
    7470     7190     7211     7377     7399     7356     7512     7797 
    7886     7676     7416     7323     7349     7439     7603     7800 
    7969     8021     7901     7642     7323     7061     6949     6994 
    7145     7437     7916     8413     8613     8410     7982     7530 
    7183     7065     7180     7368     7501     7520     7387     7137 
    6928     6967     7345     7909     8398     8629     8537     8193 
    7774     7415     7140     6975     6972     7099     7288     7461 
    7528     7543     7646     7838     7975     7942     7774     7608 
    7522     7500     7491     7442     7334     7245     7269     7341 
    7335     7334     7487     7751     8027     8282     8413     8259 
    7816     7302     7011     6997     7053     7032     6984     7053 
    7310     7678     7963     8062     8101     8120     7987     7738 
    7531     7414     7353     7292     7233     7240     7337     7473 
    7577     7653     7757     7896     8070     8203     8144     7844 
    7419     7063     6926     6939     6975     7060     7246     7539 
    7854     7979     7886     7836     7950     8014     7852     7560 
    7349     7315     7339     7275     7196     7252     7439     7636 
    7782     7947     8131     8186     8055     7808     7495     7227 
    7138     7191     7276     7302     7223     7159     7276     7560 
    7871     8101     8181     8105     7902     7639     7423     7292 
    7203     7133     7095     7142     7314     7507     7599     7676 
    7917     8237     8391     8290     7975     7510     7030     6725 
    6725     6984     7275     7468     7646     7831     7917     7912 
    7947     8063     8114     7950     7618     7271     7018     6864 
    6791     6910     7258     7603     7790     7938     8129     8262 
    8222     8063     7896     7723     7501     7254     7057     6984 
    7038     7191     7418     7681     7939     8094     8051     7900 
    7815     7803     7711     7400     6998     6808     6860     6957 
    7107     7434     7888     8218     8209     8024     7966     7979 
    7855     7650     7520     7425     7238     6926     6640     6610 
    6858     7249     7720     8174     8492     8611     8426     7965 
    7512     7258     7096     6930     6907     7134     7380     7391 
    7337     7534     7933     8243     8337     8314     8228     7996 
    7651     7403     7303     7225     7118     7056     7140     7365 
    7597     7750     7871     7994     8067     8031     7873     7614 
    7344     7180     7114     7064     7065     7171     7342     7539 
    7769     8008     8113     8023     7923     7898     7780     7511 
    7248     7123     7113     7099     7076     7167     7358     7518 
    7614     7669     7723     7870     8054     8101     8009     7851 
    7611     7304     7060     7011     7129     7254     7377     7587 
    7825     7985     8066     8101     8051     7938     7839     7689 
    7376     6995     6802     6937     7225     7411     7527     7704 
    7897     7994     7970     7846     7646     7422     7264     7210 
    7211     7229     7308     7491     7682     7753     7726     7707 
    7707     7684     7632     7549     7426     7327     7334     7392 
    7398     7349     7381     7638     7979     8125     8068     7942 
    7774     7587     7425     7383     7527     7690     7703     7654 
    7634     7614     7581     7560     7584     7645     7661     7592 
    7473     7385     7361     7360     7350     7387     7506     7643 
    7728     7761     7755     7731     7699     7641     7589     7557 
    7474     7358     7308     7344     7414     7504     7645     7792 
    7858     7803     7658     7516     7469     7518     7580     7562 
    7450     7307     7229     7281     7435     7630     7781     7794 
    7689     7596     7574     7569     7546     7539     7550     7551 
    7578     7615     7587     7497     7396     7334     7360     7473 
    7618     7716     7743     7740     7726     7663     7535     7422 
    7445     7607     7792     7882     7828     7704     7569     7418 
    7303     7256     7264     7350     7533     7782     7986     8009 
    7855     7638     7470     7419     7487     7651     7819     7844 
    7705     7493     7298     7217     7304     7469     7584     7661 
    7763     7840     7800     7626     7387     7214     7172     7213 
    7296     7426     7600     7780     7874     7851     7776     7685 
    7584     7472     7339     7217     7153     7184     7307     7431 
    7504     7564     7658     7773     7881     8005     8105     8044 
    7801     7514     7298     7163     7121     7260     7539     7758 
    7851     7866     7774     7593     7457     7418     7419     7437 
    7510     7668     7830     7863     7777     7632     7466     7381 
    7404     7414     7376     7396     7518     7673     7781     7825 
    7808     7695     7539     7493     7589     7711     7765     7732 
    7642     7519     7345     7129     7002     7098     7358     7596 
    7739     7878     8047     8129     8005     7739     7487     7314 
    7203     7134     7107     7171     7321     7453     7492     7469 
    7510     7659     7823     7950     8043     8032     7879     7638 
    7392     7225     7191     7312     7543     7790     7981     8063 
    8010     7839     7597     7371     7203     7129     7171     7271 
    7360     7469     7658     7862     7942     7878     7771     7692 
    7635     7560     7508     7569     7638     7531     7314     7186 
    7192     7249     7295     7387     7584     7785     7847     7765 
    7609     7489     7476     7543     7686     7873     7947     7865 
    7732     7612     7528     7496     7474     7461     7484     7496 
    7474     7491     7589     7700     7722     7627     7485     7344 
    7222     7155     7160     7227     7338     7493     7670     7803 
    7865     7943     8090     8191     8093     7804     7472     7227 
    7092     7013     7005     7129     7372     7672     7956     8118 
    8087     7912     7723     7592     7453     7242     7056     7038 
    7176     7358     7543     7743     7917     7966     7834     7595 
    7418     7443     7641     7821     7884     7859     7780     7669 
    7593     7596     7651     7708     7747     7735     7587     7321 
    7140     7195     7408     7592     7641     7599     7523     7377 
    7183     7067     7115     7306     7561     7825     8036     8090 
    7960     7709     7400     7146     7045     7119     7323     7533 
    7657     7749     7892     8070     8189     8172     8043     7852 
    7611     7337     7111     7010     7074     7307     7632     7983 
    8352     8634     8671     8409     7943     7460     7069     6745 
    6471     6282     6193     6219     6380     6697     7182     7742 
    8214     8544     8757     8791     8544     8071     7592     7284 
    7136     7049     7030     7113     7215     7236     7221     7341 
    7681     8116     8486     8739     8820     8631     8155     7514 
    6979     6764     6809     6937     7030     7065     7142     7372 
    7727     8086     8316     8317     8071     7622     7091     6675 
    6512     6620     6932     7369     7888     8401     8765     8931 
    8966     8851     8453     7739     6897     6243     6010     6196 
    6655     7177     7535     7634     7572     7547     7678     7904 
    8070     8047     7808     7392     6859     6408     6268     6507 
    7082     7828     8473     8796     8754     8518     8297     8167 
    8108     8059     7978     7815     7531     7191     6899     6739 
    6774     6987     7209     7245     7183     7323     7765     8341 
    8777     8838     8500     7920     7311     6863     6624     6588 
    6797     7248     7835     8348     8478     8083     7427     6902 
    6694     6806     7149     7516     7722     7742     7672     7684 
    7893     8222     8525     8623     8365     7804     7134     6593 
    6420     6681     7195     7642     7774     7620     7353     7102 
    7013     7176     7466     7720     7905     8001     7973     7885 
    7789     7641     7449     7283     7215     7264     7412     7657 
    7952     8166     8179     8028     7866     7796     7797     7735 
    7512     7236     7034     6889     6772     6731     6853     7203 
    7709     8199     8518     8587     8419     8131     7870     7659 
    7404     7061     6696     6485     6605     7069     7724     8307 
    8602     8577     8309     7938     7666     7557     7503     7418 
    7322     7283     7268     7242     7281     7400     7527     7624 
    7696     7751     7773     7788     7851     7847     7607     7194 
    6789     6528     6507     6794     7376     8058     8544     8644 
    8338     7770     7179     6793     6735     7022     7524     8012 
    8355     8503     8376     7994     7542     7191     7003     6980 
    7134     7500     7985     8349     8424     8206     7750     7144 
    6554     6211     6300     6729     7210     7585     7854     8046 
    8247     8448     8503     8344     8066     7789     7511     7191 
    6929     6835     6868     6966     7144     7389     7578     7614 
    7543     7450     7373     7380     7523     7731     7898     8028 
    8128     8132     8029     7919     7870     7847     7757     7620 
    7569     7622     7734     7879     7983     7938     7717     7391 
    7049     6816     6835     7103     7391     7431     7182     6843 
    6659     6758     7136     7670     8167     8405     8226     7747 
    7335     7219     7341     7612     7998     8368     8492     8278 
    7881     7514     7273     7164     7195     7350     7518     7600 
    7619     7639     7705     7796     7798     7659     7464     7319 
    7275     7296     7330     7373     7416     7376     7245     7157 
    7245     7519     7905     8284     8502     8434     8114     7739 
    7464     7267     7088     6976     6967     6983     6966     6967 
    7111     7468     7906     8229     8391     8422     8324     8110 
    7801     7466     7207     7057     7030     7157     7403     7657 
    7842     8004     8191     8298     8189     7874     7476     7137 
    6909     6793     6802     6901     7006     7098     7221     7411 
    7657     7931     8199     8391     8432     8291     8002     7632 
    7273     7041     6999     7138     7396     7614     7677     7607 
    7476     7395     7441     7628     7942     8247     8293     7967 
    7391     6790     6392     6358     6727     7349     7944     8302 
    8397     8291     8077     7843     7668     7595     7561     7461 
    7280     7107     7036     7133     7406     7766     8073     8228 
    8167     7901     7555     7254     7064     7024     7113     7254 
    7415     7611     7850     8082     8199     8156     8016     7824 
    7622     7465     7364     7296     7254     7219     7176     7129 
    7076     7029     7047     7204     7492     7808     8079     8264 
    8294     8140     7875     7605     7393     7257     7204     7233 
    7310     7391     7470     7582     7738     7906     8062     8189 
    8247     8206     8040     7726     7350     7067     6966     7048 
    7236     7433     7570     7591     7550     7562     7622     7646 
    7604     7495     7325     7119     6961     6953     7113     7368 
    7622     7820     7936     7939     7854     7735     7634     7623 
    7709     7808     7852     7812     7717     7632     7569     7533 
    7565     7650     7723     7747     7708     7596     7431     7254 
    7101     7003     7011     7141     7330     7554     7809     8031 
    8167     8205     8098     7827     7472     7219     7186     7306 
    7495     7708     7854     7839     7677     7514     7460     7454 
    7426     7457     7623     7828     7927     7851     7616     7323 
    7128     7103     7210     7352     7476     7572     7618     7591 
    7539     7530     7543     7526     7462     7392     7385     7470 
    7607     7727     7746     7632     7484     7379     7287     7236 
    7322     7553     7861     8133     8252     8206     8068     7911 
    7811     7804     7855     7886     7819     7605     7303     7047 
    6907     6917     7086     7317     7491     7585     7622     7604 
    7538     7473     7423     7352     7292     7315     7426     7607 
    7808     7955     8004     7897     7592     7196     6913     6872 
    7088     7431     7753     8002     8154     8182     8110     7987 
    7874     7830     7839     7805     7684     7530     7388     7275 
    7227     7254     7335     7430     7468     7443     7412     7383 
    7357     7376     7450     7528     7535     7483     7462     7511 
    7638     7804     7906     7919     7862     7727     7533     7353 
    7252     7258     7380     7557     7654     7661     7670     7682 
    7646     7574     7520     7526     7569     7604     7643     7705 
    7742     7695     7596     7500     7426     7381     7375     7410 
    7465     7515     7576     7654     7673     7616     7578     7615 
