Origin Time       2025/03/28 03:50:00
Lat.              35.403
Long.             140.360
Depth. (km)       54
Mag.              4.4
Station Code      KNG007
Station Lat.      35.3382
Station Long.     139.4926
Station Height(m) 10
Record Time       2025/03/28 03:51:05
Sampling Freq(Hz) 100Hz
Duration Time(s)  60
Dir.              E-W
Scale Factor      7845(gal)/8223790
Max. Acc. (gal)   2.263
Last Correction   2025/03/28 03:51:05
Memo.             
[...]
   -1161    -1117    -1058    -1075    -1127    -1127    -1088    -1085 
   -1108    -1097    -1082    -1113    -1134    -1097    -1069    -1108 
   -1150    -1115    -1062    -1084    -1139    -1135    -1082    -1067 
   -1117    -1146    -1104    -1067    -1089    -1116    -1108    -1097 
   -1097    -1092    -1092    -1112    -1123    -1096    -1065    -1090 
   -1138    -1117    -1054    -1066    -1144    -1156    -1085    -1048 
   -1104    -1151    -1107    -1054    -1080    -1131    -1125    -1086 
   -1081    -1105    -1111    -1093    -1100    -1119    -1100    -1071 
   -1094    -1134    -1109    -1059    -1080    -1138    -1131    -1066 
   -1059    -1129    -1161    -1102    -1053    -1081    -1128    -1123 
   -1096    -1093    -1111    -1113    -1104    -1101    -1094    -1086 
   -1105    -1131    -1111    -1069    -1081    -1127    -1127    -1075 
   -1059    -1117    -1161    -1113    -1048    -1065    -1129    -1134 
   -1088    -1078    -1111    -1128    -1105    -1092    -1105    -1102 
   -1090    -1107    -1128    -1105    -1070    -1096    -1146    -1124 
   -1055    -1057    -1131    -1156    -1096    -1050    -1093    -1144 
   -1113    -1059    -1077    -1142    -1147    -1093    -1069    -1088 
   -1104    -1104    -1109    -1104    -1082    -1088    -1129    -1138 
   -1085    -1051    -1097    -1146    -1116    -1058    -1077    -1143 
   -1138    -1073    -1061    -1112    -1134    -1097    -1078    -1101 
   -1113    -1100    -1094    -1101    -1093    -1075    -1093    -1135 
   -1127    -1069    -1066    -1131    -1142    -1066    -1028    -1094 
   -1158    -1117    -1047    -1069    -1146    -1146    -1078    -1055 
   -1096    -1119    -1094    -1084    -1101    -1107    -1097    -1104 
   -1113    -1089    -1070    -1104    -1142    -1113    -1055    -1069 
   -1131    -1135    -1075    -1063    -1119    -1140    -1092    -1059 
   -1085    -1115    -1115    -1108    -1101    -1090    -1086    -1104 
   -1125    -1111    -1070    -1075    -1131    -1140    -1080    -1053 
   -1117    -1171    -1120    -1050    -1074    -1139    -1129    -1070 
   -1069    -1125    -1140    -1097    -1078    -1111    -1134    -1107 
   -1082    -1098    -1108    -1090    -1092    -1119    -1115    -1084 
   -1085    -1124    -1135    -1094    -1075    -1119    -1144    -1101 
   -1062    -1093    -1129    -1109    -1080    -1093    -1117    -1115 
   -1104    -1105    -1107    -1101    -1096    -1104    -1108    -1088 
   -1085    -1128    -1147    -1094    -1054    -1096    -1148    -1123 
   -1059    -1066    -1131    -1148    -1096    -1067    -1112    -1140 
   -1100    -1073    -1104    -1128    -1102    -1077    -1096    -1117 
   -1107    -1092    -1111    -1121    -1089    -1073    -1105    -1128 
   -1098    -1071    -1111    -1150    -1116    -1063    -1080    -1128 
   -1125    -1089    -1088    -1117    -1123    -1102    -1097    -1107 
   -1107    -1101    -1112    -1120    -1089    -1062    -1096    -1136 
   -1105    -1051    -1080    -1146    -1132    -1058    -1047    -1123 
   -1159    -1107    -1065    -1097    -1136    -1108    -1070    -1092 
   -1123    -1108    -1086    -1111    -1134    -1104    -1071    -1089 
   -1113    -1092    -1067    -1096    -1129    -1102    -1055    -1081 
   -1146    -1135    -1069    -1059    -1112    -1136    -1108    -1088 
   -1102    -1113    -1096    -1089    -1108    -1109    -1090    -1097 
   -1125    -1115    -1086    -1109    -1152    -1129    -1069    -1067 
   -1124    -1129    -1059    -1020    -1078    -1132    -1096    -1051 
   -1089    -1159    -1165    -1124    -1124    -1138    -1100    -1044 
   -1043    -1078    -1098    -1107    -1135    -1171    -1169    -1138 
   -1144    -1165    -1128    -1055    -1026    -1058    -1080    -1036 
   -1003    -1070    -1140    -1102    -1048    -1084    -1155    -1161 
   -1124    -1105    -1075    -1039    -1054    -1081    -1055    -1027 
   -1062    -1132    -1165    -1139    -1154    -1267    -1310    -1154 
    -969     -999    -1163    -1190    -1071    -1042    -1162    -1240 
   -1181    -1048     -939     -961    -1108    -1219    -1194    -1093 
   -1008     -992    -1016     -967     -872     -945    -1170    -1279 
   -1215    -1132    -1119    -1147    -1129    -1038     -978    -1005 
   -1046    -1102    -1208    -1251    -1161    -1107    -1198    -1237 
   -1125     -993     -939    -1000    -1107    -1154    -1186    -1240 
   -1209    -1105    -1062    -1081    -1094    -1120    -1175    -1177 
   -1062     -932     -888     -901     -963    -1054    -1119    -1163 
   -1215    -1269    -1318    -1271    -1048     -847     -878    -1016 
   -1048     -959     -907    -1003    -1124    -1158    -1239    -1435 
   -1526    -1345    -1008     -777     -777     -870     -895     -884 
    -958    -1075    -1111    -1132    -1227    -1279    -1256    -1291 
   -1377    -1354    -1227    -1128    -1088    -1021     -918     -928 
   -1101    -1247    -1262    -1194    -1113    -1080    -1077    -1105 
   -1213    -1309    -1255    -1089     -949     -891     -865     -851 
    -940    -1136    -1317    -1421    -1379    -1155     -934     -907 
   -1012    -1036     -911     -845    -1028    -1310    -1428    -1374 
   -1316    -1271    -1113     -862     -700     -723     -924    -1229 
   -1441    -1416    -1229    -1058     -999    -1021    -1008     -920 
    -916    -1101    -1273    -1240    -1116    -1031     -942     -899 
   -1023    -1266    -1453    -1472    -1352    -1175    -1019     -978 
   -1040    -1075    -1047     -976     -862     -842    -1011    -1190 
   -1269    -1332    -1306    -1085     -885     -935    -1084    -1097 
    -988     -886     -907    -1058    -1186    -1244    -1337    -1355 
   -1139     -950    -1069    -1289    -1310    -1147     -955     -847 
    -905    -1086    -1209    -1196    -1134    -1115    -1102    -1036 
    -980    -1044    -1185    -1248    -1178    -1054    -1005    -1048 
   -1047    -1005    -1116    -1372    -1543    -1525    -1391    -1183 
    -950     -816     -851     -953     -977     -931     -936    -1058 
   -1215    -1279    -1273    -1256    -1148     -940     -859    -1019 
   -1170    -1115     -976     -907     -909     -963    -1074    -1216 
   -1293    -1254    -1181    -1166    -1167    -1124    -1085    -1098 
   -1116    -1073    -1013    -1053    -1165    -1185    -1082    -1013 
   -1042    -1070    -1082    -1154    -1224    -1144     -988     -942 
   -1016    -1128    -1217    -1221    -1154    -1065    -1000     -999 
   -1012     -955     -913    -1009    -1165    -1254    -1263    -1236 
   -1205    -1165    -1131    -1174    -1291    -1339    -1200     -988 
    -878     -868     -864     -877     -954    -1047    -1089    -1101 
   -1146    -1210    -1235    -1247    -1279    -1204     -978     -830 
    -909    -1077    -1165    -1155    -1139    -1193    -1235    -1198 
   -1188    -1252    -1294    -1255    -1206    -1209    -1185    -1067 
    -955     -926     -932     -985    -1112    -1239    -1271    -1182 
   -1063    -1011     -980     -954    -1023    -1173    -1258    -1175 
   -1013     -936     -957     -984    -1034    -1154    -1273    -1273 
   -1150    -1051    -1058    -1050     -954     -882     -942    -1069 
   -1161    -1216    -1259    -1248    -1161    -1073    -1050    -1030 
    -967     -934    -1007    -1131    -1204    -1231    -1232    -1177 
   -1067     -996    -1078    -1278    -1393    -1323    -1177    -1054 
    -967     -970    -1062    -1125    -1100    -1062    -1063    -1051 
   -1012    -1009    -1070    -1135    -1125    -1059    -1080    -1210 
   -1279    -1221    -1166    -1135    -1077    -1038    -1063    -1097 
   -1070    -1017    -1016    -1075    -1127    -1112    -1061    -1042 
   -1044    -1020    -1007    -1081    -1152    -1084     -974    -1020 
   -1182    -1232    -1104     -953     -901     -926     -993    -1120 
   -1255    -1327    -1339    -1313    -1242    -1128    -1021     -966 
    -978    -1017    -1047    -1089    -1134    -1129    -1070    -1003 
    -972     -978    -1031    -1156    -1316    -1378    -1293    -1163 
   -1081    -1057    -1074    -1105    -1093    -1030     -994    -1054 
   -1144    -1152    -1066    -1009    -1084    -1205    -1229    -1175 
   -1177    -1243    -1270    -1215    -1132    -1098    -1096    -1081 
   -1065    -1086    -1128    -1125    -1080    -1040     -984     -912 
    -920    -1034    -1124    -1147    -1171    -1163    -1031     -869 
    -855     -985    -1131    -1247    -1314    -1300    -1204    -1074 
   -1015    -1071    -1119    -1075    -1088    -1225    -1310    -1233 
   -1105    -1017     -972     -961    -1000    -1104    -1229    -1277 
   -1235    -1181    -1115     -994     -885     -897    -1009    -1108 
   -1150    -1142    -1113    -1111    -1102    -1085    -1119    -1181 
   -1198    -1182    -1138    -1051     -976     -967    -1003    -1039 
   -1096    -1202    -1283    -1254    -1143    -1026     -966     -978 
   -1034    -1135    -1289    -1394    -1331    -1148     -966     -835 
    -789     -857    -1004    -1131    -1177    -1190    -1196    -1124 
    -966     -837     -881    -1085    -1231    -1193    -1119    -1125 
   -1148    -1138    -1109    -1077    -1039    -1036    -1162    -1397 
   -1528    -1412    -1152     -930     -868     -986    -1148    -1247 
   -1296    -1270    -1162    -1063     -988     -913     -935    -1069 
   -1144    -1102    -1102    -1223    -1282    -1131     -876     -724 
    -778     -963    -1143    -1283    -1355    -1258    -1008     -800 
    -774     -900    -1071    -1237    -1378    -1425    -1391    -1383 
   -1368    -1181     -862     -688     -777     -954    -1039    -1016 
    -962     -931     -951    -1071    -1239    -1318    -1302    -1308 
   -1337    -1290    -1138     -984     -958    -1038    -1098    -1128 
   -1178    -1196    -1115    -1030    -1050    -1101    -1109    -1125 
   -1212    -1323    -1317    -1158    -1017    -1023    -1080    -1067 
   -1031    -1081    -1185    -1198    -1134    -1100    -1093    -1090 
   -1111    -1144    -1151    -1105    -1046    -1026    -1005     -957 
    -949     -980     -946     -872     -876     -986    -1119    -1169 
   -1161    -1177    -1220    -1232    -1193    -1169    -1167    -1089 
    -958     -922     -984    -1030    -1074    -1163    -1221    -1186 
   -1125    -1104    -1104    -1094    -1063    -1038    -1067    -1117 
   -1138    -1140    -1136    -1123    -1109    -1117    -1138    -1119 
   -1057    -1046    -1123    -1173    -1177    -1213    -1206    -1080 
    -936     -900     -989    -1116    -1154    -1093    -1050    -1055 
   -1035     -989    -1013    -1150    -1293    -1358    -1410    -1439 
   -1337    -1140     -949     -785     -711     -804    -1019    -1232 
   -1332    -1264    -1107    -1027    -1082    -1155    -1177    -1182 
   -1169    -1127    -1136    -1237    -1305    -1233    -1111    -1051 
   -1048    -1023     -992    -1040    -1115    -1108    -1073    -1109 
   -1174    -1162    -1089    -1071    -1127    -1163    -1147    -1113 
   -1061     -997     -970    -1008    -1054    -1036     -989    -1012 
   -1089    -1119    -1080    -1036    -1017     -996    -1009    -1116 
   -1231    -1231    -1147    -1093    -1085    -1036     -963     -997 
   -1125    -1166    -1042     -926    -1000    -1159    -1205    -1169 
   -1170    -1159    -1055     -950     -963    -1080    -1192    -1221 
   -1185    -1193    -1269    -1310    -1274    -1188    -1101    -1080 
   -1119    -1159    -1166    -1155    -1158    -1154    -1093    -1003 
    -980    -1034    -1070    -1048    -1030    -1063    -1108    -1102 
   -1081    -1096    -1107    -1071    -1070    -1154    -1225    -1206 
   -1134    -1050     -978     -953    -1000    -1108    -1228    -1274 
   -1227    -1193    -1221    -1209    -1123    -1069    -1050     -940 
    -811     -827     -934    -1007    -1066    -1142    -1188    -1206 
   -1233    -1269    -1296    -1263    -1171    -1107    -1108    -1121 
   -1075    -1005     -988    -1011    -1046    -1100    -1156    -1154 
   -1059     -950     -945    -1043    -1105    -1075    -1034    -1027 
   -1043    -1086    -1165    -1229    -1232    -1205    -1169    -1077 
    -950     -947    -1127    -1310    -1318    -1202    -1129    -1111 
   -1047     -923     -837     -909    -1065    -1116    -1092    -1128 
   -1205    -1228    -1182    -1119    -1066    -1024    -1020    -1065 
   -1084    -1055    -1089    -1192    -1209    -1094     -994    -1030 
   -1134    -1208    -1260    -1341    -1408    -1359    -1243    -1174 
   -1170    -1196    -1227    -1279    -1360    -1412    -1393    -1301 
   -1142    -1019    -1085    -1313    -1493    -1444    -1210    -1043 
   -1047    -1094    -1105    -1113    -1140    -1143    -1081    -1003 
    -970     -934     -835     -764     -818     -922     -939     -850 
    -666     -426     -264     -252     -364     -569     -788     -949 
   -1054    -1055     -899     -691     -575     -521     -444     -387 
    -481     -726     -978    -1159    -1267    -1274    -1197    -1107 
   -1051    -1020    -1013    -1067    -1189    -1290    -1282    -1196 
   -1155    -1212    -1296    -1383    -1552    -1779    -1910    -1900 
   -1877    -1938    -2029    -2060    -2057    -2074    -2049    -1879 
   -1591    -1310    -1140    -1101    -1143    -1259    -1449    -1641 
   -1806    -1966    -2065    -2014    -1861    -1705    -1525    -1182 
    -648      -67      467      951     1271     1219      730       29 
    -573     -981    -1250    -1378    -1324    -1124     -845     -572 
    -442     -564     -900    -1289    -1579    -1663    -1459    -1005 
    -492     -187     -295     -761    -1340    -1881    -2319    -2504 
   -2343    -1944    -1456     -993     -608     -309     -101       45 
     193      314      267      -48     -584    -1273    -2095    -2909 
   -3419    -3454    -3072    -2386    -1533     -723     -224     -203 
    -533     -904    -1190    -1383    -1405    -1254    -1111    -1117 
   -1274    -1467    -1593    -1661    -1672    -1605    -1487    -1336 
   -1154    -1009     -985    -1071    -1171    -1197    -1138    -1040 
    -892     -623     -270      -22      -22     -234     -619    -1131 
   -1537    -1588    -1309     -926     -619     -450     -395     -413 
    -450     -450     -460     -648    -1051    -1498    -1837    -2050 
   -2124    -2012    -1711    -1321    -1012     -830     -691     -589 
    -587     -658     -743     -842     -970    -1108    -1225    -1358 
   -1576    -1860    -2143    -2362    -2393    -2172    -1773    -1327 
    -943     -648     -395     -209     -190     -365     -689    -1107 
   -1517    -1771    -1782    -1582    -1302    -1054     -846     -697 
    -710     -895    -1117    -1259    -1270    -1144     -913     -599 
    -324     -265     -438     -693     -923    -1062    -1020     -820 
    -621     -556     -596     -614     -588     -629     -801    -1028 
   -1212    -1377    -1568    -1717    -1756    -1733    -1721    -1756 
   -1853    -1926    -1838    -1580    -1282    -1101    -1093    -1189 
   -1336    -1555    -1795    -1879    -1702    -1371    -1054     -818 
    -665     -615     -687     -826     -870     -756     -592     -425 
    -251     -190     -324     -557     -776     -977    -1185    -1356 
   -1432    -1458    -1521    -1602    -1618    -1566    -1521    -1495 
   -1395    -1186     -973     -882     -911     -974    -1055    -1175 
   -1260    -1198     -984     -707     -519     -560     -801    -1101 
   -1309    -1316    -1148     -938     -772     -668     -683     -865 
   -1101    -1213    -1205    -1189    -1193    -1136    -1009     -909 
    -908     -986    -1134    -1395    -1723    -1999    -2177    -2281 
   -2270    -2042    -1621    -1185     -835     -535     -270     -148 
    -229     -410     -579     -729     -893    -1020    -1027     -954 
    -903     -851     -727     -607     -598     -665     -764     -905 
   -1094    -1313    -1513    -1653    -1732    -1721    -1602    -1474 
   -1443    -1445    -1395    -1331    -1304    -1232    -1015     -737 
    -610     -756    -1069    -1352    -1524    -1560    -1426    -1186 
    -969     -834     -818     -957    -1174    -1350    -1426    -1459 
   -1541    -1614    -1513    -1212     -880     -673     -604     -633 
    -742     -903    -1044    -1104    -1123    -1200    -1339    -1417 
   -1364    -1256    -1169    -1120    -1107    -1115    -1085     -945 
    -726     -548     -499     -587     -766     -972    -1105    -1073 
    -927     -839     -857     -874     -873     -927    -1043    -1155 
   -1220    -1263    -1310    -1325    -1251    -1125    -1034     -992 
    -984    -1021    -1067    -1067    -1062    -1148    -1296    -1351 
   -1277    -1192    -1215    -1327    -1418    -1480    -1597    -1744 
   -1804    -1775    -1748    -1715    -1588    -1366    -1147     -977 
    -812     -666     -625     -672     -708     -735     -830     -974 
   -1048     -992     -859     -722     -599     -494     -461     -546 
    -691     -828     -988    -1204    -1398    -1445    -1348    -1217 
   -1136    -1127    -1173    -1223    -1215    -1135    -1043    -1001 
   -1003    -1030    -1115    -1224    -1216    -1040     -824     -706 
    -660     -603     -576     -665     -855    -1027    -1116    -1213 
   -1359    -1471    -1524    -1582    -1682    -1813    -1946    -2073 
   -2170    -2141    -1912    -1556    -1186     -876     -689     -720 
    -946    -1158    -1186    -1062     -935     -872     -824     -784 
    -793     -822     -795     -708     -606     -535     -535     -625 
    -805    -1034    -1215    -1309    -1305    -1173     -951     -787 
    -789     -936    -1143    -1367    -1559    -1620    -1495    -1267 
   -1059     -974    -1005    -1073    -1125    -1127    -1044     -885 
    -710     -606     -623     -757     -972    -1206    -1360    -1394 
   -1394    -1410    -1399    -1372    -1417    -1539    -1630    -1615 
   -1530    -1476    -1472    -1418    -1279    -1116     -984     -872 
    -737     -594     -481     -396     -325     -292     -348     -484 
    -654     -850    -1055    -1217    -1318    -1408    -1489    -1506 
   -1418    -1262    -1129    -1024     -909     -893    -1075    -1337 
   -1534    -1642    -1656    -1557    -1401    -1271    -1217    -1198 
   -1152    -1097    -1077    -1066    -1024     -976     -950     -932 
    -895     -880     -958    -1084    -1127    -1077    -1036    -1046 
   -1053    -1063    -1129    -1208    -1202    -1097     -957     -851 
    -822     -870     -973    -1085    -1163    -1220    -1314    -1425 
   -1459    -1377    -1231    -1061     -854     -629     -492     -538 
    -699     -849     -962    -1082    -1205    -1298    -1381    -1476 
   -1544    -1518    -1406    -1305    -1289    -1360    -1529    -1752 
   -1883    -1817    -1615    -1390    -1165     -913     -699     -631 
    -685     -727     -716     -719     -756     -766     -739     -746 
    -832     -939     -985     -993    -1047    -1127    -1173    -1201 
   -1229    -1219    -1171    -1138    -1104    -1032     -928     -865 
    -893     -959    -1000    -1043    -1135    -1240    -1304    -1337 
   -1386    -1422    -1368    -1232    -1104    -1017     -976     -999 
