Origin Time       2025/03/28 03:50:00
Lat.              35.403
Long.             140.360
Depth. (km)       54
Mag.              4.4
Station Code      KNG007
Station Lat.      35.3382
Station Long.     139.4926
Station Height(m) 10
Record Time       2025/03/28 03:51:05
Sampling Freq(Hz) 100Hz
Duration Time(s)  60
Dir.              N-S
Scale Factor      7845(gal)/8223790
Max. Acc. (gal)   1.227
Last Correction   2025/03/28 03:51:05
Memo.             
[...]
    7506     7438     7438     7527     7564     7483     7410     7468 
    7566     7550     7446     7412     7489     7553     7514     7450 
    7458     7514     7531     7503     7472     7468     7489     7519 
    7518     7465     7435     7496     7564     7533     7447     7438 
    7518     7558     7491     7429     7474     7551     7541     7466 
    7438     7485     7535     7526     7480     7454     7476     7526 
    7539     7488     7441     7466     7535     7542     7469     7429 
    7495     7566     7526     7433     7433     7520     7555     7491 
    7439     7473     7531     7534     7487     7453     7470     7508 
    7523     7493     7453     7464     7518     7547     7507     7439 
    7445     7531     7560     7483     7422     7473     7550     7528 
    7449     7435     7504     7550     7510     7447     7453     7508 
    7535     7500     7452     7453     7508     7546     7516     7457 
    7452     7506     7538     7496     7435     7457     7541     7557 
    7481     7427     7470     7541     7534     7470     7450     7497 
    7533     7501     7457     7468     7512     7531     7512     7474 
    7452     7479     7531     7535     7480     7446     7497     7558 
    7523     7439     7449     7545     7569     7485     7430     7477 
    7546     7535     7479     7462     7492     7514     7507     7484 
    7469     7484     7515     7522     7480     7437     7470     7550 
    7545     7450     7422     7503     7555     7504     7445     7468 
    7523     7524     7481     7466     7497     7518     7506     7491 
    7483     7476     7491     7519     7510     7465     7454     7506 
    7541     7495     7441     7476     7551     7545     7456     7422 
    7501     7558     7508     7446     7466     7518     7518     7485 
    7481     7497     7497     7489     7495     7493     7484     7497 
    7523     7503     7454     7464     7527     7545     7479     7427 
    7473     7541     7526     7465     7460     7511     7533     7499 
    7469     7481     7500     7503     7503     7492     7472     7477 
    7508     7512     7476     7464     7503     7534     7500     7445 
    7462     7534     7543     7473     7433     7495     7561     7523 
    7450     7456     7511     7530     7493     7465     7484     7514 
    7520     7510     7487     7469     7488     7522     7520     7481 
    7464     7500     7534     7501     7456     7479     7531     7522 
    7468     7450     7499     7541     7511     7464     7474     7511 
    7516     7495     7483     7484     7497     7511     7507     7481 
    7465     7489     7530     7519     7462     7452     7514     7551 
    7493     7433     7474     7550     7530     7447     7442     7520 
    7549     7500     7461     7474     7506     7506     7492     7485 
    7474     7477     7512     7527     7485     7450     7485     7531 
    7510     7446     7441     7514     7549     7484     7431     7472 
    7534     7523     7464     7452     7492     7518     7511     7495 
    7474     7473     7500     7520     7503     7465     7468     7518 
    7530     7470     7427     7483     7554     7514     7427     7443 
    7538     7555     7472     7425     7480     7539     7522     7470 
    7456     7480     7503     7506     7496     7479     7473     7507 
    7533     7496     7447     7468     7535     7542     7472     7439 
    7496     7554     7516     7442     7452     7526     7542     7488 
    7452     7473     7514     7526     7507     7469     7453     7489 
    7531     7511     7460     7461     7535     7587     7530     7443 
    7465     7553     7550     7442     7380     7445     7520     7501 
    7447     7466     7541     7562     7516     7476     7477     7499 
    7500     7466     7416     7408     7487     7604     7641     7555 
    7457     7461     7511     7493     7457     7510     7611     7616 
    7492     7362     7349     7418     7496     7554     7581     7589 
    7578     7537     7481     7406     7350     7411     7546     7574 
    7441     7306     7319     7433     7518     7555     7580     7554 
    7453     7360     7365     7474     7623     7704     7670     7605 
    7534     7479     7515     7576     7551     7488     7483     7533 
    7562     7531     7461     7392     7366     7439     7614     7716 
    7566     7290     7145     7177     7229     7233     7352     7645 
    7842     7723     7452     7311     7389     7554     7657     7686 
    7688     7631     7500     7371     7314     7344     7497     7713 
    7769     7641     7555     7574     7600     7601     7593     7614 
    7665     7647     7477     7227     7026     6949     7087     7416 
    7677     7695     7631     7608     7514     7349     7298     7427 
    7597     7589     7369     7188     7231     7395     7547     7720 
    7898     7923     7731     7507     7447     7503     7457     7280 
    7171     7231     7377     7519     7620     7634     7543     7485 
    7523     7537     7492     7464     7457     7447     7388     7285 
    7325     7549     7681     7562     7402     7427     7580     7704 
    7736     7678     7607     7569     7476     7318     7240     7362 
    7654     7852     7738     7457     7288     7283     7310     7318 
    7404     7584     7650     7526     7368     7295     7291     7292 
    7261     7273     7384     7539     7686     7765     7719     7609 
    7553     7595     7650     7603     7503     7439     7388     7369 
    7501     7788     8013     7950     7636     7334     7221     7283 
    7396     7433     7393     7379     7393     7430     7564     7740 
    7805     7736     7572     7352     7182     7138     7204     7312 
    7403     7466     7573     7720     7767     7668     7543     7446 
    7304     7132     7095     7300     7607     7776     7732     7593 
    7477     7403     7364     7345     7356     7408     7447     7445 
    7449     7501     7595     7676     7695     7665     7642     7626 
    7550     7445     7429     7538     7645     7615     7493     7396 
    7353     7362     7445     7538     7533     7456     7419     7439 
    7466     7510     7605     7703     7692     7541     7360     7312 
    7381     7377     7261     7225     7349     7496     7593     7704 
    7804     7793     7670     7541     7452     7395     7358     7322 
    7296     7352     7483     7597     7673     7703     7639     7516 
    7415     7341     7299     7380     7554     7651     7605     7518 
    7512     7561     7538     7446     7384     7368     7371     7384 
    7418     7479     7546     7619     7692     7689     7580     7462 
    7423     7406     7341     7312     7411     7537     7547     7492 
    7506     7569     7558     7456     7365     7399     7510     7553 
    7537     7573     7628     7580     7445     7330     7296     7346 
    7457     7558     7577     7526     7522     7623     7699     7622 
    7470     7377     7373     7389     7399     7489     7619     7619 
    7523     7497     7546     7564     7527     7510     7538     7554 
    7537     7485     7399     7349     7414     7557     7647     7591 
    7445     7385     7450     7474     7392     7344     7434     7562 
    7564     7468     7443     7508     7528     7487     7493     7582 
    7627     7508     7312     7190     7200     7352     7555     7668 
    7650     7591     7593     7609     7500     7322     7292     7454 
    7604     7570     7446     7420     7466     7462     7456     7551 
    7688     7717     7603     7439     7334     7307     7346     7426 
    7500     7577     7677     7689     7518     7311     7311     7515 
    7678     7634     7496     7452     7476     7454     7449     7562 
    7709     7740     7623     7431     7267     7184     7215     7403 
    7672     7824     7782     7646     7493     7356     7329     7479 
    7663     7674     7503     7348     7352     7431     7434     7406 
    7487     7620     7600     7435     7322     7344     7416     7450 
    7442     7447     7516     7618     7627     7499     7344     7292 
    7375     7487     7538     7582     7662     7661     7504     7329 
    7284     7357     7464     7541     7569     7577     7555     7495 
    7460     7483     7542     7635     7727     7707     7533     7341 
    7265     7285     7360     7477     7611     7731     7731     7543 
    7345     7315     7373     7403     7460     7591     7685     7604 
    7402     7277     7334     7492     7605     7615     7561     7524 
    7558     7573     7457     7304     7310     7500     7695     7701 
    7558     7468     7500     7511     7427     7380     7443     7507 
    7452     7322     7272     7364     7492     7560     7582     7611 
    7650     7665     7611     7496     7414     7442     7506     7473 
    7365     7352     7506     7659     7646     7539     7523     7626 
    7716     7688     7611     7609     7626     7554     7442     7352 
    7276     7254     7302     7344     7356     7376     7414     7462 
    7468     7422     7429     7504     7504     7415     7414     7561 
    7672     7605     7466     7408     7418     7387     7321     7335 
    7495     7701     7816     7793     7655     7489     7423     7470 
    7514     7492     7472     7465     7369     7184     7087     7217 
    7473     7658     7723     7773     7844     7807     7595     7346 
    7213     7217     7350     7566     7709     7682     7584     7561 
    7595     7566     7477     7433     7470     7508     7506     7546 
    7670     7738     7647     7503     7398     7302     7200     7148 
    7210     7345     7410     7387     7387     7426     7464     7527 
    7626     7690     7678     7619     7558     7515     7470     7412 
    7389     7423     7469     7530     7592     7568     7453     7377 
    7461     7661     7757     7632     7466     7441     7503     7534 
    7551     7569     7538     7462     7404     7389     7371     7335 
    7372     7500     7585     7542     7477     7499     7574     7622 
    7618     7618     7645     7573     7391     7315     7426     7560 
    7569     7460     7339     7291     7335     7456     7581     7630 
    7589     7508     7453     7453     7515     7619     7662     7547 
    7368     7302     7396     7527     7570     7561     7595     7615 
    7504     7345     7299     7381     7481     7516     7469     7362 
    7254     7222     7311     7510     7731     7852     7809     7635 
    7419     7300     7368     7506     7526     7442     7415     7454 
    7469     7476     7530     7609     7628     7523     7407     7429 
    7518     7541     7518     7507     7485     7446     7426     7418 
    7410     7422     7488     7588     7612     7514     7435     7504 
    7608     7581     7485     7472     7519     7523     7452     7358 
    7306     7265     7229     7284     7443     7596     7639     7564 
    7445     7393     7480     7657     7763     7720     7620     7601 
    7627     7553     7403     7364     7489     7609     7566     7442 
    7426     7519     7593     7622     7630     7601     7542     7477 
    7434     7441     7462     7472     7474     7441     7387     7393 
    7487     7554     7515     7483     7562     7636     7581     7470 
    7443     7504     7524     7454     7373     7338     7335     7373 
    7454     7483     7404     7331     7376     7485     7549     7554 
    7569     7562     7454     7317     7337     7531     7657     7553 
    7361     7303     7416     7541     7576     7607     7665     7696 
    7680     7619     7551     7522     7497     7430     7321     7223 
    7236     7379     7538     7600     7599     7618     7634     7603 
    7578     7632     7727     7726     7578     7408     7349     7371 
    7376     7358     7366     7414     7446     7416     7380     7419 
    7516     7616     7672     7624     7504     7456     7497     7487 
    7383     7333     7425     7539     7515     7387     7318     7375 
    7485     7561     7597     7636     7666     7626     7526     7427 
    7361     7364     7446     7512     7489     7454     7484     7520 
    7497     7474     7581     7762     7776     7570     7392     7393 
    7441     7402     7331     7314     7379     7504     7551     7476 
    7399     7379     7441     7593     7705     7690     7612     7539 
    7483     7425     7422     7538     7627     7539     7427     7469 
    7569     7550     7419     7360     7464     7595     7674     7770 
    7879     7911     7827     7692     7574     7485     7449     7480 
    7495     7408     7314     7357     7493     7527     7406     7298 
    7333     7416     7426     7431     7533     7636     7626     7530 
    7408     7307     7273     7298     7342     7358     7323     7284 
    7267     7226     7187     7252     7439     7622     7642     7534 
    7473     7500     7523     7533     7608     7719     7712     7541 
    7356     7314     7404     7512     7601     7728     7888     8020 
    8087     8059     7909     7682     7474     7312     7136     6963 
    6934     7069     7214     7314     7488     7778     8044     8117 
    7986     7790     7609     7403     7180     7018     6945     6925 
    6953     7042     7133     7150     7136     7188     7310     7418 
    7500     7615     7724     7695     7527     7393     7375     7381 
    7344     7291     7244     7094     6793     6527     6527     6849 
    7377     7947     8432     8733     8779     8630     8490     8406 
    8256     8027     7763     7415     7018     6745     6687     6806 
    7034     7353     7798     8260     8457     8278     7902     7557 
    7304     7136     7144     7366     7641     7778     7736     7581 
    7372     7126     6875     6660     6482     6419     6621     7102 
    7650     8056     8302     8380     8202     7825     7507     7411 
    7465     7507     7523     7609     7738     7744     7593     7431 
    7379     7445     7592     7736     7773     7638     7375     7091 
    6843     6658     6640     6924     7479     8059     8446     8590 
    8464     8047     7512     7218     7335     7649     7804     7636 
    7218     6714     6318     6224     6501     6961     7365     7577 
    7550     7357     7199     7288     7658     8108     8451     8642 
    8606     8220     7560     6953     6685     6771     7018     7249 
    7431     7528     7445     7214     7038     7090     7379     7821 
    8286     8613     8679     8492     8190     7874     7578     7400 
    7446     7636     7776     7731     7539     7317     7071     6840 
    6831     7095     7423     7600     7566     7443     7400     7435 
    7474     7508     7534     7523     7470     7362     7195     7061 
    7125     7414     7727     7858     7831     7776     7668     7446 
    7254     7291     7524     7674     7506     7098     6736     6605 
    6717     6994     7279     7445     7503     7524     7564     7631 
    7705     7796     7890     7906     7831     7782     7831     7885 
    7803     7630     7546     7530     7385     7102     6860     6794 
    6889     7049     7252     7512     7753     7906     7985     7983 
    7896     7784     7699     7620     7530     7531     7707     7939 
    8040     7973     7866     7793     7657     7429     7246     7196 
    7184     7083     6936     6901     7048     7312     7603     7836 
    7912     7785     7534     7263     7010     6810     6756     6906 
    7159     7330     7388     7445     7520     7526     7496     7585 
    7816     8021     8052     7950     7834     7707     7492     7211 
    6974     6847     6859     7001     7194     7338     7425     7503 
    7551     7547     7585     7761     8019     8182     8155     8023 
    7843     7553     7225     7092     7303     7742     8108     8224 
    8127     7933     7784     7757     7839     7952     7983     7865 
    7609     7295     7029     6918     6994     7136     7160     7083 
    7099     7234     7310     7292     7330     7458     7493     7299 
    6976     6704     6561     6552     6687     6947     7256     7530 
    7724     7828     7840     7816     7873     7986     7990     7825 
    7624     7528     7523     7489     7445     7491     7570     7546 
    7435     7381     7480     7676     7830     7889     7882     7848 
    7850     7888     7885     7821     7727     7593     7404     7171 
    7006     7038     7183     7275     7321     7420     7561     7620 
    7578     7550     7641     7780     7811     7711     7581     7492 
    7457     7479     7547     7616     7615     7527     7384     7209 
    7096     7165     7358     7506     7524     7491     7531     7604 
    7541     7352     7252     7317     7379     7308     7194     7132 
    7122     7142     7179     7214     7230     7223     7231     7261 
    7272     7294     7377     7483     7534     7546     7616     7751 
    7827     7789     7769     7882     8012     7969     7793     7666 
    7616     7551     7485     7511     7618     7690     7707     7723 
    7751     7770     7744     7642     7443     7144     6839     6683 
    6694     6814     7052     7429     7835     8059     8052     8017 
    8082     8136     8077     7962     7878     7815     7709     7573 
    7468     7396     7322     7271     7258     7230     7180     7167 
    7163     7098     7015     7060     7242     7406     7449     7449 
    7489     7520     7461     7385     7443     7604     7705     7713 
    7716     7740     7754     7734     7685     7622     7558     7518 
    7523     7530     7464     7365     7338     7395     7461     7515 
    7611     7759     7847     7762     7580     7442     7314     7110 
    6928     6898     6979     7056     7110     7202     7369     7560 
    7689     7723     7662     7555     7488     7460     7388     7280 
    7283     7476     7730     7861     7848     7789     7707     7596 
    7495     7472     7542     7604     7572     7530     7572     7642 
    7647     7587     7501     7420     7364     7344     7354     7371 
    7383     7410     7439     7412     7365     7414     7569     7712 
    7736     7682     7681     7703     7595     7391     7284     7318 
    7371     7393     7429     7499     7581     7628     7627     7592 
    7524     7477     7511     7568     7568     7577     7666     7712 
    7578     7337     7195     7248     7364     7423     7481     7588 
    7661     7634     7553     7516     7560     7605     7572     7458 
    7312     7204     7207     7295     7380     7441     7538     7641 
    7607     7422     7269     7276     7329     7283     7206     7252 
    7377     7398     7279     7163     7121     7126     7173     7298 
    7499     7696     7798     7774     7631     7423     7294     7346 
    7497     7605     7657     7735     7834     7843     7792     7850 
    8023     8082     7890     7624     7555     7665     7761     7778 
    7767     7776     7809     7803     7692     7461     7183     7005 
    6987     7057     7156     7330     7581     7757     7734     7597 
    7515     7472     7314     7072     6984     7107     7229     7221 
    7163     7160     7219     7264     7252     7219     7202     7200 
    7217     7222     7200     7238     7429     7701     7889     7935 
