Origin Time       2025/03/28 03:50:00
Lat.              35.403
Long.             140.360
Depth. (km)       54
Mag.              4.4
Station Code      KNG206
Station Lat.      35.0966
Station Long.     139.3778
Station Height(m) -1130
Record Time       2025/03/28 03:50:59
Sampling Freq(Hz) 100Hz
Duration Time(s)  79
Dir.              U-D
Scale Factor      2000(gal)/6182761
Max. Acc. (gal)   0.832
Last Correction   2025/03/28 03:51:00
Memo.             
[...]
    -555     -504     -405     -256     -149     -229     -505     -755 
    -796     -719     -658     -603     -546     -510     -496     -470 
    -414     -438     -635     -893    -1037    -1006     -841     -589 
    -282        0      106      -61     -369     -550     -545     -499 
    -472     -498     -615     -696     -649     -598     -629     -630 
    -517     -407     -474     -709     -937     -968     -727     -361 
    -131     -130     -199     -181     -112     -125     -221     -259 
    -234     -358     -677     -919     -900     -757     -709     -783 
    -790     -583     -269      -78     -148     -444     -751     -837 
    -733     -617     -526     -477     -486     -477     -432     -391 
    -380     -413     -447     -431     -369     -328     -360     -439 
    -531     -629     -704     -739     -761     -816     -881     -865 
    -727     -543     -422     -400     -452     -532     -549     -468 
    -395     -400     -450     -537     -639     -665     -598     -517 
    -507     -592     -706     -707     -515     -248     -158     -322 
    -530     -603     -568     -495     -391     -220       12      197 
     232      119      -87     -352     -609     -800     -965    -1069 
   -1009     -838     -654     -514     -465     -482     -524     -575 
    -604     -636     -744     -896     -949     -804     -527     -294 
    -223     -298     -448     -590     -666     -682     -667     -592 
    -438     -269      -97      113      281      305      178     -109 
    -528     -853     -913     -832     -722     -618     -636     -750 
    -798     -731     -585     -402     -228      -90      -24     -103 
    -356     -652     -870    -1036    -1102    -1029     -959    -1004 
   -1138    -1216    -1043     -624     -159      163      185     -101 
    -409     -466     -347     -269     -255     -213     -167     -245 
    -500     -821    -1020    -1017     -855     -654     -554     -518 
    -348       16      378      449      153     -309     -743    -1029 
   -1095    -1033     -893     -595     -182      239      552      625 
     513      340      138      -61     -270     -521     -733     -864 
    -951     -968     -951     -987    -1078    -1220    -1373    -1419 
   -1306    -1062     -774     -605     -648     -787     -871     -856 
    -722     -498     -332     -328     -408     -427     -320     -103 
     150      313      301      199       72     -176     -486     -648 
    -671     -672     -619     -499     -405     -342     -274     -275 
    -402     -584     -723     -809     -876     -891     -806     -655 
    -503     -343     -175     -124     -268     -452     -490     -406 
    -318     -247     -166      -61       29      -28     -244     -424 
    -480     -547     -692     -882    -1119    -1320    -1343    -1190 
    -981     -836     -781     -751     -704     -666     -683     -749 
    -796     -761     -646     -527     -497     -558     -638     -643 
    -496     -240       31      266      383      372      346      299 
     159      -41     -287     -533     -646     -652     -685     -771 
    -908    -1036     -994     -757     -444     -140       69       55 
    -194     -481     -649     -764     -852     -853     -860     -932 
    -956     -857     -657     -436     -250      -71       90      111 
    -146     -601     -940     -959     -708     -375     -143      -96 
    -226     -457     -626     -553     -223      149      276       13 
    -494     -965    -1261    -1385    -1341    -1134     -860     -656 
    -572     -592     -677     -772     -827     -785     -664     -560 
    -475     -290       71      482      666      524      222     -137 
    -523     -803     -960    -1079    -1096     -990     -894     -843 
    -761     -645     -494     -336     -281     -354     -448     -483 
    -463     -369     -193      -64     -148     -423     -675     -748 
    -674     -541     -460     -521     -627     -691     -796     -939 
    -976     -816     -499     -115      226      360      190     -160 
    -437     -453     -258     -154     -249     -355     -421     -470 
    -456     -431     -471     -616     -864    -1079    -1139    -1035 
    -815     -588     -456     -406     -369     -372     -486     -688 
    -872     -905     -695     -295       45       33     -360     -787 
    -884     -650     -292      -40     -166     -656    -1101    -1238 
   -1145     -937     -703     -563     -491     -385     -203       90 
     423      604      563      380       82     -352     -790    -1035 
   -1023     -811     -562     -496     -667     -901    -1082    -1164 
   -1035     -698     -321      -50       91      111      -23     -297 
    -608     -812     -801     -649     -509     -421     -363     -312 
    -309     -431     -678     -987    -1268    -1380    -1219     -817 
    -335       74      306      274       16     -297     -549     -686 
    -754     -913    -1131    -1267    -1358    -1386    -1210     -792 
    -248      213      430      360       75     -295     -610     -680 
    -482     -242      -12      283      502      513      355       76 
    -245     -469     -581     -712     -884     -926     -765     -540 
    -380     -341     -441     -604     -723     -757     -724     -639 
    -528     -456     -443     -473     -539     -609     -608     -517 
    -433     -454     -586     -773     -917     -969     -980     -965 
    -856     -660     -445     -287     -339     -644     -993    -1155 
   -1081     -863     -569     -172      259      472      338        5 
    -354     -618     -635     -477     -375     -330     -271     -170 
      54      343      518      465      145     -380     -895    -1176 
   -1246    -1208    -1030     -808     -744     -864    -1082    -1258 
   -1247    -1103     -991     -957     -908     -789     -636     -488 
    -317      -73      202      365      336      144     -193     -558 
    -654     -448     -274     -266     -361     -569     -827     -984 
    -940     -698     -416     -248     -225     -322     -469     -551 
    -476     -278      -77       52       52     -102     -262     -324 
    -466     -805    -1127    -1197    -1030     -803     -707     -773 
    -824     -692     -374        0      241      232       19     -266 
    -563     -782     -811     -689     -478     -245     -144     -205 
    -344     -450     -441     -410     -504     -684     -827     -904 
    -923     -827     -651     -611     -832    -1155    -1321    -1181 
    -787     -362      -63      146      273      237       61     -207 
    -604    -1007    -1159     -968     -540     -204     -283     -642 
    -918     -977     -862     -653     -432     -283     -256     -278 
    -253     -233     -315     -445     -559     -699     -876    -1031 
   -1051     -865     -557     -238       94      436      649      577 
     221     -203     -342      -47      350      454      320      158 
     -95     -541    -1034    -1373    -1524    -1532    -1425    -1262 
   -1098     -904     -676     -519     -546     -746     -965    -1032 
    -870     -556     -311     -288     -417     -588     -839    -1174 
   -1407    -1389    -1179     -915     -680     -533     -498     -482 
    -329       36      469      618      299     -234     -561     -465 
    -107      140      193      209      214      169       36     -168 
    -286     -290     -376     -654     -927     -931     -709     -474 
    -307     -156      -71     -263     -684     -924     -809     -590 
    -429     -328     -366     -586     -958    -1361    -1540    -1404 
   -1143     -955     -896     -867     -743     -528     -276       68 
     512      824      756      359     -143     -536     -641     -419 
     -25      300      288     -165     -781    -1132    -1093     -875 
    -757     -875    -1146    -1334    -1290    -1127    -1001     -930 
    -883     -865     -904     -930     -773     -333      308      838 
     911      507     -100     -635     -859     -736     -600     -583 
    -370      174      730      871      497      -78     -540     -744 
    -645     -422     -249      -85       25      -89     -425     -796 
   -1119    -1457    -1657    -1461     -940     -402     -134     -164 
    -233     -216     -262     -510     -931    -1375    -1699    -1797 
   -1626    -1311    -1088    -1094    -1222    -1232    -1023     -716 
    -432      -74      510     1187     1599     1565     1208      784 
     532      469      408      235      -66     -428     -650     -691 
    -834    -1234    -1656    -1829    -1708    -1384     -969     -501 
     -26      250       96     -475    -1189    -1757    -2019    -1900 
   -1446     -885     -475     -332     -399     -494     -450     -239 
      15      126       56       30      278      682      871      619 
      96     -254     -167      117       95     -361     -810     -951 
    -956     -984    -1076    -1301    -1572    -1640    -1371     -902 
    -484     -213       21      224      177     -167     -472     -429 
    -170     -116     -466     -953    -1179    -1096     -999    -1149 
   -1551    -1947    -2064    -1881    -1495    -1007     -564     -242 
       1      168      222      263      457      721      782      512 
      16     -467     -747     -816     -881    -1126    -1432    -1599 
   -1610    -1546    -1500    -1443    -1236     -879     -488     -109 
     235      481      612      699      760      685      456      204 
      -6     -207     -429     -619     -693     -639     -489     -392 
    -539     -882    -1228    -1368    -1124     -544      133      665 
     901      878      763      591      236     -344    -1024    -1562 
   -1736    -1477     -800      107      821     1033      761      165 
    -638    -1484    -2029    -2049    -1604     -839      -51      477 
     749      854      847      804      763      825     1014     1125 
     981      585       77     -333     -541     -630     -772    -1002 
   -1160    -1160    -1086    -1028    -1090    -1330    -1636    -1810 
   -1705    -1388    -1134    -1145    -1342    -1516    -1597    -1587 
   -1457    -1254    -1051     -826     -531     -180      164      431 
     583      627      529      182     -355     -827    -1037     -961 
    -697     -378     -144     -121     -298     -573     -858    -1066 
   -1130    -1035     -906     -897     -965     -960     -773     -443 
    -174     -151     -388     -696     -783     -592     -365     -329 
    -518     -794     -932     -856     -711     -642     -665     -724 
    -746     -687     -590     -526     -443     -186      316      908 
    1333     1532     1578     1427     1073      666      340      159 
      59     -153     -549    -1003    -1420    -1809    -2113    -2227 
   -2168    -2007    -1826    -1717    -1680    -1635    -1521    -1355 
   -1180     -990     -755     -501     -324     -327     -551     -916 
   -1240    -1404    -1412    -1311    -1159     -983     -757     -491 
    -241      -29      144      246      293      417      671      923 
    1048     1021      887      748      662      578      427      199 
     -64     -282     -343     -217      -26       70      -15     -262 
    -473     -502     -415     -226       38      157       -4     -376 
    -805    -1123    -1243    -1173     -982     -812     -776     -863 
   -1049    -1317    -1580    -1728    -1742    -1733    -1847    -2050 
   -2154    -2027    -1662    -1129     -557      -60      303      503 
     582      689      909     1199     1507     1699     1588     1201 
     721      295        0     -209     -393     -474     -392     -247 
    -124      -82     -227     -505     -706     -805     -933    -1099 
   -1228    -1283    -1277    -1301    -1409    -1555    -1687    -1758 
   -1765    -1756    -1744    -1732    -1753    -1836    -1957    -2028 
   -1902    -1479     -825     -120      441      682      604      430 
     295      183      152      202      169       -5     -215     -272 
     -23      434      814      956      884      735      708      862 
    1047     1124     1050      831      490       68     -344     -611 
    -650     -532     -391     -291     -350     -664    -1109    -1482 
   -1615    -1411     -984     -617     -542     -789    -1193    -1566 
   -1822    -1942    -1946    -1907    -1879    -1839    -1724    -1499 
   -1169     -772     -414     -225     -188     -100      161      438 
     524      470      428      381      261       37     -313     -673 
    -836     -779     -644     -531     -518     -619     -692     -623 
    -410      -84      255      422      302      -31     -457     -841 
    -979     -886     -757     -604     -422     -320     -369     -570 
    -795     -839     -651     -347     -107      -37     -125     -257 
    -249      -77       25     -138     -556    -1015    -1334    -1581 
   -1732    -1654    -1435    -1186     -971     -847     -775     -738 
    -705     -544     -206      197      522      683      729      795 
     923     1045     1045      817      367     -251     -946    -1485 
   -1683    -1605    -1373    -1055     -821     -850    -1147    -1577 
   -1921    -2010    -1795    -1327     -739     -125      442      780 
     827      803      836      772      497       78     -365     -664 
    -690     -482     -131      344      812     1082     1177     1181 
    1080      941      819      632      298     -242     -987    -1765 
   -2406    -2860    -3071    -3046    -2924    -2793    -2647    -2486 
   -2314    -2161    -2038    -1900    -1726    -1527    -1321    -1137 
    -979     -784     -493     -118      311      700      921     1020 
    1144     1296     1422     1467     1384     1257     1176     1067 
     813      381     -138     -592     -884    -1053    -1215    -1384 
   -1517    -1673    -1839    -1901    -1843    -1711    -1563    -1471 
   -1423    -1333    -1135     -796     -358       46      309      436 
     514      633      735      729      650      510      305       44 
    -298     -636     -799     -813     -849     -940    -1034    -1123 
   -1108     -865     -407      119      452      353     -147     -756 
   -1202    -1363    -1261    -1032     -783     -577     -445     -380 
    -406     -504     -554     -448     -154      219      467      487 
     391      341      367      478      659      794      825      777 
     644      408       84     -316     -763    -1151    -1412    -1589 
   -1661    -1606    -1534    -1514    -1545    -1635    -1756    -1834 
   -1790    -1633    -1443    -1215     -886     -429      115      601 
     865      901      865      825      739      604      410      145 
    -154     -478     -791    -1054    -1314    -1535    -1641    -1680 
   -1666    -1529    -1267     -924     -561     -238       46      293 
     441      504      587      613      367     -164     -782    -1196 
   -1219     -980     -726     -614     -716     -920    -1048    -1047 
    -909     -616     -195      301      764     1056     1152     1120 
    1007      894      840      768      601      346       54     -225 
    -500     -782    -1079    -1395    -1668    -1873    -2029    -2057 
   -1923    -1718    -1497    -1275    -1054     -831     -657     -582 
    -571     -576     -616     -738     -953    -1211    -1414    -1527 
   -1619    -1750    -1901    -1989    -1936    -1733    -1432    -1084 
    -684     -217      224      460      424      302      312      478 
     724      955     1086     1122     1093     1003      911      859 
     837      845      861      835      745      595      415      274 
     196       79     -172     -546     -965    -1366    -1714    -1918 
   -1877    -1664    -1435    -1283    -1248    -1287    -1333    -1370 
   -1365    -1263    -1011     -638     -276       -3      194      287 
     243       56     -340     -896    -1359    -1631    -1813    -1933 
   -2003    -2065    -2090    -2021    -1794    -1407     -992     -661 
    -398     -145      100      267      326      388      543      702 
     788      819      808      773      727      649      525      371 
     240      148       46      -95     -255     -365     -379     -401 
    -511     -621     -706     -783     -798     -731     -597     -457 
    -415     -448     -447     -397     -370     -401     -463     -530 
    -624     -774     -952    -1048    -1027     -991    -1033    -1132 
   -1205    -1238    -1288    -1373    -1453    -1455    -1337    -1121 
    -876     -677     -539     -404     -215       36      272      351 
     305      315      388      460      578      710      752      702 
     619      540      452      334      182       -7     -230     -451 
    -579     -625     -690     -762     -807     -871     -949    -1021 
   -1066    -1066    -1065    -1131    -1296    -1522    -1707    -1747 
   -1619    -1399    -1209    -1130    -1166    -1262    -1360    -1402 
   -1352    -1204     -969     -715     -530     -416     -319     -204 
     -20      259      514      637      691      698      629      578 
     622      747      876      856      639      322        0     -258 
    -406     -460     -476     -461     -400     -350     -344     -347 
    -390     -516     -682     -848     -995    -1074    -1061     -994 
    -929     -892     -900     -958    -1058    -1195    -1338    -1417 
   -1390    -1291    -1170    -1107    -1167    -1280    -1319    -1280 
   -1161     -898     -539     -222        8      164      209      176 
     197      242      157      -83     -396     -668     -848    -1022 
   -1218    -1359    -1433    -1433    -1307    -1067     -740     -341 
      68      402      602      713      865     1052     1212     1348 
    1400     1320     1136      876      608      360       79     -225 
    -498     -734     -959    -1177    -1312    -1323    -1285    -1233 
   -1144    -1011     -840     -654     -449     -232      -75      -60 
    -216     -459     -614     -655     -710     -785     -860     -984 
   -1173    -1443    -1724    -1886    -1901    -1796    -1610    -1384 
   -1155     -978     -891     -874     -872     -848     -828     -848 
    -882     -860     -738     -558     -400     -325     -352     -456 
    -604     -758     -848     -835     -750     -608     -381      -58 
     310      585      697      739      758      711      651      650 
     685      751      833      884      895      860      747      552 
     316      106      -37     -179     -384     -614     -854    -1123 
   -1350    -1459    -1476    -1470    -1478    -1463    -1369    -1198 
    -963     -662     -358     -168     -140     -240     -426     -672 
    -950    -1229    -1483    -1691    -1852    -1958    -1960    -1829 
   -1577    -1210     -790     -426     -147       59      161      137 
      63       56      109      156      155       40     -185     -405 
    -504     -495     -489     -486     -436     -418     -477     -551 
    -606     -641     -690     -778     -861     -848     -710     -516 
    -324      -96      200      507      777     1033     1264     1382 
    1373     1295     1164      983      756      480      191      -61 
    -258     -418     -593     -847    -1170    -1462    -1673    -1804 
   -1788    -1627    -1423    -1275    -1239    -1305    -1417    -1516 
