Origin Time       2025/03/28 03:50:00
Lat.              35.403
Long.             140.360
Depth. (km)       54
Mag.              4.4
Station Code      KNG206
Station Lat.      35.0966
Station Long.     139.3778
Station Height(m) -1130
Record Time       2025/03/28 03:50:59
Sampling Freq(Hz) 100Hz
Duration Time(s)  79
Dir.              E-W
Scale Factor      2000(gal)/6182761
Max. Acc. (gal)   4.021
Last Correction   2025/03/28 03:51:00
Memo.             
[...]
    -609     -611     -610     -604     -608     -614     -604     -601 
    -606     -599     -599     -612     -612     -604     -602     -605 
    -608     -610     -612     -611     -610     -613     -615     -609 
    -605     -609     -606     -596     -599     -608     -604     -601 
    -602     -597     -598     -607     -606     -602     -602     -601 
    -601     -600     -600     -602     -599     -589     -590     -594 
    -593     -600     -606     -600     -595     -596     -598     -595 
    -592     -595     -598     -595     -592     -593     -594     -594 
    -595     -596     -595     -590     -591     -598     -598     -599 
    -601     -594     -593     -595     -590     -594     -602     -600 
    -595     -595     -595     -594     -599     -600     -592     -595 
    -598     -593     -598     -598     -590     -595     -599     -591 
    -590     -590     -585     -586     -586     -585     -589     -590 
    -595     -604     -607     -615     -632     -636     -628     -625 
    -620     -607     -601     -597     -591     -586     -577     -576 
    -590     -595     -591     -600     -609     -604     -602     -598 
    -583     -573     -570     -561     -555     -557     -564     -576 
    -588     -591     -594     -607     -611     -597     -590     -594 
    -590     -588     -608     -638     -666     -704     -747     -774 
    -785     -791     -803     -809     -799     -781     -759     -714 
    -633     -528     -414     -296     -178      -45       90      147 
      95       14     -104     -317     -506     -611     -744     -884 
    -967    -1040    -1072    -1050    -1029     -995     -933     -862 
    -775     -687     -614     -541     -461     -411     -400     -390 
    -391     -424     -455     -480     -525     -576     -615     -629 
    -613     -582     -545     -514     -522     -575     -655     -763 
    -895    -1022    -1120    -1177    -1172    -1079     -912     -728 
    -564     -414     -262      -86      116      253      254      199 
     153       55     -114     -319     -502     -585     -637     -745 
    -823     -823     -753     -626     -508     -407     -324     -361 
    -545     -802    -1078    -1316    -1449    -1470    -1410    -1278 
   -1055     -755     -438     -163       73      245      219      -77 
    -552    -1044    -1388    -1604    -1789    -1805    -1534    -1082 
    -609     -233       83      407      585      515      392      407 
     536      700      813      867      905      839      591      241 
    -105     -414     -687     -970    -1354    -1809    -2222    -2594 
   -2882    -2978    -2906    -2671    -2218    -1641    -1091     -570 
       6      558      856      822      610      274     -253     -778 
    -978     -800     -381      206      892     1497     1867     1946 
    1723     1361     1048      634     -102    -1067    -1972    -2698 
   -3320    -3659    -3366    -2538    -1527     -527      260      596 
     374     -294    -1119    -1843    -2303    -2433    -2236    -1752 
   -1124     -466      196      778     1181     1391     1453     1354 
    1076      683      201     -259     -408     -161      259      609 
     770      674      262     -484    -1484    -2517    -3356    -3843 
   -3923    -3720    -3315    -2634    -1728     -793       24      640 
    1046     1331     1620     1880     1959     1866     1620     1114 
     356     -505    -1261    -1678    -1659    -1260     -581      180 
     763      980      762      180     -690    -1706    -2517    -2936 
   -3034    -2848    -2491    -2085    -1587    -1009     -409      261 
     954     1406     1395      947      146     -884    -1794    -2263 
   -2235    -1782    -1062     -296      371      854     1053     1043 
    1013      981      903      745      407      -57     -477     -822 
   -1136    -1423    -1656    -1810    -1887    -1719    -1161     -436 
     195      619      650      218     -537    -1465    -2321    -2877 
   -3192    -3375    -3446    -3414    -3144    -2479    -1424     -113 
    1152     2012     2318     2194     1797     1229      733      590 
     852     1334     1690     1675     1393     1044      699      416 
     331      532      931     1228     1152      683     -145    -1355 
   -2744    -3896    -4590    -4851    -4741    -4379    -3959    -3668 
   -3584    -3506    -3099    -2302    -1390     -572      214      975 
    1508     1794     2163     2801     3398     3526     3033     2049 
     790     -486    -1410    -1691    -1348     -548      566     1701 
    2386     2415     1820      601    -1024    -2636    -3956    -4840 
   -5242    -5226    -4922    -4509    -4068    -3481    -2510    -1051 
     694     2358     3608     4266     4288     3663     2562     1424 
     565      -34     -430     -538     -348     -201     -361     -593 
    -665     -656     -681     -827    -1142    -1664    -2430    -3345 
   -4212    -4774    -4768    -4156    -3125    -1875     -522      797 
    1808     2264     2203     1839     1288      670      246      218 
     598     1140     1449     1362      974      440     -113     -653 
   -1128    -1482    -1827    -2220    -2520    -2625    -2402    -1722 
    -769      154      832     1071      884      485      -55     -677 
   -1081    -1110     -950     -746     -520     -353     -317     -434 
    -733    -1121    -1424    -1560    -1592    -1692    -1916    -2116 
   -2133    -1903    -1415     -677      276     1253     1929     2092 
    1751     1011       64     -796    -1351    -1510    -1355    -1064 
    -689     -330     -149     -135     -212     -316     -369     -408 
    -525     -635     -511      -88      462      954     1304     1463 
    1290      677     -227    -1199    -2116    -2877    -3412    -3593 
   -3324    -2789    -2154    -1428     -777     -482     -611     -942 
   -1204    -1279    -1117     -699      -83      589     1116     1414 
    1670     2023     2323     2409     2215     1672      753     -493 
   -1837    -2908    -3477    -3496    -3017    -2330    -1797    -1474 
   -1348    -1475    -1678    -1712    -1511    -1080     -513       39 
     478      683      610      393       83     -390     -862    -1028 
    -845     -442      177     1023     1894     2533     2821     2704 
    2176     1351      341     -736    -1654    -2248    -2596    -2818 
   -2873    -2771    -2623    -2362    -1882    -1276     -726     -392 
    -322     -455     -750    -1200    -1737    -2240    -2619    -2857 
   -2963    -2890    -2504    -1667     -383     1157     2676     3917 
    4716     4948     4450     3296     1810      268    -1106    -2128 
   -2739    -3008    -3110    -3166    -3237    -3253    -2948    -2213 
   -1242     -248      618     1207     1407     1255      922      561 
     263      -13     -387     -755     -891     -796     -584     -247 
     203      644      953     1053      911      472     -300    -1323 
   -2404    -3313    -3983    -4382    -4399    -4082    -3505    -2672 
   -1691     -717      141      819     1277     1524     1724     1981 
    2239     2466     2629     2636     2390     1830     1077      330 
    -367    -1013    -1526    -1876    -2074    -2034    -1793    -1613 
   -1619    -1771    -2028    -2292    -2455    -2451    -2259    -1942 
   -1586    -1277    -1109    -1107    -1203    -1298    -1292    -1165 
    -936     -503      237     1144     1958     2570     2965     2978 
    2457     1534      456     -552    -1245    -1483    -1368    -1106 
    -783     -523     -597    -1067    -1715    -2264    -2523    -2486 
   -2220    -1778    -1233     -685     -274      -93     -178     -528 
    -976    -1301    -1466    -1429    -1030     -232      818     1790 
    2274     2181     1686      886     -103    -1088    -1875    -2289 
   -2354    -2193    -1814    -1297     -798     -450     -336     -384 
    -462     -489     -353       15      519      932     1123     1111 
     872      377     -232     -823    -1352    -1793    -2221    -2628 
   -2828    -2719    -2301    -1617     -810      -25      622      953 
     844      473      103     -250     -549     -679     -715     -794 
    -918    -1067    -1260    -1464    -1615    -1627    -1397     -956 
    -452       77      610      930      846      473      -59     -691 
   -1195    -1398    -1389    -1243     -965     -625     -256      153 
     535      842     1157     1501     1710     1699     1493     1020 
     318     -425    -1124    -1698    -2063    -2282    -2399    -2441 
   -2492    -2502    -2342    -2013    -1585    -1141     -784     -582 
    -514     -479     -427     -384     -296      -73      181      248 
      52     -341     -851    -1335    -1604    -1578    -1132     -163 
    1046     2000     2355     2049     1215       -9    -1291    -2184 
   -2523    -2438    -2141    -1802    -1531    -1313     -986     -457 
     313     1249     2019     2390     2412     2045     1171     -107 
   -1572    -2956    -3963    -4473    -4398    -3586    -2165     -485 
    1082     2057     2117     1397      197    -1244    -2495    -3093 
   -2992    -2382    -1399     -232      907     1842     2385     2527 
    2380     1921     1181      280     -714    -1574    -2030    -2111 
   -1975    -1660    -1235     -862     -639     -574     -623     -765 
   -1017    -1357    -1725    -2069    -2316    -2332    -2000    -1327 
    -398      694     1751     2483     2791     2757     2348     1544 
     483     -725    -1878    -2657    -2972    -2910    -2492    -1827 
   -1159     -640     -363     -383     -621     -954    -1279    -1474 
   -1459    -1293    -1089     -864     -624     -432     -301     -251 
    -324     -458     -534     -456     -177      240      631      834 
     840      735      518      264      118       55      -55     -333 
    -751    -1113    -1407    -1724    -1944    -1964    -1837    -1650 
   -1472    -1290    -1061     -799     -505     -203       53      192 
     161       93      186      419      704     1028     1302     1371 
    1123      579      -51     -538     -775     -810     -810     -858 
    -986    -1347    -1944    -2495    -2809    -2895    -2815    -2588 
   -2200    -1707    -1153     -484      238      732      763      392 
    -163     -710     -984     -748      -47      968     2048     2793 
    3038     2757     1901      684     -644    -1947    -2959    -3485 
   -3551    -3188    -2473    -1608     -831     -388     -396     -725 
   -1157    -1506    -1665    -1652    -1540    -1341    -1044     -736 
    -512     -299       48      474      721      691      561      451 
     386      478      790     1208     1495     1406      849     -138 
   -1405    -2637    -3554    -4045    -4063    -3651    -2974    -2113 
   -1125     -174      644     1258     1474     1272      895      519 
     241      173      325      638     1039     1395     1598     1644 
    1537     1182      504     -470    -1670    -2913    -3943    -4581 
   -4698    -4249    -3354    -2193     -946      225     1163     1719 
    1851     1577      859     -231    -1360    -2177    -2539    -2473 
   -2008    -1142        4     1219     2303     3094     3541     3500 
    2799     1578       88    -1441    -2651    -3284    -3365    -3024 
   -2437    -1833    -1308     -814     -373      -33      200      219 
     -72     -587    -1209    -1879    -2494    -2887    -2912    -2648 
   -2268    -1730     -991     -155      687     1456     2074     2456 
    2425     1832      764     -531    -1705    -2324    -2259    -1749 
    -976     -134      450      620      456      118     -255     -541 
    -562     -340      -45      421     1089     1678     2049     2180 
    1988     1512      792     -197    -1312    -2348    -3317    -4310 
   -5180    -5668    -5696    -5217    -4188    -2724    -1032      577 
    1747     2284     2239     1835     1214      375     -655    -1750 
   -2679    -3291    -3614    -3499    -2738    -1420      199     1769 
    2876     3286     3085     2571     2005     1500     1032      558 
     168      -66     -235     -428     -546     -426      -48      434 
     759      839      791      488     -309    -1446    -2614    -3725 
   -4764    -5563    -5840    -5431    -4363    -2861    -1209      469 
    1949     2782     2818     2367     1695      935      368      184 
     273      399      377      167     -342    -1306    -2534    -3618 
   -4371    -4758    -4652    -3851    -2260      -74     2276     4347 
    5786     6373     5913     4315     1984     -341    -2137    -3271 
   -3880    -4125    -4070    -3839    -3560    -3044    -1808      469 
    3574     6740     9165    10462    10354     8598     5408     1370 
   -2812    -6321    -8562    -9497    -9454    -8713    -7522    -6208 
   -4974    -3855    -2829    -1866     -946     -102      466      509 
     -11     -952    -2100    -3251    -4230    -4854    -4913    -4275 
   -2925     -922     1531     4018     5989     7057     7209     6518 
    5028     2991      894     -746    -1728    -2264    -2589    -2638 
   -2208    -1362     -481      124      334       25     -876    -2121 
   -3190    -3580    -2995    -1559      322     2369     4265     5585 
    6235     6340     5898     4836     3069      727    -1790    -4090 
   -5819    -6747    -6896    -6378    -5400    -4222    -2892    -1318 
     534     2523     4307     5600     6159     5566     3576      494 
   -3127    -6725    -9793   -11991   -12983   -12512   -10738    -8043 
   -4838    -1737      719     2388     3305     3574     3470     3294 
    3169     2974     2438     1463      253     -828    -1308     -832 
     570     2572     4768     6753     8189     8714     7967     6013 
    3365      607    -1803    -3549    -4382    -4315    -3760    -3236 
   -3156    -3658    -4469    -5178    -5446    -4966    -3580    -1420 
    1001     2906     3759     3625     2756     1145    -1038    -3137 
   -4634    -5523    -5938    -5865    -5361    -4733    -4234    -3865 
   -3391    -2456     -873     1264     3541     5242     5787     4962 
    2881      173    -2103    -2981    -2043      345     3319     6050 
    7809     8145     7043     4769     1886     -955    -3235    -4558 
   -5003    -4981    -4559    -3723    -2879    -2423    -2381    -2648 
   -3045    -3266    -3018    -2173     -812      827     2338     3142 
    2802     1311    -1054    -3859    -6546    -8640    -9726    -9378 
   -7538    -4684    -1408     1831     4575     6385     7023     6588 
    5499     4348     3557     3062     2560     1922     1238      496 
    -589    -2102    -3648    -4756    -5149    -4646    -3209    -1028 
    1589     4280     6663     8343     8785     7678     5447     2784 
     -46    -2910    -5366    -6945    -7532    -7328    -6684    -5957 
   -5261    -4545    -3941    -3579    -3263    -2608    -1322      605 
    2875     4965     6313     6560     5538     3286       93    -3580 
   -6949    -9154    -9898    -9219    -7159    -4027     -336     3398 
    6604     8819     9853     9728     8606     6704     4205     1329 
   -1580    -4120    -5792    -6176    -5217    -3074      -93     3053 
    5518     6601     6020     3905      722    -2678    -5478    -7274 
   -8026    -8004    -7635    -7242    -6921    -6645    -6412    -6057 
   -5274    -3951    -2139      107     2600     4892     6476     7045 
    6408     4516     1724    -1329    -3940    -5420    -5412    -4089 
   -2008        4     1172     1160       -3    -2040    -4384    -6278 
   -7004    -6256    -4264    -1551     1399     4226     6521     7917 
    8263     7538     5965     3977     1905       14    -1390    -2025 
   -1791     -934      213     1526     2842     3874     4429     4378 
    3696     2509      884    -1056    -2933    -4408    -5423    -6017 
   -6110    -5719    -5132    -4569    -4052    -3617    -3272    -2820 
   -1964     -650      846     2153     2932     2912     1916      -64 
   -2623    -5030    -6699    -7290    -6592    -4720    -2171      561 
    3099     4958     5827     5814     5082     3800     2282      726 
    -787    -2073    -3036    -3714    -4052    -3935    -3413    -2641 
   -1739     -955     -597     -770    -1395    -2184    -2616    -2276 
   -1102      742     2941     5015     6618     7626     7836     7051 
    5345     2987      304    -2435    -4982    -7025    -8324    -8710 
   -8112    -6750    -4954    -3011    -1313     -234       59     -377 
   -1192    -1843    -1972    -1518     -463     1075     2628     3672 
    3877     3218     2047      933      334      401     1171     2587 
    4215     5354     5420     4244     2116     -456    -2968    -4963 
   -6156    -6531    -6161    -5179    -3933    -2648    -1265      187 
    1421     2068     1986     1361      363     -827    -1756    -2027 
   -1657     -855      174     1187     1968     2419     2561     2498 
    2302     1975     1530     1039      621      355      225       14 
    -590    -1627    -2977    -4666    -6539    -8114    -9044    -9200 
   -8464    -6913    -4804    -2328      336     2903     5006     6384 
    6946     6608     5375     3511     1345     -791    -2518    -3634 
   -4196    -4379    -4342    -4201    -4065    -3878    -3509    -3024 
   -2563    -2174    -1868    -1670    -1532    -1203     -364     1107 
    3054     5101     6809     7775     7683     6431     4147     1211 
   -1673    -3830    -4889    -4800    -3782    -2091      -77     1674 
    2646     2700     2137     1359      625      244      377      812 
    1266     1513     1399      899       89     -847    -1703    -2404 
   -3002    -3502    -3791    -3874    -3862    -3786    -3639    -3374 
   -2855    -1945     -618      950     2438     3528     4053     4012 
    3430     2483     1506      640     -209    -1142    -2171    -3276 
   -4437    -5449    -5931    -5668    -4751    -3580    -2685    -2385 
   -2795    -3846    -5095    -5924    -5950    -5103    -3537    -1635 
     119     1396     2103     2351     2467     2678     2960     3335 
    3800     4250     4620     4813     4774     4601     4376     4034 
    3436     2593     1647      625     -502    -1654    -2702    -3649 
   -4608    -5495    -6155    -6680    -7112    -7279    -7084    -6593 
   -5943    -5159    -4058    -2463     -419     1806     3833     5367 
    6301     6504     5880     4807     3880     3303     3003     2912 
    2968     3072     3028     2671     2028     1265      564       14 
    -381     -548     -395      -45      256      252     -387    -1787 
   -3712    -5848    -7852    -9292    -9820    -9264    -7663    -5268 
   -2431      538     3341     5584     6968     7431     6908     5353 
    2987      172    -2612    -4753    -5950    -6370    -6288    -5942 
   -5574    -5253    -4850    -4261    -3409    -2293    -1167     -389 
    -160     -489    -1236    -2130    -2764    -2727    -1888     -457 
    1243     2917     4342     5429     6089     6205     5870     5271 
    4388     3216     1949      760     -344    -1410    -2363    -3110 
   -3654    -3884    -3612    -2842    -1642     -120     1434     2676 
    3344     3355     2796     1730      263    -1382    -2944    -4157 
   -4924    -5221    -4873    -3856    -2398     -636     1292     3014 
