Origin Time       2025/03/28 03:50:00
Lat.              35.403
Long.             140.360
Depth. (km)       54
Mag.              4.4
Station Code      KNG205
Station Lat.      34.9413
Station Long.     139.4213
Station Height(m) -1486
Record Time       2025/03/28 03:51:08
Sampling Freq(Hz) 100Hz
Duration Time(s)  71
Dir.              U-D
Scale Factor      2000(gal)/6182761
Max. Acc. (gal)   0.682
Last Correction   2025/03/28 03:51:08
Memo.             
[...]
      99      100       95       90       91       92       94       98 
      97       94       93       92       98      102       98      104 
     112      100       94      100       94       94      104      100 
      93      104      110      103       99      100      102      103 
     102      104      105      100      100      105      103       97 
      99      105      105      103      103      107      107      106 
     104      101      104      103      101      105      110      108 
     101       97       99      106      104       96      102      112 
     106      108      116      114      111      108      105      110 
     115      117      116      110      112      113      106      110 
     114      105      105      115      116      114      114      111 
     109      111      115      117      116      119      120      115 
     113      115      117      118      117      115      113      113 
     112      114      121      117      108      119      125      111 
     111      122      125      121      115      111      117      119 
     114      120      121      109      111      122      118      111 
     108      105      110      117      112      103       95       83 
      69       57       47       46       56       70       77       80 
      81       76       58       19      -38      -96     -127     -108 
     -40       53      137      184      207      221      216      211 
     241      306      404      505      551      515      407      267 
     145       34     -100     -222     -239     -106       93      235 
     299      345      354      217       -2     -111     -130     -196 
    -287     -276     -126       65      158       78      -73     -114 
      -2      153      212      203      261      317      267      185 
     128       69      -48     -207     -275     -202     -129     -182 
    -265     -177      104      364      391      211       13      -46 
      59      213      262      215      149       74        3      -59 
     -90      -27       58       -6     -134      -85      149      386 
     495      432      166     -277     -649     -657     -264      330 
     804      876      576      291      282      404      362       27 
    -410     -671     -670     -462     -183       40      194      318 
     435      510      459      252      -29     -249     -223      116 
     444      387      144      130      241      105     -353     -810 
    -829     -450     -128      -96     -240     -211      216      667 
     729      535      359      345      511      662      625      478 
     342      172      -84     -302     -345     -269     -207     -187 
    -136       26      259      322      145       36       83        4 
    -277     -502     -419      -88      194      230       40     -101 
     141      707     1116      958      418       85      122      165 
     -10     -292     -512     -548     -338       -1      190      120 
      37      141      185       -2     -151      -47      164      304 
     427      498      225     -323     -707     -735     -369      219 
     450      242      230      471      380       68      131      430 
     429      162       -8        5       94      241      418      510 
     533      609      582      217     -266     -502     -447     -294 
    -275     -415     -470     -256      193      612      652      386 
     219      174        0     -243     -319     -236     -153      -26 
     209      356      312      208       95      -94     -263      -91 
     280      134     -479     -806     -698     -303      315      656 
     374      -38      -90       47      174      334      438      544 
     858     1095      717     -153     -796     -844     -570     -240 
     154      426      258     -170     -407     -332     -120      -89 
    -279     -236      201      594      600      347      184      331 
     693      926      843      599      318     -102     -652     -957 
    -783     -443     -135      245      497      490      412      153 
    -429     -955     -972     -398      451     1008      888      219 
    -458     -503      126      519       97     -431     -435     -193 
      59      288      270      -45     -272      -64      411      725 
     760      660      384      -29     -166      146      510      530 
     291      141      156      149      -41     -370     -512     -254 
      77       31     -230     -158      217      323       87      -49 
       8      142      410      625      437     -140     -705     -730 
     -11      932     1255      795      235       -2     -166     -440 
    -565     -287      144      307      193      -29     -280     -434 
    -321       85      550      727      469       84       12      192 
     239      131       81      -40     -306     -309       37      186 
     -98     -460     -588     -300      407      944      782      247 
    -224     -588     -679     -352      173      627      822      691 
     424      259      214      123      -73     -186     -207     -283 
    -314     -281     -279      -33      500      744      542      321 
     137     -200     -508     -520     -295     -126     -172     -284 
    -355     -380     -181      222      529      798     1169     1252 
     739      -10     -528     -738     -703     -522     -361     -201 
      81      395      500      360      240      253      202       40 
    -102     -149      -39      158      218      187      250      269 
     156      109      148      129       40      -64     -170     -261 
    -234      -73       57       67      102      316      568      510 
      68     -392     -445      -19      524      807      763      430 
     -52     -295     -104      201      231       32     -194     -433 
    -530     -332     -128      -27      208      359      151      -71 
       1      242      439      376       31     -247     -141      190 
     265      -29     -318     -374     -135      307      522      443 
     393      212     -324     -737     -607     -246       22      300 
     555      522      206     -123     -260      -76      419      812 
     795      600      266     -337     -631     -112      588      680 
     402      346      371      104     -301     -598     -719     -604 
    -363      -60      414      834      813      453       84     -189 
    -335     -327     -283     -337     -464     -432      -41      430 
     601      559      459      348      339      329      142      -48 
      -4      157      171       -5     -245     -454     -464     -157 
     251      458      374      178      121      196      272      290 
     215       18     -226     -276       -8      384      671      675 
     283     -262     -505     -366     -210     -192      -29      291 
     318      -71     -516     -722     -594     -115      510      907 
     902      607      124     -454     -741     -442      122      493 
     533      319      135      220      501      704      521      -22 
    -463     -492     -243       -3      140      287      472      665 
     757      551       34     -536     -766     -522     -172       18 
     102       64        9       84        1     -331     -344      122 
     331     -160     -714     -623     -117      256      395      403 
     366      411      501      452      292      217      245      211 
      49     -169     -362     -412     -208      163      483      632 
     631      529      307      -50     -435     -667     -625     -323 
      40      158      -16     -134      -10      153      246      304 
     280      209      238      369      444      346       73     -247 
    -395     -265       -2      194      321      383      338      312 
     303      149      -83      -89      325      723      556       90 
    -261     -560     -723     -588     -256      182      586      688 
     463      112     -270     -534     -401       91      545      657 
     357     -166     -538     -565     -342      -55      233      519 
     628      423       72      -97      120      521      678      497 
     162     -242     -616     -724     -462      -62      176      298 
     430      479      404      276      146       81      139      265 
     251       67      -33      -21     -137     -342     -296       37 
     214      -29     -410     -525     -252      221      582      585 
     264      -21      -38      155      453      639      557      381 
     242        9     -363     -619     -500     -136      203      416 
     401      125     -169     -204        5      151       -6     -263 
    -250       84      483      659      538      317      195      178 
      96     -171     -416     -379     -168       10      155      259 
     277      253      216      196      267      361      321       85 
    -239     -442     -426     -252       17      307      424      253 
     -26     -117       61      187      -28     -300     -253       77 
     433      554      380      101      -40       84      372      609 
     627      369       -9     -297     -441     -433     -261      -41 
      94      174      229      186       25     -221     -397     -297 
     -18      232      463      623      590      454      345      272 
     147     -109     -404     -507     -257      184      444      376 
     195      178      264      156     -196     -516     -513     -273 
    -134      -81       99      238      130      -14        9      102 
     201      341      489      546      393       69     -207     -266 
    -100      147      344      500      503      194     -205     -384 
    -426     -451     -334      -75      135      185       77     -110 
    -155       44      211      180      235      475      622      540 
     202     -277     -452      -78      470      636      375      172 
     251      322      146     -163     -297      -85      180       98 
    -203     -284      -61      170      151     -110     -375     -392 
    -124      210      393      425      360      256      180       64 
    -111     -165      -36       97       95       70      143      186 
     145       91      -57     -212     -107      205      399      242 
    -218     -641     -605     -111      323      439      522      732 
     875      812      572      209      -93     -176     -217     -343 
    -416     -365     -165      177      464      535      487      398 
     172      -87      -95      108      165      -84     -347     -306 
     -64      154      310      407      430      368      238       35 
    -303     -646     -695     -458     -143      127      178       15 
      -8      222      422      463      441      353      152      -67 
    -183     -204     -159      -60       16       -7      -87      -88 
     100      385      550      496      282      -12     -281     -368 
    -312     -336     -414     -301       56      518      850      874 
     756      639      394      106       41      149      125     -130 
    -364     -288      119      542      593      337      157       58 
    -141     -338     -464     -604     -772     -818     -561      -89 
     285      347      221      249      453      507      316      137 
     216      471      608      503      284      111       36      -20 
    -137     -284     -330     -240     -211     -336     -462     -483 
    -319       66      457      597      545      499      465      352 
     124      -97      -98        5      -18       -9      177      394 
     560      694      647      381      110     -168     -557     -741 
    -352      402      894      749      229     -143     -221     -124 
      65      133      -41     -247     -344     -338     -172       82 
     181       31     -164      -65      357      636      420      -72 
    -455     -484     -102      373      568      408      -27     -486 
    -634     -386       41      343      350       56     -416     -788 
    -692      -36      770     1225     1194      942      720      417 
     -37     -428     -562     -460     -277      -45      187      156 
    -105     -145      224      637      671      366      -27     -437 
    -680     -469      105      574      487      -99     -594     -644 
    -349      143      502      434      221      205      193       14 
     -72      135      482      690      668      508      166     -325 
    -615     -557     -368     -146      157      398      439      358 
     182     -106     -268      -25      427      577      404      273 
     155      -92     -255     -145      146      366      353      224 
     156      202      292      276      128       17       68      192 
     189      -19     -355     -636     -684     -621     -618     -451 
      28      456      482      269      159      122       46       63 
     131       26     -209     -199      274      784      885      830 
     862      778      445      -51     -471     -544     -344     -196 
    -153       18      370      682      791      630      142     -459 
    -702     -430      155      709      720      127     -405     -520 
    -514     -572     -578     -412      -69      413      862      891 
     432      -84     -265      -60      224      287      190       35 
    -189     -335     -317     -313     -395     -471     -519     -416 
     -16      489      684      340     -260     -565     -435     -131 
     223      625      890      794      363     -264     -843     -986 
    -675     -215      484     1509     2195     1974     1114       -3 
   -1037    -1417     -922       11      700      778      535      425 
     412      305      151     -127     -633    -1088    -1178     -896 
    -382      121      320      240      224      268       63     -245 
    -231      141      505      467       99     -219     -384     -410 
    -237       86      431      634      635      547      442      362 
     375      413      300      -39     -516    -1013    -1278     -898 
     109     1153     1668     1504      882       22     -831    -1179 
    -876     -364      135      610      756      452       38     -238 
    -355     -252       82      384      355      146       97      169 
     104     -153     -318     -133      247      603      860      871 
     595      204     -247     -789    -1180    -1166     -886     -409 
     357     1064     1403     1581     1581     1040       57     -826 
   -1238     -977     -144      576      643      336      128       93 
     122      152       89      -71     -219     -423     -787    -1092 
   -1013     -525       82      386      124     -321     -197      508 
    1008      826      253     -165     -104      386      773      563 
      79      -16      443     1085     1239      577     -433    -1062 
    -952     -317      296      585      642      602      422       60 
    -270     -331     -232     -276     -599     -991    -1059     -589 
     227      836      721      -18     -653     -645     -122      459 
     673      410       27      -30      303      766     1114     1122 
     649     -107     -726     -732        0      747      722       77 
    -654    -1101     -860       25      795      824      107     -924 
   -1556    -1291     -276      970     1876     1921      978     -373 
   -1299    -1337     -572      455     1106     1105      670      320 
     417      678      495     -158     -649     -543      -64      264 
     204      -93     -441     -728     -822     -640     -128      701 
    1397     1330      490     -646    -1459    -1301     -329      457 
     566      394      420      611      606      301     -117     -449 
    -496     -275        0      239      364      305      300      494 
     574      338      -86     -582     -952     -908     -446      215 
     813      994      716      448      503      643      442     -230 
   -1050    -1459    -1081     -108      833     1321     1325      936 
     255     -481     -884     -841     -670     -626     -568     -226 
     342      822      990      729       88     -522     -622     -198 
     321      555      379     -133     -663     -832     -582      -72 
     555      964      824      333     -152     -497     -474      -50 
     373      587      711      754      567      143     -180     -164 
     -19       96      229      288      179      -11     -193     -346 
    -325       11      352      308       44      -77       86      444 
     656      480       70     -256     -316     -184      -18      162 
     222      -79     -536     -569      -18      604      820      746 
     654      504      221      -46     -151     -169     -218     -232 
    -153      -43       89      155      -32     -395     -662     -721 
    -639     -406       50      436      387      164      173      247 
     215      370      725      791      401     -145     -603     -728 
    -338      268      641      614      185     -401     -842     -994 
    -701      -12      744     1303     1538     1404      860       33 
    -710    -1109    -1089     -686     -108      411      698      682 
     521      404      400      504      570      455      249      117 
     134      296      364        2     -538     -653     -316       61 
     261      206     -122     -460     -510     -328     -141        1 
     190      377      425      367      273      149       93      169 
     231      117     -117     -322     -458     -527     -393       56 
     585      841      839      723      478      183      -19      -80 
     -11       58      -13     -184     -339     -500     -689     -653 
    -211      360      665      515       51     -343     -419     -142 
     388      891     1138     1080      789      418       49     -301 
    -474     -257      227      494      287     -195     -711    -1026 
    -747       86      813      959      600       16     -546     -818 
    -557       96      657      750      345     -127     -166      235 
     615      481     -102     -554     -503      -56      333      262 
    -157     -537     -623     -293      280      614      426     -137 
    -685     -779     -321      270      504      274     -152     -394 
    -252      136      431      477      398      202     -168     -438 
    -335      -32      152      195      251      403      609      752 
     795      719      391     -209     -803    -1007     -733     -218 
     321      676      659      424      308      381      328     -131 
    -615     -474      188      716      747      271     -482    -1015 
    -861      -63      830     1241      938       99     -820    -1320 
   -1082     -281      532      964      975      876      861      677 
     269      -78     -279     -394     -524     -692     -686     -392 
      77      518      641      431      182       -2      -36      217 
     430      256       28      175      574      842      773      401 
    -180     -740     -855     -471      -16      280      386      182 
    -321     -847     -993     -614      -73      282      424      311 
     -51     -484     -727     -545       19      669     1127     1217 
     958      492       29     -131       78      345      332       42 
    -222     -284     -237     -218     -179      103      530      704 
     609      496      380      173      -68     -177        0      321 
