Origin Time       2025/03/28 03:50:00
Lat.              35.403
Long.             140.360
Depth. (km)       54
Mag.              4.4
Station Code      KNG202
Station Lat.      34.7396
Station Long.     139.8393
Station Height(m) -2339
Record Time       2025/03/28 03:51:04
Sampling Freq(Hz) 100Hz
Duration Time(s)  67
Dir.              E-W
Scale Factor      2000(gal)/6182761
Max. Acc. (gal)   3.871
Last Correction   2025/03/28 03:51:04
Memo.             
[...]
     468      464      469      474      456      450      462      461 
     464      476      475      469      464      462      469      475 
     465      457      467      467      452      451      456      451 
     450      456      463      467      462      463      474      466 
     451      455      462      455      452      459      456      452 
     458      462      460      450      443      456      458      446 
     450      456      453      448      446      451      450      449 
     452      456      457      453      454      461      456      447 
     445      451      453      447      451      459      454      452 
     456      454      449      450      453      451      446      448 
     455      456      453      453      448      440      442      442 
     441      453      451      448      454      448      444      444 
     440      442      447      453      451      445      451      451 
     449      458      458      453      456      455      452      456 
     458      455      449      442      439      445      454      459 
     460      462      464      465      463      455      453      459 
     461      461      463      461      453      448      451      456 
     457      456      455      459      466      461      453      457 
     462      456      450      452      451      448      452      452 
     449      453      458      461      460      458      455      449 
     450      451      444      451      464      457      450      458 
     462      453      454      462      460      455      451      453 
     459      453      445      452      456      454      458      454 
     447      452      454      452      453      453      451      444 
     437      439      444      446      446      443      440      450 
     457      454      456      455      455      469      471      452 
     454      463      461      475      477      460      464      474 
     472      473      466      442      428      439      456      463 
     453      436      428      430      439      449      453      449 
     454      495      557      590      579      538      472      388 
     288      206      175      189      257      381      530      657 
     740      773      724      593      439      315      239      212 
     232      291      411      595      746      798      778      694 
     546      337       83     -131     -218     -135      108      416 
     718      986     1166     1218     1151      968      662      331 
      74     -132     -242     -171       12      207      387      545 
     689      786      778      713      648      555      470      493 
     600      667      636      515      340      115     -164     -391 
    -435     -269       46      451      912     1331     1596     1667 
    1547     1263      852      361     -136     -551     -817     -888 
    -718     -297      311      948     1430     1720     1843     1774 
    1526     1174      780      337     -169     -656    -1015    -1181 
   -1088     -726     -151      566     1300     1887     2245     2306 
    1988     1375      622     -185     -872    -1252    -1322    -1139 
    -735     -167      504     1228     1830     2121     2111     1821 
    1251      586        4     -451     -692     -644     -357      127 
     743     1277     1597     1716     1534     1008      294     -500 
   -1267    -1746    -1716    -1195     -348      706     1805     2588 
    2836     2621     2002     1099      182     -573    -1051    -1175 
   -1059     -883     -690     -477     -223      150      608     1000 
    1255     1388     1416     1339     1168      941      679      391 
     159       16     -139     -295     -286      -96      130      309 
     450      611      801      898      863      833      832      675 
     225     -334     -683     -749     -485      203     1096     1833 
    2226     2173     1647      841       47     -622    -1061    -1121 
    -954     -779     -505      -23      586     1230     1852     2341 
    2510     2225     1544      662     -164     -748    -1045     -960 
    -502       29      504      934     1134     1082      972      834 
     681      659      782      938     1110     1274     1243      904 
     335     -370    -1003    -1260    -1060     -474      433     1381 
    1914     1891     1476      747     -130     -773     -938     -656 
     -81      610     1177     1382     1209      804      351        6 
    -223     -290      -96      229      529      799     1014     1111 
    1038      842      668      627      737      939     1158     1339 
    1271      792      106     -617    -1360    -1851    -1844    -1454 
    -781      101      943     1590     2057     2321     2310     2058 
    1662     1046      146     -805    -1520    -1895    -1876    -1430 
    -663      248     1190     2026     2620     2946     2920     2461 
    1733      886       -1     -683    -1019    -1080     -913     -563 
     -90      398      730      870      895      821      665      551 
     531      410      116     -162     -331     -363     -152      285 
     755     1013      986      844      669      422      218      100 
     -84     -355     -570     -613     -487     -246      126      620 
    1067     1340     1494     1523     1348      989      481      -57 
    -403     -465     -230      236      720     1074     1192     1002 
     694      522      522      656      935     1275     1477     1416 
    1124      704      261     -105     -280     -212       62      470 
     856     1058     1092     1022      893      801      710      550 
     402      211     -123     -417     -525     -445     -146      281 
     665      909      940      761      467      158     -152     -433 
    -499     -258      168      711     1267     1552     1426      988 
     349     -323     -774     -855     -617     -164      513     1249 
    1679     1699     1347      699       38     -409     -526     -253 
     196      522      606      417       67     -245     -387     -142 
     582     1485     2310     2955     3135     2621     1544      193 
   -1187    -2261    -2703    -2512    -1912    -1108     -303      298 
     638      858     1108     1417     1840     2379     2797     2938 
    2906     2619     1909      996      101     -790    -1520    -1886 
   -1952    -1793    -1411     -915     -365      244      777     1119 
    1308     1375     1356     1383     1506     1623     1636     1434 
     911       98     -832    -1678    -2207    -2120    -1358     -231 
     922     1775     2002     1591      856      191      -26      384 
    1231     2183     2924     3152     2766     1876      686     -512 
   -1467    -2042    -2160    -1886    -1387     -822     -315      144 
     594      962     1197     1275     1131      857      662      604 
     674      872     1000      902      684      475      408      584 
     914     1228     1369     1182      624      -54     -514     -687 
    -536       16      754     1353     1667     1667     1390      957 
     549      299      285      488      757     1035     1326     1451 
    1243      760      143     -497    -1004    -1142     -821     -242 
     341      736      824      684      422       85     -150      -83 
     319      969     1685     2195     2252     1795      975      -12 
    -962    -1566    -1618    -1232     -600      117      662      885 
     864      685      480      458      594      697      709      577 
     211     -289     -696     -875     -824     -606     -247      225 
     660      884      939      959      941      938     1068     1291 
    1482     1540     1431     1233     1011      783      590      395 
     133     -116     -265     -301      -73      467      964     1198 
    1326     1311     1049      731      490      322      307      420 
     455      319       45     -378     -826    -1057    -1007     -679 
     -96      507      905     1037      921      666      364       77 
     -47       58      271      479      709      994     1219     1292 
    1301     1276     1128      868      598      364      171       28 
    -130     -355     -546     -698     -868     -851     -509       42 
     709     1357     1787     1927     1766     1335      750      138 
    -391     -766     -952     -901     -625     -167      423      968 
    1288     1396     1350     1124      796      556      445      377 
     333      380      547      819     1136     1358     1431     1337 
     989      498       57     -310     -493     -367      -43      375 
     820     1155     1337     1319      983      432     -118     -644 
   -1117    -1271     -943     -326      399     1141     1624     1667 
    1361      785      174      -99       33      450     1009     1457 
    1655     1572     1207      698      151     -368     -693     -746 
    -632     -419      -72      286      439      440      445      457 
     526      757     1082     1385     1573     1518     1235      814 
     202     -533    -1093    -1313    -1232     -809       -6      869 
    1407     1455     1012      228     -585    -1018     -740       80 
     964     1629     1920     1749     1232      676      396      404 
     571      890     1201     1259     1043      623      143     -197 
    -295      -71      422      878     1163     1368     1444     1367 
    1266     1132      895      639      292     -384    -1289    -2064 
   -2558    -2703    -2312    -1360     -110     1141     2142     2658 
    2659     2322     1773     1141      617      333      318      489 
     742     1000     1218     1423     1532     1407     1131      774 
     269     -290     -718     -913     -884     -727     -429       66 
     595      944     1077     1037      864      692      713      909 
    1142     1378     1519     1367      899      270     -375     -872 
   -1061     -876     -365      282      775      836      425     -202 
    -790    -1128     -941     -178      854     1739     2171     2053 
    1528      855      220     -206     -235      110      637     1181 
    1491     1292      546     -476    -1387    -1950    -2024    -1477 
    -437      723     1709     2318     2413     2040     1408      783 
     353      230      506      951     1190     1196     1019      657 
     266      -68     -368     -560     -594     -519     -315      129 
     804     1553     2293     2916     3130     2859     2281     1431 
     419     -456    -1120    -1622    -1868    -1874    -1810    -1732 
   -1594    -1325     -921     -516     -129      390      976     1435 
    1783     1971     1802     1332      706      -57     -787    -1191 
   -1199     -887     -241      612     1346     1826     2061     2072 
    1983     1888     1827     1908     2134     2283     2076     1369 
     295     -847    -1753    -2091    -1690     -765      257     1056 
    1459     1378      934      468      259      334      599      929 
    1070      781      124     -712    -1616    -2315    -2432    -1901 
    -905      403     1737     2633     2876     2603     2003     1328 
     820      478      321      376      380      177      -52     -242 
    -439     -546     -450      -90      477     1012     1422     1758 
    1889     1732     1456     1084      521      -49     -453     -749 
    -892     -936    -1131    -1437    -1705    -1850    -1543     -616 
     658     2093     3544     4585     4847     4315     3159     1608 
     -44    -1427    -2152    -2028    -1211       -1     1299     2337 
    2828     2660     1909      788     -542    -1946    -3074    -3598 
   -3453    -2607    -1131      628     2312     3599     4240     4306 
    3948     3179     2114      890     -493    -1880    -2861    -3205 
   -3002    -2348    -1318     -139      911     1681     2139     2240 
    1876     1045      -42    -1050    -1642    -1592     -804      630 
    2223     3382     3918     3873     3288     2356     1363      426 
    -405     -958    -1226    -1403    -1563    -1742    -1987    -2149 
   -1944    -1212      -60     1140     1786     1371        8    -1575 
   -2388    -1549     1088     4571     7468     8636     7462     4203 
     124    -3279    -4920    -4424    -2474     -215     1533     2183 
    1536       39    -1786    -3614    -4980    -5520    -5226    -4042 
   -1796     1287     4479     7183     9150     9920     9007     6560 
    3126     -612    -3642    -5113    -5010    -3943    -2556    -1362 
    -710     -483     -153      581     1588     2545     3087     2995 
    2326     1388      667      618     1168     1697     1781     1481 
     822     -195     -915     -504      838     2330     3495     3792 
    2838      957    -1182    -2704    -2802    -1575       79     1270 
    1364       81    -2154    -4425    -5905    -6045    -4683    -2080 
    1204     4361     6492     6917     5380     2066    -2284    -6311 
   -8648    -8691    -6684    -3320      470     3712     5871     6846 
    6741     6057     5314     4510     3604     2799     2092     1307 
     464     -272     -697     -664     -351      -93       63      153 
      48      -93      206     1016     2025     2949     3340     2918 
    2013      920     -149     -570       23     1206     2292     2724 
    2092      358    -1954    -4069    -5295    -5183    -3845    -1948 
    -378       93     -772    -2534    -4168    -4513    -2995      313 
    4687     8826    11643    12411    10593     6383      791    -4853 
   -9198   -11241   -10909    -8937    -5995    -2608      373     2285 
    3188     3282     2509     1058     -463    -1543    -1947    -1722 
   -1163     -399      593     1607     2321     2576     2534     2487 
    2523     2809     3571     4513     5012     4688     3470     1623 
    -229    -1497    -1857    -1316     -359      419      721      533 
     390     1120     2870     5118     7126     7810     6232     2534 
   -2052    -6008    -8110    -7660    -4858     -888     2828     5381 
    6428     6140     5187     4187     3270     2278      966     -899 
   -3227    -5498    -7140    -7627    -6516    -4118    -1482      493 
    1310      684    -1053    -2644    -2759    -1041     1820     4590 
    6028     5450     3134       51    -2722    -4423    -5017    -5156 
   -5493    -6083    -6269    -5198    -2572     1136     4919     7656 
    8714     8210     6757     5273     4508     4496     4848     5181 
    5188     4756     3902     2889     2120     1479      739      178 
    -108     -325     -382     -265     -359     -808    -1506    -2558 
   -3878    -5018    -5557    -5082    -3378     -766     2112     4419 
    5211     4114     1541    -1787    -4904    -6741    -6775    -5186 
   -2500      504     2927     4067     3613     1923     -160    -1911 
   -2680    -2083     -449     1628     3646     5176     5985     5846 
    4546     2340     -134    -2337    -3909    -4552    -4236    -3443 
   -2668    -1967    -1196     -156     1396     3479     5727     7736 
    9279    10037     9562     7461     3801     -772    -5362    -8762 
   -9904    -8650    -5541    -1635     1617     3176     2732      724 
   -1681    -3344    -3589    -2108      635     3428     5168     5306 
    3813     1301    -1018    -1839     -387     3006     6967     9985 
   10829     8688     4029    -1406    -5814    -7907    -7119    -3980 
     195     3996     6274     6447     4667     1531    -2204    -5610 
   -7782    -8283    -7153    -4775    -1980      333     1718     2003 
    1358      520      118      190      693     1617     2610     3206 
    3294     3020     2313     1070     -304    -1345    -1877    -1599 
    -413     1186     2607     3344     3031     1761      -45    -1955 
   -3631    -4802    -5204    -4644    -3132     -869     1909     4798 
    7063     8091     7594     5523     2442     -609    -2859    -3886 
   -3511    -2133     -471      968     1735     1566      751     -247 
   -1158    -1648    -1325     -272     1040     2364     3547     4344 
    4578     4094     2945     1406     -415    -2438    -4321    -5601 
   -5949    -5317    -3932    -2278     -949     -269     -119      -98 
     251     1199     2671     4302     5630     6179     5608     4006 
    1905     -123    -1648    -2245    -1778     -668      499     1329 
    1579     1194      372     -480     -948     -874     -252      918 
    2368     3758     5088     6187     6528     6002     4832     3056 
     870    -1333    -3277    -4615    -5170    -5127    -4594    -3839 
   -3298    -2991    -2722    -2326    -1678     -788      443     2068 
    3592     4433     4436     3436     1405     -986    -2998    -4328 
   -4686    -3897    -2315     -575      889     1934     2464     2541 
    2529     2705     3070     3445     3552     3328     2869     2257 
    1839     1976     2522     3052     3248     2960     2108      650 
   -1218    -3039    -4309    -4710    -4208    -2872    -1039      522 
    1130      634     -643    -2047    -2793    -2336     -657     1821 
    4390     6246     6799     5850     3819     1552     -332    -1503 
   -1750    -1261     -669     -466     -561     -693     -716     -433 
     203      965     1642     2138     2402     2537     2841     3406 
    3921     3997     3305     1660     -622    -2786    -4202    -4554 
   -3745    -2165     -621      346      564     -155    -1709    -3460 
   -4899    -5835    -5946    -4966    -2935     -120     2857     5354 
    7113     7877     7319     5641     3522     1446     -448    -1949 
   -2769    -3017    -3083    -2925    -2198     -944      606     2238 
    3457     3909     3768     3225     2428     1802     1583     1490 
    1317     1055      569       -8     -288     -200       76      229 
     -83     -831    -1677    -2326    -2556    -2142    -1019      551 
    2288     4068     5481     5955     5345     3849     1771     -338 
   -1825    -2475    -2646    -2719    -2794    -2952    -3242    -3412 
   -3211    -2784    -2278    -1582     -593      834     2758     4771 
    6314     6980     6403     4577     2202      205     -831     -626 
     711     2414     3556     3697     2838     1286     -202     -795 
    -377      494     1256     1550     1144      139     -919    -1459 
   -1474    -1483    -1907    -2916    -4533    -6301    -7428    -7419 
   -6133    -3751     -938     1541     3283     4074     3774     2596 
    1036     -438    -1420    -1522     -603     1005     2832     4582 
    5959     6724     6893     6573     5896     5084     4327     3663 
    2990     2110      831     -854    -2744    -4582    -5988    -6475 
   -5873    -4388    -2232      271     2577     4294     5216     5076 
    3685     1246    -1590    -3991    -5307    -5253    -3927    -1857 
      23      934      826      155     -454     -291     1046     3291 
    5676     7391     7860     6757     4252     1072    -2003    -4390 
   -5685    -5822    -5059    -3799    -2385     -984      361     1627 
    2726     3628     4413     4958     5108     4986     4637     4041 
    3413     2940     2723     2761     2696     2183     1196     -279 
   -2275    -4530    -6587    -8177    -9058    -8823    -7456    -5396 
   -3019     -738      942     1871     2320     2605     2841     3029 
