Origin Time       2025/03/28 03:50:00
Lat.              35.403
Long.             140.360
Depth. (km)       54
Mag.              4.4
Station Code      KNG203
Station Lat.      34.7983
Station Long.     139.6435
Station Height(m) -902
Record Time       2025/03/28 03:51:06
Sampling Freq(Hz) 100Hz
Duration Time(s)  60
Dir.              E-W
Scale Factor      2000(gal)/6182761
Max. Acc. (gal)   4.166
Last Correction   2025/03/28 03:51:06
Memo.             
[...]
     126      112      105      105      102       88       77       81 
      87       88       90       99      118      134      128      106 
      92       87       74       64       65       61       45       30 
      26       32       49       85      126      153      165      163 
     133       96       89       98       96       94       77       52 
      52       70       98      139      171      178      159      125 
     105      125      182      260      339      375      342      255 
     143       48       -5       -9       28       37      -55     -217 
    -343     -359     -286     -136       94      294      367      357 
     323      277      249      272      309      308      283      260 
     244      240      283      357      386      342      247       93 
    -156     -459     -673     -734     -715     -657     -573     -505 
    -431     -276       17      430      831     1073     1096      921 
     642      412      310      289      287      272      212       76 
    -109     -295     -443     -531     -597     -650     -623     -515 
    -325      -25      281      451      474      469      533      628 
     711      769      747      586      234     -324     -921    -1258 
   -1198     -805     -195      410      757      853      912     1047 
    1187     1225     1091      776      359      -67     -439     -720 
    -880     -851     -566     -111      229      243        1     -268 
    -329      -95      285      599      738      672      408       38 
    -238     -242       45      414      575      421       -6     -603 
   -1060    -1072     -707     -212      225      449      500      602 
     820     1037     1121      973      624      285      134      111 
     -17     -501    -1318    -2019    -2164    -1713     -866       67 
     811     1293     1559     1663     1550     1154      626      128 
    -341     -776    -1113    -1234     -967     -247      615     1057 
     802       99     -503     -555      -40      619      977      994 
     905      828      683      361     -117     -541     -654     -431 
    -156     -145     -504    -1095    -1537    -1479     -911      -15 
     925     1564     1742     1488      860       22     -611     -561 
     245     1246     1585      866     -545    -1882    -2420    -1860 
    -554      842     1822     2168     1958     1357      484     -400 
    -964    -1068     -825     -552     -482     -579     -638     -422 
     106      673      908      678      185     -298     -566     -446 
      60      719     1234     1364      996      212     -705    -1379 
   -1554    -1215     -533      276      964     1276     1186      825 
     267     -247     -328      135      870     1437     1548     1228 
     641      -49     -689    -1156    -1361    -1288     -964     -452 
      -7       -7     -583    -1362    -1700    -1289     -291      960 
    1983     2352     2055     1355      555      -66     -387     -539 
    -772    -1246    -1797    -1956    -1399     -193     1318     2640 
    3331     3190     2252      755     -816    -1820    -1877    -1204 
    -384       47     -206     -941    -1381     -916      245     1405 
    1870     1382      476      -46      156      842     1258      713 
    -681    -2113    -2659    -1878     -162     1519     2202     1516 
     -19    -1443    -1921    -1034      904     2969     4170     3949 
    2505      515    -1333    -2447    -2587    -2071    -1423     -980 
    -798     -725     -576     -280      102      424      624      858 
    1157     1235      913      289     -463    -1010    -1006     -537 
     -37      134     -165     -692     -803     -118     1063     2146 
    2557     2029      776     -729    -1865    -2049    -1240       49 
    1150     1474      790     -528    -1785    -2396    -2052     -859 
     680     1940     2446     2123     1295      398     -179     -186 
     281      822     1049      836      274     -487    -1219    -1672 
   -1689    -1184     -253      739     1364     1370      894      366 
     107      179      471      701      611      182     -399     -824 
    -877     -691     -572     -570     -567     -555     -537     -489 
    -449     -446     -338      165     1147     2266     3005     2933 
    1881      193    -1355    -2055    -1694     -637      454      971 
     541     -690    -2049    -2810    -2539    -1221      745     2672 
    3773     3588     2174       14    -1999    -2992    -2733    -1628 
    -289      760     1190     1057      724      354      -83     -391 
    -276      320     1238     2180     2763     2634     1628      -16 
   -1671    -2661    -2611    -1703     -560      260      514      317 
     170      524     1259     1870     1878     1102      -85    -1015 
   -1303    -1015     -565     -297     -212     -273     -498     -790 
   -1010    -1012     -665       39      909     1525     1451      637 
    -484    -1260    -1219     -496      299      696      623      346 
     305      716     1364     1787     1565      564     -952    -2328 
   -2797    -2088     -634      792     1511     1357      828      656 
    1207     2184     2803     2451     1174     -449    -1705    -2098 
   -1568     -478      565      934      308     -993    -2147    -2392 
   -1453      299     1946     2515     1710      122    -1337    -1900 
   -1297      -39     1084     1568     1315      709      243       50 
     -61     -412    -1086    -1775    -2131    -1989    -1339     -388 
     512     1157     1574     1856     2008     1915     1509      942 
     486      311      346      326      -25     -749    -1519    -1838 
   -1413     -308     1058     1975     1955     1138        8     -904 
   -1128     -572      339      976      932      225     -738    -1370 
   -1317     -792     -363     -406     -886    -1404    -1351     -347 
    1391     3039     3673     2960     1291     -521    -1665    -1818 
   -1199     -256      596     1062     1054      738      299     -196 
    -584     -653     -379       39      276       97     -425     -943 
   -1187    -1123     -711       72      938     1438     1346      671 
    -413    -1413    -1721    -1206     -242      749     1449     1753 
    1826     1792     1602     1182      474     -396    -1025    -1043 
    -503       59      111     -439    -1239    -1641    -1184       -2 
    1343     2092     1796      774     -308     -914     -785     -171 
     317      238     -459    -1396    -1960    -1813     -992      274 
    1468     1958     1524      499     -530     -992     -594      383 
    1297     1660     1327      565     -103     -291       92      693 
     884      500      -54     -390     -303      156      533      497 
     110     -486    -1049    -1324    -1283     -956     -305      592 
    1446     1884     1682      942       -7     -803    -1196    -1165 
    -873     -504     -139      210      463      526      446      313 
     101     -165     -338     -341     -168      173      618      973 
     991      638       76     -466     -689     -420      178      675 
     684      108     -794    -1406    -1068      312     2067     3183 
    2864     1086    -1279    -2983    -3095    -1547      834     2812 
    3322     2078     -243    -2465    -3450    -2683     -687     1406 
    2541     2135      523    -1198    -2012    -1572     -324      945 
    1708     1826     1510     1067      568        9     -562    -1048 
   -1253    -1095     -730     -336      -15      182      247      160 
     -62     -273     -277       12      477      869     1020      888 
     469     -158     -784    -1173    -1162     -712       86      987 
    1549     1442      736     -244     -979     -962     -241      625 
    1106      973      357     -342     -747     -713     -402      -83 
     191      493      843     1249     1550     1471      976      230 
    -573    -1217    -1569    -1664    -1592    -1342     -862     -195 
     612     1470     2082     2158     1656      724     -266     -883 
   -1009     -834     -580     -328      -19      313      471      307 
    -166     -738    -1021     -753      -11      926     1687     1974 
    1757     1109      189     -623     -996     -927     -735     -761 
    -992    -1151     -943     -171     1006     1987     2228     1698 
     730     -248     -880    -1088     -992     -717     -491     -597 
   -1001    -1300    -1108     -290      946     2029     2440     2125 
    1424      767      385      208        4     -389     -880    -1252 
   -1415    -1355    -1041     -476      361     1342     2084     2262 
    1771      750     -288     -766     -528      119      583      360 
    -518    -1559    -2202    -2036     -992      578     2030     2680 
    2207      818     -941    -2288    -2460    -1280      687     2396 
    2806     1618     -509    -2444    -3136    -2253     -448     1227 
    1937     1411      151    -1001    -1404     -831      339     1437 
    2047     2068     1656     1037      324     -315     -661     -700 
    -644     -685     -792     -837     -753     -518     -219       21 
     163      172       89       70      150      256      366      523 
     728      879      876      735      509      266      117       98 
     110       19     -249     -612     -759     -392      489     1552 
    2202     1956      904     -360    -1059     -727      314     1209 
    1259      395     -782    -1558    -1691    -1422    -1143    -1045 
    -980     -686     -135      396      564      260     -276     -640 
    -521      117      968     1618     1799     1423      654     -154 
    -652     -603      -89      425      412     -378    -1657    -2618 
   -2540    -1272      784     2718     3544     2949     1431     -175 
   -1111    -1073     -364      483     1129     1474     1538     1331 
     790     -112    -1193    -2091    -2361    -1736     -393     1058 
    1823     1484      364     -787    -1263     -710      541     1573 
    1588      484    -1133    -2345    -2553    -1844     -814      -15 
     351      370      367      679     1284     1820     1943     1523 
     624     -516    -1495    -1904    -1576     -666      465     1345 
    1589     1190      521       52      121      761     1650     2274 
    2199     1369      186     -804    -1272    -1201     -808     -322 
     127      361      199     -270     -754     -967     -765     -206 
     493      949      782       48     -800    -1329    -1278     -638 
     358     1364     1967     1828      836     -757    -2152    -2409 
   -1233      836     2723     3326     2250       49    -2293    -3874 
   -4250    -3630    -2441     -982      416     1430     1886     1757 
    1169      324     -552    -1147    -1061       -1     1929     4049 
    5240     4600     2203     -891    -3265    -3947    -3079    -1752 
   -1028    -1197    -1735    -1690     -452     1614     3430     4020 
    3102     1150     -831    -1744    -1067      811     2849     3915 
    3461     1835      -85    -1335    -1217      172     1909     2923 
    2458      404    -2466    -4905    -5928    -5217    -3072     -156 
    2599     4228     4125     2349     -307    -2696    -3885    -3599 
   -2279     -671      514      784      139     -889    -1624    -1714 
   -1163      -56     1413     2827     3739     3863     3149     1852 
     473     -518     -851     -465      324      895      875      296 
    -649    -1607    -2148    -1970     -933      823     2616     3441 
    2686      514    -2223    -4281    -4741    -3627    -1654      245 
    1310     1378      897      540      729     1312     1773     1518 
     147    -2154    -4572    -6015    -5585    -2979     1245     5671 
    8699     9431     7832     4553      876    -1686    -2121     -400 
    2398     4511     4598     2477     -887    -3810    -4881    -3914 
   -1952     -325      139     -701    -2286    -3532    -3544    -2151 
     258     2807     4304     4029     2139     -503    -2555    -2939 
   -1728     -129      370    -1019    -3777    -6255    -6818    -4992 
   -1551     1976     4051     4028     2322      -79    -2072    -2754 
   -1786      410     3011     5255     6449     5999     3695       27 
   -3675    -5715    -4956    -1426     3672     8257    10212     8658 
    4361     -910    -5176    -7101    -6474    -3931     -581     2272 
    3609     3269     2056     1175     1449     2758     3990     3793 
    1644    -1803    -5254    -7588    -8448    -8122    -6872    -4711 
   -1670     1801     4640     5692     4542     1707    -1762    -4630 
   -5768    -4670    -1539     3000     7772    11174    11917     9436 
    4133    -2367    -7759   -10162    -8913    -4652     1150     6510 
    9321     8408     4095    -2242    -8540   -12477   -12506    -8595 
   -2274     3743     6762     5755     1974    -1853    -3019     -362 
    4788     9198     9956     6397      306    -5203    -7319    -4965 
     681     6791    10215     9043     3617    -3763    -9979   -12343 
   -9846    -3634     3667     8929     9811     6092     -213    -5983 
   -8391    -6362    -1336     3635     5637     3437    -1590    -6316 
   -8004    -5841    -1275     3087     5188     4441     1808    -1037 
   -2730    -2549     -650     2022     4377     5522     4934     2718 
    -404    -3164    -4292    -3428    -1308      731     1422      407 
   -1397    -2442    -1627      996     4403     7374     8839     7942 
    4399    -1196    -7231   -11588   -12797   -10688    -6270    -1257 
    2705     4779     5068     4270     3194     2299     1792     1817 
    2230     2774     3285     3500     3242     2642     1842      761 
    -722    -2432    -3803    -4295    -3915    -3177    -2676    -2735 
   -3226    -3678    -3574    -2600     -759     1516     3349     3969 
    3411     2438     1931     2288     2979     2821     1137    -1420 
   -3160    -2544      387     3698     4980     3210     -494    -3742 
   -4550    -2646      428     2742     3515     3136     2369     1638 
     776     -601    -2598    -4718    -6075    -5950    -4083     -960 
    2143     3822     3174      280    -3477    -5971    -5460    -1573 
    4313     9591    11656     9348     3406    -4048   -10003   -11840 
   -8922    -2748     3869     7936     7914     4686      722    -1441 
    -435     3079     6684     7753     4995     -811    -7023   -10487 
   -9526    -4918      871     5063     5814     3124    -1246    -4884 
   -6090    -4642    -1556     1823     4381     5318     4462     2459 
     416     -634     -417      283      263    -1061    -2972    -3970 
   -3129     -654     2271     4046     3857     2259      419     -728 
    -833     -268      151     -155    -1173    -2583    -3977    -4773 
   -4349    -2446      607     3946     6358     6892     5486     2737 
    -592    -3742    -6112    -7226    -6664    -4422    -1258     1672 
    3618     4567     5033     5449     5578     4880     3174      711 
   -1683    -2773    -1868      640     3520     5247     4829     2384 
   -1030    -3909    -4982    -4032    -2066     -617     -820    -2661 
   -4905    -6016    -5232    -2879       -2     2354     3682     4050 
    3928     3723     3432     2923     2132     1072      -48     -967 
   -1449    -1184     -148     1105     1755     1222     -389    -2331 
   -3797    -4204    -3383    -1669      338     1919     2546     2083 
     693    -1167    -2806    -3389    -2242      624     4313     7199 
    7699     5338     1088    -3046    -4952    -3744     -414     2987 
    4676     3934     1342    -1680    -3875    -4715    -4437    -3740 
   -3106    -2427    -1171     1118     4191     6916     7890     6333 
    2585    -1960    -5461    -6733    -5950    -4243    -2727    -1911 
   -1686    -1485     -597     1370     4108     6578     7463     5800 
    1660    -3465    -7226    -7735    -4699      395     5143     7401 
    6266     2436    -2370    -6204    -7614    -6395    -3369      281 
    3195     4420     4045     2911     2006     2023     2947     3916 
    3732     1839    -1094    -3452    -3642    -1237     2564     5525 
    5696     2712    -1905    -5683    -6640    -4504     -727     2732 
    4345     3624     1482     -632    -1832    -1970    -1493    -1042 
    -844     -814    -1074    -1857    -3161    -4606    -5372    -4556 
   -1982     1412     4061     4775     3547     1618      623     1392 
    3305     4689     4046     1154    -2802    -5826    -6147    -3435 
     954     4904     6527     5168     1922    -1270    -2771    -1947 
     417     2597     2984      909    -2841    -6387    -7903    -6527 
   -2727     1887     5264     5909     3782      268    -2742    -3834 
   -2723     -382     1630     2140     1023     -571     -926      907 
    4313     7386     8293     6488     2825     -920    -2999    -2752 
    -920      869     1223      -81    -2176    -3787    -4144    -3414 
   -2193    -1005     -135      516     1182     1845     2189     1697 
      86    -2113    -3701    -3747    -2258        9     2021     2930 
    2675     1874     1057      454      -15     -685    -1610    -2457 
   -2933    -2805    -2010     -893      196     1136     1690     1635 
     999      -73    -1234    -1962    -1995    -1341      -75     1543 
    3086     4199     4674     4369     3286     1694       17    -1330 
   -2119    -2464    -2621    -2626    -2336    -1657     -490     1147 
    2801     3700     3233     1356    -1278    -3510    -4189    -2883 
    -209     2511     3925     3408     1455     -752    -2109    -2170 
   -1402     -744     -818    -1563    -2285    -2148     -818     1377 
    3558     4585     3702      969    -2731    -5814    -6617    -4513 
    -269     4495     7888     8600     6730     3533      604     -787 
    -318     1236     2470     2191      234    -2528    -4584    -4509 
   -2201      945     3018     2593     -238    -3823    -6258    -6506 
   -4770    -2191      -65      805      503     -140     -243      522 
    1754     2629     2520     1312     -590    -2365    -3129    -2451 
    -514     2054     4273     5102     4184     2123       15     -983 
    -256     1709     3614     4150     2797       81    -2744    -4262 
   -3859    -2221     -606       36     -538    -1680    -2333    -2055 
   -1274     -616     -330     -156      387     1447     2648     3413 
    3359     2615     1746     1252     1170     1102      650     -278 
   -1494    -2629    -3361    -3593    -3238    -2277    -1084     -168 
     185      -55     -534     -666     -158      893     2211     3344 
    3892     3814     3303     2567     1718      756     -265    -1216 
   -1966    -2409    -2495    -2195    -1560     -759      123     1088 
    1973     2434     2132      851    -1256    -3413    -4520    -3787 
   -1219     2237     5040     5826     4211      978    -2364    -4169 
   -3511     -850     2300     4232     3906     1588    -1338    -3277 
   -3274    -1471     1143     3348     4071     2899      425    -2251 
   -4106    -4539    -3662    -2078     -510      469      786      822 
     979     1373     1768     1870     1600     1027      238     -742 
   -1864    -2856    -3280    -2787    -1316      658     2232     2718 
    1999      458    -1159    -2017    -1623     -111     1861     3408 
