Origin Time       2025/03/28 03:50:00
Lat.              35.403
Long.             140.360
Depth. (km)       54
Mag.              4.4
Station Code      KNG201
Station Lat.      34.5956
Station Long.     139.9183
Station Height(m) -2197
Record Time       2025/03/28 03:51:01
Sampling Freq(Hz) 100Hz
Duration Time(s)  72
Dir.              N-S
Scale Factor      2000(gal)/6182761
Max. Acc. (gal)   1.761
Last Correction   2025/03/28 03:51:02
Memo.             
[...]
    -343     -377     -351     -329     -324     -303     -276     -238 
    -211     -235     -269     -300     -364     -388     -340     -291 
    -264     -281     -347     -384     -342     -314     -369     -391 
    -321     -275     -289     -299     -244     -126      -82     -188 
    -288     -252     -205     -229     -223     -190     -142      -41 
     -45     -238     -398     -411     -433     -531     -584     -570 
    -527     -419     -310     -273     -235     -153      -80     -100 
    -236     -328     -277     -262     -337     -344     -294     -276 
    -269     -232     -133      -17      -22     -186     -319     -287 
    -252     -323     -384     -411     -483     -554     -529     -442 
    -347     -229     -106      -40      -89     -295     -534     -620 
    -555     -448     -379     -348     -265      -42      286      513 
     473      287      112     -122     -460     -769     -942     -962 
    -844     -678     -535     -314       34      361      512      424 
     179      -86     -312     -421     -416     -424     -403     -286 
    -223     -300     -450     -591     -662     -721     -832     -875 
    -687     -293       77      259      316      360      404      359 
     169     -112     -426     -664     -698     -580     -421     -298 
    -339     -534     -678     -632     -419     -127      143      305 
     330      244       46     -239     -477     -569     -550     -524 
    -509     -421     -310     -296     -356     -392     -313     -138 
       8       72       49      -63     -193     -304     -433     -554 
    -632     -739     -897     -954     -763     -328      218      660 
     831      707      396       66     -203     -437     -614     -678 
    -665     -595     -462     -336     -257     -253     -353     -498 
    -657     -779     -757     -596     -353      -49      261      519 
     688      744      671      448       73     -431     -953    -1307 
   -1436    -1381    -1144     -768     -340       69      377      544 
     593      556      471      304      -17     -389     -563     -531 
    -533     -639     -803    -1017    -1158    -1157    -1044     -771 
    -408     -110      158      413      602      828     1103     1221 
    1112      783      258     -227     -610    -1023    -1338    -1550 
   -1820    -1963    -1808    -1495    -1064     -564     -151      247 
     697     1015     1166     1218     1035      577       48     -469 
    -969    -1286    -1290    -1083     -741     -308       96      423 
     595      561      487      409      254      113      -24     -240 
    -398     -409     -446     -660     -940    -1155    -1328    -1369 
   -1127     -689     -195      227      375      274      162       67 
    -113     -320     -448     -523     -608     -668     -633     -515 
    -331      -75      173      306      349      363      303      197 
     151      118       10     -142     -255     -309     -389     -519 
    -649     -767     -792     -696     -654     -700     -692     -612 
    -501     -381     -292     -221     -105       30       81       87 
     152      161       15     -169     -417     -711     -777     -646 
    -535     -360     -119       35      147      283      414      497 
     494      473      421      180     -251     -717    -1050    -1175 
   -1210    -1164     -956     -722     -523     -284      -37      152 
     196       85      -80     -313     -522     -402       23      380 
     471      356      146     -114     -395     -536     -517     -572 
    -733     -840     -879     -837     -669     -450     -171      147 
     318      340      346      314      198       31     -191     -476 
    -720     -848     -915     -890     -704     -476     -268      -20 
     234      415      473      429      354      177      -93     -266 
    -313     -356     -473     -678     -887     -997    -1000     -924 
    -763     -530     -300     -172     -151     -129      -17      155 
     274      275      223      211      243      254      177       30 
    -165     -407     -562     -602     -635     -579     -430     -387 
    -455     -530     -615     -697     -746     -748     -672     -491 
    -230       44      246      294      227      148       51      -36 
     -92     -247     -433     -442     -361     -312     -212      -92 
     -67     -123     -224     -291     -293     -279     -184       21 
     202      233       78     -197     -551     -908    -1122    -1225 
   -1251    -1133     -898     -583     -201      179      425      424 
     285      167       80      101      243      323      298      242 
     132       18      -49     -153     -329     -540     -818    -1146 
   -1314    -1221    -1005     -737     -450     -277     -188      -54 
      92      175      194      152       70       59      175      328 
     459      501      377      131     -186     -554     -896    -1196 
   -1472    -1617    -1541    -1307     -948     -487        3      462 
     776      892      895      803      623      439      225      -45 
    -303     -552     -760     -879     -996    -1053     -915     -680 
    -463     -267     -144     -113      -61       44      127      217 
     320      336      221      -54     -426     -694     -826     -961 
   -1056    -1022     -970     -930     -786     -550     -232      200 
     626      856      808      524      140     -180     -362     -413 
    -375     -370     -452     -560     -675     -713     -559     -267 
      31      218      191      -35     -300     -488     -580     -554 
    -451     -350     -302     -329     -375     -429     -519     -551 
    -405     -162       17      106      111        3     -184     -393 
    -527     -494     -365     -247     -188     -214     -290     -377 
    -427     -374     -219      -19       95       27     -138     -254 
    -254     -178     -133     -192     -338     -480     -571     -606 
    -519     -322     -122       79      223      167        0     -157 
    -372     -622     -796     -917     -977     -892     -657     -334 
     -43      126      176      127       66       69       74       73 
     135      209      211      160      100      -25     -254     -519 
    -763     -974    -1103    -1064     -896     -732     -548     -296 
     -63      143      353      510      607      626      487      206 
    -155     -510     -715     -741     -709     -728     -809     -862 
    -816     -727     -636     -496     -320     -111      162      422 
     581      665      692      603      392      111     -223     -583 
    -892    -1083    -1158    -1147    -1079    -1000     -925     -823 
    -631     -328       -6      238      368      427      505      553 
     511      481      472      374      112     -327     -791    -1074 
   -1186    -1234    -1157     -918     -626     -293       49      250 
     283      235      161       53      -95     -219     -252     -239 
    -296     -441     -550     -538     -443     -358     -339     -334 
    -279     -170      -46       40       63       57       57       -1 
    -134     -227     -270     -386     -580     -769     -901     -908 
    -748     -534     -403     -300     -140       62      249      352 
     369      299      112     -126     -365     -584     -699     -719 
    -684     -612     -580     -582     -548     -477     -397     -344 
    -284     -159       -1      127      178      145       33     -187 
    -445     -594     -650     -689     -652     -506     -273       72 
     400      528      517      449      282       25     -227     -371 
    -393     -408     -472     -489     -459     -491     -552     -588 
    -657     -752     -813     -812     -742     -627     -461     -215 
      96      396      570      618      586      430      139     -214 
    -552     -772     -864     -975    -1127    -1183    -1095     -899 
    -615     -233      206      563      735      794      852      865 
     773      546      173     -198     -514     -887    -1237    -1441 
   -1513    -1443    -1256    -1007     -682     -321       14      361 
     695      900      958      877      667      427      170     -176 
    -553     -890    -1186    -1410    -1464    -1313    -1075     -821 
    -521     -204       92      320      444      534      587      514 
     345      139      -84     -292     -484     -618     -658     -659 
    -653     -657     -664     -627     -570     -498     -362     -186 
       5      187      260      218      141       40      -30       -9 
      22      -51     -265     -539     -725     -772     -706     -574 
    -451     -351     -277     -281     -312     -230      -50      100 
     163      136       42     -152     -441     -633     -658     -652 
    -610     -501     -384     -266     -207     -253     -241      -55 
     156      186        1     -231     -349     -379     -417     -490 
    -521     -453     -363     -304     -262     -258     -288     -346 
    -455     -605     -684     -595     -440     -341     -233      -77 
      13       50      132      196      161       24     -183     -338 
    -409     -488     -521     -435     -327     -231      -70      123 
     270      391      480      419      209      -18     -331     -753 
    -966     -927     -953    -1038    -1002     -872     -676     -424 
    -215      -46      132      200      147      185      282      250 
      97     -153     -447     -597     -555     -440     -335     -288 
    -292     -224     -109      -72      -56     -101     -319     -544 
    -615     -649     -724     -719     -552     -273       42      351 
     604      735      736      575      286      -25     -423     -903 
   -1240    -1345    -1293    -1132     -883     -600     -389     -285 
    -253     -317     -412     -342      -73      273      577      729 
     644      342      -12     -283     -531     -759     -877     -944 
   -1012    -1063    -1088     -956     -597     -120      435      971 
    1184      937      362     -385    -1053    -1252     -872     -258 
     252      529      446       -8     -632    -1099    -1029     -445 
     259      827      952      461     -286     -958    -1339    -1169 
    -633     -116      193      111     -348     -848    -1007     -651 
      62      810     1251     1131      564     -118     -746    -1176 
   -1286    -1203    -1125    -1120    -1185    -1277    -1309    -1126 
    -587      217      969     1336     1197      791      416      164 
      98      187      217      -36     -604    -1165    -1354    -1208 
    -968     -756     -629     -611     -688     -855    -1007     -923 
    -579     -123      395      896     1224     1427     1587     1628 
    1540     1301      790       13     -908    -1764    -2322    -2491 
   -2239    -1606     -879     -301      150      364      163     -226 
    -482     -612     -643     -552     -444     -386     -425     -521 
    -423      -77      277      439      314       41     -136     -245 
    -271      -14      443      839     1032      947      586      -31 
    -863    -1690    -2213    -2316    -2099    -1649     -943     -100 
     578      914      921      676      286     -134     -393     -246 
     246      658      714      573      409      134     -304     -805 
   -1282    -1626    -1647    -1185     -307      637     1201     1090 
     438     -326     -887     -939     -325      460      767      557 
      89     -561    -1297    -1737    -1673    -1394    -1081     -695 
    -364     -137       91      313      454      509      505      342 
    -109     -735    -1280    -1551    -1375     -671      295     1005 
    1134      739       98     -559    -1079    -1347    -1416    -1391 
   -1350    -1302     -919       56     1210     1925     2013     1741 
    1474     1279     1077      878      589      129     -481    -1234 
   -1944    -2383    -2615    -2695    -2571    -2297    -1909    -1374 
    -659      230     1140     1798     2070     2102     1990     1562 
     840      124     -516    -1267    -2100    -2751    -3107    -3167 
   -2841    -1995     -618      938     2290     3408     4243     4572 
    4270     3403     2106      486    -1206    -2543    -3315    -3644 
   -3660    -3425    -3040    -2525    -1936    -1390     -822     -207 
     345      877     1445     1972     2288     2116     1325       86 
   -1255    -2339    -2977    -3228    -3275    -3172    -2753    -1899 
    -664      830     2300     3322     3671     3323     2427     1416 
     550     -260     -946    -1310    -1397    -1446    -1561    -1636 
   -1637    -1611    -1574    -1541    -1386    -1043     -647     -117 
     713     1587     2150     2466     2681     2688     2453     2102 
    1671     1105      355     -553    -1450    -2033    -2076    -1552 
    -530      683     1559     1814     1391      237    -1432    -3097 
   -4297    -4799    -4562    -3745    -2699    -1891    -1653    -1895 
   -2281    -2543    -2462    -1888    -1014     -195      452      944 
    1302     1697     2221     2664     2847     2764     2546     2517 
    2717     2780     2647     2484     2193     1719     1245      882 
     571      286       47     -263     -735    -1182    -1486    -1750 
   -1944    -2040    -2140    -2241    -2354    -2574    -2847    -3075 
   -3276    -3472    -3561    -3379    -2930    -2458    -2189    -2100 
   -2030    -1922    -1736    -1281     -367      912     2223     3328 
    4168     4741     5089     5177     4857     4216     3522     2894 
    2338     1794     1166      378     -676    -1796    -2434    -2442 
   -2107    -1575    -1097    -1136    -1775    -2729    -3678    -4153 
   -3739    -2514     -911      578     1552     1905     1762     1287 
     641      -64     -820    -1626    -2379    -2972    -3289    -3141 
   -2508    -1630     -807     -219      203      557      760      850 
    1000     1087      930      720      690      845     1166     1628 
    2066     2247     1978     1235      327     -350     -667     -574 
     -61      584      987     1061      888      512       -9     -636 
   -1357    -2105    -2779    -3260    -3497    -3528    -3311    -2829 
   -2219    -1540     -772       10      686     1158     1342     1243 
     929      481       84      -89      -17      233      467      496 
     398      329      326      436      680      939     1139     1371 
    1591     1483      938      248     -366     -882    -1234    -1314 
   -1204    -1190    -1397    -1703    -2034    -2394    -2737    -2983 
   -3008    -2755    -2342    -1759     -828      414     1674     2657 
    3234     3427     3272     2820     2202     1632     1271      987 
     564      -20     -748    -1541    -2250    -2873    -3338    -3453 
   -3217    -2682    -1855     -854      164     1023     1510     1576 
    1428     1282     1139      840      250     -527    -1233    -1747 
   -1951    -1599     -643      541     1404     1679     1422      775 
     -56     -786    -1151    -1050     -677     -297       18      181 
     109     -111     -438     -853    -1236    -1596    -1955    -2091 
   -1842    -1330     -719     -165      121       31     -323     -657 
    -688     -333      308     1040     1620     1973     2177     2161 
    1862     1444      954      268     -581    -1363    -1870    -2079 
   -2053    -1793    -1379     -981     -674     -491     -422     -316 
     -74      210      406      414      220      -98     -541    -1010 
   -1231    -1195    -1094     -960     -741     -315      401     1176 
    1663     1743     1472      960      313     -438    -1190    -1699 
   -1948    -2111    -2169    -1967    -1484     -877     -311      199 
     664     1025     1359     1762     2105     2211     2005     1499 
     858      224     -425    -1075    -1662    -2224    -2740    -2981 
   -2806    -2312    -1591     -736       84      716     1078     1237 
    1291     1148      763      339       28     -196     -392     -560 
    -618     -595     -606     -667     -788     -918     -925     -872 
    -895     -922     -810     -605     -409     -147      193      402 
     376      227       37     -230     -508     -591     -409      -50 
     401      762      918      979      882      504       70     -205 
    -279     -110      140      168      -88     -487     -906    -1300 
   -1696    -2009    -2023    -1757    -1449    -1212     -973     -604 
    -106      422      926     1338     1662     1913     2014     2012 
    1904     1476      755     -111    -1146    -2211    -2998    -3379 
   -3387    -3064    -2423    -1512     -467      567     1407     1863 
    1976     1848     1430      757       -1     -666    -1034    -1093 
   -1021     -906     -822     -896    -1033    -1019     -852     -621 
    -325       11      250      343      466      740     1051     1247 
    1224      901      348     -240     -743    -1077    -1162    -1118 
   -1135    -1169    -1141    -1064     -879     -602     -362     -227 
    -230     -369     -533     -616     -636     -612     -489     -320 
    -244     -276     -372     -533     -660     -591     -314       60 
     370      501      571      708      816      847      810      580 
     116     -481    -1071    -1451    -1478    -1195     -754     -244 
     336      850     1105     1178     1231     1249     1193     1033 
     702      212     -381     -982    -1403    -1572    -1570    -1466 
   -1331    -1254    -1278    -1363    -1429    -1467    -1495    -1463 
   -1363    -1200     -876     -389       78      407      524      367 
     115      -68     -249     -437     -624     -829     -947     -840 
    -457      145      847     1498     1978     2311     2464     2317 
    1935     1420      743      -21     -671    -1090    -1255    -1247 
   -1247    -1371    -1669    -2101    -2467    -2613    -2460    -1930 
   -1084      -97      839     1511     1800     1760     1446      885 
     236     -333     -728     -871     -902     -995    -1029     -990 
   -1035    -1058     -913     -666     -336       97      512      712 
     639      392       68     -206     -242       15      364      505 
     363       65     -318     -646     -805     -946    -1140    -1214 
   -1122     -944     -637     -158      410      920     1211     1240 
    1058      663      131     -417     -908    -1178    -1197    -1130 
    -998     -859     -859     -902     -877     -852     -816     -721 
    -603     -472     -279       63      579     1053     1249     1157 
     770       67     -778    -1494    -1919    -2093    -2103    -1915 
   -1551    -1049     -383      261      700     1014     1294     1502 
    1581     1559     1439     1120      629      135     -294     -670 
    -904     -927     -857     -809     -801     -799     -669     -357 
      57      497      855     1040     1022      741      248     -301 
    -863    -1433    -1995    -2528    -2863    -2842    -2487    -1809 
    -851      171     1025     1540     1658     1524     1240      793 
     272     -267     -822    -1223    -1347    -1285    -1095     -802 
    -499     -178      190      521      815     1124     1342     1317 
    1042      585        9     -571    -1020    -1248    -1280    -1238 
   -1150    -1011     -900     -806     -632     -346       43      437 
