Origin Time       2025/03/28 03:50:00
Lat.              35.403
Long.             140.360
Depth. (km)       54
Mag.              4.4
Station Code      KNG205
Station Lat.      34.9413
Station Long.     139.4213
Station Height(m) -1486
Record Time       2025/03/28 03:51:08
Sampling Freq(Hz) 100Hz
Duration Time(s)  71
Dir.              N-S
Scale Factor      2000(gal)/6182761
Max. Acc. (gal)   4.056
Last Correction   2025/03/28 03:51:08
Memo.             
[...]
   -1162    -1511    -1649    -1389     -701      246     1032     1398 
    1470     1496     1596     1803     2142     2393     2134     1142 
    -404    -1979    -2944    -2939    -2172    -1175     -321      197 
     317      203      150      336      664      997     1291     1315 
     825      -87    -1064    -1603    -1432     -817     -108      584 
    1087     1267     1267     1151      823      321     -293    -1005 
   -1596    -1764    -1459     -742      335     1473     2214     2308 
    1749      682     -515    -1265    -1281     -849     -470     -374 
    -510     -744     -776     -360      376     1100     1441     1229 
     683      196      100      415      776      894      694      162 
    -511     -981    -1078     -898     -567      -98      417      784 
     901      800      666      719      942     1046      734       -1 
    -857    -1473    -1698    -1698    -1655    -1550    -1325     -891 
    -127      847     1682     2096     2001     1440      643      -12 
    -405     -647     -712     -583     -278      240      772     1079 
    1222     1212      905      347     -289     -898    -1335    -1477 
   -1360    -1034     -561      -82      320      591      731      907 
    1132     1207     1041      605      -64     -839    -1624    -2203 
   -2286    -1760     -692      688     2112     3310     3873     3484 
    2245      645     -743    -1658    -2130    -2221    -1999    -1533 
    -952     -354      327     1005     1429     1601     1619     1330 
     554     -583    -1610    -1935    -1469     -843     -631     -891 
   -1317    -1378     -723      502     1836     2777     3024     2592 
    1659      561     -283     -761    -1007    -1078     -984     -698 
    -175      395      562       75     -729    -1193     -935      -56 
    1015     1716     1576      631     -507    -1177     -961       69 
    1197     1682     1271      244     -777    -1220     -868      -28 
     732     1103     1059      723      246     -317     -757     -848 
    -731     -655     -632     -556     -426     -355     -420     -536 
    -546     -418     -204      125      573      943     1033      889 
     640      450      477      640      760      709      429       52 
    -306     -578     -624     -546     -602     -739     -776     -622 
    -178      490     1045     1118      640     -110     -750     -989 
    -888     -723     -454       78      723     1242     1512     1563 
    1556     1481     1061      132    -1041    -2028    -2590    -2613 
   -1994     -750      778     2036     2648     2576     2067     1411 
     763      166     -496    -1286    -2023    -2471    -2484    -2009 
   -1155     -174      753     1478     1822     1784     1557     1346 
    1262     1153      686     -179    -1051    -1522    -1515    -1237 
    -848     -405      -48      171      340      417      358      150 
    -360    -1096    -1595    -1565    -1137     -561      -50      294 
     613     1045     1492     1824     2043     2228     2359     2317 
    2068     1605      941      186     -523     -996    -1095     -983 
    -941    -1038    -1228    -1406    -1322     -829      -23      886 
    1550     1648     1162      209     -977    -1871    -2132    -1916 
   -1360     -493      423     1070     1349     1298     1001      521 
    -101     -738    -1201    -1337    -1191     -898     -444      168 
     785     1239     1527     1728     1707     1317      599     -347 
   -1184    -1444    -1025     -198      636     1043      856      456 
     291      369      528      642      580      340       73       -4 
     201      537      721      519       -7     -562     -938    -1062 
    -981     -817     -563     -195      200      502      589      478 
     326      189      109      116      105       10     -141     -284 
    -297     -132      189      716     1372     1917     2163     1957 
    1279      272     -881    -1812    -2147    -1977    -1698    -1574 
   -1649    -1659    -1173     -140     1034     1860     2025     1642 
    1102      645      353      203      101       51       45      -52 
    -296     -525     -537     -287      152      572      655      383 
      68      -92      -27      199      317      245      199      216 
     181      154      205      269      227       60      -11      227 
     666      944      743       63     -842    -1598    -1891    -1749 
   -1346     -727       34      858     1680     2333     2653     2394 
    1377      -66    -1323    -1941    -1810    -1287     -843     -605 
    -444      -94      627     1470     2047     2242     1996     1228 
     100    -1056    -1901    -2184    -2032    -1774    -1418     -802 
       9      725     1039      958      797      771      927     1248 
    1508     1390      756     -328    -1483    -2102    -1857     -910 
     354     1462     1969     1828     1293      542     -240     -806 
   -1061    -1051     -888     -657     -368      -56      267      550 
     686      796     1040     1304     1404     1151      404     -683 
   -1714    -2331    -2430    -2166    -1712    -1228     -868     -654 
    -576     -581     -439      114     1094     2049     2357     1916 
    1141      506      365      746     1336     1789     1907     1627 
     996      206     -456     -782     -734     -486     -324     -387 
    -619     -856     -882     -635     -236      161      355      230 
     -57     -264     -303     -170       72      265      343      323 
     154     -204     -567     -649     -479     -299     -196     -179 
    -178       27      503     1036     1372     1341      855       24 
    -805    -1356    -1599    -1598    -1347     -801      -51      734 
    1445     1996     2352     2433     2052     1138     -190    -1612 
   -2652    -2977    -2551    -1504      -42     1503     2682     3142 
    2854     2041      987       12     -599     -759     -636     -532 
    -537     -578     -738    -1033    -1230    -1128     -660       45 
     617      767      623      554      700      941     1124     1088 
     741      106     -712    -1415    -1675    -1508    -1189     -944 
    -863     -825     -577      -85      381      542      368       64 
    -206     -384     -286      211      927     1593     2017     2137 
    1984     1559      963      321     -374    -1063    -1550    -1712 
   -1520     -913       15      890     1338     1230      743      168 
    -320     -575     -542     -407     -385     -473     -573     -641 
    -615     -449     -125      413     1017     1372     1302      748 
    -175    -1022    -1339    -1053     -435      159      483      540 
     648     1074     1637     1998     1936     1352      391     -655 
   -1507    -1896    -1787    -1410     -898     -283      273      643 
     846      933      918      794      636      538      396       35 
    -557    -1170    -1514    -1464    -1049     -323      504     1162 
    1581     1740     1570     1126      547     -140     -809    -1064 
    -747     -174      387      785      779      353     -234     -761 
    -974     -731     -227      321      704      649      194     -358 
    -777     -976    -1039    -1081    -1007     -705     -225      389 
    1043     1615     2133     2576     2748     2492     1763      686 
    -438    -1346    -1898    -2131    -2158    -1904    -1340     -646 
      86      774     1251     1484     1493     1173      570       76 
       9      244      380      -13    -1049    -2273    -3015    -2985 
   -2296    -1237     -213      428      529      195     -200     -253 
     223     1088     1908     2359     2403     2098     1595      943 
       3    -1120    -2088    -2687    -2839    -2511    -1819     -993 
     -95      844     1500     1575     1186      636      163     -108 
    -259     -365     -338     -218      -40      373     1056     1926 
    2964     3936     4458     4376     3711     2510      996     -414 
   -1313    -1536    -1335    -1172    -1204    -1258    -1286    -1421 
   -1767    -2302    -2851    -3188    -3191    -2802    -1914     -482 
    1276     2948     4232     5116     5661     5776     5379     4471 
    3074     1352     -423    -2031    -3329    -4240    -4657    -4279 
   -2973    -1270       67      665      551       58     -374     -513 
    -285      238      765     1136     1450     1675     1543      875 
    -253    -1595    -2793    -3538    -3724    -3379    -2650    -1842 
   -1211     -789     -406      207     1179     2268     2996     3016 
    2228      708    -1246    -2978    -3534    -2338      339     3677 
    6369     7010     5197     1684    -2148    -4860    -5806    -5363 
   -4319    -3252    -2304    -1249      305     2362     4340     5644 
    6033     5441     3873     1505    -1262    -3815    -5496    -5960 
   -5135    -3014       80     3358     5938     7167     6889     5407 
    3107      514    -1627    -2759    -2828    -2312    -1823    -1657 
   -1769    -1889    -1732    -1331     -909     -632     -650    -1051 
   -1752    -2518    -3062    -3177    -2756    -1798     -390     1279 
    2831     3812     4004     3541     2809     2281     2182     2276 
    2114     1393      264     -642     -769     -157      591      799 
     180    -1095    -2546    -3674    -4322    -4454    -3842    -2379 
    -293     2096     4320     5920     6922     7504     7546     6910 
    5456     2968     -376    -3894    -6620    -7558    -6351    -3674 
    -803     1066     1303       25    -1969    -3627    -4374    -4187 
   -3188    -1632      110     1731     2902     3316     2838     1376 
    -874    -3201    -4857    -5373    -4616    -2889     -772     1085 
    2165     2239     1463      397     -281      -56     1068     2436 
    3536     4529     5547     6247     6261     5515     4305     3229 
    2593     2014      826    -1261    -3811    -5847    -6661    -6268 
   -5019    -3261    -1353      224      822       42    -1771    -3519 
   -4061    -3049     -945     1270     2372     1763       81    -1336 
   -1413      101     2463     4343     4717     3388     1033    -1005 
   -1477     -237     1642     2973     3315     2803     1825      814 
     -14     -724    -1437    -2063    -2264    -1704     -397     1091 
    1909     1582      464     -515     -564      555     2300     3583 
    3742     2704      585    -2065    -4446    -6113    -6964    -6955 
   -6084    -4584    -2845    -1167      178     1094     1859     2740 
    3620     3961     3243     1522     -736    -2916    -4142    -3544 
    -842     3205     6853     8430     7471     4567      741    -2723 
   -4610    -4400    -2483      250     2875     4508     4685     3759 
    2419     1196      386     -148     -780    -1559    -2175    -2330 
   -1920    -1052     -157      115     -751    -2709    -5002    -6670 
   -6957    -5481    -2696      451     3224     5005     5519     5060 
    3858     1962     -350    -2544    -3806    -3432    -1522     1262 
    4093     6002     6558     6146     5122     3493     1123    -2090 
   -5519    -7769    -7910    -6117    -3325     -780      597      675 
       3     -338      696     3066     5743     7611     7803     6027 
    3033       79    -2130    -3603    -4748    -6084    -7654    -8809 
   -8742    -6982    -3705      183     3500     5276     5191     3873 
    2265      927      127     -201     -417     -610     -533      -14 
     936     2094     3149     3951     4206     3428     1668     -372 
   -1754    -1691     -341     1108     1604     1079      287      130 
     940     2326     3511     3716     2515       -4    -3117    -5667 
   -6932    -7050    -6530    -5806    -5136    -4448    -3481    -2099 
    -143     2567     5608     7975     8830     7845     5408     2656 
     682       -6      550     1660     2364     2193     1328      287 
    -476     -931    -1554    -2890    -4901    -6795    -7659    -7153 
   -5504    -3194     -594     2214     5105     7546     8814     8466 
    6604     3976     1517     -429    -1985    -3115    -3663    -3632 
   -3047    -2043    -1111     -627     -500     -526     -646     -837 
    -803     -135     1068     2172     2498     1646     -330    -2796 
   -4613    -4803    -3337     -999     1215     2445     2347     1415 
     617      592     1299     2219     2752     2639     2012     1147 
     211     -766    -1678    -2331    -2605    -2408    -1680     -548 
     724     1819     2303     1951     1046       64     -571     -646 
    -442     -484     -949    -1510    -1688    -1105      392     2397 
    4039     4577     3745     1801     -470    -2148    -2873    -2996 
   -3096    -3330    -3227    -2271     -389     1902     3534     3673 
    2519      885     -529    -1165     -737      398     1359     1244 
    -159    -2009    -2968    -2147      397     3721     6462     7556 
    6877     5094     3129     1790     1238      790     -410    -2630 
   -5255    -7222    -7814    -6959    -5190    -3349    -1911     -702 
     644     2198     3667     4709     5129     4785     3558     1394 
   -1591    -4911    -7765    -9373    -9209    -7246    -4204    -1247 
     712     1395     1135      726      937     1836     2883     3601 
    3837     3851     4197     5034     5753     5443     3766     1314 
    -982    -2496    -2989    -2575    -1608     -403      748     1614 
    2397     3518     4968     6231     6697     6013     4129     1104 
   -2882    -7184   -10721   -12470   -11839    -9046    -5321    -2221 
    -579     -187      -81      806     2745     4900     6013     5255 
    2567    -1174    -4368    -5599    -4488    -1876      810     2451 
    2647     1818      777      -32     -393       63     1272     2428 
    2824     2450     1735     1307     1625     2413     2944     2871 
    2504     2427     2883     3581     3994     3678     2549      884 
    -940    -2533    -3548    -3979    -4090    -3940    -3454    -2746 
   -2069    -1646    -1467    -1375    -1310    -1169     -827     -303 
     340      958     1326     1439     1547     1882     2596     3672 
    4711     5160     4654     3161     1074     -972    -2541    -3681 
   -4751    -5861    -6596    -6469    -5415    -3714    -1697      378 
    2285     3731     4451     4358     3467     1943      211    -1354 
   -2517    -3079    -3144    -3043    -2965    -2918    -2711    -1982 
    -519     1340     2753     3139     2757     2242     1954     1963 
    2241     2671     2982     2829     2119     1055     -131    -1228 
   -2115    -2941    -3815    -4398    -4242    -3320    -1861      -18 
    2065     4102     5707     6690     7093     6950     6334     5379 
    4213     3006     1764      345    -1215    -2692    -3918    -4935 
   -5898    -6731    -7094    -6654    -5267    -3111     -610     1796 
    3694     4798     5132     4853     4108     3271     2652     2038 
    1024     -688    -3146    -5802    -7821    -8736    -8417    -6954 
   -4845    -2620     -481     1457     3105     4485     5604     6186 
    5712     4164     2303      976      517      663      864      705 
     106     -718    -1426    -1773    -1746    -1488    -1174    -1045 
   -1205    -1438    -1428     -979     -146      810     1640     2259 
    2810     3355     3619     3369     2560     1216     -447    -1974 
   -2883    -2984    -2513    -1860    -1355    -1127     -891     -267 
     692     1528     1702     1064      -37    -1122    -1674    -1391 
    -576      314     1004     1179      710     -280    -1551    -2526 
   -2669    -2083    -1216     -599     -551     -693     -465      279 
    1512     3061     4580     5759     6242     5754     4445     2755 
    1162       18     -636     -972    -1286    -1984    -3239    -4682 
   -5599    -5270    -3433     -685     1880     3401     3630     2980 
    2057     1127      177    -1003    -2610    -4311    -5495    -5824 
   -5211    -3855    -2168     -420     1244     2701     3920     4863 
    5310     5020     4198     3375     2859     2690     2769     2887 
    2790     2194      950     -747    -2348    -3264    -3361    -2919 
   -2180    -1368     -815     -689     -973    -1525    -1963    -1942 
   -1477     -819     -221      188      453      648      785      885 
     902      775      590      397      183       43       88      330 
     709     1119     1426     1451     1050      262     -671    -1385 
   -1550    -1223     -877     -911    -1344    -1776    -1620     -708 
     513     1355     1276      251    -1302    -2901    -3941    -3870 
   -2602     -435     1960     3614     4082     3849     3652     3808 
    4262     4695     4647     3984     2947     1849      867     -100 
   -1213    -2327    -3104    -3413    -3392    -3185    -2905    -2686 
   -2546    -2417    -2237    -1976    -1635    -1146     -317      898 
    2190     3138     3539     3335     2443      967     -650    -1919 
   -2585    -2683    -2400    -1823     -987      -18      981     1874 
    2436     2575     2349     1926     1476      943      230     -485 
    -848     -601      132      930     1444     1462     1001      319 
    -357     -875    -1132    -1231    -1360    -1479    -1461    -1395 
   -1274     -805      176     1433     2416     2631     2033      966 
    -120     -849    -1154    -1242    -1232    -1085     -801     -511 
    -375     -475     -773    -1071    -1168     -990     -557      -21 
     412      649      807     1161     1809     2450     2651     2142 
     967     -454    -1579    -2161    -2371    -2431    -2222    -1525 
    -349     1136     2589     3649     4279     4558     4402     3765 
    2674     1199     -336    -1461    -1998    -2132    -2096    -1948 
   -1742    -1613    -1527    -1336    -1018     -707     -698    -1164 
   -1883    -2429    -2381    -1543     -214     1040     1750     1670 
     968       65     -680     -893     -401      468     1189     1413 
    1082      383     -455    -1170    -1409    -1051     -353      383 
     860      845      570      537      891     1446     1934     1997 
    1360       12    -1730    -3235    -3909    -3612    -2534     -940 
     756     2164     3103     3471     3296     2761     2055     1348 
     658     -113     -910    -1462    -1584    -1358     -848      -42 
     831     1414     1573     1391     1013      638      505      694 
     995     1089      715     -182    -1343    -2222    -2289    -1456 
     -20     1569     2745     3216     3204     2963     2583     2151 
    1625      817     -391    -1866    -3177    -3963    -4247    -4118 
   -3665    -3187    -2934    -2931    -3104    -3244    -3078    -2386 
   -1076      709     2626     4235     5191     5325     4464     2713 
     641    -1206    -2461    -2876    -2546    -1761     -721      346 
    1090     1202      603     -500    -1781    -2810    -3131    -2561 
   -1211      452     1687     2135     1958     1428      807      395 
     388      662     1018     1454     2024     2819     3950     5315 
    6509     6973     6391     4855     2704      380    -1692    -3265 
   -4395    -5426    -6484    -7121    -6967    -6081    -4657    -3134 
   -1970    -1132     -334      503     1214     1585     1562     1256 
     802      378      101      -53        5      412     1002     1481 
