Origin Time       2025/03/28 03:50:00
Lat.              35.403
Long.             140.360
Depth. (km)       54
Mag.              4.4
Station Code      KNG204
Station Lat.      34.8931
Station Long.     139.5711
Station Height(m) -933
Record Time       2025/03/28 03:51:07
Sampling Freq(Hz) 100Hz
Duration Time(s)  61
Dir.              E-W
Scale Factor      2000(gal)/6182761
Max. Acc. (gal)   2.686
Last Correction   2025/03/28 03:51:07
Memo.             
[...]
      78       78       86       88       84       79       77       83 
      85       80       82       81       77       72       69       79 
      85       78       78       84       83       78       74       75 
      79       79       78       78       75       76       80       79 
      77       73       67       73       83       82       77       73 
      68       66       74       80       75       70       67       65 
      69       72       71       70       69       68       63       56 
      67       81       76       67       66       66       72       79 
      76       72       69       69       71       66       59       65 
      76       73       67       67       70       73       78       80 
      71       66       78       83       72       71       77       71 
      68       76       75       70       73       71       70       75 
      73       69       71       73       74       69       64       70 
      76       72       70       76       75       69       69       76 
      72       63       69       77       73       74       78       72 
      70       74       72       68       66       65       71       79 
      73       67       70       71       69       69       70       71 
      74       75       73       76       72       64       72       80 
      71       69       79       79       80       86       82       76 
      83       90       85       79       79       80       81       76 
      71       73       74       71       68       64       69       77 
      73       68       79       86       78       82       87       77 
      70       69       63       52       50       53       48       43 
      37       32       40       54       59       53       59       63 
      48       39       42       35       20        9        1        1 
       6       12       24       39       52       53       43       43 
      52       55       65       83       94       98      100      101 
      99       98       97       91       89       94      108      124 
     131      133      123      112      127      140      122      108 
     127      152      145      104       67       62       81       99 
     101       84       41      -13      -18       66      157      150 
      91       60       48       42       20      -37      -44       29 
      72       43       12      -29     -100      -77       71      160 
     106       19      -33      -63      -36       48      110      120 
     106       87       72       81      121      169      197      196 
     160      113       96      107      129      151      159      147 
     108       30      -77     -125        9      278      425      310 
      37     -227     -315     -182      -41      -66     -218     -376 
    -379     -164      116      293      300      232      214      172 
      54      -34        0      150      222       74     -152     -327 
    -365     -175      110      320      422      420      385      313 
     178       61      -37     -152     -207     -172     -145     -113 
      37      167       82     -121     -231     -150       41      145 
     111       74       70       24      -83     -211     -284     -233 
     -77      122      311      383      294      151       69       60 
      25      -49       18      224      261      -44     -504     -756 
    -538       82      722      929      520     -168     -614     -534 
      34      658      803      322     -533    -1232    -1261     -507 
     653     1555     1576      611     -700    -1419    -1011      165 
    1112     1170      475     -331     -679     -499      -81      250 
     331      125     -319     -738     -789     -297      580     1247 
    1048      -30    -1229    -1674    -1057      187     1309     1818 
    1574      729     -372    -1265    -1426     -712      401     1105 
     686     -802    -2297    -2525    -1082     1154     2673     2557 
    1117     -442     -966     -215      964     1440      923      -88 
   -1135    -1922    -2166    -1645     -276     1442     2392     1919 
     489     -891    -1331     -443     1224     2410     2205      694 
   -1282    -2657    -2719    -1561       14      970      617     -680 
   -1601    -1170      491     2466     3583     3057     1017    -1453 
   -2823    -2212     -263     1398     1567      253    -1365    -1804 
    -647     1040     1705      743     -939    -1825    -1144      536 
    1845     1819      605     -826    -1453     -940      162      964 
     939       96    -1170    -2193    -2261    -1052      988     2714 
    2924     1349     -962    -2454    -2231     -643     1159     2180 
    1992      924     -139     -669     -709     -462     -161       69 
      83     -328     -858     -750      132      990     1047      453 
      92      495     1228     1438      671     -698    -1747    -1876 
   -1272     -433      414     1104     1345     1069      392     -490 
   -1012     -642      361     1096      807     -355    -1257     -794 
     884     2248     1852      -73    -1894    -2270    -1261       84 
     889      888      241     -441     -507      147     1036     1387 
     760     -553    -1730    -1885     -864      416      902      400 
    -427     -748     -283      630     1401     1442      513     -947 
   -2002    -1939     -889      415     1239     1096      112     -852 
   -1038     -417      489     1128     1427     1552     1369      655 
    -360    -1101    -1206     -754     -259     -353     -988    -1390 
    -990      -22      854     1143      879      561      563      904 
    1414     1677     1268      126    -1383    -2483    -2377     -982 
     922     2241     2216      954     -660    -1717    -1733     -799 
     413     1112      848      -97     -652       -5     1388     2170 
    1403     -472    -2134    -2524    -1507       37      999      922 
      30    -1016    -1531    -1300     -550      408     1290     1613 
    1008     -170    -1091    -1025      164     1638     2186     1334 
    -309    -1633    -1922    -1335     -542       73      501      683 
     650      613      661      739      709      461      164       73 
      66     -173     -695    -1257    -1532    -1310     -571      429 
    1074      845      -29     -712     -571      249      995     1100 
     683      185     -159     -367     -524     -561     -249      427 
    1003      932      263     -370     -315      559     1499     1479 
     370    -1042    -1799    -1489     -586      286      887      949 
     349     -492    -1032     -952     -281      462      605     -168 
   -1413    -2072    -1498      -47     1377     1982     1595      749 
     147      134      600     1037      896       71     -961    -1380 
    -751      419     1144      865     -108     -907     -932     -279 
     494      800      491      -28     -229       23      395      485 
     245     -102     -443     -683     -697     -652     -873    -1417 
   -1892    -1604     -188     1803     3154     2946     1326     -587 
   -1469     -744      799     1680     1211     -136    -1422    -1754 
    -807      737     1691     1329      -95    -1562    -2026    -1158 
     364     1309      957     -288    -1309    -1186      179     1924 
    2706     1766     -422    -2464    -2941    -1531      576     1726 
    1220     -291    -1484    -1496     -453      917     1846     1890 
    1113      -10     -929    -1347    -1170     -366      918     2063 
    2166      982     -649    -1602    -1444     -787     -602     -943 
    -881      172     1599     2194     1513      274     -573     -627 
     -74      428      248     -602    -1526    -1853    -1293      -96 
    1147     1818     1613      752     -268     -931     -811       76 
    1071     1415      878     -183    -1093    -1218     -420      721 
    1378     1228      554     -310    -1193    -1788    -1730     -977 
     160     1016      929       20     -846     -901      -82      972 
    1499     1199      332     -539     -975     -928     -595     -159 
     291      639      793      848      808      458     -197     -724 
    -649      -20      572      677      378       30      -97       14 
     157       39     -349     -681     -933    -1322    -1602    -1225 
     -44     1333     1867     1119      -83     -415      545     1769 
    1820      562     -853    -1469    -1132     -452     -352     -910 
   -1301     -840      455     1783     2144     1242     -338    -1569 
   -1652     -662      652     1652     1911     1109     -537    -2153 
   -2686    -1732       38     1486     1711      593     -886    -1532 
    -922      540     1913     2365     1731      401     -962    -1662 
   -1304     -133     1144     1895     1830     1165      430      -79 
    -399     -719    -1255    -1972    -2461    -2255    -1267       33 
     886      882      388      118      435     1114     1546     1271 
     465     -215     -280      119      267     -456    -1766    -2657 
   -2380     -930     1026     2480     2787     2112     1078      209 
    -292     -509     -569     -538     -543     -670     -810     -676 
     -53      703      905      436     -164     -278      279      977 
    1032      345     -445     -703     -362      -32     -218     -549 
    -366      394     1048      774     -409    -1546    -1699     -841 
     173      602      460      188      227      662     1186     1520 
    1441      732     -448    -1521    -1861    -1237       17     1268 
    1909     1607      558     -652    -1469    -1519     -782      291 
    1042     1049      519      104      133      417      637      569 
     181     -401     -936    -1097     -815     -394     -113       -2 
      86      298      517      463       54     -525     -922     -889 
    -576     -225      230      861     1358     1234      355     -802 
   -1524    -1454     -833     -111      454      611      229     -308 
    -432       91     1027     1763     1727      795     -535    -1292 
    -923      -47      250     -309    -1012    -1068     -412      419 
     980     1160     1020      722      481      482      641      587 
      53     -905    -1810    -1980    -1239      -67      888     1077 
     392     -564     -906     -209     1082     1986     1886      876 
    -543    -1631    -1789    -1161     -438     -144     -342     -712 
    -731      -99      967     1871     1988     1147     -131     -955 
    -703      301     1013      866      178     -490     -768     -534 
       9      451      517      259       31      170      628     1034 
     985      313     -759    -1686    -1879    -1225     -145      819 
    1074      321     -922    -1767    -1675     -716      472     1137 
     939      232     -161      231     1108     1646     1202       -8 
   -1208    -1613     -920      208      824      588     -187     -769 
    -708     -348     -177     -174      -43      329      813     1144 
    1102      739      271      -56      -26      361      816      926 
     488     -365    -1271    -1779    -1812    -1666    -1391     -925 
    -375      275     1016     1609     1950     2058     1831     1252 
     442     -474    -1169    -1173     -476      301      382     -499 
   -1647    -1953    -1082      329     1402     1608     1097      496 
     192      175      404      735      827      427     -389    -1150 
   -1296     -769      -32      458      461       30     -465     -659 
    -452      -23      227       83     -208     -302     -141       38 
      63       36       75      154      235      402      674      748 
     235     -767    -1524    -1429     -712       -1      338      237 
    -122     -383     -271      298     1112     1726     1822     1385 
     685      166      -30     -217     -537     -736     -618     -238 
     151      176     -312     -977    -1275     -953     -138      880 
    1692     1925     1498      605     -290     -631     -223      600 
    1146      947      196     -581     -877     -472       63      -91 
    -889    -1529    -1411     -745     -239     -262     -557     -572 
     -91      520      874      883      594       41     -665    -1147 
   -1083     -643     -190      181      499      654      595      413 
     146     -155     -464     -771     -839     -430      289      848 
     864      365     -370    -1032    -1223     -858     -415     -320 
    -587     -854     -567      331     1271     1792     1934     2005 
    2136     2118     1790     1360     1244     1621     2139     2208 
    1590      506     -658    -1488    -1727    -1500    -1084     -731 
    -736    -1123    -1292     -539     1165     3042     3974     3196 
     758    -2438    -5000    -5826    -4795    -2735     -902     -251 
    -702    -1243     -897      606     2811     4766     5471     4338 
    1531    -1860    -4170    -4251    -2400     -126      909      -69 
   -2288    -3876    -3583    -1622     1032     3226     3959     2964 
     878    -1096    -1828    -1103      156      763      299     -784 
   -1708    -1878    -1169      131     1432     1953     1379      299 
    -388     -208      633     1405     1691     1782     1851     1720 
    1506     1525     1778     1844     1174     -260    -1822    -2865 
   -3183    -2924    -2211     -942      895     2838     4015     3630 
    1591    -1249    -3463    -4043    -3221    -1871     -402     1259 
    3014     4275     4218     2468     -257    -2213    -1888      454 
    2673     2383    -1010    -5596    -8275    -7091    -2586     2828 
    6421     6564     3678     -143    -2612    -2455     -120     2261 
    2524      346    -2714    -4585    -4148    -1909      627     2156 
    2275     1458      496     -237     -955    -1979    -3281    -4355 
   -4353    -2709      137     3048     5078     5680     4683     2433 
    -189    -1955    -2041     -695      996     1906     1602      433 
    -818    -1227     -270     1468     2592     2196      575    -1227 
   -2342    -2611    -2306    -1557     -317     1081     1803     1239 
    -294    -1672    -1883     -879      541     1525     1750     1449 
    1084      865      756      896     1401     1956     1929      909 
    -763    -2230    -2968    -3099    -2841    -1996     -311     1761 
    2947     2073     -558    -3029    -3480    -1673      893     2206 
    1517      -31     -770     -341      304      333     -216     -682 
    -505      190      882     1228     1124      449     -974    -2714 
   -3383    -1987      728     2937     3158     1345     -926    -1779 
    -448     2259     4326     3990     1208    -2373    -4604    -4204 
   -1678     1087     2509     2412     1598      848      466      551 
    1253     2503     3715     3909     2405     -271    -2417    -2701 
   -1658    -1077    -1885    -3319    -4056    -3360    -1374      946 
    2178     1391     -747    -2297    -1732      838     3902     5832 
    5851     3849      228    -3647    -5813    -5282    -2866     -301 
    1098     1241     1060     1410     2082     1942      226    -2423 
   -4385    -4501    -3036    -1248     -350     -845    -2011    -2064 
     254     4094     6902     6604     3357     -583    -2538    -1511 
     926     2300     1596     -399    -2199    -2731    -1967     -662 
     315      189    -1240    -2762    -2428      364     3966     5724 
    4373     1270    -1276    -2319    -2275    -1694     -885     -338 
    -751    -2186    -3603    -3601    -1610     1426     3859     4959 
    5100     4559     3056      542    -2195    -4107    -4627    -3618 
   -1284     1374     2438      582    -3069    -5452    -4150      452 
    5178     6494     3480    -1362    -4098    -2599     1792     5780 
    6868     4700      851    -2541    -4374    -4661    -3682    -1866 
     -61      730      157     -991    -1288       28     2119     3175 
    2055     -583    -2688    -2697    -1115      193      111     -958 
   -1877    -1593      125     2347     3583     2997     1283      -51 
    -103      996     2380     3161     2920     1446    -1090    -3570 
   -4561    -3633    -1650      102      942     1084     1067     1068 
     716     -385    -1820    -2319    -1030     1225     2521     1752 
    -433    -2455    -3126    -2272     -540     1078     1686     1032 
     -21     -156     1163     3390     5283     5577     3603     -381 
   -4759    -7117    -6068    -2366     1494     2766      535    -3249 
   -5311    -3864       98     3793     4904     3404     1277      387 
     931     1978     2676     2569     1427     -566    -2605    -3790 
   -3752    -2760    -1455     -299      825     2270     3817     4607 
    3871     1560    -1446    -3861    -4914    -4625    -3442    -1735 
     235     1978     2940     3111     3128     3482     3728     2852 
     579    -1842    -2637    -1378      457     1000     -126    -1670 
   -2290    -1892    -1472    -1890    -3092    -4387    -5060    -4715 
   -3399    -1487      700     2924     4645     5222     4573     3300 
    2307     2128     2356     2173     1399      591      479     1265 
    2049     1528     -383    -2397    -3267    -2850    -1981    -1503 
   -1525    -1633    -1361     -533      521     1248     1339      852 
     -44    -1301    -2606    -3165    -2427     -713      935     1541 
    1253     1288     2392     3952     5013     5232     4462     2387 
    -873    -4044    -5152    -3294      202     2801     2832      615 
   -2090    -3717    -3838    -2855    -1381      161     1455     2097 
    1850      950      167      316     1293     1753      271    -2990 
   -5955    -6288    -3432     1129     5069     6600     5477     2797 
    -128    -2351    -3487    -3800    -3758    -3682    -3753    -3836 
   -3378    -1880      549     3305     5738     7327     7617     6274 
    3473      163    -2471    -3819    -3936    -3064    -1536     -147 
     100     -909    -1954    -1603      201     2039     2490     1187 
   -1185    -3346    -3977    -2307     1251     5019     6908     5913 
    3081      570      -33     1261     2808     2749      658    -2199 
   -3874    -3308    -1260      289     -187    -2393    -4423    -4465 
   -2300      843     3248     3539     1778     -354    -1188     -418 
     976     1557      506    -1772    -3993    -4810    -3671    -1164 
    1539     3321     3691     3082     2188     1385      976     1099 
    1348     1103      174    -1057    -1979    -2341    -2513    -2918 
   -3467    -3779    -3532    -2649    -1353      103     1354     1813 
    1423     1083     1803     3663     5643     6459     5629     3643 
    1434     -167     -915    -1204    -1545    -2017    -2195    -1703 
    -899     -616    -1160    -1954    -2190    -1627     -776     -244 
     -51       83       79     -336    -1081    -1737    -1925    -1595 
   -1004     -353      515     1837     3378     4472     4457     2998 
     496    -1823    -2696    -1875     -284      836      694     -788 
   -2804    -4020    -3525    -1399     1324     3131     3046     1449 
    -229     -591      789     2980     4166     2985     -234    -3516 
   -4770    -3599    -1447       -9       71     -776    -1569    -1431 
    -185     1665     3312     3902     3054     1225     -590    -1499 
   -1298     -388      789     1801     2085     1327     -106    -1409 
