Origin Time       2025/03/28 03:50:00
Lat.              35.403
Long.             140.360
Depth. (km)       54
Mag.              4.4
Station Code      KNG204
Station Lat.      34.8931
Station Long.     139.5711
Station Height(m) -933
Record Time       2025/03/28 03:51:07
Sampling Freq(Hz) 100Hz
Duration Time(s)  61
Dir.              N-S
Scale Factor      2000(gal)/6182761
Max. Acc. (gal)   1.808
Last Correction   2025/03/28 03:51:07
Memo.             
[...]
     219      123      133      234      288      214      103       70 
      93       96       67       41       52      112      194      242 
     252      314      462      573      511      300      104       53 
     109      122       21      -72      -21      116      188      191 
     251      348      363      338      345      273      103       52 
     173      212       82        0       65      119       39      -88 
     -85      116      365      392      157      -14      115      306 
     270      159      169      105     -117     -163      135      382 
     185     -177     -212      -35      -27      -83      133      462 
     527      406      262       84       89      349      466      267 
       6     -195     -341     -324     -135       69      210      316 
     393      317       62       18      373      630      547      477 
     388      -34     -440     -310       43       14     -253     -266 
    -127     -158      -82      465     1078     1112      671      351 
     371      478      422      178     -134     -379     -581     -856 
    -971     -534      250      781      923      874      603      267 
     358      775      810      366      -13     -290     -774    -1049 
    -503      424      677        5     -617     -209      796     1192 
     703      -13     -397     -271      324      950      906       81 
    -616     -291      578      754      119     -410     -325      324 
    1077      965     -188    -1031     -570      448      838      521 
     256      344      305      -71     -173      499     1227      777 
    -586    -1164     -392      404      210     -383     -486     -167 
     184      586     1055     1212      586     -580    -1131     -428 
     614      921      572      124     -225     -467     -393      161 
     807      807     -160    -1436    -1708     -373     1427     1934 
     918     -335     -829     -483      381     1121     1033      216 
    -424     -367      -93     -126     -238     -128      139      544 
     990     1044      342     -778    -1144     -101     1078      789 
    -415     -771       52      849      943      873      829      161 
    -832     -813      305     1067      775      111     -404     -622 
     -67     1061     1393      420     -550     -411      313      681 
     737      901      960      612       48     -460     -593     -127 
     371      199     -342     -584     -434     -150       28     -106 
    -514     -606       85      806      445     -598     -847      134 
    1139     1043      257     -210     -124      252      671      741 
     305      -85       14      237      243      340      531       41 
   -1173    -1567     -139     1684     1996     1107      513      419 
      93     -338     -309     -193     -477     -520      230      967 
     943      552      213       35      287      823      957      305 
    -805    -1341     -465      937     1145      174     -586     -651 
    -309      448     1103      675     -525    -1253    -1107     -460 
     519     1561     1757      745     -408     -727     -420      -91 
    -178     -516     -278      606      965      331     -279      -15 
     853     1442     1076       75     -641     -774     -730     -855 
   -1050     -881     -131      781     1257     1254     1072      822 
     723      945      860     -148    -1258    -1164      -40      793 
     517     -500    -1015     -262      801      813      155       51 
     489      676      293     -313     -435      -41      125      -25 
     -36      -24     -243     -350      249     1390     1897     1233 
     455      526      863      285    -1041    -1596     -894     -150 
    -113     -218       -8      257      458      907     1435     1274 
     383     -430     -764     -790     -717     -677     -634     -320 
     383      951      686     -134     -581     -360      194      743 
    1059      987      402     -350     -463       61      492      763 
     912      339     -598     -415      829     1129     -279    -1634 
   -1468     -514       49      205      424      813     1183     1346 
    1249      997      704      330     -193     -614     -479      139 
     481       52     -653     -740     -137      415      548      430 
     169      -66     -160     -394     -786     -683      203     1036 
     862        2     -421     -153      141      187      258      476 
     714      790      594      275       41     -239     -495     -204 
     318      147     -332     -112      504      677      459      239 
     106      266      768      977      652      529      725      357 
    -518     -623      410     1251      731     -502    -1081     -798 
    -301      117      461      490       57     -391     -293      332 
     812      460     -462     -908     -396      348      421      -12 
    -258     -224      -79      184      466      665      841      872 
     508     -103     -449     -231      225      356      236      425 
     881     1046      849      623      379     -125     -736     -787 
     -83      541      388     -222     -645     -522      177      978 
    1252      877      236     -145      -19      221       22     -488 
    -678     -393     -155     -123      265     1066     1452     1189 
     974      971      730      152     -645    -1451    -1826    -1604 
    -973     -177      333      342      267      449      803     1142 
    1308     1312     1202      816      143     -484     -834     -945 
    -786     -233      417      411     -334     -740      -95      827 
    1052      757      428        4     -230      219      640      100 
    -690     -640     -142       28       73      268      307      123 
      75      232      428      711      994      839      201     -327 
    -487     -707    -1031     -879     -266      133      180      262 
     521      877     1132     1144     1065      872      296     -507 
    -905     -432      457      677       65     -399     -294     -131 
      66      795     1687     1764     1010      283      -80     -431 
    -900    -1148     -964     -588     -345     -164      325     1110 
    1634     1501      823        4     -510     -600     -471     -253 
     -36       -5      -82       50      296      172     -220     -217 
      33     -322    -1056     -966       53      857      866      538 
     426      566      649      528      227     -185     -370      -73 
     367      571      786     1244     1526     1256      577     -177 
    -700     -997    -1212    -1113     -610     -244     -405     -702 
    -519      233     1033     1255      978      774      687      446 
     168      128      330      389       94     -175     -257     -414 
    -525     -353      -78      190      543      725      476      246 
     592     1143     1103      420     -286     -594     -570     -429 
    -289     -105      185      466      628      750      844      741 
     416       56     -294     -676     -797     -374      110       25 
    -316     -312     -151     -198     -105      430      935     1038 
     968      920      852      539     -217     -950     -882     -209 
      85     -243     -511     -310      110      492      874     1304 
    1611     1467      722     -148     -404      -62      -87    -1019 
   -1919    -1741     -893     -255       99      462      699      446 
      46      353     1256     1650     1151      590      541      500 
     -79     -744     -690     -127       77      -36      218      637 
     485       33      207      915     1184      797      346      -57 
    -664    -1172    -1228    -1080     -870     -368      276      713 
    1048     1236      785     -129     -532     -158      320      577 
     779      891      812      641      425      127     -156     -230 
      28      522      903      924      667      358      211      266 
     352      410      473      381      -84     -708     -831     -337 
     -15     -191     -177      305      697      660      247     -454 
   -1049    -1026     -585     -325     -159      276      593      287 
    -197     -114      413      782      887      906      685      124 
    -378     -500     -348      -57      207       51     -611    -1097 
    -704      261      871      746      279      -28      -92     -118 
     -38      372      783      647      147      -86      156      591 
     824      760      744     1041     1427     1533     1219      562 
    -121     -463     -522     -582     -590     -459     -387     -281 
     282     1060     1256      748      107     -247     -211       -4 
    -128     -672    -1036     -896     -712     -788     -768     -384 
      59      174      116      356      736      633      119     -269 
    -411     -302       71      399      507      622      897     1236 
    1530     1653     1412      945      594      227     -328     -637 
    -509     -429     -440     -158      130       14     -200     -132 
     123      192      -64     -184      145      287     -343    -1002 
    -758     -118        0     -250     -258       35      328      547 
     869     1262     1284      727      136       66      290      296 
     -53     -566     -826     -476      245      754      873      827 
     828      873      766      333     -345     -819     -601       59 
     302     -247    -1053    -1235     -568      162      324      299 
     625     1084     1179     1011      972     1027      982      748 
     302      -79     -179     -282     -539     -703     -803    -1002 
    -929     -260      419      334     -375     -996    -1186    -1075 
    -868     -716     -715     -743     -422      364     1193     1688 
    1871     1877     1887     1852     1219      -29     -779     -459 
     -23     -205     -319      260      969     1255     1284     1164 
     912      638      172     -450     -625     -166      336      419 
     224      121      357      923     1444     1469     1074      706 
     472      348      620     1200     1375      858      115     -441 
    -796     -969     -964    -1005    -1233    -1441    -1426    -1198 
    -959     -906     -792     -209      642     1219     1409     1433 
    1279      833      412      461      939     1464     1673     1417 
     909      450      172      259      782     1117      470    -1049 
   -2763    -4133    -4595    -3896    -2673    -1844    -1456     -526 
    1429     3157     3312     2537     2241     2311     1571     -218 
   -1911    -2361    -1748    -1169    -1059     -746      373     1688 
    2050     1517     1275     1940     2877     2877     1618      209 
    -712    -1810    -3083    -3465    -2783    -2075    -1858    -1328 
     287     2181     2827     2083     1342     1580     2184     2055 
     936     -660    -1937    -2210    -1402     -117      872     1205 
    1053      692      143     -477     -765     -642     -483     -547 
    -782     -936     -786     -273      620     1789     2929     3804 
    4133     3290     1073    -1500    -3012    -2930    -1819     -515 
     536      978      848      946     1387     1173      178     -579 
    -691     -485       38     1071     2053     1809      213    -1252 
   -1522    -1035     -351      444      897      401     -683    -1446 
   -1614    -1197       27     1786     2968     2588      892     -867 
   -1669    -1417     -636      261     1245     1928     1289     -873 
   -2936    -2913     -745     1526     2168     1546     1000      901 
     420    -1051    -2796    -3414    -2425     -718      600      947 
     264     -694     -827       69     1220     1858     1835     1387 
     790      355      315      479      244     -643    -1402     -968 
     558     2035     2773     3039     3187     2798     1069    -1627 
   -3505    -3591    -2817    -2140    -1582    -1419    -1659     -921 
    1473     3776     4247     3305     2015      650     -522    -1120 
   -1339    -1244     -308     1218     1816      719     -637     -426 
    1134     2311     2026      582     -976    -1627    -1407    -1528 
   -2268    -2100      -99     2624     4318     3950     1752     -564 
   -1092      206     1465     1345      752      914      959      -81 
    -762      244     1231       89    -1971    -2494    -1622    -1002 
    -982     -698      275     1127     1012      569      717      729 
    -488    -2362    -3564    -3625    -2677     -790     1447     2768 
    2682     2091     1825     1496      257    -1598    -2413    -1211 
     693     1411      933      271     -299     -618     -344     -156 
    -730     -709     1153     3204     3171     1056    -1720    -3687 
   -3713    -2016     -133     1211     2456     3303     3062     2234 
    1463      417     -652     -568      229     -250    -1934    -2497 
   -1134      604     1461     1661     1810     1755      862     -867 
   -2702    -3804    -3404    -1558      295     1206     2000     3055 
    3015     1310     -331     -215      988     1449      844      253 
      57     -246     -966    -2006    -2692    -2043     -117     1726 
    2367     2075     1846     1946     1802     1212      477     -499 
   -1770    -2316    -1214      501      962       24     -810     -561 
     217      422     -351    -1232     -861      388      614     -136 
     247     1881     2410     1027     -333     -481     -651    -1645 
   -2095     -997      222      -36     -851     -453      650      571 
    -336      451     3404     5735     5203     2544     -359    -2368 
   -2851    -1716     -199     -176    -1785    -2658     -860     2102 
    3211     2260     1541     1780     1480      -36    -1603    -2134 
   -1761     -984       24      773      557       53      792     2297 
    2390      871     -166      212      819      527     -497    -1363 
   -1691    -1874    -1749     -628     1003     1815     1430      552 
     -67     -346     -773    -1428    -1779    -1793    -1987    -2151 
   -1483     -233      274     -117      170     1837     3494     3817 
    2945     1417     -165     -833     -365      341      571      170 
    -988    -2393    -2601    -1296     -197     -332     -533      392 
    1840     2331     1368     -148     -976     -595      456     1291 
    1751     2299     3145     3852     3674     2408      601    -1111 
   -2306    -2831    -3103    -3552    -3598    -2367     -426      764 
     957      953      999     1077     1516     2039     1773      673 
    -317     -297      714     1483     1114      700     1338     1966 
    1685     1482     1605      712    -1096    -1890    -1268    -1161 
   -2618    -4075    -3912    -2892    -2596    -2917    -2606    -1358 
      13      943     1417     1580     1638     1592     1527     2118 
    3447     4174     3561     2725     2459     1972      708     -577 
    -994     -850    -1330    -2642    -3545    -3359    -2703    -2049 
   -1224     -190      697     1182     1628     2561     3684     4039 
    3179     1500     -455    -2119    -2503    -1206      372      653 
     130      269     1160     1684     1141     -158    -1296    -1503 
    -942     -377      -68       77     -171     -768     -988     -514 
      41      175       -7     -311     -380      329     1679     2792 
    2801     1289     -859    -1470      228     2038     1731       36 
    -876     -422      155     -197    -1032    -1609    -2285    -3377 
   -4187    -4102    -3116    -1259     1389     4139     5647     5192 
    3577     1976      917      476      390      223     -101     -103 
     456      751        6     -944     -835       34      666      917 
     947      661      349      683     1546     1691      383    -1516 
   -2765    -2836    -1670      421     2424     2987     1817       71 
   -1301    -2210    -2455    -1973    -1514    -1621    -1672     -891 
     413     1492     2246     2586     1919      453     -389      153 
    1144     1295      557      -66      -69       11     -272     -600 
    -522     -171       36      172      539      988     1143      983 
     965     1271     1111     -235    -1985    -2695    -2034     -752 
     329      703      331     -471    -1430    -2077    -1664     -235 
     989     1055      480      464     1291     2039     1784      772 
     195      626     1300     1353      875      299     -324     -814 
    -661       73      846     1579     2310     2562     1912      542 
    -975    -1962    -2063    -1632    -1134     -372      939     2194 
    2335     1339      393      192      204      -17     -175      -62 
      28     -114     -316     -519     -927    -1290     -971     -157 
     229     -100     -615     -759     -373       89      -77     -701 
    -554      963     2585     2766     1598       49    -1239    -1769 
   -1538    -1362    -1626    -1818    -1618    -1015      -64      708 
     854      831     1282     2069     2549     2309     1517      713 
     208      -60     -151      -75       43       -6     -372     -834 
    -758      201     1522     2311     2230     1744     1423     1276 
    1139     1087      952      527      308      712      918       31 
   -1131    -1130     -173      257     -649    -2356    -3568    -3355 
   -2204    -1469    -1525    -1390     -421      613      726       39 
    -677     -916     -535      301     1051     1364     1629     2251 
    2722     2172      732     -335      -51     1180     2071     1820 
     849      115       -9       71     -315    -1400    -2545    -2875 
   -2266    -1294     -424      358     1233     2208     3019     3153 
    2293      902     -213     -687     -471      336     1332     2032 
    2089     1515     1000     1165     1449      885     -380    -1525 
   -2340    -2978    -3254    -3027    -2601    -2265    -1904    -1283 
    -347      835     2005     2612     2372     1623      789      161 
      71      496      924     1037     1015     1066     1189     1298 
    1159      434     -899    -2330    -3220    -3415    -3459    -3820 
   -3870    -2512       69     2317     3207     3337     3530     3298 
    1833     -214    -1281     -918      -85      505     1049     1590 
    1840     1919     1906     1525      930      474      -43     -729 
   -1056     -705     -155      -44     -404     -763     -848     -917 
   -1096     -973     -458     -174     -515    -1075    -1073     -153 
    1176     2000     1847     1110      647      737      738      297 
     198      982     1768     1629      903      434      531      891 
    1058      818      145     -910    -2045    -2816    -3055    -2823 
   -2141    -1094      105     1283     2318     3034     3259     3022 
    2622     2279     1760      724     -830    -2555    -3806    -3959 
   -3058    -1984    -1636    -1921    -2051    -1644     -869       77 
     992     1518     1429      940      352     -243     -551      -81 
    1141     2538     3567     3945     3611     2769     1835     1057 
     206     -873    -1638    -1623    -1275    -1134    -1114    -1027 
    -683      255     1581     2311     1928     1287     1376     1828 
    1589      401     -848    -1119     -365      523      667       -8 
    -722     -798     -590     -777    -1081     -771      -24      522 
     999     1668     1923     1309      303     -698    -1696    -2409 
