Origin Time       2025/03/28 03:50:00
Lat.              35.403
Long.             140.360
Depth. (km)       54
Mag.              4.4
Station Code      KNG202
Station Lat.      34.7396
Station Long.     139.8393
Station Height(m) -2339
Record Time       2025/03/28 03:51:04
Sampling Freq(Hz) 100Hz
Duration Time(s)  67
Dir.              N-S
Scale Factor      2000(gal)/6182761
Max. Acc. (gal)   2.816
Last Correction   2025/03/28 03:51:04
Memo.             
[...]
     638      636      640      638      633      636      643      644 
     643      641      636      634      637      635      637      643 
     641      639      642      645      646      644      643      642 
     636      635      646      651      647      646      646      641 
     643      648      644      642      637      636      644      644 
     640      639      638      633      630      634      638      639 
     636      638      644      638      631      634      636      638 
     632      626      632      636      633      631      626      628 
     634      635      636      637      631      627      627      625 
     622      620      619      618      618      623      624      624 
     625      613      609      619      619      617      616      613 
     618      619      613      612      607      603      613      614 
     609      618      619      603      596      600      604      601 
     596      596      590      581      580      582      586      591 
     589      586      588      597      607      609      610      607 
     602      604      611      613      601      595      611      629 
     627      600      561      531      531      550      549      546 
     613      775      970     1094     1082      955      801      689 
     585      420      195       36       87      314      563      721 
     783      842      939      991      952      837      652      475 
     410      437      505      639      804      871      817      698 
     538      434      458      489      477      507      555      578 
     652      772      806      728      687      762      814      735 
     621      556      567      685      779      737      700      707 
     616      449      356      346      334      326      375      450 
     554      740      896      899      852      845      809      733 
     663      614      626      669      641      610      677      716 
     639      552      493      454      518      675      813      944 
    1120     1254     1244     1085      829      465      -59     -598 
    -898     -912     -667     -148      492     1023     1444     1883 
    2292     2446     2204     1583      696     -236    -1015    -1534 
   -1717    -1584    -1104     -183      938     1835     2357     2515 
    2293     1755     1088      506      147      -53     -213     -176 
     154      531      834     1074     1118      932      651      396 
     350      630     1013     1156     1018      878      959     1131 
    1104      807      459      290      330      510      714      705 
     359      -99     -291     -124        0     -268     -507     -129 
     664     1358     1742     1822     1805     1756     1475      983 
     508      148     -147     -373     -366      -29      517     1028 
    1222     1015      747      798     1091     1158      725      196 
     224      869     1532     1679     1309      750      287      -57 
    -355     -427      -91      397      612      548      486      520 
     581      649      620      352       42       57      404      801 
    1088     1269     1353     1259      898      478      320      327 
     253      149      177      436      895     1272     1282     1057 
     985     1170     1398     1449     1146      423     -332     -465 
      -4      240     -126     -556     -450       41      424      536 
     506      494      560      638      705      810      937      982 
     857      630      529      685      917      926      645      386 
     517      869      971      778      544      385      420      835 
    1570     2213     2330     1899     1311      913      776      762 
     629      248     -245     -592     -697     -680     -618     -415 
     -57      309      640      986     1324     1559     1561     1278 
     783      217     -339     -845    -1070     -785     -219      217 
     363      318      418      860     1369     1717     2015     2300 
    2356     1993     1335      664       90     -360     -540     -338 
     124      603      966     1160     1205     1171     1017      786 
     733      920     1025      776      282     -169     -382     -285 
      10      193       46     -177       71      864     1674     2151 
    2287     1977     1321      731      313      -41     -187      -46 
     142      270      535      937     1139     1020      730      345 
      35       52      323      476      292      -53     -221       23 
     759     1649     1997     1543      720      124       21      180 
     260      232      120     -124     -279      -44      518     1062 
    1292     1186     1083     1355     1825     1933     1540      997 
     502      -13     -503     -728     -501       25      528      921 
    1251     1517     1751     1912     1851     1536     1139      836 
     702      754      825      632      186     -225     -357     -130 
     235      325      105      -50       32      253      538      738 
     730      691      751      758      640      529      508      436 
     216       20      -21       70      392      960     1510     1891 
    2065     1731      778     -316     -957     -887     -261      441 
     831      958     1038     1054      902      742      748      823 
     987     1380     1883     2208     2052     1367      666      459 
     584      525      116     -389     -687     -726     -780    -1006 
   -1048     -603      121      832     1455     2031     2446     2355 
    1743     1056      594      304      -29     -574    -1183    -1500 
   -1311     -668      215     1105     1725     1888     1742     1582 
    1515     1402      934       64     -659     -617      129      888 
    1133      968      763      727      804      819      833     1103 
    1579     1902     1799     1183      163     -801    -1123     -691 
      31      587      865      936      946      971      975     1067 
    1272     1302      984      430     -188     -637     -674     -341 
      73      403      588      626      755     1047     1226     1239 
    1300     1475     1626     1629     1558     1457     1131      554 
      57     -140      -63      203      369      182     -177     -469 
    -590     -419      -82      284      700      952     1005     1153 
    1412     1630     1763     1698     1309      627      -71     -375 
    -128      427      852      898      744      680      711      665 
     508      395      398      428      505      737     1006     1059 
     920      846      933     1083     1120      948      713      473 
      43     -534     -931     -978     -718     -173      568     1173 
    1345     1177      988      979     1047      962      804      909 
    1295     1520     1200      432     -379     -898     -970     -597 
      89      825     1231     1201     1065     1010      918      811 
     820      868      772      555      462      763     1484     2198 
    2364     1946     1345      820      344     -160     -593     -778 
    -737     -593     -359     -144     -123     -204     -177       21 
     403      899     1326     1569     1638     1602     1543     1381 
     949      281     -410     -862     -877     -507       76      762 
    1299     1394     1105      692      416      417      528      583 
     586      599      839     1323     1658     1663     1481     1158 
     678      233       76      175      264      211       79       31 
     264      739     1168     1410     1551     1620     1521     1188 
     729      288     -143     -581     -976    -1157     -792      128 
    1056     1514     1580     1534     1351      918      472      343 
     481      543      356      106       69      315      690     1006 
    1122      977      704      455      229      102      278      829 
    1591     2283     2644     2583     2217     1723     1184      631 
     142     -223     -464     -598     -693     -765     -689     -484 
    -405     -617     -983    -1104     -660      286     1402     2245 
    2453     2044     1401      979      878      792      610      545 
     588      530      408      411      587      880     1183     1353 
    1449     1695     2025     2092     1785     1288      772      380 
     229      173      -63     -457     -718     -727     -645     -583 
    -528     -494     -410     -182      105      320      401      440 
     580      747      829      828      661      264     -200     -385 
     -48      656     1397     2013     2348     2286     2040     1907 
    1918     1950     1869     1626     1291      923      568      333 
     238       64     -407     -972    -1199    -1044     -748     -457 
    -346     -452     -519     -447     -246      211      874     1556 
    2153     2433     2261     1931     1691     1421      961      276 
    -455     -818     -614      -65      560     1095     1395     1572 
    1826     2032     2018     1832     1585     1300      840      221 
    -305     -651     -859     -881     -635      -80      621     1176 
    1502     1721     1934     2106     2031     1543      781       59 
    -477     -852    -1110    -1366    -1660    -1703    -1360     -996 
    -823     -659     -360      108      768     1534     2275     2879 
    3145     2985     2566     2085     1702     1449     1181      869 
     596      357      119     -145     -460     -719     -627        5 
     907     1480     1322      622      -44     -256      103      893 
    1634     1877     1650     1099      281     -570    -1195    -1417 
   -1119     -447      329      982     1351     1463     1391     1174 
     925      675      382      165      120      210      426      654 
     693      557      452      594     1072     1710     2108     1898 
    1034     -132    -1085    -1457    -1292     -964     -638     -210 
     308      886     1462     1814     1953     2101     2255     2226 
    1914     1391      822      419      325      327       94     -359 
    -768     -855     -491      169      890     1480     1811     2011 
    2108     1870     1466     1319     1446     1681     1887     1737 
     967     -161    -1084    -1488    -1462    -1186     -679       35 
     757     1234     1374     1300     1157     1043      949      660 
     293      350      751      990     1069     1234     1390     1274 
     809      206     -184     -161      151      356      180     -136 
    -239     -149       16      294      706     1011      960      671 
     345      169      408     1048     1828     2483     2754     2483 
    1788      962      163     -591    -1177    -1477    -1597    -1629 
   -1398     -833     -217      220      446      516      594      776 
    1020     1312     1628     1881     2028     2030     1704      958 
     150     -315     -426     -263      150      725     1339     1781 
    1943     1964     1906     1752     1487      947      153     -462 
    -577     -317      119      675     1133     1171      795      230 
    -385     -908    -1207    -1310    -1292    -1133     -812     -327 
     275      697      633      222     -230     -573     -643     -446 
    -319     -345     -144      550     1684     3081     4505     5671 
    6444     6889     6961     6384     4852     2346     -696    -3594 
   -5635    -6373    -5914    -4570    -2596     -427     1384     2529 
    3128     3486     3679     3709     3770     3863     3625     2777 
    1336     -453    -2264    -3905    -5263    -6062    -5809    -4316 
   -2302     -944     -644     -664     -117     1187     2851     4263 
    4958     4855     4143     3033     1718      636      374      914 
    1583     1863     1640     1074      697     1099     2303     3783 
    4897     5094     4005     1625    -1563    -4515    -5944    -5322 
   -3368    -1176      625     1834     2290     1762      483     -685 
   -1163    -1059     -657     -182      142      245      280      443 
     745     1001     1208     1568     1894     1705      927       62 
    -135      706     1973     2670     2578     2014     1145      160 
    -765    -1636    -2431    -3005    -3152    -2809    -2055     -747 
    1285     3628     5232     5038     3062      738     -333      173 
    1384     2571     3636     4392     4566     4336     3981     3384 
    2439     1410      609      215      176       29     -748    -2104 
   -3506    -4427    -4368    -2929     -395     2117     3330     2705 
     862     -968    -1882    -1895    -1812    -2090    -2282    -1981 
   -1259     -364      278      324     -186     -912    -1354    -1201 
    -409      912     2116     2313     1525      554       11      277 
    1468     2910     3676     3749     3929     4486     4487     3035 
     653    -1187    -1534     -789     -288     -789    -1454     -674 
    2047     5259     6936     6561     5095     3358     1684      435 
    -251     -531     -425       41      569      894      948      395 
   -1237    -3452    -4987    -5307    -4686    -3450    -1893     -126 
    1842     3425     3631     2178     -145    -2180    -2998    -2331 
    -918      195      690      967     1568     2722     4089     5038 
    5245     4791     3799     2334      606     -967    -2070    -2639 
   -2777    -2704    -2441    -1723     -401     1429     3269     4120 
    3297     1129    -1404    -3287    -3959    -3576    -2587    -1357 
    -428     -328     -866    -1212     -764      242     1165     1845 
    2804     4533     6719     8520     9314     8843     7187     4778 
    2336      689      209      573     1096     1011      -84    -1693 
   -2697    -2462    -1489     -683     -387     -360     -119      696 
    1913     2785     2401      456    -2262    -4578    -5916    -6184 
   -5312    -3384     -939     1164     2367     2719     2570     2303 
    2150     2072     1838     1179      202     -479     -588     -700 
   -1375    -2259    -2600    -2257    -1663    -1265    -1107     -647 
     575     2269     3902     5280     6249     6422     5525     3727 
    1631      222      330     1817     3515     4101     3193     1585 
     231     -581     -937     -764      248     2180     4252     5272 
    4742     2826     -100    -3256    -5743    -7084    -7150    -6096 
   -4256    -1823     1127     4069     5839     5671     4151     2474 
    1236      399     -121     -483    -1124    -2195    -3196    -3635 
   -3496    -2947    -1925     -243     1723     2983     2974     2085 
     913     -269    -1096    -1143     -506      262      699      772 
     917     1641     2901     4170     4896     4603     3257     1565 
     435      312      892     1447     1610     1536     1456     1516 
    1696     1701     1253      362     -683    -1439    -1703    -1575 
    -853      741     2666     3942     4273     4019     3497     2843 
    2155     1249     -297    -2363    -4105    -4891    -4707    -3674 
   -2153     -850     -123      218      502     1065     1949     2557 
    2120      640     -972    -1676    -1010      601     2155     2797 
    2286     1099      -38     -727     -910     -855     -974    -1458 
   -2413    -3762    -4916    -5235    -4386    -2091     1378     4758 
    6862     7692     8047     8344     8161     7039     5259     3612 
    2548     1749      644     -861    -2350    -3409    -3885    -3561 
   -2163      -24     1987     3354     4038     4004     3159     1692 
      25    -1904    -4358    -6533    -7064    -5625    -2989     -133 
    2287     4001     4893     5015     4595     3731     2583     1582 
    1050      960     1004      874      530      -72    -1279    -3283 
   -5457    -6644    -6218    -4475    -2200     -160     1292     2297 
    3211     4372     5831     7034     7229     6291     4779     3348 
    2232     1254      252     -648    -1058     -708      216     1351 
    2517     3435     3582     2675     1001     -892    -2707    -4277 
   -5217    -5232    -4444    -3163    -1716     -651     -500     -966 
   -1167     -768      -59      796     1866     3055     4137     4972 
    5397     5212     4188     2209     -155    -1749    -1925    -1116 
    -258      200      504      993     1711     2345     2507     2226 
    1740     1081      364     -334    -1184    -1860    -1655     -683 
     283      728      530      -76     -773    -1424    -1665    -1041 
     279     1508     1931     1537      861      346      243      644 
    1362     2158     2924     3563     3968     4049     3656     2695 
    1394      251     -389     -573     -506     -273      230     1086 
    2054     2651     2501     1432     -436    -2688    -4822    -6285 
   -6633    -5712    -3549     -455     2753     4969     5444     4180 
    1776     -738    -2247    -2277    -1254     -115      271     -350 
   -1405    -1936    -1502     -424      960     2614     4332     5560 
    5747     4844     3382     2016     1122      799     1036     1695 
    2449     2884     2709     1943      902      -93     -888    -1235 
    -796      256     1163     1229      366     -847    -1802    -2447 
   -2954    -3121    -2521    -1144      506     1841     2366     1953 
    1044      239     -180     -329     -388     -299       79      740 
    1390     1671     1705     1830     2120     2515     2837     2825 
    2354     1423      284     -539     -604       34      684      752 
     587      822     1322     1506     1068       70    -1058    -1671 
   -1390     -315     1170     2507     2990     2363     1445     1282 
    1827     2130     1696      933      193     -665    -1704    -2611 
   -2909    -2298    -1026      166      674      449      -65     -204 
     362     1402     2545     3452     3638     2740     1071     -531 
   -1375    -1313     -813     -491     -483     -608     -649     -264 
     696     1842     2685     3122     3316     3306     2923     1947 
     309    -1562    -2825    -2957    -2058     -459     1497     3325 
    4542     4934     4499     3435     2217     1229      450     -280 
   -1004    -1652    -2093    -2261    -2204    -2036    -1767    -1198 
    -173     1219     2605     3378     3197     2309     1204      302 
    -284     -721    -1018    -1008     -600       94      555      250 
    -588    -1225    -1322    -1059     -656     -178      427     1232 
    2144     2946     3534     4011     4494     4737     4291     3126 
    1660      338     -739    -1769    -2760    -3498    -3732    -3220 
   -2074     -678      780     2069     2752     2727     2402     2221 
    2293     2378     2193     1691      927      -80    -1149    -1954 
   -2296    -2149    -1483     -371      748     1351     1390     1283 
    1283     1185      813      357      187      553     1204     1569 
    1336      549     -548    -1544    -1947    -1425     -126     1291 
    2106     2170     1954     1937     2246     2737     3086     3096 
    2906     2781     2874     2978     2619     1743      843      354 
     333      476      357        5     -228     -243      -83      166 
     272      139     -205     -784    -1516    -2245    -2843    -3098 
   -2897    -2470    -1987    -1393     -797     -279      364     1145 
    1767     2132     2341     2305     1937     1401      932      668 
     552      414      184     -100     -329     -330       43      821 
