Origin Time       2025/03/28 03:50:00
Lat.              35.403
Long.             140.360
Depth. (km)       54
Mag.              4.4
Station Code      KNG202
Station Lat.      34.7396
Station Long.     139.8393
Station Height(m) -2339
Record Time       2025/03/28 03:51:04
Sampling Freq(Hz) 100Hz
Duration Time(s)  67
Dir.              U-D
Scale Factor      2000(gal)/6182761
Max. Acc. (gal)   1.271
Last Correction   2025/03/28 03:51:04
Memo.             
[...]
       1       58      -18     -162      -63      277      413      353 
     542      786      719      425       58     -144      -65      106 
     234      301      421      752     1071     1045      710      226 
    -298     -598     -413      101      444      371      232      381 
     597      562      372      330      515      750     1013     1376 
    1578     1264      572       45     -109     -200     -340     -314 
     -89      251      654      863      766      681      666      465 
     242      232      175     -113     -314     -151      127      115 
    -146     -235      104      646     1015     1130     1071      868 
     684      658      622      391       78     -137     -324     -435 
    -162      369      713      802      725      609      700      913 
     916      636      177     -229     -220       82       60     -297 
    -318      102      365      272      167      223      333      297 
     -31     -294      122      871      992      689      790     1067 
    1040      829      540      346      427      536      429      184 
     -47     -290     -577     -614     -125      548      810      663 
     437      313      641     1258     1273      717      356      217 
     117      202      328      191      -57        8      381      561 
     391      275      397      529      521      430      340      281 
     291      362      300      -23     -361     -351        2      315 
     389      472      760     1027      973      631      344      379 
     540      572      631      733      609      309      100      113 
     370      712      897      736      225     -251     -322     -143 
      98      487      854      876      624      373      199       60 
       4       46      101      198      263       69     -135        9 
     280      447      524      502      400      318      445      657 
     564      276       65     -140     -197      123      504      578 
     483      490      625      698      541      372      629     1218 
    1348      681       55       44      115     -180     -525     -428 
      46      427      583      656      739     1010     1408     1509 
    1205      766      373      134       13     -205     -485     -533 
    -383     -360     -363       46      851     1487     1363      585 
      26       95      357      539      599      316      -96      -78 
     168       78      -25      344      656      464      196       99 
     154      342      324       84       57      243      323      229 
     114       98      250      562      814      760      488      343 
     393      346      156       18      -13      140      475      715 
     739      619      408      393      773     1104      994      722 
     657      718      691      685      748      716      684      638 
     453      365      316       79      -36       64       35     -129 
    -267     -394     -448     -322        4      409      547      345 
     230      402      590      496      226      243      519      523 
     319      353      532      550      312     -107     -325      -71 
     267      280      170      211      307      359      454      600 
     771      962     1016      856      670      512      212     -194 
    -427     -339      -73      101      130      194      290      384 
     630      914      894      567      342      536      904     1049 
     970      714      323      127      221      353      453      567 
     652      709      777      707      395       77     -187     -482 
    -532     -302     -151      -80       53      269      720     1261 
    1479     1374     1031      440        7      102      469      720 
     712      506      242      -49     -179       35      149     -176 
    -562     -660     -327      349      718      529      488      847 
     929      544      337      541      773      904     1064     1190 
    1046      601      112     -335     -816    -1001     -464      426 
     865      713      283     -195     -314      177      764      837 
     561      291      -24     -306     -384     -263       94      491 
     599      561      647      807      932     1015     1044      946 
     650      230     -118     -187       55      248      172      174 
     447      719      847      896      875      771      584      297 
     -19     -200     -236     -233     -207     -138       65      268 
     -27     -700    -1081     -997     -572       50      610      993 
    1218     1304     1385     1539     1604     1428     1123      883 
     729      594      507      455      282       -8     -279     -501 
    -604     -517     -297       26      384      587      620      642 
     636      653      984     1416     1340      836      307     -268 
    -753     -868     -770     -582     -183      268      471      458 
     530      693      605      569     1130     1644     1480     1203 
    1065      807      566      328       -8     -142       43      241 
     223      143      277      545      567      332      350      754 
     933      435     -318     -680     -765     -808     -533       11 
     297      108     -248     -248      243      743      798      538 
     341      351      573      873      923      661      469      568 
     702      699      683      633      553      551      470      247 
      32     -188     -306      -58      384      600      579      585 
     745      934      714      -12     -496     -394     -247     -290 
    -278     -113      -53     -257     -155      538      983      822 
     681      711      693      744      925      957      547      -54 
    -301     -188       -2       88      -24       26      509      850 
     839      838      816      780      873     1095     1481     1628 
    1029       90     -352      -43      424      279     -323     -654 
    -584     -432     -297     -109       10     -109     -184      155 
     593      591      317      302      509      521      305      122 
     145      422      722      795      807      810      655      555 
     482      195      122      486      724      735      861     1014 
     979      617      -74     -560     -421     -103      -24      141 
     590      907      896      725      455      215      153      208 
     327      441      396      275      326      509      594      608 
     691      709      480      197      138      197      208      224 
     307      469      514      238      -47       27      313      362 
      72       32      386      423      143      261      723      994 
     967      854      774      608      362      196       37     -125 
    -225     -398     -507     -344     -180     -201     -227     -124 
     155      612     1127     1393     1086      500      322      537 
     683      702      620      398      296      434      418      223 
     422      810      701      435      485      406       11     -159 
     100      384      421      373      442      492      401      433 
     650      647      251     -114      -67      113      119      154 
     238      241      359      503      309      -64     -245     -230 
    -122      128      527      934     1158     1152     1077      987 
     811      839     1115      921      332      311      604      463 
     297      351      132     -313     -484     -267      -20       65 
     269      556      608      410      -90     -690     -758     -268 
     209      277       -8      -22      481      892      991     1058 
    1056      807      405      242      405      437      238      241 
     594      958     1050     1011      960      687      235      -13 
     -79     -297     -420       41      672      810      720      861 
    1096     1137     1034     1010      880      279     -585    -1216 
   -1505    -1637    -1644    -1450    -1160     -662      324     1408 
    2105     2511     2579     2161     1490      830      223     -272 
    -486     -513     -624     -653     -429     -362     -615     -714 
    -394       96      668     1597     2666     3154     2923     2412 
    1883     1340      653     -250    -1069    -1340    -1149    -1011 
   -1017     -879     -510     -105      179      346      307      -41 
    -397     -210      399      737      734      563      -16     -795 
   -1171    -1044     -703     -294      346     1245     2048     2345 
    1960     1299      915      711      475      364      555      964 
    1208     1151     1016      720      252       41      134      133 
     -18     -148     -222     -313     -568     -707     -219      586 
     978      672      -37     -422     -255     -107     -268     -344 
     136     1035     1887     2584     2916     2575     1864     1206 
     680      269      -98     -345     -124      480      681       28 
    -973    -1658    -1942    -2031    -1959    -1527     -614      331 
     785      961     1063      845      502      574     1027     1390 
    1464     1278      889      441     -279    -1408    -1961    -1116 
     388     1435     1691     1419     1058     1021     1371     1582 
    1220      580      160       81      243      445      440      294 
     241      174       64      290      956     1584     1598     1020 
     504      348      255      -82     -716    -1291    -1433    -1137 
    -515      133      495      592      689     1129     1630     1281 
    -191    -1967    -2849    -2530    -1750     -880      158     1169 
    1908     2232     2155     1924     1709     1427     1118     1052 
    1264     1595     1947     2204     2258     2149     2081     1818 
     632    -1194    -2255    -1986    -1248     -787     -309      264 
     109     -789    -1349    -1299    -1236    -1404    -1656    -1635 
   -1067     -371       26      496     1227     1870     2465     3035 
    3050     2449     1699      854     -194    -1209    -1813    -1729 
    -879      466     1650     2202     2245     1827      971      191 
    -325     -602     -221      503      700      434       11     -612 
    -988     -757     -478     -653    -1044    -1331    -1547    -1576 
    -829      582     1524     1617     1550     1693     1699     1369 
    1129     1211     1401     1595     1715     1688     1555     1201 
     640      363      631     1152     1713     2060     1785     1033 
     213     -599    -1227    -1379    -1240    -1198    -1083     -644 
    -240      -95       32      168      248      509      979     1259 
    1322     1332      998      514      466      623      608      553 
     510      244     -389    -1077    -1514    -1716    -1558    -1071 
    -579     -232     -255     -678     -904     -575       43      660 
    1055     1023      699      479      315     -211     -957    -1320 
   -1049     -258      806     1688     2148     2413     2598     2526 
    2118     1445      737      265       34       93      623     1288 
    1529     1353     1129      992      876      920     1083      968 
     632      375       33     -454     -780     -620      159     1088 
    1553     1701     1804     1701     1349      833      326      201 
     341       89     -845    -2043    -2750    -2596    -1873    -1109 
    -673     -563     -533     -501     -551     -827    -1423    -1966 
   -1900    -1158       85     1495     2453     2628     2143     1334 
     684      293     -202     -781     -936     -474      111      296 
     332      675     1298     2062     2693     2762     2322     1737 
    1144      623      330      235       95     -170     -366     -381 
    -224       93      428      700      959      985      556       11 
    -135       77      298      499      692      825     1213     1981 
    2644     3067     3558     3829     3324     2103      417    -1483 
   -2934    -3463    -3332    -2964    -2375    -1459     -582     -259 
    -467     -641     -235      527     1094     1602     2238     2471 
    1764      277    -1198    -1942    -2047    -2003    -1871    -1350 
    -346      791     1801     2762     3433     3256     2193     1034 
     494      274     -264     -964    -1186     -860     -554     -540 
    -535     -390     -313     -355     -149      527     1427     2347 
    3216     3738     3629     3042     2293     1483      771      392 
     151     -489    -1514    -2258    -2466    -2420    -2156    -1710 
   -1369     -955     -167      595      933      957      788      502 
     246      115      122      308      835     1604     2170     2366 
    2332     2219     2146     1899     1101       30     -541     -451 
    -338     -656    -1096    -1190    -1005     -825     -752     -839 
    -904     -556      228     1038     1577     1891     1967     1649 
    1188      972      749       61     -845    -1300    -1261    -1437 
   -2032    -2335    -1942    -1120     -189      663     1435     2083 
    2408     2558     2908     3296     3165     2600     2163     1796 
    1305      936      539      -95     -470     -447     -748    -1694 
   -2622    -2877    -2581    -2104    -1621    -1280    -1009     -472 
     317      973     1376     1545     1355     1025      926      874 
     570      219      134      435     1123     2018     2750     3021 
    2890     2516     1819      881       71     -472     -712     -455 
     303     1154     1468     1018      387      204      507     1182 
    1931     2103     1606      887       13    -1104    -2308    -3256 
   -3575    -3372    -3015    -2382    -1321     -390     -175     -408 
    -371      236     1018     1407     1440     1564     1774     1638 
     982      113     -446     -451      -34      631     1285     1723 
    2101     2398     2195     1485      727      180       41      379 
     709      747      806      943     1075     1275     1208      628 
      -5     -309     -508     -904    -1440    -1819    -1787    -1438 
   -1091     -733     -118      641     1149     1268     1117      875 
     736      592      215     -165     -175      162      498      521 
     239     -330    -1094    -1355     -690      259      876     1086 
     787      294      366      870     1119     1161     1273     1469 
    1698     1592     1024      679      961     1425     1674     1746 
    1669     1303      754      344      141      213      686     1203 
    1268      818       -5     -936    -1406    -1182     -803     -646 
    -574     -585     -688     -754     -810     -863     -787     -413 
     437     1505     2098     1992     1483      757      -11     -758 
   -1497    -1846    -1534     -829      -51      720     1536     2308 
    2809     2905     2614     2167     1785     1383      887      438 
      52     -348     -599     -600     -464     -151      312      566 
     535      594      809      852      622      180     -463     -994 
   -1173    -1254    -1258     -962     -542     -283     -273     -400 
    -454     -391     -170      133       89     -284     -263      380 
     991     1123     1072     1193     1511     1906     2145     2016 
    1489      692     -115     -774    -1132     -875     -219      164 
     216      280      477      783     1021     1147     1312     1433 
    1426     1293      861      302       26      -69     -211     -250 
    -134      -41       36      197      377      445      279       11 
     -38       34      115      352      431      181      -42     -360 
    -833     -842     -273      306      514      416      475      855 
    1057      783      325      200      649     1204     1304     1040 
     748      583      569      698      879      909      793      730 
     782      925     1073     1028      803      635      537      381 
     318      505      674      441     -110     -519     -601     -537 
    -491     -503     -505     -453     -382     -276     -166      -37 
     198      417      488      510      592      719      735      431 
    -197     -894    -1289    -1210     -841     -356       99      291 
     294      367      595      997     1398     1469     1333     1496 
    1976     2207     1915     1371      756      109     -317     -410 
    -385     -307      -47      370      720      786      557      206 
     -12       31      151      222      376      688     1059     1219 
     965      509      107     -217     -376     -230       25      -20 
    -278     -237      221      720     1056     1334     1512     1468 
    1235      893      610      426      226      126      216      374 
     618      843      689      102     -526     -865     -965     -975 
    -981    -1169    -1517    -1612    -1381    -1230    -1203    -1030 
    -622      127     1060     1626     1683     1478     1117      825 
     902     1289     1651     1769     1740     1708     1511      998 
     347     -116      -85      468     1038     1126      834      455 
      59     -286     -470     -469     -350      -89      416      999 
    1380     1523     1501     1371     1186     1107     1177      991 
     374     -190     -345     -226     -130     -189     -327     -571 
    -924    -1219    -1471    -1589    -1162     -258      524      927 
    1004      729      424      515      740      758      756      815 
     738      421     -108     -550     -572     -233      229      627 
     873     1046     1184     1239     1261     1335     1522     1813 
    1971     1857     1672     1468     1034      425      -72     -349 
    -434     -392     -400     -593     -888    -1094    -1102     -981 
    -846     -651     -338      -99     -244     -747    -1160    -1254 
   -1260    -1206     -792       67     1045     1587     1499     1253 
    1276     1515     1821     2093     2121     1722     1073      641 
     573      514      247      -54     -330     -648     -820     -737 
    -550     -198      466     1157     1547     1827     2180     2368 
    2269     1952     1365      561     -252     -983    -1545    -1769 
   -1572     -950      -78      677     1172     1405     1301      997 
     775      728      738      651      459      208     -160     -668 
   -1108    -1223     -975     -468      162      723     1019      902 
     441      -54     -404     -647     -763     -728     -662     -580 
    -409     -259     -179       19      392      761      985     1094 
    1186     1321     1479     1586     1627     1577     1274      687 
      36     -444     -511     -120      346      566      625      699 
     883     1245     1589     1508     1019      559      303      212 
     401      825     1225     1582     1973     2266     2246     1818 
    1165      514     -143     -761    -1188    -1469    -1728    -1947 
   -2044    -2017    -1907    -1733    -1474    -1104     -672     -211 
     295      753     1042     1166     1179     1180     1317     1555 
    1628     1436     1248     1247     1265     1202     1068      791 
     437       77     -324     -646     -847    -1140    -1550    -1745 
   -1480     -918     -394      -23      270      518      721      844 
     855      845      807      597      289      194      474      933 
    1269     1394     1351     1172      928      711      576      530 
     510      521      768     1322     1813     1891     1682     1466 
    1290     1122     1002      943      887      712      266     -406 
