Origin Time       2025/03/28 03:50:00
Lat.              35.403
Long.             140.360
Depth. (km)       54
Mag.              4.4
Station Code      KNG205
Station Lat.      34.9413
Station Long.     139.4213
Station Height(m) -1486
Record Time       2025/03/28 03:51:08
Sampling Freq(Hz) 100Hz
Duration Time(s)  71
Dir.              E-W
Scale Factor      2000(gal)/6182761
Max. Acc. (gal)   3.692
Last Correction   2025/03/28 03:51:08
Memo.             
[...]
     107      107      105       99       95       99      101      101 
     101       97       97      104       98       90       98      101 
      95      101      108       99       93      102      108       98 
      94      101      103      105      111      117      121      119 
     114      110      101       94       89       77       77       82 
      76       72       68       59       50       48       57       65 
      71       89      109      122      130      125      102       86 
      76       50       35       52       71       86      111      136 
     149      147      128      106       98       93       82       76 
      77       88      105      104       87       81       87       92 
      91       91      100      116      137      151      170      199 
     204      170      129      102       85       70       65       75 
      95      122      133      126      114       99       87       75 
      59       59       85      119      149      161      141      102 
      62       31       24       50      100      159      202      198 
     162      126       77       26       15       51      115      199 
     279      333      351      316      234      158       92        9 
     -91     -166     -156      -55       69      159      201      193 
     154      107       52      -20     -116     -160      -78       66 
     171      260      375      438      394      281      153       57 
       8        0       28       79      138      186      207      219 
     237      239      221      190      164      178      238      296 
     290      190        2     -230     -409     -479     -497     -474 
    -351     -152      100      391      594      653      645      558 
     412      313      234      131       66       43      -13     -138 
    -266     -304     -233      -80      142      368      513      583 
     560      368       15     -397     -732     -848     -730     -480 
    -175      116      353      568      758      893      909      729 
     388        1     -313     -461     -401     -148      198      483 
     612      641      605      430      148     -181     -556     -843 
    -936     -872     -647     -278      122      428      542      517 
     496      472      370      224      113       45      -72     -255 
    -392     -462     -466     -300       31      326      417      345 
     306      398      526      571      446      133     -263     -583 
    -642     -371       96      562      767      549      116     -291 
    -548     -458       -8      548     1015     1211      964      334 
    -396     -895    -1012     -822     -454      -63      171      179 
      97      114      224      280      221       56     -213     -506 
    -593     -297      226      622      689      455       30     -473 
    -783     -595       43      824     1414     1550     1308      956 
     604      316      142       23      -61      -67      -27      -84 
    -306     -634    -1083    -1589    -1902    -1874    -1494     -776 
     222     1391     2379     2729     2399     1677      763     -141 
    -750     -865     -519      -36      273      345      167     -167 
    -441     -566     -508     -223      228      641      682      211 
    -491    -1020    -1173    -1007     -695     -411     -348     -514 
    -674     -625     -237      454     1100     1450     1599     1597 
    1404     1231     1314     1535     1652     1525     1006       53 
   -1081    -2024    -2493    -2285    -1449     -435      234      336 
      -2     -449     -683     -561      -79      588     1051     1133 
    1066      953      626       98     -465     -952    -1167     -957 
    -428      231      831     1152     1158      976      604       19 
    -689    -1425    -2009    -2188    -1889    -1240     -437      407 
    1272     2020     2528     2814     2757     2207     1204     -111 
   -1452    -2439    -2845    -2668    -2063    -1210     -213      921 
    2050     2843     3168     3011     2229      926     -504    -1757 
   -2610    -2928    -2773    -2179    -1151       75     1175     1906 
    2111     1905     1543     1160      790      294     -440    -1178 
   -1664    -1876    -1754    -1154     -178      811     1541     1948 
    2055     1839     1308      623      -63     -763    -1506    -2173 
   -2578    -2569    -2010     -907      430     1571     2190     2229 
    1886     1302      558     -151     -638     -775     -537     -101 
     409      926     1222     1199     1001      739      508      343 
      82     -402    -1015    -1523    -1794    -1840    -1555     -792 
     317     1359     1860     1659     1025      259     -352     -434 
     -22      308      133     -405     -942    -1279    -1373    -1237 
    -845     -201      538     1228     1816     2201     2188     1649 
     819      103     -395     -744     -999    -1326    -1814    -2150 
   -1929    -1085      198     1564     2562     2892     2511     1596 
     482     -487    -1084    -1240    -1129    -1007     -829     -395 
     299     1112     1784     2075     1964     1465      574     -570 
   -1646    -2251    -2248    -1767     -824      419     1362     1535 
    1058      303     -539    -1301    -1649    -1469     -989     -408 
     186      686      984     1037      884      606      329      203 
     315      630      930      944      561     -142     -823     -959 
    -378      513     1253     1735     1914     1597      711     -478 
   -1568    -2294    -2507    -2218    -1557     -669      237      971 
    1402     1455     1246      964      724      501      152     -232 
    -356     -130      266      573      644      420     -174     -953 
   -1384    -1126     -396      386      857      712      -17     -921 
   -1571    -1680    -1254     -516      383     1239     1790     1995 
    1903     1495      871      292     -103     -342     -406     -300 
    -218     -298     -408     -377     -154      202      490      577 
     523      341      -23     -400     -557     -566     -608     -675 
    -664     -564     -324      172      693      844      694      561 
     480      375      332      438      653      861      947      860 
     625      254     -308    -1046    -1772    -2290    -2477    -2224 
   -1591     -801       66      935     1541     1735     1606     1345 
    1228     1374     1565     1578     1352      799     -123    -1217 
   -2071    -2280    -1736     -639      683     1773     2202     1903 
    1041     -192    -1424    -2150    -2109    -1422     -382      725 
    1509     1589     1006       72     -975    -1859    -2310    -2225 
   -1605     -595      513     1425     1982     2249     2369     2376 
    2259     1992     1495      746     -201    -1182    -1853    -1996 
   -1736    -1277     -763     -346      -76       77       62     -102 
    -180       52      554     1120     1620     1942     1962     1672 
    1062      119     -940    -1774    -2136    -1963    -1416     -628 
     251      874     1026      826      417     -259    -1209    -2119 
   -2613    -2548    -1978    -1082      -39      996     1762     2139 
    2382     2672     2876     2824     2402     1654      857      259 
    -176     -654    -1266    -1945    -2602    -3042    -2912    -2012 
    -503     1179     2480     3056     2944     2305     1307      221 
    -775    -1658    -2296    -2561    -2458    -1979    -1189     -300 
     452      823      736      436      211      158      297      618 
    1061     1455     1600     1530     1375     1186     1092     1148 
    1146      923      519      -49     -807    -1604    -2170    -2392 
   -2292    -1860    -1123     -215      707     1434     1786     1807 
    1548      900      -85    -1131    -1958    -2322    -2096    -1302 
    -106     1178     2199     2662     2436     1671      670     -277 
    -912    -1004     -561       28      465      674      497       37 
    -244      -77      529     1285     1718     1573      766     -606 
   -2011    -2844    -2878    -2185     -940      560     1811     2334 
    1994     1017     -221    -1287    -1746    -1516     -866      -70 
     572      783      624      380      172      -68     -334     -530 
    -525     -195      443     1189     1724     1849     1576      959 
     226     -267     -415     -315     -171     -260     -587     -904 
   -1094    -1092     -797     -248      401     1007     1418     1574 
    1592     1591     1584     1493     1184      622      -90     -780 
   -1319    -1696    -1900    -1822    -1445    -1077    -1009    -1098 
   -1088     -907     -480      253     1120     1844     2272     2352 
    2031     1296      229     -943    -1867    -2284    -2187    -1631 
    -644      623     1881     2868     3366     3170     2222      709 
   -1027    -2583    -3534    -3621    -2894    -1596      -43     1405 
    2400     2716     2393     1632      649     -238     -766     -855 
    -472      227      879     1166      937      314     -378     -781 
    -697     -365     -297     -716    -1475    -2266    -2702    -2486 
   -1615     -335     1011     2070     2598     2619     2286     1667 
     858      -12     -904    -1667    -1981    -1678     -879      163 
    1161     1871     2154     1955     1309      404     -490    -1165 
   -1531    -1569    -1337     -887     -208      619     1395     1965 
    2241     2104     1473      482     -595    -1429    -1719    -1504 
   -1101     -726     -475     -356     -180      204      714     1228 
    1683     1905     1650      904     -107    -1123    -1848    -2053 
   -1782    -1282     -830     -660     -852    -1257    -1629    -1736 
   -1401     -561      652     1879     2731     3130     3244     3088 
    2612     2034     1576     1226      923      652      382       60 
    -288     -582     -886    -1331    -1859    -2287    -2484    -2292 
   -1570     -469      608     1281     1315      772       36     -511 
    -727     -657     -448     -287     -327     -568     -823     -929 
    -905     -740     -347      223      851     1457     1907     2083 
    2018     1751     1196      424     -243     -620     -707     -538 
    -356     -359     -405     -308       17      618     1341     1855 
    1956     1654     1052      343     -232     -596     -838    -1069 
   -1364    -1667    -1798    -1712    -1445    -1005     -464      190 
     985     1705     2071     2034     1679     1036      141     -869 
   -1804    -2510    -2905    -2915    -2474    -1689     -723      328 
    1250     1812     2008     1976     1795     1509     1247     1114 
    1108     1207     1330     1337     1119      609     -170    -1034 
   -1703    -1989    -1851    -1339     -594      166      749      977 
     806      463       91     -284     -397      -51      475      750 
     607       74     -735    -1447    -1657    -1349     -698      149 
     914     1361     1472     1267      824      367        2     -378 
    -724     -780     -466      130      881     1444     1480      956 
     -21    -1155    -1925    -2011    -1457     -451      711     1542 
    1700     1287      513     -398     -993     -979     -581     -182 
     114      358      513      659     1040     1677     2273     2441 
    1961      896     -491    -1764    -2471    -2489    -1995    -1271 
    -584       14      602     1191     1762     2237     2459     2354 
    1924     1222      383     -422    -1021    -1322    -1401    -1370 
   -1263    -1182    -1240    -1382    -1519    -1611    -1555    -1319 
   -1058     -968    -1172    -1713    -2510    -3332    -3871    -3844 
   -3052    -1492      576     2740     4545     5620     5895     5520 
    4680     3661     2713     1971     1573     1545     1776     2201 
    2734     3116     3068     2533     1546       83    -1759    -3618 
   -5001    -5529    -5097    -3903    -2339     -786      470     1192 
    1281      923      455       46     -169      101      904     1874 
    2677     3043     2568     1179     -590    -2147    -3139    -3424 
   -3126    -2490    -1735     -977     -219      493     1024     1288 
    1366     1369     1177      664      -79     -968    -1858    -2357 
   -2134    -1121      482     2080     2910     2555      994    -1462 
   -3944    -5357    -5111    -3209     -194     2784     4583     4637 
    2842     -373    -3847    -6081    -6084    -3779      167     4532 
    7925     9556     9507     8195     5912     2904     -521    -3896 
   -6477    -7537    -6803    -4588    -1648     1190     3364     4564 
    4707     4019     2782     1224     -412    -1935    -3112    -3777 
   -4037    -3997    -3739    -3424    -2951    -2030     -606     1143 
    2892     4191     4653     4100     2677      898     -601    -1285 
    -824      577     2190     3345     3679     3001     1242    -1328 
   -3868    -5339    -5136    -3328     -578     2076     3611     3474 
    1818     -620    -2757    -3526    -2554     -458     1796     3423 
    3875     3082     1424     -584    -2330    -3210    -2831    -1216 
     988     2723     3058     1653    -1061    -4128    -6582    -7855 
   -7837    -6582    -4185     -928     2628     5603     7059     6570 
    4451     1677     -342     -428     1615     4870     7792     9068 
    8256     5842     2987      780     -413     -695     -335      224 
     586      707      760      679       96    -1329    -3610    -6350 
   -8948   -10778   -11343   -10634    -9087    -7181    -5292    -3575 
   -1988     -510      833     1963     2866     3763     4817     5876 
    6722     7261     7530     7714     7951     8207     8211     7344 
    5006     1374    -2442    -5124    -6007    -5375    -4047    -2746 
   -1923    -1716    -1887    -2145    -2335    -2238    -1753    -1290 
   -1401    -2189    -3419    -4618    -5040    -4098    -1734     1618 
    5053     7381     7766     6259     3645      926    -1086    -2024 
   -1968    -1406     -917     -538      163     1362     2641     3243 
    2733     1318     -439    -1754    -1796     -431     1327     1980 
     688    -2270    -5876    -8906   -10229    -9249    -6233    -1955 
    2644     6513     8864     9561     8871     7081     4682     2319 
     442     -652     -936     -781     -571     -471     -528     -856 
   -1606    -2673    -3710    -4313    -4138    -3165    -1615      321 
    2249     3522     3827     3440     2807     2246     1938     1802 
    1600     1236      680     -136    -1123    -1994    -2552    -2823 
   -2856    -2692    -2378    -1801     -902       67      796     1046 
     695     -102    -1066    -1881    -2093    -1503     -424      684 
    1552     2230     2941     3704     4364     4845     4941     4215 
    2432     -239    -3319    -6056    -7747    -7936    -6345    -3185 
     740     4584     7568     8899     8175     5572     1765    -2198 
   -5318    -6944    -6880    -5436    -3212     -879     1018     2220 
    2663     2492     1977     1235      380     -337     -685     -396 
     611     1887     2761     2747     1699      -49    -1858    -3175 
   -3791    -3885    -3712    -3348    -2858    -2251    -1348     -153 
     934     1527     1633     1496     1328     1315     1594     2105 
    2588     2747     2441     1708      754      -38     -303      144 
    1137     2100     2540     2358     1666      843      264     -141 
    -502     -779    -1027    -1174     -876      -55      877     1410 
    1229      273    -1327    -3172    -4508    -4797    -4188    -3110 
   -1898     -715      378     1344     2335     3542     4668     4991 
    4070     2062     -527    -2963    -4428    -4515    -3491    -2014 
    -693      218      866     1477     2123     2673     2733     2105 
    1135      280     -178      -82      436      883      758      -13 
   -1211    -2691    -4155    -4954    -4472    -2628     -112     2050 
    3038     2412      414    -2011    -3705    -3731    -1886     1231 
    4812     7886     9439     9070     7057     4042      876    -1656 
   -3133    -3616    -3502    -3162    -2740    -2310    -1990    -1832 
   -1862    -2066    -2156    -1710     -635      796     2176     3030 
    3084     2478     1482      352     -699    -1559    -2020    -1800 
    -756     1070     3301     5242     6162     5375     2612    -1532 
   -5877    -9070    -9939    -8170    -4442       15     3866     6214 
    6757     5680     3677     1435     -953    -3654    -6361    -8234 
   -8514    -6940    -3852     -157     3085     5208     6248     6701 
    6950     7171     7365     7159     6162     4334     1765    -1335 
   -4440    -6874    -8125    -7982    -6501    -4074    -1408      816 
    2230     2867     3062     2999     2495     1410      -73    -1599 
   -2668    -2772    -1804     -109     1724     3114     3873     4205 
    4246     4008     3616     3174     2659     2035     1313      473 
    -566    -1864    -3344    -4736    -5770    -6374    -6645    -6713 
   -6566    -6109    -5226    -3745    -1802      111     1624     2549 
    2830     2673     2336     2012     1999     2437     3080     3676 
    4167     4469     4476     4329     4270     4262     4061     3561 
    2799     1748      370    -1169    -2598    -3848    -5010    -6044 
   -6696    -6639    -5761    -4422    -3245    -2625    -2689    -3283 
   -3770    -3444    -2016      450     3484     6124     7429     7130 
    5632     3714     2318     2107     3004     4235     4885     4488 
    3151     1334     -417    -1687    -2256    -2268    -2196    -2275 
   -2297    -2047    -1616    -1432    -1941    -3111    -4363    -4980 
   -4623    -3443    -1819     -245      822     1301     1460     1568 
    1657     1632     1641     1974     2680     3690     4964     6230 
    6918     6492     4716     1652    -2267    -6085    -8685    -9564 
   -8915    -7111    -4641    -2105      140     2000     3430     4368 
    4717     4399     3474     2181      773     -592    -1633    -2030 
   -1870    -1465     -972     -612     -637     -868     -906     -563 
     144     1023     1736     1987     1765     1271      686      192 
     -92     -302     -689    -1372    -2230    -2917    -3109    -2740 
   -1928     -886      176     1179     2059     2815     3581     4396 
    5195     5909     6412     6616     6498     5976     4909     3189 
     926    -1551    -3906    -5861    -7226    -7882    -7669    -6517 
   -4597    -2292     -137     1279     1476      289    -1871    -4127 
   -5640    -5952    -4989    -2984     -434     2023     3852     4831 
    5191     5323     5391     5342     4982     4099     2629      693 
   -1327    -2950    -3890    -4082    -3642    -2854    -2014    -1201 
    -284      752     1707     2270     2162     1370      156    -1004 
   -1523    -1053      369     2413     4451     5775     6055     5353 
    3936     2342     1082      320      -80     -430     -924    -1589 
   -2521    -3750    -5095    -6340    -7291    -7717    -7422    -6221 
   -4069    -1255     1726     4291     5869     6237     5583     4175 
    2289      306    -1416    -2594    -3033    -2773    -2008     -954 
      74      728      868      595      158     -150      -91      476 
    1401     2337     3136     3679     3613     2716     1148     -610 
