Origin Time       2025/03/28 03:50:00
Lat.              35.403
Long.             140.360
Depth. (km)       54
Mag.              4.4
Station Code      KNG201
Station Lat.      34.5956
Station Long.     139.9183
Station Height(m) -2197
Record Time       2025/03/28 03:51:01
Sampling Freq(Hz) 100Hz
Duration Time(s)  72
Dir.              E-W
Scale Factor      2000(gal)/6182761
Max. Acc. (gal)   5.490
Last Correction   2025/03/28 03:51:02
Memo.             
[...]
    -344     -367     -312     -177      -82     -146     -292     -344 
    -303     -296     -339     -387     -399     -338     -292     -325 
    -346     -322     -295     -273     -287     -343     -362     -327 
    -311     -324     -331     -335     -348     -363     -381     -384 
    -346     -286     -244     -225     -216     -233     -254     -265 
    -307     -358     -391     -418     -399     -340     -301     -290 
    -294     -301     -301     -300     -294     -292     -289     -273 
    -282     -295     -247     -181     -161     -209     -309     -345 
    -311     -336     -383     -389     -422     -456     -425     -369 
    -324     -269     -211     -204     -265     -287     -200     -128 
    -200     -334     -380     -366     -380     -394     -393     -398 
    -377     -338     -332     -354     -352     -308     -262     -246 
    -259     -297     -319     -316     -365     -455     -504     -500 
    -432     -340     -272     -166      -15       82       99      104 
     134       94      -77     -255     -309     -233     -146     -159 
    -194     -194     -274     -448     -556     -589     -679     -744 
    -625     -427     -295     -188      -25      148      189       69 
    -103     -255     -335     -334     -362     -399     -350     -324 
    -375     -455     -559     -586     -502     -432     -385     -247 
      -5      218      300      265      201       79     -175     -544 
    -942    -1232    -1363    -1368    -1181     -795     -341       71 
     335      435      465      467      447      424      395      339 
     232       17     -363     -757     -908     -843     -777     -734 
    -678     -645     -563     -361     -124       70      214      290 
     289      189      -54     -360     -492     -307       28      283 
     416      407      271       24     -390     -800     -935     -861 
    -678     -317       56      204      189       86     -134     -417 
    -626     -650     -588     -582     -600     -605     -570     -502 
    -492     -472     -272       81      402      517      437      381 
     435      399       93     -385     -774    -1001    -1247    -1566 
   -1660    -1280     -544      249      792      903      694      400 
     102     -198     -391     -338      -54      290      497      418 
      49     -357     -535     -498     -450     -511     -612     -711 
    -834     -906     -855     -721     -525     -277     -131     -191 
    -307     -308     -190      -10      166      289      343      337 
     272      101     -216     -532     -603     -503     -494     -556 
    -623     -813    -1084    -1226    -1069     -580       24      446 
     580      489      272      -25     -356     -578     -528     -232 
      58      137       34      -99     -133      -56       69      162 
     121      -93     -443     -833    -1118    -1255    -1269    -1181 
   -1038     -784     -311      272      804     1220     1465     1499 
    1229      602     -244    -1123    -1828    -2174    -2223    -2135 
   -1997    -1916    -1915    -1881    -1761    -1536    -1151     -546 
     234      991     1563     1959     2266     2554     2768     2771 
    2513     2025     1301      361     -632    -1477    -2070    -2398 
   -2532    -2549    -2473    -2299    -2006    -1643    -1191     -487 
     434     1225     1617     1668     1549     1293      913      423 
    -254    -1034    -1592    -1781    -1752    -1573    -1288    -1155 
   -1263    -1443    -1627    -1734    -1504     -802      206     1250 
    2031     2302     2103     1530      648     -137     -439     -338 
     -28      285      266     -249    -1050    -1755    -2139    -2185 
   -1929    -1464     -936     -461     -109      166      439      649 
     808      993      994      614       17     -576     -950     -903 
    -598     -326      -43      287      495      537      413       86 
    -282     -452     -456     -513     -667     -778     -798     -759 
    -640     -447     -185      189      594      794      710      453 
       6     -659    -1278    -1579    -1558    -1366    -1128     -848 
    -475      -35      301      300      -91     -641    -1097    -1410 
   -1571    -1468    -1002     -319      265      584      678      704 
     843     1143     1476     1656     1574     1230      630     -209 
   -1100    -1750    -2019    -1992    -1812    -1590    -1373    -1104 
    -715     -235      281      759     1141     1415     1518     1382 
    1012      427     -316     -976    -1275    -1147     -706     -160 
     246      421      449      400      259      -29     -431     -808 
   -1096    -1317    -1401    -1175     -604      154      860     1262 
    1308     1083      570     -114     -694    -1047    -1149    -1038 
    -931    -1013    -1164    -1156    -1001     -821     -597     -280 
     101      478      688      620      377       75     -196     -208 
      84      326      300      169      -62     -577    -1211    -1683 
   -2004    -2190    -2208    -2147    -2000    -1624     -966     -129 
     677     1309     1780     2060     2075     1865     1513     1075 
     604       82     -534    -1138    -1613    -1995    -2341    -2615 
   -2642    -2182    -1227      -31     1144     2054     2518     2562 
    2288     1712      904       58     -655    -1182    -1532    -1728 
   -1755    -1580    -1286     -925     -353      453     1249     1759 
    1913     1819     1549     1165      759      281     -407    -1302 
   -2210    -2963    -3555    -3953    -4058    -3832    -3197    -2108 
    -788      456     1423     1982     2171     2137     1904     1505 
    1058      557       -4     -518     -941    -1211    -1265    -1201 
   -1072     -851     -536      -85      459      941     1310     1566 
    1584     1259      681      -38     -813    -1459    -1811    -1887 
   -1780    -1505    -1128     -787     -518     -344     -268     -177 
      11      262      505      778     1120     1370     1348      974 
     208     -804    -1727    -2340    -2690    -2896    -2930    -2754 
   -2329    -1505     -315     1012     2254     3158     3564     3474 
    2932     2090     1164      292     -489    -1314    -2267    -3098 
   -3554    -3558    -3033    -2064     -894      291     1256     1751 
    1784     1538     1098      507     -168     -897    -1501    -1724 
   -1642    -1465    -1182     -705      -34      671     1123     1256 
    1182      862      288     -271     -488     -285       86      267 
     111     -362    -1078    -1837    -2341    -2374    -1930    -1197 
    -465       48      330      445      442      421      389      218 
    -169     -706    -1165    -1322    -1191     -907     -559     -181 
     200      480      609      727      940     1186     1373     1400 
    1148      577     -275    -1317    -2311    -2896    -2928    -2509 
   -1761     -852       47      801     1229     1260     1108     1035 
    1076     1132     1088      877      557      174     -299     -836 
   -1306    -1608    -1831    -1978    -1880    -1533    -1027     -406 
     189      647      972     1100      940      541        4     -570 
   -1089    -1568    -2053    -2469    -2639    -2449    -1926    -1144 
    -189      796     1615     2182     2595     2787     2538     1904 
    1075      171     -630    -1216    -1596    -1790    -1867    -1863 
   -1744    -1499    -1111     -554      121      763     1182     1335 
    1297     1041      585       79     -383     -738     -949    -1028 
    -921     -670     -502     -478     -395      -96      343      652 
     605      203     -458    -1199    -1732    -1898    -1674    -1068 
    -256      527     1134     1403     1308     1004      508     -208 
    -924    -1371    -1472    -1318     -958     -384      268      826 
    1155     1163      925      540       41     -530    -1085    -1482 
   -1699    -1795    -1703    -1479    -1322    -1261    -1232    -1199 
   -1043     -666      -98      601     1317     1863     2131     2083 
    1686     1009      209     -553    -1178    -1632    -1873    -1860 
   -1622    -1316    -1108     -991     -921     -853     -630     -175 
     411      919     1125     1005      621      -12     -675    -1058 
   -1103     -868     -397      188      724     1099     1311     1371 
    1172      666       32     -589    -1128    -1467    -1646    -1708 
   -1505    -1114     -736     -372      -48      132      139       44 
     -42     -194     -519     -853    -1034    -1093    -1057     -937 
    -786     -580     -239      207      648     1045     1398     1588 
    1478     1137      746      402      100     -217     -583     -958 
   -1341    -1783    -2228    -2472    -2399    -2028    -1341     -440 
     408     1096     1619     1886     1856     1507      888      276 
    -136     -404     -547     -538     -483     -484     -531     -659 
    -902    -1211    -1520    -1719    -1693    -1466    -1150     -769 
    -274      306      843     1142     1090      758      245     -328 
    -786    -1045    -1092     -901     -505      -80      161      205 
     149       77        5     -246     -712    -1136    -1428    -1597 
   -1465     -974     -270      530     1217     1507     1313      757 
      66     -495     -783     -813     -697     -558     -379      -90 
     235      475      603      650      589      304     -159     -565 
    -731     -620     -301      139      498      478       91     -448 
   -1060    -1612    -1947    -2089    -2053    -1802    -1356     -835 
    -376       53      456      705      826      890      839      705 
     567      374       77     -280     -655     -989    -1223    -1360 
   -1302     -923     -406      -91     -118     -385     -725    -1096 
   -1448    -1542    -1222     -597      195      986     1507     1652 
    1526     1185      636      -32     -669    -1074    -1141     -992 
    -730     -369      -34      167      195        8     -296     -568 
    -770     -845     -730     -496     -214      191      699     1094 
    1317     1460     1411     1000      279     -600    -1472    -2093 
   -2356    -2415    -2401    -2290    -2006    -1535     -986     -428 
     124      602      995     1333     1610     1733     1659     1604 
    1622     1427      940      344     -215     -680    -1128    -1569 
   -1799    -1666    -1307     -947     -595     -236       57      332 
     614      913     1355     1758     1698     1105      215     -686 
   -1353    -1756    -2001    -2174    -2295    -2277    -2001    -1461 
    -729      133      920     1301     1273     1089      838      588 
     423      231     -184     -925    -1902    -2806    -3302    -3125 
   -2110     -423     1441     2921     3588     3304     2172      539 
    -938    -1698    -1726    -1446    -1323    -1572    -2163    -2911 
   -3514    -3554    -2641     -862     1050     2227     2133      860 
    -797    -1822    -1516      150     2272     3488     2932      707 
   -2200    -4333    -4600    -2917       74     3334     5546     5915 
    4640     2464      311    -1068    -1492    -1353    -1368    -2091 
   -3354    -4324    -4177    -2695     -417     1780     3220     3552 
    2816     1391     -314    -1882    -2916    -3367    -3482    -3387 
   -3049    -2521    -1841     -895      371     1748     2893     3581 
    3738     3268     2162      627    -1057    -2461    -3053    -2688 
   -1705     -714     -356     -727    -1335    -1688    -1441     -531 
     668     1693     2224     2214     1872     1327      702      115 
    -551    -1254    -1631    -1570    -1267     -798     -198      329 
     661      833      731       23    -1385    -2972    -4092    -4594 
   -4490    -3629    -2074     -169     1694     3022     3478     3101 
    2004      519     -625     -897     -443      174      534      650 
     763     1044     1455     1750     1596      698     -881    -2549 
   -3599    -3571    -2319     -192     1913     3072     2992     1991 
     525    -1026    -2276    -2836    -2560    -1789    -1033     -465 
     -25      311      560      770      987     1209     1421     1566 
    1345      346    -1462    -3646    -5627    -6841    -6753    -5245 
   -2938     -617     1394     2956     3942     4543     4968     5132 
    4976     4550     3771     2513      791    -1205    -3048    -4207 
   -4512    -4159    -3160    -1424      565     1814     1703      416 
   -1464    -3227    -4213    -4329    -3898    -3045    -1880     -668 
     457     1353     1872     2142     2400     2668     2793     2671 
    2260     1369     -283    -2603    -4836    -5986    -5582    -3853 
   -1392     1241     3658     5438     6225     6049     5096     3626 
    2090      772     -307    -1126    -1727    -2314    -3067    -3888 
   -4460    -4449    -3688    -2396    -1036      -51      236     -124 
    -784    -1565    -2454    -3232    -3487    -3063    -2243    -1446 
    -817     -129      869     2181     3593     4783     5469     5478 
    4742     3394     1748       87    -1347    -2127    -1926     -991 
      93      950     1467     1747     2077     2512     2830     2869 
    2378     1177     -529    -2474    -4257    -5193    -4892    -3550 
   -1741      -76     1249     2313     3071     3484     3416     2499 
     572    -2210    -5573    -9052   -12044   -13971   -14571   -14107 
  -12961   -11191    -8693    -5443    -1415     3324     8327    12778 
   15772    16708    15667    13187     9787     5952     2162    -1322 
   -4296    -6403    -7459    -7631    -7157    -6218    -4951    -3354 
   -1302     1296     4281     7233     9849    12009    13286    13032 
   11022     7602     3454     -657    -4159    -6698    -8028    -8171 
   -7405    -6026    -4427    -3126    -2368    -1882    -1275     -709 
    -667    -1120    -1875    -3134    -4826    -6403    -7635    -8647 
   -9381    -9653    -9270    -7942    -5611    -2739      -35     2091 
    3676     4802     5499     5998     6511     6992     7274     7157 
    6532     5613     4753     4009     3351     2895     2598     2334 
    2113     1877     1522     1096      792      780      913      977 
    1116     1401     1389      603     -954    -2830    -4490    -5744 
   -6798    -7812    -8637    -9086    -9175    -9043    -8801    -8385 
   -7550    -6057    -3903    -1345     1305     3770     5598     6366 
    6152     5325     4244     3281     2684     2402     2155     1664 
     914      196     -223     -357     -142      807     2582     4681 
    6566     7983     8883     9335     9334     8646     7085     4869 
    2261     -774    -4142    -7409   -10166   -12195   -13304   -13366 
  -12546   -11239    -9853    -8591    -7137    -4954    -1903     1670 
    5071     7517     8542     8032     6091     3197       98    -2568 
   -4307    -4900    -4616    -3956    -3317    -2794    -2098     -845 
    1114     3653     6416     8808    10117     9952     8577     6649 
    4781     3304     2083      820     -545    -2077    -3826    -5416 
   -6251    -6052    -5152    -4322    -4075    -4393    -5003    -5407 
   -5035    -3611    -1324     1173     3042     3693     3132     1841 
     385     -775    -1389    -1390     -913     -434     -441    -1071 
   -2163    -3300    -3939    -3635    -2186      124     2606     4658 
    6053     6879     7310     7333     6848     6065     5324     4543 
    3425     1934      168    -1763    -3683    -5499    -7148    -8304 
   -8545    -7798    -6349    -4699    -3448    -2902    -2973    -3526 
   -4320    -4828    -4662    -3841    -2484     -781      835     1881 
    2196     1979     1434      877      926     1823     3202     4670 
    5823     6170     5535     4190     2635     1266      270     -318 
    -657     -854     -885     -842     -827     -911    -1198    -1641 
   -2185    -2853    -3561    -4101    -4172    -3577    -2389     -668 
    1525     3800     5646     6811     7208     6818     5765     4188 
    2189        2    -1932    -3071    -3176    -2590    -1784     -946 
    -191      287      355       37     -508    -1216    -2257    -3680 
   -5233    -6598    -7445    -7385    -6279    -4534    -2808    -1547 
    -931     -876     -925     -572      304     1568     2959     4043 
    4400     3751     2213      444     -932    -1590    -1263      -58 
    1425     2562     2988     2741     2012      815     -568    -1526 
   -1625     -778      696     2291     3635     4501     4758     4281 
    3203     2013      971      -29    -1055    -2000    -2730    -3310 
   -3911    -4501    -4966    -5284    -5372    -5069    -4290    -3123 
   -1880     -899     -260      158      571     1197     2093     3105 
    3794     3648     2561      799    -1195    -2905    -4044    -4562 
   -4381    -3490    -2200    -1001     -132      426      632      496 
     278      156       31     -222     -653    -1173    -1601    -1834 
   -1760    -1336     -735      -31      781     1555     2273     3142 
    4184     5089     5626     5775     5433     4468     3001     1383 
     -38    -1110    -1874    -2442    -2911    -3291    -3544    -3675 
   -3684    -3570    -3373    -3079    -2722    -2367    -1815     -800 
     581     1986     3151     3944     4198     3717     2644     1417 
     378     -224     -373     -339     -329     -594    -1503    -3058 
   -4767    -5958    -6207    -5518    -4056    -2115     -178     1385 
    2386     2793     2819     2624     2110     1201      -31    -1407 
   -2664    -3677    -4452    -4879    -4814    -4340    -3657    -2850 
   -1828     -372     1541     3589     5518     7226     8367     8562 
    7866     6460     4387     1942     -399    -2341    -3754    -4635 
   -5038    -4915    -4239    -3263    -2360    -1667    -1171     -787 
    -274      507     1393     2162     2687     2819     2410     1546 
     504     -492    -1241    -1565    -1518    -1380    -1283    -1134 
    -894     -527       50      678     1070     1175     1160     1131 
     951      287    -1099    -3036    -5018    -6635    -7650    -7829 
   -7097    -5666    -3787    -1593      723     2828     4506     5758 
    6514     6553     5840     4593     3005     1203     -601    -2135 
   -3107    -3349    -2966    -2108     -906      361     1504     2534 
    3384     3899     3976     3625     2875     1685      219    -1216 
   -2542    -3701    -4492    -4817    -4694    -4115    -3032    -1515 
     106     1488     2460     2888     2678     1883      697     -603 
   -1817    -2898    -3866    -4666    -5119    -5220    -5154    -4881 
   -4246    -3273    -2044     -615      979     2615     3932     4650 
    4816     4597     4229     3900     3608     3365     3154     2849 
    2394     1725      790     -246    -1114    -1604    -1674    -1550 
   -1481    -1499    -1546    -1628    -1867    -2376    -3029    -3539 
   -3641    -3141    -2014     -414     1431     3068     3929     3938 
    3411     2564     1597      738       42     -540    -1044    -1450 
   -1706    -1874    -2046    -2182    -2271    -2390    -2545    -2655 
   -2626    -2386    -1966    -1452     -924     -485     -116      341 
     889     1386     1762     2018     2115     1961     1536      998 
     549      259       84     -128     -605    -1332    -1984    -2317 
