Origin Time       2025/03/28 03:50:00
Lat.              35.403
Long.             140.360
Depth. (km)       54
Mag.              4.4
Station Code      KNG203
Station Lat.      34.7983
Station Long.     139.6435
Station Height(m) -902
Record Time       2025/03/28 03:51:06
Sampling Freq(Hz) 100Hz
Duration Time(s)  60
Dir.              U-D
Scale Factor      2000(gal)/6182761
Max. Acc. (gal)   0.338
Last Correction   2025/03/28 03:51:06
Memo.             
      97      106      114      104       98      104      103       98 
      98      102      101       98      103      104       98      101 
     104       93       96      109      107       95       91       97 
     102      100      101      102      100      101      102      103 
     105      100      100      108      105       97       98      100 
      99      101      105      104      102      100      101      104 
     103      103      103       97      102      111      107      107 
     111      105      101      106      111      110      108      106 
     103      101      103      106      106      105      106      104 
     102      108      116      115      113      113      111      109 
     109      106      106      112      115      109      104      106 
     109      111      110      105      107      114      112      107 
     109      115      116      110      105      108      114      114 
     113      113      113      110      106      109      114      116 
     117      113      107      107      111      117      114      108 
     105      104      110      116      117      116      109      108 
     119      121      116      117      113      110      114      114 
     113      112      105      110      116      111      112      116 
     111      106      112      119      116      114      120      122 
     113      111      113      112      115      115      108      114 
     123      116      107      111      114      109      107      110 
     110      108      108      107      101       99      104      109 
     111      110      111      107       99      103      110      108 
     109      116      113      105      106      114      116      114 
     112      109      101      101      114      117      106      109 
     118      112      105      107      111      115      109      106 
     109      107      103      105      109      106      103      109 
     108      103      104      103      107      114      110      104 
     108      110      108      109      111      112      118      117 
     109      108      110      106      110      116      115      116 
     114      112      113      110      111      117      114      112 
     114      112      113      118      118      120      123      116 
     113      118      114      112      117      116      115      116 
     109      112      120      118      115      114      110      114 
     118      116      117      118      113      108      114      119 
     115      111      106      103      109      105      103      119 
     121      110      112      117      117      114      106      100 
     104      109      112      110      105      106      109      112 
     113      109      109      111      111      112      114      113 
     111      108      104      109      115      111      102      103 
     111      109      103      111      120      114      108      108 
     106      108      110      110      109      104      107      114 
     109      104      104      104      110      113      109      110 
     109      106      109      109      109      113      111      108 
     109      109      108      110      107      105      108      109 
     109      107      104      102      102      103      101      100 
     105      107      110      108       98       97       98       89 
      72       42       -5      -57     -101     -127     -119      -79 
     -24       41       97      125      143      166      212      279 
     321      325      324      327      307      228       89      -32 
     -45       22       37      -45      -93       42      261      271 
      70      -14      132      217      -18     -358     -355      -17 
     213      202      231      416      629      762      731      592 
     534      503      306       52      -37      -85     -329     -584 
    -500     -163       53      -41     -201        7      459      572 
     333      231      317      275       42     -186     -272     -221 
    -184     -312     -440     -303      -30       59       13      145 
     414      494      461      602      755      668      507      452 
     396      181     -165     -432     -515     -506     -487     -519 
    -551     -425     -169       88      310      483      596      563 
     379      280      206     -131     -428     -327     -250     -473 
    -474      -34      261       65     -118      230      762      879 
     713      654      615      485      365      113     -286     -358 
     -49       40     -244     -383      -71      359      501      484 
     610      742      580      210      -78     -327     -667     -810 
    -467       50      233      129      214      511      586      370 
     -14     -540     -777     -415       51      247      454      844 
    1133      981      503      182      122       51      -85     -231 
    -394     -408     -140       98      -89     -491     -595     -338 
       4      219      247      279      490      653      587      539 
     592      464      138      -81     -115     -160     -209      -89 
     103      243      413      548      530      491      498      372 
      54     -154       -4       84     -326     -703     -511     -133 
      22     -162     -569     -503      106      302      -50     -259 
     -93      393      867      778      267      -28       15       59 
      -8      -11        7      -46       29      212      360      561 
     558      131      -92      267      561      473      418      350 
     -73     -500     -373      101      319      167       56      191 
     116     -400     -654     -181      407      497      359      427 
     437       55     -320     -246       29       95       37      237 
     643      724      452      303      154     -295     -538     -250 
    -118     -441     -486       76      586      389     -250     -515 
    -334     -239     -219       44      317      183      -53       49 
     126      -96     -210        0      260      376      436      489 
     607      915     1043      598        6     -257     -288     -226 
      -7      338      504      369      191       60      -33       79 
     300      322       85     -239     -347     -142      -71     -392 
    -625     -399      110      526      427        3      -37      220 
     176     -159     -377     -110      461      646      469      468 
     459      127     -111       84      228      -83     -381     -304 
    -123       67      420      732      598       74     -282     -213 
    -109     -274     -444     -302      -49        4       58      312 
     446      316      253      437      632      490       37     -251 
    -153       44      127      179      324      487      358     -110 
    -411     -147      372      642      585      209     -398     -591 
     -62      442      442      281       99     -216     -387     -132 
     241      413      437      323      181      205      286      265 
     238      336      296     -214     -673     -350      272      279 
    -128     -164      254      635      740      645      386       49 
    -194     -412     -722     -943     -817     -305      237      329 
      49     -206     -240       89      562      709      746      889 
     663      189      100      205      113      -46     -244     -500 
    -483      -93      240      166      -21      193      497      276 
     -72       25      228      106     -265     -503     -170      485 
     657      260      -75      -64      152      394      501      441 
     262       54       19      182      349      369      263      182 
     122       82      174      197      -49     -290     -265      -66 
     130      240      315      353      204       42      152      158 
    -278     -631     -521     -279      -88      190      364      220 
     115      295      476      498      357       41     -212     -226 
     -86      133      308      269      122      125      212      120 
     -27       64      233      208       70     -104     -309     -246 
     156      396      289      116      -77     -253     -189       68 
     268      292      140      -85     -157       62      346      408 
     376      337      144      -87     -190     -142       99      350 
     411      369      180     -107      -71      279      416      210 
       3      -17      -24      -67       97      371      398      250 
      87     -112      -75      259      377      149      -95     -180 
     -20      251      323      180      -26     -124       49      363 
     518      413      172      -53     -185     -181      -96      -49 
     -42      -17       40      152      260      304      378      417 
     175     -218     -402     -326      -76      230      339      230 
     103      -42     -189     -115      162      312      298      368 
     388      139      -47      138      357      246       82      176 
     255      112      -73     -257     -424     -332       11      191 
     136      264      633      851      715      340       12      -96 
     -63      -13      -78     -243     -246     -116      -99     -130 
    -135     -121      100      403      319       -2      -26      176 
     214       58       -9      153      248      136      132      241 
     199      109       34     -145     -173      101      193      -35 
     -49      137       14     -250     -221      -99     -118       41 
     519      800      611      390      349      206      -23      -28 
     202      376      263      -77     -388     -374      -17      152 
     -64      -50      295      359      133       45      107      120 
      55       12       16       22       80      176      193      180 
     210      194      187      282      293      155      103      138 
      62      -68      -45      118      177       53      -29      -33 
    -143     -261     -270     -235       17      492      711      536 
     311      191      101       19       41      208      346      255 
      59      101      282      234      123      263      443      378 
     190       93       88       95       68      -49     -211     -292 
    -253     -126       -5        5      -96     -243     -334     -263 
     -52      149      199      168      224      275      250      277 
     259       72      -89      -61       35       44       32      110 
     193      160       86      212      463      445      278      325 
     403      377      372      252        7      -83      -45     -120 
    -249     -160      144      352      361      272      153      171 
     263      115      -87      -28      -15     -159     -111        9 
     -20      122      475      701      740      566      215       22 
     -26     -195     -308     -128      131      176        8     -206 
    -271      -65      300      553      550      375      161      -93 
    -349     -363      -74      141      165      232      154     -183 
    -219      130      217       25      -35      -40      -57       69 
     242      276      215      289      549      635      308     -118 
    -268     -129      124      271      138     -151     -275     -178 
     -17      146      254      263      310      370      214      -52 
    -195     -223     -123       96      267      285      245      235 
     190      157      259      287       26     -197      -25      203 
     122      -20     -150     -402     -474     -233       99      438 
     575      424      309      321      287      155       18       90 
     267      147     -154     -210      -18      201      292      212 
     161      381      690      626      210     -103     -213     -325 
    -436     -428     -305      -80      202      401      543      689 
     533      -40     -383      -17      485      386     -101     -328 
    -242     -192     -189      -33      168      222      218      206 
     164      221      321      271      109      -30      -48      119 
     348      398      210       24       83      183      -35     -311 
    -261     -193     -279      -85      352      479      305      246 
     262      118     -132     -311     -296     -141        7      160 
     266      231      287      585      764      550      199      -52 
    -256     -276       -6      182       85       48      225      308 
     182      125      173       91        3      102      136      -40 
    -147      -15      217      361      322       90     -199     -309 
    -268     -276     -164      224      488      345      110       51 
      98      210      282      131      -54      -18       88      173 
     297      288       66     -204     -388     -386     -173      120 
     309      259       66       50      275      338       62     -105 
      98      279      190      104      118       40       35      342 
     578      481      472      605      452      153       88      122 
     105      162      230      203      203      172      -86     -316 
    -156      120      -16     -385     -323      150      356      197 
     137      200      131       73      254      398      204       18 
     173      320      199       42      -26        8      229      389 
     215       -8      -32     -117     -318     -270       -8      173 
     317      365      195       19      -61     -106      -94      -49 
     -75     -195     -292     -266     -113        5      -69      -31 
     385      712      655      628      699      540      235      -64 
    -257     -109      151      100      -26       77      174      132 
     105       74       61      214      359      247      -19     -183 
    -126       12       51       19      -40     -157     -222      -57 
     246      420      494      564      446      196      161      309 
     312       91     -103     -101     -154     -351     -324     -122 
     -99      -96      130      356      260       12      138      571 
     630      234       85      391      525      328      294      349 
     177      119      413      525       90     -415     -558     -541 
    -512     -281       11      -72     -318     -164      217      437 
     569      564      255     -149     -381     -387     -222      -82 
     -16      101      106      -70     -152     -132       34      479 
     695      387      120      185      361      464      358      136 
      40       65      139      295      386      246       59     -116 
    -492     -751     -385      155      176      -11      104      352 
     465      337       62       98      426      466      312      400 
     456      202       -6       -5      -41      -84      -78     -156 
    -140      146      477      610      486      200     -121     -341 
    -269     -189     -468     -617     -290       60      325      581 
     597      515      499      341      159      126       11     -151 
    -114      -70      -67      158      292       -4     -189       95 
     388      464      469      212     -262     -344      -38       24 
    -140      -70      185      390      601      739      657      576 
     517      145     -369     -517     -326     -232     -341     -279 
      90      404      467      314      -35     -321     -232        0 
     -38     -181     -176     -167       29      583      735      159 
    -249     -143      -72      -75      196      522      552      425 
     277      165      278      443      447      473      382     -105 
    -646     -835     -744     -507     -157      125      149      120 
     288      402      217     -111     -350     -213      318      619 
     346       41      125      302      257      157      264      493 
     509      167     -242     -407     -388     -237      149      537 
     486      182      237      446      149     -326     -352      -84 
     163      110     -321     -589     -456     -276      -65      337 
     749      969      968      777      505      276       10     -301 
    -377     -221      -91      103      430      486      134      -11 
     284      418      172      -47      -56       40      177      215 
      19     -186     -165      -61       48      131       69       65 
     330      577      529      352      267      153     -202     -596 
    -582     -309     -306     -289      241      655      237     -539 
    -906     -785     -501     -202       99      262      386      697 
     837      488      121      211      541      584      268      -82 
    -472     -817     -610       36      475      636      715      685 
     590      385       30     -123      119      515      779      696 
     342      140      288      330      -36     -175      296      786 
     896      598      -56     -503     -396     -146       54      210 
      58     -240     -257     -120     -103     -125      -10      210 
     310      207      -37     -365     -426      -15      350      249 
     -81     -222      -55      111       26      -98      -70       -3 
     127      425      644      577      365      116     -201     -527 
    -643     -437      -70      257      429      385      168      -87 
    -171      -42       97      139      142      160      106      -91 
     -77      353      613      391      253      399      366       93 
     -29      129      298      215      -28     -167      -80      170 
     290      160      201      474      383       50      109      327 
     219      -43     -230     -366     -498     -647     -647     -216 
     442      625      274      110      251      216      125      276 
     397      265       69       24       97      112      112      196 
     205      144      223      360      392      319      134      -85 
    -260     -385     -258      218      676      686      309       27 
     -32     -224     -535     -523     -113      336      606      722 
     671      406       44     -171      -28      462      809      573 
     132      -56     -242     -561     -592     -172      245      274 
     134      146       70     -312     -483     -105      260      234 
     169      164      -40     -250     -209     -238     -509     -567 
    -195      154      123     -132     -315     -220      184      670 
     884      644      208      -79     -135       70      360      354 
      81     -105      -47      142      225      203      260      283 
     168       54      -27      -48       11      -26     -192     -327 
    -263      110      552      600      285       42      -75     -261 
    -331      -45      377      572      463      186      -34      100 
     583      900      679      191     -111     -176     -216     -150 
     222      596      591      450      475      425      179      100 
     232      187       -7       -5      191      428      576      446 
     231      318      525      421       95      -73      -64     -124 
    -168       18      124     -155     -415     -342     -241     -337 
    -460     -382     -138      -39     -236     -423     -301     -147 
    -284     -412     -248       39      264      256      -22     -267 
    -298     -156      164      580      842      725      345      159 
     269      307      229      349      642      772      626      407 
     291      256      307      368      147     -316     -572     -468 
