Origin Time       2025/03/28 03:50:00
Lat.              35.403
Long.             140.360
Depth. (km)       54
Mag.              4.4
Station Code      KNG206
Station Lat.      35.0966
Station Long.     139.3778
Station Height(m) -1130
Record Time       2025/03/28 03:50:59
Sampling Freq(Hz) 100Hz
Duration Time(s)  79
Dir.              N-S
Scale Factor      2000(gal)/6182761
Max. Acc. (gal)   4.270
Last Correction   2025/03/28 03:51:00
Memo.             
[...]
    -344     -341     -339     -336     -337     -341     -333     -323 
    -334     -346     -339     -331     -334     -336     -331     -328 
    -328     -334     -335     -330     -331     -333     -332     -337 
    -339     -329     -327     -335     -332     -329     -333     -331 
    -329     -331     -331     -331     -331     -330     -332     -331 
    -327     -329     -331     -332     -334     -334     -334     -332 
    -325     -332     -342     -335     -333     -340     -334     -328 
    -335     -337     -331     -334     -333     -325     -329     -333 
    -331     -331     -326     -330     -333     -327     -332     -334 
    -332     -340     -337     -332     -337     -337     -335     -338 
    -338     -344     -346     -343     -350     -350     -341     -341 
    -339     -329     -327     -327     -320     -313     -309     -304 
    -292     -280     -277     -268     -265     -282     -308     -335 
    -357     -374     -391     -389     -374     -366     -362     -362 
    -368     -377     -399     -419     -426     -443     -448     -420 
    -390     -375     -354     -320     -289     -276     -276     -281 
    -291     -298     -298     -297     -290     -278     -258     -239 
    -254     -294     -313     -318     -338     -363     -362     -350 
    -378     -438     -502     -580     -664     -713     -704     -639 
    -549     -488     -459     -400     -291     -167      -39       75 
     119      110      103       23     -178     -375     -469     -496 
    -521     -529     -530     -583     -642     -625     -539     -412 
    -280     -187     -156     -167     -196     -216     -176      -59 
      92      189      158       55      -57     -217     -332     -289 
    -198     -114       24      114       28     -184     -432     -677 
    -913    -1155    -1348    -1437    -1441    -1370    -1252    -1114 
    -925     -703     -512     -378     -285     -180      -21      162 
     261      275      367      541      677      781      829      786 
     717      617      450      232      -72     -466     -820    -1023 
   -1134    -1177    -1053     -792     -511     -224       23       72 
    -221     -701    -1005    -1086    -1065     -834     -362      166 
     563      636      344     -164     -764    -1272    -1516    -1561 
   -1462    -1200     -881     -542     -112      357      697      802 
     788      831      932     1058     1231     1422     1505     1311 
     794       55     -781    -1527    -1918    -1823    -1378     -854 
    -530     -567     -928    -1510    -2156    -2654    -2864    -2731 
   -2253    -1499     -578      368     1149     1629     1911     2169 
    2326     2248     1953     1463      833      165     -469     -892 
    -854     -349      304      714      625       89     -548    -1031 
   -1314    -1456    -1564    -1591    -1467    -1225     -946     -894 
   -1230    -1696    -1940    -1784    -1249     -591     -115       71 
     -71     -548     -997     -902     -151     1036     2208     2810 
    2752     2332     1753     1268     1048      909      625      122 
    -551    -1257    -1914    -2508    -2954    -3097    -2938    -2555 
   -1914    -1131     -504     -221     -341     -824    -1452    -1917 
   -1987    -1527     -448     1154     2828     4017     4517     4366 
    3489     2020      509     -578    -1130    -1225    -1045     -777 
    -533     -411     -470     -625     -839    -1225    -1808    -2418 
   -2794    -2736    -2313    -1882    -1723    -1766    -1758    -1512 
    -991     -237      669     1506     1927     1718      898     -335 
   -1530    -2097    -1723     -567      911     2095     2461     2081 
    1434      710      -43     -603     -818     -658     -212      339 
     815      974      754      322     -276     -913    -1289    -1330 
   -1127     -763     -447     -451     -852    -1555    -2389    -3026 
   -3139    -2627    -1629     -370      902     1761     1782     1089 
     248     -318     -365      161      897     1403     1540     1336 
     829      107     -695    -1265    -1157     -334      812     1825 
    2140     1409      -99    -1736    -2763    -2914    -2583    -2018 
   -1256     -623     -328     -223     -184     -198     -305     -573 
    -960    -1321    -1547    -1597    -1572    -1663    -1830    -1734 
   -1077      181     1787     3223     4019     4039     3363     2183 
     847     -328    -1157    -1531    -1579    -1539    -1441    -1224 
   -1007    -1003    -1300    -1801    -2270    -2505    -2401    -1879 
    -947      210     1246     1782     1729     1404     1061      662 
     244       62      310      876     1357     1437     1153      675 
      83     -592    -1152    -1358    -1331    -1320    -1279    -1132 
    -986     -969    -1164    -1539    -1997    -2457    -2695    -2447 
   -1756     -972     -374       94      554      872      943      908 
     888      947     1160     1335     1178      725      263       60 
     196      482      673      681      545      338       59     -393 
   -1089    -1958    -2791    -3242    -3014    -2264    -1485     -954 
    -606     -191      499     1301     1860     2106     2139     1979 
    1692     1351      908      356     -223     -655     -740     -606 
    -649    -1048    -1729    -2550    -3228    -3442    -3034    -2062 
    -896      -86       18     -518    -1169    -1331     -955     -330 
     444     1166     1494     1435     1146      701      355      377 
     738     1249     1688     1841     1658     1245      653     -132 
    -988    -1638    -1958    -2093    -2063    -1700    -1089     -485 
      -4      241       74     -507    -1250    -1882    -2320    -2484 
   -2225    -1562     -666      323     1198     1746     1980     1975 
    1688     1150      587      240      238      471      629      548 
     294      -77     -545    -1026    -1426    -1806    -2245    -2602 
   -2658    -2350    -1778    -1141     -552      -24      367      514 
     414      239      110      -37     -223     -358     -343     -126 
     281      806     1246     1473     1569     1451      969      171 
    -781    -1557    -1874    -1792    -1389     -567      490     1223 
    1292      804       24     -830    -1459    -1536    -1131     -534 
     100      525      512      182     -232     -644     -969    -1159 
   -1349    -1520    -1483    -1277    -1012     -693     -321      102 
     457      528      239     -279     -799    -1106    -1141    -1011 
    -716     -235      267      635      766      639      372       10 
    -346     -454     -321     -231     -358     -539     -440       32 
     577      805      631      213     -349     -922    -1211    -1071 
    -603       30      535      646      474      251       -9     -297 
    -502     -652     -858    -1037    -1017     -815     -586     -435 
    -347     -165      222      608      612       73     -862    -1897 
   -2612    -2716    -2215    -1209      -34      773      916      431 
    -370    -1116    -1557    -1550    -1233     -765      -94      649 
    1201     1521     1698     1756     1639     1365      995      593 
     258      -25     -294     -410     -294     -123      -35        4 
    -109     -440     -766    -1017    -1281    -1453    -1484    -1509 
   -1573    -1611    -1551    -1378    -1180     -982     -689     -233 
     325      761      791      365     -305     -928    -1164     -901 
    -358      346     1086     1542     1615     1350      697     -140 
    -729     -879     -740     -578     -502     -458     -467     -559 
    -685     -877    -1199    -1617    -1968    -2001    -1595     -896 
    -195      249      290      -44     -468     -635     -486     -137 
     367      915     1318     1538     1582     1397     1094      820 
     538      209     -169     -594    -1003    -1347    -1576    -1596 
   -1417    -1126     -676      -74      408      491      168     -326 
    -821    -1285    -1643    -1880    -2017    -1972    -1732    -1294 
    -648       22      427      436      228      128      267      623 
    1131     1530     1587     1389     1131      938      863      867 
     840      662      285     -213     -660     -942    -1186    -1600 
   -2115    -2482    -2587    -2381    -1862    -1177     -514       -6 
     223       59     -433     -898    -1075    -1047     -859     -449 
     118      775     1438     1899     2069     1930     1442      756 
      46     -662    -1280    -1690    -1893    -1889    -1624    -1220 
    -859     -505      -81      353      662      727      594      363 
      37     -336     -637     -806     -886     -919     -836     -652 
    -512     -457     -482     -570     -639     -614     -398       48 
     570      881      846      625      369      128       39      126 
     250      324      235     -124     -678    -1224    -1574    -1686 
   -1597    -1327     -996     -761     -720     -935    -1314    -1634 
   -1740    -1614    -1352    -1033     -588       96      966     1853 
    2646     3245     3422     3022     2207     1214      163     -780 
   -1371    -1438    -1083     -650     -368     -353     -684    -1278 
   -2003    -2754    -3356    -3611    -3431    -2924    -2276    -1620 
   -1042     -512       80      777     1514     2185     2636     2714 
    2432     1964     1496     1205     1226     1531     1911     2108 
    1961     1484      788      -19     -862    -1712    -2577    -3477 
   -4324    -4836    -4741    -4019    -2880    -1686     -754     -245 
    -212     -549     -979    -1210    -1115     -748     -194      484 
    1179     1777     2235     2508     2476     2136     1682     1267 
     916      645      547      736     1192     1697     1919     1610 
     743     -546    -2015    -3312    -4166    -4507    -4277    -3527 
   -2592    -1799    -1269     -961     -692     -316      128      464 
     510      324      167      212      569     1294     2144     2706 
    2718     2110      982     -450    -1871    -2887    -3293    -3195 
   -2692    -1853     -921      -91      510      710      566      375 
     321      357      425      522      568      507      409      363 
     344      236      -12     -264     -312     -157      -15       48 
      57     -133     -507     -802     -924     -957     -883     -577 
     -18      626     1071     1128      858      309     -561    -1588 
   -2523    -3186    -3391    -3036    -2286    -1495     -919     -634 
    -572     -549     -438     -227       71      446      830     1130 
    1334     1417     1339     1231     1162      949      445     -280 
   -1006    -1487    -1653    -1616    -1477    -1313    -1230    -1205 
   -1051     -606      110      852     1382     1688     1850     1819 
    1495      884       65     -732    -1163    -1133     -902     -714 
    -596     -562     -604     -605     -512     -348     -173      -87 
    -161     -438     -833    -1144    -1304    -1328    -1189     -952 
    -720     -578     -553     -550     -447     -162      269      624 
     730      584      209     -329     -768     -848     -588     -162 
     301      602      542      247      -43     -281     -404     -421 
    -585     -979    -1375    -1554    -1374     -799       29      853 
    1323     1249      825      296     -243     -728    -1123    -1442 
   -1664    -1669    -1417    -1128     -988     -965     -983     -980 
    -892     -697     -433     -146       64       -5     -407     -843 
   -1014     -978     -782     -254      583     1565     2545     3291 
    3577     3258     2385     1222       20     -904    -1233    -1046 
    -801     -878    -1321    -1954    -2486    -2670    -2478    -1975 
   -1250     -458      283      865     1115      972      533      -81 
    -619     -778     -629     -486     -457     -504     -655     -918 
   -1260    -1682    -2135    -2517    -2726    -2660    -2276    -1603 
    -750      115      895     1440     1552     1277      746      -33 
    -953    -1757    -2191    -2203    -1945    -1501     -956     -371 
     399     1378     2370     3244     3871     4042     3755     3301 
    2999     3052     3369     3508     3089     2188     1190      390 
    -102     -235      -59      111     -122     -657     -975     -900 
    -528      170     1007     1527     1411      558     -938    -2658 
   -4114    -5232    -6125    -6691    -6855    -6622    -5926    -4900 
   -3855    -2929    -2146    -1580    -1250    -1043     -770     -276 
     470     1359     2281     3204     3954     4118     3407     1909 
      32    -1563    -2286    -2027    -1129       -7     1041     1645 
    1521      816     -142     -961    -1136     -440      945     2708 
    4381     5396     5418     4432     2734      740    -1303    -3082 
   -4218    -4592    -4235    -3171    -1576      207     1773     2620 
    2315      771    -1659    -4085    -5415    -5196    -3704    -1496 
     594     1679     1321     -314    -2524    -4529    -5828    -6080 
   -5122    -3179     -836     1310     2950     4045     4700     4885 
    4439     3603     3010     3052     3662     4423     4660     3827 
    1944     -417    -2544    -3874    -4098    -3340    -2137    -1221 
   -1150    -1958    -3382    -5166    -6950    -8313    -8997    -8986 
   -8442    -7517    -6255    -4788    -3421    -2442    -1976    -1910 
   -1856    -1282      257     2808     5893     8858    11237    12663 
   12903    12116    10582     8408     5726     2838      282    -1261 
   -1396     -312     1317     2610     2744     1323    -1296    -4129 
   -6121    -6814    -6476    -5510    -4176    -2692    -1220       32 
     847     1048      501     -540    -1431    -1580     -819      466 
    1695     2354     2051      877     -683    -2114    -3109    -3903 
   -4816    -5563    -5655    -4889    -3326    -1297      769     2475 
    3426     3549     3192     2646     2110     1942     2485     3763 
    5272     6119     5656     3900     1360    -1298    -3420    -4496 
   -4404    -3464    -2182    -1107     -715    -1233    -2557    -4067 
   -4765    -4097    -2437     -632      668     1170      811      -46 
    -659     -512      421     1745     2785     3028     2294      750 
    -925    -1923    -1967    -1415     -835     -518     -509     -884 
   -1738    -3172    -5127    -7106    -8348    -8211    -6499    -3628 
    -414     2306     3979     4594     4562     4218     3690     3210 
    2984     3006     3292     3768     4042     3652     2400      376 
   -2110    -4556    -6405    -7341    -7392    -6783    -5704    -4189 
   -2238       40     2353     4150     4904     4603     3675     2676 
    2149     2232     2535     2720     2739     2575     2102     1211 
     -72    -1638    -3325    -4915    -6159    -6727    -6393    -5368 
   -4034    -2575    -1061      537     2246     3844     5044     5783 
    6127     6195     6161     6051     5720     5052     4069     2968 
    1954     1082      336     -349    -1134    -2197    -3568    -4973 
   -5900    -6042    -5597    -4945    -4358    -4054    -4036    -4009 
   -3660    -2827    -1600     -329      520      479     -682    -2605 
   -4506    -5704    -5752    -4429    -2011      839     3472     5294 
    5878     5165     3368     1069     -791    -1397     -397     1935 
    4663     6728     7399     6395     4133     1516     -799    -2553 
   -3565    -3905    -4091    -4630    -5627    -6830    -7818    -8312 
   -8216    -7444    -6063    -4313    -2403     -453     1501     3349 
    4766     5538     5790     5826     6010     6477     6954     7123 
    6800     5895     4560     3090     1700      466     -608    -1402 
   -1765    -1842    -1912    -2077    -2475    -3306    -4483    -5749 
   -6931    -7877    -8388    -8269    -7483    -6206    -4627    -2803 
    -758     1324     3047     4046     4264     3950     3422     2973 
    2856     3169     3806     4454     4715     4319     3234     1717 
     154    -1191    -2221    -2949    -3450    -3708    -3616    -3183 
   -2473    -1590     -824     -373     -208     -271     -441     -523 
    -330      370     1567     2745     3309     2980     1747       34 
   -1335    -1710    -1019      154      923      701     -518    -2129 
   -3424    -4134    -4223    -3730    -2861    -1806     -631      533 
    1423     1796     1623     1099      399     -301     -699     -647 
    -294      130      505      792      975     1093     1014      537 
    -232    -1098    -1839    -2126    -1791     -850      432     1448 
    1774     1536     1141      950     1103     1400     1410      839 
    -294    -1728    -2882    -3043    -1897      291     2758     4450 
    4683     3518     1380    -1073    -3034    -4113    -4502    -4591 
   -4727    -5140    -5844    -6570    -6913    -6585    -5658    -4562 
   -3628    -2863    -2073     -940      688     2507     4023     4992 
    5470     5552     5369     5197     5283     5752     6504     7053 
    6767     5340     3038      565    -1370    -2352    -2332    -1661 
    -836     -152      178        7     -429     -610     -244      562 
    1618     2742     3646     4112     4019     3261     1757     -547 
   -3420    -6253    -8469    -9675    -9571    -8135    -5806    -3229 
   -1031      261      443     -258    -1341    -2371    -3316    -4252 
   -4823    -4624    -3715    -2356     -833      587     1715     2297 
    2161     1459      410     -775    -1645    -1765    -1090       87 
    1283     1974     2066     1987     1982     1926     1750     1422 
     888      206     -477     -867     -624      279     1501     2640 
    3421     3731     3603     3156     2564     1873      926     -436 
   -2212    -4097    -5600    -6439    -6573    -6140    -5409    -4556 
   -3695    -2954    -2298    -1621     -953     -306      452     1351 
    2236     3072     3936     4812     5632     6162     5962     4853 
    3130     1306     -169    -1119    -1579    -1673    -1687    -1856 
   -2115    -2291    -2258    -2043    -1873    -1891    -2090    -2451 
   -2851    -3054    -2832    -2044     -735      842     2349     3447 
    3901     3703     3019     2182     1633     1545     1762     2004 
    1953     1398      344    -1023    -2420    -3657    -4736    -5625 
   -6111    -6112    -5664    -4622    -2913     -825     1131     2434 
    2789     2403     1874     1713     2150     3150     4342     5253 
    5574     5264     4567     3786     3060     2327     1394       75 
   -1653    -3563    -5393    -7036    -8362    -9206    -9609    -9709 
   -9509    -8867    -7610    -5777    -3694    -1758     -275      620 
     951      858      613      528      895     1971     3706     5714 
    7646     9175     9890     9573     8343     6568     4682     3031 
    1796     1059      903     1296     2038     2836     3290     2977 
    1650     -613    -3405    -6215    -8644   -10430   -11331   -11228 
  -10291    -8795    -6993    -5161    -3473    -2021     -801      350 
    1542     2667     3595     4301     4693     4689     4504     4386 
    4344     4293     4135     3779     3141     2158      905     -417 
   -1556    -2257    -2467    -2456    -2522    -2823    -3524    -4657 
   -6031    -7357    -8255    -8404    -7714    -6361    -4663    -2801 
