Origin Time       2025/03/28 03:50:00
Lat.              35.403
Long.             140.360
Depth. (km)       54
Mag.              4.4
Station Code      KNG203
Station Lat.      34.7983
Station Long.     139.6435
Station Height(m) -902
Record Time       2025/03/28 03:51:06
Sampling Freq(Hz) 100Hz
Duration Time(s)  60
Dir.              N-S
Scale Factor      2000(gal)/6182761
Max. Acc. (gal)   3.082
Last Correction   2025/03/28 03:51:06
Memo.             
[...]
      87       90       91       87       91      100       96       89 
      89       86       86       92       92       87       82       78 
      83       93       90       84       85       86       81       81 
      88       90       82       77       77       77       78       83 
      84       80       74       76       82       82       77       78 
      85       88       88       88       86       79       76       75 
      73       73       74       77       80       81       75       70 
      72       73       68       73       88       91       79       64 
      59       72       82       75       63       57       65       77 
      71       62       78      108      109       74       48       55 
      62       51       39       49       87      102       78       61 
      65       79       96       96       88       98      106       76 
      38       44       85      100       68       44       67       88 
      68       50       66       92       95       76       68       82 
      93       91       91      121      165      165      124       97 
      90       64       21        9       26       20      -17      -29 
      14       87      159      192      179      181      224      238 
     184      124      112       94       13      -79     -100      -50 
       2       22       68      146      167      121       77       26 
     -41      -49       20       72       54       45      103      182 
     264      370      455      455      379      259       76     -129 
    -248     -317     -399     -397     -277     -177     -153      -79 
     102      248      279      303      388      484      508      421 
     312      342      525      649      468        1     -408     -496 
    -411     -413     -494     -450     -213       42      143       88 
       8      103      371      527      400      220      343      706 
     824      515      149       77      199      107     -358     -852 
    -996     -800     -510     -310     -228     -177      -15      330 
     714      879      770      672      845     1056      821      165 
    -364     -493     -520     -749    -1006     -924     -524     -154 
      44      206      436      719      911      849      635      543 
     600      601      462      251       58      -93     -266     -497 
    -708     -827     -880     -843     -613     -211      146      242 
     202      427      936     1200      926      443      118      -66 
    -263     -496     -630     -506     -159      144      267      386 
     580      594      290        8      125      495      681      610 
     603      689      441     -291    -1044    -1329    -1134     -807 
    -663     -677     -418      463     1506     1822     1302      671 
     339       23     -619    -1403    -1643     -949      159      905 
    1057      926      886      867      510     -236    -1011    -1360 
   -1123     -594     -125      247      671     1198     1658     1683 
    1050      140     -359     -381     -458     -698     -669     -314 
    -198     -627    -1108    -1082     -623      -75      461     1044 
    1593     1815     1536     1080      973     1173      894     -403 
   -1959    -2465    -1777     -834     -165      398      917     1183 
    1148      958      817      854      756       48     -964    -1282 
    -578      195       37     -708     -888     -192      496      384 
    -221     -413      134      750      631      -49     -384       27 
     598      513     -231     -798     -565      205      796      963 
    1098     1258      872     -143     -966    -1003     -648     -540 
    -716     -814     -649     -386     -198       98      634     1013 
     964      654       53     -857    -1523    -1442     -764      102 
     927     1630     2118     2173     1586      554     -308     -621 
    -657     -902    -1383    -1560    -1046     -205      379      603 
     632      510      258       19       60      679     1703     2174 
    1320     -221    -1029     -747     -494    -1179    -2185    -2309 
   -1283       99      813      732      819     1521     1934     1336 
     300     -222      -11      372      291     -211     -447     -161 
      86       63      231      525      211     -789    -1452     -802 
     796     2015     2157     1583      843      132     -669    -1534 
   -1923    -1389     -454      -80     -368     -507        7      727 
     906      332     -467     -644       46      824      947      711 
     651      604      281     -108     -199      -33     -140     -711 
   -1019     -520      157      211     -225     -444        0      863 
    1446     1277      534     -104     -139      218      368      -84 
   -1059    -1911    -1885     -911      368     1253     1470     1125 
     441     -162     -131      480      939      819      379       25 
     -26      212      373        8     -685     -888     -315      317 
     323     -169     -621     -626      -60      803     1434     1506 
    1105      608      376      366      259      -30     -367     -670 
    -870     -900     -705     -258      220      310      -74     -458 
    -391      -24      208       92     -289     -423      262     1373 
    1717      836     -488    -1165     -769      161      870     1250 
    1335      770     -443    -1556    -1780     -960      284     1054 
    1019      548       50     -364     -630     -582      -36      943 
    1701     1437      243     -897    -1121     -412      407      511 
      -6     -491     -621     -408       23      335      262       57 
     101      307      413      433      462      514      680     1001 
    1094      440     -776    -1624    -1435     -579      108      435 
     638      568       62     -456     -433      161      767      714 
     -79     -960    -1235     -834     -260      -32      -96      123 
     865     1659     1970     1689      954      -23    -1011    -1772 
   -1969    -1431     -531      140      429      710     1328     1990 
    1965      992     -321    -1216    -1544    -1540    -1322     -903 
    -296      353      681      509      152      -11       47      188 
     340      488      710      971      858      138     -581     -476 
     405     1200     1176      343     -610     -886     -413       59 
       6     -260     -295     -161     -103     -141     -227     -356 
    -300      205      873     1137      866      325     -221     -542 
    -505     -203      172      404      324       63      -87     -175 
    -486     -921    -1005     -556       81      565      837      906 
     868      930     1025      776       74     -711    -1169    -1202 
   -1012     -778     -433      100      682     1107     1304     1273 
     923      287     -199     -103      344      447       17     -399 
    -477     -454     -443     -216      398     1160     1518     1295 
     895      538      -22     -786    -1189     -899     -373     -201 
    -393     -564     -476     -274     -160      -34      249      633 
    1015     1307     1304      844      130     -403     -614     -741 
    -819     -470      371     1104     1193      891      939     1545 
    1971     1448      133    -1094    -1570    -1496    -1592    -2003 
   -2012    -1153       -3      534      300      -70      -14      360 
     492       66     -525     -678     -467     -457     -717     -707 
    -172      460      716      666      700      920     1042      898 
     633      441      395      387      185     -207     -445     -308 
     -67     -110     -374     -503     -294      203      648      637 
     287       79       76      -58     -372     -617     -675     -614 
    -469     -121      500     1161     1504     1398     1074      901 
     885      534     -434    -1496    -1859    -1314     -310      488 
     612      130     -310      -78      699     1257     1137      671 
     346      200       60     -170     -555     -988    -1111     -684 
      72      686      864      688      406       53     -355     -432 
     127      975     1375      872     -240    -1042     -914     -216 
     262      249       97      165      344      292      -28     -299 
    -202      265      752      905      742      548      422      158 
    -255     -479     -489     -690    -1104    -1227     -961     -781 
    -736     -333      446      993      967      677      683     1164 
    1566     1124     -214    -1600    -2056    -1462     -703     -531 
    -587      -33     1224     2353     2584     2027     1298      669 
      30     -561     -804     -692     -574     -620     -687     -565 
    -122      501      903      854      528      265      264      519 
     841      932      644      150     -235     -406     -526     -756 
   -1050    -1247    -1231    -1033     -845     -789     -691     -330 
     275     1004     1725     2232     2320     1921     1210      492 
    -158     -901    -1711    -2177    -1880     -983     -232     -161 
    -493     -615     -301      283      865     1116      765       18 
    -405      -78      633     1162     1341     1166      547     -370 
   -1078    -1234    -1017     -771     -515      -86      444      818 
     886      661      230     -212     -319      105      751      990 
     569      -25     -206       13      192       50     -271     -439 
    -287      116      599      988     1070      637     -148     -647 
    -445       -5      -93     -680    -1016     -598      400     1457 
    2115     2088     1293      -28    -1241    -1772    -1669    -1312 
    -804      -89      669     1133     1113      755      427      423 
     702      886      583     -156     -871    -1171     -981     -530 
    -188     -199     -557     -964     -957     -383      313      517 
     235       92      511     1257     1669     1182      -79    -1317 
   -1880    -1640     -696      672     1842     2171     1561      457 
    -542     -951     -647       21      580      749      554      417 
     741     1212     1170      574      -31     -277     -273     -292 
    -483     -780     -934     -669       89     1007     1476     1141 
     258     -538     -803     -561     -112      257      399      371 
     235     -107     -550     -733     -600     -505     -711    -1009 
    -951     -426      230      651      804      962     1274     1451 
    1160      555       13     -427     -896    -1255    -1326    -1158 
    -810     -356       38      341      671     1007     1134      956 
     771      879     1028      714      -98     -773     -690      -81 
     329      280      -97     -631     -923     -574      286     1084 
    1290      803      -14     -724    -1097    -1084     -763     -242 
     324      653      587      295      -16     -297     -488     -507 
    -362      -25      519      964      908      465      222      454 
     688      386     -175     -402     -295     -214     -281     -282 
     -15      335      433      336      353      561      735      658 
     378      244      604     1242     1377      543     -761    -1560 
   -1450     -945     -780    -1028    -1105     -487      761     1985 
    2417     1876      834     -318    -1494    -2535    -3193    -3307 
   -2892    -2208    -1424     -305     1250     2695     3391     3402 
    3275     3227     2926     1878        8    -2072    -3603    -4382 
   -4608    -4244    -3063    -1316      308     1441     2245     2858 
    3125     2964     2685     2619     2503     1682      159    -1003 
    -732      892     2762     3843     3998     3666     3001     1698 
    -437    -3041    -5387    -6894    -7299    -6598    -5083    -3354 
   -2076    -1543    -1330     -623      879     2769     4374     5089 
    4716     3629     2514     1905     1841     2045     2258     2269 
    2024     1734     1531     1250      769      230     -140     -191 
    -108     -581    -1979    -3441    -3838    -3329    -2934    -3055 
   -3227    -3011    -2527    -2072    -1707    -1186     -188     1143 
    2275     2977     3252     3050     2587     2173     1701     1081 
     617      379       42     -375     -320      502     1484     1611 
     557     -998    -2055    -2050    -1231     -390      -53     -186 
    -449     -353      363     1223     1323      223    -1618    -3321 
   -4233    -4052    -2873    -1176      585     2033     2708     2532 
    2050     1848     2014     1925      792    -1079    -2245    -1676 
     127     1549     1381       25    -1007     -740      362     1111 
    1024      580      207     -151     -606     -981     -720      681 
    2886     4649     4830     3466     1598       47    -1095    -1837 
   -2006    -1699    -1425    -1649    -2440    -3399    -3686    -2647 
    -706      966     1719     1788     1513      803     -497    -2066 
   -3069    -2700    -1014     1001     2507     3340     3639     3807 
    4239     4543     3824     1931     -352    -2214    -3286    -3494 
   -3069    -2488    -2079    -1629     -488     1674     4245     6137 
    6722     5872     3495     -146    -3883    -6220    -6553    -5467 
   -3896    -2292     -546     1452     3216     4095     4225     4155 
    3852     2782      471    -2861    -5847    -6983    -6180    -4542 
   -2957    -1803    -1459    -2001    -2799    -2977    -2008     -127 
    1838     3496     5233     7109     8157     7305     4622     1351 
   -1107    -2285    -2717    -2862    -2416     -986     1057     2834 
    3728     3379     1412    -2051    -5926    -8722    -9454    -8013 
   -4835     -423     4406     8105     9290     8150     6144     4292 
    2339     -500    -4076    -6658    -6366    -3353      -17     1274 
     583      125     1528     3870     4909     3716     1328     -640 
   -1242     -558      688     1947     3101     3797     3178      840 
   -2340    -4760    -5368    -4512    -3678    -4044    -5260    -5917 
   -4869    -2137      767     1553     -425    -2556    -1530     2553 
    6261     6846     4930     3211     3286     4019     3053     -149 
   -3444    -4516    -3403    -1884     -860      590     3177     5741 
    6589     5450     3301     1131     -402    -1030    -1197    -1601 
   -2326    -2980    -3422    -3889    -4350    -4000    -1861     1996 
    5841     7126     4827      821    -2015    -2563    -1729     -979 
   -1408    -3263    -5274    -5238    -2413     1496     4383     5576 
    5541     4918     3794     1803     -852    -3127    -4244    -4365 
   -3997    -3257    -1973     -451      308     -225    -1129    -1257 
   -1003    -1387    -1973    -1342      726     2790     3413     2696 
    2006     2385     3432     3909     3253     1972      870      537 
    1174     2258     2644     1447    -1115    -3850    -5764    -6712 
   -6666    -5267    -2367     1524     5197     7338     7500     6098 
    3800     1547      184     -508    -1391    -2623    -3737    -4466 
   -4397    -2807      119     2840     3932     3363     1881     -325 
   -3504    -6959    -8738    -7042    -1959     3974     7256     6244 
    2674     -173     -733       89      916     1583     2794     4505 
    5169     3064    -1539    -5712    -6265    -3252      122     1179 
       5    -1504    -1898    -1610    -1814    -2329    -1675     1003 
    4470     6193     4856     1549    -1590    -3293    -3716    -3233 
   -1359     1977     4906     5139     2692     -163    -1292     -337 
    1413     2136      960    -1251    -2778    -2654    -1161      755 
    2061     2017      636    -1063    -1679     -656     1073     1889 
    1061     -584    -1577    -1233     -342     -464    -1902    -2727 
   -1191     1657     3411     3290     2084      457    -1168    -1875 
    -687     1950     3745     2549    -1226    -4730    -5526    -4045 
   -2401    -1511     -715      597     2051     2673     2052      980 
     599     1114     1638     1315      259     -804    -1330    -1265 
   -1093    -1396    -2046    -2204    -1154      896     2682     2916 
    1562     -203    -1102     -768       73      341     -366    -1376 
   -1768    -1470     -942     -137     1359     3445     5161     5345 
    3836     1586     -412    -1637    -1997    -1734    -1052     -175 
     377      416      572     1285     1751      836    -1242    -3053 
   -3370    -1923      365     1739     1186     -310     -762      627 
    2613     3135     1394    -1327    -3033    -2923    -1848    -1072 
    -799     -281      704     1232      557     -609     -863      344 
    2224     3424     3123     1334    -1221    -3273    -3830    -3006 
   -1764     -911     -462     -237     -546    -1398    -1737     -614 
    1463     3193     3975     4234     4487     4471     3430     1127 
   -1572    -3251    -3262    -2368    -1764    -1620    -1167      -34 
    1242     1911     1870     1864     2623     3825     4312     3349 
    1404     -456    -1723    -2581    -3053    -2806    -1928    -1265 
   -1560    -2458    -2753    -1714       43     1012      128    -2109 
   -3848    -3671    -2027     -385      602     1552     3285     5519 
    6813     6023     3437      347    -1928    -2813    -2731    -2326 
   -1708     -814      115      818     1388     1997     2257     1467 
    -212    -1584    -1742    -1087     -739    -1010     -996      154 
    2168     3730     3602     1873     -435    -2623    -4236    -4574 
   -3338    -1249      583     1536     1540      776     -380    -1447 
   -2086    -2135    -1332      660     3463     5772     6614     6154 
    5057     3775     2269      143    -2518    -4744    -5693    -5412 
   -4313    -2880    -1798    -1385    -1185     -693     -172     -346 
   -1281    -2004    -1522      -13     1418     2044     2151     2431 
    3086     3720     3863     3296     2075      438    -1349    -2755 
   -2804    -1210      558      788     -279     -880       24     1747 
    3080     3624     3468     2441      398    -2283    -4778    -6068 
   -5485    -3370     -834     1171     2320     2704     2496     1847 
    1045      609      849     1272      986      -54     -844     -675 
      10      233     -398    -1224    -1419    -1086     -903    -1142 
   -1518    -1559     -939      242     1490     2203     1959      862 
    -325     -657      169     1353     1752     1205      597      608 
     900      709     -110    -1077    -1832    -2306    -2329    -1520 
     177     1905     2454     1546       57    -1089    -1759    -2275 
   -2714    -2707    -1780      175     2710     4885     5782     5121 
    3150      418    -2073    -3170    -2329      -91     2030     2550 
    1279     -548    -1491    -1156     -275      232      105     -218 
    -222       95      299      286      409      648      520     -344 
   -1899    -3358    -3608    -2514    -1071     -172       89      -16 
    -359     -759     -810     -520     -582    -1420    -2462    -2595 
   -1205     1073     2770     2932     1988     1236     1472     2176 
    2147      819    -1069    -2146    -1771     -503      735     1414 
    1527     1407     1258     1042      850      832      892      951 
    1206     1875     2902     3826     3894     2717      795     -958 
   -1910    -1978    -1645    -1489    -1484    -1113     -186      756 
    1005      535      -38     -405     -851    -1519    -2116    -2285 
