Origin Time       2025/03/28 03:50:00
Lat.              35.403
Long.             140.360
Depth. (km)       54
Mag.              4.4
Station Code      KNG204
Station Lat.      34.8931
Station Long.     139.5711
Station Height(m) -933
Record Time       2025/03/28 03:51:07
Sampling Freq(Hz) 100Hz
Duration Time(s)  61
Dir.              U-D
Scale Factor      2000(gal)/6182761
Max. Acc. (gal)   0.630
Last Correction   2025/03/28 03:51:07
Memo.             
[...]
     498      782     1160     1037      327      -86      235      490 
     147     -201     -150      -61      -24      255      559      449 
     232      340      450      240       24      110      236       76 
     -26      280      511      380      430      709      519      -10 
     -47      292      267      -61      -67      417      950     1095 
     810      387      224      386      601      588      219     -106 
      43      305      245      -66     -361     -317      -27      103 
     237      669     1072     1120     1048     1023      702      141 
     -75      -25     -129     -139      182      467      417      233 
     220      429      710      841      698      429      161      -81 
     -31      343      611      783      993      663     -295     -743 
     -48      957     1230      575     -352     -666     -428     -367 
    -326      233      869      879      454      248      345      457 
     643      890      808      331      -41      171      614      526 
     164      152      165      -29       41      470      788      750 
     614      622      556      103     -381     -123      707     1050 
     464     -457     -871     -646     -243      305     1030     1367 
     921      118     -293     -324     -377     -120      547      940 
     868      700      621      690      840      836      527       28 
    -169      162      381      135      -87      -84       98      491 
     685      483      484      953     1171      602     -101     -185 
     -29      -93      -69       96      -13     -240      -95      209 
     241      294      739     1239     1342     1057      545      -69 
    -573     -771     -542       82      679      889      873      577 
     136      470     1152      667     -380     -507      -89      151 
     449      755      739      797     1138      966      125     -284 
     -57       67      144      194     -152     -423     -199      241 
     881     1576     1678     1075      309     -149     -195     -132 
     -37      444      909      507     -331     -473      191      846 
     875      433       79      -14      -21      122      469      644 
     429       64     -222     -155      445      966      682      123 
     138      149     -443     -600      198      749      580      606 
    1023      990      274     -333     -170      425      645      347 
      67      201      611      843      696      422      235       45 
    -131      -63       78       12        8      115       30       80 
     672     1311     1286      783      539      620      575      392 
     193       31      177      535      657      463      163      -25 
      26      152      142      149      400      562      370      287 
     359      125     -102       -9      152      513      970      806 
     121     -234     -120       -6      109      386      491      302 
     136        7     -220     -200      383      905      696      324 
     421      698      943     1131      880       29     -820     -779 
     126      824      797      527      301      109       75      137 
     168      260      239      -27      -48      329      577      664 
     888      886      404        6       44      290      621      785 
     474       99        7     -134     -227       69      423      555 
     428       82      -81      -82      -74      306      709      586 
     471      629      510      144      104      334      373      185 
      70      345      875      992      610      421      570      469 
     -46     -341       50      771     1286     1283      612     -130 
     -55      533      653      232     -115     -147        1      262 
     484      371       54       38      255      244      119      126 
     100       87      231      239        4      -59      117      160 
      86      164      350      535      695      742      718      673 
     530      412      356      146     -105     -109       68      210 
     252      157      -12      116      615      920      765      507 
     468      551      454      224       96       -7     -184     -314 
    -230       95      428      629      726      681      761      992 
     678      -80     -292       58      356      553      572      210 
     -63      192      443      281      132       90      -66      -66 
     149      344      584      693      369       87      379      811 
     873      787      828      824      465      -71     -229      -81 
     -55       34      357      462      226      162      484      779 
     711      535      540      553      504      536      507      214 
    -194     -430     -441     -300        3      289      299      195 
     296      520      605      442      119       38      292      271 
      52      389      847      654      376      497      580      542 
     536      400      257      293      224       60      225      508 
     463      327      277      176      169      279      372      476 
     457      249       50       11      249      613      594       18 
    -467     -218      356      571      514      466      417      373 
     396      548      842      964      578       29     -148      -61 
       2       10      -53      -52      238      552      489      304 
     392      621      759      798      645      240      -54      105 
     389      370      232      225      199      133      263      446 
     296       74      272      558      518      426      406      291 
     126       91      361      658      579      414      365      223 
      40     -126     -191       12      251      255      118       79 
     230      332      237      168      298      511      584      509 
     385      140      -58       62      298      405      377      297 
     370      442      212      114      443      610      412      390 
     624      651      437      355      502      684      668      467 
     398      349       10     -230     -187     -270     -293       91 
     468      441      276      284      348      356      440      550 
     504      360      286      306      355      428      429      201 
     -37      131      556      681      422      211      276      397 
     423      443      363      173       94       -6     -150       99 
     587      736      627      535      386      137      -67      -25 
     194      200      -64     -204      -45      168      291      486 
     743      787      606      500      546      585      527      329 
      96      -16       29      279      584      633      438      195 
      -6     -114      -20      270      449      400      414      493 
     407      412      759      904      417      -98      -61      143 
      97      150      458      479      155       58      233      366 
     518      663      463       42     -124      -69      -48       12 
     193      347      504      828     1059      888      610      566 
     585      392       97       90      311      274       14      -44 
     146      438      747      766      351      -29      -10      145 
     112     -101     -262     -117      263      539      579      451 
     236      140      378      812     1065      918      502      167 
      48      -37     -171     -126      179      366      321      386 
     495      351      172      291      554      566      300       85 
     -18     -212     -379     -151      352      595      512      505 
     709      891      877      704      454      205       91      156 
     203       47      -81      125      437      519      532      725 
     848      547      149      238      532      385       59      171 
     542      625      417      327      452      406        0     -315 
     -56      435      389       17      106      486      583      416 
     150      -61      -56       71      253      456      363      -28 
     -95      292      542      454      223      -30      -80      177 
     527      725      676      582      618      582      377      133 
     -75     -104       13       74      148      296      405      551 
     769      758      428      202      394      644      442      115 
     249      526      473      243       60       24      148      380 
     641      663      482      461      525      521      529      451 
     351      381      220     -118      -76      178      159      199 
     506      492       98      -28       89      -44     -228      -53 
     206      193       62       27      161      410      551      560 
     620      687      625      494      406      400      415      344 
     146     -117     -223       -9      329      463      409      507 
     756      777      709      778      614      243      134      257 
     338      286      268      428      367     -143     -476     -255 
      86      272      441      625      687      539      302      162 
      86       18       81      254      289      202      323      487 
     248       21      323      613      430      213      290      472 
     547      519      512      467      323      304      454      549 
     539      525      471      287       56      -77       20      225 
     134     -114     -170     -118      160      527      512      419 
     531      519      406      342      175       -7       95      390 
     374      -24     -159      111      143       17      333      738 
     655      367      298      367      344      242       67      -81 
     110      363      255       98      125      296      570      611 
     467      576      624      193      -51      483     1093     1102 
     807      534      321      251      315      405      398      261 
      68      -64       77      440      600      446      182     -100 
    -306     -245      165      499      335      123      262      389 
     328      323      442      498      552      787      926      798 
     679      511      104     -262     -356     -349     -365     -195 
     192      319      243      564      809      441      289      522 
     260     -264     -365     -316     -246      114      388      300 
     470     1046     1228      787      416      466      596      525 
     298      123      106      115       67      154      556      958 
     886      602      585      623      470      324      296      324 
     410      508      488      343      230      199       53     -284 
    -527     -406      111      716      842      580      558      624 
     419      321      389      164     -261     -460     -284      170 
     654      946      933      724      579      361      -47     -102 
     313      458      147      -46       46      159      263      601 
    1175     1485     1242      798      489      401      463      280 
    -153     -183       81      -51     -348     -454     -539     -352 
     282      690      440       46       50      277      331      333 
     566      702      434      154       64      -19       46      257 
     348      378      415      438      637     1022     1259     1036 
     389     -202     -254      181      464       68     -555     -597 
    -153      233      427      479      498      692     1031     1150 
     815      303       25      -40      -15      290      883     1204 
     792       84      -58      413      801      805      641      266 
    -381     -756     -423      421     1183     1121      436       22 
    -116     -258     -246     -218     -350     -255      282      648 
     543      599      976      993      365     -252     -181      228 
     294      -13     -336     -360      -71      314      703     1126 
    1587     1833     1415      406     -421     -555     -395     -389 
    -296      -82     -130     -300     -185      186      660     1209 
    1556     1343      802      455      491      704      605      137 
     -16      462     1012     1014      454      -79      -84      131 
      63     -103     -164     -326     -453     -411     -357       11 
     707      956      687      637      894      989      924      639 
    -225     -863     -231      772      893      494      432      777 
     989      881      816      761      508      388      508      399 
    -147     -817    -1250    -1225     -784     -312       95      602 
     941      941      651       57     -190      448     1250     1445 
    1145      729      349       57       -3       77       98      253 
     445      240      -15      194      386      138        4      285 
     509      357      -34     -252     -101       42      -82     -269 
    -247      -14      128      302     1025     1837     1807     1236 
     852      528      129      -79     -121     -186     -410     -782 
    -750      -17      660      810      960     1210     1033      661 
     710      990     1073      980      874      868      847      616 
     440      573      607      235     -177     -321     -301     -179 
       6      -34     -523    -1064     -774      437     1341     1107 
     387      136      455      773      781      681      505      158 
    -185     -359     -288     -107     -133     -197      -81      -40 
     155      779     1052      602      270      411      470      226 
      60      230      318     -140     -636     -587     -368     -329 
    -258       17      476     1011     1377     1506     1666     1771 
    1394      721      351      467      793      976      863      392 
    -480    -1394    -1637    -1000     -106      361      297       85 
     195      704     1198     1317     1186     1188     1331     1153 
     565      211      508      898      703      222       52       24 
    -284     -688     -656     -166      107     -134     -261       77 
     320      218      306      712      904      754      737      956 
     862      352      -54     -345     -606     -372      227      599 
     822      958      600      -85     -277      106       32     -793 
   -1149     -550      -32        4       45      104      126      366 
     672      742      814     1139     1394     1239      822      636 
     979     1467     1563     1165      391     -356     -617     -542 
    -599     -769     -667     -368     -276     -271      119     1018 
    1866     1888     1262      837      800      949     1320     1496 
     928      197       88      140     -212     -506     -391     -221 
    -216     -261     -203     -108      -46      361      867      681 
     445      974     1361      917      265      -57     -127     -335 
    -697     -564      138      686      859      846      671      547 
     616      572      242     -231     -632     -577        9      511 
     522      372      403      550      520       62     -603     -825 
    -438      -31       39       30      119      226      454      972 
    1533     1791     1828     1830     1778     1546     1031      335 
    -376     -918     -991     -668     -479     -540     -392      146 
     793     1236     1340     1219     1075     1044     1081      874 
     391      117      132      -18     -365     -589     -724     -874 
    -905     -823     -706     -520     -379     -253       57      396 
     680     1063     1465     1773     1763     1247      783      849 
    1047      996      757      478      310      253      128      -95 
    -245     -237     -122       16      -27     -424     -771     -396 
     458      929      803      514      530      906     1195     1115 
     808      490      307      233      269      473      562      319 
     146      345      516      469      523      389     -314     -860 
    -661     -207      -48     -263     -580     -672     -428       79 
     458      587     1030     1665     1585     1015      923     1249 
    1494     1600     1401      830      222     -299     -720     -756 
    -375     -133     -353     -696     -946    -1084     -796     -154 
     218      214      223      228      120      240      738     1266 
    1580     1670     1531     1194      904      827      610       56 
    -447     -685     -753     -606     -123      500      832      752 
     505      339      306      239      128      110       28     -169 
    -230     -161      -68       84      219      329      419      410 
     586     1088     1463     1580     1571     1262      850      729 
     737      611      306     -116     -476     -663     -667     -562 
    -496     -397      -44      454      819     1058     1176      996 
     551      114     -128     -169     -123      -55       32      133 
     317      567      688      644      609      723      923      962 
     797      600      486      501      456      162     -101      -78 
     186      639     1000      853      294     -128     -211     -164 
      43      420      571      375      273      447      496      351 
     503      898      906      332     -419     -761     -485      -77 
     -13     -214     -393     -262      241      785     1079     1104 
    1010      978      871      482       35     -146      -26      106 
     -66     -377     -493     -411     -218      127      640     1131 
    1375     1418     1400     1328     1200      960      438     -184 
    -472     -532     -726     -943     -905     -598     -197       96 
     244      405      748     1221     1534     1425     1028      895 
    1045      816      158     -360     -579     -764     -960     -928 
    -678     -375       50      554      870      934      980     1172 
    1235      929      586      456      402      540      912     1052 
     758      375      110      -93     -242     -337     -438     -497 
    -427     -285     -192     -187     -131       57      227      364 
     668     1223     1869     2232     2050     1456      856      630 
     686      601      300       41       13      135      177      164 
     249      350      386      335       25     -500     -839     -855 
    -621     -131      217        5     -407     -577     -546     -252 
     333      826      996      884      546      397      758     1148 
    1144     1040     1040      931      666      498      602      757 
     641      301      -67     -430     -732     -708     -269      190 
     369      386      358      364      455      462      309      162 
     160      346      583      670      666      713      869     1178 
    1422     1198      633      214        4     -120     -133     -100 
     -69      -44     -109     -173      -40      212      292      103 
     -72       -5      145      214      221      158      -12     -177 
     -85      271      552      597      518      463      604      858 
     916      757      595      525      487      400      271      112 
      39      246      516      424       65     -258     -434     -400 
    -396     -696     -956     -837     -541     -187      287      731 
     993     1161     1302     1384     1496     1695     1664     1155 
     490        9     -355     -696     -936     -926     -729     -639 
    -587     -217      360      814     1153     1379     1304      998 
     792      807      890      889      743      526      450      554 
     589      475      504      737      816      718      712      721 
     605      357      -23     -312     -271      -44      120      158 
