Origin Time       2025/03/28 03:50:00
Lat.              35.403
Long.             140.360
Depth. (km)       54
Mag.              4.4
Station Code      KNG201
Station Lat.      34.5956
Station Long.     139.9183
Station Height(m) -2197
Record Time       2025/03/28 03:51:01
Sampling Freq(Hz) 100Hz
Duration Time(s)  72
Dir.              U-D
Scale Factor      2000(gal)/6182761
Max. Acc. (gal)   0.598
Last Correction   2025/03/28 03:51:02
Memo.             
[...]
    -101      194      385      409      255       56      -52      -71 
     -15     -164     -824    -1467    -1427     -892     -330      -79 
      -8      373      717      541      231      -23     -205     -163 
    -278     -699     -868     -565      -56      186     -281     -953 
    -893     -364     -191     -344     -360      -81      387      752 
     723      433      192      -12     -291     -572     -758     -832 
    -641     -160      181      205      233      338      361      225 
     -94     -358     -361     -355     -467     -436     -272     -315 
    -539     -507      -80      328      181     -472     -866     -725 
    -649     -763     -508       90      325      100       90      388 
     380      -40     -414     -608     -774     -909     -941     -826 
    -626     -511     -394      -88      217      348      460      650 
     771      781      814      713      370      142       20     -390 
    -868     -974     -876     -772     -555     -418     -554     -583 
    -204      338      615      478      338      567      714      391 
     -16     -316     -672    -1046    -1368    -1621    -1734    -1572 
   -1150     -633      -32      429      483      567     1024     1388 
    1330     1206     1294     1317     1033      410     -632    -1596 
   -1746    -1521    -1712    -1903    -1496     -849     -408     -140 
      43      133      190      426      809      901      567      171 
    -137     -419     -539     -545     -604     -498     -249     -190 
    -180     -115     -148     -225     -393     -498     -174      314 
     616      696      544      415      290     -128     -511     -476 
    -309     -305     -244        2       58     -266     -679     -898 
    -803     -395        9       28     -275     -574     -613     -442 
    -408     -527     -467     -238     -129     -217     -348     -384 
    -270      -12      304      473      332       81      -50     -102 
      -5      110     -107     -361     -286     -165     -134      -50 
      55      162      172      -44     -283     -396     -443     -437 
    -438     -362      -70      227      138     -375     -808     -777 
    -457      -88      205      287      132     -174     -518     -739 
    -754     -660     -409       55      391      398      313      278 
     205       75       -6     -109     -346     -509     -567     -770 
    -912     -733     -425      -69      287      446      457      426 
     253      -48     -292     -406     -389     -220       39      272 
     266     -141     -607     -676     -454     -190       24        5 
    -199     -202       91      202     -210     -739     -879     -662 
    -400     -319     -309     -225      -77      146      147     -323 
    -737     -711     -526     -263      -32       19      336      894 
    1010      699      302     -125     -500     -773     -936     -987 
    -939     -759     -569     -487     -458     -390     -198       73 
     347      591      709      760      816      692      261     -354 
    -903    -1132    -1025     -685     -231      -67     -181     -130 
    -174     -431     -481     -422     -251      110      179      -14 
     -76     -179     -355     -356     -402     -659     -734     -534 
    -280       70      323      199     -100     -294     -313     -279 
    -384     -523     -426      -51      529     1080     1156      611 
    -117     -416     -334     -498     -859     -923     -779     -628 
    -446     -289     -221     -338     -560     -473       -7      452 
     714      876      997      865      468      159     -152     -561 
    -711     -781    -1027    -1091    -1031    -1182    -1240     -924 
    -517     -155      226      380      341      601     1033     1108 
     886      659      461       88     -605    -1213    -1366    -1262 
   -1031     -776     -680     -420      207      599      464      319 
     401      451      348       87     -278     -552     -652     -597 
    -543     -711     -789     -453      -69      137      196       86 
     109      248      125       16      185      268       76     -147 
    -263     -395     -472     -357     -269     -263     -215     -195 
    -109       78      213      293      144     -138      -81      -25 
    -348     -582     -665     -795     -703     -467     -384     -342 
    -324     -404     -452     -362      -63      285      301      101 
      12      -34      -45       70      169      186       98     -237 
    -616     -690     -561     -394     -223     -258     -401     -256 
      17       81       67       58      -35       -7      305      509 
     328        3     -426     -849     -932     -890     -767     -381 
    -163     -114      222      553      553      359      -89     -584 
    -550     -222     -209     -395     -469     -403     -223      -30 
     -67     -432     -819     -872     -626     -335      -30      290 
     410      352      326      260       12     -341     -519     -275 
     133      184      -51     -274     -578     -776     -614     -490 
    -434     -137       44        8       69      136      208      367 
     399      139     -276     -536     -603     -673     -735     -646 
    -406     -219     -188     -140       89      340      376      209 
     -82     -347     -366     -202      -57      -42     -268     -602 
    -690     -599     -569     -435     -217     -144      -28      262 
     478      476      357      233       68     -228     -525     -649 
    -697     -698     -562     -466     -396     -147       42       13 
      -6        8       14      107      247      286      177      142 
     319      323     -136     -686     -877     -790     -741     -628 
    -325     -200     -279     -188      -37       -2       39      103 
     199      254      141      125      252      105     -288     -512 
    -464     -329     -272     -306     -397     -374      -75      223 
     227       17     -269     -442     -432     -456     -527     -487 
    -386     -235       83      458      575      400      252      181 
     -77     -506     -779     -685     -394     -236     -215     -184 
    -120      -66     -175     -403     -498     -558     -648     -515 
    -274     -124       59      170       97       36       43       54 
      64      -10     -224     -348     -243     -209     -343     -404 
    -363     -227      -93     -238     -517     -502     -196       58 
     151      219      271      125     -162     -130      235      364 
     183       50     -131     -593    -1023    -1105     -903     -448 
      59      248      185      151      205      328      319      -16 
    -404     -529     -535     -638     -656     -314      103      135 
     -11       59      241      346      318       76     -299     -531 
    -495     -369     -332     -258     -108     -130     -332     -487 
    -427     -138       73       12      -63       13       63      -25 
    -122     -134     -140     -201     -258     -361     -589     -743 
    -706     -610     -500     -335     -106       95      211      371 
     538      463      184      -35     -139     -249     -431     -582 
    -596     -449     -221     -118      -90       40       69     -204 
    -468     -372     -114       65      201      138      -26       89 
     221       12     -352     -613     -635     -593     -724     -811 
    -648     -300      157      503      524      316       69     -170 
    -429     -659     -677     -432     -241     -282     -299     -124 
     125      228      103      -55     -173     -372     -470     -361 
    -399     -492     -195      189      194       18      -98     -231 
    -380     -339     -200     -201     -107      152      257      133 
    -182     -487     -566     -582     -568     -421     -343     -433 
    -483     -375     -221      -65      148      300      292      188 
     -44     -403     -608     -486     -305     -269     -250     -207 
     -69      204      279       80     -127     -223      -87       60 
    -177     -477     -493     -458     -389     -233     -291     -456 
    -337      -64      148      227      114       19      -20     -173 
    -220      -13      133       20     -160     -280     -361     -314 
    -277     -462     -650     -660     -504     -233     -135     -121 
     273      738      676      265      -82     -204     -110     -128 
    -472     -571     -135       -7     -408     -546     -382     -383 
    -408     -188      123      321      248     -117     -355     -290 
    -204     -178     -215     -370     -562     -675     -645     -504 
    -345     -138      263      678      649      193     -203     -310 
    -222     -134     -266     -400     -293     -290     -391     -330 
    -274     -256     -251     -261      -44      262      247      -41 
    -287     -342     -257     -234     -413     -588     -576     -501 
    -394     -153      113      216      206      210      181       23 
    -266     -575     -765     -821     -754     -619     -489     -153 
     371      585      459      376      365      302      232      139 
    -139     -525     -660     -466     -262     -210     -246     -344 
    -393     -307     -270     -413     -426      -13      412      378 
     160       34      -23       14      -69     -505     -962     -947 
    -503      -88      106      170      104       88      159      -50 
    -287        8      436      377       96        0     -155     -519 
    -705     -580     -465     -483     -550     -526     -252       17 
      41       61      102       63       38     -128     -462     -547 
    -322     -219     -314     -265      -30      111       81       32 
    -168     -644     -780     -293      103      195      319      371 
     335      336      257      140      -61     -528     -918     -892 
    -757     -756     -683     -451     -246      -50      215      459 
     574      396       35     -165     -325     -514     -408     -195 
    -307     -562     -585     -339     -116     -194     -257       26 
     106     -287     -440     -195      -41       59      164      116 
     120      154      -58     -284     -409     -581     -618     -638 
    -786     -654     -342     -263     -147      181      339      159 
      -8      142      217     -152     -532     -593     -530     -423 
    -301     -359     -597     -748     -661     -289      362      986 
    1157      782      222      -87     -124     -313     -853    -1076 
    -460      276      310     -265     -883    -1061     -859     -564 
     -93      430      524      145     -348     -666     -721     -543 
    -122      274      267        9     -262     -493     -543     -432 
    -167      371      786      557      -75     -666     -989     -874 
    -486     -200     -177     -232     -286     -563     -707     -125 
     676      937      727      386      130     -119     -491     -637 
    -447     -322     -344     -344     -270      -82      144      139 
    -168     -368     -326     -460     -612     -184      464      460 
     -85     -419     -419     -399     -394     -296      -96      162 
     289      159      -47     -160     -192     -233     -389     -500 
    -446     -535     -673     -439     -173     -190      -34      385 
     572      417      122     -287     -595     -584     -551     -598 
    -459     -140      257      544      493      197     -207     -542 
    -609     -581     -583     -553     -595     -631     -372      101 
     454      559      517      474      501      485      203     -101 
      59      245      -99     -500     -583     -506     -262      -19 
    -149     -525     -672     -455     -283     -481     -773     -716 
    -304       51       34     -223     -261      200      662      522 
      16     -498     -737     -353       74      -95     -380     -436 
    -521     -667     -528      -92       87        7       75      168 
     172       37     -259     -321      -90      -22     -302     -679 
    -589      -40       49     -386     -500     -263      -91       27 
     183      244       36     -301     -479     -434     -309     -377 
    -628     -641     -347      -48      195      334      216       69 
      95       58      -44      -37      -49     -298     -694     -766 
    -521     -366     -196       15       90      113       41     -196 
    -471     -493     -120      160       85      -48     -278     -573 
    -600     -460     -447     -515     -517     -461     -293       37 
     305      356      380      551      645      333     -199     -379 
     -41      255       61     -244     -311     -304     -195      -62 
    -349     -860     -908     -564     -349     -408     -677     -739 
    -229      230       88     -295     -512     -384      -34      159 
      18     -326     -438     -208      -73      -12      128       68 
     -81     -205     -350      -91      405      505      382      205 
    -152     -481     -610     -476     -243     -235     -268     -159 
     -86     -229     -615     -845     -699     -456     -119      311 
     476      235      -64       23      387      528      381      230 
      90     -163     -542     -879     -857     -629     -626     -699 
    -729     -808     -623     -265     -200     -187       23      196 
     403      599      423      131       10     -135     -269     -460 
    -804     -894     -717     -579     -268       17     -227     -494 
    -210      288      776     1373     1667     1227      424     -300 
    -808     -938     -865     -972    -1172    -1203    -1055     -728 
    -112      595      803      501      353      431      353      129 
       5      174      407      187     -430     -996    -1363    -1490 
   -1317     -977     -637     -355     -203     -150       -1      242 
     406      427      334      284      300      115     -255     -499 
    -428      -83      174      167      119      -17     -292     -445 
    -491     -471     -257     -188     -401     -308       78      220 
     246      363      327      152      140      215      141      -78 
    -438     -776     -871     -815     -670     -580     -660     -523 
    -176     -192     -467     -463     -179      161      387      301 
      21     -141     -154       11      303      312       39     -303 
    -835    -1135     -905     -754     -614       33      739     1003 
     889      537      167     -102     -384     -570     -331      165 
     318      -54     -628    -1034    -1071     -837     -617     -506 
    -416     -266      -26       26      -91      220      809     1044 
    1010      741       35     -628     -833     -855     -656      -82 
     264     -107     -731    -1026    -1108    -1269    -1274     -791 
     -62      432      631      723      689      504      388      294 
    -103     -554     -609     -524     -615     -656     -415      -49 
     217      422      530      334       36      -22       76      115 
     -78     -461     -570     -210      118       20     -246     -263 
     -22      152      -24     -524     -911     -881     -746     -701 
    -647     -631     -511     -251     -118      -23      122       94 
    -163     -600    -1021    -1030     -640     -294     -151      -18 
     229      476      548      426      251       79     -185     -389 
    -264       42      299      478      492      363      204       18 
    -185     -400     -498     -381     -288     -333     -287       90 
     560      505      -22     -377     -423     -444     -607     -772 
    -726     -562     -390     -259     -328     -518     -590     -487 
    -215      100      128     -230     -498     -383     -377     -669 
    -668     -261       74      209      201       -8     -269     -312 
    -127       88      156       51     -154     -339     -324     -276 
    -577     -894     -720     -263      228      569      618      713 
     882      779      597      510      317       22     -293     -539 
    -565     -567     -713     -793     -775     -751     -695     -665 
    -697     -733     -652     -368       16      356      502      417 
     366      401      330      246      171        7     -235     -554 
    -687     -509     -398     -497     -647     -757     -829     -959 
   -1040     -846     -462      -31      407      641      622      592 
     478      131     -253     -493     -496     -448     -570     -499 
    -205     -163     -244     -160       10      160      194      211 
     353      428      313      189      185      266      310      240 
     101     -101     -376     -644     -822     -946    -1018     -911 
    -690     -498     -243       24       65      -80     -136       37 
     173      -48     -354     -470     -537     -499     -366     -356 
    -344     -196       14      199      210      142      221      379 
     500      492      303      223      288      159      -42     -146 
    -304     -427     -479     -723    -1056    -1005     -599     -345 
    -311     -200      -31       64       24     -241     -387      -52 
     349      421      185     -279     -548     -376     -239     -353 
    -380     -250     -105       39       62     -147     -423     -463 
    -272     -209     -304     -259      -42      191      282      178 
      45      -31     -151     -383     -561     -510     -395     -201 
     239      494      325      158       86      -99     -380     -633 
    -709     -630     -537     -404     -307     -319     -312     -338 
    -408     -412     -467     -613     -692     -619     -368       -3 
     315      422      335      269      282      284      310      307 
     144     -151     -425     -495     -421     -441     -430     -181 
      96      196      137       33       31       76       79      116 
     201      246      196      166      235      226       39     -262 
    -673    -1087    -1330    -1411    -1363    -1137     -822     -554 
    -236      209      509      513      518      586      464      287 
     139     -258     -763     -959     -925     -984    -1075     -912 
    -548     -181      162      451      688      878      911      818 
     732      539      191     -109     -361     -596     -749     -979 
   -1231    -1231    -1080     -925     -782     -643     -350       49 
     326      449      428      353      323      302      309      308 
     205       65      -39     -127     -266     -496     -681     -651 
    -432     -147      142      327      335      201      -20     -237 
    -386     -488     -535     -514     -496     -564     -583     -424 
    -322     -351     -226       51      286      457      506      379 
     257      230       86     -242     -501     -541     -485     -438 
    -392     -436     -617     -756     -710     -557     -387     -191 
      48      271      405      470      492      474      457      409 
     251       43     -155     -376     -555     -564     -439     -386 
    -493     -612     -598     -438     -150      119      183      132 
     185      247       92      -82      -35      -56     -292     -515 
    -691     -873     -968     -902     -692     -461     -333     -306 
    -330     -338     -219       54      355      524      530      511 
     496      384      246      149       43      -23      -76     -212 
