Origin Time       2025/03/28 03:50:00
Lat.              35.403
Long.             140.360
Depth. (km)       54
Mag.              4.4
Station Code      SIT011
Station Lat.      35.8098
Station Long.     139.7214
Station Height(m) 3
Record Time       2025/03/28 03:51:04
Sampling Freq(Hz) 100Hz
Duration Time(s)  60
Dir.              U-D
Scale Factor      7845(gal)/8223790
Max. Acc. (gal)   1.179
Last Correction   2025/03/28 03:51:04
Memo.             
   13660    13648    13653    13663    13663    13653    13652    13662 
   13663    13659    13663    13676    13679    13660    13647    13657 
   13671    13663    13644    13639    13644    13648    13651    13660 
   13680    13689    13670    13653    13659    13670    13672    13674 
   13678    13675    13653    13624    13621    13645    13663    13663 
   13657    13656    13657    13657    13653    13657    13666    13663 
   13651    13647    13655    13664    13662    13662    13679    13690 
   13672    13645    13637    13649    13667    13667    13655    13652 
   13668    13686    13687    13675    13663    13651    13630    13628 
   13657    13684    13682    13660    13644    13649    13664    13670 
   13670    13667    13662    13667    13680    13680    13676    13671 
   13657    13644    13639    13637    13639    13633    13633    13653 
   13676    13679    13667    13651    13641    13645    13648    13643 
   13640    13648    13660    13671    13682    13690    13686    13664 
   13639    13629    13643    13667    13686    13687    13678    13666 
   13655    13648    13647    13655    13662    13657    13653    13660 
   13679    13697    13695    13674    13651    13635    13620    13626 
   13649    13660    13663    13657    13648    13656    13676    13682 
   13660    13620    13599    13630    13674    13691    13701    13707 
   13694    13668    13648    13647    13655    13647    13628    13629 
   13647    13659    13663    13656    13652    13663    13667    13651 
   13644    13657    13671    13671    13662    13657    13666    13672 
   13667    13660    13651    13636    13637    13659    13678    13683 
   13674    13641    13621    13645    13683    13691    13668    13636 
   13632    13663    13691    13703    13694    13656    13624    13620 
   13632    13655    13678    13682    13664    13656    13671    13678 
   13664    13649    13640    13641    13652    13666    13689    13706 
   13691    13657    13632    13624    13647    13678    13680    13660 
   13652    13660    13667    13656    13630    13614    13616    13622 
   13640    13659    13656    13660    13689    13706    13707    13714 
   13703    13666    13643    13641    13636    13640    13657    13663 
   13666    13670    13667    13662    13655    13639    13624    13625 
   13647    13672    13690    13694    13682    13662    13648    13657 
   13678    13684    13671    13637    13606    13610    13643    13678 
   13695    13679    13636    13609    13626    13667    13695    13697 
   13675    13644    13630    13656    13697    13707    13682    13651 
   13647    13656    13649    13641    13641    13652    13660    13653 
   13640    13626    13626    13645    13675    13699    13703    13682 
   13641    13609    13612    13639    13663    13679    13680    13670 
   13662    13660    13663    13659    13656    13647    13624    13613 
   13629    13641    13643    13655    13690    13725    13738    13710 
   13648    13597    13598    13647    13702    13726    13695    13625 
   13578    13585    13635    13695    13716    13678    13630    13612 
   13628    13672    13720    13724    13686    13630    13581    13576 
   13625    13684    13724    13730    13697    13652    13630    13629 
   13643    13674    13699    13683    13632    13593    13601    13645 
   13694    13717    13699    13652    13622    13629    13655    13684 
   13705    13695    13672    13649    13621    13599    13616    13659 
   13693    13695    13664    13637    13641    13644    13630    13639 
   13684    13729    13729    13682    13640    13635    13648    13666 
   13682    13674    13648    13636    13649    13667    13667    13663 
   13683    13705    13693    13659    13637    13637    13643    13640 
   13649    13662    13655    13639    13626    13613    13609    13633 
   13675    13709    13713    13703    13705    13698    13674    13647 
   13635    13643    13668    13684    13663    13612    13576    13609 
   13689    13729    13693    13635    13613    13630    13664    13687 
   13683    13671    13655    13639    13637    13647    13652    13659 
   13659    13649    13648    13672    13706    13722    13713    13682 
   13640    13609    13605    13617    13630    13655    13684    13690 
   13687    13710    13743    13767    13783    13792    13824    13880 
   13930    13957    13964    13956    13956    13956    13884    13674 
   13328    12966    12787    12885    13140    13277    13105    12738 
   12534    12829    13639    14531    14895    14542    13918    13635 
   13903    14434    14742    14542    13910    13150    12583    12434 
   12750    13350    13948    14250    13986    13294    12856    13105 
   13779    14455    14836    14716    14268    13853    13544    13369 
   13512    13868    14027    13756    13138    12553    12465    12888 
   13367    13587    13624    13703    13853    13875    13784    13852 
   14062    14142    14061    13963    13861    13744    13645    13585 
   13562    13582    13621    13618    13537    13485    13543    13544 
   13470    13609    13941    14146    14223    14238    14035    13643 
   13267    12981    12896    13058    13209    13255    13393    13609 
   13802    14030    14184    14041    13736    13602    13701    13871 
   14023    14114    14049    13824    13554    13358    13348    13527 
   13643    13514    13340    13320    13348    13420    13664    13934 
   14010    13917    13722    13489    13428    13598    13747    13724 
   13591    13416    13329    13468    13768    14017    14062    13892 
   13635    13489    13555    13824    14202    14442    14330    13954 
   13527    13128    12911    13065    13425    13703    13857    13830 
   13597    13437    13514    13664    13821    13952    13888    13657 
   13521    13572    13684    13751    13687    13416    13089    13015 
   13275    13697    14085    14231    13983    13504    13151    13157 
   13506    13954    14233    14284    14164    13933    13691    13468 
   13296    13385    13756    13990    13852    13625    13527    13432 
   13269    13219    13420    13752    14017    14088    13921    13618 
   13389    13347    13468    13668    13888    14033    13886    13444 
   13077    13027    13176    13414    13755    14076    14233    14257 
   14208    14027    13780    13659    13635    13558    13522    13568 
   13505    13374    13398    13525    13598    13622    13597    13531 
   13522    13608    13726    13846    13922    13917    13884    13891 
   13914    13915    13873    13711    13386    13051    12934    13053 
   13228    13346    13489    13701    13873    13963    14010    14003 
   14040    14180    14172    13863    13559    13473    13425    13296 
   13216    13265    13412    13603    13737    13764    13787    13841 
   13832    13761    13714    13713    13780    13867    13810    13632 
   13501    13416    13389    13513    13689    13818    13926    13878 
   13589    13350    13392    13545    13648    13764    13903    13919 
   13737    13454    13204    13100    13259    13648    14052    14328 
   14450    14322    13902    13410    13116    13070    13225    13537 
   13879    14072    14091    14015    13809    13467    13232    13284 
   13520    13811    14002    13900    13598    13348    13177    13072 
   13143    13390    13697    13942    14042    14079    14157    14183 
   14060    13861    13701    13674    13743    13656    13335    13030 
   12922    12953    13124    13497    13896    14072    14033    13922 
   13810    13741    13775    13956    14219    14377    14264    13936 
   13598    13354    13194    13139    13196    13302    13435    13564 
   13644    13738    13859    13818    13602    13487    13517    13529 
   13603    13817    13980    13999    13975    13903    13726    13504 
   13315    13211    13261    13416    13454    13311    13243    13439 
   13790    14118    14281    14164    13802    13421    13267    13419 
   13737    13975    13932    13635    13343    13231    13284    13524 
   13941    14262    14256    14056    13898    13811    13707    13525 
   13302    13155    13180    13363    13624    13829    13844    13689 
   13539    13502    13560    13751    14050    14214    14098    13910 
   13821    13764    13726    13752    13693    13437    13190    13099 
   13041    13041    13271    13617    13829    13925    14014    14053 
   14011    13919    13737    13493    13382    13489    13629    13624 
   13548    13552    13551    13460    13471    13636    13717    13699 
   13748    13809    13842    13942    14025    13967    13844    13725 
   13610    13547    13548    13579    13609    13587    13494    13396 
   13369    13425    13527    13625    13675    13598    13425    13371 
   13566    13848    14023    14081    14052    13972    13969    14050 
   14057    13979    13899    13741    13498    13331    13248    13155 
   13122    13204    13366    13624    13884    13960    13915    13898 
   13798    13581    13446    13390    13270    13238    13433    13667 
   13788    13825    13780    13706    13703    13724    13720    13767 
   13829    13807    13787    13852    13880    13849    13868    13844 
   13662    13483    13494    13637    13740    13695    13529    13363 
   13300    13336    13400    13495    13651    13772    13786    13782 
   13807    13818    13875    13987    13956    13687    13383    13234 
   13234    13309    13424    13554    13629    13648    13720    13855 
   13945    13945    13855    13680    13585    13743    14018    14116 
   13937    13598    13281    13124    13184    13377    13549    13701 
   13873    13959    13929    13948    14023    13998    13859    13652 
   13363    13112    13061    13185    13419    13717    13938    13949 
   13833    13790    13825    13865    13932    13984    13896    13639 
   13331    13135    13058    13030    13096    13292    13524    13741 
   13948    14076    14091    14042    13926    13734    13602    13672 
   13864    14007    14067    14038    13882    13656    13452    13274 
   13165    13209    13405    13691    13984    14135    14067    13871 
   13667    13545    13564    13652    13683    13608    13428    13247 
   13219    13332    13478    13671    13872    13899    13765    13644 
   13539    13420    13385    13473    13630    13802    13899    13863 
   13763    13702    13675    13632    13606    13647    13668    13601 
   13559    13683    13919    14030    13875    13624    13501    13502 
   13536    13622    13794    13986    14088    14064    13903    13636 
   13437    13425    13456    13431    13420    13425    13387    13366 
   13452    13608    13740    13856    13941    13888    13695    13539 
   13522    13587    13717    13876    13884    13734    13637    13605 
   13505    13409    13448    13516    13537    13662    13880    13964 
   13913    13888    13844    13747    13706    13714    13711    13729 
   13684    13495    13338    13360    13450    13510    13598    13690 
   13707    13701    13714    13705    13690    13691    13699    13716 
   13726    13706    13652    13524    13296    13101    13100    13297 
   13616    13936    14088    14033    13884    13714    13541    13482 
   13636    13869    13975    13938    13814    13629    13543    13678 
   13863    13933    13959    13975    13882    13675    13478    13409 
   13486    13614    13709    13784    13860    13902    13856    13693 
   13429    13139    12958    12980    13128    13300    13477    13599 
   13637    13687    13791    13902    13999    14065    14041    13911 
   13740    13622    13603    13630    13632    13581    13483    13398 
   13417    13551    13710    13841    13936    13959    13937    13934 
   13942    13936    13925    13894    13774    13537    13315    13273 
   13400    13555    13664    13682    13585    13473    13446    13463 
   13490    13541    13590    13599    13590    13594    13636    13701 
   13756    13810    13836    13779    13706    13695    13703    13747 
   13890    13991    13898    13724    13616    13560    13543    13566 
   13549    13460    13425    13505    13568    13583    13647    13713 
   13698    13667    13659    13633    13609    13617    13624    13624 
   13649    13686    13689    13680    13699    13686    13589    13498 
   13494    13559    13679    13780    13740    13637    13616    13630 
   13647    13757    13925    13991    13967    13936    13848    13703 
   13626    13613    13564    13491    13420    13298    13180    13203 
   13351    13520    13682    13863    14041    14111    14014    13840 
   13705    13639    13679    13802    13867    13815    13740    13680 
   13618    13547    13490    13479    13491    13454    13390    13392 
   13467    13555    13625    13687    13761    13838    13895    13945 
   13994    14011    13964    13867    13743    13582    13417    13351 
   13421    13539    13595    13622    13690    13728    13678    13639 
   13656    13659    13635    13628    13652    13699    13699    13594 
   13454    13386    13447    13609    13770    13842    13860    13849 
   13792    13741    13733    13730    13717    13701    13709    13772 
   13830    13802    13706    13589    13451    13336    13358    13528 
   13725    13856    13902    13871    13821    13784    13713    13578 
   13456    13416    13410    13374    13328    13332    13389    13485 
   13659    13875    14006    14041    14041    13963    13797    13656 
   13562    13441    13343    13342    13396    13463    13555    13647 
   13683    13693    13753    13836    13898    13954    13964    13884 
   13798    13768    13738    13648    13506    13358    13286    13338 
   13447    13567    13707    13833    13911    13967    13984    13934 
   13876    13845    13771    13582    13313    13120    13131    13270 
   13410    13602    13864    14054    14112    14084    13950    13760 
   13674    13682    13639    13555    13486    13370    13247    13259 
   13346    13385    13424    13509    13585    13674    13832    14015 
   14180    14299    14242    13965    13670    13494    13425    13509 
   13683    13755    13757    13809    13805    13686    13556    13431 
   13309    13266    13251    13174    13167    13359    13616    13784 
   13875    13903    13873    13842    13814    13744    13709    13817 
   13959    13932    13722    13481    13320    13270    13296    13346 
   13419    13531    13701    13909    14064    14153    14220    14187 
   14004    13788    13624    13510    13443    13383    13333    13338 
   13377    13421    13509    13641    13756    13846    13938    14017 
   14098    14199    14237    14141    13959    13748    13527    13344 
   13255    13225    13184    13139    13103    13054    13057    13204 
   13451    13674    13809    13836    13819    13875    14002    14129 
   14264    14376    14353    14181    13967    13786    13657    13549 
   13420    13319    13279    13261    13279    13373    13466    13527 
   13628    13745    13787    13772    13726    13593    13408    13279 
   13236    13304    13532    13865    14150    14291    14277    14152 
   13965    13771    13618    13467    13279    13155    13161    13231 
   13348    13509    13630    13710    13805    13864    13846    13841 
   13873    13846    13724    13572    13447    13371    13421    13651 
   13933    14050    13976    13838    13710    13637    13684    13810 
   13905    13926    13910    13894    13860    13736    13477    13142 
   12849    12687    12661    12766    13004    13331    13678    13972 
   14154    14254    14359    14469    14519    14485    14347    14106 
   13837    13624    13462    13324    13234    13204    13184    13181 
   13277    13414    13517    13656    13833    13905    13869    13824 
   13757    13668    13635    13672    13716    13745    13794    13833 
   13818    13801    13824    13825    13786    13759    13690    13500 
   13257    13082    13000    12991    13053    13174    13366    13625 
   13871    14025    14084    14064    14008    13990    13990    13936 
   13846    13767    13668    13549    13440    13297    13126    13046 
   13065    13116    13274    13585    13932    14245    14485    14555 
   14445    14245    14011    13792    13666    13613    13566    13508 
   13431    13324    13240    13261    13385    13539    13676    13803 
   13917    13972    13954    13909    13855    13778    13734    13775 
   13822    13813    13747    13595    13377    13209    13161    13200 
   13279    13401    13597    13844    14045    14107    14048    13976 
   13963    13959    13906    13849    13840    13807    13675    13491 
   13333    13235    13215    13231    13207    13149    13131    13180 
   13270    13375    13485    13599    13711    13774    13755    13757 
   13892    14080    14192    14257    14334    14368    14270    14069 
   13849    13643    13456    13320    13224    13122    13032    12984 
   12960    12978    13078    13242    13450    13668    13829    13942 
   14085    14261    14389    14397    14260    14004    13716    13483 
   13356    13331    13374    13443    13485    13466    13428    13436 
   13483    13510    13512    13540    13633    13778    13933    14052 
   14099    14073    13984    13832    13641    13456    13308    13242 
   13271    13354    13493    13690    13883    14037    14161    14253 
   14293    14260    14131    13918    13653    13377    13153    13058 
   13074    13136    13219    13308    13398    13491    13547    13551 
   13541    13520    13481    13491    13612    13818    14044    14216 
   14264    14191    14077    13964    13851    13765    13710    13651 
   13616    13620    13616    13624    13679    13722    13729    13695 
   13556    13351    13216    13181    13201    13274    13397    13556 
   13757    13959    14088    14123    14079    13986    13883    13786 
   13652    13487    13367    13317    13294    13304    13389    13554 
   13732    13869    14000    14142    14249    14289    14247    14091 
   13838    13581    13369    13192    13074    13066    13132    13194 
   13254    13348    13489    13691    13941    14130    14166    14042 
   13805    13570    13473    13516    13622    13743    13828    13845 
   13826    13813    13791    13747    13682    13618    13586    13595 
   13614    13593    13533    13493    13517    13601    13683    13728 
   13753    13726    13593    13413    13305    13286    13333    13456 
   13610    13748    13864    13940    13945    13906    13851    13765 
   13671    13618    13622    13666    13730    13761    13740    13716 
   13691    13647    13594    13529    13446    13373    13312    13244 
   13227    13317    13459    13591    13732    13886    14046    14200 
   14264    14192    14068    13956    13849    13778    13776    13794 
   13798    13805    13770    13678    13608    13567    13486    13398 
   13344    13294    13244    13203    13180    13225    13346    13489 
   13640    13795    13895    13892    13815    13702    13582    13520 
   13545    13598    13649    13734    13824    13879    13914    13934 
   13930    13940    13976    13965    13883    13798    13732    13643 
   13535    13428    13304    13167    13089    13109    13184    13262 
   13342    13432    13543    13707    13938    14160    14260    14227 
