Origin Time       2025/03/28 03:50:00
Lat.              35.403
Long.             140.360
Depth. (km)       54
Mag.              4.4
Station Code      SIT010
Station Lat.      35.9071
Station Long.     139.6478
Station Height(m) 6
Record Time       2025/03/28 03:51:08
Sampling Freq(Hz) 100Hz
Duration Time(s)  60
Dir.              N-S
Scale Factor      7845(gal)/8223790
Max. Acc. (gal)   1.058
Last Correction   2025/03/28 03:51:08
Memo.             
[...]
   -2027    -2030    -2066    -2052    -2003    -1966    -1911    -1856 
   -1854    -1860    -1814    -1764    -1757    -1763    -1773    -1846 
   -1954    -1996    -1965    -1942    -1962    -1995    -2000    -1984 
   -1958    -1935    -1944    -1981    -2010    -1989    -1926    -1892 
   -1934    -2004    -2053    -2069    -2065    -2046    -2019    -1996 
   -1964    -1915    -1865    -1850    -1890    -1910    -1838    -1721 
   -1630    -1599    -1641    -1740    -1823    -1807    -1737    -1733 
   -1813    -1891    -1903    -1879    -1869    -1869    -1887    -1930 
   -1937    -1896    -1873    -1883    -1934    -2029    -2092    -2084 
   -2062    -2080    -2130    -2161    -2146    -2107    -2064    -2027 
   -2003    -1962    -1879    -1799    -1806    -1898    -1989    -2027 
   -1983    -1892    -1842    -1837    -1837    -1849    -1830    -1773 
   -1738    -1750    -1748    -1678    -1614    -1615    -1644    -1714 
   -1809    -1863    -1915    -1988    -2033    -2057    -2107    -2146 
   -2142    -2150    -2180    -2177    -2130    -2062    -1999    -1952 
   -1923    -1922    -1941    -1948    -1921    -1884    -1890    -1949 
   -1984    -1938    -1873    -1833    -1794    -1771    -1742    -1707 
   -1691    -1665    -1644    -1679    -1729    -1763    -1803    -1856 
   -1900    -1952    -2045    -2137    -2169    -2182    -2207    -2199 
   -2143    -2060    -1952    -1860    -1826    -1827    -1818    -1804 
   -1811    -1821    -1817    -1837    -1890    -1946    -2027    -2130 
   -2164    -2120    -2084    -2060    -2022    -1993    -1973    -1929 
   -1877    -1854    -1818    -1740    -1696    -1695    -1653    -1615 
   -1624    -1613    -1587    -1613    -1683    -1748    -1794    -1852 
   -1926    -1985    -2042    -2095    -2110    -2111    -2137    -2161 
   -2170    -2174    -2141    -2066    -2023    -2011    -2004    -2023 
   -2030    -1984    -1937    -1918    -1899    -1915    -1953    -1926 
   -1879    -1872    -1857    -1830    -1817    -1783    -1726    -1714 
   -1761    -1810    -1845    -1858    -1841    -1863    -1926    -1964 
   -2012    -2072    -2061    -2010    -1968    -1911    -1844    -1767 
   -1691    -1671    -1713    -1777    -1852    -1921    -1968    -1992 
   -2038    -2119    -2182    -2218    -2227    -2172    -2084    -2022 
   -1979    -1926    -1841    -1726    -1603    -1521    -1539    -1607 
   -1652    -1699    -1763    -1787    -1788    -1840    -1927    -1973 
   -1991    -2037    -2085    -2101    -2089    -2068    -2042    -1984 
   -1904    -1856    -1861    -1906    -1956    -1976    -1995    -2087 
   -2193    -2219    -2201    -2178    -2122    -2065    -2038    -1998 
   -1915    -1802    -1725    -1722    -1723    -1703    -1694    -1683 
   -1698    -1753    -1802    -1854    -1922    -1956    -1975    -2012 
   -2018    -1962    -1910    -1884    -1868    -1865    -1865    -1864 
   -1869    -1849    -1815    -1838    -1883    -1896    -1930    -1996 
   -2010    -1995    -2037    -2099    -2124    -2115    -2073    -2006 
   -1946    -1914    -1883    -1837    -1784    -1736    -1701    -1686 
   -1698    -1740    -1783    -1802    -1811    -1822    -1846    -1888 
   -1923    -1935    -1933    -1933    -1929    -1903    -1880    -1892 
   -1934    -1998    -2052    -2060    -2065    -2101    -2122    -2101 
   -2057    -1996    -1948    -1919    -1876    -1831    -1802    -1756 
   -1705    -1715    -1787    -1860    -1899    -1908    -1910    -1930 
   -1953    -1956    -1964    -1964    -1925    -1890    -1892    -1888 
   -1854    -1827    -1791    -1752    -1784    -1861    -1896    -1925 
   -1993    -2037    -2027    -2046    -2079    -2056    -2033    -2064 
   -2083    -2025    -1937    -1872    -1833    -1833    -1872    -1908 
   -1921    -1934    -1954    -1952    -1929    -1934    -1989    -2042 
   -2029    -1960    -1917    -1946    -1962    -1895    -1840    -1844 
   -1810    -1777    -1831    -1858    -1826    -1849    -1890    -1884 
   -1890    -1904    -1884    -1845    -1811    -1790    -1775    -1786 
   -1802    -1759    -1715    -1753    -1834    -1915    -1988    -2030 
   -2025    -2016    -2057    -2103    -2107    -2064    -1957    -1871 
   -1892    -1937    -1938    -1929    -1891    -1825    -1804    -1864 
   -1939    -1981    -2019    -2057    -2095    -2145    -2134    -2039 
   -1941    -1853    -1752    -1696    -1729    -1756    -1714    -1688 
   -1719    -1746    -1768    -1845    -1965    -2047    -2089    -2143 
   -2182    -2176    -2165    -2130    -2038    -1953    -1899    -1841 
   -1829    -1875    -1857    -1769    -1748    -1780    -1763    -1764 
   -1840    -1892    -1900    -1929    -1973    -1996    -1991    -1988 
   -2010    -2037    -2039    -2025    -2034    -2047    -1993    -1898 
   -1831    -1791    -1740    -1660    -1611    -1637    -1676    -1742 
   -1856    -1922    -1948    -2018    -2093    -2146    -2227    -2261 
   -2168    -2077    -2041    -1945    -1825    -1794    -1753    -1640 
   -1603    -1641    -1636    -1664    -1746    -1788    -1861    -2023 
   -2122    -2143    -2228    -2313    -2266    -2180    -2138    -2049 
   -1914    -1853    -1803    -1688    -1625    -1622    -1582    -1575 
   -1657    -1753    -1849    -1961    -2058    -2135    -2200    -2215 
   -2173    -2128    -2065    -1973    -1921    -1879    -1779    -1730 
   -1790    -1827    -1788    -1790    -1844    -1856    -1877    -1983 
   -2080    -2116    -2122    -2107    -2073    -2012    -1954    -1921 
   -1876    -1831    -1834    -1852    -1825    -1784    -1772    -1777 
   -1806    -1850    -1837    -1807    -1867    -1939    -1917    -1876 
   -1918    -1933    -1872    -1872    -1931    -1927    -1876    -1864 
   -1863    -1830    -1800    -1773    -1763    -1772    -1759    -1767 
   -1856    -1939    -1961    -2002    -2111    -2189    -2178    -2173 
   -2204    -2212    -2177    -2126    -2106    -2081    -1981    -1883 
   -1880    -1867    -1771    -1721    -1768    -1776    -1717    -1705 
   -1717    -1679    -1669    -1718    -1753    -1784    -1846    -1925 
   -1985    -2037    -2099    -2133    -2151    -2195    -2208    -2176 
   -2149    -2120    -2056    -2002    -2016    -2016    -1948    -1902 
   -1891    -1819    -1714    -1640    -1568    -1489    -1460    -1501 
   -1555    -1628    -1749    -1845    -1873    -1927    -1987    -1953 
   -1904    -1944    -1981    -1984    -2043    -2091    -2039    -2011 
   -2047    -2025    -1949    -1930    -1948    -1937    -1939    -2010 
   -2073    -2074    -2076    -2108    -2118    -2107    -2106    -2103 
   -2085    -2043    -1988    -1969    -1938    -1819    -1711    -1668 
   -1598    -1522    -1520    -1568    -1663    -1764    -1810    -1842 
   -1910    -1991    -2050    -2049    -2003    -1939    -1887    -1872 
   -1872    -1869    -1890    -1926    -1964    -2007    -2058    -2100 
   -2116    -2108    -2114    -2122    -2089    -2047    -2049    -2029 
   -1952    -1937    -1977    -1926    -1807    -1737    -1691    -1629 
   -1597    -1595    -1563    -1541    -1601    -1705    -1806    -1906 
   -1984    -2025    -2050    -2085    -2107    -2116    -2155    -2173 
   -2107    -2050    -2046    -2031    -1991    -1966    -1972    -1960 
   -1922    -1899    -1887    -1861    -1838    -1833    -1833    -1825 
   -1826    -1821    -1804    -1813    -1779    -1702    -1709    -1765 
   -1769    -1792    -1873    -1918    -1921    -1956    -2019    -2076 
   -2116    -2141    -2165    -2165    -2111    -2049    -2003    -1945 
   -1904    -1911    -1903    -1837    -1779    -1777    -1807    -1849 
   -1873    -1864    -1869    -1910    -1930    -1931    -1938    -1904 
   -1813    -1737    -1753    -1826    -1854    -1840    -1836    -1829 
   -1831    -1876    -1930    -1953    -1958    -2000    -2064    -2083 
   -2073    -2061    -2026    -2014    -2035    -2016    -1989    -1989 
   -1921    -1826    -1840    -1869    -1814    -1772    -1802    -1827 
   -1833    -1852    -1848    -1827    -1860    -1918    -1939    -1957 
   -1971    -1937    -1908    -1917    -1880    -1811    -1806    -1830 
   -1823    -1871    -1980    -2027    -2029    -2069    -2070    -2006 
   -2019    -2087    -2023    -1919    -1946    -1961    -1887    -1894 
   -1952    -1919    -1887    -1925    -1931    -1894    -1880    -1873 
   -1836    -1794    -1755    -1701    -1686    -1732    -1757    -1771 
   -1844    -1918    -1934    -1969    -2064    -2123    -2099    -2083 
   -2089    -2066    -2073    -2131    -2141    -2081    -2006    -1911 
   -1821    -1809    -1813    -1771    -1752    -1750    -1748    -1810 
   -1864    -1826    -1798    -1845    -1890    -1896    -1926    -1954 
   -1925    -1915    -1929    -1846    -1733    -1711    -1719    -1711 
   -1800    -1929    -1926    -1891    -1958    -2015    -2025    -2070 
   -2127    -2137    -2119    -2115    -2139    -2169    -2182    -2178 
   -2169    -2158    -2142    -2101    -2056    -2042    -2045    -2042 
   -2025    -1988    -1954    -1922    -1900    -1896    -1849    -1787 
   -1784    -1764    -1688    -1632    -1611    -1593    -1545    -1487 
   -1466    -1501    -1563    -1660    -1792    -1872    -1868    -1856 
   -1853    -1841    -1858    -1888    -1841    -1736    -1675    -1649 
   -1620    -1645    -1710    -1726    -1745    -1815    -1867    -1899 
   -1950    -2022    -2134    -2247    -2285    -2290    -2317    -2359 
   -2386    -2376    -2358    -2316    -2187    -2060    -2003    -1922 
   -1807    -1738    -1690    -1613    -1580    -1663    -1768    -1842 
   -1910    -1925    -1881    -1858    -1856    -1883    -1977    -2065 
   -2087    -2104    -2095    -2016    -1941    -1884    -1803    -1749 
   -1753    -1772    -1755    -1707    -1674    -1652    -1652    -1710 
   -1815    -1956    -2147    -2332    -2458    -2563    -2652    -2659 
   -2575    -2470    -2380    -2272    -2128    -1988    -1877    -1750 
   -1614    -1564    -1560    -1529    -1533    -1563    -1556    -1599 
   -1719    -1803    -1836    -1860    -1852    -1798    -1737    -1655 
   -1528    -1428    -1366    -1263    -1170    -1148    -1138    -1155 
   -1296    -1541    -1790    -2006    -2246    -2515    -2700    -2785 
   -2855    -2886    -2836    -2764    -2687    -2605    -2547    -2473 
   -2371    -2309    -2254    -2169    -2107    -2068    -1996    -1881 
   -1784    -1709    -1586    -1475    -1476    -1539    -1560    -1545 
   -1529    -1482    -1431    -1428    -1463    -1551    -1674    -1760 
   -1849    -1984    -2092    -2127    -2099    -2002    -1873    -1768 
   -1696    -1649    -1595    -1525    -1502    -1545    -1598    -1667 
   -1790    -1944    -2108    -2288    -2452    -2569    -2632    -2608 
   -2498    -2370    -2224    -2056    -1922    -1823    -1722    -1641 
   -1595    -1576    -1597    -1656    -1740    -1849    -1946    -1975 
   -1962    -1962    -1956    -1926    -1907    -1900    -1884    -1854 
   -1815    -1782    -1753    -1706    -1656    -1644    -1675    -1719 
   -1756    -1796    -1863    -1945    -2027    -2126    -2277    -2444 
   -2548    -2620    -2660    -2571    -2398    -2262    -2133    -1989 
   -1912    -1898    -1899    -1934    -1993    -2012    -1987    -1991 
   -2015    -2023    -2064    -2120    -2095    -1988    -1876    -1807 
   -1795    -1788    -1761    -1757    -1753    -1696    -1628    -1578 
   -1480    -1304    -1154    -1081    -1003     -915     -899     -927 
    -931     -949    -1047    -1216    -1402    -1571    -1733    -1925 
   -2107    -2196    -2232    -2322    -2409    -2392    -2405    -2529 
   -2562    -2501    -2574    -2710    -2706    -2677    -2736    -2745 
   -2687    -2655    -2582    -2466    -2420    -2362    -2238    -2184 
   -2151    -1995    -1856    -1826    -1737    -1593    -1556    -1539 
   -1426    -1359    -1382    -1364    -1350    -1452    -1609    -1749 
   -1904    -2060    -2149    -2178    -2199    -2234    -2258    -2238 
   -2203    -2169    -2115    -2039    -1931    -1798    -1715    -1675 
   -1602    -1583    -1682    -1729    -1671    -1687    -1776    -1787 
   -1796    -1908    -1984    -1962    -1956    -1918    -1791    -1699 
   -1649    -1541    -1470    -1487    -1472    -1425    -1437    -1471 
   -1487    -1560    -1683    -1783    -1885    -1996    -2060    -2108 
   -2172    -2177    -2131    -2111    -2110    -2087    -2029    -1949 
   -1864    -1779    -1728    -1718    -1738    -1842    -2031    -2199 
   -2343    -2516    -2646    -2685    -2674    -2600    -2434    -2247 
   -2104    -1957    -1817    -1763    -1756    -1760    -1831    -1950 
   -2030    -2056    -2087    -2101    -2004    -1857    -1782    -1699 
   -1572    -1491    -1420    -1291    -1198    -1200    -1208    -1210 
   -1278    -1371    -1455    -1588    -1763    -1900    -2015    -2170 
   -2338    -2451    -2531    -2606    -2648    -2659    -2659    -2593 
   -2470    -2331    -2124    -1908    -1827    -1802    -1717    -1698 
   -1809    -1925    -2019    -2146    -2266    -2293    -2215    -2119 
   -2033    -1877    -1663    -1471    -1327    -1242    -1228    -1259 
   -1327    -1449    -1613    -1796    -2003    -2192    -2293    -2328 
   -2370    -2370    -2250    -2118    -2038    -1891    -1705    -1651 
   -1676    -1655    -1664    -1749    -1810    -1861    -1965    -2064 
   -2147    -2305    -2498    -2635    -2740    -2803    -2721    -2539 
   -2358    -2093    -1741    -1480    -1297    -1090     -950     -903 
    -847     -804     -847     -965    -1123    -1309    -1516    -1730 
   -1939    -2141    -2323    -2475    -2605    -2697    -2718    -2693 
   -2636    -2516    -2335    -2138    -1971    -1834    -1696    -1560 
   -1463    -1412    -1395    -1437    -1526    -1618    -1741    -1908 
   -2053    -2185    -2362    -2501    -2524    -2501    -2471    -2353 
   -2164    -2008    -1836    -1603    -1428    -1337    -1260    -1248 
   -1331    -1393    -1426    -1533    -1659    -1757    -1900    -2061 
   -2165    -2272    -2409    -2475    -2465    -2470    -2462    -2376 
   -2292    -2239    -2131    -1983    -1877    -1799    -1707    -1628 
   -1580    -1547    -1551    -1611    -1684    -1732    -1776    -1810 
   -1791    -1827    -1961    -2012    -1996    -2076    -2134    -2061 
   -2016    -2031    -1954    -1854    -1860    -1885    -1880    -1898 
   -1910    -1873    -1860    -1879    -1831    -1779    -1826    -1861 
   -1849    -1911    -1973    -1933    -1899    -1915    -1876    -1814 
   -1827    -1852    -1818    -1802    -1823    -1819    -1844    -1934 
   -2006    -2058    -2135    -2189    -2224    -2277    -2300    -2295 
   -2288    -2220    -2099    -1993    -1907    -1841    -1802    -1773 
   -1769    -1819    -1895    -1964    -2038    -2107    -2157    -2207 
   -2219    -2155    -2085    -2018    -1888    -1715    -1563    -1421 
   -1327    -1335    -1375    -1385    -1435    -1521    -1566    -1628 
   -1729    -1773    -1773    -1810    -1837    -1814    -1837    -1900 
   -1898    -1902    -2008    -2111    -2161    -2231    -2280    -2234 
   -2170    -2134    -2065    -1995    -1966    -1971    -2025    -2101 
   -2166    -2227    -2284    -2320    -2344    -2369    -2378    -2346 
   -2303    -2258    -2176    -2088    -2033    -1962    -1860    -1791 
   -1744    -1663    -1607    -1624    -1621    -1568    -1539    -1520 
   -1468    -1460    -1493    -1468    -1422    -1420    -1416    -1386 
   -1381    -1414    -1444    -1479    -1598    -1746    -1854    -1993 
   -2173    -2308    -2382    -2413    -2367    -2257    -2155    -2058 
   -1910    -1786    -1734    -1674    -1613    -1620    -1628    -1640 
   -1725    -1822    -1884    -1987    -2126    -2230    -2335    -2452 
   -2496    -2515    -2559    -2542    -2452    -2374    -2278    -2128 
   -1996    -1873    -1706    -1566    -1528    -1544    -1532    -1548 
   -1644    -1726    -1807    -1934    -2033    -2110    -2231    -2343 
   -2384    -2416    -2463    -2420    -2328    -2315    -2270    -2126 
   -2038    -2008    -1927    -1857    -1833    -1775    -1703    -1687 
   -1683    -1652    -1668    -1703    -1664    -1642    -1668    -1591 
   -1479    -1453    -1395    -1278    -1239    -1248    -1190    -1170 
   -1304    -1422    -1463    -1610    -1794    -1881    -2003    -2172 
   -2216    -2196    -2262    -2280    -2172    -2146    -2187    -2116 
   -2077    -2174    -2200    -2122    -2157    -2234    -2185    -2173 
   -2269    -2278    -2231    -2280    -2330    -2305    -2320    -2353 
   -2295    -2249    -2286    -2273    -2215    -2230    -2247    -2170 
   -2088    -2062    -2025    -1960    -1898    -1831    -1780    -1753 
   -1707    -1634    -1586    -1557    -1505    -1452    -1435    -1397 
   -1331    -1302    -1296    -1275    -1281    -1304    -1318    -1358 
   -1394    -1386    -1377    -1404    -1431    -1426    -1458    -1547 
   -1614    -1691    -1845    -2018    -2162    -2293    -2412    -2527 
   -2648    -2732    -2770    -2816    -2840    -2785    -2717    -2685 
   -2613    -2484    -2388    -2323    -2193    -2056    -1977    -1845 
   -1641    -1529    -1536    -1528    -1506    -1555    -1606    -1645 
   -1764    -1884    -1894    -1923    -2023    -2023    -1977    -2033 
   -2041    -1925    -1868    -1856    -1725    -1606    -1625    -1583 
   -1433    -1418    -1530    -1553    -1601    -1776    -1880    -1927 
   -2052    -2130    -2124    -2146    -2143    -2062    -1991    -1945 
   -1842    -1719    -1682    -1672    -1628    -1630    -1653    -1590 
   -1532    -1563    -1574    -1541    -1591    -1676    -1703    -1775 
   -1941    -2057    -2110    -2214    -2326    -2376    -2446    -2548 
   -2617    -2675    -2722    -2710    -2702    -2736    -2695    -2579 
   -2532    -2493    -2322    -2172    -2146    -2045    -1841    -1740 
   -1684    -1525    -1364    -1282    -1182    -1090    -1089    -1112 
   -1121    -1188    -1275    -1321    -1389    -1502    -1593    -1688 
   -1861    -2026    -2092    -2165    -2301    -2378    -2393    -2427 
   -2419    -2330    -2234    -2155    -2053    -1919    -1800    -1725 
   -1682    -1672    -1691    -1705    -1734    -1775    -1776    -1799 
   -1884    -1896    -1852    -1903    -1977    -1952    -1895    -1864 
   -1837    -1810    -1784    -1776    -1802    -1837    -1826    -1792 
   -1819    -1875    -1902    -1975    -2112    -2226    -2296    -2396 
   -2519    -2562    -2540    -2540    -2524    -2405    -2227    -2087 
   -1969    -1829    -1695    -1617    -1606    -1624    -1648    -1691 
   -1768    -1837    -1844    -1840    -1881    -1864    -1761    -1691 
   -1633    -1522    -1422    -1383    -1358    -1328    -1328    -1377 
   -1475    -1599    -1729    -1865    -1999    -2111    -2192    -2261 
   -2320    -2332    -2313    -2308    -2262    -2161    -2079    -2025 
   -1950    -1860    -1806    -1792    -1788    -1776    -1780    -1800 
   -1840    -1923    -2026    -2111    -2205    -2308    -2378    -2424 
   -2442    -2412    -2365    -2305    -2231    -2174    -2111    -1988 
   -1875    -1826    -1765    -1659    -1611    -1655    -1682    -1676 
   -1711    -1746    -1744    -1763    -1815    -1833    -1813    -1803 
   -1777    -1719    -1695    -1678    -1613    -1605    -1663    -1664 
   -1640    -1688    -1748    -1734    -1721    -1732    -1678    -1605 
