Origin Time       2025/03/28 03:50:00
Lat.              35.403
Long.             140.360
Depth. (km)       54
Mag.              4.4
Station Code      SIT003
Station Lat.      36.0721
Station Long.     139.6969
Station Height(m) 8
Record Time       2025/03/28 03:51:10
Sampling Freq(Hz) 100Hz
Duration Time(s)  60
Dir.              U-D
Scale Factor      7845(gal)/8223790
Max. Acc. (gal)   0.885
Last Correction   2025/03/28 03:51:09
Memo.             
    1116     1113     1097     1101     1119     1113     1102     1109 
    1115     1102     1098     1117     1125     1115     1115     1121 
    1116     1113     1124     1132     1129     1128     1128     1129 
    1134     1134     1129     1136     1144     1132     1116     1119 
    1127     1121     1111     1102     1100     1105     1111     1105 
    1093     1096     1109     1109     1098     1098     1107     1109 
    1109     1113     1120     1124     1127     1138     1138     1125 
    1125     1138     1136     1121     1121     1138     1135     1123 
    1124     1131     1129     1123     1116     1116     1119     1113 
    1105     1107     1112     1105     1094     1101     1111     1109 
    1111     1117     1125     1125     1116     1109     1112     1116 
    1119     1120     1120     1120     1123     1127     1125     1117 
    1115     1120     1121     1117     1117     1123     1124     1119 
    1116     1117     1117     1116     1116     1121     1125     1121 
    1119     1121     1117     1111     1113     1123     1127     1124 
    1119     1116     1113     1112     1119     1128     1125     1123 
    1125     1129     1134     1131     1124     1131     1140     1138 
    1139     1150     1150     1139     1140     1151     1155     1143 
    1124     1108     1097     1090     1097     1113     1132     1150 
    1156     1147     1136     1136     1134     1113     1089     1074 
    1062     1066     1112     1174     1188     1151     1116     1105 
    1108     1124     1135     1108     1026      909      815      777 
     795      845      912      989     1051     1094     1152     1228 
    1296     1366     1458     1534     1522     1406     1248     1119 
    1030      965      949     1001     1058     1043      985      947 
     930      926     1015     1237     1466     1602     1688     1705 
    1541     1208      854      623      538      556      618      683 
     745      822      919     1058     1301     1632     1908     2046 
    2030     1838     1512     1173      904      708      591      576 
     638      712      783      855      909      973     1115     1305 
    1464     1540     1483     1281     1034      861      789      807 
     885      984     1094     1216     1278     1258     1236     1227 
    1162     1088     1090     1127     1158     1221     1290     1290 
    1256     1263     1267     1213     1156     1163     1229     1320 
    1382     1331     1138      891      703      611      610      719 
     966     1279     1510     1601     1605     1516     1297     1026 
     826      743      785      934     1101     1167     1132     1078 
    1042     1015     1038     1152     1282     1301     1258     1256 
    1224     1078      927      899      967     1067     1167     1224 
    1202     1112      988      901      931     1051     1162     1220 
    1215     1127     1020      996     1024     1031     1080     1201 
    1281     1283     1308     1375     1382     1304     1221     1152 
    1071     1008      996     1034     1104     1148     1111     1015 
     936      907      895      915     1023     1173     1254     1259 
    1264     1297     1327     1316     1260     1190     1102      980 
     855      820      913     1036     1070     1044     1042     1057 
    1073     1132     1231     1266     1175     1048      994     1019 
    1113     1260     1375     1398     1348     1258     1155     1058 
     955      841      745      695      731      919     1209     1418 
    1471     1476     1494     1456     1344     1204     1047      862 
     695      608      633      765      982     1228     1445     1617 
    1714     1721     1667     1557     1350     1108      959      886 
     797      751      838      943      938      888      896      943 
     994     1086     1236     1387     1444     1362     1179      986 
     849      812      900     1059     1186     1229     1208     1163 
    1124     1084     1055     1080     1136     1178     1221     1256 
    1247     1237     1242     1179     1055      976      992     1082 
    1205     1321     1374     1320     1206     1125     1090     1036 
     931      801      688      626      652      787      994     1183 
    1293     1328     1309     1274     1298     1383     1426     1367 
    1248     1143     1092     1078     1078     1116     1208     1289 
    1279     1201     1112     1030      957      918      928      990 
    1081     1155     1181     1177     1178     1177     1151     1084 
     951      792      706      745      873     1027     1169     1282 
    1366     1413     1418     1408     1382     1305     1197     1156 
    1202     1247     1237     1196     1142     1078     1005      935 
     896      885      858      801      772      823      963     1143 
    1282     1358     1406     1431     1382     1246     1088      965 
     889      869      911      977     1009     1003     1009     1096 
    1252     1410     1518     1572     1568     1490     1339     1169 
    1038      946      851      796      891     1111     1286     1347 
    1325     1197      965      743      652      696      849     1115 
    1452     1729     1838     1786     1620     1348      990      627 
     383      357      535      815     1102     1327     1408     1306 
    1104      922      803      762      807      905     1065     1302 
    1551     1710     1748     1674     1490     1224      982      862 
     858      909      993     1097     1185     1223     1225     1216 
    1190     1155     1144     1152     1128     1038      886      719 
     595      548      599      768     1039     1310     1490     1579 
    1602     1537     1405     1278     1185     1128     1115     1127 
    1127     1117     1105     1061      957      818      704      654 
     680      807     1024     1232     1344     1397     1444     1422 
    1301     1197     1189     1206     1209     1246     1339     1398 
    1344     1246     1190     1150     1088     1038     1008      955 
     896      930     1047     1132     1138     1096     1035      976 
     908      822      776      842      970     1078     1163     1248 
    1328     1379     1401     1418     1422     1391     1360     1350 
    1302     1196     1066      932      814      757      768      807 
     864      946     1044     1123     1148     1158     1220     1314 
    1340     1231     1040      891      822      815      922     1163 
    1421     1588     1647     1575     1358     1055      787      618 
     537      560      710      932     1166     1375     1528     1595 
    1553     1412     1242     1112     1039     1005      981      976 
    1005     1023     1008     1036     1140     1240     1286     1320 
    1383     1436     1410     1294     1136      974      830      753 
     778      884     1035     1186     1274     1287     1277     1228 
    1128     1032      965      908      892      957     1077     1189 
    1248     1240     1197     1192     1229     1228     1174     1138 
    1144     1163     1162     1143     1156     1237     1323     1301 
    1159     1015      940      877      801      803      923     1059 
    1094     1036      959      926      990     1144     1317     1472 
    1591     1572     1370     1107      912      838      909     1085 
    1262     1367     1379     1278     1086      918      850      832 
     808      819      924     1067     1143     1155     1162     1154 
    1120     1120     1183     1256     1296     1309     1282     1192 
    1069      974      938      958     1027     1131     1263     1410 
    1512     1507     1448     1416     1348     1129      819      585 
     469      414      441      633      949     1233     1431     1576 
    1669     1680     1602     1418     1177      974      826      739 
     792      972     1166     1318     1429     1474     1422     1285 
    1127     1036     1013     1003     1021     1096     1128     1030 
     889      808      778      810      931     1139     1379     1551 
    1556     1399     1132      811      568      521      650      857 
    1077     1301     1507     1620     1602     1503     1327     1065 
     838      773      832      949     1123     1310     1406     1404 
    1366     1256     1013      746      594      557      621      808 
    1075     1332     1521     1590     1532     1435     1359     1240 
    1036      859      831      903      988     1138     1366     1526 
    1526     1426     1286     1115      949      861      882      962 
    1048     1148     1232     1231     1171     1136     1123     1094 
    1097     1189     1302     1345     1320     1248     1120      954 
     815      756      789      920     1125     1316     1418     1449 
    1414     1278     1059      865      783      785      799      819 
     872      946     1021     1100     1178     1248     1314     1364 
    1374     1350     1309     1252     1188     1155     1166     1135 
    1019      904      842      812      858     1005     1148     1233 
    1294     1313     1274     1186     1066      963      930      966 
    1061     1177     1267     1310     1298     1228     1146     1078 
     996      911      878      893      930     1009     1159     1320 
    1410     1425     1401     1323     1174     1017      920      873 
     870      930     1020     1104     1194     1291     1372     1402 
    1345     1221     1109     1042      982      928      916      959 
    1043     1140     1233     1281     1242     1158     1100     1043 
     974      978     1074     1162     1205     1266     1341     1335 
    1210     1073     1028     1043     1051     1074     1131     1189 
    1235     1260     1221     1121     1019      931      850      815 
     869      993     1119     1204     1282     1391     1436     1332 
    1158     1019      907      815      792      843      947     1105 
    1281     1393     1399     1337     1247     1109      949      864 
     865      896     1004     1204     1362     1370     1285     1212 
    1159     1074      954      877      889      955     1046     1170 
    1313     1401     1393     1340     1281     1198     1121     1092 
    1075     1057     1080     1139     1167     1162     1161     1170 
    1174     1158     1143     1186     1281     1335     1293     1217 
    1158     1059      895      781      811      919     1026     1111 
    1167     1181     1138     1054      997     1007     1039     1059 
    1108     1193     1239     1219     1169     1089      994      957 
    1005     1097     1197     1305     1395     1414     1344     1212 
    1040      866      774      796      868      961     1097     1225 
    1275     1255     1215     1175     1120     1048      999      981 
     976      992     1046     1113     1129     1098     1082     1078 
    1040     1012     1090     1244     1348     1413     1507     1539 
    1398     1179     1019      897      791      781      900     1048 
    1154     1209     1201     1125     1053     1054     1120     1200 
    1256     1277     1264     1215     1136     1090     1120     1171 
    1183     1178     1170     1117     1042     1000      976      969 
    1027     1135     1233     1286     1287     1267     1244     1206 
    1167     1170     1193     1154     1044      963      978     1036 
    1071     1094     1132     1152     1127     1092     1073     1036 
     994     1016     1113     1190     1171     1081      982      912 
     874      866      912     1020     1135     1216     1289     1347 
    1298     1144     1024      981      939      911      985     1132 
    1239     1281     1302     1308     1260     1142      999      888 
     808      761      799      931     1096     1236     1339     1399 
    1406     1352     1267     1188     1089      954      845      823 
     878      985     1125     1254     1347     1426     1482     1458 
    1372     1331     1337     1323     1300     1300     1297     1285 
    1275     1231     1117      981      911      930      981     1047 
    1162     1263     1256     1189     1147     1117     1063      994 
     927      889      876      851      849      916     1005     1051 
    1100     1209     1323     1351     1306     1259     1231     1173 
    1073      974      920      939     1017     1108     1169     1198 
    1170     1070      970      891      792      738      820      977 
    1109     1224     1335     1404     1420     1372     1216      978 
     781      704      726      814      967     1143     1252     1283 
    1285     1256     1198     1166     1170     1165     1156     1188 
    1248     1300     1328     1359     1401     1412     1358     1244 
    1089      913      754      661      656      730      882     1075 
    1232     1320     1382     1436     1426     1348     1282     1259 
    1256     1233     1161     1077     1040     1059     1116     1197 
    1274     1305     1281     1240     1193     1117     1065     1077 
    1097     1092     1086     1067     1035     1036     1065     1085 
    1093     1077     1013      900      776      693      675      699 
     765      892     1061     1240     1402     1530     1614     1620 
    1506     1306     1108      927      753      635      608      653 
     773      973     1193     1367     1486     1549     1494     1309 
    1120     1008      938      913      997     1162     1314     1425 
    1528     1598     1561     1413     1219     1020      845      768 
     822      943     1067     1178     1248     1242     1171     1063 
     938      837      791      818      954     1177     1378     1487 
    1494     1417     1321     1262     1255     1324     1445     1533 
    1521     1395     1205      990      773      618      606      719 
     896     1111     1306     1408     1401     1298     1112      922 
     805      766      793      889     1003     1067     1090     1092 
    1053      994      982     1007     1000      951      916      918 
     932      966     1048     1124     1128     1115     1144     1150 
    1093     1066     1113     1183     1278     1422     1557     1584 
    1474     1294     1105      897      688      573      607      746 
     923     1092     1232     1317     1323     1281     1256     1263 
    1285     1324     1368     1393     1385     1368     1366     1343 
    1296     1267     1252     1215     1173     1158     1143     1097 
    1013      919      858      841      826      828      882      961 
    1013     1023      980      904      868      911     1017     1171 
    1375     1584     1719     1730     1642     1486     1255      994 
     795      688      662      731      931     1220     1482     1637 
    1674     1588     1390     1134      892      683      513      430 
     436      487      583      718      868     1044     1228     1360 
    1440     1483     1476     1410     1317     1237     1217     1275 
    1362     1420     1424     1344     1220     1115     1008      878 
     803      815      854      884      938     1011     1054     1057 
    1058     1081     1101     1124     1156     1148     1081     1001 
     926      851      843      963     1156     1314     1417     1493 
    1502     1412     1287     1174     1038      909      901     1021 
    1171     1310     1452     1566     1606     1559     1459     1377 
    1320     1248     1162     1101     1073     1043     1023     1036 
    1067     1082     1085     1077     1028      927      824      770 
     764      797      855      912      957      999     1020     1021 
    1053     1134     1232     1337     1449     1520     1509     1436 
    1336     1212     1077      984      961      989     1067     1189 
    1282     1294     1256     1179     1043      888      781      714 
     664      668      753      900     1066     1188     1212     1175 
    1144     1094     1021      993     1038     1119     1185     1216 
    1239     1275     1310     1337     1363     1375     1358     1325 
    1302     1260     1177     1102     1088     1080     1031     1004 
    1024     1028     1000      958      882      784      699      616 
     542      534      618      754      899     1019     1119     1192 
    1221     1248     1308     1401     1522     1663     1794     1888 
    1929     1894     1792     1661     1518     1374     1251     1152 
    1071     1009      939      858      801      800      864      982 
    1093     1140     1150     1136     1075     1001     1004     1078 
    1128     1138     1166     1183     1117     1019     1004     1030 
     970      876      868      936      997     1051     1147     1259 
    1305     1275     1208     1108      976      839      754      731 
     735      745      770      838      945     1050     1132     1193 
    1215     1179     1120     1092     1112     1148     1181     1215 
    1227     1205     1194     1237     1316     1385     1449     1521 
    1561     1540     1463     1351     1200     1024      891      851 
     891      976     1101     1240     1341     1382     1372     1323 
    1250     1185     1151     1144     1131     1084     1001      919 
     866      835      812      822      873      923      950      977 
     994      984      969      981     1034     1125     1269     1443 
    1568     1607     1593     1534     1410     1237     1081      980 
     951      984     1046     1109     1152     1150     1108     1065 
    1028      978      926      895      893      926      986     1057 
    1127     1190     1220     1227     1266     1329     1371     1378 
    1336     1229     1101     1011      973      966      992     1054 
    1115     1167     1247     1314     1294     1228     1173     1107 
    1016      935      872      805      734      693      716      776 
     837      901      967     1000      990      970      961      969 
    1011     1096     1227     1371     1494     1593     1636     1591 
    1505     1408     1301     1255     1304     1352     1335     1294 
    1225     1090      946      861      827      808      793      788 
     814      870      924      969     1038     1124     1171     1169 
    1161     1154     1125     1100     1107     1129     1144     1146 
    1127     1098     1075     1046      999      947      913      919 
     951      986     1042     1125     1196     1219     1220     1220 
    1228     1256     1289     1296     1300     1331     1360     1371 
    1391     1420     1429     1412     1378     1329     1255     1159 
    1071     1007      958      915      885      916     1024     1144 
    1210     1225     1219     1205     1194     1192     1202     1225 
    1255     1267     1243     1216     1205     1178     1121     1070 
    1028      992      966      946      932      930      942      970 
     972      934      919      957     1013     1075     1169     1277 
    1320     1286     1243     1189     1086      966      874      822 
     814      858      949     1050     1104     1081     1009      928 
     832      734      693      729      810      913     1036     1136 
    1162     1119     1057      990      918      888      949     1073 
