Origin Time       2025/03/28 03:50:00
Lat.              35.403
Long.             140.360
Depth. (km)       54
Mag.              4.4
Station Code      SIT011
Station Lat.      35.8098
Station Long.     139.7214
Station Height(m) 3
Record Time       2025/03/28 03:51:04
Sampling Freq(Hz) 100Hz
Duration Time(s)  60
Dir.              N-S
Scale Factor      7845(gal)/8223790
Max. Acc. (gal)   2.973
Last Correction   2025/03/28 03:51:04
Memo.             
[...]
   -8286    -8268    -8274    -8314    -8343    -8330    -8316    -8326 
   -8337    -8332    -8310    -8302    -8329    -8344    -8310    -8267 
   -8259    -8297    -8334    -8325    -8310    -8329    -8336    -8301 
   -8263    -8260    -8283    -8305    -8309    -8307    -8325    -8337 
   -8302    -8251    -8252    -8293    -8317    -8305    -8290    -8307 
   -8347    -8361    -8338    -8318    -8328    -8338    -8326    -8305 
   -8293    -8297    -8303    -8294    -8295    -8328    -8351    -8333 
   -8305    -8295    -8309    -8316    -8297    -8276    -8294    -8332 
   -8340    -8316    -8282    -8275    -8298    -8316    -8307    -8297 
   -8309    -8320    -8305    -8289    -8297    -8313    -8305    -8283 
   -8280    -8303    -8324    -8320    -8306    -8303    -8314    -8311 
   -8297    -8290    -8298    -8306    -8294    -8276    -8286    -8321 
   -8337    -8317    -8301    -8306    -8314    -8313    -8307    -8305 
   -8309    -8316    -8306    -8294    -8293    -8295    -8307    -8316 
   -8318    -8333    -8336    -8305    -8274    -8284    -8314    -8330 
   -8329    -8317    -8316    -8328    -8322    -8299    -8287    -8291 
   -8289    -8279    -8270    -8272    -8289    -8297    -8299    -8306 
   -8316    -8326    -8329    -8324    -8317    -8309    -8283    -8259 
   -8286    -8341    -8364    -8334    -8286    -8276    -8298    -8310 
   -8295    -8271    -8279    -8302    -8313    -8334    -8348    -8336 
   -8311    -8284    -8286    -8314    -8325    -8298    -8272    -8293 
   -8325    -8330    -8322    -8306    -8293    -8284    -8282    -8290 
   -8302    -8316    -8314    -8290    -8284    -8309    -8329    -8328 
   -8302    -8286    -8290    -8293    -8291    -8299    -8321    -8332 
   -8311    -8287    -8280    -8293    -8307    -8302    -8286    -8286 
   -8295    -8303    -8306    -8321    -8347    -8361    -8359    -8330 
   -8291    -8260    -8243    -8248    -8282    -8325    -8330    -8298 
   -8276    -8293    -8332    -8349    -8325    -8291    -8284    -8297 
   -8289    -8270    -8289    -8328    -8333    -8303    -8286    -8320 
   -8359    -8340    -8287    -8272    -8302    -8313    -8283    -8268 
   -8299    -8336    -8344    -8330    -8313    -8303    -8310    -8309 
   -8298    -8301    -8311    -8318    -8313    -8309    -8321    -8329 
   -8313    -8290    -8297    -8320    -8309    -8270    -8259    -8290 
   -8307    -8291    -8293    -8325    -8333    -8302    -8271    -8282 
   -8329    -8352    -8328    -8303    -8305    -8324    -8337    -8318 
   -8299    -8305    -8309    -8294    -8278    -8287    -8326    -8340 
   -8302    -8280    -8299    -8310    -8313    -8313    -8302    -8275 
   -8247    -8264    -8326    -8356    -8326    -8280    -8276    -8321 
   -8356    -8343    -8324    -8328    -8322    -8297    -8283    -8298 
   -8326    -8345    -8336    -8310    -8279    -8251    -8255    -8298 
   -8330    -8318    -8282    -8266    -8295    -8337    -8336    -8299 
   -8275    -8271    -8272    -8286    -8310    -8351    -8392    -8383 
   -8332    -8298    -8290    -8287    -8291    -8310    -8340    -8356 
   -8326    -8270    -8260    -8303    -8324    -8311    -8307    -8294 
   -8252    -8236    -8283    -8356    -8391    -8352    -8289    -8280 
   -8307    -8298    -8263    -8260    -8274    -8280    -8305    -8353 
   -8397    -8397    -8349    -8306    -8307    -8309    -8266    -8214 
   -8209    -8257    -8322    -8360    -8364    -8334    -8272    -8190 
   -8140    -8202    -8343    -8436    -8437    -8387    -8322    -8276 
   -8282    -8330    -8375    -8394    -8392    -8357    -8303    -8257 
   -8251    -8338    -8510    -8576    -8387    -8074    -7919    -8073 
   -8428    -8662    -8572    -8293    -8077    -8046    -8194    -8414 
   -8569    -8614    -8518    -8228    -7877    -7778    -8070    -8532 
   -8762    -8554    -8113    -7827    -7861    -8109    -8402    -8594 
   -8602    -8459    -8244    -8044    -8013    -8230    -8557    -8741 
   -8656    -8414    -8228    -8197    -8268    -8337    -8322    -8239 
   -8176    -8159    -8174    -8229    -8286    -8302    -8313    -8299 
   -8237    -8255    -8399    -8495    -8457    -8382    -8318    -8274 
   -8305    -8424    -8521    -8456    -8225    -7978    -7858    -7908 
   -8122    -8444    -8700    -8712    -8488    -8228    -8112    -8152 
   -8271    -8422    -8536    -8505    -8337    -8155    -8033    -8010 
   -8127    -8345    -8529    -8572    -8486    -8349    -8228    -8174 
   -8222    -8330    -8398    -8406    -8441    -8499    -8445    -8266 
   -8104    -8033    -8062    -8222    -8441    -8492    -8284    -8000 
   -7865    -7969    -8255    -8544    -8696    -8669    -8452    -8174 
   -8062    -8118    -8179    -8230    -8348    -8478    -8542    -8568 
   -8554    -8422    -8172    -7970    -7959    -8089    -8216    -8306 
   -8430    -8573    -8614    -8550    -8499    -8461    -8359    -8239 
   -8148    -8024    -7886    -7897    -8151    -8532    -8796    -8803 
   -8644    -8457    -8271    -8085    -7985    -8052    -8244    -8414 
   -8444    -8387    -8378    -8414    -8409    -8337    -8226    -8100 
   -8001    -8002    -8073    -8128    -8235    -8496    -8803    -8941 
   -8839    -8591    -8320    -8102    -7947    -7879    -7939    -8101 
   -8272    -8375    -8374    -8251    -8082    -7978    -7974    -8100 
   -8398    -8773    -8955    -8785    -8417    -8133    -8093    -8279 
   -8549    -8681    -8534    -8224    -8002    -7970    -8036    -8086 
   -8120    -8185    -8289    -8401    -8464    -8475    -8492    -8513 
   -8428    -8241    -8131    -8201    -8329    -8355    -8271    -8226 
   -8294    -8372    -8374    -8328    -8270    -8233    -8275    -8368 
   -8397    -8332    -8297    -8390    -8536    -8614    -8583    -8452 
   -8282    -8125    -7989    -7905    -7938    -8071    -8199    -8240 
   -8228    -8256    -8351    -8429    -8428    -8392    -8352    -8267 
   -8167    -8129    -8162    -8232    -8341    -8500    -8640    -8640 
   -8468    -8175    -7840    -7632    -7735    -8120    -8541    -8823 
   -8946    -8939    -8833    -8650    -8418    -8208    -8086    -8077 
   -8154    -8268    -8383    -8446    -8425    -8338    -8221    -8120 
   -8113    -8183    -8214    -8167    -8129    -8193    -8336    -8456 
   -8517    -8590    -8707    -8765    -8623    -8253    -7784    -7429 
   -7362    -7624    -8136    -8694    -9032    -9009    -8700    -8310 
   -8056    -8047    -8203    -8376    -8473    -8498    -8503    -8521 
   -8507    -8406    -8276    -8241    -8279    -8222    -7993    -7704 
   -7539    -7623    -7994    -8577    -9134    -9370    -9181    -8702 
   -8182    -7796    -7561    -7492    -7663    -8023    -8419    -8773 
   -8999    -8968    -8648    -8178    -7780    -7653    -7875    -8322 
   -8737    -8937    -8887    -8645    -8363    -8217    -8256    -8368 
   -8445    -8429    -8299    -8087    -7855    -7658    -7569    -7670 
   -7979    -8392    -8788    -9080    -9155    -8930    -8510    -8114 
   -7892    -7871    -8014    -8245    -8445    -8478    -8305    -8055 
   -7904    -7898    -7982    -8118    -8302    -8505    -8646    -8683 
   -8645    -8533    -8365    -8259    -8302    -8403    -8401    -8295 
   -8226    -8263    -8371    -8487    -8537    -8449    -8240    -8037 
   -7965    -8051    -8272    -8548    -8714    -8626    -8337    -8087 
   -8048    -8143    -8201    -8185    -8178    -8221    -8310    -8480 
   -8700    -8788    -8645    -8355    -8051    -7858    -7877    -8086 
   -8279    -8268    -8118    -8009    -8046    -8218    -8430    -8590 
   -8684    -8723    -8721    -8694    -8583    -8336    -8009    -7734 
   -7655    -7866    -8287    -8689    -8847    -8708    -8409    -8152 
   -8055    -8124    -8298    -8445    -8479    -8469    -8472    -8425 
   -8316    -8178    -8023    -7919    -7959    -8124    -8295    -8397 
   -8415    -8376    -8349    -8348    -8297    -8181    -8066    -8005 
   -8075    -8328    -8660    -8907    -8982    -8870    -8627    -8349 
   -8101    -7947    -7954    -8066    -8117    -8036    -7928    -7897 
   -7944    -8083    -8357    -8741    -9108    -9285    -9171    -8789 
   -8229    -7680    -7410    -7524    -7862    -8213    -8490    -8699 
   -8811    -8731    -8465    -8160    -7958    -7892    -7908    -7967 
   -8067    -8232    -8472    -8676    -8700    -8552    -8414    -8446 
   -8606    -8772    -8851    -8761    -8483    -8121    -7801    -7584 
   -7516    -7653    -7952    -8283    -8521    -8592    -8514    -8380 
   -8283    -8274    -8370    -8525    -8631    -8596    -8465    -8367 
   -8316    -8247    -8127    -7993    -7955    -8091    -8310    -8476 
   -8580    -8662    -8683    -8594    -8433    -8263    -8122    -8027 
   -7959    -7955    -8086    -8318    -8514    -8561    -8428    -8174 
   -7942    -7843    -7867    -7954    -8079    -8209    -8329    -8452 
   -8526    -8536    -8542    -8561    -8554    -8540    -8563    -8603 
   -8604    -8518    -8320    -8090    -7962    -7960    -8025    -8133 
   -8313    -8538    -8689    -8652    -8445    -8221    -8106    -8095 
   -8144    -8244    -8341    -8356    -8299    -8217    -8127    -8094 
   -8171    -8294    -8370    -8357    -8264    -8133    -8058    -8136 
   -8364    -8641    -8876    -9011    -8957    -8662    -8233    -7901 
   -7798    -7882    -8028    -8163    -8266    -8322    -8349    -8363 
   -8365    -8340    -8235    -8058    -7936    -7986    -8210    -8517 
   -8781    -8922    -8908    -8760    -8544    -8322    -8113    -7948 
   -7889    -7960    -8132    -8306    -8361    -8303    -8264    -8297 
   -8351    -8401    -8456    -8503    -8495    -8407    -8297    -8230 
   -8197    -8168    -8129    -8052    -7951    -7886    -7890    -7967 
   -8128    -8359    -8594    -8791    -8922    -8916    -8745    -8487 
   -8257    -8141    -8181    -8330    -8457    -8455    -8324    -8131 
   -7966    -7886    -7898    -7965    -8039    -8128    -8262    -8418 
   -8529    -8563    -8548    -8500    -8409    -8338    -8374    -8449 
   -8421    -8253    -8046    -7928    -7973    -8189    -8513    -8803 
   -8914    -8793    -8514    -8237    -8074    -8035    -8086    -8176 
   -8279    -8409    -8525    -8548    -8478    -8410    -8411    -8437 
   -8424    -8374    -8282    -8149    -8009    -7900    -7882    -7982 
   -8148    -8318    -8464    -8545    -8507    -8357    -8171    -8004 
   -7894    -7935    -8160    -8478    -8729    -8802    -8689    -8468 
   -8252    -8117    -8091    -8163    -8240    -8224    -8118    -8002 
   -7955    -8027    -8201    -8415    -8611    -8749    -8799    -8734 
   -8544    -8298    -8108    -8009    -7977    -8032    -8205    -8451 
   -8660    -8743    -8679    -8506    -8299    -8148    -8089    -8098 
   -8147    -8226    -8321    -8390    -8402    -8364    -8313    -8266 
   -8212    -8143    -8081    -8041    -8070    -8203    -8392    -8518 
   -8515    -8383    -8156    -7938    -7854    -7950    -8194    -8511 
   -8797    -8986    -9061    -9016    -8866    -8649    -8430    -8248 
   -8081    -7938    -7885    -7915    -7967    -8062    -8244    -8469 
   -8634    -8675    -8613    -8511    -8407    -8305    -8195    -8081 
   -8001    -8012    -8139    -8332    -8453    -8405    -8249    -8102 
   -8000    -7962    -7986    -8029    -8090    -8191    -8320    -8456 
   -8587    -8685    -8737    -8735    -8671    -8559    -8430    -8284 
   -8143    -8056    -8041    -8043    -8010    -7970    -7994    -8135 
   -8355    -8542    -8625    -8617    -8537    -8403    -8251    -8114 
   -8029    -8066    -8209    -8356    -8484    -8602    -8652    -8595 
   -8452    -8266    -8086    -7982    -8006    -8135    -8268    -8321 
   -8290    -8263    -8307    -8391    -8479    -8546    -8529    -8402 
   -8244    -8147    -8143    -8217    -8328    -8424    -8463    -8434 
   -8380    -8321    -8244    -8186    -8179    -8208    -8262    -8357 
   -8475    -8533    -8476    -8359    -8286    -8310    -8410    -8523 
   -8583    -8565    -8496    -8409    -8299    -8135    -7911    -7716 
   -7681    -7852    -8164    -8492    -8694    -8692    -8532    -8310 
   -8122    -8039    -8071    -8183    -8343    -8536    -8718    -8788 
   -8653    -8357    -8059    -7882    -7839    -7863    -7866    -7834 
   -7848    -7967    -8159    -8383    -8614    -8804    -8903    -8869 
   -8683    -8390    -8118    -7993    -8020    -8128    -8282    -8455 
   -8592    -8635    -8549    -8365    -8190    -8106    -8118    -8187 
   -8295    -8437    -8594    -8707    -8711    -8560    -8286    -7977 
   -7707    -7538    -7550    -7778    -8141    -8506    -8770    -8858 
   -8761    -8567    -8370    -8249    -8249    -8340    -8482    -8652 
   -8814    -8922    -8954    -8923    -8870    -8838    -8796    -8668 
   -8432    -8109    -7736    -7399    -7199    -7173    -7302    -7524 
   -7754    -7952    -8178    -8444    -8695    -8922    -9108    -9188 
   -9147    -9038    -8870    -8615    -8271    -7877    -7497    -7213 
   -7092    -7142    -7314    -7524    -7661    -7650    -7537    -7450 
   -7500    -7754    -8206    -8772    -9358    -9871   -10193   -10262 
  -10107    -9753    -9232    -8691    -8328    -8236    -8363    -8572 
   -8715    -8727    -8599    -8295    -7808    -7183    -6481    -5823 
   -5382    -5271    -5532    -6189    -7153    -8178    -9047    -9640 
   -9886    -9792    -9435    -8904    -8345    -7987    -8028    -8502 
   -9298   -10199   -10953   -11392   -11423   -11029   -10291    -9346 
   -8349    -7461    -6862    -6691    -6959    -7488    -8020    -8371 
   -8465    -8318    -8012    -7619    -7175    -6739    -6435    -6392 
   -6681    -7271    -8041    -8889    -9684   -10272   -10578   -10582 
  -10284    -9759    -9101    -8410    -7796    -7331    -7038    -6914 
   -6907    -6939    -6964    -6947    -6879    -6843    -6910    -7149 
   -7619    -8297    -9059    -9740   -10214   -10389   -10189    -9632 
   -8843    -8025    -7396    -7091    -7142    -7493    -8002    -8482 
   -8758    -8769    -8527    -8114    -7670    -7358    -7317    -7592 
   -8125    -8807    -9509   -10089   -10407   -10389   -10053    -9471 
   -8761    -8039    -7410    -6995    -6867    -6986    -7241    -7547 
   -7839    -8046    -8164    -8230    -8244    -8216    -8205    -8282 
   -8456    -8699    -9005    -9328    -9555    -9560    -9279    -8745 
   -8077    -7435    -6940    -6667    -6663    -6925    -7427    -8091 
   -8777    -9342    -9686    -9756    -9543    -9128    -8680    -8349 
   -8259    -8456    -8781    -8950    -8793    -8330    -7716    -7168 
   -6902    -7011    -7438    -8073    -8792    -9417    -9763    -9734 
   -9354    -8753    -8162    -7788    -7693    -7813    -8033    -8259 
   -8378    -8297    -8071    -7831    -7682    -7707    -7882    -8068 
   -8120    -7985    -7720    -7470    -7356    -7408    -7639    -8021 
   -8426    -8727    -8854    -8799    -8603    -8337    -8091    -7944 
   -7924    -8008    -8137    -8257    -8297    -8171    -7877    -7539 
   -7348    -7450    -7920    -8694    -9512   -10137   -10498   -10615 
  -10516   -10291   -10026    -9768    -9570    -9466    -9396    -9265 
   -9011    -8611    -8093    -7508    -6920    -6465    -6309    -6496 
   -6868    -7210    -7406    -7447    -7368    -7229    -7130    -7164 
   -7358    -7686    -8060    -8372    -8587    -8725    -8793    -8787 
   -8738    -8692    -8631    -8530    -8403    -8270    -8175    -8156 
   -8163    -8135    -8102    -8170    -8378    -8662    -8924    -9081 
   -9088    -8977    -8850    -8743    -8603    -8437    -8314    -8243 
   -8208    -8206    -8243    -8293    -8279    -8136    -7920    -7784 
   -7823    -8035    -8398    -8864    -9321    -9614    -9652    -9466 
   -9128    -8689    -8193    -7696    -7294    -7087    -7150    -7480 
   -7940    -8348    -8653    -8928    -9190    -9369    -9408    -9265 
   -8916    -8434    -7944    -7542    -7310    -7299    -7489    -7769 
   -8005    -8122    -8097    -7909    -7597    -7312    -7245    -7461 
   -7847    -8214    -8476    -8638    -8675    -8595    -8459    -8301 
   -8172    -8154    -8259    -8409    -8548    -8668    -8746    -8762 
   -8714    -8590    -8415    -8216    -7958    -7658    -7449    -7446 
   -7650    -8000    -8403    -8770    -9061    -9248    -9296    -9177 
   -8922    -8614    -8310    -8005    -7696    -7450    -7341    -7346 
   -7392    -7435    -7488    -7616    -7825    -8046    -8233    -8417 
   -8633    -8889    -9166    -9418    -9607    -9717    -9713    -9572 
   -9356    -9161    -8989    -8785    -8527    -8274    -8113    -8095 
   -8145    -8121    -8004    -7874    -7803    -7828    -7912    -7954 
   -7933    -7923    -7994    -8187    -8495    -8824    -9046    -9085 
   -8959    -8773    -8610    -8461    -8302    -8145    -8041    -8023 
   -8074    -8149    -8189    -8141    -8016    -7867    -7774    -7788 
   -7913    -8074    -8143    -8081    -7938    -7784    -7682    -7647 
   -7665    -7724    -7805    -7897    -7996    -8117    -8280    -8479 
   -8681    -8853    -8974    -9051    -9058    -8942    -8671    -8286 
   -7919    -7709    -7699    -7800    -7940    -8091    -8214    -8283 
   -8290    -8236    -8183    -8185    -8240    -8316    -8386    -8417 
   -8370    -8256    -8148    -8163    -8403    -8811    -9205    -9428 
   -9418    -9216    -8903    -8556    -8268    -8125    -8149    -8313 
   -8576    -8891    -9194    -9409    -9432    -9225    -8868    -8468 
   -8125    -7901    -7776    -7708    -7697    -7776    -7960    -8202 
   -8442    -8623    -8664    -8530    -8303    -8087    -7901    -7740 
   -7630    -7572    -7620    -7852    -8240    -8664    -8989    -9115 
   -8985    -8631    -8155    -7674    -7311    -7148    -7186    -7388 
   -7684    -7971    -8147    -8152    -8036    -7904    -7873    -7981 
   -8116    -8168    -8135    -8079    -8085    -8214    -8469    -8792 
   -9117    -9383    -9520    -9521    -9439    -9285    -9051    -8749 
   -8434    -8176    -7997    -7850    -7651    -7377    -7084    -6855 
   -6744    -6806    -7082    -7535    -8073    -8610    -9066    -9406 
   -9647    -9757    -9697    -9487    -9211    -8968    -8810    -8722 
   -8676    -8653    -8635    -8603    -8554    -8473    -8344    -8194 
   -8044    -7927    -7917    -8037    -8230    -8421    -8538    -8581 
   -8596    -8569    -8419    -8117    -7743    -7431    -7276    -7311 
   -7558    -8000    -8519    -8989    -9300    -9370    -9231    -8961 
   -8584    -8133    -7686    -7321    -7098    -7034    -7088    -7227 
   -7460    -7754    -8039    -8263    -8403    -8468    -8467    -8402 
   -8322    -8326    -8500    -8822    -9166    -9401    -9458    -9310 
   -8946    -8424    -7879    -7425    -7115    -6975    -6976    -7059 
   -7195    -7391    -7627    -7870    -8135    -8455    -8816    -9150 
   -9382    -9471    -9441    -9370    -9288    -9158    -9005    -8846 
   -8661    -8488    -8383    -8357    -8410    -8505    -8579    -8557 
   -8405    -8147    -7878    -7727    -7719    -7800    -7943    -8109 
   -8232    -8278    -8271    -8252    -8228    -8206    -8213    -8244 
   -8253    -8213    -8144    -8095    -8151    -8359    -8634    -8868 
   -9004    -9007    -8883    -8675    -8419    -8170    -7974    -7878 
