Origin Time       2025/03/28 03:50:00
Lat.              35.403
Long.             140.360
Depth. (km)       54
Mag.              4.4
Station Code      SIT008
Station Lat.      35.9829
Station Long.     139.7456
Station Height(m) 7
Record Time       2025/03/28 03:51:07
Sampling Freq(Hz) 100Hz
Duration Time(s)  63
Dir.              E-W
Scale Factor      7845(gal)/8223790
Max. Acc. (gal)   2.025
Last Correction   2025/03/28 03:51:07
Memo.             
[...]
    3358     3345     3335     3334     3335     3341     3356     3372 
    3373     3369     3372     3373     3364     3349     3339     3341 
    3350     3357     3360     3354     3345     3343     3353     3361 
    3364     3368     3369     3362     3356     3348     3338     3339 
    3348     3353     3358     3365     3366     3357     3348     3348 
    3354     3356     3350     3345     3348     3360     3366     3361 
    3357     3352     3343     3346     3358     3368     3375     3368 
    3354     3353     3357     3353     3357     3364     3358     3345 
    3342     3343     3352     3362     3361     3358     3358     3352 
    3354     3361     3352     3342     3352     3357     3354     3352 
    3349     3350     3354     3353     3356     3368     3373     3360 
    3349     3352     3352     3352     3361     3370     3369     3360 
    3357     3365     3368     3368     3370     3361     3353     3360 
    3365     3369     3376     3368     3357     3357     3353     3345 
    3345     3343     3335     3337     3348     3358     3365     3358 
    3346     3346     3350     3356     3358     3345     3323     3321 
    3333     3353     3379     3392     3375     3352     3349     3361 
    3375     3376     3366     3356     3343     3331     3330     3341 
    3358     3380     3402     3407     3388     3350     3314     3304 
    3334     3368     3383     3377     3349     3316     3310     3325 
    3343     3362     3365     3357     3362     3368     3354     3334 
    3315     3308     3335     3375     3389     3370     3339     3322 
    3327     3352     3385     3412     3427     3426     3406     3379 
    3357     3339     3330     3337     3352     3361     3365     3357 
    3333     3326     3353     3384     3393     3375     3327     3288 
    3289     3319     3354     3375     3356     3322     3308     3310 
    3326     3352     3362     3362     3361     3361     3369     3375 
    3354     3335     3335     3345     3365     3402     3426     3419 
    3392     3369     3360     3365     3375     3373     3362     3354 
    3333     3294     3264     3268     3308     3364     3395     3385 
    3343     3303     3292     3306     3337     3366     3364     3342 
    3334     3339     3352     3366     3370     3358     3333     3315 
    3341     3397     3447     3469     3469     3460     3457     3470 
    3483     3466     3429     3387     3353     3335     3356     3397 
    3422     3414     3400     3414     3442     3445     3406     3339 
    3276     3246     3244     3242     3246     3248     3225     3194 
    3183     3194     3223     3246     3242     3234     3244     3271 
    3314     3360     3391     3407     3400     3372     3352     3379 
    3449     3524     3574     3586     3557     3503     3458     3453 
    3465     3457     3430     3395     3364     3356     3362     3356 
    3338     3318     3300     3289     3272     3244     3221     3204 
    3195     3203     3229     3269     3326     3377     3406     3418 
    3424     3426     3427     3435     3446     3454     3464     3460 
    3447     3441     3446     3464     3483     3468     3418     3358 
    3291     3229     3195     3187     3192     3210     3221     3208 
    3190     3175     3168     3181     3218     3275     3345     3392 
    3396     3381     3376     3402     3461     3519     3535     3497 
    3430     3376     3357     3380     3445     3516     3538     3496 
    3429     3366     3325     3312     3322     3331     3334     3327 
    3310     3291     3276     3261     3244     3231     3241     3269 
    3311     3362     3420     3460     3464     3442     3399     3354 
    3329     3322     3337     3362     3372     3368     3377     3393 
    3408     3438     3474     3481     3442     3369     3283     3208 
    3161     3146     3169     3225     3289     3350     3393     3402 
    3393     3393     3395     3384     3377     3372     3356     3345 
    3348     3357     3385     3427     3464     3470     3441     3399 
    3369     3365     3384     3410     3437     3461     3469     3453 
    3414     3369     3326     3279     3231     3203     3198     3203 
    3207     3208     3194     3172     3161     3161     3173     3213 
    3273     3343     3442     3547     3615     3639     3638     3619 
    3582     3518     3429     3334     3249     3186     3176     3238 
    3350     3477     3564     3573     3541     3510     3484     3456 
    3427     3397     3377     3366     3345     3318     3300     3281 
    3250     3222     3199     3175     3146     3115     3103     3148 
    3235     3321     3380     3404     3400     3387     3376     3369 
    3356     3333     3306     3284     3284     3315     3377     3443 
    3500     3554     3591     3589     3549     3495     3453     3437 
    3434     3420     3392     3348     3292     3260     3264     3289 
    3312     3302     3252     3206     3195     3211     3246     3291 
    3330     3350     3360     3376     3406     3434     3447     3433 
    3376     3304     3265     3283     3342     3419     3474     3465 
    3406     3341     3292     3277     3291     3302     3312     3337 
    3368     3400     3442     3500     3569     3608     3589     3516 
    3422     3338     3281     3268     3287     3314     3343     3372 
    3385     3402     3423     3418     3369     3303     3256     3234 
    3237     3261     3287     3289     3267     3229     3208     3230 
    3273     3312     3342     3360     3360     3350     3335     3321 
    3326     3366     3419     3462     3492     3497     3487     3484 
    3492     3503     3496     3443     3354     3276     3240     3257 
    3319     3391     3445     3470     3453     3395     3318     3226 
    3129     3067     3057     3095     3165     3237     3292     3341 
    3368     3370     3377     3393     3400     3389     3366     3349 
    3356     3385     3415     3445     3472     3492     3512     3543 
    3572     3589     3601     3589     3547     3493     3437     3375 
    3308     3241     3200     3207     3249     3307     3354     3377 
    3383     3377     3366     3352     3327     3302     3284     3268 
    3252     3237     3229     3227     3221     3195     3175     3188 
    3241     3310     3377     3434     3478     3491     3456     3395 
    3356     3354     3358     3345     3307     3262     3253     3279 
    3318     3362     3406     3424     3414     3395     3380     3379 
    3384     3375     3364     3376     3411     3470     3549     3626 
    3674     3677     3613     3484     3329     3181     3055     2963 
    2911     2901     2940     3021     3132     3265     3407     3527 
    3599     3627     3627     3605     3559     3499     3438     3396 
    3373     3346     3307     3279     3279     3303     3349     3396 
    3419     3422     3424     3416     3400     3395     3387     3349 
    3283     3190     3103     3060     3059     3098     3176     3265 
    3349     3419     3443     3418     3377     3342     3322     3326 
    3358     3426     3532     3635     3692     3707     3707     3697 
    3684     3658     3595     3489     3352     3195     3075     3036 
    3063     3117     3172     3223     3280     3330     3334     3284 
    3206     3123     3052     3015     3021     3061     3122     3188 
    3249     3329     3445     3566     3649     3688     3688     3647 
    3574     3500     3462     3480     3530     3577     3611     3619 
    3588     3532     3470     3407     3352     3310     3261     3203 
    3183     3214     3250     3269     3281     3285     3280     3262 
    3221     3157     3107     3092     3105     3140     3199     3303 
    3443     3570     3655     3700     3686     3596     3457     3323 
    3242     3223     3245     3289     3349     3418     3491     3541 
    3549     3516     3465     3403     3331     3253     3175     3118 
    3099     3111     3144     3180     3196     3188     3173     3180 
    3222     3276     3327     3408     3527     3649     3748     3805 
    3809     3773     3686     3555     3416     3289     3186     3117 
    3073     3055     3079     3152     3248     3331     3389     3422 
    3449     3477     3495     3505     3501     3480     3468     3476 
    3472     3431     3348     3238     3142     3095     3087     3096 
    3123     3176     3244     3322     3408     3476     3526     3561 
    3572     3568     3554     3510     3426     3337     3273     3253 
    3284     3342     3385     3399     3381     3335     3287     3249 
    3218     3211     3226     3252     3294     3350     3406     3456 
    3501     3532     3524     3464     3368     3273     3208     3179 
    3180     3221     3298     3384     3466     3524     3534     3511 
    3481     3439     3392     3366     3368     3395     3451     3520 
    3554     3519     3420     3280     3146     3052     3002     3001 
    3044     3110     3202     3321     3441     3531     3565     3531 
    3447     3337     3223     3148     3145     3218     3338     3465 
    3557     3603     3619     3612     3588     3550     3496     3445 
    3418     3407     3423     3451     3447     3381     3248     3072 
    2907     2793     2740     2748     2830     2994     3214     3453 
    3677     3846     3919     3889     3781     3647     3510     3373 
    3276     3241     3248     3283     3338     3396     3438     3439 
    3389     3311     3254     3268     3353     3454     3539     3626 
    3713     3747     3697     3586     3446     3300     3175     3076 
    3006     2991     3033     3094     3141     3167     3180     3183 
    3176     3169     3156     3137     3127     3130     3150     3191 
    3230     3262     3296     3326     3361     3407     3468     3549 
    3642     3726     3788     3812     3790     3734     3665     3611 
    3582     3557     3519     3485     3470     3474     3480     3454 
    3392     3319     3257     3207     3167     3148     3156     3172 
    3202     3271     3377     3478     3520     3470     3354     3199 
    3013     2829     2701     2662     2724     2862     3010     3153 
    3306     3462     3618     3766     3867     3875     3790     3636 
    3468     3343     3284     3280     3304     3315     3308     3311 
    3338     3392     3468     3539     3581     3577     3528     3460 
    3397     3338     3287     3268     3268     3268     3289     3337 
    3391     3443     3491     3514     3499     3443     3364     3296 
    3252     3214     3168     3126     3115     3146     3217     3311 
    3402     3478     3535     3565     3573     3558     3519     3458 
    3391     3330     3277     3227     3198     3194     3202     3211 
    3210     3203     3207     3233     3269     3304     3330     3365 
    3410     3445     3460     3449     3416     3384     3372     3384 
    3416     3468     3515     3530     3518     3491     3437     3353 
    3249     3138     3059     3026     3048     3137     3271     3423 
    3574     3694     3775     3823     3819     3761     3685     3608 
    3514     3408     3295     3168     3063     3026     3044     3094 
    3165     3237     3318     3404     3460     3484     3496     3491 
    3468     3433     3360     3254     3177     3164     3203     3295 
    3418     3520     3569     3557     3492     3383     3254     3144 
    3063     2999     2944     2898     2880     2898     2922     2940 
    2949     2941     2917     2870     2772     2643     2532     2485 
    2504     2571     2656     2713     2740     2755     2754     2762 
    2837     2979     3156     3364     3593     3817     4027     4203 
    4324     4386     4401     4395     4399     4425     4463     4526 
    4625     4743     4843     4869     4776     4588     4357     4132 
    3954     3838     3767     3735     3730     3744     3761     3732 
    3622     3424     3156     2863     2593     2370     2235     2219 
    2308     2479     2716     2997     3289     3549     3744     3877 
    3959     3997     3978     3892     3771     3665     3581     3499 
    3383     3211     3003     2787     2573     2363     2185     2066 
    2008     2008     2066     2161     2278     2436     2662     2955 
    3285     3609     3882     4081     4199     4230     4182     4082 
    3946     3788     3628     3484     3391     3372     3406     3485 
    3616     3765     3877     3942     4006     4109     4205     4233 
    4190     4082     3923     3734     3531     3334     3149     2953 
    2706     2411     2106     1825     1601     1467     1435     1480 
    1580     1732     1931     2174     2458     2782     3125     3439 
    3705     3923     4086     4195     4237     4221     4183     4148 
    4124     4113     4104     4097     4116     4164     4226     4283 
    4318     4326     4301     4214     4058     3847     3588     3285 
    2991     2749     2592     2547     2627     2810     3060     3348 
    3634     3874     4054     4158     4162     4064     3896     3707 
    3539     3388     3249     3157     3106     3056     2980     2844 
    2646     2427     2220     2069     2008     2026     2097     2216 
    2376     2567     2787     3001     3136     3173     3177     3175 
    3149     3111     3079     3061     3073     3123     3223     3365 
    3543     3778     4056     4367     4712     5043     5293     5435 
    5479     5444     5336     5147     4889     4577     4203     3808 
    3442     3114     2798     2497     2232     2019     1881     1834 
    1875     2014     2241     2500     2759     2984     3148     3257 
    3323     3342     3338     3331     3334     3381     3489     3636 
    3817     4020     4197     4317     4375     4369     4293     4139 
    3913     3634     3323     3014     2722     2451     2209     2019 
    1912     1908     2000     2157     2334     2489     2604     2698 
    2801     2930     3096     3304     3547     3821     4126     4448 
    4735     4954     5077     5070     4924     4660     4305     3912 
    3550     3291     3175     3194     3302     3453     3623     3777 
    3870     3866     3736     3500     3214     2921     2652     2424 
    2241     2135     2133     2204     2299     2355     2332     2245 
    2157     2131     2200     2384     2677     3026     3393     3753 
    4056     4264     4364     4349     4222     4001     3727     3450 
    3210     3024     2917     2903     2992     3163     3368     3586 
    3813     4039     4267     4495     4669     4735     4688     4529 
    4259     3913     3535     3169     2875     2694     2640     2713 
    2901     3150     3381     3535     3582     3532     3415     3252 
    3096     2999     2956     2959     3019     3119     3229     3308 
    3319     3248     3100     2910     2749     2678     2710     2845 
    3071     3350     3635     3893     4060     4078     3958     3739 
    3461     3187     2971     2866     2911     3082     3308     3549 
    3753     3890     3973     4014     4018     4000     3978     3967 
    3982     4012     4039     4056     4028     3908     3680     3357 
    2965     2569     2224     1979     1880     1938     2130     2421 
    2766     3115     3415     3622     3735     3775     3747     3670 
    3565     3465     3427     3462     3538     3628     3707     3765 
    3819     3836     3798     3731     3620     3454     3258     3042 
    2822     2631     2482     2385     2358     2405     2516     2670 
    2860     3078     3287     3461     3593     3681     3717     3713 
    3688     3639     3561     3478     3424     3400     3391     3400 
    3469     3607     3784     3985     4179     4328     4429     4467 
    4426     4314     4120     3859     3584     3302     3029     2808 
    2629     2494     2430     2408     2405     2434     2479     2531 
    2589     2632     2681     2760     2862     2983     3132     3304 
    3491     3667     3813     3909     3924     3867     3781     3666 
    3520     3373     3258     3195     3203     3265     3362     3503 
    3645     3717     3719     3640     3488     3327     3211     3153 
    3183     3296     3453     3639     3848     4035     4148     4176 
    4125     4010     3859     3711     3601     3541     3518     3522 
    3527     3499     3414     3271     3079     2859     2632     2428 
    2285     2236     2295     2443     2644     2875     3107     3308 
    3476     3603     3662     3662     3642     3626     3620     3627 
    3632     3620     3578     3511     3430     3342     3249     3161 
    3087     3021     2963     2937     2957     2999     3036     3061 
    3068     3053     3034     3022     3024     3057     3137     3245 
    3354     3447     3510     3550     3604     3692     3808     3910 
    3973     4032     4106     4172     4213     4212     4149     4020 
    3831     3622     3429     3275     3183     3165     3204     3276 
    3358     3424     3451     3430     3353     3238     3123     3024 
    2925     2837     2779     2729     2667     2598     2531     2481 
    2454     2447     2471     2542     2663     2828     3034     3281 
    3561     3855     4132     4352     4510     4617     4676     4687 
    4641     4523     4359     4191     4033     3886     3771     3694 
    3669     3700     3744     3740     3649     3456     3194     2928 
    2682     2455     2282     2196     2196     2268     2392     2558 
    2755     2951     3127     3272     3383     3485     3597     3732 
    3906     4075     4205     4287     4283     4186     4044     3882 
    3715     3561     3415     3279     3160     3048     2929     2814 
    2683     2540     2423     2343     2319     2385     2539     2745 
    2959     3122     3198     3184     3106     2987     2840     2687 
    2574     2531     2575     2701     2870     3051     3219     3366 
    3493     3597     3686     3757     3832     3952     4136     4367 
    4591     4749     4815     4783     4650     4442     4206     3994 
    3838     3759     3758     3809     3882     3951     3979     3943 
    3843     3686     3470     3208     2937     2705     2543     2467 
    2470     2506     2531     2543     2546     2511     2436     2363 
    2295     2227     2191     2196     2238     2332     2496     2737 
    3057     3420     3798     4152     4419     4569     4614     4580 
    4487     4315     4060     3750     3430     3153     2959     2875 
    2917     3046     3222     3424     3631     3816     3937     3978 
    3955     3888     3771     3618     3453     3310     3219     3186 
    3203     3260     3335     3392     3400     3384     3379     3403 
    3449     3489     3505     3499     3478     3454     3439     3437 
    3429     3379     3281     3160     3033     2907     2817     2794 
    2837     2926     3041     3159     3254     3339     3422     3472 
    3476     3446     3392     3326     3258     3207     3187     3169 
    3145     3140     3146     3157     3179     3194     3195     3211 
    3262     3348     3460     3582     3712     3851     3997     4135 
    4237     4279     4271     4210     4089     3935     3770     3613 
    3499     3438     3427     3480     3565     3639     3690     3696 
