Origin Time       2025/03/28 03:50:00
Lat.              35.403
Long.             140.360
Depth. (km)       54
Mag.              4.4
Station Code      SIT008
Station Lat.      35.9829
Station Long.     139.7456
Station Height(m) 7
Record Time       2025/03/28 03:51:07
Sampling Freq(Hz) 100Hz
Duration Time(s)  63
Dir.              N-S
Scale Factor      7845(gal)/8223790
Max. Acc. (gal)   1.518
Last Correction   2025/03/28 03:51:07
Memo.             
[...]
     576      648      692      700      680      666      688      757 
     864      977     1062     1105     1119     1119     1100     1030 
     897      716      515      349      259      241      295      394 
     486      537      540      504      448      380      328      283 
     230      190      170      168      209      276      346      400 
     411      414      468      562      680      793      873      930 
     969      953      869      757      670      626      604      616 
     654      703      762      805      801      765      706      622 
     507      345      190      101      101      193      332      441 
     496      492      438      375      328      313      328      345 
     359      382      440      542      672      788      846      842 
     814      777      722      673      642      615      595      580 
     568      561      571      608      670      722      731      710 
     679      653      635      611      560      492      433      399 
     387      387      373      330      270      228      237      317 
     449      579      657      695      727      761      769      734 
     657      565      499      471      479      513      553      599 
     664      730      757      734      685      629      579      540 
     491      434      410      434      495      584      683      754 
     781      764      706      619      521      441      413      425 
     440      434      425      436      456      472      499      535 
     550      527      475      398      321      279      270      283 
     311      341      367      400      432      446      461      504 
     577      648      700      762      824      846      834      812 
     766      676      580      529      521      529      534      537 
     546      573      621      665      693      710      697      641 
     562      504      471      467      502      558      616      653 
     643      596      545      511      517      560      598      580 
     515      457      445      476      515      529      507      475 
     464      480      507      514      484      426      364      317 
     295      310      382      491      608      711      762      765 
     738      688      622      554      490      429      380      357 
     375      425      491      552      577      548      459      325 
     183       79       55      121      245      391      546      711 
     868     1001     1115     1208     1254     1244     1198     1125 
    1040      982      953      916      843      735      606      476 
     367      267      172       97       48       39       76      141 
     205      253      271      272      294      357      468      611 
     741      846      947     1028     1050      999      899      780 
     649      507      394      349      369      441      548      642 
     696      711      697      684      675      648      622      627 
     660      716      769      768      727      683      598      441 
     245       60      -68     -124     -112      -25      121      272 
     398      496      558      576      527      422      328      287 
     303      383      513      670      827      973     1105     1183 
    1189     1155     1127     1121     1092     1005      907      812 
     726      662      596      499      351      166      -27     -217 
    -363     -396     -291      -74      205      498      760      963 
    1113     1192     1192     1140     1055      932      801      700 
     635      606      606      604      587      548      477      369 
     205      -10     -226     -395     -480     -436     -248       60 
     429      781     1071     1277     1363     1324     1205     1035 
     837      665      577      610      754      966     1183     1339 
    1394     1351     1204      946      610      259      -66     -346 
    -546     -641     -649     -576     -444     -286     -105       86 
     255      384      457      471      467      469      486      544 
     656      774      859      923      999     1098     1219     1333 
    1408     1435     1414     1341     1232     1109      989      866 
     703      468      166     -162     -456     -661     -750     -726 
    -600     -387      -89      267      618      916     1125     1209 
    1171     1040      866      715      630      630      730      909 
    1096     1224     1269     1210     1035      777      484      206 
     -16     -175     -274     -325     -348     -318     -218      -93 
      33      145      214      261      340      471      652      864 
    1078     1296     1514     1711     1872     1993     2070     2079 
    1987     1795     1534     1233      889      533      232        5 
    -148     -222     -245     -240     -194     -118      -31       67 
     159      206      194      145       87       37       17       18 
      24       22        8       -2       16       90      236      440 
     675      904     1092     1220     1264     1217     1119     1005 
     896      826      822      897     1046     1239     1412     1491 
    1445     1264      967      630      325       89      -39      -54 
     -12       62      159      252      328      372      346      237 
      71     -106     -249     -325     -318     -233     -105        6 
      62       55       -6      -89     -143     -135      -55      103 
     348      639      936     1231     1480     1647     1721     1707 
    1625     1510     1402     1316     1232     1144     1090     1088 
    1124     1175     1190     1134      999      769      469      198 
      27      -49      -44       40      198      422      676      907 
    1062     1107     1032      869      675      517      387      257 
     160      106       72       58       71      121      178      201 
     179      143      124      140      193      284      407      517 
     560      534      469      403      373      410      510      650 
     826     1012     1156     1246     1281     1248     1158     1032 
     893      785      730      707      704      706      687      629 
     530      367      106     -222     -537     -766     -870     -859 
    -777     -630     -425     -203        6      206      407      611 
     787      919     1032     1150     1267     1368     1425     1414 
    1371     1333     1313     1328     1359     1387     1428     1466 
    1462     1401     1274     1063      769      409       17     -353 
    -650     -835     -878     -783     -606     -400     -178       59 
     291      502      661      754      789      807      862      985 
    1161     1345     1494     1559     1534     1444     1296     1108 
     932      797      687      604      549      498      448      396 
     330      245      130        2      -82      -99      -75      -13 
      95      228      336      373      332      245      145       40 
     -39      -40       78      311      612      935     1236     1449 
    1544     1516     1359     1094      756      402      120      -43 
    -101      -79      -25        5      -18      -70     -121     -164 
    -197     -220     -217     -174     -113      -33       95      278 
     483      668      808      924     1039     1134     1205     1296 
    1410     1530     1651     1757     1818     1821     1764     1652 
    1517     1386     1260     1146     1026      882      729      562 
     396      265      180      143      148      179      224      265 
     294      340      422      506      548      518      422      322 
     256      226      247      298      330      342      369      390 
     376      351      313      253      175       82        0      -32 
      10      117      255      379      422      383      326      284 
     263      279      346      476      662      876     1102     1325 
    1503     1590     1559     1418     1221     1013      818      672 
     592      581      654      777      888      931      874      735 
     560      371      183       12     -130     -243     -333     -415 
    -496     -572     -614     -608     -535     -383     -167       67 
     282      477      668      845      984     1054     1055     1020 
     974      957     1001     1115     1270     1441     1598     1721 
    1783     1730     1555     1310     1047      820      653      530 
     468      495      565      592      526      375      167      -72 
    -310     -498     -602     -568     -395     -130      207      581 
     885     1067     1158     1165     1090      984      907      891 
     950     1061     1171     1248     1269     1225     1123      954 
     704      392       68     -195     -342     -372     -307     -187 
     -64       18       51       37        5       -9        2       29 
      81      166      279      414      533      606      660      724 
     800      900     1048     1224     1404     1579     1732     1834 
    1834     1694     1470     1237     1016      812      616      432 
     303      259      270      306      344      336      259      176 
     149      183      256      340      427      511      552      526 
     423      237      -14     -279     -498     -637     -689     -664 
    -579     -445     -252      -36      143      272      369      438 
     486      531      592      693      842     1007     1144     1246 
    1298     1289     1219     1089      908      714      558      471 
     445      483      591      737      885     1011     1088     1117 
    1108     1088     1092     1086     1046      999      935      831 
     706      591      511      469      442      433      476      572 
     695      823      916      959      949      878      776      689 
     622      552      472      373      257      152       55      -71 
    -241     -437     -639     -826     -954     -967     -869     -706 
    -500     -270      -28      210      417      567      679      762 
     801      819      880     1017     1217     1422     1603     1742 
    1810     1800     1737     1641     1534     1432     1327     1210 
    1104     1038     1011      996      977      959      923      843 
     750      654      534      383      213       55      -63     -144 
    -167     -112      -12       97      225      357      484      621 
     715      719      666      581      459      290       81     -118 
    -259     -365     -477     -573     -618     -600     -518     -378 
    -195        9      224      445      677      913     1146     1354 
    1513     1613     1651     1625     1571     1530     1510     1490 
    1462     1413     1331     1201     1026      835      666      531 
     440      398      384      371      351      345      352      352 
     332      274      170       41      -79     -183     -270     -337 
    -357     -313     -213      -91       22      129      244      355 
     449      562      696      815      907      974     1024     1048 
    1047     1059     1088     1090     1058      994      901      788 
     650      498      359      238      140       62       16       45 
     160      313      475      623      735      815      857      849 
     796      712      619      549      526      571      662      757 
     839      899      926      940      967     1005     1069     1166 
    1267     1345     1405     1443     1433     1337     1159      919 
     614      283      -14     -263     -452     -587     -703     -811 
    -886     -938     -988    -1012     -970     -846     -635     -361 
     -54      276      600      882     1124     1318     1431     1451 
    1413     1354     1306     1287     1312     1389     1497     1587 
    1624     1583     1478     1329     1143      936      735      550 
     392      290      230      175      125       97       81       70 
      74       99      143      214      322      465      641      807 
     911      940      908      803      646      488      364      274 
     194      122       86       87      102      121      151      179 
     186      166      147      164      207      271      360      460 
     552      623      666      700      738      758      747      726 
     699      660      611      562      531      544      608      689 
     776      853      904      934      935      892      841      793 
     716      626      544      460      384      329      287      267 
     288      326      369      457      603      781      976     1148 
    1286     1378     1398     1351     1278     1204     1120     1026 
     931      842      745      638      537      427      288      117 
     -66     -247     -405     -531     -625     -676     -687     -668 
    -621     -531     -386     -172       72      292      481      649 
     772      853      905      916      895      868      823      758 
     700      688      750      900     1086     1259     1393     1453 
    1444     1406     1348     1259     1159     1077     1019      966 
     918      888      881      873      834      749      615      454 
     313      209      157      156      171      194      240      305 
     360      375      314      187       31     -110     -201     -222 
    -205     -168     -132     -116     -116     -110      -99      -94 
     -98     -103      -74       17      159      328      514      712 
     901     1048     1136     1197     1262     1335     1435     1566 
    1703     1840     1966     2069     2134     2141     2053     1864 
    1617     1350     1085      854      649      441      236       40 
    -149     -328     -484     -608     -692     -741     -762     -751 
    -704     -625     -518     -392     -271     -156      -43       70 
     201      351      488      607      720      823      908      963 
     981      974      954      920      891      897      951     1047 
    1159     1264     1335     1344     1296     1219     1128     1024 
     915      822      757      716      697      702      700      664 
     585      460      290       90      -91     -224     -325     -391 
    -399     -360     -275     -170      -67       59      202      317 
     396      456      521      603      676      723      768      812 
     822      799      783      783      811      884      977     1065 
    1119     1109     1057      999      943      891      822      708 
     579      486      448      448      472      503      529      552 
     557      523      484      456      417      376      360      352 
     332      301      264      225      175      135      130      184 
     294      438      577      700      808      881      897      872 
     835      776      687      599      556      569      602      639 
     707      785      822      814      776      726      691      656 
     600      556      545      556      571      567      538      494 
     411      305      218      143       59      -10      -66     -113 
    -140     -128      -71       13       93      159      236      336 
     456      592      730      854      969     1066     1138     1179 
    1190     1151     1069      985      911      851      816      787 
     757      741      735      726      704      656      587      515 
     442      384      373      419      506      612      722      801 
     827      796      739      688      642      604      580      550 
     518      494      476      477      486      465      427      384 
     328      283      283      328      402      490      571      637 
     670      652      592      506      391      271      174       89 
      12      -37      -40       -5       52      125      221      324 
     400      456      517      588      673      764      830      859 
     868      866      858      855      866      889      918      953 
    1001     1071     1150     1215     1273     1302     1275     1223 
    1156     1046      897      742      587      421      245       91 
     -24     -109     -162     -187     -197     -203     -205     -211 
    -209     -172     -108      -36       52      145      220      306 
     425      554      685      800      874      915      938      939 
     930      945     1004     1090     1163     1194     1186     1140 
    1048      932      818      689      553      426      314      248 
     249      280      324      387      459      517      557      577 
     585      600      621      634      639      615      557      490 
     429      386      373      392      440      508      575      622 
     664      696      712      723      712      676      646      626 
     592      557      534      519      508      491      452      395 
     324      243      168       99       29      -10      -21      -20 
      21      112      228      353      465      556      635      695 
     738      788      849      904      950      970      963      935 
     876      814      784      778      783      799      822      845 
     877      916      940      947      945      923      869      776 
     637      467      305      164       64       18       -5      -33 
     -60      -91     -139     -193     -216     -180     -105      -14 
      90      210      336      457      573      679      773      847 
     897      939      969      988     1007     1034     1071     1101 
    1089     1050     1026     1016      997      974      969      976 
     982      963      891      787      687      580      460      330 
     195       85       27       28       72      133      199      275 
     353      409      437      456      492      560      645      730 
     793      815      804      789      789      803      811      791 
     734      653      562      488      438      388      325      243 
     148       68       18      -13      -48      -91     -118     -108 
     -64        6       99      198      288      357      410      459 
     495      534      595      672      773      903     1043     1175 
    1287     1363     1393     1386     1360     1309     1228     1142 
    1078     1030      984      950      928      916      913      911 
     880      801      681      529      363      214       99       20 
     -22      -51      -95     -137     -141      -93      -18       40 
      59       63       83      129      202      292      387      480 
     560      618      650      656      645      631      619      610 
     599      588      581      591      627      669      692      693 
     662      614      583      575      598      641      680      716 
     761      805      837      837      791      726      681      662 
     661      676      688      681      669      672      691      704 
     700      684      657      614      567      527      502      491 
     494      500      491      465      415      333      237      152 
      94       72       83      118      187      276      356      429 
     499      540      542      535      538      546      548      544 
     537      548      583      633      681      723      754      776 
     785      788      776      730      658      599      579      595 
     626      646      652      658      675      702      737      764 
     781      801      811      808      818      841      857      858 
