Origin Time       2025/03/28 03:50:00
Lat.              35.403
Long.             140.360
Depth. (km)       54
Mag.              4.4
Station Code      SIT003
Station Lat.      36.0721
Station Long.     139.6969
Station Height(m) 8
Record Time       2025/03/28 03:51:10
Sampling Freq(Hz) 100Hz
Duration Time(s)  60
Dir.              N-S
Scale Factor      7845(gal)/8223790
Max. Acc. (gal)   1.858
Last Correction   2025/03/28 03:51:09
Memo.             
[...]
   -2424    -2424    -2432    -2439    -2443    -2444    -2447    -2451 
   -2450    -2451    -2452    -2443    -2442    -2444    -2444    -2440 
   -2428    -2424    -2427    -2421    -2416    -2417    -2415    -2415 
   -2417    -2417    -2420    -2421    -2424    -2427    -2420    -2420 
   -2427    -2428    -2430    -2434    -2434    -2434    -2435    -2435 
   -2439    -2438    -2432    -2436    -2434    -2423    -2420    -2428 
   -2439    -2446    -2442    -2434    -2432    -2432    -2436    -2448 
   -2454    -2447    -2434    -2421    -2424    -2432    -2435    -2435 
   -2432    -2432    -2435    -2427    -2419    -2413    -2408    -2413 
   -2430    -2432    -2416    -2403    -2400    -2403    -2412    -2420 
   -2435    -2454    -2455    -2455    -2465    -2461    -2448    -2440 
   -2446    -2466    -2466    -2451    -2459    -2459    -2430    -2401 
   -2385    -2389    -2404    -2403    -2407    -2424    -2421    -2417 
   -2428    -2439    -2465    -2486    -2490    -2485    -2462    -2427 
   -2396    -2376    -2382    -2401    -2409    -2416    -2425    -2432 
   -2438    -2427    -2409    -2405    -2421    -2451    -2469    -2457 
   -2430    -2403    -2394    -2409    -2420    -2427    -2438    -2444 
   -2444    -2443    -2438    -2442    -2457    -2467    -2463    -2458 
   -2458    -2463    -2470    -2465    -2447    -2438    -2438    -2440 
   -2431    -2396    -2365    -2366    -2382    -2400    -2409    -2409 
   -2411    -2412    -2423    -2443    -2443    -2435    -2451    -2470 
   -2473    -2471    -2463    -2443    -2416    -2396    -2401    -2425 
   -2446    -2461    -2469    -2458    -2438    -2423    -2408    -2400 
   -2415    -2419    -2388    -2351    -2334    -2344    -2367    -2385 
   -2440    -2523    -2558    -2546    -2520    -2489    -2457    -2427 
   -2416    -2419    -2424    -2427    -2411    -2384    -2358    -2331 
   -2332    -2380    -2434    -2469    -2485    -2477    -2455    -2436 
   -2430    -2432    -2428    -2424    -2431    -2431    -2404    -2378 
   -2398    -2459    -2513    -2542    -2554    -2559    -2556    -2523 
   -2467    -2448    -2461    -2461    -2448    -2442    -2450    -2461 
   -2443    -2419    -2417    -2416    -2409    -2396    -2384    -2394 
   -2411    -2403    -2398    -2417    -2446    -2475    -2501    -2521 
   -2523    -2481    -2409    -2361    -2363    -2405    -2455    -2485 
   -2488    -2477    -2457    -2446    -2440    -2435    -2442    -2443 
   -2425    -2397    -2371    -2369    -2382    -2374    -2349    -2332 
   -2324    -2309    -2290    -2286    -2305    -2338    -2394    -2469 
   -2527    -2556    -2558    -2550    -2548    -2542    -2532    -2521 
   -2490    -2443    -2385    -2328    -2307    -2315    -2335    -2385 
   -2439    -2455    -2443    -2425    -2417    -2417    -2417    -2428 
   -2440    -2432    -2408    -2382    -2369    -2370    -2370    -2376 
   -2396    -2403    -2393    -2388    -2394    -2423    -2451    -2469 
   -2489    -2505    -2505    -2494    -2478    -2470    -2470    -2473 
   -2478    -2463    -2420    -2376    -2343    -2334    -2344    -2349 
   -2349    -2363    -2397    -2446    -2482    -2490    -2490    -2479 
   -2466    -2474    -2489    -2501    -2504    -2482    -2451    -2427 
   -2394    -2380    -2408    -2438    -2450    -2454    -2450    -2457 
   -2463    -2448    -2452    -2471    -2474    -2466    -2443    -2419 
   -2417    -2425    -2438    -2465    -2489    -2504    -2504    -2489 
   -2479    -2471    -2463    -2474    -2474    -2452    -2425    -2381 
   -2357    -2376    -2405    -2446    -2484    -2496    -2501    -2488 
   -2451    -2424    -2388    -2340    -2315    -2309    -2313    -2315 
   -2308    -2330    -2388    -2447    -2501    -2551    -2586    -2604 
   -2586    -2548    -2533    -2536    -2540    -2543    -2521    -2492 
   -2477    -2443    -2385    -2334    -2297    -2277    -2272    -2277 
   -2290    -2300    -2285    -2263    -2266    -2285    -2316    -2355 
   -2388    -2408    -2407    -2382    -2371    -2408    -2474    -2543 
   -2592    -2620    -2639    -2617    -2538    -2448    -2381    -2323 
   -2280    -2258    -2250    -2238    -2234    -2265    -2343    -2434 
   -2501    -2555    -2601    -2612    -2579    -2525    -2475    -2446 
   -2434    -2431    -2432    -2432    -2413    -2378    -2355    -2353 
   -2355    -2358    -2367    -2394    -2442    -2496    -2540    -2569 
   -2579    -2579    -2554    -2506    -2458    -2407    -2351    -2303 
   -2281    -2304    -2355    -2405    -2451    -2473    -2465    -2444 
   -2438    -2448    -2467    -2498    -2542    -2573    -2590    -2593 
   -2571    -2539    -2511    -2497    -2492    -2477    -2450    -2423 
   -2390    -2365    -2338    -2311    -2305    -2316    -2332    -2359 
   -2388    -2417    -2467    -2523    -2556    -2565    -2551    -2529 
   -2498    -2438    -2369    -2331    -2320    -2315    -2317    -2336 
   -2369    -2396    -2416    -2440    -2475    -2501    -2517    -2550 
   -2589    -2605    -2589    -2547    -2488    -2434    -2394    -2376 
   -2377    -2371    -2353    -2328    -2304    -2284    -2277    -2290 
   -2331    -2396    -2461    -2505    -2529    -2525    -2496    -2461 
   -2413    -2369    -2349    -2343    -2363    -2413    -2450    -2465 
   -2467    -2450    -2439    -2451    -2479    -2516    -2538    -2547 
   -2548    -2508    -2457    -2439    -2428    -2417    -2398    -2363 
   -2349    -2358    -2367    -2394    -2421    -2438    -2446    -2435 
   -2415    -2384    -2328    -2284    -2276    -2289    -2323    -2362 
   -2397    -2443    -2482    -2505    -2519    -2520    -2524    -2531 
   -2506    -2457    -2400    -2331    -2272    -2246    -2242    -2259 
   -2297    -2349    -2405    -2432    -2431    -2446    -2473    -2501 
   -2543    -2579    -2610    -2633    -2621    -2585    -2533    -2462 
   -2396    -2349    -2320    -2317    -2326    -2322    -2326    -2357 
   -2397    -2432    -2478    -2546    -2604    -2628    -2627    -2600 
   -2573    -2571    -2566    -2539    -2501    -2467    -2443    -2417 
   -2394    -2396    -2420    -2455    -2474    -2466    -2454    -2450 
   -2450    -2452    -2458    -2470    -2486    -2470    -2412    -2351 
   -2301    -2269    -2273    -2300    -2331    -2344    -2330    -2301 
   -2266    -2246    -2274    -2340    -2424    -2511    -2567    -2593 
   -2589    -2551    -2536    -2548    -2543    -2520    -2467    -2413 
   -2397    -2358    -2292    -2265    -2265    -2290    -2349    -2398 
   -2457    -2506    -2517    -2519    -2520    -2515    -2516    -2496 
   -2455    -2416    -2349    -2273    -2235    -2219    -2227    -2270 
   -2342    -2440    -2523    -2560    -2586    -2608    -2619    -2625 
   -2613    -2592    -2551    -2475    -2405    -2355    -2317    -2296 
   -2280    -2277    -2305    -2332    -2347    -2367    -2394    -2431 
   -2450    -2458    -2485    -2490    -2461    -2428    -2389    -2366 
   -2365    -2350    -2351    -2369    -2359    -2351    -2369    -2390 
   -2403    -2404    -2412    -2444    -2493    -2535    -2552    -2548 
   -2529    -2501    -2485    -2486    -2471    -2455    -2469    -2504 
   -2539    -2556    -2558    -2548    -2527    -2481    -2431    -2397 
   -2390    -2400    -2423    -2470    -2531    -2583    -2609    -2574 
   -2482    -2390    -2316    -2259    -2246    -2276    -2327    -2382 
   -2419    -2442    -2474    -2500    -2504    -2504    -2511    -2521 
   -2512    -2459    -2416    -2419    -2427    -2413    -2392    -2374 
   -2355    -2312    -2274    -2280    -2300    -2320    -2349    -2370 
   -2397    -2428    -2435    -2430    -2419    -2394    -2381    -2393 
   -2415    -2435    -2455    -2475    -2489    -2490    -2477    -2450 
   -2425    -2407    -2392    -2385    -2388    -2403    -2419    -2430 
   -2446    -2469    -2479    -2471    -2448    -2435    -2450    -2482 
   -2525    -2583    -2629    -2639    -2602    -2538    -2474    -2424 
   -2393    -2388    -2400    -2434    -2473    -2481    -2463    -2444 
   -2423    -2394    -2381    -2390    -2396    -2382    -2367    -2376 
   -2393    -2390    -2370    -2357    -2355    -2355    -2346    -2330 
   -2317    -2315    -2331    -2373    -2439    -2508    -2548    -2562 
   -2562    -2531    -2478    -2432    -2397    -2374    -2354    -2331 
   -2316    -2297    -2270    -2262    -2284    -2331    -2411    -2502 
   -2573    -2629    -2691    -2745    -2776    -2778    -2745    -2687 
   -2619    -2539    -2451    -2363    -2292    -2262    -2266    -2292 
   -2332    -2366    -2389    -2409    -2420    -2424    -2419    -2398 
   -2363    -2316    -2284    -2293    -2311    -2311    -2331    -2381 
   -2428    -2451    -2446    -2450    -2467    -2482    -2505    -2535 
   -2563    -2578    -2539    -2469    -2416    -2381    -2374    -2385 
   -2405    -2467    -2540    -2583    -2592    -2551    -2496    -2461 
   -2415    -2378    -2373    -2363    -2349    -2338    -2322    -2316 
   -2315    -2309    -2326    -2365    -2423    -2484    -2509    -2512 
   -2525    -2535    -2519    -2477    -2448    -2459    -2475    -2481 
   -2493    -2506    -2512    -2516    -2516    -2517    -2502    -2455 
   -2401    -2353    -2301    -2258    -2235    -2238    -2257    -2278 
   -2313    -2353    -2373    -2396    -2438    -2469    -2475    -2477 
   -2497    -2521    -2500    -2434    -2371    -2322    -2270    -2214 
   -2164    -2166    -2228    -2300    -2369    -2434    -2485    -2517 
   -2527    -2525    -2525    -2508    -2475    -2451    -2436    -2435 
   -2436    -2443    -2477    -2519    -2544    -2569    -2583    -2579 
   -2566    -2550    -2548    -2559    -2559    -2546    -2509    -2452 
   -2407    -2362    -2317    -2304    -2320    -2346    -2376    -2412 
   -2463    -2509    -2521    -2535    -2558    -2563    -2570    -2574 
   -2559    -2547    -2535    -2516    -2498    -2452    -2401    -2377 
   -2358    -2332    -2305    -2297    -2324    -2335    -2323    -2349 
   -2409    -2469    -2508    -2539    -2573    -2581    -2563    -2544 
   -2500    -2436    -2385    -2344    -2322    -2307    -2290    -2304 
   -2335    -2355    -2373    -2382    -2385    -2392    -2382    -2365 
   -2362    -2361    -2355    -2355    -2344    -2332    -2334    -2339 
   -2347    -2357    -2369    -2393    -2411    -2420    -2434    -2442 
   -2443    -2446    -2446    -2466    -2500    -2516    -2533    -2536 
   -2501    -2457    -2412    -2371    -2347    -2327    -2324    -2362 
   -2409    -2451    -2492    -2528    -2562    -2583    -2585    -2585 
   -2585    -2567    -2542    -2529    -2525    -2498    -2435    -2358 
   -2300    -2257    -2218    -2215    -2255    -2305    -2358    -2425 
   -2511    -2606    -2683    -2731    -2764    -2775    -2744    -2691 
   -2624    -2536    -2438    -2338    -2263    -2220    -2185    -2168 
   -2191    -2236    -2281    -2312    -2340    -2390    -2448    -2498 
   -2546    -2582    -2600    -2598    -2575    -2535    -2493    -2463 
   -2434    -2401    -2386    -2392    -2408    -2436    -2458    -2448 
   -2428    -2421    -2415    -2405    -2401    -2394    -2388    -2370 
   -2324    -2280    -2251    -2232    -2228    -2238    -2251    -2273 
   -2295    -2319    -2349    -2385    -2421    -2452    -2492    -2529 
   -2533    -2506    -2479    -2469    -2475    -2466    -2446    -2451 
   -2467    -2473    -2485    -2488    -2489    -2506    -2511    -2504 
   -2502    -2502    -2517    -2532    -2532    -2543    -2552    -2555 
   -2563    -2552    -2529    -2524    -2498    -2446    -2394    -2342 
   -2300    -2270    -2238    -2220    -2215    -2228    -2274    -2324 
   -2374    -2427    -2462    -2490    -2538    -2597    -2652    -2670 
   -2656    -2637    -2586    -2509    -2440    -2365    -2293    -2250 
   -2227    -2242    -2295    -2344    -2390    -2436    -2475    -2502 
   -2512    -2505    -2496    -2493    -2498    -2506    -2489    -2442 
   -2398    -2361    -2327    -2303    -2286    -2296    -2340    -2394 
   -2451    -2511    -2559    -2596    -2619    -2629    -2627    -2610 
   -2597    -2578    -2552    -2544    -2546    -2550    -2563    -2559 
   -2532    -2494    -2446    -2419    -2405    -2385    -2390    -2408 
   -2400    -2388    -2377    -2363    -2359    -2349    -2343    -2370 
   -2393    -2404    -2427    -2439    -2447    -2477    -2502    -2533 
   -2565    -2542    -2484    -2400    -2269    -2138    -2037    -1938 
   -1865    -1836    -1841    -1884    -1942    -2025    -2165    -2324 
   -2484    -2648    -2786    -2914    -3048    -3150    -3223    -3252 
   -3203    -3113    -2979    -2798    -2608    -2419    -2249    -2104 
   -1972    -1872    -1800    -1738    -1694    -1641    -1572    -1512 
   -1452    -1410    -1414    -1451    -1518    -1632    -1800    -2020 
   -2263    -2528    -2810    -3071    -3294    -3458    -3558    -3611 
   -3607    -3530    -3385    -3191    -2970    -2727    -2463    -2218 
   -2015    -1852    -1745    -1694    -1699    -1764    -1856    -1973 
   -2122    -2249    -2363    -2478    -2563    -2628    -2664    -2663 
   -2652    -2587    -2466    -2370    -2301    -2255    -2262    -2317 
   -2434    -2614    -2821    -3053    -3273    -3434    -3558    -3634 
   -3627    -3553    -3411    -3219    -3019    -2783    -2524    -2274 
   -2008    -1742    -1498    -1281    -1140    -1090    -1127    -1273 
   -1513    -1825    -2209    -2625    -3040    -3437    -3778    -4064 
   -4274    -4375    -4380    -4286    -4087    -3823    -3519    -3206 
   -2914    -2656    -2446    -2276    -2116    -1954    -1794    -1644 
   -1528    -1471    -1466    -1497    -1556    -1615    -1661    -1680 
   -1652    -1597    -1539    -1483    -1432    -1402    -1408    -1456 
   -1544    -1671    -1840    -2050    -2296    -2550    -2789    -2994 
   -3136    -3207    -3202    -3113    -2956    -2758    -2548    -2336 
   -2116    -1911    -1742    -1605    -1522    -1494    -1516    -1622 
   -1802    -2031    -2303    -2558    -2779    -2980    -3107    -3149 
   -3111    -2980    -2816    -2641    -2436    -2250    -2103    -1991 
   -1953    -1965    -2012    -2097    -2176    -2261    -2367    -2451 
   -2536    -2646    -2758    -2897    -3042    -3156    -3268    -3357 
   -3399    -3415    -3358    -3226    -3064    -2878    -2690    -2535 
   -2407    -2326    -2296    -2301    -2349    -2408    -2467    -2555 
   -2667    -2783    -2898    -2997    -3088    -3177    -3225    -3208 
   -3142    -3036    -2891    -2698    -2463    -2216    -1979    -1772 
   -1626    -1552    -1539    -1583    -1695    -1868    -2077    -2303 
   -2508    -2662    -2783    -2890    -2951    -2963    -2955    -2928 
   -2868    -2772    -2646    -2484    -2284    -2065    -1848    -1634 
   -1412    -1193    -1017     -901     -847     -865     -963    -1154 
   -1435    -1792    -2199    -2627    -3051    -3430    -3727    -3932 
   -4036    -4017    -3874    -3603    -3222    -2783    -2323    -1861 
   -1491    -1263    -1140    -1128    -1235    -1421    -1657    -1903 
   -2123    -2323    -2488    -2612    -2714    -2795    -2856    -2884 
   -2870    -2821    -2737    -2624    -2529    -2484    -2500    -2586 
   -2714    -2871    -3028    -3146    -3222    -3254    -3231    -3164 
   -3049    -2875    -2662    -2430    -2196    -2012    -1906    -1879 
   -1933    -2034    -2141    -2228    -2272    -2266    -2216    -2130 
   -2061    -2041    -2047    -2084    -2165    -2270    -2389    -2506 
   -2602    -2693    -2783    -2859    -2922    -2967    -2988    -2990 
   -2937    -2806    -2636    -2436    -2204    -1969    -1750    -1579 
   -1483    -1462    -1529    -1707    -1961    -2253    -2565    -2871 
   -3157    -3380    -3496    -3527    -3483    -3339    -3132    -2907 
   -2686    -2496    -2342    -2228    -2178    -2164    -2149    -2141 
   -2139    -2155    -2177    -2168    -2145    -2131    -2118    -2123 
   -2157    -2211    -2309    -2436    -2567    -2706    -2848    -2978 
   -3090    -3164    -3173    -3109    -2971    -2768    -2524    -2266 
   -2010    -1765    -1568    -1436    -1356    -1312    -1290    -1302 
   -1368    -1474    -1603    -1759    -1933    -2120    -2307    -2482 
   -2658    -2808    -2916    -3006    -3078    -3130    -3165    -3169 
   -3165    -3167    -3160    -3153    -3138    -3087    -2984    -2809 
   -2559    -2258    -1944    -1660    -1428    -1266    -1204    -1260 
   -1424    -1659    -1949    -2282    -2637    -2994    -3330    -3619 
   -3832    -3947    -3962    -3875    -3700    -3466    -3202    -2933 
   -2668    -2430    -2227    -2072    -1984    -1954    -1965    -2026 
   -2118    -2208    -2285    -2334    -2353    -2361    -2363    -2358 
   -2339    -2305    -2269    -2245    -2243    -2268    -2307    -2369 
   -2446    -2502    -2548    -2606    -2663    -2710    -2747    -2767 
   -2775    -2745    -2678    -2585    -2459    -2326    -2208    -2110 
   -2049    -2019    -2006    -2020    -2042    -2041    -2016    -1953 
   -1872    -1807    -1767    -1773    -1829    -1917    -2047    -2205 
   -2381    -2587    -2786    -2945    -3073    -3149    -3160    -3122 
   -3041    -2945    -2837    -2689    -2529    -2390    -2257    -2131 
   -2014    -1902    -1831    -1798    -1783    -1806    -1864    -1946 
   -2050    -2154    -2258    -2367    -2471    -2554    -2601    -2623 
   -2632    -2629    -2639    -2681    -2759    -2859    -2949    -3015 
   -3055    -3028    -2928    -2793    -2654    -2528    -2421    -2332 
   -2273    -2247    -2243    -2258    -2285    -2339    -2435    -2535 
   -2605    -2652    -2673    -2662    -2628    -2570    -2508    -2452 
   -2378    -2284    -2203    -2143    -2118    -2128    -2161    -2220 
   -2307    -2396    -2482    -2569    -2632    -2660    -2656    -2617 
   -2547    -2444    -2308    -2169    -2062    -1999    -1995    -2035 
   -2107    -2223    -2371    -2515    -2639    -2708    -2710    -2677 
   -2601    -2484    -2361    -2253    -2181    -2149    -2118    -2099 
   -2111    -2128    -2150    -2182    -2228    -2286    -2338    -2381 
   -2413    -2419    -2404    -2382    -2369    -2369    -2361    -2342 
   -2326    -2307    -2300    -2305    -2309    -2336    -2374    -2404 
   -2448    -2494    -2528    -2565    -2596    -2619    -2647    -2670 
   -2695    -2740    -2801    -2893    -2998    -3067    -3100    -3111 
   -3096    -3065    -3014    -2941    -2870    -2793    -2705    -2616 
   -2527    -2440    -2366    -2317    -2295    -2286    -2286    -2281 
   -2266    -2249    -2234    -2222    -2207    -2196    -2205    -2228 
   -2255    -2276    -2289    -2304    -2339    -2400    -2471    -2525 
   -2566    -2605    -2633    -2620    -2569    -2513    -2459    -2384 
   -2288    -2197    -2135    -2104    -2104    -2149    -2227    -2319 
   -2401    -2446    -2446    -2412    -2346    -2268    -2176    -2065 
   -1971    -1914    -1885    -1894    -1948    -2062    -2232    -2417 
   -2602    -2782    -2918    -2999    -3019    -2964    -2855    -2710 
   -2525    -2328    -2135    -1939    -1772    -1660    -1603    -1605 
   -1659    -1755    -1906    -2099    -2303    -2517    -2733    -2924 
   -3063    -3132    -3150    -3134    -3056    -2921    -2774    -2651 
   -2565    -2512    -2484    -2497    -2555    -2623    -2667    -2695 
