Origin Time       2025/03/28 03:50:00
Lat.              35.403
Long.             140.360
Depth. (km)       54
Mag.              4.4
Station Code      SIT003
Station Lat.      36.0721
Station Long.     139.6969
Station Height(m) 8
Record Time       2025/03/28 03:51:10
Sampling Freq(Hz) 100Hz
Duration Time(s)  60
Dir.              E-W
Scale Factor      7845(gal)/8223790
Max. Acc. (gal)   1.668
Last Correction   2025/03/28 03:51:09
Memo.             
[...]
  -14484   -14407   -14322   -14261   -14254   -14318   -14412   -14461 
  -14432   -14388   -14377   -14389   -14399   -14405   -14413   -14436 
  -14482   -14516   -14485   -14404   -14328   -14288   -14305   -14374 
  -14436   -14453   -14426   -14378   -14353   -14380   -14418   -14422 
  -14415   -14430   -14442   -14439   -14432   -14420   -14404   -14401 
  -14399   -14362   -14322   -14328   -14359   -14374   -14378   -14399 
  -14450   -14496   -14480   -14411   -14338   -14310   -14365   -14457 
  -14489   -14463   -14453   -14467   -14458   -14397   -14334   -14327 
  -14365   -14395   -14403   -14411   -14436   -14476   -14476   -14400 
  -14319   -14314   -14368   -14423   -14436   -14422   -14409   -14389 
  -14368   -14389   -14426   -14413   -14389   -14415   -14474   -14496 
  -14442   -14359   -14323   -14339   -14366   -14384   -14419   -14465 
  -14470   -14411   -14328   -14291   -14322   -14400   -14467   -14458 
  -14412   -14416   -14449   -14453   -14458   -14489   -14507   -14466 
  -14395   -14355   -14365   -14395   -14411   -14411   -14404   -14368 
  -14287   -14224   -14239   -14308   -14364   -14376   -14386   -14423 
  -14430   -14382   -14355   -14376   -14416   -14442   -14431   -14403 
  -14403   -14415   -14422   -14442   -14478   -14489   -14430   -14345 
  -14335   -14404   -14473   -14496   -14474   -14407   -14305   -14242 
  -14280   -14389   -14477   -14484   -14420   -14353   -14346   -14386 
  -14431   -14450   -14432   -14378   -14338   -14334   -14365   -14428 
  -14482   -14449   -14334   -14253   -14292   -14400   -14466   -14484 
  -14517   -14582   -14651   -14682   -14663   -14619   -14562   -14500 
  -14435   -14366   -14310   -14264   -14229   -14202   -14149   -14099 
  -14138   -14251   -14341   -14381   -14431   -14497   -14507   -14457 
  -14434   -14467   -14520   -14543   -14523   -14476   -14418   -14343 
  -14278   -14268   -14312   -14396   -14486   -14531   -14507   -14443 
  -14399   -14423   -14494   -14532   -14507   -14470   -14450   -14419 
  -14374   -14337   -14308   -14311   -14349   -14354   -14318   -14315 
  -14384   -14484   -14539   -14512   -14447   -14407   -14427   -14501 
  -14567   -14555   -14470   -14388   -14373   -14423   -14485   -14513 
  -14496   -14436   -14361   -14312   -14318   -14364   -14420   -14454 
  -14436   -14376   -14319   -14311   -14362   -14431   -14455   -14436 
  -14428   -14419   -14362   -14296   -14283   -14318   -14369   -14408 
  -14418   -14415   -14405   -14381   -14343   -14320   -14345   -14405 
  -14446   -14439   -14389   -14339   -14362   -14449   -14505   -14470 
  -14368   -14283   -14274   -14295   -14283   -14253   -14239   -14257 
  -14297   -14359   -14427   -14467   -14474   -14467   -14472   -14492 
  -14503   -14477   -14445   -14432   -14397   -14323   -14272   -14285 
  -14372   -14478   -14508   -14462   -14423   -14408   -14392   -14354 
  -14310   -14318   -14377   -14422   -14419   -14381   -14332   -14314 
  -14347   -14430   -14532   -14588   -14573   -14557   -14578   -14602 
  -14584   -14513   -14447   -14426   -14401   -14351   -14332   -14351 
  -14331   -14242   -14149   -14130   -14192   -14297   -14418   -14527 
  -14607   -14656   -14671   -14635   -14547   -14450   -14416   -14442 
  -14442   -14386   -14354   -14418   -14536   -14589   -14508   -14358 
  -14246   -14210   -14230   -14281   -14338   -14384   -14422   -14446 
  -14458   -14484   -14511   -14492   -14430   -14374   -14354   -14378 
  -14427   -14481   -14521   -14504   -14431   -14380   -14368   -14366 
  -14366   -14369   -14366   -14365   -14368   -14370   -14365   -14357 
  -14359   -14384   -14438   -14490   -14501   -14467   -14408   -14335 
  -14251   -14208   -14253   -14324   -14366   -14388   -14396   -14393 
  -14385   -14365   -14353   -14366   -14397   -14430   -14435   -14401 
  -14372   -14380   -14403   -14419   -14434   -14427   -14392   -14392 
  -14455   -14512   -14504   -14459   -14446   -14480   -14494   -14466 
  -14439   -14427   -14405   -14372   -14343   -14326   -14296   -14249 
  -14211   -14200   -14224   -14297   -14380   -14408   -14380   -14351 
  -14389   -14500   -14582   -14569   -14539   -14575   -14643   -14650 
  -14562   -14455   -14423   -14446   -14443   -14382   -14297   -14249 
  -14266   -14323   -14346   -14300   -14239   -14233   -14276   -14339 
  -14392   -14405   -14403   -14430   -14467   -14477   -14443   -14376 
  -14345   -14365   -14337   -14220   -14119   -14143   -14293   -14443 
  -14504   -14515   -14509   -14480   -14435   -14399   -14392   -14428 
  -14509   -14617   -14675   -14656   -14611   -14570   -14530   -14486 
  -14445   -14409   -14384   -14359   -14361   -14412   -14492   -14540 
  -14528   -14494   -14504   -14542   -14547   -14519   -14496   -14459 
  -14399   -14347   -14335   -14342   -14319   -14253   -14199   -14206 
  -14243   -14276   -14292   -14292   -14296   -14312   -14311   -14293 
  -14305   -14355   -14411   -14446   -14459   -14467   -14493   -14553 
  -14623   -14644   -14607   -14562   -14557   -14598   -14650   -14608 
  -14461   -14339   -14311   -14320   -14285   -14177   -14084   -14095 
  -14156   -14154   -14069   -14029   -14148   -14346   -14463   -14486 
  -14490   -14512   -14512   -14450   -14382   -14391   -14473   -14573 
  -14609   -14554   -14484   -14450   -14420   -14400   -14426   -14488 
  -14548   -14539   -14428   -14277   -14179   -14165   -14197   -14223 
  -14242   -14262   -14265   -14276   -14331   -14408   -14457   -14467 
  -14486   -14524   -14542   -14554   -14580   -14585   -14561   -14520 
  -14451   -14384   -14347   -14335   -14343   -14364   -14376   -14382 
  -14388   -14412   -14455   -14465   -14451   -14481   -14511   -14458 
  -14358   -14311   -14359   -14431   -14442   -14426   -14434   -14440 
  -14426   -14413   -14439   -14504   -14542   -14504   -14434   -14419 
  -14458   -14484   -14462   -14418   -14351   -14272   -14220   -14207 
  -14230   -14276   -14335   -14424   -14511   -14542   -14531   -14516 
  -14493   -14451   -14411   -14404   -14427   -14445   -14440   -14435 
  -14449   -14454   -14409   -14349   -14331   -14359   -14422   -14508 
  -14555   -14513   -14418   -14338   -14308   -14300   -14258   -14183 
  -14143   -14165   -14238   -14368   -14494   -14538   -14524   -14489 
  -14431   -14374   -14327   -14270   -14218   -14206   -14266   -14384 
  -14470   -14497   -14515   -14546   -14581   -14604   -14597   -14598 
  -14648   -14673   -14596   -14480   -14416   -14391   -14332   -14222 
  -14114   -14033   -13963   -13927   -13963   -14042   -14143   -14250 
  -14355   -14454   -14523   -14567   -14611   -14623   -14589   -14550 
  -14520   -14480   -14462   -14493   -14548   -14593   -14605   -14588 
  -14567   -14547   -14513   -14481   -14461   -14450   -14431   -14380 
  -14307   -14247   -14199   -14148   -14107   -14108   -14177   -14270 
  -14305   -14273   -14250   -14293   -14380   -14449   -14477   -14496 
  -14534   -14592   -14644   -14667   -14667   -14658   -14631   -14601 
  -14584   -14548   -14477   -14436   -14476   -14538   -14553   -14512 
  -14422   -14323   -14272   -14270   -14277   -14268   -14261   -14293 
  -14368   -14435   -14453   -14431   -14405   -14399   -14411   -14403 
  -14359   -14315   -14266   -14210   -14181   -14197   -14223   -14247 
  -14287   -14326   -14337   -14339   -14353   -14370   -14401   -14458 
  -14527   -14588   -14621   -14636   -14652   -14667   -14674   -14670 
  -14634   -14555   -14459   -14382   -14358   -14384   -14386   -14332 
  -14260   -14212   -14200   -14206   -14200   -14185   -14181   -14206 
  -14265   -14308   -14293   -14293   -14351   -14400   -14407   -14418 
  -14458   -14492   -14473   -14423   -14424   -14474   -14489   -14450 
  -14416   -14432   -14480   -14508   -14478   -14412   -14378   -14408 
  -14446   -14457   -14453   -14447   -14453   -14445   -14409   -14397 
  -14399   -14354   -14307   -14322   -14382   -14439   -14453   -14446 
  -14473   -14523   -14547   -14519   -14445   -14386   -14389   -14409 
  -14391   -14347   -14310   -14288   -14304   -14357   -14381   -14335 
  -14292   -14343   -14473   -14559   -14528   -14463   -14486   -14567 
  -14593   -14515   -14393   -14310   -14276   -14262   -14253   -14239 
  -14247   -14300   -14366   -14409   -14450   -14508   -14573   -14624 
  -14656   -14682   -14713   -14717   -14671   -14623   -14597   -14534 
  -14381   -14212   -14129   -14118   -14108   -14103   -14145   -14237 
  -14314   -14332   -14339   -14377   -14419   -14440   -14440   -14422 
  -14378   -14307   -14231   -14197   -14199   -14207   -14226   -14261 
  -14311   -14386   -14472   -14524   -14526   -14504   -14486   -14470 
  -14453   -14431   -14403   -14386   -14404   -14445   -14467   -14446 
  -14415   -14416   -14442   -14473   -14505   -14526   -14534   -14520 
  -14478   -14438   -14404   -14350   -14293   -14257   -14220   -14195 
  -14222   -14289   -14354   -14411   -14492   -14589   -14631   -14600 
  -14578   -14592   -14569   -14501   -14470   -14486   -14492   -14476 
  -14455   -14438   -14426   -14407   -14388   -14399   -14445   -14504 
  -14550   -14539   -14466   -14376   -14323   -14320   -14323   -14311 
  -14307   -14304   -14276   -14241   -14241   -14270   -14307   -14343 
  -14354   -14338   -14322   -14311   -14285   -14239   -14184   -14165 
  -14210   -14276   -14335   -14408   -14494   -14553   -14573   -14593 
  -14643   -14682   -14643   -14540   -14454   -14412   -14382   -14349 
  -14305   -14265   -14253   -14281   -14332   -14359   -14334   -14316 
  -14366   -14466   -14543   -14534   -14457   -14401   -14382   -14350 
  -14311   -14280   -14247   -14239   -14304   -14416   -14504   -14538 
  -14570   -14636   -14683   -14670   -14643   -14648   -14670   -14674 
  -14643   -14593   -14536   -14449   -14349   -14280   -14222   -14154 
  -14100   -14081   -14100   -14152   -14214   -14289   -14358   -14386 
  -14420   -14508   -14597   -14620   -14577   -14509   -14467   -14480 
  -14519   -14534   -14535   -14571   -14651   -14698   -14656   -14559 
  -14470   -14419   -14389   -14322   -14203   -14119   -14133   -14204 
  -14247   -14214   -14158   -14148   -14160   -14175   -14203   -14226 
  -14237   -14250   -14268   -14297   -14353   -14397   -14415   -14449 
  -14511   -14555   -14575   -14605   -14635   -14615   -14542   -14489 
  -14493   -14503   -14463   -14408   -14407   -14472   -14527   -14501 
  -14408   -14318   -14278   -14272   -14273   -14274   -14276   -14299 
  -14376   -14458   -14453   -14377   -14322   -14328   -14370   -14366 
  -14284   -14214   -14253   -14388   -14523   -14562   -14527   -14515 
  -14544   -14575   -14585   -14558   -14512   -14489   -14489   -14473 
  -14424   -14388   -14389   -14407   -14419   -14411   -14385   -14362 
  -14342   -14319   -14316   -14335   -14372   -14418   -14435   -14432 
  -14432   -14419   -14381   -14334   -14314   -14357   -14432   -14489 
  -14548   -14631   -14719   -14783   -14770   -14683   -14611   -14577 
  -14535   -14453   -14332   -14214   -14150   -14152   -14173   -14173 
  -14172   -14196   -14238   -14285   -14338   -14391   -14463   -14551 
  -14617   -14648   -14640   -14605   -14570   -14527   -14481   -14474 
  -14485   -14473   -14432   -14395   -14407   -14465   -14516   -14546 
  -14562   -14567   -14571   -14559   -14538   -14530   -14517   -14509 
  -14558   -14635   -14700   -14774   -14847   -14887   -14916   -14940 
  -14943   -14931   -14937   -14993   -15041   -15013   -14940   -14862 
  -14748   -14596   -14430   -14273   -14143   -14019   -13902   -13840 
  -13829   -13838   -13848   -13813   -13733   -13656   -13598   -13572 
  -13586   -13605   -13626   -13655   -13675   -13678   -13668   -13639 
  -13556   -13424   -13293   -13208   -13182   -13197   -13223   -13267 
  -13356   -13486   -13645   -13844   -14116   -14445   -14756   -15002 
  -15165   -15245   -15237   -15147   -14982   -14758   -14493   -14220 
  -13961   -13737   -13582   -13475   -13398   -13389   -13458   -13590 
  -13797   -14069   -14368   -14683   -15002   -15294   -15518   -15645 
  -15712   -15757   -15750   -15673   -15535   -15345   -15133   -14945 
  -14821   -14743   -14667   -14621   -14659   -14755   -14859   -14931 
  -14959   -14960   -14943   -14929   -14941   -14948   -14925   -14910 
  -14937   -14989   -14999   -14926   -14813   -14710   -14634   -14580 
  -14538   -14504   -14490   -14500   -14536   -14597   -14667   -14774 
  -14936   -15105   -15241   -15368   -15476   -15539   -15558   -15523 
  -15433   -15294   -15086   -14828   -14581   -14347   -14094   -13821 
  -13567   -13366   -13217   -13104   -13046   -13073   -13197   -13393 
  -13591   -13734   -13821   -13865   -13882   -13864   -13814   -13775 
  -13763   -13752   -13755   -13780   -13791   -13788   -13810   -13836 
  -13836   -13821   -13814   -13853   -13960   -14092   -14207   -14297 
  -14361   -14409   -14463   -14519   -14577   -14627   -14639   -14609 
  -14535   -14391   -14211   -14052   -13925   -13845   -13790   -13744 
  -13737   -13753   -13747   -13720   -13710   -13765   -13907   -14115 
  -14331   -14509   -14682   -14891   -15082   -15198   -15288   -15387 
  -15483   -15556   -15585   -15577   -15537   -15450   -15311   -15121 
  -14904   -14720   -14604   -14546   -14538   -14554   -14535   -14423 
  -14222   -13996   -13788   -13605   -13462   -13371   -13336   -13370 
  -13502   -13716   -13932   -14116   -14316   -14571   -14878   -15178 
  -15430   -15669   -15908   -16089   -16154   -16124   -16047   -15932 
  -15757   -15520   -15259   -14997   -14746   -14516   -14297   -14098 
  -13946   -13840   -13771   -13724   -13674   -13632   -13629   -13666 
  -13718   -13778   -13860   -13979   -14102   -14193   -14256   -14305 
  -14350   -14385   -14393   -14366   -14310   -14242   -14193   -14166 
  -14150   -14161   -14219   -14315   -14438   -14573   -14696   -14798 
  -14882   -14928   -14914   -14843   -14729   -14586   -14393   -14129 
  -13814   -13539   -13366   -13270   -13185   -13113   -13123   -13228 
  -13367   -13506   -13686   -13936   -14226   -14500   -14710   -14852 
  -14948   -15033   -15120   -15168   -15151   -15107   -15072   -15021 
  -14914   -14759   -14597   -14450   -14319   -14219   -14165   -14172 
  -14239   -14332   -14416   -14490   -14557   -14586   -14562   -14496 
  -14432   -14409   -14428   -14463   -14493   -14503   -14489   -14440 
  -14343   -14212   -14081   -13972   -13917   -13953   -14072   -14229 
  -14409   -14616   -14829   -15016   -15153   -15241   -15290   -15300 
  -15257   -15120   -14877   -14581   -14316   -14130   -14011   -13945 
  -13944   -13992   -14030   -14035   -14058   -14129   -14207   -14292 
  -14446   -14663   -14843   -14949   -15044   -15138   -15152   -15032 
  -14820   -14600   -14403   -14218   -14069   -13983   -13950   -13957 
  -13988   -14031   -14079   -14091   -14073   -14080   -14111   -14112 
  -14095   -14112   -14191   -14320   -14478   -14644   -14783   -14848 
  -14818   -14729   -14624   -14512   -14399   -14296   -14191   -14061 
  -13918   -13797   -13713   -13656   -13626   -13643   -13699   -13757 
  -13814   -13886   -13963   -14035   -14125   -14247   -14389   -14530 
  -14643   -14719   -14775   -14817   -14820   -14793   -14750   -14686 
  -14635   -14636   -14666   -14677   -14643   -14574   -14513   -14454 
  -14347   -14215   -14107   -14041   -14031   -14088   -14193   -14338 
  -14509   -14671   -14796   -14875   -14929   -14986   -15051   -15093 
  -15105   -15114   -15117   -15086   -15001   -14870   -14736   -14634 
  -14574   -14548   -14527   -14476   -14397   -14330   -14311   -14335 
  -14373   -14401   -14423   -14450   -14470   -14478   -14490   -14508 
  -14508   -14485   -14445   -14399   -14377   -14393   -14416   -14416 
  -14405   -14405   -14422   -14446   -14466   -14463   -14418   -14349 
  -14314   -14297   -14251   -14206   -14170   -14122   -14073   -14030 
  -13994   -13986   -13999   -14025   -14080   -14149   -14207   -14270 
  -14351   -14438   -14505   -14532   -14526   -14499   -14449   -14388 
  -14324   -14241   -14149   -14080   -14046   -14054   -14106   -14145 
  -14137   -14145   -14199   -14257   -14312   -14359   -14377   -14374 
  -14359   -14342   -14357   -14397   -14416   -14415   -14424   -14467 
  -14531   -14582   -14617   -14658   -14692   -14694   -14671   -14624 
  -14542   -14438   -14353   -14319   -14335   -14384   -14446   -14521 
  -14624   -14736   -14832   -14889   -14906   -14912   -14908   -14862 
  -14774   -14659   -14536   -14430   -14322   -14169   -14026   -13954 
  -13942   -13977   -14061   -14168   -14293   -14415   -14492   -14527 
  -14536   -14508   -14440   -14357   -14247   -14103   -13959   -13878 
  -13884   -13934   -13983   -14044   -14154   -14314   -14465   -14543 
  -14559   -14563   -14581   -14609   -14631   -14631   -14638   -14656 
  -14654   -14625   -14570   -14482   -14385   -14288   -14177   -14075 
  -14003   -13940   -13863   -13779   -13732   -13765   -13851   -13919 
  -13991   -14095   -14208   -14335   -14481   -14620   -14735   -14808 
  -14843   -14860   -14847   -14779   -14666   -14527   -14373   -14218 
  -14095   -14038   -14048   -14099   -14192   -14338   -14511   -14675 
  -14828   -14952   -15034   -15078   -15097   -15095   -15067   -15006 
  -14941   -14894   -14828   -14739   -14669   -14625   -14597   -14607 
  -14642   -14665   -14643   -14567   -14477   -14405   -14324   -14206 
  -14067   -13948   -13879   -13844   -13809   -13783   -13790   -13844 
  -13941   -14041   -14104   -14164   -14272   -14422   -14562   -14647 
  -14670   -14661   -14648   -14602   -14484   -14297   -14119   -13991 
  -13882   -13792   -13787   -13884   -14031   -14176   -14327   -14496 
  -14629   -14719   -14828   -14956   -15037   -15041   -15014   -15005 
  -14990   -14933   -14848   -14770   -14702   -14631   -14558   -14482 
  -14386   -14287   -14237   -14246   -14272   -14305   -14382   -14494 
  -14574   -14582   -14539   -14481   -14427   -14366   -14297   -14245 
  -14215   -14210   -14233   -14261   -14276   -14276   -14276   -14278 
  -14276   -14266   -14277   -14311   -14327   -14304   -14273   -14264 
  -14281   -14303   -14307   -14305   -14324   -14359   -14397   -14427 
  -14430   -14396   -14339   -14301   -14296   -14289   -14272   -14265 
  -14277   -14299   -14320   -14347   -14392   -14461   -14558   -14647 
  -14697   -14755   -14850   -14913   -14901   -14851   -14798   -14742 
  -14671   -14561   -14420   -14280   -14149   -14034   -13948   -13891 
  -13898   -13972   -14065   -14166   -14289   -14397   -14469   -14520 
  -14561   -14589   -14594   -14584   -14593   -14608   -14592   -14567 
  -14567   -14581   -14590   -14584   -14574   -14592   -14624   -14634 
  -14593   -14515   -14424   -14331   -14241   -14181   -14158   -14150 
  -14156   -14169   -14184   -14229   -14318   -14408   -14457   -14481 
  -14517   -14548   -14535   -14496   -14470   -14445   -14423   -14436 
  -14470   -14488   -14484   -14499   -14561   -14655   -14735   -14764 
  -14756   -14740   -14712   -14652   -14559   -14443   -14322   -14202 
  -14068   -13921   -13798   -13729   -13699   -13687   -13676   -13675 
  -13725   -13833   -13942   -14015   -14091   -14208   -14341   -14466 
  -14596   -14723   -14818   -14885   -14924   -14902   -14796   -14655 
