Origin Time       2025/03/28 03:50:00
Lat.              35.403
Long.             140.360
Depth. (km)       54
Mag.              4.4
Station Code      SIT010
Station Lat.      35.9071
Station Long.     139.6478
Station Height(m) 6
Record Time       2025/03/28 03:51:08
Sampling Freq(Hz) 100Hz
Duration Time(s)  60
Dir.              U-D
Scale Factor      7845(gal)/8223790
Max. Acc. (gal)   0.934
Last Correction   2025/03/28 03:51:08
Memo.             
     630      630      622      615      623      621      612      611 
     608      612      614      618      633      633      619      607 
     607      616      621      618      615      612      612      621 
     630      623      614      615      619      621      619      625 
     630      621      614      619      619      615      616      615 
     611      610      612      621      626      619      608      604 
     611      621      623      621      618      614      610      614 
     618      615      618      621      619      626      627      621 
     616      616      622      623      614      612      619      616 
     612      626      633      626      618      607      604      616 
     621      616      621      615      604      614      623      618 
     616      616      619      625      626      626      626      621 
     616      618      619      622      623      621      615      615 
     610      608      622      629      618      606      610      619 
     623      621      618      612      608      610      615      622 
     627      625      619      622      625      619      612      611 
     612      615      618      619      623      626      623      626 
     629      625      623      623      622      626      629      625 
     621      618      614      611      612      611      608      608 
     610      618      619      611      610      611      606      608 
     630      639      627      618      621      627      627      627 
     629      621      619      623      622      627      625      610 
     606      612      614      616      626      623      615      618 
     625      623      615      612      614      615      619      623 
     625      616      611      616      618      611      619      625 
     621      625      623      622      626      621      614      612 
     612      619      625      619      619      630      637      642 
     661      689      716      742      777      820      853      861 
     858      873      886      884      878      845      737      568 
     375      218      152      140      110        1     -193     -361 
    -333      -45      332      544      506      406      525      905 
    1285     1385     1175      899      837     1042     1296     1318 
    1028      653      499      612      778      834      753      579 
     441      454      583      666      588      396      292      413 
     664      822      770      554      333      314      542      803 
     865      726      560      488      498      531      538      510 
     484      456      400      384      479      657      774      733 
     625      607      716      888     1012     1015      927      831 
     780      765      738      666      545      400      274      217 
     280      432      531      496      407      425      579      739 
     769      658      517      473      567      670      637      514 
     477      598      812     1015     1107     1039      868      746 
     805      961      958      716      445      334      342      363 
     352      321      318      360      417      457      467      464 
     513      668      893     1035      969      791      710      765 
     799      703      564      525      603      688      669      503 
     275      168      278      514      706      751      677      625 
     699      859      978      977      888      774      662      581 
     571      625      672      641      537      438      382      349 
     352      413      480      457      360      299      315      392 
     534      719      849      874      905     1042     1178     1142 
     958      778      685      645      587      486      355      226 
     179      257      391      487      521      542      641      843 
    1034     1065      945      816      762      761      784      787 
     679      464      267      203      260      307      275      275 
     414      615      718      681      599      554      587      707 
     861      945      908      800      727      745      778      703 
     541      464      585      815      913      750      448      232 
     225      369      495      502      434      407      499      638 
     666      545      414      465      739     1063     1189     1003 
     645      398      418      622      834      904      816      691 
     627      622      602      518      437      464      596      711 
     680      531      450      550      743      854      808      656 
     515      476      499      491      440      417      506      724 
     930      946      791      635      587      595      561      492 
     452      463      511      556      558      534      513      518 
     592      715      814      832      789      735      712      729 
     731      677      616      629      737      878      946      895 
     730      475      232      114      144      274      413      468 
     469      522      630      692      670      649      714      824 
     862      800      702      600      518      479      476      477 
     488      529      610      726      792      730      622      576 
     583      589      572      554      584      643      683      695 
     726      814      931      981      911      810      753      715 
     685      615      463      325      292      322      352      371 
     387      436      573      749      830      787      711      685 
     696      700      657      546      425      394      467      572 
     650      649      595      584      646      700      679      583 
     476      438      533      718      849      837      733      657 
     665      720      762      757      697      626      596      618 
     643      607      510      442      453      486      500      486 
     441      409      454      583      700      718      660      629 
     660      730      834      951      996      901      749      687 
     738      770      685      515      321      170      153      263 
     392      442      378      297      332      502      708      842 
     924     1016     1069     1026      920      839      805      726 
     558      421      465      648      731      594      372      255 
     292      403      477      495      498      521      616      776 
     854      757      596      550      661      810      849      756 
     673      724      830      834      730      622      569      549 
     523      500      514      546      575      631      734      814 
     803      730      669      612      487      332      276      345 
     450      534      635      766      832      795      703      619 
     581      584      604      615      576      471      369      399 
     585      784      861      832      757      649      529      465 
     487      526      544      557      568      572      569      589 
     687      796      795      687      569      541      630      734 
     734      633      513      475      552      669      700      621 
     542      577      727      874      888      749      560      448 
     468      569      661      673      595      492      430      440 
     499      545      541      525      564      665      749      751 
     677      589      575      660      778      859      930     1020 
    1051      931      700      487      379      383      425      387 
     251      156      220      352      461      587      754      895 
     928      878      804      745      724      714      665      588 
     523      490      500      510      450      376      384      464 
     562      652      699      681      672      715      722      662 
     654      726      774      793      869      994     1057      957 
     699      446      355      399      463      444      301       94 
      -4      141      449      670      670      560      579      810 
    1062     1098      912      697      606      650      773      874 
     884      826      765      720      676      604      490      384 
     363      426      508      531      495      469      457      418 
     387      426      542      652      658      579      550      637 
     745      803      805      723      594      514      545      691 
     866      907      768      603      553      614      696      718 
     634      477      383      433      576      700      716      610 
     460      414      508      604      612      600      643      722 
     749      702      627      552      499      502      577      711 
     807      796      777      808      810      727      631      580 
     553      531      498      460      472      529      558      575 
     638      722      765      787      811      801      753      691 
     627      581      560      519      442      386      359      299 
     267      351      467      535      594      692      862     1038 
    1070      972      891      832      722      581      483      436 
     390      351      382      440      441      417      475      631 
     772      776      657      560      576      669      785      857 
     805      718      742      854      919      878      784      731 
     778      835      773      619      476      386      319      259 
     205      167      174      267      425      556      591      584 
     603      625      653      696      712      706      727      770 
     788      800      849      868      811      758      741      714 
     637      517      419      415      465      487      523      611 
     677      702      726      745      731      681      629      603 
     588      544      511      565      643      646      592      558 
     575      621      652      625      560      545      580      572 
     533      531      527      504      548      672      795      831 
     772      711      714      751      754      681      600      583 
     565      490      418      383      349      364      491      687 
     828      858      849      853      841      772      645      548 
     554      600      572      490      471      499      487      465 
     484      525      553      538      491      515      629      704 
     683      662      699      715      685      681      722      747 
     751      789      866      892      816      693      598      540 
     481      429      413      415      387      337      325      383 
     504      634      711      746      753      731      719      742 
     777      777      741      719      741      768      739      654 
     554      480      459      453      411      352      318      359 
     486      615      676      703      751      778      750      734 
     754      738      664      631      680      746      781      757 
     648      484      356      341      421      499      529      519 
     503      523      585      656      731      800      828      849 
     903      920      853      750      658      561      459      405 
     442      519      564      553      484      414      395      409 
     434      476      529      594      660      688      680      707 
     805      892      900      857      808      787      788      774 
     716      600      465      398      407      406      342      261 
     229      298      486      724      892      911      841      796 
     805      820      791      712      637      596      572      572 
     612      653      639      572      519      537      564      550 
     529      517      517      531      545      561      595      642 
     689      726      743      719      685      722      812      859 
     812      711      656      677      677      583      486      479 
     519      548      584      602      523      394      351      448 
     608      735      760      707      680      677      649      638 
     660      630      513      417      433      503      557      599 
     589      535      556      639      665      652      676      687 
     643      603      579      567      625      738      828      859 
     820      716      618      579      573      538      467      419 
     437      537      699      787      718      592      531      546 
     598      652      673      669      714      818      912      934 
     847      711      629      631      649      611      554      530 
     537      548      483      314      178      175      264      398 
     529      573      549      562      621      657      684      743 
     788      810      858      904      908      903      907      895 
     849      818      807      741      641      600      634      687 
     666      530      352      255      275      336      344      294 
     252      290      436      629      762      762      648      504 
     433      481      600      689      699      649      576      529 
     573      707      846      905      853      761      716      700 
     670      660      687      693      645      591      584      633 
     733      800      753      637      500      363      301      340 
     392      382      333      353      499      687      814      880 
     931      954      900      785      681      618      595      598 
     571      521      537      625      715      762      745      680 
     615      587      575      496      351      263      303      444 
     615      726      754      774      831      893      932      916 
     838      747      703      712      729      675      499      255 
      81       62      170      332      465      507      488      541 
     739      970     1065      989      842      756      749      720 
     627      526      506      594      673      658      589      525 
     515      585      669      699      693      679      656      633 
     622      598      569      602      680      708      692      710 
     747      730      668      618      552      425      292      270 
     367      475      511      508      534      615      720      812 
     877      893      849      772      719      711      703      625 
     471      342      328      394      436      423      423      476 
     561      633      668      668      646      619      604      630 
     670      656      618      664      780      874      916      930 
     931      913      857      768      672      554      407      282 
     210      198      236      321      463      641      773      789 
     719      627      540      465      436      450      464      456 
     484      573      677      735      731      703      715      803 
     922      950      865      772      741      726      679      618 
     584      585      606      621      638      643      616      618 
     685      727      646      496      419      450      492      502 
     530      584      619      630      612      567      540      571 
     618      630      587      492      398      391      475      571 
     654      742      799      800      761      722      708      688 
     634      603      643      716      768      787      774      757 
     774      819      830      765      684      664      670      596 
     402      160      -14      -63      -12       91      259      471 
     643      772      884      928      903      926     1009     1036 
    1003      945      820      664      583      591      614      603 
     552      484      486      564      602      589      604      604 
     558      535      525      487      479      514      518      508 
     571      654      658      616      592      564      535      544 
     585      648      718      784      823      795      734      727 
     770      812      828      788      700      626      571      507 
     464      438      402      421      507      531      461      421 
     463      552      679      816      893      899      882      824 
     714      619      571      531      507      511      496      457 
     446      463      453      414      342      294      382      564 
     696      781      880      947      942      889      828      791 
     754      660      510      396      360      336      283      263 
     333      459      589      710      778      766      726      727 
     787      873      930      903      841      864      958      978 
     895      768      615      476      405      363      305      244 
     193      163      225      384      526      592      646      722 
     751      714      688      727      784      801      742      600 
     454      409      471      579      677      760      877     1061 
    1232     1281     1170      938      657      442      348      291 
     202      102       51       90      210      346      434      480 
     553      679      793      808      742      691      687      723 
     773      785      773      795      854      919      961      932 
     803      619      473      376      253      132      113      166 
     222      299      398      514      676      870     1047     1171 
    1216     1178     1085      988      896      780      652      535 
     434      390      448      554      638      688      680      607 
     541      500      445      373      315      302      344      403 
     461      533      629      742      846      920      962      988 
    1007      988      903      756      579      417      318      271 
     209      162      186      247      307      364      418      468 
     518      580      637      688      769      851      907      959 
    1005     1036     1097     1147     1065      882      754      672 
     544      398      267      113      -45     -139     -140      -70 
      20       87      184      390      661      872      986     1070 
    1144     1190     1220     1219     1134      986      868      820 
     832      838      754      604      506      527      568      504 
     409      355      349      453      576      583      554      579 
     616      645      666      656      604      556      544      545 
     537      542      544      510      487      498      521      588 
     677      675      575      507      506      514      561      626 
     649      687      766      849      940     1021     1042     1001 
     939      878      805      688      523      357      271      298 
     379      446      506      571      616      639      664      679 
     681      691      696      675      623      568      558      604 
     673      707      662      610      622      634      607      573 
     534      476      432      423      432      469      529      519 
     472      503      571      614      670      757      839      868 
     830      777      738      738      789      820      783      700 
     606      533      517      530      511      496      541      611 
     650      618      542      502      492      460      407      372 
     378      442      579      730      799      788      769      787 
     849      923      938      841      683      545      440      373 
     352      336      326      373      469      567      615      625 
     653      685      711      735      710      634      579      542 
