Origin Time       2025/03/28 03:50:00
Lat.              35.403
Long.             140.360
Depth. (km)       54
Mag.              4.4
Station Code      SIT008
Station Lat.      35.9829
Station Long.     139.7456
Station Height(m) 7
Record Time       2025/03/28 03:51:07
Sampling Freq(Hz) 100Hz
Duration Time(s)  63
Dir.              U-D
Scale Factor      7845(gal)/8223790
Max. Acc. (gal)   0.895
Last Correction   2025/03/28 03:51:07
Memo.             
[...]
   30107    30095    30040    30021    30057    30099    30130    30144 
   30148    30140    30073    29967    29928    29995    30087    30072 
   29953    29867    29805    29697    29613    29625    29732    29853 
   29891    29916    29955    29934    29917    29944    29983    30084 
   30177    30152    30038    29868    29706    29693    29789    29875 
   29945    29992    29988    29955    29941    29948    29917    29866 
   29878    29934    29979    30024    30049    30038    30030    30032 
   30017    30005    30036    30065    30014    29953    29956    29949 
   29894    29857    29891    29961    29968    29898    29890    29974 
   30005    29952    29926    29961    30021    30105    30152    30076 
   29926    29833    29822    29833    29859    29899    29893    29867 
   29899    29937    29936    29955    30028    30113    30132    30057 
   29976    29914    29866    29899    29963    29964    29964    29987 
   29998    30017    30029    30025    30040    30060    30060    30021 
   29930    29849    29817    29790    29771    29803    29860    29864 
   29805    29751    29756    29825    29937    30056    30107    30057 
   29994    29990    30028    30078    30083    30017    29968    29980 
   29999    29998    29975    29957    29965    29949    29936    29975 
   29999    29998    30009    29997    29961    29957    29968    29953 
   29926    29926    29932    29902    29878    29897    29937    29965 
   29975    29992    30034    30049    30006    29982    30003    29982 
   29925    29932    29961    29918    29841    29808    29820    29862 
   29920    29961    29947    29891    29882    29932    29967    30005 
   30067    30094    30100    30144    30184    30164    30090    30033 
   29971    29836    29727    29722    29744    29744    29724    29718 
   29786    29895    29971    30041    30133    30194    30203    30191 
   30126    29976    29799    29673    29621    29656    29764    29890 
   29998    30072    30073    30015    29960    29944    29949    29957 
   29984    30065    30154    30161    30118    30122    30172    30215 
   30244    30214    30063    29868    29772    29751    29722    29729 
   29764    29752    29752    29833    29925    29979    30014    30044 
   30059    30019    29929    29852    29809    29795    29812    29840 
   29884    29951    30009    30040    30053    30052    30022    29980 
   29978    30022    30072    30096    30115    30126    30099    30055 
   30024    29990    29960    29933    29876    29802    29755    29752 
   29790    29852    29933    29987    29995    30002    29984    29918 
   29891    29899    29867    29859    29921    29984    29994    29968 
   29956    29983    29986    29895    29803    29806    29849    29911 
   30026    30150    30241    30272    30213    30105    30002    29918 
   29878    29871    29864    29882    29909    29859    29789    29836 
   29936    29974    29995    30017    29980    29932    29916    29903 
   29907    29924    29917    29901    29876    29859    29880    29916 
   29944    29988    30030    30061    30068    30022    29947    29866 
   29805    29825    29902    29953    29974    30029    30141    30217 
   30176    30069    29956    29856    29826    29868    29920    29951 
   29990    30060    30114    30099    30038    29983    29938    29890 
   29866    29893    29925    29948    29979    29964    29909    29889 
   29886    29890    29914    29928    29948    29990    29983    29924 
   29890    29914    29947    29970    29997    29983    29924    29879 
   29847    29859    29957    30048    30055    30038    30017    29964 
   29922    29941    30005    30056    30090    30130    30133    30072 
   30011    29963    29891    29840    29836    29813    29752    29737 
   29789    29833    29867    29922    29972    29984    29961    29922 
   29889    29868    29839    29839    29907    29974    30003    30049 
   30102    30125    30125    30115    30098    30049    29963    29909 
   29940    29987    30021    30078    30110    30069    29994    29909 
   29820    29785    29821    29875    29928    29956    29909    29860 
   29906    29997    30057    30071    30040    29992    29988    30028 
   30032    29991    29964    29920    29803    29706    29722    29813 
   29905    29979    30038    30063    30044    30007    29952    29862 
   29775    29779    29863    29921    29937    30019    30181    30271 
   30238    30195    30144    30036    29929    29817    29695    29682 
   29778    29872    29936    29978    30005    30022    30018    30006 
   29983    29905    29813    29789    29833    29899    29943    29971 
   29997    29997    29982    29976    29964    29963    29984    30011 
   30057    30105    30106    30105    30125    30127    30122    30119 
   30092    30052    30010    29933    29835    29767    29740    29727 
   29704    29700    29747    29802    29793    29732    29741    29882 
   30037    30091    30095    30110    30117    30091    30006    29891 
   29832    29857    29934    29994    29992    29982    29984    29994 
   30032    30065    30057    30072    30110    30086    30011    29955 
   29924    29924    29929    29916    29899    29868    29791    29700 
   29666    29741    29883    29992    30024    30006    30011    30051 
   30087    30145    30203    30187    30107    30006    29901    29817 
   29736    29643    29598    29616    29664    29775    29964    30152 
   30256    30261    30173    30051    30025    30069    30052    30013 
   30038    30068    30030    30002    30026    29987    29899    29871 
   29818    29717    29706    29797    29872    29918    29986    30040 
   30013    29951    29943    29959    29955    29956    29949    29897 
   29864    29883    29887    29874    29911    29975    29963    29887 
   29852    29901    29963    29963    29952    29999    30049    30034 
   30003    30034    30110    30154    30167    30137    30015    29893 
   29897    29980    30030    30051    30065    30049    30013    29967 
   29911    29870    29849    29852    29864    29855    29845    29851 
   29866    29921    29964    29925    29872    29893    29953    29982 
   30002    30055    30064    30005    29963    29951    29909    29832 
   29790    29830    29898    29938    29978    30018    30060    30072 
   30034    30005    29978    29890    29812    29822    29897    29972 
   29982    29964    29979    29982    29992    30030    30028    29994 
   29943    29860    29837    29918    30011    30056    30086    30146 
   30187    30137    30069    30029    29941    29843    29849    29899 
   29883    29844    29845    29843    29805    29741    29668    29675 
   29791    29895    29959    30064    30195    30279    30298    30300 
   30295    30230    30115    30011    29953    29920    29867    29808 
   29802    29832    29812    29772    29813    29893    29903    29852 
   29803    29789    29810    29851    29870    29870    29916    29990 
   30021    30052    30137    30194    30163    30099    30056    30037 
   30003    29948    29883    29797    29755    29803    29876    29943 
   30001    30028    30041    30046    30019    29995    30034    30109 
   30106    30003    29914    29895    29895    29909    29948    29970 
   29932    29866    29810    29785    29832    29928    29974    29960 
   29914    29839    29817    29871    29891    29907    30025    30148 
   30145    30068    29994    29938    29929    29959    29964    29964 
   30010    30028    30006    30024    30011    29938    29893    29856 
   29806    29801    29832    29860    29894    29967    30098    30208 
   30227    30190    30156    30125    30033    29862    29724    29675 
   29656    29652    29677    29762    29925    30046    30046    30033 
   30075    30114    30088    30007    29953    29944    29926    29924 
   29961    30042    30149    30203    30188    30153    30071    29951 
   29848    29781    29763    29778    29806    29880    29961    30002 
   30044    30113    30172    30154    30045    29929    29837    29770 
   29781    29812    29787    29772    29821    29910    29994    30026 
   30015    29982    29938    29928    29952    30009    30084    30099 
   30060    30033    29994    29932    29859    29790    29782    29799 
   29767    29741    29785    29867    29926    29959    30001    30030 
   30021    29997    29970    29949    29968    30009    30048    30080 
   30065    29980    29851    29733    29701    29755    29801    29785 
   29779    29853    29972    30095    30177    30190    30190    30225 
   30234    30194    30153    30122    30086    30045    29984    29933 
   29941    29972    29965    29913    29843    29795    29795    29844 
   29905    29934    29961    30018    30068    30092    30113    30110 
   30045    29933    29816    29721    29670    29644    29602    29605 
   29744    29909    29983    30056    30176    30258    30292    30303 
   30284    30280    30281    30194    30049    29959    29906    29835 
   29770    29727    29675    29647    29675    29721    29722    29701 
   29733    29836    29979    30117    30179    30150    30105    30060 
   30011    30030    30140    30218    30198    30144    30098    30048 
   30036    30080    30095    30024    29916    29820    29755    29749 
   29805    29844    29836    29832    29853    29859    29817    29755 
   29724    29731    29763    29812    29822    29783    29779    29855 
   29957    30061    30183    30280    30294    30249    30172    30076 
   30033    30045    30052    30041    29968    29810    29700    29731 
   29809    29867    29944    29997    29997    30024    30065    30060 
   30064    30113    30142    30111    30048    30005    29970    29920 
   29868    29790    29731    29763    29839    29914    29988    30022 
   30036    30060    30063    30029    29967    29922    29936    29941 
   29895    29852    29812    29743    29694    29679    29650    29656 
   29764    29897    29976    30073    30230    30349    30352    30280 
   30219    30186    30145    30090    30015    29936    29870    29806 
   29767    29776    29816    29872    29955    30080    30222    30298 
   30288    30206    30064    29951    29922    29916    29905    29926 
   29938    29918    29891    29829    29736    29664    29602    29563 
   29598    29659    29698    29736    29771    29826    29926    30029 
   30106    30159    30173    30181    30223    30244    30217    30237 
   30300    30300    30241    30171    30098    30040    30042    30072 
   30029    29945    29937    29967    29916    29775    29633    29575 
   29597    29609    29592    29605    29666    29722    29763    29825 
   29944    30086    30133    30084    30064    30087    30105    30099 
   30057    30009    29994    30040    30137    30203    30240    30285 
   30260    30121    29937    29795    29708    29590    29466    29430 
   29440    29470    29559    29691    29817    29895    29955    30038 
   30133    30214    30271    30304    30318    30289    30217    30115 
   30007    29937    29922    29957    30048    30130    30130    30088 
   30065    30048    30001    29920    29855    29856    29864    29813 
   29770    29810    29902    29965    29974    29980    30018    30044 
   30022    29972    29920    29910    29938    29918    29840    29793 
   29825    29891    29929    29968    30032    30034    29975    29944 
   29913    29853    29821    29798    29737    29712    29782    29851 
   29857    29905    30007    30080    30107    30083    30025    30009 
   30018    29994    29957    29922    29884    29859    29872    29914 
   29961    30034    30096    30080    30038    30014    29974    29934 
   29928    29964    30056    30172    30277    30366    30427    30442 
   30365    30208    30079    29986    29860    29747    29681    29624 
   29586    29577    29586    29667    29812    29906    29910    29882 
   29868    29852    29817    29839    29929    29992    30029    30103 
   30165    30160    30127    30102    30068    30034    30022    29980 
   29903    29862    29860    29849    29828    29814    29801    29739 
   29646    29619    29685    29794    29895    29968    30038    30123 
   30179    30159    30040    29872    29755    29698    29685    29731 
   29803    29868    29936    30010    30094    30191    30311    30431 
   30476    30474    30484    30450    30362    30246    30087    29948 
   29879    29837    29816    29852    29940    30007    30013    29990 
   29922    29799    29712    29659    29560    29451    29393    29373 
   29400    29482    29567    29631    29714    29801    29859    29929 
   30036    30163    30312    30466    30570    30630    30685    30697 
   30615    30478    30315    30109    29910    29768    29639    29508 
   29440    29457    29517    29597    29682    29783    29922    30065 
   30152    30192    30260    30339    30349    30310    30291    30258 
   30194    30149    30109    30011    29871    29775    29756    29729 
   29682    29705    29741    29701    29678    29721    29740    29727 
   29754    29818    29884    29956    30044    30121    30160    30140 
   30045    29932    29872    29806    29720    29721    29764    29767 
   29851    30025    30137    30169    30142    30015    29860    29733 
   29590    29478    29484    29552    29629    29794    30071    30315 
   30449    30534    30613    30685    30717    30663    30589    30558 
   30493    30357    30172    29952    29754    29583    29411    29261 
   29150    29061    29016    29034    29091    29192    29389    29628 
   29808    29983    30215    30430    30577    30636    30615    30604 
   30585    30485    30379    30331    30300    30264    30210    30117 
   30009    29906    29812    29705    29597    29563    29627    29710 
   29782    29837    29856    29867    29883    29878    29872    29889 
   29913    29953    30007    30068    30150    30254    30380    30478 
   30481    30414    30325    30208    30078    29936    29774    29621 
   29528    29531    29589    29617    29625    29636    29613    29575 
   29542    29478    29446    29484    29571    29728    29943    30167 
   30372    30518    30592    30589    30495    30388    30321    30199 
   30037    29953    29934    29918    29893    29876    29890    29876 
   29783    29697    29656    29606    29574    29621    29736    29848 
   29886    29887    29920    29961    29991    30028    30063    30067 
   30038    29994    29956    29941    29920    29867    29801    29762 
   29817    29930    30002    30052    30114    30141    30132    30113 
   30107    30109    30065    30015    30007    29980    29964    30052 
   30199    30312    30358    30368    30352    30246    30075    29928 
   29821    29748    29704    29662    29632    29659    29751    29859 
   29953    30038    30063    30014    29972    29930    29837    29736 
   29691    29700    29748    29840    29956    30049    30117    30154 
   30127    30040    29948    29893    29863    29843    29864    29938 
   30024    30084    30113    30100    30061    30001    29905    29803 
   29754    29758    29783    29835    29933    30045    30105    30115 
   30095    30053    30029    30051    30080    30083    30068    30044 
   29988    29928    29884    29828    29791    29790    29775    29770 
   29818    29876    29926    30005    30086    30099    30057    30032 
   30014    29936    29799    29681    29631    29641    29667    29681 
   29737    29852    29956    30033    30118    30192    30235    30257 
   30249    30231    30242    30235    30164    30078    30021    29991 
   29963    29920    29893    29913    29957    29994    29998    29965 
   29916    29829    29713    29637    29623    29616    29609    29641 
   29720    29816    29924    30048    30160    30208    30195    30168 
   30175    30187    30165    30144    30127    30096    30082    30069 
   30024    29995    30001    30001    29979    29938    29902    29884 
   29848    29791    29766    29799    29864    29921    29960    29957 
   29924    29906    29871    29790    29760    29781    29766    29803 
   29959    30095    30145    30184    30223    30214    30175    30148 
   30107    30026    29955    29938    29952    29953    29932    29907 
   29876    29837    29797    29736    29675    29668    29691    29708 
   29740    29785    29813    29822    29797    29782    29825    29876 
   29916    29970    30034    30106    30177    30240    30298    30346 
   30372    30362    30321    30258    30195    30125    30040    29961 
   29916    29871    29817    29802    29806    29790    29813    29868 
   29883    29891    29929    29926    29891    29898    29929    29963 
   30022    30052    30045    30087    30119    30061    29988    29964 
   29933    29856    29771    29702    29671    29720    29808    29891 
   29997    30086    30098    30080    30045    29956    29857    29771 
   29675    29621    29636    29675    29755    29891    30015    30090 
   30145    30172    30134    30071    30026    29988    29952    29945 
   29974    30002    30025    30067    30094    30060    30001    29959 
   29925    29879    29863    29883    29903    29930    29956    29953 
   29956    29964    29930    29891    29895    29918    29938    29965 
   30009    30076    30136    30163    30167    30159    30152    30163 
   30146    30059    29947    29855    29748    29644    29617    29652 
   29683    29694    29724    29794    29880    29967    30080    30184 
   30215    30200    30187    30169    30132    30088    30051    30037 
   30075    30118    30091    30041    30025    29991    29932    29890 
   29841    29770    29694    29637    29641    29694    29752    29826 
   29921    29974    29994    30059    30121    30106    30088    30111 
   30086    30009    29941    29875    29821    29808    29812    29825 
   29857    29879    29905    29956    29984    29975    29960    29968 
   29994    30034    30107    30176    30190    30188    30195    30149 
   30073    30017    29956    29903    29868    29843    29852    29875 
   29863    29859    29895    29924    29929    29945    29980    30002 
   29982    29940    29911    29902    29895    29879    29880    29911 
   29903    29852    29870    29943    29940    29868    29824    29783 
   29717    29654    29628    29678    29779    29883    30007    30142 
   30227    30249    30203    30109    30010    29901    29782    29686 
   29609    29567    29605    29739    29906    30030    30106    30157 
   30194    30208    30183    30173    30242    30304    30326    30381 
   30426    30408    30375    30303    30175    30037    29893    29752 
   29662    29627    29606    29598    29643    29740    29806    29843 
   29933    30046    30100    30137    30188    30196    30146    30087 
   30025    29949    29898    29872    29828    29794    29822    29845 
   29844    29891    29967    29986    29964    29968    29994    29991 
   29976    29971    29957    29937    29925    29889    29822    29779 
   29733    29644    29602    29650    29693    29727    29816    29911 
   29957    30010    30088    30133    30145    30163    30180    30186 
   30160    30100    30055    30046    30036    30009    30009    30045 
   30048    30007    30009    30029    29990    29943    29937    29922 
   29898    29903    29918    29914    29921    29930    29926    29963 
