Origin Time       2025/03/28 03:50:00
Lat.              35.403
Long.             140.360
Depth. (km)       54
Mag.              4.4
Station Code      SIT010
Station Lat.      35.9071
Station Long.     139.6478
Station Height(m) 6
Record Time       2025/03/28 03:51:08
Sampling Freq(Hz) 100Hz
Duration Time(s)  60
Dir.              E-W
Scale Factor      7845(gal)/8223790
Max. Acc. (gal)   1.449
Last Correction   2025/03/28 03:51:08
Memo.             
[...]
     450      453      453      454      457      453      452      459 
     454      441      438      442      438      440      440      438 
     438      423      417      426      414      415      450      477 
     487      494      479      461      490      534      542      519 
     469      429      444      473      457      396      348      348 
     380      414      411      380      383      432      480      500 
     502      519      568      610      607      571      537      533 
     542      531      473      399      361      368      382      353 
     298      272      282      314      359      382      387      391 
     396      421      472      526      560      542      488      471 
     521      571      544      442      359      375      454      511 
     511      459      392      409      490      531      527      529 
     527      508      494      499      506      503      473      437 
     425      417      418      440      425      387      391      432 
     465      454      425      419      438      456      433      372 
     332      333      351      369      365      338      337      376 
     427      461      479      503      561      635      681      681 
     639      587      576      592      588      548      471      388 
     346      346      356      352      310      268      286      351 
     430      481      468      429      433      483      529      522 
     492      481      472      456      417      353      326      336 
     363      396      386      369      387      419      477      500 
     465      450      461      486      519      523      513      527 
     552      564      565      552      542      533      503      479 
     476      472      441      387      337      315      321      324 
     303      265      241      272      340      368      369      382 
     400      426      449      476      495      490      498      525 
     538      541      546      573      584      540      521      562 
     611      637      626      594      553      502      465      450 
     426      415      421      419      421      423      423      436 
     445      465      502      508      496      492      486      446 
     363      287      274      290      307      330      351      369 
     402      437      444      415      392      400      422      421 
     395      369      325      270      263      290      332      398 
     463      540      630      676      673      633      579      572 
     603      599      534      446      379      344      338      349 
     351      351      382      457      550      598      600      627 
     697      799      865      823      741      675      627      604 
     552      441      315      222      206      209      166      112 
      91      133      222      299      351      372      361      359 
     332      261      222      222      209      209      238      265 
     317      423      538      633      716      769      789      814 
     854      884      869      792      673      579      535      494 
     438      399      368      341      325      306      291      288 
     278      278      313      340      337      359      392      383 
     353      346      386      454      476      438      419      448 
     515      588      592      549      545      565      565      561 
     535      488      479      503      513      522      553      589 
     611      599      550      508      508      514      490      441 
     373      298      233      213      209      182      193      243 
     244      205      179      189      225      257      288      334 
     392      461      560      685      776      785      750      700 
     629      576      560      535      500      495      514      535 
     530      496      472      476      498      492      456      423 
     369      309      298      333      392      430      440      454 
     465      486      526      523      491      469      437      409 
     413      407      402      415      453      537      591      587 
     610      634      600      525      437      357      302      275 
     271      276      271      267      294      324      333      359 
     426      504      558      573      534      490      525      595 
     618      607      567      506      463      421      333      216 
     145      149      178      191      198      228      302      417 
     545      677      793      868      912      940      907      810 
     714      657      599      487      378      325      294      307 
     351      361      384      423      453      487      491      450 
     403      372      353      336      306      243      186      191 
     221      237      261      301      363      457      527      535 
     507      481      481      487      491      503      492      465 
     456      465      491      522      541      554      556      564 
     589      607      612      619      625      616      584      526 
     490      488      468      425      383      324      247      201 
     176      126       85      114      180      232      245      230 
     256      319      375      438      488      498      525      596 
     662      676      664      654      645      653      669      654 
     622      603      592      581      560      534      510      496 
     488      469      468      486      467      421      387      369 
     394      448      446      390      355      344      345      351 
     338      332      349      372      380      382      413      467 
     517      568      581      533      498      495      457      388 
     341      334      378      445      496      535      567      612 
     649      625      589      585      584      546      434      276 
     152       72       18      -17      -29        0       59      160 
     260      283      291      356      453      588      712      762 
     778      792      803      812      781      710      660      633 
     599      575      531      477      471      475      457      459 
     498      560      633      693      696      618      507      413 
     345      284      187       90       47       62      136      230 
     297      334      394      504      599      630      630      623 
     616      600      548      445      356      317      307      330 
     386      445      477      494      510      506      486      471 
     438      379      311      249      198      191      267      359 
     414      468      514      531      540      541      542      554 
     557      541      523      521      531      545      549      540 
     538      560      561      548      557      533      456      402 
     382      372      376      379      383      402      400      398 
     402      375      352      379      417      433      434      432 
     430      461      522      549      569      634      680      658 
     608      561      514      441      349      259      193      164 
     155      168      207      261      344      436      499      519 
     527      554      579      569      537      518      514      522 
     556      561      546      565      564      533      531      541 
     503      456      465      473      438      384      288      194 
     145       99       93      141      220      345      469      546 
     598      645      696      729      737      726      689      634 
     577      517      442      365      326      334      373      414 
     442      476      513      518      503      486      457      434 
     425      409      394      387      364      337      332      334 
     311      291      319      334      315      328      382      457 
     515      529      527      514      500      508      499      464 
     442      445      454      461      464      467      469      500 
     567      619      623      589      549      530      513      469 
     418      388      392      407      410      405      394      410 
     448      476      490      477      457      457      479      492 
     461      417      421      448      442      445      454      423 
     422      472      492      500      522      533      503      442 
     396      359      322      329      346      330      315      321 
     336      364      395      410      418      433      437      432 
     438      454      471      494      525      562      592      576 
     523      480      483      521      533      529      542      534 
     496      444      378      348      333      299      307      333 
     328      314      306      318      338      361      409      460 
     504      556      614      677      715      731      746      746 
     746      737      685      631      602      577      538      480 
     436      425      413      369      319      264      194      160 
     155      121       89       74       47       43       72      116 
     180      253      325      400      465      519      577      629 
     658      656      639      650      689      707      681      643 
     604      571      564      558      540      560      612      638 
     622      606      614      621      595      546      476      369 
     272      225      198      151       97       81       94      110 
     145      198      253      322      394      453      498      531 
     585      652      684      672      649      643      646      645 
     629      598      549      511      507      498      473      442 
     402      391      411      422      422      409      379      373 
     392      387      378      391      400      396      406      427 
     444      456      484      503      487      495      553      591 
     584      545      498      488      504      499      452      392 
     364      360      355      336      302      291      315      321 
     305      297      292      305      348      413      467      480 
     479      492      523      553      573      591      615      668 
     715      714      703      707      683      645      642      634 
     600      572      540      483      426      394      373      357 
     352      342      302      268      268      263      245      238 
     237      238      255      263      271      328      395      417 
     433      456      457      454      463      456      433      415 
     410      407      432      494      531      523      538      596 
     641      649      626      600      602      598      557      503 
     463      433      418      426      461      495      477      456 
     484      471      406      375      338      276      224      170 
     132      114       64        4      -18      -20      -17       -1 
      43       90       93       81       89       95      114      167 
     233      294      338      379      440      513      579      623 
     645      633      595      573      591      643      696      729 
     792      899     1016     1139     1225     1251     1247     1225 
    1173     1086      992      907      824      746      677      630 
     645      708      778      851      911      930      927      909 
     831      716      631      537      432      378      292      147 
      58       27      -40     -143     -229     -283     -292     -238 
    -145      -56       25      113      230      369      483      580 
     687      784      874      943      969      962      908      810 
     691      554      426      336      263      201      160      120 
      63       16      -10      -51     -124     -197     -237     -268 
    -328     -419     -487     -477     -418     -319     -164       13 
     201      411      623      781      891      988     1055     1104 
    1163     1204     1220     1247     1271     1248     1169     1080 
    1026      972      865      739      608      469      361      276 
     198      156      160      220      318      396      456      510 
     508      459      398      317      216      117       10      -75 
     -86      -54      -13       67      180      309      461      621 
     754      830      888      976     1024     1038     1096     1154 
    1154     1154     1152     1096     1001      868      689      487 
     260       31     -156     -307     -460     -607     -724     -800 
    -801     -731     -616     -449     -228       27      284      513 
     716      908     1074     1205     1318     1428     1507     1540 
    1512     1428     1316     1169     1003      876      785      714 
     650      567      463      353      267      234      243      255 
     257      278      297      265      198      122       36      -48 
    -112     -187     -310     -422     -487     -533     -564     -552 
    -492     -380     -210       10      255      481      697      916 
    1113     1244     1289     1269     1204     1092      963      846 
     719      618      592      606      600      560      518      511 
     527      549      579      611      669      750      799      780 
     729      684      652      603      499      349      194       41 
     -91     -171     -174      -95       60      276      513      735 
     923     1090     1258     1390     1464     1503     1494     1424 
    1318     1178     1004      803      556      243      -81     -337 
    -548     -731     -873     -985    -1059    -1069    -1030     -958 
    -808     -550     -256       32      338      622      859     1085 
    1274     1406     1487     1493     1444     1364     1235     1063 
     886      730      571      388      238      171      147      148 
     194      264      352      456      544      621      704      760 
     769      757      722      652      564      492      448      410 
     351      309      332      376      398      433      500      537 
     521      468      388      302      244      216      201      199 
     209      216      214      218      226      217      194      180 
     176      194      228      243      274      355      413      425 
     452      492      517      529      503      436      392      367 
     338      328      319      311      338      379      398      406 
     405      378      349      310      265      268      305      351 
     418      484      560      668      789      901      988     1030 
    1021      959      857      738      595      464      403      383 
     371      372      409      518      658      774      885      984 
    1042     1034      961      864      761      611      418      259 
     156       70       -9      -62      -66      -14       40       78 
     136      218      302      380      456      514      567      662 
     791      916     1034     1121     1175     1163     1081      959 
     776      548      318       89     -105     -245     -346     -410 
    -418     -380     -306     -176       -1      205      418      602 
     745      832      865      888      912      922      897      849 
     811      772      702      615      487      309      133      -39 
    -236     -421     -575     -687     -706     -668     -604     -460 
    -259      -55      170      411      618      773      927     1094 
    1239     1356     1452     1524     1594     1655     1637     1559 
    1474     1370     1246     1121      963      770      608      483 
     380      309      248      209      207      214      213      222 
     256      294      313      310      270      198      139       94 
      28      -48      -95      -98      -87      -72      -28       36 
     106      164      190      191      220      264      279      260 
     240      216      186      190      222      226      217      251 
     294      297      288      306      322      332      365      422 
     492      573      650      710      795      916     1019     1084 
    1154     1232     1258     1252     1256     1204     1101     1035 
     965      843      735      642      556      511      476      423 
     363      292      237      195      159      126       82       76 
     128      171      205      238      263      290      303      271 
     209      152      103       59       33       31       39       76 
     166      299      423      500      598      730      814      861 
     916      950      954      943      920      899      872      816 
     746      666      556      437      344      261      211      209 
     225      260      310      353      409      486      525      490 
     407      315      221      120       16      -67      -94      -81 
     -48       33      139      240      372      514      629      750 
     855      900      939      999     1026     1009      981      947 
     881      793      699      576      436      306      184       75 
      -9      -76     -137     -187     -201     -198     -205     -180 
    -109      -32       44      130      193      244      302      341 
     391      460      494      526      565      591      643      711 
     762      826      892      946      993     1023     1036     1042 
    1047     1046     1034     1027     1012      977      936      895 
     847      793      743      703      648      573      515      454 
     356      229      110       12     -109     -234     -306     -351 
    -378     -368     -338     -299     -248     -147       25      206 
     360      500      598      666      738      777      783      804 
     830      842      834      795      749      707      654      581 
     515      468      406      363      368      345      298      321 
     378      417      476      553      600      619      612      549 
     444      344      221       74      -36     -116     -162     -145 
     -66       82      267      452      661      886     1047     1120 
    1131     1096     1017      899      773      676      599      554 
     571      610      622      625      668      712      719      716 
     693      616      548      529      506      449      395      364 
     368      383      360      288      194      125       70      -25 
    -129     -226     -340     -410     -421     -433     -427     -371 
    -272     -124       63      252      427      589      747      889 
     986     1047     1070     1047      978      884      773      639 
     506      406      344      302      287      294      336      419 
     506      584      688      796      872      924      958      982 
    1008     1011      972      908      842      761      670      587 
     480      365      298      217       98       29       -9      -60 
     -86     -106     -118      -85      -43       -8       35       56 
      48       43       56       93      149      191      241      342 
     444      511      604      733      843      938     1057     1188 
    1291     1360     1417     1437     1417     1408     1371     1247 
    1077      884      661      456      297      149       13      -63 
    -108     -156     -159     -117      -93      -64       16       98 
     168      271      344      376      461      556      606      693 
     827      927      984     1016     1021      993      920      815 
