Origin Time       2025/03/28 03:50:00
Lat.              35.403
Long.             140.360
Depth. (km)       54
Mag.              4.4
Station Code      SIT013
Station Lat.      35.7966
Station Long.     139.4659
Station Height(m) 76
Record Time       2025/03/28 03:51:08
Sampling Freq(Hz) 100Hz
Duration Time(s)  60
Dir.              E-W
Scale Factor      7845(gal)/8223790
Max. Acc. (gal)   2.535
Last Correction   2025/03/28 03:51:08
Memo.             
[...]
   16671    16667    16667    16661    16661    16679    16694    16700 
   16699    16686    16675    16673    16671    16675    16687    16692 
   16694    16695    16687    16672    16669    16676    16677    16683 
   16688    16681    16680    16691    16691    16681    16679    16677 
   16683    16690    16687    16684    16684    16675    16668    16675 
   16677    16676    16675    16673    16679    16690    16686    16677 
   16679    16680    16677    16688    16696    16691    16690    16686 
   16673    16672    16681    16680    16676    16683    16680    16667 
   16665    16672    16673    16679    16677    16672    16681    16684 
   16669    16668    16684    16683    16671    16673    16681    16684 
   16687    16687    16681    16672    16667    16667    16675    16690 
   16699    16699    16696    16694    16688    16677    16671    16664 
   16657    16660    16665    16671    16673    16673    16676    16671 
   16664    16675    16681    16669    16673    16696    16706    16700 
   16696    16692    16686    16680    16672    16668    16668    16663 
   16661    16673    16684    16687    16686    16676    16671    16680 
   16684    16671    16669    16680    16679    16676    16684    16688 
   16690    16687    16675    16673    16683    16680    16675    16681 
   16677    16671    16683    16688    16672    16668    16683    16680 
   16673    16677    16680    16679    16676    16669    16676    16684 
   16683    16684    16690    16683    16676    16677    16673    16668 
   16673    16680    16680    16687    16692    16687    16686    16681 
   16671    16675    16676    16669    16671    16679    16679    16679 
   16687    16688    16683    16686    16692    16684    16676    16680 
   16676    16669    16684    16696    16686    16679    16673    16665 
   16667    16677    16684    16683    16677    16675    16679    16687 
   16688    16688    16690    16679    16669    16680    16688    16676 
   16677    16690    16680    16675    16673    16669    16677    16684 
   16677    16675    16675    16680    16690    16690    16679    16675 
   16676    16676    16681    16677    16667    16668    16668    16653 
   16653    16672    16673    16665    16677    16684    16690    16717 
   16733    16730    16734    16734    16725    16726    16730    16714 
   16687    16683    16683    16671    16664    16646    16609    16591 
   16600    16633    16684    16713    16695    16667    16656    16669 
   16715    16764    16762    16726    16684    16649    16649    16680 
   16694    16659    16603    16584    16629    16715    16761    16703 
   16610    16594    16652    16746    16843    16856    16740    16594 
   16541    16622    16764    16834    16771    16636    16540    16548 
   16634    16696    16691    16672    16673    16676    16687    16706 
   16702    16677    16660    16668    16713    16776    16789    16719 
   16632    16596    16625    16694    16741    16711    16638    16602 
   16607    16630    16680    16713    16677    16648    16683    16741 
   16796    16810    16749    16671    16640    16654    16688    16722 
   16706    16630    16567    16552    16611    16726    16787    16738 
   16638    16564    16552    16603    16681    16730    16726    16707 
   16696    16696    16703    16707    16710    16711    16702    16679 
   16644    16614    16584    16556    16573    16640    16699    16733 
   16734    16683    16627    16640    16695    16741    16776    16798 
   16789    16758    16707    16638    16621    16684    16753    16769 
   16741    16707    16683    16679    16715    16779    16839    16860 
   16799    16672    16545    16471    16463    16513    16576    16600 
   16579    16557    16572    16633    16713    16760    16750    16713 
   16687    16684    16686    16687    16722    16789    16846    16849 
   16776    16650    16552    16542    16610    16708    16777    16752 
   16637    16509    16474    16569    16702    16767    16779    16765 
   16726    16687    16676    16695    16711    16711    16696    16675 
   16672    16694    16702    16684    16663    16661    16677    16672 
   16633    16599    16591    16603    16625    16653    16683    16715 
   16746    16773    16799    16804    16761    16669    16587    16590 
   16676    16779    16835    16811    16708    16596    16521    16494 
   16529    16596    16637    16636    16625    16627    16626    16617 
   16610    16617    16634    16660    16696    16730    16744    16735 
   16721    16730    16796    16904    16973    16943    16834    16718 
   16649    16638    16665    16694    16698    16675    16615    16534 
   16488    16484    16494    16498    16474    16452    16488    16571 
   16673    16799    16899    16918    16895    16881    16892    16900 
   16865    16776    16671    16609    16609    16644    16676    16659 
   16594    16513    16437    16397    16403    16441    16503    16609 
   16738    16837    16861    16823    16773    16745    16773    16841 
   16885    16868    16806    16748    16741    16762    16765    16729 
   16660    16596    16568    16556    16556    16575    16611    16663 
   16706    16707    16656    16587    16559    16575    16603    16659 
   16718    16729    16707    16710    16742    16768    16744    16663 
   16578    16563    16634    16729    16768    16725    16650    16634 
   16696    16787    16833    16785    16686    16629    16642    16708 
   16800    16854    16802    16687    16594    16537    16509    16511 
   16534    16572    16637    16704    16741    16744    16715    16698 
   16710    16706    16667    16610    16556    16540    16582    16671 
   16757    16795    16789    16771    16772    16798    16804    16783 
   16744    16687    16656    16686    16713    16700    16690    16686 
   16659    16621    16579    16528    16492    16491    16521    16584 
   16668    16735    16748    16707    16665    16664    16718    16815 
   16920    16980    16947    16841    16719    16610    16536    16537 
   16587    16613    16590    16540    16488    16492    16560    16638 
   16699    16746    16762    16756    16750    16738    16719    16746 
   16810    16839    16830    16814    16773    16707    16627    16545 
   16494    16482    16471    16459    16476    16530    16592    16625 
   16642    16692    16761    16807    16823    16821    16802    16795 
   16827    16849    16815    16771    16746    16722    16713    16711 
   16675    16618    16575    16546    16542    16568    16595    16602 
   16622    16667    16707    16737    16734    16684    16649    16657 
   16695    16750    16780    16749    16676    16610    16592    16611 
   16623    16615    16632    16704    16807    16884    16910    16857 
   16738    16630    16575    16548    16563    16621    16660    16664 
   16665    16661    16652    16659    16673    16688    16713    16762 
   16808    16814    16764    16677    16609    16578    16573    16611 
   16663    16668    16638    16625    16630    16650    16675    16661 
   16630    16632    16657    16691    16738    16783    16780    16752 
   16742    16748    16772    16780    16734    16661    16594    16552 
   16551    16564    16568    16572    16602    16657    16710    16742 
   16753    16750    16754    16779    16803    16792    16738    16671 
   16625    16606    16600    16590    16571    16540    16509    16499 
   16509    16541    16595    16653    16722    16780    16798    16795 
   16777    16727    16683    16663    16673    16737    16834    16907 
   16916    16853    16760    16676    16595    16537    16571    16663 
   16710    16690    16642    16611    16644    16726    16789    16794 
   16749    16703    16691    16694    16683    16649    16586    16503 
   16434    16422    16476    16587    16729    16849    16908    16891 
   16812    16729    16673    16659    16700    16765    16768    16707 
   16649    16606    16565    16552    16563    16561    16545    16532 
   16538    16578    16644    16731    16833    16902    16889    16826 
   16783    16783    16826    16902    16957    16953    16892    16779 
   16657    16582    16536    16476    16426    16448    16524    16599 
   16646    16644    16613    16596    16584    16572    16583    16621 
   16673    16711    16702    16688    16708    16748    16769    16746 
   16698    16667    16657    16672    16726    16799    16842    16833 
   16783    16700    16605    16542    16519    16528    16588    16669 
   16713    16731    16734    16718    16718    16715    16681    16665 
   16688    16703    16703    16723    16748    16762    16785    16802 
   16777    16737    16699    16659    16606    16555    16538    16544 
   16540    16528    16517    16517    16528    16549    16599    16672 
   16744    16794    16800    16762    16727    16729    16744    16752 
   16754    16753    16775    16812    16821    16795    16756    16715 
   16679    16645    16632    16640    16652    16649    16625    16606 
   16599    16594    16599    16599    16596    16621    16660    16696 
   16727    16723    16673    16622    16603    16619    16664    16729 
   16789    16814    16812    16806    16777    16727    16677    16638 
   16622    16630    16641    16640    16621    16613    16663    16746 
   16792    16761    16675    16609    16614    16648    16649    16630 
   16619    16603    16592    16594    16586    16567    16555    16582 
   16652    16730    16788    16803    16776    16750    16764    16822 
   16885    16885    16796    16673    16582    16556    16592    16653 
   16688    16694    16680    16657    16663    16672    16619    16546 
   16538    16607    16714    16815    16849    16799    16729    16702 
   16723    16764    16760    16695    16641    16642    16663    16687 
   16719    16729    16711    16687    16648    16602    16578    16584 
   16625    16690    16754    16802    16823    16803    16764    16729 
   16688    16671    16692    16710    16692    16630    16563    16518 
   16502    16524    16560    16591    16625    16645    16663    16707 
   16744    16746    16749    16769    16781    16788    16779    16708 
   16606    16544    16537    16583    16675    16749    16750    16710 
   16684    16692    16744    16788    16758    16706    16677    16675 
   16714    16754    16722    16634    16555    16528    16565    16640 
   16683    16660    16621    16617    16660    16740    16810    16826 
   16772    16683    16622    16609    16600    16575    16530    16480 
   16459    16494    16565    16617    16640    16673    16726    16787 
   16838    16849    16803    16737    16710    16729    16768    16811 
   16834    16823    16783    16717    16641    16583    16564    16583 
   16615    16640    16652    16650    16649    16661    16684    16710 
   16719    16699    16653    16588    16540    16552    16621    16699 
   16771    16842    16895    16915    16891    16821    16727    16642 
   16600    16610    16634    16644    16656    16671    16680    16696 
   16704    16679    16645    16632    16618    16594    16571    16569 
   16605    16661    16694    16692    16684    16668    16642    16638 
   16654    16671    16688    16713    16742    16783    16808    16791 
   16730    16653    16603    16586    16584    16605    16646    16711 
   16808    16912    16972    16956    16865    16733    16609    16541 
   16532    16545    16573    16633    16702    16744    16754    16748 
   16690    16605    16561    16551    16563    16595    16592    16563 
   16556    16578    16626    16667    16661    16630    16621    16636 
   16667    16727    16806    16846    16849    16845    16839    16839 
   16845    16823    16784    16764    16746    16708    16656    16610 
   16609    16633    16637    16622    16590    16540    16492    16449 
   16449    16501    16576    16657    16711    16723    16714    16677 
   16630    16594    16580    16613    16694    16788    16858    16897 
   16927    16949    16960    16949    16888    16776    16623    16467 
   16387    16413    16488    16565    16594    16559    16510    16472 
   16456    16474    16511    16552    16592    16654    16754    16868 
   16980    17059    17047    16978    16922    16868    16812    16765 
   16710    16679    16692    16719    16742    16744    16699    16621 
   16528    16451    16434    16465    16511    16575    16650    16696 
   16704    16698    16668    16617    16596    16633    16683    16726 
   16785    16852    16893    16902    16879    16822    16731    16621 
   16486    16355    16291    16341    16488    16692    16869    16954 
   16958    16904    16822    16765    16740    16715    16684    16653 
   16634    16645    16669    16657    16606    16519    16406    16318 
   16272    16266    16347    16509    16692    16875    17024    17095 
   17086    17042    16985    16929    16902    16872    16798    16718 
   16645    16552    16453    16370    16295    16225    16171    16159 
   16204    16310    16452    16603    16748    16850    16903    16927 
   16924    16896    16870    16842    16804    16789    16802    16830 
   16880    16926    16926    16883    16816    16748    16684    16629 
   16575    16498    16425    16424    16486    16556    16605    16590 
   16501    16370    16240    16151    16127    16170    16301    16529 
   16842    17223    17645    18048    18381    18611    18684    18567 
   18287    17898    17486    17122    16799    16449    16046    15600 
   15121    14663    14310    14095    14023    14099    14307    14647 
   15126    15691    16278    16862    17419    17930    18361    18670 
   18862    18981    19049    19026    18881    18582    18083    17416 
   16704    16052    15547    15248    15144    15191    15350    15573 
   15785    15930    15975    15913    15805    15745    15776    15925 
   16214    16633    17127    17610    18009    18253    18280    18079 
   17729    17355    17054    16895    16877    16919    16941    16922 
   16858    16737    16561    16380    16225    16098    16042    16089 
   16206    16325    16384    16389    16375    16337    16274    16217 
   16189    16210    16321    16494    16671    16842    16961    16954 
   16843    16708    16609    16602    16718    16916    17136    17331 
   17444    17446    17356    17205    17024    16846    16664    16475 
   16325    16251    16254    16322    16422    16507    16548    16521 
   16425    16329    16313    16368    16461    16576    16688    16773 
   16827    16837    16802    16754    16714    16694    16737    16870 
   17064    17281    17498    17666    17728    17659    17469    17192 
   16866    16537    16266    16098    16023    15996    15966    15903 
   15807    15724    15704    15750    15847    15998    16170    16328 
   16482    16625    16742    16876    17074    17325    17575    17761 
   17838    17818    17733    17605    17459    17327    17199    17043 
   16862    16698    16579    16503    16430    16309    16137    15948 
   15784    15697    15692    15736    15828    15951    16071    16166 
   16212    16202    16181    16222    16394    16718    17118    17470 
   17728    17906    18010    18045    18014    17886    17653    17359 
   17041    16738    16492    16282    16081    15896    15724    15580 
   15515    15539    15607    15719    15894    16114    16387    16723 
   17061    17334    17514    17582    17529    17409    17282    17184 
   17139    17145    17155    17170    17190    17169    17059    16869 
   16611    16313    16043    15854    15765    15776    15859    15994 
   16178    16384    16584    16765    16902    16992    17058    17103 
   17124    17139    17151    17143    17108    17031    16903    16761 
   16618    16433    16222    16048    15959    15970    16048    16146 
   16245    16348    16451    16555    16675    16806    16945    17103 
   17270    17419    17543    17628    17633    17547    17373    17131 
   16848    16551    16262    15989    15745    15554    15433    15371 
   15357    15407    15557    15809    16129    16467    16767    16993 
   17165    17312    17436    17547    17664    17775    17874    17953 
   17973    17923    17811    17628    17371    17064    16740    16422 
   16137    15916    15754    15651    15610    15589    15566    15546 
   15522    15511    15566    15708    15947    16285    16657    17007 
   17329    17593    17763    17864    17923    17960    17998    18031 
   18027    17982    17880    17691    17409    17045    16606    16150 
   15749    15418    15188    15076    15043    15075    15184    15342 
   15519    15708    15917    16148    16426    16764    17153    17571 
   17959    18258    18454    18540    18508    18347    18080    17757 
   17420    17084    16737    16389    16050    15705    15361    15063 
   14854    14751    14771    14931    15229    15634    16089    16528 
   16910    17224    17462    17631    17752    17845    17899    17902 
   17855    17759    17639    17501    17325    17143    16980    16827 
   16703    16614    16530    16451    16391    16328    16258    16190 
   16093    15967    15857    15765    15720    15774    15912    16089 
   16278    16464    16637    16796    16947    17086    17213    17328 
   17398    17397    17352    17275    17172    17070    16969    16860 
   16783    16754    16765    16810    16846    16821    16710    16522 
   16310    16144    16056    16044    16094    16198    16335    16464 
   16557    16607    16598    16522    16436    16395    16421    16515 
   16673    16873    17077    17255    17377    17420    17389    17307 
   17217    17145    17077    17007    16916    16799    16672    16522 
   16343    16173    16035    15924    15858    15844    15882    15981 
   16121    16244    16347    16457    16575    16690    16807    16934 
   17078    17240    17404    17550    17656    17683    17604    17437 
   17215    16961    16714    16494    16302    16147    16021    15940 
   15928    15973    16040    16119    16212    16310    16411    16524 
   16645    16776    16919    17057    17169    17236    17253    17215 
   17123    17005    16904    16826    16768    16723    16677    16607 
   16506    16402    16297    16186    16106    16098    16155    16266 
   16424    16595    16737    16843    16912    16914    16864    16814 
   16785    16795    16877    17026    17189    17320    17373    17329 
   17213    17041    16837    16645    16483    16367    16303    16256 
   16202    16146    16081    16020    16008    16070    16193    16371 
   16592    16811    17000    17150    17238    17248    17197    17092 
   16964    16862    16811    16800    16825    16856    16845    16807 
   16758    16669    16551    16443    16355    16306    16313    16366 
   16459    16586    16703    16781    16826    16835    16810    16764 
   16706    16653    16636    16657    16687    16707    16706    16654 
   16565    16475    16417    16403    16437    16515    16621    16717 
   16784    16837    16889    16918    16895    16830    16733    16626 
   16552    16541    16578    16629    16673    16684    16654    16607 
   16564    16536    16541    16573    16609    16659    16737    16831 
   16930    17008    17030    16987    16906    16821    16761    16733 
   16714    16704    16704    16706    16718    16752    16785    16779 
