Origin Time       2025/03/28 03:50:00
Lat.              35.403
Long.             140.360
Depth. (km)       54
Mag.              4.4
Station Code      SIT011
Station Lat.      35.8098
Station Long.     139.7214
Station Height(m) 3
Record Time       2025/03/28 03:51:04
Sampling Freq(Hz) 100Hz
Duration Time(s)  60
Dir.              E-W
Scale Factor      7845(gal)/8223790
Max. Acc. (gal)   2.552
Last Correction   2025/03/28 03:51:04
Memo.             
[...]
   -4550    -4592    -4668    -4712    -4681    -4612    -4568    -4573 
   -4590    -4600    -4653    -4727    -4745    -4680    -4584    -4537 
   -4572    -4623    -4631    -4627    -4644    -4646    -4617    -4591 
   -4599    -4638    -4666    -4665    -4668    -4668    -4633    -4588 
   -4581    -4612    -4650    -4649    -4618    -4604    -4610    -4614 
   -4617    -4623    -4654    -4676    -4641    -4599    -4623    -4666 
   -4654    -4604    -4579    -4599    -4637    -4639    -4623    -4633 
   -4634    -4598    -4577    -4610    -4656    -4669    -4644    -4634 
   -4673    -4683    -4608    -4540    -4564    -4637    -4657    -4618 
   -4600    -4646    -4673    -4619    -4579    -4619    -4653    -4623 
   -4590    -4610    -4666    -4681    -4631    -4604    -4645    -4666 
   -4622    -4596    -4633    -4658    -4635    -4621    -4645    -4661 
   -4630    -4580    -4585    -4653    -4683    -4634    -4594    -4595 
   -4585    -4571    -4598    -4652    -4680    -4658    -4626    -4645 
   -4700    -4698    -4619    -4554    -4550    -4575    -4590    -4600 
   -4652    -4715    -4691    -4608    -4591    -4629    -4639    -4600 
   -4564    -4584    -4650    -4707    -4722    -4698    -4645    -4587 
   -4558    -4572    -4633    -4698    -4708    -4691    -4696    -4691 
   -4650    -4577    -4477    -4426    -4461    -4503    -4527    -4594 
   -4671    -4648    -4523    -4442    -4534    -4769    -4949    -4914 
   -4745    -4608    -4558    -4563    -4598    -4675    -4777    -4781 
   -4576    -4271    -4153    -4405    -4857    -5077    -4860    -4473 
   -4306    -4455    -4710    -4834    -4843    -4880    -4884    -4739 
   -4553    -4475    -4525    -4645    -4687    -4541    -4374    -4382 
   -4507    -4580    -4530    -4448    -4538    -4835    -5065    -5017 
   -4803    -4627    -4606    -4681    -4677    -4568    -4471    -4436 
   -4430    -4442    -4509    -4644    -4753    -4706    -4513    -4365 
   -4407    -4637    -4915    -5020    -4912    -4723    -4553    -4472 
   -4483    -4509    -4579    -4768    -4912    -4808    -4558    -4387 
   -4372    -4469    -4556    -4572    -4637    -4804    -4911    -4820 
   -4611    -4453    -4468    -4650    -4827    -4808    -4576    -4356 
   -4368    -4560    -4715    -4730    -4666    -4607    -4500    -4337 
   -4305    -4507    -4799    -4982    -4992    -4878    -4733    -4610 
   -4517    -4444    -4423    -4550    -4815    -5030    -4995    -4700 
   -4345    -4148    -4201    -4450    -4780    -5051    -5132    -4989 
   -4666    -4268    -4021    -4102    -4409    -4680    -4779    -4749 
   -4730    -4812    -4912    -4928    -4864    -4750    -4677    -4715 
   -4800    -4839    -4781    -4621    -4409    -4206    -4094    -4135 
   -4270    -4396    -4504    -4603    -4660    -4673    -4725    -4828 
   -4872    -4787    -4646    -4603    -4725    -4911    -5020    -4973 
   -4780    -4563    -4441    -4396    -4368    -4364    -4414    -4492 
   -4537    -4518    -4487    -4553    -4722    -4837    -4812    -4723 
   -4641    -4585    -4521    -4419    -4371    -4486    -4734    -4939 
   -4939    -4746    -4529    -4445    -4499    -4548    -4509    -4475 
   -4553    -4711    -4847    -4861    -4752    -4648    -4633    -4683 
   -4712    -4676    -4633    -4658    -4730    -4773    -4765    -4735 
   -4715    -4698    -4641    -4545    -4473    -4490    -4584    -4656 
   -4603    -4457    -4364    -4418    -4548    -4588    -4513    -4477 
   -4550    -4634    -4676    -4693    -4711    -4766    -4816    -4727 
   -4515    -4369    -4419    -4604    -4769    -4841    -4892    -4965 
   -4980    -4869    -4672    -4510    -4491    -4573    -4684    -4807 
   -4845    -4685    -4403    -4176    -4105    -4201    -4441    -4762 
   -5031    -5092    -4914    -4661    -4499    -4453    -4471    -4482 
   -4473    -4526    -4700    -4955    -5148    -5101    -4816    -4546 
   -4469    -4494    -4438    -4224    -3982    -3942    -4120    -4382 
   -4627    -4808    -4916    -4938    -4858    -4752    -4757    -4915 
   -5078    -5059    -4854    -4610    -4436    -4321    -4244    -4237 
   -4329    -4500    -4691    -4789    -4715    -4518    -4340    -4352 
   -4604    -4927    -5121    -5148    -5034    -4807    -4557    -4390 
   -4351    -4413    -4526    -4683    -4909    -5111    -5100    -4838 
   -4411    -3959    -3720    -3823    -4189    -4715    -5238    -5503 
   -5443    -5233    -5053    -4927    -4779    -4579    -4409    -4326 
   -4320    -4374    -4446    -4448    -4336    -4206    -4197    -4334 
   -4506    -4623    -4708    -4797    -4862    -4835    -4708    -4583 
   -4538    -4557    -4594    -4638    -4727    -4837    -4858    -4731 
   -4491    -4241    -4089    -4081    -4210    -4457    -4768    -5062 
   -5273    -5331    -5192    -4907    -4617    -4471    -4479    -4492 
   -4419    -4352    -4399    -4483    -4467    -4372    -4305    -4301 
   -4395    -4612    -4874    -5057    -5098    -5030    -4923    -4770 
   -4529    -4315    -4330    -4565    -4826    -4959    -4951    -4849 
   -4679    -4436    -4160    -4005    -4125    -4473    -4845    -5058 
   -5050    -4919    -4837    -4851    -4877    -4858    -4784    -4656 
   -4502    -4359    -4298    -4351    -4452    -4540    -4596    -4608 
   -4615    -4699    -4869    -5004    -4928    -4623    -4267    -4029 
   -3962    -4098    -4441    -4854    -5170    -5328    -5296    -5058 
   -4714    -4384    -4139    -4059    -4201    -4504    -4850    -5088 
   -5081    -4845    -4549    -4324    -4241    -4349    -4563    -4710 
   -4725    -4660    -4595    -4571    -4531    -4414    -4284    -4303 
   -4558    -4972    -5367    -5582    -5505    -5148    -4675    -4261 
   -4020    -4010    -4221    -4514    -4722    -4788    -4720    -4581 
   -4438    -4264    -4086    -4087    -4388    -4897    -5383    -5563 
   -5324    -4833    -4378    -4156    -4180    -4338    -4531    -4711 
   -4830    -4834    -4706    -4529    -4461    -4529    -4592    -4592 
   -4606    -4685    -4811    -4901    -4853    -4641    -4382    -4187 
   -4102    -4098    -4118    -4256    -4626    -5061    -5290    -5238 
   -5020    -4787    -4594    -4457    -4441    -4577    -4777    -4862 
   -4703    -4364    -4094    -4089    -4297    -4538    -4679    -4703 
   -4745    -4897    -5040    -5031    -4850    -4631    -4549    -4617 
   -4738    -4842    -4887    -4816    -4611    -4338    -4091    -3964 
   -4067    -4371    -4715    -5011    -5223    -5306    -5251    -5055 
   -4757    -4492    -4401    -4479    -4627    -4754    -4810    -4749 
   -4580    -4407    -4347    -4426    -4610    -4835    -5007    -5019 
   -4857    -4580    -4283    -4114    -4131    -4220    -4261    -4230 
   -4172    -4186    -4332    -4611    -4966    -5255    -5340    -5174 
   -4811    -4390    -4118    -4136    -4353    -4576    -4719    -4800 
   -4873    -4930    -4892    -4783    -4745    -4820    -4935    -4992 
   -4920    -4718    -4440    -4197    -4104    -4175    -4325    -4488 
   -4642    -4756    -4783    -4700    -4568    -4465    -4387    -4325 
   -4371    -4637    -5070    -5416    -5449    -5181    -4788    -4476 
   -4291    -4145    -4032    -4014    -4131    -4376    -4656    -4842 
   -4878    -4799    -4685    -4591    -4558    -4662    -4899    -5135 
   -5190    -5017    -4765    -4572    -4459    -4387    -4297    -4163 
   -4055    -4081    -4288    -4603    -4924    -5219    -5431    -5479 
   -5347    -5071    -4749    -4483    -4303    -4230    -4278    -4403 
   -4544    -4625    -4611    -4554    -4511    -4515    -4541    -4510 
   -4376    -4206    -4153    -4325    -4656    -4957    -5076    -5004 
   -4865    -4760    -4685    -4600    -4527    -4553    -4695    -4857 
   -4911    -4812    -4652    -4540    -4494    -4469    -4438    -4441 
   -4479    -4475    -4411    -4348    -4322    -4369    -4495    -4590 
   -4584    -4552    -4575    -4696    -4896    -5038    -5022    -4904 
   -4765    -4626    -4486    -4368    -4294    -4279    -4307    -4368 
   -4494    -4684    -4858    -4957    -4965    -4896    -4799    -4745 
   -4795    -4927    -5031    -5005    -4835    -4602    -4394    -4255 
   -4186    -4180    -4263    -4442    -4625    -4706    -4699    -4664 
   -4644    -4658    -4718    -4839    -5020    -5229    -5398    -5409 
   -5211    -4887    -4557    -4298    -4110    -3971    -3898    -3901 
   -3970    -4083    -4210    -4356    -4558    -4776    -4916    -4947 
   -4911    -4854    -4799    -4718    -4600    -4511    -4540    -4691 
   -4901    -5101    -5196    -5158    -5059    -4904    -4668    -4419 
   -4249    -4185    -4182    -4185    -4213    -4306    -4460    -4637 
   -4777    -4860    -4923    -4993    -5032    -4965    -4752    -4442 
   -4172    -4045    -4044    -4097    -4190    -4349    -4568    -4757 
   -4820    -4764    -4671    -4618    -4626    -4666    -4711    -4768 
   -4873    -4997    -5059    -5040    -4981    -4900    -4765    -4544 
   -4278    -4104    -4144    -4383    -4653    -4766    -4695    -4553 
   -4463    -4472    -4540    -4602    -4684    -4812    -4931    -4969 
   -4897    -4762    -4645    -4590    -4579    -4553    -4502    -4459 
   -4430    -4405    -4395    -4446    -4611    -4843    -5005    -5032 
   -4969    -4885    -4828    -4783    -4716    -4627    -4519    -4394 
   -4303    -4313    -4423    -4625    -4855    -4943    -4795    -4511 
   -4245    -4081    -4021    -4050    -4209    -4550    -4984    -5285 
   -5298    -5067    -4784    -4671    -4789    -4969    -5016    -4895 
   -4698    -4522    -4342    -4133    -4008    -4058    -4236    -4449 
   -4621    -4727    -4812    -4893    -4927    -4896    -4834    -4770 
   -4729    -4691    -4584    -4390    -4185    -4056    -4052    -4162 
   -4353    -4602    -4866    -5096    -5221    -5163    -4934    -4676 
   -4519    -4475    -4499    -4585    -4742    -4909    -4985    -4914 
   -4719    -4490    -4337    -4318    -4391    -4499    -4625    -4743 
   -4793    -4719    -4553    -4430    -4482    -4688    -4887    -4947 
   -4845    -4639    -4442    -4313    -4241    -4247    -4379    -4600 
   -4793    -4887    -4873    -4795    -4746    -4768    -4780    -4735 
   -4688    -4664    -4606    -4450    -4233    -4094    -4135    -4314 
   -4531    -4722    -4880    -5024    -5142    -5151    -5004    -4758 
   -4522    -4369    -4315    -4322    -4355    -4436    -4585    -4745 
   -4815    -4773    -4688    -4625    -4568    -4486    -4403    -4387 
   -4475    -4676    -4955    -5216    -5359    -5356    -5247    -5059 
   -4814    -4588    -4473    -4483    -4540    -4603    -4676    -4752 
   -4823    -4868    -4842    -4753    -4648    -4519    -4322    -4048 
   -3769    -3605    -3631    -3793    -3994    -4205    -4472    -4877 
   -5427    -5945    -6203    -6145    -5860    -5437    -4968    -4550 
   -4279    -4233    -4386    -4549    -4561    -4378    -4006    -3514 
   -3057    -2829    -2997    -3639    -4639    -5672    -6397    -6682 
   -6585    -6239    -5832    -5458    -5103    -4783    -4504    -4222 
   -3909    -3564    -3180    -2768    -2390    -2154    -2119    -2313 
   -2744    -3362    -4093    -4824    -5459    -5944    -6249    -6370 
   -6296    -5984    -5462    -4862    -4356    -4050    -3947    -4028 
   -4309    -4774    -5304    -5737    -5946    -5919    -5749    -5462 
   -5034    -4513    -3991    -3531    -3164    -2936    -2899    -3136 
   -3720    -4556    -5391    -6012    -6326    -6339    -6066    -5489 
   -4669    -3816    -3227    -3160    -3665    -4565    -5560    -6342 
   -6723    -6714    -6431    -5989    -5552    -5252    -5094    -4966 
   -4761    -4425    -3952    -3412    -2901    -2535    -2486    -2856 
   -3543    -4305    -4919    -5263    -5350    -5289    -5178    -5082 
   -5081    -5229    -5471    -5624    -5486    -4985    -4247    -3551 
   -3159    -3145    -3464    -4021    -4644    -5080    -5163    -4911 
   -4471    -4082    -3893    -3882    -3996    -4167    -4282    -4270 
   -4135    -3908    -3665    -3564    -3727    -4152    -4765    -5459 
   -6081    -6465    -6457    -6033    -5366    -4710    -4209    -3902 
   -3820    -3974    -4283    -4621    -4877    -4969    -4849    -4588 
   -4334    -4191    -4245    -4534    -4968    -5347    -5466    -5259 
   -4824    -4338    -3994    -3904    -4068    -4471    -5004    -5447 
   -5618    -5475    -5112    -4735    -4510    -4465    -4598    -4926 
   -5368    -5761    -5975    -5945    -5668    -5233    -4789    -4442 
   -4252    -4226    -4297    -4347    -4284    -4125    -3936    -3796 
   -3825    -4070    -4455    -4896    -5270    -5398    -5215    -4830 
   -4382    -3979    -3747    -3742    -3921    -4245    -4665    -5063 
   -5308    -5333    -5181    -4943    -4700    -4475    -4260    -4094 
   -4017    -3998    -3989    -3974    -3956    -3929    -3931    -4033 
   -4271    -4619    -4976    -5186    -5173    -4985    -4749    -4573 
   -4525    -4641    -4911    -5270    -5593    -5683    -5414    -4838 
   -4166    -3628    -3362    -3380    -3615    -3955    -4243    -4325 
   -4176    -3940    -3763    -3670    -3636    -3680    -3816    -4027 
   -4278    -4536    -4787    -5055    -5362    -5691    -5957    -6066 
   -6025    -5888    -5680    -5439    -5233    -5082    -4951    -4806 
   -4666    -4662    -4892    -5300    -5764    -6153    -6320    -6203 
   -5838    -5298    -4681    -4156    -3905    -3925    -4027    -4024 
   -3842    -3483    -2988    -2461    -2056    -1952    -2239    -2830 
   -3564    -4340    -5107    -5809    -6374    -6704    -6708    -6412 
   -5930    -5386    -4876    -4475    -4256    -4210    -4197    -4105 
   -3985    -3987    -4207    -4540    -4787    -4880    -4864    -4788 
   -4699    -4668    -4791    -5119    -5603    -6079    -6369    -6447 
   -6361    -6100    -5660    -5098    -4533    -4056    -3693    -3446 
   -3350    -3522    -4002    -4638    -5186    -5456    -5352    -4899 
   -4252    -3627    -3188    -3061    -3295    -3793    -4384    -4908 
   -5231    -5269    -5009    -4527    -3981    -3547    -3318    -3288 
   -3365    -3480    -3635    -3819    -4018    -4261    -4552    -4869 
   -5184    -5436    -5578    -5605    -5579    -5568    -5540    -5449 
   -5292    -5065    -4785    -4471    -4108    -3732    -3410    -3187 
   -3150    -3403    -3931    -4557    -5078    -5386    -5485    -5467 
   -5464    -5541    -5625    -5632    -5571    -5482    -5394    -5324 
   -5240    -5098    -4904    -4680    -4450    -4295    -4322    -4523 
   -4827    -5212    -5633    -5992    -6169    -6080    -5718    -5167 
   -4529    -3844    -3167    -2628    -2363    -2420    -2759    -3279 
   -3850    -4342    -4646    -4689    -4490    -4199    -4000    -4006 
   -4214    -4557    -4962    -5368    -5719    -5942    -5957    -5817 
   -5648    -5498    -5336    -5151    -4953    -4719    -4421    -4078 
   -3769    -3593    -3574    -3638    -3680    -3663    -3654    -3724 
   -3905    -4213    -4602    -5003    -5362    -5605    -5686    -5655 
   -5594    -5508    -5339    -5062    -4729    -4402    -4093    -3782 
   -3483    -3288    -3318    -3580    -3955    -4353    -4714    -4943 
   -5000    -4924    -4801    -4731    -4770    -4866    -4895    -4820 
   -4691    -4495    -4214    -3889    -3592    -3426    -3474    -3744 
   -4175    -4683    -5177    -5555    -5749    -5794    -5768    -5714 
   -5643    -5556    -5449    -5386    -5420    -5439    -5344    -5193 
   -5067    -5005    -5011    -5028    -4982    -4872    -4745    -4596 
   -4413    -4259    -4214    -4287    -4425    -4598    -4808    -5031 
   -5157    -5062    -4747    -4324    -3923    -3607    -3370    -3233 
   -3240    -3399    -3666    -3944    -4159    -4325    -4473    -4595 
   -4658    -4695    -4766    -4853    -4893    -4878    -4815    -4733 
   -4660    -4598    -4544    -4537    -4630    -4785    -4920    -5003 
   -5023    -5004    -4961    -4868    -4729    -4626    -4633    -4722 
   -4808    -4872    -4943    -5040    -5136    -5174    -5115    -4968 
   -4739    -4425    -4055    -3704    -3414    -3187    -3073    -3137 
   -3420    -3924    -4541    -5055    -5281    -5194    -4896    -4507 
   -4148    -3935    -3963    -4236    -4627    -4976    -5192    -5290 
   -5351    -5410    -5468    -5552    -5647    -5670    -5571    -5364 
   -5086    -4807    -4584    -4423    -4330    -4334    -4442    -4625 
   -4835    -5028    -5170    -5258    -5333    -5393    -5404    -5370 
   -5283    -5108    -4831    -4456    -4012    -3628    -3470    -3578 
   -3844    -4163    -4471    -4715    -4878    -4923    -4768    -4414 
   -4027    -3808    -3862    -4167    -4594    -4995    -5269    -5358 
   -5239    -4919    -4477    -4051    -3746    -3596    -3553    -3564 
   -3624    -3757    -3962    -4222    -4526    -4858    -5162    -5383 
   -5483    -5409    -5147    -4792    -4498    -4340    -4306    -4356 
   -4419    -4452    -4446    -4392    -4264    -4082    -3950    -3951 
   -4093    -4355    -4649    -4873    -5007    -5047    -4977    -4822 
   -4631    -4461    -4384    -4467    -4706    -5020    -5327    -5587 
   -5773    -5871    -5864    -5714    -5416    -5062    -4761    -4542 
   -4415    -4371    -4376    -4426    -4531    -4629    -4612    -4459 
   -4257    -4116    -4056    -4041    -4000    -3909    -3834    -3831 
   -3915    -4075    -4291    -4519    -4780    -5123    -5494    -5759 
   -5854    -5806    -5653    -5456    -5254    -5039    -4824    -4676 
   -4646    -4722    -4850    -4986    -5089    -5123    -5103    -5011 
   -4773    -4407    -4048    -3821    -3757    -3811    -3913    -4066 
   -4310    -4607    -4854    -4969    -4924    -4760    -4558    -4376 
   -4201    -4006    -3828    -3755    -3831    -4017    -4244    -4467 
   -4688    -4924    -5143    -5256    -5229    -5094    -4916    -4768 
   -4704    -4687    -4626    -4514    -4410    -4301    -4158    -4031 
   -3955    -3963    -4091    -4284    -4417    -4429    -4375    -4321 
   -4295    -4329    -4428    -4565    -4756    -4993    -5208    -5316 
   -5300    -5173    -4980    -4795    -4633    -4471    -4367    -4379 
   -4483    -4633    -4785    -4918    -5066    -5273    -5485    -5610 
   -5611    -5495    -5302    -5084    -4854    -4623    -4413    -4275 
   -4248    -4267    -4268    -4276    -4325    -4422    -4558    -4666 
   -4662    -4558    -4464    -4446    -4488    -4540    -4572    -4587 
   -4610    -4675    -4768    -4828    -4853    -4876    -4892    -4891 
   -4846    -4734    -4595    -4491    -4452    -4452    -4484    -4553 
   -4617    -4645    -4646    -4619    -4581    -4580    -4596    -4556 
   -4446    -4320    -4222    -4197    -4229    -4257    -4280    -4334 
   -4410    -4488    -4572    -4649    -4695    -4725    -4752    -4766 
   -4743    -4684    -4610    -4542    -4479    -4401    -4291    -4174 
   -4118    -4189    -4394    -4666    -4920    -5120    -5255    -5302 
   -5239    -5069    -4827    -4592    -4437    -4372    -4380    -4459 
   -4577    -4704    -4806    -4822    -4750    -4666    -4619    -4569 
   -4465    -4357    -4311    -4333    -4421    -4536    -4635    -4768 
   -4992    -5267    -5516    -5656    -5610    -5391    -5097    -4791 
   -4509    -4302    -4222    -4291    -4460    -4638    -4746    -4774 
