Origin Time       2025/03/28 03:50:00
Lat.              35.403
Long.             140.360
Depth. (km)       54
Mag.              4.4
Station Code      SIT013
Station Lat.      35.7966
Station Long.     139.4659
Station Height(m) 76
Record Time       2025/03/28 03:51:08
Sampling Freq(Hz) 100Hz
Duration Time(s)  60
Dir.              N-S
Scale Factor      7845(gal)/8223790
Max. Acc. (gal)   2.045
Last Correction   2025/03/28 03:51:08
Memo.             
[...]
   -7699    -7695    -7692    -7684    -7676    -7682    -7700    -7705 
   -7700    -7699    -7695    -7685    -7689    -7697    -7703    -7709 
   -7715    -7708    -7696    -7690    -7684    -7677    -7684    -7697 
   -7699    -7696    -7700    -7704    -7703    -7697    -7688    -7689 
   -7699    -7696    -7693    -7697    -7689    -7677    -7680    -7686 
   -7685    -7684    -7692    -7709    -7717    -7707    -7697    -7696 
   -7693    -7693    -7700    -7695    -7690    -7700    -7701    -7690 
   -7688    -7693    -7690    -7684    -7690    -7700    -7696    -7695 
   -7701    -7703    -7700    -7697    -7695    -7695    -7688    -7682 
   -7695    -7701    -7696    -7696    -7693    -7678    -7678    -7697 
   -7705    -7704    -7705    -7704    -7696    -7689    -7689    -7688 
   -7686    -7689    -7689    -7693    -7699    -7695    -7693    -7701 
   -7705    -7708    -7712    -7711    -7708    -7705    -7693    -7678 
   -7674    -7677    -7685    -7695    -7696    -7690    -7695    -7701 
   -7692    -7690    -7700    -7701    -7699    -7693    -7685    -7686 
   -7690    -7700    -7708    -7711    -7715    -7708    -7693    -7688 
   -7686    -7688    -7692    -7692    -7692    -7699    -7695    -7686 
   -7693    -7705    -7704    -7690    -7678    -7677    -7692    -7705 
   -7711    -7707    -7697    -7695    -7697    -7693    -7692    -7703 
   -7701    -7685    -7681    -7696    -7703    -7696    -7689    -7693 
   -7700    -7703    -7703    -7705    -7700    -7690    -7692    -7696 
   -7695    -7692    -7697    -7703    -7699    -7693    -7700    -7699 
   -7684    -7678    -7692    -7699    -7696    -7703    -7708    -7703 
   -7699    -7692    -7690    -7695    -7695    -7699    -7699    -7688 
   -7689    -7703    -7707    -7705    -7705    -7703    -7707    -7711 
   -7692    -7676    -7685    -7690    -7688    -7695    -7700    -7699 
   -7697    -7699    -7697    -7701    -7704    -7700    -7700    -7703 
   -7701    -7707    -7711    -7697    -7689    -7690    -7686    -7676 
   -7676    -7690    -7695    -7689    -7699    -7707    -7700    -7695 
   -7693    -7696    -7700    -7700    -7697    -7699    -7703    -7697 
   -7692    -7690    -7686    -7682    -7677    -7674    -7682    -7688 
   -7684    -7684    -7684    -7682    -7701    -7747    -7780    -7777 
   -7754    -7712    -7692    -7716    -7728    -7716    -7696    -7655 
   -7620    -7612    -7609    -7609    -7624    -7638    -7650    -7696 
   -7754    -7784    -7776    -7727    -7672    -7684    -7765    -7827 
   -7817    -7739    -7635    -7573    -7588    -7651    -7713    -7734 
   -7685    -7616    -7624    -7716    -7807    -7811    -7722    -7624 
   -7628    -7713    -7769    -7731    -7624    -7522    -7519    -7636 
   -7774    -7820    -7776    -7697    -7663    -7713    -7769    -7782 
   -7784    -7759    -7703    -7653    -7649    -7670    -7668    -7634 
   -7581    -7558    -7614    -7701    -7759    -7781    -7759    -7711 
   -7703    -7749    -7790    -7792    -7749    -7657    -7577    -7572 
   -7616    -7662    -7684    -7663    -7650    -7699    -7790    -7859 
   -7834    -7703    -7555    -7519    -7624    -7781    -7874    -7843 
   -7719    -7604    -7585    -7649    -7700    -7685    -7645    -7628 
   -7659    -7723    -7770    -7782    -7771    -7739    -7697    -7674 
   -7677    -7673    -7630    -7553    -7495    -7527    -7639    -7723 
   -7735    -7734    -7744    -7747    -7717    -7684    -7709    -7774 
   -7794    -7757    -7719    -7720    -7743    -7755    -7727    -7663 
   -7622    -7651    -7732    -7803    -7831    -7825    -7813    -7820 
   -7839    -7815    -7722    -7612    -7547    -7539    -7550    -7545 
   -7518    -7504    -7549    -7630    -7688    -7705    -7684    -7651 
   -7651    -7678    -7680    -7663    -7693    -7770    -7842    -7884 
   -7879    -7813    -7726    -7701    -7766    -7855    -7879    -7804 
   -7701    -7672    -7705    -7717    -7665    -7569    -7496    -7472 
   -7462    -7460    -7483    -7518    -7582    -7692    -7785    -7823 
   -7828    -7827    -7832    -7842    -7827    -7780    -7743    -7753 
   -7786    -7792    -7730    -7620    -7514    -7464    -7503    -7595 
   -7696    -7797    -7870    -7874    -7819    -7744    -7674    -7635 
   -7651    -7685    -7666    -7592    -7516    -7485    -7511    -7591 
   -7690    -7753    -7762    -7766    -7790    -7828    -7861    -7882 
   -7900    -7893    -7838    -7742    -7620    -7501    -7443    -7476 
   -7546    -7600    -7651    -7726    -7780    -7770    -7723    -7674 
   -7627    -7601    -7612    -7661    -7711    -7722    -7693    -7661 
   -7654    -7672    -7701    -7736    -7758    -7763    -7762    -7769 
   -7794    -7797    -7759    -7730    -7731    -7746    -7763    -7758 
   -7703    -7615    -7550    -7560    -7655    -7761    -7786    -7730 
   -7670    -7666    -7703    -7749    -7751    -7672    -7560    -7495 
   -7500    -7572    -7674    -7743    -7761    -7766    -7763    -7749 
   -7736    -7712    -7693    -7724    -7797    -7871    -7913    -7917 
   -7874    -7763    -7589    -7416    -7319    -7348    -7483    -7636 
   -7739    -7774    -7780    -7805    -7839    -7830    -7758    -7631 
   -7511    -7469    -7520    -7627    -7746    -7838    -7869    -7854 
   -7834    -7824    -7828    -7812    -7732    -7651    -7639    -7676 
   -7731    -7776    -7757    -7689    -7626    -7557    -7497    -7473 
   -7438    -7383    -7373    -7453    -7614    -7807    -7933    -7944 
   -7896    -7859    -7844    -7832    -7804    -7751    -7715    -7739 
   -7797    -7843    -7877    -7884    -7838    -7789    -7750    -7673 
   -7562    -7458    -7400    -7435    -7557    -7651    -7626    -7511 
   -7389    -7314    -7319    -7399    -7530    -7697    -7857    -7965 
   -8017    -8043    -8071    -8097    -8082    -8021    -7936    -7839 
   -7740    -7669    -7638    -7627    -7614    -7592    -7572    -7547 
   -7512    -7476    -7437    -7415    -7429    -7477    -7576    -7705 
   -7813    -7885    -7906    -7875    -7834    -7788    -7727    -7693 
   -7716    -7766    -7813    -7828    -7797    -7757    -7749    -7749 
   -7727    -7677    -7595    -7514    -7476    -7480    -7530    -7623 
   -7695    -7690    -7631    -7585    -7596    -7657    -7728    -7794 
   -7866    -7928    -7944    -7878    -7738    -7597    -7523    -7545 
   -7643    -7743    -7790    -7773    -7727    -7711    -7731    -7750 
   -7738    -7681    -7608    -7580    -7612    -7646    -7639    -7626 
   -7615    -7593    -7592    -7622    -7655    -7684    -7703    -7735 
   -7796    -7857    -7901    -7916    -7862    -7767    -7684    -7604 
   -7519    -7464    -7483    -7554    -7626    -7692    -7774    -7844 
   -7869    -7862    -7828    -7755    -7689    -7676    -7680    -7666 
   -7650    -7665    -7724    -7785    -7793    -7746    -7666    -7584 
   -7518    -7479    -7476    -7495    -7531    -7597    -7699    -7824 
   -7916    -7942    -7916    -7861    -7789    -7734    -7717    -7722 
   -7734    -7762    -7792    -7792    -7735    -7635    -7524    -7426 
   -7369    -7395    -7503    -7618    -7696    -7758    -7798    -7803 
   -7777    -7728    -7663    -7635    -7688    -7781    -7857    -7904 
   -7911    -7884    -7850    -7807    -7759    -7713    -7639    -7541 
   -7460    -7438    -7483    -7543    -7600    -7668    -7736    -7778 
   -7769    -7730    -7705    -7719    -7744    -7727    -7686    -7681 
   -7708    -7734    -7761    -7784    -7765    -7709    -7677    -7689 
   -7715    -7740    -7738    -7688    -7634    -7603    -7572    -7537 
   -7501    -7460    -7443    -7503    -7646    -7824    -7944    -7939 
   -7861    -7820    -7836    -7862    -7863    -7846    -7821    -7778 
   -7724    -7708    -7720    -7697    -7638    -7572    -7501    -7438 
   -7414    -7437    -7489    -7580    -7709    -7819    -7855    -7835 
   -7803    -7774    -7739    -7692    -7665    -7684    -7722    -7758 
   -7765    -7738    -7726    -7735    -7720    -7665    -7592    -7539 
   -7527    -7569    -7669    -7763    -7794    -7770    -7724    -7715 
   -7738    -7727    -7681    -7626    -7589    -7624    -7739    -7867 
   -7947    -7974    -7950    -7885    -7825    -7773    -7712    -7674 
   -7651    -7614    -7574    -7551    -7546    -7561    -7582    -7591 
   -7591    -7560    -7499    -7472    -7499    -7547    -7615    -7678 
   -7726    -7773    -7784    -7731    -7659    -7635    -7696    -7809 
   -7904    -7951    -7966    -7959    -7920    -7858    -7785    -7709 
   -7638    -7581    -7553    -7541    -7561    -7632    -7703    -7723 
   -7712    -7693    -7666    -7632    -7605    -7603    -7618    -7615 
   -7600    -7597    -7609    -7630    -7632    -7623    -7649    -7726 
   -7809    -7852    -7847    -7819    -7793    -7784    -7777    -7749 
   -7719    -7720    -7757    -7785    -7771    -7727    -7666    -7601 
   -7566    -7564    -7581    -7615    -7665    -7734    -7794    -7811 
   -7800    -7781    -7750    -7699    -7639    -7600    -7582    -7596 
   -7638    -7655    -7650    -7655    -7668    -7704    -7793    -7877 
   -7901    -7894    -7866    -7801    -7732    -7680    -7630    -7603 
   -7604    -7600    -7569    -7524    -7496    -7512    -7574    -7638 
   -7663    -7643    -7620    -7624    -7658    -7699    -7704    -7682 
   -7672    -7688    -7734    -7770    -7758    -7722    -7692    -7700 
   -7781    -7916    -8004    -7981    -7901    -7832    -7792    -7762 
   -7719    -7665    -7608    -7545    -7497    -7485    -7487    -7483 
   -7465    -7460    -7493    -7580    -7712    -7809    -7812    -7774 
   -7765    -7815    -7897    -7929    -7881    -7770    -7643    -7562 
   -7550    -7582    -7623    -7668    -7735    -7798    -7852    -7893 
   -7884    -7839    -7793    -7755    -7734    -7719    -7686    -7645 
   -7622    -7607    -7580    -7573    -7603    -7657    -7730    -7777 
   -7770    -7746    -7731    -7727    -7716    -7649    -7526    -7429 
   -7431    -7523    -7642    -7727    -7771    -7819    -7879    -7911 
   -7897    -7834    -7732    -7650    -7632    -7654    -7663    -7635 
   -7593    -7582    -7612    -7663    -7696    -7686    -7663    -7647 
   -7668    -7724    -7761    -7738    -7680    -7622    -7589    -7605 
   -7677    -7767    -7819    -7817    -7784    -7761    -7789    -7839 
   -7881    -7884    -7820    -7739    -7688    -7636    -7572    -7493 
   -7404    -7360    -7420    -7550    -7668    -7727    -7709    -7651 
   -7634    -7661    -7696    -7724    -7705    -7641    -7620    -7672 
   -7746    -7824    -7911    -7977    -7981    -7901    -7767    -7645 
   -7570    -7561    -7634    -7727    -7777    -7793    -7798    -7792 
   -7754    -7668    -7572    -7514    -7504    -7531    -7578    -7619 
   -7658    -7700    -7722    -7738    -7770    -7793    -7793    -7780 
   -7765    -7765    -7761    -7743    -7738    -7728    -7692    -7647 
   -7611    -7582    -7582    -7600    -7608    -7641    -7712    -7762 
   -7771    -7780    -7784    -7770    -7743    -7701    -7643    -7588 
   -7577    -7603    -7631    -7666    -7723    -7793    -7843    -7843 
   -7796    -7739    -7684    -7630    -7596    -7589    -7611    -7659 
   -7701    -7712    -7717    -7751    -7776    -7746    -7699    -7690 
   -7724    -7758    -7763    -7750    -7724    -7692    -7658    -7615 
   -7588    -7596    -7630    -7668    -7719    -7793    -7843    -7820 
   -7759    -7699    -7641    -7612    -7624    -7649    -7666    -7692 
   -7730    -7763    -7777    -7757    -7723    -7682    -7601    -7501 
   -7454    -7479    -7553    -7654    -7759    -7840    -7888    -7901 
   -7858    -7769    -7690    -7650    -7655    -7708    -7792    -7884 
   -7946    -7944    -7861    -7724    -7609    -7524    -7452    -7403 
   -7388    -7406    -7458    -7519    -7569    -7630    -7689    -7703 
   -7662    -7601    -7572    -7609    -7701    -7811    -7913    -7998 
   -8046    -8043    -8006    -7955    -7877    -7780    -7705    -7681 
   -7717    -7794    -7834    -7788    -7678    -7534    -7385    -7280 
   -7237    -7252    -7315    -7415    -7524    -7635    -7759    -7896 
   -8004    -8014    -7927    -7812    -7728    -7690    -7688    -7700 
   -7738    -7796    -7839    -7852    -7835    -7792    -7734    -7650 
   -7554    -7485    -7456    -7465    -7499    -7553    -7634    -7692 
   -7695    -7677    -7655    -7645    -7684    -7765    -7832    -7888 
   -7943    -7948    -7877    -7770    -7666    -7589    -7551    -7523 
   -7489    -7465    -7452    -7488    -7609    -7757    -7866    -7928 
   -7955    -7948    -7921    -7896    -7847    -7762    -7689    -7651 
   -7636    -7638    -7642    -7614    -7534    -7437    -7398    -7453 
   -7584    -7763    -7944    -8062    -8083    -8029    -7946    -7869 
   -7803    -7761    -7751    -7736    -7699    -7661    -7635    -7618 
   -7631    -7668    -7689    -7684    -7655    -7607    -7565    -7564 
   -7618    -7701    -7782    -7838    -7843    -7812    -7769    -7716 
   -7647    -7557    -7442    -7337    -7284    -7294    -7366    -7491 
   -7612    -7685    -7712    -7727    -7785    -7878    -7965    -8010 
   -7994    -7943    -7884    -7793    -7692    -7600    -7470    -7283 
   -7065    -6862    -6747    -6771    -6917    -7149    -7439    -7753 
   -8036    -8245    -8363    -8419    -8461    -8506    -8571    -8669 
   -8770    -8851    -8914    -8918    -8799    -8533    -8131    -7612 
   -7041    -6498    -6058    -5749    -5571    -5551    -5726    -6126 
   -6685    -7263    -7763    -8144    -8401    -8559    -8613    -8548 
   -8407    -8271    -8176    -8120    -8098    -8125    -8232    -8388 
   -8526    -8603    -8586    -8428    -8137    -7776    -7416    -7102 
   -6835    -6588    -6339    -6112    -5968    -5980    -6176    -6523 
   -6984    -7526    -8093    -8629    -9104    -9491    -9707    -9720 
   -9563    -9282    -8941    -8599    -8294    -8047    -7824    -7569 
   -7298    -7059    -6855    -6669    -6497    -6331    -6180    -6085 
   -6069    -6131    -6291    -6579    -6982    -7449    -7942    -8406 
   -8780    -9031    -9144    -9123    -9012    -8843    -8640    -8456 
   -8299    -8137    -7993    -7861    -7693    -7485    -7279    -7092 
   -6936    -6840    -6849    -6982    -7234    -7545    -7828    -8037 
   -8128    -8067    -7878    -7642    -7434    -7295    -7245    -7276 
   -7368    -7496    -7612    -7674    -7676    -7646    -7642    -7693 
   -7769    -7847    -7928    -8001    -8063    -8112    -8147    -8166 
   -8158    -8128    -8098    -8106    -8187    -8318    -8440    -8482 
   -8359    -8044    -7589    -7064    -6528    -6065    -5748    -5636 
   -5763    -6114    -6615    -7146    -7599    -7933    -8174    -8344 
   -8433    -8441    -8421    -8426    -8495    -8650    -8842    -8976 
   -9000    -8907    -8712    -8455    -8154    -7812    -7443    -7083 
   -6782    -6581    -6470    -6404    -6355    -6322    -6319    -6382 
   -6540    -6812    -7196    -7624    -8032    -8401    -8692    -8869 
   -8915    -8816    -8607    -8364    -8164    -8071    -8087    -8172 
   -8294    -8399    -8425    -8359    -8202    -7947    -7619    -7279 
   -6998    -6813    -6705    -6637    -6596    -6588    -6598    -6625 
   -6701    -6844    -7051    -7296    -7555    -7855    -8212    -8568 
   -8856    -9012    -8999    -8853    -8657    -8472    -8338    -8267 
   -8221    -8139    -8004    -7842    -7680    -7524    -7364    -7182 
   -6976    -6779    -6629    -6551    -6550    -6594    -6647    -6712 
   -6812    -6976    -7236    -7574    -7958    -8353    -8714    -8999 
   -9192    -9254    -9177    -9005    -8779    -8506    -8217    -7960 
   -7739    -7537    -7346    -7148    -6953    -6799    -6702    -6656 
   -6647    -6644    -6646    -6670    -6727    -6828    -7010    -7290 
   -7612    -7929    -8235    -8521    -8779    -9004    -9173    -9277 
   -9315    -9256    -9069    -8743    -8309    -7823    -7349    -6934 
   -6612    -6411    -6347    -6404    -6547    -6731    -6907    -7041 
   -7121    -7176    -7250    -7368    -7550    -7817    -8144    -8461 
   -8692    -8810    -8829    -8773    -8681    -8549    -8347    -8089 
   -7819    -7564    -7356    -7200    -7069    -6955    -6876    -6832 
   -6814    -6824    -6871    -6976    -7171    -7447    -7782    -8139 
   -8453    -8688    -8826    -8841    -8727    -8532    -8309    -8087 
   -7893    -7743    -7634    -7561    -7499    -7407    -7279    -7136 
   -7025    -6979    -7015    -7129    -7304    -7510    -7684    -7786 
   -7825    -7800    -7703    -7588    -7512    -7512    -7605    -7771 
   -7965    -8147    -8299    -8392    -8390    -8251    -7987    -7670 
   -7362    -7096    -6907    -6817    -6822    -6916    -7076    -7269 
   -7458    -7616    -7727    -7807    -7898    -8032    -8186    -8325 
   -8441    -8514    -8522    -8453    -8302    -8085    -7852    -7662 
   -7543    -7485    -7461    -7442    -7389    -7295    -7179    -7076 
   -7028    -7048    -7113    -7213    -7360    -7553    -7778    -8020 
   -8228    -8360    -8418    -8405    -8336    -8255    -8171    -8064 
   -7959    -7859    -7750    -7655    -7574    -7485    -7410    -7354 
   -7318    -7295    -7268    -7242    -7250    -7295    -7348    -7414 
   -7522    -7666    -7828    -7983    -8087    -8129    -8112    -8032 
   -7923    -7823    -7731    -7653    -7619    -7636    -7681    -7734 
   -7774    -7777    -7730    -7638    -7531    -7443    -7399    -7403 
   -7449    -7533    -7638    -7754    -7858    -7913    -7915    -7874 
   -7798    -7716    -7659    -7628    -7627    -7677    -7767    -7867 
   -7971    -8068    -8128    -8128    -8051    -7902    -7723    -7564 
   -7435    -7341    -7280    -7238    -7203    -7165    -7111    -7045 
   -6991    -6967    -7003    -7152    -7406    -7705    -8001    -8245 
   -8402    -8479    -8500    -8476    -8424    -8363    -8307    -8275 
   -8257    -8224    -8148    -8028    -7857    -7638    -7406    -7200 
   -7056    -6999    -7037    -7140    -7272    -7396    -7484    -7531 
   -7530    -7479    -7410    -7357    -7346    -7377    -7456    -7574 
   -7699    -7831    -7965    -8077    -8166    -8225    -8247    -8253 
   -8251    -8228    -8174    -8070    -7917    -7730    -7510    -7269 
   -7038    -6845    -6720    -6687    -6766    -6941    -7196    -7523 
   -7881    -8197    -8417    -8519    -8515    -8445    -8345    -8233 
   -8147    -8102    -8082    -8059    -8019    -7933    -7800    -7620 
   -7406    -7194    -7048    -6998    -7034    -7132    -7250    -7350 
   -7415    -7456    -7493    -7555    -7646    -7749    -7843    -7917 
   -7979    -8039    -8074    -8071    -8062    -8068    -8077    -8071 
   -8054    -7994    -7892    -7777    -7651    -7534    -7453    -7403 
   -7376    -7381    -7416    -7462    -7518    -7592    -7657    -7695 
   -7695    -7645    -7566    -7493    -7430    -7389    -7379    -7369 
   -7352    -7345    -7371    -7447    -7578    -7716    -7828    -7920 
   -7997    -8051    -8091    -8121    -8127    -8093    -8014    -7908 
   -7805    -7731    -7677    -7624    -7576    -7533    -7496    -7499 
   -7534    -7555    -7545    -7508    -7462    -7441    -7464    -7522 
   -7592    -7662    -7722    -7780    -7846    -7906    -7939    -7946 
