Origin Time       2025/03/28 03:50:00
Lat.              35.403
Long.             140.360
Depth. (km)       54
Mag.              4.4
Station Code      SIT013
Station Lat.      35.7966
Station Long.     139.4659
Station Height(m) 76
Record Time       2025/03/28 03:51:08
Sampling Freq(Hz) 100Hz
Duration Time(s)  60
Dir.              U-D
Scale Factor      7845(gal)/8223790
Max. Acc. (gal)   0.828
Last Correction   2025/03/28 03:51:08
Memo.             
   11535    11530    11522    11529    11547    11551    11549    11556 
   11554    11531    11520    11533    11553    11561    11547    11537 
   11546    11543    11526    11529    11535    11527    11539    11562 
   11553    11534    11542    11543    11533    11534    11543    11547 
   11545    11538    11537    11538    11538    11539    11545    11539 
   11527    11538    11556    11551    11543    11538    11533    11539 
   11546    11543    11542    11546    11547    11538    11537    11543 
   11541    11539    11539    11534    11541    11546    11539    11543 
   11551    11542    11538    11546    11549    11541    11537    11541 
   11550    11549    11539    11538    11541    11541    11543    11550 
   11546    11542    11549    11553    11553    11546    11541    11545 
   11543    11533    11533    11538    11541    11546    11550    11547 
   11543    11547    11550    11542    11541    11549    11547    11543 
   11545    11534    11529    11542    11541    11533    11547    11558 
   11546    11541    11547    11541    11529    11537    11553    11556 
   11545    11537    11535    11531    11530    11542    11553    11554 
   11547    11537    11534    11538    11547    11557    11553    11542 
   11542    11543    11538    11529    11522    11534    11554    11554 
   11549    11551    11545    11539    11542    11541    11543    11549 
   11547    11550    11553    11543    11534    11527    11524    11538 
   11550    11547    11543    11541    11541    11553    11558    11547 
   11547    11551    11542    11533    11530    11539    11539    11535 
   11543    11550    11545    11549    11554    11546    11538    11535 
   11541    11549    11543    11534    11539    11547    11541    11537 
   11546    11556    11551    11545    11545    11545    11542    11542 
   11539    11533    11539    11554    11556    11543    11535    11542 
   11542    11534    11539    11547    11549    11547    11547    11545 
   11541    11531    11527    11539    11553    11550    11542    11541 
   11543    11549    11545    11545    11549    11543    11546    11554 
   11539    11522    11530    11545    11549    11553    11554    11547 
   11541    11533    11526    11534    11547    11543    11537    11542 
   11535    11542    11557    11543    11537    11551    11546    11542 
   11554    11560    11565    11587    11608    11627    11659    11689 
   11711    11720    11722    11711    11678    11632    11596    11566 
   11512    11425    11317    11207    11136    11114    11107    11122 
   11183    11280    11427    11601    11746    11838    11871    11890 
   11919    11919    11878    11765    11558    11349    11186    11057 
   11002    11033    11129    11267    11406    11580    11836    12069 
   12139    12070    11986    11974    12020    12000    11805    11479 
   11146    10912    10839    10955    11144    11209    11134    11102 
   11260    11620    12012    12175    12106    12016    11971    11943 
   11900    11747    11479    11275    11227    11227    11172    11071 
   11022    11130    11360    11570    11715    11842    11940    11975 
   11944    11874    11821    11815    11758    11580    11391    11281 
   11227    11232    11264    11265    11286    11350    11375    11373 
   11441    11547    11658    11815    11940    11943    11902    11834 
   11678    11497    11357    11295    11367    11507    11553    11426 
   11233    11159    11277    11510    11669    11661    11588    11562 
   11597    11647    11653    11649    11727    11848    11859    11745 
   11649    11603    11535    11435    11333    11260    11253    11271 
   11241    11202    11268    11449    11635    11762    11862    11966 
   12039    11979    11769    11558    11481    11499    11506    11460 
   11358    11232    11167    11200    11256    11277    11338    11514 
   11723    11832    11827    11799    11861    12036    12167    12058 
   11724    11398    11225    11146    11055    10937    10895    11036 
   11276    11449    11522    11573    11673    11832    12027    12190 
   12218    12052    11755    11499    11415    11468    11504    11400 
   11183    10991    10922    10976    11113    11302    11534    11788 
   11985    12054    12017    11943    11881    11848    11796    11655 
   11443    11259    11183    11210    11283    11330    11327    11335 
   11419    11566    11697    11745    11705    11618    11545    11553 
   11646    11762    11846    11843    11731    11553    11358    11233 
   11250    11371    11497    11566    11560    11499    11430    11411 
   11458    11520    11554    11580    11616    11646    11659    11638 
   11589    11560    11569    11601    11631    11649    11638    11558 
   11416    11292    11242    11272    11371    11480    11542    11578 
   11642    11738    11830    11890    11894    11809    11641    11452 
   11304    11256    11308    11384    11406    11376    11348    11367 
   11435    11529    11614    11666    11696    11740    11812    11870 
   11858    11786    11716    11678    11637    11533    11365    11187 
   11074    11071    11155    11290    11446    11572    11658    11739 
   11813    11846    11790    11653    11515    11450    11480    11570 
   11620    11560    11472    11445    11472    11503    11496    11480 
   11527    11619    11673    11638    11546    11506    11573    11659 
   11641    11508    11372    11346    11443    11576    11646    11632 
   11577    11514    11446    11426    11496    11597    11630    11569 
   11483    11479    11595    11715    11689    11535    11407    11411 
   11479    11492    11462    11460    11491    11550    11634    11700 
   11693    11619    11537    11502    11522    11573    11619    11627 
   11605    11595    11604    11608    11601    11601    11605    11612 
   11587    11481    11307    11164    11171    11345    11592    11772 
   11774    11635    11523    11545    11664    11759    11724    11587 
   11476    11437    11412    11362    11307    11302    11367    11464 
   11551    11607    11639    11664    11665    11637    11580    11507 
   11446    11434    11496    11611    11677    11645    11603    11612 
   11619    11608    11605    11591    11527    11434    11389    11425 
   11499    11569    11618    11649    11680    11704    11684    11595 
   11473    11385    11335    11276    11195    11149    11191    11327 
   11510    11664    11767    11846    11913    11959    11947    11875 
   11782    11686    11562    11446    11388    11338    11234    11138 
   11149    11291    11493    11639    11664    11597    11543    11601 
   11766    11890    11853    11670    11464    11327    11269    11237 
   11207    11269    11449    11616    11695    11692    11619    11556 
   11577    11639    11664    11642    11587    11526    11511    11546 
   11600    11665    11701    11651    11558    11506    11506    11524 
   11519    11468    11419    11456    11546    11551    11465    11422 
   11489    11614    11712    11709    11615    11529    11492    11457 
   11414    11384    11400    11481    11543    11530    11502    11526 
   11603    11697    11762    11773    11712    11624    11556    11487 
   11415    11360    11344    11388    11445    11465    11473    11481 
   11507    11562    11623    11680    11743    11774    11724    11596 
   11460    11403    11434    11479    11502    11541    11649    11778 
   11823    11753    11622    11483    11384    11340    11325    11325 
   11356    11426    11531    11650    11731    11734    11696    11680 
   11674    11643    11578    11488    11408    11383    11407    11445 
   11466    11461    11452    11468    11499    11507    11489    11483 
   11519    11607    11668    11650    11605    11574    11570    11611 
   11665    11672    11623    11560    11499    11458    11465    11511 
   11549    11530    11461    11430    11530    11686    11727    11649 
   11557    11518    11551    11577    11506    11414    11431    11527 
   11569    11519    11464    11460    11508    11580    11634    11645 
   11619    11587    11560    11535    11546    11577    11553    11460 
   11367    11353    11434    11546    11635    11707    11757    11747 
   11646    11472    11331    11302    11369    11475    11531    11539 
   11573    11634    11678    11711    11724    11688    11608    11549 
   11541    11549    11515    11422    11331    11333    11426    11516 
   11526    11484    11502    11616    11701    11684    11646    11627 
   11627    11641    11623    11556    11485    11439    11425    11431 
   11429    11408    11416    11468    11516    11574    11676    11772 
   11827    11865    11878    11793    11605    11426    11314    11248 
   11218    11214    11229    11284    11394    11507    11565    11600 
   11658    11692    11670    11612    11557    11534    11539    11534 
   11510    11496    11500    11495    11468    11435    11429    11457 
   11507    11569    11657    11758    11827    11844    11820    11753 
   11646    11518    11407    11344    11330    11362    11443    11533 
   11565    11557    11585    11650    11673    11619    11542    11511 
   11524    11541    11526    11493    11480    11489    11508    11515 
   11506    11495    11489    11493    11483    11464    11479    11535 
   11599    11619    11585    11549    11565    11600    11603    11589 
   11558    11492    11433    11416    11438    11523    11689    11857 
   11940    11935    11843    11674    11491    11345    11277    11306 
   11346    11317    11277    11317    11433    11556    11592    11558 
   11566    11668    11800    11858    11793    11665    11573    11558 
   11601    11664    11651    11500    11272    11097    11067    11144 
   11250    11384    11526    11658    11801    11935    12006    11978 
   11844    11676    11549    11487    11456    11396    11308    11265 
   11310    11427    11593    11722    11726    11658    11608    11578 
   11566    11539    11457    11375    11362    11398    11433    11452 
   11465    11511    11589    11635    11603    11515    11429    11375 
   11384    11472    11572    11612    11619    11649    11691    11716 
   11735    11751    11778    11801    11781    11709    11591    11468 
   11411    11415    11416    11356    11260    11230    11281    11360 
   11402    11383    11392    11500    11669    11835    11915    11851 
   11719    11618    11572    11564    11543    11449    11294    11169 
   11164    11290    11475    11624    11696    11727    11749    11761 
   11770    11751    11685    11618    11580    11580    11616    11642 
   11618    11543    11433    11323    11271    11307    11391    11435 
   11454    11524    11645    11751    11794    11745    11618    11476 
   11371    11315    11311    11342    11402    11508    11632    11713 
   11711    11620    11493    11429    11458    11524    11585    11647 
   11727    11835    11927    11928    11815    11639    11476    11368 
   11298    11226    11146    11106    11149    11275    11445    11619 
   11773    11885    11919    11869    11766    11645    11541    11470 
   11435    11433    11438    11437    11460    11511    11554    11580 
   11616    11647    11628    11566    11524    11546    11601    11620 
   11585    11538    11531    11565    11566    11495    11404    11353 
   11373    11439    11452    11408    11400    11445    11530    11634 
   11696    11708    11693    11654    11589    11510    11457    11458 
   11476    11500    11547    11600    11635    11632    11587    11534 
   11530    11533    11479    11404    11371    11406    11531    11680 
   11746    11724    11665    11592    11535    11527    11549    11574 
   11591    11581    11545    11485    11403    11329    11283    11287 
   11373    11500    11616    11720    11790    11824    11846    11820 
   11749    11686    11624    11524    11392    11264    11202    11242 
   11337    11418    11477    11551    11639    11678    11655    11628 
   11619    11614    11573    11470    11365    11310    11294    11302 
   11317    11362    11479    11635    11782    11880    11909    11901 
   11858    11778    11691    11620    11592    11574    11493    11369 
   11273    11209    11148    11099    11064    11025    11013    11083 
   11261    11553    11902    12201    12372    12401    12318    12166 
   11971    11796    11651    11506    11395    11341    11329    11379 
   11460    11496    11489    11469    11443    11415    11350    11241 
   11130    11059    11057    11114    11211    11377    11587    11790 
   11994    12166    12258    12295    12283    12210    12091    11898 
   11634    11352    11070    10841    10716    10675    10737    10910 
   11111    11277    11414    11550    11696    11844    12017    12167 
   12168    12032    11863    11712    11627    11601    11546    11435 
   11315    11222    11187    11236    11337    11430    11477    11473 
   11472    11551    11696    11830    11932    11998    12019    11990 
   11902    11762    11603    11460    11349    11256    11148    11033 
   10980    11024    11138    11277    11376    11418    11469    11549 
   11659    11797    11902    11947    11974    11978    11909    11770 
   11605    11456    11346    11291    11275    11276    11287    11326 
   11367    11372    11371    11375    11369    11388    11469    11615 
   11793    11952    12048    12074    12060    12031    11975    11859 
   11655    11411    11221    11117    11075    11098    11182    11267 
   11314    11349    11379    11433    11554    11693    11784    11836 
   11863    11840    11769    11676    11591    11529    11457    11326 
   11167    11041    11001    11103    11323    11570    11776    11915 
   11990    12021    12009    11942    11804    11610    11422    11317 
   11302    11304    11288    11300    11403    11549    11632    11603 
   11503    11427    11449    11543    11620    11619    11562    11531 
   11568    11639    11697    11727    11719    11686    11678    11686 
   11662    11604    11514    11377    11232    11142    11141    11211 
   11296    11350    11425    11570    11743    11886    11958    11954 
   11917    11854    11757    11635    11495    11362    11292    11271 
   11245    11225    11268    11380    11491    11537    11541    11556 
   11577    11587    11578    11583    11664    11809    11907    11904 
   11826    11697    11564    11466    11394    11319    11259    11260 
   11342    11452    11508    11503    11468    11414    11368    11358 
   11373    11377    11399    11504    11678    11843    11978    12083 
   12128    12101    12020    11904    11755    11560    11335    11128 
   10952    10839    10824    10912    11098    11361    11664    11956 
   12190    12297    12229    12028    11766    11493    11263    11113 
   11043    11036    11079    11155    11263    11414    11614    11823 
   11981    12050    12043    12006    11981    11942    11823    11626 
   11414    11230    11064    10890    10746    10729    10897    11178 
   11448    11650    11790    11880    11925    11924    11884    11836 
   11796    11767    11772    11800    11792    11705    11547    11357 
   11194    11091    11061    11097    11176    11290    11435    11612 
   11797    11943    12002    11950    11824    11697    11599    11539 
   11510    11464    11407    11375    11372    11412    11480    11514 
   11520    11581    11712    11877    12008    11996    11828    11596 
   11358    11153    11018    10956    10960    11041    11167    11291 
   11419    11581    11772    11935    12000    11950    11853    11790 
   11781    11794    11823    11842    11799    11689    11534    11356 
   11211    11121    11059    11041    11133    11353    11639    11889 
   12029    12042    11956    11803    11615    11423    11254    11124 
   11060    11084    11184    11317    11449    11583    11718    11826 
   11888    11907    11867    11772    11659    11546    11427    11322 
   11250    11210    11206    11246    11330    11449    11576    11684 
   11763    11813    11840    11854    11843    11788    11711    11654 
   11627    11596    11539    11468    11399    11338    11308    11327 
   11394    11492    11589    11653    11672    11657    11619    11570 
   11538    11516    11492    11491    11510    11487    11425    11387 
   11394    11427    11466    11473    11439    11407    11427    11524 
   11654    11753    11816    11873    11924    11951    11947    11913 
   11834    11705    11549    11380    11217    11080    10995    10994 
   11070    11186    11322    11461    11583    11681    11742    11755 
   11734    11705    11693    11697    11696    11678    11642    11585 
   11506    11408    11321    11277    11281    11319    11375    11453 
   11564    11684    11762    11757    11674    11557    11457    11406 
   11388    11372    11360    11365    11394    11446    11514    11561 
   11578    11605    11659    11709    11761    11828    11898    11966 
   12010    11994    11911    11777    11610    11426    11229    11018 
   10836    10728    10731    10849    11075    11367    11643    11843 
   11956    12005    12032    12063    12075    12035    11938    11797 
   11635    11481    11348    11245    11192    11184    11215    11313 
   11483    11680    11830    11894    11889    11821    11689    11519 
   11373    11263    11190    11173    11178    11195    11252    11325 
   11419    11546    11661    11777    11905    11988    12019    12004 
   11923    11785    11614    11434    11277    11176    11144    11157 
   11207    11302    11430    11573    11704    11785    11811    11819 
   11820    11807    11774    11709    11615    11530    11452    11368 
   11300    11256    11240    11267    11325    11392    11465    11533 
   11595    11649    11695    11740    11780    11781    11727    11639 
   11570    11553    11562    11558    11523    11465    11400    11346 
   11306    11294    11333    11422    11538    11643    11719    11792 
   11846    11816    11692    11520    11358    11252    11211    11213 
   11233    11275    11346    11438    11534    11632    11724    11796 
   11838    11851    11847    11815    11745    11659    11560    11435 
   11318    11249    11229    11254    11331    11456    11587    11700 
   11801    11884    11931    11943    11904    11797    11646    11480 
   11334    11249    11222    11245    11315    11389    11423    11439 
   11477    11533    11581    11611    11616    11592    11550    11506 
   11462    11425    11402    11408    11457    11546    11650    11736 
   11797    11851    11894    11886    11815    11704    11581    11468 
   11380    11329    11308    11319    11376    11470    11572    11658 
   11703    11692    11646    11588    11533    11492    11460    11425 
   11387    11330    11272    11261    11315    11410    11512    11603 
   11678    11751    11821    11873    11874    11815    11719    11611 
   11499    11395    11303    11234    11214    11264    11368    11483 
   11577    11651    11730    11794    11805    11767    11712    11651 
   11587    11503    11389    11268    11167    11113    11121    11182 
   11272    11381    11507    11627    11728    11817    11892    11931 
   11916    11853    11761    11665    11577    11502    11414    11327 
   11277    11275    11308    11375    11473    11585    11670    11716 
