Origin Time       2025/03/28 03:50:00
Lat.              35.403
Long.             140.360
Depth. (km)       54
Mag.              4.4
Station Code      SZO003
Station Lat.      34.8158
Station Long.     139.0544
Station Height(m) 149
Record Time       2025/03/28 03:51:14
Sampling Freq(Hz) 100Hz
Duration Time(s)  60
Dir.              U-D
Scale Factor      7845(gal)/8223790
Max. Acc. (gal)   2.119
Last Correction   2025/03/28 03:51:13
Memo.             
[...]
    3254     2932     2667     2612     2351     1885     1482     1109 
     951     1215     1610     1826     2029     2431     2785     2917 
    2953     2841     2662     2644     2659     2377     1679      973 
     703      800     1305     2187     2820     2886     2717     2651 
    2772     2997     3076     2733     2130     1667     1321     1097 
    1236     1572     1842     2111     2458     2856     3079     2936 
    2609     2259     2011     2124     2425     2421     2042     1628 
    1449     1480     1678     1973     2127     2195     2303     2311 
    2274     2224     2076     2153     2543     2754     2608     2261 
    1764     1381     1497     2033     2509     2596     2361     2153 
    2076     1964     1954     2147     2284     2330     2350     2300 
    2255     2215     2123     2053     2087     2201     2192     1881 
    1591     1795     2376     2910     3133     2837     2214     1757 
    1691     1910     2092     2091     2041     1837     1499     1507 
    1960     2502     2852     2871     2619     2293     2053     1907 
    1814     1861     2133     2459     2493     2234     2016     2019 
    2215     2392     2295     1877     1502     1717     2339     2693 
    2667     2448     2099     1840     1784     1834     2008     2145 
    2011     1946     2212     2511     2702     2808     2706     2384 
    1898     1440     1358     1649     1998     2316     2570     2546 
    2315     2304     2617     2887     2778     2232     1540     1117 
    1143     1548     2087     2421     2359     2099     2124     2466 
    2651     2560     2355     2026     1744     1787     2053     2295 
    2401     2347     2164     1933     1769     1745     1873     2138 
    2425     2625     2697     2674     2679     2566     2099     1572 
    1417     1690     2173     2413     2308     2278     2328     2204 
    2084     2128     2215     2207     2085     1952     1838     1826 
    2065     2303     2266     2169     2154     2088     2058     2195 
    2312     2292     2317     2408     2263     1953     1907     2110 
    2309     2444     2411     2174     1858     1652     1831     2255 
    2385     2230     2143     2146     2320     2636     2683     2470 
    2268     2037     1792     1648     1657     1811     1996     2255 
    2502     2416     2150     2029     1999     2077     2317     2547 
    2582     2366     2126     2116     2181     2145     2101     2108 
    2106     2038     1981     2004     1971     1935     2139     2448 
    2539     2412     2234     1988     1759     1777     1933     2114 
    2425     2614     2548     2419     2162     1853     1764     1863 
    2027     2184     2242     2219     2243     2351     2436     2408 
    2311     2208     2080     1993     2041     2046     1914     1887 
    2134     2424     2446     2269     2052     1798     1709     1923 
    2250     2496     2643     2683     2586     2370     2081     1895 
    1935     1972     1922     1868     1729     1605     1764     2224 
    2646     2691     2497     2349     2253     2223     2305     2404 
    2458     2382     2127     1871     1736     1717     1845     2072 
    2192     2153     2120     2130     2160     2266     2370     2384 
    2284     2087     1964     2018     2138     2201     2238     2257 
    2147     1988     1950     1983     2066     2255     2401     2311 
    2165     2277     2465     2454     2397     2322     2066     1830 
    1784     1780     1849     2029     2133     2169     2254     2320 
    2274     2116     1984     2096     2343     2374     2277     2246 
    2143     2026     2049     2162     2276     2317     2338     2276 
    2025     1858     1929     1976     1922     2002     2149     2134 
    2157     2326     2451     2497     2420     2266     2243     2290 
    2222     2076     1906     1733     1698     1807     1935     2096 
    2234     2353     2586     2667     2458     2354     2412     2404 
    2301     2122     1966     1915     1895     1890     1922     1960 
    2020     2187     2281     2146     2161     2447     2578     2478 
    2332     2139     1977     1894     1852     1898     1904     1830 
    1891     2138     2447     2637     2632     2493     2226     1992 
    1976     2089     2234     2285     2114     1872     1853     1973 
    2022     2227     2546     2552     2421     2413     2322     2025 
    1745     1710     1837     1993     2197     2419     2578     2519 
    2269     2157     2176     2158     2201     2239     2197     2107 
    1858     1668     1765     1912     2073     2330     2467     2367 
    2236     2309     2459     2443     2316     2153     1949     1836 
    1926     2038     1960     1879     2008     2208     2311     2357 
    2498     2608     2378     2052     1993     2029     1987     2015 
    2145     2170     2034     1922     1953     2111     2326     2539 
    2690     2596     2257     2020     2034     2072     2000     1983 
    2054     2047     2018     2092     2139     2091     2093     2185 
    2257     2326     2479     2551     2405     2242     2100     1840 
    1620     1667     1899     2080     2155     2227     2312     2411 
    2528     2566     2462     2330     2238     2114     1988     1938 
    1787     1580     1715     2014     2110     2208     2355     2389 
    2469     2629     2718     2686     2473     2214     2097     1935 
    1614     1370     1366     1514     1771     2149     2486     2689 
    2832     2883     2785     2524     2133     1838     1819     1902 
    1853     1768     1836     1965     2003     2130     2471     2693 
    2656     2613     2517     2281     2100     2033     1993     1903 
    1714     1517     1512     1740     1973     2161     2477     2736 
    2759     2740     2717     2587     2366     2061     1763     1582 
    1498     1539     1783     2099     2355     2527     2554     2525 
    2478     2355     2297     2290     2180     1976     1773     1715 
    1768     1867     2058     2204     2282     2384     2416     2443 
    2490     2397     2226     2100     2033     2039     2069     2058 
    2014     1887     1748     1810     2047     2317     2544     2641 
    2570     2290     1962     1902     2053     2180     2193     2160 
    2168     2161     2168     2243     2272     2230     2168     2049 
    1898     1837     1895     1977     2089     2218     2257     2280 
    2374     2430     2440     2421     2261     2080     2010     1968 
    1953     2006     2180     2374     2366     2216     2031     1864 
    1900     2176     2444     2515     2373     2111     1910     1877 
    1977     2157     2317     2327     2218     2123     2093     2160 
    2261     2336     2411     2335     2116     2008     1992     2027 
    2137     2119     1966     1876     1899     2027     2204     2339 
    2442     2479     2384     2219     2081     2022     2038     2083 
    2169     2178     2003     1863     1942     2143     2284     2358 
    2475     2509     2400     2289     2134     2004     2016     1991 
    1961     2107     2197     2072     1992     2065     2195     2396 
    2548     2527     2396     2204     2052     2006     1992     1984 
    2015     2091     2123     2042     1987     2025     2096     2257 
    2506     2660     2578     2300     1918     1615     1591     1788 
    2072     2301     2351     2290     2146     2010     2116     2361 
    2502     2548     2490     2303     2149     2087     1975     1800 
    1707     1790     1996     2193     2373     2527     2555     2448 
    2303     2204     2112     2012     2076     2270     2311     2169 
    2003     1926     2010     2195     2373     2458     2386     2249 
    2080     1845     1736     1845     1980     2066     2111     2027 
    1888     1934     2184     2451     2614     2605     2466     2281 
    2042     1927     2014     2043     2025     2104     2174     2174 
    2170     2224     2334     2334     2193     2119     2181     2273 
    2288     2187     2060     1977     1915     1934     2099     2307 
    2398     2377     2350     2284     2158     2091     2029     1921 
    1911     1996     2069     2130     2176     2226     2320     2376 
    2309     2226     2208     2128     1965     1895     1945     2050 
    2180     2239     2209     2187     2168     2184     2327     2444 
    2342     2192     2150     2116     2062     2022     1968     1852 
    1717     1709     1899     2241     2635     2905     2868     2558 
    2265     2143     2033     1864     1777     1833     1942     2022 
    2085     2158     2120     1979     2035     2277     2386     2435 
    2488     2369     2215     2151     2061     2000     1983     1904 
    1896     2101     2369     2528     2566     2409     2081     1844 
    1811     1877     1987     2169     2367     2454     2385     2203 
    2070     2135     2340     2506     2420     2074     1713     1490 
    1547     1937     2388     2600     2508     2215     1971     1954 
    2138     2431     2632     2531     2211     1939     1860     1935 
    2091     2219     2205     2124     2108     2147     2214     2323 
    2427     2389     2187     1960     1810     1833     2064     2280 
    2305     2251     2188     2104     2128     2274     2323     2251 
    2208     2174     2073     1995     2041     2099     2064     2019 
    2041     2139     2269     2308     2232     2174     2277     2506 
    2643     2548     2273     1937     1707     1705     1857     2003 
    2077     2093     2089     2101     2162     2319     2506     2562 
    2425     2150     1900     1871     2046     2249     2315     2185 
    2002     1966     2088     2241     2328     2334     2268     2139 
    1968     1871     1984     2218     2362     2334     2214     2083 
    1991     2089     2403     2646     2624     2384     2034     1725 
    1633     1814     2133     2362     2394     2286     2177     2141 
    2166     2250     2338     2268     2046     1906     1981     2154 
    2268     2297     2245     2097     1952     1884     1867     1921 
    2080     2265     2413     2529     2521     2309     2045     1954 
    2069     2243     2340     2323     2207     2031     1918     1968 
    2108     2173     2138     2116     2138     2147     2169     2236 
    2315     2357     2320     2188     2030     1977     2057     2170 
    2192     2037     1784     1698     1915     2281     2581     2708 
    2628     2380     2096     1945     1952     2022     2114     2166 
    2100     1973     1925     1975     2084     2255     2400     2403 
    2280     2170     2196     2301     2378     2394     2295     2100 
    1915     1798     1777     1864     2033     2211     2295     2290 
    2268     2243     2262     2384     2498     2427     2219     2050 
    1945     1911     1966     2008     1995     2015     2107     2201 
    2231     2228     2214     2174     2165     2189     2218     2272 
    2330     2326     2218     2047     1954     1964     2037     2164 
    2254     2227     2188     2219     2269     2299     2261     2122 
    1953     1884     1948     2018     2030     2104     2268     2380 
    2407     2452     2488     2378     2155     2003     1995     2061 
    2130     2150     2097     2004     1956     2023     2169     2297 
    2319     2214     2108     2076     2065     2103     2185     2201 
    2187     2200     2184     2184     2207     2181     2164     2185 
    2162     2056     1988     2091     2203     2151     2137     2211 
    2107     1942     1998     2197     2443     2605     2556     2419 
    2236     1987     1787     1728     1827     2035     2234     2350 
    2403     2359     2223     2150     2160     2116     2052     2033 
    2057     2161     2263     2242     2177     2176     2224     2227 
    2131     2085     2146     2204     2266     2285     2184     2062 
    2018     2038     2070     2111     2212     2247     2111     1966 
    1945     2014     2165     2415     2594     2520     2299     2151 
    2142     2178     2137     2012     1852     1702     1684     1875 
    2192     2489     2664     2686     2552     2300     2020     1825 
    1819     2023     2293     2401     2288     2133     2037     1995 
    2085     2235     2253     2212     2232     2243     2204     2096 
    1937     1879     1926     2019     2234     2469     2536     2451 
    2280     2064     1869     1821     2025     2350     2525     2451 
    2178     1846     1645     1660     1833     2099     2353     2428 
    2316     2197     2196     2272     2311     2299     2269     2214 
    2201     2257     2286     2245     2138     2027     2003     2037 
    2122     2312     2463     2424     2305     2251     2192     2064 
    1871     1620     1421     1398     1582     1911     2276     2619 
    2891     2997     2867     2525     2180     2053     2118     2223 
    2300     2299     2184     2100     2130     2085     1939     1881 
    1894     1911     1979     2122     2347     2450     2203     1775 
    1532     1691     2112     2416     2485     2497     2412     2124 
    1888     1858     1912     2018     2118     2216     2443     2749 
    2979     2882     2421     2100     2174     2354     2397     2304 
    2174     1972     1656     1401     1161      837      712      996 
    1647     2508     3152     3296     3157     3046     3056     3172 
    3312     3223     2755     2091     1395      662       48      -62 
     444     1332     2304     2957     3091     2933     2747     2701 
    2808     2889     2876     2774     2624     2524     2359     1992 
    1486     1019      859     1151     1777     2554     3195     3321 
    2844     2062     1421     1363     1934     2601     2863     2664 
    2220     1809     1660     1852     2204     2324     2043     1663 
    1559     1768     2101     2412     2469     2110     1723     1858 
    2432     2929     3025     2708     2134     1644     1590     1931 
    2312     2424     2265     2133     2118     2065     2111     2385 
    2637     2601     2293     1991     1906     1939     2020     2208 
    2415     2448     2138     1571     1196     1281     1655     2130 
    2683     3091     3125     2956     2805     2650     2286     1674 
    1204     1124     1269     1517     1821     2050     2153     2289 
    2547     2673     2488     2238     2211     2322     2435     2658 
    2889     2721     2026     1166      627      680     1371     2424 
    3258     3503     3240     2771     2373     2185     2180     2261 
    2361     2296     1930     1479     1306     1561     2006     2296 
    2328     2141     1937     1930     2066     2258     2405     2400 
    2355     2344     2346     2463     2586     2417     2023     1676 
    1539     1718     2135     2528     2654     2434     2072     1861 
    1837     1814     1755     1760     1809     1896     2072     2328 
    2639     2909     3005     2820     2382     2026     2025     2281 
    2565     2689     2511     2019     1479     1194     1177     1318 
    1545     1856     2313     2821     3082     2941     2602     2219 
    1818     1579     1509     1524     1790     2243     2648     2922 
    2910     2654     2465     2328     2042     1687     1472     1463 
    1657     2119     2643     2813     2625     2315     1995     1775 
    1734     1900     2205     2369     2254     2054     1966     2053 
    2336     2747     3009     2864     2409     1944     1649     1586 
    1715     1853     1915     2061     2319     2551     2760     2866 
    2655     2199     1749     1439     1356     1539     1788     1921 
    2054     2205     2207     2188     2340     2563     2687     2597 
    2285     1960     1798     1850     2091     2331     2463     2515 
    2482     2381     2272     2184     2023     1742     1517     1543 
    1876     2369     2754     2801     2475     2043     1791     1813 
    2084     2336     2303     2139     2070     2064     2035     1964 
    1887     1944     2143     2276     2278     2243     2226     2374 
    2579     2493     2220     2033     1898     1842     2016     2293 
    2407     2274     1975     1740     1819     2054     2142     2084 
    2042     2204     2628     3029     3194     3150     2806     2100 
    1312      876     1004     1505     2031     2335     2365     2276 
    2251     2393     2547     2462     2220     1981     1787     1842 
    2212     2596     2758     2666     2354     1983     1799     1742 
    1613     1587     1819     2106     2273     2307     2255     2201 
    2185     2269     2462     2610     2612     2546     2442     2247 
    2073     2026     1969     1883     1841     1744     1649     1714 
    1895     2066     2138     2149     2177     2208     2270     2436 
    2666     2758     2621     2442     2342     2280     2232     2107 
    1873     1744     1856     2103     2322     2344     2153     1954 
    1902     1969     2085     2103     2018     2023     2142     2278 
    2370     2332     2218     2115     2068     2173     2381     2540 
    2583     2524     2411     2181     1927     1776     1564     1394 
    1520     1798     2061     2261     2374     2469     2540     2502 
    2351     2195     2128     2110     2088     2074     2052     2015 
    2026     2173     2442     2668     2717     2521     2134     1821 
    1750     1775     1800     1903     2070     2214     2238     2134 
    2046     2088     2319     2664     2824     2629     2273     1985 
    1818     1806     1989     2193     2258     2242     2236     2241 
    2212     2143     2056     1977     1950     2031     2187     2261 
    2197     2093     1965     1854     1877     2034     2289     2629 
    2887     2840     2463     1937     1540     1470     1657     1930 
    2106     2088     2037     2111     2301     2570     2762     2691 
    2390     2039     1831     1848     1966     2056     2116     2182 
    2231     2192     2099     2118     2280     2398     2404     2408 
    2393     2313     2249     2203     2110     1996     1942     1961 
    1991     2047     2123     2126     2049     1987     2014     2088 
    2141     2211     2359     2501     2500     2378     2191     1954 
    1791     1748     1721     1768     1939     2116     2276     2374 
    2370     2425     2539     2554     2470     2268     2012     1944 
    2019     2027     1976     1960     2084     2328     2486     2488 
    2421     2301     2187     2195     2234     2111     1894     1779 
    1764     1849     2100     2292     2219     2083     2079     2203 
    2358     2389     2332     2277     2164     2056     2056     2062 
    2027     2068     2160     2154     2093     2060     2023     2076 
    2228     2316     2363     2417     2382     2263     2184     2172 
    2093     1961     1939     1983     2052     2193     2259     2182 
    2133     2177     2241     2270     2288     2309     2272     2177 
    2147     2172     2174     2177     2150     2062     2015     2007 
    1975     1983     2029     2026     1975     1953     2026     2189 
    2419     2621     2678     2612     2434     2176     2006     1973 
    2018     2056     2039     1977     1881     1875     2061     2297 
