Origin Time       2025/03/28 03:50:00
Lat.              35.403
Long.             140.360
Depth. (km)       54
Mag.              4.4
Station Code      SZO001
Station Lat.      35.1425
Station Long.     139.0798
Station Height(m) 74
Record Time       2025/03/28 03:51:11
Sampling Freq(Hz) 100Hz
Duration Time(s)  60
Dir.              N-S
Scale Factor      7845(gal)/8223790
Max. Acc. (gal)   2.132
Last Correction   2025/03/28 03:51:11
Memo.             
[...]
   -9545    -9861   -10018   -10029    -9666    -9316    -9539    -9911 
   -9987    -9900    -9834    -9732    -9424    -9279    -9647    -9869 
   -9745   -10002   -10273    -9791    -9254    -9418    -9778    -9882 
   -9867    -9679    -9463    -9647   -10023   -10044    -9738    -9566 
   -9593    -9574    -9509    -9498    -9842   -10458   -10296    -9379 
   -9099    -9539    -9718    -9698    -9900    -9992    -9815    -9667 
   -9628    -9647    -9655    -9698    -9909   -10127    -9915    -9181 
   -9054   -10025   -10358    -9628    -9337    -9435    -9610   -10215 
  -10363    -9671    -9238    -9447    -9755    -9903    -9910    -9818 
   -9806    -9732    -9590    -9724    -9671    -9377    -9675   -10079 
   -9868    -9715    -9900    -9890    -9721    -9706    -9563    -9212 
   -9300    -9790   -10030   -10060   -10025    -9779    -9560    -9586 
   -9529    -9451    -9886   -10193    -9620    -9277    -9774   -10030 
   -9896    -9832    -9487    -9261    -9720   -10000    -9945   -10081 
   -9760    -9269    -9589    -9899    -9653    -9701    -9869    -9556 
   -9599   -10100    -9780    -9239    -9684   -10168   -10065    -9925 
   -9617    -9235    -9468    -9902    -9823    -9730    -9807    -9564 
   -9494    -9873    -9923    -9722    -9794    -9811    -9644    -9594 
   -9597    -9671    -9892    -9838    -9482    -9477    -9971   -10276 
   -9936    -9493    -9389    -9391    -9548    -9967   -10233   -10021 
   -9603    -9401    -9482    -9776    -9958    -9761    -9536    -9587 
   -9749    -9865    -9867    -9715    -9647    -9842    -9868    -9610 
   -9664    -9801    -9450    -9308    -9763    -9999    -9975   -10096 
   -9992    -9590    -9220    -9162    -9655   -10168   -10164    -9904 
   -9639    -9583    -9722    -9574    -9297    -9547   -10080   -10222 
   -9995    -9626    -9347    -9517    -9782    -9641    -9535    -9801 
  -10084   -10010    -9672    -9501    -9501    -9570    -9883   -10179 
  -10014    -9582    -9467    -9683    -9707    -9624    -9705    -9667 
   -9521    -9703   -10018    -9869    -9598    -9869   -10112    -9668 
   -9254    -9497    -9868    -9937    -9841    -9699    -9648    -9687 
   -9705    -9756    -9788    -9672    -9539    -9674    -9965    -9910 
   -9643    -9688    -9774    -9589    -9645    -9923    -9791    -9618 
   -9757    -9645    -9485    -9787   -10071    -9940    -9613    -9416 
   -9525    -9788    -9895    -9837    -9818    -9841    -9828    -9703 
   -9512    -9481    -9605    -9790    -9900    -9738    -9610    -9701 
   -9799    -9899    -9877    -9734    -9602    -9432    -9553    -9914 
   -9909    -9691    -9688    -9825    -9811    -9593    -9571    -9778 
   -9830    -9887    -9944    -9686    -9459    -9514    -9556    -9616 
   -9872   -10116   -10042    -9722    -9594    -9687    -9602    -9495 
   -9721   -10006    -9979    -9687    -9452    -9572    -9828    -9825 
   -9714    -9652    -9621    -9836   -10049    -9815    -9487    -9491 
   -9697    -9848    -9761    -9575    -9572    -9705    -9898    -9979 
   -9760    -9620    -9767    -9794    -9606    -9571    -9791    -9902 
   -9721    -9567    -9601    -9747    -9963    -9933    -9602    -9537 
   -9769    -9782    -9667    -9695    -9649    -9606    -9832   -10015 
   -9934    -9740    -9509    -9448    -9647    -9767    -9772    -9913 
   -9903    -9603    -9545    -9699    -9647    -9675    -9867    -9794 
   -9698    -9883    -9865    -9589    -9605    -9832    -9836    -9698 
   -9636    -9622    -9647    -9775    -9871    -9748    -9648    -9753 
   -9747    -9691    -9807    -9780    -9643    -9657    -9695    -9787 
   -9832    -9624    -9578    -9813    -9856    -9676    -9679    -9919 
   -9969    -9702    -9463    -9439    -9585    -9811    -9887    -9769 
   -9701    -9678    -9749   -10050   -10087    -9639    -9385    -9539 
   -9656    -9630    -9629    -9733    -9902    -9968    -9880    -9801 
   -9747    -9610    -9479    -9490    -9663    -9883    -9963    -9855 
   -9540    -9278    -9564   -10065   -10102    -9876    -9738    -9687 
   -9802    -9927    -9763    -9450    -9300    -9464    -9799    -9904 
   -9837    -9892    -9834    -9675    -9792    -9926    -9697    -9421 
   -9506    -9806    -9882    -9674    -9552    -9705    -9884    -9844 
   -9668    -9613    -9741    -9876    -9863    -9706    -9525    -9493 
   -9674    -9872    -9856    -9718    -9698    -9809    -9909    -9872 
   -9630    -9499    -9733    -9894    -9778    -9617    -9478    -9609 
   -9890    -9834    -9676    -9698    -9748    -9828    -9880    -9756 
   -9572    -9556    -9736    -9869    -9787    -9686    -9733    -9725 
   -9624    -9657    -9724    -9771    -9850    -9726    -9587    -9728 
   -9764    -9659    -9734    -9809    -9825    -9873    -9741    -9529 
   -9576    -9778    -9841    -9734    -9636    -9661    -9744    -9771 
   -9760    -9760    -9738    -9741    -9805    -9749    -9583    -9632 
   -9810    -9738    -9612    -9741    -9844    -9784    -9779    -9724 
   -9539    -9543    -9840   -10000    -9780    -9518    -9501    -9675 
   -9899    -9954    -9786    -9648    -9707    -9779    -9765    -9787 
   -9674    -9486    -9597    -9744    -9742    -9861    -9903    -9759 
   -9724    -9730    -9651    -9672    -9695    -9518    -9521    -9909 
  -10143    -9987    -9774    -9560    -9386    -9560    -9830    -9778 
   -9752    -9938    -9894    -9679    -9667    -9602    -9378    -9587 
  -10099   -10050    -9645    -9582    -9682    -9769    -9869    -9690 
   -9475    -9661    -9880    -9856    -9787    -9621    -9459    -9572 
   -9752    -9875   -10000    -9921    -9771    -9795    -9676    -9450 
   -9544    -9684    -9587    -9624    -9821    -9911    -9968    -9934 
   -9667    -9404    -9451    -9784   -10080    -9964    -9570    -9490 
   -9765    -9869    -9859    -9952    -9744    -9313    -9344    -9751 
   -9999    -9996    -9806    -9536    -9455    -9629    -9819    -9890 
   -9922    -9784    -9440    -9447    -9896   -10061    -9877    -9796 
   -9639    -9348    -9370    -9663    -9929   -10096    -9957    -9603 
   -9486    -9599    -9759    -9890    -9753    -9508    -9640    -9949 
   -9850    -9522    -9585    -9890    -9991    -9967    -9838    -9559 
   -9421    -9570    -9846   -10034    -9902    -9556    -9505    -9702 
   -9653    -9589    -9741    -9721    -9609    -9738    -9904    -9998 
  -10002    -9706    -9335    -9313    -9570    -9856   -10064   -10072 
   -9849    -9655    -9624    -9578    -9509    -9571    -9736    -9917 
   -9975    -9813    -9660    -9593    -9495    -9529    -9707    -9884 
   -9996    -9942    -9832    -9736    -9547    -9455    -9598    -9782 
   -9913    -9921    -9760    -9610    -9582    -9645    -9744    -9775 
   -9763    -9888    -9992    -9788    -9548    -9605    -9678    -9485 
   -9475    -9887   -10021    -9813    -9823    -9814    -9567    -9423 
   -9586    -9899    -9902    -9603    -9571    -9791    -9887    -9907 
   -9861    -9659    -9529    -9562    -9620    -9751    -9891    -9853 
   -9744    -9697    -9670    -9636    -9674    -9849    -9887    -9647 
   -9609    -9856    -9830    -9520    -9501    -9784    -9775    -9655 
   -9941   -10049    -9680    -9529    -9621    -9622    -9751    -9992 
  -10022    -9780    -9412    -9315    -9725   -10057    -9833    -9571 
   -9636    -9645    -9618    -9849   -10015    -9848    -9671    -9683 
   -9678    -9622    -9651    -9640    -9634    -9734    -9702    -9728 
   -9979    -9888    -9532    -9576    -9803    -9837    -9887    -9949 
   -9767    -9516    -9521    -9699    -9778    -9728    -9786    -9937 
   -9890    -9710    -9585    -9552    -9641    -9629    -9582    -9771 
   -9887    -9763    -9659    -9659    -9742    -9861   -10008   -10057 
   -9742    -9331    -9294    -9512    -9629    -9691    -9853    -9940 
   -9884    -9821    -9834   -10034   -10100    -9653    -9171    -9170 
   -9429    -9678    -9983   -10254   -10138    -9726    -9657    -9953 
   -9791    -9212    -9180    -9563    -9651    -9697    -9930   -10049 
  -10000    -9857    -9691    -9644    -9687    -9759    -9892    -9840 
   -9428    -9259    -9688    -9980    -9765    -9606    -9691    -9818 
  -10039   -10145    -9961    -9795    -9536    -9050    -9011    -9612 
   -9999   -10006   -10125   -10129    -9850    -9626    -9483    -9471 
   -9687    -9829    -9672    -9501    -9586    -9734    -9799    -9861 
   -9936    -9948    -9713    -9398    -9497    -9938   -10156    -9798 
   -9340    -9490    -9790    -9693    -9753   -10007    -9903    -9711 
   -9725    -9714    -9551    -9448    -9686    -9842    -9563    -9572 
   -9981   -10079    -9933    -9733    -9487    -9479    -9637    -9756 
   -9836    -9848    -9809    -9725    -9633    -9683    -9822    -9751 
   -9649    -9836    -9767    -9393    -9553    -9944    -9849    -9691 
   -9810    -9860    -9717    -9630    -9693    -9737    -9612    -9472 
   -9660    -9968    -9967    -9828    -9798    -9798    -9690    -9513 
   -9501    -9574    -9601    -9856   -10212   -10106    -9579    -9310 
   -9549    -9821    -9868    -9799    -9617    -9516    -9733    -9995 
   -9902    -9579    -9506    -9765   -10012    -9980    -9659    -9443 
   -9625    -9771    -9628    -9562    -9622    -9679    -9890   -10083 
   -9904    -9607    -9624    -9674    -9408    -9336    -9774   -10119 
  -10003    -9710    -9618    -9742    -9819    -9882    -9853    -9490 
   -9244    -9505    -9895    -9994    -9720    -9479    -9591    -9852 
  -10207   -10376    -9829    -9201    -9350    -9737    -9794    -9769 
   -9684    -9520    -9630    -9933    -9964    -9818    -9776    -9690 
   -9651    -9788    -9764    -9682    -9775    -9749    -9618    -9529 
   -9360    -9570   -10312   -10465    -9694    -9224    -9540    -9888 
   -9805    -9526    -9397    -9512    -9861   -10215   -10083    -9686 
   -9722    -9849    -9533    -9312    -9510    -9721    -9776    -9714 
   -9645    -9765    -9805    -9630    -9821   -10208    -9960    -9497 
   -9552    -9736    -9741    -9713    -9645    -9634    -9666    -9656 
   -9763    -9786    -9467    -9305    -9720   -10207   -10177    -9724 
   -9358    -9417    -9682    -9786    -9807    -9880    -9823    -9657 
   -9603    -9647    -9817   -10021    -9953    -9795    -9706    -9506 
   -9481    -9745    -9811    -9655    -9618    -9732    -9860    -9913 
   -9965   -10027    -9919    -9687    -9590    -9744    -9904    -9706 
   -9350    -9329    -9597    -9765    -9756    -9710    -9649    -9640 
   -9803   -10042   -10139    -9875    -9383    -9269    -9593    -9748 
   -9668    -9764    -9992    -9911    -9697   -10019   -10436   -10164 
   -9776    -9691    -9547    -9537    -9714    -9661    -9535    -9598 
   -9525    -9190    -9055    -9369    -9909   -10330   -10403   -10295 
  -10299   -10206    -9532    -8545    -8201    -8847    -9931   -10714 
  -10693   -10071    -9562    -9424    -9536    -9703    -9524    -9219 
   -9435    -9865   -10064   -10108    -9899    -9586    -9448    -9416 
   -9540    -9725    -9826    -9888    -9701    -9516    -9818   -10227 
  -10359   -10268    -9873    -9331    -9065    -9261    -9657    -9842 
   -9786    -9774    -9915   -10068   -10098    -9936    -9846   -10107 
  -10046    -9221    -8781    -9371    -9926    -9823    -9423    -8996 
   -9073    -9873   -10575   -10584    -9941    -9124    -9105    -9990 
  -10747   -10677    -9729    -8634    -8414    -9043    -9907   -10689 
  -10940   -10446    -9845    -9630    -9510    -9180    -8889    -9134 
   -9633    -9661    -9676   -10255   -10643   -10327    -9798    -9460 
   -9185    -8923    -9171    -9826   -10116   -10112   -10193   -10295 
  -10216    -9691    -8957    -8523    -8631    -9548   -10673   -10898 
  -10459    -9799    -8949    -8696    -9266    -9971   -10548   -10400 
   -9248    -8696    -9763   -11006   -11178   -10476    -9259    -8382 
   -8581    -9170    -9597   -10081   -10459   -10467   -10072    -9495 
   -9351    -9671    -9667    -9405    -9767   -10334   -10068    -9282 
   -8723    -8672    -9340   -10361   -10948   -10802   -10025    -9262 
   -9254    -9606    -9652    -9483    -9220    -9065    -9640   -10737 
  -11033   -10103    -9147    -9105    -9676   -10193   -10034    -9134 
   -8575    -9101   -10152   -10777   -10268    -9077    -8541    -9085 
  -10237   -11043   -10750   -10169   -10004    -9637    -9138    -9109 
   -9279    -9220    -9208    -9693   -10133    -9853    -9648   -10087 
  -10270    -9980    -9859    -9868    -9871    -9802    -9351    -9107 
   -9645    -9923    -9733   -10192   -10600   -10058    -9571    -9319 
   -8927    -9113    -9532    -9406    -9641   -10438   -10584    -9945 
   -9208    -8870    -9420   -10297   -10408   -10039    -9765    -9628 
   -9887   -10104    -9614    -8976    -8962    -9489   -10017   -10174 
  -10149   -10130    -9601    -8757    -8919    -9720    -9971   -10222 
  -10527   -10214    -9910    -9760    -9283    -9123    -9456    -9502 
   -9481    -9899   -10138    -9902    -9807    -9884    -9612    -9026 
   -8923    -9842   -10863   -10866   -10234    -9605    -9004    -8715 
   -8883    -9235    -9940   -10744   -10673    -9890    -9154    -8695 
   -9050    -9965   -10400   -10561   -10631    -9992    -8986    -8711 
   -9494   -10262    -9985    -9412    -9305    -9240    -9536   -10372 
  -10547   -10107    -9918    -9475    -9028    -9614   -10467   -10581 
  -10331    -9969    -9344    -8850    -8942    -9213    -9174    -9092 
   -9123    -9597   -11068   -11963   -10855    -9736    -9504    -8861 
   -8561    -9170    -9497    -9594    -9949   -10192   -10176    -9919 
   -9517    -9394    -9656    -9890   -10046   -10222    -9734    -8718 
   -8712    -9647   -10026   -10007   -10467   -10868   -10234    -8858 
   -8291    -9265   -10455   -10504    -9764    -9270    -9389    -9813 
  -10103    -9871    -9354    -9567   -10401   -10540    -9875    -9111 
   -8672    -9115    -9842    -9728    -9679   -10431   -10571    -9680 
   -9076    -9220    -9597   -10039   -10509   -10598   -10165    -9513 
   -8696    -7992    -8333    -9903   -11400   -11506   -10376    -9266 
   -9019    -9374    -9710    -9725    -9567    -9633    -9749    -9620 
   -9672    -9855    -9683    -9428    -9301    -9420   -10045   -10575 
  -10420   -10041    -9780    -9582    -9589    -9632    -9456    -9352 
   -9329    -9271    -9487    -9787   -10042   -10509   -10540    -9880 
   -9379    -9150    -9236    -9950   -10439   -10208    -9915    -9736 
   -9591    -9575    -9472    -9171    -9035    -9497   -10297   -10500 
   -9721    -8843    -9040    -9998   -10401   -10142    -9888    -9794 
   -9900    -9899    -9325    -8868    -9458   -10338   -10305    -9626 
   -8955    -8784    -9788   -11117   -11009    -9883    -9271    -9242 
   -9374    -9570    -9470    -9331    -9780   -10304   -10272    -9946 
   -9564    -9198    -9201    -9828   -10642   -10778   -10003    -8943 
   -8321    -8517    -9408   -10249   -10432   -10345   -10272    -9742 
   -9028    -8962    -9418    -9883   -10153    -9965    -9524    -9558 
   -9917    -9965    -9933   -10179   -10386   -10146    -9579    -9194 
   -9084    -9090    -9474   -10187   -10489   -10106    -9670    -9571 
   -9576    -9641    -9749    -9688    -9560    -9560    -9601    -9409 
   -9050    -9139    -9799   -10496   -10847   -10727   -10246    -9556 
   -8939    -8966    -9602   -10003    -9742    -9294    -9240    -9620 
  -10037   -10169   -10058    -9819    -9661    -9915   -10361   -10295 
   -9559    -8850    -8788    -9293   -10035   -10374    -9694    -8806 
   -8858    -9575   -10503   -11412   -11291    -9817    -8498    -8464 
   -9108    -9664   -10052   -10118    -9992   -10149   -10253    -9772 
   -9252    -9283    -9585    -9845    -9902    -9624    -9313    -9166 
   -9078    -9352   -10049   -10530   -10517   -10288    -9952    -9595 
   -9508    -9552    -9305    -9082    -9493   -10219   -10470   -10115 
   -9610    -9304    -9282    -9651   -10277   -10401    -9763    -9333 
   -9448    -9402    -9302    -9575    -9872    -9972    -9937    -9798 
   -9751    -9729    -9574    -9640   -10160   -10489    -9964    -9219 
   -9273    -9707    -9676    -9379    -9220    -9404   -10011   -10478 
  -10319    -9745    -9212    -9266    -9806   -10026    -9903    -9856 
   -9693    -9394    -9350    -9539    -9606    -9620    -9930   -10273 
  -10083    -9574    -9459    -9765    -9919    -9886    -9937    -9845 
   -9552    -9414    -9470    -9564    -9629    -9676    -9941   -10285 
  -10098    -9514    -9378    -9748    -9985    -9921    -9724    -9482 
   -9367    -9451    -9636    -9909   -10127   -10075    -9888    -9775 
   -9539    -9177    -9198    -9710   -10112   -10033    -9813    -9756 
   -9706    -9589    -9597    -9856   -10104    -9948    -9571    -9362 
   -9298    -9389    -9636    -9829    -9988   -10206   -10211    -9907 
   -9590    -9386    -9294    -9448    -9802   -10053   -10044    -9832 
   -9583    -9622    -9817    -9566    -9283    -9649   -10021    -9923 
   -9844    -9876    -9765    -9572    -9574    -9850   -10076    -9927 
   -9455    -9175    -9525    -9991   -10018    -9952    -9838    -9431 
   -9336    -9841   -10195   -10154    -9969    -9580    -9283    -9379 
   -9505    -9703   -10176   -10145    -9417    -9111    -9506    -9884 
  -10006    -9913    -9656    -9450    -9410    -9683   -10083    -9950 
   -9499    -9548    -9829    -9768    -9680    -9884   -10138   -10129 
   -9774    -9347    -9212    -9377    -9694   -10057   -10139    -9806 
   -9580    -9765    -9888    -9633    -9286    -9235    -9566    -9999 
  -10233   -10106    -9655    -9285    -9282    -9586   -10072   -10385 
  -10227    -9810    -9531    -9504    -9437    -9320    -9612   -10130 
  -10235    -9936    -9618    -9541    -9657    -9624    -9510    -9641 
   -9798    -9720    -9664    -9756    -9774    -9751    -9879    -9984 
   -9795    -9481    -9549   -10037   -10254    -9892    -9494    -9342 
   -9202    -9197    -9516    -9790    -9779    -9814   -10046   -10154 
   -9976    -9737    -9652    -9678    -9695    -9767    -9923    -9936 
   -9718    -9490    -9474    -9698    -9882    -9832    -9721    -9718 
   -9802    -9736    -9504    -9545    -9751    -9647    -9525    -9720 
   -9882    -9830    -9788    -9687    -9531    -9613    -9713    -9674 
   -9845   -10012    -9848    -9724    -9767    -9683    -9663    -9859 
   -9805    -9543    -9607    -9763    -9622    -9499    -9663    -9981 
  -10111    -9737    -9279    -9396    -9779   -10015   -10241   -10200 
   -9709    -9329    -9352    -9610   -10041   -10176    -9736    -9522 
   -9698    -9590    -9443    -9501    -9452    -9562    -9938   -10088 
   -9995    -9882    -9691    -9587    -9722    -9832    -9815    -9806 
   -9639    -9398    -9543    -9841    -9813    -9748    -9838    -9796 
   -9690    -9707    -9744    -9695    -9555    -9502    -9740   -10052 
  -10102    -9941    -9819    -9728    -9541    -9490    -9690    -9794 
   -9744    -9663    -9514    -9552    -9799    -9840    -9706    -9660 
   -9730    -9849    -9872    -9760    -9585    -9402    -9478    -9882 
  -10098    -9855    -9529    -9479    -9687    -9956   -10112   -10077 
   -9784    -9377    -9275    -9562    -9838    -9877    -9818    -9803 
   -9794    -9779    -9790    -9678    -9471    -9502    -9752    -9869 
