Origin Time       2025/03/28 03:50:00
Lat.              35.403
Long.             140.360
Depth. (km)       54
Mag.              4.4
Station Code      SZO003
Station Lat.      34.8158
Station Long.     139.0544
Station Height(m) 149
Record Time       2025/03/28 03:51:14
Sampling Freq(Hz) 100Hz
Duration Time(s)  60
Dir.              N-S
Scale Factor      7845(gal)/8223790
Max. Acc. (gal)   5.025
Last Correction   2025/03/28 03:51:13
Memo.             
[...]
    -225     -144      -24      298      918     1313     1161      716 
     486      697     1012     1021      672      156     -133       76 
     525      801      869      901     1032     1147      936      449 
     143      240      535      796      993     1096      889      255 
    -360     -399        4      441      770      899      812      757 
    1007     1359     1399     1177      947      722      452      187 
     125      432      789      795      556      417      514      716 
     870      903      747      426       67      -75      240      878 
    1455     1628     1274      673      260      329      714      789 
     388       54      221      726     1066     1048      828      446 
       8      -78      265      730     1204     1566     1552     1096 
     417      -12       37      228      317      329      172       13 
     187      572      853      931      886      874      981     1270 
    1725     1894     1424      626     -103     -460     -267      106 
     302      359      399      496      598      735      909      900 
     857     1055     1282     1271      946      410       16      -29 
     130      338      607      878     1012     1038     1019      913 
     765      714      707      488       75     -108      117      480 
     797      955      854      710      741      796      733      627 
     453      186       12      -58      -48      232      649      982 
    1336     1590     1553     1323     1048      974     1119     1120 
     801      255     -278     -507     -406      -72      297      419 
     423      521      691      950     1188     1305     1335     1194 
     927      664      446      352      418      608      869     1058 
    1057      959      962      970      789      476       14     -513 
    -665     -333      233      843     1158     1035      820      741 
     750      787      845      962      997      780      395       70 
      74      324      481      544      595      703      904     1034 
    1042      947      718      522      557      791     1066     1175 
    1000      658      344      170      217      432      637      733 
     766      770      638      479      535      648      615      585 
     638      660      625      642      693      660      567      483 
     417      422      519      553      529      596      611      513 
     488      608      868     1129     1229     1209     1040      738 
     504      418      417      468      554      602      571      546 
     596      697      738      580      413      498      661      731 
     761      762      766      660      402      240      197      260 
     479      670      780      897      982      970      872      734 
     567      503      589      665      787      901      807      622 
     522      504      494      598      877      996      803      491 
     265      253      307      329      426      508      550      665 
     747      724      623      594      849     1136     1169     1108 
    1040      846      568      332       58     -182     -160       17 
     249      608      936     1104     1213     1213      967      623 
     394      398      538      591      684      865      855      706 
     618      564      442      383      552      756      880      963 
     858      653      542      376      166      141      229      311 
     483      746      897      886      904      969     1013     1073 
    1061      990      950      765      345      -16     -118     -187 
    -182      151      562      915     1347     1564     1325      954 
     723      579      530      503      338      149      186      423 
     600      657      730      849      946      989      976      899 
     774      587      364      152        4       14      110      226 
     336      387      469      587      828     1231     1513     1638 
    1621     1375     1017      615      216      -74     -249     -319 
    -171      238      737     1156     1352     1232     1032      985 
    1009     1011      854      530      276      156      126      137 
     126      125      132      233      527      855     1078     1204 
    1212     1094      934      760      573      449      413      405 
     372      326      318      321      378      634      930      981 
     908      922      909      855      886      901      826      618 
     337      179      126      211      414      598      792      905 
     985     1217     1386     1256      922      523      116     -207 
    -288     -183     -114        0      310      710     1039     1156 
    1105     1015      849      754      872      857      610      594 
     800      847      757      614      506      579      669      642 
     656      722      749      737      583      341      243      234 
     218      230      287      422      615      846     1093     1259 
    1347     1390     1308     1100      831      581      390      155 
     -76     -114        2      148      319      503      637      770 
     950      994      872      796      831      843      777      738 
     750      742      716      635      492      414      453      510 
     558      565      480      457      595      778      839      724 
     630      673      758      788      718      641      569      449 
     402      413      427      529      584      546      641      770 
     749      746      762      627      491      469      473      591 
     839      955      880      803      800      830      878      950 
     946      858      769      631      418      205        2      -99 
      20      193      217      282      522      785     1003     1206 
    1333     1320     1189      965      695      484      334      214 
     159      191      332      550      804     1050     1142     1024 
     832      677      561      442      388      476      567      568 
     544      483      399      373      429      579      780      939 
    1081     1163     1080      882      623      357      234      319 
     527      622      460      222      120      214      533      953 
    1216     1233     1090      853      626      480      371      305 
     291      317      430      634      804      845      823      854 
     909      920      872      711      506      422      390      383 
     488      558      514      510      553      611      766      935 
    1019     1044      913      614      394      294      271      400 
     542      569      579      571      495      449      535      712 
     889      980      966      907      734      459      263      168 
     191      406      695      935     1066      973      724      589 
     649      765      788      710      676      726      754      687 
     481      159      -75        2      311      606      819      957 
     993      928      793      625      487      502      688      873 
     907      831      808      854      792      577      417      388 
     361      336      344      348      369      395      450      607 
     764      905     1112     1221     1142      980      733      481 
     395      429      569      805      927      828      623      410 
     220      136      233      418      560      637      658      645 
     664      715      781      834      788      772      907      946 
     737      425      205      221      378      500      595      675 
     751      854      946      986      943      831      706      583 
     473      403      369      365      346      318      379      527 
     675      785      810      778      834      922      947      966 
     939      807      592      351      214      207      301      504 
     668      688      706      780      822      824      807      683 
     454      292      338      486      589      664      611      461 
     491      669      797      846      854      837      784      720 
     720      788      784      625      398      260      332      545 
     703      773      805      741      549      369      318      378 
     533      716      805      773      692      688      770      781 
     684      602      535      432      399      508      681      830 
     865      739      568      519      664      909     1011      823 
     545      433      471      472      340      167      106      247 
     531      773      862      843      788      706      661      778 
     976     1089     1089      958      729      550      487      450 
     405      355      252      206      367      630      832      855 
     700      530      409      382      568      865     1009      920 
     657      383      325      477      641      710      680      607 
     587      623      614      534      500      533      560      615 
     699      774      859      873      712      495      429      526 
     622      579      422      322      430      724     1070     1293 
    1250      986      727      556      433      395      429      453 
     464      483      498      515      599      712      706      584 
     496      535      699      800      676      457      318      291 
     340      433      585      760      841      792      734      745 
     722      639      677      918     1127     1081      834      535 
     306      222      274      427      612      738      805      822 
     724      484      205       93      263      588      835      913 
     899      878      885      891      858      756      577      418 
     394      483      545      546      571      626      652      656 
     627      546      468      473      553      606      615      657 
     742      820      795      608      410      406      634      959 
    1185     1159      886      545      351      355      438      521 
     538      449      372      411      503      565      544      486 
     521      673      897     1131     1233     1147      945      685 
     394      136       43      174      396      544      610      649 
     649      611      616      758      997     1192     1227     1067 
     796      540      329      163       85      140      326      591 
     839      919      797      669      619      531      400      369 
     500      702      805      734      581      529      615      729 
     808      859      868      850      859      864      828      773 
     649      453      275      191      256      457      666      700 
     525      363      380      508      615      696      777      835 
     858      832      750      665      616      607      629      633 
     638      668      687      699      641      491      425      525 
     676      828      978     1050     1021      888      629      395 
     298      279      359      486      545      554      558      627 
     706      683      668      689      677      697      702      611 
     469      291      140      135      283      550      878     1161 
    1341     1390     1309     1129      853      544      301      143 
      78      164      372      548      569      410      210      171 
     298      499      708      886     1054     1213     1302     1309 
    1275     1221     1059      731      410      255      222      224 
     176       31      -62       83      390      641      773      846 
     908      997     1107     1111      932      633      315       99 
     116      321      491      475      286       54      -95     -118 
      16      287      588      859     1067     1173     1260     1368 
    1451     1551     1624     1529     1267     1028      945      850 
     634      421      253      133       54       -8       28      114 
     132      164      252      329      471      762     1147     1466 
    1529     1263      870      575      360      168        1     -195 
    -409     -475     -288      -18      110       81      -78     -253 
    -251       -6      479     1156     1864     2421     2735     2901 
    3051     3127     3052     2783     2216     1340      326     -572 
   -1196    -1614    -1945    -2092    -1937    -1541    -1026     -525 
     -82      442     1139     1864     2382     2639     2705     2593 
    2299     1803     1224      900      970     1105      792      -89 
   -1030    -1626    -1957    -1790     -936       90     1143     1919 
    1792     1366      912      392      504      899     1324     1868 
    1771     1044       22    -1190    -1871    -1561     -576      639 
    1917     3117     3649     3049     1777      738      475     1107 
    2278     3032     2721     1580     -124    -2034    -3415    -3905 
   -3489    -2280     -801      396     1152     1599     1877     2073 
    2278     2396     2358     2141     1620      862       24     -710 
    -993     -596      324     1399     2268     2632     2274     1244 
     129     -410     -387      -68      527     1192     1541     1425 
     923      253     -432    -1030    -1309    -1077     -243     1050 
    2236     2795     2548     1586      375     -449     -507       60 
     564      395     -364    -1075    -1124     -395      734     1710 
    2184     2203     2073     2124     2409     2562     2274     1537 
     560     -189     -579     -916    -1259    -1626    -1964    -1864 
   -1158     -124      907     1752     2377     2691     2663     2531 
    2490     2459     2381     2407     2475     2141     1135     -415 
   -2201    -3778    -4641    -4491    -3396    -1644      336     1907 
    2559     2390     1972     1914     2590     3797     4703     4550 
    3238     1279     -608    -1894    -2366    -2141    -1576     -992 
    -538     -265      -55      351     1061     1837     2288     2196 
    1628      865      255      -20      -36        2      -20      -47 
      91      413      753     1089     1458     1890     2458     3078 
    3497     3307     2180      529     -900    -1759    -1918    -1557 
   -1179    -1093    -1221    -1220     -808      -91      653     1236 
    1640     2015     2415     2710     2839     2731     2230     1374 
     403     -522    -1324    -1830    -1875    -1429     -504      810 
    2124     2928     3029     2548     1679      735       -1     -375 
    -259      194      618      792      733      639      641      687 
     772      849      739      415       27     -229     -116      410 
    1034     1459     1543     1163      415     -364     -805     -681 
    -163      344      594      461       37     -313     -313       49 
     700     1444     1911     1972     1919     1968     2103     2162 
    1912     1478     1158      911      638      330      -68     -479 
    -708     -700     -484     -108      275      503      549      456 
     318      338      642     1129     1606     1887     1877     1620 
    1225      778      349       91       95      302      693     1119 
    1169      680      -63     -666     -872     -588       64      799 
    1287     1332      986      530      326      467      700      926 
    1112     1109      954      865      892      958     1001      957 
     769      430       22     -376     -730     -888     -723     -313 
     191      735     1337     1957     2425     2515     2219     1786 
    1383     1028      753      612      545      382       93     -160 
    -221      -97      121      336      396      336      321      376 
     521      754      962     1104     1215     1244     1117      900 
     695      465      129     -361     -900    -1101     -697      143 
    1044     1629     1765     1736     1768     1834     1869     1779 
    1552     1312     1040      542     -217    -1031    -1676    -1953 
   -1717    -1070     -194      811     1737     2245     2227     1906 
    1485     1158     1142     1350     1455     1273      872      409 
      10     -245     -367     -436     -479     -365      -41      332 
     600      764      924     1156     1408     1624     1799     1867 
    1798     1656     1474     1173      724      222     -245     -675 
    -996    -1084     -939     -664     -241      364     1026     1549 
    1842     1941     1922     1784     1440      861      176     -333 
    -454     -291      -32      253      519      862     1336     1709 
    1807     1701     1541     1317      912      430       74     -140 
    -314     -476     -598     -652     -549     -199      402     1101 
    1602     1765     1634     1286      911      703      661      699 
     777      834      756      538      324      179       58       31 
     233      567      799      800      549      145     -225     -391 
    -186      361      973     1455     1752     1795     1626     1412 
    1340     1516     1756     1822     1626     1165      552      -78 
    -649    -1038    -1206    -1166     -824     -305       97      359 
     576      803     1161     1676     2123     2239     1989     1502 
     931      481      280      265      340      411      360      184 
     -35     -291     -508     -522     -275      132      564      924 
    1219     1421     1522     1601     1621     1518     1377     1244 
    1100      904      589      197     -148     -272      -55      398 
     913     1282     1312     1043      589       63     -302     -282 
      24      314      503      580      526      454      468      581 
     739      919     1178     1462     1626     1543     1201      783 
     438      264      302      356      280      116      -35        8 
     267      540      688      780      939     1081     1109     1035 
     745      357      172      112       66      109      210      372 
     633      932     1156     1121      824      441      170      221 
     567      918     1032      892      688      569      608      822 
    1086     1270     1381     1432     1374     1204      947      673 
     476      278       12     -225     -387     -511     -556     -422 
    -120      356      957     1371     1514     1579     1599     1575 
    1529     1402     1140      715      183     -251     -457     -473 
    -334     -118       49      187      334      514      756      982 
    1219     1541     1760     1799     1753     1566     1254      880 
     407     -109     -572     -851     -826     -558     -193      253 
     704      931      963     1016     1097     1231     1468     1630 
    1580     1347      963      525      162      -63      -97       45 
     264      456      518      468      463      519      639      820 
     905      866      800      742      738      754      675      513 
     425      473      572      680      796      900     1024     1150 
    1183     1067      791      423      137       49      128      357 
     630      712      581      361      160      139      294      511 
     792     1065     1202     1186      977      594      274      159 
     199      387      622      760      792      695      508      379 
     361      492      761     1026     1174     1162      966      639 
     311      121       86      103      183      396      700     1027 
    1305     1443     1418     1287     1086      886      776      649 
     394      152       -6     -118      -90       64      263      498 
     607      510      433      548      853     1227     1480     1537 
