Origin Time       2025/03/28 03:50:00
Lat.              35.403
Long.             140.360
Depth. (km)       54
Mag.              4.4
Station Code      SZO001
Station Lat.      35.1425
Station Long.     139.0798
Station Height(m) 74
Record Time       2025/03/28 03:51:11
Sampling Freq(Hz) 100Hz
Duration Time(s)  60
Dir.              U-D
Scale Factor      7845(gal)/8223790
Max. Acc. (gal)   0.816
Last Correction   2025/03/28 03:51:11
Memo.             
     747      750      741      742      753      749      746      750 
     743      737      750      757      743      737      747      749 
     742      747      743      739      751      751      741      747 
     751      741      738      749      750      746      743      739 
     746      756      743      733      746      753      743      742 
     747      746      746      746      741      745      753      741 
     735      750      751      742      743      747      749      746 
     745      749      749      742      742      751      747      737 
     743      750      746      749      749      741      745      754 
     747      737      745      753      742      739      753      747 
     738      741      749      749      743      743      749      747 
     743      747      753      751      739      737      751      753 
     739      738      747      754      749      742      746      751 
     746      738      745      751      747      741      745      749 
     750      747      739      739      750      751      745      745 
     747      745      745      749      750      749      743      739 
     746      749      746      745      741      745      751      743 
     739      747      747      743      745      749      753      747 
     737      745      754      751      745      738      741      750 
     750      743      743      747      746      745      746      745 
     745      747      742      739      749      751      741      742 
     747      749      746      742      743      750      747      741 
     747      756      743      731      746      756      746      735 
     733      741      746      745      749      753      761      768 
     762      760      764      757      737      733      754      769 
     766      776      807      820      804      795      793      765 
     706      621      568      608      683      692      675      741 
     845      827      712      675      742      789      769      726 
     680      660      681      726      819      899      851      772 
     770      811      819      716      514      423      653     1023 
    1024      642      498      670      661      608      888     1147 
     892      426      548     1027      889      618      903      918 
     625      760      935      869      733      449      302      560 
     959     1027      760      814      913      399      326     1151 
    1266      502      548     1119      846      561      739      395 
     322     1017      973      438      768     1177      715      407 
     781      881      697      835     1021     1059      762      151 
     241     1003     1186      784      526      494      546      773 
    1030      889      685      919     1020      683      560      764 
     916      907      544      189      676     1271      864      396 
     639      801      726      743      707      837     1158      915 
     197      226     1131     1321      421      256     1046      873 
      62      517     1507     1308      575      468      634      657 
     739      820      712      780      994      670      361      884 
    1239      810      471      513      676     1004     1082      558 
     321      951     1216      498      282      967     1055      552 
     560      827      834      599      534     1146     1351      417 
     151      843      865      700      891      513      259      989 
    1339      780      627      853      603      425      711      943 
     930      741      695      891      741      508      781      885 
     638      777     1011      723      423      634      901      849 
     681      484      413      765     1088      873      773      972 
     535      147     1019     1598      828      417      649      502 
     506      800      911     1063      837      302      552     1046 
     827      564      780      928      791      805      793      460 
     523      915      730      573      974      918      452      550 
     797      796      977      931      541      683      973      685 
     557      804      745      648      868      965      756      554 
     621      758      814      949      832      540      657      595 
     391     1078     1601      823      180      487      735      685 
     769      901      872      704      615      702      845      847 
     627      546      723      796      924     1100      762      309 
     492      877      916      884      886      729      558      550 
     689      896      993      861      615      618      839      720 
     507      785     1036      842      652      600      630      841 
     837      437      391      988     1302      746      243      627 
    1011      774      739      954      834      610      521      565 
     776      951      903      692      634      869      974      711 
     454      598      958      849      418      638     1102      815 
     445      716      961      765      594      718      893      820 
     577      625     1019     1003      530      584      967      738 
     457      792      992      715      598      684      676      796 
     967      687      363      707     1065      907      859      865 
     631      603      654      527      696     1135     1054      495 
     433      810      749      565      788      845      673      877 
    1016      568      437      982     1032      522      631     1104 
     996      585      444      599      838      884      710      576 
     708      891      681      445      714      997      884      687 
     662      788      847      776      808      832      611      472 
     704      942      835      669      703      758      774      803 
     778      785      808      719      676      729      681      637 
     769      862      787      765      801      712      615      638 
     715      837      923      785      558      588      812      830 
     699      787      854      697      734      858      719      707 
     793      581      567      961      985      595      552      793 
     819      766      776      743      729      715      774      900 
     724      504      715      862      719      760      787      538 
     548      885      981      796      654      654      810      932 
     774      556      633      885      873      673      803      974 
     706      488      618      830     1017      884      525      576 
     795      646      553      812      905      676      583      720 
     845      926      904      729      669      772      731      699 
     839      769      553      661      870      807      703      751 
     756      691      733      818      777      675      650      734 
     873      905      731      621      731      747      668      746 
     787      714      753      814      796      811      761      634 
     664      797      850      830      714      595      614      661 
     738      888      838      626      741     1008      815      480 
     625      905      834      608      607      851      907      596 
     552      886      900      715      780      797      722      745 
     672      630      780      811      722      739      764      729 
     795      916      805      645      764      795      598      652 
     859      796      675      738      739      661      768      843 
     730      764      832      627      545      801      905      750 
     758      832      707      681      776      715      733      847 
     727      600      684      716      681      758      805      707 
     707      851      854      722      681      710      702      707 
     769      830      850      800      692      666      741      807 
     851      774      652      766      878      664      561      768 
     769      564      607      800      885      866      765      680 
     727      830      845      820      780      612      571      811 
     885      737      714      668      588      777      957      859 
     774      702      627      827      931      587      450      770 
     858      685      730      820      830      905      796      495 
     538      877      878      685      845      939      611      549 
     870      899      712      662      623      656      805      776 
     627      665      789      845      900      877      697      553 
     623      815      912      832      737      697      573      498 
     729      954      799      596      650      711      753      942 
    1012      810      610      638      808      801      680      792 
     799      511      591      965      951      716      629      634 
     708      811      874      868      772      611      444      575 
    1017     1109      746      604      729      631      477      706 
    1007      949      731      616      668      841      826      631 
     668      862      891      788      669      612      720      823 
     708      625      783      882      747      645      712      741 
     645      583      646      834      963      861      777      811 
     687      600      792      918      853      774      689      677 
     749      689      588      722      866      718      633      832 
     837      599      635      861      880      772      765      792 
     697      658      800      799      619      672      923      920 
     603      457      764     1053      874      589      619      762 
     715      584      662      847      730      525      675      815 
     727      866     1096      857      545      815     1031      635 
     492      851      912      741      756      803      784      707 
     650      799      899      702      569      629      576      476 
     548      757      962      900      665      703      858      743 
     649      857      946      683      614      886      886      508 
     378      778     1012      696      764     1219      920      394 
     626      962      862      716      656      577      545      656 
     908     1023      774      638      988     1081      542      319 
     664      696      436      581      958      999      742      562 
     687      970      993      819      830      765      476      518 
     874      866      602      746     1023      796      577      818 
     880      571      472      746      986      869      596      565 
     680      672      741      977      999      745      533      535 
     772      908      735      672      762      643      603      874 
     939      716      824     1065      795      430      548      850 
     896      611      434      857     1291      913      384      535 
     774      608      530      820     1097      872      454      639 
    1073      943      635      611      558      480      664      931 
    1013      905      673      453      418      629      963     1075 
     826      621      654      608      534      661      831     1034 
    1139      760      360      695     1124      841      642     1007 
     985      527      500      753      770      766      876      789 
     615      656      714      642      594      611      683      820 
     951      949      770      540      553     1005     1297      777 
     334      714      846      449      527      927      970      716 
     521      573      616      660      996     1178      961      760 
     665      630      603      594      808     1040      901      494 
     336      751     1121      808      496      818      942      481 
     504     1063     1001      531      562      765      653      619 
     799      903      919      760      600      845      934      553 
     558      989      978      589      526      757      753      668 
     845      868      594      583      854      850      537      477 
     800      970      788      652      758      839      739      719 
     864      881      758      685      622      581      739     1042 
    1047      618      417      723      868      666      707      974 
     854      500      588      874      758      557      766     1028 
     803      490      661      834      741      859     1048     1001 
     772      386      332      781      996      807      580      469 
     719     1009      746      463      730      940      720      650 
     872      880      768      808      765      729      838      753 
     610      733      769      610      662      884      980      823 
     418      311      893     1302      880      465      639      750 
     607      760      923      658      616      842      616      533 
    1016     1065      670      664      824      808      742      591 
     533      746      760      499      707     1178      936      357 
     380      788      978      905      843      873      746      588 
     814     1081      865      511      537      785      819      731 
     864      953      648      360      592     1017     1024      700 
     490      567      816      909      766      706      773      761 
     670      666      800      869      797      673      465      476 
     932     1221      950      502      344      627      881      783 
     796      976      807      448      467      845     1112      953 
     460      297      793     1123      855      665      741      672 
     467      614     1059     1004      608      658      753      595 
     807     1190      961      399      280      531      814     1154 
    1167      670      450      720      870      873      841      587 
     440      716      936      765      656      805      751      519 
     616      954     1055      838      656      706      746      716 
     749      781      827      877      835      739      589      540 
     715      855      916      877      573      454      746      803 
     607      681      858      976     1107      905      494      434 
     479      360      585     1061      996      540      492      854 
    1036      831      592      680      882      838      819     1012 
     876      423      426      897     1186      977      503      326 
     487      575      672      919     1107     1016      588      371 
     745      969      783      827      947      751      637      853 
    1015      746      387      545      870      746      670      986 
     965      546      469      622      656      793      972      973 
     909      854      864      935      784      423      337      519 
     500      523      985     1310      973      465      527     1023 
    1098      737      502      309      267      680     1063     1040 
     849      696      610      556      602      797      976      981 
     851      724      638      556      629      810      723      550 
     791     1119      876      432      492      747      815      945 
    1038      900      735      627      626      723      607      437 
     756     1179      978      553      588      815      849      853 
     804      599      542      716      877      945      853      568 
     383      583      892      901      868      876      583      488 
     942     1086      731      602      720      716      610      562 
     677      864      889      780      756      846      870      710 
     568      675      873      934      760      496      643      963 
     702      523      993      985      518      675      899      707 
     726      792      567      515      796      981      849      550 
     438      702     1057     1143      857      495      503      714 
     758      722      711      792      958      857      449      368 
     780      974      769      642      629      749      953      777 
     517      658      764      720      760      758      909     1170 
    1042      720      594      560      652      926     1015      670 
     303      396      724      745      594      737      899      793 
     872     1000      643      483      981     1093      660      724 
     977      680      530      886      994      776      639      446 
     387      834     1108      751      513      707      850      843 
     850      795      680      681      742      677      675      846 
     826      581      506      656      832      918      886      766 
     683      699      615      577      862      893      490      537 
    1034     1159      878      621      652      859      772      504 
     757     1287     1053      265      238      927     1117      714 
     465      518      604      650      800     1001      893      627 
     723      965      859      568      519      750      873      742 
     673      712      685      703      750      673      564      619 
     949     1183      796      334      622     1088      943      642 
     650      598      414      534      868      976      876      888 
     963      722      423      706     1167     1054      581      364 
     621     1030     1092      837      643      664      811      788 
     535      552      901      973      681      549      703      812 
     731      642      689      716      611      608      815     1019 
    1034      777      488      508      662      762      873      816 
     695      843      961      785      649      676      681      637 
     649      750      819      837      842      738      654      804 
     946      907      869      787      575      463      525      645 
     837      930      673      421      598      861      807      684 
     750      800      730      757      855      793      723      859 
     950      797      607      588      675      653      615      831 
    1057      927      646      483      477      652      903     1004 
     889      772      789      778      702      684      657      673 
     839      930      832      780      799      715      621      729 
     927      916      649      441      561      789      803      781 
     928      973      764      575      521      522      673      951 
     988      711      603      749      722      633      783      847 
     665      677      874      753      500      611      804      778 
     828      976      977      886      679      380      400      822 
    1158     1077      793      657      612      549      693     1011 
    1044      726      510      577      670      695      761      781 
     689      680      727      612      515      737      951      741 
     544      810     1075      936      681      583      642      756 
     788      810      857      766      718      861      841      665 
     668      696      643      734      854      677      427      612 
    1069     1136      726      445      614      878      858      666 
     641      770      777      652      642      808      861      747 
     764      795      596      592      977     1071      691      545 
     768      819      693      762      922      826      595      676 
     945      904      681      665      745      679      611      764 
     831      602      587      845      845      715      762      828 
     846      819      715      720      797      664      495      584 
