Origin Time       2025/03/28 03:50:00
Lat.              35.403
Long.             140.360
Depth. (km)       54
Mag.              4.4
Station Code      SZO003
Station Lat.      34.8158
Station Long.     139.0544
Station Height(m) 149
Record Time       2025/03/28 03:51:14
Sampling Freq(Hz) 100Hz
Duration Time(s)  60
Dir.              E-W
Scale Factor      7845(gal)/8223790
Max. Acc. (gal)   2.822
Last Correction   2025/03/28 03:51:13
Memo.             
[...]
    8700     9104     9398     9525     9495     9339     9140     9013 
    8946     8881     8884     8945     8991     9015     9013     9009 
    9073     9227     9327     9207     8972     8783     8777     9086 
    9512     9663     9432     9012     8654     8496     8532     8658 
    8779     8857     8928     9073     9274     9397     9408     9359 
    9209     8955     8757     8766     8997     9267     9362     9297 
    9178     8984     8815     8818     8861     8795     8741     8764 
    8815     9026     9309     9366     9262     9121     8986     8996 
    9055     9050     9015     8927     8899     9012     9117     9139 
    9074     8930     8850     8931     9117     9298     9329     9243 
    9167     9007     8812     8776     8904     9123     9225     9132 
    9012     8904     8876     9040     9227     9313     9346     9242 
    9073     9030     9022     8976     8922     8839     8820     8851 
    8876     8973     9059     9120     9223     9212     9084     9007 
    8916     8722     8549     8548     8683     8812     8968     9224 
    9400     9335     9140     8953     8833     8814     8899     9084 
    9323     9514     9634     9748     9778     9626     9409     9072 
    8557     8205     8110     8110     8262     8521     8758     8996 
    9148     9173     9221     9292     9298     9408     9672     9861 
    9829     9651     9508     9342     9049     8765     8455     8152 
    8050     8109     8316     8653     8991     9279     9455     9409 
    9171     8947     8856     8792     8737     8784     8900     9062 
    9271     9439     9504     9501     9508     9431     9224     9119 
    9153     9154     9074     8934     8761     8650     8617     8559 
    8550     8703     8961     9262     9486     9547     9498     9379 
    9263     9238     9204     9067     8914     8795     8683     8577 
    8529     8629     8815     8946     9047     9134     9115     9049 
    9005     8959     9024     9215     9335     9382     9423     9412 
    9350     9215     8978     8761     8626     8576     8692     8853 
    8915     8930     8837     8702     8742     8922     9143     9390 
    9545     9516     9352     9072     8835     8878     9073     9258 
    9402     9425     9433     9466     9396     9293     9138     8872 
    8648     8436     8256     8338     8554     8737     8982     9158 
    9093     8985     9024     9153     9281     9394     9504     9516 
    9402     9285     9163     9049     9024     8981     8851     8737 
    8613     8452     8405     8498     8622     8752     8895     9030 
    9127     9188     9194     9170     9171     9136     9223     9551 
    9787     9757     9636     9499     9225     8918     8793     8710 
    8617     8657     8764     8910     9072     9185     9258     9227 
    9070     8870     8735     8776     8923     9034     9086     9112 
    9140     9146     9088     9055     9148     9254     9232     9189 
    9162     8954     8672     8506     8422     8490     8621     8710 
    8885     9076     9139     9108     9088     9084     9107     9219 
    9269     9170     9111     9192     9296     9331     9329     9329 
    9283     9153     9127     9209     9151     9009     8887     8718 
    8559     8509     8554     8671     8839     8957     9058     9248 
    9467     9626     9612     9459     9315     9143     9024     9072 
    9100     8964     8769     8595     8468     8438     8492     8661 
    8928     9123     9207     9261     9273     9315     9404     9364 
    9247     9186     9066     8968     9039     9082     8985     8870 
    8780     8704     8712     8857     8988     8958     8885     8830 
    8811     8931     9055     9123     9262     9343     9304     9286 
    9282     9231     9170     9171     9192     9162     9196     9329 
    9412     9337     9166     8954     8691     8510     8438     8398 
    8471     8596     8753     9061     9369     9520     9566     9495 
    9298     9097     8954     8851     8837     8861     8885     8991 
    9113     9167     9143     9069     8973     8841     8729     8691 
    8749     8964     9197     9325     9389     9312     9136     9072 
    9097     9097     9065     8991     8961     9039     9080     9092 
    9165     9147     8968     8743     8546     8437     8490     8684 
    8966     9304     9597     9751     9795     9706     9406     9024 
    8739     8586     8519     8532     8729     8997     9080     9036 
    9013     9001     9031     9103     9150     9153     9138     9119 
    9089     9057     9047     9038     9039     9115     9202     9239 
    9254     9175     9023     8904     8845     8866     8934     8997 
    8996     8860     8735     8743     8799     8869     8980     9140 
    9286     9323     9293     9252     9142     8949     8804     8770 
    8804     8878     8951     9045     9150     9215     9261     9246 
    9197     9155     9062     9028     9028     8911     8820     8845 
    8951     9115     9197     9184     9151     9090     8999     8904 
    8900     8992     9066     9115     9127     9092     9050     9042 
    9120     9198     9215     9239     9213     9108     9042     8981 
    8858     8766     8793     8872     8918     8970     9026     9027 
    8981     8924     8897     8901     8866     8769     8729     8834 
    8989     9074     9119     9229     9356     9386     9379     9359 
    9333     9327     9273     9198     9157     9092     8997     8892 
    8797     8742     8691     8676     8764     8883     8980     9058 
    9072     9055     9059     9059     9073     9140     9243     9279 
    9223     9148     9074     9005     8946     8862     8804     8835 
    8901     8950     9031     9107     9077     9019     9008     9004 
    8995     8995     9043     9120     9157     9193     9217     9154 
    9059     8977     8918     8939     8968     9003     9112     9154 
    9094     9039     8969     8887     8834     8820     8861     8916 
    8968     9092     9263     9387     9478     9502     9360     9139 
    8973     8847     8770     8752     8741     8770     8853     8887 
    8916     9000     9061     9123     9188     9178     9142     9112 
    9084     9108     9175     9188     9088     8924     8815     8792 
    8796     8815     8916     9117     9304     9369     9267     9035 
    8800     8617     8519     8613     8866     9147     9417     9603 
    9571     9343     9115     9003     8955     8937     8939     8945 
    8973     8989     8976     8970     8966     8995     9055     9086 
    9130     9217     9274     9267     9211     9147     9103     9026 
    8946     8928     8995     9117     9148     9034     8884     8783 
    8719     8657     8645     8673     8702     8810     8974     9035 
    8976     8959     9107     9364     9575     9601     9452     9267 
    9067     8814     8672     8700     8718     8716     8785     8901 
    9036     9175     9236     9193     9167     9211     9267     9325 
    9367     9323     9201     9096     9088     9193     9302     9290 
    9182     9024     8788     8571     8483     8441     8486     8687 
    8881     8976     8989     8978     9059     9198     9301     9394 
    9510     9589     9563     9412     9127     8775     8486     8382 
    8495     8700     8827     8916     9070     9236     9381     9490 
    9477     9328     9119     8947     8850     8819     8862     8959 
    9053     9148     9240     9232     9076     8861     8694     8614 
    8607     8699     8930     9171     9269     9243     9189     9170 
    9211     9304     9413     9468     9409     9262     9072     8838 
    8622     8510     8530     8649     8768     8877     9039     9169 
    9180     9162     9158     9120     9099     9117     9090     9030 
    9001     9001     8985     8905     8858     8945     9063     9103 
    9055     8941     8864     8935     9047     9077     9082     9077 
    9058     9119     9224     9228     9158     9136     9154     9196 
    9274     9337     9348     9238     8989     8737     8583     8527 
    8590     8754     8897     8965     9047     9174     9267     9273 
    9232     9190     9109     9016     9000     9019     8985     8892 
    8769     8683     8708     8888     9177     9402     9429     9302 
    9115     8915     8795     8814     8919     9047     9131     9104 
    8974     8824     8780     8864     9022     9221     9352     9340 
    9232     9049     8847     8752     8802     8955     9115     9212 
    9248     9223     9151     9057     8969     8973     9067     9171 
    9259     9292     9232     9115     8972     8843     8746     8671 
    8649     8712     8860     9070     9254     9313     9250     9109 
    8904     8702     8664     8831     9049     9192     9204     9092 
    9011     9019     9020     9027     9032     8985     8943     8927 
    8941     9027     9143     9234     9306     9328     9254     9081 
    8891     8777     8723     8708     8761     8892     9105     9301 
    9337     9261     9193     9154     9146     9162     9190     9217 
    9208     9166     9121     9049     8941     8839     8762     8719 
    8710     8743     8849     9005     9151     9244     9292     9319 
    9288     9132     8905     8760     8777     8873     8957     9065 
    9201     9296     9301     9184     8982     8827     8773     8757 
    8731     8692     8661     8708     8877     9099     9266     9316 
    9246     9140     9108     9159     9220     9244     9263     9310 
    9323     9244     9163     9132     9100     9063     9001     8877 
    8753     8691     8716     8800     8880     8969     9047     9113 
    9204     9252     9220     9175     9144     9108     9053     8980 
    8897     8847     8905     9013     9026     8935     8810     8725 
    8753     8896     9101     9255     9270     9178     9077     9034 
    9045     9124     9262     9320     9239     9117     9036     8977 
    8899     8845     8822     8808     8860     8959     9054     9123 
    9089     8991     8954     8988     9078     9217     9316     9309 
    9215     9066     8922     8873     8903     8924     8939     9019 
    9128     9144     9084     9020     8942     8895     8893     8919 
    9039     9201     9282     9269     9170     9045     8980     8991 
    9007     8991     8992     9031     9062     9047     9018     8991 
    8915     8796     8731     8750     8770     8777     8830     8924 
    9007     9063     9127     9192     9225     9259     9309     9370 
    9420     9391     9263     9051     8799     8646     8658     8781 
    8953     9119     9204     9162     9047     8939     8874     8858 
    8895     9007     9169     9293     9331     9281     9177     9067 
    8961     8904     8916     8897     8818     8749     8694     8623 
    8567     8595     8750     9001     9277     9471     9526     9478 
    9340     9167     9065     9035     9040     9057     9086     9158 
    9215     9217     9248     9282     9235     9147     9026     8858 
    8708     8646     8745     8939     9112     9289     9424     9464 
    9477     9423     9261     9069     8897     8788     8776     8834 
    8881     8885     8892     8946     9043     9090     9070     9057 
    8972     8758     8581     8544     8623     8878     9312     9717 
    9877     9684     9182     8587     8109     7871     7947     8272 
    8687     9059     9297     9393     9413     9400     9344     9221 
    9138     9185     9290     9408     9486     9428     9258     9043 
    8826     8706     8723     8789     8877     9030     9116     8973 
    8694     8451     8422     8785     9420    10029    10443    10604 
   10565    10420    10166     9850     9501     9013     8496     7878 
    6945     6380     6624     6967     7141     7283     7398     7821 
    8538     9274    10073    10768    11190    11399    11357    11114 
   10824    10596    10376    10006     9639     9308     8818     8321 
    7971     7786     7746     7697     7672     7662     7589     7650 
    7901     8171     8428     8716     9113     9629    10048    10197 
   10254    10404    10554    10480    10008     9223     8426     7838 
    7538     7561     7919     8442     8856     9159     9529     9938 
   10318    10573    10534    10216     9749     9244     8835     8610 
    8619     8788     8883     8787     8561     8301     8056     7865 
    7747     7734     7904     8217     8571     9053     9717    10372 
   10770    10822    10578    10110     9572     9185     8964     8802 
    8641     8452     8232     7971     7693     7515     7609     8054 
    8677     9159     9244     8973     8681     8691     9030     9514 
   10029    10523    10886    11024    10912    10516     9834     9028 
    8390     8209     8534     8982     9175     9053     8706     8303 
    7947     7693     7701     8029     8527     9063     9533     9767 
    9734     9617     9528     9454     9441     9572     9763     9779 
    9409     8650     7784     7276     7450     8174     9089     9859 
   10208    10138     9867     9545     9240     9046     9035     9078 
    8910     8463     8009     7827     7928     8116     8129     7886 
    7611     7576     7969     8783     9694    10449    11059    11427 
   11449    11252    10980    10674    10266     9621     8810     8039 
    7341     6762     6524     6706     7061     7365     7720     8272 
    8984     9771    10543    11245    11792    11989    11812    11433 
   10914    10235     9452     8672     8010     7506     7141     6949 
    6905     6903     6984     7194     7396     7580     7960     8595 
    9304    10033    10800    11404    11626    11485    11043    10362 
    9630     8997     8540     8233     7951     7676     7500     7527 
    7776     8090     8371     8603     8668     8580     8591     8888 
    9467    10181    10789    11026    10812    10307     9729     9298 
    9065     8826     8557     8419     8379     8407     8507     8561 
    8591     8671     8783     9018     9466     9992    10378    10538 
   10512    10269     9711     8884     7938     7153     6910     7236 
    7743     8210     8640     8926     8993     8824     8478     8329 
    8687     9329     9842    10081    10073     9865     9614     9481 
    9524     9722     9898     9853     9532     9026     8529     8221 
    8239     8518     8769     8806     8657     8440     8301     8334 
    8554     8900     9236     9486     9574     9408     9170     9124 
    9208     9235     9220     9232     9240     9136     8905     8769 
    8833     8896     8815     8627     8525     8688     9053     9404 
    9616     9663     9566     9359     9124     8980     8958     9000 
    9019     8930     8756     8646     8672     8680     8529     8398 
    8550     8970     9432     9798    10088    10330    10480    10470 
   10260     9859     9317     8772     8348     8070     7990     8167 
    8507     8883     9244     9514     9603     9558     9383     9018 
    8602     8241     7863     7528     7344     7323     7479     7785 
    8267     8900     9436     9674     9699     9661     9624     9634 
    9678     9722     9833    10031    10238    10363    10289     9923 
    9350     8764     8248     7897     7842     7947     8019     8110 
    8245     8355     8536     8874     9324     9749     9965    10007 
   10006    10003    10079    10200    10242    10134     9805     9273 
    8679     8174     7813     7578     7572     7820     8074     8155 
    8113     8075     8240     8704     9369    10061    10562    10775 
   10818    10762    10604    10332     9852     9124     8305     7666 
    7380     7414     7672     8016     8299     8463     8505     8459 
    8430     8488     8623     8799     8943     9085     9316     9536 
    9726     9979    10165    10265    10409    10548    10579    10369 
    9814     9049     8333     7908     7839     7975     8156     8257 
    8290     8390     8583     8791     8947     9042     9148     9305 
    9477     9606     9620     9499     9288     8978     8571     8181 
    7962     7946     8054     8213     8409     8707     9126     9670 
   10285    10744    10921    10876    10620    10210     9844     9594 
    9370     9076     8611     8047     7591     7244     6997     6979 
    7207     7661     8294     8892     9323     9625     9796     9806 
    9741     9765     9883     9898     9767     9610     9444     9246 
    9055     8918     8838     8772     8712     8664     8608     8608 
    8710     8897     9165     9433     9630     9763     9817     9814 
    9823     9819     9690     9417     9100     8802     8518     8341 
    8353     8426     8391     8181     7873     7701     7769     8041 
    8469     8922     9289     9506     9586     9678     9840     9994 
   10065     9968     9628     9130     8635     8240     8033     8089 
    8332     8644     8965     9254     9471     9583     9601     9622 
    9691     9733     9694     9548     9256     8919     8671     8471 
    8355     8417     8587     8737     8780     8775     8885     9092 
    9244     9279     9192     9012     8851     8850     9009     9196 
    9296     9225     9042     8934     8930     8974     9058     9170 
    9336     9548     9686     9682     9599     9499     9374     9289 
    9251     9175     9107     9008     8742     8392     8116     7939 
    7908     8067     8310     8487     8569     8596     8644     8827 
    9104     9344     9597     9829     9840     9675     9522     9420 
    9375     9358     9277     9166     9018     8793     8619     8592 
    8683     8824     8942     9011     9040     9016     8989     9035 
    9130     9254     9437     9639     9721     9591     9325     9072 
    8893     8785     8727     8618     8456     8384     8417     8556 
    8797     9023     9177     9269     9312     9340     9367     9358 
    9293     9146     8930     8795     8806     8868     8950     8997 
    8896     8745     8685     8683     8727     8858     9015     9197 
    9462     9725     9838     9767     9575     9347     9131     8953 
    8849     8781     8723     8698     8695     8749     8814     8785 
    8743     8737     8725     8722     8793     8942     9097     9261 
    9378     9383     9343     9259     9186     9242     9348     9382 
    9350     9266     9108     8949     8851     8816     8881     8995 
    9039     8989     8858     8634     8401     8298     8347     8546 
    8908     9296     9517     9574     9585     9582     9525     9391 
    9223     9085     8969     8846     8741     8654     8542     8451 
    8496     8652     8849     9105     9375     9578     9659     9543 
    9308     9162     9147     9142     9105     9059     8959     8833 
    8752     8738     8777     8793     8757     8731     8743     8850 
    9054     9243     9366     9423     9417     9389     9319     9161 
    8989     8839     8715     8729     8862     8995     9123     9270 
    9408     9493     9499     9429     9294     9092     8901     8843 
    8888     8941     8964     8947     8912     8829     8704     8633 
    8644     8695     8731     8694     8572     8461     8487     8648 
    8895     9201     9475     9655     9788     9828     9720     9582 
