Origin Time       2025/03/28 03:50:00
Lat.              35.403
Long.             140.360
Depth. (km)       54
Mag.              4.4
Station Code      SZO001
Station Lat.      35.1425
Station Long.     139.0798
Station Height(m) 74
Record Time       2025/03/28 03:51:11
Sampling Freq(Hz) 100Hz
Duration Time(s)  60
Dir.              E-W
Scale Factor      7845(gal)/8223790
Max. Acc. (gal)   2.237
Last Correction   2025/03/28 03:51:11
Memo.             
[...]
   19610    19637    19637    19630    19630    19630    19634    19629 
   19624    19627    19630    19642    19635    19615    19626    19642 
   19635    19624    19616    19627    19650    19638    19624    19626 
   19618    19634    19651    19624    19620    19638    19620    19619 
   19647    19645    19626    19620    19629    19637    19633    19626 
   19626    19626    19634    19637    19627    19635    19646    19619 
   19610    19645    19656    19629    19606    19612    19645    19653 
   19627    19619    19630    19639    19637    19624    19630    19639 
   19624    19618    19633    19643    19643    19624    19607    19635 
   19660    19635    19622    19635    19637    19627    19629    19641 
   19643    19620    19615    19639    19646    19629    19619    19624 
   19631    19633    19635    19620    19604    19623    19639    19624 
   19629    19626    19607    19631    19651    19619    19610    19647 
   19670    19631    19589    19637    19720    19707    19599    19538 
   19614    19722    19716    19626    19591    19646    19681    19604 
   19512    19542    19649    19714    19691    19614    19570    19575 
   19600    19689    19830    19874    19624    19276    19384    19853 
   19909    19496    19329    19575    19824    19894    19834    19637 
   19326    19219    19533    19857    19877    19770    19572    19388 
   19458    19596    19665    19857    19966    19592    19188    19496 
   19948    19731    19557    19819    19653    19279    19623    20139 
   19834    19199    19060    19249    19774    20426    20131    19217 
   19263    20017    19912    19225    19190    19525    19823    20155 
   19916    19268    19178    19468    19707    19903    19853    19730 
   19672    19530    19533    19510    19184    19218    20000    20626 
   20244    19284    18731    19024    19766    20108    19781    19548 
   19963    20223    19494    18661    18883    19791    20407    20167 
   19326    19132    19971    20278    19353    18922    19786    20227 
   19484    19126    19731    19927    19422    19317    19668    19831 
   19920    19961    19697    19545    19579    19202    18879    19614 
   20592    20237    19403    19510    19534    19035    19178    19741 
   20025    20218    19975    19097    18808    19774    20557    20007 
   19191    19290    19600    19379    19236    19537    20024    20345 
   19988    19326    19226    19566    19886    19857    19376    19053 
   19136    19388    20158    20941    20309    18868    18716    19707 
   20039    19678    19510    19406    19449    19884    19975    19429 
   19113    19577    20204    20002    19342    19435    19867    19634 
   19309    19502    19707    19739    19874    19840    19477    19368 
   19576    19495    19361    19746    20054    19797    19680    19751 
   19483    19394    19629    19553    19518    19759    19738    19778 
   19980    19695    19369    19471    19469    19303    19495    19936 
   20001    19765    19539    19319    19510    19884    19699    19557 
   19926    19847    19089    18723    19172    19932    20528    20494 
   19812    19376    19491    19417    19210    19430    19604    19550 
   19796    19908    19557    19515    19911    20025    19683    19344 
   19311    19596    19885    19618    19323    19680    19830    19457 
   19429    19819    19958    19668    19468    19587    19705    19670 
   19534    19359    19381    19811    20124    19826    19538    19629 
   19573    19403    19496    19661    19707    19788    19774    19488 
   19291    19485    19815    19859    19603    19429    19489    19630 
   19789    19905    19762    19441    19341    19475    19662    19861 
   19822    19575    19591    19845    19791    19300    19138    19805 
   20259    19637    19002    19387    20051    20088    19714    19381 
   19487    19966    19832    19062    18918    19634    20260    20042 
   19418    19452    19773    19496    19310    19845    20309    19990 
   19349    19219    19373    19267    19342    19768    20055    20078 
   19881    19556    19323    19371    19646    19769    19631    19437 
   19352    19568    19851    19784    19608    19751    19973    19870 
   19629    19427    19210    19315    19647    19496    19327    20035 
   20590    19911    19161    19230    19441    19629    19919    19819 
   19453    19569    19774    19365    19184    19705    20001    19930 
   19808    19488    19344    19620    19719    19394    19345    19892 
   20202    19816    19391    19395    19579    19653    19554    19435 
   19599    19899    19759    19368    19589    20101    19758    19084 
   19388    20102    20046    19530    19345    19481    19641    19738 
   19634    19379    19500    19998    20027    19433    19056    19295 
   19808    20137    19989    19512    19260    19533    19872    19700 
   19317    19337    19739    20117    20123    19646    19180    19360 
   19784    19741    19472    19381    19523    19869    20027    19684 
   19302    19442    19857    19900    19576    19377    19404    19573 
   19815    19761    19454    19518    19840    19859    19799    19762 
   19398    19157    19548    19940    19753    19442    19550    19797 
   19750    19573    19526    19573    19689    19805    19687    19363 
   19302    19661    19957    19880    19674    19534    19496    19597 
   19726    19741    19658    19496    19317    19408    19859    20204 
   19971    19386    19165    19454    19656    19577    19508    19688 
   20088    20054    19429    19145    19461    19777    19870    19768 
   19572    19599    19781    19585    19171    19319    19827    19936 
   19903    20001    19661    19095    19186    19664    19827    19764 
   19674    19565    19573    19674    19618    19469    19481    19587 
   19701    19836    19855    19739    19607    19535    19494    19437 
   19539    19778    19820    19703    19711    19791    19700    19454 
   19352    19465    19538    19535    19633    19738    19708    19678 
   19788    19951    19863    19450    19194    19367    19685    19920 
   19954    19642    19194    19183    19722    20156    20001    19634 
   19538    19541    19440    19357    19345    19477    19761    19953 
   19881    19622    19498    19678    19835    19715    19526    19508 
   19588    19565    19498    19543    19716    19862    19720    19521 
   19631    19650    19489    19641    19805    19688    19696    19765 
   19588    19392    19317    19292    19503    19938    20089    19745 
   19495    19714    19784    19440    19425    19780    19720    19431 
   19421    19411    19461    19823    20039    19936    19838    19747 
   19581    19398    19245    19221    19456    19827    19930    19731 
   19616    19707    19838    19781    19508    19379    19549    19720 
   19743    19657    19531    19564    19720    19699    19585    19665 
   19738    19611    19560    19622    19554    19472    19543    19593 
   19595    19666    19745    19838    19939    19811    19422    19229 
   19446    19606    19641    19800    19801    19697    19784    19726 
   19415    19280    19400    19588    19776    19832    19796    19903 
   19877    19437    19203    19576    19830    19568    19396    19511 
   19587    19680    19755    19606    19575    19957    20093    19549 
   19120    19333    19678    19785    19661    19440    19521    19888 
   19967    19697    19462    19346    19450    19820    19981    19723 
   19452    19371    19487    19784    19913    19684    19456    19537 
   19769    19788    19518    19336    19465    19697    19896    19989 
   19809    19489    19387    19387    19267    19477    20146    20362 
   19791    19183    19037    19282    19676    19996    20063    19693 
   19244    19309    19604    19691    19812    19955    19835    19615 
   19488    19415    19392    19512    19750    19799    19680    19765 
   19900    19658    19278    19302    19585    19712    19737    19669 
   19543    19662    19830    19677    19545    19764    19907    19591 
   19229    19322    19662    19705    19395    19337    19815    20251 
   20228    19862    19344    19087    19367    19666    19506    19334 
   19579    19872    19897    19792    19688    19699    19765    19634 
   19423    19365    19452    19673    19786    19561    19390    19669 
   20042    19998    19697    19480    19340    19330    19579    19819 
   19759    19591    19647    19807    19688    19462    19535    19643 
   19539    19585    19777    19641    19302    19380    19962    20362 
   20012    19360    19205    19506    19673    19512    19346    19538 
   19877    19923    19784    19623    19461    19552    19747    19647 
   19468    19545    19624    19496    19492    19691    19843    19892 
   19673    19307    19341    19606    19591    19602    19834    19823 
   19643    19658    19631    19477    19541    19863    20009    19664 
   19318    19500    19716    19614    19626    19774    19722    19552 
   19506    19533    19500    19465    19538    19807    19998    19669 
   19342    19580    19737    19657    19811    19847    19569    19452 
   19471    19425    19575    19769    19606    19444    19688    20043 
   20129    19778    19125    18925    19502    19950    19803    19612 
   19585    19649    19813    19808    19633    19620    19587    19400 
   19458    19635    19620    19766    19966    19684    19330    19498 
   19807    19701    19390    19379    19618    19701    19665    19901 
   20112    19727    19244    19296    19596    19750    19747    19670 
   19629    19687    19703    19534    19445    19570    19589    19580 
   19745    19788    19630    19468    19349    19390    19705    20032 
   19989    19699    19510    19506    19593    19585    19541    19770 
   20020    19656    18963    19063    20039    20483    19832    19311 
   19549    19680    19423    19330    19396    19508    19773    19921 
   19809    19703    19670    19550    19417    19530    19789    19832 
   19665    19431    19159    19207    19824    20398    20333    19788 
   19215    18964    19136    19688    20227    20067    19448    19386 
   19745    19614    19472    19969    20124    19511    19043    18981 
   19153    19742    20460    20526    19917    19327    19062    19098 
   19323    19627    20008    20133    19766    19360    19290    19464 
   19851    20282    20117    19307    18908    19372    19770    19588 
   19408    19616    19947    19957    19604    19330    19305    19569 
   20077    20120    19592    19360    19510    19588    19569    19465 
   19438    19793    20143    19805    19134    19105    19653    19867 
   19708    19915    20267    19903    19226    19134    19373    19568 
   19893    20155    19932    19464    19215    19141    19276    19683 
   20024    20166    19899    19224    19053    19595    20015    20008 
   19732    19384    19253    19354    19504    19714    20009    20147 
   19920    19422    18954    19044    19847    20405    19989    19376 
   19349    19581    19592    19467    19499    19754    20110    20156 
   19487    18760    18963    19820    20312    19990    19433    19384 
   19656    19678    19568    19680    19738    19500    19441    19633 
   19695    19778    19893    19746    19477    19291    19241    19410 
   19755    19996    19811    19558    19719    19797    19537    19521 
   19688    19627    19597    19777    19800    19445    19122    19471 
   20279    20484    19769    19048    18972    19317    19836    20061 
   19627    19414    19818    19896    19597    19495    19479    19583 
   19795    19650    19311    19318    19560    19815    19959    19631 
   19099    19306    20181    20555    20101    19484    18971    18859 
   19585    20201    19637    19060    19606    20082    19726    19657 
   20106    20009    19413    19149    19201    19333    19684    20077 
   20094    19691    19263    19238    19484    19738    19998    19930 
   19421    19224    19568    19697    19413    19273    19502    19942 
   20304    20136    19425    18920    19172    19750    19944    19669 
   19525    19743    19654    19303    19441    19782    19795    19664 
   19502    19234    19171    19696    20243    19927    19296    19418 
   19920    19970    19805    19911    20071    19997    19728    19448 
   19462    19699    19557    19191    19450    20163    20356    19881 
   19425    19386    19626    19894    19842    19406    19199    19290 
   19040    18717    19147    20110    20661    20459    19915    19356 
   19053    19224    19440    19487    19688    19805    19566    19437 
   19600    19647    19704    20175    20436    19778    18948    18760 
   18862    19224    20101    20579    20019    19407    19516    19793 
   19739    19502    19187    19064    19668    20691    21012    20282 
   19171    18254    17884    18445    19687    20876    21539    21285 
   20198    19156    18634    18436    18551    18924    19350    19886 
   20472    20680    20308    19683    19149    18949    19319    19966 
   20235    20000    19633    19246    18898    18991    19577    20235 
   20598    20336    19533    18956    18972    19103    19306    19886 
   20247    19878    19506    19581    19396    18925    19155    19863 
   20254    20638    20753    19819    18596    18156    18593    19734 
   20887    21066    20386    19515    18701    18384    18781    19309 
   19743    20278    20649    20563    20071    19314    18517    18103 
   18516    19896    21550    21975    20584    18858    18107    18091 
   18756    19921    20297    19761    19456    19502    19884    20760 
   21138    20592    20011    19549    18819    18133    18064    18688 
   19336    19441    19658    20626    21411    21041    19819    18495 
   18188    19330    20294    19947    19411    19456    19589    19649 
   19747    19953    20345    20312    19504    18931    19052    19020 
   18715    18846    19577    20745    21674    21219    19548    18126 
   17909    18692    19600    19884    19630    19776    20507    20800 
   20507    20109    19163    18018    18084    19141    20065    20659 
   20553    19677    19086    19152    19458    20105    20927    20785 
   19346    18225    18515    19109    19055    19098    19894    20669 
   20736    20395    19552    18388    18319    19515    20464    20547 
   20106    19526    19323    19302    19055    19341    20125    20039 
   19410    19327    19311    19291    19919    20700    20922    20352 
   19075    18256    18613    18941    18962    19881    20960    20876 
   20567    20401    19434    18789    19538    19777    18611    18198 
   19670    20964    20455    19718    19672    19001    18520    19703 
   20632    20086    19741    19646    18979    18870    19624    20220 
   20416    19907    18559    17706    18381    19849    21043    21362 
   20700    19791    19168    18981    19321    19400    19214    19835 
   20177    19167    18810    19849    20403    20252    20347    20348 
   19827    19224    18994    18968    18754    18603    19111    19961 
   20336    20399    20463    20069    19360    19099    19330    19332 
   18839    18769    19521    20075    20125    20271    20387    20173 
   19812    19418    18995    18955    19673    20142    19468    18885 
   19001    19072    19585    20700    21365    21130    19927    18565 
   18343    18563    18531    19327    20460    20449    20027    20239 
   20676    20328    19022    18337    18885    19202    19199    20036 
   21141    20892    19311    18249    18635    19398    19958    20758 
   21118    19975    18293    18004    19075    19866    20105    20514 
   20430    19444    19072    19820    20002    19099    18698    19481 
   20158    19811    19003    18616    18927    19508    20325    21551 
   21678    19974    18823    19141    18978    18364    19036    20390 
   20568    19627    18829    18704    19032    19537    20213    20952 
   21131    20305    19022    18384    18786    19469    19747    19689 
   19479    19533    20067    20190    19654    19367    19110    18675 
   19267    20707    21161    20286    19188    18557    18798    19872 
   20628    20270    19530    19271    19180    18812    18922    20116 
   21141    20740    19780    19226    18752    18759    19732    20394 
   19955    19338    19153    19225    19357    19697    20279    20326 
   19769    19580    19430    18804    18909    20005    20390    19831 
   19811    20128    19718    19279    19352    19313    19260    19341 
   19211    19275    19847    20196    19947    19843    20092    19928 
   19506    19415    19087    18513    18871    19961    20290    19881 
   20046    20610    20162    19020    18636    18916    19103    19302 
   19800    20414    20495    19955    19687    19832    19753    19584 
   19530    19122    18752    19398    20395    20413    19784    19595 
   19873    19913    19668    19677    19705    19318    19084    19315 
   19506    19619    19792    19615    19190    19365    20104    20339 
   19893    19564    19392    19045    18964    19510    20025    19805 
   19554    20020    20046    19093    18805    19604    20236    20443 
   20316    19514    18615    18648    19546    20308    20235    19595 
   19130    19170    19703    20619    21111    20478    19283    18273 
   17980    18662    19410    19646    19894    19935    19664    20104 
   20902    20510    19299    18739    18970    19552    20255    20299 
   19265    18420    18881    19992    20888    21120    20301    19053 
   18504    18800    19350    19530    19349    19573    20221    20464 
   20328    20291    19866    18696    17922    18507    19610    20186 
   20371    20283    19813    19695    20196    20117    19161    18617 
   19083    19831    20115    19996    19789    19464    19349    19897 
   20336    19704    18773    18619    18949    19546    20375    20468 
   19693    19353    19730    19916    19890    20058    19857    19170 
   18947    19197    19450    20035    20345    19600    19072    19522 
   19786    19548    19575    19876    19757    19211    19176    19641 
   19602    19269    19314    19545    19911    20383    20449    19940 
   19313    19214    19666    19880    19588    19353    19311    19219 
   19431    20100    20368    19947    19592    19500    19356    19214 
   19407    19993    20223    19589    19035    19229    19521    19691 
   20038    20196    19934    19622    19391    19202    19192    19325 
   19498    19858    20200    19961    19375    19201    19441    19795 
   20171    20223    19826    19368    18983    18742    18978    19554 
   20000    20174    20094    19890    19761    19685    19735    19943 
   19869    19421    19182    19468    19953    19965    19365    19089 
   19589    20009    20017    20025    19745    19097    18935    19481 
   19842    19564    19452    20000    20304    19757    19097    19118 
   19575    19670    19515    19737    19916    19512    19138    19453 
   20071    20194    19799    19504    19433    19264    19118    19311 
   19684    19912    19931    19867    19889    19805    19330    19020 
   19407    19876    19940    19886    19630    19055    18786    19248 
   20047    20603    20660    20321    19823    19315    18895    18813 
   19207    19627    19715    19849    20119    19944    19381    19260 
