Origin Time       2025/03/28 03:50:00
Lat.              35.403
Long.             140.360
Depth. (km)       54
Mag.              4.4
Station Code      TKY025
Station Lat.      35.7136
Station Long.     139.8972
Station Height(m) 1
Record Time       2025/03/28 03:51:01
Sampling Freq(Hz) 100Hz
Duration Time(s)  60
Dir.              E-W
Scale Factor      7845(gal)/8223790
Max. Acc. (gal)   3.342
Last Correction   2025/03/28 03:51:00
Memo.             
[...]
    -318     -322     -317     -325     -341     -332     -328     -340 
    -334     -333     -337     -324     -322     -340     -345     -333 
    -315     -317     -342     -349     -336     -326     -319     -325 
    -332     -319     -324     -336     -326     -326     -336     -330 
    -329     -334     -326     -317     -322     -341     -344     -325 
    -321     -329     -332     -333     -342     -349     -333     -329 
    -349     -342     -333     -352     -357     -346     -346     -345 
    -333     -328     -328     -321     -310     -313     -328     -329 
    -328     -341     -340     -329     -328     -322     -324     -338 
    -345     -340     -329     -324     -332     -333     -326     -340 
    -355     -344     -330     -325     -314     -317     -333     -338 
    -344     -345     -330     -322     -322     -313     -311     -332 
    -345     -337     -326     -322     -324     -337     -333     -307 
    -314     -344     -352     -346     -337     -322     -318     -334 
    -336     -322     -328     -333     -325     -326     -330     -329 
    -334     -336     -341     -341     -319     -310     -318     -319 
    -324     -332     -332     -332     -330     -334     -328     -319 
    -338     -348     -332     -333     -342     -345     -344     -321 
    -314     -345     -346     -321     -317     -318     -317     -325 
    -342     -349     -324     -307     -328     -345     -340     -333 
    -340     -342     -325     -326     -337     -321     -315     -341 
    -349     -332     -330     -340     -326     -311     -326     -330 
    -310     -318     -340     -334     -325     -319     -319     -338 
    -349     -333     -319     -332     -345     -338     -328     -333 
    -341     -329     -314     -310     -311     -324     -342     -333 
    -314     -324     -334     -322     -309     -321     -351     -349 
    -319     -306     -302     -309     -329     -337     -334     -345 
    -349     -337     -337     -338     -325     -321     -328     -329 
    -325     -318     -333     -355     -351     -337     -329     -326 
    -330     -317     -302     -318     -338     -334     -324     -315 
    -317     -333     -344     -338     -329     -330     -336     -333 
    -328     -328     -336     -346     -341     -328     -326     -334 
    -338     -338     -340     -340     -334     -334     -342     -342 
    -336     -333     -332     -334     -334     -326     -329     -336 
    -324     -322     -337     -332     -326     -326     -321     -321 
    -332     -341     -341     -333     -321     -321     -330     -333 
    -340     -346     -340     -333     -328     -317     -324     -348 
    -359     -345     -325     -319     -321     -325     -332     -324 
    -315     -328     -340     -338     -333     -321     -313     -324 
    -326     -322     -337     -341     -324     -326     -330     -313 
    -317     -337     -345     -349     -349     -344     -337     -324 
    -315     -322     -334     -332     -318     -328     -356     -355 
    -324     -317     -319     -309     -309     -326     -338     -337 
    -329     -326     -336     -348     -344     -330     -325     -330 
    -332     -328     -325     -321     -328     -341     -337     -332 
    -332     -326     -330     -330     -318     -322     -342     -348 
    -332     -322     -330     -330     -328     -328     -325     -330 
    -346     -353     -348     -332     -321     -328     -325     -319 
    -333     -340     -338     -338     -322     -314     -329     -332 
    -326     -333     -337     -336     -322     -301     -310     -332 
    -332     -341     -346     -333     -338     -349     -332     -319 
    -336     -345     -340     -338     -330     -307     -309     -338 
    -344     -330     -334     -334     -326     -326     -332     -329 
    -318     -315     -334     -342     -332     -332     -332     -319 
    -315     -317     -319     -325     -332     -337     -338     -330 
    -332     -341     -340     -340     -342     -330     -325     -333 
    -328     -328     -336     -328     -332     -338     -322     -326 
    -345     -333     -314     -321     -332     -324     -315     -321 
    -332     -334     -325     -319     -328     -329     -319     -321 
    -322     -322     -332     -338     -344     -338     -318     -324 
    -340     -332     -326     -336     -337     -344     -355     -344 
    -309     -294     -330     -375     -351     -280     -265     -319 
    -356     -341     -302     -288     -328     -367     -353     -303 
    -288     -336     -351     -295     -294     -363     -390     -364 
    -318     -270     -260     -294     -364     -419     -365     -297 
    -336     -357     -286     -286     -387     -402     -306     -268 
    -317     -328     -302     -340     -390     -326     -241     -287 
    -382     -403     -376     -351     -324     -284     -280     -322 
    -355     -402     -425     -328     -248     -315     -346     -272 
    -302     -434     -425     -306     -267     -265     -256     -325 
    -440     -461     -357     -248     -279     -372     -364     -329 
    -372     -372     -272     -203     -265     -426     -467     -280 
    -168     -279     -337     -276     -334     -515     -504     -225 
     -98     -276     -369     -340     -473     -592     -421     -157 
     -82     -222     -438     -542     -456     -326     -255     -179 
    -214     -425     -495     -355     -319     -357     -255     -166 
    -279     -436     -426     -291     -221     -257     -301     -379 
    -487     -425     -248     -199     -236     -284     -391     -430 
    -383     -400     -357     -210     -257     -432     -409     -342 
    -417     -386     -183      -71     -120     -257     -484     -625 
    -490     -264     -168     -149     -191     -376     -561     -480 
    -225     -135     -252     -361     -430     -523     -553     -430 
    -329     -456     -610     -500     -276     -137       -6       25 
    -194     -425     -436     -357     -282     -151      -81     -228 
    -430     -492     -484     -423     -287     -264     -363     -382 
    -332     -336     -380     -356     -229     -171     -264     -336 
    -336     -368     -361     -225     -182     -456     -685     -504 
    -326     -410     -375     -220     -247     -309     -238     -182 
    -260     -361     -275     -117     -209     -382     -321     -261 
    -392     -442     -392     -491     -619     -515     -222        8 
     -63     -387     -580     -481     -302     -151     -113     -314 
    -513     -467     -411     -527     -598     -463     -287     -282 
    -363     -317     -206     -238     -310     -229     -159     -248 
    -279     -164     -112     -110      -87     -265     -653     -756 
    -411     -152     -264     -376     -346     -480     -649     -510 
    -328     -364     -325     -228     -379     -525     -373     -260 
    -333     -290     -243     -436     -498     -255     -228     -486 
    -456     -166     -136     -221      -99     -151     -508     -581 
    -325     -280     -373     -267     -194     -353     -433     -318 
    -282     -352     -348     -309     -253     -105      -59     -286 
    -502     -544     -634     -712     -481     -140      -76     -190 
    -279     -403     -526     -479     -337     -314     -396     -453 
    -440     -301      -74       43      -32     -247     -519     -634 
    -460     -237     -184     -194     -193     -284     -414     -414 
    -369     -390     -311     -132      -36      -27     -136     -383 
    -545     -529     -454     -368     -292     -259     -325     -527 
    -639     -499     -411     -515     -522     -427     -427     -407 
    -256      -83      -43     -144     -159      -76     -229     -502 
    -481     -319     -287     -191     -117     -375     -579     -364 
    -174     -255     -390     -526     -575     -438     -311     -299 
    -297     -315     -422     -476     -319     -182     -345     -546 
    -465     -368     -422     -295      -21      -14     -162     -133 
     -95     -214     -272     -190     -221     -387     -364     -159 
    -187     -495     -707     -683     -575     -481     -352     -201 
    -233     -492     -693     -702     -592     -380     -125        5 
     -27      -89      -90     -128     -268     -338     -276     -310 
    -463     -425     -216     -224     -445     -544     -511     -495 
    -403     -175        0      -64     -329     -572     -669     -621 
    -405     -166     -132     -184     -145     -126     -195     -352 
    -581     -623     -444     -456     -664     -680     -600     -641 
    -592     -376     -220     -186     -198     -233     -288     -294 
    -144       72      135       43      -78     -186     -211     -186 
    -228     -207      -99     -270     -637     -669     -411     -257 
    -209     -255     -522     -827     -891     -770     -687     -676 
    -595     -481     -459     -352     -102      -28      -86      -18 
     -13     -108       18      207      105     -148     -313     -378 
    -367     -315     -290     -345     -514     -668     -569     -322 
    -310     -499     -588     -630     -704     -592     -303     -205 
    -352     -383     -268     -297     -368     -288     -255     -409 
    -585     -581     -329      -14      164      245      179     -114 
    -368     -413     -452     -594     -769     -880     -784     -513 
    -264     -133     -103     -162     -298     -399     -351     -214 
     -99      -64     -148     -270     -328     -329     -322     -442 
    -700     -764     -525     -395     -483     -375      -94      -37 
     -55      118      209        5     -268     -444     -491     -363 
    -162     -126     -342     -608     -683     -627     -579     -421 
    -190     -171     -356     -495     -538     -525     -475     -472 
    -461     -346     -280     -310     -203      -29      -48     -106 
     -43      -55     -136     -110     -167     -426     -534     -383 
    -371     -591     -649     -437     -309     -402     -469     -444 
    -475     -542     -562     -541     -369      -74       47      -33 
    -128     -338     -689     -822     -604     -324     -147     -110 
    -294     -526     -508     -324     -180      -52       67      128 
     166      121     -125     -475     -727     -832     -804     -587 
    -276     -162     -297     -413     -403     -390     -387     -352 
    -342     -398     -398     -264      -81       66      126      -36 
    -411     -704     -773     -715     -545     -318     -224     -214 
    -176     -257     -483     -614     -604     -565     -436     -129 
     183      257      108      -78     -214     -264     -283     -419 
    -611     -643     -554     -515     -467     -309     -179     -232 
    -346     -373     -368     -344     -251     -217     -329     -414 
    -405     -426     -467     -430     -390     -417     -395     -256 
    -195     -349     -552     -672     -770     -823     -769     -611 
    -328       51      384      546      510      297       14     -193 
    -301     -364     -422     -521     -689     -812     -814     -807 
    -805     -638     -307      -43       25       14       59      105 
      43      -59      -90     -153     -336     -481     -494     -438 
    -391     -491     -750     -945     -976     -878     -675     -542 
    -603     -672     -610     -496     -364     -132      156      329 
     344      283      172       64      105      240      206        1 
    -226     -504     -750     -796     -799     -915     -989     -886 
    -638     -364     -102      193      330      122     -207     -440 
    -619     -660     -449     -229     -236     -371     -525     -673 
    -673     -510     -454     -558     -548     -348     -143      -94 
    -260     -492     -604     -627     -557     -233      255      537 
     490      282        1     -328     -589     -706     -706     -645 
    -523     -361     -238     -125       -2      -68     -367     -618 
    -692     -623     -413     -256     -319     -398     -340     -295 
    -306     -228     -120     -232     -495     -576     -469     -357 
    -199      -54     -108     -217     -217     -252     -398     -577 
    -741     -799     -727     -641     -535     -360     -322     -531 
    -731     -749     -643     -453     -237     -102      -74     -103 
    -126     -144     -251     -410     -425     -349     -403     -488 
    -495     -575     -654     -521     -315     -271     -234      -36 
      71     -106     -351     -463     -484     -476     -391     -209 
     -93     -144     -139       68      324      546      662      472 
      74     -263     -511     -608     -529     -508     -583     -653 
    -814     -966     -927     -758     -530     -301     -148      -40 
      93      270      457      481      220     -186     -642    -1139 
   -1421    -1318     -980     -567     -299     -387     -735    -1150 
   -1417    -1278     -733     -114      321      557      619      629 
     687      587      180     -297     -633     -808     -706     -248 
     345      808     1009      838      297     -373     -864    -1042 
    -922     -568     -238     -206     -382     -606     -943    -1310 
   -1412    -1189     -834     -446      -99      -41     -391     -927 
   -1440    -1804    -1800    -1332     -598      282     1377     2517 
    3173     2975     2160     1264      533      -66     -557    -1069 
   -1725    -2413    -2952    -3235    -3244    -3011    -2565    -1927 
   -1104     -176      619     1166     1497     1530     1328     1287 
    1556     1779     1676     1188      387     -386     -823     -870 
    -602     -252      -76     -147     -460    -1063    -1957    -2859 
   -3284    -3098    -2484    -1503     -294      734     1308     1472 
    1313      864      321        4      -43      -43      -79      -81 
    -103     -338     -820    -1323    -1597    -1537    -1192     -715 
    -238      198      434      172     -553    -1270    -1633    -1599 
   -1109     -251      595     1144     1337     1120      513     -232 
    -804    -1108    -1144     -831     -218      405      839     1067 
    1023      692      314      120       22      -94     -129      -82 
    -147     -356     -584     -742     -797     -884    -1212    -1678 
   -1976    -2052    -1976    -1741    -1333     -743      -64      414 
     575      604      568      382      147      -39     -272     -511 
    -646     -823    -1159    -1489    -1721    -1904    -1848    -1356 
    -662      -32      538      919      938      773      657      540 
     378      367      612      973     1293     1363      946      241 
    -278     -481     -481     -318      -93      -70     -425    -1047 
   -1752    -2389    -2689    -2502    -2081    -1625    -1055     -434 
      40      391      661      706      530      400      434      481 
     481      441      255      -60     -333     -453     -384     -233 
    -261     -538     -897    -1204    -1368    -1368    -1320    -1316 
   -1331    -1301    -1120     -756     -387     -178      -82       24 
     180      368      584      823      949      843      587      319 
     108      -90     -367     -704    -1023    -1243    -1255    -1084 
    -939     -900     -868     -851     -889     -873     -774     -680 
    -588     -518     -557     -654     -696     -611     -265      315 
     897     1404     1819     1956     1750     1285      596     -121 
    -616     -872     -928     -781     -573     -541     -818    -1320 
   -1767    -1930    -1771    -1351     -807     -365     -167     -156 
    -234     -307     -257      -81      148      434      724      815 
     580      103     -457     -957    -1260    -1271    -1024     -679 
    -360     -179     -299     -762    -1385    -1880    -1985    -1610 
    -913     -108      623     1055     1112      908      552      233 
     179      337      534      776      978      928      611      153 
    -375     -862    -1112    -1132    -1171    -1358    -1611    -1891 
   -2115    -2041    -1588     -966     -288      359      718      801 
     920     1016      828      449       75     -275     -521     -535 
    -373     -168      -24      -37     -243     -591     -886     -954 
    -954    -1027    -1069    -1094    -1147    -1100     -973     -874 
    -675     -334      -51      195      542      820      874      869 
     908      903      835      724      556      375      230      105 
      -4     -135     -382     -793    -1350    -1925    -2332    -2543 
   -2633    -2616    -2474    -2124    -1453     -585      184      724 
    1070     1273     1377     1385     1336     1285     1186      938 
     540      144     -108     -256     -396     -560     -808    -1148 
   -1443    -1640    -1788    -1849    -1760    -1576    -1335     -959 
    -527     -303     -261      -71      346      846     1308     1516 
    1290      805      373      109      -20       28      275      461 
     348       43     -282     -600     -913    -1237    -1516    -1637 
   -1640    -1599    -1455    -1267    -1185    -1098     -878     -621 
    -386     -176      -75      -68      -82     -130     -178     -171 
    -136      -10      245      492      645      708      565      106 
    -565    -1205    -1610    -1736    -1621    -1312     -936     -623 
    -334      -25      182      209      116      -12      -74       60 
     341      494      400      198      -43     -318     -444     -284 
       5      211      280      199      -45     -344     -589     -845 
   -1127    -1304    -1340    -1329    -1290    -1154     -934     -742 
    -626     -484     -272     -136     -129     -122     -109     -126 
     -62       18      -97     -341     -521     -629     -700     -751 
    -882    -1109    -1281    -1278    -1071     -661      -87      513 
     961     1233     1399     1456     1432     1352     1093      633 
     155     -252     -610     -901    -1100    -1235    -1332    -1331 
   -1140     -857     -692     -619     -527     -521     -603     -610 
    -600     -687     -723     -606     -448     -311     -184      -94 
     -71     -144     -333     -533     -599     -565     -548     -518 
    -380     -170      -17       -5      -66      -35      147      365 
     426      257      -24     -295     -548     -811    -1057    -1152 
   -1004     -735     -476     -186       97      190       52     -160 
    -336     -405     -292     -133     -130     -248     -375     -502 
    -523     -332      -33      252      504      565      280     -222 
    -729    -1101    -1163     -831     -351      -58      -13     -118 
    -333     -607     -804     -895    -1016    -1161    -1069     -668 
    -195      184      483      665      649      476      233     -112 
    -576    -1016    -1325    -1537    -1601    -1395    -1024     -703 
    -461     -238      -55       48       44     -113     -329     -371 
    -166      153      456      649      660      472      126     -249 
    -538     -719     -785     -735     -606     -430     -244      -87 
       4      -16     -145     -305     -396     -352     -201     -112 
    -175     -263     -278     -299     -375     -449     -515     -592 
