Origin Time       2025/03/28 03:50:00
Lat.              35.403
Long.             140.360
Depth. (km)       54
Mag.              4.4
Station Code      TKY004
Station Lat.      35.6301
Station Long.     139.4034
Station Height(m) 81
Record Time       2025/03/28 03:50:55
Sampling Freq(Hz) 100Hz
Duration Time(s)  69
Dir.              E-W
Scale Factor      7845(gal)/8223790
Max. Acc. (gal)   5.518
Last Correction   2025/03/28 03:50:55
Memo.             
[...]
    1345     1341     1343     1347     1348     1352     1352     1347 
    1345     1340     1340     1352     1359     1348     1336     1333 
    1336     1341     1351     1352     1344     1339     1339     1345 
    1350     1348     1347     1343     1337     1339     1351     1360 
    1352     1336     1329     1335     1350     1359     1352     1337 
    1335     1339     1343     1348     1347     1341     1345     1355 
    1356     1350     1343     1343     1341     1336     1339     1347 
    1350     1345     1344     1348     1344     1344     1350     1355 
    1351     1343     1343     1350     1345     1343     1345     1345 
    1344     1344     1341     1343     1348     1344     1335     1339 
    1345     1344     1351     1363     1363     1348     1344     1354 
    1356     1351     1345     1344     1343     1336     1336     1343 
    1343     1340     1341     1345     1347     1343     1340     1341 
    1348     1356     1355     1350     1350     1352     1352     1352 
    1351     1344     1341     1343     1341     1337     1336     1339 
    1341     1344     1347     1351     1356     1359     1359     1359 
    1354     1347     1352     1356     1348     1343     1340     1337 
    1336     1337     1339     1339     1343     1348     1347     1339 
    1337     1343     1347     1350     1354     1354     1348     1348 
    1348     1344     1350     1355     1352     1341     1333     1336 
    1344     1354     1364     1366     1358     1344     1331     1327 
    1335     1345     1350     1345     1341     1348     1354     1347 
    1333     1327     1331     1343     1355     1356     1350     1340 
    1337     1347     1358     1356     1347     1337     1335     1339 
    1343     1347     1348     1333     1327     1341     1356     1352 
    1344     1344     1350     1354     1355     1352     1343     1339 
    1340     1339     1337     1340     1344     1347     1344     1344 
    1344     1336     1337     1344     1343     1345     1354     1348 
    1335     1333     1345     1351     1344     1339     1345     1354 
    1354     1344     1336     1337     1343     1348     1350     1336 
    1324     1331     1347     1352     1347     1343     1348     1355 
    1356     1355     1358     1356     1343     1327     1324     1325 
    1323     1323     1325     1329     1332     1335     1335     1333 
    1329     1327     1347     1377     1389     1385     1377     1370 
    1364     1364     1371     1385     1398     1399     1377     1321 
    1216     1077     1005     1135     1487     1868     1949     1553 
     924      583      868     1638     2342     2419     1718      634 
     -78      139     1148     2222     2589     2019      993      318 
     473     1279     2092     2315     1902     1318      982      936 
    1011     1119     1323     1521     1486     1293     1235     1398 
    1595     1657     1575     1277      832      757     1344     2116 
    2311     1628      529      -87      287     1348     2404     2872 
    2369     1089       -5      -48      830     1848     2427     2378 
    1733      901      514      716     1148     1467     1579     1593 
    1591     1479     1240     1119     1258     1441     1401     1205 
    1224     1610     1984     1861     1135      211     -199      286 
    1341     2249     2512     2143     1499     1017      990     1409 
    2003     2452     2459     1844      884      237      244      688 
    1113     1231     1182     1188     1212     1294     1579     1942 
    2064     1856     1575     1417     1363     1439     1559     1389 
     873      396      292      662     1350     1934     2168     2066 
    1611      978      623      777     1298     1879     2155     1985 
    1490      889      588      886     1482     1811     1706     1474 
    1409     1436     1414     1351     1242     1084      939      934 
    1217     1698     1937     1663     1112      689      642      982 
    1518     1980     2053     1690     1317     1196     1150     1179 
    1513     1984     2060     1503      680      202      429     1143 
    1696     1651     1240     1016     1161     1498     1872     2088 
    2026     1792     1399      846      479      618     1074     1416 
    1436     1255     1124     1210     1499     1833     2039     2029 
    1777     1343      978      924     1078     1197     1231     1209 
    1129     1030     1036     1306     1763     2041     1915     1556 
    1328     1395     1524     1440     1251     1179     1221     1256 
    1182     1047     1019     1100     1092      980     1047     1420 
    1806     1850     1622     1487     1540     1570     1432     1216 
    1135     1216     1224     1061      949     1107     1478     1815 
    1953     1898     1722     1489     1256     1057      882      795 
     899     1173     1420     1455     1314     1185     1213     1458 
    1804     1918     1602     1093      760      776     1128     1567 
    1717     1567     1435     1410     1385     1375     1416     1424 
    1351     1263     1267     1378     1449     1375     1233     1142 
    1163     1340     1594     1705     1539     1247     1090     1030 
     919      922     1167     1444     1595     1669     1699     1682 
    1624     1557     1517     1456     1306     1067      839      793 
     915     1026     1209     1593     1902     1912     1779     1632 
    1478     1348     1264     1237     1242     1205     1152     1148 
    1150     1120     1190     1439     1653     1560     1231     1031 
    1090     1182     1248     1453     1710     1728     1521     1418 
    1522     1571     1416     1190     1000      835      780     1004 
    1493     1973     2151     1979     1641     1324     1082      953 
     946     1007     1155     1374     1399     1156     1012     1202 
    1528     1717     1741     1759     1798     1640     1208      834 
     849     1140     1409     1528     1474     1273     1073     1016 
    1104     1235     1354     1489     1568     1458     1248     1201 
    1395     1660     1771     1680     1514     1375     1281     1227 
    1204     1215     1242     1220     1204     1262     1318     1293 
    1220     1150     1134     1210     1379     1580     1686     1620 
    1435     1179      978     1040     1343     1620     1725     1690 
    1536     1333     1252     1344     1436     1421     1340     1204 
    1073     1128     1366     1517     1414     1206     1119     1193 
    1274     1263     1306     1512     1717     1725     1557     1421 
    1426     1420     1250     1007      878      934     1086     1248 
    1398     1502     1543     1540     1533     1544     1557     1516 
    1394     1242     1166     1208     1248     1175     1067     1066 
    1192     1368     1494     1533     1522     1433     1263     1165 
    1266     1466     1629     1759     1817     1705     1429     1094 
     865      855      972     1063     1124     1223     1340     1399 
    1424     1478     1559     1653     1740     1744     1618     1405 
    1202     1124     1198     1302     1310     1213     1088     1059 
    1192     1366     1435     1367     1223     1115     1119     1246 
    1493     1792     1957     1836     1470     1081      888      969 
    1223     1464     1568     1453     1171      990     1098     1377 
    1579     1615     1576     1525     1428     1298     1221     1242 
    1298     1313     1275     1239     1293     1449     1567     1512 
    1348     1263     1336     1448     1456     1385     1317     1266 
    1196     1098     1062     1140     1270     1394     1495     1518 
    1393     1217     1269     1603     1858     1767     1489     1296 
    1267     1335     1375     1313     1213     1215     1329     1402 
    1304     1092      954     1024     1202     1314     1354     1405 
    1426     1336     1250     1351     1567     1690     1653     1553 
    1468     1371     1277     1274     1371     1540     1741     1822 
    1633     1232      861      731      820      973     1132     1266 
    1314     1300     1278     1289     1422     1656     1765     1634 
    1395     1208     1154     1263     1447     1553     1468     1236 
    1104     1256     1561     1734     1655     1429     1216     1057 
     970     1058     1335     1617     1699     1543     1304     1155 
    1109     1127     1247     1431     1522     1483     1375     1197 
     985      904     1048     1255     1259     1081     1007     1169 
    1421     1583     1669     1792     1904     1890     1787     1694 
    1575     1327     1015      853      877      945     1001     1084 
    1209     1352     1452     1491     1530     1566     1514     1432 
    1464     1555     1553     1468     1381     1301     1239     1243 
    1318     1414     1479     1447     1336     1286     1304     1254 
    1192     1258     1358     1325     1229     1281     1463     1547 
    1485     1385     1269     1209     1332     1570     1683     1548 
    1310     1198     1186     1111     1030     1094     1275     1432 
    1458     1339     1224     1316     1587     1768     1668     1368 
    1098     1013     1075     1154     1254     1435     1580     1533 
    1372     1320     1443     1630     1706     1587     1312      997 
     838      924     1152     1328     1325     1243     1252     1341 
    1417     1513     1625     1605     1397     1155     1042     1109 
    1300     1459     1455     1329     1252     1329     1539     1764 
    1879     1813     1599     1354     1178     1120     1175     1270 
    1231      967      687      703     1062     1520     1818     1885 
    1794     1614     1417     1289     1262     1262     1190     1044 
     939     1007     1285     1636     1863     1864     1657     1371 
    1198     1223     1309     1314     1252     1186     1161     1189 
    1266     1416     1626     1792     1831     1734     1555     1390 
    1258     1082      868      770      872     1023     1067     1084 
    1205     1370     1437     1445     1507     1578     1543     1422 
    1328     1306     1352     1424     1436     1401     1431     1514 
    1543     1455     1270     1115     1115     1197     1221     1248 
    1379     1478     1440     1424     1544     1690     1748     1719 
    1609     1374     1035      756      727      923     1124     1248 
    1372     1479     1476     1385     1290     1229     1225     1298 
    1393     1404     1302     1216     1289     1440     1516     1578 
    1696     1732     1588     1364     1158     1031     1059     1212 
    1348     1431     1499     1537     1505     1436     1405     1410 
    1354     1219     1147     1240     1389     1418     1343     1291 
    1286     1275     1278     1317     1364     1401     1437     1462 
    1449     1377     1262     1179     1167     1224     1371     1534 
    1533     1348     1239     1444     1795     1891     1624     1228 
     916      781      838     1015     1217     1370     1395     1294 
    1166     1132     1239     1431     1595     1678     1694     1644 
    1524     1390     1339     1409     1514     1526     1429     1282 
    1124     1005      970      989      992     1008     1113     1287 
    1408     1439     1502     1679     1867     1952     1907     1711 
    1435     1267     1286     1314     1166      904      753      872 
    1193     1489     1621     1624     1543     1420     1321     1283 
    1301     1332     1305     1194     1071     1051     1193     1414 
    1551     1561     1571     1626     1572     1340     1134     1100 
    1121     1127     1196     1302     1354     1371     1414     1482 
    1544     1587     1568     1448     1285     1174     1175     1310 
    1501     1574     1467     1367     1431     1561     1630     1586 
    1382     1089      918      962     1074     1123     1142     1174 
    1215     1231     1204     1202     1310     1499     1626     1584 
    1479     1444     1412     1298     1198     1236     1386     1498 
    1499     1489     1534     1544     1476     1421     1429     1472 
    1509     1506     1470     1428     1337     1173     1043     1050 
    1142     1248     1375     1532     1638     1597     1422     1227 
    1120     1151     1258     1341     1351     1259     1146     1128 
    1173     1161     1089     1026     1013     1024     1021     1026 
    1066     1142     1293     1533     1798     2030     2203     2258 
    2169     1979     1741     1464     1142      803      484      251 
     190      295      456      626      884     1316     1907     2567 
    3153     3534     3635     3430     2953     2363     1871     1506 
    1063      371     -460    -1151    -1428    -1178     -526      270 
     976     1475     1767     1950     2169     2506     2968     3454 
    3751     3684     3235     2485     1463      226    -1057    -2188 
   -2964    -3103    -2373     -816     1155     2925     4050     4463 
    4318     3785     3026     2204     1422      702       70     -352 
    -421      -89      584     1431     2166     2529     2467     2150 
    1802     1603     1649     1907     2230     2407     2258     1815 
    1296      831      429      170      132      232      332      457 
     746     1210     1702     2083     2369     2698     3118     3495 
    3655     3416     2620     1286     -326    -1759    -2651    -2963 
   -2682    -1705      -89     1930     4085     6002     7130     7024 
    5678     3512     1109    -1048    -2710    -3728    -3948    -3306 
   -1907      -74     1706     3061     3874     4143     3982     3599 
    3194     2956     2918     2817     2359     1529      577     -174 
    -546     -585     -486     -360      -68      571     1480     2336 
    2862     2986     2805     2443     1966     1412      834      286 
    -139     -272       59      853     1817     2606     3088     3214 
    2905     2192     1271      396     -207     -363      -56      434 
     747      672      252     -122       33      859     2115     3424 
    4383     4743     4637     4368     3959     3167     1879      238 
   -1490    -2959    -3763    -3609    -2512     -823      977     2567 
    3859     4781     5148     4831     3933     2710     1429      302 
    -457     -731     -614     -294       83      398      653      955 
    1335     1753     2200     2648     3014     3191     3088     2683 
    2061     1375      772      414      407      665      947     1092 
    1146     1181     1104      828      475      265      361      787 
    1432     2141     2747     3063     2967     2529     1911     1229 
     608      189       52      195      550     1032     1547     1973 
    2254     2420     2462     2269     1813     1298      965      769 
     480       36     -311     -287      110      676     1251     1826 
    2427     2944     3142     2856     2150     1320      685      438 
     603     1048     1564     1938     2062     2031     1950     1752 
    1417     1129     1027     1009      939      831      812      924 
    1020      982      909      911      924      850      742      801 
    1170     1767     2309     2523     2388     2150     2011     1930 
    1807     1648     1460     1146      614        0     -391     -429 
    -213      195      816     1610     2423     3033     3307     3294 
    3064     2590     1850      961      176     -234     -172      253 
     841     1371     1659     1679     1568     1467     1476     1613 
    1756     1818     1850     1887     1871     1825     1831     1814 
    1605     1193      753      500      537      769     1007     1124 
    1112     1040      997     1067     1275     1566     1850     2023 
    2023     1908     1721     1387      888      409      187      271 
     491      696      936     1343     1880     2317     2457     2376 
    2272     2149     1872     1416      909      477      174       37 
      91      306      669     1236     2018     2820     3341     3478 
    3341     2986     2427     1779     1147      504     -108     -526 
    -626     -399       93      719     1305     1706     1884     1912 
    1877     1788     1690     1676     1741     1786     1745     1642 
    1543     1471     1414     1325     1127      855      646      518 
     417      373      461      716     1150     1690     2184     2515 
    2640     2587     2405     2107     1702     1231      768      384 
     108      -27       52      394      946     1526     1939     2133 
    2160     2049     1875     1764     1683     1494     1220      993 
     882      920     1128     1422     1645     1732     1750     1763 
    1721     1559     1283     1009      885      996     1320     1780 
    2222     2439     2332     1954     1416      807      225     -167 
    -248     -124        2      103      282      585      988     1452 
    1922     2342     2671     2863     2890     2758     2511     2176 
    1742     1255      814      471      278      326      652     1177 
    1734     2168     2385     2350     2108     1787     1495     1285 
    1138      982      805      673      595      521      498      602 
     795     1020     1305     1661     2010     2255     2361     2357 
    2218     1914     1571     1340     1188     1005      791      629 
     580      591      568      552      704     1078     1545     1923 
    2110     2119     2004     1809     1597     1456     1404     1371 
    1300     1237     1271     1449     1737     2019     2153     2065 
    1764     1344      959      735      675      711      810      930 
     969      880      714      545      449      471      614      880 
    1266     1715     2212     2760     3238     3447     3254     2682 
    1914     1156      525       68     -187     -256     -179       17 
     302      592      834     1109     1509     1937     2228     2358 
    2344     2207     2042     1912     1784     1624     1418     1209 
    1073     1036     1066     1127     1236     1421     1648     1871 
    2035     2064     1930     1694     1412     1129      919      839 
     872      915      880      878     1044     1232     1213     1017 
     820      723      766      962     1202     1363     1466     1540 
    1525     1431     1382     1436     1564     1738     1883     1865 
    1653     1371     1201     1247     1416     1512     1474     1408 
    1377     1354     1371     1486     1613     1630     1495     1258 
    1054     1000     1062     1151     1312     1599     1869     1946 
    1844     1656     1418     1150      904      729      648      679 
     797      955     1159     1467     1879     2305     2605     2658 
    2423     1980     1468     1001      585      175     -194     -411 
    -375      -60      468     1048     1512     1809     2007     2154 
    2262     2350     2362     2203     1880     1494     1135      855 
     707      780     1115     1588     1976     2142     2108     1964 
    1777     1586     1439     1378     1370     1331     1221     1092 
    1019     1008     1013     1008      986      966      999     1093 
    1177     1213     1225     1194     1088      962      893      869 
     857      881      981     1154     1340     1462     1521     1563 
