Origin Time       2025/03/28 03:50:00
Lat.              35.403
Long.             140.360
Depth. (km)       54
Mag.              4.4
Station Code      TKY018
Station Lat.      35.6553
Station Long.     139.8114
Station Height(m) 6
Record Time       2025/03/28 03:51:01
Sampling Freq(Hz) 100Hz
Duration Time(s)  60
Dir.              N-S
Scale Factor      7845(gal)/8223790
Max. Acc. (gal)   2.952
Last Correction   2025/03/28 03:51:00
Memo.             
[...]
    8198     8266     8407     8482     8241     8152     8361     8374 
    8325     8418     8401     8266     8145     8181     8451     8559 
    8391     8353     8361     8276     8309     8407     8455     8379 
    8226     8274     8442     8386     8232     8294     8383     8316 
    8320     8372     8329     8302     8283     8345     8442     8290 
    8210     8355     8340     8307     8311     8275     8370     8394 
    8340     8330     8239     8259     8367     8402     8421     8322 
    8282     8367     8302     8279     8341     8343     8386     8321 
    8195     8272     8401     8397     8321     8318     8361     8303 
    8226     8248     8347     8415     8367     8345     8351     8284 
    8286     8321     8359     8424     8356     8283     8328     8355 
    8386     8390     8316     8244     8199     8287     8456     8402 
    8252     8310     8387     8348     8314     8260     8302     8441 
    8402     8337     8357     8280     8278     8367     8379     8368 
    8318     8326     8397     8314     8233     8356     8473     8444 
    8330     8222     8316     8430     8299     8294     8436     8337 
    8255     8326     8333     8368     8353     8263     8359     8406 
    8313     8307     8293     8383     8499     8355     8316     8395 
    8316     8337     8374     8260     8332     8468     8343     8252 
    8378     8382     8295     8348     8341     8284     8305     8282 
    8355     8449     8356     8297     8302     8274     8272     8305 
    8349     8359     8356     8351     8343     8341     8306     8330 
    8345     8287     8321     8341     8330     8355     8284     8290 
    8371     8320     8290     8326     8326     8290     8274     8313 
    8324     8344     8344     8301     8348     8353     8326     8349 
    8306     8333     8372     8318     8348     8332     8302     8397 
    8395     8359     8351     8289     8309     8370     8387     8368 
    8326     8338     8352     8361     8360     8318     8326     8329 
    8276     8252     8280     8341     8336     8316     8360     8347 
    8309     8329     8349     8356     8353     8365     8371     8325 
    8305     8349     8394     8380     8344     8348     8337     8302 
    8332     8352     8320     8328     8351     8326     8275     8286 
    8341     8360     8376     8357     8299     8284     8278     8293 
    8338     8353     8380     8382     8329     8330     8326     8303 
    8334     8345     8324     8317     8334     8367     8380     8356 
    8313     8325     8355     8341     8356     8344     8309     8338 
    8320     8283     8303     8299     8313     8355     8333     8305 
    8337     8347     8303     8310     8330     8321     8313     8318 
    8372     8365     8328     8378     8347     8274     8320     8345 
    8317     8324     8355     8348     8311     8316     8345     8357 
    8333     8332     8391     8363     8298     8326     8343     8336 
    8343     8343     8345     8318     8334     8370     8329     8320 
    8345     8340     8337     8344     8370     8380     8347     8337 
    8368     8374     8344     8328     8328     8357     8390     8352 
    8344     8388     8364     8344     8351     8314     8310     8343 
    8340     8330     8340     8334     8329     8357     8344     8301 
    8305     8303     8320     8343     8317     8328     8357     8368 
    8379     8329     8295     8324     8334     8355     8370     8320 
    8276     8293     8329     8338     8338     8340     8334     8340 
    8356     8360     8341     8321     8321     8328     8307     8278 
    8329     8345     8284     8330     8359     8305     8332     8344 
    8305     8306     8324     8374     8372     8289     8295     8364 
    8378     8353     8318     8313     8322     8332     8351     8326 
    8311     8334     8328     8326     8330     8322     8344     8363 
    8363     8332     8298     8324     8355     8360     8328     8311 
    8361     8338     8299     8347     8356     8345     8341     8322 
    8325     8302     8317     8367     8352     8343     8348     8347 
    8338     8297     8305     8343     8359     8394     8348     8287 
    8295     8233     8224     8303     8284     8325     8394     8316 
    8351     8467     8424     8406     8419     8360     8338     8353 
    8429     8506     8436     8324     8230     8164     8190     8244 
    8314     8386     8368     8348     8353     8253     8168     8213 
    8251     8287     8370     8453     8507     8445     8318     8301 
    8340     8305     8267     8295     8328     8375     8387     8306 
    8266     8268     8252     8317     8395     8392     8421     8484 
    8502     8436     8267     8121     8140     8275     8419     8452 
    8356     8295     8318     8316     8251     8214     8290     8422 
    8499     8465     8351     8259     8221     8222     8294     8367 
    8347     8299     8295     8322     8382     8428     8437     8424 
    8348     8282     8341     8428     8446     8422     8329     8217 
    8189     8267     8386     8397     8307     8293     8343     8360 
    8349     8320     8301     8266     8210     8235     8305     8356 
    8386     8368     8367     8375     8359     8410     8472     8455 
    8440     8429     8359     8257     8198     8183     8156     8163 
    8295     8426     8429     8415     8399     8337     8299     8252 
    8237     8399     8564     8556     8469     8320     8172     8166 
    8224     8279     8334     8347     8322     8276     8182     8148 
    8264     8367     8399     8440     8428     8394     8414     8437 
    8440     8376     8278     8276     8291     8259     8293     8347 
    8367     8379     8337     8266     8232     8282     8414     8530 
    8583     8554     8418     8287     8282     8318     8310     8297 
    8313     8343     8313     8247     8194     8110     8110     8286 
    8402     8372     8333     8303     8309     8349     8363     8372 
    8368     8344     8351     8334     8228     8122     8163     8322 
    8445     8486     8498     8444     8302     8213     8266     8343 
    8397     8517     8662     8668     8488     8245     8082     8101 
    8237     8343     8434     8465     8355     8247     8198     8129 
    8133     8282     8384     8403     8425     8306     8113     8037 
    8021     8135     8295     8364     8542     8729     8644     8444 
    8367     8357     8353     8456     8557     8517     8503     8518 
    8451     8398     8336     8264     8245     8181     8182     8317 
    8344     8289     8271     8221     8218     8278     8301     8336 
    8356     8330     8284     8214     8233     8282     8302     8464 
    8542     8329     8132     8105     8229     8465     8650     8596 
    8341     8255     8361     8322     8260     8325     8311     8149 
    8009     8054     8247     8445     8526     8530     8613     8630 
    8484     8360     8199     8036     8094     8245     8317     8283 
    8228     8260     8274     8307     8453     8523     8561     8641 
    8586     8467     8352     8206     8208     8294     8351     8432 
    8357     8141     8001     7952     8047     8270     8511     8788 
    8935     8768     8537     8355     8089     8017     8167     8191 
    8284     8503     8488     8321     8137     7944     7908     8054 
    8203     8229     8322     8580     8669     8532     8434     8455 
    8409     8241     8264     8538     8675     8565     8403     8266 
    8189     8176     8168     8154     8128     8187     8397     8549 
    8517     8410     8357     8436     8459     8286     8255     8463 
    8565     8495     8334     8191     8302     8434     8252     8114 
    8271     8415     8425     8446     8392     8186     8024     7912 
    7808     7959     8343     8505     8318     8262     8514     8687 
    8652     8602     8523     8455     8564     8634     8398     8131 
    8105     8208     8229     8071     7909     7970     8137     8255 
    8428     8572     8603     8712     8700     8399     8330     8675 
    8856     8529     8116     8122     8295     8201     8048     8048 
    8160     8349     8383     8233     8190     8272     8297     8260 
    8325     8413     8321     8198     8210     8179     8043     8089 
    8413     8625     8534     8491     8575     8495     8325     8241 
    8244     8352     8491     8554     8492     8301     8122     8155 
    8411     8638     8621     8405     8060     7842     8055     8425 
    8613     8694     8645     8480     8355     8259     8178     8117 
    8091     8205     8436     8588     8482     8194     7998     7966 
    8008     8070     8205     8378     8387     8289     8194     8040 
    7950     8035     8270     8575     8694     8604     8575     8548 
    8361     8233     8317     8428     8499     8625     8688     8611 
    8483     8345     8310     8479     8660     8675     8482     8151 
    7978     8064     8159     8164     8151     8132     8189     8387 
    8676     8908     8870     8644     8415     8127     7900     7940 
    8167     8425     8595     8629     8603     8592     8542     8438 
    8351     8158     7923     7890     7989     8131     8206     8156 
    8199     8307     8382     8476     8505     8500     8603     8714 
    8660     8495     8325     8095     7890     7776     7754     7929 
    8095     8074     8055     8032     8091     8430     8787     8951 
    8924     8654     8372     8268     8236     8251     8264     8284 
    8428     8573     8598     8545     8395     8232     8187     8194 
    8167     8108     8044     8054     8136     8228     8336     8379 
    8317     8302     8355     8452     8630     8791     8810     8695 
    8537     8473     8534     8588     8557     8473     8286     8010 
    7809     7716     7794     8071     8252     8280     8372     8492 
    8536     8583     8658     8630     8496     8391     8330     8307 
    8307     8278     8276     8364     8521     8638     8549     8302 
    8133     8133     8252     8395     8460     8387     8147     7851 
    7723     7825     8113     8502     8783     8818     8640     8380 
    8222     8229     8295     8333     8372     8360     8214     8064 
    7971     7917     8043     8278     8546     8839     8915     8789 
    8583     8220     7893     7831     7982     8210     8428     8642 
    8776     8788     8754     8510     8129     7974     7985     8108 
    8326     8368     8286     8217     8144     8185     8244     8149 
    8060     8102     8206     8390     8665     8846     8822     8645 
    8322     7970     7781     7825     8064     8365     8641     8849 
    8891     8796     8656     8506     8433     8455     8579     8743 
    8668     8375     8139     7978     7932     8085     8293     8378 
    8341     8243     8090     7906     7767     7767     7942     8205 
    8384     8438     8479     8448     8356     8444     8591     8602 
    8591     8554     8581     8758     8752     8537     8409     8224 
    8056     8230     8383     8233     8083     7970     7915     8067 
    8241     8326     8363     8303     8299     8432     8484     8491 
    8569     8513     8380     8386     8359     8271     8232     8159 
    8131     8193     8203     8168     8187     8286     8329     8256 
    8212     8266     8399     8500     8452     8387     8460     8567 
    8567     8503     8401     8232     8086     7989     7915     7948 
    8086     8244     8407     8591     8818     9007     9023     8904 
    8704     8372     7973     7678     7604     7690     7773     7942 
    8263     8507     8622     8704     8839     8989     8986     8893 
    8789     8665     8545     8417     8440     8545     8392     8172 
    8131     8036     7869     7840     7966     8143     8225     8171 
    8062     7892     7713     7790     8245     8749     8954     9016 
    9065     8928     8734     8642     8478     8268     8106     7927 
    7830     7859     7894     7889     7893     8006     8280     8563 
    8645     8546     8487     8537     8514     8480     8545     8473 
    8286     8259     8357     8332     8129     8005     8027     8086 
    8208     8348     8442     8415     8199     7987     7881     7771 
    7724     7793     7920     7998     7935     7966     8218     8463 
    8621     8738     8876     8982     8900     8762     8779     8804 
    8691     8584     8534     8433     8280     8093     7946     7927 
    8043     8463     9158     9740    10077    10126     9774     9313 
    9103     9235     9647    10034    10100     9757     8888     7564 
    6382     5752     5489     5535     5838     6060     6091     6137 
    6358     6683     6879     6835     6775     7025     7588     8345 
    9240    10018    10368    10153     9470     8644     7951     7784 
    8461     9578    10527    10945    10733    10231     9691     9239 
    9011     8792     8484     8311     8306     8336     8347     8260 
    7920     7345     6748     6431     6683     7396     8243     9100 
    9747     9963     9760     9159     8360     7793     7736     8044 
    8345     8441     8301     8025     7840     8000     8603     9207 
    9281     8873     8222     7582     7248     7210     7426     7827 
    8093     8282     8668     9039     9240     9418     9386     9003 
    8565     8183     7750     7292     6924     6949     7589     8453 
    9043     9175     8640     7523     6351     5474     5239     5815 
    6841     8120     9467    10501    11032    10903    10282     9518 
    8812     8525     8741     9127     9289     8916     8144     7311 
    6690     6681     7348     8279     9088     9408     9078     8424 
    7771     7327     7372     7844     8491     9115     9373     9309 
    9231     9131     9059     9045     8931     8560     7808     6970 
    6585     6822     7465     8226     8847     9089     8976     8575 
    8108     7916     7781     7724     7998     8320     8649     8942 
    8988     8939     8726     8355     8058     7871     7939     8221 
    8629     9121     9221     8849     8391     8006     7996     8438 
    8772     8712     8467     8159     7947     7952     8009     7998 
    7932     7807     7676     7701     7911     8010     8025     8239 
    8487     8660     8838     8727     8206     7677     7361     7292 
    7747     8499     8734     8592     8472     8133     8073     8627 
    9205     9724    10214    10301     9879     9232     8603     8067 
    7923     7855     7453     7364     7271     6799     6836     6978 
    7017     7580     7913     7735     7680     7874     8267     8695 
    9090     9481     9915    10349    10450    10281     9877     9169 
    8511     7975     7774     8063     8334     8773     9293     9211 
    9035     8814     8152     7782     7426     6764     6791     7222 
    7600     8208     8523     8650     8946     8922     8831     9020 
    9046     8737     8332     7881     7280     6940     6948     6895 
    7192     7769     8129     8735     9348     9448     9440     9173 
    8449     7859     7458     7149     7383     7933     8190     8518 
    9038     9167     9178     9293     9181     9105     8895     8426 
    8428     8586     8459     8473     8255     7739     7653     7663 
    7488     7578     7611     7383     7427     7533     7453     7662 
    7754     7400     7483     8020     8575     9267     9660     9582 
    9340     8919     8573     8465     8460     8652     8935     9175 
    9302     9208     9171     9072     8698     8445     8218     7970 
    7967     8029     8206     8419     8311     7942     7483     7308 
    7416     7499     7851     8260     8371     8486     8492     8322 
    8027     7661     7635     7873     8199     8568     8722     8797 
    8955     9089     9089     8959     8910     8823     8730     8851 
    8851     8903     9120     9043     8923     8608     7977     7726 
    7744     8019     8575     8814     8760     8398     8048     8155 
    8195     8290     8394     8128     7924     7566     7153     7130 
    7179     7379     7600     7727     8004     8270     8545     8622 
    8590     8804     8866     8992     9150     8880     8726     8506 
    8151     8325     8421     8264     8317     8008     7500     7501 
    7576     7577     7766     7947     8287     8652     8600     8383 
    8256     8230     8262     8496     8830     8722     8575     8576 
    8320     8239     8252     8110     8106     8149     8500     9135 
    9510     9653     9443     8934     8577     8343     8208     8268 
    8484     8671     8640     8573     8422     8087     7901     7798 
    7740     7796     7685     7588     7553     7303     7249     7499 
    7753     8206     8614     8567     8392     8311     8449     8839 
    9174     9342     9296     9221     9248     9055     8868     8708 
    8390     8409     8534     8448     8444     8465     8518     8344 
    8062     8019     7892     8047     8311     8267     8473     8579 
    8442     8217     7670     7452     7415     7283     7581     7839 
    7997     8307     8243     8074     8193     8235     8159     8252 
    8494     8847     9317     9504     9261     8932     8621     8303 
    8131     8071     8090     8406     8638     8478     8513     8645 
    8619     8637     8410     8087     7749     7356     7314     7195 
    7137     7514     7705     8012     8361     8298     8550     8973 
    9093     9250     9347     9193     8985     8910     8792     8592 
    8586     8510     8417     8563     8460     8374     8479     8291 
    8293     8334     7992     7931     8081     8129     8101     7835 
    7678     7819     8017     8279     8607     8723     8505     8491 
    8619     8302     8067     8024     7776     7695     7592     7348 
    7488     7781     7915     8221     8689     8985     9302     9563 
    9440     9278     9170     8935     8703     8575     8410     8079 
    7913     7921     7987     8230     8337     8384     8498     8606 
    8780     8580     8329     8289     7938     7786     7852     7888 
    8237     8387     8299     8266     8167     8155     8063     8009 
    8028     7858     7919     8154     8307     8533     8656     8716 
    8661     8553     8669     8638     8510     8445     8143     7923 
    8005     8147     8127     8160     8542     8792     9011     9312 
    9104     8893     8816     8430     8132     7997     8077     8267 
    8266     8306     8286     8349     8544     8459     8348     8033 
    7668     7875     7981     7920     7998     7846     7843     7942 
    7935     8317     8750     8883     8927     8951     8907     8765 
    8733     8653     8471     8487     8332     8037     7885     7616 
    7551     7859     8176     8432     8662     8854     8776     8590 
    8649     8658     8681     8760     8606     8456     8208     7832 
    7661     7578     7686     7915     8036     8170     8230     8270 
    8286     8170     8116     8031     8028     8275     8479     8610 
    8479     8229     8218     8036     7977     8262     8301     8338 
    8461     8571     8831     8973     9127     9290     9279     9211 
    8762     8224     7919     7485     7329     7441     7422     7596 
