Origin Time       2025/03/28 03:50:00
Lat.              35.403
Long.             140.360
Depth. (km)       54
Mag.              4.4
Station Code      TKY015
Station Lat.      35.7313
Station Long.     139.8119
Station Height(m) 4
Record Time       2025/03/28 03:51:02
Sampling Freq(Hz) 100Hz
Duration Time(s)  60
Dir.              U-D
Scale Factor      7845(gal)/8223790
Max. Acc. (gal)   1.357
Last Correction   2025/03/28 03:51:01
Memo.             
[...]
    9595     9585     9583     9626     9671     9697     9714     9684 
    9637     9605     9579     9620     9671     9679     9713     9710 
    9645     9625     9625     9616     9606     9586     9583     9591 
    9574     9575     9583     9558     9545     9560     9591     9618 
    9607     9594     9601     9599     9594     9612     9640     9636 
    9607     9610     9640     9666     9668     9648     9632     9630 
    9639     9657     9661     9645     9640     9632     9616     9624 
    9626     9610     9605     9587     9585     9614     9614     9593 
    9589     9590     9602     9599     9593     9607     9602     9599 
    9622     9621     9616     9620     9599     9606     9636     9632 
    9624     9618     9617     9636     9643     9637     9633     9626 
    9633     9640     9628     9621     9624     9602     9572     9578 
    9597     9612     9634     9639     9616     9606     9605     9599 
    9610     9622     9605     9591     9605     9616     9618     9628 
    9630     9620     9616     9628     9644     9651     9641     9620 
    9595     9595     9614     9618     9621     9629     9624     9613 
    9613     9618     9618     9621     9626     9609     9589     9613 
    9632     9616     9616     9620     9607     9614     9636     9628 
    9605     9607     9620     9624     9633     9640     9630     9626 
    9632     9636     9639     9626     9602     9585     9586     9602 
    9603     9593     9594     9579     9575     9616     9639     9625 
    9632     9641     9629     9622     9639     9643     9629     9622 
    9626     9645     9671     9667     9644     9626     9625     9651 
    9661     9633     9612     9598     9594     9610     9609     9616 
    9636     9594     9563     9591     9595     9617     9659     9626 
    9582     9605     9625     9602     9603     9630     9626     9607 
    9612     9637     9626     9582     9607     9647     9629     9652 
    9683     9648     9639     9628     9598     9609     9616     9633 
    9655     9628     9629     9633     9594     9601     9620     9612 
    9622     9618     9606     9605     9585     9583     9603     9603 
    9616     9634     9628     9609     9609     9613     9594     9599 
    9626     9616     9610     9641     9640     9612     9607     9622 
    9624     9612     9621     9626     9601     9603     9644     9641 
    9620     9628     9630     9610     9598     9603     9612     9622 
    9630     9617     9602     9620     9620     9603     9616     9621 
    9599     9595     9609     9618     9610     9599     9610     9609 
    9590     9594     9599     9591     9599     9606     9607     9617 
    9624     9624     9629     9630     9622     9621     9633     9639 
    9633     9634     9639     9643     9652     9648     9626     9614 
    9616     9603     9597     9603     9591     9570     9574     9589 
    9601     9609     9607     9606     9609     9606     9609     9614 
    9617     9633     9645     9640     9647     9645     9629     9640 
    9645     9647     9678     9702     9703     9702     9693     9695 
    9714     9732     9761     9767     9709     9620     9535     9474 
    9458     9475     9487     9497     9510     9509     9499     9531 
    9590     9637     9657     9645     9620     9586     9540     9490 
    9458     9471     9518     9548     9544     9535     9595     9756 
    9922     9969     9844     9598     9387     9390     9614     9795 
    9697     9406     9166     9155     9428     9802     9965     9829 
    9560     9420     9563     9861    10075    10072     9900     9722 
    9589     9493     9489     9553     9612     9639     9599     9499 
    9417     9367     9321     9319     9441     9683     9902     9987 
   10006     9988     9923     9877     9815     9666     9559     9602 
    9718     9778     9659     9397     9166     9026     8989     9077 
    9231     9413     9587     9664     9663     9680     9724     9806 
    9984    10146    10156    10092     9972     9759     9580     9470 
    9343     9290     9343     9360     9278     9148     9177     9502 
    9872    10008     9975     9823     9601     9526     9657     9817 
    9888     9819     9634     9477     9441     9501     9594     9667 
    9629     9485     9373     9391     9513     9601     9582     9578 
    9649     9769     9923     9977     9841     9645     9552     9660 
    9900    10076    10093     9938     9680     9505     9478     9471 
    9414     9346     9274     9193     9151     9225     9391     9486 
    9466     9510     9667     9813     9892     9894     9864     9887 
    9892     9819     9748     9594     9302     9135     9246     9472 
    9659     9707     9586     9391     9302     9479     9844    10104 
   10141    10019     9819     9672     9637     9648     9707     9830 
    9936     9922     9760     9489     9185     8955     8847     8846 
    8974     9185     9331     9363     9362     9454     9672     9981 
   10376    10705    10740    10516    10170     9740     9412     9347 
    9394     9425     9477     9490     9410     9377     9428     9427 
    9370     9352     9451     9710     9953     9946     9755     9572 
    9475     9504     9671     9853     9896     9823     9760     9726 
    9724     9733     9630     9397     9196     9112     9127     9244 
    9431     9586     9691     9806     9948    10084    10096     9936 
    9749     9679     9693     9679     9610     9551     9533     9544 
    9540     9479     9385     9279     9213     9281     9450     9645 
    9856     9954     9868     9734     9571     9369     9335     9491 
    9644     9751     9826     9890     9975    10012     9903     9629 
    9290     9020     8891     8935     9104     9269     9418     9630 
    9834     9923     9998    10135    10250    10334    10427    10428 
   10266     9973     9575     9166     8923     8903     8985     9043 
    9101     9262     9486     9625     9660     9670     9676     9725 
    9815     9873     9873     9826     9722     9649     9729     9892 
    9963     9915     9782     9531     9235     9046     8997     9092 
    9290     9427     9455     9520     9666     9791     9842     9846 
    9861     9934    10045    10143    10183    10139    10015     9819 
    9617     9468     9371     9339     9389     9429     9339     9115 
    8846     8626     8559     8727     9128     9640    10050    10282 
   10416    10454    10427    10397    10268    10034     9879     9842 
    9778     9552     9200     8893     8823     9003     9234     9370 
    9402     9312     9166     9159     9363     9679    10062    10439 
   10624    10586    10427    10174     9896     9698     9602     9562 
    9491     9354     9123     8815     8595     8540     8588     8779 
    9159     9613    10050    10453    10673    10644    10542    10439 
   10260    10030     9784     9482     9204     9088     9107     9178 
    9261     9292     9225     9130     9144     9310     9556     9859 
   10233    10535    10567    10345    10004     9686     9553     9551 
    9416     9192     9094     9070     9080     9220     9397     9468 
    9494     9467     9297     9162     9305     9601     9867    10176 
   10474    10571    10508    10365    10073     9705     9467     9402 
    9396     9333     9166     8946     8795     8784     8923     9180 
    9459     9687     9895    10118    10308    10370    10280    10147 
   10042     9891     9714     9613     9516     9327     9148     9111 
    9246     9513     9784     9869     9714     9516     9450     9525 
    9699     9841     9841     9779     9775     9809     9807     9726 
    9505     9247     9119     9063     9042     9063     9058     9169 
    9529     9941    10243    10389    10274     9991     9801     9728 
    9639     9559     9508     9425     9310     9193     9162     9298 
    9509     9729     9930    10041    10104    10102     9918     9683 
    9641     9790     9945    10000     9860     9553     9343     9267 
    9180     9136     9205     9300     9385     9498     9556     9495 
    9485     9582     9625     9661     9819     9992    10049     9971 
    9801     9614     9499     9463     9409     9337     9313     9347 
    9466     9636     9786     9892     9894     9792     9703     9674 
    9657     9610     9568     9568     9586     9593     9579     9562 
    9591     9659     9699     9710     9745     9787     9799     9798 
    9702     9497     9343     9297     9323     9400     9468     9491 
    9452     9391     9417     9543     9721     9890     9973     9977 
    9975    10023    10125    10215    10245    10152     9896     9528 
    9147     8892     8837     8889     8942     8988     9131     9441 
    9765     9960    10065    10076     9953     9802     9661     9494 
    9413     9462     9498     9548     9695     9840     9891     9825 
    9644     9483     9491     9639     9791     9875     9863     9752 
    9616     9536     9502     9486     9464     9432     9417     9464 
    9558     9667     9779     9813     9799     9840     9813     9656 
    9486     9346     9296     9385     9543     9649     9653     9628 
    9572     9509     9559     9640     9666     9652     9576     9513 
    9485     9440     9401     9385     9458     9599     9749     9909 
   10006    10037     9961     9761     9578     9424     9381     9510 
    9671     9817     9833     9720     9671     9679     9725     9809 
    9879     9891     9783     9657     9585     9535     9509     9433 
    9336     9271     9184     9096     9012     8991     9093     9273 
    9543     9787     9940    10115    10238    10287    10282    10138 
    9915     9695     9568     9594     9620     9549     9452     9387 
    9369     9406     9510     9587     9591     9559     9472     9389 
    9406     9509     9663     9807     9861     9782     9617     9514 
    9475     9432     9431     9486     9540     9537     9524     9606 
    9740     9849     9934     9984    10019    10015     9882     9675 
    9520     9436     9431     9472     9531     9610     9653     9672 
    9747     9764     9672     9614     9606     9568     9517     9513 
    9513     9456     9423     9413     9358     9351     9381     9344 
    9337     9401     9432     9456     9502     9570     9744     9954 
    9992     9871     9725     9622     9539     9458     9489     9652 
    9815     9938    10000     9968     9961    10000     9937     9756 
    9590     9504     9502     9570     9645     9651     9572     9474 
    9409     9412     9470     9520     9572     9644     9670     9628 
    9578     9559     9549     9567     9690     9860     9915     9830 
    9733     9695     9713     9822     9900     9748     9501     9335 
    9224     9167     9184     9228     9244     9274     9409     9610 
    9838    10056    10150    10099     9930     9726     9578     9497 
    9443     9315     9184     9177     9193     9265     9423     9572 
    9795    10018    10060     9964     9832     9728     9640     9610 
    9641     9671     9705     9733     9814     9914     9917     9867 
    9767     9678     9614     9520     9467     9315     9096     9074 
    9061     9028     9112     9194     9358     9629     9867    10019 
   10114    10166    10176    10212    10177    10022     9842     9506 
    9113     8870     8775     8965     9324     9549     9697     9853 
   10003    10093    10089    10050    10052    10157    10208    10041 
    9775     9417     8993     8737     8704     8795     8974     9217 
    9459     9713    10008    10251    10363    10303    10106     9899 
    9637     9358     9213     9161     9200     9294     9275     9232 
    9298     9433     9609     9778     9892     9948     9957     9942 
    9911     9814     9617     9510     9614     9751     9856     9957 
   10023    10012     9872     9729     9674     9570     9321     9042 
    8974     9069     9123     9212     9360     9470     9568     9690 
    9796     9768     9632     9562     9571     9687     9840     9995 
   10234    10358    10438    10538    10334     9954     9571     9232 
    9140     9072     8976     9059     9077     9001     9035     9062 
    9058     9109     9162     9333     9733    10129    10488    10794 
   10827    10708    10399     9984     9756     9320     8752     8527 
    8505     8785     9278     9564     9747     9837     9818     9841 
    9825     9913    10160    10366    10527    10539    10320     9918 
    9352     8820     8537     8486     8559     8688     8872     9167 
    9459     9583     9732     9990    10195    10343    10373    10295 
   10195    10065     9965     9799     9582     9549     9544     9424 
    9321     9247     9186     9124     9131     9277     9391     9409 
    9440     9479     9454     9401     9482     9813    10237    10447 
   10428    10270     9956     9688     9539     9377     9275     9278 
    9450     9718     9811     9842     9832     9630     9493     9483 
    9414     9332     9271     9236     9204     9109     9063     9146 
    9300     9528     9706     9764     9918    10100    10080    10017 
   10004     9980     9960     9817     9582     9444     9371     9348 
    9335     9275     9313     9385     9367     9445     9590     9633 
    9659     9740     9872    10038    10201    10277    10118     9753 
    9409     9262     9209     8989     8779     8896     9167     9497 
   10091    10758    11040    10820    10419    10158     9971     9852 
    9891     9859     9655     9439     9309     9263     9238     9157 
    9047     8970     9001     9247     9255     8864     8897     9236 
    9292     9389     9606     9906    10061     9818     9956    10368 
   10380    10527    10648    10262     9721     9090     8608     8590 
    8595     8680     9143     9486     9791    10191    10154     9927 
    9753     9702    10058    10243    10065    10023     9956     9991 
   10160    10017     9941    10093    10039     9852     9618     9321 
    9070     8797     8492     8372     8461     8610     8869     9232 
    9589     9979    10300    10370    10311    10222    10103     9952 
    9706     9535     9512     9385     9211     9225     9429     9790 
   10191    10481    10674    10714    10501    10166     9722     9089 
    8590     8376     8263     8264     8397     8634     8904     9072 
    9242     9470     9699     9987    10301    10606    10843    10794 
   10462    10093     9775     9536     9358     9192     9263     9599 
    9869    10019    10087     9971     9707     9468     9324     9197 
    9081     9038     9116     9282     9377     9363     9294     9243 
    9343     9482     9578     9779     9975    10135    10427    10577 
   10368    10092     9907     9760     9664     9622     9560     9435 
    9367     9378     9336     9235     9119     9077     9124     9193 
    9409     9701     9836     9956    10107    10188    10332    10474 
   10458    10349    10161     9930     9587     9067     8676     8522 
    8573     8857     9180     9452     9580     9564     9705     9875 
    9940    10098    10152     9852     9432     9189     9034     8766 
    8518     8484     8623     8824     9221     9795    10181    10303 
   10269    10300    10493    10389    10206    10424    10494    10288 
   10277    10330    10265    10052     9644     9236     8992     8850 
    8750     8873     9101     9157     9391     9745     9733     9613 
    9671     9788     9784     9655     9728     9845     9613     9355 
    9325     9328     9231     9100     9132     9246     9223     9211 
    9350     9512     9522     9485     9707    10041    10242    10427 
   10504    10436    10382    10211     9988     9909     9852     9794 
    9782     9720     9587     9381     9184     9147     9117     9046 
    9175     9448     9566     9459     9413     9520     9514     9497 
    9616     9714     9825     9957    10099    10227    10083     9825 
    9742     9590     9350     9250     9293     9414     9501     9609 
    9790     9857     9783     9657     9560     9474     9342     9336 
    9387     9315     9327     9450     9537     9621     9606     9466 
    9352     9262     9173     9144     9163     9238     9367     9537 
    9853    10299    10669    10868    10897    10756    10493    10161 
    9810     9531     9432     9456     9413     9323     9251     9132 
    9120     9267     9347     9421     9566     9664     9713     9701 
    9613     9504     9475     9599     9687     9643     9626     9528 
    9275     9121     9080     9067     9131     9247     9459     9747 
   10034    10247    10211     9991     9720     9445     9347     9328 
    9250     9321     9544     9637     9583     9562     9567     9583 
    9730     9969    10235    10565    10713    10523    10322    10137 
    9840     9690     9575     9324     9283     9356     9184     8995 
    9026     9084     9089     9252     9533     9738     9869     9871 
    9775     9649     9454     9261     9115     9067     9084     9066 
    9207     9529     9811     9972     9988     9891     9799     9721 
    9524     9316     9451     9788     9861     9822     9945    10012 
   10011    10075    10135    10211    10289    10181     9890     9707 
    9591     9300     9039     8974     8991     9186     9502     9636 
    9657     9734     9720     9597     9624     9680     9576     9572 
    9682     9733     9796     9787     9748     9819     9809     9718 
    9683     9632     9533     9398     9304     9256     9184     9045 
    8806     8707     8950     9352     9724     9984    10112    10146 
   10108     9985     9895     9985    10033     9853     9694     9626 
    9487     9342     9293     9244     9317     9711    10037    10044 
    9985     9873     9693     9558     9456     9366     9227     9140 
    9205     9198     9202     9352     9350     9289     9460     9734 
   10058    10385    10527    10605    10709    10604    10228     9805 
    9494     9279     9158     9221     9342     9316     9213     9139 
    9105     9049     8982     9175     9632     9963    10064    10039 
    9852     9607     9468     9374     9386     9605     9841    10002 
   10066     9969     9869     9686     9229     8881     8892     9051 
    9252     9336     9343     9533     9718     9772     9884    10021 
   10111    10158    10280    10467    10388    10069     9741     9359 
    9061     8916     8800     8866     9088     9174     9273     9508 
    9653     9703     9621     9375     9273     9400     9591     9783 
   10015    10273    10451    10488    10281     9888     9637     9632 
    9660     9485     9254     9351     9632     9748     9787     9869 
    9918     9950    10027    10068     9952     9702     9344     8991 
    8854     8797     8874     9211     9251     9084     9337     9636 
    9605     9512     9509     9729    10120    10239    10187    10381 
   10385     9940     9570     9293     8997     8977     9004     8969 
    9379     9998    10166     9990     9747     9536     9579     9710 
    9582     9494     9614     9540     9240     9055     9212     9609 
    9899    10046    10223    10312    10085     9690     9459     9390 
    9466     9783    10048    10089    10145    10073     9790     9580 
