Origin Time       2025/03/28 03:50:00
Lat.              35.403
Long.             140.360
Depth. (km)       54
Mag.              4.4
Station Code      TKY018
Station Lat.      35.6553
Station Long.     139.8114
Station Height(m) 6
Record Time       2025/03/28 03:51:01
Sampling Freq(Hz) 100Hz
Duration Time(s)  60
Dir.              U-D
Scale Factor      7845(gal)/8223790
Max. Acc. (gal)   2.432
Last Correction   2025/03/28 03:51:00
Memo.             
[...]
    7375     7520     7399     7202     7155     7180     7199     7240 
    7344     7430     7334     7172     7160     7280     7415     7412 
    7264     7146     7152     7283     7388     7288     7125     7090 
    7177     7260     7186     7065     7071     7145     7279     7443 
    7512     7495     7408     7288     7249     7295     7334     7287 
    7176     7114     7136     7214     7300     7304     7221     7106 
    6998     6987     7128     7327     7458     7442     7331     7298 
    7350     7371     7384     7398     7369     7369     7338     7199 
    7101     7134     7225     7233     7118     7036     7091     7194 
    7265     7294     7269     7248     7285     7300     7249     7269 
    7429     7568     7508     7275     7091     7169     7392     7408 
    7149     6906     6921     7129     7325     7438     7438     7283 
    7086     7034     7179     7392     7549     7616     7551     7346 
    7142     7107     7242     7346     7230     6999     6941     7123 
    7372     7449     7288     7109     7071     7148     7275     7329 
    7292     7240     7207     7253     7338     7393     7464     7496 
    7415     7284     7169     7134     7204     7252     7150     6987 
    6937     7049     7271     7472     7542     7516     7416     7281 
    7244     7323     7430     7503     7458     7240     7020     6983 
    7021     7032     7044     7047     7113     7241     7302     7334 
    7392     7437     7460     7431     7369     7341     7322     7268 
    7195     7148     7145     7182     7198     7176     7215     7317 
    7383     7379     7298     7213     7198     7198     7238     7323 
    7339     7285     7218     7195     7276     7383     7395     7299 
    7173     7125     7159     7199     7211     7204     7190     7180 
    7167     7164     7233     7338     7411     7437     7388     7314 
    7304     7338     7356     7299     7165     7076     7059     7047 
    7079     7173     7283     7380     7399     7366     7387     7446 
    7480     7427     7307     7217     7176     7150     7126     7133 
    7177     7223     7256     7281     7292     7267     7229     7229 
    7252     7257     7249     7233     7233     7264     7284     7280 
    7264     7252     7256     7245     7211     7210     7261     7307 
    7307     7299     7307     7348     7400     7375     7281     7210 
    7163     7156     7194     7238     7271     7253     7196     7175 
    7195     7217     7240     7229     7168     7144     7173     7252 
    7380     7446     7423     7377     7327     7299     7310     7326 
    7311     7279     7283     7306     7296     7261     7215     7163 
    7123     7114     7141     7195     7254     7306     7329     7298 
    7258     7271     7322     7364     7341     7261     7213     7211 
    7222     7230     7223     7222     7252     7275     7268     7257 
    7272     7310     7333     7300     7221     7188     7249     7326 
    7348     7283     7196     7211     7307     7377     7348     7215 
    7110     7122     7183     7221     7210     7169     7179     7254 
    7306     7294     7275     7279     7300     7325     7333     7322 
    7304     7292     7283     7263     7217     7184     7209     7252 
    7258     7250     7269     7327     7385     7372     7284     7209 
    7215     7264     7273     7223     7145     7095     7098     7118 
    7161     7207     7227     7258     7288     7296     7318     7342 
    7356     7341     7290     7275     7287     7265     7230     7180 
    7157     7222     7291     7295     7264     7230     7241     7299 
    7346     7327     7265     7244     7280     7322     7331     7296 
    7268     7261     7252     7250     7250     7244     7221     7196 
    7209     7234     7238     7229     7219     7234     7257     7256 
    7246     7246     7269     7315     7361     7406     7446     7483 
    7522     7562     7603     7638     7658     7669     7654     7584 
    7439     7191     6876     6593     6386     6313     6380     6500 
    6639     6813     6997     7125     7159     7173     7215     7288 
    7501     7843     8066     8019     7738     7314     6921     6771 
    6914     7230     7595     7865     7857     7595     7319     7150 
    7096     7164     7254     7348     7543     7759     7796     7576 
    7169     6750     6508     6548     6818     7068     7082     6963 
    6897     6866     6879     7032     7254     7411     7542     7770 
    8082     8295     8159     7616     6949     6535     6538     6831 
    7113     7186     7102     7014     7014     7148     7388     7657 
    7904     8067     8079     7919     7620     7300     7099     6999 
    6851     6574     6308     6272     6497     6859     7175     7273 
    7173     7115     7280     7622     7965     8160     8113     7823 
    7460     7204     7084     7034     7009     6988     6982     7036 
    7194     7379     7446     7326     7121     7024     7140     7411 
    7665     7758     7665     7447     7198     7020     6993     7125 
    7314     7399     7287     7048     6858     6826     6853     6816 
    6820     7014     7368     7762     7987     7898     7596     7230 
    6937     6885     7086     7360     7491     7380     7186     7130 
    7292     7628     7913     7909     7676     7419     7234     7137 
    7049     6894     6735     6650     6696     6889     7105     7285 
    7430     7422     7312     7303     7379     7416     7368     7217 
    7053     6978     6970     6961     6880     6783     6890     7272 
    7719     8016     8073     7906     7678     7533     7391     7165 
    7009     7082     7323     7576     7701     7588     7241     6840 
    6681     6897     7221     7331     7249     7126     6983     6790 
    6619     6613     6818     7179     7542     7717     7680     7542 
    7418     7376     7384     7403     7480     7558     7516     7350 
    7136     6960     6921     7059     7248     7279     7121     6952 
    6925     7107     7479     7819     7859     7627     7434     7496 
    7680     7678     7398     7055     6833     6739     6798     6959 
    7067     7075     7055     7114     7273     7479     7690     7776 
    7692     7580     7420     7196     7084     7079     7028     7002 
    7061     7080     7038     7037     7074     7071     7071     7163 
    7314     7516     7711     7734     7642     7577     7506     7354 
    7098     6907     6947     7044     7018     6848     6642     6597 
    6750     6997     7271     7469     7522     7551     7676     7801 
    7844     7877     7906     7842     7651     7420     7273     7153 
    6885     6515     6251     6280     6627     7064     7431     7758 
    7998     8145     8178     7927     7503     7226     7080     6872 
    6624     6427     6322     6372     6552     6814     7231     7762 
    8208     8374     8156     7811     7677     7676     7601     7372 
    6999     6655     6451     6399     6504     6636     6747     6934 
    7137     7322     7608     7888     8037     8129     8077     7942 
    8059     8302     8287     8025     7595     6984     6334     5806 
    5463     5374     5556     5799     5971     6264     6856     7560 
    7975     8078     8226     8554     8865     8912     8687     8452 
    8212     7761     7229     6799     6474     6235     5976     5721 
    5746     6112     6635     7075     7225     7211     7308     7565 
    7862     8043     8154     8348     8417     8086     7582     7241 
    7036     6849     6667     6484     6334     6397     6750     7195 
    7603     8016     8289     8106     7547     7142     7090     7078 
    6951     6829     6756     6799     7056     7337     7395     7321 
    7310     7429     7692     7955     7929     7585     7177     6899 
    6799     6917     7265     7612     7593     7219     6853     6779 
    6972     7144     7082     6866     6718     6785     7006     7238 
    7464     7676     7800     7898     7994     7912     7546     7030 
    6610     6399     6390     6647     7080     7399     7560     7731 
    7932     8090     8060     7781     7416     7115     6929     6862 
    6879     6929     6898     6836     6975     7291     7592     7808 
    7894     7836     7696     7495     7254     7053     6971     7024 
    7102     7072     6956     6809     6644     6577     6659     6789 
    6922     7065     7249     7524     7796     7975     8110     8164 
    8055     7809     7561     7384     7244     7163     7177     7125 
    6822     6357     6087     6242     6620     6955     7229     7431 
    7555     7720     7931     8023     7902     7601     7218     6894 
    6779     6928     7161     7279     7263     7191     7137     7145 
    7229     7393     7593     7711     7708     7615     7481     7425 
    7497     7570     7562     7492     7310     6966     6554     6266 
    6239     6413     6670     6980     7310     7596     7803     7932 
    7989     7932     7767     7545     7349     7267     7225     7102 
    6894     6677     6550     6585     6794     7106     7350     7461 
    7531     7587     7553     7454     7414     7469     7535     7547 
    7519     7439     7272     7022     6771     6660     6751     6917 
    7022     7055     7038     7026     7141     7438     7758     7902 
    7865     7788     7757     7724     7655     7526     7307     7094 
    6974     6910     6909     7025     7203     7352     7418     7368 
    7234     7086     6971     6910     6890     6914     7001     7114 
    7226     7288     7225     7045     6899     6947     7172     7438 
    7669     7859     7969     7932     7803     7659     7507     7407 
    7364     7268     7103     6924     6778     6767     6899     7034 
    7091     7123     7209     7338     7431     7419     7322     7219 
    7091     6880     6739     6816     7034     7240     7349     7372 
    7323     7223     7227     7433     7739     8004     8060     7851 
    7484     7103     6879     6905     7063     7169     7141     7010 
    6867     6822     6940     7111     7233     7311     7357     7415 
    7511     7592     7658     7715     7703     7636     7512     7264 
    6944     6667     6469     6365     6412     6624     6943     7323 
    7724     8055     8190     8056     7812     7674     7635     7614 
    7557     7369     7083     6870     6794     6779     6735     6689 
    6724     6813     6926     7141     7431     7649     7747     7758 
    7653     7447     7237     7032     6821     6697     6781     7067 
    7377     7531     7530     7495     7491     7539     7627     7645 
    7550     7456     7399     7306     7180     7064     6959     6872 
    6794     6740     6752     6794     6814     6841     6959     7217 
    7526     7753     7885     7948     7970     8028     8112     8067 
    7789     7385     7103     7002     6941     6955     7121     7308 
    7445     7518     7425     7249     7122     6991     6867     6833 
    6836     6774     6631     6504     6523     6660     6817     7011 
    7234     7366     7403     7488     7665     7844     7942     7942 
    7902     7874     7782     7531     7183     6868     6677     6628 
    6623     6571     6529     6558     6696     6988     7334     7620 
    7905     8175     8310     8263     8075     7831     7666     7669 
    7705     7597     7377     7096     6805     6608     6471     6389 
    6416     6475     6601     6860     7111     7290     7446     7516 
    7457     7338     7245     7257     7366     7469     7487     7446 
    7381     7252     7118     7121     7281     7528     7720     7769 
    7672     7356     6867     6527     6535     6891     7480     7989 
    8226     8224     8008     7673     7318     6995     6806     6781 
    6852     6932     6882     6723     6605     6627     6843     7155 
    7345     7327     7217     7132     6998     6794     6728     6859 
    7056     7267     7485     7705     7944     8194     8390     8425 
    8225     7904     7650     7512     7441     7345     7118     6787 
    6502     6378     6465     6718     7022     7349     7631     7699 
    7519     7214     6940     6760     6652     6628     6677     6702 
    6677     6720     6905     7146     7342     7520     7743     7955 
    8068     8066     8000     7948     7857     7622     7352     7190 
    7129     7121     7111     7076     7009     6928     6868     6809 
    6809     6952     7204     7523     7858     8132     8298     8334 
    8263     8036     7612     7130     6772     6556     6386     6226 
    6158     6203     6255     6234     6183     6216     6389     6724 
    7265     7924     8446     8683     8712     8604     8318     7927 
    7623     7483     7427     7352     7237     7113     7051     7182 
    7487     7763     7896     7866     7639     7265     6897     6652 
    6536     6511     6520     6504     6467     6424     6409     6559 
    6926     7383     7819     8140     8221     8094     7873     7573 
    7192     6802     6565     6573     6745     7060     7530     7933 
    8028     7852     7578     7327     7107     6889     6772     6733 
    6609     6612     6980     7516     8032     8440     8637     8534 
    8063     7379     6708     6131     5792     5744     5910     6232 
    6527     6706     6885     7159     7584     8094     8486     8592 
    8348     7854     7268     6683     6258     6054     5922     5934 
    6316     6972     7753     8648     9445     9809     9643     9171 
    8627     8028     7366     6777     6405     6183     5954     5791 
    5827     6048     6365     6701     7011     7267     7457     7611 
    7805     8081     8337     8534     8591     8291     7686     7013 
    6401     5980     5757     5683     5759     5913     6145     6534 
    6991     7420     7790     7990     7985     7925     7943     8021 
    8075     8037     7877     7627     7371     7136     6959     6922 
    6964     7014     7078     7145     7249     7376     7542     7798 
    7975     7912     7600     7075     6515     6135     6062     6335 
    6894     7568     8027     8109     7987     7708     7339     7102 
    6966     6836     6840     7047     7277     7458     7684     7774 
    7684     7627     7450     7146     6899     6554     6247     6223 
    6327     6517     6859     7269     7680     8190     8819     9225 
    9159     8729     8151     7634     7182     6758     6485     6353 
    6303     6340     6385     6529     6853     7164     7398     7429 
    7159     6995     7037     7047     7148     7318     7484     7715 
    7722     7398     7091     6907     6801     6910     7172     7330 
    7404     7383     7187     7067     7069     7087     7241     7419 
    7576     7847     8027     8027     7985     7851     7604     7231 
    6708     6320     6296     6497     6837     7206     7389     7495 
    7632     7599     7407     7342     7416     7445     7412     7350 
    7285     7310     7295     7141     7032     6912     6663     6598 
    6822     7118     7506     7909     8095     8128     8017     7773 
    7622     7507     7326     7182     6967     6639     6409     6355 
    6372     6444     6621     6883     7200     7479     7573     7479 
    7237     6952     6805     6678     6450     6362     6486     6740 
    7075     7291     7434     7707     8059     8464     8830     8992 
    8897     8588     8307     8194     8083     7863     7499     7044 
    6606     6258     6139     6278     6559     6859     7079     7176 
    7117     7020     6903     6666     6637     6943     7203     7337 
    7312     7102     6975     7042     7281     7601     7830     7942 
    7854     7631     7457     7265     7150     7163     7134     7065 
    6940     6867     7014     7261     7519     7693     7700     7599 
    7456     7377     7317     7180     7057     6976     6917     6810 
    6710     6772     6862     6945     7040     6987     6968     7072 
    7092     7231     7560     7765     7928     8106     8125     8100 
    8059     7924     7731     7381     6918     6477     6150     6088 
    6246     6615     7106     7420     7587     7713     7821     7962 
    8036     8004     7900     7750     7585     7323     6983     6566 
    6070     5726     5680     5949     6505     7153     7685     7970 
    8013     7965     7923     7998     8210     8289     8090     7690 
    7126     6583     6242     6107     6212     6455     6733     7063 
    7356     7587     7784     7938     8033     8006     7915     7738 
    7420     7184     6998     6766     6713     6743     6701     6666 
    6636     6735     6979     7242     7518     7730     7874     7827 
    7550     7457     7464     7244     6964     6787     6895     7200 
    7350     7426     7457     7461     7762     8286     8742     9011 
    8814     8145     7416     6758     6187     5899     5873     5995 
    6274     6637     6988     7318     7549     7596     7487     7204 
    6853     6775     6957     7138     7198     7006     6763     6750 
    6867     7063     7326     7608     7878     7982     7897     7676 
    7339     7118     7209     7551     7929     8222     8382     8279 
    8002     7661     7215     6714     6189     5813     5773     5910 
    6118     6396     6702     7105     7391     7487     7692     7877 
    7939     8044     8064     8013     7952     7643     7141     6801 
    6743     6871     7132     7422     7574     7641     7609     7423 
    7358     7443     7418     7362     7203     6767     6434     6390 
    6415     6548     6786     7001     7272     7526     7609     7574 
    7501     7433     7360     7330     7392     7457     7518     7609 
    7653     7549     7379     7225     7018     6916     6949     6887 
    6795     6794     6964     7294     7493     7528     7480     7375 
    7317     7246     7203     7260     7345     7438     7412     7331 
    7380     7350     7194     7072     6866     6601     6516     6629 
    6901     7295     7636     7921     8159     8155     8041     8036 
    7951     7740     7526     7331     7196     7017     6740     6594 
    6797     7267     7609     7684     7599     7348     7117     6949 
    6754     6754     6914     7042     7076     6903     6826     7082 
    7430     7796     8023     7932     7731     7520     7322     7283 
    7362     7380     7292     7109     6771     6403     6249     6242 
    6340     6673     7109     7514     7932     8257     8347     8256 
    8073     7798     7479     7140     6814     6637     6601     6628 
    6731     6862     6990     7103     7196     7342     7510     7639 
    7785     7936     7994     7857     7554     7160     6750     6519 
    6469     6523     6751     7002     7163     7319     7408     7500 
    7653     7704     7689     7626     7412     7117     6860     6741 
    6729     6740     6782     6833     7013     7335     7512     7515 
    7508     7523     7607     7739     7831     7843     7769     7715 
    7712     7663     7623     7595     7433     7136     6813     6602 
    6586     6670     6845     7184     7550     7763     7773     7659 
    7476     7249     7110     7034     6899     6744     6577     6461 
    6585     6878     7029     6943     6813     6826     7024     7275 
