Origin Time       2025/03/28 03:50:00
Lat.              35.403
Long.             140.360
Depth. (km)       54
Mag.              4.4
Station Code      TKY024
Station Lat.      35.7422
Station Long.     139.8612
Station Height(m) 3
Record Time       2025/03/28 03:51:02
Sampling Freq(Hz) 100Hz
Duration Time(s)  60
Dir.              E-W
Scale Factor      7845(gal)/8223790
Max. Acc. (gal)   5.292
Last Correction   2025/03/28 03:51:01
Memo.             
[...]
    -522     -521     -549     -583     -602     -604     -545     -502 
    -535     -542     -486     -468     -522     -568     -575     -568 
    -546     -535     -579     -596     -500     -413     -471     -557 
    -535     -460     -427     -499     -579     -584     -573     -550 
    -575     -650     -615     -517     -519     -602     -627     -504 
    -363     -400     -511     -507     -464     -507     -585     -594 
    -531     -486     -502     -533     -541     -523     -529     -592 
    -638     -606     -527     -488     -513     -544     -558     -560 
    -526     -456     -444     -495     -494     -461     -500     -564 
    -560     -534     -553     -568     -572     -587     -560     -517 
    -510     -504     -502     -525     -549     -548     -508     -490 
    -531     -538     -486     -484     -526     -541     -568     -592 
    -588     -615     -629     -576     -531     -533     -550     -523 
    -481     -504     -529     -494     -481     -488     -476     -504 
    -560     -564     -522     -513     -549     -576     -587     -592 
    -583     -558     -522     -503     -506     -508     -519     -525 
    -523     -535     -518     -475     -476     -529     -591     -608 
    -585     -581     -575     -544     -537     -542     -558     -550 
    -499     -486     -508     -503     -484     -500     -530     -507 
    -490     -540     -573     -572     -561     -556     -571     -558 
    -517     -511     -541     -562     -540     -500     -499     -513 
    -498     -477     -487     -502     -507     -527     -561     -589 
    -592     -569     -560     -585     -608     -575     -517     -480 
    -448     -423     -434     -481     -529     -530     -499     -465 
    -456     -502     -553     -587     -625     -622     -575     -549 
    -531     -534     -592     -619     -581     -527     -464     -417 
    -399     -406     -438     -476     -518     -550     -569     -608 
    -622     -595     -575     -576     -618     -660     -621     -531 
    -487     -481     -459     -442     -453     -480     -513     -484 
    -427     -463     -521     -521     -544     -604     -635     -626 
    -592     -584     -606     -592     -561     -565     -544     -459 
    -378     -373     -427     -437     -422     -463     -534     -579 
    -553     -534     -621     -683     -643     -633     -649     -591 
    -515     -502     -521     -517     -469     -432     -452     -491 
    -492     -454     -448     -515     -565     -561     -583     -639 
    -652     -592     -531     -544     -577     -569     -523     -475 
    -463     -457     -442     -457     -496     -525     -538     -546 
    -568     -595     -599     -604     -616     -625     -595     -511 
    -471     -498     -513     -517     -503     -477     -464     -437 
    -441     -504     -545     -560     -598     -629     -619     -584 
    -561     -564     -580     -583     -548     -508     -488     -465 
    -463     -499     -488     -425     -452     -569     -660     -657 
    -545     -454     -504     -611     -681     -637     -492     -441 
    -535     -637     -623     -441     -252     -315     -588     -766 
    -652     -396     -315     -480     -683     -737     -602     -418 
    -413     -572     -677     -649     -546     -471     -465     -456 
    -413     -413     -531     -642     -550     -394     -436     -618 
    -718     -679     -638     -664     -633     -500     -380     -359 
    -430     -544     -595     -526     -409     -407     -518     -548 
    -517     -623     -804     -823     -650     -427     -332     -426 
    -541     -508     -405     -445     -637     -700     -549     -387 
    -365     -531     -679     -550     -322     -311     -522     -776 
    -866     -720     -517     -432     -457     -514     -583     -642 
    -656     -560     -314     -135     -198     -372     -502     -569 
    -643     -803     -918     -816     -607     -463     -433     -500 
    -542     -515     -502     -459     -384     -356     -352     -422 
    -627     -823     -777     -495     -325     -454     -631     -673 
    -649     -603     -556     -575     -673     -754     -710     -510 
    -218      -29      -75     -286     -484     -573     -626     -700 
    -731     -703     -706     -754     -751     -683     -641     -589 
    -459     -264      -85     -117     -371     -538     -494     -452 
    -600     -850     -873     -529     -157     -166     -525     -869 
    -919     -750     -679     -830     -936     -730     -288       32 
     -20     -302     -503     -494     -349     -237     -313     -623 
   -1030    -1255    -1086     -652     -382     -433     -504     -351 
     -85       28     -160     -484     -538     -329     -346     -693 
    -996     -949     -564     -274     -467     -870     -950     -656 
    -371     -346     -487     -553     -442     -314     -302     -344 
    -355     -326     -379     -561     -638     -579     -704     -997 
   -1084     -814     -414     -257     -413     -549     -464     -357 
    -456     -669     -768     -634     -365     -234     -319     -456 
    -619     -835    -1021    -1080     -969     -758     -490     -226 
    -105      -98     -225     -534     -720     -579     -341     -226 
    -233     -311     -410     -487     -545     -619     -689     -723 
    -750     -743     -646     -521     -440     -400     -380     -334 
    -232     -117     -125     -356     -706     -997    -1174    -1240 
   -1121     -812     -526     -417     -411     -403     -382     -467 
    -692     -828     -750     -611     -556     -544     -396     -124 
     -63     -318     -587     -623     -481     -364     -382     -530 
    -706     -745     -680     -649     -622     -523     -365     -248 
    -260     -369     -535     -691     -689     -564     -484     -492 
    -537     -591     -581     -440     -249     -221     -457     -750 
    -824     -751     -716     -688     -630     -585     -503     -406 
    -467     -629     -616     -384     -180     -209     -360     -480 
    -608     -695     -660     -635     -689     -742     -760     -719 
    -531     -233      -64     -189     -507     -761     -815     -787 
    -745     -561     -267     -101     -186     -471     -808    -1040 
   -1096    -1034     -970     -909     -707     -314       83      303 
     319      117     -270     -603     -650     -465     -283     -276 
    -438     -592     -639     -673     -781     -901     -938     -866 
    -715     -556     -457     -437     -479     -527     -533     -542 
    -556     -440     -233     -191     -414     -773    -1062    -1146 
   -1026     -783     -540     -391     -342     -336     -348     -360 
    -303     -211     -270     -492     -638     -600     -479     -391 
    -468     -673     -795     -811     -846     -878     -797     -557 
    -314     -295     -464     -600     -581     -429     -265     -179 
    -126     -113     -256     -523     -731     -787     -788     -873 
    -967     -830     -463     -179     -198     -384     -464     -391 
    -325     -394     -525     -556     -544     -677     -916    -1080 
   -1055     -843     -608     -573     -680     -668     -492     -342 
    -290     -220      -83       -9     -113     -356     -616     -737 
    -670     -661     -834     -951     -895     -815     -811     -826 
    -723     -441      -97      129      174      156      145       41 
    -222     -564     -797     -873     -928     -970     -891     -738 
    -700     -800     -839     -754     -598     -438     -433     -537 
    -473     -264     -211     -383     -518     -427     -251     -256 
    -436     -550     -573     -653     -845    -1077    -1132     -912 
    -611     -375     -248     -267     -298     -205      -78      -72 
    -187     -334     -504     -677     -788     -827     -803     -747 
    -719     -743     -789     -765     -687     -650     -623     -518 
    -373     -371     -549     -662     -558     -364     -251     -265 
    -286     -216     -153     -247     -533     -916    -1200    -1221 
    -972     -618     -395     -421     -576     -673     -652     -596 
    -610     -616     -452     -149       44      -29     -324     -688 
    -945     -993     -835     -545     -324     -299     -388     -494 
    -556     -595     -675     -723     -687     -625     -568     -542 
    -568     -519     -291        2      209      280      255      147 
     -44     -274     -527     -830    -1105    -1320    -1526    -1626 
   -1463    -1080     -627     -299     -236     -275     -199      -54 
      75      156       83     -122     -306     -487     -739     -912 
    -970    -1107    -1329    -1441    -1385    -1204     -885     -508 
    -307     -368     -469     -403     -236     -136     -117     -122 
    -140     -193     -232     -257     -440     -789    -1075    -1209 
   -1178     -892     -407       56      283      189      -95     -395 
    -596     -614     -503     -406     -356     -356     -446     -549 
    -553     -577     -724     -884     -965     -967     -930     -896 
    -857     -765     -600     -372     -151      -75     -190     -340 
    -417     -502     -646     -756     -711     -549     -469     -571 
    -761     -880     -811     -607     -395     -187        9       89 
     -29     -310     -625     -831     -878     -808     -697     -584 
    -510     -527     -595     -619     -576     -488     -403     -328 
    -216      -99     -103     -244     -388     -444     -499     -668 
    -876    -1004    -1019     -919     -774     -753     -895     -994 
    -919     -770     -643     -481     -201      149      353      251 
    -128     -588     -861     -808     -584     -465     -525     -611 
    -657     -729     -831     -926     -938     -758     -465     -247 
    -148     -183     -321     -448     -527     -549     -479     -402 
    -352     -297     -399     -750    -1134    -1306    -1196     -873 
    -488     -213     -153     -251     -309     -221     -136     -220 
    -423     -645     -773     -746     -649     -571     -506     -411 
    -322     -307     -349     -396     -364     -240     -179     -268 
    -484     -808    -1081    -1107     -928     -687     -437     -276 
    -276     -348     -365     -384     -568     -861    -1007     -996 
    -999     -999     -909     -706     -468     -409     -591     -799 
    -799     -554     -193      105      202      116      -55     -314 
    -695    -1084    -1340    -1359    -1058     -523      -48      143 
      87      -98     -349     -508     -433     -241     -124     -126 
    -211     -383     -687    -1013    -1127     -985     -792     -742 
    -789     -799     -749     -658     -546     -486     -513     -511 
    -380     -236     -167     -118     -151     -314     -515     -745 
   -1009    -1196    -1231    -1120     -904     -688     -465     -156 
      74       87       13      -45      -70      -41      -40     -143 
    -322     -521     -700     -842     -961    -1054    -1050     -942 
    -815     -731     -729     -718     -546     -344     -297     -329 
    -379     -483     -611     -764     -999    -1256    -1413    -1425 
   -1266     -945     -554     -178      122      233      113      -81 
    -264     -469     -608     -635     -616     -568     -530     -562 
    -680     -881    -1078    -1190    -1243    -1251    -1129     -839 
    -492     -160      175      417      441      286       82     -164 
    -567    -1059    -1414    -1471    -1221     -768     -218      342 
     814     1112     1108      757      207     -413     -953    -1158 
    -981     -696     -607     -830    -1285    -1725    -1853    -1532 
    -870      -67      661     1069     1030      565     -122     -662 
    -835     -758     -665     -641     -664     -776     -978    -1143 
   -1163    -1021     -764     -434      -56      230      245       29 
    -191     -276     -252     -292     -633    -1298    -2083    -2774 
   -3291    -3624    -3626    -3091    -1925     -236     1524     2798 
    3306     3006     2030      768     -284     -874    -1001     -791 
    -513     -407     -542     -845    -1117    -1175     -905     -318 
     384      988     1414     1672     1703     1347      612     -256 
   -1001    -1536    -1956    -2376    -2929    -3627    -4167    -4365 
   -4299    -3901    -3045    -1844     -477      834     1787     2243 
    2265     1939     1370      641     -152     -911    -1539    -1837 
   -1614     -926       86     1343     2623     3611     3960     3368 
    1957      149    -1742    -3327    -4185    -4275    -3801    -2867 
   -1597     -368      388      518      162     -410    -1057    -1671 
   -2069    -2154    -1915    -1432     -880     -406     -103       32 
     144      336      554      662      576      382      253      259 
     326      414      448      229     -317    -1044    -1740    -2254 
   -2582    -2733    -2608    -2226    -1799    -1389     -831     -118 
     472      710      643      467      252      -45     -464     -967 
   -1428    -1755    -1941    -1966    -1818    -1526    -1159     -738 
    -171      521     1146     1579     1858     2060     2165     2091 
    1858     1513     1030      363     -450    -1244    -1849    -2215 
   -2336    -2254    -2052    -1744    -1233     -448      527     1435 
    2020     2157     1814     1082      124     -919    -2018    -3188 
   -4322    -5279    -5931    -6079    -5557    -4417    -2943    -1455 
     -81     1213     2404     3318     3778     3730     3191     2357 
    1571     1011      646      380       89     -263     -670    -1197 
   -1829    -2385    -2675    -2598    -2207    -1638     -959     -260 
     265      525      569      475      353      314      388      442 
     211     -378    -1100    -1752    -2274    -2632    -2844    -2976 
   -2947    -2587    -1906    -1012       14     1075     2038     2731 
    2988     2786     2162     1174      -36    -1225    -2170    -2868 
   -3345    -3501    -3329    -2899    -2273    -1505     -723     -120 
     203      230      -48     -526     -957    -1148    -1173    -1223 
   -1337    -1351    -1038     -334      626     1638     2420     2664 
    2234     1312      328     -432    -1061    -1668    -2092    -2212 
   -2169    -2111    -1941    -1529     -853       48      990     1799 
    2457     2871     2928     2605     1929     1050       76    -1026 
   -2195    -3238    -3966    -4241    -3956    -3096    -1822     -479 
     521      993     1026      692      129     -361     -666     -908 
   -1119    -1178     -994     -654     -411     -444     -719    -1101 
   -1449    -1648    -1721    -1798    -1895    -1872    -1622    -1161 
    -571       25      483      688      611      274     -224     -729 
   -1156    -1417    -1409    -1113     -515      337     1220     1798 
    1885     1505      795       25     -560     -916    -1128    -1233 
   -1162     -862     -378      101      365      365      180      -74 
    -287     -453     -676     -988    -1317    -1566    -1647    -1587 
   -1445    -1225     -988     -788     -571     -284        1      105 
     -45     -317     -614     -942    -1263    -1490    -1574    -1553 
   -1503    -1441    -1286     -974     -561     -195       49      244 
     426      514      450      270       17     -282     -540     -660 
    -623     -436     -117      217      407      346       85     -199 
    -334     -225       55      338      515      496      179     -429 
   -1150    -1763    -2177    -2397    -2378    -2046    -1476     -913 
    -525     -274      -83      -32     -214     -494     -681     -760 
    -814     -916    -1069    -1212    -1290    -1271    -1108     -796 
    -441     -102      252      544      656      638      598      545 
     382       63     -265     -496     -711     -901     -943     -862 
    -788     -776     -855    -1009    -1150    -1190    -1023     -553 
     122      765     1188     1300     1043      433     -403    -1237 
   -1796    -1930    -1713    -1399    -1248    -1313    -1443    -1521 
   -1576    -1594    -1497    -1236     -814     -292      209      560 
     677      626      535      454      345      144     -187     -635 
   -1161    -1709    -2185    -2496    -2552    -2259    -1656     -977 
    -461     -182      -47      -10      -44       10      252      614 
     916      977      749      255     -414    -1032    -1428    -1597 
   -1599    -1483    -1256     -967     -673     -384      -81      267 
     584      700      575      311       36     -190     -442     -776 
   -1105    -1382    -1634    -1782    -1651    -1189     -557       39 
     491      751      785      556       68     -544    -1080    -1417 
   -1593    -1652    -1595    -1464    -1278     -989     -565      -52 
     450      834     1016     1013      866      596      256     -162 
    -692    -1248    -1744    -2155    -2442    -2523    -2340    -1989 
   -1578    -1085     -499      141      731     1096     1221     1252 
    1258     1171      940      583      135     -364     -905    -1422 
   -1814    -2097    -2276    -2272    -2070    -1736    -1329     -885 
    -457     -116      153      396      545      550      423      148 
    -288     -803    -1212    -1408    -1467    -1451    -1340    -1150 
    -927     -669     -364      -66      176      367      468      450 
     309       63     -207     -445     -616     -712     -810     -942 
    -965     -805     -622     -508     -413     -319     -321     -507 
    -795    -1054    -1273    -1459    -1580    -1591    -1491    -1385 
   -1309    -1167     -936     -681     -463     -290     -114      129 
     514     1035     1529     1821     1857     1690     1399     1038 
     610      112     -371     -758    -1055    -1269    -1391    -1420 
   -1321    -1151    -1074    -1185    -1418    -1657    -1845    -1980 
   -2065    -2087    -2019    -1846    -1610    -1417    -1323    -1243 
   -1055     -720     -284      140      496      761      881      864 
     783      652      432      130     -191     -490     -731     -897 
   -1011    -1084    -1090     -989     -727     -338       74      450 
     696      712      525      216      -97     -290     -369     -394 
    -394     -382     -392     -557     -984    -1586    -2174    -2608 
   -2814    -2749    -2362    -1741    -1097     -492       58      457 
     645      584      291     -145     -627    -1020    -1236    -1300 
   -1248    -1112     -946     -774     -552     -205      248      708 
    1024     1071      901      611      225     -206     -595     -888 
   -1098    -1285    -1471    -1588    -1578    -1448    -1247    -1016 
    -756     -445     -117      143      287      383      553      780 
     915      886      679      295     -159     -548     -818    -1003 
   -1120    -1151    -1138    -1139    -1175    -1248    -1274    -1181 
    -996     -761     -477     -140      194      390      371      172 
    -143     -544     -984    -1351    -1540    -1545    -1435    -1271 
   -1069     -858     -680     -556     -494     -490     -568     -720 
    -845     -862     -832     -838     -834     -683     -355      -35 
     117      118       14      -97     -129     -125     -133     -156 
