Origin Time       2025/03/28 03:50:00
Lat.              35.403
Long.             140.360
Depth. (km)       54
Mag.              4.4
Station Code      TKY009
Station Lat.      34.6867
Station Long.     139.4410
Station Height(m) 53
Record Time       2025/03/28 03:51:10
Sampling Freq(Hz) 100Hz
Duration Time(s)  60
Dir.              E-W
Scale Factor      7845(gal)/8223790
Max. Acc. (gal)   2.300
Last Correction   2025/03/28 03:51:10
Memo.             
[...]
   -9448    -9471    -9463    -9406    -9455    -9474    -9421    -9463 
   -9458    -9417    -9467    -9486    -9451    -9423    -9439    -9456 
   -9451    -9445    -9421    -9466    -9486    -9404    -9452    -9483 
   -9396    -9447    -9482    -9433    -9435    -9424    -9477    -9466 
   -9378    -9463    -9497    -9414    -9429    -9429    -9456    -9514 
   -9436    -9391    -9448    -9444    -9455    -9477    -9425    -9437 
   -9456    -9421    -9448    -9464    -9456    -9467    -9448    -9413 
   -9431    -9495    -9459    -9400    -9460    -9483    -9454    -9428 
   -9414    -9478    -9493    -9424    -9440    -9479    -9454    -9429 
   -9432    -9468    -9497    -9437    -9398    -9466    -9502    -9440 
   -9390    -9454    -9525    -9464    -9396    -9409    -9454    -9520 
   -9509    -9381    -9342    -9505    -9586    -9416    -9328    -9435 
   -9548    -9537    -9374    -9346    -9490    -9529    -9452    -9373 
   -9417    -9535    -9520    -9424    -9367    -9429    -9549    -9487 
   -9378    -9424    -9470    -9487    -9481    -9417    -9428    -9471 
   -9448    -9412    -9454    -9522    -9445    -9373    -9481    -9522 
   -9460    -9429    -9396    -9425    -9471    -9443    -9431    -9402 
   -9390    -9466    -9479    -9472    -9549    -9522    -9393    -9383 
   -9512    -9607    -9487    -9310    -9356    -9495    -9505    -9436 
   -9412    -9444    -9526    -9547    -9400    -9359    -9460    -9459 
   -9463    -9406    -9231    -9273    -9489    -9640    -9661    -9486 
   -9346    -9441    -9545    -9594    -9639    -9458    -9143    -9121 
   -9339    -9517    -9566    -9377    -9155    -9267    -9533    -9617 
   -9622    -9687    -9626    -9387    -9262    -9409    -9706    -9850 
   -9671    -9360    -9092    -9030    -9308    -9726    -9944    -9639 
   -9005    -8714    -9107    -9909   -10309    -9886    -9076    -8573 
   -8910    -9729   -10199   -10066    -9504    -9153    -9323    -9516 
   -9688    -9817    -9536    -9108    -8846    -8698    -8789    -9256 
   -9745    -9707    -9292    -9117    -9333    -9724   -10089   -10206 
   -9869    -9324    -9208    -9657    -9929    -9379    -8623    -8599 
   -9077    -9486    -9625    -9393    -9150    -9317    -9715   -10058 
  -10233   -10091    -9649    -9271    -9256    -9397    -9468    -9659 
   -9782    -9335    -8542    -8191    -8769    -9883   -10566   -10303 
   -9410    -8641    -8572    -9273   -10222   -10561    -9937    -8860 
   -8217    -8599    -9691   -10540   -10579    -9921    -9005    -8429 
   -8621    -9585   -10605   -10534    -9436    -8603    -8588    -8989 
   -9514   -10079   -10301    -9818    -8950    -8544    -9070    -9945 
  -10273    -9979    -9463    -8918    -8694    -9124    -9668    -9733 
   -9563    -9359    -9138    -9074    -9086    -9147    -9548   -10085 
  -10030    -9315    -8849    -9115    -9659   -10131   -10214    -9645 
   -8997    -8901    -9171    -9360    -9468    -9647    -9663    -9471 
   -9346    -9127    -8814    -9051    -9926   -10450    -9973    -9196 
   -8810    -8851    -9450   -10215   -10405    -9919    -9023    -8371 
   -8588    -9412   -10204   -10449    -9930    -9031    -8463    -8691 
   -9517   -10346   -10503    -9724    -8937    -8900    -9140    -9425 
   -9856   -10106    -9913    -9271    -8561    -8521    -9308   -10193 
  -10411    -9687    -8522    -8163    -9042   -10126   -10540   -10158 
   -9313    -8872    -9113    -9447    -9861   -10384   -10172    -9047 
   -8100    -8182    -9082    -9946   -10110    -9749    -9464    -9342 
   -9231    -9369    -9821   -10112    -9923    -9491    -9178    -8981 
   -8834    -9139    -9869   -10075    -9459    -8829    -8796    -9271 
   -9713    -9809    -9813    -9856    -9656    -9266    -9316    -9726 
   -9701    -9335    -9212    -9297    -9248    -9100    -9313    -9694 
   -9563    -9139    -9099    -9607   -10085    -9953    -9621    -9504 
   -9342    -9139    -9096    -9178    -9421    -9694    -9657    -9543 
   -9580    -9410    -9266    -9591    -9815    -9590    -9238    -9049 
   -9405    -9818    -9562    -9243    -9127    -8951    -9228    -9814 
   -9875    -9579    -9371    -9220    -9159    -9150    -9265    -9705 
  -10014    -9694    -9058    -8731    -9082    -9729    -9980    -9826 
   -9427    -9031    -9126    -9528    -9841    -9952    -9684    -9317 
   -9202    -9116    -9073    -9271    -9559    -9802    -9814    -9549 
   -9346    -9188    -9121    -9474    -9825    -9653    -9344    -9204 
   -9127    -9375    -9895   -10108    -9913    -9450    -8993    -8953 
   -9186    -9401    -9651    -9868    -9814    -9432    -9055    -9035 
   -9211    -9509    -9950   -10069    -9648    -8953    -8642    -9255 
   -9936    -9921    -9671    -9394    -9119    -9038    -9240    -9634 
   -9682    -9410    -9336    -9254    -9184    -9447    -9753    -9907 
   -9801    -9418    -9252    -9315    -9323    -9390    -9381    -9304 
   -9398    -9404    -9217    -9232    -9450    -9582    -9748    -9960 
   -9859    -9363    -8872    -8857    -9408   -10042   -10080    -9518 
   -9004    -8785    -8939    -9580   -10162   -10158    -9609    -8876 
   -8727    -9347    -9936   -10030    -9749    -9266    -8838    -8789 
   -9256    -9834    -9967    -9693    -9379    -9223    -9259    -9447 
   -9634    -9583    -9348    -9250    -9315    -9475    -9641    -9458 
   -9134    -9221    -9437    -9556    -9848    -9963    -9590    -9343 
   -9562    -9794    -9736    -9425    -9000    -8839    -9209    -9690 
   -9725    -9467    -9374    -9378    -9248    -9279    -9553    -9651 
   -9514    -9417    -9391    -9293    -9244    -9363    -9563    -9780 
   -9691    -9254    -9005    -9220    -9656    -9838    -9703    -9477 
   -9197    -9212    -9571    -9801    -9774    -9459    -9123    -9162 
   -9385    -9647    -9786    -9552    -9232    -9166    -9320    -9517 
   -9660    -9674    -9431    -9155    -9236    -9558    -9714    -9614 
   -9405    -9147    -9094    -9420    -9736    -9792    -9580    -9316 
   -9404    -9491    -9310    -9271    -9294    -9308    -9516    -9691 
   -9632    -9506    -9435    -9331    -9348    -9614    -9725    -9640 
   -9591    -9431    -9293    -9342    -9413    -9456    -9455    -9448 
   -9462    -9378    -9238    -9186    -9351    -9740    -9944    -9747 
   -9390    -9103    -9147    -9440    -9582    -9621    -9587    -9289 
   -9058    -9224    -9498    -9682    -9726    -9532    -9369    -9517 
   -9660    -9358    -8965    -9174    -9741    -9971    -9745    -9279 
   -8899    -8930    -9273    -9710    -9988    -9742    -9321    -9181 
   -9262    -9601    -9756    -9468    -9374    -9397    -9255    -9315 
   -9501    -9624    -9709    -9655    -9533    -9337    -9135    -9277 
   -9583    -9605    -9544    -9633    -9560    -9313    -9248    -9335 
   -9463    -9625    -9639    -9406    -9090    -9103    -9512    -9752 
   -9694    -9614    -9378    -9089    -9107    -9362    -9728    -9900 
   -9686    -9435    -9180    -9080    -9420    -9730    -9753    -9541 
   -9105    -8927    -9202    -9517    -9653    -9630    -9533    -9486 
   -9417    -9315    -9497    -9856    -9873    -9649    -9454    -9223 
   -9107    -9134    -9182    -9389    -9583    -9502    -9329    -9321 
   -9512    -9576    -9451    -9560    -9717    -9535    -9315    -9336 
   -9456    -9547    -9617    -9544    -9360    -9294    -9304    -9351 
   -9406    -9413    -9454    -9486    -9553    -9537    -9301    -9274 
   -9498    -9510    -9331    -9317    -9505    -9495    -9271    -9242 
   -9451    -9706    -9761    -9545    -9297    -9266    -9452    -9594 
   -9688    -9751    -9431    -9023    -9059    -9328    -9537    -9544 
   -9447    -9491    -9479    -9316    -9278    -9460    -9657    -9555 
   -9323    -9317    -9375    -9402    -9529    -9626    -9493    -9262 
   -9255    -9440    -9593    -9663    -9655    -9518    -9300    -9193 
   -9316    -9655    -9937    -9675    -9136    -9055    -9335    -9570 
   -9690    -9559    -9223    -9076    -9321    -9730    -9898    -9718 
   -9435    -9290    -9308    -9336    -9436    -9709    -9837    -9601 
   -9273    -9221    -9379    -9428    -9445    -9485    -9379    -9293 
   -9333    -9413    -9563    -9648    -9564    -9481    -9485    -9501 
   -9418    -9263    -9196    -9296    -9487    -9548    -9435    -9348 
   -9344    -9391    -9467    -9525    -9521    -9450    -9510    -9661 
   -9551    -9286    -9292    -9536    -9576    -9393    -9324    -9333 
   -9354    -9525    -9828    -9967    -9601    -9000    -8872    -9336 
   -9817    -9811    -9445    -9171    -9166    -9302    -9520    -9756 
   -9729    -9501    -9356    -9321    -9410    -9483    -9508    -9640 
   -9620    -9387    -9283    -9317    -9267    -9151    -9228    -9485 
   -9733    -9802    -9508    -9211    -9300    -9502    -9612    -9668 
   -9583    -9377    -9250    -9337    -9532    -9556    -9406    -9304 
   -9369    -9555    -9593    -9445    -9440    -9603    -9660    -9537 
   -9427    -9405    -9394    -9470    -9582    -9526    -9347    -9244 
   -9321    -9471    -9460    -9293    -9252    -9433    -9590    -9585 
   -9609    -9625    -9420    -9315    -9435    -9509    -9587    -9568 
   -9417    -9305    -9161    -9155    -9431    -9702    -9629    -9323 
   -9324    -9605    -9752    -9734    -9602    -9374    -9139    -9134 
   -9412    -9622    -9613    -9458    -9282    -9274    -9336    -9433 
   -9679    -9732    -9414    -9180    -9356    -9722    -9776    -9463 
   -9305    -9460    -9562    -9444    -9396    -9543    -9563    -9408 
   -9324    -9352    -9408    -9405    -9394    -9420    -9387    -9402 
   -9464    -9389    -9350    -9400    -9389    -9524    -9813    -9871 
   -9518    -9085    -9090    -9339    -9412    -9385    -9266    -9207 
   -9364    -9518    -9644    -9737    -9599    -9354    -9387    -9612 
   -9598    -9494    -9497    -9348    -9150    -9178    -9336    -9482 
   -9556    -9526    -9467    -9490    -9471    -9306    -9282    -9459 
   -9516    -9459    -9445    -9502    -9595    -9499    -9278    -9288 
   -9408    -9524    -9688    -9610    -9355    -9262    -9232    -9364 
   -9697    -9695    -9401    -9277    -9256    -9305    -9477    -9595 
   -9648    -9560    -9248    -9146    -9444    -9734    -9782    -9675 
   -9520    -9324    -9188    -9290    -9420    -9370    -9373    -9421 
   -9414    -9580    -9736    -9593    -9495    -9486    -9346    -9317 
   -9394    -9408    -9466    -9560    -9593    -9551    -9482    -9325 
   -9182    -9386    -9672    -9613    -9424    -9354    -9485    -9663 
   -9648    -9543    -9364    -9275    -9452    -9541    -9413    -9190 
   -9077    -9340    -9715    -9787    -9529    -9317    -9425    -9558 
   -9587    -9599    -9467    -9371    -9405    -9367    -9366    -9406 
   -9332    -9258    -9317    -9468    -9508    -9423    -9427    -9425 
   -9366    -9455    -9626    -9649    -9502    -9331    -9352    -9559 
   -9601    -9454    -9370    -9348    -9409    -9576    -9697    -9703 
   -9610    -9498    -9383    -9188    -9184    -9452    -9651    -9652 
   -9432    -9198    -9239    -9454    -9647    -9537    -9228    -9250 
   -9489    -9566    -9571    -9632    -9634    -9497    -9294    -9240 
   -9408    -9526    -9483    -9382    -9251    -9177    -9181    -9344 
   -9655    -9848    -9830    -9533    -9116    -9059    -9333    -9612 
   -9687    -9420    -9239    -9451    -9660    -9702    -9625    -9485 
   -9398    -9332    -9327    -9379    -9451    -9478    -9423    -9590 
   -9807    -9745    -9679    -9528    -9256    -9213    -9281    -9315 
   -9389    -9425    -9346    -9290    -9393    -9447    -9424    -9502 
   -9518    -9443    -9358    -9294    -9439    -9571    -9543    -9548 
   -9510    -9445    -9387    -9385    -9498    -9437    -9248    -9159 
   -9266    -9628    -9829    -9701    -9560    -9402    -9285    -9385 
   -9520    -9548    -9548    -9525    -9460    -9397    -9360    -9356 
   -9390    -9367    -9293    -9364    -9526    -9620    -9624    -9493 
   -9431    -9544    -9544    -9423    -9397    -9406    -9333    -9285 
   -9389    -9593    -9734    -9674    -9464    -9261    -9219    -9425 
   -9668    -9682    -9472    -9275    -9328    -9524    -9548    -9466 
   -9518    -9482    -9212    -9105    -9382    -9713    -9571    -9050 
   -8860    -9131    -9423    -9613    -9695    -9606    -9505    -9532 
   -9710    -9868    -9774    -9625    -9543    -9390    -9207    -9167 
   -9350    -9445    -9390    -9369    -9301    -9340    -9479    -9524 
   -9568    -9556    -9444    -9351    -9386    -9603    -9787    -9713 
   -9477    -9269    -9121    -9119    -9325    -9549    -9618    -9516 
   -9381    -9440    -9656    -9713    -9563    -9487    -9416    -9305 
   -9405    -9454    -9290    -9265    -9390    -9505    -9517    -9445 
   -9400    -9316    -9231    -9238    -9244    -9356    -9653    -9801 
   -9664    -9517    -9443    -9545    -9798    -9867    -9771    -9520 
   -9078    -8895    -9158    -9472    -9524    -9296    -8946    -8803 
   -8970    -9309    -9710    -9717    -9251    -8916    -8905    -9259 
   -9778    -9998    -9977    -9751    -9537    -9801   -10181   -10183 
   -9910    -9809   -10089   -10265   -10183   -10126    -9937    -9598 
   -9325    -9192    -9138    -8851    -8345    -8016    -7963    -8131 
   -8517    -8964    -9256    -9343    -9306    -9347    -9640   -10127 
  -10547   -10532   -10085    -9514    -8862    -8394    -8301    -8256 
   -8230    -8334    -8571    -8991    -9636   -10542   -11412   -11861 
  -11673   -10806    -9798    -9256    -9082    -9012    -8916    -8596 
   -8120    -7879    -8252    -9238   -10076   -10081    -9728    -9845 
  -10485   -11053   -11029   -10466    -9667    -9011    -8986    -9560 
  -10120   -10154    -9656    -9142    -9073    -9297    -9458    -9602 
   -9782    -9690    -9292    -8957    -8851    -8969    -9136    -9036 
   -8837    -8665    -8526    -8881    -9487    -9702    -9598    -9300 
   -9070    -9004    -8776    -8703    -9154    -9748   -10253   -10720 
  -10847   -10450   -10041   -10145   -10621   -10832   -10316    -9238 
   -8114    -7533    -7835    -8635    -9165    -9116    -8823    -8721 
   -9011    -9771   -10654   -11002   -10652    -9817    -8775    -8187 
   -8648    -9790   -10673   -10859   -10493    -9790    -9111    -8927 
   -9212    -9433    -9143    -8419    -8059    -8733    -9926   -10647 
  -10585    -9934    -9088    -8503    -8459    -8946    -9432    -9445 
   -9238    -9109    -9171    -9683   -10600   -11306   -11047    -9794 
   -8467    -7893    -8253    -9123    -9788    -9852    -9332    -8806 
   -9049    -9891   -10261    -9614    -8623    -8237    -8684    -9445 
   -9860    -9786    -9697    -9821    -9728    -9270    -8819    -8760 
   -9277    -9957   -10318   -10467   -10411    -9996    -9328    -8781 
   -8815    -9312    -9792    -9931    -9468    -8699    -8407    -8897 
   -9688    -9904    -9221    -8252    -7869    -8629   -10134   -11198 
  -11114   -10095    -8892    -8286    -8579    -9456   -10125    -9971 
   -9302    -9026    -9628   -10642   -11099   -10451    -9053    -7893 
   -7825    -8816    -9910   -10206    -9780    -9374    -9509   -10087 
  -10540   -10320    -9532    -8932    -8943    -9437    -9869    -9616 
   -9177    -9300    -9667    -9979   -10099    -9752    -9174    -8804 
   -8915    -9378    -9672    -9755    -9741    -9383    -8912    -8695 
   -8525    -8410    -8519    -8872    -9518   -10010    -9988    -9786 
   -9690    -9918   -10242   -10006    -9246    -8422    -8105    -8773 
   -9950   -10642   -10382    -9621    -9170    -9229    -9425    -9355 
   -8953    -8633    -8873    -9601   -10188   -10316   -10241   -10146 
   -9964    -9504    -8783    -8328    -8676    -9594   -10120    -9821 
   -9331    -8999    -8787    -8897    -8953    -8588    -8409    -8927 
   -9915   -10667   -10758   -10447   -10015    -9695    -9579    -9366 
   -9036    -8888    -8976    -9113    -9182    -9355    -9610    -9814 
  -10184   -10550   -10417    -9884    -9363    -9267    -9733   -10162 
   -9953    -9123    -8186    -7932    -8561    -9539   -10057    -9543 
   -8684    -8552    -9231   -10062   -10247    -9815    -9370    -9166 
   -9302    -9765   -10268   -10320    -9833    -9455    -9413    -9250 
   -8938    -8785    -8827    -8927    -8951    -9046    -9466   -10004 
  -10230   -10084    -9655    -9051    -8721    -8896    -9375    -9853 
   -9814    -9346    -9196    -9528    -9983   -10058    -9713    -9639 
   -9837    -9713    -9467    -9456    -9400    -9223    -9171    -9135 
   -9047    -9117    -9359    -9510    -9315    -8943    -8784    -8900 
   -9144    -9216    -9004    -8924    -9171    -9445    -9747   -10204 
  -10462   -10355   -10173    -9999    -9883    -9811    -9468    -9055 
   -9070    -9262    -9261    -9228    -9350    -9645    -9899    -9783 
   -9398    -9031    -8919    -9147    -9394    -9570    -9701    -9494 
   -9104    -8896    -9093    -9783   -10388   -10453   -10003    -9350 
   -9231    -9667   -10004   -10037    -9724    -9150    -8758    -8881 
   -9339    -9599    -9275    -8668    -8398    -8592    -9143    -9875 
  -10201    -9810    -9235    -9043    -9254    -9591    -9756    -9612 
   -9238    -8891    -8907    -9378   -10026   -10392   -10243    -9790 
   -9305    -9081    -9252    -9495    -9603    -9504    -9297    -9251 
   -9234    -9339    -9674    -9779    -9572    -9211    -8784    -8617 
   -8905    -9532   -10017    -9983    -9618    -9247    -9238    -9715 
  -10145   -10052    -9591    -9205    -9190    -9544    -9987   -10137 
   -9810    -9202    -8758    -8706    -8958    -9229    -9194    -9032 
   -9136    -9598   -10323   -10778   -10434    -9517    -8718    -8622 
   -9289   -10095   -10270    -9899    -9543    -9225    -9084    -9251 
   -9394    -9402    -9229    -8939    -8804    -8941    -9483   -10173 
  -10381    -9987    -9201    -8550    -8731    -9437    -9919    -9848 
   -9181    -8638    -8785    -9288    -9828   -10048    -9744    -9362 
   -9339    -9628    -9829    -9645    -9217    -8970    -9028    -9139 
   -9266    -9323    -9209    -9285    -9567    -9742    -9772    -9490 
   -9089    -9119    -9499    -9954   -10241   -10038    -9509    -9096 
   -9065    -9283    -9363    -9312    -9375    -9598    -9765    -9787 
   -9753    -9528    -9242    -9109    -8981    -9026    -9425    -9873 
  -10157   -10249   -10191   -10085    -9769    -9333    -9157    -9078 
   -8999    -9047    -9174    -9441    -9690    -9711    -9521    -9282 
   -9414    -9760    -9736    -9374    -9022    -8872    -8957    -9194 
   -9485    -9670    -9593    -9328    -9165    -9236    -9417    -9590 
   -9639    -9509    -9331    -9213    -9157    -9178    -9278    -9427 
   -9590    -9655    -9520    -9386    -9587    -9981   -10188   -10174 
   -9883    -9371    -9046    -9059    -9286    -9433    -9231    -8941 
   -8858    -9050    -9617   -10219   -10432   -10152    -9547    -9207 
   -9205    -9273    -9464    -9551    -9486    -9396    -9182    -9080 
   -9190    -9386    -9582    -9464    -9054    -8842    -9028    -9404 
   -9718    -9884    -9871    -9711    -9593    -9568    -9602    -9655 
   -9601    -9495    -9414    -9364    -9400    -9362    -9261    -9312 
   -9427    -9462    -9306    -9066    -9081    -9305    -9593    -9807 
