Origin Time       2025/03/28 03:50:00
Lat.              35.403
Long.             140.360
Depth. (km)       54
Mag.              4.4
Station Code      TKY031
Station Lat.      35.6789
Station Long.     139.7070
Station Height(m) 29
Record Time       2025/03/28 03:50:53
Sampling Freq(Hz) 100Hz
Duration Time(s)  70
Dir.              U-D
Scale Factor      7845(gal)/8223790
Max. Acc. (gal)   3.316
Last Correction   2025/03/28 03:50:53
Memo.             
[...]
    7029     7026     7028     7037     7047     7047     7038     7030 
    7032     7047     7056     7052     7029     7007     7025     7045 
    7030     7024     7034     7033     7018     7020     7033     7021 
    7001     7024     7055     7057     7052     7042     7034     7028 
    7017     7021     7028     7015     7013     7033     7042     7036 
    7044     7057     7052     7036     7020     7003     7006     7040 
    7060     7034     7013     7024     7030     7025     7025     7021 
    7017     7026     7042     7042     7030     7025     7028     7040 
    7047     7030     7017     7025     7032     7037     7048     7048 
    7038     7029     7021     7020     7020     7028     7038     7037 
    7037     7036     7034     7037     7026     7021     7032     7028 
    7014     7022     7045     7059     7051     7037     7041     7045 
    7032     7014     7010     7028     7048     7042     7021     7022 
    7042     7048     7037     7024     7014     7022     7037     7042 
    7048     7042     7026     7029     7041     7032     7025     7041 
    7052     7041     7024     7017     7021     7025     7024     7025 
    7033     7033     7020     7018     7034     7038     7036     7042 
    7044     7038     7037     7037     7038     7034     7025     7028 
    7038     7045     7044     7037     7037     7045     7044     7033 
    7030     7032     7032     7028     7030     7040     7040     7028 
    7029     7049     7051     7034     7029     7036     7049     7053 
    7040     7034     7028     7022     7029     7026     7025     7034 
    7040     7047     7044     7030     7029     7036     7041     7042 
    7036     7029     7026     7020     7021     7038     7055     7063 
    7048     7028     7029     7028     7022     7042     7052     7036 
    7040     7045     7038     7041     7042     7034     7029     7026 
    7025     7029     7038     7040     7024     7014     7022     7033 
    7045     7049     7041     7038     7030     7020     7030     7049 
    7047     7025     7014     7036     7052     7034     7022     7028 
    7030     7028     7026     7029     7032     7026     7029     7036 
    7028     7021     7024     7034     7051     7045     7017     7014 
    7038     7044     7034     7028     7024     7028     7034     7041 
    7045     7040     7030     7022     7025     7034     7025     7014 
    7033     7051     7033     7011     7021     7028     7025     7028 
    7029     7042     7057     7048     7041     7041     7021     7001 
    7013     7038     7037     7025     7032     7048     7044     7024 
    7011     7026     7047     7042     7022     7015     7020     7025 
    7033     7044     7047     7041     7038     7044     7044     7033 
    7025     7026     7037     7048     7048     7051     7059     7048 
    7020     7005     7001     7003     7022     7041     7036     7026 
    7030     7038     7042     7038     7028     7024     7033     7038 
    7041     7042     7042     7048     7056     7052     7042     7040 
    7025     7009     7010     7020     7030     7036     7038     7047 
    7049     7040     7028     7017     7014     7021     7032     7040 
    7041     7036     7029     7036     7045     7042     7034     7042 
    7055     7049     7033     7029     7040     7053     7049     7018 
    6998     7010     7028     7045     7053     7037     7024     7017 
    7015     7026     7032     7029     7038     7055     7057     7041 
    7029     7025     7025     7024     7028     7042     7049     7042 
    7032     7014     7007     7024     7037     7034     7036     7040 
    7029     7018     7020     7025     7029     7044     7061     7072 
    7114     7194     7250     7245     7160     7015     6933     7021 
    7283     7587     7677     7327     6582     5891     5837     6542 
    7396     7659     7325     6955     6825     6804     6831     6894 
    6887     6917     7229     7641     7635     7026     6193     5740 
    6083     7086     7911     7855     7334     7179     7389     7377 
    6882     6261     6154     6725     7400     7608     7406     7195 
    7182     7299     7375     7172     6681     6435     6814     7388 
    7520     7094     6555     6590     7290     7705     7078     6116 
    6026     6781     7454     7564     7292     7105     7357     7686 
    7388     6656     6258     6295     6496     6874     7296     7522 
    7628     7650     7431     7113     6936     6818     6768     7015 
    7237     6898     6453     6648     7149     7354     7410     7391 
    7130     6899     6791     6482     6226     6562     7334     7916 
    7886     7284     6596     6361     6655     7132     7492     7584 
    7291     6859     6777     6918     6802     6617     6816     7167 
    7214     7091     7160     7415     7554     7331     6810     6318 
    6210     6636     7380     7867     7739     7306     6955     6700 
    6566     6592     6646     6752     7063     7518     7824     7608 
    6967     6627     6867     7063     6851     6644     6768     7053 
    7273     7288     7095     6988     7057     6967     6743     6794 
    7053     7164     7159     7168     7099     7038     7113     7061 
    6885     7090     7582     7593     6975     6413     6493     7063 
    7395     7076     6619     6666     7015     7142     7033     6879 
    6817     7095     7599     7743     7430     7117     6909     6633 
    6412     6430     6690     7117     7541     7732     7577     7261 
    7075     6987     6809     6586     6446     6421     6554     6809 
    7114     7480     7765     7666     7218     6808     6700     6856 
    7021     6984     6886     6961     7149     7273     7294     7275 
    7269     7249     7141     6894     6548     6366     6625     7183 
    7591     7549     7173     6912     7001     7172     7083     6779 
    6594     6775     7125     7184     6976     6982     7269     7433 
    7215     6754     6454     6632     7063     7267     7175     7052 
    7082     7213     7226     7065     6936     6921     6871     6856 
    7149     7570     7581     7132     6687     6547     6659     6866 
    7011     7014     6990     7088     7159     7042     6967     7129 
    7371     7446     7233     6878     6673     6631     6635     6764 
    7032     7283     7477     7576     7437     7121     6821     6552 
    6378     6511     6932     7330     7485     7456     7392     7339 
    7283     7122     6747     6411     6507     6909     7149     7071 
    6924     6997     7249     7408     7389     7281     7122     7001 
    6895     6632     6440     6718     7267     7569     7419     7005 
    6683     6662     6909     7280     7520     7514     7439     7311 
    6956     6552     6392     6450     6616     6841     7040     7206 
    7368     7342     7022     6729     6814     7206     7566     7628 
    7342     6988     6901     6926     6764     6598     6693     6978 
    7229     7199     6982     7025     7396     7653     7516     7082 
    6654     6552     6766     6963     6920     6744     6716     6894 
    7051     7123     7318     7643     7862     7776     7327     6778 
    6484     6438     6434     6378     6349     6578     7123     7663 
    7774     7361     6893     6879     7091     7061     6917     6928 
    6991     7075     7265     7314     7030     6778     6882     7128 
    7182     6984     6783     6828     7002     7063     7036     7078 
    7187     7223     7175     7167     7130     6953     6849     6997 
    7160     7149     7045     6929     6791     6662     6682     6889 
    7067     7099     7119     7163     7119     6974     6832     6813 
    6909     6998     7132     7407     7573     7429     7258     7245 
    7180     6968     6763     6631     6563     6624     6853     7210 
    7569     7635     7329     7071     7078     7030     6801     6632 
    6671     6887     7095     7105     7033     7091     7188     7142 
    6947     6739     6754     7052     7257     7024     6691     6832 
    7222     7198     6858     6793     7094     7406     7457     7254 
    6990     6810     6740     6697     6601     6644     7053     7572 
    7749     7601     7383     7061     6633     6482     6779     7132 
    7279     7304     7264     7250     7319     7202     6778     6500 
    6629     6791     6849     7105     7446     7427     7001     6531 
    6446     6889     7489     7709     7470     7145     6975     6848 
    6654     6554     6740     7110     7348     7261     7055     7057 
    7144     6949     6579     6477     6772     7177     7385     7344 
    7210     7186     7248     7231     7173     7095     6831     6548 
    6686     7084     7203     7084     7121     7339     7499     7385 
    6963     6531     6480     6763     6982     7025     7103     7285 
    7414     7269     6909     6762     6980     7175     7114     7009 
    6966     6880     6862     7048     7253     7344     7307     7001 
    6484     6184     6426     7086     7685     7812     7484     7065 
    6832     6797     6862     6831     6679     6756     7155     7469 
    7496     7406     7272     7098     6982     6941     6921     6953 
    7005     6934     6851     6980     7141     7061     6897     6814 
    6759     6797     6967     7095     7056     6876     6754     6941 
    7303     7487     7507     7522     7446     7176     6797     6617 
    6824     7080     7076     6976     6922     6887     6905     6913 
    6795     6739     7059     7565     7636     7198     6831     6829 
    7022     7249     7392     7418     7377     7122     6647     6426 
    6605     6768     6812     6932     7071     7126     7141     7086 
    6949     6932     7146     7407     7497     7285     6771     6369 
    6509     6961     7294     7462     7500     7376     7221     7114 
    6916     6639     6577     6810     7069     7128     7021     6934 
    6928     6920     6987     7184     7283     7137     6978     7045 
    7206     7173     7013     6957     6974     6949     6925     6898 
    6832     6816     6933     7117     7191     7129     7090     7088 
    6979     6862     6920     6997     6897     6829     6999     7182 
    7191     7210     7360     7508     7449     7051     6559     6488 
    6818     7074     7190     7321     7295     7110     7080     7132 
    6979     6767     6744     6858     6948     6912     6839     7014 
    7427     7618     7388     7071     6886     6775     6782     6906 
    6890     6747     6851     7145     7217     7084     7049     7171 
    7237     7034     6713     6660     6914     7222     7454     7568 
    7535     7456     7415     7296     6920     6372     6000     6027 
    6388     6876     7263     7396     7338     7271     7288     7356 
    7380     7315     7152     6906     6700     6635     6762     7125 
    7460     7377     6978     6675     6608     6642     6693     6751 
    6801     6937     7272     7696     7912     7715     7203     6681 
    6372     6346     6647     7144     7408     7295     7210     7288 
    7221     6960     6723     6624     6752     7080     7242     6998 
    6697     6732     7018     7292     7304     6945     6559     6559 
    6767     6829     6882     7163     7496     7700     7793     7677 
    7326     7028     7041     7267     7379     7184     6872     6814 
    7059     7180     6955     6756     6818     6925     6932     6779 
    6516     6482     6825     7209     7292     7156     7222     7623 
    7846     7446     6741     6372     6542     6955     7202     7240 
    7333     7492     7476     7249     6963     6712     6566     6554 
    6597     6646     6767     6963     7133     7257     7339     7311 
    7172     7065     7036     6971     6866     6729     6554     6598 
    6952     7164     7082     7105     7322     7466     7456     7327 
    7109     6956     6984     7076     7188     7352     7360     7068 
    6764     6675     6602     6440     6416     6570     6759     7049 
    7402     7497     7319     7213     7214     7055     6778     6673 
    6833     7115     7219     7014     6825     6922     7157     7395 
    7678     7892     7773     7331     6909     6723     6708     6762 
    6781     6693     6627     6709     6851     7025     7263     7426 
    7438     7354     7161     6899     6709     6635     6667     6820 
    7017     7156     7230     7242     7177     7095     7044     6993 
    6941     6916     6866     6859     7069     7412     7615     7507 
    7117     6686     6440     6394     6500     6709     6955     7199 
    7379     7453     7526     7661     7708     7484     6984     6457 
    6212     6301     6546     6772     6905     6987     7067     7040 
    6840     6659     6732     7029     7296     7399     7520     7819 
    8116     8121     7722     7132     6662     6285     5949     5887 
    6153     6664     7418     7989     7850     7377     7213     7333 
    7512     7574     7280     6751     6496     6768     7210     7306 
    6948     6354     5756     5474     5763     6453     7161     7650 
    7839     7885     8055     8240     8113     7650     7082     6610 
    6417     6561     6748     6756     6733     6685     6470     6286 
    6351     6507     6598     6687     6817     7083     7622     8241 
    8656     8838     8688     8056     7176     6454     6068     6045 
    6238     6390     6442     6498     6536     6359     5931     5580 
    5647     6106     6798     7763     8957     9998    10509    10369 
    9647     8425     6795     5146     4101     3994     4596     5382 
    6049     6741     7547     8105     8023     7357     6589     6215 
    6359     6741     7130     7722     8662     9486     9599     8927 
    7811     6667     5757     5140     4928     5246     5938     6691 
    7269     7480     7273     6885     6606     6525     6632     6988 
    7596     8217     8553     8455     7970     7341     6795     6401 
    6146     6006     6010     6280     6808     7287     7418     7204 
    6793     6455     6511     6879     7307     7747     8149     8405 
    8375     7963     7321     6602     5908     5486     5425     5633 
    6111     6755     7389     7973     8334     8218     7639     6875 
    6241     5925     5985     6444     7186     7956     8541     8704 
    8279     7349     6174     5221     5016     5645     6717     7761 
    8467     8695     8459     7906     7091     6085     5337     5289 
    5875     6696     7398     7851     8090     8199     8163     7793 
    7088     6462     6215     6227     6313     6469     6802     7352 
    7867     7915     7466     6976     6732     6702     6835     6982 
    6994     6974     6999     6914     6774     6870     7194     7468 
    7541     7408     7055     6583     6277     6259     6408     6698 
    7156     7574     7708     7527     7175     6843     6627     6500 
    6523     6813     7260     7577     7649     7584     7474     7352 
    7226     7040     6764     6481     6262     6165     6345     6880 
    7522     7871     7800     7507     7249     7118     7015     6868 
    6755     6723     6693     6644     6646     6764     7030     7385 
    7611     7531     7284     7161     7153     7021     6829     6895 
    7248     7659     7890     7742     7280     6739     6195     5701 
    5463     5657     6334     7348     8289     8762     8662     8083 
    7231     6426     5965     5983     6346     6795     7182     7433 
    7497     7376     7098     6735     6386     6134     6085     6359 
    6941     7670     8295     8507     8163     7488     6878     6524 
    6388     6390     6450     6544     6747     7057     7326     7470 
    7542     7550     7458     7287     7084     6957     6984     7065 
    7117     7132     7047     6913     6833     6770     6710     6694 
    6718     6748     6758     6808     6956     7082     7101     7098 
    7110     7103     7084     7017     6907     6920     7122     7364 
    7553     7677     7628     7369     7048     6870     6849     6818 
    6710     6598     6548     6629     6752     6801     6925     7225 
    7543     7731     7720     7493     7123     6731     6455     6458 
    6778     7165     7338     7319     7230     7115     7020     6901 
    6679     6440     6331     6405     6631     6932     7257     7526 
    7618     7520     7366     7250     7133     6972     6868     6918 
    7065     7182     7256     7308     7272     7133     6937     6667 
    6384     6251     6313     6561     6995     7489     7862     8017 
    7944     7709     7406     7088     6793     6546     6355     6258 
    6282     6393     6604     6975     7404     7680     7672     7398 
    7040     6820     6816     6982     7149     7165     7086     7006 
    6943     6928     6995     7133     7248     7237     7130     7071 
    7130     7192     7202     7237     7231     7111     6906     6640 
    6430     6376     6490     6744     6964     7022     7022     7051 
    7119     7267     7495     7740     7873     7739     7373     6948 
    6561     6266     6142     6181     6355     6717     7229     7642 
    7753     7623     7396     7148     6912     6713     6642     6804 
    7129     7384     7453     7365     7199     7048     6951     6912 
    6912     6932     6999     7078     7055     6941     6836     6778 
    6741     6729     6806     6952     7040     7088     7168     7231 
    7306     7466     7614     7642     7537     7295     6979     6714 
    6589     6615     6729     6856     6937     6943     6917     6891 
    6866     6910     7080     7312     7456     7414     7248     7084 
    6991     6978     6955     6856     6824     6951     7103     7182 
    7222     7318     7469     7495     7231     6774     6434     6389 
    6519     6683     6899     7176     7457     7582     7360     6837 
    6349     6181     6357     6679     6993     7271     7456     7492 
    7406     7230     7083     7069     7042     6895     6806     6906 
    7130     7349     7427     7306     7049     6775     6583     6489 
    6463     6552     6809     7156     7476     7726     7862     7785 
    7461     7007     6627     6492     6625     6828     6928     6945 
    6912     6864     6903     6991     7052     7105     7149     7195 
    7210     7128     7074     7176     7339     7441     7431     7325 
    7183     7001     6763     6485     6246     6235     6492     6802 
    7030     7173     7267     7354     7387     7295     7217     7268 
    7308     7196     6988     6813     6752     6806     6902     7037 
    7222     7344     7344     7287     7236     7167     6983     6702 
    6548     6662     6906     7078     7103     7088     7141     7157 
    7011     6814     6731     6774     6878     6974     6991     6974 
    7053     7221     7364     7427     7414     7331     7210     7083 
    6964     6909     6955     7020     7055     7111     7128     7024 
    6899     6829     6732     6624     6652     6840     7136     7453 
    7605     7516     7372     7283     7121     6814     6535     6465 
    6621     6902     7137     7227     7237     7219     7126     6949 
    6762     6650     6685     6891     7179     7396     7447     7331 
    7150     7042     7040     7022     6907     6801     6771     6771 
