Origin Time       2025/03/28 03:50:00
Lat.              35.403
Long.             140.360
Depth. (km)       54
Mag.              4.4
Station Code      TKY007
Station Lat.      35.7111
Station Long.     139.6864
Station Height(m) 34
Record Time       2025/03/28 03:51:03
Sampling Freq(Hz) 100Hz
Duration Time(s)  60
Dir.              N-S
Scale Factor      7845(gal)/8223790
Max. Acc. (gal)   3.549
Last Correction   2025/03/28 03:51:03
Memo.             
[...]
    3225     3238     3261     3264     3256     3257     3241     3218 
    3235     3267     3254     3230     3246     3265     3249     3223 
    3213     3225     3256     3284     3277     3242     3225     3234 
    3249     3267     3275     3254     3244     3246     3227     3214 
    3238     3265     3273     3257     3223     3203     3202     3214 
    3242     3264     3273     3280     3249     3187     3186     3252 
    3287     3273     3264     3249     3221     3230     3254     3250 
    3256     3265     3253     3238     3217     3208     3241     3267 
    3267     3264     3235     3207     3233     3253     3235     3246 
    3273     3249     3223     3238     3245     3240     3238     3234 
    3257     3277     3230     3186     3217     3264     3265     3242 
    3234     3238     3227     3226     3252     3256     3244     3256 
    3269     3256     3238     3246     3264     3249     3226     3241 
    3258     3253     3245     3229     3208     3221     3261     3281 
    3254     3223     3222     3231     3233     3245     3267     3258 
    3222     3230     3273     3260     3218     3233     3258     3267 
    3272     3249     3226     3246     3254     3240     3244     3260 
    3267     3241     3208     3240     3284     3258     3233     3245 
    3235     3223     3242     3253     3252     3249     3240     3231 
    3240     3256     3260     3249     3244     3257     3258     3244 
    3242     3248     3248     3250     3254     3250     3237     3230 
    3256     3275     3248     3225     3237     3257     3262     3262 
    3254     3226     3221     3254     3261     3250     3254     3244 
    3226     3235     3258     3268     3249     3230     3240     3249 
    3245     3244     3238     3234     3246     3261     3261     3244 
    3226     3238     3262     3261     3265     3262     3229     3231 
    3267     3256     3233     3249     3244     3215     3235     3272 
    3261     3240     3234     3226     3221     3241     3267     3261 
    3230     3223     3244     3256     3244     3235     3244     3261 
    3272     3260     3229     3221     3253     3280     3269     3233 
    3218     3242     3253     3234     3235     3257     3262     3253 
    3242     3222     3217     3242     3254     3238     3240     3246 
    3223     3227     3261     3258     3248     3254     3246     3238 
    3246     3260     3256     3230     3223     3244     3254     3260 
    3264     3240     3225     3248     3256     3238     3244     3261 
    3249     3229     3226     3226     3242     3272     3267     3234 
    3231     3257     3261     3238     3240     3248     3241     3253 
    3264     3235     3223     3240     3233     3222     3234     3241 
    3246     3264     3269     3246     3219     3226     3248     3254 
    3260     3257     3240     3238     3248     3241     3240     3250 
    3253     3244     3231     3229     3246     3254     3252     3257 
    3246     3225     3231     3249     3245     3246     3261     3261 
    3235     3215     3229     3254     3265     3264     3249     3237 
    3241     3246     3245     3240     3244     3253     3258     3249 
    3234     3226     3222     3233     3272     3283     3240     3221 
    3241     3229     3225     3264     3272     3252     3252     3237 
    3214     3225     3248     3268     3280     3262     3230     3213 
    3218     3248     3280     3287     3265     3240     3227     3221 
    3227     3256     3279     3285     3267     3208     3181     3222 
    3249     3254     3283     3283     3230     3215     3241     3245 
    3242     3253     3269     3272     3240     3213     3229     3238 
    3242     3258     3261     3256     3253     3235     3219     3226 
    3242     3257     3268     3258     3234     3229     3240     3242 
    3233     3250     3287     3285     3261     3248     3234     3227 
    3244     3245     3219     3203     3226     3279     3310     3276 
    3195     3107     3060     3117     3280     3443     3464     3306 
    3110     3038     3164     3430     3620     3492     3098     2808 
    2868     3199     3586     3751     3445     2868     2604     2907 
    3445     3777     3734     3357     2906     2786     3059     3330 
    3360     3298     3250     3202     3249     3387     3362     3161 
    3117     3285     3426     3469     3395     3127     2887     2968 
    3221     3342     3369     3357     3219     3082     3160     3311 
    3342     3368     3377     3183     2972     3090     3415     3615 
    3611     3389     2920     2504     2590     3179     3846     4194 
    3986     3285     2592     2405     2756     3322     3715     3696 
    3381     3095     2984     3019     3179     3330     3345     3365 
    3500     3508     3208     2871     2826     3013     3280     3599 
    3717     3443     3122     3073     3144     3183     3252     3300 
    3188     2992     2957     3157     3406     3559     3599     3462 
    3160     2886     2886     3214     3615     3758     3558     3167 
    2851     2868     3165     3411     3419     3269     3091     2974 
    2959     3045     3253     3532     3696     3607     3303     2974 
    2839     2976     3281     3572     3649     3472     3223     3046 
    2956     3022     3231     3387     3353     3225     3146     3119 
    3096     3181     3407     3516     3357     3142     3126     3333 
    3555     3578     3350     2980     2718     2812     3181     3460 
    3478     3388     3331     3311     3308     3284     3176     3045 
    3084     3335     3557     3528     3307     3075     2924     2886 
    3052     3388     3572     3377     3056     2959     3107     3354 
    3528     3443     3152     3021     3265     3574     3584     3370 
    3150     2938     2824     2976     3277     3454     3410     3242 
    3168     3271     3379     3337     3177     3028     3042     3267 
    3527     3609     3458     3180     2930     2824     2926     3218 
    3505     3559     3389     3172     3060     3096     3202     3291 
    3377     3446     3435     3357     3271     3210     3177     3161 
    3190     3256     3296     3308     3299     3215     3136     3204 
    3331     3329     3195     3056     3061     3280     3559     3608 
    3330     3013     2971     3134     3268     3287     3204     3076 
    3006     3044     3137     3240     3331     3370     3375     3416 
    3447     3322     3084     2920     2932     3127     3418     3581 
    3493     3325     3254     3214     3146     3165     3249     3246 
    3194     3203     3221     3211     3279     3434     3535     3505 
    3372     3164     2960     2917     3075     3269     3361     3380 
    3339     3213     3096     3106     3203     3306     3362     3330 
    3223     3153     3248     3457     3565     3469     3244     3006 
    2910     3053     3314     3477     3426     3210     3002     2945 
    3075     3310     3485     3510     3404     3237     3099     3080 
    3175     3299     3402     3442     3354     3210     3167     3168 
    3083     3002     3007     3026     3092     3284     3466     3500 
    3451     3387     3303     3190     3073     3052     3136     3199 
    3176     3126     3068     2961     2924     3121     3446     3689 
    3769     3635     3308     3019     3001     3188     3380     3518 
    3604     3539     3276     2968     2816     2872     3080     3315 
    3415     3319     3150     3063     3127     3338     3600     3773 
    3761     3559     3277     3067     3018     3111     3227     3277 
    3248     3129     2941     2774     2727     2836     3029     3198 
    3288     3329     3412     3493     3423     3302     3308     3406 
    3508     3578     3511     3279     3083     3110     3269     3396 
    3472     3499     3358     3079     2936     3069     3288     3346 
    3195     3006     3002     3223     3484     3572     3454     3254 
    3068     2940     2909     2982     3122     3245     3207     3007 
    2905     3092     3372     3484     3480     3520     3626     3732 
    3716     3462     3095     2922     3072     3331     3441     3343 
    3105     2882     2897     3177     3469     3492     3202     2847 
    2701     2844     3196     3580     3697     3419     3068     3026 
    3271     3555     3721     3680     3389     3018     2813     2812 
    2901     3013     3094     3082     3078     3225     3426     3497 
    3477     3504     3599     3659     3530     3204     2907     2862 
    3069     3275     3248     3094     3051     3119     3196     3291 
    3395     3454     3488     3516     3510     3427     3254     3082 
    3017     3017     3017     3119     3337     3412     3241     3040 
    2925     2822     2786     2933     3200     3484     3732     3784 
    3554     3285     3237     3397     3643     3816     3717     3335 
    2917     2662     2578     2697     3029     3396     3582     3542 
    3372     3168     3017     3005     3152     3420     3746     3970 
    3867     3388     2852     2640     2785     3094     3388     3512 
    3437     3288     3188     3121     3026     2937     2905     2948 
    3083     3240     3291     3269     3257     3204     3154     3310 
    3620     3815     3778     3547     3186     2872     2763     2828 
    2964     3099     3208     3338     3519     3634     3541     3314 
    3167     3167     3319     3592     3743     3585     3261     2959 
    2741     2735     3026     3361     3431     3312     3168     2964 
    2778     2812     3052     3280     3381     3442     3524     3573 
    3596     3586     3465     3315     3254     3221     3140     3034 
    2976     2974     2930     2867     2960     3225     3445     3470 
    3379     3283     3253     3362     3550     3624     3566     3508 
    3468     3381     3273     3179     3053     2913     2828     2799 
    2837     2979     3148     3165     3036     3005     3163     3346 
    3476     3553     3545     3535     3618     3686     3601     3453 
    3427     3456     3306     3044     2921     2903     2860     2913 
    3142     3331     3322     3210     3090     3002     3063     3322 
    3572     3604     3500     3433     3410     3318     3125     2961 
    2899     2875     2887     3011     3242     3462     3516     3360 
    3152     3096     3244     3478     3645     3662     3527     3312 
    3165     3150     3183     3180     3164     3132     3048     2967 
    2998     3100     3129     3106     3203     3458     3674     3655 
    3470     3330     3314     3389     3468     3362     3042     2793 
    2814     2971     3098     3188     3229     3164     3064     3096 
    3252     3352     3333     3253     3146     3118     3283     3541 
    3636     3488     3238     3069     3064     3198     3370     3491 
    3539     3507     3375     3199     3090     3126     3330     3573 
    3638     3462     3163     2880     2694     2671     2883     3275 
    3611     3717     3638     3396     2953     2512     2403     2632 
    2967     3327     3640     3672     3500     3476     3566     3515 
    3376     3302     3257     3187     3180     3269     3292     3213 
    3214     3312     3335     3257     3136     2971     2894     3069 
    3353     3469     3399     3294     3267     3349     3446     3412 
    3221     2988     2855     2903     3145     3464     3640     3609 
    3489     3356     3215     3113     3083     3082     3059     3028 
    3064     3234     3443     3534     3515     3458     3364     3237 
    3119     3056     3079     3165     3229     3191     3060     2894 
    2749     2764     3017     3345     3586     3708     3670     3519 
    3377     3285     3242     3307     3488     3609     3500     3258 
    3045     2895     2849     2893     2914     2894     2905     2995 
    3173     3400     3574     3635     3630     3586     3487     3364 
    3294     3350     3569     3839     3942     3750     3376     2986 
    2613     2332     2286     2444     2646     2808     2920     3048 
    3302     3657     3908     3935     3847     3744     3584     3385 
    3252     3227     3252     3211     3067     2874     2721     2710 
    2830     2945     3029     3180     3370     3443     3410     3439 
    3565     3676     3651     3442     3150     2934     2872     3013 
    3269     3450     3522     3497     3323     3119     3076     3169 
    3234     3215     3250     3393     3531     3600     3586     3469 
    3279     3109     3032     2987     2922     2932     3022     3088 
    3141     3223     3260     3207     3163     3186     3241     3370 
    3612     3789     3766     3643     3539     3489     3474     3385 
    3159     2887     2700     2621     2621     2700     2887     3171 
    3416     3458     3288     3073     3014     3154     3372     3530 
    3570     3535     3472     3365     3272     3292     3376     3353 
    3149     2853     2613     2540     2693     2987     3218     3316 
    3358     3389     3416     3454     3508     3572     3653     3732 
    3734     3611     3407     3194     3057     3063     3172     3285 
    3361     3385     3339     3250     3180     3129     3087     3083 
    3133     3234     3343     3373     3269     3040     2809     2759 
    2933     3194     3429     3682     4032     4452     4846     5043 
    4926     4592     4163     3565     2689     1613      591     -128 
    -476     -418      144     1059     1906     2459     2841     3294 
    3946     4738     5506     6130     6586     6828     6678     6027 
    5092     4199     3500     3029     2722     2455     2133     1709 
    1308     1173     1360     1777     2234     2451     2413     2377 
    2440     2628     3060     3739     4479     5077     5375     5255 
    4711     3977     3423     3200     3115     3007     2988     3073 
    3090     3021     2953     2952     3094     3327     3542     3746 
    3912     3883     3542     2930     2288     1975     2138     2538 
    2879     3029     2956     2817     2883     3238     3804     4410 
    4735     4579     4059     3337     2555     1929     1675     1906 
    2489     3094     3469     3597     3626     3681     3762     3804 
    3724     3528     3358     3294     3258     3233     3294     3435 
    3539     3457     3129     2682     2305     2130     2269     2695 
    3133     3407     3624     3824     3913     3885     3788     3658 
    3500     3316     3206     3242     3291     3246     3159     2994 
    2795     2818     3121     3404     3397     3103     2728     2586 
    2883     3526     4229     4693     4769     4484     3973     3419 
    2930     2519     2218     2070     2074     2147     2174     2150 
    2157     2265     2583     3150     3785     4328     4760     5028 
    5069     4915     4608     4174     3705     3342     3109     2934 
    2817     2755     2685     2670     2781     2848     2743     2578 
    2432     2276     2127     2057     2212     2698     3395     4098 
    4644     4909     4954     4895     4672     4202     3565     2828 
    2011     1285      912     1081     1750     2575     3160     3373 
    3368     3389     3632     4095     4585     4954     5193     5254 
    4961     4266     3435     2752     2323     2139     2084     2034 
    1987     2016     2172     2466     2882     3323     3655     3742 
    3592     3383     3223     3179     3379     3847     4368     4688 
    4707     4413     3869     3202     2459     1760     1414     1555 
    1944     2285     2488     2663     2971     3400     3801     4113 
    4359     4556     4673     4672     4550     4365     4136     3785 
    3264     2652     2060     1574     1287     1223     1372     1776 
    2405     3145     3893     4487     4761     4680     4288     3727 
    3202     2868     2828     3051     3321     3501     3618     3689 
    3704     3651     3524     3341     3103     2797     2493     2367 
    2570     3026     3488     3777     3786     3453     3009     2847 
    3099     3616     4128     4387     4361     4167     3855     3460 
    3094     2840     2724     2743     2779     2702     2579     2554 
    2659     2830     2941     2879     2700     2547     2454     2470 
    2675     2956     3198     3569     4203     4868     5224     5103 
    4519     3688     2884     2301     2077     2269     2722     3179 
    3495     3638     3634     3554     3488     3488     3516     3539 
    3601     3642     3516     3265     3065     2936     2818     2768 
    2791     2766     2654     2523     2380     2247     2251     2490 
    2941     3474     3943     4241     4307     4164     3942     3809 
    3821     3869     3785     3488     3037     2589     2276     2124 
    2127     2307     2643     3061     3469     3797     4068     4371 
    4687     4842     4696     4244     3566     2830     2222     1864 
    1811     1998     2276     2539     2727     2820     2890     2984 
    3065     3106     3132     3219     3418     3654     3869     4081 
    4247     4318     4298     4176     3893     3450     2978     2594 
    2301     2080     1975     2049     2268     2536     2808     3088 
    3418     3854     4337     4727     4970     5069     5017     4823 
    4488     3993     3322     2554     1887     1487     1351     1402 
    1629     2004     2465     2957     3383     3650     3784     3863 
    3942     4010     4027     3994     3944     3856     3676     3395 
    3076     2818     2666     2551     2382     2164     2019     2076 
    2355     2787     3299     3848     4334     4595     4553     4290 
    3943     3615     3366     3242     3242     3280     3221     3024 
    2802     2747     2947     3258     3445     3416     3275     3168 
    3118     3087     3113     3215     3326     3377     3383     3368 
    3335     3285     3249     3240     3214     3129     3002     2874 
    2820     2928     3176     3408     3530     3550     3477     3315 
    3080     2822     2671     2717     2905     3107     3257     3362 
    3439     3442     3354     3287     3304     3349     3396     3450 
    3424     3280     3149     3148     3200     3245     3335     3433 
    3408     3234     3003     2851     2855     3034     3342     3649 
    3809     3819     3766     3689     3595     3493     3342     3105 
    2833     2589     2405     2335     2401     2560     2708     2812 
    2925     3057     3190     3321     3443     3555     3685     3840 
    3959     4006     4012     4005     3970     3882     3792     3731 
    3639     3499     3368     3235     3096     2994     2899     2778 
    2651     2508     2339     2196     2138     2214     2438     2793 
    3258     3723     4050     4224     4310     4356     4369     4330 
    4207     3952     3592     3279     3100     2972     2822     2681 
    2551     2446     2442     2550     2683     2782     2855     2910 
    2995     3186     3466     3723     3861     3866     3766     3569 
    3322     3156     3173     3299     3372     3252     2918     2585 
    2493     2627     2853     3105     3356     3591     3771     3836 
    3775     3649     3512     3380     3258     3192     3223     3291 
    3299     3211     3076     2978     2924     2845     2758     2740 
