Origin Time       2025/03/28 03:50:00
Lat.              35.403
Long.             140.360
Depth. (km)       54
Mag.              4.4
Station Code      TKY005
Station Lat.      35.5798
Station Long.     139.4137
Station Height(m) 106
Record Time       2025/03/28 03:51:07
Sampling Freq(Hz) 100Hz
Duration Time(s)  60
Dir.              N-S
Scale Factor      7845(gal)/8223790
Max. Acc. (gal)   2.241
Last Correction   2025/03/28 03:51:07
Memo.             
[...]
   -6440    -6392    -6382    -6409    -6451    -6482    -6481    -6453 
   -6405    -6378    -6409    -6459    -6477    -6467    -6454    -6434 
   -6412    -6399    -6409    -6440    -6454    -6439    -6436    -6436 
   -6419    -6413    -6434    -6459    -6463    -6440    -6419    -6415 
   -6426    -6439    -6447    -6459    -6466    -6440    -6404    -6400 
   -6417    -6431    -6450    -6462    -6455    -6436    -6411    -6404 
   -6430    -6442    -6443    -6457    -6443    -6413    -6415    -6435 
   -6447    -6442    -6431    -6436    -6444    -6434    -6428    -6442 
   -6446    -6436    -6426    -6426    -6436    -6446    -6451    -6444 
   -6430    -6415    -6413    -6428    -6444    -6442    -6430    -6432 
   -6432    -6432    -6444    -6443    -6428    -6431    -6440    -6440 
   -6435    -6431    -6435    -6442    -6436    -6426    -6430    -6444 
   -6435    -6411    -6415    -6443    -6455    -6443    -6428    -6436 
   -6447    -6442    -6439    -6444    -6442    -6438    -6436    -6439 
   -6440    -6427    -6413    -6417    -6434    -6446    -6446    -6431 
   -6424    -6423    -6413    -6432    -6471    -6475    -6448    -6421 
   -6409    -6424    -6439    -6438    -6436    -6440    -6440    -6432 
   -6431    -6431    -6424    -6428    -6436    -6434    -6435    -6442 
   -6446    -6432    -6409    -6421    -6446    -6442    -6435    -6443 
   -6440    -6432    -6440    -6450    -6439    -6436    -6447    -6443 
   -6436    -6438    -6428    -6420    -6417    -6419    -6431    -6444 
   -6436    -6415    -6408    -6426    -6446    -6453    -6448    -6448 
   -6447    -6438    -6426    -6417    -6421    -6440    -6450    -6442 
   -6448    -6453    -6432    -6419    -6411    -6407    -6432    -6448 
   -6440    -6438    -6431    -6428    -6440    -6443    -6440    -6436 
   -6430    -6427    -6427    -6435    -6439    -6428    -6428    -6442 
   -6443    -6440    -6431    -6415    -6413    -6430    -6444    -6448 
   -6434    -6411    -6408    -6426    -6440    -6448    -6454    -6451 
   -6446    -6436    -6434    -6446    -6444    -6434    -6434    -6423 
   -6405    -6409    -6424    -6438    -6450    -6434    -6419    -6440 
   -6451    -6438    -6430    -6426    -6435    -6455    -6454    -6430 
   -6408    -6409    -6430    -6442    -6438    -6442    -6440    -6434 
   -6439    -6442    -6430    -6427    -6439    -6447    -6439    -6428 
   -6428    -6430    -6424    -6427    -6446    -6459    -6458    -6458 
   -6451    -6435    -6428    -6428    -6421    -6421    -6431    -6435 
   -6430    -6417    -6407    -6413    -6432    -6443    -6442    -6440 
   -6446    -6444    -6438    -6436    -6447    -6459    -6457    -6447 
   -6439    -6438    -6451    -6466    -6466    -6457    -6453    -6447 
   -6423    -6380    -6323    -6293    -6338    -6421    -6498    -6573 
   -6606    -6542    -6388    -6227    -6172    -6265    -6458    -6651 
   -6745    -6693    -6517    -6304    -6188    -6241    -6401    -6562 
   -6654    -6652    -6550    -6373    -6237    -6226    -6312    -6428 
   -6504    -6471    -6372    -6308    -6303    -6365    -6528    -6651 
   -6523    -6281    -6235    -6382    -6504    -6565    -6666    -6706 
   -6554    -6320    -6172    -6180    -6345    -6556    -6664    -6637 
   -6556    -6482    -6439    -6409    -6323    -6220    -6231    -6367 
   -6531    -6629    -6586    -6407    -6166    -5968    -5984    -6261 
   -6620    -6901    -6991    -6837    -6589    -6413    -6313    -6220 
   -6169    -6285    -6520    -6606    -6453    -6254    -6201    -6308 
   -6446    -6539    -6660    -6735    -6613    -6411    -6282    -6218 
   -6245    -6446    -6716    -6733    -6392    -6034    -6000    -6210 
   -6390    -6504    -6644    -6739    -6640    -6331    -6083    -6266 
   -6752    -6987    -6783    -6475    -6362    -6338    -6222    -6164 
   -6266    -6315    -6295    -6401    -6613    -6714    -6628    -6513 
   -6421    -6291    -6210    -6304    -6524    -6698    -6656    -6354 
   -6057    -6120    -6411    -6525    -6463    -6477    -6606    -6671 
   -6563    -6455    -6517    -6596    -6535    -6457    -6405    -6231 
   -5989    -5958    -6200    -6434    -6494    -6507    -6552    -6551 
   -6478    -6455    -6586    -6797    -6899    -6701    -6258    -5957 
   -6027    -6274    -6498    -6682    -6754    -6651    -6465    -6340 
   -6328    -6372    -6458    -6561    -6527    -6347    -6139    -5973 
   -5965    -6174    -6471    -6674    -6673    -6554    -6447    -6363 
   -6377    -6593    -6814    -6723    -6451    -6399    -6531    -6524 
   -6376    -6297    -6292    -6305    -6353    -6377    -6351    -6345 
   -6397    -6490    -6565    -6577    -6527    -6480    -6527    -6575 
   -6478    -6313    -6264    -6346    -6396    -6303    -6205    -6238 
   -6343    -6447    -6528    -6550    -6511    -6467    -6438    -6421 
   -6505    -6664    -6694    -6579    -6478    -6409    -6301    -6191 
   -6187    -6289    -6405    -6480    -6489    -6443    -6380    -6366 
   -6435    -6516    -6565    -6593    -6548    -6455    -6432    -6421 
   -6313    -6226    -6295    -6459    -6551    -6534    -6579    -6729 
   -6754    -6550    -6316    -6242    -6281    -6304    -6331    -6392 
   -6399    -6332    -6247    -6133    -6076    -6249    -6582    -6828 
   -6832    -6623    -6386    -6319    -6466    -6683    -6775    -6735 
   -6646    -6448    -6145    -5926    -5914    -6080    -6381    -6685 
   -6771    -6579    -6338    -6304    -6455    -6589    -6579    -6455 
   -6331    -6266    -6255    -6316    -6426    -6547    -6723    -6883 
   -6822    -6534    -6308    -6372    -6578    -6605    -6411    -6193 
   -6038    -5941    -5931    -6073    -6400    -6774    -6925    -6786 
   -6521    -6300    -6201    -6235    -6350    -6448    -6424    -6357 
   -6436    -6650    -6822    -6820    -6677    -6566    -6497    -6380 
   -6289    -6273    -6259    -6266    -6350    -6471    -6528    -6411 
   -6134    -5952    -6095    -6443    -6663    -6615    -6470    -6401 
   -6374    -6366    -6466    -6675    -6848    -6891    -6813    -6610 
   -6351    -6192    -6211    -6359    -6451    -6350    -6189    -6174 
   -6299    -6408    -6408    -6407    -6523    -6604    -6507    -6380 
   -6362    -6367    -6361    -6490    -6720    -6767    -6571    -6373 
   -6327    -6374    -6420    -6401    -6305    -6238    -6285    -6378 
   -6407    -6378    -6434    -6605    -6701    -6608    -6454    -6345 
   -6269    -6266    -6385    -6534    -6558    -6473    -6427    -6492 
   -6574    -6590    -6609    -6694    -6713    -6519    -6228    -6076 
   -6050    -6095    -6288    -6531    -6602    -6532    -6470    -6381 
   -6185    -6023    -6107    -6390    -6621    -6682    -6644    -6578 
   -6475    -6409    -6498    -6646    -6651    -6509    -6332    -6195 
   -6141    -6169    -6231    -6301    -6369    -6434    -6496    -6567 
   -6637    -6650    -6609    -6610    -6687    -6763    -6782    -6708 
   -6524    -6349    -6288    -6276    -6259    -6285    -6362    -6363 
   -6188    -6007    -6057    -6273    -6388    -6269    -6119    -6200 
   -6439    -6588    -6613    -6589    -6543    -6573    -6736    -6920 
   -7030    -7028    -6871    -6604    -6347    -6164    -6034    -5984 
   -6097    -6305    -6419    -6388    -6277    -6170    -6130    -6165 
   -6274    -6457    -6623    -6631    -6474    -6304    -6262    -6385 
   -6606    -6786    -6814    -6745    -6664    -6542    -6394    -6293 
   -6259    -6323    -6446    -6546    -6625    -6663    -6588    -6442 
   -6374    -6427    -6427    -6293    -6219    -6281    -6273    -6129 
   -6072    -6216    -6351    -6318    -6250    -6305    -6465    -6579 
   -6569    -6566    -6640    -6675    -6613    -6489    -6307    -6151 
   -6207    -6490    -6748    -6786    -6714    -6623    -6450    -6282 
   -6331    -6565    -6717    -6701    -6677    -6659    -6497    -6237 
   -6103    -6183    -6320    -6334    -6288    -6345    -6444    -6436 
   -6349    -6261    -6184    -6116    -6135    -6318    -6532    -6581 
   -6519    -6520    -6596    -6696    -6797    -6809    -6655    -6415 
   -6284    -6353    -6502    -6524    -6346    -6151    -6137    -6224 
   -6288    -6389    -6519    -6529    -6428    -6339    -6307    -6339 
   -6448    -6561    -6617    -6651    -6679    -6667    -6608    -6519 
   -6389    -6268    -6280    -6376    -6384    -6311    -6258    -6274 
   -6392    -6543    -6558    -6421    -6292    -6239    -6239    -6336 
   -6548    -6762    -6826    -6671    -6415    -6328    -6469    -6582 
   -6538    -6454    -6411    -6377    -6320    -6264    -6277    -6377 
   -6474    -6473    -6400    -6327    -6293    -6303    -6324    -6357 
   -6438    -6551    -6623    -6573    -6419    -6284    -6261    -6386 
   -6619    -6789    -6744    -6529    -6322    -6265    -6377    -6550 
   -6655    -6664    -6592    -6430    -6238    -6137    -6196    -6346 
   -6453    -6484    -6482    -6435    -6331    -6280    -6349    -6416 
   -6386    -6357    -6428    -6532    -6525    -6403    -6274    -6189 
   -6173    -6300    -6566    -6793    -6814    -6712    -6633    -6552 
   -6454    -6366    -6270    -6231    -6320    -6394    -6303    -6201 
   -6281    -6454    -6598    -6713    -6733    -6627    -6500    -6448 
   -6463    -6493    -6498    -6455    -6369    -6334    -6428    -6520 
   -6440    -6249    -6092    -6025    -6075    -6282    -6569    -6736 
   -6741    -6737    -6771    -6704    -6489    -6309    -6307    -6374 
   -6361    -6258    -6160    -6156    -6249    -6405    -6574    -6678 
   -6725    -6723    -6606    -6382    -6181    -6150    -6285    -6378 
   -6319    -6204    -6158    -6265    -6511    -6762    -6920    -6961 
   -6856    -6610    -6327    -6142    -6139    -6309    -6561    -6705 
   -6646    -6523    -6477    -6489    -6497    -6448    -6335    -6234 
   -6203    -6197    -6197    -6285    -6440    -6485    -6404    -6355 
   -6353    -6336    -6381    -6562    -6725    -6583    -6184    -5931 
   -5984    -6166    -6365    -6569    -6737    -6805    -6797    -6817 
   -6821    -6687    -6496    -6392    -6380    -6430    -6488    -6488 
   -6453    -6451    -6440    -6342    -6273    -6384    -6527    -6524 
   -6427    -6322    -6210    -6169    -6318    -6521    -6507    -6332 
   -6257    -6281    -6292    -6335    -6435    -6453    -6362    -6312 
   -6296    -6223    -6204    -6315    -6448    -6555    -6686    -6826 
   -6872    -6801    -6704    -6637    -6562    -6489    -6508    -6617 
   -6681    -6570    -6319    -6084    -6006    -6091    -6235    -6323 
   -6303    -6216    -6183    -6235    -6266    -6245    -6272    -6380 
   -6512    -6609    -6669    -6739    -6777    -6732    -6667    -6628 
   -6605    -6558    -6427    -6301    -6320    -6394    -6393    -6342 
   -6262    -6174    -6185    -6323    -6473    -6565    -6619    -6624 
   -6596    -6621    -6697    -6677    -6529    -6409    -6386    -6367 
   -6300    -6250    -6257    -6232    -6123    -6068    -6178    -6372 
   -6548    -6706    -6810    -6751    -6509    -6254    -6183    -6291 
   -6396    -6385    -6351    -6419    -6544    -6628    -6685    -6770 
   -6832    -6787    -6633    -6416    -6227    -6168    -6215    -6245 
   -6160    -5971    -5867    -6016    -6331    -6631    -6831    -6885 
   -6824    -6777    -6770    -6727    -6643    -6550    -6407    -6215 
   -6111    -6141    -6145    -6072    -6062    -6149    -6239    -6319 
   -6428    -6542    -6667    -6878    -7109    -7144    -6932    -6648 
   -6426    -6273    -6195    -6156    -6083    -5992    -5960    -5994 
   -6049    -6162    -6377    -6582    -6640    -6585    -6559    -6608 
   -6694    -6778    -6820    -6806    -6727    -6558    -6345    -6195 
   -6172    -6214    -6212    -6158    -6115    -6107    -6161    -6316 
   -6496    -6594    -6650    -6702    -6702    -6655    -6629    -6593 
   -6454    -6281    -6274    -6454    -6608    -6569    -6413    -6285 
   -6234    -6280    -6434    -6583    -6563    -6403    -6276    -6242 
   -6242    -6270    -6373    -6540    -6712    -6802    -6754    -6637 
   -6581    -6583    -6575    -6559    -6505    -6349    -6141    -5994 
   -5954    -5973    -6003    -6112    -6366    -6594    -6577    -6417 
   -6408    -6600    -6795    -6852    -6772    -6644    -6547    -6469 
   -6417    -6489    -6663    -6733    -6539    -6193    -5971    -5972 
   -6096    -6273    -6484    -6620    -6558    -6399    -6374    -6490 
   -6585    -6608    -6573    -6440    -6249    -6106    -6064    -6134 
   -6255    -6300    -6259    -6251    -6289    -6280    -6224    -6199 
   -6210    -6219    -6200    -6165    -6214    -6421    -6669    -6826 
   -6941    -7047    -7088    -7078    -7051    -6971    -6868    -6841 
   -6841    -6770    -6698    -6686    -6648    -6536    -6404    -6311 
   -6264    -6242    -6237    -6270    -6340    -6354    -6250    -6143 
   -6130    -6189    -6316    -6457    -6523    -6484    -6340    -6157 
   -6030    -5969    -5954    -6011    -6119    -6153    -6026    -5842 
   -5795    -5929    -6127    -6303    -6453    -6570    -6663    -6778 
   -6953    -7163    -7275    -7226    -7130    -7113    -7157    -7159 
   -7022    -6714    -6289    -5871    -5602    -5560    -5710    -5965 
   -6243    -6469    -6594    -6646    -6709    -6868    -7088    -7219 
   -7140    -6848    -6426    -5995    -5667    -5514    -5518    -5537 
   -5468    -5356    -5301    -5391    -5661    -6042    -6447    -6853 
   -7291    -7778    -8266    -8637    -8784    -8669    -8320    -7805 
   -7240    -6694    -6183    -5753    -5464    -5278    -5104    -4936 
   -4887    -5038    -5296    -5518    -5713    -5896    -6029    -6119 
   -6199    -6238    -6241    -6315    -6520    -6793    -7086    -7392 
   -7622    -7651    -7464    -7175    -6925    -6821    -6870    -6898 
   -6698    -6282    -5859    -5634    -5690    -5915    -6126    -6238 
   -6281    -6200    -5887    -5451    -5205    -5313    -5674    -6088 
   -6351    -6380    -6336    -6475    -6882    -7487    -8078    -8322 
   -8064    -7516    -6993    -6655    -6484    -6396    -6323    -6219 
   -6107    -6096    -6246    -6475    -6594    -6436    -6064    -5733 
   -5591    -5584    -5625    -5671    -5755    -5967    -6322    -6670 
   -6837    -6844    -6889    -7015    -7094    -7137    -7233    -7242 
   -7017    -6664    -6374    -6177    -6022    -5917    -5875    -5860 
   -5863    -5938    -6165    -6540    -6879    -6930    -6651    -6286 
   -6103    -6192    -6493    -6808    -6859    -6559    -6052    -5529 
   -5220    -5289    -5691    -6264    -6848    -7310    -7496    -7372 
   -7157    -7080    -7121    -7141    -7079    -6898    -6505    -5923 
   -5382    -5159    -5359    -5844    -6380    -6805    -6979    -6845 
   -6536    -6250    -6102    -6107    -6250    -6527    -6843    -7028 
   -7033    -6970    -6939    -6966    -6979    -6851    -6551    -6197 
   -5923    -5776    -5678    -5479    -5158    -4850    -4752    -5058 
   -5756    -6583    -7242    -7512    -7404    -7233    -7257    -7442 
   -7597    -7576    -7326    -6890    -6442    -6195    -6228    -6444 
   -6650    -6646    -6365    -5981    -5800    -5956    -6282    -6517 
   -6486    -6184    -5848    -5776    -6030    -6399    -6632    -6636 
   -6466    -6205    -5938    -5791    -5842    -6021    -6188    -6284 
   -6307    -6276    -6305    -6551    -6956    -7296    -7458    -7468 
   -7360    -7113    -6767    -6480    -6309    -6189    -6181    -6365 
   -6585    -6594    -6289    -5784    -5364    -5319    -5710    -6254 
   -6624    -6797    -6878    -6897    -6917    -7003    -7051    -6912 
   -6671    -6489    -6319    -6124    -6095    -6301    -6505    -6480 
   -6304    -6222    -6393    -6760    -7075    -7129    -6909    -6532 
   -6122    -5751    -5447    -5184    -4941    -4855    -5090    -5594 
   -6142    -6581    -6941    -7276    -7551    -7761    -7947    -8114 
   -8167    -7908    -7241    -6361    -5668    -5417    -5525    -5737 
   -5807    -5601    -5233    -5015    -5144    -5580    -6212    -6932 
   -7558    -7955    -8122    -8097    -7923    -7704    -7438    -7007 
   -6423    -5836    -5362    -5081    -5008    -5076    -5206    -5360 
   -5539    -5778    -6139    -6627    -7087    -7325    -7276    -7059 
   -6835    -6683    -6571    -6453    -6338    -6214    -6099    -6133 
   -6358    -6569    -6577    -6462    -6397    -6394    -6389    -6397 
   -6403    -6316    -6154    -6072    -6196    -6543    -7003    -7408 
   -7623    -7611    -7414    -7092    -6701    -6332    -6110    -6057 
   -6053    -6011    -5984    -6004    -5984    -5857    -5671    -5502 
   -5359    -5244    -5246    -5462    -5875    -6367    -6835    -7237 
   -7578    -7859    -8031    -8055    -7936    -7686    -7319    -6912 
   -6598    -6448    -6389    -6281    -6061    -5786    -5548    -5404 
   -5293    -5151    -5035    -5066    -5314    -5772    -6309    -6772 
   -7072    -7194    -7203    -7211    -7260    -7267    -7145    -6932 
   -6716    -6536    -6431    -6404    -6393    -6349    -6269    -6177 
   -6093    -6026    -6003    -6095    -6318    -6608    -6929    -7177 
   -7161    -6863    -6520    -6342    -6313    -6288    -6222    -6147 
   -6033    -5883    -5814    -5875    -6010    -6169    -6323    -6458 
   -6615    -6813    -7007    -7137    -7136    -6967    -6705    -6477 
   -6357    -6358    -6471    -6594    -6569    -6372    -6141    -6030 
   -6077    -6214    -6334    -6330    -6157    -5863    -5576    -5443 
   -5540    -5857    -6293    -6693    -6967    -7107    -7132    -7115 
   -7153    -7211    -7152    -6932    -6643    -6408    -6315    -6394 
   -6556    -6620    -6532    -6393    -6319    -6353    -6419    -6451 
   -6492    -6571    -6640    -6631    -6573    -6552    -6561    -6463 
   -6246    -6070    -6035    -6042    -5967    -5829    -5725    -5687 
   -5729    -5888    -6135    -6359    -6512    -6686    -6925    -7123 
   -7204    -7179    -7047    -6802    -6496    -6211    -5998    -5848 
   -5745    -5782    -6049    -6392    -6585    -6610    -6609    -6724 
   -6956    -7188    -7300    -7187    -6840    -6421    -6130    -6052 
   -6135    -6293    -6463    -6542    -6408    -6077    -5748    -5620 
   -5737    -6023    -6355    -6625    -6805    -6925    -6975    -6940 
   -6853    -6732    -6534    -6253    -5946    -5701    -5597    -5679 
   -5888    -6084    -6203    -6353    -6647    -7010    -7236    -7245 
   -7145    -7032    -6920    -6848    -6837    -6849    -6845    -6818 
   -6736    -6559    -6304    -6075    -5927    -5852    -5811    -5752 
   -5682    -5707    -5856    -6066    -6335    -6662    -6972    -7156 
   -7150    -7036    -6943    -6898    -6894    -6903    -6810    -6544 
   -6212    -5946    -5771    -5674    -5655    -5663    -5653    -5692 
   -5872    -6138    -6354    -6477    -6535    -6561    -6639    -6810 
   -6990    -7068    -7011    -6858    -6669    -6511    -6462    -6531 
   -6648    -6758    -6816    -6805    -6779    -6775    -6759    -6678 
   -6453    -6038    -5560    -5196    -5042    -5116    -5360    -5699 
   -6064    -6416    -6782    -7164    -7497    -7677    -7600    -7292 
   -6918    -6600    -6388    -6331    -6374    -6389    -6361    -6369 
   -6434    -6494    -6451    -6270    -6025    -5810    -5714    -5799 
