Origin Time       2025/03/28 03:50:00
Lat.              35.403
Long.             140.360
Depth. (km)       54
Mag.              4.4
Station Code      TKY024
Station Lat.      35.7422
Station Long.     139.8612
Station Height(m) 3
Record Time       2025/03/28 03:51:02
Sampling Freq(Hz) 100Hz
Duration Time(s)  60
Dir.              N-S
Scale Factor      7845(gal)/8223790
Max. Acc. (gal)   5.426
Last Correction   2025/03/28 03:51:01
Memo.             
[...]
   -2234    -2195    -2172    -2191    -2226    -2270    -2342    -2331 
   -2196    -2118    -2169    -2236    -2277    -2308    -2319    -2288 
   -2204    -2116    -2096    -2180    -2299    -2338    -2313    -2272 
   -2226    -2208    -2201    -2209    -2281    -2320    -2278    -2249 
   -2218    -2195    -2235    -2262    -2258    -2246    -2216    -2242 
   -2289    -2284    -2253    -2173    -2114    -2154    -2205    -2281 
   -2362    -2290    -2155    -2143    -2227    -2322    -2346    -2243 
   -2173    -2243    -2284    -2230    -2195    -2199    -2238    -2299 
   -2308    -2246    -2187    -2208    -2259    -2255    -2250    -2282 
   -2295    -2258    -2220    -2191    -2184    -2245    -2307    -2276 
   -2235    -2230    -2176    -2127    -2177    -2265    -2326    -2340 
   -2286    -2189    -2157    -2239    -2316    -2299    -2249    -2236 
   -2259    -2272    -2270    -2282    -2282    -2228    -2146    -2126 
   -2191    -2269    -2315    -2328    -2296    -2235    -2203    -2199 
   -2177    -2170    -2226    -2313    -2349    -2313    -2272    -2238 
   -2203    -2219    -2288    -2297    -2216    -2164    -2205    -2265 
   -2247    -2195    -2178    -2209    -2282    -2322    -2269    -2212 
   -2259    -2338    -2304    -2199    -2189    -2270    -2293    -2216 
   -2100    -2043    -2137    -2276    -2284    -2234    -2265    -2338 
   -2338    -2268    -2200    -2218    -2311    -2343    -2309    -2305 
   -2284    -2203    -2137    -2141    -2200    -2242    -2242    -2232 
   -2215    -2203    -2204    -2185    -2196    -2257    -2276    -2261 
   -2280    -2319    -2336    -2315    -2262    -2208    -2184    -2184 
   -2187    -2200    -2220    -2220    -2201    -2193    -2199    -2197 
   -2216    -2259    -2280    -2273    -2285    -2303    -2297    -2303 
   -2328    -2320    -2250    -2173    -2138    -2150    -2177    -2173 
   -2162    -2177    -2191    -2209    -2249    -2266    -2273    -2304 
   -2340    -2320    -2274    -2280    -2285    -2270    -2269    -2230 
   -2182    -2197    -2197    -2157    -2138    -2143    -2180    -2247 
   -2281    -2272    -2259    -2247    -2251    -2278    -2289    -2270 
   -2254    -2262    -2268    -2222    -2162    -2182    -2253    -2270 
   -2239    -2214    -2214    -2228    -2215    -2196    -2219    -2276 
   -2328    -2319    -2263    -2263    -2277    -2231    -2216    -2247 
   -2253    -2258    -2250    -2205    -2207    -2257    -2259    -2219 
   -2191    -2204    -2243    -2254    -2234    -2246    -2259    -2214 
   -2197    -2269    -2336    -2308    -2222    -2208    -2254    -2238 
   -2203    -2226    -2258    -2293    -2312    -2253    -2187    -2177 
   -2164    -2177    -2259    -2326    -2316    -2259    -2207    -2197 
   -2230    -2266    -2274    -2276    -2311    -2307    -2224    -2173 
   -2184    -2197    -2209    -2223    -2245    -2274    -2270    -2231 
   -2208    -2227    -2276    -2324    -2316    -2247    -2193    -2182 
   -2182    -2215    -2282    -2308    -2268    -2230    -2230    -2243 
   -2215    -2174    -2216    -2319    -2346    -2277    -2231    -2245 
   -2219    -2168    -2200    -2289    -2332    -2309    -2249    -2197 
   -2187    -2193    -2185    -2178    -2205    -2258    -2292    -2299 
   -2280    -2254    -2234    -2204    -2195    -2227    -2253    -2257 
   -2257    -2235    -2211    -2219    -2235    -2253    -2266    -2245 
   -2227    -2246    -2258    -2261    -2258    -2235    -2227    -2247 
   -2247    -2234    -2241    -2238    -2226    -2235    -2227    -2200 
   -2226    -2273    -2278    -2253    -2224    -2226    -2254    -2243 
   -2231    -2277    -2299    -2238    -2182    -2200    -2241    -2250 
   -2231    -2214    -2236    -2269    -2228    -2187    -2209    -2235 
   -2246    -2235    -2211    -2241    -2286    -2278    -2266    -2274 
   -2272    -2258    -2238    -2231    -2253    -2246    -2231    -2276 
   -2292    -2228    -2168    -2128    -2147    -2276    -2396    -2394 
   -2274    -2091    -2035    -2191    -2369    -2409    -2292    -2119 
   -2091    -2222    -2304    -2270    -2199    -2184    -2323    -2471 
   -2343    -2047    -1979    -2215    -2489    -2488    -2203    -1972 
   -2029    -2284    -2479    -2420    -2242    -2218    -2288    -2245 
   -2096    -2003    -2139    -2435    -2512    -2242    -1984    -2042 
   -2295    -2403    -2303    -2261    -2331    -2320    -2242    -2176 
   -2095    -2087    -2232    -2401    -2401    -2209    -2050    -2124 
   -2285    -2322    -2319    -2369    -2407    -2378    -2205    -1975 
   -1981    -2164    -2211    -2168    -2255    -2428    -2492    -2423 
   -2354    -2313    -2228    -2122    -2037    -1965    -1985    -2124 
   -2251    -2308    -2304    -2280    -2324    -2407    -2440    -2398 
   -2226    -2020    -2037    -2209    -2292    -2313    -2376    -2423 
   -2358    -2205    -2076    -1979    -1937    -2058    -2297    -2484 
   -2497    -2393    -2365    -2401    -2301    -2112    -2008    -2004 
   -2095    -2262    -2370    -2334    -2250    -2208    -2185    -2127 
   -2046    -2038    -2187    -2444    -2635    -2632    -2461    -2182 
   -1957    -1969    -2135    -2227    -2254    -2308    -2309    -2203 
   -2061    -1996    -2077    -2239    -2361    -2423    -2467    -2451 
   -2339    -2165    -1976    -1958    -2226    -2496    -2477    -2263 
   -2151    -2270    -2381    -2199    -1831    -1678    -1933    -2299 
   -2370    -2230    -2241    -2435    -2623    -2681    -2469    -2095 
   -1980    -2224    -2458    -2346    -1942    -1680    -1860    -2255 
   -2470    -2407    -2303    -2384    -2538    -2560    -2438    -2239 
   -2153    -2323    -2590    -2728    -2639    -2338    -2026    -1923 
   -1969    -1904    -1728    -1765    -2187    -2694    -2809    -2436 
   -2061    -2110    -2378    -2467    -2376    -2347    -2474    -2577 
   -2413    -2025    -1702    -1641    -1802    -2029    -2227    -2394 
   -2505    -2481    -2313    -2150    -2164    -2358    -2520    -2478 
   -2273    -2038    -1935    -2050    -2197    -2222    -2216    -2231 
   -2211    -2147    -2014    -1831    -1806    -2010    -2170    -2193 
   -2357    -2709    -2953    -2889    -2501    -1993    -1676    -1668 
   -1890    -2161    -2358    -2512    -2585    -2469    -2262    -2123 
   -2058    -2111    -2359    -2625    -2624    -2436    -2377    -2436 
   -2365    -2180    -2139    -2315    -2515    -2469    -2107    -1738 
   -1698    -1941    -2211    -2380    -2489    -2533    -2446    -2327 
   -2295    -2255    -2085    -1892    -1921    -2172    -2319    -2139 
   -1857    -1810    -1956    -1977    -1829    -1860    -2284    -2786 
   -2949    -2744    -2413    -2204    -2250    -2428    -2428    -2209 
   -2081    -2187    -2324    -2274    -2043    -1879    -1918    -2062 
   -2258    -2517    -2808    -2979    -2832    -2438    -2133    -2029 
   -1968    -1873    -1881    -2066    -2254    -2319    -2324    -2232 
   -2000    -1827    -1863    -2007    -2215    -2555    -2917    -3046 
   -2868    -2566    -2320    -2127    -2014    -2008    -1964    -1831 
   -1813    -1980    -2223    -2458    -2605    -2596    -2435    -2245 
   -2188    -2282    -2380    -2327    -2150    -2010    -1929    -1854 
   -1842    -1939    -2091    -2184    -2157    -2096    -2073    -2064 
   -2164    -2454    -2717    -2758    -2690    -2604    -2405    -2193 
   -2211    -2358    -2367    -2222    -2049    -1983    -2033    -2041 
   -2031    -2220    -2547    -2759    -2805    -2674    -2328    -1995 
   -1880    -1873    -1895    -1988    -2135    -2286    -2353    -2242 
   -1992    -1786    -1757    -1848    -1969    -2150    -2401    -2639 
   -2754    -2693    -2529    -2392    -2281    -2145    -2057    -2137 
   -2338    -2450    -2342    -2107    -1929    -1885    -1917    -2022 
   -2272    -2589    -2824    -2907    -2856    -2745    -2637    -2550 
   -2443    -2220    -1867    -1499    -1259    -1232    -1398    -1680 
   -2096    -2655    -3113    -3211    -3040    -2839    -2624    -2282 
   -1848    -1575    -1705    -2096    -2366    -2362    -2204    -1983 
   -1702    -1517    -1657    -2087    -2558    -2898    -3083    -3140 
   -3052    -2790    -2421    -2116    -1993    -1953    -1858    -1771 
   -1772    -1810    -1815    -1733    -1557    -1455    -1645    -2122 
   -2593    -2775    -2732    -2787    -3006    -3098    -2913    -2589 
   -2295    -2080    -1876    -1710    -1703    -1829    -2002    -2174 
   -2272    -2276    -2261    -2328    -2496    -2621    -2563    -2394 
   -2335    -2490    -2748    -2878    -2762    -2481    -2142    -1818 
   -1566    -1395    -1325    -1413    -1663    -2002    -2289    -2421 
   -2452    -2538    -2718    -2862    -2825    -2613    -2317    -2045 
   -1929    -2011    -2118    -2077    -1989    -2027    -2166    -2330 
   -2509    -2686    -2814    -2817    -2648    -2407    -2251    -2205 
   -2182    -2184    -2265    -2362    -2327    -2123    -1934    -1902 
   -1921    -1929    -1996    -2072    -2080    -2054    -2058    -2106 
   -2165    -2239    -2363    -2466    -2431    -2214    -1911    -1768 
   -1896    -2172    -2435    -2551    -2502    -2361    -2138    -1900 
   -1887    -2224    -2731    -3069    -3068    -2871    -2659    -2409 
   -2056    -1729    -1601    -1588    -1594    -1728    -1981    -2142 
   -2162    -2203    -2322    -2408    -2419    -2481    -2664    -2814 
   -2771    -2602    -2367    -2038    -1723    -1618    -1772    -2058 
   -2274    -2381    -2481    -2558    -2515    -2328    -2085    -1966 
   -2120    -2450    -2714    -2826    -2814    -2633    -2284    -1966 
   -1872    -1960    -2091    -2158    -2103    -1991    -1899    -1761 
   -1603    -1599    -1787    -2074    -2389    -2667    -2921    -3187 
   -3284    -3019    -2558    -2178    -1926    -1742    -1624    -1545 
   -1505    -1588    -1858    -2269    -2704    -2992    -3037    -2917 
   -2675    -2309    -1987    -1879    -1999    -2254    -2469    -2509 
   -2451    -2398    -2340    -2272    -2226    -2141    -1966    -1806 
   -1783    -1880    -1968    -2007    -2103    -2292    -2488    -2592 
   -2535    -2380    -2284    -2254    -2134    -1864    -1583    -1494 
   -1634    -1865    -2093    -2315    -2552    -2867    -3202    -3358 
   -3298    -3137    -2870    -2454    -2030    -1792    -1741    -1764 
   -1799    -1788    -1701    -1626    -1729    -1998    -2238    -2377 
   -2517    -2658    -2709    -2731    -2729    -2547    -2232    -2030 
   -1991    -2019    -2043    -2008    -1922    -1806    -1679    -1651 
   -1814    -2145    -2567    -2899    -2941    -2737    -2452    -2228 
   -2211    -2386    -2554    -2577    -2479    -2386    -2388    -2427 
   -2382    -2181    -1883    -1640    -1520    -1528    -1707    -2042 
   -2403    -2646    -2722    -2647    -2386    -1984    -1674    -1634 
   -1811    -2056    -2301    -2519    -2602    -2511    -2331    -2181 
   -2149    -2254    -2454    -2690    -2845    -2808    -2632    -2450 
   -2274    -2031    -1763    -1671    -1821    -2037    -2223    -2430 
   -2640    -2762    -2728    -2590    -2428    -2243    -2058    -1938 
   -1923    -1960    -1962    -1917    -1845    -1786    -1807    -1911 
   -2034    -2174    -2357    -2517    -2636    -2762    -2848    -2806 
   -2643    -2452    -2305    -2208    -2137    -2000    -1787    -1683 
   -1807    -2037    -2230    -2394    -2585    -2748    -2797    -2747 
   -2713    -2775    -2863    -2822    -2573    -2173    -1799    -1661 
   -1775    -1903    -1857    -1707    -1652    -1771    -1938    -2088 
   -2290    -2467    -2494    -2412    -2315    -2292    -2373    -2463 
   -2486    -2412    -2212    -2000    -1885    -1807    -1722    -1637 
   -1591    -1729    -2045    -2316    -2478    -2639    -2803    -2853 
   -2720    -2455    -2143    -1911    -1937    -2172    -2359    -2365 
   -2232    -2077    -1996    -1944    -1894    -2010    -2335    -2667 
   -2830    -2774    -2598    -2500    -2511    -2496    -2425    -2377 
   -2358    -2350    -2324    -2177    -1884    -1655    -1740    -2127 
   -2555    -2826    -2933    -2930    -2833    -2643    -2443    -2334 
   -2257    -2161    -2065    -1908    -1705    -1588    -1524    -1428 
   -1368    -1406    -1560    -1850    -2199    -2486    -2689    -2772 
   -2729    -2714    -2841    -2957    -2844    -2575    -2390    -2316 
   -2187    -1950    -1696    -1536    -1483    -1439    -1316    -1158 
   -1140    -1382    -1742    -2049    -2358    -2751    -3167    -3555 
   -3865    -3932    -3700    -3330    -2947    -2548    -2114    -1665 
   -1314    -1165    -1202    -1406    -1788    -2189    -2347    -2203 
   -1925    -1741    -1795    -2080    -2547    -3053    -3254    -2949 
   -2326    -1701    -1324    -1391    -1941    -2728    -3379    -3649 
   -3558    -3240    -2748    -2120    -1486    -1036     -907    -1085 
   -1426    -1737    -1956    -2166    -2446    -2928    -3681    -4419 
   -4834    -4946    -4855    -4581    -4066    -3148    -1815     -418 
     657     1347     1729     1784     1514      984      144    -1027 
   -2319    -3500    -4464    -5004    -4896    -4222    -3295    -2384 
   -1647    -1147     -838     -665     -608     -677     -954    -1501 
   -2226    -2978    -3649    -4228    -4791    -5294    -5562    -5497 
   -5143    -4641    -4120    -3601    -3017    -2384    -1803    -1206 
    -392      607     1547     2303     2862     3059     2698     1717 
     190    -1680    -3661    -5559    -7096    -7929    -7866    -6917 
   -5271    -3326    -1533     -275      255      171     -333    -1055 
   -1729    -2143    -2218    -2064    -1912    -2012    -2566    -3489 
   -4380    -4918    -5023    -4680    -3871    -2663    -1247       85 
     992     1246      924      283     -480    -1320    -2192    -2882 
   -3240    -3330    -3295    -3249    -3241    -3302    -3431    -3431 
   -3114    -2590    -2085    -1771    -1822    -2222    -2662    -2867 
   -2863    -2802    -2704    -2498    -2184    -1911    -1840    -1973 
   -2205    -2424    -2508    -2361    -2038    -1695    -1378    -1047 
    -768     -665     -807    -1175    -1679    -2277    -2964    -3580 
   -3871    -3793    -3468    -3024    -2563    -2100    -1602    -1154 
    -896     -924    -1320    -1996    -2659    -3084    -3207    -3034 
   -2698    -2409    -2317    -2447    -2754    -3127    -3400    -3477 
   -3427    -3311    -2984    -2309    -1447     -687     -253     -317 
    -901    -1823    -2798    -3572    -3958    -3890    -3406    -2575 
   -1505     -357      631     1177     1112      486     -527    -1690 
   -2735    -3433    -3680    -3588    -3434    -3403    -3457    -3534 
   -3709    -4000    -4253    -4263    -3846    -2979    -1869     -769 
      99      527      503      237     -171     -753    -1470    -2268 
   -3088    -3823    -4414    -4853    -5065    -5000    -4662    -3936 
   -2803    -1563     -568       45      307      321      174     -155 
    -685    -1374    -2128    -2816    -3397    -3952    -4514    -4990 
   -5192    -5026    -4607    -4006    -3119    -1912     -670      230 
     683      726      391     -245    -1084    -2012    -2855    -3429 
   -3634    -3470    -3017    -2385    -1715    -1247    -1182    -1451 
   -1837    -2238    -2579    -2756    -2751    -2643    -2513    -2397 
   -2304    -2247    -2196    -2100    -1993    -1945    -1939    -1927 
   -1965    -2151    -2452    -2709    -2791    -2674    -2443    -2251 
   -2215    -2339    -2571    -2851    -3045    -3017    -2812    -2614 
   -2500    -2366    -2087    -1657    -1256    -1077    -1165    -1493 
   -1945    -2316    -2550    -2681    -2666    -2542    -2458    -2486 
   -2616    -2851    -3150    -3384    -3415    -3231    -2944    -2629 
   -2304    -2011    -1794    -1651    -1544    -1417    -1300    -1312 
   -1478    -1729    -2016    -2268    -2396    -2378    -2363    -2521 
   -2737    -2709    -2338    -1775    -1232     -935     -934    -1026 
   -1026     -912     -787     -824    -1124    -1703    -2508    -3321 
   -3885    -4153    -4247    -4220    -4052    -3771    -3462    -3187 
   -2955    -2766    -2589    -2362    -2056    -1644    -1144     -707 
    -469     -448     -612     -918    -1328    -1863    -2494    -3068 
   -3402    -3446    -3310    -3127    -2978    -2907    -2893    -2787 
   -2439    -1922    -1424    -1001     -702     -702    -1011    -1377 
   -1678    -2016    -2452    -2890    -3171    -3238    -3192    -3168 
   -3218    -3283    -3256    -3057    -2686    -2245    -1872    -1656 
   -1634    -1810    -2091    -2347    -2502    -2542    -2466    -2328 
   -2243    -2272    -2336    -2332    -2312    -2392    -2527    -2617 
   -2682    -2720    -2656    -2466    -2189    -1876    -1528    -1134 
    -710     -315     -116     -236     -653    -1312    -2120    -2870 
   -3419    -3769    -3921    -3883    -3720    -3512    -3287    -3013 
   -2655    -2250    -1880    -1553    -1236     -999     -969    -1175 
   -1548    -1973    -2357    -2651    -2799    -2697    -2338    -1891 
   -1556    -1459    -1640    -1979    -2320    -2612    -2845    -3030 
   -3161    -3188    -3129    -3063    -3038    -3111    -3287    -3430 
   -3377    -3061    -2527    -1902    -1321     -903     -723     -772 
   -1026    -1474    -2020    -2527    -2844    -2901    -2763    -2478 
   -2043    -1571    -1236    -1092    -1040    -1008    -1081    -1364 
   -1790    -2197    -2512    -2745    -2843    -2744    -2575    -2496 
   -2497    -2527    -2574    -2612    -2606    -2527    -2335    -2027 
   -1696    -1490    -1524    -1883    -2550    -3289    -3874    -4203 
   -4194    -3858    -3329    -2697    -2042    -1475    -1036     -707 
    -517     -475     -580     -909    -1440    -2011    -2513    -2911 
   -3213    -3469    -3676    -3730    -3565    -3196    -2658    -2031 
   -1466    -1129    -1108    -1337    -1655    -1938    -2174    -2374 
   -2498    -2471    -2269    -2004    -1877    -1983    -2269    -2635 
   -2956    -3094    -3001    -2814    -2675    -2520    -2246    -1907 
   -1661    -1613    -1763    -2068    -2427    -2698    -2813    -2785 
   -2650    -2448    -2246    -2014    -1628    -1144     -762     -565 
    -572     -785    -1117    -1486    -1883    -2308    -2748    -3179 
   -3562    -3817    -3883    -3844    -3842    -3815    -3626    -3268 
   -2768    -2184    -1686    -1397    -1275    -1260    -1337    -1482 
   -1645    -1792    -1927    -2062    -2177    -2243    -2242    -2184 
   -2131    -2126    -2187    -2351    -2552    -2625    -2594    -2647 
   -2833    -3021    -3041    -2837    -2515    -2177    -1831    -1510 
   -1278    -1163    -1202    -1386    -1586    -1671    -1640    -1580 
   -1557    -1583    -1629    -1710    -1914    -2280    -2695    -3011 
   -3213    -3348    -3462    -3572    -3618    -3549    -3369    -3068 
   -2644    -2189    -1806    -1539    -1424    -1525    -1838    -2259 
   -2637    -2824    -2768    -2563    -2338    -2177    -2139    -2253 
   -2424    -2484    -2378    -2162    -1875    -1567    -1308    -1112 
    -967     -904     -974    -1192    -1518    -1885    -2227    -2533 
   -2786    -2926    -3005    -3115    -3149    -2979    -2663    -2309 
   -2023    -1933    -2058    -2296    -2501    -2581    -2543    -2438 
