Origin Time       2025/03/28 03:50:00
Lat.              35.403
Long.             140.360
Depth. (km)       54
Mag.              4.4
Station Code      TKY016
Station Lat.      35.6486
Station Long.     139.7990
Station Height(m) 2
Record Time       2025/03/28 03:51:01
Sampling Freq(Hz) 100Hz
Duration Time(s)  60
Dir.              U-D
Scale Factor      7845(gal)/8223790
Max. Acc. (gal)   1.161
Last Correction   2025/03/28 03:51:01
Memo.             
[...]
    3532     3528     3530     3532     3528     3527     3526     3523 
    3524     3523     3519     3518     3520     3522     3523     3527 
    3531     3532     3535     3538     3541     3542     3545     3550 
    3553     3550     3547     3549     3553     3553     3551     3550 
    3543     3537     3531     3528     3527     3526     3522     3522 
    3523     3522     3519     3519     3522     3520     3520     3520 
    3518     3518     3523     3528     3531     3532     3535     3539 
    3543     3546     3546     3541     3541     3545     3547     3553 
    3558     3558     3554     3553     3553     3549     3543     3541 
    3539     3537     3535     3538     3539     3535     3530     3528 
    3528     3524     3519     3515     3512     3511     3515     3518 
    3516     3518     3520     3523     3526     3524     3523     3527 
    3532     3537     3539     3542     3541     3538     3535     3534 
    3535     3537     3538     3538     3539     3541     3538     3534 
    3532     3531     3527     3527     3531     3532     3534     3534 
    3532     3532     3532     3534     3537     3535     3532     3531 
    3530     3530     3532     3532     3530     3528     3528     3530 
    3527     3524     3523     3522     3522     3523     3524     3522 
    3520     3523     3526     3524     3526     3527     3527     3527 
    3527     3526     3530     3534     3532     3528     3524     3526 
    3527     3528     3530     3531     3528     3528     3527     3526 
    3527     3526     3526     3528     3531     3530     3528     3531 
    3531     3530     3530     3531     3535     3538     3537     3534 
    3532     3535     3537     3532     3532     3539     3542     3538 
    3532     3531     3531     3531     3532     3538     3541     3538 
    3538     3541     3537     3537     3542     3547     3549     3545 
    3541     3539     3538     3535     3534     3532     3532     3535 
    3537     3538     3538     3535     3531     3531     3531     3531 
    3526     3523     3523     3523     3522     3519     3516     3514 
    3507     3504     3505     3510     3515     3520     3522     3522 
    3523     3522     3522     3524     3528     3532     3534     3531 
    3534     3539     3541     3543     3542     3538     3538     3541 
    3541     3541     3541     3542     3543     3542     3538     3535 
    3535     3532     3531     3532     3534     3534     3531     3526 
    3520     3520     3522     3523     3524     3528     3532     3534 
    3537     3542     3541     3538     3543     3543     3539     3539 
    3538     3538     3545     3546     3543     3543     3545     3546 
    3543     3542     3543     3543     3535     3530     3530     3531 
    3532     3530     3526     3523     3522     3524     3528     3527 
    3524     3524     3527     3530     3532     3534     3531     3527 
    3528     3531     3534     3535     3535     3539     3541     3535 
    3537     3541     3537     3532     3532     3535     3535     3532 
    3531     3531     3527     3527     3539     3554     3570     3589 
    3608     3624     3645     3670     3703     3734     3759     3777 
    3780     3763     3721     3643     3541     3431     3325     3233 
    3179     3177     3202     3191     3125     3051     3024     3072 
    3233     3478     3655     3659     3596     3592     3622     3667 
    3740     3751     3685     3696     3798     3811     3694     3573 
    3439     3283     3314     3570     3715     3615     3550     3607 
    3584     3527     3605     3661     3578     3559     3642     3635 
    3520     3404     3300     3204     3199     3306     3408     3443 
    3477     3547     3612     3631     3609     3603     3647     3693 
    3686     3657     3626     3588     3569     3616     3699     3688 
    3542     3392     3362     3439     3568     3689     3742     3693 
    3562     3451     3426     3406     3361     3369     3443     3535 
    3586     3524     3356     3186     3114     3184     3362     3534 
    3642     3759     3919     3996     3888     3659     3449     3348 
    3407     3608     3766     3692     3505     3429     3422     3368 
    3312     3331     3412     3559     3746     3785     3640     3564 
    3628     3650     3597     3555     3523     3485     3501     3631 
    3794     3796     3611     3437     3338     3240     3186     3217 
    3252     3248     3218     3217     3381     3717     3985     4060 
    4013     3848     3601     3442     3412     3397     3407     3493 
    3578     3627     3665     3612     3487     3445     3458     3438 
    3462     3543     3591     3626     3704     3774     3731     3596 
    3504     3435     3322     3310     3380     3295     3187     3298 
    3435     3433     3454     3532     3531     3532     3647     3757 
    3758     3727     3748     3812     3820     3699     3535     3442 
    3395     3393     3477     3559     3541     3500     3507     3507 
    3485     3478     3511     3578     3580     3480     3427     3484 
    3516     3460     3406     3389     3358     3343     3451     3685 
    3850     3793     3659     3624     3596     3484     3412     3462 
    3497     3495     3609     3742     3674     3534     3485     3454 
    3442     3499     3527     3483     3460     3512     3605     3703 
    3753     3666     3447     3281     3294     3396     3516     3636 
    3659     3574     3539     3632     3746     3770     3701     3574 
    3454     3399     3372     3370     3443     3504     3481     3495 
    3566     3557     3462     3362     3268     3245     3357     3503 
    3592     3673     3748     3724     3592     3456     3392     3370 
    3375     3451     3588     3661     3636     3619     3657     3694 
    3705     3690     3662     3604     3485     3395     3454     3574 
    3634     3632     3526     3323     3229     3326     3472     3636 
    3843     3920     3823     3766     3777     3678     3523     3434 
    3326     3207     3219     3308     3325     3307     3330     3354 
    3381     3469     3600     3715     3767     3712     3628     3642 
    3715     3761     3804     3829     3742     3534     3325     3233 
    3248     3248     3207     3241     3353     3439     3522     3624 
    3632     3566     3568     3619     3670     3796     3956     4023 
    3960     3775     3546     3424     3387     3296     3204     3199 
    3177     3107     3132     3272     3379     3426     3516     3661 
    3775     3843     3897     3910     3836     3681     3497     3383 
    3391     3418     3365     3280     3190     3071     3015     3121 
    3288     3384     3435     3569     3846     4145     4280     4276 
    4213     4028     3781     3589     3391     3179     3061     3055 
    3144     3272     3327     3316     3375     3543     3705     3788 
    3831     3843     3798     3753     3762     3773     3716     3592 
    3437     3288     3200     3230     3389     3604     3736     3701 
    3577     3476     3447     3539     3711     3781     3643     3423 
    3307     3335     3418     3488     3535     3528     3407     3256 
    3245     3298     3280     3289     3364     3423     3527     3685 
    3798     3861     3856     3736     3588     3519     3538     3562 
    3483     3369     3352     3375     3406     3534     3711     3825 
    3909     3990     3990     3885     3746     3599     3418     3283 
    3316     3446     3488     3433     3381     3295     3136     3069 
    3177     3283     3306     3376     3554     3727     3784     3759 
    3748     3738     3709     3740     3807     3824     3809     3769 
    3662     3504     3325     3150     3083     3173     3319     3418 
    3474     3504     3527     3616     3767     3866     3883     3867 
    3770     3535     3238     3002     2870     2853     3011     3279 
    3442     3507     3653     3823     3937     4091     4182     4021 
    3751     3573     3431     3258     3180     3279     3406     3472 
    3559     3608     3503     3410     3476     3576     3658     3789 
    3873     3832     3811     3843     3754     3515     3302     3213 
    3229     3330     3496     3616     3608     3557     3591     3674 
    3638     3422     3218     3242     3412     3554     3640     3635 
    3519     3441     3514     3651     3704     3584     3350     3190 
    3196     3292     3406     3588     3843     4014     4027     3954 
    3784     3485     3210     3092     3071     3073     3148     3322 
    3487     3580     3678     3802     3862     3843     3838     3854 
    3821     3761     3750     3726     3596     3430     3265     3078 
    2961     2994     3094     3215     3403     3630     3829     3981 
    4056     4036     3920     3700     3449     3287     3246     3283 
    3314     3296     3311     3397     3423     3358     3377     3485 
    3483     3388     3415     3546     3627     3699     3823     3877 
    3788     3655     3615     3712     3821     3796     3663     3527 
    3442     3450     3522     3564     3537     3477     3435     3458 
    3519     3530     3500     3508     3523     3516     3505     3427 
    3321     3339     3472     3573     3576     3485     3375     3352 
    3453     3573     3586     3503     3414     3389     3429     3503 
    3599     3659     3635     3597     3580     3537     3487     3484 
    3522     3558     3512     3416     3408     3481     3537     3605 
    3690     3708     3704     3707     3626     3528     3545     3555 
    3462     3387     3342     3268     3281     3454     3667     3825 
    3859     3739     3645     3700     3755     3724     3636     3451 
    3237     3198     3323     3439     3515     3585     3613     3601 
    3611     3643     3636     3555     3477     3500     3543     3474 
    3414     3477     3546     3619     3775     3838     3704     3520 
    3329     3126     3034     3080     3129     3137     3213     3365 
    3477     3526     3554     3532     3477     3469     3473     3499 
    3659     3896     4023     4048     4068     4056     4017     4051 
    4108     4033     3867     3712     3554     3420     3393     3442 
    3464     3451     3483     3568     3653     3707     3701     3555 
    3241     2872     2625     2593     2737     2928     3084     3187 
    3261     3346     3456     3570     3627     3632     3680     3751 
    3786     3840     3901     3862     3769     3713     3630     3511 
    3480     3559     3676     3777     3769     3635     3519     3473 
    3469     3543     3622     3561     3441     3403     3411     3442 
    3581     3748     3738     3601     3505     3407     3284     3298 
    3424     3480     3465     3480     3547     3643     3735     3771 
    3694     3519     3357     3306     3348     3441     3559     3620 
    3581     3522     3495     3456     3377     3316     3312     3343 
    3389     3465     3541     3543     3516     3553     3622     3700 
    3851     4064     4212     4207     4083     3865     3570     3329 
    3188     3057     2975     3009     3092     3230     3443     3559 
    3476     3352     3296     3264     3253     3295     3342     3375 
    3461     3636     3846     4025     4163     4266     4298     4228 
    4094     3925     3707     3520     3457     3445     3404     3385 
    3385     3307     3186     3148     3150     3084     3037     3110 
    3234     3352     3480     3595     3624     3564     3476     3400 
    3361     3400     3495     3569     3605     3596     3504     3393 
    3343     3365     3474     3653     3805     3889     3906     3862 
    3809     3781     3744     3692     3632     3604     3640     3721 
    3813     3873     3867     3835     3835     3854     3773     3524 
    3221     3005     2956     3046     3148     3186     3159     3071 
    2994     3068     3296     3523     3662     3785     3929     4037 
    4056     3990     3846     3626     3385     3195     3078     3073 
    3172     3275     3392     3666     4085     4418     4542     4521 
    4328     3927     3468     3098     2797     2546     2467     2654 
    3060     3601     4126     4399     4344     4098     3763     3397 
    3130     3033     3065     3168     3291     3397     3472     3497 
    3493     3510     3554     3607     3640     3616     3534     3453 
    3414     3377     3345     3410     3566     3700     3792     3894 
    3927     3773     3524     3315     3078     2806     2666     2670 
    2754     2975     3284     3542     3727     3874     3960     3958 
    3874     3743     3645     3645     3750     3947     4156     4287 
    4422     4587     4641     4577     4426     4113     3688     3300 
    2997     2745     2528     2394     2411     2567     2828     3164 
    3528     3804     3904     3912     3890     3748     3545     3414 
    3337     3281     3269     3289     3319     3318     3248     3165 
    3132     3159     3279     3493     3704     3848     3970     4081 
    4128     4079     3952     3784     3611     3453     3333     3268 
    3214     3103     2978     2953     3061     3223     3406     3673 
    4016     4297     4455     4518     4463     4271     4006     3719 
    3416     3125     2874     2686     2624     2713     2863     3021 
    3203     3379     3510     3616     3685     3678     3626     3586 
    3541     3458     3372     3314     3291     3337     3501     3763 
    4024     4236     4453     4665     4749     4634     4368     4031 
    3685     3366     3122     2999     2949     2889     2868     2955 
    3072     3130     3168     3253     3368     3470     3570     3655 
    3688     3703     3732     3713     3623     3504     3360     3167 
    3006     2986     3102     3260     3399     3523     3636     3700 
    3732     3794     3859     3898     3955     4027     4039     3958 
    3813     3657     3514     3372     3272     3292     3395     3492 
    3595     3711     3751     3690     3638     3626     3555     3435 
    3366     3338     3312     3329     3388     3445     3497     3551 
    3607     3663     3680     3650     3595     3508     3396     3300 
    3235     3172     3082     3033     3060     3079     3113     3269 
    3483     3619     3701     3798     3875     3885     3910     4012 
    4083     4074     4085     4110     4031     3832     3585     3356 
    3221     3183     3171     3173     3222     3323     3484     3713 
    3950     4078     4025     3823     3574     3353     3148     2984 
    2929     2914     2849     2806     2844     2926     3053     3250 
    3456     3612     3742     3886     4035     4133     4175     4182 
    4106     3929     3770     3712     3682     3608     3481     3339 
    3260     3264     3280     3279     3298     3343     3387     3392 
    3380     3415     3483     3545     3603     3646     3673     3728 
    3815     3897     3959     3959     3870     3763     3715     3693 
    3655     3634     3623     3581     3530     3474     3381     3311 
    3352     3481     3600     3634     3596     3510     3369     3211 
    3106     3029     2953     2940     3017     3156     3341     3501 
    3564     3576     3613     3677     3766     3888     3983     3986 
    3909     3786     3636     3496     3414     3388     3388     3433 
    3524     3588     3570     3492     3379     3240     3123     3082 
    3090     3118     3188     3298     3420     3592     3811     3997 
    4139     4271     4369     4403     4374     4268     4082     3819 
    3515     3268     3127     3044     2983     2967     2979     2998 
    3037     3105     3171     3235     3337     3469     3577     3626 
    3638     3657     3699     3775     3879     3956     3981     3982 
    3989     3990     3970     3913     3836     3757     3635     3478 
    3372     3335     3296     3233     3183     3127     3032     2929 
    2880     2911     2990     3075     3196     3404     3638     3811 
    3920     3950     3858     3686     3514     3377     3284     3227 
    3202     3261     3400     3518     3592     3684     3766     3802 
    3834     3881     3932     3974     3983     3940     3840     3713 
    3585     3454     3348     3285     3241     3200     3195     3229 
    3300     3445     3658     3871     4029     4129     4160     4105 
    3994     3862     3731     3627     3551     3488     3407     3315 
    3267     3242     3188     3129     3103     3076     3034     3030 
    3072     3098     3105     3144     3215     3285     3354     3416 
    3462     3528     3609     3658     3721     3834     3958     4105 
    4275     4367     4314     4167     3994     3809     3640     3534 
    3461     3381     3333     3366     3435     3481     3519     3541 
    3508     3474     3477     3450     3395     3370     3352     3312 
    3300     3312     3307     3308     3353     3430     3511     3578 
    3601     3542     3418     3326     3319     3345     3354     3360 
    3377     3376     3339     3322     3364     3427     3519     3677 
    3871     4018     4055     3950     3767     3616     3499     3362 
    3250     3229     3271     3333     3435     3585     3701     3716 
    3649     3566     3535     3565     3618     3676     3711     3709 
    3716     3732     3720     3703     3700     3646     3543     3488 
    3489     3487     3492     3546     3639     3744     3838     3878 
    3817     3653     3437     3238     3119     3109     3156     3184 
    3199     3260     3375     3512     3662     3815     3939     4014 
    4037     4002     3881     3680     3462     3283     3145     3032 
    2967     2970     3015     3102     3242     3408     3559     3682 
    3771     3838     3894     3921     3909     3881     3834     3766 
    3705     3654     3607     3566     3518     3441     3339     3249 
    3179     3141     3181     3300     3441     3581     3717     3824 
    3874     3828     3694     3569     3503     3456     3415     3402 
    3388     3348     3316     3337     3373     3385     3381     3372 
    3352     3312     3271     3258     3291     3360     3470     3603 
    3711     3784     3832     3828     3738     3609     3515     3477 
    3473     3503     3569     3635     3705     3817     3927     3970 
    3947     3875     3766     3661     3597     3574     3586     3643 
    3717     3755     3720     3609     3449     3299     3207     3161 
    3159     3223     3311     3360     3392     3443     3473     3469 
    3481     3539     3615     3678     3721     3731     3673     3576 
    3508     3456     3388     3319     3238     3141     3076     3065 
    3078     3088     3110     3156     3233     3357     3515     3674 
    3802     3886     3932     3962     3966     3952     3947     3917 
    3844     3769     3694     3608     3546     3532     3532     3527 
    3535     3561     3584     3577     3545     3518     3508     3523 
    3607     3731     3813     3843     3855     3846     3781     3655 
    3507     3352     3186     3048     2974     2932     2917     2957 
    3045     3149     3244     3299     3323     3330     3333     3377 
    3466     3562     3672     3813     3982     4139     4243     4284 
    4261     4163     4012     3867     3750     3650     3585     3559 
