Origin Time       2025/03/28 03:50:00
Lat.              35.403
Long.             140.360
Depth. (km)       54
Mag.              4.4
Station Code      TKY009
Station Lat.      34.6867
Station Long.     139.4410
Station Height(m) 53
Record Time       2025/03/28 03:51:10
Sampling Freq(Hz) 100Hz
Duration Time(s)  60
Dir.              N-S
Scale Factor      7845(gal)/8223790
Max. Acc. (gal)   1.438
Last Correction   2025/03/28 03:51:10
Memo.             
[...]
   -3009    -2984    -2943    -2976    -3005    -2952    -2960    -3025 
   -2982    -2938    -2980    -2964    -2961    -3010    -2988    -2956 
   -2979    -2990    -2975    -2955    -2947    -2988    -3030    -2974 
   -2911    -2959    -3026    -3007    -2947    -2940    -2987    -3013 
   -2967    -2924    -2955    -3011    -3009    -2956    -2943    -2965 
   -2982    -2997    -2970    -2932    -2965    -3006    -3005    -2964 
   -2922    -2970    -3021    -3018    -3002    -2936    -2921    -2979 
   -3011    -3017    -2943    -2890    -2988    -3024    -2970    -2982 
   -2986    -2982    -2998    -2949    -2918    -2978    -3018    -2967 
   -2894    -2897    -2936    -2980    -3015    -2976    -2952    -3017 
   -3061    -3051    -3002    -2987    -3045    -3040    -2982    -2964 
   -2929    -2929    -2984    -2960    -2938    -2990    -3032    -3087 
   -3096    -3024    -3010    -3030    -2945    -2810    -2829    -2956 
   -2948    -2828    -2828    -3033    -3199    -3153    -3106    -3118 
   -3083    -3017    -2945    -2880    -2809    -2791    -2879    -2902 
   -2826    -2871    -3105    -3280    -3114    -2857    -2947    -3179 
   -3152    -2928    -2821    -2901    -2953    -2889    -2837    -2901 
   -2965    -2934    -2983    -3153    -3222    -3180    -3167    -3163 
   -3144    -3096    -2951    -2740    -2605    -2585    -2664    -2725 
   -2774    -2982    -3130    -3180    -3389    -3389    -3019    -2839 
   -3040    -3269    -3125    -2700    -2551    -2875    -3272    -3157 
   -2519    -2208    -2627    -3090    -3121    -2859    -2573    -2662 
   -3208    -3739    -3771    -3319    -2847    -2682    -2875    -3306 
   -3555    -3379    -3029    -2802    -2793    -2793    -2639    -2693 
   -2988    -2991    -2552    -2043    -2204    -3346    -4293    -3971 
   -3084    -2543    -2428    -2802    -3445    -3541    -2905    -2490 
   -2880    -3381    -3082    -2305    -2278    -3083    -3628    -3349 
   -2481    -2034    -2756    -3800    -4190    -3902    -3183    -2508 
   -2344    -2700    -3241    -3493    -3169    -2581    -2434    -2781 
   -2855    -2536    -2682    -3426    -3623    -2718    -1894    -2330 
   -3299    -3626    -3406    -3095    -2955    -3041    -3011    -2868 
   -2911    -3056    -3184    -3184    -2771    -2222    -2331    -3140 
   -3842    -3847    -3302    -2706    -2436    -2655    -3098    -3348 
   -3364    -3053    -2604    -2678    -3123    -3388    -3348    -2826 
   -2130    -2081    -2776    -3348    -3169    -2845    -3022    -3219 
   -3053    -2943    -3123    -3196    -2836    -2528    -2902    -3360 
   -3006    -2583    -3092    -3738    -3531    -2929    -2713    -2874 
   -2802    -2500    -2720    -3225    -3207    -2844    -2598    -2655 
   -3060    -3443    -3435    -3115    -2778    -2725    -3018    -3431 
   -3516    -2961    -2347    -2308    -2548    -2732    -2884    -3076 
   -3348    -3484    -3381    -3393    -3596    -3530    -2901    -2120 
   -1987    -2558    -3080    -3173    -3028    -2917    -3045    -3322 
   -3304    -2848    -2421    -2452    -2812    -3015    -3052    -3387 
   -3708    -3370    -2829    -2808    -3177    -3335    -2878    -2224 
   -2305    -3068    -3530    -3311    -2817    -2506    -2602    -2988 
   -3368    -3395    -2897    -2535    -2917    -3339    -3261    -3157 
   -3194    -3142    -2963    -2809    -2844    -2841    -2675    -2714 
   -2975    -3046    -2916    -2911    -3045    -2975    -2790    -2944 
   -3268    -3238    -2929    -2760    -2899    -3240    -3478    -3384 
   -2994    -2535    -2423    -2646    -2693    -2710    -3028    -3199 
   -3140    -3316    -3580    -3420    -2808    -2305    -2482    -3072 
   -3249    -2965    -3044    -3515    -3503    -2867    -2331    -2416 
   -2911    -3122    -2859    -2660    -2864    -3329    -3738    -3639 
   -2938    -2297    -2407    -3168    -3666    -3273    -2596    -2504 
   -2960    -3318    -3114    -2558    -2351    -2733    -3159    -3138 
   -2849    -2727    -2929    -3427    -3924    -3862    -3168    -2444 
   -2247    -2583    -3015    -3153    -3042    -2971    -2917    -2717 
   -2663    -2951    -3206    -3219    -3127    -2916    -2700    -2793 
   -3123    -3264    -3044    -2852    -3136    -3472    -3230    -2851 
   -2816    -2855    -2879    -2828    -2685    -2675    -2745    -3080 
   -3670    -3655    -2965    -2442    -2316    -2454    -2941    -3624 
   -3817    -3208    -2585    -2693    -3115    -3127    -2910    -3006 
   -3160    -2968    -2691    -2637    -2856    -3119    -3095    -2868 
   -2762    -2937    -3191    -3103    -2737    -2705    -3195    -3519 
   -3240    -2851    -2799    -2998    -3187    -3064    -2673    -2559 
   -2870    -3069    -2951    -2890    -3034    -3123    -3075    -2867 
   -2536    -2646    -3252    -3523    -3326    -3113    -2884    -2656 
   -2623    -2859    -3269    -3503    -3333    -2963    -2695    -2643 
   -2704    -2808    -3003    -3188    -3208    -3030    -2763    -2794 
   -3219    -3424    -2963    -2354    -2423    -3005    -3356    -3356 
   -3145    -2786    -2598    -2843    -3283    -3389    -3032    -2763 
   -2943    -3138    -3001    -2729    -2668    -2889    -3098    -3329 
   -3531    -3157    -2525    -2428    -2803    -3110    -3073    -3014 
   -3115    -3109    -2990    -2866    -2798    -2864    -3028    -3234 
   -3275    -3106    -3055    -3102    -2917    -2596    -2488    -2640 
   -2825    -2875    -2975    -3245    -3370    -3310    -3238    -2901 
   -2451    -2540    -3063    -3393    -3235    -2851    -2814    -3063 
   -3107    -3063    -3106    -3003    -2744    -2635    -2817    -3041 
   -3036    -2960    -3059    -3233    -3300    -3196    -2867    -2528 
   -2644    -3088    -3304    -3289    -3237    -3018    -2720    -2748 
   -3103    -3260    -3026    -2697    -2579    -2797    -3113    -3168 
   -3009    -2956    -2999    -2925    -2964    -3203    -3173    -2909 
   -2848    -2862    -2802    -3003    -3372    -3334    -2872    -2609 
   -2863    -3173    -3033    -2705    -2729    -3026    -3245    -3302 
   -3065    -2654    -2609    -2934    -3161    -3099    -2917    -2936 
   -3087    -3107    -3096    -3059    -2963    -2979    -2959    -2744 
   -2647    -2890    -3141    -3098    -3009    -2968    -2828    -2860 
   -3159    -3283    -3145    -2970    -2797    -2782    -3075    -3318 
   -3186    -2961    -2940    -2906    -2683    -2552    -2837    -3261 
   -3323    -3073    -2758    -2556    -2736    -3069    -3163    -3190 
   -3246    -3123    -2836    -2656    -2794    -3084    -3123    -2863 
   -2758    -2988    -3140    -3028    -2933    -3110    -3419    -3304 
   -2782    -2496    -2533    -2775    -3180    -3296    -3052    -2918 
   -2961    -2882    -2670    -2749    -3252    -3551    -3200    -2663 
   -2673    -3142    -3346    -3196    -3073    -2987    -2876    -2744 
   -2578    -2587    -2859    -3140    -3279    -3217    -2957    -2748 
   -2767    -2948    -3176    -3360    -3466    -3372    -2948    -2556 
   -2637    -2940    -3037    -2929    -2714    -2581    -2863    -3310 
   -3276    -2913    -2794    -2957    -3019    -2824    -2775    -3032 
   -3150    -3057    -3065    -3256    -3399    -3176    -2721    -2500 
   -2644    -2948    -3149    -3192    -3125    -2910    -2820    -3061 
   -3171    -2940    -2740    -2651    -2720    -3114    -3418    -3238 
   -2961    -2941    -3045    -3018    -2878    -2833    -2860    -2921 
   -3022    -2970    -2860    -2947    -3052    -3098    -3218    -3269 
   -3167    -2972    -2686    -2558    -2826    -3194    -3214    -2953 
   -2886    -3106    -3171    -2937    -2762    -2768    -2826    -2929 
   -3057    -3138    -3145    -3057    -2921    -2848    -2875    -2945 
   -2965    -2874    -2749    -2836    -3215    -3484    -3285    -2866 
   -2659    -2835    -3176    -3219    -2953    -2830    -2863    -2790 
   -2781    -3042    -3285    -3198    -2948    -2785    -2770    -2862 
   -2978    -3159    -3302    -3222    -3045    -2920    -2817    -2674 
   -2550    -2654    -2937    -3146    -3229    -3154    -2934    -2843 
   -3082    -3302    -3103    -2763    -2755    -3042    -3235    -3117 
   -2875    -2812    -2994    -3200    -3111    -2681    -2389    -2683 
   -3202    -3360    -3103    -2903    -3149    -3376    -3109    -2724 
   -2677    -2901    -3042    -2943    -2816    -2913    -3206    -3277 
   -2889    -2556    -2735    -3065    -3146    -3082    -3098    -3114 
   -2970    -2949    -3217    -3267    -2914    -2643    -2740    -2944 
   -2976    -2976    -3065    -3148    -3145    -3053    -3021    -3091 
   -3032    -2808    -2732    -2845    -2879    -2862    -2970    -3092 
   -3060    -2943    -2839    -2864    -3150    -3321    -2984    -2612 
   -2891    -3519    -3527    -2884    -2466    -2701    -3090    -2930 
   -2632    -2936    -3369    -3304    -2987    -2932    -3119    -3061 
   -2783    -2729    -2938    -3164    -3180    -3005    -2891    -2875 
   -2839    -2924    -3181    -3257    -3029    -2798    -2702    -2816 
   -3095    -3113    -2864    -2839    -3028    -3207    -3318    -3150 
   -2749    -2589    -2794    -3015    -3052    -3005    -2928    -2871 
   -3026    -3242    -3061    -2666    -2691    -3013    -3032    -2870 
   -3007    -3276    -3292    -3115    -2979    -2886    -2693    -2578 
   -2783    -3087    -3238    -3168    -2940    -2816    -2856    -2924 
   -2975    -2949    -2920    -3094    -3291    -3138    -2849    -2813 
   -2902    -2943    -2951    -2961    -3032    -2991    -2820    -2886 
   -3127    -3148    -2997    -2944    -3015    -3076    -3029    -2910 
   -2829    -2836    -2951    -3115    -3202    -3200    -3142    -3037 
   -2867    -2690    -2648    -2748    -2891    -3025    -3173    -3267 
   -3161    -3033    -3024    -2936    -2714    -2624    -2866    -3099 
   -2965    -2785    -2902    -3146    -3260    -3217    -3125    -3037 
   -2933    -2844    -2833    -2855    -2880    -3009    -3136    -3026 
   -2875    -2987    -3111    -2987    -2879    -2929    -2943    -2802 
   -2691    -2970    -3366    -3300    -2976    -2835    -2940    -3107 
   -3109    -2999    -2840    -2755    -2937    -3038    -2907    -2963 
   -3257    -3424    -3227    -2911    -2739    -2573    -2565    -2826 
   -3040    -3080    -2997    -3014    -3310    -3438    -3102    -2740 
   -2687    -2776    -2855    -2925    -3005    -3157    -3339    -3419 
   -3254    -2843    -2581    -2632    -2762    -2947    -3125    -3213 
   -3199    -3030    -2907    -2937    -3014    -3083    -2916    -2621 
   -2644    -2910    -3114    -3136    -3037    -3019    -3026    -2970 
   -2988    -2964    -2781    -2771    -3048    -3231    -3141    -2976 
   -2891    -2863    -2845    -2863    -3011    -3245    -3241    -2878 
   -2606    -2790    -3202    -3377    -3103    -2772    -2782    -2906 
   -2901    -2785    -2821    -3218    -3422    -3033    -2735    -2961 
   -3171    -2934    -2655    -2785    -3109    -3240    -3003    -2643 
   -2745    -3276    -3554    -3187    -2612    -2551    -2882    -3096 
   -3069    -2856    -2747    -2959    -3202    -3148    -3003    -3086 
   -3107    -2867    -2789    -3003    -3208    -3144    -2880    -2875 
   -3007    -2864    -2749    -2889    -3073    -3127    -2979    -2829 
   -2898    -3060    -2992    -2754    -2901    -3360    -3449    -3133 
   -2848    -2833    -2960    -2974    -2886    -2875    -2974    -3024 
   -3013    -3007    -2872    -2751    -2916    -3214    -3314    -3064 
   -2824    -2925    -2945    -2714    -2756    -3080    -3288    -3295 
   -3084    -2783    -2725    -2967    -3176    -3126    -3034    -3157 
   -3250    -2957    -2596    -2675    -2971    -3019    -2871    -2837 
   -2975    -3021    -2886    -2851    -3002    -3136    -3137    -3025 
   -2932    -2941    -2999    -3115    -3161    -3005    -2853    -2916 
   -3076    -3098    -3002    -2907    -2818    -2826    -2857    -2771 
   -2830    -3084    -3148    -2998    -2903    -3005    -3096    -2870 
   -2673    -2922    -3318    -3365    -3002    -2758    -2959    -3140 
   -3060    -3051    -3132    -2970    -2600    -2448    -2679    -3052 
   -3277    -3134    -2741    -2655    -3044    -3318    -3118    -2805 
   -2817    -3055    -3136    -3006    -2818    -2749    -2893    -3019 
   -2995    -2910    -2840    -2878    -3046    -3231    -3271    -3122 
   -2951    -2868    -2835    -2799    -2704    -2573    -2623    -2984 
   -3322    -3300    -3122    -3132    -3366    -3507    -3295    -2930 
   -2745    -2759    -2818    -2880    -3006    -3302    -3654    -3775 
   -3673    -3461    -3288    -3339    -3362    -3080    -2690    -2520 
   -2604    -2667    -2679    -2697    -2529    -2293    -2270    -2451 
   -2695    -2855    -2955    -3002    -2853    -2679    -2878    -3443 
   -3838    -3786    -3740    -3951    -4122    -4043    -3719    -3140 
   -2301    -1633    -1711    -2281    -2484    -2208    -2095    -2253 
   -2454    -2793    -3084    -2959    -2569    -2562    -3223    -3865 
   -3896    -3595    -3267    -2941    -2710    -2708    -2789    -2673 
   -2382    -2085    -2002    -2466    -3345    -3989    -4032    -3646 
   -3310    -3368    -3427    -3055    -2736    -2825    -2879    -2798 
   -2868    -2988    -2836    -2471    -2427    -2820    -3063    -2906 
   -2725    -2839    -3292    -3882    -4160    -3735    -2820    -2208 
   -2365    -2848    -3118    -3210    -3181    -2922    -2617    -2531 
   -2648    -2826    -2957    -3176    -3800    -4486    -4419    -3630 
   -2816    -2300    -2008    -1880    -2064    -2702    -3411    -3561 
   -3130    -2651    -2479    -2600    -3009    -3650    -3936    -3376 
   -2415    -1989    -2365    -3018    -3565    -3780    -3508    -3137 
   -2957    -2686    -2223    -1999    -2397    -2965    -2967    -2704 
   -2980    -3781    -4248    -3777    -2921    -2539    -2550    -2602 
   -2801    -3202    -3634    -3981    -4117    -3862    -3235    -2551 
   -2104    -1968    -2160    -2589    -2890    -2806    -2544    -2504 
   -2774    -3068    -3080    -2722    -2381    -2546    -2976    -3221 
   -3461    -3784    -3831    -3522    -3130    -2959    -3011    -2961 
   -2695    -2527    -2651    -2810    -2916    -3113    -3262    -3252 
   -3055    -2704    -2573    -2748    -2774    -2666    -2805    -3165 
   -3612    -3855    -3493    -2874    -2636    -2789    -2941    -2879 
   -2903    -3157    -3188    -3087    -3384    -3788    -3654    -3042 
   -2430    -2103    -2138    -2385    -2673    -3123    -3713    -3997 
   -3655    -2786    -2060    -2211    -2791    -2758    -2207    -2161 
   -2841    -3372    -3420    -3439    -3484    -3443    -3326    -3014 
   -2802    -3010    -3213    -3001    -2551    -2351    -2632    -2982 
   -3111    -3121    -3049    -3094    -3199    -3140    -3234    -3451 
   -3337    -3024    -2758    -2515    -2317    -2301    -2651    -3095 
   -3196    -3129    -3088    -3095    -3238    -3267    -3002    -2685 
   -2492    -2629    -3203    -3709    -3667    -3230    -2764    -2608 
   -2837    -3118    -3154    -2879    -2484    -2362    -2601    -2978 
   -3267    -3385    -3472    -3480    -3215    -2872    -2705    -2671 
   -2736    -2924    -3144    -3134    -2713    -2247    -2339    -2990 
   -3670    -3811    -3161    -2326    -2273    -3121    -3956    -3901 
   -3256    -2835    -2704    -2683    -2808    -2980    -3094    -3133 
   -3049    -2763    -2309    -2049    -2326    -2943    -3446    -3642 
   -3628    -3595    -3523    -3179    -2601    -2286    -2500    -2891 
   -2975    -2716    -2614    -2920    -3230    -3265    -3149    -2957 
   -2708    -2485    -2496    -2948    -3465    -3495    -3265    -3229 
   -3342    -3265    -2852    -2493    -2554    -2895    -3222    -3331 
   -3159    -2818    -2683    -2967    -3280    -3341    -3161    -2713 
   -2447    -2763    -3144    -3082    -2671    -2173    -1944    -2280 
   -2863    -3113    -3157    -3354    -3469    -3360    -3308    -3379 
   -3354    -3246    -3354    -3523    -3372    -3105    -2843    -2496 
   -2502    -2943    -3150    -3046    -3059    -3088    -2976    -2814 
   -2629    -2593    -2799    -3065    -3207    -3167    -3122    -3265 
   -3423    -3149    -2408    -1894    -2103    -2697    -3154    -3415 
   -3628    -3650    -3342    -2967    -2759    -2717    -2754    -2781 
   -2974    -3429    -3643    -3383    -3142    -3038    -2691    -2286 
   -2274    -2502    -2712    -2976    -3237    -3395    -3480    -3310 
   -2901    -2635    -2621    -2760    -2898    -2806    -2571    -2485 
   -2666    -3080    -3657    -4126    -4090    -3609    -3059    -2643 
   -2458    -2567    -2921    -3164    -3106    -2999    -2937    -2918 
   -3022    -3056    -2743    -2226    -2011    -2323    -2870    -3369 
   -3659    -3499    -2978    -2577    -2582    -2832    -2941    -2949 
   -3210    -3503    -3464    -3095    -2550    -2250    -2560    -3250 
   -3770    -3754    -3361    -2988    -2747    -2627    -2820    -3350 
   -3653    -3362    -2801    -2378    -2431    -2949    -3433    -3510 
   -3200    -2660    -2169    -2293    -3122    -3825    -3781    -3179 
   -2520    -2150    -2273    -2879    -3495    -3655    -3292    -2644 
   -2191    -2246    -2697    -3188    -3466    -3464    -3086    -2527 
   -2315    -2658    -3183    -3406    -3338    -3295    -3235    -2952 
   -2597    -2521    -2817    -3253    -3511    -3408    -3173    -3153 
   -3226    -3119    -2841    -2594    -2663    -2988    -3148    -2987 
   -2745    -2752    -2948    -2933    -2624    -2367    -2469    -2782 
   -3026    -3173    -3213    -3171    -3106    -3087    -3200    -3186 
   -2975    -2957    -3110    -3261    -3393    -3296    -2932    -2598 
   -2628    -3028    -3319    -3206    -2887    -2609    -2535    -2647 
   -2906    -3322    -3586    -3456    -3102    -2867    -2925    -3067 
   -3114    -3100    -3045    -3086    -3181    -3086    -2856    -2655 
   -2508    -2479    -2498    -2538    -2776    -3142    -3364    -3335 
   -3100    -2758    -2511    -2633    -3076    -3522    -3700    -3447 
   -3038    -2905    -3001    -3057    -2970    -2899    -2978    -3033 
   -2990    -2913    -2797    -2739    -2748    -2648    -2519    -2621 
   -2967    -3311    -3437    -3303    -3100    -3052    -3030    -2782 
   -2473    -2470    -2710    -2759    -2629    -2803    -3304    -3673 
   -3589    -3144    -2739    -2535    -2452    -2644    -3153    -3607 
   -3674    -3449    -3230    -3021    -2694    -2444    -2448    -2755 
   -3222    -3418    -3253    -2999    -2836    -2806    -2837    -2914 
   -2963    -2897    -2910    -3079    -3167    -3061    -2902    -2902 
   -3100    -3285    -3310    -3295    -3252    -2987    -2666    -2586 
   -2587    -2524    -2504    -2617    -2895    -3152    -3200    -3187 
   -3246    -3273    -3179    -3038    -3053    -3302    -3518    -3406 
   -3061    -2797    -2760    -2874    -2968    -2987    -3014    -2988 
   -2809    -2674    -2740    -2891    -3010    -3010    -2909    -2859 
   -2748    -2484    -2370    -2614    -3075    -3418    -3431    -3148 
   -2739    -2616    -2847    -3053    -3119    -3014    -2953    -3242 
   -3526    -3437    -2995    -2458    -2358    -2752    -3113    -3217 
   -3181    -3096    -2990    -2864    -2772    -2853    -3065    -3130 
