Origin Time       2025/03/28 03:50:00
Lat.              35.403
Long.             140.360
Depth. (km)       54
Mag.              4.4
Station Code      TKY027
Station Lat.      35.6930
Station Long.     139.8913
Station Height(m) 1
Record Time       2025/03/28 03:51:01
Sampling Freq(Hz) 100Hz
Duration Time(s)  60
Dir.              N-S
Scale Factor      7845(gal)/8223790
Max. Acc. (gal)   2.945
Last Correction   2025/03/28 03:51:01
Memo.             
[...]
   -3578    -3581    -3577    -3569    -3581    -3580    -3569    -3576 
   -3585    -3592    -3601    -3607    -3589    -3569    -3581    -3600 
   -3597    -3591    -3572    -3561    -3576    -3591    -3596    -3595 
   -3582    -3578    -3586    -3584    -3586    -3600    -3588    -3565 
   -3565    -3580    -3581    -3582    -3588    -3582    -3582    -3593 
   -3592    -3585    -3581    -3566    -3558    -3559    -3564    -3581 
   -3597    -3592    -3581    -3572    -3568    -3578    -3585    -3582 
   -3589    -3589    -3582    -3592    -3588    -3580    -3595    -3601 
   -3589    -3574    -3566    -3572    -3585    -3592    -3584    -3570 
   -3566    -3576    -3584    -3578    -3573    -3572    -3566    -3572 
   -3582    -3570    -3569    -3589    -3592    -3574    -3557    -3554 
   -3564    -3576    -3589    -3591    -3586    -3595    -3596    -3582 
   -3586    -3601    -3595    -3588    -3592    -3589    -3595    -3588 
   -3568    -3570    -3570    -3559    -3577    -3593    -3584    -3573 
   -3561    -3558    -3586    -3600    -3578    -3581    -3596    -3581 
   -3586    -3618    -3616    -3591    -3592    -3615    -3607    -3584 
   -3592    -3593    -3562    -3546    -3566    -3584    -3584    -3573 
   -3562    -3564    -3576    -3578    -3581    -3591    -3591    -3588 
   -3592    -3584    -3568    -3570    -3600    -3622    -3613    -3600 
   -3589    -3578    -3578    -3586    -3593    -3591    -3580    -3577 
   -3586    -3588    -3584    -3584    -3569    -3562    -3577    -3576 
   -3570    -3580    -3577    -3565    -3573    -3586    -3595    -3586 
   -3553    -3546    -3586    -3611    -3603    -3593    -3585    -3581 
   -3599    -3616    -3608    -3593    -3593    -3595    -3597    -3604 
   -3596    -3568    -3549    -3564    -3578    -3569    -3569    -3574 
   -3557    -3546    -3561    -3574    -3566    -3557    -3566    -3581 
   -3585    -3577    -3576    -3586    -3589    -3581    -3577    -3572 
   -3584    -3605    -3599    -3578    -3559    -3545    -3557    -3581 
   -3588    -3582    -3580    -3585    -3588    -3584    -3581    -3576 
   -3578    -3601    -3607    -3582    -3578    -3586    -3569    -3559 
   -3580    -3593    -3585    -3585    -3589    -3577    -3577    -3596 
   -3592    -3580    -3584    -3578    -3573    -3576    -3580    -3600 
   -3607    -3581    -3572    -3574    -3568    -3569    -3584    -3588 
   -3585    -3585    -3585    -3580    -3584    -3591    -3601    -3620 
   -3618    -3595    -3593    -3597    -3599    -3613    -3613    -3586 
   -3586    -3607    -3601    -3604    -3622    -3603    -3577    -3586 
   -3591    -3565    -3538    -3538    -3557    -3564    -3558    -3566 
   -3580    -3562    -3549    -3569    -3576    -3565    -3580    -3604 
   -3600    -3589    -3601    -3613    -3604    -3597    -3607    -3604 
   -3588    -3591    -3595    -3586    -3585    -3582    -3573    -3572 
   -3580    -3601    -3607    -3570    -3557    -3580    -3581    -3564 
   -3564    -3578    -3584    -3585    -3588    -3592    -3593    -3582 
   -3572    -3572    -3564    -3555    -3574    -3595    -3592    -3576 
   -3573    -3568    -3551    -3568    -3600    -3589    -3572    -3576 
   -3578    -3577    -3573    -3564    -3566    -3574    -3584    -3601 
   -3600    -3584    -3592    -3603    -3581    -3570    -3585    -3585 
   -3573    -3577    -3584    -3584    -3581    -3584    -3605    -3616 
   -3593    -3595    -3603    -3596    -3596    -3584    -3573    -3580 
   -3572    -3566    -3568    -3555    -3550    -3569    -3593    -3591 
   -3568    -3576    -3595    -3580    -3578    -3607    -3599    -3577 
   -3592    -3603    -3588    -3588    -3603    -3601    -3592    -3591 
   -3574    -3562    -3577    -3577    -3566    -3573    -3568    -3562 
   -3580    -3586    -3592    -3603    -3585    -3568    -3592    -3615 
   -3612    -3604    -3608    -3609    -3596    -3585    -3595    -3603 
   -3607    -3599    -3573    -3559    -3555    -3546    -3553    -3576 
   -3586    -3589    -3581    -3572    -3581    -3574    -3562    -3580 
   -3593    -3599    -3603    -3589    -3585    -3591    -3585    -3574 
   -3576    -3592    -3599    -3592    -3585    -3574    -3577    -3588 
   -3580    -3572    -3580    -3572    -3568    -3591    -3586    -3551 
   -3542    -3546    -3555    -3577    -3592    -3595    -3573    -3546 
   -3557    -3576    -3569    -3573    -3581    -3581    -3584    -3580 
   -3574    -3568    -3565    -3581    -3603    -3612    -3605    -3589 
   -3588    -3588    -3578    -3588    -3596    -3588    -3576    -3559 
   -3558    -3565    -3565    -3573    -3569    -3554    -3550    -3550 
   -3574    -3607    -3608    -3605    -3609    -3592    -3565    -3566 
   -3585    -3588    -3588    -3600    -3599    -3595    -3603    -3597 
   -3588    -3585    -3576    -3580    -3589    -3574    -3577    -3597 
   -3600    -3608    -3600    -3561    -3546    -3570    -3607    -3627 
   -3607    -3570    -3569    -3585    -3574    -3565    -3595    -3609 
   -3591    -3570    -3547    -3551    -3600    -3618    -3596    -3605 
   -3600    -3551    -3539    -3570    -3592    -3592    -3577    -3564 
   -3559    -3562    -3582    -3612    -3615    -3566    -3505    -3496 
   -3545    -3604    -3640    -3618    -3564    -3595    -3642    -3565 
   -3497    -3539    -3582    -3604    -3635    -3631    -3577    -3551 
   -3615    -3635    -3539    -3520    -3604    -3603    -3550    -3561 
   -3582    -3599    -3627    -3611    -3550    -3526    -3546    -3573 
   -3607    -3623    -3569    -3534    -3605    -3646    -3597    -3584 
   -3588    -3570    -3577    -3564    -3557    -3626    -3659    -3613 
   -3574    -3559    -3581    -3642    -3663    -3619    -3558    -3514 
   -3523    -3577    -3600    -3589    -3565    -3527    -3518    -3532 
   -3530    -3546    -3626    -3688    -3619    -3524    -3549    -3573 
   -3543    -3574    -3632    -3655    -3677    -3665    -3589    -3519 
   -3501    -3516    -3584    -3663    -3666    -3622    -3593    -3538 
   -3491    -3564    -3682    -3705    -3639    -3555    -3528    -3573 
   -3578    -3562    -3638    -3713    -3649    -3530    -3497    -3531 
   -3542    -3532    -3515    -3465    -3458    -3542    -3611    -3586 
   -3541    -3561    -3580    -3553    -3572    -3642    -3681    -3661 
   -3607    -3565    -3572    -3612    -3647    -3639    -3586    -3558 
   -3601    -3638    -3632    -3672    -3708    -3627    -3545    -3561 
   -3568    -3531    -3542    -3557    -3512    -3512    -3582    -3611 
   -3582    -3545    -3530    -3588    -3662    -3640    -3597    -3615 
   -3586    -3520    -3543    -3584    -3564    -3569    -3588    -3550 
   -3539    -3632    -3713    -3684    -3607    -3554    -3532    -3546 
   -3584    -3613    -3626    -3591    -3523    -3496    -3530    -3555 
   -3545    -3550    -3564    -3530    -3495    -3515    -3553    -3561 
   -3586    -3647    -3673    -3665    -3661    -3659    -3666    -3672 
   -3667    -3649    -3596    -3586    -3638    -3601    -3457    -3353 
   -3321    -3300    -3350    -3507    -3650    -3678    -3604    -3519 
   -3527    -3596    -3649    -3708    -3717    -3596    -3464    -3458 
   -3538    -3607    -3628    -3646    -3712    -3758    -3721    -3673 
   -3673    -3680    -3639    -3559    -3481    -3437    -3435    -3458 
   -3488    -3555    -3605    -3497    -3341    -3330    -3397    -3493 
   -3655    -3763    -3721    -3632    -3608    -3642    -3703    -3807 
   -3919    -3923    -3811    -3711    -3686    -3693    -3688    -3661 
   -3566    -3397    -3312    -3410    -3562    -3631    -3600    -3526 
   -3491    -3505    -3554    -3640    -3690    -3635    -3531    -3430 
   -3321    -3252    -3288    -3415    -3578    -3703    -3707    -3597 
   -3461    -3365    -3384    -3580    -3847    -3979    -3948    -3847 
   -3684    -3499    -3416    -3466    -3524    -3523    -3562    -3653 
   -3669    -3603    -3582    -3638    -3624    -3511    -3484    -3557 
   -3569    -3562    -3667    -3750    -3655    -3532    -3538    -3589 
   -3620    -3659    -3654    -3545    -3423    -3435    -3618    -3846 
   -3977    -3966    -3832    -3622    -3414    -3276    -3235    -3277 
   -3410    -3636    -3825    -3831    -3662    -3411    -3206    -3186 
   -3383    -3653    -3794    -3751    -3661    -3616    -3588    -3596 
   -3630    -3558    -3396    -3285    -3284    -3372    -3483    -3545 
   -3577    -3643    -3705    -3719    -3740    -3747    -3654    -3535 
   -3462    -3457    -3586    -3766    -3793    -3670    -3565    -3566 
   -3603    -3574    -3501    -3430    -3353    -3322    -3442    -3678 
   -3850    -3879    -3855    -3811    -3724    -3651    -3638    -3636 
   -3599    -3565    -3586    -3599    -3519    -3429    -3445    -3524 
   -3595    -3697    -3786    -3743    -3622    -3526    -3431    -3389 
   -3497    -3608    -3622    -3663    -3704    -3674    -3715    -3816 
   -3796    -3697    -3680    -3677    -3565    -3434    -3416    -3483 
   -3585    -3672    -3634    -3458    -3260    -3100    -3011    -3057 
   -3230    -3447    -3612    -3631    -3596    -3703    -3838    -3793 
   -3666    -3561    -3429    -3372    -3483    -3632    -3740    -3800 
   -3807    -3835    -3882    -3865    -3792    -3688    -3522    -3341 
   -3267    -3354    -3505    -3566    -3553    -3586    -3626    -3584 
   -3550    -3593    -3647    -3677    -3693    -3655    -3550    -3466 
   -3423    -3402    -3476    -3663    -3844    -3936    -3909    -3771 
   -3572    -3381    -3300    -3397    -3589    -3727    -3821    -3905 
   -3850    -3647    -3439    -3215    -2979    -2955    -3194    -3501 
   -3784    -3997    -4016    -3854    -3705    -3672    -3669    -3630 
   -3557    -3433    -3288    -3231    -3327    -3504    -3619    -3634 
   -3624    -3589    -3484    -3404    -3464    -3585    -3645    -3665 
   -3715    -3778    -3781    -3700    -3632    -3630    -3601    -3538 
   -3569    -3701    -3801    -3840    -3873    -3881    -3852    -3808 
   -3719    -3613    -3557    -3501    -3365    -3217    -3183    -3237 
   -3302    -3337    -3299    -3213    -3208    -3365    -3618    -3900 
   -4174    -4301    -4152    -3812    -3520    -3388    -3388    -3542 
   -3769    -3874    -3821    -3701    -3572    -3431    -3280    -3198 
   -3210    -3242    -3265    -3299    -3338    -3375    -3429    -3447 
   -3377    -3353    -3519    -3788    -4037    -4216    -4186    -3882 
   -3520    -3312    -3283    -3415    -3632    -3778    -3740    -3554 
   -3375    -3392    -3655    -3966    -4085    -3990    -3766    -3446 
   -3136    -2948    -2886    -2938    -3140    -3468    -3782    -3948 
   -3960    -3875    -3744    -3642    -3626    -3667    -3777    -3932 
   -3962    -3804    -3628    -3578    -3616    -3667    -3717    -3748 
   -3736    -3662    -3503    -3342    -3303    -3377    -3534    -3708 
   -3758    -3676    -3530    -3345    -3187    -3114    -3140    -3277 
   -3514    -3781    -4018    -4171    -4180    -4054    -3881    -3742 
   -3665    -3635    -3570    -3420    -3287    -3273    -3384    -3539 
   -3557    -3406    -3281    -3299    -3430    -3632    -3805    -3805 
   -3653    -3542    -3553    -3604    -3665    -3682    -3580    -3462 
   -3473    -3562    -3674    -3800    -3859    -3834    -3763    -3620 
   -3450    -3381    -3379    -3314    -3186    -3086    -3068    -3177 
   -3437    -3754    -4035    -4216    -4194    -4021    -3890    -3809 
   -3712    -3639    -3549    -3379    -3203    -3086    -3057    -3177 
   -3392    -3562    -3626    -3574    -3443    -3388    -3474    -3596 
   -3701    -3789    -3788    -3707    -3623    -3566    -3599    -3721 
   -3835    -3894    -3881    -3746    -3547    -3412    -3357    -3325 
   -3360    -3511    -3666    -3693    -3608    -3449    -3269    -3217 
   -3343    -3570    -3901    -4288    -4521    -4480    -4255    -3928 
   -3546    -3218    -3075    -3172    -3395    -3522    -3430    -3168 
   -2920    -2909    -3214    -3686    -4075    -4233    -4225    -4108 
   -3854    -3539    -3280    -3107    -3033    -3056    -3164    -3327 
   -3468    -3553    -3612    -3655    -3692    -3757    -3861    -3928 
   -3851    -3622    -3323    -3073    -3022    -3246    -3659    -4081 
   -4342    -4382    -4248    -3975    -3616    -3289    -3078    -3009 
   -3053    -3114    -3110    -3055    -3073    -3231    -3453    -3661 
   -3811    -3865    -3831    -3742    -3680    -3727    -3875    -4098 
   -4365    -4549    -4530    -4328    -4070    -3861    -3707    -3623 
   -3665    -3796    -3905    -3920    -3832    -3646    -3383    -3152 
   -3038    -3024    -3094    -3215    -3268    -3211    -3109    -3036 
   -3106    -3376    -3708    -3933    -3975    -3819    -3537    -3262 
   -3092    -3129    -3396    -3721    -3928    -3990    -3877    -3553 
   -3160    -2893    -2735    -2620    -2600    -2677    -2808    -2995 
   -3225    -3477    -3763    -4063    -4341    -4521    -4500    -4298 
   -4063    -3893    -3738    -3568    -3442    -3372    -3395    -3604 
   -3955    -4294    -4496    -4487    -4237    -3790    -3267    -2821 
   -2554    -2477    -2582    -2875    -3343    -3928    -4542    -5155 
   -5668    -5827    -5506    -4820    -3916    -2992    -2332    -2097 
   -2250    -2617    -2984    -3233    -3327    -3254    -3107    -3095 
   -3315    -3666    -4005    -4243    -4311    -4194    -3970    -3751 
   -3595    -3554    -3646    -3780    -3898    -4016    -3990    -3582 
   -2768    -1765     -888     -496     -858    -1937    -3415    -4888 
   -5984    -6394    -6003    -5053    -4013    -3248    -2857    -2812 
   -3051    -3443    -3808    -4051    -4093    -3842    -3352    -2826 
   -2417    -2199    -2263    -2668    -3267    -3811    -4124    -4135 
   -3910    -3618    -3364    -3190    -3150    -3323    -3748    -4396 
   -5124    -5726    -6114    -6253    -5996    -5262    -4137    -2795 
   -1563     -805     -697    -1231    -2281    -3554    -4685    -5393 
   -5436    -4672    -3325    -1987    -1217    -1258    -2031    -3179 
   -4221    -4838    -4947    -4567    -3863    -3217    -2914    -2990 
   -3396    -3954    -4387    -4600    -4612    -4456    -4248    -4047 
   -3738    -3203    -2505    -1841    -1459    -1525    -1983    -2627 
   -3291    -3850    -4270    -4654    -5059    -5323    -5263    -4872 
   -4275    -3743    -3591    -3882    -4344    -4641    -4673    -4509 
   -4213    -3928    -3796    -3767    -3674    -3383    -2876    -2328 
   -2034    -2249    -2947    -3798    -4421    -4569    -4167    -3323 
   -2286    -1387     -924     -990    -1499    -2342    -3410    -4565 
   -5599    -6276    -6551    -6508    -6177    -5633    -4989    -4287 
   -3505    -2686    -1993    -1590    -1532    -1794    -2208    -2528 
   -2632    -2575    -2527    -2660    -3069    -3735    -4545    -5292 
   -5715    -5641    -4997    -3844    -2498    -1418     -920    -1111 
   -1917    -3094    -4293    -5205    -5674    -5683    -5298    -4633 
   -3828    -3025    -2434    -2249    -2382    -2643    -2999    -3407 
   -3693    -3775    -3746    -3678    -3600    -3631    -3835    -4136 
   -4460    -4727    -4810    -4641    -4237    -3597    -2821    -2169 
   -1825    -1791    -1991    -2346    -2839    -3427    -4054    -4750 
   -5489    -6026    -6158    -5915    -5440    -4847    -4218    -3616 
   -3028    -2459    -2045    -1892    -2043    -2517    -3133    -3611 
   -3859    -3948    -3954    -3929    -3874    -3689    -3275    -2702 
   -2177    -1857    -1830    -2196    -2951    -3913    -4849    -5521 
   -5765    -5622    -5217    -4687    -4152    -3589    -2917    -2197 
   -1575    -1136     -897     -881    -1147    -1655    -2232    -2802 
   -3399    -3966    -4428    -4828    -5208    -5539    -5736    -5725 
   -5536    -5232    -4820    -4325    -3811    -3318    -2933    -2803 
   -2980    -3388    -3866    -4206    -4349    -4391    -4441    -4563 
   -4644    -4502    -4126    -3588    -2965    -2401    -2047    -2006 
   -2274    -2749    -3299    -3840    -4351    -4818    -5161    -5304 
   -5219    -4928    -4542    -4209    -3964    -3699    -3285    -2662 
   -1875    -1197     -946    -1170    -1687    -2269    -2731    -3013 
   -3196    -3439    -3844    -4357    -4777    -4876    -4561    -4001 
   -3505    -3287    -3383    -3662    -3894    -3929    -3859    -3850 
   -3915    -3978    -3950    -3751    -3384    -2964    -2675    -2650 
   -2786    -2868    -2828    -2733    -2733    -3021    -3638    -4382 
   -4951    -5174    -5101    -4893    -4623    -4284    -3904    -3542 
   -3283    -3234    -3397    -3631    -3788    -3748    -3426    -2938 
   -2581    -2547    -2820    -3248    -3623    -3846    -3967    -4055 
   -4125    -4172    -4168    -4110    -4047    -4010    -3964    -3874 
   -3773    -3680    -3547    -3365    -3179    -3013    -2808    -2515 
   -2185    -1925    -1826    -2007    -2528    -3271    -4008    -4498 
   -4596    -4340    -3862    -3341    -2957    -2803    -2898    -3199 
   -3615    -4122    -4719    -5225    -5404    -5244    -4919    -4607 
   -4380    -4172    -3856    -3357    -2708    -2093    -1726    -1683 
   -1918    -2349    -2903    -3538    -4222    -4888    -5463    -5906 
   -6116    -6016    -5640    -5051    -4306    -3487    -2702    -2039 
   -1601    -1514    -1810    -2336    -2899    -3393    -3774    -4021 
   -4141    -4147    -4055    -3896    -3689    -3410    -3029    -2646 
   -2459    -2547    -2830    -3248    -3697    -4017    -4121    -4001 
   -3715    -3406    -3180    -3065    -3011    -2940    -2840    -2748 
   -2709    -2762    -2882    -3087    -3478    -4059    -4698    -5235 
   -5539    -5544    -5290    -4843    -4279    -3726    -3316    -3113 
   -3102    -3188    -3225    -3192    -3230    -3439    -3794    -4202 
   -4538    -4695    -4614    -4301    -3867    -3465    -3184    -3013 
   -2880    -2751    -2636    -2609    -2772    -3049    -3252    -3361 
   -3470    -3601    -3732    -3839    -3858    -3753    -3554    -3330 
   -3141    -3049    -3106    -3318    -3599    -3859    -4081    -4263 
   -4409    -4519    -4540    -4390    -4137    -3888    -3635    -3400 
   -3269    -3254    -3307    -3345    -3303    -3213    -3118    -3025 
   -2956    -2914    -2899    -2926    -2997    -3125    -3303    -3480 
   -3639    -3792    -3936    -4098    -4305    -4544    -4780    -4985 
   -5104    -5065    -4830    -4379    -3712    -2945    -2263    -1788 
   -1594    -1674    -1895    -2214    -2629    -3040    -3416    -3774 
   -4047    -4203    -4301    -4383    -4446    -4517    -4590    -4534 
   -4297    -3997    -3736    -3589    -3616    -3754    -3905    -4043 
   -4148    -4203    -4240    -4244    -4159    -3993    -3750    -3420 
   -3090    -2828    -2612    -2420    -2263    -2155    -2116    -2176 
   -2359    -2635    -2952    -3308    -3707    -4109    -4423    -4588 
   -4615    -4513    -4325    -4094    -3793    -3460    -3190    -3002 
   -2902    -2949    -3188    -3578    -4036    -4480    -4839    -5053 
   -5063    -4865    -4491    -3971    -3372    -2852    -2523    -2355 
   -2307    -2365    -2470    -2567    -2664    -2789    -2934    -3100 
   -3280    -3416    -3461    -3472    -3568    -3794    -4109    -4415 
   -4598    -4581    -4391    -4140    -3964    -3970    -4175    -4475 
