Origin Time       2025/03/28 03:50:00
Lat.              35.403
Long.             140.360
Depth. (km)       54
Mag.              4.4
Station Code      TKY026
Station Lat.      35.6707
Station Long.     139.8633
Station Height(m) -2
Record Time       2025/03/28 03:51:00
Sampling Freq(Hz) 100Hz
Duration Time(s)  60
Dir.              E-W
Scale Factor      7845(gal)/8223790
Max. Acc. (gal)   3.191
Last Correction   2025/03/28 03:51:00
Memo.             
[...]
  -11009   -11021   -11014   -11003   -11007   -11002   -10995   -11002 
  -10997   -10983   -10991   -10995   -10976   -10975   -10990   -10987 
  -10980   -10983   -10984   -10993   -11003   -11007   -11013   -11007 
  -10997   -11001   -10999   -10986   -10990   -10995   -10982   -10982 
  -10990   -10991   -10997   -11001   -10998   -10997   -10998   -11001 
  -10997   -10991   -11005   -11011   -11001   -11006   -11011   -10999 
  -10998   -10994   -10984   -10989   -10994   -10995   -10994   -10994 
  -10994   -10984   -10983   -10984   -10982   -10989   -10994   -10998 
  -11005   -11002   -11003   -11007   -11001   -10994   -10994   -10991 
  -10984   -10982   -10979   -10979   -10991   -10999   -10995   -10993 
  -10997   -10999   -11002   -11001   -11001   -10997   -10989   -10987 
  -10987   -10983   -10990   -10993   -10979   -10986   -11003   -11002 
  -10993   -10993   -10994   -10991   -10993   -11003   -11002   -10995 
  -10998   -10999   -11001   -11002   -10998   -10999   -11013   -11017 
  -10999   -10984   -10987   -10990   -10990   -10991   -10989   -10990 
  -10997   -10998   -10995   -10997   -11002   -10998   -10993   -11002 
  -11006   -10993   -10980   -10978   -10974   -10975   -10984   -10983 
  -10959   -10949   -10967   -10976   -10986   -10991   -10978   -10974 
  -10983   -10986   -10989   -10993   -10987   -10982   -10982   -10982 
  -10987   -10999   -11001   -10991   -10984   -10984   -10993   -11005 
  -11005   -11003   -11003   -11002   -11002   -11001   -10995   -10990 
  -10997   -11009   -11001   -10986   -10987   -10990   -10975   -10967 
  -10974   -10975   -10982   -10994   -10990   -10979   -10983   -10990 
  -10991   -10982   -10984   -10998   -10997   -10993   -10994   -10997 
  -11010   -11024   -11016   -11003   -10999   -10998   -10997   -11002 
  -11006   -11006   -11017   -11020   -11006   -11010   -11020   -11003 
  -10998   -11007   -11007   -11005   -11007   -11009   -11006   -11011 
  -11013   -10995   -10989   -10999   -11002   -10994   -10998   -11002 
  -10997   -10998   -10994   -10986   -10997   -11009   -11003   -11003 
  -11007   -10998   -10995   -11006   -11003   -10991   -10997   -11001 
  -10982   -10971   -10984   -10998   -11003   -11006   -11003   -10999 
  -10999   -10991   -10980   -10982   -10991   -10994   -10994   -10991 
  -10986   -10989   -10989   -10986   -10994   -10998   -10994   -10995 
  -10995   -10993   -10993   -10993   -10991   -10989   -10987   -10993 
  -10990   -10980   -10979   -10979   -10971   -10964   -10964   -10957 
  -10956   -10967   -10970   -10968   -10976   -10979   -10976   -10982 
  -10984   -10984   -10984   -10987   -10998   -10997   -10994   -11007 
  -11002   -10990   -10998   -11005   -11003   -11007   -11006   -11001 
  -11006   -11009   -10998   -10995   -11007   -11009   -10999   -11003 
  -11005   -10997   -11003   -11003   -10987   -10989   -11001   -10995 
  -10990   -11001   -11003   -10993   -10995   -10998   -10987   -10989 
  -10998   -10995   -10994   -11003   -11003   -10998   -10997   -10994 
  -10991   -10998   -11001   -10998   -11005   -11011   -11002   -10997 
  -11003   -11001   -10987   -10987   -10997   -10999   -10999   -10998 
  -10998   -10998   -11001   -11007   -11011   -11009   -11006   -11007 
  -11001   -10994   -11003   -11007   -10999   -10998   -10998   -10995 
  -10998   -10997   -10995   -10989   -10979   -10979   -10976   -10972 
  -10978   -10978   -10978   -10982   -10982   -10980   -10980   -10978 
  -10983   -10990   -10990   -10986   -10982   -10991   -11003   -10995 
  -10989   -10998   -10993   -10986   -10991   -10987   -10980   -10987 
  -10991   -10980   -10970   -10975   -10982   -10983   -10993   -10990 
  -10976   -10986   -10999   -10993   -10990   -10999   -11005   -10998 
  -10986   -10980   -10979   -10990   -11009   -10997   -10972   -10990 
  -11020   -11010   -10979   -10968   -11001   -11037   -11036   -11028 
  -11032   -11030   -11024   -11014   -10997   -10983   -10980   -10966 
  -10957   -10990   -11032   -11029   -10982   -10939   -10970   -11052 
  -11067   -11005   -10979   -11029   -11070   -11068   -11060   -11010 
  -10944   -10948   -10991   -10991   -10952   -10945   -10991   -11030 
  -11032   -11016   -10967   -10914   -10928   -11010   -11107   -11138 
  -11047   -10922   -10889   -10922   -10970   -10980   -10914   -10879 
  -10970   -11088   -11136   -11106   -10983   -10852   -10874   -11016 
  -11122   -11110   -10995   -10854   -10798   -10917   -11097   -11118 
  -11029   -11003   -11016   -10989   -10948   -10922   -10929   -10980 
  -11032   -11051   -11060   -11037   -10966   -10886   -10835   -10851 
  -10964   -11087   -11091   -11005   -10960   -10975   -10983   -10967 
  -10964   -11014   -11074   -11049   -10955   -10906   -10929   -10952 
  -10940   -10916   -10949   -11071   -11171   -11129   -10987   -10863 
  -10864   -11014   -11134   -11060   -10860   -10736   -10790   -10943 
  -11068   -11114   -11075   -11017   -11033   -11059   -11020   -10971 
  -10936   -10906   -10952   -11103   -11237   -11205   -11026   -10871 
  -10852   -10952   -11056   -11048   -10967   -10933   -10949   -10993 
  -11075   -11128   -11070   -10964   -10897   -10871   -10908   -10991 
  -11040   -11067   -11099   -11080   -11048   -11049   -11011   -10939 
  -10906   -10924   -10989   -11057   -11038   -10952   -10893   -10943 
  -11092   -11172   -11068   -10916   -10894   -11011   -11175   -11223 
  -11049   -10816   -10760   -10874   -11033   -11144   -11136   -11032 
  -10956   -10989   -11059   -11070   -11017   -10972   -10984   -11021 
  -11011   -10924   -10795   -10708   -10724   -10875   -11129   -11323 
  -11311   -11146   -10974   -10847   -10773   -10810   -10951   -11083 
  -11163   -11155   -10978   -10774   -10751   -10874   -11017   -11087 
  -11028   -10935   -10956   -11053   -11099   -11079   -11048   -11014 
  -10987   -10990   -10987   -10949   -10939   -10976   -10983   -10971 
  -10997   -11018   -11016   -11020   -11013   -10980   -10962   -10986 
  -11002   -10962   -10916   -10890   -10876   -10929   -11037   -11110 
  -11105   -11041   -10987   -11007   -11068   -11092   -11055   -10993 
  -11001   -11068   -11086   -11014   -10926   -10912   -10989   -11045 
  -10991   -10908   -10903   -10966   -11037   -11109   -11103   -10944 
  -10767   -10748   -10894   -11072   -11138   -11057   -10945   -10967 
  -11136   -11267   -11252   -11161   -11060   -10982   -10956   -10968 
  -10948   -10885   -10839   -10863   -10922   -10909   -10828   -10806 
  -10898   -11053   -11192   -11209   -11088   -10953   -10918   -11010 
  -11153   -11205   -11138   -11033   -10956   -10968   -11007   -10932 
  -10814   -10828   -10935   -11010   -11024   -10998   -10980   -11010 
  -11067   -11091   -11021   -10871   -10778   -10839   -10971   -11068 
  -11084   -11044   -11037   -11084   -11101   -11018   -10847   -10702 
  -10725   -10901   -11076   -11132   -11067   -10999   -10990   -11001 
  -10986   -10936   -10891   -10897   -10970   -11107   -11173   -11088 
  -10968   -10916   -10995   -11180   -11279   -11200   -11030   -10871 
  -10813   -10822   -10771   -10666   -10632   -10767   -11038   -11275 
  -11303   -11132   -10941   -10908   -11022   -11110   -11075   -11036 
  -11052   -11052   -11028   -10970   -10860   -10810   -10913   -11068 
  -11114   -11067   -11047   -11052   -11056   -11080   -11067   -10957 
  -10872   -10935   -11002   -10912   -10790   -10775   -10855   -11030 
  -11226   -11296   -11210   -11022   -10867   -10871   -11011   -11180 
  -11259   -11142   -10910   -10779   -10793   -10840   -10903   -11003 
  -11088   -11111   -11078   -11043   -11059   -11079   -11051   -10995 
  -10968   -11033   -11152   -11167   -11016   -10851   -10817   -10878 
  -10952   -10974   -10881   -10729   -10650   -10754   -11024   -11294 
  -11442   -11375   -11070   -10795   -10774   -10874   -10970   -11071 
  -11161   -11198   -11146   -11014   -10854   -10725   -10662   -10670 
  -10781   -10971   -11109   -11165   -11186   -11145   -11129   -11194 
  -11238   -11200   -11059   -10843   -10693   -10665   -10737   -10886 
  -10994   -10967   -10899   -10890   -10913   -10980   -11097   -11190 
  -11248   -11257   -11175   -11079   -11055   -11065   -11045   -10984 
  -10936   -10925   -10932   -10948   -10912   -10798   -10760   -10821 
  -10824   -10760   -10737   -10818   -11040   -11318   -11450   -11341 
  -11101   -10924   -10883   -10929   -10952   -10864   -10781   -10856 
  -11026   -11145   -11169   -11168   -11167   -11142   -11125   -11092 
  -11037   -11029   -11051   -11065   -11098   -11098   -11036   -10983 
  -10929   -10852   -10828   -10890   -10962   -10939   -10866   -10887 
  -10991   -11078   -11076   -10912   -10681   -10620   -10735   -10905 
  -11141   -11443   -11682   -11736   -11611   -11373   -11125   -10991 
  -10993   -11045   -11075   -10976   -10694   -10357   -10149   -10147 
  -10376   -10777   -11152   -11327   -11314   -11200   -11067   -10975 
  -10971   -11049   -11094   -11005   -10818   -10654   -10619   -10725 
  -10898   -11056   -11164   -11261   -11362   -11422   -11410   -11292 
  -11072   -10829   -10639   -10589   -10727   -10893   -10948   -10966 
  -11014   -11055   -11059   -11021   -10918   -10790   -10752   -10856 
  -11030   -11117   -11016   -10872   -10890   -11070   -11291   -11372 
  -11171   -10831   -10611   -10606   -10763   -10917   -11011   -11153 
  -11340   -11511   -11661   -11689   -11510   -11269   -11152   -11111 
  -10997   -10810   -10692   -10725   -10864   -10955   -10905   -10810 
  -10774   -10729   -10609   -10507   -10559   -10770   -11016   -11136 
  -11065   -10940   -10940   -11107   -11375   -11589   -11624   -11529 
  -11380   -11180   -10982   -10833   -10714   -10628   -10602   -10643 
  -10721   -10825   -10944   -11018   -11016   -10982   -10983   -11034 
  -11078   -11061   -11044   -11064   -11048   -10982   -10891   -10737 
  -10565   -10535   -10708   -10994   -11259   -11385   -11344   -11260 
  -11227   -11196   -11148   -11107   -11075   -11055   -11033   -10964 
  -10813   -10625   -10493   -10467   -10551   -10687   -10822   -10987 
  -11186   -11352   -11468   -11543   -11565   -11534   -11435   -11207 
  -10874   -10598   -10496   -10582   -10804   -11028   -11153   -11145 
  -11007   -10831   -10698   -10602   -10543   -10565   -10670   -10832 
  -11018   -11183   -11329   -11504   -11692   -11786   -11695   -11434 
  -11111   -10814   -10605   -10521   -10509   -10524   -10644   -10851 
  -10991   -11007   -10994   -11036   -11125   -11183   -11133   -10970 
  -10794   -10692   -10685   -10766   -10898   -11022   -11124   -11188 
  -11196   -11202   -11248   -11308   -11323   -11268   -11200   -11142 
  -11038   -10887   -10731   -10586   -10467   -10396   -10369   -10440 
  -10669   -10952   -11167   -11340   -11464   -11512   -11533   -11499 
  -11376   -11178   -10921   -10725   -10704   -10781   -10825   -10797 
  -10747   -10801   -10990   -11196   -11302   -11241   -11095   -11033 
  -11055   -11006   -10836   -10632   -10528   -10606   -10851   -11151 
  -11384   -11518   -11577   -11584   -11535   -11398   -11172   -10920 
  -10650   -10419   -10315   -10322   -10408   -10575   -10794   -11028 
  -11250   -11408   -11452   -11365   -11172   -10975   -10908   -10997 
  -11114   -11134   -11088   -11057   -11006   -10883   -10739   -10656 
  -10682   -10852   -11128   -11358   -11448   -11414   -11294   -11146 
  -11079   -11088   -11075   -11022   -10947   -10843   -10720   -10601 
  -10536   -10565   -10679   -10847   -11007   -11114   -11137   -11110 
  -11103   -11117   -11128   -11124   -11095   -11080   -11078   -11011 
  -10862   -10719   -10665   -10705   -10793   -10843   -10778   -10623 
  -10481   -10430   -10521   -10733   -10991   -11257   -11458   -11497 
  -11458   -11492   -11591   -11674   -11716   -11701   -11651   -11628 
  -11600   -11443   -11168   -10886   -10628   -10403   -10284   -10297 
  -10378   -10512   -10706   -10925   -11151   -11369   -11576   -11807 
  -12020   -12139   -12190   -12166   -11971   -11589   -11061   -10434 
   -9841    -9485    -9448    -9671   -10062   -10511   -10922   -11259 
  -11465   -11512   -11453   -11313   -11091   -10827   -10582   -10423 
  -10363   -10380   -10451   -10551   -10678   -10872   -11132   -11400 
  -11616   -11688   -11534   -11157   -10617   -10021    -9536    -9263 
   -9186    -9325    -9764   -10474   -11275   -11938   -12306   -12366 
  -12216   -12002   -11826   -11682   -11564   -11398   -11063   -10559 
   -9983    -9462    -9200    -9359    -9914   -10655   -11340   -11839 
  -12101   -12158   -12085   -11921   -11704   -11534   -11504   -11572 
  -11628   -11628   -11539   -11333   -11040   -10706   -10404   -10258 
  -10372   -10743   -11165   -11325   -11142   -10805   -10507   -10416 
  -10598   -10917   -11184   -11281   -11180   -10963   -10789   -10787 
  -11007   -11421   -11813   -11855   -11512   -11005   -10426    -9895 
   -9705    -9957   -10509   -11173   -11693   -11908   -11955   -11994 
  -12001   -11861   -11466   -10881   -10368   -10164   -10318   -10698 
  -11128   -11491   -11680   -11592   -11200   -10579   -10002    -9813 
  -10072   -10535   -10881   -10929   -10773   -10604   -10517   -10504 
  -10531   -10609   -10782   -11051   -11352   -11595   -11727   -11754 
  -11731   -11766   -11923   -12120   -12174   -11905   -11253   -10328 
   -9331    -8509    -8160    -8510    -9539   -11003   -12552   -13797 
  -14338   -13975   -12880   -11485   -10230    -9391    -9012    -8997 
   -9271    -9765   -10349   -10894   -11310   -11533   -11601   -11612 
  -11610   -11573   -11469   -11323   -11223   -11207   -11195   -11036 
  -10701   -10403   -10405   -10778   -11310   -11624   -11526   -11146 
  -10747   -10493   -10347   -10231   -10196   -10300   -10507   -10746 
  -10879   -10831   -10763   -10889   -11245   -11709   -12131   -12440 
  -12637   -12729   -12673   -12402   -11916   -11275   -10525    -9736 
   -9039    -8627    -8648    -9066    -9744   -10515   -11161   -11565 
  -11738   -11626   -11240   -10770   -10389   -10149   -10052   -10106 
  -10345   -10798   -11395   -11982   -12415   -12609   -12610   -12569 
  -12510   -12274   -11657   -10694    -9791    -9332    -9387    -9799 
  -10293   -10667   -10897   -10984   -10941   -10812   -10616   -10404 
  -10265   -10285   -10558   -11067   -11645   -12163   -12586   -12883 
  -12957   -12725   -12177   -11398   -10650   -10234   -10231   -10540 
  -11006   -11430   -11699   -11838   -11874   -11824   -11718   -11531 
  -11206   -10720   -10130    -9583    -9217    -9127    -9352    -9826 
  -10395   -10887   -11214   -11443   -11657   -11830   -11905   -11827 
  -11537   -11052   -10531   -10170   -10066   -10254   -10669   -11080 
  -11338   -11442   -11414   -11283   -11064   -10808   -10621   -10530 
  -10485   -10453   -10434   -10501   -10659   -10835   -11090   -11477 
  -11858   -12048   -11985   -11736   -11430   -11186   -11059   -10978 
  -10872   -10779   -10716   -10646   -10531   -10362   -10169   -10018 
   -9956    -9992   -10152   -10498   -10993   -11480   -11877   -12183 
  -12343   -12330   -12197   -11974   -11691   -11346   -10937   -10540 
  -10264   -10168   -10266   -10520   -10827   -11045   -11056   -10852 
  -10565   -10393   -10462   -10709   -10959   -11099   -11101   -10953 
  -10681   -10358   -10085    -9933    -9952   -10166   -10574   -11133 
  -11746   -12364   -12947   -13356   -13468   -13265   -12769   -12098 
  -11395   -10709   -10046    -9447    -8959    -8648    -8613    -8955 
   -9672   -10623   -11642   -12614   -13417   -13882   -13856   -13321 
  -12417   -11357   -10320    -9428    -8780    -8500    -8695    -9347 
  -10281   -11254   -12052   -12580   -12846   -12858   -12580   -12031 
  -11354   -10723   -10257   -10061   -10146   -10397   -10706   -10947 
  -11018   -10928   -10686   -10299    -9884    -9601    -9535    -9686 
   -9998   -10378   -10744   -11072   -11323   -11452   -11507   -11545 
  -11545   -11476   -11344   -11205   -11146   -11232   -11422   -11608 
  -11680   -11587   -11361   -11075   -10778   -10489   -10210   -10027 
  -10103   -10458   -10903   -11203   -11250   -11110   -10941   -10841 
  -10824   -10872   -10959   -11079   -11263   -11480   -11601   -11539 
  -11323   -11067   -10871   -10766   -10743   -10764   -10809   -10930 
  -11163   -11469   -11773   -11927   -11821   -11512   -11107   -10669 
  -10269   -10017    -9995   -10212   -10552   -10802   -10845   -10741 
  -10605   -10528   -10524   -10551   -10586   -10640   -10744   -10932 
  -11188   -11452   -11635   -11686   -11661   -11638   -11593   -11491 
  -11352   -11178   -11020   -10970   -11044   -11203   -11350   -11404 
  -11403   -11426   -11483   -11526   -11507   -11395   -11211   -11017 
  -10817   -10585   -10332   -10084    -9898    -9873   -10021   -10247 
  -10496   -10785   -11121   -11458   -11745   -11900   -11839   -11550 
  -11070   -10500   -10029    -9811    -9880   -10170   -10597   -11068 
  -11488   -11821   -12086   -12247   -12247   -12032   -11593   -11038 
  -10544   -10241   -10164   -10274   -10474   -10681   -10895   -11097 
  -11195   -11173   -11082   -10945   -10793   -10685   -10646   -10663 
  -10774   -11028   -11368   -11716   -12023   -12187   -12116   -11816 
  -11375   -10918   -10544   -10299   -10201   -10231   -10376   -10631 
  -10935   -11203   -11369   -11387   -11232   -10920   -10566   -10330 
  -10285   -10420   -10660   -10863   -10986   -11130   -11361   -11596 
  -11653   -11422   -10983   -10543   -10312   -10385   -10663   -10975 
  -11217   -11383   -11531   -11674   -11724   -11601   -11334   -11025 
  -10775   -10615   -10534   -10559   -10681   -10845   -11017   -11206 
  -11406   -11560   -11604   -11504   -11246   -10887   -10565   -10359 
  -10295   -10377   -10512   -10594   -10593   -10489   -10314   -10192 
  -10247   -10500   -10899   -11326   -11665   -11892   -12042   -12112 
  -12086   -11992   -11871   -11734   -11557   -11326   -11059   -10820 
  -10651   -10547   -10477   -10431   -10459   -10590   -10770   -10912 
  -10936   -10822   -10601   -10316   -10083   -10012   -10138   -10439 
  -10813   -11122   -11311   -11379   -11349   -11276   -11206   -11168 
  -11175   -11167   -11082   -10949   -10848   -10827   -10913   -11099 
  -11283   -11344   -11218   -10918   -10559   -10339   -10377   -10648 
  -11043   -11435   -11753   -12012   -12186   -12156   -11878   -11448 
  -11010   -10683   -10503   -10443   -10500   -10673   -10932   -11188 
  -11342   -11367   -11294   -11173   -11067   -10998   -10971   -10982 
  -11016   -11088   -11217   -11381   -11516   -11522   -11349   -11007 
  -10532   -10021    -9586    -9317    -9273    -9416    -9690   -10095 
  -10612   -11167   -11653   -12000   -12202   -12204   -11963   -11557 
  -11114   -10760   -10575   -10557   -10665   -10894   -11221   -11577 
  -11847   -11911   -11742   -11437   -11121   -10851   -10617   -10438 
  -10349   -10338   -10382   -10486   -10617   -10764   -10974   -11232 
  -11453   -11574   -11542   -11333   -11016   -10708   -10501   -10423 
  -10484   -10708   -11086   -11564   -12063   -12440   -12567   -12447 
  -12145   -11746   -11294   -10783   -10273    -9886    -9720    -9798 
  -10042   -10331   -10577   -10743   -10844   -10913   -10947   -10943 
