Origin Time       2025/03/28 03:50:00
Lat.              35.403
Long.             140.360
Depth. (km)       54
Mag.              4.4
Station Code      TKY030
Station Lat.      35.6698
Station Long.     139.7360
Station Height(m) 13
Record Time       2025/03/28 03:50:53
Sampling Freq(Hz) 100Hz
Duration Time(s)  63
Dir.              U-D
Scale Factor      7845(gal)/8223790
Max. Acc. (gal)   1.682
Last Correction   2025/03/28 03:50:53
Memo.             
[...]
     403      395      383      382      384      384      378      356 
     345      363      383      386      376      371      373      378 
     376      378      391      399      396      395      387      388 
     403      402      395      390      378      371      378      391 
     398      387      380      383      378      372      382      394 
     405      403      382      369      371      373      382      394 
     399      395      384      375      371      368      364      371 
     395      411      400      384      372      379      406      419 
     413      392      371      361      357      371      395      398 
     388      388      388      387      386      384      383      373 
     372      386      388      384      386      382      376      380 
     388      387      383      383      384      394      415      418 
     400      388      384      387      390      376      360      372 
     395      399      380      361      352      356      371      396 
     419      417      395      383      371      359      363      375 
     390      405      402      388      384      392      403      398 
     388      400      410      407      402      384      375      388 
     395      398      399      375      338      326      349      386 
     407      411      406      396      379      367      379      398 
     414      423      409      380      356      353      378      405 
     423      426      402      373      365      373      391      407 
     411      413      400      369      355      365      382      394 
     399      394      378      356      341      356      388      411 
     419      409      388      387      400      407      396      383 
     392      405      406      407      388      360      353      365 
     379      386      387      379      361      361      391      413 
     410      394      382      380      369      355      368      395 
     407      403      391      378      380      392      384      364 
     361      369      384      410      426      417      398      383 
     363      352      364      380      394      413      418      398 
     369      349      345      367      399      414      400      376 
     364      368      373      384      388      390      409      410 
     372      346      359      380      396      409      402      375 
     357      356      364      383      400      402      396      394 
     390      384      375      368      379      398      406      402 
     398      394      375      349      340      351      375      407 
     414      390      367      367      368      360      365      388 
     421      437      421      398      382      365      373      405 
     425      425      414      396      384      372      356      349 
     371      405      410      379      348      336      346      371 
     396      418      425      411      388      365      344      346 
     387      437      457      430      382      355      356      364 
     378      405      423      421      415      406      372      333 
     329      368      419      444      429      391      355      334 
     338      365      398      411      398      378      367      360 
     363      384      399      400      395      384      387      392 
     386      394      417      422      415      396      372      369 
     376      387      394      394      395      387      368      364 
     361      357      361      368      384      400      394      382 
     380      379      383      392      387      388      402      402 
     392      383      369      367      380      395      403      405 
     399      386      367      353      356      372      395      419 
     427      407      372      353      365      386      384      384 
     396      392      378      384      387      367      367      388 
     395      386      372      359      367      391      398      391 
     392      400      402      394      372      355      361      392 
     432      450      425      390      405      445      468      486 
     511      537      549      554      562      569      565      534 
     473      367      178      -27      -72       87      286      367 
     302       91     -226     -459     -314      284     1077     1660 
    1679      962      -76     -589     -280      286      514      357 
     268      645     1088      754     -286     -923     -418      830 
    1794     1730      837      -39     -287      125      716      773 
     265      -67       55      253      367      414      384      560 
    1082     1351      679     -602    -1356     -939      259     1339 
    1494      846      421      522      345     -371     -826     -414 
     565     1526     2027     1618      413     -467     -310      139 
     186      140      194      357      976     1725     1499      106 
   -1119    -1008     -167      357      753     1237     1258      742 
     243      -47     -230     -205       93      492      891     1270 
    1309      577     -531     -942     -429      216      641     1182 
    1561      999      -16     -286       74      360      535      587 
     295      -71       -2      357      554      629      743      884 
     976      785      233     -264     -257      144      426      352 
     113      -32       74      464      936     1067      791      633 
     735      583      145       -1      207      297      209      244 
     270       91       55      265      309      264      499      738 
     666      530      450      207      -62      199      951     1308 
     900      391      179      -40     -329     -355       -6      464 
     815      963      846      631      598      495       98     -155 
      39      402      556      511      596      708      457      162 
     256      372      291      391      569      434      209      214 
     346      352      167      114      359      471      244       81 
     198      394      432      341      490      957     1124      720 
     305      194      175      206      372      504      469      395 
     353      280      275      494      761      735      450      272 
     256      140      -24       78      340      392      372      569 
     723      623      565      614      425       66        5      241 
     329      274      427      585      356       48       98      344 
     518      589      573      548      546      398      155      172 
     461      652      562      427      463      502      367      236 
     265      295      310      481      562      328      172      332 
     429      287      247      453      522      292      172      349 
     413      206      159      422      668      726      648      471 
     263      168      255      322      228      243      475      599 
     594      665      579      122     -357     -421       32      733 
    1225     1277      996      580      259      140       66       59 
     313      673      859      772      414       48      -89     -129 
    -116      114      449      571      469      449      611      668 
     467      255      178      148      211      449      747      907 
     819      603      379       62     -199       -5      498      756 
     704      580      340      -25     -251     -130      286      777 
    1024      951      888     1040     1086      731      224     -117 
    -423     -784     -773     -170      541      903      922      702 
     456      369      214      -91     -128      241      741     1204 
    1359     1005      534      256      -33     -336     -279      217 
     758      903      591       82     -315     -325      141      785 
    1185     1161      745      166     -171      -97      195      500 
     697      788      868      751      272     -230     -349       82 
     831     1156      803      398      122     -373     -739     -394 
     336      859     1151     1286     1028      333     -217     -184 
     -36     -156       14      826     1521     1406      872      472 
      93     -329     -378       14      295      213      149      463 
    1092     1551     1291      469      -78       44      288      193 
     209      645      899      567       90     -139     -238     -265 
     -25      379      544      454      463      625      668      450 
     141       -5      171      688     1225     1283      797      243 
      78      180      -56     -652     -727       72     1058     1613 
    1626     1142      456       -9     -220     -310     -216        0 
     152      352      743     1094     1038      634      375      438 
     492      444      396      176     -186     -268       54      519 
     841      820      494      135      -13      145      469      592 
     465      442      508      459      515      660      425       44 
     214      652      573      112     -152     -156      -14      292 
     649      851      839      722      638      626      672      665 
     411        2     -221     -117      120      265      390      668 
     868      575       36      -82      217      438      396      319 
     545      966     1017      552      135      164      305      228 
     195      345      355      238      303      459      604      781 
     722      388      199      249      280      301      495      730 
     720      426      -24     -440     -583     -294      317      831 
    1034     1047      950      781      525      221       85      149 
     263      363      434      433      368      400      599      685 
     477      189       78      222      463      523      469      598 
     715      427       -2     -136     -152     -336     -352      221 
    1035     1410     1242      850      487      288      243      252 
     355      529      464       82     -155       66      421      488 
     400      495      577      284     -126     -143      216      542 
     641      621      571      487      419      472      635      734 
     623      317      -25     -139       70      388      662     1005 
    1368     1399      992      434      -90     -517     -598     -301 
     -10      202      529      648      386      222      279      288 
     310      413      487      492      400      307      411      635 
     758      723      518      202      -20       21      376      828 
     935      567       93     -137     -106      114      488      830 
     920      791      594      342      -22     -344     -328      -35 
     229      472      734      778      575      400      353      388 
     540      706      685      405      -22     -226        2      318 
     425      533      762      827      643      508      565      649 
     638      552      367      117       12       91      179      341 
     637      745      534      256       18     -110       58      486 
     895     1113     1104      868      422     -117     -467     -418 
    -133      147      477      838      903      634      445      492 
     480      295      225      355      384      244      228      330 
     228       78      279      616      619      368      310      517 
     594      413      290      279      148       20      259      796 
    1148     1057      707      372      118     -128     -326     -286 
      54      378      390      337      519      746      731      546 
     465      511      429      220      155      261      383      522 
     710      820      715      406       72      -75       -4      198 
     395      499      676     1020     1121      729      245      -37 
    -205     -163      145      391      392      344      390      544 
     768      909      873      685      438      268      176       89 
      90      217      345      379      345      311      322      440 
     652      749      572      319      237      210      121      172 
     413      575      567      504      454      454      471      388 
     229      121       67      116      409      753      805      631 
     427      162     -113     -153       94      391      615      843 
     969      761      309      -14      -17      106      149      261 
     553      753      661      415      222      170      267      434 
     544      535      387       83     -159        4      499      849 
     939     1055     1109      789      264       45      279      541 
     453      190       45      -37     -178     -276     -190       67 
     365      541      504      345      265      352      535      797 
    1086     1146      869      568      526      511      203     -108 
     -18      309      637      908      864      423      -22     -222 
    -264     -216      -32      228      391      484      723     1000 
    1026      892      859      886      742      368        4     -122 
    -114     -140     -130      -67     -106     -213     -168       83 
     417      710      912     1009     1032     1008      909      770 
     633      375       58       28      305      473      390      309 
     322      260      174      294      531      571      526      730 
     838      359     -259     -349     -109       -9      -44       63 
     390      730      930     1030     1055      982      850      642 
     226     -292     -518     -329       37      467      911     1134 
    1015      746      378     -190     -719     -884     -676     -205 
     500     1352     2008     2149     1868     1414      810       91 
    -452     -587     -450     -348     -390     -398     -191       72 
     186      326      707     1062     1158     1231     1309     1051 
     469      -93     -409     -349       72      508      575      419 
     425      444      191       40      413      994     1250     1081 
     649       95     -450     -831     -837     -414      190      642 
     781      765      823      904      950     1051     1097      888 
     492      128      -51      -29      120      391      819     1220 
    1163      459     -430     -841     -634     -163      319      737 
     891      735      557      540      675      970     1252     1212 
     762        2     -851    -1362    -1244     -742     -229      168 
     392      430      471      741     1259     1807     2052     1767 
    1089      363     -259     -803    -1155    -1048     -461      259 
     866     1251     1196      830      692      893     1086     1066 
     838      515      283      118     -116     -336     -434     -549 
    -727     -673     -225      325      747     1128     1399     1308 
     877      383      -16     -268     -294     -106      172      481 
     815     1069     1057      823      658      697      826      954 
    1019      834      315     -216     -445     -426     -251      168 
     719     1085     1188     1116      839      390       71       43 
      21     -189     -330     -209       25      234      498      819 
     924      652      186     -213     -342     -162      193      649 
    1169     1536     1539     1231      797      364       81      102 
     305      387      211     -182     -637     -905     -818     -413 
      99      557      935     1215     1290     1166      978      824 
     760      773      714      546      351      128     -102     -306 
    -467     -491     -365     -159      172      629     1007     1158 
    1188     1240     1188      822      282      -55       -8      313 
     660      849      901      835      552      117     -233     -396 
    -432     -433     -395     -166      225      515      677      837 
     855      567      129     -117       -8      334      762     1204 
    1441     1255      774      336      110       76      182      371 
     534      580      535      441      295      216      245      171 
     -24      -45      132      195       74       62      353      770 
     980      901      652      279      -52      -67      211      490 
     581      430      120      -79       -2      202      341      464 
     724     1073     1275     1233     1034      750      375      -72 
    -376     -307      -36      132      249      388      429      452 
     598      702      602      407      249      108      -25      -44 
      99      257      336      464      657      654      438      321 
     378      453      557      700      753      654      500      442 
     452      392      328      361      405      414      479      560 
     486      245      -24     -244     -333     -191      117      402 
     521      508      476      363      147      109      402      787 
    1003     1036      970      766      413      112       -1      -22 
       5      149      363      508      571      585      549      531 
     616      711      706      666      634      608      684      784 
     691      471      283       22     -303     -357     -113       60 
      89      136      151       72       -6      -28       31      252 
     616      892      926      762      449      101      -99     -109 
      48      364      710      951     1090     1084      886      689 
     653      633      526      448      387      218        9      -39 
     139      398      548      553      468      299      110       68 
     224      449      595      553      360      160        5     -105 
     -95       76      313      483      572      612      577      492 
     479      614      839      942      750      355       58       63 
     241      426      643      824      811      610      305      -25 
    -249     -230       17      414      846     1032      874      646 
     460      261      199      360      558      580      333      -45 
    -275     -305     -237       98      711     1057     1004      905 
     720      456      346      321      340      460      515      399 
     171       -9       31      203      284      248      140       -4 
     -60       78      351      615      834      970      908      689 
     522      464      414      407      573      731      592      349 
     229       55     -132     -180     -149       58      333      421 
     461      510      533      688      854      827      650      396 
     202      125       63       86      237      317      265      237 
     255      198       76       31      120      283      487      739 
     949      955      776      569      444      427      494      546 
     534      533      571      577      508      371      294      395 
     565      619      508      286       47     -114     -191     -184 
     -45      172      317      346      357      373      307      207 
     237      392      549      665      722      681      654      761 
     864      804      664      580      537      391      102      -91 
     -31       86      117      225      427      464      270      120 
     149      233      311      333      195       27       29      160 
     291      419      552      623      637      685      777      785 
     734      827      996     1024      988      911      664      367 
     144      -89     -317     -442     -402     -190       76      311 
     499      616      746      920      969      837      677      557 
     422      272      151       39      -78      -70      157      376 
