Origin Time       2025/03/28 03:50:00
Lat.              35.403
Long.             140.360
Depth. (km)       54
Mag.              4.4
Station Code      TKY024
Station Lat.      35.7422
Station Long.     139.8612
Station Height(m) 3
Record Time       2025/03/28 03:51:02
Sampling Freq(Hz) 100Hz
Duration Time(s)  60
Dir.              U-D
Scale Factor      7845(gal)/8223790
Max. Acc. (gal)   2.748
Last Correction   2025/03/28 03:51:01
Memo.             
[...]
    8357     8141     7962     7896     7954     8083     8193     8213 
    8172     8056     7923     7938     8074     8182     8198     8124 
    8055     8048     8059     8127     8241     8294     8298     8256 
    8112     7951     7861     7851     7936     8060     8160     8251 
    8322     8297     8140     8001     7982     7956     7931     7993 
    8104     8262     8421     8429     8274     8091     7997     7970 
    7962     7983     8004     8032     8113     8193     8235     8236 
    8163     8043     7927     7885     7997     8224     8395     8403 
    8310     8174     8017     7940     7959     8021     8073     8051 
    8013     8027     8054     8124     8252     8278     8155     8025 
    7975     8037     8183     8299     8341     8301     8141     7959 
    7871     7878     7947     8056     8132     8140     8120     8098 
    8122     8218     8286     8280     8247     8166     8051     7970 
    7933     7975     8129     8264     8240     8121     8064     8068 
    8063     8046     8013     8017     8120     8195     8145     8044 
    8028     8120     8148     8114     8217     8392     8438     8337 
    8136     7906     7798     7834     7882     7911     7989     8154 
    8284     8275     8235     8197     8093     8020     8066     8136 
    8198     8290     8328     8235     8091     7996     7947     7940 
    8002     8074     8058     8017     8087     8201     8199     8145 
    8158     8175     8160     8148     8139     8163     8218     8245 
    8201     8074     7955     7917     7908     7948     8039     8094 
    8136     8156     8125     8112     8140     8164     8167     8154 
    8145     8191     8263     8259     8190     8114     8025     7959 
    7929     7916     7982     8098     8149     8144     8121     8105 
    8113     8140     8158     8148     8151     8178     8182     8160 
    8131     8120     8114     8086     8047     8010     8001     8059 
    8151     8201     8167     8081     8017     8000     8017     8078 
    8155     8217     8245     8208     8106     8032     8032     8064 
    8091     8105     8098     8109     8132     8127     8135     8163 
    8137     8064     8013     8005     8048     8124     8174     8202 
    8199     8117     8046     8066     8098     8125     8181     8190 
    8136     8082     8048     8060     8106     8109     8074     8050 
    8054     8093     8110     8094     8117     8158     8163     8151 
    8118     8068     8054     8090     8175     8249     8212     8117 
    8074     8025     7981     8035     8121     8163     8189     8171 
    8094     8043     8062     8078     8070     8101     8154     8163 
    8152     8147     8117     8063     8039     8075     8133     8166 
    8191     8194     8147     8097     8078     8078     8102     8114 
    8091     8075     8071     8036     7982     7997     8094     8182 
    8208     8203     8172     8106     8068     8108     8183     8220 
    8187     8101     8009     7985     8039     8113     8175     8202 
    8145     8047     8021     8043     8051     8083     8132     8170 
    8193     8193     8187     8155     8095     8074     8102     8136 
    8133     8087     8043     8041     8059     8048     8044     8105 
    8163     8160     8175     8194     8124     8060     8079     8102 
    8147     8197     8185     8133     8074     8028     8028     8056 
    8108     8154     8128     8075     8055     8050     8091     8159 
    8168     8156     8164     8143     8089     8068     8100     8139 
    8147     8127     8121     8154     8193     8194     8147     8117 
    8152     8189     8222     8294     8343     8301     8166     7983 
    7834     7789     7902     8131     8270     8154     7805     7483 
    7578     8155     8820     9132     8802     7958     7321     7450 
    8052     8421     8194     7643     7323     7431     7704     7866 
    7916     8078     8542     9086     9151     8548     7830     7663 
    8101     8631     8737     8370     7881     7576     7489     7562 
    7824     8236     8544     8496     8122     7758     7758     8129 
    8479     8503     8398     8471     8564     8333     7932     7758 
    7766     7765     7784     7854     7952     8075     8175     8198 
    8098     7881     7778     8086     8710     9261     9466     9243 
    8695     8063     7568     7294     7138     6974     6910     7194 
    7838     8505     8789     8625     8271     7979     7823     7790 
    7894     8159     8492     8729     8862     8878     8560     7902 
    7295     7083     7327     7794     8060     7943     7727     7792 
    8255     8964     9607     9842     9579     8995     8205     7315 
    6729     6835     7456     8031     8226     8148     8102     8199 
    8245     8117     7958     7981     8255     8615     8808     8630 
    8064     7410     7084     7267     7773     8276     8537     8503 
    8348     8230     8051     7696     7348     7356     7843     8534 
    9004     9032     8696     8259     7994     7951     7952     7882 
    7766     7692     7798     8124     8417     8325     7916     7786 
    8305     8969     9039     8588     8320     8486     8556     8017 
    7092     6551     6917     7824     8432     8418     8117     7989 
    8170     8360     8232     7809     7469     7668     8360     8880 
    8723     8108     7663     7797     8309     8586     8299     7761 
    7514     7823     8347     8461     8159     8091     8571     9135 
    9100     8345     7550     7480     8020     8397     8243     7848 
    7616     7688     7828     7808     7830     8098     8361     8329 
    8101     7975     8017     8043     7963     7857     7870     8140 
    8507     8715     8847     9038     9031     8603     8046     7770 
    7861     8023     7884     7526     7373     7526     7763     7947 
    8104     8225     8182     7993     7916     8025     8013     7724 
    7535     7828     8367     8621     8463     8272     8421     8834 
    9090     8829     8105     7369     6920     6736     6879     7485 
    8332     8965     9190     9082     8741     8367     8220     8297 
    8355     8243     8010     7813     7728     7693     7638     7585 
    7673     8075     8679     8978     8712     8259     7969     7790 
    7630     7543     7767     8459     9305     9668     9209     8289 
    7537     7188     7001     6766     6679     7010     7661     8307 
    8788     9111     9225     9045     8660     8295     8064     7951 
    7989     8154     8262     8179     7935     7707     7603     7518 
    7415     7387     7453     7630     7943     8314     8611     8730 
    8750     8924     9336     9652     9382     8456     7449     7028 
    7275     7828     8337     8507     8176     7550     7053     6963 
    7303     7898     8500     8957     9217     9221     8849     8110 
    7404     7203     7458     7794     7944     7840     7763     8033 
    8432     8517     8206     7800     7709     8014     8364     8502 
    8527     8573     8618     8661     8704     8602     8203     7651 
    7349     7460     7650     7597     7530     7825     8337     8623 
    8523     8147     7703     7522     7873     8606     9163     9113 
    8610     8129     7832     7523     7196     7107     7395     7989 
    8656     9078     9069     8706     8255     7955     7780     7651 
    7692     7932     8222     8464     8559     8397     7983     7460 
    7091     7095     7464     7973     8326     8455     8533     8631 
    8588     8248     7767     7524     7715     8178     8610     8804 
    8715     8395     7965     7623     7597     7958     8465     8723 
    8572     8248     8073     8122     8218     8210     8133     8060 
    7992     7936     7908     7928     8064     8279     8340     8129 
    7859     7732     7653     7574     7735     8208     8677     8816 
    8627     8409     8413     8479     8271     7892     7724     7817 
    7943     7975     7969     8043     8160     8106     7838     7601 
    7641     7851     7902     7738     7638     7847     8325     8746 
    8779     8514     8392     8592     8760     8525     8020     7680 
    7674     7808     7906     7989     8078     8095     8024     8095 
    8432     8669     8487     8121     7950     8050     8197     8179 
    8095     8156     8361     8502     8413     8132     7820     7597 
    7484     7445     7501     7755     8156     8386     8284     8071 
    7983     8082     8274     8391     8401     8384     8325     8195 
    8101     8112     8112     7982     7811     7781     7905     8058 
    8185     8287     8259     8010     7704     7576     7642     7825 
    8155     8617     8991     9020     8703     8347     8247     8397 
    8542     8521     8446     8418     8290     7987     7628     7348 
    7245     7361     7619     7842     7854     7693     7630     7920 
    8464     8827     8706     8267     7920     7906     8117     8259 
    8233     8176     8155     8074     7871     7668     7607     7697 
    7886     8194     8650     9136     9386     9259     8896     8446 
    7932     7503     7371     7446     7531     7651     7921     8262 
    8509     8577     8403     8062     7858     7908     8004     8048 
    8116     8241     8392     8419     8158     7742     7457     7398 
    7553     7884     8166     8178     8004     7884     7915     8071 
    8259     8314     8236     8260     8448     8554     8483     8355 
    8218     8132     8172     8201     8077     7932     7908     7948 
    8019     8152     8290     8357     8347     8275     8203     8186 
    8190     8174     8167     8145     8023     7862     7823     7878 
    7935     8020     8118     8178     8236     8314     8287     8075 
    7863     7851     7970     8090     8164     8121     7986     7967 
    8122     8205     8032     7778     7731     7881     8043     8194 
    8375     8464     8353     8135     7890     7650     7651     8113 
    8803     9209     9099     8675     8232     7857     7549     7383 
    7449     7705     8019     8282     8417     8363     8118     7784 
    7565     7611     7874     8229     8599     8864     8884     8650 
    8347     8139     7996     7844     7670     7489     7470     7744 
    8082     8236     8275     8387     8627     8770     8613     8332 
    8137     8001     7958     8002     7933     7661     7379     7335 
    7587     7942     8162     8202     8276     8580     8918     8932 
    8625     8253     7959     7786     7727     7753     7875     8017 
    8058     8010     7925     7861     7878     7955     8052     8087 
    7981     7879     8014     8347     8634     8738     8679     8509 
    8374     8421     8487     8299     7889     7507     7391     7574 
    7780     7761     7654     7734     8012     8239     8280     8228 
    8203     8268     8430     8657     8833     8799     8529     8139 
    7776     7631     7759     7978     8129     8189     8191     8167 
    8093     7992     8005     8198     8375     8332     8164     8077 
    8120     8222     8249     8093     7875     7863     8081     8305 
    8386     8310     8175     8062     7917     7685     7449     7348 
    7450     7668     7852     7944     7977     8040     8205     8469 
    8721     8721     8391     8010     7897     8032     8170     8280 
    8459     8567     8467     8253     8050     7870     7705     7614 
    7703     7962     8275     8563     8764     8784     8645     8532 
    8557     8565     8341     7929     7601     7524     7609     7627 
    7423     7163     7134     7365     7744     8158     8424     8575 
    8808     9053     9097     8891     8511     8149     7939     7797 
    7654     7620     7759     7942     8002     7977     7998     8077 
    8145     8171     8152     8095     8012     7998     8178     8500 
    8741     8706     8430     8133     7915     7704     7492     7407 
    7565     7897     8212     8371     8406     8448     8526     8592 
    8644     8638     8576     8538     8461     8279     8106     7971 
    7808     7631     7479     7396     7420     7558     7785     7974 
    8005     7938     7958     8160     8352     8334     8276     8379 
    8550     8649     8569     8272     7905     7696     7743     7932 
    8059     8073     8085     8185     8383     8568     8541     8276 
    8048     8064     8197     8224     8101     7936     7871     7975 
    8135     8145     7989     7801     7720     7798     7946     8064 
    8178     8305     8451     8615     8660     8456     8113     7794 
    7615     7674     7823     7825     7777     7824     7928     8109 
    8337     8399     8280     8166     8118     8137     8193     8151 
    8017     7996     8167     8384     8502     8532     8564     8600 
    8559     8413     8158     7852     7654     7605     7643     7782 
    7967     8052     8081     8171     8232     8133     7959     7889 
    7979     8124     8124     7951     7813     7871     8071     8268 
    8371     8345     8202     8006     7759     7427     7115     7007 
    7180     7635     8311     8981     9398     9558     9586     9499 
    9250     8842     8347     7875     7487     7160     6897     6725 
    6669     6795     7214     7893     8546     8904     8997     9027 
    9086     9119     8996     8629     8101     7555     7132     7038 
    7296     7607     7704     7535     7241     7091     7221     7493 
    7749     8012     8425     9097     9980    10746    10990    10601 
    9787     8891     8132     7545     7118     6879     6929     7283 
    7693     7983     8176     8233     8127     7975     7850     7673 
    7398     7190     7219     7435     7711     7927     7986     7951 
    7994     8205     8453     8572     8588     8634     8742     8741 
    8419     7884     7462     7365     7653     8225     8752     8985 
    8984     8850     8577     8159     7743     7495     7431     7560 
    7871     8198     8386     8378     8139     7782     7522     7447 
    7591     7940     8340     8672     8950     9204     9405     9416 
    9121     8667     8307     8058     7738     7330     7028     6944 
    7065     7348     7651     7873     8037     8113     8048     7912 
    7757     7588     7443     7376     7534     8041     8722     9285 
    9630     9749     9617     9219     8563     7807     7203     6836 
    6635     6617     6872     7368     8010     8608     8869     8802 
    8683     8587     8445     8247     7985     7738     7657     7731 
    7916     8230     8505     8576     8586     8671     8691     8505 
    8186     7878     7705     7758     7975     8282     8623     8812 
    8765     8633     8460     8122     7630     7219     7042     7038 
    7132     7222     7229     7299     7647     8202     8610     8662 
    8465     8218     8154     8364     8677     8914     9009     8912 
    8614     8201     7734     7271     6979     7005     7249     7511 
    7769     8112     8552     9011     9337     9387     9147     8785 
    8486     8297     8249     8353     8436     8368     8245     8122 
    7951     7807     7727     7647     7653     7794     7917     7885 
    7653     7306     7056     7030     7206     7479     7771     8070 
    8353     8635     8893     8972     8820     8618     8537     8577 
    8667     8738     8696     8511     8245     7933     7576     7179 
    6826     6683     6835     7244     7797     8386     8959     9406 
    9590     9483     9084     8463     7858     7481     7389     7524 
    7750     7975     8191     8415     8623     8719     8658     8471 
    8133     7734     7497     7443     7512     7712     7939     8129 
    8329     8429     8345     8220     8166     8124     8021     7848 
    7651     7545     7601     7828     8201     8590     8862     9023 
    9078     8970     8679     8257     7825     7512     7393     7479 
    7692     7886     7979     8020     8079     8108     7983     7776 
    7697     7786     7879     7855     7758     7726     7821     8009 
    8224     8430     8625     8785     8878     8884     8775     8586 
    8419     8298     8167     8035     7981     8047     8166     8209 
    8132     7998     7938     7994     8023     7928     7743     7474 
    7257     7291     7535     7819     8044     8197     8356     8579 
    8783     8870     8857     8802     8756     8727     8635     8406 
    8079     7827     7771     7830     7863     7915     8056     8182 
    8163     8051     7950     7902     7890     7882     7881     7827 
    7681     7558     7555     7623     7641     7560     7473     7515 
    7723     8070     8452     8770     8995     9059     8946     8730 
    8482     8286     8197     8147     8105     8143     8249     8322 
    8298     8195     8125     8186     8255     8156     7994     7938 
    7971     8056     8135     8074     7848     7634     7626     7809 
    7985     8017     7925     7812     7727     7651     7561     7468 
    7441     7546     7794     8183     8622     8946     9097     9067 
    8858     8575     8322     8136     8052     8044     8050     8052 
    7997     7890     7859     7963     8127     8291     8529     8843 
    9055     9072     8946     8694     8357     8058     7858     7765 
    7735     7701     7651     7663     7747     7740     7541     7256 
    7047     7026     7268     7743     8280     8683     8891     8955 
    8907     8712     8378     8058     7944     8029     8147     8195 
    8195     8121     7960     7862     7944     8125     8267     8317 
    8365     8498     8591     8503     8291     8063     7881     7766 
    7711     7728     7804     7863     7863     7824     7759     7676 
    7626     7638     7682     7792     8067     8433     8660     8703 
    8739     8872     9004     8995     8819     8576     8378     8245 
    8117     7971     7858     7793     7761     7705     7574     7399 
    7271     7268     7429     7751     8141     8418     8521     8488 
    8337     8144     8041     8068     8140     8172     8174     8116 
    7955     7816     7823     7916     7990     7975     7881     7817 
    7893     8110     8383     8657     8915     9069     9062     8907 
    8646     8348     8075     7859     7699     7615     7639     7743 
    7858     7920     7925     7928     7978     8047     8131     8274 
    8409     8455     8457     8426     8347     8271     8166     8008 
    7908     7886     7881     7869     7828     7762     7713     7759 
    7942     8122     8144     8035     7897     7811     7851     8009 
    8209     8429     8680     8939     9097     9032     8765     8472 
    8279     8152     8006     7843     7720     7668     7651     7628 
    7570     7495     7474     7580     7817     8114     8353     8488 
    8550     8541     8441     8289     8159     8075     8040     8078 
    8174     8268     8328     8336     8280     8197     8125     8044 
    7939     7882     7950     8068     8122     8113     8067     7928 
    7701     7470     7292     7230     7312     7469     7690     8023 
    8378     8633     8788     8888     8928     8918     8926     8946 
    8914     8864     8800     8676     8546     8429     8271     8112 
    7990     7877     7751     7616     7470     7302     7129     7052 
