Origin Time       2025/03/28 03:50:00
Lat.              35.403
Long.             140.360
Depth. (km)       54
Mag.              4.4
Station Code      TKY021
Station Lat.      35.6875
Station Long.     139.8190
Station Height(m) 1
Record Time       2025/03/28 03:51:01
Sampling Freq(Hz) 100Hz
Duration Time(s)  60
Dir.              E-W
Scale Factor      7845(gal)/8223790
Max. Acc. (gal)   2.413
Last Correction   2025/03/28 03:51:01
Memo.             
[...]
    4652     4571     4530     4588     4550     4544     4617     4573 
    4521     4565     4596     4598     4558     4519     4549     4599 
    4604     4553     4534     4585     4607     4546     4502     4568 
    4591     4542     4596     4612     4534     4514     4565     4646 
    4602     4484     4527     4617     4588     4529     4538     4580 
    4554     4517     4567     4596     4550     4583     4614     4553 
    4552     4564     4554     4615     4600     4540     4563     4580 
    4595     4590     4568     4600     4569     4553     4639     4580 
    4483     4580     4652     4608     4549     4531     4554     4546 
    4573     4606     4540     4530     4591     4592     4561     4542 
    4546     4594     4588     4542     4552     4548     4572     4633 
    4579     4503     4546     4603     4565     4534     4575     4595 
    4592     4553     4503     4538     4552     4534     4603     4631 
    4546     4527     4608     4618     4546     4519     4576     4629 
    4579     4538     4596     4614     4590     4561     4527     4558 
    4572     4548     4579     4622     4618     4572     4533     4531 
    4558     4602     4604     4560     4530     4541     4584     4604 
    4576     4577     4599     4575     4542     4549     4596     4619 
    4567     4518     4544     4599     4594     4552     4536     4529 
    4542     4565     4563     4557     4569     4546     4490     4521 
    4608     4600     4554     4545     4557     4590     4611     4600 
    4557     4546     4599     4580     4542     4606     4611     4537 
    4527     4560     4581     4556     4533     4572     4552     4502 
    4533     4584     4595     4557     4544     4564     4599     4626 
    4545     4518     4599     4607     4576     4540     4563     4604 
    4542     4550     4598     4568     4575     4564     4540     4581 
    4585     4542     4550     4595     4572     4507     4546     4606 
    4531     4488     4581     4617     4584     4568     4537     4556 
    4611     4569     4526     4599     4610     4538     4561     4594 
    4550     4540     4587     4596     4549     4563     4610     4563 
    4503     4575     4637     4544     4496     4581     4599     4561 
    4584     4583     4557     4591     4568     4519     4592     4623 
    4527     4527     4606     4576     4572     4644     4610     4522 
    4483     4536     4662     4630     4473     4464     4576     4626 
    4569     4538     4557     4527     4561     4639     4594     4534 
    4561     4571     4523     4558     4648     4622     4599     4629 
    4541     4436     4491     4615     4617     4548     4580     4619 
    4572     4554     4594     4617     4545     4421     4507     4688 
    4629     4576     4634     4557     4498     4523     4545     4608 
    4581     4525     4627     4695     4576     4504     4595     4592 
    4517     4590     4665     4654     4627     4560     4536     4560 
    4552     4518     4522     4612     4600     4468     4464     4521 
    4563     4668     4708     4599     4469     4434     4491     4560 
    4569     4527     4510     4563     4617     4603     4560     4558 
    4549     4509     4595     4696     4602     4494     4507     4569 
    4621     4635     4646     4637     4573     4569     4622     4579 
    4509     4500     4472     4482     4584     4639     4590     4538 
    4530     4522     4533     4602     4653     4590     4533     4599 
    4625     4556     4514     4495     4473     4509     4618     4695 
    4695     4664     4594     4534     4525     4510     4509     4573 
    4693     4746     4604     4442     4483     4600     4630     4580 
    4540     4521     4460     4456     4526     4538     4515     4475 
    4428     4488     4664     4783     4726     4577     4438     4405 
    4527     4604     4540     4465     4509     4649     4679     4633 
    4635     4506     4367     4457     4604     4710     4735     4603 
    4487     4482     4519     4600     4662     4693     4731     4712 
    4677     4634     4510     4460     4568     4661     4650     4561 
    4490     4494     4571     4650     4607     4560     4623     4673 
    4718     4742     4641     4486     4379     4351     4386     4446 
    4563     4693     4714     4666     4684     4715     4658     4537 
    4467     4496     4496     4401     4361     4475     4603     4592 
    4557     4626     4654     4573     4530     4585     4648     4629 
    4561     4544     4590     4641     4572     4384     4314     4415 
    4576     4711     4720     4711     4746     4618     4429     4401 
    4475     4515     4422     4402     4573     4673     4725     4729 
    4585     4564     4606     4530     4533     4587     4602     4629 
    4625     4590     4541     4515     4564     4558     4507     4584 
    4672     4637     4536     4395     4353     4463     4526     4579 
    4730     4785     4692     4634     4630     4600     4558     4552 
    4629     4720     4687     4587     4544     4550     4588     4627 
    4634     4642     4642     4579     4522     4522     4455     4315 
    4288     4395     4495     4579     4669     4629     4488     4479 
    4565     4563     4526     4540     4517     4445     4471     4563 
    4534     4471     4564     4731     4862     4936     4870     4665 
    4482     4441     4469     4444     4388     4425     4553     4644 
    4693     4761     4803     4777     4695     4575     4403     4282 
    4282     4253     4236     4392     4622     4857     5046     4978 
    4718     4533     4452     4437     4467     4445     4391     4413 
    4538     4623     4554     4494     4592     4743     4791     4741 
    4681     4645     4639     4645     4577     4455     4429     4487 
    4476     4430     4448     4503     4560     4622     4696     4762 
    4768     4702     4639     4618     4561     4455     4391     4383 
    4401     4450     4452     4445     4560     4675     4664     4630 
    4665     4737     4764     4735     4715     4702     4680     4699 
    4692     4514     4307     4224     4163     4139     4257     4480 
    4734     4959     5082     5086     4959     4735     4596     4583 
    4525     4374     4195     4131     4230     4361     4472     4550 
    4590     4685     4774     4743     4641     4492     4318     4239 
    4275     4392     4560     4669     4708     4765     4823     4870 
    4914     4903     4841     4743     4648     4573     4450     4305 
    4225     4216     4260     4342     4457     4581     4703     4858 
    4966     4882     4666     4449     4286     4301     4503     4627 
    4572     4507     4502     4514     4526     4542     4561     4592 
    4671     4756     4730     4610     4540     4571     4638     4662 
    4588     4488     4525     4719     4882     4842     4716     4714 
    4741     4671     4585     4517     4413     4297     4185     4083 
    4031     4017     4059     4209     4419     4630     4819     4919 
    4895     4818     4741     4687     4646     4526     4372     4348 
    4455     4622     4788     4855     4827     4727     4561     4415 
    4328     4298     4378     4568     4830     5005     4963     4892 
    4884     4791     4584     4333     4104     3977     4029     4197 
    4318     4413     4550     4693     4804     4872     4911     4908 
    4846     4785     4675     4507     4449     4456     4403     4419 
    4518     4625     4801     4980     5028     4905     4614     4334 
    4230     4221     4291     4456     4572     4688     4849     4895 
    4854     4760     4591     4460     4290     4098     4105     4190 
    4257     4414     4561     4654     4747     4774     4699     4530 
    4383     4399     4475     4507     4621     4749     4754     4796 
    4826     4707     4610     4579     4581     4587     4471     4291 
    4152     4160     4357     4584     4833     5085     5238     5233 
    4961     4553     4233     4018     3975     4043     4072     4212 
    4553     4874     5039     5143     5198     5103     4941     4806 
    4549     4213     4124     4322     4446     4364     4351     4434 
    4437     4479     4656     4772     4704     4668     4812     4878 
    4793     4731     4560     4286     4178     4197     4176     4183 
    4230     4198     4206     4383     4563     4666     4765     4845 
    4941     5030     5011     4922     4793     4675     4637     4612 
    4645     4673     4549     4572     4792     4823     4658     4386 
    4040     3905     4075     4297     4378     4495     4803     5057 
    5108     5004     4777     4622     4637     4723     4818     4804 
    4630     4419     4182     3859     3653     3680     3851     4178 
    4573     4889     5170     5432     5584     5471     5113     4773 
    4507     4301     4203     4102     4040     4178     4388     4488 
    4561     4706     4820     4872     4850     4745     4644     4500 
    4341     4314     4374     4411     4375     4313     4364     4525 
    4671     4730     4756     4801     4796     4715     4656     4615 
    4588     4707     4931     5031     4984     4857     4662     4507 
    4392     4255     4203     4191     4047     3958     4087     4217 
    4266     4379     4610     4828     4959     5138     5305     5192 
    4854     4573     4425     4295     4189     4230     4369     4423 
    4425     4558     4715     4711     4702     4757     4769     4774 
    4828     4897     4830     4561     4305     4128     3979     3940 
    3993     4085     4280     4564     4799     4907     4889     4783 
    4681     4634     4546     4538     4711     4784     4764     4791 
    4727     4619     4536     4453     4425     4448     4549     4707 
    4804     4811     4830     4827     4658     4456     4394     4433 
    4507     4522     4465     4422     4434     4503     4550     4606 
    4735     4741     4604     4499     4355     4228     4315     4469 
    4487     4513     4687     4866     4897     4884     4858     4665 
    4438     4338     4347     4437     4452     4444     4579     4703 
    4749     4827     4830     4695     4625     4544     4333     4240 
    4251     4313     4549     4733     4758     4742     4615     4452 
    4345     4252     4222     4166     4031     4148     4556     4926 
    5134     5148     5043     4989     4931     4831     4803     4727 
    4558     4598     4789     4847     4796     4723     4691     4630 
    4429     4272     4201     4081     4033     4013     3785     3551 
    3507     3487     3519     3709     3977     4279     4671     5139 
    5470     5661     5822     5796     5711     5651     5379     5039 
    4691     4152     3596     3150     2864     2936     3195     3512 
    4109     4792     5285     5583     5568     5358     5243     5108 
    4884     4762     4691     4568     4471     4461     4634     4935 
    5088     5130     5240     5213     4888     4486     4163     3929 
    3904     4118     4556     5101     5406     5502     5594     5499 
    5319     5287     5255     5159     5034     4773     4293     3685 
    3088     2714     2822     3248     3802     4618     5510     6199 
    6601     6565     6010     5128     4257     3588     3159     3060 
    3294     3653     3986     4305     4530     4554     4531     4564 
    4490     4322     4191     4104     4036     3981     4021     4016 
    3812     3778     4054     4371     4812     5371     5620     5471 
    5316     5296     5206     5050     4996     4903     4592     4191 
    3723     3245     2953     2808     2984     3715     4807     5952 
    6759     6998     6805     6242     5406     4568     3874     3473 
    3589     4072     4556     4985     5240     5054     4591     4124 
    3661     3365     3538     4205     5097     5811     6123     6116 
    5836     5296     4604     3962     3661     3775     4151     4723 
    5394     5950     6211     6075     5564     4846     4087     3310 
    2636     2234     2070     2173     2570     3171     3874     4558 
    5244     5898     6346     6559     6517     6137     5548     5013 
    4552     4135     3885     3825     4040     4529     4869     4850 
    4664     4279     3684     3126     2710     2493     2619     2995 
    3434     3897     4322     4699     5157     5594     5829     5929 
    5861     5655     5458     5151     4797     4622     4660     4900 
    5007     4742     4421     4158     3815     3478     3393     3665 
    4294     5198     6027     6544     6817     6822     6488     5852 
    5008     4017     3114     2619     2408     2413     2893     3771 
    4745     5545     5946     6031     6004     5898     5724     5481 
    5074     4434     3690     3067     2654     2513     2694     3200 
    4045     5032     5765     6079     6062     5850     5564     5400 
    5416     5418     5394     5416     5319     4993     4450     3750 
    3067     2624     2554     2825     3323     3931     4492     4947 
    5223     5175     4882     4457     3954     3666     3774     4090 
    4440     4757     5012     5143     5058     4780     4410     4113 
    4039     4224     4661     5171     5494     5548     5308     4819 
    4334     3978     3730     3692     3847     4078     4372     4666 
    4959     5251     5391     5467     5649     5807     5790     5668 
    5516     5179     4548     3743     2967     2393     2161     2408 
    3109     4028     5058     6069     6793     7099     6921     6280 
    5324     4365     3748     3400     3210     3288     3451     3528 
    3570     3565     3551     3611     3784     4062     4452     4972 
    5428     5692     5780     5599     5294     5096     5008     5016 
    5090     5181     5138     4914     4695     4436     4055     3780 
    3807     4058     4349     4606     4754     4824     4918     4860 
    4541     4243     4191     4338     4621     5049     5412     5431 
    5098     4594     4105     3676     3329     3214     3319     3541 
    3870     4209     4487     4729     4861     4969     5328     5791 
    6021     6116     6126     5803     5173     4518     3962     3561 
    3514     3766     4001     4144     4241     4280     4234     3952 
    3507     3257     3307     3576     4059     4797     5687     6392 
    6786     6826     6388     5780     5285     4770     4334     4093 
    3959     3921     3821     3619     3532     3464     3388     3562 
    3894     4228     4587     4884     5097     5169     4962     4641 
    4423     4271     4159     4205     4401     4607     4851     5152 
    5294     5192     5077     5054     4926     4648     4322     3986 
    3750     3678     3736     3850     4031     4399     4828     5132 
    5377     5583     5622     5420     5150     5007     4932     4915 
    5023     5186     5350     5455     5373     5134     4865     4495 
    3987     3588     3400     3288     3295     3453     3634     3820 
    4020     4152     4302     4634     5057     5391     5719     6073 
    6193     6007     5710     5325     4808     4267     3817     3593 
    3608     3739     3917     4036     4072     4132     4179     4139 
    4077     4077     4093     4068     4063     4113     4243     4465 
    4652     4796     5093     5522     5830     5930     5918     5738 
    5332     4846     4341     3817     3505     3600     3987     4384 
    4658     4939     5151     5026     4729     4372     3813     3399 
    3437     3771     4301     4812     5167     5459     5552     5467 
    5397     5227     5004     4947     4847     4529     4168     3731 
    3206     2903     2871     2986     3314     3823     4337     4845 
    5375     5671     5609     5489     5435     5324     5202     5097 
    4888     4611     4332     3974     3678     3666     3854     4081 
    4329     4644     4962     5177     5306     5308     5123     4862 
    4615     4456     4499     4669     4869     5204     5586     5724 
    5586     5275     4796     4328     4120     4101     4097     4066 
    4079     4187     4284     4288     4240     4228     4315     4467 
    4642     4769     4793     4808     4742     4526     4395     4337 
    4163     4013     3981     3969     4002     4172     4352     4438 
    4529     4571     4495     4415     4336     4243     4226     4255 
    4293     4438     4656     4808     4869     4834     4770     4796 
    4831     4734     4584     4432     4195     3991     3959     4058 
    4241     4494     4891     5337     5540     5547     5568     5528 
    5363     5262     5248     5138     5017     5024     5067     5027 
    4823     4537     4270     4023     3924     3970     3944     3917 
    4005     4086     4124     4112     3955     3753     3716     3875 
    4205     4752     5375     5846     6235     6559     6569     6203 
    5582     4849     4122     3429     2956     2851     3026     3420 
    3915     4382     4792     5066     5194     5192     5034     4865 
    4712     4423     4152     4052     4005     4048     4264     4455 
    4521     4561     4517     4368     4230     4079     3908     3854 
    3989     4233     4487     4831     5293     5672     5892     5988 
    5881     5562     5085     4548     4074     3676     3450     3466 
    3568     3700     3894     4039     4051     4039     4101     4179 
    4321     4612     4990     5449     5940     6313     6637     6880 
    6762     6309     5721     4977     4137     3422     2979     2793 
    2848     3238     3824     4425     5050     5521     5718     5695 
    5462     5215     5023     4758     4480     4257     4145     4131 
    4090     4087     4183     4209     4086     3928     3777     3578 
    3380     3354     3543     3856     4280     4711     5020     5327 
    5533     5404     5158     5031     4869     4673     4619     4644 
    4622     4592     4635     4710     4630     4399     4217     4091 
    3971     3929     3987     4152     4390     4592     4772     4888 
    4881     4872     4870     4824     4816     4835     4855     4934 
    5022     5051     5016     4860     4642     4590     4661     4654 
    4606     4585     4596     4650     4688     4702     4692     4604 
    4522     4473     4336     4178     4133     4087     4013     4097 
    4288     4433     4603     4801     4860     4764     4598     4384 
    4158     3950     3824     3812     3889     4153     4560     4889 
    5174     5470     5655     5680     5557     5410     5275     5028 
    4718     4463     4205     3910     3694     3599     3507     3419 
    3423     3526     3734     4024     4348     4653     4887     5047 
    5144     5182     5182     5154     5103     5013     4900     4881 
    4997     5158     5367     5578     5675     5645     5451     5103 
    4698     4321     4045     3821     3643     3658     3825     4013 
    4225     4450     4668     4846     4915     4931     4969     4995 
    5004     4978     4860     4652     4387     4155     4021     3919 
    3824     3848     3969     4126     4369     4626     4808     4965 
    5076     5101     5016     4816     4584     4359     4167     4085 
    4147     4314     4536     4862     5266     5548     5660     5598 
    5320     4916     4407     3794     3223     2778     2527     2520 
