Origin Time       2025/03/28 03:50:00
Lat.              35.403
Long.             140.360
Depth. (km)       54
Mag.              4.4
Station Code      TKY003
Station Lat.      35.7968
Station Long.     139.2916
Station Height(m) 179
Record Time       2025/03/28 03:51:09
Sampling Freq(Hz) 100Hz
Duration Time(s)  60
Dir.              U-D
Scale Factor      7845(gal)/8223790
Max. Acc. (gal)   0.643
Last Correction   2025/03/28 03:51:08
Memo.             
    9306     9305     9304     9302     9302     9304     9305     9302 
    9300     9304     9305     9304     9304     9302     9304     9304 
    9304     9304     9302     9298     9298     9304     9305     9305 
    9304     9302     9302     9304     9301     9298     9300     9304 
    9304     9301     9302     9304     9302     9304     9304     9300 
    9301     9304     9301     9301     9304     9304     9301     9301 
    9302     9304     9304     9306     9309     9306     9304     9300 
    9298     9301     9304     9304     9304     9302     9298     9298 
    9302     9302     9302     9302     9304     9306     9306     9301 
    9300     9304     9305     9301     9302     9302     9304     9306 
    9308     9304     9304     9304     9301     9298     9298     9302 
    9306     9306     9305     9304     9301     9301     9302     9302 
    9302     9301     9301     9301     9302     9301     9298     9298 
    9302     9304     9306     9308     9304     9300     9302     9304 
    9301     9301     9298     9300     9304     9304     9302     9302 
    9301     9300     9302     9302     9301     9305     9304     9300 
    9302     9304     9305     9304     9300     9300     9301     9301 
    9302     9305     9304     9300     9300     9304     9305     9304 
    9306     9308     9302     9298     9301     9302     9304     9304 
    9302     9300     9300     9301     9304     9304     9301     9300 
    9301     9301     9301     9302     9304     9302     9301     9304 
    9305     9301     9300     9302     9304     9304     9302     9302 
    9302     9302     9304     9305     9306     9305     9301     9300 
    9300     9300     9306     9308     9304     9301     9302     9304 
    9301     9300     9300     9298     9304     9308     9301     9298 
    9304     9302     9301     9302     9301     9305     9308     9302 
    9298     9300     9305     9304     9304     9306     9305     9302 
    9302     9304     9301     9302     9302     9301     9302     9302 
    9301     9302     9302     9302     9305     9304     9301     9302 
    9304     9302     9305     9306     9302     9297     9300     9302 
    9302     9302     9305     9305     9301     9302     9305     9305 
    9305     9301     9300     9304     9304     9301     9300     9301 
    9301     9298     9301     9304     9304     9302     9302     9301 
    9301     9305     9306     9304     9304     9305     9304     9306 
    9313     9319     9325     9340     9362     9386     9410     9431 
    9443     9445     9436     9423     9412     9408     9409     9393 
    9332     9211     9040     8870     8769     8784     8900     9043 
    9128     9115     9043     9013     9117     9359     9649     9879 
    9976     9944     9832     9678     9489     9293     9146     9077 
    9074     9077     9020     8896     8777     8783     8993     9367 
    9726     9899     9838     9621     9390     9279     9304     9391 
    9458     9443     9343     9174     8988     8889     8964     9190 
    9458     9599     9506     9234     8974     8914     9099     9436 
    9761     9899     9748     9385     9030     8869     8931     9126 
    9329     9451     9447     9320     9147     9073     9198     9508 
    9844     9953     9728     9328     9038     9013     9184     9356 
    9393     9270     9074     8924     8868     8903     9030     9219 
    9404     9513     9514     9444     9385     9382     9410     9437 
    9428     9362     9274     9240     9310     9463     9587     9597 
    9509     9397     9305     9224     9120     8989     8892     8862 
    8858     8843     8850     8945     9146     9409     9660     9815 
    9842     9799     9759     9730     9671     9552     9390     9235 
    9131     9080     9061     9047     9026     9024     9074     9146 
    9194     9248     9364     9524     9655     9690     9589     9369 
    9144     9051     9117     9247     9335     9352     9315     9246 
    9196     9205     9266     9323     9327     9292     9269     9275 
    9283     9275     9283     9336     9409     9436     9383     9300 
    9251     9244     9259     9286     9317     9328     9310     9297 
    9320     9369     9418     9458     9460     9381     9239     9142 
    9139     9177     9180     9150     9157     9221     9305     9377 
    9431     9458     9448     9401     9331     9263     9238     9273 
    9328     9342     9290     9208     9155     9182     9298     9443 
    9514     9487     9423     9371     9327     9266     9194     9135 
    9088     9032     8986     9000     9111     9312     9536     9675 
    9680     9612     9533     9448     9348     9255     9202     9192 
    9207     9224     9227     9228     9262     9313     9346     9344 
    9317     9275     9227     9204     9238     9310     9383     9432 
    9433     9378     9279     9170     9099     9105     9205     9335 
    9396     9359     9281     9231     9247     9321     9418     9501 
    9543     9536     9472     9355     9246     9212     9251     9289 
    9274     9205     9119     9058     9059     9136     9263     9383 
    9466     9508     9497     9423     9332     9290     9301     9316 
    9304     9250     9157     9080     9103     9242     9412     9509 
    9504     9443     9381     9333     9305     9316     9348     9360 
    9335     9275     9196     9124     9111     9165     9236     9282 
    9283     9256     9235     9247     9301     9370     9418     9447 
    9472     9481     9455     9410     9350     9282     9243     9262 
    9312     9316     9251     9184     9175     9224     9282     9296 
    9281     9289     9321     9342     9350     9359     9355     9343 
    9367     9417     9402     9285     9131     9038     9028     9069 
    9121     9169     9221     9313     9451     9580     9630     9582 
    9487     9404     9343     9304     9274     9232     9188     9178 
    9196     9204     9204     9213     9225     9246     9297     9389 
    9481     9518     9499     9456     9413     9381     9360     9331 
    9255     9134     9043     9040     9082     9109     9128     9151 
    9182     9234     9316     9427     9552     9666     9730     9709 
    9574     9377     9224     9181     9209     9219     9161     9067 
    9001     8995     9051     9162     9286     9377     9435     9489 
    9537     9547     9493     9389     9271     9181     9131     9109 
    9097     9097     9130     9216     9362     9532     9672     9748 
    9756     9701     9580     9408     9221     9077     9012     9019 
    9058     9103     9143     9189     9263     9346     9377     9328 
    9248     9198     9194     9225     9279     9316     9310     9302 
    9339     9400     9441     9447     9424     9387     9339     9297 
    9292     9308     9319     9325     9313     9252     9155     9066 
    9034     9076     9188     9331     9427     9420     9352     9305 
    9302     9323     9370     9443     9493     9477     9408     9343 
    9324     9344     9386     9420     9402     9312     9175     9057 
    8997     8992     9035     9123     9223     9296     9348     9398 
    9432     9437     9439     9481     9563     9614     9576     9456 
    9315     9211     9144     9065     8973     8922     8934     9008 
    9142     9308     9463     9580     9629     9593     9490     9389 
    9359     9390     9401     9337     9234     9153     9116     9093 
    9070     9089     9181     9310     9423     9495     9528     9509 
    9455     9389     9313     9240     9194     9185     9200     9213 
    9220     9251     9327     9404     9416     9356     9288     9266 
    9302     9363     9402     9381     9292     9177     9097     9078 
    9111     9167     9234     9304     9371     9420     9455     9490 
    9516     9525     9512     9468     9398     9312     9225     9163 
    9132     9115     9062     8970     8910     8968     9150     9393 
    9614     9749     9752     9652     9529     9445     9398     9363 
    9325     9292     9254     9170     9031     8895     8827     8872 
    9027     9235     9429     9590     9706     9748     9697     9580 
    9464     9408     9393     9359     9251     9076     8919     8874 
    8945     9065     9170     9239     9278     9321     9385     9464 
    9516     9485     9379     9279     9234     9232     9246     9255 
    9263     9293     9359     9440     9482     9474     9454     9439 
    9416     9386     9339     9263     9200     9193     9217     9228 
    9217     9225     9283     9339     9320     9239     9161     9127 
    9136     9153     9148     9144     9162     9208     9288     9390 
    9497     9578     9606     9594     9579     9567     9539     9477 
    9371     9215     9042     8932     8958     9104     9277     9394 
    9439     9425     9385     9369     9373     9348     9288     9246 
    9227     9186     9126     9104     9166     9292     9416     9494 
    9501     9437     9340     9232     9109     9016     9028     9147 
    9288     9371     9390     9386     9410     9472     9522     9498 
    9387     9242     9116     9045     9036     9094     9204     9319 
    9404     9462     9513     9563     9598     9598     9543     9414 
    9248     9128     9089     9088     9066     9028     9034     9103 
    9196     9278     9348     9410     9455     9487     9505     9494 
    9440     9373     9333     9323     9317     9310     9305     9283 
    9236     9184     9153     9142     9143     9153     9175     9219 
    9286     9359     9412     9462     9537     9622     9670     9637 
    9537     9417     9304     9197     9100     9024     8982     8982 
    9018     9077     9169     9293     9440     9563     9594     9509 
    9359     9234     9177     9163     9159     9157     9153     9159 
    9196     9254     9302     9336     9374     9427     9477     9501 
    9502     9499     9512     9545     9571     9533     9397     9194 
    9005     8907     8919     8992     9054     9105     9190     9289 
    9355     9416     9506     9593     9609     9539     9428     9321 
    9252     9258     9331     9385     9328     9177     9032     8981 
    9049     9181     9304     9373     9405     9428     9456     9474 
    9444     9364     9279     9225     9213     9239     9274     9310 
    9359     9408     9428     9404     9328     9213     9093     9016 
    9036     9155     9316     9441     9494     9501     9491     9455 
    9385     9315     9255     9182     9104     9061     9080     9177 
    9319     9418     9440     9420     9387     9347     9292     9224 
    9169     9163     9217     9294     9347     9366     9391     9436 
    9458     9431     9367     9312     9296     9325     9369     9375 
    9325     9250     9201     9184     9185     9215     9263     9317 
    9383     9455     9502     9499     9444     9351     9242     9150 
    9088     9051     9042     9082     9177     9283     9373     9433 
    9448     9433     9418     9409     9381     9328     9269     9228 
    9229     9270     9321     9343     9323     9281     9236     9211 
    9216     9228     9224     9204     9193     9232     9321     9418 
    9501     9564     9594     9575     9504     9390     9261     9139 
    9039     8976     8955     8978     9053     9197     9390     9575 
    9713     9787     9772     9651     9463     9270     9112     9015 
    8984     8980     8966     8947     8988     9124     9312     9471 
    9564     9589     9558     9485     9391     9317     9300     9354 
    9439     9471     9414     9325     9250     9216     9251     9332 
    9404     9431     9401     9331     9251     9167     9088     9038 
    9031     9057     9100     9154     9212     9282     9375     9472 
    9532     9521     9441     9328     9247     9244     9298     9377 
    9451     9486     9472     9418     9339     9244     9151     9082 
    9055     9066     9093     9123     9158     9215     9300     9394 
    9460     9471     9445     9429     9444     9478     9493     9468 
    9412     9327     9217     9112     9063     9109     9221     9324 
    9369     9348     9305     9285     9300     9321     9335     9358 
    9375     9340     9248     9169     9165     9235     9335     9416 
    9435     9381     9300     9248     9254     9304     9374     9417 
    9387     9293     9197     9163     9213     9313     9404     9439 
    9409     9333     9244     9169     9136     9159     9201     9220 
    9197     9169     9196     9289     9425     9568     9660     9671 
    9606     9478     9324     9188     9085     9027     9009     9016 
    9057     9146     9259     9355     9420     9460     9478     9475 
    9455     9410     9342     9289     9288     9329     9364     9352 
    9292     9225     9216     9265     9323     9359     9382     9405 
    9405     9370     9310     9250     9207     9204     9229     9236 
    9198     9150     9144     9196     9258     9275     9254     9242 
    9256     9283     9324     9379     9428     9447     9441     9418 
    9378     9339     9329     9346     9358     9344     9327     9343 
    9396     9456     9495     9493     9452     9387     9306     9204 
    9070     8934     8843     8830     8899     9012     9120     9216 
    9325     9455     9597     9718     9767     9711     9562     9379 
    9224     9108     9040     9018     9022     9055     9124     9223 
    9342     9464     9566     9617     9601     9522     9405     9297 
    9247     9251     9269     9267     9254     9265     9308     9350 
    9362     9339     9294     9234     9162     9113     9126     9185 
    9256     9321     9381     9432     9455     9427     9356     9294 
    9261     9220     9162     9126     9139     9201     9298     9417 
    9522     9576     9574     9531     9454     9356     9247     9112 
    8958     8822     8743     8752     8861     9043     9244     9433 
    9621     9791     9890     9904     9876     9828     9740     9594 
    9410     9232     9063     8912     8833     8850     8923     9004 
    9088     9180     9273     9358     9424     9467     9490     9501 
    9512     9535     9568     9576     9531     9448     9351     9235 
    9109     9022     8982     8949     8911     8900     8939     9036 
    9185     9356     9514     9634     9699     9706     9666     9594 
    9499     9364     9180     8985     8850     8816     8880     9005 
    9150     9290     9427     9559     9678     9768     9782     9683 
    9533     9401     9293     9200     9107     9020     8984     9036 
    9178     9343     9445     9455     9394     9310     9231     9144 
    9050     8977     8974     9069     9235     9428     9625     9787 
    9864     9833     9715     9520     9278     9051     8860     8731 
    8707     8788     8943     9148     9381     9602     9761     9842 
    9868     9852     9779     9636     9431     9193     8981     8853 
    8824     8874     8953     9027     9086     9132     9175     9232 
    9316     9417     9501     9529     9489     9409     9327     9270 
    9267     9339     9463     9574     9586     9494     9373     9273 
    9194     9127     9078     9061     9080     9134     9228     9362 
    9518     9655     9722     9676     9512     9271     9054     8932 
    8895     8910     8988     9139     9335     9512     9617     9629 
    9567     9483     9410     9339     9251     9128     8993     8900 
    8896     8970     9078     9189     9293     9385     9468     9549 
    9616     9651     9663     9679     9687     9630     9470     9229 
    8962     8738     8638     8688     8845     9039     9221     9377 
    9520     9645     9729     9769     9772     9740     9683     9607 
    9513     9405     9300     9216     9136     9039     8934     8849 
    8811     8834     8888     8926     8949     9016     9158     9352 
    9567     9764     9904     9960     9931     9826     9659     9460 
    9265     9111     9030     9005     9007     9026     9085     9202 
    9347     9443     9459     9417     9337     9234     9135     9059 
    9001     8973     8982     8995     8985     8984     9035     9171 
    9374     9585     9742     9830     9868     9877     9855     9794 
    9699     9574     9425     9282     9178     9101     9028     8964 
    8926     8932     8964     8961     8937     8950     9016     9107 
    9188     9248     9310     9402     9539     9702     9842     9915 
    9903     9838     9759     9655     9518     9352     9158     8965 
    8820     8738     8715     8753     8835     8946     9069     9190 
    9298     9381     9448     9525     9597     9628     9613     9578 
    9545     9531     9518     9468     9367     9235     9112     9031 
    9003     9011     9028     9066     9157     9265     9319     9319 
    9312     9321     9344     9386     9447     9504     9514     9472 
    9420     9385     9366     9344     9304     9244     9192     9158 
    9132     9115     9123     9157     9217     9309     9401     9458 
    9470     9445     9402     9354     9315     9301     9315     9340 
    9356     9348     9316     9278     9273     9289     9292     9282 
    9283     9282     9263     9244     9243     9238     9228     9254 
    9321     9404     9472     9521     9545     9517     9410     9255 
    9105     8995     8934     8914     8920     8959     9051     9193 
    9354     9508     9630     9703     9733     9721     9657     9548 
    9421     9315     9235     9170     9119     9099     9111     9134 
    9155     9181     9224     9277     9301     9278     9229     9167 
    9116     9117     9171     9234     9283     9333     9383     9445 
    9535     9632     9693     9694     9651     9578     9490     9412 
    9356     9343     9370     9381     9331     9215     9055     8899 
    8780     8718     8726     8788     8884     9001     9134     9282 
    9452     9624     9772     9867     9872     9788     9653     9499 
    9378     9310     9267     9220     9165     9103     9061     9067 
    9126     9224     9343     9448     9485     9433     9320     9194 
    9096     9057     9078     9135     9192     9228     9258     9315 
    9402     9490     9541     9529     9444     9329     9243     9207 
    9224     9292     9390     9482     9520     9467     9351     9234 
    9154     9103     9067     9049     9045     9058     9092     9146 
    9236     9367     9502     9595     9617     9567     9487     9427 
    9404     9401     9390     9374     9374     9390     9405     9394 
    9362     9333     9304     9238     9127     9003     8907     8862 
    8861     8887     8927     8997     9115     9286     9493     9670 
    9783     9844     9856     9803     9703     9571     9420     9285 
    9201     9163     9148     9157     9192     9243     9293     9323 
    9325     9308     9279     9247     9225     9213     9192     9161 
    9146     9154     9174     9200     9228     9259     9290     9317 
    9332     9320     9289     9274     9306     9373     9437     9486 
    9504     9470     9382     9267     9157     9073     9042     9085 
    9163     9228     9281     9346     9428     9524     9606     9639 
    9606     9532     9452     9382     9324     9274     9215     9161 
