Origin Time       2025/03/28 03:50:00
Lat.              35.403
Long.             140.360
Depth. (km)       54
Mag.              4.4
Station Code      TKY003
Station Lat.      35.7968
Station Long.     139.2916
Station Height(m) 179
Record Time       2025/03/28 03:51:09
Sampling Freq(Hz) 100Hz
Duration Time(s)  60
Dir.              N-S
Scale Factor      7845(gal)/8223790
Max. Acc. (gal)   2.216
Last Correction   2025/03/28 03:51:08
Memo.             
[...]
   -7013    -7014    -7014    -7014    -7013    -7011    -7014    -7014 
   -7010    -7010    -7014    -7015    -7015    -7017    -7015    -7013 
   -7011    -7009    -7010    -7014    -7015    -7015    -7013    -7011 
   -7013    -7015    -7015    -7013    -7013    -7014    -7010    -7007 
   -7010    -7014    -7014    -7011    -7010    -7011    -7010    -7010 
   -7011    -7013    -7013    -7013    -7013    -7010    -7009    -7010 
   -7013    -7015    -7013    -7010    -7013    -7015    -7015    -7014 
   -7013    -7013    -7013    -7013    -7013    -7015    -7015    -7011 
   -7009    -7007    -7007    -7007    -7010    -7013    -7010    -7010 
   -7009    -7009    -7013    -7013    -7011    -7014    -7015    -7015 
   -7017    -7018    -7017    -7013    -7011    -7010    -7011    -7014 
   -7015    -7013    -7011    -7011    -7011    -7011    -7011    -7010 
   -7007    -7007    -7011    -7014    -7014    -7014    -7013    -7015 
   -7015    -7011    -7013    -7017    -7017    -7015    -7015    -7015 
   -7014    -7013    -7013    -7011    -7013    -7013    -7014    -7013 
   -7011    -7010    -7010    -7013    -7013    -7010    -7009    -7007 
   -7009    -7013    -7011    -7010    -7011    -7013    -7013    -7013 
   -7014    -7013    -7014    -7018    -7020    -7017    -7015    -7013 
   -7010    -7010    -7011    -7013    -7013    -7013    -7009    -7007 
   -7013    -7015    -7010    -7006    -7005    -7003    -7006    -7013 
   -7014    -7014    -7011    -7006    -7005    -7009    -7013    -7015 
   -7015    -7013    -7011    -7010    -7007    -7006    -7002    -6991 
   -6980    -6974    -6967    -6961    -6951    -6936    -6924    -6930 
   -6961    -7011    -7053    -7060    -7022    -6976    -6971    -7038 
   -7167    -7288    -7331    -7273    -7157    -7052    -7017    -7057 
   -7125    -7153    -7117    -7041    -6957    -6871    -6798    -6772 
   -6794    -6840    -6889    -6925    -6932    -6895    -6848    -6859 
   -6957    -7102    -7229    -7287    -7241    -7101    -6936    -6839 
   -6872    -7017    -7169    -7236    -7175    -7022    -6871    -6818 
   -6887    -7028    -7156    -7192    -7087    -6893    -6733    -6693 
   -6829    -7132    -7446    -7589    -7495    -7207    -6856    -6596 
   -6540    -6685    -6895    -7026    -7020    -6887    -6723    -6673 
   -6798    -7032    -7250    -7346    -7265    -7057    -6841    -6733 
   -6814    -7069    -7366    -7537    -7519    -7366    -7177    -7034 
   -6994    -7044    -7118    -7144    -7095    -7011    -6949    -6934 
   -6957    -6988    -7007    -6998    -6939    -6836    -6708    -6598 
   -6556    -6598    -6716    -6876    -7017    -7078    -7057    -7001 
   -6968    -6982    -7036    -7122    -7227    -7296    -7260    -7140 
   -7061    -7087    -7155    -7204    -7195    -7101    -6929    -6735 
   -6620    -6679    -6862    -7059    -7222    -7337    -7364    -7256 
   -7057    -6910    -6870    -6891    -6952    -7051    -7141    -7157 
   -7086    -6997    -6955    -6964    -6994    -7020    -6995    -6878 
   -6704    -6596    -6629    -6764    -6914    -7042    -7132    -7167 
   -7157    -7146    -7149    -7153    -7134    -7106    -7114    -7141 
   -7157    -7190    -7240    -7233    -7148    -7053    -6975    -6868 
   -6755    -6713    -6763    -6853    -6929    -6983    -7049    -7128 
   -7155    -7103    -7036    -6964    -6859    -6775    -6782    -6856 
   -6933    -6995    -7065    -7155    -7207    -7167    -7069    -6994 
   -6961    -6961    -6983    -7018    -7044    -7040    -7044    -7111 
   -7209    -7244    -7200    -7145    -7087    -6987    -6879    -6853 
   -6912    -6972    -7011    -7055    -7087    -7086    -7068    -7038 
   -6976    -6878    -6782    -6723    -6718    -6752    -6775    -6798 
   -6886    -7028    -7145    -7213    -7256    -7269    -7240    -7184 
   -7119    -7044    -6980    -6975    -7028    -7082    -7095    -7079 
   -7071    -7107    -7179    -7206    -7141    -7009    -6841    -6685 
   -6598    -6589    -6640    -6756    -6916    -7052    -7133    -7177 
   -7194    -7191    -7176    -7133    -7064    -7011    -7017    -7071 
   -7134    -7186    -7207    -7186    -7149    -7121    -7071    -6983 
   -6882    -6806    -6783    -6786    -6766    -6739    -6786    -6928 
   -7099    -7234    -7300    -7263    -7118    -6955    -6866    -6852 
   -6890    -6980    -7087    -7141    -7113    -7037    -6983    -6984 
   -6999    -6975    -6902    -6826    -6798    -6828    -6913    -7038 
   -7145    -7173    -7123    -7048    -6991    -6972    -6998    -7048 
   -7105    -7179    -7241    -7246    -7230    -7233    -7222    -7163 
   -7075    -6994    -6932    -6874    -6820    -6809    -6874    -6991 
   -7105    -7179    -7198    -7126    -6966    -6814    -6751    -6732 
   -6696    -6681    -6750    -6862    -6937    -6974    -7013    -7069 
   -7122    -7155    -7161    -7128    -7063    -7032    -7084    -7198 
   -7279    -7254    -7152    -7072    -7036    -6982    -6898    -6824 
   -6778    -6766    -6805    -6879    -6944    -6975    -6991    -7055 
   -7176    -7273    -7281    -7217    -7156    -7132    -7118    -7115 
   -7126    -7105    -7044    -6986    -6928    -6839    -6744    -6700 
   -6732    -6821    -6902    -6932    -6957    -7032    -7125    -7190 
   -7211    -7168    -7051    -6913    -6833    -6841    -6903    -6990 
   -7090    -7192    -7263    -7271    -7234    -7183    -7129    -7071 
   -6998    -6914    -6860    -6858    -6894    -6964    -7044    -7091 
   -7091    -7047    -6956    -6835    -6708    -6613    -6597    -6685 
   -6844    -7006    -7126    -7211    -7276    -7322    -7348    -7344 
   -7285    -7167    -7017    -6893    -6844    -6880    -6944    -6987 
   -7006    -6999    -6947    -6864    -6786    -6737    -6735    -6790 
   -6897    -7024    -7134    -7218    -7284    -7344    -7377    -7371 
   -7350    -7319    -7260    -7191    -7161    -7160    -7141    -7118 
   -7118    -7102    -7030    -6918    -6791    -6671    -6569    -6486 
   -6436    -6438    -6490    -6590    -6729    -6858    -6902    -6874 
   -6848    -6863    -6905    -6972    -7078    -7207    -7337    -7469 
   -7585    -7645    -7627    -7549    -7462    -7403    -7333    -7203 
   -7041    -6909    -6825    -6804    -6859    -6930    -6936    -6876 
   -6789    -6686    -6590    -6524    -6509    -6569    -6693    -6822 
   -6920    -7015    -7156    -7329    -7483    -7569    -7523    -7338 
   -7115    -6970    -6944    -7002    -7075    -7123    -7155    -7155 
   -7096    -6991    -6883    -6804    -6755    -6725    -6731    -6789 
   -6867    -6941    -7021    -7111    -7182    -7209    -7206    -7187 
   -7148    -7082    -6998    -6941    -6949    -6986    -6975    -6917 
   -6867    -6847    -6831    -6825    -6848    -6886    -6913    -6925 
   -6939    -6994    -7102    -7209    -7276    -7322    -7348    -7315 
   -7219    -7111    -7026    -6975    -6961    -6987    -7025    -7040 
   -7026    -7020    -7025    -7013    -6949    -6853    -6787    -6791 
   -6851    -6940    -7036    -7117    -7179    -7218    -7222    -7186 
   -7121    -7048    -6994    -6956    -6889    -6781    -6682    -6621 
   -6609    -6667    -6777    -6875    -6952    -7021    -7049    -7024 
   -6998    -7026    -7101    -7191    -7277    -7339    -7348    -7304 
   -7264    -7272    -7321    -7366    -7357    -7294    -7203    -7090 
   -6982    -6926    -6907    -6871    -6791    -6708    -6679    -6723 
   -6777    -6798    -6797    -6793    -6779    -6741    -6693    -6670 
   -6662    -6670    -6736    -6875    -7047    -7192    -7290    -7381 
   -7497    -7591    -7630    -7620    -7546    -7412    -7261    -7123 
   -7020    -6960    -6960    -7022    -7087    -7086    -7010    -6889 
   -6775    -6717    -6690    -6643    -6571    -6488    -6423    -6442 
   -6583    -6802    -7002    -7142    -7253    -7341    -7373    -7342 
   -7273    -7186    -7102    -7042    -7022    -7041    -7087    -7153 
   -7225    -7271    -7267    -7207    -7118    -7033    -6959    -6889 
   -6816    -6759    -6754    -6821    -6936    -7044    -7109    -7157 
   -7230    -7285    -7264    -7177    -7036    -6862    -6733    -6693 
   -6717    -6755    -6768    -6762    -6768    -6826    -6941    -7053 
   -7103    -7091    -7056    -7044    -7091    -7173    -7233    -7268 
   -7280    -7269    -7273    -7315    -7356    -7352    -7319    -7296 
   -7252    -7133    -6947    -6760    -6629    -6544    -6481    -6455 
   -6504    -6608    -6700    -6725    -6702    -6675    -6685    -6767 
   -6920    -7074    -7167    -7206    -7230    -7261    -7307    -7372 
   -7456    -7541    -7578    -7539    -7431    -7287    -7140    -7029 
   -6980    -6987    -6993    -6955    -6899    -6839    -6754    -6655 
   -6585    -6573    -6620    -6708    -6821    -6944    -7051    -7123 
   -7187    -7267    -7329    -7315    -7240    -7164    -7096    -7022 
   -6974    -6987    -7038    -7074    -7052    -6964    -6855    -6766 
   -6697    -6667    -6709    -6795    -6876    -6951    -7044    -7141 
   -7182    -7141    -7075    -7049    -7079    -7123    -7146    -7167 
   -7202    -7236    -7281    -7354    -7389    -7314    -7148    -6948 
   -6750    -6589    -6515    -6546    -6644    -6764    -6855    -6883 
   -6878    -6879    -6891    -6920    -6951    -6955    -6948    -6980 
   -7067    -7188    -7314    -7408    -7447    -7420    -7356    -7264 
   -7128    -6978    -6887    -6880    -6917    -6948    -6964    -6975 
   -6984    -7007    -7044    -7067    -7049    -6986    -6886    -6798 
   -6766    -6790    -6858    -6964    -7083    -7173    -7223    -7233 
   -7203    -7149    -7103    -7078    -7048    -6998    -6941    -6899 
   -6878    -6876    -6903    -6951    -6987    -6997    -6987    -6972 
   -6932    -6868    -6837    -6866    -6920    -6979    -7045    -7117 
   -7183    -7222    -7221    -7204    -7175    -7117    -7045    -6994 
   -6948    -6886    -6840    -6856    -6926    -7009    -7071    -7106 
   -7122    -7117    -7087    -7045    -7010    -6987    -6975    -6978 
   -6991    -6998    -7001    -7018    -7056    -7094    -7098    -7056 
   -6990    -6916    -6852    -6829    -6840    -6851    -6859    -6883 
   -6929    -6979    -7021    -7056    -7084    -7096    -7091    -7090 
   -7119    -7172    -7200    -7196    -7194    -7203    -7200    -7160 
   -7092    -7029    -6976    -6917    -6839    -6760    -6713    -6714 
   -6764    -6866    -6984    -7045    -7018    -6960    -6936    -6968 
   -7034    -7090    -7129    -7168    -7203    -7219    -7211    -7195 
   -7173    -7153    -7134    -7080    -6960    -6798    -6663    -6625 
   -6718    -6893    -7048    -7123    -7128    -7071    -6963    -6858 
   -6810    -6817    -6872    -6975    -7096    -7195    -7275    -7354 
   -7433    -7479    -7443    -7312    -7132    -6966    -6840    -6747 
   -6701    -6708    -6729    -6752    -6777    -6785    -6758    -6710 
   -6685    -6709    -6767    -6847    -6957    -7092    -7227    -7341 
   -7411    -7449    -7476    -7493    -7476    -7411    -7303    -7179 
   -7076    -7024    -7018    -7017    -6960    -6858    -6764    -6691 
   -6637    -6616    -6624    -6650    -6674    -6698    -6751    -6839 
   -6945    -7059    -7169    -7252    -7295    -7300    -7284    -7296 
   -7356    -7416    -7433    -7400    -7331    -7221    -7072    -6934 
   -6862    -6831    -6775    -6693    -6629    -6593    -6585    -6625 
   -6708    -6797    -6867    -6909    -6929    -6955    -7011    -7110 
   -7234    -7361    -7450    -7461    -7410    -7345    -7283    -7231 
   -7190    -7126    -7028    -6929    -6849    -6785    -6740    -6725 
   -6733    -6752    -6767    -6752    -6720    -6700    -6705    -6735 
   -6798    -6901    -7024    -7152    -7281    -7391    -7446    -7442 
   -7404    -7358    -7318    -7288    -7241    -7159    -7069    -7011 
   -6994    -7002    -7001    -6955    -6866    -6766    -6689    -6658 
   -6671    -6710    -6768    -6862    -6980    -7095    -7194    -7272 
   -7322    -7344    -7314    -7225    -7106    -6994    -6910    -6871 
   -6878    -6912    -6947    -6976    -7006    -7007    -6951    -6848 
   -6729    -6642    -6620    -6670    -6778    -6921    -7076    -7226 
   -7356    -7435    -7460    -7438    -7372    -7271    -7167    -7067 
   -6979    -6918    -6893    -6910    -6964    -7025    -7060    -7053 
   -6991    -6875    -6736    -6619    -6566    -6597    -6683    -6781 
   -6856    -6902    -6934    -6995    -7098    -7199    -7257    -7267 
   -7230    -7164    -7114    -7105    -7118    -7132    -7125    -7091 
   -7048    -7020    -7021    -7060    -7125    -7172    -7194    -7217 
   -7249    -7277    -7279    -7241    -7182    -7136    -7119    -7138 
   -7194    -7257    -7285    -7271    -7223    -7129    -6974    -6785 
   -6602    -6442    -6328    -6284    -6316    -6442    -6647    -6902 
   -7169    -7376    -7441    -7334    -7083    -6747    -6386    -6046 
   -5795    -5679    -5691    -5818    -6081    -6458    -6872    -7238 
   -7508    -7665    -7728    -7739    -7761    -7874    -8113    -8441 
   -8793    -9088    -9229    -9150    -8831    -8332    -7746    -7142 
   -6562    -6064    -5713    -5536    -5503    -5557    -5651    -5740 
   -5783    -5751    -5657    -5560    -5514    -5563    -5751    -6104 
   -6604    -7179    -7747    -8236    -8611    -8861    -8970    -8957 
   -8877    -8773    -8640    -8456    -8236    -7985    -7677    -7315 
   -6920    -6497    -6072    -5665    -5281    -4958    -4750    -4689 
   -4797    -5069    -5467    -5938    -6454    -6968    -7396    -7672 
   -7798    -7827    -7817    -7824    -7865    -7893    -7871    -7839 
   -7834    -7848    -7855    -7807    -7676    -7457    -7171    -6883 
   -6669    -6585    -6643    -6809    -7042    -7317    -7580    -7744 
   -7761    -7616    -7308    -6880    -6462    -6157    -5994    -5994 
   -6162    -6443    -6751    -7013    -7169    -7180    -7026    -6731 
   -6373    -6069    -5915    -5962    -6203    -6600    -7072    -7491 
   -7763    -7885    -7878    -7746    -7538    -7322    -7148    -7042 
   -7020    -7083    -7218    -7372    -7472    -7477    -7395    -7240 
   -7034    -6840    -6732    -6727    -6771    -6812    -6809    -6751 
   -6659    -6558    -6473    -6453    -6529    -6681    -6878    -7091 
   -7281    -7450    -7634    -7815    -7929    -7936    -7820    -7596 
   -7311    -7018    -6771    -6602    -6527    -6547    -6619    -6658 
   -6590    -6420    -6246    -6181    -6259    -6450    -6712    -7020 
   -7349    -7669    -7963    -8208    -8361    -8391    -8293    -8070 
   -7734    -7304    -6843    -6446    -6185    -6043    -5971    -5930 
   -5896    -5860    -5837    -5846    -5906    -6021    -6169    -6365 
   -6643    -6980    -7346    -7758    -8210    -8603    -8833    -8861 
   -8706    -8418    -8083    -7765    -7461    -7165    -6886    -6619 
   -6355    -6118    -5895    -5686    -5555    -5545    -5637    -5809 
   -6066    -6423    -6860    -7344    -7827    -8222    -8471    -8584 
   -8571    -8434    -8235    -8019    -7781    -7533    -7325    -7194 
   -7119    -7045    -6916    -6709    -6435    -6116    -5775    -5437 
   -5178    -5058    -5096    -5324    -5755    -6300    -6852    -7360 
   -7788    -8083    -8245    -8297    -8235    -8077    -7890    -7713 
   -7555    -7427    -7322    -7225    -7142    -7075    -7003    -6924 
   -6848    -6766    -6669    -6586    -6548    -6567    -6633    -6706 
   -6741    -6728    -6697    -6667    -6667    -6752    -6937    -7129 
   -7236    -7245    -7179    -7057    -6944    -6899    -6929    -7022 
   -7163    -7312    -7480    -7697    -7923    -8059    -8086    -8008 
   -7789    -7423    -6975    -6552    -6251    -6111    -6127    -6268 
   -6478    -6686    -6836    -6930    -6995    -6999    -6890    -6709 
   -6559    -6505    -6565    -6735    -6991    -7254    -7419    -7422 
   -7277    -7036    -6741    -6467    -6313    -6328    -6466    -6663 
   -6895    -7155    -7420    -7631    -7731    -7726    -7651    -7539 
   -7431    -7377    -7393    -7466    -7573    -7700    -7798    -7800 
   -7689    -7468    -7150    -6790    -6432    -6106    -5848    -5713 
   -5744    -5938    -6239    -6551    -6809    -6982    -7045    -7006 
   -6898    -6772    -6696    -6729    -6910    -7210    -7533    -7785 
   -7942    -8001    -7950    -7788    -7549    -7265    -6997    -6816 
   -6752    -6789    -6898    -7076    -7304    -7512    -7601    -7515 
   -7245    -6847    -6428    -6083    -5854    -5748    -5746    -5849 
   -6072    -6393    -6732    -7013    -7225    -7364    -7398    -7326 
   -7213    -7140    -7163    -7303    -7545    -7834    -8082    -8213 
   -8209    -8121    -7990    -7805    -7561    -7285    -6983    -6651 
   -6323    -6046    -5868    -5805    -5826    -5895    -5981    -6060 
   -6126    -6224    -6399    -6628    -6852    -7051    -7221    -7366 
   -7507    -7665    -7848    -8041    -8212    -8328    -8352    -8248 
   -8029    -7750    -7457    -7176    -6917    -6679    -6455    -6269 
   -6169    -6176    -6276    -6423    -6559    -6644    -6656    -6593 
   -6485    -6393    -6381    -6465    -6620    -6804    -6967    -7084 
   -7156    -7195    -7215    -7223    -7209    -7161    -7102    -7057 
   -7053    -7110    -7227    -7380    -7522    -7611    -7619    -7542 
   -7422    -7327    -7304    -7348    -7400    -7410    -7354    -7237 
   -7071    -6887    -6727    -6601    -6498    -6411    -6334    -6270 
   -6237    -6284    -6446    -6697    -6968    -7188    -7317    -7369 
   -7381    -7389    -7426    -7492    -7560    -7614    -7650    -7659 
   -7628    -7572    -7489    -7365    -7175    -6912    -6610    -6326 
   -6087    -5926    -5873    -5933    -6079    -6266    -6463    -6643 
   -6779    -6879    -6966    -7051    -7136    -7236    -7365    -7516 
   -7653    -7744    -7773    -7738    -7658    -7546    -7404    -7240 
   -7074    -6916    -6771    -6658    -6586    -6555    -6566    -6620 
   -6696    -6777    -6851    -6918    -6998    -7107    -7215    -7281 
   -7314    -7335    -7346    -7331    -7288    -7221    -7146    -7096 
   -7061    -7007    -6924    -6798    -6644    -6527    -6496    -6550 
   -6655    -6793    -6960    -7141    -7315    -7450    -7518    -7528 
   -7501    -7426    -7283    -7098    -6924    -6782    -6694    -6673 
   -6682    -6687    -6702    -6740    -6786    -6813    -6816    -6791 
   -6758    -6744    -6781    -6855    -6952    -7078    -7240    -7398 
   -7476    -7437    -7314    -7180    -7067    -6964    -6868    -6795 
   -6748    -6714    -6706    -6739    -6806    -6895    -7010    -7167 
   -7346    -7501    -7612    -7705    -7813    -7902    -7923    -7865 
   -7747    -7588    -7384    -7145    -6894    -6658    -6444    -6268 
   -6143    -6064    -6006    -5979    -6003    -6076    -6173    -6280 
   -6409    -6578    -6798    -7057    -7319    -7551    -7744    -7904 
   -8023    -8085    -8079    -8005    -7867    -7684    -7464    -7214 
   -6953    -6721    -6561    -6478    -6438    -6400    -6361    -6338 
   -6340    -6353    -6367    -6399    -6467    -6581    -6729    -6907 
   -7107    -7302    -7466    -7584    -7630    -7595    -7497    -7384 
   -7294    -7245    -7217    -7183    -7167    -7196    -7253    -7284 
