Origin Time       2025/03/28 03:50:00
Lat.              35.403
Long.             140.360
Depth. (km)       54
Mag.              4.4
Station Code      TKY027
Station Lat.      35.6930
Station Long.     139.8913
Station Height(m) 1
Record Time       2025/03/28 03:51:01
Sampling Freq(Hz) 100Hz
Duration Time(s)  60
Dir.              E-W
Scale Factor      7845(gal)/8223790
Max. Acc. (gal)   3.734
Last Correction   2025/03/28 03:51:01
Memo.             
[...]
   -2154    -2176    -2180    -2178    -2180    -2169    -2168    -2176 
   -2182    -2187    -2184    -2176    -2174    -2176    -2181    -2184 
   -2178    -2188    -2199    -2187    -2182    -2191    -2195    -2207 
   -2201    -2169    -2165    -2185    -2182    -2174    -2181    -2176 
   -2168    -2176    -2177    -2162    -2155    -2164    -2166    -2166 
   -2182    -2188    -2168    -2170    -2192    -2193    -2188    -2188 
   -2181    -2172    -2169    -2176    -2182    -2170    -2162    -2174 
   -2191    -2204    -2195    -2174    -2176    -2180    -2176    -2184 
   -2197    -2195    -2182    -2177    -2174    -2178    -2180    -2181 
   -2193    -2185    -2169    -2180    -2188    -2176    -2165    -2170 
   -2185    -2195    -2196    -2199    -2201    -2196    -2177    -2168 
   -2178    -2195    -2189    -2168    -2162    -2165    -2164    -2168 
   -2162    -2151    -2146    -2147    -2162    -2177    -2176    -2185 
   -2200    -2204    -2207    -2203    -2189    -2185    -2191    -2193 
   -2200    -2193    -2170    -2174    -2189    -2182    -2173    -2176 
   -2174    -2177    -2185    -2174    -2155    -2153    -2155    -2157 
   -2154    -2149    -2150    -2154    -2164    -2178    -2176    -2166 
   -2168    -2180    -2199    -2205    -2193    -2184    -2188    -2199 
   -2207    -2204    -2196    -2180    -2166    -2161    -2169    -2182 
   -2180    -2174    -2176    -2168    -2154    -2158    -2184    -2189 
   -2173    -2172    -2177    -2178    -2181    -2174    -2165    -2177 
   -2191    -2181    -2172    -2166    -2162    -2176    -2173    -2158 
   -2162    -2170    -2180    -2180    -2161    -2161    -2174    -2177 
   -2184    -2182    -2174    -2178    -2180    -2188    -2209    -2211 
   -2187    -2181    -2180    -2170    -2182    -2199    -2203    -2201 
   -2189    -2180    -2174    -2172    -2185    -2196    -2187    -2185 
   -2181    -2170    -2178    -2184    -2182    -2185    -2174    -2165 
   -2172    -2161    -2155    -2172    -2181    -2181    -2181    -2184 
   -2185    -2181    -2184    -2195    -2203    -2197    -2188    -2187 
   -2187    -2189    -2189    -2180    -2184    -2193    -2182    -2170 
   -2172    -2172    -2169    -2173    -2185    -2185    -2178    -2177 
   -2176    -2173    -2177    -2185    -2195    -2200    -2195    -2172 
   -2164    -2178    -2177    -2169    -2166    -2172    -2187    -2193 
   -2187    -2174    -2176    -2187    -2184    -2181    -2185    -2191 
   -2185    -2172    -2178    -2189    -2177    -2170    -2177    -2180 
   -2180    -2176    -2165    -2161    -2162    -2173    -2188    -2188 
   -2184    -2182    -2177    -2164    -2166    -2185    -2185    -2177 
   -2168    -2158    -2173    -2188    -2178    -2172    -2178    -2180 
   -2181    -2182    -2166    -2165    -2174    -2173    -2197    -2218 
   -2196    -2187    -2181    -2154    -2149    -2158    -2161    -2173 
   -2182    -2169    -2157    -2153    -2153    -2172    -2187    -2180 
   -2182    -2184    -2181    -2177    -2162    -2164    -2189    -2189 
   -2172    -2174    -2168    -2162    -2189    -2204    -2193    -2188 
   -2168    -2154    -2162    -2174    -2185    -2168    -2138    -2142 
   -2161    -2169    -2173    -2188    -2199    -2187    -2170    -2166 
   -2172    -2185    -2189    -2196    -2203    -2196    -2192    -2195 
   -2195    -2195    -2182    -2173    -2185    -2192    -2181    -2176 
   -2189    -2205    -2195    -2168    -2164    -2181    -2181    -2168 
   -2180    -2189    -2173    -2157    -2141    -2135    -2155    -2162 
   -2164    -2185    -2177    -2153    -2165    -2187    -2187    -2188 
   -2200    -2207    -2199    -2189    -2196    -2189    -2176    -2188 
   -2189    -2178    -2187    -2187    -2180    -2181    -2172    -2154 
   -2154    -2181    -2204    -2197    -2187    -2178    -2172    -2172 
   -2170    -2168    -2161    -2160    -2177    -2192    -2200    -2196 
   -2174    -2169    -2184    -2184    -2180    -2192    -2196    -2184 
   -2176    -2177    -2184    -2182    -2170    -2169    -2178    -2188 
   -2192    -2174    -2158    -2170    -2180    -2161    -2154    -2174 
   -2180    -2177    -2178    -2166    -2176    -2207    -2209    -2196 
   -2187    -2178    -2180    -2176    -2172    -2188    -2188    -2173 
   -2174    -2172    -2170    -2172    -2172    -2197    -2216    -2195 
   -2174    -2170    -2170    -2168    -2161    -2176    -2193    -2178 
   -2162    -2145    -2127    -2160    -2203    -2196    -2187    -2187 
   -2177    -2178    -2193    -2211    -2214    -2181    -2170    -2199 
   -2199    -2189    -2192    -2166    -2146    -2158    -2180    -2199 
   -2200    -2201    -2211    -2182    -2153    -2168    -2181    -2177 
   -2181    -2195    -2188    -2165    -2165    -2181    -2196    -2205 
   -2169    -2147    -2203    -2224    -2199    -2200    -2185    -2172 
   -2169    -2141    -2154    -2200    -2195    -2192    -2203    -2164 
   -2127    -2130    -2145    -2185    -2230    -2230    -2196    -2172 
   -2173    -2169    -2143    -2162    -2200    -2177    -2150    -2169 
   -2165    -2120    -2122    -2168    -2168    -2151    -2209    -2230 
   -2157    -2155    -2220    -2203    -2164    -2168    -2153    -2147 
   -2199    -2235    -2204    -2164    -2146    -2114    -2122    -2196 
   -2199    -2151    -2196    -2245    -2196    -2135    -2141    -2189 
   -2207    -2165    -2147    -2184    -2199    -2173    -2135    -2116 
   -2150    -2193    -2188    -2201    -2230    -2211    -2211    -2236 
   -2182    -2115    -2172    -2257    -2230    -2177    -2191    -2184 
   -2160    -2161    -2126    -2103    -2178    -2241    -2207    -2162 
   -2168    -2218    -2261    -2235    -2172    -2145    -2162    -2184 
   -2170    -2147    -2150    -2165    -2173    -2187    -2218    -2200 
   -2149    -2201    -2278    -2191    -2079    -2106    -2146    -2161 
   -2238    -2307    -2278    -2224    -2204    -2180    -2160    -2195 
   -2258    -2272    -2243    -2218    -2160    -2084    -2069    -2066 
   -2056    -2130    -2208    -2177    -2128    -2130    -2130    -2151 
   -2204    -2215    -2226    -2254    -2189    -2103    -2154    -2205 
   -2133    -2081    -2093    -2087    -2128    -2245    -2277    -2200 
   -2143    -2131    -2142    -2160    -2160    -2182    -2236    -2230 
   -2160    -2153    -2216    -2223    -2193    -2204    -2178    -2107 
   -2064    -2031    -2031    -2118    -2232    -2266    -2203    -2158 
   -2177    -2208    -2269    -2331    -2311    -2241    -2138    -2011 
   -1975    -2073    -2182    -2216    -2209    -2189    -2164    -2187 
   -2253    -2254    -2192    -2162    -2157    -2157    -2189    -2250 
   -2317    -2355    -2303    -2182    -2080    -2049    -2108    -2185 
   -2188    -2168    -2162    -2119    -2104    -2170    -2208    -2180 
   -2168    -2174    -2195    -2250    -2253    -2188    -2174    -2192 
   -2168    -2137    -2118    -2120    -2151    -2176    -2203    -2234 
   -2218    -2193    -2216    -2246    -2268    -2311    -2365    -2386 
   -2370    -2336    -2273    -2227    -2268    -2246    -2056    -1923 
   -1965    -2054    -2146    -2196    -2108    -1966    -1934    -2018 
   -2106    -2157    -2196    -2199    -2166    -2149    -2150    -2149 
   -2122    -2095    -2133    -2215    -2259    -2241    -2180    -2119 
   -2106    -2154    -2209    -2234    -2234    -2241    -2293    -2358 
   -2353    -2281    -2160    -2016    -1965    -2034    -2111    -2168 
   -2236    -2286    -2285    -2258    -2230    -2234    -2303    -2363 
   -2290    -2097    -1952    -1925    -1946    -2002    -2103    -2189 
   -2254    -2313    -2290    -2201    -2177    -2234    -2301    -2288 
   -2178    -2133    -2178    -2157    -2085    -2072    -2108    -2177 
   -2258    -2274    -2201    -2147    -2143    -2124    -2112    -2120 
   -2142    -2203    -2277    -2305    -2245    -2130    -2069    -2091 
   -2150    -2200    -2200    -2177    -2196    -2245    -2238    -2187 
   -2130    -2058    -1995    -1972    -1993    -2074    -2246    -2488 
   -2656    -2643    -2481    -2230    -1984    -1911    -2049    -2208 
   -2254    -2228    -2164    -2100    -2108    -2120    -2058    -2004 
   -2015    -2041    -2084    -2166    -2253    -2307    -2316    -2305 
   -2303    -2278    -2203    -2095    -2019    -2064    -2193    -2258 
   -2259    -2316    -2377    -2292    -2061    -1815    -1691    -1806 
   -2111    -2378    -2492    -2471    -2361    -2247    -2193    -2208 
   -2292    -2354    -2284    -2169    -2147    -2169    -2173    -2207 
   -2212    -2120    -2045    -2065    -2107    -2131    -2126    -2025 
   -1861    -1775    -1772    -1829    -2014    -2276    -2440    -2467 
   -2459    -2475    -2488    -2467    -2420    -2365    -2326    -2289 
   -2201    -2077    -2000    -2002    -2049    -2108    -2114    -2099 
   -2180    -2273    -2253    -2164    -2088    -2079    -2138    -2201 
   -2262    -2346    -2369    -2308    -2262    -2246    -2238    -2236 
   -2155    -1930    -1680    -1598    -1768    -2079    -2317    -2443 
   -2517    -2529    -2482    -2427    -2336    -2192    -2099    -2089 
   -2045    -1987    -2039    -2150    -2239    -2303    -2289    -2189 
   -2061    -1961    -1960    -2029    -2074    -2107    -2158    -2227 
   -2335    -2454    -2446    -2238    -2029    -2029    -2142    -2288 
   -2484    -2581    -2428    -2138    -1917    -1858    -1972    -2168 
   -2255    -2172    -2054    -2022    -2070    -2189    -2370    -2555 
   -2664    -2650    -2513    -2312    -2103    -1956    -1923    -1930 
   -1875    -1786    -1763    -1873    -2107    -2299    -2355    -2415 
   -2506    -2520    -2488    -2462    -2346    -2089    -1810    -1636 
   -1594    -1699    -1942    -2169    -2284    -2346    -2382    -2405 
   -2463    -2478    -2331    -2119    -1975    -1854    -1776    -1880 
   -2141    -2380    -2465    -2400    -2243    -2068    -1998    -2079 
   -2170    -2154    -2088    -2035    -1966    -1872    -1791    -1806 
   -1969    -2203    -2425    -2643    -2853    -2982    -2914    -2621 
   -2224    -1895    -1696    -1636    -1749    -1953    -2095    -2192 
   -2297    -2343    -2308    -2265    -2265    -2278    -2281    -2290 
   -2303    -2304    -2300    -2249    -2104    -1907    -1745    -1736 
   -1979    -2340    -2578    -2664    -2664    -2555    -2340    -2131 
   -2046    -2065    -2047    -1935    -1823    -1787    -1838    -1969 
   -2108    -2230    -2365    -2450    -2417    -2307    -2155    -2025 
   -1996    -2050    -2093    -2114    -2157    -2263    -2442    -2606 
   -2673    -2633    -2473    -2234    -2039    -1904    -1811    -1791 
   -1786    -1768    -1825    -1976    -2141    -2270    -2324    -2270 
   -2197    -2209    -2274    -2332    -2346    -2288    -2223    -2203 
   -2173    -2142    -2160    -2157    -2118    -2137    -2170    -2142 
   -2123    -2160    -2177    -2104    -1979    -1915    -1984    -2158 
   -2330    -2448    -2567    -2574    -2376    -2165    -2077    -2041 
   -2035    -2083    -2138    -2166    -2188    -2231    -2292    -2350 
   -2361    -2261    -2076    -1892    -1763    -1771    -1914    -2087 
   -2278    -2447    -2466    -2380    -2338    -2343    -2355    -2377 
   -2344    -2273    -2268    -2295    -2308    -2317    -2254    -2139 
   -2099    -2122    -2143    -2208    -2278    -2262    -2187    -2058 
   -1923    -1944    -2077    -2110    -2016    -1912    -1831    -1806 
   -1915    -2135    -2350    -2498    -2546    -2435    -2232    -2112 
   -2112    -2142    -2155    -2116    -2066    -2178    -2438    -2600 
   -2567    -2435    -2269    -2123    -2083    -2166    -2268    -2236 
   -2018    -1696    -1478    -1509    -1749    -2076    -2376    -2575 
   -2700    -2776    -2770    -2663    -2504    -2297    -2041    -1787 
   -1586    -1528    -1668    -1911    -2164    -2362    -2400    -2292 
   -2184    -2128    -2038    -1863    -1691    -1615    -1671    -1857 
   -2107    -2350    -2567    -2737    -2837    -2862    -2809    -2654 
   -2392    -2093    -1860    -1723    -1676    -1702    -1826    -2037 
   -2223    -2295    -2269    -2197    -2154    -2204    -2343    -2525 
   -2694    -2772    -2697    -2501    -2336    -2277    -2266    -2293 
   -2326    -2270    -2134    -1981    -1834    -1784    -1933    -2208 
   -2481    -2702    -2820    -2739    -2461    -2145    -1975    -2026 
   -2232    -2415    -2447    -2416    -2446    -2477    -2409    -2255 
   -2060    -1872    -1748    -1713    -1802    -1992    -2182    -2290 
   -2316    -2320    -2358    -2434    -2409    -2123    -1669    -1269 
   -1027    -1000    -1183    -1534    -1971    -2284    -2332    -2200 
   -1987    -1723    -1460    -1263    -1156    -1140    -1313    -1779 
   -2439    -3056    -3422    -3488    -3357    -3145    -2941    -2817 
   -2733    -2528    -2143    -1733    -1491    -1536    -1915    -2517 
   -3037    -3183    -2957    -2536    -2041    -1625    -1394    -1283 
   -1259    -1362    -1559    -1829    -2184    -2600    -3084    -3630 
   -4101    -4320    -4230    -3842    -3060    -1841     -433      747 
    1306      993     -125    -1707    -3307    -4440    -4774    -4360 
   -3457    -2295    -1119     -224      172       35     -549    -1452 
   -2457    -3260    -3661    -3635    -3252    -2685    -2219    -2076 
   -2241    -2497    -2616    -2459    -2023    -1483    -1104     -988 
   -1062    -1263    -1599    -2155    -3028    -4166    -5296    -5983 
   -5834    -4720    -2866     -807      854     1736     1733      958 
    -332    -1877    -3512    -4938    -5705    -5624    -4766    -3316 
   -1687     -346      468      718      556      278       43     -217 
    -608    -1204    -2072    -3156    -4217    -5016    -5409    -5274 
   -4608    -3561    -2236     -743      598     1420     1480      648 
    -891    -2627    -4171    -5301    -5773    -5530    -4788    -3813 
   -2789    -1896    -1282     -934     -758     -696     -708     -845 
   -1236    -1919    -2799    -3682    -4314    -4511    -4228    -3495 
   -2474    -1451     -633     -113       10     -298     -876    -1418 
   -1723    -1780    -1750    -1903    -2398    -3136    -3780    -3981 
   -3654    -2956    -2096    -1271     -612     -210     -184     -648 
   -1551    -2612    -3437    -3742    -3476    -2737    -1752     -869 
    -395     -463    -1055    -1992    -3060    -4120    -4897    -5098 
   -4718    -3939    -2948    -1898     -943     -265       37      -43 
    -468    -1084    -1683    -2142    -2427    -2620    -2868    -3258 
   -3743    -4191    -4391    -4144    -3442    -2515    -1675    -1121 
    -831     -704     -784    -1159    -1765    -2413    -2903    -3137 
   -3114    -2916    -2663    -2373    -1979    -1548    -1225    -1067 
   -1165    -1656    -2431    -3141    -3470    -3318    -2791    -2123 
   -1584    -1333    -1382    -1703    -2170    -2569    -2712    -2520 
   -2052    -1483    -1044     -884     -936    -1092    -1327    -1593 
   -1813    -2019    -2278    -2524    -2687    -2802    -2914    -3055 
   -3208    -3291    -3275    -3210    -3126    -3010    -2817    -2533 
   -2189    -1764    -1281     -908     -768     -878    -1271    -1895 
   -2525    -2929    -2963    -2594    -1931    -1260     -907    -1020 
   -1520    -2211    -2897    -3410    -3616    -3468    -3045    -2488 
   -1921    -1458    -1206    -1310    -1810    -2493    -3048    -3284 
   -3145    -2708    -2196    -1836    -1679    -1642    -1664    -1746 
   -1914    -2168    -2439    -2614    -2617    -2444    -2170    -1902 
   -1742    -1776    -2002    -2320    -2578    -2602    -2293    -1761 
   -1227     -899     -976    -1503    -2336    -3240    -3879    -4031 
   -3696    -3001    -2123    -1237     -523     -180     -342     -951 
   -1757    -2519    -3110    -3470    -3561    -3450    -3306    -3229 
   -3142    -2930    -2559    -2073    -1607    -1294    -1159    -1182 
   -1345    -1601    -1864    -2087    -2270    -2388    -2394    -2357 
   -2377    -2475    -2608    -2635    -2432    -2014    -1544    -1221 
   -1135    -1298    -1660    -2077    -2417    -2571    -2485    -2245 
   -1973    -1782    -1723    -1717    -1703    -1701    -1722    -1817 
   -2066    -2494    -3052    -3585    -3927    -4029    -3863    -3420 
   -2843    -2297    -1837    -1480    -1310    -1359    -1525    -1714 
   -1873    -1957    -2012    -2111    -2282    -2527    -2764    -2890 
   -2852    -2654    -2338    -1958    -1593    -1328    -1138     -959 
    -823     -795     -930    -1302    -1917    -2589    -3094    -3306 
   -3221    -2936    -2575    -2208    -1894    -1706    -1706    -1923 
   -2319    -2809    -3246    -3416    -3214    -2759    -2254    -1863 
   -1652    -1560    -1449    -1188     -787     -429     -260     -367 
    -824    -1563    -2390    -3179    -3881    -4407    -4642    -4513 
   -4078    -3537    -3094    -2806    -2625    -2516    -2427    -2258 
   -1965    -1582    -1155     -761     -535     -595     -897    -1281 
   -1625    -1876    -2002    -2008    -1966    -1975    -2074    -2249 
   -2477    -2729    -2906    -2932    -2839    -2667    -2430    -2224 
   -2169    -2239    -2324    -2331    -2189    -1923    -1652    -1487 
   -1530    -1819    -2230    -2586    -2830    -3003    -3121    -3115 
   -2899    -2474    -1964    -1591    -1467    -1476    -1533    -1644 
   -1780    -1929    -2104    -2262    -2367    -2446    -2505    -2548 
   -2582    -2560    -2452    -2295    -2122    -1984    -1984    -2169 
   -2513    -2947    -3335    -3550    -3569    -3456    -3237    -2880 
   -2390    -1798    -1154     -631     -382     -380     -523     -742 
   -1030    -1401    -1827    -2195    -2396    -2434    -2365    -2261 
   -2208    -2230    -2303    -2420    -2582    -2774    -2976    -3125 
   -3167    -3080    -2806    -2385    -2000    -1752    -1614    -1532 
   -1422    -1266    -1135    -1034     -901     -776     -761     -935 
   -1339    -1890    -2475    -3086    -3661    -4114    -4405    -4445 
   -4207    -3790    -3271    -2791    -2524    -2455    -2469    -2457 
   -2320    -2095    -1904    -1780    -1651    -1453    -1159     -815 
    -571     -535     -742    -1175    -1671    -2050    -2305    -2475 
   -2582    -2698    -2847    -2984    -3103    -3169    -3079    -2798 
   -2390    -1923    -1445    -1071     -926    -1008    -1243    -1561 
   -1860    -2081    -2246    -2328    -2326    -2303    -2292    -2307 
   -2398    -2560    -2767    -2998    -3180    -3273    -3288    -3204 
   -3015    -2736    -2397    -2065    -1807    -1679    -1721    -1856 
   -1933    -1899    -1802    -1663    -1490    -1333    -1233    -1178 
   -1217    -1425    -1741    -2076    -2411    -2686    -2805    -2733 
   -2540    -2370    -2349    -2450    -2554    -2589    -2544    -2463 
   -2404    -2378    -2371    -2344    -2218    -1956    -1632    -1339 
   -1146    -1096    -1205    -1437    -1722    -2008    -2297    -2590 
   -2832    -2951    -2937    -2837    -2729    -2677    -2689    -2759 
   -2882    -3044    -3177    -3169    -3028    -2868    -2732    -2609 
   -2471    -2222    -1837    -1390     -963     -637     -440     -348 
    -351     -494     -804    -1289    -1960    -2710    -3348    -3777 
   -3974    -3921    -3651    -3195    -2565    -1872    -1323    -1040 
