Origin Time       2025/03/28 03:50:00
Lat.              35.403
Long.             140.360
Depth. (km)       54
Mag.              4.4
Station Code      TKY025
Station Lat.      35.7136
Station Long.     139.8972
Station Height(m) 1
Record Time       2025/03/28 03:51:01
Sampling Freq(Hz) 100Hz
Duration Time(s)  60
Dir.              N-S
Scale Factor      7845(gal)/8223790
Max. Acc. (gal)   2.194
Last Correction   2025/03/28 03:51:00
Memo.             
[...]
   15927    15932    15938    15943    15948    15942    15935    15942 
   15940    15930    15935    15944    15938    15936    15946    15939 
   15927    15931    15934    15923    15932    15954    15948    15939 
   15944    15939    15924    15924    15940    15947    15943    15950 
   15955    15950    15940    15930    15934    15943    15936    15938 
   15943    15936    15940    15946    15939    15936    15940    15935 
   15931    15940    15939    15934    15947    15952    15947    15942 
   15936    15940    15948    15950    15940    15928    15927    15930 
   15928    15932    15940    15936    15931    15938    15944    15932 
   15913    15917    15931    15925    15931    15954    15957    15954 
   15962    15955    15942    15934    15921    15925    15942    15938 
   15934    15944    15936    15920    15923    15932    15925    15921 
   15931    15936    15930    15932    15942    15935    15931    15944 
   15948    15940    15935    15934    15931    15931    15942    15954 
   15954    15955    15958    15938    15924    15940    15943    15925 
   15936    15955    15951    15938    15932    15928    15925    15932 
   15939    15931    15924    15931    15936    15944    15952    15943 
   15939    15959    15966    15950    15946    15948    15947    15946 
   15948    15946    15939    15943    15952    15943    15935    15946 
   15939    15921    15935    15943    15927    15930    15948    15954 
   15948    15942    15946    15943    15921    15928    15963    15961 
   15938    15939    15936    15919    15930    15948    15943    15940 
   15948    15943    15930    15932    15946    15957    15957    15947 
   15936    15943    15957    15950    15940    15947    15959    15957 
   15938    15939    15950    15943    15940    15936    15932    15943 
   15943    15943    15955    15936    15915    15923    15930    15930 
   15930    15928    15931    15936    15935    15938    15948    15950 
   15936    15935    15932    15932    15946    15943    15936    15946 
   15943    15932    15938    15940    15936    15938    15936    15925 
   15931    15947    15952    15951    15939    15923    15924    15930 
   15927    15930    15934    15938    15939    15936    15938    15932 
   15927    15934    15938    15938    15946    15957    15946    15931 
   15942    15947    15939    15936    15935    15940    15944    15936 
   15935    15938    15938    15930    15921    15925    15927    15921 
   15927    15931    15928    15934    15934    15936    15944    15944 
   15947    15939    15923    15917    15924    15942    15947    15943 
   15952    15957    15939    15930    15934    15946    15948    15935 
   15923    15925    15938    15946    15943    15938    15932    15925 
   15928    15932    15931    15935    15947    15950    15946    15939 
   15936    15928    15923    15932    15939    15942    15946    15947 
   15958    15957    15932    15928    15939    15939    15947    15962 
   15954    15932    15930    15932    15925    15928    15936    15934 
   15932    15935    15935    15934    15939    15947    15940    15935 
   15946    15943    15940    15944    15942    15943    15954    15963 
   15959    15947    15938    15936    15940    15938    15938    15950 
   15952    15946    15946    15948    15943    15947    15955    15934 
   15920    15935    15944    15947    15950    15938    15931    15944 
   15950    15944    15939    15940    15942    15938    15947    15959 
   15946    15938    15946    15943    15936    15952    15966    15944 
   15923    15923    15924    15938    15944    15934    15934    15932 
   15931    15952    15974    15962    15936    15925    15919    15930 
   15979    16005    15942    15844    15826    15927    16033    16021 
   15930    15855    15869    15959    16000    15954    15925    15954 
   15961    15901    15869    15923    15959    15946    15931    15901 
   15900    15942    15969    15982    15948    15882    15932    16012 
   15946    15886    15975    16050    16005    15930    15866    15835 
   15873    15969    16071    16038    15880    15803    15808    15849 
   15965    16046    16055    16012    15920    15874    15853    15859 
   15971    16036    15993    15989    15975    15865    15827    15936 
   15982    15924    15935    15974    15955    15947    15971    15990 
   15950    15862    15865    15947    15952    15942    16024    16035 
   15885    15763    15789    15932    16066    16031    15943    15961 
   15921    15785    15778    15966    16152    16090    15896    15861 
   15854    15803    15967    16186    16128    15940    15824    15830 
   15935    15963    15870    15836    15913    15966    15994    16073 
   16048    15859    15804    15942    15958    15861    15908    16048 
   16120    16098    15978    15836    15730    15688    15836    16062 
   16123    16085    15989    15800    15751    15871    15921    15969 
   16046    15996    15973    16019    15882    15732    15885    16124 
   16133    16015    15863    15650    15665    15985    16208    16227 
   16146    15913    15691    15699    15866    16016    16051    16046 
   16047    15966    15893    15931    15971    15944    15858    15842 
   15942    15946    15905    16009    16069    16019    16063    16078 
   15917    15822    15911    15973    15921    15836    15772    15754 
   15823    15912    15905    15894    15988    16040    15967    15881 
   15873    15923    15928    15907    15955    16000    15978    15959 
   15940    15838    15745    15896    16128    16023    15820    15927 
   16004    15847    15824    15966    16055    16102    16113    16055 
   15958    15855    15857    15947    15882    15747    15827    15904 
   15830    15907    16069    16069    16017    15969    15925    15962 
   15942    15803    15789    15924    16028    16150    16214    16031 
   15800    15790    15917    15993    15958    15877    15850    15920 
   16025    16081    16056    15947    15878    15981    16085    16038 
   15978    15962    15873    15800    15896    15924    15678    15515 
   15742    16063    16160    16135    16063    15857    15722    15861 
   15963    15876    15853    15858    15741    15789    16148    16367 
   16240    16105    15998    15750    15646    15865    16011    15961 
   16093    16313    16204    16023    16143    16216    15988    15807 
   15812    15774    15708    15766    15855    15903    15992    16033 
   15892    15755    15784    15761    15687    15850    16071    16006 
   15858    15832    15777    15715    15807    15942    16013    16160 
   16356    16347    16139    15971    15905    15874    15915    16019 
   16038    15969    15940    16008    16174    16272    16052    15630 
   15367    15369    15566    15859    16042    16011    15979    16092 
   16173    16156    16123    15934    15618    15525    15685    15890 
   16079    16160    16055    15865    15768    15884    16065    16032 
   15903    15947    16020    15965    15969    16020    16004    16060 
   16194    16251    16125    15819    15674    15859    15962    15874 
   15857    15766    15576    15735    16109    16185    16139    16159 
   16033    15905    15961    15989    15869    15718    15624    15641 
   15826    16047    16079    16013    16119    16248    16071    15808 
   15815    15866    15815    15950    16225    16276    16098    15947 
   15838    15708    15761    16032    16093    15759    15515    15685 
   15908    15900    15827    15840    15931    16039    16141    16262 
   16290    16135    15948    15828    15747    15769    15893    15977 
   16017    16129    16243    16166    15916    15765    15851    15913 
   15757    15612    15618    15592    15570    15754    16044    16194 
   16144    16067    16089    16121    16082    16000    15915    15930 
   16139    16353    16306    16127    15996    15820    15684    15638 
   15479    15388    15547    15641    15718    16035    16291    16268 
   16166    16105    16086    16065    16042    16070    16075    16023 
   15962    15839    15720    15788    15967    16086    16131    16098 
   15971    15951    16131    16129    15828    15626    15591    15558 
   15643    15862    15996    16017    16050    16098    16063    15920 
   15772    15642    15496    15573    15911    16078    16123    16349 
   16441    16232    16087    16078    16050    15962    15782    15630 
   15687    15888    16101    16262    16216    15970    15824    15786 
   15608    15434    15519    15731    15869    16013    16217    16191 
   15920    15823    15894    15882    15881    15927    15946    16021 
   16114    16119    16112    16065    15893    15782    15843    15963 
   16074    16105    16035    15975    15943    15915    15955    16024 
   16029    16011    16044    16116    16173    16136    15957    15696 
   15510    15495    15574    15634    15654    15708    15884    16044 
   15992    15969    16191    16317    16235    16270    16294    16073 
   15917    15927    15830    15689    15684    15742    15819    15954 
   16137    16263    16189    15989    15850    15782    15808    16011 
   16212    16139    15884    15755    15805    15870    15863    15742 
   15603    15601    15622    15620    15776    15934    15892    15940 
   16186    16272    16218    16237    16156    15962    15973    16160 
   16190    16013    15889    15916    15946    15915    15888    15854 
   15817    15880    15994    15952    15820    15786    15769    15801 
   16050    16271    16185    15973    15839    15766    15846    16089 
   16193    16098    16012    15867    15655    15603    15658    15665 
   15731    15870    15916    15927    16044    16147    16135    16106 
   16073    15965    15892    15935    16000    16067    16175    16251 
   16213    16100    15998    15928    15859    15822    15847    15870 
   15831    15750    15639    15526    15533    15676    15819    15950 
   16096    16147    16132    16183    16258    16266    16225    16177 
   16089    15959    15867    15813    15785    15842    15901    15849 
   15805    15940    16119    16089    15936    15898    15938    15931 
   15909    15831    15607    15371    15333    15458    15599    15763 
   15942    16036    16071    16093    16078    16011    15944    15994 
   16121    16201    16266    16329    16310    16239    16189    16182 
   16214    16206    16090    15952    15863    15784    15731    15724 
   15647    15508    15518    15688    15800    15793    15792    15857 
   15930    16001    16116    16247    16313    16325    16347    16348 
   16243    16109    16066    15996    15855    15792    15745    15664 
   15723    15865    15925    15938    15880    15731    15576    15456 
   15504    15784    16040    16077    15961    15855    15880    15984 
   16054    16090    16059    15932    15822    15758    15726    15843 
   16051    16100    16069    16152    16202    16104    15955    15816 
   15738    15701    15701    15851    16017    16012    15994    16002 
   15840    15669    15763    15966    16089    16260    16418    16278 
   15988    15850    15762    15616    15547    15631    15816    15981 
   16055    16112    16151    16100    16017    16060    16195    16239 
   16214    16235    16209    16067    15888    15726    15549    15403 
   15433    15630    15840    16025    16183    16212    16087    15886 
   15673    15596    15768    15962    15988    16036    16194    16200 
   15994    15904    16062    16152    16031    15971    16063    16164 
   16260    16247    15975    15639    15415    15237    15176    15318 
   15515    15655    15682    15539    15396    15434    15603    15828 
   16073    16274    16422    16556    16661    16713    16714    16642 
   16502    16407    16374    16297    16190    15992    15633    15334 
   15182    15024    14912    15022    15291    15473    15596    15863 
   16204    16503    16768    16947    17007    16926    16750    16673 
   16683    16600    16470    16316    16093    15966    15952    15828 
   15674    15622    15471    15233    15098    15053    15111    15209 
   15156    15057    15084    15171    15282    15483    15795    16171 
   16425    16406    16268    16174    16116    16206    16429    16592 
   16761    16942    16892    16582    16106    15615    15306    15053 
   14725    14581    14783    15242    15911    16578    16907    16899 
   16676    16247    15768    15484    15446    15591    15893    16258 
   16472    16434    16214    15886    15560    15402    15468    15712 
   16110    16702    17350    17705    17599    17058    16167    15317 
   14908    14909    15141    15591    16137    16434    16321    15982 
   15538    14987    14530    14446    14783    15456    16316    17082 
   17393    17031    16227    15498    15114    15128    15542    16151 
   16611    16729    16578    16309    15982    15723    15645    15654 
   15736    15963    16225    16421    16499    16297    15757    15095 
   14590    14431    14728    15423    16318    17151    17662    17857 
   17879    17608    16941    16109    15438    15107    15049    15098 
   15165    15095    14810    14635    14833    15265    15749    16168 
   16382    16367    16243    16155    16200    16252    16116    15836 
   15568    15434    15553    15853    16146    16352    16420    16332 
   16190    16155    16255    16285    16128    15952    15836    15711 
   15608    15500    15242    14918    14706    14546    14449    14671 
   15246    15859    16345    16839    17374    17817    18107    18239 
   18158    17863    17498    17161    16769    16329    15939    15489 
   14910    14395    14021    13745    13659    13775    13934    14127 
   14505    15064    15677    16267    16714    16992    17238    17439 
   17516    17500    17281    16726    16056    15535    15175    15072 
   15360    15851    16336    16806    17059    16808    16244    15840 
   15722    15754    15857    15901    15805    15773    15951    16112 
   16050    15866    15660    15461    15514    15923    16313    16376 
   16178    15820    15460    15361    15523    15615    15495    15283 
   14952    14536    14446    14845    15350    15705    16027    16376 
   16660    16951    17379    17739    17799    17649    17401    17157 
   17104    17136    16899    16325    15565    14802    14328    14291 
   14553    14964    15364    15562    15565    15491    15348    15125 
   14931    14874    15041    15523    16241    16919    17351    17525 
   17452    17103    16634    16282    16058    15944    15993    16177 
   16437    16645    16611    16289    15769    15222    14899    14966 
   15304    15743    16167    16403    16391    16259    16011    15630 
   15309    15132    15025    15034    15179    15387    15655    15815 
   15635    15309    15124    15140    15460    16097    16775    17284 
   17568    17527    17130    16536    15917    15336    14816    14440 
   14316    14473    14868    15477    16205    16810    17119    17162 
   16981    16677    16538    16668    16900    17131    17286    17173 
   16680    15909    15120    14573    14389    14578    15007    15445 
   15842    16194    16336    16201    15854    15385    14985    14825 
   14982    15449    15998    16312    16355    16247    15988    15684 
   15547    15522    15568    15820    16229    16652    17007    17122 
   16842    16287    15788    15552    15531    15709    16070    16402 
   16532    16524    16390    16081    15754    15519    15280    15115 
   15201    15453    15758    16133    16464    16518    16349    16212 
   16170    16167    16190    16245    16362    16498    16559    16451 
   16093    15579    15103    14698    14415    14455    14789    15149 
   15485    15772    15849    15850    15989    16137    16220    16425 
   16814    17250    17620    17830    17821    17570    17055    16391 
   15849    15534    15311    15063    14769    14477    14284    14229 
   14296    14526    14924    15437    16008    16502    16779    16866 
   16789    16499    16087    15735    15558    15616    15896    16263 
   16551    16694    16679    16455    16110    15878    15809    15763 
   15715    15695    15657    15627    15650    15630    15508    15398 
   15373    15465    15807    16352    16753    16823    16738    16627 
   16468    16337    16359    16455    16457    16403    16389    16314 
   16139    15944    15755    15596    15499    15396    15276    15263 
   15385    15553    15758    15963    16044    16031    15985    15870 
   15754    15739    15785    15844    15889    15857    15776    15722 
   15670    15628    15642    15670    15689    15750    15855    15958 
   16005    15990    16011    16110    16289    16609    16953    17078 
   16964    16632    16052    15373    14791    14374    14145    14180 
   14559    15152    15750    16367    16946    17294    17442    17456 
   17286    17059    16978    17003    16958    16816    16613    16294 
   15897    15534    15213    14901    14577    14254    14023    13949 
   14072    14411    14889    15341    15658    15889    16069    16168 
   16316    16605    16911    17143    17286    17309    17265    17244 
   17211    17066    16830    16600    16391    16151    15897    15670 
   15488    15394    15363    15283    15174    15163    15211    15198 
   15165    15171    15191    15265    15383    15444    15427    15442 
   15635    15996    16343    16630    16838    16777    16483    16283 
   16266    16282    16295    16282    16206    16187    16278    16379 
   16453    16467    16316    15979    15576    15248    15070    14986 
   14913    14878    14948    15118    15322    15535    15847    16237 
   16551    16784    16947    16949    16831    16681    16478    16254 
   16097    15985    15832    15631    15439    15311    15330    15465 
   15479    15309    15180    15163    15187    15330    15601    15889 
   16208    16618    17015    17305    17440    17327    17019    16719 
   16470    16193    15965    15901    15938    15947    15900    15813 
   15650    15402    15221    15199    15229    15309    15515    15750 
   15876    15908    15913    15867    15730    15595    15597    15736 
   15896    16028    16146    16195    16218    16295    16320    16248 
   16202    16228    16237    16227    16286    16347    16222    15927 
   15619    15356    15167    15165    15368    15614    15786    15928 
   16006    15938    15808    15761    15801    15862    15909    15934 
   15904    15847    15881    16008    16105    16177    16302    16465 
   16605    16707    16731    16580    16275    15974    15761    15622 
   15558    15604    15707    15772    15797    15801    15793    15815 
   15905    16052    16208    16333    16421    16452    16410    16287 
   16043    15714    15453    15319    15242    15238    15360    15502 
   15585    15687    15751    15692    15616    15574    15531    15581 
   15765    15963    16108    16233    16297    16245    16231    16316 
   16367    16387    16416    16364    16235    16121    16060    16020 
   15938    15763    15549    15421    15392    15427    15538    15684 
   15803    15921    16077    16244    16411    16571    16664    16638 
   16486    16268    16089    15963    15808    15595    15380    15238 
   15261    15429    15607    15742    15916    16162    16368    16447 
