Origin Time       2025/03/28 03:50:00
Lat.              35.403
Long.             140.360
Depth. (km)       54
Mag.              4.4
Station Code      TKY008
Station Lat.      34.7851
Station Long.     139.3909
Station Height(m) 65
Record Time       2025/03/28 03:51:11
Sampling Freq(Hz) 100Hz
Duration Time(s)  60
Dir.              N-S
Scale Factor      7845(gal)/8223790
Max. Acc. (gal)   2.060
Last Correction   2025/03/28 03:51:10
Memo.             
[...]
   -8900    -9324    -9975   -10389   -10354    -9976    -9670    -9801 
  -10099   -10118    -9934    -9720    -9420    -9231    -9528   -10150 
  -10536   -10417    -9953    -9516    -9325    -9266    -9346    -9636 
   -9826    -9602    -9208    -9107    -9290    -9509    -9783   -10091 
  -10191    -9994    -9744    -9869   -10377   -10694   -10480    -9973 
   -9532    -9301    -9294    -9432    -9491    -9416    -9459    -9567 
   -9504    -9499    -9715    -9780    -9570    -9494    -9747   -10058 
  -10177   -10115   -10025   -10034   -10116   -10034    -9671    -9325 
   -9263    -9381    -9506    -9560    -9518    -9464    -9510    -9652 
   -9852   -10087   -10181   -10000    -9783    -9818   -10002   -10096 
  -10065    -9973    -9772    -9437    -9258    -9417    -9571    -9416 
   -9189    -9188    -9340    -9535    -9848   -10180   -10237   -10025 
   -9882    -9956   -10008    -9887    -9825    -9877    -9849    -9763 
   -9618    -9396    -9369    -9656    -9922    -9833    -9483    -9351 
   -9675   -10083   -10143    -9863    -9551    -9477    -9645    -9950 
  -10216   -10203    -9910    -9521    -9162    -9061    -9445   -10030 
  -10227    -9987    -9722    -9603    -9567    -9559    -9528    -9559 
   -9741    -9910    -9898    -9813    -9815    -9806    -9621    -9404 
   -9421    -9679    -9963   -10139   -10247   -10297   -10245   -10046 
   -9637    -9131    -8873    -9016    -9369    -9640    -9663    -9535 
   -9528    -9720    -9967   -10215   -10397   -10346   -10064    -9741 
   -9574    -9543    -9474    -9342    -9335    -9575    -9892   -10023 
   -9994    -9917    -9715    -9466    -9490    -9809   -10021    -9934 
   -9792    -9711    -9617    -9618    -9780    -9884    -9755    -9525 
   -9522    -9815   -10066    -9998    -9729    -9539    -9541    -9653 
   -9720    -9628    -9474    -9513    -9742    -9902    -9946    -9963 
   -9855    -9603    -9454    -9574    -9805    -9877    -9738    -9570 
   -9553    -9676    -9809    -9914   -10039   -10076    -9876    -9591 
   -9443    -9432    -9504    -9626    -9757    -9896    -9975    -9902 
   -9753    -9679    -9752    -9923    -9975    -9697    -9313    -9288 
   -9628    -9991   -10172   -10050    -9657    -9325    -9310    -9545 
   -9753    -9748    -9674    -9734    -9887    -9995   -10027    -9983 
   -9898    -9865    -9810    -9594    -9386    -9358    -9440    -9585 
   -9778    -9934    -9988    -9942    -9803    -9610    -9502    -9579 
   -9755    -9856    -9787    -9663    -9667    -9802    -9918    -9853 
   -9645    -9576    -9707    -9856   -10014   -10133   -10002    -9632 
   -9275    -9151    -9302    -9548    -9693    -9809   -10023   -10177 
  -10111    -9961    -9884    -9823    -9751    -9744    -9774    -9687 
   -9456    -9262    -9234    -9261    -9267    -9379    -9595    -9814 
  -10079   -10335   -10384   -10262   -10115    -9969    -9846    -9747 
   -9576    -9306    -9121    -9231    -9513    -9718    -9775    -9709 
   -9647    -9747   -10007   -10250   -10268   -10042    -9718    -9455 
   -9401    -9482    -9482    -9471    -9634    -9859    -9969    -9999 
   -9940    -9711    -9520    -9593    -9787    -9933   -10002    -9958 
   -9848    -9763    -9740    -9756    -9701    -9536    -9416    -9429 
   -9459    -9456    -9572    -9850   -10058   -10019    -9884    -9822 
   -9821    -9850    -9841    -9714    -9518    -9402    -9486    -9745 
   -9969    -9976    -9791    -9603    -9574    -9661    -9736    -9734 
   -9674    -9652    -9745    -9907   -10012    -9919    -9626    -9333 
   -9234    -9400    -9745   -10038   -10185   -10255   -10203   -10014 
   -9814    -9630    -9514    -9531    -9539    -9506    -9537    -9552 
   -9578    -9780   -10014    -9980    -9707    -9491    -9504    -9678 
   -9931   -10106    -9964    -9621    -9450    -9541    -9706    -9779 
   -9798    -9853    -9836    -9736    -9733    -9760    -9663    -9533 
   -9466    -9497    -9687    -9909    -9926    -9732    -9568    -9594 
   -9713    -9853   -10021   -10089    -9995    -9848    -9709    -9626 
   -9661    -9717    -9691    -9614    -9575    -9657    -9788    -9855 
   -9856    -9774    -9639    -9601    -9651    -9676    -9756    -9953 
  -10044    -9850    -9571    -9432    -9413    -9455    -9510    -9566 
   -9674    -9849   -10021   -10089   -10022    -9934    -9940    -9937 
   -9836    -9728    -9668    -9640    -9641    -9580    -9454    -9485 
   -9697    -9802    -9645    -9417    -9348    -9405    -9481    -9655 
   -9946   -10176   -10210   -10134   -10069    -9981    -9883    -9859 
   -9807    -9653    -9522    -9497    -9559    -9626    -9563    -9412 
   -9418    -9661    -9904    -9967    -9892    -9757    -9626    -9610 
   -9741    -9904    -9927    -9805    -9703    -9711    -9767    -9759 
   -9661    -9591    -9575    -9567    -9640    -9828   -10026   -10118 
  -10006    -9856    -9911   -10003    -9906    -9736    -9583    -9401 
   -9223    -9116    -9120    -9256    -9513    -9810   -10021   -10130 
  -10199   -10147    -9923    -9684    -9609    -9693    -9788    -9810 
   -9775    -9691    -9602    -9616    -9714    -9771    -9779    -9806 
   -9863    -9952   -10014    -9936    -9757    -9620    -9518    -9444 
   -9497    -9656    -9717    -9621    -9535    -9560    -9661    -9747 
   -9728    -9636    -9610    -9694    -9823    -9975   -10118   -10154 
  -10087   -10000    -9865    -9671    -9525    -9483    -9513    -9582 
   -9624    -9563    -9466    -9526    -9761    -9961    -9996    -9900 
   -9733    -9595    -9585    -9676    -9736    -9663    -9564    -9643 
   -9879   -10054   -10044    -9898    -9734    -9680    -9799    -9902 
   -9780    -9551    -9406    -9421    -9640    -9930   -10038    -9899 
   -9653    -9493    -9543    -9693    -9721    -9597    -9510    -9644 
   -9941   -10153   -10125    -9967    -9826    -9702    -9598    -9549 
   -9536    -9532    -9536    -9583    -9671    -9733    -9814    -9930 
   -9923    -9756    -9607    -9583    -9622    -9644    -9648    -9720 
   -9898   -10014    -9923    -9767    -9713    -9671    -9564    -9532 
   -9606    -9640    -9617    -9667    -9798    -9868    -9877    -9960 
  -10033    -9965    -9869    -9825    -9702    -9497    -9374    -9462 
   -9733    -9922    -9788    -9533    -9522    -9752    -9948    -9965 
   -9849    -9678    -9514    -9508    -9749   -10030   -10072    -9941 
   -9864    -9826    -9742    -9694    -9674    -9532    -9358    -9387 
   -9610    -9834    -9915    -9840    -9733    -9740    -9887   -10006 
   -9906    -9672    -9424    -9227    -9343    -9784   -10093   -10065 
   -9963    -9919    -9795    -9571    -9447    -9490    -9547    -9568 
   -9660    -9794    -9817    -9790    -9919   -10123   -10139    -9956 
   -9703    -9466    -9383    -9549    -9774    -9833    -9765    -9678 
   -9686    -9895   -10122   -10103    -9887    -9637    -9435    -9321 
   -9304    -9390    -9506    -9553    -9586    -9664    -9738    -9752 
   -9757    -9922   -10197   -10346   -10308   -10133    -9861    -9594 
   -9408    -9360    -9437    -9552    -9671    -9801    -9973   -10091 
   -9950    -9655    -9516    -9548    -9582    -9614    -9648    -9605 
   -9525    -9567    -9729    -9825    -9792    -9697    -9551    -9466 
   -9587    -9810    -9948   -10023   -10115   -10135    -9987    -9740 
   -9566    -9568    -9698    -9792    -9782    -9741    -9695    -9606 
   -9548    -9659    -9867    -9917    -9749    -9583    -9558    -9625 
   -9738    -9853    -9898    -9832    -9688    -9598    -9643    -9680 
   -9618    -9571    -9598    -9647    -9748    -9931   -10108   -10193 
  -10162    -9985    -9724    -9553    -9532    -9498    -9363    -9325 
   -9537    -9837    -9988    -9941    -9844    -9798    -9724    -9597 
   -9514    -9572    -9798   -10015    -9998    -9811    -9639    -9580 
   -9661    -9788    -9837    -9768    -9644    -9576    -9595    -9695 
   -9837    -9869    -9787    -9709    -9622    -9587    -9666    -9733 
   -9732    -9755    -9828    -9876    -9828    -9694    -9602    -9633 
   -9699    -9720    -9726    -9728    -9732    -9811    -9917    -9898 
   -9775    -9670    -9652    -9728    -9779    -9717    -9668    -9749 
   -9884    -9977   -10007    -9903    -9636    -9396    -9366    -9499 
   -9647    -9659    -9502    -9331    -9374    -9670   -10021   -10219 
  -10208   -10023    -9788    -9672    -9653    -9599    -9612    -9772 
   -9842    -9667    -9470    -9513    -9747    -9923    -9949    -9919 
   -9864    -9819    -9918   -10031    -9890    -9585    -9382    -9298 
   -9285    -9397    -9598    -9730    -9711    -9674    -9810   -10029 
  -10073    -9971    -9909    -9857    -9757    -9751    -9845    -9811 
   -9632    -9548    -9593    -9620    -9613    -9659    -9799    -9934 
   -9910    -9786    -9765    -9863    -9890    -9784    -9707    -9747 
   -9767    -9666    -9520    -9435    -9452    -9559    -9695    -9775 
   -9749    -9699    -9736    -9794    -9756    -9680    -9705    -9796 
   -9815    -9786    -9763    -9697    -9644    -9702    -9821    -9940 
   -9999    -9964    -9940    -9969    -9903    -9695    -9475    -9298 
   -9173    -9193    -9340    -9483    -9688    -9979   -10142   -10152 
  -10102    -9933    -9747    -9752    -9918   -10004    -9823    -9544 
   -9458    -9536    -9661    -9796    -9861    -9772    -9579    -9495 
   -9664    -9842    -9780    -9693    -9805    -9940    -9975    -9995 
   -9941    -9695    -9443    -9405    -9437    -9381    -9339    -9421 
   -9640    -9911   -10049   -10010    -9948    -9926    -9868    -9725 
   -9482    -9244    -9228    -9463    -9764    -9942    -9872    -9652 
   -9572    -9745    -9945    -9929    -9728    -9501    -9406    -9578 
   -9938   -10193   -10126    -9875    -9809   -10010   -10223   -10249 
  -10064    -9769    -9580    -9686    -9950   -10033    -9884    -9768 
   -9838    -9972   -10002    -9915    -9724    -9474    -9342    -9362 
   -9406    -9487    -9621    -9763    -9899    -9940    -9825    -9678 
   -9620    -9625    -9591    -9491    -9346    -9194    -9158    -9224 
   -9252    -9247    -9273    -9381    -9634    -9967   -10219   -10365 
  -10415   -10295   -10004    -9774    -9753    -9787    -9744    -9725 
   -9751    -9734    -9695    -9705    -9861   -10145   -10373   -10455 
  -10299    -9809    -9200    -8793    -8649    -8773    -9267    -9952 
  -10330   -10231    -9995    -9904    -9977   -10145   -10299   -10295 
  -10045    -9717    -9558    -9440    -9217    -9173    -9436    -9580 
   -9293    -8924    -8883    -9069    -9317    -9721   -10210   -10443 
  -10334   -10239   -10399   -10656   -10878   -11013   -10808   -10091 
   -9182    -8579    -8468    -8729    -9182    -9618    -9792    -9702 
   -9512    -9188    -8806    -8818    -9425   -10239   -10735   -10651 
  -10138    -9618    -9354    -9323    -9466    -9749   -10027   -10044 
   -9755    -9487    -9536    -9859   -10261   -10608   -10663   -10228 
   -9591    -9229    -9180    -9234    -9364    -9586    -9772    -9830 
   -9829    -9826    -9799    -9755    -9721    -9672    -9613    -9686 
   -9919   -10012    -9786    -9562    -9703    -9971    -9837    -9396 
   -9074    -8738    -8294    -8294    -8892    -9556   -10080   -10571 
  -10827   -10701   -10586   -10822   -11107   -11043   -10810   -10623 
  -10195    -9435    -8768    -8525    -8629    -8910    -9348    -9868 
  -10203   -10215   -10048    -9940    -9968    -9917    -9605    -9174 
   -8752    -8468    -8656    -9320    -9931   -10122   -10041    -9953 
   -9798    -9396    -8995    -9018    -9412    -9803   -10050   -10293 
  -10588   -10782   -10887   -10983   -10786   -10125    -9441    -9196 
   -9221    -9134    -8981    -9055    -9393    -9834   -10257   -10539 
  -10467    -9910    -9171    -8792    -8861    -8995    -8986    -8995 
   -9235    -9757   -10324   -10646   -10731   -10733   -10557    -9984 
   -9140    -8518    -8522    -9207   -10284   -11121   -11141   -10415 
   -9544    -9027    -8823    -8667    -8548    -8619    -9039    -9815 
  -10512   -10644   -10264    -9715    -9373    -9498    -9957   -10343 
  -10382   -10210   -10138   -10089    -9864    -9756   -10192   -10912 
  -11145   -10601    -9697    -8918    -8568    -8748    -9123    -9224 
   -8999    -8780    -8869    -9329    -9979   -10454   -10443   -10080 
   -9852    -9961   -10200   -10382   -10353    -9894    -9154    -8626 
   -8581    -8966    -9618   -10332   -10820   -10785   -10343   -10000 
   -9929    -9815    -9404    -8791    -8279    -8071    -8183    -8592 
   -9301   -10142   -10696   -10727   -10454   -10233   -10235   -10365 
  -10457   -10519   -10628   -10751   -10731   -10372    -9710    -9085 
   -8830    -9027    -9552   -10104   -10237    -9825    -9375    -9262 
   -9196    -8947    -8725    -8610    -8473    -8376    -8560    -9131 
   -9922   -10671   -11229   -11429   -11122   -10546   -10139    -9987 
   -9917    -9859    -9864    -9900    -9826    -9636    -9370    -8977 
   -8642    -8706    -9231    -9899   -10238   -10149   -10041   -10192 
  -10363   -10297   -10170   -10193   -10130    -9751    -9246    -8850 
   -8603    -8569    -8870    -9424    -9871   -10002    -9987    -9998 
   -9967    -9752    -9432    -9385    -9791   -10262   -10419   -10297 
   -9987    -9575    -9306    -9234    -9185    -9327    -9956   -10785 
  -11249   -11250   -10971   -10449    -9742    -9097    -8696    -8449 
   -8302    -8411    -8715    -8916    -9020    -9315    -9923   -10685 
  -11371   -11830   -11893   -11406   -10490    -9495    -8675    -8189 
   -8187    -8515    -8800    -8988    -9274    -9626    -9887   -10048 
  -10073    -9875    -9544    -9321    -9414    -9837   -10374   -10845 
  -11136   -11049   -10548    -9853    -9189    -8715    -8568    -8722 
   -9031    -9397    -9794   -10162   -10378   -10316    -9990    -9556 
   -9146    -8812    -8726    -9013    -9482    -9872   -10133   -10323 
  -10459   -10517   -10478   -10281    -9915    -9605    -9574    -9694 
   -9823   -10061   -10316   -10291    -9972    -9643    -9490    -9424 
   -9274    -9086    -9080    -9336    -9683    -9909   -10006   -10033 
   -9958    -9921   -10098   -10219    -9930    -9352    -8791    -8403 
   -8351    -8827    -9676   -10368   -10625   -10609   -10477   -10297 
  -10107    -9882    -9693    -9710   -10007   -10436   -10632   -10353 
   -9811    -9410    -9290    -9356    -9556    -9736    -9543    -9032 
   -8769    -8964    -9320    -9575    -9703    -9809    -9927   -10006 
  -10054   -10068    -9937    -9670    -9478    -9456    -9468    -9444 
   -9513    -9702    -9776    -9628    -9451    -9381    -9437    -9749 
  -10258   -10552   -10368    -9914    -9579    -9494    -9521    -9589 
   -9805   -10185   -10530   -10601   -10287    -9667    -9051    -8780 
   -8927    -9310    -9691    -9886    -9853    -9767    -9833   -10046 
  -10249   -10392   -10554   -10617   -10311    -9682    -9085    -8754 
   -8660    -8694    -8827    -9067    -9364    -9664    -9949   -10219 
  -10484   -10651   -10589   -10386   -10280   -10288   -10181    -9865 
   -9472    -9099    -8812    -8753    -8915    -9132    -9381    -9722 
  -10008   -10076   -10023    -9954    -9792    -9494    -9202    -9111 
   -9301    -9636    -9911   -10093   -10220   -10255   -10243   -10289 
  -10369   -10388   -10253    -9913    -9520    -9293    -9261    -9363 
   -9513    -9489    -9246    -9113    -9316    -9701   -10092   -10422 
  -10555   -10399   -10004    -9522    -9169    -9028    -9031    -9204 
   -9526    -9763    -9817    -9867    -9953    -9922    -9801    -9761 
   -9832    -9984   -10226   -10389   -10228    -9802    -9437    -9331 
   -9400    -9529    -9710    -9860    -9890    -9842    -9722    -9451 
   -9154    -9142    -9468    -9832   -10010   -10039    -9968    -9838 
   -9744    -9698    -9645    -9591    -9572    -9613    -9729    -9873 
   -9971   -10019   -10026    -9967    -9855    -9714    -9566    -9445 
   -9375    -9356    -9400    -9516    -9664    -9826   -10041   -10249 
  -10304   -10228   -10115    -9950    -9733    -9553    -9451    -9400 
   -9369    -9354    -9381    -9486    -9698    -9967   -10195   -10312 
  -10274   -10077    -9756    -9362    -9015    -8864    -9003    -9377 
   -9732    -9856    -9837    -9867    -9950    -9937    -9832    -9852 
  -10062   -10254   -10261   -10099    -9792    -9374    -9035    -8974 
   -9144    -9382    -9603    -9759    -9867   -10025   -10246   -10430 
  -10439   -10204    -9863    -9614    -9458    -9327    -9269    -9281 
   -9271    -9281    -9441    -9741   -10025   -10184   -10218   -10184 
  -10180   -10261   -10373   -10381   -10158    -9742    -9319    -9047 
   -8982    -9042    -9136    -9316    -9563    -9722    -9801    -9948 
  -10162   -10300   -10301   -10173    -9934    -9714    -9593    -9440 
   -9196    -9019    -9059    -9254    -9412    -9471    -9540    -9722 
  -10007   -10242   -10292   -10179   -10010    -9910    -9917    -9922 
   -9838    -9733    -9742    -9855    -9840    -9648    -9526    -9524 
   -9487    -9443    -9544    -9772    -9919    -9875    -9756    -9702 
   -9737    -9796    -9765    -9612    -9408    -9279    -9354    -9613 
   -9971   -10355   -10513   -10241    -9765    -9435    -9325    -9351 
   -9458    -9613    -9694    -9660    -9687    -9846    -9964    -9945 
   -9911    -9956   -10025   -10035    -9976    -9877    -9764    -9606 
   -9373    -9162    -9147    -9285    -9417    -9598    -9891   -10126 
  -10160   -10057    -9968    -9926    -9877    -9871    -9963   -10073 
  -10116   -10099    -9985    -9680    -9246    -8938    -8918    -9117 
   -9354    -9508    -9640    -9841   -10111   -10426   -10652   -10543 
  -10089    -9605    -9282    -9070    -8988    -9104    -9325    -9472 
   -9509    -9575    -9736    -9880    -9926    -9904    -9863    -9828 
   -9821    -9848    -9933   -10088   -10214   -10172   -10003    -9842 
   -9732    -9672    -9660    -9632    -9514    -9374    -9389    -9617 
   -9954   -10235   -10311   -10143    -9818    -9491    -9308    -9366 
   -9586    -9709    -9644    -9580    -9617    -9617    -9543    -9543 
   -9643    -9715    -9730    -9767    -9787    -9763    -9821    -9977 
   -9998    -9742    -9455    -9440    -9626    -9778    -9865    -9921 
   -9883    -9738    -9579    -9499    -9502    -9533    -9610    -9778 
   -9954    -9996    -9898    -9782    -9738    -9803    -9954   -10095 
  -10169   -10210   -10204   -10058    -9774    -9483    -9304    -9239 
   -9229    -9235    -9234    -9192    -9126    -9146    -9325    -9582 
   -9775    -9825    -9780    -9794    -9999   -10373   -10647   -10558 
  -10215    -9895    -9682    -9501    -9279    -9088    -9084    -9321 
   -9724   -10118   -10285   -10192   -10007    -9891    -9826    -9726 
   -9660    -9729    -9869    -9976   -10004    -9894    -9653    -9459 
   -9459    -9605    -9751    -9842    -9899    -9942   -10011   -10066 
  -10018    -9872    -9671    -9444    -9293    -9304    -9394    -9444 
   -9466    -9494    -9489    -9510    -9648    -9794    -9841    -9877 
   -9946    -9945    -9802    -9597    -9483    -9513    -9598    -9624 
   -9594    -9614    -9680    -9722    -9769    -9872    -9984   -10004 
   -9882    -9707    -9612    -9621    -9703    -9811    -9911   -10019 
  -10127   -10137    -9981    -9755    -9601    -9548    -9539    -9555 
