Origin Time       2025/03/28 03:50:00
Lat.              35.403
Long.             140.360
Depth. (km)       54
Mag.              4.4
Station Code      TKY005
Station Lat.      35.5798
Station Long.     139.4137
Station Height(m) 106
Record Time       2025/03/28 03:51:07
Sampling Freq(Hz) 100Hz
Duration Time(s)  60
Dir.              E-W
Scale Factor      7845(gal)/8223790
Max. Acc. (gal)   1.745
Last Correction   2025/03/28 03:51:07
Memo.             
[...]
    3331     3329     3329     3341     3342     3327     3323     3331 
    3323     3304     3308     3333     3339     3337     3335     3319 
    3306     3319     3329     3327     3323     3311     3308     3325 
    3334     3326     3321     3323     3322     3315     3315     3326 
    3337     3341     3329     3315     3326     3341     3329     3321 
    3330     3325     3322     3337     3331     3312     3310     3318 
    3318     3319     3330     3326     3311     3314     3327     3342 
    3350     3339     3316     3300     3300     3310     3315     3323 
    3329     3325     3329     3337     3335     3326     3326     3339 
    3350     3341     3321     3310     3307     3296     3296     3323 
    3333     3319     3325     3327     3318     3329     3346     3346 
    3341     3326     3314     3319     3318     3304     3311     3327 
    3333     3331     3329     3329     3339     3342     3330     3318 
    3312     3318     3325     3316     3314     3323     3323     3323 
    3338     3341     3326     3334     3342     3323     3312     3323 
    3330     3322     3318     3323     3318     3306     3311     3321 
    3323     3315     3302     3312     3327     3311     3299     3295 
    3276     3287     3338     3388     3412     3404     3380     3348 
    3288     3235     3254     3321     3381     3437     3470     3439 
    3342     3237     3183     3219     3306     3360     3373     3385 
    3391     3345     3253     3176     3146     3168     3260     3395 
    3483     3470     3373     3250     3173     3219     3391     3535 
    3528     3406     3267     3210     3277     3385     3450     3429 
    3323     3223     3198     3230     3331     3430     3403     3291 
    3214     3202     3264     3342     3370     3387     3402     3358 
    3261     3172     3136     3208     3406     3574     3559     3437 
    3338     3262     3200     3160     3159     3249     3387     3457 
    3441     3364     3281     3269     3323     3357     3333     3321 
    3361     3376     3327     3303     3385     3464     3348     3136 
    3141     3318     3403     3360     3244     3146     3188     3319 
    3445     3511     3456     3323     3154     2978     2944     3123 
    3408     3613     3597     3420     3277     3267     3356     3469 
    3526     3539     3581     3576     3460     3352     3298     3248 
    3225     3233     3276     3335     3326     3295     3306     3242 
    3134     3153     3246     3237     3164     3192     3329     3462 
    3501     3391     3211     3145     3218     3326     3427     3515 
    3612     3666     3524     3271     3157     3210     3345     3512 
    3545     3366     3156     3082     3083     3065     3121     3281 
    3369     3303     3214     3275     3472     3576     3480     3292 
    3140     3186     3439     3584     3456     3315     3375     3519 
    3581     3519     3412     3353     3260     3083     2998     3063 
    3164     3244     3256     3206     3169     3165     3246     3422 
    3545     3559     3550     3510     3392     3261     3218     3322 
    3458     3462     3403     3341     3235     3210     3335     3441 
    3399     3250     3064     2938     2974     3117     3294     3538 
    3721     3645     3387     3171     3160     3352     3504     3470 
    3385     3389     3410     3304     3068     2864     2926     3256 
    3554     3666     3690     3635     3499     3400     3341     3277 
    3271     3281     3252     3249     3265     3208     3119     3096 
    3176     3341     3524     3611     3534     3338     3171     3195 
    3329     3315     3194     3150     3167     3235     3352     3411 
    3420     3442     3446     3451     3453     3352     3202     3186 
    3291     3350     3346     3350     3356     3366     3408     3491 
    3558     3437     3156     3019     3072     3123     3134     3183 
    3316     3464     3488     3419     3356     3265     3181     3226 
    3397     3569     3616     3500     3323     3252     3330     3393 
    3314     3214     3253     3372     3412     3356     3331     3356 
    3330     3262     3199     3163     3208     3306     3330     3246 
    3181     3227     3284     3302     3384     3523     3564     3410 
    3181     3117     3233     3393     3527     3538     3435     3396 
    3445     3446     3358     3248     3203     3223     3252     3267 
    3260     3242     3264     3316     3325     3213     3057     3092 
    3353     3595     3662     3578     3400     3210     3144     3289 
    3535     3645     3541     3356     3253     3254     3230     3111 
    3018     3076     3227     3310     3272     3217     3244     3350 
    3487     3612     3685     3632     3458     3276     3183     3165 
    3214     3331     3465     3524     3504     3480     3434     3268 
    3072     3061     3241     3403     3404     3279     3110     2949 
    2916     3111     3414     3605     3618     3538     3446     3345 
    3253     3217     3252     3360     3484     3528     3462     3380 
    3380     3416     3385     3264     3119     3056     3030     2975 
    3014     3207     3402     3488     3485     3429     3341     3272 
    3272     3314     3338     3345     3392     3512     3613     3546 
    3337     3194     3226     3364     3503     3510     3326     3086 
    2951     2944     3014     3127     3265     3333     3219     3069 
    3192     3591     3897     3890     3689     3470     3319     3269 
    3315     3406     3474     3483     3431     3302     3149     3132 
    3273     3416     3457     3397     3237     3026     2866     2826 
    2943     3126     3222     3256     3327     3349     3276     3283 
    3464     3696     3844     3886     3808     3597     3370     3292 
    3403     3593     3708     3631     3338     2979     2806     2893 
    3080     3218     3306     3338     3234     3048     2980     3067 
    3184     3329     3510     3574     3453     3314     3277     3298 
    3372     3500     3564     3483     3319     3173     3094     3107 
    3229     3400     3505     3497     3407     3353     3447     3565 
    3514     3376     3289     3206     3078     2948     2925     3109 
    3391     3546     3485     3284     3119     3088     3091     3082 
    3161     3338     3484     3477     3346     3262     3361     3591 
    3754     3755     3642     3492     3348     3218     3126     3117 
    3148     3159     3169     3195     3229     3306     3446     3588 
    3654     3627     3577     3562     3505     3338     3160     3071 
    3052     3071     3153     3318     3481     3523     3439     3299 
    3123     2986     3003     3148     3306     3439     3531     3522 
    3429     3387     3484     3620     3643     3534     3350     3156 
    3026     2992     3036     3106     3106     3001     2924     3009 
    3226     3462     3674     3848     3867     3688     3458     3326 
    3319     3377     3384     3272     3113     3091     3267     3493 
    3613     3555     3370     3200     3114     3090     3157     3354 
    3564     3618     3501     3330     3199     3110     3063     3122 
    3254     3295     3206     3134     3142     3180     3221     3261 
    3272     3264     3315     3402     3414     3399     3462     3577 
    3693     3773     3727     3547     3350     3233     3202     3191 
    3172     3176     3198     3252     3362     3442     3424     3342 
    3260     3204     3148     3109     3153     3250     3323     3352 
    3346     3342     3358     3402     3426     3334     3177     3125 
    3223     3364     3433     3454     3488     3483     3416     3341 
    3262     3208     3202     3163     3082     3102     3257     3388 
    3410     3429     3518     3557     3480     3412     3410     3422 
    3447     3465     3403     3283     3217     3254     3307     3311 
    3307     3321     3308     3256     3245     3303     3325     3268 
    3169     3013     2872     2910     3121     3333     3473     3642 
    3844     3888     3709     3500     3391     3331     3252     3156 
    3065     3014     3060     3214     3370     3424     3397     3373 
    3384     3400     3395     3389     3385     3393     3449     3484 
    3400     3262     3179     3150     3154     3187     3237     3296 
    3325     3289     3256     3254     3225     3172     3157     3173 
    3199     3284     3407     3480     3508     3542     3555     3515 
    3419     3304     3254     3269     3279     3295     3321     3331 
    3393     3519     3639     3744     3770     3646     3406     3133 
    2961     2938     2972     3024     3099     3176     3231     3267 
    3327     3389     3422     3505     3581     3483     3283     3156 
    3175     3303     3402     3379     3311     3302     3354     3406 
    3408     3400     3414     3358     3200     3083     3083     3111 
    3141     3210     3271     3329     3483     3692     3766     3640 
    3466     3345     3204     3087     3107     3175     3192     3202 
    3230     3273     3329     3385     3384     3256     3107     3130 
    3261     3315     3292     3294     3323     3361     3439     3518 
    3539     3591     3697     3727     3624     3453     3314     3244 
    3168     3083     3061     3071     3080     3134     3204     3252 
    3294     3315     3285     3229     3204     3249     3335     3426 
    3511     3572     3584     3549     3495     3447     3427     3439 
    3430     3348     3231     3118     3029     3013     3061     3137 
    3223     3273     3269     3280     3348     3438     3532     3640 
    3717     3686     3530     3325     3215     3242     3257     3176 
    3119     3157     3200     3222     3276     3339     3365     3342 
    3299     3261     3229     3222     3288     3410     3487     3466 
    3404     3330     3237     3175     3173     3200     3248     3283 
    3275     3284     3381     3492     3512     3478     3465     3431 
    3356     3306     3335     3408     3485     3565     3573     3447 
    3302     3244     3248     3241     3204     3210     3275     3325 
    3360     3392     3354     3260     3161     3046     2925     2899 
    3052     3271     3366     3353     3391     3478     3497     3438 
    3361     3272     3204     3196     3191     3199     3326     3511 
    3593     3573     3553     3595     3673     3700     3611     3400 
    3153     3019     3065     3214     3329     3308     3188     3095 
    3111     3223     3330     3327     3242     3184     3187     3222 
    3275     3345     3407     3416     3358     3310     3361     3454 
    3476     3447     3423     3403     3407     3416     3358     3240 
    3144     3186     3348     3431     3370     3314     3326     3345 
    3348     3387     3466     3443     3280     3165     3186     3242 
    3279     3303     3331     3414     3538     3581     3497     3395 
    3346     3316     3237     3096     2976     2948     3011     3118 
    3191     3190     3165     3215     3281     3219     3103     3078 
    3136     3262     3416     3489     3492     3511     3584     3692 
    3744     3703     3632     3566     3454     3327     3323     3446 
    3520     3477     3399     3360     3420     3592     3758     3784 
    3651     3469     3308     3161     3056     3052     3129     3227 
    3304     3321     3291     3253     3207     3109     2913     2694 
    2598     2593     2565     2621     2870     3168     3391     3564 
    3699     3774     3773     3670     3520     3424     3426     3477 
    3531     3611     3707     3734     3655     3453     3121     2812 
    2718     2864     3113     3314     3402     3387     3331     3334 
    3445     3609     3672     3547     3370     3280     3223     3122 
    3036     3056     3146     3234     3280     3267     3287     3429 
    3578     3601     3515     3418     3408     3442     3434     3461 
    3619     3848     3996     3954     3774     3570     3375     3181 
    2975     2755     2606     2641     2851     3118     3420     3780 
    4041     4066     3978     3905     3782     3595     3369     3040 
    2616     2239     2004     1868     1817     1957     2301     2677 
    2970     3226     3462     3647     3848     4097     4275     4351 
    4421     4513     4567     4561     4487     4275     3959     3709 
    3550     3343     3033     2668     2327     2042     1854     1852 
    1971     2095     2272     2513     2754     3056     3450     3855 
    4247     4612     4804     4711     4440     4120     3732     3261 
    2810     2482     2268     2097     2016     2106     2344     2751 
    3322     3858     4187     4401     4606     4779     4896     4926 
    4741     4299     3790     3433     3283     3214     3090     2871 
    2550     2187     1954     1949     2087     2232     2295     2297 
    2401     2754     3342     4018     4568     4760     4507     4009 
    3524     3146     2920     2909     3028     3087     3049     3083 
    3365     3850     4247     4317     4143     3971     3894     3773 
    3476     3126     2914     2810     2697     2586     2559     2681 
    2922     3150     3303     3383     3357     3275     3296     3514 
    3874     4257     4530     4545     4205     3620     3126     2992 
    3105     3121     2876     2435     1991     1842     2189     2884 
    3487     3659     3434     3041     2685     2509     2594     2922 
    3407     3971     4565     5028     5154     4930     4484     3902 
    3302     2848     2637     2660     2835     3072     3296     3389 
    3314     3242     3356     3619     3885     3981     3804     3404 
    2895     2407     2093     2045     2187     2350     2434     2436 
    2467     2728     3285     3985     4585     4866     4706     4229 
    3774     3604     3682     3743     3591     3275     3017     2982 
    3168     3446     3649     3736     3805     3827     3689     3450 
    3254     3148     3082     2990     2891     2801     2717     2712 
    2835     2999     3107     3188     3364     3558     3481     3079 
    2668     2559     2820     3296     3701     3790     3595     3408 
    3454     3755     4253     4770     4963     4610     3893     3218 
    2839     2781     2879     2898     2721     2407     2147     2146 
    2463     3036     3642     3983     3952     3659     3269     2938 
    2737     2678     2781     2972     3103     3121     3106     3188 
    3461     3905     4345     4542     4425     4158     3905     3686 
    3510     3469     3538     3524     3349     3069     2728     2432 
    2382     2639     3046     3411     3603     3530     3261     3006 
    2895     2924     3033     3237     3541     3785     3850     3829 
    3828     3851     3834     3703     3438     3082     2790     2712 
    2795     2924     3079     3267     3431     3512     3518     3496 
    3456     3373     3248     3092     2922     2820     2887     3087 
    3350     3694     4045     4261     4313     4213     3950     3564 
    3145     2785     2512     2266     2029     1900     2014     2415 
    3009     3616     4101     4430     4573     4459     4156     3847 
    3593     3404     3338     3422     3586     3650     3461     3090 
    2735     2589     2724     3048     3399     3582     3491     3253 
    3022     2817     2704     2781     3014     3299     3588     3824 
    3889     3751     3487     3195     3002     2986     3091     3184 
    3204     3256     3441     3682     3844     3916     3958     3951 
    3812     3534     3195     2921     2852     3014     3271     3454 
    3451     3279     3102     3090     3230     3352     3275     2965 
    2597     2380     2377     2602     3034     3500     3778     3807 
    3731     3742     3865     4004     4021     3788     3331     2826 
    2447     2315     2511     3028     3638     4009     4048     3909 
    3784     3727     3669     3595     3464     3175     2782     2482 
    2385     2457     2647     2978     3404     3807     4117     4314 
    4413     4495     4544     4467     4220     3821     3377     3019 
    2809     2737     2762     2833     2932     3041     3099     3038 
    2899     2785     2741     2799     2979     3242     3527     3766 
    3892     3854     3627     3277     2936     2701     2633     2718 
    2856     2988     3152     3407     3727     3955     3981     3839 
    3599     3303     3007     2830     2847     2961     3079     3177 
    3229     3271     3376     3508     3608     3608     3468     3265 
    3107     3024     3009     3065     3172     3287     3430     3623 
    3812     3970     4155     4379     4509     4407     4093     3665 
    3218     2870     2682     2623     2594     2558     2551     2571 
    2625     2797     3118     3516     3820     3878     3735     3576 
    3510     3489     3449     3416     3356     3188     3010     2960 
    3061     3252     3415     3481     3442     3360     3357     3424 
    3457     3462     3438     3289     3002     2721     2617     2674 
    2756     2821     2893     3021     3268     3596     3871     4033 
    4079     4005     3859     3713     3613     3568     3526     3474 
    3458     3477     3515     3609     3721     3759     3703     3541 
    3245     2882     2570     2369     2290     2332     2482     2735 
    3042     3362     3643     3825     3937     4005     3975     3847 
    3705     3604     3512     3372     3181     2940     2674     2523 
    2577     2731     2864     2955     3015     3100     3260     3477 
    3667     3773     3820     3873     3940     3998     3986     3842 
    3612     3408     3295     3253     3204     3125     3076     3100 
    3186     3298     3399     3426     3329     3156     3033     3071 
    3242     3372     3337     3180     3010     2913     2944     3079 
    3262     3447     3577     3601     3537     3478     3476     3456 
    3375     3294     3303     3442     3645     3793     3827     3750 
    3622     3496     3365     3234     3118     2975     2817     2749 
    2874     3173     3465     3545     3397     3142     2952     2934 
    3001     3040     3056     3053     3055     3094     3159     3287 
    3478     3646     3751     3794     3797     3777     3694     3561 
    3478     3537     3720     3898     3964     3927     3844     3738 
    3573     3338     3073     2803     2544     2342     2270     2342 
    2478     2637     2845     3040     3148     3213     3304     3464 
    3697     3959     4160     4209     4093     3912     3792     3780 
    3807     3743     3550     3296     3060     2894     2818     2799 
    2772     2695     2610     2589     2655     2795     2967     3084 
    3126     3169     3298     3518     3755     3905     3915     3836 
    3771     3762     3780     3792     3762     3651     3508     3442 
    3437     3385     3279     3188     3096     2961     2863     2893 
    3030     3202     3308     3277     3127     2965     2905     2995 
    3200     3438     3632     3727     3723     3655     3559     3488 
    3508     3618     3678     3562     3330     3138     3068     3109 
    3226     3356     3408     3339     3186     3040     3001     3095 
    3275     3466     3604     3682     3730     3726     3662     3595 
