Origin Time       2025/03/28 03:50:00
Lat.              35.403
Long.             140.360
Depth. (km)       54
Mag.              4.4
Station Code      TKY015
Station Lat.      35.7313
Station Long.     139.8119
Station Height(m) 4
Record Time       2025/03/28 03:51:02
Sampling Freq(Hz) 100Hz
Duration Time(s)  60
Dir.              E-W
Scale Factor      7845(gal)/8223790
Max. Acc. (gal)   2.121
Last Correction   2025/03/28 03:51:01
Memo.             
[...]
   -3925    -3920    -3825    -3844    -3920    -3842    -3811    -3939 
   -3919    -3793    -3823    -3889    -3865    -3851    -3882    -3873 
   -3820    -3821    -3900    -3923    -3836    -3819    -3892    -3856 
   -3827    -3915    -3888    -3836    -3904    -3901    -3856    -3850 
   -3875    -3912    -3848    -3831    -3931    -3904    -3852    -3890 
   -3867    -3859    -3908    -3909    -3893    -3878    -3881    -3869 
   -3808    -3862    -3951    -3873    -3820    -3886    -3897    -3850 
   -3862    -3910    -3861    -3813    -3898    -3912    -3847    -3893 
   -3909    -3834    -3835    -3898    -3902    -3848    -3838    -3870 
   -3871    -3889    -3913    -3878    -3863    -3869    -3852    -3869 
   -3889    -3883    -3869    -3824    -3820    -3875    -3874    -3848 
   -3866    -3861    -3846    -3870    -3908    -3909    -3863    -3829 
   -3835    -3848    -3885    -3908    -3883    -3867    -3863    -3879 
   -3908    -3878    -3848    -3867    -3871    -3875    -3896    -3905 
   -3901    -3873    -3862    -3883    -3882    -3871    -3873    -3869 
   -3865    -3885    -3910    -3877    -3846    -3878    -3878    -3850 
   -3859    -3866    -3873    -3898    -3902    -3877    -3858    -3866 
   -3867    -3852    -3870    -3886    -3863    -3858    -3878    -3873 
   -3863    -3871    -3856    -3819    -3823    -3886    -3928    -3890 
   -3861    -3879    -3866    -3861    -3894    -3885    -3866    -3863 
   -3827    -3835    -3902    -3923    -3886    -3847    -3817    -3813 
   -3851    -3886    -3879    -3878    -3889    -3871    -3861    -3873 
   -3878    -3865    -3855    -3870    -3893    -3901    -3886    -3888 
   -3927    -3954    -3950    -3924    -3854    -3762    -3727    -3840 
   -4028    -4029    -3846    -3703    -3632    -3709    -3998    -4168 
   -3987    -3721    -3672    -3800    -3928    -4047    -4085    -3866 
   -3655    -3734    -3863    -3915    -3951    -3897    -3838    -3881 
   -3886    -3829    -3852    -3915    -3870    -3770    -3813    -3939 
   -3952    -3892    -3827    -3721    -3672    -3782    -3935    -4013 
   -4045    -4031    -3978    -3919    -3839    -3786    -3819    -3917 
   -3982    -3939    -3902    -3947    -3931    -3785    -3649    -3653 
   -3755    -3873    -4024    -4144    -4091    -3931    -3793    -3724 
   -3736    -3758    -3773    -3861    -3974    -4005    -3924    -3788 
   -3740    -3836    -3956    -3973    -3840    -3681    -3719    -3919 
   -4017    -3977    -3939    -3867    -3715    -3712    -3958    -4171 
   -4176    -4050    -3917    -3869    -3816    -3719    -3717    -3757 
   -3709    -3701    -3802    -3902    -3942    -3928    -3852    -3763 
   -3778    -3967    -4178    -4180    -3974    -3761    -3692    -3770 
   -3929    -4051    -3990    -3770    -3601    -3612    -3755    -3927 
   -4008    -3947    -3855    -3859    -3942    -4043    -4101    -3985 
   -3750    -3708    -3882    -3960    -3905    -3890    -3851    -3724 
   -3732    -3948    -4064    -3946    -3797    -3716    -3705    -3824 
   -3964    -3962    -3848    -3726    -3684    -3808    -4001    -4077 
   -4048    -4027    -4027    -3960    -3801    -3684    -3672    -3674 
   -3697    -3786    -3874    -3916    -3920    -3840    -3697    -3658 
   -3816    -4028    -4114    -4063    -3920    -3708    -3559    -3635 
   -3844    -3993    -4013    -3942    -3838    -3785    -3839    -3932 
   -3947    -3920    -3954    -4006    -4006    -4000    -3956    -3812 
   -3646    -3578    -3672    -3848    -3933    -3901    -3888    -3987 
   -4098    -4093    -4064    -4051    -3950    -3861    -3921    -4044 
   -4090    -4004    -3824    -3653    -3559    -3570    -3677    -3807 
   -3883    -3856    -3748    -3696    -3739    -3802    -3835    -3842 
   -3912    -4044    -4077    -3973    -3873    -3865    -3932    -4014 
   -4062    -4075    -4044    -3900    -3728    -3705    -3759    -3770 
   -3827    -3908    -3855    -3713    -3650    -3701    -3823    -3936 
   -3929    -3835    -3823    -3933    -4021    -3947    -3746    -3603 
   -3608    -3704    -3816    -3869    -3874    -3956    -4131    -4255 
   -4245    -4132    -3963    -3792    -3684    -3681    -3770    -3890 
   -3913    -3797    -3707    -3796    -3959    -4063    -4120    -4116 
   -4050    -4014    -3969    -3801    -3619    -3568    -3597    -3657 
   -3836    -4086    -4144    -4021    -3956    -3970    -4017    -4113 
   -4164    -4117    -3978    -3731    -3488    -3446    -3591    -3715 
   -3719    -3658    -3619    -3719    -3958    -4097    -4010    -3856 
   -3790    -3838    -3963    -4062    -4048    -3954    -3852    -3802 
   -3817    -3843    -3846    -3809    -3765    -3832    -3991    -4025 
   -3883    -3684    -3542    -3585    -3774    -3896    -3940    -4048 
   -4144    -4118    -4051    -3978    -3885    -3838    -3916    -4083 
   -4137    -3970    -3743    -3600    -3543    -3547    -3622    -3744 
   -3875    -4039    -4158    -4055    -3838    -3798    -3894    -3942 
   -3946    -3877    -3735    -3676    -3697    -3761    -3912    -4047 
   -4071    -4075    -4128    -4179    -4117    -3913    -3716    -3646 
   -3684    -3720    -3654    -3543    -3541    -3686    -3894    -4066 
   -4199    -4268    -4193    -4025    -3897    -3820    -3777    -3807 
   -3809    -3699    -3653    -3728    -3785    -3790    -3763    -3798 
   -3986    -4144    -4099    -4002    -4056    -4213    -4271    -4171 
   -4009    -3869    -3790    -3709    -3534    -3356    -3339    -3456 
   -3568    -3601    -3561    -3564    -3734    -4014    -4253    -4364 
   -4344    -4239    -4075    -3874    -3645    -3442    -3439    -3682 
   -3948    -4064    -4054    -4005    -3983    -3987    -4054    -4205 
   -4264    -4159    -4120    -4171    -4048    -3753    -3549    -3523 
   -3499    -3433    -3531    -3746    -3817    -3788    -3812    -3879 
   -3971    -4074    -4081    -3969    -3912    -3947    -3942    -3931 
   -3924    -3794    -3588    -3508    -3597    -3731    -3847    -3906 
   -3905    -3917    -3967    -4090    -4257    -4259    -4110    -4033 
   -4047    -4045    -3998    -3955    -3940    -3890    -3769    -3651 
   -3608    -3612    -3600    -3542    -3474    -3491    -3620    -3759 
   -3821    -3823    -3851    -3986    -4185    -4328    -4360    -4276 
   -4112    -3925    -3763    -3662    -3620    -3658    -3775    -3851 
   -3825    -3797    -3823    -3863    -3897    -3935    -3962    -3964 
   -3912    -3798    -3677    -3577    -3588    -3763    -3939    -4045 
   -4153    -4167    -4039    -3936    -3905    -3832    -3728    -3678 
   -3696    -3829    -4040    -4144    -4166    -4197    -4183    -4136 
   -4075    -3982    -3912    -3898    -3877    -3811    -3765    -3735 
   -3680    -3670    -3703    -3697    -3705    -3784    -3859    -3812 
   -3672    -3619    -3704    -3885    -4085    -4143    -4090    -4043 
   -3964    -3908    -3973    -4027    -3929    -3789    -3728    -3686 
   -3662    -3720    -3786    -3823    -3863    -3842    -3780    -3794 
   -3846    -3900    -4021    -4102    -4035    -3923    -3850    -3773 
   -3631    -3453    -3366    -3414    -3516    -3632    -3774    -3951 
   -4140    -4248    -4180    -4020    -3991    -4124    -4194    -4102 
   -3964    -3877    -3867    -3890    -3874    -3839    -3828    -3883 
   -3990    -4005    -3916    -3878    -3847    -3765    -3808    -3970 
   -4062    -4056    -4009    -3969    -3913    -3819    -3775    -3728 
   -3661    -3719    -3821    -3854    -3850    -3842    -3842    -3793 
   -3713    -3676    -3730    -3939    -4144    -4180    -4147    -4083 
   -3983    -3963    -4055    -4058    -3912    -3817    -3784    -3767 
   -3861    -3905    -3770    -3609    -3541    -3559    -3620    -3693 
   -3735    -3808    -4000    -4133    -4152    -4179    -4143    -4008 
   -3807    -3651    -3646    -3626    -3596    -3684    -3763    -3788 
   -3829    -3892    -3967    -4027    -4028    -4017    -4050    -4044 
   -3912    -3750    -3688    -3723    -3834    -3956    -3952    -3863 
   -3856    -3886    -3851    -3797    -3748    -3670    -3615    -3670 
   -3770    -3796    -3780    -3801    -3874    -3963    -4040    -4105 
   -4179    -4286    -4351    -4345    -4356    -4249    -3982    -3815 
   -3755    -3645    -3555    -3554    -3555    -3569    -3700    -3817 
   -3775    -3713    -3731    -3847    -4006    -4041    -3979    -3963 
   -4006    -4023    -3990    -3939    -3789    -3639    -3694    -3790 
   -3800    -3832    -3856    -3863    -3932    -4017    -4024    -3946 
   -3844    -3800    -3850    -3908    -3896    -3828    -3762    -3778 
   -3796    -3740    -3704    -3639    -3588    -3746    -3973    -4050 
   -4079    -4159    -4247    -4314    -4251    -4071    -4055    -4152 
   -4041    -3782    -3603    -3522    -3516    -3603    -3726    -3793 
   -3762    -3685    -3711    -3829    -3892    -3946    -4017    -3982 
   -3881    -3827    -3789    -3703    -3659    -3770    -3925    -4013 
   -4002    -3873    -3765    -3780    -3834    -3906    -4023    -4071 
   -3910    -3709    -3680    -3609    -3477    -3573    -3788    -3893 
   -4009    -4148    -4094    -3996    -4091    -4145    -4075    -4040 
   -3956    -3875    -3821    -3657    -3578    -3663    -3774    -3971 
   -4155    -4158    -4067    -4031    -4023    -3951    -3932    -3962 
   -3823    -3618    -3564    -3523    -3418    -3503    -3703    -3847 
   -4085    -4256    -4353    -4436    -4221    -4144    -4330    -4167 
   -3977    -3994    -3861    -3778    -3775    -3647    -3603    -3716 
   -3761    -3670    -3631    -3731    -3815    -3789    -3801    -3942 
   -3939    -3730    -3632    -3685    -3812    -3898    -3828    -3763 
   -3701    -3626    -3690    -3720    -3699    -3863    -4035    -4009 
   -3861    -3667    -3547    -3538    -3689    -4005    -4256    -4321 
   -4256    -4199    -4191    -4104    -3939    -3874    -3932    -3935 
   -3933    -3960    -3875    -3909    -4002    -3861    -3863    -4098 
   -4099    -3943    -3943    -4081    -4239    -4272    -4171    -4110 
   -4099    -4048    -3978    -3871    -3820    -3929    -3929    -3847 
   -3969    -3967    -3721    -3604    -3546    -3523    -3798    -4105 
   -4016    -3804    -3960    -4217    -4086    -3924    -4087    -4114 
   -3958    -3966    -3805    -3426    -3168    -2897    -2733    -2856 
   -3019    -3127    -3083    -3018    -3262    -3346    -3034    -3088 
   -3613    -4052    -4333    -4675    -5127    -5252    -4860    -4527 
   -4185    -3612    -3272    -3091    -3067    -3315    -3499    -3844 
   -4274    -4405    -4649    -4911    -4764    -4610    -4627    -4368 
   -3785    -3202    -3002    -3487    -3931    -3761    -3672    -3697 
   -3393    -3165    -3423    -3917    -4087    -4199    -4762    -5169 
   -5032    -4677    -4203    -3723    -3605    -4006    -4195    -3990 
   -4183    -4245    -3588    -3018    -2806    -2631    -2519    -2709 
   -3287    -3697    -3736    -4040    -4525    -4653    -4675    -4854 
   -4897    -4676    -4372    -3979    -3416    -2870    -2700    -2836 
   -2887    -3071    -3514    -3906    -4233    -4426    -4633    -4920 
   -4930    -4996    -5232    -4916    -4228    -3920    -3808    -3352 
   -2770    -2475    -2358    -2309    -2388    -2708    -3273    -3902 
   -4598    -5201    -5435    -5335    -5094    -4869    -4398    -3742 
   -3395    -3221    -3194    -3430    -3522    -3426    -3504    -3831 
   -4068    -3890    -3626    -3697    -3850    -3688    -3433    -3514 
   -3709    -3599    -3375    -3431    -3539    -3339    -3187    -3391 
   -3786    -4394    -5084    -5402    -5292    -5144    -5115    -4928 
   -4380    -3576    -3291    -3947    -4162    -3554    -3654    -3885 
   -2901    -2189    -3090    -4194    -4039    -3599    -4152    -4541 
   -4302    -4831    -5363    -4785    -4237    -4295    -4369    -4342 
   -4336    -3893    -2830    -2146    -2872    -4075    -3897    -3179 
   -3559    -4314    -4403    -3740    -3643    -4432    -3856    -2791 
   -3200    -3412    -3327    -3846    -4105    -4288    -4527    -4368 
   -4158    -3882    -3466    -3275    -3038    -2992    -3595    -3616 
   -2937    -2767    -2840    -3055    -3366    -3370    -3642    -3816 
   -3537    -3654    -3721    -3613    -3838    -3912    -4109    -4375 
   -4066    -3742    -3804    -4018    -4109    -4126    -4332    -4298 
   -4186    -4633    -5028    -4854    -4637    -4625    -4376    -3865 
   -3626    -3645    -3537    -3576    -3866    -3937    -4045    -4450 
   -4622    -4638    -4845    -4918    -4753    -4664    -4750    -4812 
   -4683    -4395    -3923    -3462    -3285    -2976    -2606    -2733 
   -2836    -2763    -3177    -3690    -3770    -3770    -3940    -4202 
   -4240    -4008    -3908    -3608    -3037    -3013    -3227    -3049 
   -3007    -3493    -4059    -4176    -4006    -3991    -4068    -4149 
   -4259    -4251    -4159    -4002    -3817    -3820    -3902    -3744 
   -3375    -3202    -3403    -3599    -3589    -3585    -3592    -3561 
   -3793    -4172    -4141    -4009    -4270    -4329    -4060    -4132 
   -4176    -3773    -3704    -4136    -4163    -3781    -3790    -4079 
   -4232    -4626    -5119    -4985    -4610    -4506    -4311    -4135 
   -4125    -3832    -3561    -3697    -3827    -3850    -3865    -3819 
   -3634    -3473    -3775    -4099    -4070    -4136    -4141    -4183 
   -4471    -4320    -3889    -3778    -3593    -3059    -2605    -2382 
   -2010    -1649    -1737    -1983    -2241    -2857    -3731    -4414 
   -5062    -5683    -5568    -5163    -5097    -4673    -4176    -4122 
   -3735    -3431    -3932    -3985    -3514    -3929    -4237    -3585 
   -3678    -4326    -4050    -3904    -4456    -4621    -4602    -4760 
   -4500    -4010    -3998    -4166    -3969    -3581    -3219    -3052 
   -3284    -3707    -3842    -3618    -3669    -4329    -4911    -4729 
   -4075    -3732    -3766    -3559    -3159    -3138    -3461    -3676 
   -3757    -3964    -4116    -3963    -3824    -3940    -4008    -3925 
   -4018    -4234    -4340    -4163    -3693    -3487    -3495    -3157 
   -3059    -3488    -3636    -3647    -3878    -3807    -3690    -3978 
   -4004    -3643    -3651    -3915    -3790    -3465    -3391    -3489 
   -3630    -3835    -3939    -3966    -4133    -4299    -4417    -4444 
   -4162    -3919    -4043    -4063    -3662    -3275    -3249    -3295 
   -3213    -3289    -3546    -3639    -3608    -3753    -4082    -4243 
   -4079    -4108    -4575    -4930    -4950    -4912    -4858    -4754 
   -4556    -4241    -3889    -3514    -3237    -3273    -3557    -3740 
   -3713    -3711    -3647    -3491    -3551    -3623    -3468    -3470 
   -3693    -3758    -3751    -3950    -4105    -4009    -4001    -4178 
   -4247    -4195    -4171    -4068    -3885    -3892    -4028    -4067 
   -4132    -4193    -4116    -3958    -3780    -3720    -3663    -3362 
   -3079    -3022    -3013    -2963    -3056    -3302    -3316    -3254 
   -3584    -3956    -4140    -4345    -4449    -4465    -4607    -4734 
   -4710    -4668    -4600    -4423    -4305    -4276    -4145    -4089 
   -4274    -4114    -3535    -3472    -3704    -3392    -3084    -3060 
   -2791    -2782    -3541    -4151    -4044    -3942    -4032    -3939 
   -3964    -4237    -4432    -4499    -4572    -4637    -4488    -4209 
   -3942    -3510    -3206    -3500    -3888    -3732    -3557    -3715 
   -3605    -3551    -4247    -4683    -4357    -4162    -4064    -4087 
   -4433    -4388    -3885    -3418    -3225    -3237    -3213    -3487 
   -3835    -3619    -3460    -3643    -3746    -3785    -3622    -3549 
   -3967    -4359    -4349    -4102    -3905    -3703    -3246    -2934 
   -3056    -3099    -2937    -3127    -3568    -3838    -4121    -4295 
   -4294    -4666    -4924    -4247    -3635    -4054    -4468    -4117 
   -3983    -4413    -4542    -4355    -4203    -3931    -3759    -3982 
   -4274    -4384    -4355    -4132    -3909    -3870    -3666    -3346 
   -3496    -3678    -3407    -3407    -3619    -3370    -3119    -3450 
   -4018    -4229    -4183    -4151    -3979    -4004    -4480    -4599 
   -4245    -4158    -3948    -3451    -3445    -3647    -3554    -3609 
   -3815    -3828    -3848    -3676    -3287    -3623    -4299    -4117 
   -3771    -4023    -4149    -3839    -3719    -4021    -4187    -4094 
   -3969    -3682    -3689    -4109    -4036    -3758    -3979    -4126 
   -3948    -3734    -3487    -3249    -3042    -3010    -3160    -3226 
   -3422    -3769    -3863    -3906    -4031    -3908    -3711    -3701 
   -3646    -3600    -3743    -3962    -4218    -4266    -3933    -3759 
   -4035    -4367    -4436    -4274    -4059    -3909    -3913    -4104 
   -4162    -3962    -3847    -3928    -4145    -4317    -4114    -3904 
   -4213    -4580    -4499    -4268    -4070    -3855    -3862    -4024 
   -4013    -3856    -3701    -3645    -3705    -3738    -3645    -3612 
   -3812    -3820    -3495    -3492    -3615    -3345    -3184    -3310 
   -3464    -3900    -4434    -4318    -3871    -4072    -4639    -4658 
   -4253    -4093    -3974    -3545    -3489    -3838    -3796    -3655 
   -3748    -3705    -3631    -3700    -3653    -3364    -3159    -3275 
   -3438    -3778    -4369    -4295    -3802    -3897    -3985    -3856 
   -4268    -4507    -4045    -4338    -5298    -5136    -4403    -4221 
   -3865    -3337    -3592    -4348    -4564    -4217    -3821    -3451 
   -3523    -3797    -3105    -2403    -3252    -4185    -3815    -3549 
   -3948    -3794    -3206    -2860    -2743    -3160    -3778    -3913 
   -4044    -4460    -4444    -3793    -3325    -3370    -3429    -3523 
   -3904    -4387    -4742    -4425    -3511    -3196    -3601    -3802 
   -3763    -3827    -3974    -4403    -4974    -4892    -4295    -4093 
   -4293    -4302    -4189    -4461    -4693    -4585    -4630    -4390 
   -3989    -4108    -3874    -3379    -3616    -3866    -3632    -3508 
   -3339    -2781    -2331    -2398    -2879    -3487    -3896    -4151 
   -4394    -4502    -4419    -4286    -4333    -4333    -3865    -3465 
   -3649    -3888    -3898    -3708    -3284    -3088    -3269    -3400 
   -3501    -3877    -4322    -4428    -4429    -4504    -4239    -4001 
   -4287    -4310    -3786    -3662    -4008    -4051    -3807    -3674 
   -3763    -4025    -4187    -4075    -3888    -3851    -3889    -3886 
   -4008    -4048    -3685    -3314    -3215    -3225    -3366    -3577 
   -3631    -3516    -3404    -3592    -4083    -4368    -4298    -4259 
   -4361    -4445    -4456    -4305    -3940    -3537    -3298    -3329 
   -3693    -4067    -3910    -3542    -3647    -3834    -3631    -3542 
   -3748    -3769    -3599    -3689    -3982    -3990    -3689    -3527 
   -3793    -4245    -4513    -4523    -4321    -4064    -3859    -3689 
   -3688    -3715    -3516    -3375    -3734    -4328    -4355    -3855 
   -3676    -3912    -3975    -3954    -4338    -4707    -4396    -3854 
   -3696    -3609    -3492    -3735    -3939    -3848    -4118    -4434 
   -4159    -3929    -3974    -3821    -3703    -3820    -3842    -3923 
   -4341    -4402    -3716    -3260    -3418    -3503    -3453    -3469 
   -3537    -3843    -4156    -4178    -4118    -3883    -3500    -3650 
   -4257    -4379    -4014    -3982    -4270    -4274    -3989    -3736 
