Origin Time       2025/03/28 03:50:00
Lat.              35.403
Long.             140.360
Depth. (km)       54
Mag.              4.4
Station Code      TKY008
Station Lat.      34.7851
Station Long.     139.3909
Station Height(m) 65
Record Time       2025/03/28 03:51:11
Sampling Freq(Hz) 100Hz
Duration Time(s)  60
Dir.              E-W
Scale Factor      7845(gal)/8223790
Max. Acc. (gal)   1.619
Last Correction   2025/03/28 03:51:10
Memo.             
[...]
    -903     -904     -903     -907     -905     -907     -909     -907 
    -905     -905     -904     -899     -897     -908     -909     -903 
    -901     -905     -907     -903     -903     -911     -915     -905 
    -903     -913     -908     -897     -899     -904     -905     -905 
    -909     -916     -905     -896     -905     -909     -908     -907 
    -901     -905     -909     -903     -897     -901     -907     -908 
    -908     -915     -916     -904     -896     -891     -882     -881 
    -884     -909     -943     -951     -946     -935     -920     -908 
    -899     -888     -868     -845     -847     -876     -899     -911 
    -919     -942     -982     -999     -966     -927     -895     -857 
    -830     -842     -873     -880     -882     -934    -1008     -990 
    -884     -828     -878     -942     -919     -846     -838     -884 
    -895     -882     -900     -957    -1020    -1009     -903     -820 
    -822     -846     -900     -973     -965     -909     -926     -938 
    -874     -886    -1043    -1140    -1021     -819     -735     -766 
    -776     -792     -939    -1044     -901     -757     -851     -962 
    -932     -928     -996    -1042    -1035     -943     -810     -804 
    -920     -980     -895     -743     -723     -901    -1050    -1009 
    -886     -757     -724     -939    -1147    -1059     -907     -920 
    -957     -928     -934    -1028    -1182    -1228     -877     -313 
    -230     -727    -1108    -1093    -1020    -1019     -958     -873 
    -881     -951    -1028    -1132    -1161     -903     -467     -278 
    -483     -854    -1159    -1269    -1171    -1039    -1005    -1013 
   -1051    -1105     -962     -627     -529     -751     -868     -781 
    -791     -938     -951     -783     -769     -990    -1089    -1024 
   -1028    -1026    -1027    -1220    -1317     -994     -616     -600 
    -711     -633     -545     -675     -819     -760     -761    -1127 
   -1540    -1520    -1154     -820     -677     -685     -807    -1058 
   -1278    -1075     -453     -140     -529     -973    -1081    -1170 
   -1208     -922     -567     -573     -827    -1030    -1252    -1475 
   -1413    -1053     -760     -754     -878     -988     -940     -598 
    -243     -233     -510     -861    -1109    -1198    -1269    -1286 
   -1071     -845     -957    -1196    -1115     -739     -459     -585 
   -1016    -1323    -1362    -1198     -864     -607     -638     -845 
    -984     -901     -672     -442     -283     -318     -653    -1129 
   -1486    -1605    -1443    -1113     -900    -1023    -1408    -1557 
   -1044     -290      -74     -324     -483     -522     -614     -711 
    -843    -1081    -1367    -1636    -1767    -1625    -1281     -869 
    -500     -429     -733     -976     -778     -425     -357     -575 
    -847    -1021    -1044    -1008    -1004     -986     -909     -880 
   -1057    -1347    -1395    -1065     -684     -737    -1237    -1570 
   -1314     -843     -479      -52      186     -180     -765    -1069 
   -1260    -1468    -1347     -897     -788    -1181    -1378    -1151 
    -951     -958     -977     -849     -675     -697     -816     -653 
    -303     -255     -562     -904    -1142    -1291    -1350    -1255 
   -1000     -797     -787     -862     -962    -1063    -1077     -977 
    -869     -822     -784     -795     -940    -1057     -932     -646 
    -467     -610    -1023    -1379    -1350    -1017     -818     -868 
    -884     -801     -849    -1043    -1084     -905     -869    -1020 
   -1020     -913     -997    -1121     -899     -454     -333     -610 
    -861     -969    -1089    -1123     -967     -853     -965    -1085 
    -927     -735     -989    -1426    -1327     -812     -576     -654 
    -631     -491     -573     -932    -1189    -1124     -932     -841 
    -888     -896     -785     -760     -881    -1027    -1197    -1333 
   -1229     -951     -874    -1030    -1065     -855     -511     -189 
    -179     -544     -920    -1069    -1151    -1248    -1201    -1030 
    -935     -996    -1128    -1132     -974     -838     -774     -754 
    -803     -823     -773     -747     -762     -801     -936    -1152 
   -1279    -1236    -1154    -1063     -881     -677     -599     -654 
    -760     -903    -1075    -1127     -996     -896     -923     -889 
    -733     -638     -751     -951    -1047    -1040     -990     -885 
    -739     -665     -745     -905    -1062    -1190    -1198    -1019 
    -795     -741     -861     -961     -935     -885     -912     -943 
    -912     -932     -985     -934     -869     -855     -768     -627 
    -607     -731     -911    -1169    -1470    -1549    -1283     -880 
    -600     -500     -508     -629     -792     -854     -853     -888 
    -967    -1051    -1031     -897     -823     -870     -864     -783 
    -824     -943    -1004    -1134    -1377    -1459    -1171     -715 
    -518     -623     -662     -604     -785    -1132    -1262    -1175 
   -1086    -1050    -1009     -854     -669     -706     -876     -899 
    -812     -818     -900     -954    -1001     -986     -784     -576 
    -657     -930    -1036     -916     -820     -845     -896     -954 
    -986     -926     -807     -764     -891    -1108    -1201    -1082 
    -957    -1040    -1196    -1136     -891     -731     -700     -658 
    -676     -814     -891     -841     -832     -939    -1035     -985 
    -886     -990    -1233    -1320    -1200    -1013     -795     -575 
    -504     -668     -874     -878     -731     -661     -756     -899 
    -962     -945     -903     -922    -1055    -1136    -1065    -1036 
   -1027     -831     -642     -756     -953     -955     -935    -1048 
   -1115    -1042     -985     -939     -715     -465     -554     -869 
    -999     -905     -884    -1069    -1240    -1163     -899     -669 
    -681     -946    -1123     -999     -815     -757     -724     -697 
    -749     -835     -892     -920     -945    -1030    -1185    -1289 
   -1255    -1131     -954     -772     -688     -738     -789     -727 
    -699     -892    -1086     -916     -587     -619     -931    -1043 
    -950     -924     -984    -1036    -1074    -1107    -1108    -1036 
    -920     -820     -741     -708     -751     -787     -743     -723 
    -781     -889    -1065    -1177    -1047     -876     -940    -1096 
   -1090     -969     -895     -928     -993     -922     -761     -750 
    -862     -904     -834     -772     -828     -938     -973     -930 
    -882     -855     -808     -791     -866     -942     -954     -999 
   -1096    -1139    -1085     -980     -861     -735     -649     -687 
    -850    -1009    -1081    -1078    -1005     -880     -765     -739 
    -807     -808     -697     -724     -970    -1161    -1139    -1028 
    -974     -981    -1004    -1042    -1059     -994     -885     -816 
    -772     -730     -749     -828     -904     -957     -966     -896 
    -793     -795     -923    -1013    -1007     -984     -950     -861 
    -764     -773     -861     -843     -761     -839    -1023    -1096 
   -1069    -1067    -1043     -951     -932    -1058    -1165    -1073 
    -850     -688     -621     -592     -631     -791     -980    -1036 
    -966     -897     -845     -765     -743     -843     -934     -928 
    -931    -1019    -1098    -1063    -1007    -1059    -1159    -1179 
   -1085     -926     -756     -619     -612     -742     -814     -781 
    -822     -912     -896     -838     -859     -909     -876     -773 
    -746     -886    -1090    -1217    -1255    -1223    -1113     -997 
    -946     -859     -618     -400     -481     -746     -884     -905 
   -1042    -1302    -1444    -1336    -1090     -861     -708     -648 
    -665     -727     -781     -754     -670     -664     -800    -1011 
   -1192    -1233    -1080     -854     -747     -795     -854     -859 
    -912     -989     -950     -819     -795     -982    -1216    -1220 
   -1017     -884     -839     -660     -422     -456     -765    -1032 
   -1146    -1213    -1202    -1026     -868     -939    -1055     -961 
    -830     -858     -864     -681     -513     -630     -974    -1201 
   -1131     -984     -973     -974     -891     -866     -932     -954 
    -920     -969    -1105    -1043     -704     -533     -727     -884 
    -846     -889    -1000    -1020    -1092    -1264    -1291    -1080 
    -839     -738     -734     -792     -895     -963     -988     -989 
    -839     -496     -272     -436     -743     -904    -1005    -1057 
    -919     -789     -945    -1252    -1399    -1294    -1084     -916 
    -789     -719     -822    -1028    -1109    -1003     -819     -697 
    -684     -729     -810     -943    -1085    -1086     -880     -634 
    -568     -765    -1119    -1340    -1275    -1094     -963     -899 
    -877     -847     -772     -692     -669     -729     -799     -777 
    -731     -834    -1048    -1148    -1089    -1080    -1152    -1105 
    -974     -949     -951     -899     -920     -981     -816     -471 
    -309     -468     -750     -994    -1173    -1229    -1139     -993 
    -869     -824     -915    -1005     -923     -787     -785     -845 
    -907    -1071    -1233    -1206    -1043     -864     -731     -703 
    -724     -687     -627     -657     -758     -831     -845     -905 
   -1107    -1339    -1397    -1239    -1012     -869     -876     -962 
    -913     -677     -487     -515     -727     -981    -1101    -1097 
   -1116    -1113    -1048    -1027    -1028     -932     -734     -577 
    -635     -868    -1054    -1092     -985     -774     -634     -673 
    -776     -843     -916    -1051    -1174    -1174    -1093    -1096 
   -1175    -1115     -868     -611     -402     -265     -359     -702 
   -1059    -1269    -1379    -1445    -1401    -1204     -970     -855 
    -828     -733     -556     -490     -660     -903    -1007    -1004 
    -951     -865     -900    -1063    -1096     -915     -727     -691 
    -774     -845     -842     -868     -931     -972    -1089    -1232 
   -1148     -904     -780     -780     -769     -774     -812     -849 
    -885     -934    -1021    -1078     -966     -797     -870    -1128 
   -1189     -969     -770     -772     -886     -992    -1017     -924 
    -772     -700     -747     -810     -918    -1162    -1293    -1088 
    -803     -731     -824     -907     -922     -851     -695     -619 
    -778     -969     -884     -707     -784     -931     -873     -832 
   -1034    -1269    -1304    -1198    -1077     -920     -753     -733 
    -892    -1015     -954     -845     -792     -756     -764     -878 
   -1021     -966     -658     -503     -805    -1185    -1162     -904 
    -830     -915     -892     -795     -814     -940    -1085    -1206 
   -1204    -1016     -807     -785     -874     -842     -756     -826 
    -922     -877     -847     -931     -984     -895     -723     -675 
    -874    -1138    -1231    -1165    -1054     -904     -741     -662 
    -676     -735     -837     -985    -1094    -1040     -903     -827 
    -788     -764     -814     -868     -787     -676     -756     -965 
   -1131    -1251    -1327    -1300    -1173    -1030     -961     -907 
    -693     -453     -479     -666     -724     -693     -777     -934 
   -1017    -1098    -1271    -1333    -1147     -986     -984     -904 
    -714     -625     -730     -950    -1097    -1082    -1058    -1098 
   -1000     -784     -741     -847     -909     -950     -996     -974 
    -830     -594     -468     -621     -865     -961    -1077    -1320 
   -1390    -1213    -1093    -1066     -923     -710     -598     -537 
    -498     -585     -696     -653     -577     -658     -814     -857 
    -838     -947    -1121    -1192    -1250    -1409    -1499    -1378 
   -1186    -1098    -1046     -843     -573     -562     -837    -1019 
    -965     -943     -972     -729     -336     -276     -499     -612 
    -677     -916    -1151    -1121     -935     -846     -895     -990 
   -1053    -1000     -855     -758     -797     -963    -1111    -1082 
    -926     -805     -696     -460     -268     -414     -750     -954 
   -1043    -1162    -1297    -1425    -1586    -1741    -1815    -1792 
   -1648    -1329     -901     -565     -465     -548     -629     -595 
    -518     -560     -710     -807     -888    -1001     -905     -629 
    -540     -629     -669     -796    -1057    -1019     -534     -179 
    -334     -619     -687     -808    -1165    -1356    -1169     -958 
    -850     -603     -440     -834    -1494    -1738    -1552    -1359 
   -1235     -999     -753     -770     -911     -866     -850    -1155 
   -1464    -1455    -1310    -1204    -1066     -846     -600     -359 
     -39      337      442      133     -184     -352     -749    -1390 
   -1833    -1957    -1937    -1804    -1547    -1306    -1163    -1008 
    -781     -600     -579     -757    -1111    -1444    -1561    -1455 
   -1154     -778     -560     -529     -596     -797    -1071    -1161 
    -988     -743     -599     -573     -557     -531     -662     -857 
    -733     -348     -168     -364     -819    -1282    -1377    -1077 
    -801     -727     -695     -734     -957    -1162    -1167    -1263 
   -1651    -1779    -1221     -599     -662    -1273    -1738    -1587 
    -912     -224       31     -103     -271     -302     -319     -508 
    -905    -1298    -1414    -1321    -1275    -1271    -1117     -838 
    -661     -689     -880    -1316    -2041    -2604    -2374    -1448 
    -517       51      360      534      445      -44     -561     -695 
    -742    -1040    -1140     -730     -452     -858    -1518    -1740 
   -1495    -1296    -1323    -1314    -1304    -1493    -1543    -1096 
    -454      -22      128       31     -184     -359     -631    -1115 
   -1367    -1034     -540     -450     -804    -1418    -2087    -2415 
   -2150    -1636    -1283     -939     -445      -72      -10     -175 
    -437     -631     -629     -577     -774    -1158    -1387    -1405 
   -1289     -850     -102      287     -157     -893    -1128     -935 
    -834     -873     -907    -1011    -1181    -1301    -1350    -1327 
   -1227    -1163    -1308    -1644    -1939    -1952    -1622    -1085 
    -584     -297     -182     -256     -649    -1142    -1316    -1212 
   -1221    -1390    -1324     -781       10      598      702      363 
    -189     -658     -845     -820     -800     -866    -1034    -1390 
   -1807    -1883    -1561    -1171     -893     -738     -784    -1074 
   -1414    -1505    -1240     -774     -357     -130     -162     -495 
    -994    -1444    -1649    -1472    -1005     -526     -234     -114 
    -121     -328     -706    -1165    -1672    -1996    -1875    -1503 
   -1247    -1109     -886     -583     -337     -190     -140     -272 
    -645    -1101    -1345    -1239     -949     -711     -615     -789 
   -1285    -1771    -1838    -1490    -1036     -654     -302     -153 
    -514    -1062    -1116     -780     -716    -1035    -1329    -1424 
   -1394    -1213     -839     -445     -311     -506     -812    -1071 
   -1281    -1395    -1300     -857     -168      299      240     -203 
    -793    -1294    -1426    -1159     -832     -749     -962    -1368 
   -1692    -1655    -1266     -766     -421     -365     -494     -657 
    -746     -695     -684     -878    -1170    -1468    -1721    -1728 
   -1495    -1290    -1097     -692     -251     -199     -576    -1031 
   -1283    -1300    -1136     -911     -803     -711     -357      132 
     326        6     -687    -1333    -1566    -1460    -1389    -1379 
   -1215    -1062    -1209    -1426    -1297     -905     -683     -769 
    -966    -1084    -1038     -795     -438     -245     -384     -746 
   -1152    -1366    -1175     -803     -634     -633     -648     -803 
   -1105    -1337    -1425    -1363    -1150     -984    -1023    -1152 
   -1177     -962     -565     -168      105      143     -121     -572 
   -1016    -1242    -1097     -749     -531     -583     -796    -1007 
   -1194    -1453    -1784    -2033    -2027    -1738    -1313     -946 
    -751     -683     -577     -402     -261     -189     -209     -403 
    -731    -1074    -1337    -1375    -1138     -846     -745     -847 
   -1017    -1167    -1275    -1250    -1031     -780     -688     -707 
    -731     -824     -966     -949     -710     -483     -557     -912 
   -1182    -1194    -1098     -905     -576     -367     -523     -930 
   -1251    -1282    -1123     -904     -618     -399     -504     -913 
   -1306    -1452    -1356    -1062     -646     -387     -486     -689 
    -707     -693     -843    -1026    -1088    -1028     -891     -737 
    -652     -745    -1043    -1408    -1648    -1652    -1470    -1262 
   -1098     -924     -776     -768     -872     -961    -1016    -1096 
   -1188    -1197    -1109     -992     -876     -824     -955    -1229 
   -1428    -1387    -1117     -718     -255      183      423      353 
      43     -342     -633     -783     -927    -1115    -1219    -1233 
   -1283    -1312    -1167     -939     -831     -897    -1043    -1131 
   -1063     -865     -666     -565     -598     -781     -992    -1074 
   -1088    -1138    -1162    -1040     -773     -583     -675     -938 
   -1165    -1286    -1297    -1208    -1104    -1090    -1142    -1125 
   -1007     -901     -928    -1075    -1174    -1132    -1032     -866 
    -584     -309     -201     -294     -556     -903    -1131    -1124 
   -1046    -1090    -1206    -1221    -1089     -886     -654     -491 
    -554     -750     -842     -811     -799     -849     -918    -1004 
   -1067     -978     -754     -595     -592     -673     -770     -857 
    -935    -1053    -1188    -1205    -1082    -1019    -1065    -1036 
    -918     -812     -773     -861    -1027    -1101    -1058    -1050 
   -1151    -1274    -1347    -1370    -1274     -972     -560     -328 
    -414     -618     -689     -630     -585     -665     -869    -1050 
   -1032     -841     -693     -676     -643     -562     -629     -907 
   -1169    -1210    -1139    -1215    -1455    -1605    -1505    -1269 
   -1080     -988     -909     -718     -400      -85       74      -36 
    -351     -668     -872     -947     -934     -907     -953    -1108 
   -1314    -1490    -1568    -1480    -1233     -963     -851     -940 
   -1142    -1362    -1452    -1328    -1134     -973     -778     -627 
    -672     -776     -703     -495     -317     -206     -179     -322 
    -660    -1011    -1121    -1016     -930     -947    -1024    -1178 
   -1406    -1601    -1637    -1474    -1197     -932     -691     -459 
    -324     -329     -395     -463     -519     -507     -472     -589 
    -872    -1177    -1412    -1517    -1420    -1138     -857     -791 
    -920    -1051    -1062    -1013    -1009    -1048    -1111    -1220 
   -1327    -1316    -1156     -959     -855     -769     -556     -351 
    -378     -549     -623     -564     -510     -548     -652     -807 
   -1063    -1370    -1525    -1399    -1084     -733     -473     -396 
    -494     -627     -710     -847    -1121    -1401    -1570    -1626 
   -1528    -1252     -949     -777     -719     -737     -892    -1129 
   -1264    -1183     -966     -769     -638     -567     -592     -719 
