Origin Time       2025/03/28 03:50:00
Lat.              35.403
Long.             140.360
Depth. (km)       54
Mag.              4.4
Station Code      TKY005
Station Lat.      35.5798
Station Long.     139.4137
Station Height(m) 106
Record Time       2025/03/28 03:51:07
Sampling Freq(Hz) 100Hz
Duration Time(s)  60
Dir.              U-D
Scale Factor      7845(gal)/8223790
Max. Acc. (gal)   0.993
Last Correction   2025/03/28 03:51:07
Memo.             
[...]
    -838     -845     -862     -874     -855     -834     -845     -862 
    -858     -853     -853     -847     -849     -857     -859     -859 
    -861     -862     -859     -855     -847     -838     -843     -853 
    -847     -853     -869     -862     -855     -868     -869     -859 
    -859     -857     -845     -838     -838     -842     -854     -865 
    -864     -857     -851     -855     -866     -869     -855     -837 
    -838     -861     -868     -858     -857     -858     -858     -862 
    -861     -849     -842     -850     -858     -859     -864     -861 
    -850     -847     -853     -855     -851     -854     -858     -858 
    -854     -841     -839     -858     -858     -855     -869     -859 
    -845     -864     -873     -850     -843     -853     -842     -839 
    -853     -855     -853     -862     -869     -865     -857     -854 
    -854     -862     -865     -850     -846     -853     -846     -846 
    -857     -849     -837     -847     -865     -862     -849     -850 
    -865     -870     -865     -874     -870     -849     -849     -851 
    -845     -845     -838     -831     -846     -865     -870     -872 
    -870     -864     -862     -857     -839     -832     -843     -850 
    -847     -851     -858     -858     -855     -862     -876     -868 
    -854     -854     -857     -851     -837     -828     -851     -864 
    -855     -859     -866     -869     -872     -857     -839     -832 
    -812     -791     -781     -757     -735     -749     -758     -742 
    -724     -708     -707     -722     -761     -855     -985    -1093 
   -1154    -1148    -1066     -935     -818     -811     -973    -1220 
   -1372    -1325    -1127     -845     -537     -364     -491     -868 
   -1204    -1181     -820     -463     -337     -414     -589     -784 
    -932     -922     -753     -677     -864    -1148    -1233     -994 
    -691     -720    -1086    -1375    -1242     -861     -689     -710 
    -623     -594     -819     -963     -895     -907     -913     -715 
    -641     -861     -976     -803     -625     -635     -797    -1027 
   -1146    -1046     -864     -724     -662     -710     -815     -992 
   -1250    -1350    -1165     -881     -735     -774     -723     -379 
    -126     -375     -873    -1109    -1003     -832     -723     -708 
    -876    -1090    -1258    -1497    -1609    -1242     -526      -43 
    -315    -1125    -1480     -965     -379     -488     -954     -920 
    -494     -577    -1115    -1259     -940     -697     -735     -845 
    -785     -619     -589     -738     -901     -924     -857     -899 
    -973     -901     -959    -1258    -1235     -838     -746     -938 
    -818     -363     -124     -521    -1144    -1287    -1066     -919 
    -901     -953     -931     -723     -534     -684    -1071    -1185 
    -935     -660     -503     -595    -1005    -1323    -1140     -702 
    -591     -927    -1125     -737     -336     -708    -1316    -1194 
    -750     -764    -1028    -1148    -1084     -834     -544     -449 
    -576     -757     -904    -1097    -1200     -901     -427     -400 
    -882    -1310    -1336    -1139     -899     -708     -761     -878 
    -684     -434     -452     -545     -689     -901     -920     -788 
    -816    -1048    -1185    -1054     -994    -1212    -1337    -1104 
    -731     -519     -452     -436     -665    -1012     -959     -770 
   -1032    -1247     -873     -513     -670     -993    -1096     -904 
    -571     -459     -679     -903     -896     -768     -726     -877 
   -1121    -1206    -1097    -1027    -1047     -958     -753     -641 
    -723     -896     -913     -718     -633     -735     -720     -666 
    -757     -784     -800    -1085    -1420    -1370     -961     -622 
    -631     -778     -746     -738    -1000    -1105     -778     -526 
    -641     -885    -1073    -1051     -792     -630     -749     -926 
    -942     -818     -773     -909    -1000     -895     -799     -901 
   -1050    -1047     -928     -741     -553     -592     -842    -1012 
   -1013     -923     -835     -869     -949     -927     -872     -859 
    -901     -951     -862     -757     -851     -912     -770     -661 
    -685     -716     -739     -868    -1026     -981     -795     -700 
    -689     -749     -886     -888     -784     -865    -1038     -986 
    -734     -589     -761    -1069    -1205    -1121     -996     -951 
    -895     -751     -685     -737     -706     -623     -697     -857 
    -870     -731     -660     -750     -888    -1004    -1104    -1144 
   -1125    -1080    -1028    -1027    -1003     -795     -565     -621 
    -859     -934     -747     -571     -607     -689     -673     -661 
    -776    -1028    -1194    -1112     -972     -918     -907     -938 
    -923     -788     -707     -819    -1073    -1320    -1275     -819 
    -341     -315     -738    -1109    -1026     -692     -569     -726 
    -896     -922     -896     -877     -814     -765     -820     -931 
    -920     -689     -513     -689     -993    -1048     -943     -996 
   -1129    -1051     -900     -916     -932     -868     -864     -850 
    -756     -714     -750     -788     -877    -1032    -1063     -842 
    -580     -531     -615     -660     -718     -868    -1051    -1090 
    -893     -729     -853    -1057    -1050     -827     -637     -737 
    -993    -1034     -858     -776     -903    -1105    -1189    -1004 
    -681     -579     -729     -774     -689     -795     -977     -869 
    -681     -785     -919     -741     -523     -642     -932    -1013 
    -855     -749     -884    -1084    -1102    -1005     -978    -1050 
   -1061     -796     -463     -595    -1063    -1163     -766     -418 
    -506     -764     -703     -465     -606    -1094    -1320    -1003 
    -599     -708    -1201    -1405    -1174     -997    -1074    -1113 
    -954     -751     -679     -673     -589     -521     -695     -982 
   -1007     -799     -785     -992     -990     -723     -531     -589 
    -849    -1116    -1131     -951     -928    -1031     -959     -810 
    -835     -963    -1030    -1011     -936     -835     -776     -747 
    -670     -604     -664     -793     -893     -909     -793     -581 
    -441     -565     -939    -1243    -1251    -1097     -966     -862 
    -742     -642     -691     -954    -1250    -1256     -893     -600 
    -776    -1027     -869     -638     -789    -1082    -1081     -832 
    -696     -797     -963    -1008     -885     -696     -581     -604 
    -702     -735     -718     -731     -788     -893     -951     -907 
    -919     -909     -797     -907    -1246    -1308     -978     -696 
    -664     -631     -525     -575     -737     -765     -703     -753 
    -876     -892     -888    -1009    -1066     -963     -950    -1115 
   -1290    -1281    -1078     -916     -868     -749     -603     -603 
    -641     -534     -325     -241     -402     -618     -762     -911 
    -951     -873     -993    -1313    -1456    -1271     -959     -778 
    -796     -946    -1063     -935     -727     -784     -943     -878 
    -664     -583     -831    -1161    -1071     -726     -750    -1094 
   -1194     -911     -594     -558     -711     -727     -621     -741 
   -1142    -1364    -1092     -727     -741     -931     -924     -750 
    -646     -765     -992    -1044     -892     -730     -656     -622 
    -588     -612     -772    -1009    -1150    -1012     -706     -653 
    -935    -1161    -1129     -985     -849     -699     -577     -664 
    -939    -1080     -980     -907     -934     -866     -765     -801 
    -841     -747     -679     -762     -876     -838     -696     -637 
    -665     -660     -680     -811     -993    -1121    -1074     -861 
    -700     -753     -949    -1097    -1119    -1101     -992     -693 
    -465     -603     -961    -1228    -1285    -1186    -1067     -958 
    -859     -854     -864     -731     -600     -604     -658     -773 
    -966    -1069     -973     -845     -893     -986     -949     -969 
   -1039     -859     -567     -525     -662     -731     -729     -781 
    -882     -881     -722     -630     -831    -1098    -1030     -720 
    -634     -903    -1144     -976     -595     -503     -722     -924 
   -1020    -1113    -1197    -1205    -1147     -993     -723     -531 
    -602     -796     -818     -649     -627     -874    -1051     -939 
    -726     -662     -772     -885     -909     -895     -904     -953 
    -982     -918     -753     -619     -730     -969    -1012     -966 
    -997     -949     -862     -866     -868     -861     -866     -828 
    -830     -877     -791     -618     -641     -872    -1057    -1100 
   -1013     -827     -804    -1043    -1139     -888     -680     -776 
    -851     -612     -429     -607     -735     -638     -754    -1067 
   -1080     -791     -699     -950    -1146    -1090    -1031    -1017 
    -891     -754     -799     -903     -830     -727     -889    -1100 
   -1066     -950     -889     -850     -770     -534     -291     -417 
    -842    -1086     -972     -803     -760     -720     -696     -795 
    -928     -955     -938    -1008    -1067    -1009    -1003    -1046 
    -881     -616     -639     -889     -980     -903     -869     -872 
    -932    -1109    -1181    -1011     -832     -791     -769     -684 
    -577     -552     -666     -766     -715     -691     -838    -1013 
   -1082    -1043     -993    -1030    -1071     -976     -796     -649 
    -614     -764     -936     -889     -783     -828     -846     -737 
    -726     -908    -1109    -1143     -976     -689     -506     -616 
    -847     -916     -864     -807     -729     -704     -808     -950 
   -1053    -1075     -931     -731     -745     -899     -847     -692 
    -846    -1188    -1260    -1021     -772     -727     -880    -1013 
    -945     -773     -711     -796     -874     -816     -693     -657 
    -711     -777     -838     -874     -896     -997    -1136    -1112 
    -916     -773     -761     -768     -765     -808     -882     -918 
    -858     -760     -751     -839     -973    -1135    -1179     -990 
    -792     -785     -797     -681     -581     -576     -572     -579 
    -704     -891     -984    -1005    -1035     -994     -928    -1030 
   -1165    -1047     -773     -635     -691     -788     -780     -675 
    -626     -780    -1057    -1150     -951     -810     -940    -1042 
    -884     -689     -662     -708     -677     -606     -627     -773 
    -942     -996     -961    -1012    -1146    -1134     -915     -711 
    -702     -811     -866     -787     -664     -676     -862     -972 
    -793     -560     -614     -842     -919     -858     -851     -885 
    -932    -1105    -1297    -1248    -1038     -918     -901     -905 
    -939     -980     -930     -746     -614     -777    -1012     -868 
    -515     -469     -689     -814     -799     -781     -842     -949 
    -950     -842     -859    -1111    -1318    -1075     -519     -384 
    -882    -1296    -1135     -784     -742     -918     -899     -711 
    -723     -913     -967     -807     -581     -498     -614     -715 
    -683     -727     -911     -974     -874     -832     -895     -989 
   -1084    -1143    -1186    -1169     -982     -810     -832     -826 
    -668     -580     -626     -706     -776     -741     -615     -612 
    -764     -845     -764     -662     -658     -776     -972    -1097 
   -1081    -1078    -1170    -1267    -1323    -1306    -1170    -1030 
    -970     -820     -562     -472     -581     -666     -745     -923 
   -1005     -904     -878     -963     -923     -766     -630     -515 
    -441     -459     -594     -801     -891     -859     -912    -1021 
   -1047    -1023    -1001    -1020    -1100    -1155    -1097     -911 
    -679     -515     -518     -753    -1067    -1165    -1016     -807 
    -680     -697     -823     -904     -801     -610     -592     -766 
    -886     -846     -770     -811     -953     -994     -899     -919 
   -1074    -1071     -895     -857    -1055    -1231    -1119     -804 
    -594     -637     -810     -919     -915     -837     -703     -643 
    -750     -880     -934     -939     -845     -633     -395     -298 
    -433     -665     -819     -913    -1024    -1138    -1233    -1279 
   -1216    -1032     -791     -588     -508     -561     -699     -908 
   -1119    -1192    -1132    -1108    -1127    -1038     -900     -897 
    -927     -749     -426     -344     -646     -970    -1021     -953 
    -963    -1019    -1027     -988     -928     -909    -1043    -1244 
   -1177     -811     -571     -603     -584     -368     -201     -230 
    -278     -232     -268     -515     -893    -1182    -1144     -962 
   -1054    -1372    -1598    -1705    -1723    -1555    -1254     -988 
    -826     -795     -861     -828     -637     -557     -720     -865 
    -819     -723     -673     -614     -450     -162       66      -18 
    -344     -573     -629     -826    -1289    -1595    -1437    -1170 
   -1204    -1405    -1429    -1208     -958     -889     -926     -872 
    -768     -812     -953     -962     -881     -965    -1144    -1062 
    -733     -579     -706     -793     -646     -411     -297     -357 
    -490     -585     -692     -889    -1040     -973     -849     -868 
    -908     -901     -976    -1084    -1081    -1039    -1100    -1210 
   -1188    -1004     -820     -776     -893    -1071    -1163    -1169 
   -1147    -1009     -642     -178      137      187      -43     -418 
    -710     -857     -928     -938     -945    -1051    -1223    -1262 
   -1155    -1189    -1439    -1582    -1455    -1275    -1167     -981 
    -668     -441     -427     -507     -567     -575     -562     -622 
    -711     -683     -585     -525     -471     -508     -730    -1013 
   -1260    -1449    -1482    -1327    -1139    -1078    -1050     -814 
    -402      -94      -18     -191     -639    -1217    -1583    -1516 
   -1140     -734     -526     -719    -1205    -1447    -1216     -926 
    -913    -1039    -1069     -989     -909     -866     -751     -496 
    -294     -383     -623     -692     -561     -448     -495     -697 
    -924    -1061    -1127    -1131    -1051     -985    -1028    -1125 
   -1138     -993     -784     -618     -525     -521     -557     -518 
    -383     -349     -616    -1040    -1340    -1505    -1583    -1528 
   -1413    -1305    -1107     -858     -780     -793     -542     -143 
     -90     -341     -507     -650     -950    -1177    -1155    -1070 
   -1039     -963     -830     -720     -687     -804    -1104    -1366 
   -1317     -999     -657     -438     -371     -441     -611     -830 
   -1000    -1009     -874     -799     -916    -1051    -1036     -980 
   -1007    -1024     -924     -841     -897     -899     -743     -643 
    -652     -603     -531     -614     -823    -1005    -1097    -1051 
    -859     -716     -807    -1017    -1156    -1216    -1231    -1201 
   -1109     -918     -676     -550     -650     -885    -1042     -994 
    -816     -657     -569     -495     -441     -534     -827    -1119 
   -1147     -918     -699     -657     -681     -650     -642     -770 
    -930     -919     -815     -876    -1071    -1181    -1201    -1220 
   -1177    -1007     -811     -691     -652     -716     -862     -896 
    -768     -715     -815     -870     -799     -691     -569     -406 
    -284     -399     -805    -1229    -1336    -1173    -1028     -978 
    -908     -815     -760     -727     -738     -839     -963    -1008 
   -1027    -1128    -1247    -1250    -1192    -1212    -1221    -1047 
    -758     -521     -359     -272     -294     -445     -727     -977 
   -1012     -889     -745     -634     -629     -777     -972    -1075 
   -1120    -1147    -1070     -907     -785     -706     -635     -611 
    -642     -749     -896     -927     -831     -805     -951    -1144 
   -1201    -1094    -1023    -1132    -1237    -1098     -801     -618 
    -619     -697     -773     -801     -793     -818     -854     -826 
    -768     -764     -800     -796     -734     -739     -897    -1077 
   -1142    -1112    -1038     -946     -842     -711     -652     -764 
    -932     -984     -939     -884     -801     -680     -594     -541 
    -467     -418     -469     -568     -675     -837    -1053    -1236 
   -1296    -1188     -996     -889     -889     -891     -930    -1113 
   -1294    -1244    -1013     -785     -596     -433     -364     -444 
    -596     -700     -724     -750     -858    -1008    -1116    -1146 
   -1128    -1165    -1283    -1352    -1273    -1094     -885     -696 
    -611     -621     -646     -683     -724     -696     -584     -510 
    -630     -864     -919     -743     -637     -743     -870     -884 
    -862     -880     -904     -903     -909    -1019    -1236    -1355 
   -1209     -931     -684     -490     -405     -473     -575     -583 
    -577     -704     -938    -1155    -1274    -1270    -1197    -1127 
   -1075    -1028     -936     -780     -700     -807     -947     -927 
    -803     -765     -822     -788     -634     -572     -654     -722 
    -691     -604     -589     -761    -1003    -1088    -1030    -1003 
   -1026     -967     -803     -700     -796    -1011    -1163    -1154 
   -1046     -963     -967    -1013     -994     -855     -684     -591 
    -545     -495     -480     -515     -592     -704     -787     -820 
    -884    -1034    -1223    -1323    -1266    -1134    -1011     -880 
    -731     -608     -548     -576     -712     -899    -1020    -1070 
   -1105    -1051     -858     -681     -646     -676     -676     -657 
    -672     -769     -934    -1024     -965     -896     -961    -1054 
    -993     -831     -753     -777     -830     -891     -924     -882 
    -810     -811     -873     -889     -842     -777     -696     -661 
    -722     -835     -973    -1088    -1075     -993     -963     -931 
    -847     -774     -738     -750     -820     -877     -892     -918 
    -945     -940     -932     -897     -800     -704     -745     -924 
   -1034     -923     -746     -702     -783     -845     -811     -773 
    -810     -826     -815     -896    -1044    -1134    -1082     -920 
    -807     -816     -877     -911     -864     -768     -716     -660 
    -564     -517     -553     -696     -926    -1047     -958     -812 
    -758     -770     -742     -692     -749     -897     -999    -1003 
    -924     -837     -877    -1024    -1070     -942     -777     -692 
    -649     -621     -677     -808     -877     -831     -772     -803 
    -930    -1030    -1015     -986    -1039    -1093    -1080    -1051 
   -1036     -996     -936     -918     -920     -839     -730     -726 
    -768     -789     -835     -851     -780     -696     -697     -801 
    -915     -931     -865     -805     -807     -888     -999    -1042 
    -976     -877     -861     -949    -1046    -1082    -1038     -919 
    -746     -580     -534     -633     -711     -691     -691     -756 
    -846     -943     -966     -889     -884    -1044    -1156    -1007 
    -742     -614     -627     -675     -722     -792     -897     -976 
    -992    -1004    -1021     -972     -878     -839     -849     -842 
    -842     -889     -927     -881     -788     -738     -739     -743 
