Origin Time       2025/03/28 03:50:00
Lat.              35.403
Long.             140.360
Depth. (km)       54
Mag.              4.4
Station Code      TKY004
Station Lat.      35.6301
Station Long.     139.4034
Station Height(m) 81
Record Time       2025/03/28 03:50:55
Sampling Freq(Hz) 100Hz
Duration Time(s)  69
Dir.              U-D
Scale Factor      7845(gal)/8223790
Max. Acc. (gal)   3.859
Last Correction   2025/03/28 03:50:55
Memo.             
[...]
    8970     8970     8969     8969     8974     8976     8972     8974 
    8973     8968     8969     8972     8974     8978     8984     8981 
    8969     8961     8969     8980     8974     8969     8976     8970 
    8959     8968     8976     8969     8968     8980     8981     8966 
    8968     8982     8977     8965     8972     8978     8970     8966 
    8974     8977     8969     8968     8973     8969     8958     8965 
    8981     8986     8980     8974     8973     8966     8958     8965 
    8977     8973     8968     8977     8981     8974     8973     8974 
    8966     8959     8970     8976     8965     8964     8977     8977 
    8968     8974     8982     8973     8965     8973     8977     8972 
    8973     8984     8981     8968     8968     8976     8965     8957 
    8969     8978     8968     8962     8972     8970     8958     8965 
    8985     8991     8981     8974     8974     8966     8951     8958 
    8978     8981     8980     8985     8981     8966     8962     8968 
    8966     8962     8970     8976     8969     8969     8981     8980 
    8972     8976     8981     8972     8968     8978     8982     8969 
    8961     8970     8970     8962     8972     8985     8977     8962 
    8969     8977     8970     8969     8976     8977     8972     8976 
    8986     8989     8980     8972     8970     8965     8961     8966 
    8974     8973     8966     8977     8985     8973     8969     8978 
    8973     8961     8965     8972     8969     8972     8980     8977 
    8970     8976     8984     8973     8962     8973     8981     8970 
    8962     8965     8970     8973     8981     8989     8982     8966 
    8958     8964     8970     8970     8970     8972     8968     8965 
    8974     8981     8977     8977     8982     8974     8965     8970 
    8977     8970     8968     8977     8976     8962     8964     8974 
    8973     8969     8978     8984     8968     8957     8970     8978 
    8970     8972     8980     8974     8970     8981     8985     8974 
    8965     8968     8972     8969     8969     8980     8978     8966 
    8970     8981     8976     8969     8974     8977     8966     8965 
    8980     8985     8973     8968     8978     8976     8961     8964 
    8973     8966     8959     8968     8974     8970     8969     8977 
    8976     8966     8970     8978     8970     8962     8974     8985 
    8974     8969     8973     8970     8966     8974     8981     8972 
    8965     8970     8978     8974     8969     8970     8969     8959 
    8966     8982     8981     8970     8970     8973     8966     8964 
    8976     8980     8970     8966     8974     8977     8970     8974 
    8980     8972     8965     8973     8976     8968     8968     8980 
    8980     8972     8973     8977     8969     8964     8970     8978 
    8973     8970     8976     8976     8972     8976     8977     8970 
    8969     8977     8978     8972     8969     8976     8978     8970 
    8968     8976     8976     8973     8978     8982     8974     8966 
    8973     8974     8965     8966     8981     8980     8966     8966 
    8976     8974     8969     8977     8985     8980     8976     8984 
    8982     8968     8966     8974     8969     8966     8974     8976 
    8968     8966     8977     8980     8969     8965     8972     8972 
    8968     8973     8984     8981     8968     8968     8972     8965 
    8962     8973     8976     8965     8969     8981     8973     8961 
    8969     8977     8970     8968     8981     8984     8973     8974 
    8980     8965     8951     8961     8970     8964     8964     8978 
    8982     8972     8965     8974     8976     8966     8973     8984 
    8974     8958     8964     8978     8978     8969     8969     8974 
    8972     8970     8976     8973     8966     8974     8982     8972 
    8969     8978     8974     8964     8968     8977     8974     8968 
    8972     8977     8970     8968     8980     8984     8970     8968 
    8976     8970     8964     8974     8980     8972     8972     8981 
    8978     8965     8964     8973     8976     8969     8968     8973 
    8973     8969     8970     8973     8966     8962     8970     8976 
    8968     8968     8980     8978     8965     8965     8972     8969 
    8962     8966     8974     8973     8973     8980     8973     8958 
    8962     8969     8962     8961     8977     8985     8976     8974 
    8978     8969     8958     8965     8973     8969     8970     8980 
    8981     8970     8966     8974     8977     8970     8972     8978 
    8973     8964     8965     8970     8969     8964     8976     8984 
    8972     8965     8974     8973     8965     8969     8978     8974 
    8966     8973     8980     8973     8970     8977     8973     8961 
    8965     8974     8978     8984     8991     8986     8969     8954 
    8957     8959     8955     8968     8984     8980     8974     8981 
    8981     8968     8961     8968     8972     8968     8966     8977 
    8981     8978     8977     8974     8961     8951     8964     8980 
    8977     8976     8985     8982     8970     8969     8976     8972 
    8964     8970     8982     8978     8969     8973     8976     8964 
    8962     8973     8973     8968     8977     8984     8974     8968 
    8974     8974     8962     8961     8970     8976     8978     8986 
    8988     8974     8961     8964     8969     8962     8962     8976 
    8980     8973     8978     8989     8980     8962     8964     8974 
    8969     8959     8965     8970     8965     8974     8992     8981 
    8961     8964     8974     8973     8970     8976     8976     8964 
    8962     8972     8973     8968     8973     8980     8977     8973 
    8973     8973     8966     8966     8977     8981     8974     8970 
    8969     8965     8966     8977     8982     8970     8961     8966 
    8972     8968     8968     8976     8972     8962     8968     8982 
    8981     8974     8977     8978     8969     8968     8978     8974 
    8959     8965     8981     8977     8968     8974     8980     8974 
    8976     8984     8978     8965     8968     8980     8977     8964 
    8965     8972     8966     8970     8986     8985     8969     8966 
    8974     8969     8964     8974     8980     8970     8965     8976 
    8978     8970     8970     8977     8974     8968     8974     8982 
    8973     8964     8977     8989     8978     8970     8977     8970 
    8958     8968     8981     8973     8966     8980     8982     8970 
    8969     8972     8966     8965     8973     8978     8969     8964 
    8973     8978     8974     8976     8981     8981     8972     8966 
    8970     8970     8966     8973     8984     8980     8970     8973 
    8976     8968     8965     8970     8969     8961     8968     8982 
    8974     8965     8977     8982     8969     8968     8978     8977 
    8965     8964     8973     8973     8962     8955     8962     8970 
    8977     8986     8985     8970     8966     8976     8970     8955 
    8961     8973     8970     8970     8981     8982     8970     8968 
    8974     8972     8968     8973     8974     8968     8966     8976 
    8978     8968     8964     8973     8977     8972     8973     8981 
    8977     8962     8965     8980     8974     8962     8969     8972 
    8969     8981     8988     8973     8962     8970     8976     8970 
    8970     8978     8980     8969     8968     8976     8974     8965 
    8966     8978     8980     8977     8977     8973     8962     8964 
    8974     8978     8973     8973     8977     8972     8965     8974 
    8982     8968     8957     8970     8980     8972     8970     8981 
    8976     8959     8965     8978     8973     8966     8973     8980 
    8973     8969     8972     8968     8962     8972     8984     8980 
    8972     8976     8978     8966     8964     8977     8981     8972 
    8973     8985     8981     8965     8965     8973     8973     8974 
    8982     8980     8968     8970     8980     8974     8966     8973 
    8978     8973     8969     8977     8981     8973     8968     8974 
    8974     8968     8969     8974     8965     8964     8977     8980 
    8968     8964     8974     8974     8968     8976     8986     8982 
    8973     8973     8977     8970     8964     8968     8969     8966 
    8972     8980     8978     8972     8973     8976     8968     8962 
    8974     8980     8966     8964     8976     8973     8962     8968 
    8978     8970     8959     8969     8976     8968     8972     8985 
    8982     8970     8974     8978     8972     8965     8969     8972 
    8968     8966     8974     8977     8970     8968     8978     8984 
    8974     8970     8973     8965     8961     8973     8980     8968 
    8965     8976     8980     8973     8969     8970     8966     8964 
    8974     8984     8973     8962     8969     8974     8969     8976 
    8982     8970     8959     8970     8982     8978     8973     8973 
    8966     8961     8972     8981     8974     8964     8970     8980 
    8973     8964     8964     8964     8968     8981     8988     8978 
    8968     8968     8968     8969     8977     8980     8969     8962 
    8976     8986     8977     8966     8966     8973     8978     8981 
    8980     8965     8950     8962     8986     8996     8988     8969 
    8950     8950     8976     8999     8988     8962     8954     8962 
    8973     8986     8992     8976     8961     8970     8980     8973 
    8973     8981     8980     8977     8977     8968     8958     8961 
    8972     8980     8984     8981     8966     8954     8959     8978 
    8989     8989     8982     8966     8946     8953     8984     8995 
    8976     8964     8968     8972     8973     8977     8976     8968 
    8962     8969     8980     8981     8972     8959     8962     8976 
    8986     8985     8973     8964     8961     8966     8978     8986 
    8976     8962     8968     8980     8977     8966     8965     8970 
    8973     8973     8978     8976     8965     8965     8973     8970 
    8968     8976     8974     8965     8965     8969     8969     8974 
    8984     8981     8972     8969     8969     8962     8964     8972 
    8972     8965     8970     8980     8974     8968     8970     8966 
    8962     8973     8980     8973     8968     8972     8974     8972 
    8973     8973     8968     8969     8977     8973     8964     8962 
    8968     8970     8973     8977     8977     8969     8962     8966 
    8969     8968     8969     8976     8982     8982     8976     8966 
    8962     8969     8978     8981     8976     8972     8968     8962 
    8961     8969     8976     8973     8973     8980     8977     8972 
    8974     8977     8970     8966     8972     8978     8978     8977 
    8974     8969     8969     8976     8973     8964     8965     8968 
    8965     8968     8982     8988     8974     8968     8976     8977 
    8973     8972     8974     8972     8970     8970     8964     8961 
    8973     8981     8978     8976     8977     8974     8966     8968 
    8976     8976     8976     8978     8973     8972     8981     8985 
    8976     8965     8962     8959     8961     8972     8980     8972 
    8964     8970     8973     8968     8973     8980     8973     8966 
    8970     8974     8974     8976     8974     8968     8969     8978 
    8981     8976     8970     8970     8969     8968     8974     8981 
    8974     8968     8969     8968     8966     8972     8981     8980 
    8972     8970     8974     8970     8961     8959     8964     8970 
    8981     8986     8981     8972     8968     8969     8968     8968 
    8974     8980     8978     8978     8976     8972     8976     8981 
    8976     8969     8968     8969     8970     8970     8974     8974 
    8973     8978     8981     8974     8970     8966     8962     8961 
    8966     8974     8977     8976     8973     8969     8970     8976 
    8980     8976     8968     8966     8969     8968     8970     8978 
    8978     8974     8973     8973     8974     8977     8972     8965 
    8968     8974     8981     8982     8978     8970     8961     8958 
    8965     8976     8981     8976     8973     8973     8972     8974 
    8980     8974     8968     8970     8970     8964     8959     8962 
    8965     8972     8982     8991     8985     8966     8961     8966 
    8970     8978     8985     8973     8959     8966     8977     8978 
    8980     8982     8978     8973     8973     8968     8961     8966 
    8978     8982     8978     8976     8970     8965     8966     8969 
    8968     8972     8985     8986     8969     8961     8969     8974 
    8976     8978     8977     8969     8966     8974     8978     8970 
    8965     8973     8982     8984     8981     8980     8976     8973 
    8976     8974     8969     8970     8974     8981     8988     8978 
    8959     8953     8964     8978     8984     8982     8982     8978 
    8969     8968     8969     8962     8958     8973     8988     8978 
    8968     8972     8977     8976     8976     8977     8973     8970 
    8974     8972     8966     8974     8982     8977     8972     8977 
    8977     8972     8969     8970     8965     8958     8965     8977 
    8973     8968     8984     9011     9050     9120     9185     9209 
    9186     9120     9032     8989     9054     9224     9423     9497 
    9262     8621     7757     7142     7272     8276     9725    10766 
   10638     9231     7325     6276     7114     9578    12124    13018 
   11588     8715     6097     5066     6003     8332    10814    12129 
   11551     9497     7264     6045     6427     8294    10719    12349 
   12202    10305     7816     6208     6174     7420     9100    10260 
   10531    10269     9871     9455     8834     7812     7080     7645 
    9328    10898    11101     9632     7457     6027     6399     8324 
   10334    11368    11264    10273     9085     8195     7570     7396 
    8101     9585    10906    11055     9938     8239     6843     6511 
    7352     8770    10064    10714    10481     9672     8942     8480 
    8047     7790     8124     9055    10081    10512    10056     9078 
    8106     7596     7861     8586     9119     9333     9494     9693 
    9690     9317     8831     8490     8424     8723     9026     9050 
    9105     9327     9504     9448     8958     8190     7736     7857 
    8527     9705    10748    10914    10126     8649     7291     6987 
    7593     8565     9632    10269    10206     9668     8869     8158 
    7827     7909     8455     9263     9917    10134     9822     9304 
    8904     8496     8140     8033     8141     8696     9724    10440 
   10370     9695     8642     7766     7669     8236     9089     9856 
   10137     9911     9208     8139     7493     7773     8563     9354 
    9765     9670     9464     9398     9255     8945     8607     8395 
    8395     8564     8887     9278     9439     9371     9290     9066 
    8664     8430     8664     9310     9841     9734     9117     8390 
    7866     7846     8387     9285    10096    10137     9228     8213 
    7987     8499     9219     9776     9977     9826     9346     8594 
    8051     8155     8692     9177     9258     8930     8603     8490 
    8463     8641     9120     9570     9652     9370     9076     9094 
    9150     8868     8480     8355     8548     8966     9364     9564 
    9555     9217     8599     8133     8245     8977     9710     9748 
    9256     8814     8617     8627     8775     8992     9220     9309 
    9138     8827     8641     8721     9019     9350     9481     9328 
    8980     8559     8271     8345     8804     9359     9555     9171 
    8505     8113     8367     9111     9738     9803     9448     9072 
    8845     8730     8733     8829     8883     8893     8915     8904 
    8943     9166     9387     9340     9135     8982     8826     8646 
    8556     8542     8622     8849     9082     9184     9212     9240 
    9292     9342     9209     8846     8575     8592     8822     9155 
    9358     9236     8927     8630     8409     8394     8680     9109 
    9406     9441     9375     9301     9070     8845     8959     9240 
    9375     9271     8865     8344     8085     8291     8937     9649 
    9938     9624     8864     8198     8155     8544     8964     9359 
    9593     9466     9004     8475     8371     8795     9277     9471 
    9300     8910     8607     8472     8542     8897     9359     9676 
    9671     9398     9076     8683     8355     8386     8588     8703 
    8762     8851     9112     9508     9769     9729     9366     8808 
    8264     7924     8040     8703     9571    10106    10017     9397 
    8488     7631     7366     8056     9351    10392    10559     9937 
    9000     8135     7778     8230     9153     9876     9911     9193 
    8294     7931     8240     8923     9625    10057    10052     9512 
    8614     7932     7873     8317     8896     9292     9414     9381 
    9262     9080     8937     8896     8914     8914     8826     8729 
    8764     8900     9061     9252     9371     9331     9240     9096 
    8831     8599     8506     8573     8785     8993     9246     9528 
    9510     9227     8945     8679     8499     8442     8479     8806 
    9381     9752     9694     9391     9085     8856     8681     8584 
    8598     8725     8885     8878     8738     8789     9097     9370 
    9377     9181     9009     8924     8822     8677     8599     8721 
    8959     9076     9028     8996     9093     9227     9251     9163 
    9040     8884     8667     8510     8629     9009     9347     9405 
    9247     9072     8912     8653     8388     8430     8830     9238 
    9283     9019     8806     8800     8916     9119     9321     9351 
    9190     8892     8495     8272     8500     9040     9571     9884 
    9771     9185     8487     8187     8468     9046     9441     9444 
    9175     8845     8660     8725     9005     9369     9545     9374 
    8974     8526     8225     8286     8696     9216     9570     9505 
    9035     8575     8457     8669     9001     9175     9171     9157 
    9038     8804     8710     8845     9131     9363     9248     8837 
    8514     8530     8762     8945     9000     9034     9139     9244 
    9202     9069     9013     9066     9146     9111     8950     8820 
    8743     8735     8905     9163     9342     9381     9215     8874 
    8607     8606     8796     9023     9198     9304     9382     9323 
    8970     8554     8440     8671     9039     9242     9192     9113 
    9107     9043     8799     8429     8182     8203     8483     9039 
    9680     9979     9694     9016     8449     8356     8665     9034 
    9182     9211     9362     9536     9516     9316     9050     8841 
    8735     8650     8586     8590     8587     8534     8537     8725 
    9112     9562     9830     9722     9300     8793     8394     8264 
    8467     8865     9240     9432     9423     9296     9136     9045 
    8978     8758     8434     8252     8318     8671     9240     9693 
    9744     9470     9084     8776     8704     8857     9082     9246 
    9185     8877     8573     8498     8665     9015     9379     9485 
    9194     8650     8230     8233     8513     8795     9053     9320 
