Origin Time       2025/03/28 03:50:00
Lat.              35.403
Long.             140.360
Depth. (km)       54
Mag.              4.4
Station Code      TKY027
Station Lat.      35.6930
Station Long.     139.8913
Station Height(m) 1
Record Time       2025/03/28 03:51:01
Sampling Freq(Hz) 100Hz
Duration Time(s)  60
Dir.              U-D
Scale Factor      7845(gal)/8223790
Max. Acc. (gal)   1.642
Last Correction   2025/03/28 03:51:01
Memo.             
[...]
    4841     4850     4849     4841     4835     4847     4857     4849 
    4837     4828     4830     4841     4851     4845     4834     4841 
    4850     4845     4831     4827     4841     4853     4846     4838 
    4837     4833     4838     4846     4842     4831     4831     4847 
    4849     4831     4820     4819     4830     4846     4845     4841 
    4842     4853     4860     4849     4842     4854     4861     4850 
    4833     4824     4833     4837     4838     4828     4819     4835 
    4843     4823     4820     4849     4865     4854     4846     4853 
    4841     4823     4830     4846     4847     4845     4847     4847 
    4838     4824     4824     4831     4831     4826     4820     4828 
    4843     4845     4842     4854     4857     4846     4843     4842 
    4835     4841     4855     4853     4827     4814     4824     4826 
    4827     4837     4828     4824     4843     4857     4851     4841 
    4841     4843     4833     4826     4835     4842     4843     4842 
    4834     4820     4819     4828     4833     4838     4841     4843 
    4855     4857     4851     4862     4860     4846     4847     4846 
    4826     4810     4812     4823     4828     4837     4841     4833 
    4826     4827     4834     4837     4830     4822     4831     4847 
    4850     4847     4838     4842     4861     4855     4837     4835 
    4831     4822     4823     4826     4828     4843     4861     4855 
    4827     4818     4838     4855     4849     4846     4846     4828 
    4815     4820     4837     4842     4834     4827     4818     4812 
    4833     4853     4854     4847     4837     4835     4830     4815 
    4827     4853     4853     4842     4839     4849     4860     4845 
    4828     4839     4839     4820     4828     4847     4841     4835 
    4846     4850     4847     4845     4841     4824     4816     4823 
    4823     4823     4833     4835     4835     4837     4831     4820 
    4816     4826     4838     4847     4855     4864     4865     4860 
    4858     4857     4854     4843     4823     4835     4868     4860 
    4831     4822     4827     4834     4828     4819     4823     4834 
    4838     4841     4846     4841     4833     4833     4826     4811 
    4814     4838     4853     4854     4850     4839     4842     4845 
    4830     4816     4816     4831     4849     4853     4854     4857 
    4858     4849     4827     4827     4846     4837     4820     4842 
    4872     4874     4858     4837     4823     4826     4838     4839 
    4834     4841     4849     4835     4824     4842     4849     4828 
    4823     4830     4830     4826     4814     4806     4830     4855 
    4841     4828     4828     4815     4814     4835     4851     4858 
    4849     4838     4842     4841     4835     4831     4819     4826 
    4846     4846     4846     4846     4827     4815     4828     4850 
    4858     4847     4845     4845     4843     4849     4837     4818 
    4820     4824     4814     4816     4837     4841     4843     4850 
    4841     4841     4858     4864     4849     4839     4838     4833 
    4827     4826     4827     4839     4851     4834     4804     4797 
    4814     4827     4834     4850     4873     4872     4861     4869 
    4873     4868     4878     4900     4920     4941     4939     4912 
    4887     4880     4893     4895     4868     4811     4695     4560 
    4530     4639     4812     4908     4849     4772     4831     4973 
    5050     5015     4957     4915     4800     4603     4475     4560 
    4808     4999     4973     4816     4677     4627     4729     4907 
    4969     4920     4930     5012     5044     4966     4831     4753 
    4783     4855     4862     4818     4828     4889     4876     4720 
    4558     4606     4800     4862     4796     4812     4899     4951 
    4985     5009     5024     4997     4845     4666     4650     4714 
    4704     4741     4912     5027     4920     4698     4581     4645 
    4758     4896     5152     5367     5258     4854     4475     4415 
    4689     4996     5030     4864     4814     4854     4725     4546 
    4610     4860     5135     5370     5308     4820     4452     4688 
    5058     4959     4673     4672     4826     4905     4903     4774 
    4602     4611     4662     4525     4488     4761     4993     5031 
    5035     4922     4737     4826     5089     5158     5124     5157 
    5128     4957     4707     4517     4581     4905     5198     5209 
    4984     4768     4638     4494     4411     4553     4854     5128 
    5213     5047     4828     4773     4773     4729     4779     4849 
    4669     4469     4596     4711     4592     4661     4920     4984 
    4986     5113     5113     4934     4810     4776     4795     4885 
    4928     4920     5023     5143     5062     4850     4707     4673 
    4671     4672     4715     4754     4750     4854     5074     5063 
    4826     4835     5004     4780     4344     4286     4522     4723 
    4923     5039     4903     4753     4835     4982     5022     5026 
    5026     4954     4822     4685     4607     4685     4865     4962 
    4966     4999     5031     5008     4946     4823     4703     4725 
    4726     4576     4588     4847     4988     4978     5005     4951 
    4799     4779     4833     4799     4839     5026     5074     4893 
    4719     4729     4912     5096     5069     4880     4699     4523 
    4461     4696     4974     4973     4912     5000     4985     4803 
    4707     4677     4588     4585     4737     4866     4896     4889 
    4849     4783     4743     4710     4700     4801     4943     5036 
    5132     5188     5049     4785     4644     4664     4714     4787 
    4912     4977     4904     4768     4671     4639     4652     4689 
    4738     4806     4954     5151     5205     5089     5004     4970 
    4873     4762     4668     4583     4638     4780     4827     4850 
    4896     4854     4838     4939     4892     4587     4353     4484 
    4826     4976     4842     4733     4846     5062     5228     5292 
    5244     5111     4918     4725     4652     4723     4773     4723 
    4731     4749     4510     4243     4398     4768     4982     5166 
    5328     5189     4827     4604     4590     4626     4733     4959 
    5148     5189     5143     5028     4788     4522     4453     4600 
    4769     4924     5165     5363     5304     5038     4785     4639 
    4558     4544     4585     4565     4507     4641     4961     5144 
    5071     4972     4973     4972     4872     4635     4419     4575 
    5092     5481     5489     5316     5053     4644     4244     4023 
    3932     4066     4592     5227     5530     5520     5382     5077 
    4619     4315     4395     4646     4749     4811     5049     5252 
    5251     5224     5111     4702     4290     4282     4575     4887 
    5127     5263     5255     5142     5004     4853     4688     4603 
    4637     4672     4604     4491     4483     4623     4823     5030 
    5278     5455     5352     5022     4680     4450     4392     4486 
    4573     4572     4599     4793     5074     5258     5320     5293 
    5130     4936     4896     4884     4725     4581     4621     4737 
    4833     4827     4588     4338     4426     4688     4816     4872 
    5016     5225     5358     5320     5131     4881     4656     4477 
    4367     4449     4800     5197     5302     5161     5070     5044 
    4911     4646     4338     4167     4311     4650     4877     4887 
    4800     4781     4847     4872     4801     4745     4788     4939 
    5157     5273     5157     4985     4947     4895     4777     4792 
    4823     4723     4741     4895     4877     4797     4858     4799 
    4612     4760     5192     5387     5282     5113     4900     4661 
    4525     4484     4460     4379     4237     4209     4411     4684 
    4891     5026     4990     4847     4928     5211     5317     5255 
    5219     5131     4972     4877     4873     4936     4962     4811 
    4658     4706     4826     4927     4997     4896     4626     4409 
    4382     4529     4761     4999     5223     5347     5204     4833 
    4487     4302     4320     4623     5011     5166     5198     5277 
    5213     4963     4764     4656     4500     4286     4186     4315 
    4557     4824     5171     5467     5506     5374     5232     4977 
    4584     4347     4353     4440     4652     4984     5127     5069 
    5089     5097     4878     4672     4700     4773     4793     4896 
    4978     4842     4634     4644     4839     4982     5039     5131 
    5193     5059     4824     4707     4696     4629     4446     4297 
    4406     4756     5039     5109     5116     5111     4992     4803 
    4641     4565     4684     4988     5246     5325     5265     5081 
    4896     4907     4932     4648     4286     4272     4464     4599 
    4793     5023     5104     5181     5339     5251     4881     4676 
    4722     4623     4320     4183     4313     4552     4892     5236 
    5329     5186     5016     4878     4723     4553     4453     4504 
    4719     5016     5217     5152     4916     4789     4787     4671 
    4509     4573     4814     5019     5174     5300     5321     5260 
    5163     4946     4584     4302     4291     4455     4564     4541 
    4552     4749     4977     4990     4854     4758     4719     4737 
    4884     5119     5312     5356     5182     4865     4639     4649 
    4789     4864     4850     4828     4722     4553     4600     4866 
    5004     4953     4972     5077     5070     4942     4824     4783 
    4788     4762     4706     4702     4768     4851     4855     4735 
    4626     4606     4599     4654     4822     4938     4978     5125 
    5335     5341     5069     4719     4492     4429     4463     4540 
    4664     4762     4769     4777     4861     4926     4897     4784 
    4644     4600     4704     4841     4950     5071     5130     5049 
    4966     4995     5061     5136     5173     5013     4750     4617 
    4585     4639     4865     5043     4992     4962     5065     5074 
    4988     4934     4842     4712     4661     4635     4585     4588 
    4634     4711     4861     4965     4942     4945     4953     4845 
    4781     4899     5051     5130     5152     5097     4953     4801 
    4722     4704     4614     4371     4183     4243     4401     4525 
    4671     4814     4909     4973     4981     4961     4973     4934 
    4788     4692     4745     4865     5053     5267     5286     5112 
    4986     4927     4888     4969     5065     4988     4880     4799 
    4529     4221     4278     4590     4799     4908     5026     5080 
    4989     4806     4629     4503     4467     4621     4972     5296 
    5348     5179     5020     4939     4857     4753     4633     4553 
    4637     4842     4943     4858     4770     4885     5161     5317 
    5205     4986     4824     4668     4491     4407     4457     4614 
    4864     5089     5151     5121     5051     4853     4599     4472 
    4498     4606     4769     4980     5151     5173     5112     5081 
    5038     4911     4731     4573     4499     4533     4658     4834 
    5015     5142     5152     5076     5012     4969     4853     4650 
    4413     4198     4114     4301     4706     5022     5059     5013 
    5076     5125     5081     5065     5071     4985     4839     4756 
    4762     4857     4972     4996     5007     5144     5254     5146 
    4957     4873     4877     4858     4696     4398     4164     4140 
    4301     4585     4895     5147     5373     5502     5341     4968 
    4708     4639     4635     4729     4931     5086     5158     5229 
    5259     5119     4830     4627     4692     4866     4889     4815 
    4808     4758     4549     4367     4342     4369     4403     4492 
    4602     4661     4644     4594     4568     4537     4496     4617 
    4992     5394     5583     5548     5310     4897     4557     4471 
    4446     4361     4442     4729     4936     4963     4931     4924 
    4985     5076     5101     5092     5049     4854     4592     4472 
    4448     4395     4437     4702     5084     5429     5674     5736 
    5564     5242     4855     4484     4341     4523     4777     4889 
    4950     4993     4931     4877     4955     4990     4862     4743 
    4726     4680     4599     4639     4770     4837     4830     4835 
    4812     4707     4635     4734     4951     5163     5300     5309 
    5192     5022     4841     4591     4249     3944     3773     3744 
    3902     4230     4594     4969     5400     5768     5945     5904 
    5629     5213     4816     4423     4013     3809     3979     4433 
    5028     5589     5900     5926     5782     5537     5283     5090 
    4807     4297     3798     3573     3593     3821     4209     4579 
    4904     5290     5632     5760     5737     5644     5448     5192 
    4860     4348     3865     3775     4029     4325     4598     4908 
    5233     5539     5814     5967     5899     5645     5252     4742 
    4230     3836     3642     3705     3969     4338     4792     5213 
    5444     5522     5591     5651     5582     5378     5101     4706 
    4185     3713     3450     3369     3406     3651     4198     4928 
    5628     6139     6367     6351     6218     6033     5768     5359 
    4814     4256     3844     3650     3615     3724     4095     4746 
    5428     5957     6358     6559     6416     5994     5414     4726 
    4055     3618     3485     3564     3819     4247     4645     4837 
    4870     4830     4789     4849     4963     5016     4995     4922 
    4739     4360     3846     3492     3542     3933     4509     5189 
    5837     6264     6409     6284     5880     5337     4985     4939 
    4922     4804     4792     4864     4797     4664     4627     4572 
    4388     4257     4302     4450     4691     4993     5193     5242 
    5219     5093     4909     4882     5034     5142     5117     5078 
    5044     4864     4554     4359     4345     4376     4438     4560 
    4638     4637     4664     4789     4992     5188     5262     5157 
    4905     4598     4293     3993     3781     3805     4082     4509 
    4946     5221     5283     5293     5373     5427     5347     5209 
    5084     4969     4916     4945     4986     5027     5058     5028 
    4932     4765     4604     4627     4857     5127     5278     5260 
    5159     5022     4784     4525     4398     4357     4347     4464 
    4685     4837     4911     4995     5044     4988     4868     4783 
    4796     4877     4949     5007     5092     5127     5000     4753 
    4537     4456     4491     4550     4590     4621     4649     4666 
    4679     4735     4861     4966     4978     4939     4857     4738 
    4654     4603     4575     4669     4880     5046     5093     5059 
    4970     4881     4885     4957     4993     5042     5227     5431 
    5387     5103     4785     4550     4417     4388     4459     4588 
    4734     4866     4974     5038     5000     4880     4868     5104 
    5445     5675     5764     5707     5416     4965     4583     4353 
    4202     4106     4109     4187     4239     4248     4333     4526 
    4693     4785     4866     4912     4914     4931     4932     4864 
    4784     4799     4900     4934     4855     4816     4897     5047 
    5274     5537     5672     5648     5602     5539     5340     5017 
    4683     4386     4141     3983     3951     4060     4220     4278 
    4261     4303     4391     4453     4548     4762     5034     5260 
    5443     5570     5551     5389     5193     5008     4830     4718 
    4707     4743     4812     4970     5221     5472     5614     5572 
    5328     4999     4760     4614     4440     4284     4272     4307 
    4283     4306     4399     4425     4407     4472     4575     4617 
    4631     4706     4855     5017     5101     5088     5032     4951 
    4855     4815     4881     5007     5104     5143     5151     5142 
    5111     5063     5015     4970     4935     4954     5032     5055 
    4945     4800     4700     4631     4602     4639     4716     4796 
    4908     5058     5142     5138     5143     5103     4914     4698 
    4580     4525     4530     4615     4696     4747     4835     4936 
    4980     4993     5003     4949     4796     4599     4390     4249 
    4329     4583     4806     4946     5081     5200     5228     5142 
    4919     4561     4205     4016     4000     4087     4272     4567 
    4909     5120     5074     4903     4823     4860     4932     5017 
    5103     5171     5236     5294     5308     5297     5302     5302 
    5259     5138     4955     4842     4881     4986     5043     5023 
    4970     4968     5071     5209     5242     5146     4969     4716 
    4407     4141     4002     3966     4004     4144     4353     4581 
    4857     5117     5194     5104     4999     4908     4835     4819 
    4843     4911     5036     5151     5173     5085     4926     4762 
    4637     4530     4436     4406     4488     4650     4784     4812 
    4768     4745     4792     4888     4949     4926     4907     4953 
    5008     5051     5065     5012     4968     4976     4947     4904 
    4888     4795     4652     4615     4648     4675     4789     4981 
    5154     5343     5485     5409     5201     5070     4974     4818 
    4707     4664     4603     4571     4575     4561     4598     4702 
    4729     4664     4614     4606     4623     4645     4627     4585 
    4568     4573     4611     4725     4870     4905     4815     4743 
    4773     4845     4877     4869     4854     4872     4974     5134 
    5252     5351     5487     5563     5476     5271     5019     4777 
    4637     4604     4584     4517     4469     4509     4629     4810 
    5026     5202     5258     5146     4887     4557     4253     4062 
    4025     4112     4264     4460     4671     4866     5065     5260 
    5366     5331     5238     5181     5128     5026     4911     4833 
    4768     4725     4725     4723     4695     4716     4834     4970 
    5017     4989     4966     4958     4946     4916     4824     4691 
    4602     4587     4625     4688     4742     4800     4838     4774 
    4675     4665     4725     4808     4912     4945     4858     4788 
    4816     4865     4892     4943     5038     5188     5373     5489 
    5498     5458     5346     5115     4855     4641     4445     4307 
    4268     4259     4283     4433     4650     4815     4936     5067 
    5162     5169     5096     4962     4819     4769     4810     4822 
    4772     4712     4666     4626     4602     4598     4595     4553 
    4498     4519     4622     4739     4865     4961     4953     4866 
    4816     4841     4897     4973     5061     5113     5113     5105 
    5088     5028     4962     4922     4868     4795     4766     4774 
    4764     4731     4695     4672     4714     4831     4951     5038 
    5143     5254     5266     5170     5054     4958     4884     4819 
    4735     4644     4585     4560     4596     4729     4850     4869 
    4862     4878     4841     4730     4617     4521     4433     4410 
    4494     4585     4598     4607     4662     4710     4761     4873 
