Origin Time       2025/03/28 03:50:00
Lat.              35.403
Long.             140.360
Depth. (km)       54
Mag.              4.4
Station Code      TKY016
Station Lat.      35.6486
Station Long.     139.7990
Station Height(m) 2
Record Time       2025/03/28 03:51:01
Sampling Freq(Hz) 100Hz
Duration Time(s)  60
Dir.              N-S
Scale Factor      7845(gal)/8223790
Max. Acc. (gal)   1.168
Last Correction   2025/03/28 03:51:01
Memo.             
[...]
   -3653    -3657    -3659    -3661    -3665    -3665    -3662    -3661 
   -3662    -3662    -3666    -3667    -3667    -3672    -3673    -3670 
   -3672    -3676    -3674    -3669    -3663    -3659    -3659    -3659 
   -3661    -3663    -3663    -3662    -3657    -3653    -3655    -3661 
   -3659    -3662    -3666    -3661    -3651    -3651    -3657    -3661 
   -3661    -3665    -3665    -3662    -3662    -3662    -3661    -3659 
   -3665    -3670    -3669    -3666    -3673    -3674    -3669    -3670 
   -3676    -3673    -3669    -3673    -3677    -3677    -3673    -3669 
   -3672    -3670    -3666    -3665    -3666    -3669    -3674    -3674 
   -3670    -3666    -3663    -3663    -3667    -3672    -3674    -3673 
   -3673    -3672    -3667    -3667    -3674    -3680    -3681    -3682 
   -3680    -3672    -3665    -3662    -3667    -3678    -3681    -3680 
   -3678    -3673    -3670    -3672    -3670    -3667    -3666    -3665 
   -3663    -3662    -3665    -3669    -3666    -3663    -3662    -3659 
   -3657    -3655    -3657    -3657    -3657    -3658    -3658    -3655 
   -3651    -3647    -3649    -3654    -3655    -3658    -3666    -3669 
   -3666    -3669    -3669    -3665    -3666    -3665    -3665    -3667 
   -3667    -3665    -3666    -3667    -3669    -3670    -3669    -3665 
   -3661    -3658    -3658    -3659    -3655    -3649    -3646    -3650 
   -3651    -3651    -3653    -3649    -3642    -3643    -3645    -3646 
   -3655    -3662    -3659    -3653    -3650    -3654    -3658    -3663 
   -3673    -3676    -3676    -3677    -3677    -3674    -3676    -3682 
   -3686    -3688    -3688    -3685    -3684    -3682    -3677    -3676 
   -3677    -3676    -3673    -3669    -3667    -3667    -3663    -3659 
   -3658    -3654    -3654    -3659    -3658    -3653    -3653    -3661 
   -3662    -3657    -3654    -3655    -3661    -3665    -3667    -3673 
   -3674    -3676    -3680    -3678    -3677    -3684    -3688    -3685 
   -3688    -3693    -3690    -3684    -3682    -3684    -3682    -3677 
   -3674    -3673    -3674    -3676    -3684    -3686    -3677    -3672 
   -3673    -3669    -3658    -3657    -3662    -3663    -3666    -3670 
   -3667    -3663    -3663    -3665    -3666    -3667    -3666    -3663 
   -3662    -3663    -3663    -3661    -3662    -3665    -3659    -3653 
   -3658    -3662    -3661    -3665    -3669    -3669    -3663    -3662 
   -3659    -3653    -3649    -3655    -3665    -3665    -3665    -3666 
   -3666    -3663    -3662    -3662    -3663    -3662    -3658    -3653 
   -3650    -3654    -3655    -3653    -3653    -3653    -3650    -3650 
   -3650    -3650    -3654    -3654    -3654    -3658    -3661    -3659 
   -3659    -3661    -3666    -3667    -3667    -3667    -3666    -3665 
   -3669    -3674    -3674    -3672    -3674    -3676    -3676    -3670 
   -3669    -3673    -3676    -3677    -3676    -3673    -3673    -3673 
   -3672    -3669    -3667    -3669    -3669    -3670    -3673    -3670 
   -3669    -3667    -3670    -3676    -3681    -3685    -3685    -3680 
   -3676    -3677    -3678    -3680    -3680    -3682    -3684    -3684 
   -3682    -3684    -3682    -3676    -3673    -3676    -3677    -3673 
   -3672    -3670    -3669    -3670    -3672    -3667    -3665    -3666 
   -3665    -3663    -3666    -3670    -3670    -3669    -3672    -3670 
   -3665    -3663    -3665    -3665    -3669    -3673    -3676    -3672 
   -3666    -3665    -3662    -3659    -3663    -3672    -3669    -3662 
   -3659    -3659    -3658    -3658    -3658    -3663    -3666    -3663 
   -3659    -3657    -3653    -3654    -3655    -3653    -3654    -3657 
   -3654    -3654    -3658    -3658    -3657    -3658    -3659    -3659 
   -3662    -3666    -3666    -3666    -3665    -3661    -3658    -3657 
   -3655    -3654    -3654    -3655    -3657    -3655    -3653    -3650 
   -3657    -3665    -3663    -3658    -3659    -3661    -3658    -3658 
   -3661    -3659    -3657    -3662    -3666    -3665    -3665    -3666 
   -3662    -3658    -3666    -3674    -3672    -3669    -3673    -3677 
   -3674    -3670    -3672    -3672    -3669    -3670    -3674    -3674 
   -3670    -3669    -3669    -3667    -3665    -3669    -3673    -3676 
   -3672    -3672    -3674    -3674    -3674    -3677    -3677    -3674 
   -3673    -3672    -3673    -3672    -3674    -3674    -3672    -3674 
   -3676    -3670    -3665    -3667    -3672    -3670    -3667    -3670 
   -3672    -3666    -3663    -3665    -3663    -3661    -3659    -3661 
   -3661    -3658    -3658    -3661    -3659    -3659    -3661    -3655 
   -3653    -3657    -3663    -3667    -3666    -3665    -3665    -3666 
   -3663    -3662    -3662    -3662    -3665    -3667    -3663    -3661 
   -3663    -3662    -3658    -3657    -3661    -3662    -3659    -3657 
   -3655    -3658    -3662    -3672    -3685    -3693    -3700    -3703 
   -3690    -3672    -3655    -3645    -3640    -3642    -3646    -3651 
   -3649    -3632    -3618    -3618    -3632    -3662    -3700    -3716 
   -3697    -3674    -3669    -3665    -3667    -3688    -3697    -3684 
   -3678    -3688    -3677    -3665    -3700    -3736    -3712    -3685 
   -3708    -3712    -3670    -3651    -3662    -3654    -3640    -3663 
   -3685    -3661    -3642    -3661    -3658    -3624    -3615    -3645 
   -3665    -3662    -3667    -3685    -3680    -3657    -3653    -3666 
   -3682    -3699    -3709    -3712    -3709    -3689    -3658    -3632 
   -3616    -3615    -3643    -3697    -3738    -3721    -3667    -3631 
   -3627    -3643    -3673    -3699    -3697    -3684    -3686    -3694 
   -3674    -3628    -3603    -3612    -3640    -3670    -3682    -3667 
   -3645    -3622    -3601    -3591    -3600    -3638    -3704    -3761 
   -3770    -3740    -3724    -3732    -3707    -3645    -3620    -3655 
   -3688    -3686    -3670    -3643    -3613    -3627    -3670    -3676 
   -3636    -3613    -3622    -3640    -3678    -3723    -3726    -3697 
   -3692    -3686    -3627    -3551    -3558    -3657    -3747    -3759 
   -3715    -3659    -3634    -3646    -3650    -3607    -3553    -3555 
   -3623    -3707    -3767    -3788    -3771    -3747    -3713    -3654 
   -3611    -3620    -3650    -3661    -3653    -3630    -3611    -3627 
   -3670    -3697    -3704    -3696    -3672    -3651    -3646    -3634 
   -3635    -3678    -3715    -3696    -3663    -3658    -3638    -3588 
   -3573    -3607    -3618    -3605    -3624    -3661    -3682    -3723 
   -3765    -3744    -3682    -3655    -3667    -3674    -3681    -3720 
   -3766    -3759    -3708    -3669    -3657    -3642    -3627    -3640 
   -3673    -3686    -3669    -3653    -3659    -3669    -3663    -3654 
   -3653    -3639    -3616    -3624    -3657    -3655    -3612    -3596 
   -3632    -3674    -3690    -3704    -3731    -3748    -3739    -3724 
   -3726    -3708    -3665    -3663    -3709    -3716    -3670    -3655 
   -3686    -3694    -3674    -3684    -3699    -3670    -3638    -3636 
   -3636    -3634    -3651    -3682    -3707    -3699    -3655    -3607 
   -3582    -3604    -3650    -3689    -3719    -3720    -3669    -3613 
   -3609    -3628    -3636    -3640    -3646    -3636    -3605    -3585 
   -3616    -3685    -3748    -3777    -3763    -3732    -3715    -3703 
   -3681    -3635    -3585    -3580    -3618    -3653    -3672    -3682 
   -3686    -3673    -3632    -3593    -3578    -3584    -3612    -3657 
   -3686    -3681    -3665    -3657    -3647    -3642    -3658    -3682 
   -3684    -3672    -3692    -3746    -3786    -3775    -3731    -3682 
   -3631    -3591    -3565    -3542    -3550    -3618    -3693    -3726 
   -3742    -3763    -3762    -3739    -3711    -3663    -3612    -3603 
   -3632    -3645    -3646    -3681    -3721    -3715    -3669    -3639 
   -3638    -3638    -3619    -3605    -3628    -3680    -3712    -3696 
   -3653    -3611    -3576    -3561    -3588    -3645    -3704    -3747 
   -3770    -3759    -3715    -3680    -3696    -3728    -3724    -3713 
   -3730    -3730    -3713    -3723    -3744    -3738    -3693    -3647 
   -3647    -3673    -3658    -3608    -3576    -3574    -3581    -3604 
   -3645    -3662    -3662    -3680    -3681    -3626    -3551    -3534 
   -3582    -3653    -3701    -3717    -3707    -3674    -3622    -3577 
   -3588    -3638    -3680    -3697    -3701    -3689    -3667    -3645 
   -3630    -3631    -3665    -3739    -3835    -3916    -3933    -3874 
   -3784    -3672    -3550    -3476    -3472    -3518    -3599    -3673 
   -3697    -3692    -3681    -3658    -3632    -3620    -3608    -3593 
   -3605    -3646    -3672    -3670    -3665    -3654    -3630    -3597 
   -3569    -3576    -3627    -3686    -3742    -3797    -3832    -3825 
   -3792    -3758    -3717    -3650    -3596    -3588    -3608    -3620 
   -3619    -3628    -3649    -3649    -3630    -3628    -3649    -3666 
   -3658    -3634    -3612    -3613    -3654    -3696    -3709    -3721 
   -3736    -3730    -3721    -3734    -3743    -3727    -3684    -3640 
   -3612    -3603    -3640    -3699    -3716    -3703    -3681    -3636 
   -3589    -3582    -3609    -3645    -3682    -3720    -3736    -3696 
   -3619    -3580    -3582    -3589    -3620    -3690    -3742    -3736 
   -3700    -3662    -3638    -3640    -3670    -3715    -3740    -3723 
   -3690    -3677    -3681    -3701    -3743    -3771    -3761    -3724 
   -3690    -3674    -3662    -3642    -3609    -3576    -3551    -3555 
   -3609    -3716    -3807    -3804    -3738    -3682    -3655    -3635 
   -3612    -3582    -3572    -3612    -3670    -3686    -3670    -3659 
   -3646    -3622    -3634    -3693    -3720    -3700    -3681    -3653 
   -3605    -3596    -3619    -3612    -3562    -3535    -3564    -3600 
   -3631    -3681    -3704    -3672    -3642    -3635    -3639    -3674 
   -3735    -3763    -3728    -3674    -3627    -3572    -3538    -3573 
   -3642    -3677    -3673    -3680    -3719    -3755    -3770    -3777 
   -3782    -3788    -3793    -3807    -3816    -3792    -3738    -3682 
   -3635    -3607    -3597    -3582    -3569    -3584    -3605    -3612 
   -3632    -3667    -3684    -3688    -3724    -3773    -3767    -3727 
   -3715    -3705    -3650    -3578    -3534    -3510    -3505    -3553 
   -3632    -3677    -3682    -3707    -3765    -3804    -3813    -3816 
   -3808    -3773    -3720    -3650    -3541    -3426    -3369    -3376 
   -3437    -3558    -3715    -3863    -3978    -4020    -3956    -3831 
   -3704    -3595    -3496    -3427    -3404    -3418    -3461    -3545 
   -3653    -3711    -3700    -3688    -3681    -3628    -3561    -3550 
   -3600    -3662    -3719    -3763    -3759    -3692    -3620    -3599 
   -3613    -3634    -3669    -3731    -3800    -3836    -3824    -3792 
   -3765    -3754    -3742    -3708    -3658    -3616    -3599    -3620 
   -3657    -3666    -3655    -3663    -3701    -3723    -3700    -3638 
   -3578    -3566    -3608    -3676    -3746    -3804    -3835    -3815 
   -3746    -3662    -3596    -3561    -3574    -3623    -3649    -3615 
   -3566    -3559    -3589    -3611    -3619    -3632    -3665    -3705 
   -3730    -3726    -3703    -3685    -3693    -3716    -3726    -3731 
   -3750    -3761    -3770    -3801    -3792    -3700    -3600    -3559 
   -3564    -3578    -3585    -3569    -3531    -3487    -3457    -3478 
   -3545    -3623    -3711    -3785    -3780    -3709    -3651    -3620 
   -3601    -3605    -3630    -3650    -3666    -3690    -3724    -3748 
   -3758    -3774    -3808    -3840    -3846    -3824    -3796    -3755 
   -3699    -3638    -3573    -3515    -3519    -3580    -3619    -3620 
   -3607    -3585    -3569    -3580    -3608    -3635    -3662    -3681 
   -3667    -3623    -3585    -3568    -3559    -3564    -3580    -3580 
   -3565    -3570    -3607    -3655    -3711    -3769    -3811    -3825 
   -3813    -3775    -3719    -3681    -3684    -3707    -3724    -3726 
   -3716    -3721    -3761    -3829    -3897    -3919    -3865    -3766 
   -3685    -3653    -3646    -3624    -3572    -3508    -3476    -3491 
   -3534    -3581    -3609    -3599    -3572    -3561    -3593    -3673 
   -3751    -3788    -3796    -3793    -3781    -3769    -3755    -3736 
   -3730    -3731    -3715    -3665    -3599    -3543    -3523    -3535 
   -3537    -3530    -3554    -3595    -3630    -3674    -3707    -3686 
   -3651    -3653    -3673    -3674    -3661    -3654    -3653    -3667 
   -3707    -3744    -3757    -3761    -3773    -3762    -3707    -3635 
   -3591    -3574    -3564    -3546    -3514    -3481    -3491    -3550 
   -3609    -3638    -3659    -3694    -3732    -3762    -3784    -3782 
   -3748    -3711    -3688    -3658    -3623    -3624    -3657    -3670 
   -3659    -3653    -3649    -3649    -3665    -3686    -3689    -3688 
   -3704    -3716    -3711    -3731    -3786    -3827    -3831    -3796 
   -3719    -3634    -3581    -3547    -3504    -3478    -3518    -3603 
   -3693    -3773    -3834    -3882    -3927    -3971    -4002    -4001 
   -3982    -3967    -3921    -3825    -3728    -3646    -3549    -3461 
   -3419    -3400    -3372    -3357    -3381    -3422    -3453    -3478 
   -3492    -3472    -3445    -3447    -3457    -3449    -3424    -3381 
   -3338    -3318    -3314    -3315    -3325    -3348    -3388    -3435 
   -3484    -3550    -3650    -3793    -3967    -4151    -4332    -4492 
   -4626    -4742    -4827    -4862    -4847    -4791    -4708    -4604 
   -4449    -4239    -3996    -3742    -3492    -3238    -2991    -2779 
   -2621    -2513    -2448    -2442    -2494    -2616    -2821    -3098 
   -3384    -3628    -3829    -3977    -4023    -3983    -3925    -3874 
   -3811    -3731    -3665    -3624    -3599    -3574    -3518    -3410 
   -3315    -3304    -3379    -3519    -3703    -3871    -3987    -4098 
   -4245    -4383    -4434    -4353    -4116    -3743    -3334    -3011 
   -2798    -2670    -2664    -2813    -3053    -3302    -3510    -3650 
   -3742    -3824    -3890    -3906    -3879    -3850    -3858    -3897 
   -3925    -3923    -3883    -3820    -3778    -3781    -3811    -3846 
   -3885    -3923    -3927    -3913    -3928    -3958    -3971    -3991 
   -4016    -3983    -3883    -3748    -3592    -3438    -3330    -3281 
   -3258    -3241    -3254    -3326    -3451    -3603    -3766    -3925 
   -4027    -4027    -3923    -3730    -3495    -3262    -3051    -2878 
   -2806    -2907    -3173    -3512    -3843    -4097    -4230    -4263 
   -4249    -4210    -4141    -4048    -3942    -3835    -3726    -3623 
   -3565    -3559    -3580    -3622    -3692    -3777    -3858    -3924 
   -3994    -4087    -4180    -4252    -4283    -4237    -4099    -3902 
   -3684    -3473    -3287    -3136    -3025    -2936    -2847    -2795 
   -2853    -3045    -3299    -3508    -3628    -3673    -3659    -3585 
   -3485    -3422    -3406    -3414    -3451    -3535    -3666    -3840 
   -4041    -4206    -4264    -4230    -4168    -4102    -4044    -4002 
   -3955    -3866    -3721    -3530    -3338    -3207    -3159    -3179 
   -3276    -3426    -3574    -3701    -3825    -3942    -4037    -4114 
   -4159    -4121    -3989    -3805    -3608    -3418    -3264    -3184 
   -3200    -3291    -3416    -3564    -3709    -3809    -3873    -3927 
   -3966    -3962    -3906    -3832    -3780    -3748    -3712    -3673 
   -3639    -3588    -3522    -3491    -3524    -3613    -3742    -3871 
   -3952    -3963    -3931    -3885    -3835    -3739    -3570    -3342 
   -3098    -2902    -2812    -2810    -2872    -2982    -3099    -3173 
   -3204    -3267    -3393    -3534    -3646    -3726    -3792    -3865 
   -3950    -4033    -4109    -4166    -4207    -4260    -4321    -4352 
   -4305    -4170    -3975    -3744    -3530    -3406    -3395    -3454 
   -3537    -3600    -3615    -3589    -3555    -3524    -3520    -3561 
   -3632    -3705    -3754    -3761    -3736    -3699    -3650    -3603 
   -3562    -3518    -3443    -3350    -3296    -3292    -3306    -3353 
   -3453    -3591    -3761    -3959    -4145    -4282    -4352    -4367 
   -4340    -4257    -4128    -3993    -3871    -3765    -3682    -3631 
   -3605    -3605    -3611    -3595    -3559    -3528    -3499    -3474 
   -3492    -3577    -3689    -3767    -3790    -3790    -3782    -3757 
   -3723    -3680    -3586    -3446    -3319    -3238    -3186    -3157 
   -3176    -3245    -3342    -3461    -3597    -3717    -3782    -3804 
   -3817    -3842    -3885    -3937    -3964    -3947    -3915    -3920 
   -3982    -4077    -4151    -4156    -4104    -4025    -3921    -3770 
   -3585    -3393    -3215    -3063    -2967    -2961    -3045    -3180 
   -3311    -3403    -3473    -3558    -3642    -3682    -3677    -3646 
   -3630    -3689    -3838    -3989    -4047    -3997    -3877    -3723 
   -3565    -3437    -3346    -3284    -3249    -3253    -3318    -3442 
   -3607    -3765    -3866    -3915    -3943    -3974    -4021    -4086 
   -4131    -4133    -4105    -4044    -3931    -3780    -3611    -3420 
   -3234    -3117    -3098    -3167    -3307    -3484    -3643    -3759 
   -3847    -3921    -3977    -4018    -4062    -4102    -4121    -4102 
   -4025    -3881    -3697    -3516    -3337    -3167    -3083    -3144 
   -3321    -3546    -3762    -3939    -4055    -4087    -4035    -3924 
   -3801    -3704    -3653    -3619    -3570    -3516    -3474    -3430 
   -3373    -3311    -3252    -3194    -3148    -3148    -3210    -3316 
   -3437    -3550    -3654    -3744    -3812    -3846    -3844    -3827 
   -3835    -3904    -4018    -4125    -4189    -4212    -4209    -4187 
   -4153    -4106    -4031    -3908    -3755    -3619    -3537    -3514 
   -3546    -3608    -3653    -3659    -3645    -3628    -3615    -3593 
   -3576    -3580    -3597    -3603    -3557    -3456    -3325    -3175 
   -3011    -2872    -2805    -2844    -2980    -3173    -3388    -3603 
   -3807    -3993    -4140    -4221    -4240    -4245    -4267    -4297 
   -4295    -4214    -4045    -3819    -3572    -3349    -3195    -3123 
   -3110    -3142    -3226    -3357    -3508    -3635    -3712    -3748 
   -3761    -3771    -3793    -3817    -3851    -3888    -3900    -3871 
   -3812    -3742    -3673    -3613    -3596    -3608    -3626    -3654 
   -3701    -3757    -3798    -3817    -3812    -3763    -3684    -3596 
   -3505    -3443    -3439    -3473    -3524    -3574    -3595    -3588 
   -3596    -3640    -3716    -3804    -3886    -3937    -3944    -3927 
   -3901    -3854    -3789    -3721    -3655    -3604    -3600    -3639 
   -3665    -3659    -3669    -3719    -3780    -3817    -3813    -3750 
   -3654    -3584    -3559    -3565    -3588    -3618    -3623    -3589 
   -3554    -3564    -3612    -3665    -3717    -3788    -3852    -3885 
   -3897    -3915    -3924    -3898    -3821    -3688    -3515    -3354 
   -3244    -3202    -3246    -3361    -3504    -3645    -3751    -3786 
   -3736    -3638    -3543    -3478    -3451    -3472    -3535    -3605 
   -3655    -3692    -3730    -3767    -3808    -3855    -3879    -3854 
   -3793    -3724    -3662    -3605    -3561    -3530    -3484    -3415 
   -3345    -3298    -3289    -3333    -3430    -3558    -3688    -3786 
   -3835    -3842    -3839    -3863    -3933    -4028    -4108    -4153 
   -4158    -4124    -4068    -4001    -3921    -3846    -3770    -3680 
   -3581    -3505    -3472    -3449    -3404    -3339    -3242    -3111 
