Origin Time       2025/03/28 03:50:00
Lat.              35.403
Long.             140.360
Depth. (km)       54
Mag.              4.4
Station Code      TKY023
Station Lat.      35.7259
Station Long.     139.8254
Station Height(m) 0
Record Time       2025/03/28 03:51:02
Sampling Freq(Hz) 100Hz
Duration Time(s)  60
Dir.              E-W
Scale Factor      7845(gal)/8223790
Max. Acc. (gal)   2.577
Last Correction   2025/03/28 03:51:02
Memo.             
[...]
    2535     2516     2486     2479     2502     2532     2544     2519 
    2489     2502     2536     2539     2520     2513     2521     2533 
    2535     2523     2515     2523     2531     2527     2515     2506 
    2508     2511     2504     2508     2528     2528     2509     2505 
    2519     2520     2513     2509     2509     2525     2535     2517 
    2508     2527     2536     2524     2515     2520     2529     2533 
    2524     2511     2508     2508     2519     2535     2524     2493 
    2494     2524     2533     2521     2519     2525     2516     2504 
    2498     2492     2511     2550     2548     2516     2502     2500 
    2493     2498     2515     2532     2544     2523     2481     2475 
    2498     2512     2531     2558     2550     2515     2498     2511 
    2527     2536     2538     2525     2517     2520     2508     2502 
    2523     2524     2508     2501     2489     2475     2486     2500 
    2497     2508     2550     2573     2543     2497     2471     2465 
    2473     2494     2519     2532     2528     2529     2533     2508 
    2481     2494     2520     2527     2515     2500     2517     2562 
    2575     2550     2521     2512     2519     2521     2504     2486 
    2505     2535     2536     2532     2550     2552     2512     2474 
    2488     2532     2570     2571     2523     2461     2443     2474 
    2511     2531     2519     2486     2489     2511     2502     2498 
    2521     2524     2496     2488     2509     2519     2525     2547 
    2565     2555     2529     2520     2532     2536     2517     2500 
    2512     2521     2504     2500     2512     2516     2527     2544 
    2540     2519     2492     2478     2521     2565     2533     2478 
    2474     2512     2527     2521     2544     2565     2528     2477 
    2471     2515     2565     2571     2538     2513     2509     2515 
    2531     2550     2560     2543     2506     2500     2519     2516 
    2498     2493     2501     2523     2552     2552     2509     2471 
    2474     2502     2517     2498     2470     2467     2485     2501 
    2506     2515     2521     2511     2496     2502     2516     2517 
    2517     2525     2542     2546     2521     2511     2540     2567 
    2558     2536     2524     2520     2523     2535     2548     2548 
    2538     2523     2496     2482     2501     2529     2539     2523 
    2508     2506     2505     2494     2490     2493     2489     2490 
    2504     2521     2525     2501     2479     2496     2521     2531 
    2532     2529     2520     2513     2513     2513     2513     2524 
    2550     2569     2563     2551     2548     2539     2517     2512 
    2536     2548     2519     2471     2465     2505     2548     2562 
    2535     2498     2490     2501     2506     2501     2496     2512 
    2542     2546     2533     2523     2496     2473     2488     2501 
    2502     2535     2582     2581     2546     2494     2435     2432 
    2494     2544     2565     2585     2585     2546     2488     2463 
    2505     2556     2542     2496     2493     2524     2538     2502 
    2455     2447     2482     2543     2586     2575     2540     2517 
    2490     2463     2455     2465     2467     2470     2501     2558 
    2582     2527     2434     2423     2528     2646     2679     2646 
    2590     2542     2511     2500     2512     2535     2524     2467 
    2435     2474     2513     2517     2559     2610     2571     2467 
    2398     2409     2496     2632     2743     2725     2590     2462 
    2381     2327     2354     2459     2531     2524     2494     2496 
    2533     2550     2500     2417     2385     2438     2542     2659 
    2766     2794     2691     2528     2417     2376     2354     2346 
    2366     2446     2582     2664     2633     2586     2513     2357 
    2292     2430     2594     2662     2674     2681     2704     2697 
    2585     2398     2258     2212     2239     2323     2461     2597 
    2639     2578     2512     2470     2467     2563     2639     2548 
    2452     2519     2621     2627     2574     2533     2528     2538 
    2512     2438     2392     2420     2485     2551     2574     2547 
    2529     2546     2609     2673     2655     2609     2571     2498 
    2424     2411     2481     2619     2694     2636     2547     2502 
    2462     2434     2486     2569     2575     2562     2614     2667 
    2605     2428     2269     2232     2295     2425     2598     2687 
    2647     2589     2575     2543     2467     2389     2328     2273 
    2250     2328     2513     2660     2608     2420     2334     2432 
    2613     2739     2667     2442     2340     2452     2620     2721 
    2685     2506     2354     2386     2513     2585     2644     2727 
    2729     2614     2442     2315     2295     2338     2432     2532 
    2569     2609     2633     2606     2647     2701     2600     2420 
    2323     2332     2405     2489     2547     2559     2527     2542 
    2646     2713     2686     2625     2566     2506     2458     2451 
    2490     2556     2558     2498     2635     2864     2798     2583 
    2469     2365     2246     2191     2245     2394     2536     2563 
    2459     2376     2478     2685     2752     2543     2154     1895 
    2038     2494     2818     2744     2571     2589     2612     2558 
    2533     2485     2461     2529     2610     2704     2705     2571 
    2465     2411     2419     2490     2497     2465     2496     2566 
    2663     2779     2770     2508     2223     2218     2388     2511 
    2567     2627     2708     2718     2602     2444     2331     2320 
    2439     2586     2536     2280     2251     2760     3391     3357 
    2613     2149     2430     2812     2787     2394     2025     2169 
    2664     2836     2596     2420     2384     2301     2342     2601 
    2786     2698     2544     2567     2535     2208     1900     1999 
    2432     2795     2825     2578     2226     2103     2400     2744 
    2772     2539     2253     2191     2478     2851     3018     2911 
    2605     2251     2087     2311     2613     2475     2114     2160 
    2573     2860     2866     2689     2521     2459     2478     2682 
    2875     2755     2560     2497     2431     2231     2027     2145 
    2515     2786     2849     2732     2597     2631     2756     2793 
    2571     2219     2242     2644     2856     2724     2515     2292 
    2077     2062     2253     2527     2700     2610     2619     2948 
    3142     2886     2486     2409     2581     2608     2462     2268 
    2234     2543     2755     2543     2276     2173     2303     2660 
    2799     2597     2403     2255     2193     2327     2361     2157 
    2173     2513     2636     2465     2531     2844     3002     2816 
    2203     1607     1892     2847     3306     2875     2227     2011 
    2308     2818     3118     3059     2880     2783     2745     2771 
    2901     2857     2469     2288     2543     2548     2106     1842 
    2066     2413     2525     2489     2477     2542     2577     2394 
    2216     2330     2513     2512     2403     2458     2635     2605 
    2466     2442     2474     2525     2579     2621     2659     2659 
    2608     2578     2775     3117     3121     2745     2489     2612 
    2917     2890     2319     1745     1682     1992     2226     2154 
    2043     2192     2478     2701     2818     2795     2751     2860 
    2943     2762     2465     2323     2434     2629     2555     2268 
    2218     2386     2454     2466     2542     2577     2519     2506 
    2542     2458     2349     2421     2624     2794     2810     2613 
    2382     2366     2474     2492     2451     2365     2191     2061 
    2054     2162     2490     2922     3084     2947     2852     2863 
    2728     2442     2218     2241     2551     2867     2899     2655 
    2253     1961     2037     2327     2551     2590     2455     2361 
    2470     2597     2617     2633     2632     2624     2767     2991 
    3080     3061     2967     2683     2268     1989     2002     2069 
    1976     1939     2130     2435     2829     3200     3223     2879 
    2616     2782     3144     3208     2871     2424     2219     2308 
    2421     2393     2249     2042     1929     2030     2261     2467 
    2555     2504     2373     2342     2521     2712     2697     2631 
    2706     2714     2489     2311     2331     2281     2099     2011 
    2112     2376     2633     2694     2624     2571     2694     2952 
    2982     2794     2683     2617     2614     2704     2581     2222 
    1969     1996     2269     2531     2463     2214     2242     2612 
    2903     2847     2655     2617     2756     2933     2871     2478 
    2254     2554     2933     2933     2631     2327     2280     2390 
    2344     2242     2384     2685     2851     2833     2733     2538 
    2350     2474     2732     2685     2563     2678     2725     2594 
    2501     2458     2478     2519     2331     1991     1948     2209 
    2313     2218     2247     2447     2697     2830     2767     2714 
    2735     2623     2436     2424     2452     2220     1958     2050 
    2377     2700     2893     2824     2679     2728     2739     2469 
    2296     2506     2609     2342     2236     2485     2636     2554 
    2577     2785     2754     2412     2268     2419     2529     2567 
    2697     2929     3049     2921     2705     2425     2188     2366 
    2770     2866     2695     2466     2128     1860     1999     2409 
    2647     2547     2262     2130     2365     2710     2862     2959 
    3119     3044     2619     2245     2215     2292     2150     2030 
    2276     2632     2751     2640     2498     2565     2718     2613 
    2353     2351     2650     2835     2623     2205     1918     1945 
    2235     2547     2739     2704     2374     2070     2191     2641 
    2963     2934     2872     2988     3082     2999     2763     2473 
    2384     2529     2519     2276     2216     2355     2335     2288 
    2501     2721     2620     2367     2382     2706     2913     2853 
    2829     2910     2890     2720     2569     2506     2363     2141 
    2093     2168     2143     2195     2442     2582     2509     2490 
    2573     2512     2307     2230     2331     2451     2540     2583 
    2536     2466     2485     2546     2552     2513     2436     2293 
    2127     2007     1980     2053     2214     2506     2928     3291 
    3380     3173     2795     2427     2304     2438     2574     2590 
    2563     2527     2328     1972     1903     2361     2914     3073 
    2974     2978     2975     2808     2685     2660     2556     2416 
    2427     2571     2659     2644     2640     2659     2625     2556 
    2479     2378     2315     2340     2386     2392     2296     2111 
    2073     2276     2424     2344     2258     2338     2448     2485 
    2529     2533     2411     2272     2141     2019     2037     2107 
    2088     2100     2154     2073     1964     2158     2593     2814 
    2824     2925     2986     2897     2894     2967     2895     2728 
    2648     2590     2496     2552     2686     2652     2562     2482 
    2355     2428     2789     3067     3172     3252     3204     3061 
    3063     3146     3167     3136     3006     2764     2581     2528 
    2474     2403     2431     2492     2450     2400     2496     2579 
    2442     2214     2095     2052     1931     1707     1524     1472 
    1597     1988     2554     3013     3257     3391     3400     3099 
    2555     2146     2062     2273     2708     3114     3229     3071 
    2856     2659     2362     2020     1773     1602     1564     1738 
    2008     2239     2350     2400     2517     2678     2824     2980 
    3133     3144     2906     2529     2111     1663     1443     1691 
    2265     2936     3476     3600     3323     2951     2639     2392 
    2284     2377     2582     2790     2961     3057     2990     2685 
    2274     1999     1925     2073     2516     2978     3067     2841 
    2446     1949     1545     1301     1318     1814     2624     3377 
    3906     4082     3748     3096     2524     2064     1665     1545 
    1752     2106     2461     2646     2596     2461     2315     2166 
    2150     2303     2413     2484     2759     3132     3327     3316 
    3122     2830     2582     2420     2349     2301     2239     2227 
    2297     2424     2569     2754     2994     3234     3427     3565 
    3650     3554     3092     2357     1572      830      317      259 
     595     1062     1472     1790     2041     2315     2763     3321 
    3754     3951     3890     3690     3470     3168     2809     2511 
    2242     1937     1682     1678     1907     2074     2096     2161 
    2263     2266     2218     2222     2315     2451     2573     2798 
    3210     3616     3836     3813     3487     2972     2521     2189 
    1904     1707     1705     1875     2030     2033     1971     2062 
    2427     2976     3547     4024     4301     4360     4237     3951 
    3620     3348     3053     2759     2619     2583     2535     2461 
    2305     2079     1852     1603     1441     1503     1702     1894 
    1965     1896     1791     1780     1899     2006     2031     2114 
    2300     2494     2673     2841     2937     2849     2539     2111 
    1706     1375     1124     1007     1077     1308     1742     2471 
    3376     4249     4916     5220     5123     4723     4116     3312 
    2377     1518      904      569      465      594      994     1557 
    2107     2558     2924     3271     3634     3935     4041     3909 
    3593     3222     2887     2563     2230     1945     1755     1628 
    1518     1443     1429     1513     1719     2047     2527     3090 
    3627     4133     4514     4623     4394     3893     3352     3001 
    2951     3065     3078     2870     2467     2018     1629     1358 
    1321     1410     1475     1528     1549     1613     1742     1823 
    1831     1817     1834     1873     1872     1834     1761     1701 
    1772     1976     2247     2573     2928     3258     3505     3619 
    3612     3512     3327     3075     2767     2442     2165     2054 
    2200     2471     2671     2716     2613     2485     2470     2619 
    2907     3200     3346     3323     3191     3033     2872     2687 
    2501     2361     2317     2376     2484     2667     2910     3114 
    3246     3285     3222     3118     3013     2889     2732     2569 
    2362     2079     1802     1609     1514     1549     1705     1884 
    1966     1925     1842     1726     1529     1341     1275     1397 
    1713     2061     2304     2467     2596     2754     2991     3262 
    3458     3512     3447     3312     3133     2926     2691     2459 
    2290     2176     2101     2116     2220     2376     2582     2787 
    2907     2930     2866     2775     2752     2830     3009     3168 
    3171     3046     2830     2563     2338     2188     2130     2188 
    2330     2478     2585     2644     2646     2563     2415     2266 
    2207     2261     2370     2481     2585     2686     2826     3056 
    3364     3635     3721     3578     3280     2922     2575     2242 
    1929     1705     1598     1574     1633     1765     1935     2108 
    2219     2236     2201     2205     2320     2513     2659     2670 
    2587     2515     2497     2550     2614     2606     2556     2550 
    2587     2602     2565     2509     2442     2343     2212     2080 
    2031     2114     2289     2531     2816     3071     3223     3260 
    3211     3102     2949     2783     2596     2423     2295     2170 
    2072     2037     2069     2145     2170     2147     2207     2408 
    2686     2934     3099     3157     3119     3024     2893     2758 
    2614     2444     2322     2323     2408     2511     2598     2701 
    2840     2988     3106     3144     3068     2941     2828     2752 
    2705     2614     2421     2154     1890     1674     1513     1447 
    1487     1576     1672     1746     1787     1831     1903     2000 
    2124     2272     2436     2560     2573     2528     2551     2687 
    2890     3084     3207     3233     3210     3214     3279     3349 
    3315     3129     2840     2492     2104     1738     1512     1530 
    1777     2114     2432     2708     2897     2990     3019     2964 
    2813     2637     2521     2485     2454     2371     2266     2173 
    2122     2124     2176     2289     2423     2508     2562     2619 
    2664     2710     2839     3078     3316     3429     3410     3322 
    3204     3073     2937     2762     2533     2276     2029     1885 
    1884     1983     2107     2193     2270     2335     2365     2417 
    2482     2505     2470     2373     2254     2112     1960     1911 
    2002     2151     2270     2316     2328     2388     2520     2682 
    2791     2793     2752     2778     2894     3075     3292     3478 
    3550     3473     3296     3100     2947     2851     2809     2805 
    2803     2759     2623     2404     2162     1915     1671     1462 
    1304     1192     1104     1062     1144     1358     1609     1841 
    2080     2344     2592     2779     2921     3029     3079     3056 
    2982     2863     2706     2587     2575     2647     2755     2894 
    3075     3233     3285     3238     3145     3021     2872     2721 
    2619     2587     2598     2640     2716     2849     3068     3298 
    3411     3403     3329     3191     3022     2859     2721     2637 
    2554     2403     2195     2002     1912     1930     1983     1993 
    1900     1738     1587     1497     1509     1628     1788     1937 
    2079     2230     2388     2547     2728     2918     3048     3067 
    2997     2882     2731     2521     2282     2074     1925     1849 
    1857     1908     2006     2193     2408     2552     2628     2646 
    2587     2467     2350     2296     2299     2335     2386     2430 
    2462     2497     2542     2616     2728     2882     3106     3377 
    3613     3747     3750     3657     3510     3306     3079     2916 
    2830     2785     2767     2748     2674     2562     2436     2292 
    2154     2047     1969     1896     1814     1763     1796     1929 
    2114     2268     2336     2330     2289     2245     2224     2254 
    2324     2404     2470     2517     2544     2559     2579     2609 
    2604     2485     2265     2039     1867     1779     1834     2026 
    2282     2531     2714     2828     2916     3024     3152     3272 
    3346     3341     3250     3118     2980     2822     2646     2466 
    2292     2153     2114     2200     2380     2573     2714     2776 
    2732     2635     2593     2598     2578     2532     2492     2469 
    2459     2435     2362     2235     2100     2012     1996     2047 
    2162     2326     2502     2673     2789     2812     2775     2695 
    2585     2478     2374     2304     2293     2313     2322     2300 
    2281     2338     2486     2671     2805     2848     2808     2721 
    2631     2544     2462     2416     2428     2477     2500     2465 
    2415     2389     2397     2469     2629     2840     3029     3177 
    3298     3369     3372     3310     3207     3083     2920     2695 
