Origin Time       2025/03/28 03:50:00
Lat.              35.403
Long.             140.360
Depth. (km)       54
Mag.              4.4
Station Code      TKY007
Station Lat.      35.7111
Station Long.     139.6864
Station Height(m) 34
Record Time       2025/03/28 03:51:03
Sampling Freq(Hz) 100Hz
Duration Time(s)  60
Dir.              E-W
Scale Factor      7845(gal)/8223790
Max. Acc. (gal)   3.805
Last Correction   2025/03/28 03:51:03
Memo.             
[...]
   -5872    -5895    -5908    -5881    -5880    -5913    -5904    -5884 
   -5907    -5902    -5872    -5904    -5926    -5873    -5854    -5877 
   -5865    -5864    -5902    -5902    -5865    -5867    -5886    -5875 
   -5877    -5904    -5899    -5876    -5899    -5925    -5900    -5872 
   -5867    -5881    -5917    -5919    -5887    -5888    -5903    -5877 
   -5854    -5875    -5883    -5884    -5914    -5896    -5837    -5848 
   -5886    -5880    -5884    -5907    -5900    -5883    -5892    -5908 
   -5895    -5892    -5913    -5917    -5906    -5902    -5895    -5875 
   -5857    -5854    -5875    -5906    -5906    -5895    -5891    -5864 
   -5854    -5890    -5900    -5880    -5879    -5899    -5906    -5890 
   -5884    -5887    -5891    -5903    -5900    -5886    -5890    -5913 
   -5921    -5896    -5868    -5872    -5900    -5922    -5908    -5869 
   -5857    -5864    -5864    -5881    -5904    -5888    -5884    -5913 
   -5904    -5886    -5903    -5895    -5869    -5894    -5926    -5919 
   -5903    -5886    -5873    -5877    -5883    -5896    -5922    -5923 
   -5898    -5868    -5854    -5861    -5887    -5915    -5910    -5875 
   -5873    -5894    -5886    -5877    -5891    -5898    -5899    -5921 
   -5918    -5875    -5868    -5907    -5915    -5888    -5886    -5900 
   -5888    -5880    -5896    -5902    -5896    -5896    -5896    -5891 
   -5876    -5879    -5904    -5902    -5884    -5895    -5887    -5861 
   -5879    -5914    -5914    -5902    -5892    -5879    -5875    -5890 
   -5911    -5911    -5898    -5899    -5896    -5876    -5865    -5875 
   -5894    -5906    -5892    -5890    -5902    -5898    -5900    -5906 
   -5881    -5863    -5887    -5911    -5907    -5896    -5886    -5876 
   -5877    -5876    -5883    -5906    -5908    -5888    -5887    -5896 
   -5899    -5910    -5915    -5902    -5890    -5890    -5892    -5876 
   -5854    -5872    -5906    -5913    -5911    -5891    -5859    -5873 
   -5904    -5898    -5902    -5919    -5903    -5883    -5873    -5859 
   -5868    -5891    -5890    -5895    -5913    -5902    -5880    -5879 
   -5877    -5872    -5886    -5910    -5918    -5914    -5907    -5880 
   -5860    -5873    -5888    -5907    -5935    -5915    -5856    -5857 
   -5904    -5908    -5894    -5896    -5888    -5879    -5886    -5877 
   -5860    -5863    -5877    -5888    -5898    -5896    -5886    -5888 
   -5907    -5903    -5881    -5890    -5917    -5934    -5931    -5899 
   -5869    -5876    -5872    -5863    -5898    -5906    -5867    -5868 
   -5887    -5864    -5868    -5907    -5902    -5880    -5891    -5887 
   -5868    -5899    -5941    -5930    -5904    -5896    -5888    -5890 
   -5902    -5894    -5879    -5895    -5910    -5884    -5864    -5876 
   -5881    -5880    -5886    -5886    -5888    -5894    -5883    -5879 
   -5911    -5922    -5880    -5860    -5891    -5906    -5906    -5910 
   -5896    -5890    -5903    -5898    -5886    -5900    -5911    -5892 
   -5875    -5883    -5887    -5873    -5875    -5883    -5887    -5900 
   -5908    -5904    -5903    -5880    -5857    -5894    -5941    -5919 
   -5884    -5884    -5873    -5857    -5869    -5884    -5899    -5922 
   -5914    -5872    -5857    -5868    -5877    -5892    -5906    -5913 
   -5911    -5884    -5853    -5860    -5890    -5913    -5927    -5915 
   -5887    -5880    -5879    -5883    -5902    -5908    -5895    -5881 
   -5865    -5863    -5886    -5894    -5891    -5902    -5887    -5864 
   -5883    -5902    -5875    -5861    -5896    -5927    -5930    -5910 
   -5883    -5872    -5875    -5895    -5941    -5964    -5933    -5876 
   -5817    -5792    -5845    -5952    -6041    -6048    -5926    -5728 
   -5632    -5748    -5965    -6080    -5999    -5803    -5657    -5671 
   -5863    -6130    -6246    -6070    -5748    -5552    -5611    -5884 
   -6191    -6269    -6046    -5737    -5571    -5614    -5827    -6106 
   -6266    -6158    -5846    -5572    -5502    -5663    -5971    -6199 
   -6126    -5826    -5586    -5572    -5823    -6220    -6416    -6228 
   -5892    -5703    -5705    -5817    -5913    -5853    -5674    -5605 
   -5772    -6034    -6188    -6160    -5977    -5769    -5764    -5980 
   -6096    -5933    -5694    -5584    -5675    -5969    -6224    -6151 
   -5829    -5533    -5421    -5594    -6041    -6502    -6651    -6385 
   -5875    -5408    -5243    -5471    -5907    -6247    -6320    -6075 
   -5617    -5332    -5539    -6030    -6359    -6349    -6062    -5705 
   -5613    -5833    -5973    -5822    -5661    -5713    -5876    -6077 
   -6264    -6207    -5900    -5686    -5721    -5881    -6018    -5973 
   -5728    -5528    -5601    -5873    -6104    -6193    -6188    -6068 
   -5856    -5701    -5652    -5694    -5853    -6062    -6189    -6164 
   -5962    -5683    -5568    -5709    -5877    -5884    -5819    -5823 
   -5950    -6178    -6304    -6079    -5624    -5362    -5482    -5818 
   -6139    -6285    -6181    -5968    -5845    -5792    -5740    -5756 
   -5872    -5994    -6002    -5863    -5690    -5648    -5832    -6177 
   -6412    -6272    -5849    -5516    -5513    -5791    -6079    -6119 
   -5914    -5655    -5510    -5580    -5838    -6088    -6184    -6137 
   -6011    -5902    -5879    -5907    -5910    -5888    -5869    -5856 
   -5898    -6045    -6207    -6223    -6025    -5701    -5479    -5530 
   -5773    -6015    -6111    -5971    -5702    -5566    -5649    -5826 
   -5980    -6066    -6048    -5922    -5798    -5784    -5802    -5784 
   -5819    -5869    -5873    -5969    -6138    -6147    -5996    -5873 
   -5830    -5853    -5908    -5894    -5787    -5695    -5686    -5733 
   -5815    -5911    -5952    -5910    -5890    -5985    -6149    -6246 
   -6147    -5872    -5679    -5705    -5752    -5703    -5707    -5790 
   -5834    -5869    -5962    -6076    -6166    -6170    -6012    -5787 
   -5694    -5763    -5850    -5887    -5931    -5953    -5854    -5721 
   -5742    -5911    -6085    -6177    -6153    -6031    -5911    -5848 
   -5791    -5719    -5694    -5760    -5872    -5945    -5954    -5888 
   -5776    -5742    -5825    -5927    -6018    -6084    -6060    -5987 
   -5945    -5883    -5746    -5617    -5576    -5663    -5914    -6210 
   -6291    -6114    -5887    -5794    -5857    -5971    -5965    -5767 
   -5536    -5529    -5790    -6097    -6214    -6096    -5873    -5709 
   -5688    -5751    -5800    -5868    -5975    -6022    -5960    -5854 
   -5807    -5903    -6106    -6268    -6238    -5994    -5683    -5498 
   -5539    -5802    -6129    -6266    -6122    -5809    -5529    -5490 
   -5738    -6046    -6160    -6070    -5929    -5841    -5768    -5668 
   -5663    -5832    -5992    -5964    -5805    -5686    -5764    -6023 
   -6234    -6245    -6110    -5964    -5922    -5960    -5965    -5903 
   -5794    -5701    -5718    -5833    -5922    -5942    -5915    -5854 
   -5788    -5786    -5877    -5980    -5989    -5914    -5821    -5763 
   -5751    -5760    -5815    -5980    -6227    -6362    -6247    -5979 
   -5701    -5514    -5459    -5509    -5678    -5930    -6099    -6129 
   -6092    -5965    -5780    -5760    -5948    -6127    -6184    -6170 
   -6106    -5946    -5742    -5591    -5528    -5545    -5597    -5626 
   -5702    -5872    -6000    -6006    -5979    -6002    -6042    -6023 
   -5972    -5979    -6002    -5958    -5894    -5886    -5934    -5972 
   -5914    -5802    -5742    -5721    -5671    -5637    -5692    -5807 
   -5923    -6030    -6118    -6185    -6247    -6274    -6183    -5962 
   -5729    -5625    -5670    -5756    -5845    -5985    -6069    -5933 
   -5680    -5582    -5745    -6075    -6331    -6322    -6075    -5742 
   -5470    -5408    -5641    -6012    -6243    -6231    -6075    -5890 
   -5724    -5613    -5652    -5899    -6207    -6339    -6258    -6070 
   -5813    -5560    -5491    -5624    -5784    -5856    -5863    -5863 
   -5861    -5800    -5683    -5664    -5799    -5934    -5998    -6027 
   -5995    -5888    -5818    -5859    -5945    -6053    -6211    -6373 
   -6420    -6222    -5790    -5370    -5206    -5321    -5549    -5707 
   -5757    -5778    -5829    -5945    -6158    -6427    -6597    -6517 
   -6201    -5837    -5636    -5630    -5713    -5822    -5852    -5680 
   -5441    -5400    -5589    -5859    -6033    -6046    -6015    -5991 
   -5894    -5799    -5813    -5823    -5772    -5783    -5854    -5899 
   -5931    -5930    -5887    -5929    -6079    -6207    -6249    -6169 
   -5930    -5691    -5657    -5844    -6134    -6366    -6432    -6292 
   -5902    -5448    -5337    -5614    -5880    -5850    -5582    -5321 
   -5269    -5451    -5799    -6193    -6527    -6700    -6621    -6295 
   -5841    -5493    -5427    -5597    -5864    -6129    -6301    -6347 
   -6334    -6293    -6195    -6029    -5837    -5744    -5749    -5675 
   -5499    -5394    -5367    -5324    -5313    -5440    -5698    -5957 
   -6077    -6100    -6169    -6292    -6380    -6365    -6193    -5937 
   -5755    -5667    -5640    -5661    -5715    -5814    -5929    -5945 
   -5868    -5849    -5900    -5887    -5778    -5714    -5796    -5946 
   -6012    -5948    -5834    -5732    -5706    -5884    -6115    -6151 
   -6111    -6100    -6037    -5995    -5995    -5958    -6006    -6222 
   -6332    -6154    -5910    -5717    -5464    -5258    -5215    -5277 
   -5459    -5753    -5976    -6031    -5987    -5891    -5811    -5844 
   -5903    -5894    -5906    -5998    -6099    -6157    -6150    -6129 
   -6141    -6127    -6075    -6043    -6035    -5988    -5895    -5841 
   -5859    -5854    -5811    -5818    -5830    -5728    -5575    -5568 
   -5715    -5834    -5863    -5842    -5745    -5630    -5678    -5877 
   -6039    -6079    -6072    -6114    -6234    -6345    -6282    -6023 
   -5745    -5579    -5464    -5366    -5397    -5624    -5938    -6166 
   -6181    -6029    -5898    -5884    -5957    -6069    -6108    -5977 
   -5818    -5782    -5826    -5894    -5946    -5913    -5814    -5755 
   -5783    -5884    -6014    -6104    -6081    -5950    -5842    -5867 
   -5961    -6000    -5973    -5898    -5746    -5595    -5584    -5742 
   -5996    -6227    -6280    -6050    -5670    -5448    -5530    -5763 
   -5931    -5960    -5898    -5817    -5790    -5911    -6153    -6358 
   -6420    -6354    -6193    -5944    -5680    -5516    -5464    -5479 
   -5529    -5586    -5638    -5718    -5841    -5931    -5954    -6022 
   -6188    -6297    -6226    -6084    -6002    -5985    -5999    -5987 
   -5892    -5710    -5557    -5572    -5746    -5927    -5992    -5933 
   -5854    -5872    -5979    -6092    -6118    -6029    -5945    -5934 
   -5929    -5879    -5794    -5705    -5647    -5616    -5625    -5699 
   -5756    -5725    -5682    -5725    -5857    -6029    -6168    -6207 
   -6119    -5949    -5833    -5891    -6061    -6201    -6264    -6197 
   -5995    -5787    -5663    -5617    -5713    -5962    -6158    -6088 
   -5836    -5656    -5593    -5544    -5562    -5691    -5852    -5988 
   -6064    -6042    -5981    -5979    -6025    -6026    -5944    -5795 
   -5625    -5503    -5521    -5718    -6033    -6323    -6463    -6447 
   -6338    -6174    -6002    -5892    -5829    -5755    -5714    -5752 
   -5810    -5799    -5695    -5540    -5370    -5224    -5202    -5348 
   -5613    -5968    -6345    -6578    -6604    -6528    -6421    -6270 
   -6100    -5942    -5810    -5741    -5725    -5697    -5667    -5690 
   -5753    -5838    -5917    -5871    -5621    -5312    -5223    -5472 
   -5906    -6232    -6281    -6157    -6050    -6014    -6061    -6212 
   -6369    -6401    -6304    -6139    -5919    -5676    -5479    -5402 
   -5525    -5796    -6018    -6065    -5992    -5910    -5856    -5823 
   -5837    -5919    -6030    -6091    -6012    -5782    -5547    -5478 
   -5582    -5765    -5903    -5875    -5682    -5514    -5560    -5780 
   -6061    -6322    -6438    -6405    -6345    -6295    -6222    -6103 
   -5938    -5728    -5536    -5486    -5589    -5746    -5829    -5783 
   -5710    -5691    -5682    -5634    -5589    -5599    -5688    -5873 
   -6142    -6427    -6613    -6656    -6635    -6544    -6347    -6091 
   -5825    -5584    -5393    -5294    -5312    -5417    -5607    -5791 
   -5841    -5815    -5799    -5715    -5560    -5530    -5734    -6061 
   -6350    -6486    -6401    -6142    -5891    -5741    -5626    -5549 
   -5606    -5799    -6023    -6197    -6311    -6374    -6345    -6157 
   -5860    -5638    -5586    -5618    -5668    -5714    -5719    -5722 
   -5760    -5768    -5709    -5638    -5575    -5503    -5501    -5648 
   -5875    -6061    -6187    -6288    -6343    -6328    -6285    -6216 
   -6056    -5841    -5699    -5678    -5788    -5991    -6127    -6116 
   -6079    -6079    -5992    -5736    -5421    -5216    -5155    -5178 
   -5283    -5535    -5935    -6342    -6550    -6532    -6458    -6444 
   -6482    -6531    -6539    -6462    -6307    -6124    -5960    -5791 
   -5551    -5259    -5053    -5049    -5227    -5522    -5926    -6411 
   -6825    -7021    -7042    -7017    -6970    -6871    -6732    -6583 
   -6467    -6430    -6427    -6319    -6016    -5539    -4966    -4371 
   -3774    -3187    -2710    -2550    -2808    -3381    -4185    -5188 
   -6307    -7400    -8260    -8715    -8831    -8791    -8634    -8294 
   -7738    -7003    -6169    -5304    -4411    -3557    -2907    -2552 
   -2517    -2829    -3329    -3762    -4156    -4812    -5915    -7318 
   -8652    -9563    -9879    -9595    -8829    -7821    -6860    -6114 
   -5620    -5310    -5084    -4915    -4827    -4815    -4873    -4935 
   -4947    -4959    -4980    -4989    -5094    -5346    -5688    -6160 
   -6762    -7280    -7554    -7645    -7589    -7375    -7049    -6705 
   -6376    -5962    -5370    -4664    -3927    -3248    -2893    -3136 
   -3991    -5224    -6494    -7588    -8490    -9090    -9097    -8457 
   -7496    -6570    -5827    -5270    -4791    -4247    -3666    -3204 
   -2990    -3172    -3805    -4639    -5294    -5664    -5968    -6378 
   -6841    -7299    -7715    -7996    -8073    -7969    -7804    -7722 
   -7734    -7692    -7445    -6978    -6376    -5663    -4922    -4384 
   -4129    -3962    -3765    -3634    -3684    -3963    -4402    -4891 
   -5402    -5906    -6350    -6718    -7057    -7492    -8037    -8444 
   -8401    -7827    -6882    -5792    -4820    -4261    -4174    -4264 
   -4266    -4225    -4288    -4455    -4683    -5061    -5632    -6245 
   -6783    -7226    -7416    -7275    -6979    -6718    -6621    -6743 
   -6921    -6936    -6718    -6328    -5849    -5398    -5128    -5119 
   -5293    -5526    -5736    -5842    -5807    -5709    -5655    -5715 
   -5876    -5942    -5755    -5433    -5212    -5130    -5146    -5329 
   -5679    -6095    -6546    -6980    -7214    -7061    -6536    -5929 
   -5606    -5618    -5638    -5405    -4999    -4680    -4635    -4901 
   -5391    -5964    -6457    -6677    -6558    -6262    -6003    -5900 
   -5917    -5965    -6039    -6108    -6207    -6494    -6917    -7110 
   -6866    -6285    -5563    -4870    -4278    -3842    -3727    -4004 
   -4583    -5335    -6006    -6351    -6485    -6674    -6941    -7180 
   -7331    -7350    -7213    -6932    -6597    -6281    -5999    -5830 
   -5837    -5883    -5707    -5251    -4761    -4476    -4467    -4756 
   -5308    -5960    -6516    -6856    -6917    -6685    -6203    -5562 
   -4928    -4554    -4621    -5121    -5864    -6558    -7021    -7276 
   -7322    -7095    -6716    -6357    -6066    -5868    -5745    -5589 
   -5368    -5181    -5109    -5213    -5540    -5958    -6216    -6242 
   -6169    -6077    -5898    -5617    -5368    -5266    -5305    -5445 
   -5653    -5822    -5863    -5802    -5665    -5433    -5211    -5233 
   -5568    -5942    -6083    -6049    -6003    -5967    -5983    -6161 
   -6435    -6579    -6540    -6405    -6196    -5923    -5721    -5701 
   -5800    -5899    -5957    -6030    -6150    -6273    -6405    -6517 
   -6473    -6282    -6154    -6149    -6091    -5848    -5449    -5008 
   -4654    -4472    -4482    -4675    -5023    -5435    -5790    -6076 
   -6354    -6650    -6930    -7138    -7217    -7117    -6824    -6384 
   -5958    -5717    -5653    -5659    -5672    -5728    -5867    -6053 
   -6195    -6226    -6134    -5949    -5682    -5292    -4769    -4276 
   -4037    -4135    -4511    -5078    -5792    -6624    -7453    -8035 
   -8191    -7987    -7601    -7134    -6593    -6000    -5447    -5030 
   -4774    -4664    -4718    -4919    -5171    -5449    -5744    -5952 
   -5953    -5761    -5547    -5476    -5624    -5913    -6138    -6200 
   -6191    -6223    -6307    -6384    -6388    -6272    -6003    -5611 
   -5246    -5098    -5201    -5424    -5670    -5890    -6014    -6030 
   -6021    -6030    -6023    -5983    -5937    -5923    -5960    -6030 
   -6100    -6157    -6196    -6189    -6119    -6031    -5967    -5896 
   -5765    -5586    -5494    -5652    -6043    -6474    -6759    -6867 
   -6863    -6766    -6582    -6330    -6012    -5622    -5184    -4792 
   -4549    -4476    -4541    -4727    -5028    -5362    -5641    -5865 
   -6081    -6339    -6605    -6789    -6868    -6889    -6868    -6821 
   -6737    -6586    -6324    -5967    -5641    -5462    -5431    -5435 
   -5350    -5181    -5028    -4995    -5152    -5474    -5807    -6018 
   -6070    -6006    -5957    -6026    -6153    -6234    -6223    -6111 
   -5919    -5706    -5536    -5447    -5460    -5549    -5676    -5846 
   -6042    -6204    -6262    -6139    -5815    -5379    -5012    -4897 
   -5040    -5286    -5535    -5819    -6174    -6589    -7041    -7464 
   -7726    -7722    -7468    -7034    -6498    -5984    -5576    -5266 
   -5040    -4914    -4895    -4928    -4946    -4992    -5155    -5408 
   -5690    -6015    -6363    -6627    -6743    -6717    -6573    -6382 
   -6199    -6039    -5994    -6085    -6162    -6104    -5962    -5842 
   -5755    -5636    -5441    -5181    -4931    -4791    -4793    -4915 
   -5117    -5391    -5765    -6239    -6700    -6988    -7006    -6727 
   -6250    -5746    -5321    -4999    -4815    -4851    -5146    -5599 
   -6084    -6516    -6779    -6862    -6864    -6829    -6709    -6455 
   -6102    -5761    -5491    -5302    -5232    -5283    -5401    -5514 
   -5578    -5607    -5636    -5652    -5655    -5688    -5792    -5945 
   -6119    -6307    -6477    -6600    -6655    -6602    -6446    -6265 
   -6150    -6099    -6046    -5965    -5867    -5749    -5590    -5400 
   -5254    -5192    -5185    -5198    -5233    -5367    -5641    -5930 
   -6119    -6278    -6490    -6675    -6709    -6562    -6303    -6046 
   -5833    -5610    -5355    -5082    -4816    -4617    -4549    -4648 
   -4949    -5429    -5956    -6372    -6637    -6787    -6868    -6941 
   -7055    -7172    -7194    -7059    -6783    -6400    -5980    -5659 
   -5524    -5537    -5593    -5609    -5548    -5435    -5340    -5278 
   -5224    -5225    -5366    -5595    -5790    -5900    -5921    -5846 
   -5722    -5624    -5628    -5790    -6076    -6347    -6501    -6520 
   -6432    -6303    -6224    -6245    -6304    -6301    -6214    -6085 
   -5980    -5953    -5994    -6041    -6046    -5984    -5845    -5671 
   -5535    -5475    -5466    -5472    -5495    -5506    -5445    -5371 
