Origin Time       2025/03/28 03:50:00
Lat.              35.403
Long.             140.360
Depth. (km)       54
Mag.              4.4
Station Code      TKY004
Station Lat.      35.6301
Station Long.     139.4034
Station Height(m) 81
Record Time       2025/03/28 03:50:55
Sampling Freq(Hz) 100Hz
Duration Time(s)  69
Dir.              N-S
Scale Factor      7845(gal)/8223790
Max. Acc. (gal)   3.903
Last Correction   2025/03/28 03:50:55
Memo.             
[...]
  -11659   -11662   -11659   -11659   -11662   -11659   -11661   -11668 
  -11665   -11649   -11646   -11662   -11672   -11672   -11669   -11655 
  -11639   -11650   -11672   -11670   -11658   -11654   -11659   -11666 
  -11670   -11666   -11651   -11635   -11643   -11672   -11684   -11677 
  -11665   -11647   -11635   -11645   -11669   -11681   -11672   -11659 
  -11655   -11655   -11662   -11669   -11661   -11647   -11654   -11666 
  -11666   -11669   -11673   -11661   -11643   -11647   -11659   -11655 
  -11654   -11665   -11666   -11657   -11654   -11659   -11659   -11657 
  -11661   -11665   -11662   -11661   -11669   -11668   -11653   -11649 
  -11658   -11655   -11654   -11666   -11673   -11662   -11654   -11661 
  -11662   -11654   -11654   -11659   -11658   -11666   -11673   -11662 
  -11655   -11659   -11655   -11650   -11658   -11666   -11662   -11657 
  -11664   -11668   -11661   -11658   -11662   -11661   -11661   -11670 
  -11672   -11658   -11649   -11655   -11658   -11649   -11653   -11669 
  -11665   -11654   -11657   -11659   -11655   -11659   -11670   -11672 
  -11666   -11670   -11674   -11668   -11658   -11651   -11643   -11639 
  -11647   -11658   -11658   -11658   -11664   -11661   -11658   -11666 
  -11678   -11674   -11665   -11664   -11662   -11659   -11662   -11661 
  -11649   -11643   -11655   -11666   -11665   -11665   -11665   -11653 
  -11632   -11618   -11619   -11647   -11711   -11776   -11765   -11664 
  -11545   -11479   -11500   -11632   -11842   -11973   -11880   -11599 
  -11345   -11313   -11539   -11877   -12090   -12032   -11750   -11430 
  -11267   -11372   -11695   -11963   -11925   -11622   -11331   -11253 
  -11365   -11526   -11685   -11893   -12087   -12110   -11944   -11715 
  -11551   -11551   -11689   -11815   -11809   -11612   -11350   -11267 
  -11348   -11388   -11308   -11259   -11539   -12135   -12587   -12599 
  -12208   -11538   -10905   -10791   -11361   -12147   -12487   -12152 
  -11406   -10798   -10793   -11277   -11732   -11936   -12067   -12214 
  -12270   -12164   -11781   -11061   -10474   -10673   -11572   -12378 
  -12580   -12316   -11839   -11369   -11144   -11126   -11218   -11612 
  -12264   -12602   -12267   -11543   -10890   -10593   -10804   -11475 
  -12271   -12700   -12530   -11959   -11284   -10798   -10791   -11254 
  -11851   -12243   -12279   -12083   -11913   -11815   -11626   -11361 
  -11280   -11565   -12067   -12378   -12201   -11581   -10918   -10669 
  -10833   -11167   -11611   -12039   -12235   -12159   -11884   -11612 
  -11585   -11746   -11874   -11886   -11772   -11589   -11477   -11458 
  -11492   -11500   -11388   -11360   -11672   -12058   -12154   -12002 
  -11766   -11519   -11380   -11388   -11429   -11449   -11562   -11736 
  -11745   -11626   -11630   -11735   -11782   -11784   -11772   -11767 
  -11788   -11813   -11920   -12096   -12060   -11689   -11214   -10864 
  -10779   -11070   -11603   -12123   -12344   -12064   -11596   -11387 
  -11426   -11581   -11807   -12001   -12096   -12059   -11840   -11479 
  -11078   -10825   -10990   -11507   -11931   -12024   -11935   -11896 
  -12009   -12047   -11680   -11121   -10978   -11475   -12191   -12540 
  -12401   -11981   -11408   -10928   -10866   -11203   -11619   -11842 
  -11842   -11734   -11637   -11620   -11662   -11639   -11542   -11522 
  -11593   -11709   -11950   -12167   -12006   -11564   -11276   -11267 
  -11427   -11654   -11803   -11896   -12023   -11996   -11688   -11349 
  -11275   -11406   -11462   -11430   -11562   -11912   -12183   -12127 
  -11867   -11696   -11716   -11782   -11666   -11402   -11319   -11502 
  -11628   -11484   -11260   -11227   -11368   -11547   -11720   -11859 
  -11994   -12141   -12201   -12133   -11993   -11786   -11573   -11488 
  -11543   -11608   -11587   -11480   -11353   -11263   -11248   -11389 
  -11696   -11905   -11812   -11647   -11736   -12006   -12198   -12151 
  -11817   -11408   -11295   -11492   -11639   -11591   -11581   -11715 
  -11784   -11666   -11468   -11264   -11122   -11232   -11649   -12083 
  -12208   -12029   -11772   -11561   -11445   -11433   -11456   -11556 
  -11808   -12000   -11973   -11931   -11881   -11605   -11279   -11265 
  -11592   -12006   -12217   -12051   -11620   -11234   -11111   -11206 
  -11327   -11422   -11591   -11823   -12015   -12085   -12001   -11817 
  -11658   -11591   -11573   -11605   -11719   -11794   -11641   -11360 
  -11279   -11443   -11619   -11686   -11745   -11834   -11842   -11780 
  -11773   -11786   -11762   -11720   -11619   -11449   -11338   -11380 
  -11489   -11584   -11709   -11847   -11870   -11797   -11750   -11719 
  -11681   -11716   -11824   -11875   -11780   -11530   -11263   -11222 
  -11429   -11669   -11781   -11754   -11750   -11850   -11877   -11743 
  -11569   -11450   -11462   -11639   -11839   -11901   -11821   -11705 
  -11639   -11630   -11596   -11526   -11527   -11589   -11578   -11506 
  -11524   -11726   -11982   -12032   -11820   -11581   -11502   -11558 
  -11646   -11677   -11708   -11840   -11962   -11919   -11758   -11562 
  -11398   -11342   -11373   -11433   -11514   -11589   -11612   -11570 
  -11483   -11403   -11434   -11653   -11955   -12102   -12037   -11921 
  -11819   -11730   -11765   -11950   -12121   -12074   -11754   -11348 
  -11036   -10870   -10889   -11075   -11306   -11553   -11866   -12172 
  -12357   -12393   -12240   -11913   -11600   -11452   -11419   -11415 
  -11415   -11456   -11527   -11524   -11450   -11441   -11547   -11711 
  -11835   -11843   -11774   -11723   -11726   -11796   -11958   -12113 
  -12039   -11678   -11253   -11048   -11182   -11454   -11584   -11615 
  -11712   -11884   -12047   -12123   -12104   -12020   -11843   -11547 
  -11230   -11059   -11092   -11222   -11338   -11483   -11746   -12054 
  -12210   -12139   -11969   -11796   -11568   -11310   -11210   -11367 
  -11658   -11896   -11986   -11956   -11880   -11796   -11647   -11434 
  -11290   -11272   -11341   -11493   -11697   -11842   -11808   -11627 
  -11522   -11580   -11651   -11696   -11797   -11917   -11974   -11947 
  -11805   -11618   -11580   -11689   -11742   -11668   -11558   -11500 
  -11488   -11523   -11678   -11881   -11907   -11720   -11504   -11439 
  -11577   -11740   -11695   -11458   -11246   -11182   -11241   -11407 
  -11680   -12006   -12191   -12081   -11821   -11678   -11745   -11915 
  -11989   -11871   -11691   -11605   -11653   -11726   -11655   -11458 
  -11356   -11414   -11456   -11404   -11391   -11531   -11799   -12004 
  -11961   -11738   -11560   -11574   -11732   -11792   -11665   -11542 
  -11514   -11531   -11591   -11678   -11727   -11724   -11708   -11695 
  -11696   -11720   -11728   -11695   -11672   -11692   -11704   -11674 
  -11658   -11719   -11773   -11674   -11493   -11446   -11560   -11715 
  -11843   -11900   -11881   -11813   -11670   -11457   -11321   -11369 
  -11500   -11568   -11597   -11724   -11952   -12123   -12116   -11942 
  -11645   -11304   -11099   -11109   -11249   -11485   -11769   -11935 
  -11938   -11861   -11701   -11491   -11398   -11497   -11664   -11738 
  -11693   -11614   -11560   -11557   -11669   -11892   -12110   -12241 
  -12225   -12028   -11789   -11635   -11507   -11380   -11338   -11406 
  -11499   -11529   -11512   -11516   -11507   -11425   -11340   -11352 
  -11481   -11682   -11827   -11873   -11928   -12006   -12047   -12098 
  -12118   -11897   -11433   -11017   -10903   -11092   -11369   -11543 
  -11654   -11834   -12047   -12132   -12064   -11929   -11772   -11632 
  -11580   -11605   -11662   -11701   -11693   -11664   -11646   -11626 
  -11595   -11591   -11624   -11622   -11520   -11406   -11416   -11542 
  -11659   -11701   -11682   -11591   -11439   -11375   -11468   -11581 
  -11658   -11811   -12040   -12181   -12164   -12098   -12081   -12090 
  -12044   -11905   -11632   -11275   -11094   -11211   -11438   -11570 
  -11531   -11421   -11412   -11497   -11543   -11516   -11493   -11558 
  -11715   -11851   -11870   -11840   -11842   -11848   -11867   -11838 
  -11614   -11326   -11264   -11412   -11565   -11645   -11696   -11746 
  -11730   -11595   -11460   -11472   -11628   -11867   -12064   -12091 
  -12020   -11986   -11961   -11811   -11539   -11325   -11298   -11445 
  -11624   -11692   -11703   -11797   -11900   -11844   -11678   -11608 
  -11669   -11715   -11597   -11310   -11094   -11152   -11367   -11556 
  -11689   -11754   -11746   -11673   -11568   -11538   -11647   -11817 
  -12000   -12152   -12168   -12070   -11990   -11954   -11865   -11645 
  -11334   -11095   -11076   -11248   -11419   -11492   -11580   -11728 
  -11821   -11836   -11830   -11792   -11747   -11712   -11638   -11561 
  -11608   -11794   -11944   -11915   -11785   -11646   -11473   -11295 
  -11252   -11358   -11456   -11516   -11623   -11730   -11794   -11854 
  -11870   -11824   -11792   -11803   -11826   -11865   -11874   -11782 
  -11641   -11542   -11510   -11554   -11645   -11697   -11668   -11600 
  -11529   -11473   -11481   -11515   -11507   -11495   -11512   -11516 
  -11504   -11529   -11614   -11746   -11873   -11948   -11983   -11990 
  -11952   -11867   -11766   -11708   -11742   -11800   -11751   -11624 
  -11537   -11488   -11403   -11286   -11199   -11234   -11442   -11703 
  -11859   -11885   -11804   -11691   -11662   -11703   -11716   -11678 
  -11642   -11658   -11726   -11780   -11767   -11699   -11584   -11430 
  -11337   -11422   -11664   -11929   -12091   -12083   -11948   -11815 
  -11697   -11527   -11387   -11416   -11560   -11639   -11610   -11589 
  -11630   -11650   -11604   -11557   -11580   -11678   -11811   -11912 
  -11942   -11875   -11684   -11489   -11475   -11581   -11661   -11708 
  -11742   -11740   -11684   -11587   -11507   -11497   -11561   -11635 
  -11659   -11634   -11604   -11595   -11611   -11634   -11619   -11550 
  -11514   -11583   -11726   -11869   -11929   -11853   -11705   -11626 
  -11639   -11642   -11561   -11479   -11508   -11632   -11766   -11847 
  -11826   -11722   -11634   -11596   -11589   -11637   -11754   -11862 
  -11858   -11739   -11628   -11638   -11704   -11716   -11727   -11801 
  -11857   -11776   -11545   -11296   -11232   -11419   -11676   -11777 
  -11712   -11597   -11554   -11624   -11668   -11570   -11430   -11391 
  -11499   -11672   -11774   -11777   -11769   -11788   -11793   -11778 
  -11718   -11612   -11585   -11676   -11761   -11767   -11740   -11726 
  -11689   -11615   -11592   -11651   -11701   -11665   -11599   -11619 
  -11767   -11955   -12036   -11939   -11735   -11547   -11410   -11304 
  -11284   -11356   -11435   -11530   -11707   -11869   -11850   -11699 
  -11601   -11591   -11584   -11589   -11689   -11844   -11886   -11796 
  -11757   -11801   -11807   -11757   -11664   -11530   -11429   -11388 
  -11326   -11233   -11227   -11327   -11441   -11593   -11832   -12021 
  -12027   -11916   -11811   -11767   -11793   -11870   -11956   -12002 
  -11977   -11844   -11600   -11348   -11234   -11261   -11303   -11367 
  -11550   -11789   -11959   -12058   -12052   -11896   -11664   -11465 
  -11377   -11431   -11558   -11674   -11746   -11801   -11882   -11928 
  -11893   -11838   -11781   -11641   -11449   -11352   -11389   -11507 
  -11665   -11763   -11742   -11693   -11696   -11743   -11793   -11734 
  -11531   -11358   -11315   -11326   -11383   -11533   -11715   -11830 
  -11831   -11732   -11611   -11554   -11589   -11642   -11601   -11489 
  -11454   -11551   -11731   -11885   -11925   -11909   -11925   -11958 
  -11998   -12035   -12019   -11928   -11749   -11487   -11242   -11140 
  -11160   -11157   -11052   -10875   -10696   -10656   -10866   -11225 
  -11560   -11782   -11888   -11919   -11947   -12033   -12175   -12333 
  -12465   -12545   -12559   -12533   -12542   -12673   -12996   -13500 
  -13981   -14129   -13770   -12924   -11680   -10233    -8918    -8020 
   -7674    -7879    -8500    -9425   -10577   -11792   -12850   -13517 
  -13625   -13217   -12465   -11568   -10802   -10474   -10702   -11260 
  -11790   -12150   -12356   -12383   -12121   -11556   -10953   -10758 
  -11248   -12332   -13622   -14690   -15206   -15002   -14092   -12700 
  -11218   -10049    -9431    -9266    -9220    -9134    -9136    -9342 
   -9747   -10427   -11434   -12557   -13424   -13724   -13365   -12588 
  -11800   -11290   -11128   -11161   -11219   -11317   -11519   -11743 
  -11765   -11477   -11086   -10910   -11138   -11754   -12525   -13177 
  -13548   -13501   -12964   -12064   -11140   -10646   -10802   -11327 
  -11735   -11757   -11495   -11354   -11627   -12199   -12737   -12981 
  -12893   -12569   -12060   -11371   -10567    -9833    -9441    -9574 
  -10107   -10647   -10863   -10729   -10463   -10366   -10667   -11433 
  -12579   -13848   -14895   -15441   -15348   -14708   -13813   -12868 
  -11878   -10851    -9896    -9169    -8800    -8841    -9301   -10181 
  -11291   -12210   -12590   -12355   -11793   -11357   -11206   -11207 
  -11344   -11693   -12123   -12382   -12382   -12166   -11817   -11557 
  -11634   -12015   -12371   -12434   -12225   -11900   -11522   -11016 
  -10386    -9937   -10042   -10740   -11731   -12656   -13252   -13392 
  -13088   -12468   -11816   -11462   -11507   -11761   -11962   -11993 
  -11882   -11693   -11468   -11237   -11045   -10971   -11070   -11281 
  -11452   -11443   -11227   -10897   -10660   -10716   -11037   -11454 
  -11898   -12437   -13062   -13597   -13855   -13837   -13671   -13336 
  -12592   -11276    -9579    -8114    -7568    -8113    -9364   -10839 
  -12197   -13181   -13606   -13471   -12966   -12312   -11740   -11449 
  -11403   -11458   -11643   -11959   -12156   -12013   -11614   -11277 
  -11236   -11389   -11477   -11400   -11314   -11389   -11551   -11531 
  -11286   -11138   -11340   -11736   -12004   -12067   -12185   -12568 
  -13059   -13269   -12935   -12124   -11160   -10427   -10160   -10443 
  -11128   -11830   -12297   -12530   -12563   -12474   -12387   -12337 
  -12285   -12112   -11688   -11097   -10605   -10320   -10049    -9614 
   -9140    -8974    -9378   -10358   -11704   -13139   -14374   -15091 
  -15066   -14415   -13549   -12843   -12386   -12015   -11500   -10814 
  -10188    -9853    -9863   -10143   -10524   -10812   -10999   -11257 
  -11745   -12384   -12885   -13049   -12914   -12595   -12159   -11592 
  -10928   -10341    -9960    -9738    -9616    -9688   -10138   -10991 
  -12008   -12922   -13653   -14164   -14364   -14261   -13919   -13414 
  -12834   -12175   -11365   -10484    -9779    -9466    -9583    -9988 
  -10516   -11068   -11554   -11928   -12251   -12523   -12640   -12542 
  -12274   -11892   -11472   -11101   -10844   -10736   -10764   -10878 
  -11011   -11084   -11114   -11308   -11865   -12737   -13639   -14207 
  -14220   -13765   -13116   -12469   -11828   -11134   -10419    -9780 
   -9377    -9414    -9930   -10690   -11377   -11776   -11854   -11776 
  -11731   -11762   -11809   -11838   -11858   -11865   -11830   -11726 
  -11529   -11283   -11149   -11256   -11522   -11769   -11962   -12177 
  -12409   -12577   -12599   -12449   -12248   -12185   -12244   -12235 
  -12050   -11735   -11391   -11148   -11094   -11172   -11186   -11018 
  -10777   -10578   -10428   -10350   -10407   -10640   -11044   -11541 
  -12021   -12425   -12768   -13058   -13197   -13065   -12710   -12357 
  -12151   -12032   -11923   -11782   -11576   -11319   -11064   -10833 
  -10693   -10768   -11111   -11620   -12116   -12487   -12722   -12830 
  -12788   -12557   -12129   -11615   -11196   -10989   -10937   -10917 
  -10895   -10901   -10909   -10916   -10978   -11130   -11327   -11497 
  -11611   -11668   -11681   -11718   -11842   -12001   -12079   -12020 
  -11873   -11770   -11767   -11766   -11701   -11649   -11708   -11875 
  -12006   -11942   -11730   -11566   -11534   -11603   -11704   -11759 
  -11739   -11616   -11352   -11061   -10906   -10894   -11013   -11299 
  -11732   -12210   -12602   -12831   -12906   -12857   -12731   -12546 
  -12302   -12016   -11728   -11456   -11140   -10754   -10427   -10320 
  -10416   -10570   -10743   -11026   -11442   -11921   -12390   -12748 
  -12933   -12996   -12942   -12642   -12070   -11395   -10755   -10207 
   -9836    -9721    -9864   -10227   -10746   -11304   -11817   -12256 
  -12606   -12861   -13039   -13150   -13186   -13159   -13065   -12847 
  -12428   -11788   -11022   -10331    -9926    -9876   -10087   -10481 
  -11070   -11803   -12510   -13042   -13323   -13315   -13045   -12606 
  -12109   -11637   -11206   -10744   -10274    -9987    -9992   -10215 
  -10582   -11079   -11647   -12167   -12549   -12727   -12658   -12394 
  -12048   -11742   -11535   -11402   -11334   -11394   -11583   -11807 
  -11971   -12019   -11967   -11880   -11786   -11674   -11547   -11461 
  -11465   -11518   -11495   -11356   -11200   -11130   -11165   -11294 
  -11503   -11757   -12025   -12249   -12334   -12313   -12283   -12210 
  -12039   -11809   -11553   -11337   -11211   -11126   -11087   -11130 
  -11172   -11152   -11175   -11362   -11701   -12042   -12218   -12214 
  -12160   -12094   -11923   -11654   -11426   -11341   -11392   -11476 
  -11518   -11565   -11649   -11738   -11808   -11863   -11936   -12021 
  -12096   -12214   -12378   -12413   -12245   -12015   -11773   -11452 
  -11129   -10901   -10758   -10721   -10790   -10864   -10940   -11103 
  -11327   -11508   -11614   -11658   -11720   -11936   -12306   -12663 
  -12880   -12949   -12889   -12708   -12399   -11962   -11475   -11041 
  -10712   -10490   -10369   -10350   -10424   -10590   -10913   -11416 
  -11997   -12510   -12838   -12926   -12830   -12636   -12372   -12025 
  -11596   -11115   -10694   -10481   -10503   -10678   -10963   -11308 
  -11628   -11875   -12093   -12326   -12498   -12487   -12298   -12055 
  -11869   -11774   -11762   -11820   -11925   -11969   -11861   -11682 
  -11580   -11585   -11624   -11604   -11526   -11458   -11412   -11348 
  -11252   -11169   -11140   -11155   -11229   -11376   -11588   -11835 
  -12042   -12125   -12052   -11848   -11596   -11391   -11259   -11176 
  -11151   -11171   -11226   -11346   -11543   -11766   -11939   -12024 
  -12059   -12067   -12067   -12112   -12213   -12317   -12384   -12399 
  -12334   -12193   -11986   -11719   -11423   -11155   -10952   -10843 
  -10839   -10943   -11133   -11352   -11538   -11668   -11738   -11774 
  -11789   -11800   -11846   -11947   -12070   -12141   -12124   -12042 
  -11954   -11908   -11853   -11707   -11499   -11288   -11080   -10862 
  -10655   -10528   -10520   -10632   -10898   -11314   -11784   -12232 
  -12627   -12912   -13053   -13043   -12865   -12555   -12218   -11931 
  -11707   -11545   -11438   -11354   -11263   -11163   -11048   -10939 
  -10897   -10955   -11119   -11371   -11610   -11774   -11873   -11893 
  -11821   -11722   -11642   -11576   -11547   -11608   -11766   -11965 
  -12131   -12217   -12201   -12062   -11846   -11622   -11422   -11250 
  -11142   -11142   -11230   -11377   -11591   -11840   -12020   -12058 
  -11970   -11854   -11850   -11948   -11990   -11919   -11830   -11789 
  -11720   -11511   -11244   -11082   -11029   -11068   -11234   -11499 
  -11790   -12023   -12109   -12015   -11781   -11512   -11331   -11313 
  -11481   -11747   -11950   -12020   -11978   -11866   -11731   -11605 
