Origin Time       2025/03/28 03:50:00
Lat.              35.403
Long.             140.360
Depth. (km)       54
Mag.              4.4
Station Code      TKY017
Station Lat.      35.6473
Station Long.     139.8092
Station Height(m) 4
Record Time       2025/03/28 03:51:00
Sampling Freq(Hz) 100Hz
Duration Time(s)  60
Dir.              E-W
Scale Factor      7845(gal)/8223790
Max. Acc. (gal)   4.233
Last Correction   2025/03/28 03:51:01
Memo.             
[...]
   -2756    -2764    -2736    -2720    -2736    -2725    -2702    -2698 
   -2697    -2691    -2687    -2691    -2697    -2686    -2687    -2701 
   -2697    -2705    -2735    -2747    -2756    -2778    -2771    -2748 
   -2743    -2727    -2716    -2729    -2725    -2722    -2732    -2702 
   -2679    -2687    -2668    -2647    -2646    -2648    -2658    -2671 
   -2691    -2708    -2702    -2713    -2737    -2748    -2767    -2778 
   -2758    -2741    -2729    -2713    -2729    -2748    -2739    -2727 
   -2725    -2728    -2729    -2727    -2721    -2716    -2702    -2695 
   -2708    -2700    -2694    -2709    -2702    -2704    -2722    -2727 
   -2747    -2771    -2778    -2790    -2797    -2789    -2771    -2760 
   -2764    -2754    -2748    -2770    -2776    -2763    -2756    -2754 
   -2740    -2718    -2717    -2721    -2714    -2716    -2710    -2695 
   -2698    -2691    -2681    -2685    -2683    -2697    -2725    -2736 
   -2747    -2755    -2745    -2751    -2755    -2752    -2763    -2767 
   -2749    -2741    -2745    -2731    -2714    -2713    -2694    -2687 
   -2702    -2700    -2706    -2706    -2673    -2658    -2663    -2656 
   -2663    -2683    -2701    -2700    -2693    -2718    -2736    -2735 
   -2755    -2760    -2763    -2779    -2771    -2758    -2741    -2708 
   -2691    -2691    -2695    -2698    -2701    -2709    -2686    -2652 
   -2664    -2664    -2652    -2690    -2698    -2677    -2705    -2710 
   -2694    -2717    -2712    -2701    -2735    -2755    -2782    -2821 
   -2821    -2803    -2785    -2760    -2744    -2749    -2767    -2760 
   -2749    -2754    -2735    -2706    -2694    -2695    -2706    -2710 
   -2727    -2743    -2722    -2713    -2713    -2695    -2705    -2729 
   -2737    -2752    -2752    -2737    -2743    -2731    -2708    -2716 
   -2714    -2702    -2710    -2722    -2713    -2702    -2722    -2721 
   -2698    -2700    -2691    -2690    -2712    -2720    -2744    -2763 
   -2743    -2725    -2724    -2733    -2749    -2767    -2793    -2801 
   -2781    -2763    -2729    -2690    -2677    -2654    -2641    -2659 
   -2663    -2663    -2677    -2673    -2660    -2675    -2694    -2701 
   -2727    -2752    -2752    -2749    -2748    -2740    -2736    -2737 
   -2735    -2741    -2749    -2733    -2727    -2739    -2741    -2739 
   -2748    -2754    -2747    -2743    -2732    -2722    -2717    -2694 
   -2679    -2685    -2685    -2682    -2687    -2700    -2704    -2702 
   -2716    -2718    -2725    -2758    -2770    -2763    -2763    -2756 
   -2747    -2740    -2739    -2745    -2744    -2732    -2737    -2743 
   -2720    -2717    -2736    -2727    -2729    -2760    -2760    -2745 
   -2755    -2749    -2727    -2729    -2744    -2732    -2729    -2735 
   -2717    -2717    -2733    -2713    -2706    -2708    -2679    -2679 
   -2697    -2695    -2709    -2718    -2714    -2710    -2704    -2713 
   -2702    -2695    -2731    -2733    -2721    -2735    -2733    -2736 
   -2747    -2733    -2728    -2752    -2762    -2756    -2767    -2770 
   -2752    -2751    -2752    -2735    -2729    -2732    -2724    -2722 
   -2708    -2687    -2706    -2712    -2690    -2709    -2718    -2701 
   -2710    -2720    -2712    -2695    -2687    -2708    -2713    -2712 
   -2739    -2733    -2710    -2731    -2744    -2747    -2768    -2764 
   -2743    -2744    -2736    -2731    -2747    -2741    -2733    -2731 
   -2704    -2698    -2724    -2720    -2717    -2739    -2718    -2681 
   -2675    -2671    -2678    -2698    -2698    -2702    -2709    -2694 
   -2702    -2724    -2718    -2710    -2710    -2701    -2695    -2712 
   -2728    -2725    -2720    -2708    -2700    -2709    -2706    -2706 
   -2739    -2759    -2755    -2755    -2760    -2764    -2774    -2793 
   -2789    -2772    -2772    -2747    -2722    -2732    -2724    -2705 
   -2701    -2694    -2690    -2702    -2712    -2697    -2691    -2716 
   -2731    -2724    -2729    -2731    -2721    -2733    -2748    -2745 
   -2760    -2758    -2729    -2739    -2754    -2751    -2763    -2748 
   -2717    -2709    -2694    -2686    -2695    -2691    -2694    -2693 
   -2679    -2683    -2687    -2689    -2701    -2714    -2710    -2694 
   -2698    -2705    -2709    -2733    -2748    -2764    -2791    -2785 
   -2759    -2725    -2704    -2708    -2704    -2720    -2751    -2748 
   -2743    -2731    -2704    -2698    -2697    -2716    -2748    -2735 
   -2727    -2731    -2706    -2700    -2709    -2691    -2673    -2675 
   -2690    -2702    -2722    -2727    -2704    -2714    -2739    -2739 
   -2763    -2789    -2781    -2774    -2772    -2763    -2740    -2739 
   -2747    -2716    -2712    -2733    -2712    -2702    -2710    -2691 
   -2687    -2691    -2687    -2702    -2713    -2697    -2681    -2675 
   -2666    -2667    -2689    -2710    -2714    -2704    -2705    -2716 
   -2721    -2747    -2768    -2767    -2793    -2845    -2887    -2902 
   -2837    -2727    -2659    -2636    -2693    -2805    -2830    -2756 
   -2655    -2558    -2511    -2525    -2593    -2704    -2772    -2766 
   -2764    -2771    -2735    -2717    -2760    -2799    -2814    -2836 
   -2880    -2905    -2829    -2717    -2643    -2544    -2474    -2517 
   -2608    -2700    -2772    -2803    -2766    -2614    -2466    -2489 
   -2660    -2880    -3069    -3111    -2949    -2698    -2547    -2586 
   -2745    -2874    -2909    -2837    -2659    -2516    -2515    -2629 
   -2787    -2860    -2840    -2756    -2583    -2474    -2524    -2631 
   -2776    -2910    -2921    -2853    -2781    -2710    -2656    -2636 
   -2652    -2708    -2752    -2722    -2658    -2606    -2621    -2731 
   -2848    -2930    -2918    -2736    -2533    -2458    -2508    -2700 
   -2932    -3038    -2987    -2828    -2654    -2571    -2586    -2646 
   -2709    -2727    -2694    -2682    -2727    -2809    -2880    -2883 
   -2795    -2648    -2543    -2552    -2666    -2841    -2968    -2975 
   -2934    -2867    -2754    -2639    -2552    -2528    -2596    -2687 
   -2768    -2820    -2767    -2652    -2585    -2566    -2597    -2674 
   -2724    -2739    -2709    -2627    -2609    -2691    -2782    -2841 
   -2845    -2805    -2802    -2805    -2751    -2689    -2640    -2610 
   -2644    -2720    -2786    -2820    -2813    -2805    -2809    -2799 
   -2793    -2776    -2797    -2886    -2909    -2841    -2805    -2809 
   -2813    -2772    -2663    -2523    -2412    -2427    -2581    -2713 
   -2739    -2668    -2528    -2442    -2462    -2531    -2647    -2772 
   -2828    -2793    -2667    -2505    -2462    -2602    -2770    -2821 
   -2786    -2718    -2705    -2802    -2897    -2922    -2932    -2926 
   -2922    -2914    -2833    -2731    -2725    -2787    -2793    -2690 
   -2527    -2407    -2403    -2512    -2674    -2809    -2880    -2894 
   -2843    -2771    -2739    -2724    -2724    -2749    -2754    -2705 
   -2628    -2582    -2562    -2513    -2454    -2403    -2408    -2546 
   -2733    -2882    -2975    -3005    -2995    -2940    -2849    -2778 
   -2733    -2758    -2857    -2920    -2898    -2808    -2675    -2586 
   -2586    -2662    -2764    -2856    -2956    -3024    -2949    -2767 
   -2559    -2362    -2311    -2467    -2670    -2833    -2921    -2884 
   -2795    -2708    -2646    -2648    -2685    -2727    -2758    -2731 
   -2650    -2538    -2475    -2555    -2686    -2743    -2756    -2779 
   -2822    -2870    -2895    -2943    -3014    -3022    -2980    -2920 
   -2830    -2756    -2693    -2623    -2536    -2384    -2253    -2230 
   -2258    -2366    -2577    -2768    -2875    -2920    -2930    -2887 
   -2795    -2740    -2778    -2862    -2898    -2872    -2812    -2733 
   -2693    -2695    -2651    -2515    -2366    -2347    -2469    -2628 
   -2852    -3103    -3191    -3114    -2956    -2794    -2747    -2809 
   -2907    -3002    -2999    -2859    -2679    -2554    -2493    -2497 
   -2578    -2693    -2760    -2776    -2732    -2598    -2469    -2439 
   -2489    -2570    -2641    -2656    -2659    -2722    -2774    -2758 
   -2748    -2785    -2852    -2940    -2986    -2941    -2821    -2590 
   -2323    -2166    -2116    -2197    -2436    -2701    -2933    -3100 
   -3153    -3136    -3079    -3051    -3114    -3180    -3213    -3242 
   -3191    -3018    -2782    -2560    -2425    -2388    -2401    -2428 
   -2416    -2367    -2380    -2430    -2417    -2373    -2351    -2357 
   -2392    -2525    -2808    -3110    -3269    -3280    -3152    -2901 
   -2650    -2470    -2386    -2394    -2436    -2520    -2629    -2714 
   -2814    -2945    -3086    -3186    -3157    -3021    -2866    -2775 
   -2785    -2826    -2879    -2920    -2905    -2879    -2828    -2743 
   -2706    -2687    -2612    -2492    -2355    -2207    -2074    -2100 
   -2353    -2637    -2781    -2783    -2702    -2620    -2617    -2731 
   -2937    -3134    -3281    -3365    -3258    -2932    -2548    -2251 
   -2127    -2189    -2374    -2619    -2802    -2832    -2760    -2646 
   -2589    -2651    -2764    -2917    -3086    -3187    -3225    -3225 
   -3187    -3082    -2922    -2809    -2758    -2721    -2667    -2571 
   -2451    -2251    -2002    -1890    -1890    -1891    -1922    -2014 
   -2226    -2521    -2813    -3138    -3422    -3522    -3462    -3306 
   -3153    -3115    -3111    -3076    -3053    -3010    -2907    -2764 
   -2633    -2602    -2616    -2550    -2481    -2497    -2574    -2718 
   -2893    -3030    -3106    -3106    -3103    -3149    -3152    -3073 
   -2953    -2794    -2621    -2438    -2226    -2052    -1980    -1977 
   -1977    -1981    -2052    -2182    -2371    -2691    -3041    -3242 
   -3319    -3329    -3276    -3206    -3145    -3126    -3142    -3134 
   -3088    -2990    -2810    -2538    -2224    -2042    -2088    -2282 
   -2569    -2864    -3019    -3021    -2924    -2756    -2581    -2452 
   -2417    -2521    -2722    -2924    -3040    -3013    -2844    -2529 
   -2143    -1880    -1777    -1810    -2012    -2284    -2552    -2824 
   -2994    -3048    -3083    -3141    -3244    -3353    -3392    -3346 
   -3199    -2982    -2791    -2598    -2398    -2323    -2386    -2493 
   -2570    -2616    -2662    -2670    -2660    -2754    -2920    -3071 
   -3167    -3149    -2986    -2725    -2492    -2378    -2396    -2500 
   -2647    -2808    -2913    -2928    -2886    -2817    -2795    -2833 
   -2830    -2786    -2713    -2612    -2559    -2577    -2641    -2685 
   -2637    -2571    -2565    -2585    -2608    -2671    -2802    -2953 
   -3065    -3098    -3051    -2978    -2899    -2797    -2712    -2644 
   -2555    -2474    -2438    -2461    -2519    -2560    -2577    -2640 
   -2756    -2816    -2795    -2763    -2759    -2801    -2884    -3032 
   -3227    -3314    -3238    -3073    -2731    -2236    -1844    -1647 
   -1636    -1830    -2134    -2473    -2787    -3009    -3153    -3215 
   -3192    -3144    -3029    -2863    -2797    -2855    -2933    -2971 
   -2951    -2872    -2758    -2628    -2515    -2436    -2397    -2440 
   -2587    -2737    -2789    -2752    -2690    -2621    -2531    -2463 
   -2485    -2532    -2540    -2573    -2674    -2820    -3014    -3206 
   -3288    -3227    -3051    -2812    -2619    -2524    -2542    -2643 
   -2716    -2731    -2705    -2641    -2654    -2744    -2799    -2812 
   -2801    -2824    -2961    -3132    -3187    -3114    -2961    -2744 
   -2543    -2478    -2528    -2624    -2733    -2799    -2822    -2789 
   -2648    -2440    -2239    -2119    -2114    -2216    -2431    -2673 
   -2816    -2875    -2899    -2886    -2847    -2805    -2794    -2833 
   -2891    -2971    -3073    -3144    -3152    -3073    -2886    -2581 
   -2216    -1961    -1915    -2027    -2266    -2619    -2957    -3164 
   -3264    -3291    -3191    -2974    -2771    -2709    -2776    -2875 
   -2949    -2911    -2700    -2436    -2261    -2242    -2367    -2535 
   -2704    -2830    -2822    -2737    -2641    -2509    -2400    -2367 
   -2363    -2404    -2509    -2650    -2844    -3042    -3160    -3222 
   -3225    -3171    -3103    -2974    -2786    -2629    -2533    -2501 
   -2489    -2498    -2558    -2633    -2776    -2994    -3102    -3053 
   -2944    -2848    -2802    -2779    -2770    -2798    -2878    -2984 
   -3029    -2976    -2813    -2551    -2355    -2365    -2512    -2625 
   -2598    -2490    -2385    -2289    -2261    -2393    -2651    -2948 
   -3244    -3461    -3480    -3264    -2916    -2574    -2339    -2254 
   -2326    -2519    -2741    -2886    -2891    -2764    -2542    -2338 
   -2263    -2303    -2428    -2635    -2848    -2991    -3030    -2987 
   -2903    -2781    -2693    -2747    -2862    -2874    -2776    -2655 
   -2558    -2434    -2273    -2165    -2092    -1981    -1877    -1814 
   -1786    -1873    -2122    -2481    -2887    -3271    -3586    -3812 
   -3879    -3771    -3589    -3446    -3404    -3451    -3488    -3469 
   -3451    -3430    -3364    -3237    -3051    -2844    -2641    -2439 
   -2330    -2371    -2454    -2501    -2511    -2463    -2434    -2465 
   -2536    -2733    -3046    -3342    -3565    -3628    -3460    -3146 
   -2774    -2447    -2278    -2258    -2388    -2633    -2897    -3167 
   -3389    -3480    -3483    -3370    -3114    -2787    -2370    -1852 
   -1335     -943     -788     -823     -949    -1204    -1501    -1669 
   -1688    -1544    -1171     -646     -207      -78     -369    -1017 
   -1865    -2853    -3835    -4649    -5368    -6019    -6531    -6937 
   -7161    -7025    -6486    -5622    -4472    -3076    -1684     -579 
     202      673      761      422     -301    -1232    -2166    -2891 
   -3192    -3049    -2697    -2385    -2277    -2424    -2728    -3059 
   -3362    -3559    -3609    -3578    -3438    -3191    -2995    -2983 
   -3168    -3380    -3488    -3531    -3416    -3126    -2907    -2884 
   -3041    -3273    -3369    -3284    -2999    -2461    -1890    -1599 
   -1696    -2189    -2976    -3848    -4553    -4815    -4519    -3824 
   -3003    -2331    -2037    -2158    -2493    -2770    -2774    -2382 
   -1668     -826      -72      276      -17     -907    -2126    -3237 
   -3863    -3915    -3442    -2674    -2000    -1710    -1887    -2377 
   -2905    -3287    -3408    -3346    -3396    -3676    -4095    -4507 
   -4699    -4530    -3939    -2938    -1792     -874     -423     -540 
   -1167    -2099    -3096    -3946    -4475    -4637    -4456    -4016 
   -3470    -2849    -2165    -1557    -1034     -523      -70      214 
     160     -334    -1173    -2184    -3167    -3946    -4396    -4490 
   -4369    -4226    -4186    -4266    -4359    -4337    -4089    -3558 
   -2737    -1742     -889     -449     -575    -1348    -2529    -3748 
   -4776    -5373    -5418    -5038    -4379    -3569    -2745    -2047 
   -1579    -1375    -1409    -1586    -1755    -1877    -2004    -2135 
   -2316    -2585    -2879    -3208    -3618    -4031    -4282    -4240 
   -3928    -3488    -2952    -2367    -1912    -1661    -1547    -1522 
   -1495    -1395    -1240    -1134    -1274    -1696    -2253    -2868 
   -3419    -3736    -3819    -3747    -3597    -3372    -3067    -2853 
   -2836    -2880    -2897    -2871    -2786    -2652    -2490    -2342 
   -2222    -2085    -1958    -1877    -1814    -1737    -1656    -1641 
   -1782    -2089    -2457    -2751    -2940    -3017    -3060    -3210 
   -3422    -3634    -3854    -3960    -3897    -3746    -3543    -3300 
   -2976    -2608    -2367    -2330    -2473    -2717    -2944    -3107 
   -3111    -2895    -2508    -1984    -1474    -1258    -1499    -2120 
   -2906    -3688    -4297    -4541    -4414    -4059    -3593    -3123 
   -2752    -2531    -2443    -2465    -2560    -2694    -2871    -3055 
   -3195    -3294    -3322    -3257    -3130    -2953    -2751    -2574 
   -2435    -2313    -2189    -2042    -1975    -2088    -2277    -2516 
   -2853    -3214    -3531    -3739    -3740    -3503    -3032    -2440 
   -1933    -1599    -1482    -1637    -1975    -2307    -2538    -2663 
   -2682    -2596    -2435    -2269    -2184    -2246    -2455    -2744 
   -2997    -3105    -3099    -3063    -2995    -2920    -2856    -2728 
   -2529    -2361    -2222    -2035    -1791    -1499    -1196    -1051 
   -1169    -1483    -1938    -2493    -3092    -3636    -4013    -4151 
   -3933    -3369    -2729    -2249    -2008    -2041    -2332    -2798 
   -3275    -3624    -3781    -3723    -3503    -3226    -3019    -2961 
   -3033    -3164    -3269    -3330    -3353    -3319    -3285    -3277 
   -3217    -3053    -2785    -2471    -2138    -1738    -1321    -1015 
    -908    -1081    -1564    -2289    -3126    -3925    -4633    -5208 
   -5506    -5425    -4961    -4190    -3264    -2322    -1533    -1036 
    -845     -986    -1441    -2057    -2650    -3034    -3138    -3063 
   -2886    -2659    -2461    -2339    -2308    -2393    -2609    -2868 
   -3051    -3149    -3150    -3010    -2797    -2608    -2515    -2590 
   -2833    -3129    -3322    -3307    -3073    -2675    -2200    -1795 
   -1576    -1571    -1745    -2052    -2475    -2933    -3299    -3538 
   -3619    -3531    -3357    -3114    -2833    -2621    -2424    -2238 
   -2188    -2247    -2373    -2542    -2627    -2623    -2600    -2583 
   -2639    -2771    -2940    -3154    -3415    -3665    -3809    -3770 
   -3576    -3284    -2889    -2440    -2049    -1733    -1467    -1301 
   -1258    -1270    -1297    -1360    -1476    -1664    -1944    -2305 
   -2722    -3144    -3472    -3681    -3802    -3793    -3692    -3603 
   -3522    -3449    -3391    -3267    -3049    -2856    -2728    -2631 
   -2581    -2583    -2613    -2660    -2702    -2698    -2608    -2439 
   -2277    -2235    -2324    -2506    -2781    -3071    -3267    -3338 
   -3219    -2868    -2424    -2033    -1764    -1665    -1742    -1939 
   -2158    -2346    -2508    -2654    -2805    -3033    -3314    -3522 
   -3673    -3766    -3666    -3443    -3265    -3125    -3009    -2936 
   -2918    -3009    -3168    -3295    -3335    -3253    -3106    -3002 
   -2929    -2871    -2845    -2794    -2694    -2596    -2486    -2351 
   -2222    -2145    -2180    -2297    -2405    -2498    -2563    -2540 
   -2488    -2504    -2536    -2511    -2512    -2635    -2849    -3075 
   -3233    -3253    -3145    -2943    -2636    -2232    -1782    -1366 
   -1101    -1063    -1254    -1624    -2110    -2668    -3234    -3684 
   -3940    -4043    -4067    -4048    -4004    -3913    -3746    -3508 
   -3235    -3006    -2825    -2592    -2290    -2006    -1755    -1561 
   -1530    -1676    -1912    -2208    -2524    -2756    -2851    -2806 
   -2656    -2497    -2408    -2370    -2388    -2516    -2685    -2810 
   -2906    -2928    -2870    -2824    -2818    -2805    -2786    -2829 
   -2909    -2976    -3100    -3245    -3318    -3353    -3388    -3447 
   -3532    -3595    -3642    -3662    -3619    -3528    -3370    -3183 
   -3041    -2906    -2749    -2558    -2222    -1757    -1316     -972 
    -783     -818    -1047    -1417    -1906    -2427    -2817    -3014 
   -3105    -3141    -3167    -3235    -3295    -3275    -3138    -2876 
   -2585    -2339    -2158    -2107    -2235    -2496    -2789    -3046 
   -3181    -3125    -2947    -2739    -2532    -2400    -2434    -2648 
   -2957    -3196    -3261    -3169    -2959    -2712    -2587    -2639 
