Origin Time       2025/03/28 03:50:00
Lat.              35.403
Long.             140.360
Depth. (km)       54
Mag.              4.4
Station Code      TKY003
Station Lat.      35.7968
Station Long.     139.2916
Station Height(m) 179
Record Time       2025/03/28 03:51:09
Sampling Freq(Hz) 100Hz
Duration Time(s)  60
Dir.              E-W
Scale Factor      7845(gal)/8223790
Max. Acc. (gal)   1.660
Last Correction   2025/03/28 03:51:08
Memo.             
[...]
     789      788      785      784      785      785      784      785 
     787      784      784      785      787      787      784      784 
     784      785      784      784      787      788      785      785 
     785      785      785      785      787      787      785      784 
     783      783      784      788      792      789      785      785 
     785      785      785      787      789      788      785      785 
     789      788      785      784      784      785      785      788 
     789      787      785      784      785      785      781      783 
     783      781      788      791      788      789      791      785 
     784      787      785      784      787      787      785      788 
     789      788      785      785      787      787      787      788 
     787      789      792      789      787      785      785      787 
     787      787      787      785      785      788      789      788 
     785      784      785      788      789      787      788      789 
     787      784      783      784      788      787      785      785 
     783      777      773      772      768      766      766      770 
     776      774      765      753      746      746      756      769 
     776      772      757      731      711      710      726      746 
     750      743      741      757      804      865      918      946 
     951      951      967      999     1027     1031     1000      938 
     868      810      766      723      675      635      625      650 
     700      750      788      795      765      729      707      700 
     699      692      675      668      691      750      810      835 
     822      792      783      812      858      880      876      847 
     787      730      707      703      735      818      892      911 
     877      804      712      635      616      669      747      803 
     812      754      675      657      688      715      727      718 
     688      683      719      781      859      923      950      950 
     936      930      959     1030     1119     1165     1112     1008 
     924      842      741      661      627      625      622      603 
     585      602      642      657      621      581      591      631 
     685      764      827      823      778      760      799      874 
     938      962      990     1047     1085     1055      996      942 
     855      726      619      561      526      513      538      596 
     658      711      780      869      928      907      824      757 
     737      743      772      823      847      805      720      643 
     618      652      735      847      904      830      685      606 
     622      680      746      822      895      955     1015     1077 
    1107     1053      945      882      901      939      938      918 
     912      866      737      615      569      542      508      508 
     540      556      529      517      600      742      822      834 
     870      953     1004      988      963      962      932      869 
     839      858      854      804      765      754      706      585 
     461      421      469      552      643      753      868      939 
     961      982     1027     1042     1011      990      985      953 
     901      884      934     1007      994      868      689      491 
     328      276      330      407      465      529      650      808 
     920      951      954      959      926      849      820      869 
     920      943      973     1007      989      918      850      792 
     715      615      525      514      598      672      695      735 
     780      793      812      843      868      905      950      955 
     913      854      797      777      820      888      913      896 
     854      773      668      595      558      535      534      575 
     629      654      673      723      785      849      908      927 
     924      945      969      966      961      959      938      880 
     804      730      657      606      583      546      503      503 
     554      637      743      830      855      837      823      853 
     926      994     1036     1069     1088     1067     1004      923 
     861      822      781      723      646      544      445      414 
     476      554      577      575      599      650      719      810 
     912     1021     1109     1154     1167     1154     1108     1040 
     992      966      920      849      799      773      727      652 
     577      515      473      463      472      460      417      388 
     417      513      653      784      878      928      923      901 
     909      949      997     1031     1027      989      949      920 
     926      967      988      954      899      861      855      846 
     800      745      702      683      700      735      758      765 
     760      750      733      672      553      436      402      465 
     564      643      702      734      734      731      762      819 
     877      928      981     1040     1074     1058     1035     1046 
    1055     1011      932      855      785      729      716      750 
     799      832      823      760      664      557      444      348 
     324      373      438      522      648      770      850      905 
     969     1054     1142     1183     1163     1096      994      888 
     824      837      878      864      781      699      639      591 
     573      610      668      724      758      756      749      753 
     747      749      789      850      881      884      880      855 
     805      760      742      760      810      857      865      850 
     827      783      742      751      792      805      781      746 
     718      692      677      691      727      770      803      816 
     812      797      769      738      719      711      707      716 
     745      797      864      909      928      927      881      800 
     741      723      737      769      810      854      901      934 
     945      939      892      781      653      568      538      554 
     630      743      814      814      781      764      776      791 
     785      785      814      847      865      880      899      880 
     823      788      799      822      841      861      866      842 
     812      781      737      704      683      657      661      707 
     738      734      729      729      722      734      770      803 
     835      891      934      932      908      884      869      859 
     824      760      707      696      715      737      747      751 
     747      741      749      781      835      880      862      781 
     710      679      673      700      753      781      766      716 
     645      592      596      641      691      737      785      819 
     832      866      931      976      973      947      928      939 
     957      936      903      919      980     1008      967      905 
     857      796      735      719      723      689      611      521 
     460      432      409      419      502      611      677      708 
     758      854      967     1053     1098     1098     1054     1003 
     989     1004      988      918      854      851      853      805 
     756      733      708      666      596      514      464      436 
     402      390      415      453      521      648      799      904 
     938      955      999     1036     1046     1043     1043     1066 
    1107     1128     1129     1128     1105     1038      936      805 
     653      529      481      476      453      414      407      448 
     519      592      650      706      770      820      832      832 
     846      854      862      892      916      909      908      943 
     994     1031     1034     1003      963      927      857      739 
     629      588      635      741      853      911      878      781 
     689      649      652      649      608      556      542      568 
     616      700      808      874      872      861      877      882 
     845      810      830      866      850      808      795      800 
     777      723      689      699      712      727      793      870 
     872      810      789      850      909      901      859      841 
     855      876      888      903      886      823      758      719 
     675      606      564      600      683      726      719      726 
     764      795      800      787      758      707      643      621 
     669      743      792      842      939     1044     1085     1073 
    1058     1017      911      785      712      691      696      738 
     814      891      935      920      857      791      726      652 
     599      607      637      635      612      622      660      699 
     749      810      832      795      720      673      696      746 
     768      772      780      788      801      838      886      920 
     930      935      955      957      913      851      812      805 
     801      777      764      773      774      760      746      727 
     692      656      625      604      600      585      568      614 
     727      824      866      874      877      903      945      973 
     986      992      986      969      945      911      850      768 
     720      727      739      730      727      761      831      895 
     891      846      823      814      807      824      819      747 
     676      658      653      615      554      519      544      600 
     634      638      656      704      757      820      907      951 
     919      876      876      886      865      795      734      746 
     799      845      899      938      926      878      816      741 
     664      619      637      689      737      764      761      749 
     760      774      772      776      773      734      716      762 
     835      920     1024     1108     1138     1123     1085     1043 
     986      884      749      631      567      542      519      510 
     550      622      700      780      835      849      835      805 
     773      739      700      677      700      758      830      885 
     904      893      861      820      804      803      773      712 
     645      576      511      494      549      648      747      823 
     866      885      895      912      957     1021     1069     1061 
     985      891      831      814      820      838      839      791 
     685      577      519      508      515      523      530      540 
     558      606      697      823      947     1036     1086     1116 
    1109     1042      950      897      878      864      846      830 
     820      812      793      770      750      729      699      672 
     668      687      697      711      751      799      819      837 
     873      907      927      943      950      945      940      932 
     895      823      735      658      606      565      526      511 
     540      584      606      603      614      648      681      710 
     742      760      753      749      768      811      847      850 
     855      926     1031     1104     1136     1135     1086     1004 
     916      841      787      745      726      743      762      739 
     665      585      558      576      579      564      565      572 
     576      623      719      808      862      904      957     1008 
    1028     1017     1013     1034     1038      982      905      861 
     832      780      714      664      619      583      585      615 
     615      562      499      486      553      658      746      803 
     849      892      926      954      980      984      959      942 
     938      918      888      874      870      851      816      778 
     766      769      757      726      684      641      630      665 
     734      808      845      845      843      846      826      793 
     773      769      765      758      746      724      700      683 
     677      692      741      801      861      918      953      953 
     926      876      819      769      722      665      625      639 
     718      832      940     1008     1019      973      899      826 
     760      699      653      627      631      657      680      687 
     670      657      675      715      764      816      831      778 
     681      575      484      446      471      530      608      707 
     819      947     1097     1239     1316     1310     1235     1089 
     893      711      618      635      724      818      882      928 
     951      915      807      657      484      302      163      110 
     155      291      477      661      812      884      853      792 
     797      884     1001     1116     1219     1300     1366     1445 
    1522     1576     1624     1669     1695     1696     1632     1447 
    1175      874      521      106     -284     -557     -660     -579 
    -345      -36      263      492      621      646      584      467 
     344      279      344      561      885     1252     1591     1829 
    1915     1849     1649     1352     1034      791      653      580 
     538      522      526      544      577      607      602      572 
     546      546      580      626      656      656      608      503 
     348      171       35       31      187      460      818     1206 
    1533     1744     1833     1810     1732     1664     1651     1710 
    1807     1875     1871     1783     1593     1294      909      465 
       2     -425     -757     -935     -955     -835     -581     -243 
     109      402      577      641      654      665      706      823 
    1046     1331     1601     1792     1867     1827     1715     1572 
    1412     1260     1148     1063      989      939      907      841 
     685      417       51     -329     -610     -724     -664     -444 
    -121      205      460      623      718      768      814      912 
    1092     1328     1572     1772     1898     1971     2006     2004 
    1985     1965     1907     1786     1594     1333     1024      704 
     417      179      -13     -147     -201     -182     -117      -48 
     -20      -66     -171     -276     -318     -259      -86      199 
     575      965     1277     1444     1455     1363     1255     1213 
    1264     1360     1426     1424     1379     1360     1378     1386 
    1345     1240     1084      915      772      668      596      545 
     486      422      390      387      390      418      488      560 
     587      564      508      438      372      322      294      294 
     336      421      558      751      980     1192     1347     1448 
    1501     1494     1432     1354     1324     1371     1478     1587 
    1628     1564     1413     1190      932      706      531      365 
     171      -36     -252     -475     -665     -777     -780     -661 
    -419      -75      337      781     1182     1482     1696     1850 
    1931     1949     1930     1879     1787     1649     1464     1246 
    1003      749      510      324      210      151      133      145 
     147       99       20      -31       31      238      529      832 
    1148     1455     1682     1810     1873     1881     1814     1691 
    1552     1395     1183      896      564      278      106        1 
     -89     -117      -70      -36      -31       13      112      252 
     448      691      938     1150     1306     1414     1491     1517 
    1440     1277     1121     1030     1004     1043     1116     1139 
    1046      827      537      255       49      -29       48      264 
     529      746      891      993     1074     1112     1097     1032 
     907      737      579      480      441      426      433      494 
     589      648      652      668      766      953     1185     1397 
    1530     1578     1557     1466     1318     1161     1046     1028 
    1109     1186     1146      963      679      355       76     -124 
    -284     -398     -414     -324     -159       45      268      517 
     810     1119     1363     1486     1507     1501     1518     1568 
    1601     1534     1358     1123      885      658      460      337 
     317      387      519      641      656      550      411      315 
     295      334      402      488      621      800      978     1102 
    1161     1193     1256     1360     1471     1528     1512     1463 
    1402     1312     1171      965      703      432      194        4 
    -114     -125      -17      178      410      599      707      745 
     729      684      641      607      589      611      696      834 
     986     1131     1233     1244     1162     1032      886      751 
     654      591      567      600      689      814      984     1198 
    1424     1618     1732     1730     1618     1428     1208      997 
     815      668      552      441      322      198       67      -63 
    -175     -245     -280     -282     -245     -167      -25      201 
     490      800     1096     1360     1570     1710     1787     1807 
    1765     1688     1624     1586     1544     1466     1333     1171 
    1031      923      808      656      473      298      159       72 
      20      -24      -74     -121     -160     -190     -195     -145 
     -28      159      414      687      924     1140     1352     1532 
    1669     1787     1887     1945     1956     1908     1784     1598 
    1399     1242     1161     1132     1080      958      788      592 
     378      171       16      -95     -183     -238     -247     -198 
     -91       54      220      405      591      741      864     1000 
    1147     1290     1431     1570     1672     1711     1668     1553 
    1399     1232     1066      924      816      693      519      336 
     189       75      -24     -109     -166     -176     -156     -125 
     -67       48      241      495      788     1097     1364     1544 
    1659     1741     1786     1776     1736     1691     1638     1560 
    1458     1352     1254     1163     1084      997      873      712 
     537      363      210       87      -24     -109     -128     -109 
     -85      -32       51      156      302      479      627      731 
     820      912     1003     1104     1240     1399     1551     1686 
    1773     1768     1675     1524     1331     1144      999      873 
     770      700      612      468      295      136       12      -56 
     -55       -5       60      152      276      415      552      656 
     692      685      692      714      729      776      876      996 
    1120     1250     1366     1459     1549     1645     1711     1723 
    1692     1629     1534     1424     1296     1136      947      751 
     561      379      211       70      -35      -89      -99      -93 
     -74      -35       31      124      244      369      496      652 
     842     1040     1219     1367     1491     1593     1628     1555 
    1397     1210     1040      918      847      788      706      616 
     546      514      525      554      580      621      695      774 
     811      796      746      677      602      523      446      375 
     315      283      287      329      411      514      625      750 
     878     1000     1129     1290     1482     1679     1845     1948 
    1979     1934     1810     1629     1428     1217      985      738 
