Origin Time       2025/03/28 03:50:00
Lat.              35.403
Long.             140.360
Depth. (km)       54
Mag.              4.4
Station Code      TKY030
Station Lat.      35.6698
Station Long.     139.7360
Station Height(m) 13
Record Time       2025/03/28 03:50:53
Sampling Freq(Hz) 100Hz
Duration Time(s)  63
Dir.              E-W
Scale Factor      7845(gal)/8223790
Max. Acc. (gal)   6.785
Last Correction   2025/03/28 03:50:53
Memo.             
[...]
    2486     2511     2571     2602     2536     2481     2488     2493 
    2512     2550     2542     2502     2498     2516     2542     2566 
    2533     2470     2469     2519     2558     2569     2555     2517 
    2471     2470     2509     2535     2538     2548     2563     2550 
    2506     2474     2474     2513     2560     2570     2547     2505 
    2492     2524     2536     2529     2519     2478     2446     2482 
    2555     2585     2548     2485     2454     2481     2527     2559 
    2577     2570     2529     2479     2466     2504     2552     2585 
    2585     2544     2498     2484     2482     2489     2517     2548 
    2575     2587     2552     2493     2455     2455     2493     2539 
    2536     2517     2512     2493     2489     2513     2533     2547 
    2547     2517     2493     2513     2542     2538     2531     2519 
    2496     2527     2577     2562     2527     2511     2498     2521 
    2560     2550     2525     2519     2494     2481     2528     2574 
    2546     2496     2466     2451     2489     2558     2567     2531 
    2494     2463     2479     2540     2569     2555     2532     2516 
    2525     2540     2532     2519     2511     2509     2519     2521 
    2520     2535     2550     2532     2508     2501     2488     2492 
    2538     2554     2516     2489     2493     2524     2581     2592 
    2519     2458     2463     2481     2519     2563     2543     2496 
    2477     2488     2536     2567     2529     2490     2492     2488 
    2489     2543     2590     2563     2524     2498     2479     2515 
    2558     2532     2496     2508     2542     2560     2554     2505 
    2459     2489     2550     2559     2519     2486     2486     2502 
    2521     2543     2551     2532     2486     2451     2490     2559 
    2569     2552     2533     2493     2489     2516     2528     2556 
    2596     2583     2506     2442     2448     2497     2562     2594 
    2555     2496     2455     2465     2529     2573     2575     2552 
    2496     2463     2508     2585     2606     2544     2469     2474 
    2539     2558     2515     2494     2517     2533     2521     2511 
    2524     2529     2505     2477     2490     2559     2604     2554 
    2479     2477     2517     2533     2532     2546     2562     2563 
    2546     2521     2500     2504     2539     2552     2516     2498 
    2515     2536     2555     2535     2488     2485     2515     2529 
    2512     2498     2520     2524     2498     2494     2512     2539 
    2569     2559     2505     2470     2482     2498     2511     2575 
    2627     2586     2528     2504     2492     2508     2540     2563 
    2562     2520     2475     2496     2558     2582     2547     2470 
    2396     2424     2540     2596     2556     2502     2457     2452 
    2488     2497     2513     2567     2598     2570     2512     2471 
    2469     2508     2555     2552     2550     2581     2579     2546 
    2501     2448     2454     2520     2573     2583     2562     2508 
    2444     2423     2463     2520     2554     2566     2550     2519 
    2485     2452     2466     2544     2604     2585     2506     2443 
    2469     2540     2556     2525     2517     2524     2535     2579 
    2598     2519     2424     2423     2500     2579     2616     2592 
    2517     2462     2461     2488     2547     2600     2569     2486 
    2428     2420     2497     2610     2624     2529     2427     2404 
    2489     2579     2598     2567     2511     2486     2509     2523 
    2538     2540     2511     2513     2536     2529     2517     2511 
    2509     2517     2532     2547     2531     2508     2517     2546 
    2577     2567     2504     2463     2477     2515     2538     2531 
    2525     2550     2551     2479     2412     2423     2482     2562 
    2620     2606     2554     2501     2448     2430     2488     2563 
    2578     2566     2556     2506     2477     2509     2521     2538 
    2589     2570     2506     2512     2533     2528     2532     2520 
    2481     2492     2538     2517     2479     2511     2527     2520 
    2538     2512     2488     2524     2529     2505     2502     2504 
    2517     2570     2614     2569     2477     2443     2454     2474 
    2490     2484     2502     2567     2616     2592     2517     2451 
    2420     2447     2524     2563     2542     2542     2582     2613 
    2590     2498     2411     2417     2498     2554     2559     2592 
    2648     2631     2512     2290     2110     2313     2852     3125 
    2808     2296     2165     2497     2774     2454     1827     1914 
    2971     3808     3372     2123     1324     1726     2793     3275 
    2849     2236     2112     2625     3142     2882     2173     1883 
    2106     2477     2812     2883     2502     2097     2357     3183 
    3709     3280     1939      649      849     2593     3997     3789 
    2902     2585     2721     2425     1410      583     1066     3078 
    5406     5757     3460      756     -228      588     2254     3603 
    3817     3123     2613     2743     2617     1765     1189     1657 
    2737     3659     3811     3033     2062     1792     2215     2654 
    2712     2600     2459     2340     2571     3011     3019     2401 
    1611     1560     2411     2963     2616     2273     2704     3526 
    3821     3083     1626      747     1549     3138     3856     3422 
    2421     1545     1480     2107     2596     2806     3250     3622 
    3122     2015     1341     1651     2577     3279     3318     2829 
    2165     1931     2320     2511     2146     2138     2880     3542 
    3449     2810     2106     1537     1324     1706     2427     3206 
    3838     3689     2735     1969     1790     1721     1598     1823 
    2655     3595     3954     3615     2806     1919     1387     1377 
    1891     2717     3442     3674     3172     2434     2290     2505 
    2386     2029     1825     1960     2523     3207     3400     2929 
    2120     1474     1574     2393     3249     3773     3755     2994 
    2056     1730     1934     2180     2304     2438     2799     3233 
    3202     2533     1679     1277     1561     2290     3188     3910 
    3796     2613     1394     1359     2281     3105     3399     3157 
    2513     1938     1691     1651     1948     2716     3497     3688 
    3172     2371     1952     2133     2432     2489     2496     2637 
    2824     2852     2525     2018     1896     2284     2687     2826 
    2845     2887     2874     2682     2396     2187     2142     2334 
    2644     2728     2547     2381     2324     2357     2504     2531 
    2196     1962     2322     2762     2764     2704     2898     3036 
    2805     2448     2370     2486     2512     2408     2181     1981 
    2288     3010     3258     2813     2425     2448     2551     2444 
    2182     2201     2741     3177     2902     2280     1939     1972 
    2170     2457     2882     3326     3352     2662     1645     1129 
    1583     2660     3526     3605     2984     2200     1813     1942 
    2297     2720     3067     3006     2659     2457     2505     2691 
    2724     2432     2119     2042     2083     2095     2192     2590 
    3207     3520     3200     2601     2273     2317     2431     2502 
    2651     2729     2546     2265     2101     2076     2215     2542 
    2852     2775     2235     1656     1586     2192     3154     4039 
    4459     3881     2277      722      329     1216     2774     4153 
    4608     3905     2413      909      318     1050     2408     3435 
    4001     4251     3985     3091     1837      857      666     1181 
    2134     3194     3782     3638     2795     1556      966     1671 
    2975     3958     4117     3431     2543     2099     1957     1691 
    1593     2250     3235     3546     2925     1965     1458     1656 
    2224     2856     3327     3515     3376     2724     1854     1489 
    1734     2326     3045     3477     3343     2706     1881     1472 
    1850     2756     3541     3557     2783     2080     2118     2382 
    2199     1983     2234     2668     2976     2971     2463     1833 
    1806     2452     2979     2830     2539     2795     3265     3092 
    2309     1891     2254     2767     2825     2438     2031     2037 
    2328     2600     2925     3079     2562     1713     1518     2327 
    3316     3565     3245     2874     2362     1703     1406     1798 
    2581     3281     3639     3415     2689     2097     2004     2209 
    2465     2554     2447     2336     2293     2334     2359     2232 
    2236     2668     3354     3866     3651     2613     1676     1744 
    2342     2490     2299     2424     2878     3173     2847     2074 
    1717     2002     2246     2207     2299     2604     2843     2999 
    3217     3316     2943     2176     1602     1606     2103     2760 
    3022     2596     2046     2043     2434     2767     2871     2678 
    2400     2478     2926     3298     3194     2596     1988     1871 
    1952     1725     1602     1952     2265     2454     2929     3431 
    3512     3134     2384     1672     1750     2675     3568     3835 
    3607     3041     2181     1247      691      918     1919     3184 
    3978     3991     3457     2601     1790     1644     2296     3141 
    3450     3041     2419     2076     1973     1907     1958     2335 
    2782     2725     2277     2145     2408     2592     2579     2592 
    2798     3229     3589     3370     2629     2018     1794     1844 
    2149     2558     2748     2520     2076     1930     2336     3150 
    3781     3508     2562     1927     2041     2398     2274     1795 
    1760     2444     3346     3720     3314     2629     2176     2061 
    2196     2315     2228     2104     2089     2083     2057     2123 
    2413     2974     3429     3314     2847     2582     2497     2122 
    1657     1934     2945     3645     3335     2434     1791     1792 
    2234     2701     3007     3145     2970     2432     1956     2123 
    2847     3338     3181     2705     2331     2242     2421     2714 
    2833     2496     1763     1147     1215     2022     3041     3649 
    3627     3225     2783     2462     2245     2083     2046     2177 
    2413     2670     2721     2467     2188     2142     2354     2628 
    2754     2760     2643     2540     2720     2776     2326     2025 
    2381     2864     2929     2601     2153     1931     2135     2605 
    3017     3146     2903     2347     1831     1822     2458     3287 
    3612     3246     2550     1908     1715     2158     2732     2905 
    2849     2724     2354     1912     1834     2208     2763     3188 
    3349     3272     2945     2412     1914     1621     1598     1971 
    2623     3191     3438     3172     2313     1432     1244     1676 
    2381     3133     3508     3445     3249     2833     2219     1867 
    1971     2330     2609     2577     2336     2180     2327     2706 
    3005     3149     3254     3176     2714     2042     1578     1543 
    1949     2635     3119     3094     2817     2543     2281     2149 
    2293     2679     2976     2710     1983     1549     1813     2447 
    3055     3373     3221     2816     2612     2635     2504     2080 
    1829     2205     2884     3238     3221     3009     2505     1842 
    1524     1775     2313     2662     2650     2578     2624     2641 
    2585     2592     2658     2566     2327     2336     2740     3191 
    3281     2990     2646     2357     1980     1746     1965     2409 
    2666     2694     2778     3006     3048     2697     2245     1993 
    1961     2151     2523     2848     2924     2766     2624     2658 
    2712     2636     2411     2115     1973     2077     2246     2319 
    2454     2875     3360     3520     3257     2540     1614     1210 
    1626     2415     3098     3391     3196     2687     2170     1869 
    1771     1842     2224     2824     3123     2848     2386     2241 
    2586     3250     3747     3678     3121     2496     2104     1881 
    1750     1837     2135     2407     2478     2459     2560     2745 
    2749     2400     1907     1792     2173     2678     3144     3489 
    3439     3029     2577     2131     1614     1293     1560     2281 
    2971     3395     3472     3149     2602     2170     2127     2448 
    2841     3040     2844     2258     1656     1487     1837     2408 
    2830     2930     2849     2832     2843     2718     2606     2859 
    3369     3466     2841     2002     1412     1093     1182     1869 
    2876     3642     3839     3578     3167     2749     2322     1964 
    1941     2340     2793     3038     3129     3068     2886     2586 
    2100     1597     1279     1169     1314     1721     2245     2700 
    2957     3083     3226     3226     2876     2477     2342     2369 
    2573     2982     3226     3138     2947     2751     2494     2177 
    1826     1497     1260     1271     1603     1935     1825     1289 
     827      928     1613     2384     2768     2911     3333     4114 
    4899     5391     5449     5096     4456     3600     2602     1584 
     773      382      355      519      831     1458     2520     3596 
    4180     4411     4450     4074     3407     2959     2867     2893 
    2852     2722     2475     1957     1274      872      797      630 
     434      891     2193     3846     5374     6494     7209     7615 
    7234     5366     2203    -1139    -3543    -4591    -4573    -3740 
   -1887      785     3365     5192     6035     5757     4866     4484 
    4923     5410     5571     5544     4969     3275      670    -1661 
   -2758    -2531    -1175      800     2802     4556     5722     6011 
    5590     4861     3912     2619     1368      845     1031     1282 
    1143      637      325     1019     2713     4367     5071     4743 
    3839     3056     2883     3154     3402     3537     3727     3740 
    3127     1837      249     -936    -1054     -133     1275     2601 
    3402     3505     3021     2385     2145     2362     2844     3657 
    4737     5520     5327     3975     2031      427     -202        9 
     459      800     1044     1370     2034     3030     4018     4760 
    5263     5668     5819     5031     3100      837     -932    -1647 
    -988      541     2176     3618     4576     4789     4496     3996 
    3192     2115     1220      880     1263     2448     3966     4788 
    4170     2246      152     -756     -148     1285     2658     3372 
    3416     3115     2756     2740     3334     4310     5266     5683 
    4896     2936      828     -363     -313      581     1594     2250 
    2575     2673     2432     1937     1594     1588     1842     2439 
    3381     4220     4521     4371     4055     3555     2790     2015 
    1478     1205     1254     1574     1845     1957     2199     2772 
    3573     4317     4653     4328     3412     2363     1567      994 
     608      546      801     1296     2022     2897     3661     4048 
    4072     3825     3257     2558     2184     2377     2870     3087 
    2745     2045     1281      768      722     1040     1695     2748 
    3882     4638     4769     4163     2856     1331      522      920 
    2120     3424     4093     3662     2578     1736     1489     1580 
    1671     1715     1926     2447     3173     3797     3970     3678 
    3235     2870     2686     2658     2533     2135     1626     1305 
    1310     1686     2382     3080     3399     3222     2825     2739 
    3140     3635     3811     3477     2683     1823     1387     1637 
    2371     3017     3142     2791     2466     2608     2863     2600 
    1848     1155     1000     1323     1748     2184     2621     2940 
    3168     3388     3454     3100     2385     1817     1761     2151 
    2783     3327     3476     3233     2691     2014     1544     1447 
    1533     1536     1421     1424     1800     2559     3411     4064 
    4418     4407     4070     3657     3358     3110     2797     2440 
    2133     1906     1705     1468     1313     1512     2026     2359 
    2234     1960     1949     2249     2592     2836     3134     3500 
    3591     3113     2319     1719     1479     1530     1737     1918 
    2137     2467     2682     2679     2654     2751     2916     3064 
    3234     3470     3766     3971     3782     3241     2662     2033 
    1348      831      567      662     1201     2014     2876     3582 
    4001     4145     3993     3510     2828     2257     2066     2208 
    2494     2781     2890     2805     2631     2381     2106     1846 
    1571     1296     1086     1140     1617     2378     3218     4041 
    4638     4646     3902     2679     1491      816      878     1510 
    2384     3230     3817     3960     3568     2744     1867     1335 
    1340     1775     2276     2592     2764     2843     2809     2751 
    2724     2644     2509     2258     1811     1514     1692     2069 
    2436     2943     3407     3495     3245     2778     2220     1933 
    2091     2367     2454     2490     2589     2578     2448     2343 
    2335     2575     3090     3499     3478     3252     3126     2943 
    2598     2273     1973     1760     1772     1791     1621     1464 
    1597     2119     2867     3395     3492     3429     3319     3055 
    2749     2624     2768     3009     2964     2490     1911     1625 
    1613     1621     1580     1636     2073     2849     3400     3411 
    3117     2752     2450     2334     2385     2477     2574     2690 
    2706     2536     2427     2729     3310     3690     3576     2980 
    2288     1856     1620     1514     1647     2064     2670     3240 
    3554     3447     2995     2678     2737     2991     3258     3280 
    2820     2039     1286      731      541      970     1841     2481 
    2496     2176     2050     2203     2398     2660     2980     3192 
    3281     3207     3157     3308     3262     2884     2332     1750 
    1625     2019     2521     3025     3465     3603     3384     2971 
    2459     2027     1984     2258     2504     2556     2330     1908 
    1651     1795     2312     3019     3527     3585     3316     2764 
    2037     1514     1333     1588     2216     2619     2697     2683 
    2424     2176     2273     2735     3447     3870     3624     2938 
    2253     1993     2192     2474     2516     2330     2161     2124 
    2226     2512     2855     3051     3061     2963     2902     2901 
    2764     2475     2170     1872     1679     1655     1680     1804 
    2193     2717     3034     2976     2679     2304     1950     1833 
    2091     2567     3010     3314     3497     3516     3345     3067 
    2771     2525     2316     2110     1929     1817     1948     2309 
    2540     2556     2633     2837     3024     2991     2556     1912 
    1456     1312     1497     1948     2458     2945     3322     3441 
    3399     3435     3593     3704     3636     3461     3292     3094 
    2743     2187     1536      970      648      627      696      754 
    1084     1726     2336     2790     3149     3327     3424     3693 
    3959     3964     3765     3430     3129     3011     2906     2609 
    2038     1393     1074     1074     1220     1625     2304     2941 
