Origin Time       2025/03/28 03:50:00
Lat.              35.403
Long.             140.360
Depth. (km)       54
Mag.              4.4
Station Code      TKY017
Station Lat.      35.6473
Station Long.     139.8092
Station Height(m) 4
Record Time       2025/03/28 03:51:00
Sampling Freq(Hz) 100Hz
Duration Time(s)  60
Dir.              U-D
Scale Factor      7845(gal)/8223790
Max. Acc. (gal)   2.858
Last Correction   2025/03/28 03:51:01
Memo.             
[...]
   10304    10309    10334    10373    10404    10426    10440    10444 
   10442    10442    10427    10399    10380    10365    10349    10341 
   10332    10323    10311    10304    10305    10312    10322    10334 
   10349    10365    10374    10373    10366    10350    10328    10326 
   10342    10355    10370    10384    10389    10400    10405    10400 
   10392    10380    10366    10349    10332    10319    10304    10301 
   10311    10316    10332    10350    10359    10372    10376    10361 
   10342    10330    10320    10312    10307    10299    10297    10322 
   10358    10377    10377    10374    10374    10374    10369    10357 
   10342    10320    10305    10308    10316    10338    10370    10400 
   10432    10465    10474    10461    10436    10409    10382    10358 
   10330    10303    10285    10268    10253    10260    10282    10318 
   10363    10392    10403    10404    10382    10358    10353    10354 
   10355    10361    10357    10350    10365    10385    10386    10381 
   10390    10403    10408    10417    10415    10392    10369    10353 
   10335    10330    10336    10334    10341    10363    10376    10374 
   10363    10335    10308    10304    10305    10301    10303    10309 
   10319    10335    10353    10363    10366    10377    10389    10401 
   10415    10404    10370    10346    10335    10343    10369    10392 
   10400    10401    10397    10384    10363    10343    10323    10301 
   10285    10278    10287    10308    10328    10339    10341    10332 
   10335    10354    10369    10381    10403    10419    10419    10413 
   10407    10399    10389    10374    10365    10370    10382    10388 
   10384    10376    10363    10338    10309    10299    10303    10311 
   10320    10328    10326    10305    10285    10288    10312    10338 
   10358    10369    10380    10405    10422    10416    10408    10404 
   10397    10389    10378    10377    10377    10363    10342    10320 
   10300    10296    10315    10334    10343    10355    10359    10346 
   10336    10345    10361    10377    10388    10380    10359    10353 
   10363    10378    10397    10409    10404    10397    10397    10385 
   10369    10366    10355    10331    10315    10299    10288    10292 
   10292    10282    10284    10289    10291    10307    10335    10354 
   10369    10380    10380    10376    10385    10388    10378    10382 
   10400    10411    10427    10434    10415    10388    10368    10345 
   10332    10343    10358    10363    10365    10357    10346    10347 
   10353    10343    10331    10320    10303    10295    10301    10300 
   10295    10304    10323    10342    10358    10370    10372    10366 
   10365    10373    10386    10405    10424    10422    10395    10368 
   10350    10343    10346    10353    10365    10380    10378    10373 
   10376    10370    10350    10345    10345    10338    10338    10345 
   10346    10341    10327    10319    10326    10336    10349    10355 
   10349    10350    10359    10362    10363    10366    10358    10345 
   10336    10339    10354    10389    10424    10442    10453    10461 
   10465    10484    10528    10586    10648    10702    10723    10678 
   10562    10390    10210    10073    10019    10050    10139    10183 
   10058     9779     9555     9607     9925    10288    10493    10465 
   10274    10147    10255    10480    10592    10563    10507    10521 
   10667    10870    10929    10755    10465    10219    10110    10153 
   10284    10426    10536    10525    10347    10125     9991     9960 
   10075    10413    10840    11055    10901    10470    10008     9826 
   10046    10423    10662    10643    10318     9813     9522     9722 
   10223    10638    10731    10477    10131    10035    10176    10296 
   10332    10388    10497    10665    10866    10926    10762    10581 
   10574    10696    10791    10732    10477    10156    10010    10147 
   10434    10623    10528    10138     9630     9283     9278     9636 
   10206    10655    10731    10449    10068     9942    10224    10698 
   11001    10903    10482    10071    10003    10336    10782    11005 
   10890    10544    10185    10029    10114    10235    10253    10316 
   10528    10727    10768    10677    10508    10346    10292    10323 
   10376    10465    10519    10389    10142    10003    10052    10223 
   10395    10384    10146     9865     9732     9765     9933    10219 
   10509    10650    10635    10512    10359    10342    10524    10756 
   10868    10851    10805    10773    10690    10525    10327    10196 
   10211    10296    10272    10116    10006    10088    10343    10592 
   10605    10328     9981     9836     9873     9933    10048    10299 
   10585    10705    10517    10091     9779     9919    10439    10908 
   10978    10654    10237    10084    10265    10513    10609    10619 
   10665    10690    10596    10426    10305    10328    10508    10700 
   10678    10423    10114     9941    10021    10300    10546    10520 
   10203     9859     9768     9930    10161    10330    10390    10342 
   10239    10189    10280    10517    10825    11029    10975    10692 
   10328    10019     9863     9919    10134    10346    10423    10376 
   10303    10273    10299    10380    10509    10656    10740    10713 
   10613    10490    10413    10447    10540    10605    10589    10405 
   10045     9713     9639     9868    10241    10555    10689    10617 
   10409    10208    10110    10152    10330    10586    10781    10762 
   10539    10246    10010     9954    10133    10386    10471    10351 
   10188    10120    10177    10278    10311    10285    10307    10370 
   10345    10245    10268    10442    10581    10569    10461    10353 
   10314    10370    10471    10535    10546    10512    10420    10322 
   10297    10335    10400    10488    10543    10498    10359    10200 
   10114    10153    10274    10405    10527    10597    10543    10363 
   10184    10152    10297    10500    10528    10214     9729     9478 
    9640    10075    10542    10793    10737    10561    10465    10490 
   10638    10825    10875    10741    10534    10347    10230    10172 
   10150    10181    10260    10357    10419    10345    10150    10008 
   10027    10173    10346    10447    10424    10338    10319    10440 
   10624    10756    10809    10812    10790    10767    10717    10547 
   10245     9918     9674     9553     9575     9698     9817     9879 
    9902     9949    10120    10450    10840    11172    11365    11360 
   11156    10872    10647    10486    10341    10226    10143    10030 
    9863     9684     9551     9520     9661     9923    10129    10197 
   10210    10264    10417    10652    10871    11016    11091    11052 
   10864    10648    10569    10624    10643    10485    10214    10004 
    9964    10075    10272    10489    10631    10592    10355    10033 
    9799     9811    10066    10381    10555    10503    10339    10274 
   10388    10586    10743    10787    10681    10447    10258    10185 
   10115    10048    10072    10154    10231    10293    10335    10350 
   10363    10396    10455    10578    10766    10895    10794    10450 
   10030     9718     9674     9922    10269    10494    10507    10324 
   10112    10116    10408    10781    10939    10775    10463    10287 
   10346    10461    10459    10373    10285    10220    10212    10257 
   10296    10315    10343    10385    10450    10489    10405    10206 
   10035    10008    10106    10273    10481    10623    10600    10482 
   10411    10417    10434    10424    10416    10374    10268    10214 
   10292    10422    10531    10604    10570    10366    10077     9875 
    9873    10089    10401    10578    10505    10319    10228    10342 
   10652    10982    11088    10930    10665    10407    10142     9842 
    9579     9433     9433     9583     9790     9925    10008    10157 
   10407    10719    11028    11260    11362    11276    10989    10596 
   10246    10046    10015    10108    10255    10373    10390    10315 
   10292    10434    10638    10720    10616    10362    10098     9971 
    9975    10026    10103    10211    10320    10444    10625    10808 
   10876    10781    10570    10361    10239    10207    10172    10099 
   10087    10185    10285    10285    10200    10098    10034    10006 
    9980     9946     9953    10084    10369    10741    11088    11295 
   11296    11082    10679    10208     9879     9818     9971    10208 
   10412    10497    10417    10188     9895     9684     9680     9900 
   10270    10667    10980    11140    11152    11088    11026    10956 
   10810    10594    10361    10122     9909     9794     9823     9975 
   10164    10276    10235    10088     9985     9991    10029    10066 
   10160    10328    10551    10810    10999    10990    10789    10501 
   10206     9972     9886     9938    10034    10103    10162    10235 
   10301    10368    10504    10706    10845    10835    10740    10681 
   10714    10779    10747    10586    10363    10122     9914     9867 
   10012    10197    10269    10239    10218    10272    10361    10399 
   10349    10249    10152    10065    10011    10066    10268    10579 
   10879    10975    10806    10552    10390    10292    10146     9953 
    9807     9817     9980    10143    10222    10292    10427    10621 
   10805    10852    10731    10489    10173     9880     9764     9926 
   10300    10659    10801    10728    10616    10609    10713    10866 
   11001    11011    10805    10419     9994     9674     9525     9497 
    9531     9657     9937    10350    10787    11107    11221    11128 
   10921    10702    10501    10291    10054     9867     9855    10021 
   10226    10372    10444    10405    10234    10026     9873     9799 
    9826     9934    10042    10141    10339    10662    10976    11186 
   11279    11241    11071    10817    10535    10254    10007     9811 
    9672     9582     9536     9547     9645     9864    10183    10523 
   10813    10998    11080    11122    11121    11071    11052    11102 
   11149    11080    10844    10498    10238    10249    10422    10473 
   10289     9915     9456     9084     8941     9034     9297     9616 
    9834     9953    10119    10395    10673    10855    10972    11097 
   11198    11161    10922    10592    10363    10316    10362    10335 
   10164     9956     9826     9784     9815     9915    10065    10228 
   10343    10372    10339    10357    10538    10858    11168    11314 
   11254    11059    10822    10601    10419    10308    10255    10216 
   10176    10092     9910     9694     9610     9729     9973    10230 
   10399    10417    10362    10377    10486    10613    10723    10798 
   10801    10739    10648    10504    10291    10089    10000    10057 
   10203    10307    10300    10247    10224    10214    10149    10030 
    9941     9992    10247    10606    10845    10879    10806    10705 
   10605    10567    10656    10814    10905    10832    10597    10301 
   10049     9841     9664     9583     9639     9755     9850     9922 
    9994    10099    10264    10444    10567    10586    10513    10435 
   10466    10613    10794    10932    10976    10933    10837    10683 
   10505    10382    10327    10314    10276    10133     9903     9724 
    9720     9910    10212    10490    10624    10596    10466    10303 
   10170    10103    10103    10203    10415    10650    10778    10714 
   10488    10280    10270    10415    10511    10442    10249    10044 
    9923     9925    10022    10164    10334    10535    10696    10709 
   10569    10368    10224    10220    10309    10397    10476    10561 
   10644    10719    10760    10719    10577    10408    10305    10262 
   10204    10125    10072    10045     9999     9953     9969    10072 
   10230    10362    10449    10569    10760    10957    11091    11119 
   11030    10825    10536    10255    10054     9931     9873     9856 
    9805     9683     9509     9296     9128     9194     9548     9987 
   10350    10665    10987    11358    11807    12266    12630    12842 
   12865    12623    12042    11202    10295     9409     8641     8129 
    7871     7812     7950     8186     8365     8565     9023     9786 
   10651    11441    12027    12240    12097    11838    11604    11317 
   10937    10586    10332    10058     9664     9231     8899     8754 
    8819     9009     9244     9547     9976    10598    11407    12229 
   12853    13131    12980    12457    11765    11064    10392     9795 
    9367     9119     8992     8973     9080     9319     9682    10126 
   10585    11001    11325    11487    11421    11057    10442     9765 
    9205     8864     8834     9077     9364     9522     9556     9572 
    9702    10014    10431    10841    11241    11639    11948    12078 
   11998    11767    11481    11155    10727    10135     9414     8729 
    8257     8127     8375     8930     9645    10370    11021    11577 
   12004    12264    12374    12375    12301    12135    11792    11230 
   10539     9822     9134     8561     8239     8232     8452     8780 
    9192     9652    10045    10284    10363    10331    10291    10334 
   10415    10461    10513    10612    10714    10779    10790    10748 
   10689    10694    10831    11091    11425    11722    11869    11821 
   11565    11110    10513     9900     9425     9144     8985     8892 
    8888     8943     8947     8835     8695     8710     9020     9680 
   10644    11713    12621    13174    13352    13204    12715    11850 
   10729     9605     8695     8170     8102     8394     8888     9420 
    9836    10095    10233    10293    10372    10566    10936    11477 
   12093    12617    12877    12737    12166    11281    10281     9325 
    8527     8013     7881     8122     8626     9251     9892    10480 
   10943    11213    11277    11215    11122    11044    10976    10913 
   10899    10978    11059    10995    10731    10315     9825     9308 
    8860     8598     8572     8775     9178     9717    10320    10953 
   11539    11975    12247    12345    12220    11855    11303    10639 
    9941     9304     8811     8484     8353     8473     8831     9358 
   10008    10698    11298    11740    11990    12010    11844    11580 
   11288    10971    10570    10087     9566     9059     8708     8657 
    8923     9364     9821    10242    10629    11001    11369    11645 
   11682    11445    11017    10525    10107     9853     9779     9856 
   10026    10212    10323    10285    10095     9791     9472     9293 
    9352     9644    10102    10617    11086    11454    11665    11669 
   11529    11325    11029    10615    10149     9732     9452     9359 
    9418     9560     9751     9954    10062    10018     9946    10004 
   10211    10519    10914    11369    11811    12120    12168    11904 
   11384    10755    10176     9710     9339     9012     8703     8509 
    8563     8873     9347     9872    10342    10696    10922    11065 
   11167    11196    11118    10983    10871    10805    10739    10621 
   10466    10332    10273    10307    10381    10431    10470    10528 
   10574    10565    10525    10471    10354    10199    10087     9995 
    9869     9702     9517     9400     9472     9780    10230    10685 
   11064    11323    11419    11337    11102    10785    10458    10180 
   10007     9950     9953     9972     9984     9965     9937     9942 
    9972    10017    10123    10331    10611    10914    11161    11232 
   11156    11061    10972    10860    10736    10611    10497    10395 
   10270    10106     9948     9846     9805     9782     9738     9656 
    9564     9543     9633     9814    10011    10130    10149    10133 
   10134    10160    10206    10292    10442    10646    10837    10960 
   11030    11078    11090    11024    10862    10666    10517    10459 
   10538    10713    10848    10897    10925    10959    10960    10879 
   10692    10417    10120     9846     9616     9431     9286     9201 
    9189     9246     9406     9679    10010    10363    10710    11007 
   11260    11466    11577    11587    11480    11195    10770    10357 
   10049     9836     9702     9625     9568     9512     9467     9477 
    9579     9747     9913    10046    10173    10355    10582    10758 
   10828    10847    10897    10989    11087    11144    11113    10995 
   10862    10764    10671    10555    10439    10311    10145     9972 
    9823     9693     9620     9703     9948    10255    10563    10828 
   10974    10960    10805    10561    10296    10084     9941     9849 
    9765     9643     9509     9441     9466     9556     9663     9791 
    9996    10278    10569    10791    10952    11097    11232    11333 
   11371    11315    11186    11044    10939    10837    10694    10546 
   10427    10326    10218    10112    10026     9941     9829     9733 
    9706     9741     9841     9981    10115    10227    10293    10276 
   10196    10143    10210    10388    10581    10686    10665    10592 
   10558    10571    10596    10629    10697    10763    10759    10662 
   10505    10338    10208    10147    10123    10084    10052    10061 
   10111    10183    10253    10287    10268    10227    10206    10207 
   10260    10365    10463    10521    10524    10427    10235    10014 
    9837     9741     9757     9879    10093    10413    10798    11160 
   11446    11620    11632    11529    11392    11263    11153    11020 
   10770    10386     9915     9405     8935     8596     8451     8511 
    8776     9189     9640    10102    10578    10999    11302    11468 
   11499    11421    11263    11038    10781    10559    10438    10439 
   10552    10716    10829    10836    10713    10435    10049     9674 
    9412     9324     9439     9697     9992    10266    10457    10527 
   10516    10485    10440    10366    10293    10246    10226    10239 
   10251    10243    10268    10347    10481    10638    10741    10770 
   10774    10763    10681    10511    10305    10110     9950     9864 
    9850     9864     9879     9931    10066    10260    10426    10540 
   10632    10712    10771    10789    10755    10701    10679    10705 
   10737    10729    10646    10508    10404    10355    10326    10301 
   10270    10219    10137    10010     9861     9783     9848     9995 
   10141    10296    10454    10581    10654    10638    10535    10405 
   10280    10147    10025     9958     9983    10099    10307    10565 
   10781    10881    10852    10721    10531    10311    10123    10027 
   10027    10081    10119    10091    10014     9954     9948     9960 
    9988    10100    10288    10501    10752    11021    11207    11281 
   11277    11171    10935    10636    10347    10112     9987     9983 
   10034    10104    10188    10246    10223    10130    10011     9907 
    9873     9957    10145    10378    10609    10800    10939    10993 
   10933    10839    10764    10624    10407    10239    10162    10118 
   10076    10000     9859     9720     9687     9745     9849    10000 
   10164    10311    10435    10473    10413    10345    10334    10401 
   10551    10728    10867    10986    11075    11080    11024    10936 
   10813    10689    10578    10434    10234    10012     9788     9594 
    9529     9634     9791     9925    10053    10152    10226    10323 
