Origin Time       2025/03/28 03:50:00
Lat.              35.403
Long.             140.360
Depth. (km)       54
Mag.              4.4
Station Code      TKY021
Station Lat.      35.6875
Station Long.     139.8190
Station Height(m) 1
Record Time       2025/03/28 03:51:01
Sampling Freq(Hz) 100Hz
Duration Time(s)  60
Dir.              U-D
Scale Factor      7845(gal)/8223790
Max. Acc. (gal)   1.572
Last Correction   2025/03/28 03:51:01
Memo.             
[...]
    8137     8113     8100     8135     8164     8143     8128     8148 
    8151     8129     8116     8104     8100     8135     8148     8125 
    8143     8158     8128     8122     8141     8168     8174     8105 
    8095     8164     8163     8141     8159     8148     8140     8151 
    8131     8128     8148     8125     8136     8182     8148     8114 
    8124     8141     8172     8140     8105     8140     8133     8120 
    8140     8132     8129     8141     8136     8133     8133     8122 
    8127     8164     8166     8125     8108     8125     8151     8155 
    8147     8159     8158     8139     8151     8163     8136     8118 
    8141     8174     8149     8093     8127     8183     8136     8101 
    8139     8148     8128     8116     8121     8145     8132     8085 
    8101     8141     8113     8112     8167     8143     8132     8178 
    8104     8017     8105     8197     8172     8152     8144     8129 
    8148     8148     8127     8148     8170     8141     8116     8149 
    8176     8152     8171     8232     8241     8199     8154     8151 
    8178     8206     8294     8413     8448     8309     7997     7766 
    7855     8101     8284     8322     8120     7821     7750     7960 
    8212     8275     8195     8109     7983     7862     7875     7946 
    8009     8121     8193     8163     8129     8140     8133     8002 
    7834     7888     8185     8513     8653     8465     8151     8041 
    8120     8259     8441     8545     8422     8175     8073     8143 
    8214     8213     8071     7803     7677     7811     8013     8206 
    8349     8271     8054     7989     8079     8136     8110     8058 
    7989     7881     7832     8050     8469     8644     8415     8124 
    7989     8006     8121     8181     8217     8359     8347     8152 
    8199     8325     8159     8004     8052     8147     8264     8328 
    8229     7948     7642     7684     8024     8189     8133     8054 
    7943     7992     8268     8355     8230     8167     8016     7855 
    8058     8461     8600     8391     8097     8012     8185     8334 
    8286     8264     8353     8348     8305     8343     8264     7966 
    7684     7658     7830     8046     8280     8310     8052     7958 
    8117     8073     7858     7927     8197     8249     8158     8225 
    8237     7963     7820     8025     8226     8314     8405     8465 
    8507     8579     8560     8324     7977     7788     7936     8181 
    8112     7916     7996     8178     8183     8129     8172     8203 
    8139     8156     8301     8276     7956     7647     7601     7707 
    7897     8230     8548     8604     8402     8206     8189     8182 
    8050     7912     7881     7954     8113     8282     8344     8325 
    8314     8329     8306     8156     8059     8183     8263     8144 
    8020     7978     7950     7960     8048     8085     8008     7967 
    8027     8056     8037     8095     8197     8162     7950     7830 
    8093     8499     8552     8330     8212     8217     8247     8314 
    8397     8441     8374     8167     7983     8008     8135     8104 
    7955     7933     8010     8046     8010     7909     7932     8203 
    8386     8260     8059     7925     7811     7817     8079     8392 
    8461     8378     8364     8380     8302     8114     7933     7951 
    8186     8380     8361     8270     8237     8140     7967     7906 
    7960     8035     8166     8249     8101     7848     7821     8139 
    8492     8505     8255     8009     7915     8043     8175     8050 
    7840     7830     7959     8116     8355     8550     8440     8097 
    7904     7967     8054     8102     8214     8386     8525     8488 
    8351     8243     8040     7747     7592     7703     7982     8148 
    8139     8181     8333     8428     8367     8271     8245     8152 
    7971     7946     8085     8187     8244     8361     8472     8399 
    8198     8017     7886     7846     7888     7881     7803     7780 
    7931     8208     8469     8567     8457     8382     8444     8390 
    8183     8056     8050     8114     8221     8252     8182     8066 
    7873     7695     7712     7912     8118     8249     8311     8248 
    8094     8052     8185     8379     8538     8573     8498     8480 
    8488     8260     7911     7744     7659     7585     7738     7959 
    7942     7832     7798     7792     7908     8202     8496     8685 
    8783     8738     8490     8171     8010     8036     8118     8141 
    8079     7986     7965     8109     8270     8183     7959     7855 
    7812     7738     7778     8020     8340     8577     8645     8573 
    8449     8263     8024     7874     7807     7709     7723     7901 
    8033     8133     8313     8438     8440     8397     8338     8208 
    8009     7915     8001     8120     8266     8457     8483     8407 
    8471     8421     8050     7774     7861     7974     7916     7932 
    8120     8239     8199     8087     7946     7857     7857     7946 
    8233     8552     8494     8189     8085     8166     8181     8186 
    8287     8349     8262     8144     8079     7885     7580     7561 
    7900     8217     8306     8307     8413     8575     8571     8372 
    8162     8047     7996     7925     7869     7932     8051     8081 
    8097     8214     8332     8347     8318     8295     8185     7939 
    7744     7807     8059     8229     8230     8202     8205     8249 
    8317     8356     8388     8322     8056     7836     7844     7902 
    7911     7960     8158     8457     8573     8409     8222     8127 
    8127     8247     8271     8128     8124     8245     8170     7969 
    7857     7808     7879     8120     8280     8205     8043     7870 
    7708     7755     8044     8287     8368     8452     8568     8596 
    8473     8197     7898     7879     8122     8201     8001     7842 
    7911     8124     8302     8357     8345     8302     8262     8176 
    7952     7811     7994     8291     8430     8370     8114     7871 
    7890     7997     7944     7851     7848     7927     8101     8270 
    8241     8025     7936     8214     8644     8861     8803     8532 
    8158     7927     7881     7797     7712     7869     8170     8307 
    8270     8279     8374     8379     8226     8009     7852     7869 
    8029     8193     8278     8260     8206     8244     8349     8407 
    8363     8172     7881     7678     7669     7754     7844     7969 
    8104     8175     8174     8155     8174     8235     8302     8306 
    8167     8005     8047     8272     8453     8411     8191     7981 
    7897     8014     8297     8449     8313     8082     7919     7875 
    7958     7985     7939     8082     8421     8692     8758     8577 
    8190     7852     7798     7900     7896     7774     7666     7676 
    7905     8329     8684     8743     8575     8451     8573     8811 
    8861     8600     8083     7630     7611     7786     7766     7746 
    7894     7954     7835     7774     7805     7834     7969     8217 
    8361     8305     8205     8255     8332     8252     8174     8228 
    8316     8348     8270     8102     8005     8027     7996     7863 
    7858     8109     8365     8359     8256     8268     8243     8047 
    7897     8021     8208     8222     8233     8305     8337     8365 
    8353     8249     8116     8014     7994     7987     7911     7830 
    7796     7882     8125     8325     8324     8191     8064     8037 
    8137     8259     8256     8172     8160     8220     8216     8100 
    7985     8009     8148     8218     8235     8316     8295     8087 
    7955     8031     8175     8154     7954     7921     8186     8437 
    8448     8318     8210     8124     8043     8067     8202     8274 
    8189     8120     8222     8376     8388     8206     7975     7820 
    7643     7516     7728     8127     8257     8167     8209     8328 
    8330     8291     8280     8235     8240     8413     8563     8459 
    8155     7820     7624     7620     7665     7677     7688     7831 
    8191     8491     8509     8433     8392     8294     8125     7939 
    7738     7638     7728     7886     8124     8521     8812     8757 
    8511     8341     8347     8361     8279     8276     8386     8426 
    8372     8293     8170     8000     7873     7855     7946     8112 
    8228     8149     7938     7767     7719     7842     8132     8348 
    8279     8114     8108     8168     8170     8163     8112     7997 
    7981     8093     8172     8108     8009     8064     8154     8147 
    8183     8201     8095     8043     8132     8213     8158     8149 
    8332     8391     8203     8108     8198     8310     8375     8390 
    8340     8224     8112     8014     7850     7641     7570     7719 
    7947     8110     8212     8271     8253     8194     8162     8091 
    7966     7919     7996     8105     8172     8233     8325     8351 
    8275     8279     8390     8433     8445     8505     8455     8263 
    8117     8043     8039     8190     8372     8414     8248     7946 
    7754     7753     7790     7749     7630     7646     7956     8349 
    8523     8459     8318     8217     8156     8151     8230     8289 
    8228     8124     8082     8089     8033     7917     7835     7838 
    7919     7986     8040     8256     8604     8768     8634     8455 
    8357     8282     8255     8185     7929     7712     7732     7871 
    8027     8117     8014     7720     7479     7601     7965     8209 
    8286     8338     8442     8521     8521     8599     8723     8642 
    8374     8121     7933     7823     7885     8059     8162     8220 
    8303     8290     8143     8008     7936     7897     7944     8039 
    8068     8086     8164     8311     8444     8347     8075     7963 
    7986     7911     7881     8039     8143     8105     8149     8371 
    8537     8455     8284     8167     8048     7992     7983     7911 
    7870     7921     8013     8175     8257     8187     8256     8405 
    8291     8016     7836     7759     7717     7852     8229     8534 
    8579     8529     8537     8553     8446     8259     8194     8255 
    8229     8028     7712     7411     7381     7681     7973     8063 
    8131     8311     8521     8692     8808     8756     8564     8387 
    8122     7813     7750     7790     7713     7684     7703     7680 
    7804     8060     8181     8131     8097     8193     8325     8426 
    8483     8349     8125     8086     8190     8301     8309     8163 
    8005     7897     7821     7944     8255     8498     8615     8642 
    8537     8328     8079     7847     7646     7476     7447     7661 
    8060     8538     8943     9085     8870     8363     7769     7296 
    7001     6949     7263     7831     8421     8908     9171     9174 
    9073     8918     8626     8275     8037     7936     7852     7707 
    7581     7588     7668     7705     7744     7817     7885     8024 
    8216     8305     8365     8509     8627     8621     8527     8375 
    8132     7885     7803     7854     7897     7944     8083     8307 
    8478     8482     8380     8245     8091     7977     7924     7838 
    7688     7543     7433     7415     7537     7720     7940     8274 
    8675     8891     8850     8818     8827     8692     8552     8604 
    8689     8603     8398     8235     8143     8047     7939     7812 
    7647     7555     7608     7773     7993     8160     8179     8060 
    7966     8016     8190     8461     8721     8831     8850     8807 
    8580     8259     8087     8021     7831     7560     7443     7510 
    7609     7717     7840     7901     7921     7963     7966     7929 
    7956     7985     7906     7855     7955     8143     8383     8568 
    8482     8217     8070     8050     8050     8137     8301     8440 
    8588     8792     8985     9031     8810     8463     8144     7777 
    7403     7214     7281     7581     7998     8415     8765     8953 
    8964     8857     8645     8291     7852     7538     7383     7302 
    7416     7716     7927     8013     8113     8144     8067     8085 
    8237     8365     8452     8537     8604     8615     8544     8464 
    8467     8517     8487     8274     7946     7755     7889     8212 
    8392     8320     8109     7844     7627     7543     7527     7558 
    7676     7780     7842     7952     8041     8043     8090     8239 
    8357     8345     8226     8068     7904     7734     7570     7491 
    7550     7623     7688     7992     8515     8959     9243     9401 
    9328     9031     8700     8492     8448     8463     8421     8363 
    8325     8313     8263     8006     7596     7288     7188     7241 
    7364     7501     7608     7689     7803     7946     8129     8394 
    8665     8820     8864     8911     8989     8988     8862     8622 
    8225     7786     7537     7514     7596     7784     8075     8191 
    8012     7875     7909     7906     7897     8004     8104     8048 
    7866     7717     7716     7811     7908     8006     8093     8131 
    8116     8095     8221     8530     8810     8930     8976     9013 
    8999     8914     8785     8571     8275     7986     7738     7549 
    7411     7314     7362     7601     7962     8316     8464     8390 
    8302     8244     8106     7970     8010     8149     8230     8336 
    8486     8465     8252     8032     7871     7705     7511     7481 
    7674     7827     7862     7913     7917     7770     7581     7485 
    7479     7554     7759     8094     8546     9089     9566     9786 
    9703     9454     9175     8843     8415     8058     7893     7770 
    7607     7497     7465     7466     7488     7539     7665     7877 
    8052     8127     8189     8222     8168     8156     8228     8276 
    8276     8228     8164     8198     8360     8548     8617     8483 
    8237     8041     7923     7852     7921     8136     8289     8318 
    8321     8276     8151     7989     7861     7870     8029     8185 
    8245     8255     8218     8158     8154     8181     8144     8032 
    7956     8016     8144     8214     8183     8082     7992     7978 
    8039     8136     8156     8104     8114     8174     8283     8471 
    8610     8645     8640     8586     8494     8364     8110     7819 
    7689     7681     7615     7545     7676     7942     8109     8172 
    8259     8307     8202     8037     7925     7824     7712     7568 
    7452     7570     7861     8081     8329     8723     9053     9166 
    9070     8822     8590     8421     8212     8024     7994     8048 
    8067     8094     8171     8252     8225     8037     7847     7763 
    7695     7574     7430     7341     7392     7570     7797     8063 
    8338     8603     8868     8978     8862     8733     8668     8568 
    8433     8320     8216     8067     7875     7684     7546     7512 
    7584     7740     7978     8229     8442     8634     8777     8806 
    8681     8465     8275     8140     8023     7947     7979     8071 
    8133     8194     8220     8109     7875     7587     7326     7238 
    7311     7376     7447     7628     7928     8247     8421     8533 
    8787     9111     9333     9362     9261     9132     8914     8656 
    8488     8363     8221     8033     7820     7695     7697     7758 
    7790     7766     7712     7597     7398     7230     7164     7130 
    7149     7245     7318     7334     7433     7722     8110     8536 
    9000     9328     9460     9543     9591     9551     9390     9077 
    8700     8388     8198     8112     8020     7850     7728     7708 
    7619     7439     7307     7248     7285     7466     7753     8059 
    8259     8347     8390     8367     8334     8349     8365     8421 
    8530     8602     8592     8507     8376     8235     8039     7794 
    7619     7530     7508     7614     7870     8233     8564     8689 
    8656     8575     8382     8081     7817     7704     7781     7970 
    8163     8360     8526     8581     8546     8498     8496     8511 
    8405     8172     7954     7751     7531     7393     7410     7531 
    7681     7782     7877     8036     8167     8229     8267     8230 
    8166     8152     8128     8128     8241     8356     8386     8419 
    8471     8436     8333     8263     8213     8185     8198     8197 
    8151     8089     8019     7950     7911     7916     7951     8016 
    8128     8214     8214     8237     8363     8463     8415     8251 
    8089     8014     7986     7917     7809     7754     7863     8112 
    8370     8557     8683     8719     8619     8448     8302     8162 
    7963     7736     7580     7514     7512     7587     7695     7774 
    7900     8140     8340     8372     8356     8388     8359     8263 
    8251     8248     8172     8198     8325     8398     8440     8467 
    8398     8255     8085     7879     7680     7568     7570     7649 
    7757     7931     8147     8283     8297     8226     8182     8263 
    8387     8465     8563     8681     8727     8683     8621     8621 
    8611     8461     8270     8154     8071     7998     7885     7739 
    7670     7692     7749     7778     7766     7763     7713     7561 
    7476     7514     7534     7569     7746     8016     8334     8733 
    9142     9459     9639     9657     9486     9147     8718     8283 
    7925     7700     7576     7472     7425     7465     7449     7356 
    7330     7395     7506     7645     7819     8059     8295     8471 
    8621     8704     8707     8672     8559     8367     8156     7969 
    7862     7854     7927     8039     8058     7943     7846     7843 
    7893     8004     8128     8217     8352     8532     8671     8787 
    8851     8787     8638     8490     8375     8311     8232     8098 
    7971     7879     7793     7695     7565     7423     7322     7331 
    7468     7670     7850     7940     8014     8159     8280     8367 
    8484     8569     8633     8704     8727     8753     8793     8775 
    8729     8673     8568     8444     8363     8301     8166     8019 
    7987     7978     7901     7824     7736     7624     7545     7516 
    7497     7496     7541     7600     7631     7653     7685     7722 
    7777     7886     8020     8145     8279     8390     8514     8687 
    8764     8688     8604     8569     8529     8492     8459     8397 
    8345     8334     8364     8436     8505     8484     8368     8257 
    8194     8102     7994     7923     7854     7792     7739     7680 
    7700     7815     7923     8036     8197     8320     8343     8321 
    8289     8239     8197     8163     8133     8093     8001     7920 
    7958     8094     8222     8268     8275     8333     8372     8307 
    8230     8230     8278     8267     8141     8006     7936     7840 
    7695     7561     7439     7341     7323     7369     7446     7562 
    7717     7915     8144     8314     8374     8422     8518     8607 
    8700     8789     8791     8757     8760     8761     8764     8792 
    8806     8787     8737     8640     8523     8430     8310     8155 
    8048     7975     7884     7804     7735     7649     7560     7499 
    7460     7414     7402     7452     7514     7582     7677     7819 
    8025     8228     8353     8421     8482     8526     8511     8460 
    8401     8360     8397     8479     8557     8614     8608     8586 
