Origin Time       2025/03/28 03:50:00
Lat.              35.403
Long.             140.360
Depth. (km)       54
Mag.              4.4
Station Code      TKY026
Station Lat.      35.6707
Station Long.     139.8633
Station Height(m) -2
Record Time       2025/03/28 03:51:00
Sampling Freq(Hz) 100Hz
Duration Time(s)  60
Dir.              N-S
Scale Factor      7845(gal)/8223790
Max. Acc. (gal)   3.076
Last Correction   2025/03/28 03:51:00
Memo.             
[...]
   11797    11794    11778    11780    11786    11784    11785    11792 
   11790    11786    11789    11792    11792    11789    11788    11794 
   11796    11788    11794    11804    11796    11778    11780    11790 
   11781    11776    11789    11796    11792    11792    11797    11800 
   11793    11792    11799    11790    11781    11792    11797    11790 
   11792    11793    11781    11776    11786    11790    11780    11772 
   11774    11778    11777    11778    11792    11801    11788    11774 
   11778    11781    11773    11777    11792    11789    11770    11769 
   11778    11774    11765    11777    11796    11785    11776    11789 
   11790    11782    11781    11784    11781    11774    11772    11767 
   11761    11762    11773    11776    11762    11753    11766    11778 
   11770    11766    11777    11782    11776    11782    11797    11792 
   11789    11807    11809    11792    11794    11812    11803    11782 
   11781    11797    11801    11789    11784    11790    11786    11773 
   11774    11785    11785    11785    11794    11792    11767    11757 
   11778    11788    11776    11785    11808    11799    11776    11785 
   11797    11790    11788    11799    11803    11790    11789    11804 
   11809    11799    11792    11799    11793    11781    11784    11784 
   11778    11784    11789    11789    11784    11781    11790    11794 
   11781    11786    11804    11794    11780    11784    11786    11784 
   11780    11786    11794    11778    11761    11777    11785    11766 
   11769    11789    11785    11769    11774    11780    11767    11763 
   11774    11780    11769    11765    11769    11770    11772    11777 
   11780    11781    11784    11786    11785    11776    11774    11784 
   11790    11790    11790    11792    11790    11780    11774    11788 
   11794    11780    11776    11782    11773    11772    11786    11785 
   11766    11762    11774    11778    11770    11773    11782    11780 
   11778    11786    11789    11784    11784    11792    11797    11789 
   11780    11785    11796    11797    11792    11801    11809    11794 
   11796    11817    11815    11790    11790    11804    11797    11793 
   11813    11815    11785    11767    11780    11790    11777    11767 
   11774    11774    11774    11789    11786    11766    11770    11785 
   11784    11782    11792    11805    11809    11803    11797    11803 
   11803    11794    11796    11803    11796    11781    11780    11786 
   11781    11774    11780    11781    11763    11758    11773    11774 
   11762    11766    11773    11765    11761    11772    11780    11776 
   11772    11782    11780    11767    11776    11785    11782    11781 
   11786    11793    11789    11781    11784    11781    11769    11773 
   11784    11777    11767    11773    11784    11777    11767    11781 
   11788    11776    11778    11793    11790    11782    11782    11784 
   11782    11774    11777    11792    11789    11774    11777    11785 
   11785    11785    11789    11788    11778    11776    11784    11784 
   11774    11781    11796    11785    11767    11778    11803    11799 
   11784    11789    11797    11793    11792    11796    11793    11785 
   11790    11792    11776    11770    11788    11794    11789    11797 
   11812    11807    11793    11800    11813    11807    11788    11785 
   11788    11780    11777    11785    11780    11769    11773    11784 
   11794    11793    11785    11788    11786    11778    11785    11803 
   11797    11782    11785    11785    11769    11769    11784    11789 
   11776    11767    11778    11784    11772    11773    11788    11782 
   11778    11789    11789    11781    11784    11790    11793    11784 
   11781    11788    11789    11778    11777    11782    11780    11773 
   11778    11782    11767    11763    11781    11784    11772    11776 
   11789    11789    11778    11777    11784    11782    11780    11794 
   11803    11788    11778    11777    11769    11767    11776    11788 
   11793    11780    11769    11780    11790    11781    11778    11792 
   11792    11784    11792    11801    11789    11784    11799    11794 
   11777    11786    11804    11792    11774    11777    11780    11766 
   11763    11778    11781    11772    11773    11781    11777    11774 
   11782    11794    11792    11785    11789    11789    11788    11793 
   11797    11799    11800    11799    11797    11800    11792    11793 
   11811    11807    11790    11796    11807    11797    11786    11801 
   11809    11786    11774    11785    11782    11777    11785    11784 
   11769    11763    11786    11800    11781    11778    11793    11781 
   11769    11781    11792    11797    11804    11785    11743    11723 
   11749    11781    11765    11718    11743    11861    11936    11881 
   11780    11742    11789    11848    11834    11759    11701    11691 
   11720    11747    11738    11740    11782    11790    11786    11857 
   11915    11847    11757    11762    11821    11853    11835    11777 
   11678    11593    11630    11759    11850    11867    11855    11827 
   11784    11735    11713    11759    11824    11830    11801    11796 
   11813    11819    11765    11631    11574    11732    11931    11950 
   11828    11722    11719    11813    11905    11880    11770    11695 
   11672    11696    11796    11886    11859    11778    11730    11727 
   11774    11817    11784    11766    11843    11886    11792    11676 
   11659    11745    11861    11889    11801    11715    11732    11817 
   11855    11809    11782    11862    11932    11832    11626    11504 
   11557    11754    11977    12044    11904    11701    11576    11578 
   11705    11859    11934    11919    11888    11911    11935    11838 
   11634    11531    11676    11920    11997    11839    11627    11538 
   11589    11745    11916    11943    11817    11705    11700    11777 
   11886    11931    11850    11759    11789    11854    11828    11727 
   11626    11589    11647    11747    11823    11869    11848    11777 
   11778    11838    11850    11799    11684    11595    11685    11888 
   12008    11978    11836    11689    11647    11686    11745    11799 
   11780    11691    11692    11826    11912    11865    11770    11689 
   11666    11730    11826    11858    11797    11718    11745    11881 
   11996    11977    11809    11608    11580    11803    12079    12158 
   12017    11819    11707    11697    11693    11614    11545    11639 
   11867    12010    11897    11651    11569    11709    11873    11951 
   11932    11821    11720    11684    11642    11599    11608    11689 
   11844    11954    11858    11661    11587    11658    11813    11986 
   12036    11920    11776    11681    11634    11682    11821    11938 
   11950    11907    11840    11711    11570    11569    11747    11990 
   12128    12032    11734    11499    11537    11716    11821    11813 
   11745    11718    11786    11848    11842    11797    11746    11750 
   11797    11790    11739    11745    11813    11873    11881    11820 
   11761    11821    11978    12051    11952    11720    11503    11506 
   11699    11819    11759    11685    11727    11807    11819    11736 
   11596    11531    11620    11770    11877    11916    11897    11861 
   11851    11840    11793    11784    11877    11971    11885    11623 
   11406    11406    11631    11962    12162    12046    11745    11560 
   11627    11862    12058    12059    11911    11773    11705    11654 
   11611    11688    11938    12155    12117    11900    11674    11495 
   11430    11530    11697    11827    11928    12009    12021    11915 
   11736    11650    11726    11836    11842    11732    11639    11680 
   11820    11917    11896    11832    11811    11789    11716    11657 
   11674    11740    11816    11894    11950    11936    11869    11773 
   11637    11503    11457    11557    11799    12027    12044    11838 
   11583    11524    11780    12133    12290    12175    11908    11650 
   11518    11529    11562    11499    11365    11338    11564    11938 
   12216    12225    11958    11666    11638    11851    12097    12218 
   12136    11871    11593    11469    11533    11658    11705    11697 
   11704    11751    11859    11932    11830    11673    11709    11909 
   12052    12017    11808    11562    11485    11601    11794    11905 
   11820    11659    11661    11815    11935    11951    11924    11897 
   11884    11817    11670    11578    11622    11750    11889    11931 
   11880    11854    11855    11796    11716    11682    11674    11727 
   11882    12019    11990    11792    11537    11396    11442    11597 
   11757    11866    11902    11842    11740    11708    11757    11826 
   11923    12050    12101    12032    11919    11789    11632    11538 
   11556    11630    11739    11832    11838    11823    11884    12006 
   12117    12148    12059    11848    11585    11435    11438    11469 
   11503    11623    11790    11850    11720    11457    11261    11365 
   11745    12121    12316    12336    12245    12154    12114    12070 
   12019    12012    11973    11753    11408    11153    11057    11086 
   11268    11581    11884    12078    12159    12150    12140    12152 
   12060    11830    11554    11335    11303    11522    11847    12082 
   12144    12029    11794    11549    11389    11333    11369    11530 
   11794    12033    12164    12139    11940    11708    11566    11477 
   11450    11568    11853    12202    12402    12326    12054    11773 
   11665    11715    11742    11645    11479    11419    11569    11772 
   11801    11682    11580    11612    11834    12174    12421    12456 
   12393    12324    12194    11975    11677    11350    11195    11369 
   11724    12017    12133    12015    11685    11300    11022    10957 
   11152    11495    11831    12097    12263    12298    12189    11967 
   11716    11492    11375    11469    11742    12046    12220    12174 
   11985    11794    11684    11657    11646    11589    11520    11499 
   11511    11520    11551    11623    11739    11931    12195    12451 
   12603    12600    12382    11925    11376    10960    10802    10914 
   11241    11620    11877    11994    12037    12063    12081    12027 
   11901    11782    11749    11840    11983    12016    11885    11684 
   11569    11646    11836    11923    11809    11641    11639    11812 
   11920    11784    11562    11500    11601    11735    11842    11943 
   12032    12029    11877    11638    11449    11402    11496    11686 
   11917    12116    12259    12370    12402    12303    12129    11954 
   11800    11691    11608    11508    11433    11431    11481    11588 
   11736    11831    11813    11750    11747    11823    11893    11877 
   11772    11668    11651    11747    11904    12048    12121    12039 
   11789    11488    11271    11230    11352    11516    11664    11811 
   11985    12210    12437    12507    12337    12009    11682    11456 
   11344    11272    11164    11146    11384    11750    12027    12167 
   12167    12037    11920    11909    11928    11894    11799    11693 
   11670    11749    11863    11948    11989    12008    11985    11836 
   11531    11167    10917    10902    11088    11403    11785    12128 
   12355    12482    12510    12383    12131    11924    11888    11946 
   11923    11758    11520    11318    11259    11364    11556    11740 
   11850    11886    11866    11747    11542    11394    11421    11610 
   11853    12029    12093    12109    12179    12263    12216    12032 
   11821    11622    11448    11398    11515    11720    11934    12047 
   11975    11803    11674    11596    11497    11403    11392    11549 
   11870    12187    12341    12318    12212    12135    12081    11938 
   11695    11477    11385    11379    11373    11376    11422    11520 
   11670    11854    12020    12168    12302    12322    12186    12005 
   11854    11682    11484    11346    11342    11419    11493    11568 
   11691    11823    11913    11992    12058    12070    12020    11931 
   11904    11975    12036    11996    11854    11657    11464    11353 
   11391    11560    11762    11869    11778    11539    11354    11361 
   11542    11855    12249    12552    12594    12397    12144    11983 
   11893    11797    11680    11539    11385    11277    11290    11416 
   11626    11889    12074    12075    11944    11770    11657    11666 
   11761    11859    11892    11838    11755    11719    11745    11793 
   11853    11948    12073    12156    12144    12048    11917    11774 
   11650    11585    11574    11599    11669    11754    11842    11936 
   11955    11844    11695    11616    11603    11595    11604    11646 
   11661    11628    11592    11572    11545    11466    11361    11314 
   11299    11211    11078    11078    11304    11711    12181    12588 
   12853    12968    12931    12715    12322    11843    11394    11041 
   10822    10778    10908    11169    11495    11826    12106    12283 
   12437    12668    12873    12907    12753    12467    12125    11811 
   11561    11321    11025    10781    10794    11094    11487    11773 
   11871    11888    11985    12143    12262    12340    12444    12661 
   12958    13045    12654    11915    11165    10681    10638    10941 
   11268    11472    11697    12098    12561    12780    12521    11785 
   10905    10334    10282    10650    11187    11654    11932    12040 
   12105    12259    12517    12819    13093    13154    12739    11762 
   10461     9261     8560     8580     9289    10446    11734    12864 
   13597    13792    13466    12829    12175    11670    11352    11268 
   11427    11755    12187    12627    12933    13004    12804    12367 
   11821    11334    11091    11238    11707    12194    12406    12253 
   11877    11533    11330    11188    11149    11376    11816    12297 
   12723    12984    12920    12425    11557    10640    10108    10183 
   10750    11496    12110    12506    12772    12953    13058    13135 
   13131    12864    12274    11533    10890    10527    10507    10774 
   11217    11689    12009    11990    11589    11001    10527    10405 
   10716    11345    12081    12687    12907    12610    11881    10945 
   10103     9678     9884    10705    11873    12970    13656    13852 
   13703    13367    12957    12560    12160    11645    11051    10604 
   10435    10544    10989    11734    12483    12941    13062    12946 
   12746    12555    12275    11745    10957    10088     9402     9139 
    9410    10180    11308    12553    13616    14305    14485    14003 
   12985    11952    11398    11414    11770    12116    12100    11558 
   10621     9636     9036     9150     9930    11025    12078    12899 
   13443    13662    13549    13293    13124    13042    12865    12492 
   12019    11568    11144    10701    10208     9714     9421     9510 
    9983    10759    11762    12872    13817    14289    14165    13564 
   12708    11826    11136    10805    10866    11232    11747    12229 
   12502    12460    12148    11716    11371    11298    11472    11649 
   11659    11565    11470    11477    11719    12236    12854    13263 
   13258    12852    12167    11371    10629    10107     9971    10328 
   11094    11954    12604    12978    13149    13126    12803    12101 
   11151    10278     9764     9693    10002    10604    11410    12302 
   13109    13574    13493    12934    12199    11611    11395    11583 
   12000    12398    12571    12449    12152    11865    11707    11693 
   11704    11616    11479    11423    11470    11522    11524    11542 
   11603    11718    11892    11969    11811    11470    11106    10868 
   10777    10785    10929    11245    11661    12037    12255    12285 
   12189    12059    11947    11875    11874    11943    12090    12345 
   12637    12810    12804    12627    12285    11828    11373    11055 
   10947    10976    10986    10917    10875    10956    11101    11256 
   11483    11823    12280    12843    13367    13633    13532    13132 
   12584    12009    11473    11030    10744    10652    10737    10951 
   11241    11569    11919    12258    12525    12629    12511    12214 
   11848    11546    11429    11512    11665    11743    11740    11734 
   11778    11836    11816    11685    11488    11340    11372    11533 
   11628    11568    11410    11310    11398    11639    11854    11851 
   11612    11334    11203    11209    11238    11259    11350    11618 
   12060    12511    12795    12908    12953    12988    12995    12868 
   12482    11882    11280    10816    10516    10378    10365    10424 
   10574    10885    11408    12078    12703    13130    13301    13194 
   12850    12393    11983    11746    11709    11819    11952    12023 
   12036    12039    12028    11959    11805    11634    11542    11591 
   11719    11758    11599    11311    11051    10941    11045    11342 
   11703    11970    12091    12150    12240    12372    12468    12421 
   12210    11897    11568    11315    11206    11175    11160    11215 
   11364    11529    11669    11776    11844    11931    12073    12220 
   12320    12361    12325    12213    12058    11934    11916    11948 
   11890    11659    11283    10901    10692    10725    10970    11346 
   11784    12253    12706    13031    13144    13068    12880    12646 
   12376    12090    11812    11502    11152    10852    10694    10696 
   10810    10984    11211    11495    11785    12019    12190    12310 
   12352    12287    12147    12036    12010    11977    11820    11550 
   11260    11002    10746    10458    10201    10133    10316    10658 
   11101    11684    12349    12912    13208    13188    12946    12638 
   12339    12070    11858    11691    11516    11353    11276    11311 
   11427    11572    11708    11846    11992    12140    12235    12208 
   12091    11986    11966    12062    12251    12502    12742    12831 
   12711    12441    12116    11870    11801    11838    11789    11557 
   11225    10914    10694    10631    10789    11200    11871    12676 
   13323    13556    13365    12923    12402    11882    11402    11005 
   10768    10766    10989    11331    11637    11759    11674    11535 
   11519    11626    11766    11890    11979    12029    12086    12156 
   12118    11875    11503    11133    10852    10732    10783    10897 
   10980    11111    11398    11778    12113    12330    12436    12448 
   12353    12093    11650    11149    10758    10577    10650    10944 
   11388    11963    12596    13135    13431    13378    12970    12291 
   11499    10817    10461    10550    11052    11773    12464    12981 
   13275    13286    13003    12568    12124    11739    11497    11437 
   11473    11519    11558    11584    11604    11627    11650    11699 
   11786    11884    11952    11951    11863    11723    11547    11325 
   11086    10916    10893    11009    11163    11310    11515    11774 
   12013    12182    12240    12151    11942    11712    11561    11529 
   11639    11873    12121    12298    12398    12420    12355    12248 
   12172    12189    12302    12453    12575    12610    12499    12249 
   11992    11839    11758    11668    11487    11125    10577    10004 
    9625     9585     9876    10376    10945    11508    12017    12426 
   12677    12735    12633    12460    12263    12052    11921    11952 
