Origin Time       2025/03/28 03:50:00
Lat.              35.403
Long.             140.360
Depth. (km)       54
Mag.              4.4
Station Code      TKY016
Station Lat.      35.6486
Station Long.     139.7990
Station Height(m) 2
Record Time       2025/03/28 03:51:01
Sampling Freq(Hz) 100Hz
Duration Time(s)  60
Dir.              E-W
Scale Factor      7845(gal)/8223790
Max. Acc. (gal)   1.163
Last Correction   2025/03/28 03:51:01
Memo.             
[...]
   -7832    -7834    -7834    -7831    -7831    -7832    -7834    -7835 
   -7834    -7830    -7831    -7834    -7834    -7834    -7831    -7827 
   -7828    -7834    -7840    -7840    -7839    -7842    -7839    -7836 
   -7838    -7839    -7843    -7844    -7844    -7847    -7847    -7844 
   -7852    -7861    -7857    -7859    -7865    -7861    -7859    -7857 
   -7851    -7851    -7852    -7851    -7847    -7838    -7827    -7811 
   -7790    -7776    -7774    -7785    -7809    -7835    -7852    -7852 
   -7836    -7823    -7827    -7855    -7885    -7893    -7885    -7859 
   -7820    -7805    -7824    -7828    -7803    -7798    -7831    -7867 
   -7897    -7892    -7834    -7786    -7820    -7884    -7888    -7852 
   -7846    -7842    -7807    -7804    -7842    -7832    -7774    -7761 
   -7790    -7805    -7811    -7816    -7801    -7777    -7792    -7843 
   -7874    -7851    -7831    -7855    -7892    -7900    -7892    -7879 
   -7863    -7847    -7846    -7843    -7815    -7777    -7771    -7816 
   -7858    -7857    -7847    -7861    -7874    -7862    -7843    -7863 
   -7913    -7942    -7929    -7892    -7854    -7834    -7821    -7805 
   -7777    -7761    -7790    -7836    -7835    -7785    -7750    -7782 
   -7848    -7873    -7847    -7835    -7865    -7925    -7978    -7956 
   -7850    -7762    -7785    -7871    -7897    -7838    -7793    -7830 
   -7888    -7894    -7855    -7803    -7776    -7825    -7911    -7928 
   -7878    -7836    -7825    -7836    -7854    -7852    -7817    -7786 
   -7813    -7861    -7844    -7780    -7776    -7848    -7877    -7813 
   -7750    -7747    -7778    -7805    -7807    -7797    -7827    -7889 
   -7931    -7944    -7944    -7923    -7890    -7875    -7851    -7805 
   -7785    -7811    -7838    -7852    -7867    -7859    -7846    -7857 
   -7866    -7877    -7911    -7933    -7919    -7890    -7867    -7844 
   -7830    -7835    -7831    -7801    -7782    -7792    -7769    -7703 
   -7689    -7778    -7877    -7924    -7951    -7942    -7897    -7902 
   -7962    -7966    -7881    -7790    -7757    -7765    -7773    -7777 
   -7793    -7800    -7785    -7797    -7827    -7819    -7788    -7786 
   -7804    -7807    -7797    -7792    -7800    -7807    -7807    -7824 
   -7842    -7813    -7774    -7800    -7858    -7846    -7766    -7724 
   -7774    -7875    -7940    -7951    -7952    -7952    -7912    -7850 
   -7820    -7804    -7769    -7790    -7892    -7944    -7904    -7862 
   -7850    -7823    -7797    -7825    -7862    -7843    -7811    -7823 
   -7857    -7869    -7842    -7785    -7726    -7700    -7735    -7805 
   -7866    -7897    -7896    -7877    -7875    -7873    -7835    -7796 
   -7801    -7819    -7821    -7832    -7861    -7877    -7858    -7823 
   -7823    -7886    -7958    -7969    -7920    -7854    -7797    -7770 
   -7769    -7766    -7751    -7755    -7793    -7832    -7854    -7863 
   -7863    -7854    -7851    -7875    -7897    -7874    -7848    -7865 
   -7873    -7834    -7782    -7767    -7794    -7835    -7859    -7870 
   -7884    -7908    -7965    -8039    -8047    -7954    -7847    -7789 
   -7765    -7771    -7782    -7754    -7724    -7743    -7781    -7804 
   -7836    -7874    -7874    -7851    -7846    -7838    -7807    -7774 
   -7750    -7755    -7815    -7897    -7943    -7915    -7834    -7789 
   -7813    -7828    -7805    -7804    -7852    -7900    -7898    -7867 
   -7857    -7878    -7900    -7893    -7878    -7886    -7896    -7889 
   -7896    -7917    -7920    -7906    -7878    -7815    -7734    -7701 
   -7723    -7742    -7761    -7801    -7839    -7848    -7824    -7792 
   -7797    -7803    -7747    -7689    -7716    -7786    -7827    -7865 
   -7920    -7943    -7924    -7916    -7913    -7870    -7800    -7751 
   -7738    -7740    -7766    -7823    -7894    -7955    -7977    -7947 
   -7921    -7927    -7923    -7908    -7905    -7897    -7874    -7848 
   -7830    -7816    -7774    -7715    -7709    -7753    -7773    -7762 
   -7767    -7807    -7848    -7869    -7877    -7886    -7897    -7889 
   -7875    -7901    -7938    -7906    -7824    -7762    -7730    -7705 
   -7693    -7708    -7750    -7803    -7842    -7862    -7878    -7900 
   -7923    -7959    -7989    -7975    -7944    -7946    -7967    -7962 
   -7924    -7861    -7781    -7709    -7684    -7695    -7697    -7677 
   -7674    -7732    -7819    -7855    -7855    -7878    -7915    -7928 
   -7906    -7866    -7835    -7827    -7851    -7900    -7966    -8032 
   -8063    -8033    -7951    -7843    -7734    -7639    -7589    -7607 
   -7653    -7681    -7715    -7776    -7835    -7889    -7921    -7908 
   -7882    -7892    -7917    -7929    -7927    -7923    -7913    -7859 
   -7773    -7723    -7726    -7742    -7766    -7811    -7832    -7790 
   -7726    -7693    -7676    -7658    -7686    -7788    -7889    -7919 
   -7913    -7939    -7987    -8009    -7973    -7886    -7807    -7776 
   -7797    -7865    -7939    -7979    -7982    -7951    -7893    -7831 
   -7797    -7824    -7897    -7955    -7959    -7919    -7859    -7819 
   -7842    -7904    -7938    -7938    -7921    -7879    -7840    -7828 
   -7813    -7784    -7801    -7861    -7863    -7813    -7792    -7801 
   -7817    -7874    -7958    -7982    -7919    -7846    -7820    -7807 
   -7790    -7788    -7765    -7712    -7700    -7735    -7777    -7828 
   -7874    -7867    -7834    -7832    -7854    -7847    -7796    -7753 
   -7759    -7792    -7812    -7817    -7816    -7817    -7843    -7901 
   -7936    -7877    -7740    -7663    -7723    -7809    -7809    -7743 
   -7688    -7709    -7807    -7904    -7954    -7958    -7931    -7919 
   -7955    -8004    -8004    -7943    -7892    -7886    -7882    -7871 
   -7894    -7919    -7882    -7808    -7755    -7726    -7700    -7678 
   -7659    -7622    -7601    -7682    -7848    -7978    -8029    -8051 
   -8040    -7967    -7850    -7746    -7690    -7697    -7754    -7808 
   -7844    -7889    -7933    -7952    -7943    -7908    -7857    -7811 
   -7793    -7803    -7821    -7831    -7808    -7755    -7726    -7765 
   -7861    -7924    -7908    -7886    -7893    -7852    -7776    -7751 
   -7774    -7773    -7746    -7739    -7770    -7808    -7844    -7900 
   -7952    -7960    -7939    -7962    -8050    -8122    -8109    -8024 
   -7935    -7896    -7881    -7828    -7740    -7672    -7681    -7769 
   -7851    -7848    -7793    -7781    -7832    -7870    -7817    -7692 
   -7582    -7560    -7616    -7696    -7751    -7766    -7771    -7800 
   -7834    -7843    -7839    -7827    -7811    -7811    -7811    -7804 
   -7821    -7882    -7958    -8000    -7998    -8002    -8024    -8016 
   -7960    -7897    -7851    -7827    -7840    -7865    -7854    -7831 
   -7834    -7840    -7869    -7929    -7943    -7861    -7753    -7674 
   -7615    -7566    -7534    -7543    -7623    -7742    -7866    -7996 
   -8108    -8170    -8212    -8255    -8249    -8179    -8085    -7962 
   -7828    -7744    -7705    -7678    -7662    -7654    -7669    -7705 
   -7728    -7758    -7838    -7902    -7893    -7886    -7935    -7969 
   -7939    -7877    -7812    -7766    -7755    -7740    -7685    -7638 
   -7635    -7630    -7600    -7591    -7628    -7693    -7782    -7890 
   -7975    -8008    -7998    -7973    -7962    -8013    -8101    -8129 
   -8074    -7997    -7911    -7820    -7767    -7766    -7773    -7778 
   -7808    -7832    -7819    -7807    -7831    -7865    -7885    -7892 
   -7879    -7830    -7744    -7661    -7596    -7551    -7526    -7526 
   -7554    -7619    -7726    -7846    -7966    -8066    -8117    -8124 
   -8109    -8087    -8055    -8002    -7929    -7854    -7828    -7870 
   -7915    -7919    -7908    -7902    -7898    -7873    -7790    -7685 
   -7639    -7666    -7728    -7784    -7801    -7792    -7811    -7866 
   -7912    -7932    -7939    -7921    -7888    -7878    -7879    -7847 
   -7809    -7816    -7838    -7823    -7812    -7857    -7932    -7990 
   -8019    -8013    -7965    -7896    -7869    -7894    -7916    -7912 
   -7901    -7866    -7811    -7784    -7781    -7773    -7782    -7813 
   -7823    -7809    -7805    -7830    -7857    -7851    -7819    -7755 
   -7661    -7595    -7587    -7607    -7628    -7653    -7653    -7592 
   -7516    -7514    -7591    -7695    -7793    -7870    -7929    -8008 
   -8102    -8149    -8132    -8095    -8055    -8021    -8010    -7985 
   -7896    -7773    -7665    -7584    -7508    -7438    -7427    -7500 
   -7605    -7716    -7830    -7913    -7971    -8059    -8162    -8216 
   -8229    -8237    -8218    -8156    -8101    -8058    -7992    -7947 
   -7969    -8014    -8028    -8020    -8031    -8052    -8036    -7990 
   -7956    -7948    -7948    -7952    -7955    -7960    -8004    -8100 
   -8209    -8301    -8367    -8375    -8321    -8233    -8122    -7986 
   -7831    -7676    -7558    -7479    -7408    -7353    -7325    -7311 
   -7315    -7341    -7331    -7267    -7191    -7140    -7136    -7179 
   -7223    -7240    -7242    -7242    -7258    -7299    -7362    -7441 
   -7510    -7553    -7601    -7686    -7780    -7866    -7985    -8174 
   -8398    -8592    -8745    -8865    -8905    -8839    -8708    -8560 
   -8419    -8284    -8140    -7982    -7804    -7604    -7376    -7132 
   -6959    -6929    -7010    -7173    -7414    -7653    -7766    -7743 
   -7689    -7678    -7715    -7777    -7816    -7804    -7778    -7784 
   -7813    -7865    -7969    -8144    -8340    -8482    -8507    -8395 
   -8197    -8013    -7916    -7904    -7942    -7998    -8060    -8122 
   -8171    -8176    -8097    -7924    -7711    -7514    -7379    -7361 
   -7511    -7788    -8052    -8209    -8280    -8286    -8218    -8124 
   -8047    -7982    -7946    -7943    -7946    -7927    -7877    -7798 
   -7681    -7520    -7334    -7179    -7126    -7207    -7425    -7728 
   -7997    -8128    -8127    -8031    -7871    -7686    -7500    -7348 
   -7308    -7434    -7672    -7927    -8136    -8262    -8294    -8259 
   -8185    -8064    -7889    -7699    -7582    -7576    -7619    -7663 
   -7727    -7798    -7812    -7750    -7662    -7600    -7595    -7659 
   -7781    -7942    -8081    -8131    -8102    -8024    -7912    -7813 
   -7759    -7740    -7759    -7812    -7847    -7836    -7815    -7847 
   -7978    -8185    -8380    -8502    -8545    -8506    -8384    -8208 
   -8028    -7882    -7750    -7612    -7504    -7461    -7483    -7562 
   -7695    -7825    -7885    -7885    -7875    -7869    -7852    -7813 
   -7763    -7738    -7742    -7757    -7774    -7786    -7769    -7705 
   -7626    -7581    -7618    -7747    -7929    -8104    -8232    -8325 
   -8399    -8419    -8344    -8187    -7978    -7734    -7479    -7252 
   -7076    -6968    -6945    -7014    -7142    -7267    -7338    -7391 
   -7497    -7669    -7840    -7990    -8148    -8289    -8341    -8294 
   -8208    -8109    -7986    -7842    -7693    -7566    -7489    -7460 
   -7438    -7420    -7466    -7614    -7817    -7998    -8122    -8208 
   -8252    -8260    -8233    -8149    -8005    -7843    -7719    -7645 
   -7623    -7686    -7807    -7909    -7977    -8010    -8016    -8016 
   -8017    -8012    -8006    -7986    -7931    -7866    -7816    -7784 
   -7771    -7794    -7844    -7890    -7947    -8055    -8186    -8252 
   -8178    -7969    -7703    -7460    -7283    -7198    -7236    -7388 
   -7607    -7825    -7990    -8079    -8127    -8155    -8147    -8121 
   -8129    -8181    -8255    -8330    -8406    -8459    -8452    -8398 
   -8293    -8090    -7820    -7582    -7468    -7484    -7574    -7711 
   -7894    -8087    -8247    -8349    -8363    -8286    -8151    -7985 
   -7830    -7700    -7566    -7426    -7303    -7225    -7196    -7207 
   -7271    -7415    -7587    -7693    -7722    -7738    -7767    -7777 
   -7759    -7724    -7646    -7512    -7349    -7175    -7025    -6937 
   -6936    -7014    -7138    -7296    -7522    -7776    -7974    -8125 
   -8297    -8503    -8689    -8796    -8803    -8712    -8552    -8374 
   -8239    -8172    -8139    -8070    -7939    -7778    -7627    -7501 
   -7420    -7407    -7454    -7504    -7512    -7492    -7504    -7599 
   -7754    -7908    -8036    -8135    -8182    -8171    -8128    -8085 
   -8068    -8082    -8124    -8172    -8176    -8127    -8054    -7979 
   -7919    -7886    -7850    -7763    -7632    -7511    -7464    -7518 
   -7641    -7755    -7816    -7828    -7813    -7794    -7803    -7848 
   -7913    -7986    -8055    -8108    -8140    -8135    -8066    -7917 
   -7704    -7503    -7406    -7464    -7653    -7884    -8073    -8194 
   -8262    -8295    -8295    -8270    -8213    -8102    -7932    -7730 
   -7514    -7329    -7218    -7182    -7182    -7204    -7257    -7350 
   -7465    -7574    -7686    -7831    -8002    -8148    -8214    -8202 
   -8162    -8164    -8236    -8338    -8413    -8448    -8453    -8413 
   -8298    -8118    -7894    -7646    -7418    -7257    -7173    -7161 
   -7211    -7312    -7450    -7599    -7722    -7789    -7792    -7744 
   -7689    -7673    -7707    -7754    -7790    -7862    -8004    -8166 
   -8290    -8361    -8392    -8383    -8305    -8155    -7969    -7782 
   -7632    -7547    -7518    -7524    -7576    -7670    -7767    -7839 
   -7890    -7940    -7998    -8043    -8028    -7969    -7927    -7901 
   -7852    -7780    -7727    -7716    -7712    -7673    -7599    -7519 
   -7484    -7542    -7689    -7877    -8058    -8197    -8272    -8272 
   -8171    -7966    -7686    -7356    -7025    -6772    -6635    -6621 
   -6735    -6964    -7288    -7661    -8006    -8255    -8397    -8455 
   -8455    -8433    -8401    -8355    -8317    -8307    -8328    -8356 
   -8378    -8386    -8344    -8235    -8097    -7931    -7732    -7546 
   -7403    -7310    -7268    -7260    -7276    -7323    -7396    -7468 
   -7530    -7612    -7732    -7877    -8031    -8175    -8272    -8328 
   -8383    -8436    -8459    -8437    -8376    -8302    -8222    -8136 
   -8046    -7933    -7803    -7692    -7623    -7599    -7645    -7753 
   -7855    -7904    -7931    -7971    -8000    -7987    -7931    -7836 
   -7732    -7649    -7605    -7609    -7649    -7699    -7730    -7720 
   -7681    -7635    -7582    -7541    -7568    -7688    -7831    -7925 
   -7994    -8095    -8222    -8324    -8360    -8322    -8240    -8145 
   -8050    -7960    -7888    -7792    -7649    -7506    -7399    -7323 
   -7273    -7257    -7307    -7427    -7573    -7709    -7821    -7896 
   -7940    -7981    -8025    -8059    -8068    -8054    -8012    -7948 
   -7894    -7869    -7847    -7797    -7732    -7658    -7564    -7466 
   -7400    -7376    -7389    -7434    -7511    -7634    -7807    -7996 
   -8155    -8255    -8303    -8337    -8370    -8387    -8376    -8326 
   -8224    -8081    -7933    -7800    -7688    -7601    -7543    -7511 
   -7487    -7466    -7462    -7461    -7447    -7439    -7456    -7493 
   -7549    -7630    -7738    -7875    -8031    -8179    -8283    -8314 
   -8280    -8229    -8202    -8205    -8214    -8201    -8160    -8113 
   -8063    -7989    -7892    -7797    -7717    -7655    -7623    -7630 
   -7665    -7707    -7731    -7717    -7673    -7635    -7624    -7647 
   -7705    -7780    -7835    -7871    -7908    -7931    -7913    -7869 
   -7819    -7800    -7824    -7863    -7890    -7892    -7852    -7784 
   -7709    -7646    -7614    -7641    -7749    -7916    -8098    -8268 
   -8409    -8479    -8444    -8301    -8078    -7820    -7587    -7420 
   -7330    -7308    -7345    -7419    -7501    -7560    -7577    -7570 
   -7568    -7585    -7618    -7654    -7692    -7746    -7831    -7948 
   -8091    -8233    -8343    -8398    -8394    -8345    -8283    -8209 
   -8101    -7979    -7877    -7788    -7699    -7626    -7566    -7495 
   -7419    -7369    -7362    -7418    -7539    -7697    -7848    -7959 
   -8027    -8063    -8074    -8064    -8031    -7971    -7921    -7915 
   -7948    -7997    -8029    -8029    -7998    -7955    -7917    -7911 
   -7939    -7989    -8059    -8125    -8148    -8141    -8131    -8095 
   -8006    -7855    -7661    -7470    -7334    -7271    -7250    -7244 
   -7263    -7329    -7434    -7553    -7645    -7717    -7804    -7897 
   -7979    -8055    -8109    -8124    -8104    -8075    -8048    -8001 
   -7940    -7902    -7890    -7885    -7867    -7828    -7771    -7724 
   -7697    -7685    -7689    -7696    -7704    -7720    -7715    -7688 
   -7696    -7762    -7861    -7970    -8078    -8170    -8230    -8253 
   -8252    -8218    -8137    -8031    -7917    -7790    -7650    -7507 
   -7366    -7245    -7190    -7200    -7245    -7338    -7488    -7663 
   -7851    -8043    -8187    -8256    -8274    -8283    -8293    -8279 
   -8249    -8225    -8199    -8160    -8118    -8093    -8079    -8071 
   -8068    -8063    -8031    -7955    -7862    -7794    -7762    -7751 
   -7754    -7758    -7757    -7746    -7732    -7736    -7765    -7811 
   -7873    -7942    -7990    -8000    -7987    -7971    -7950    -7909 
   -7857    -7800    -7747    -7693    -7645    -7614    -7596    -7568 
   -7512    -7443    -7380    -7327    -7311    -7357    -7465    -7597 
   -7720    -7838    -7952    -8039    -8071    -8055    -8016    -7979 
   -7938    -7884    -7830    -7784    -7750    -7731    -7715    -7684 
   -7646    -7636    -7669    -7726    -7774    -7794    -7778    -7731 
   -7666    -7612    -7589    -7597    -7639    -7723    -7840    -7965 
   -8083    -8182    -8229    -8212    -8154    -8085    -8025    -7979 
   -7951    -7933    -7938    -7983    -8055    -8102    -8106    -8078 
   -8036    -7986    -7929    -7861    -7765    -7651    -7551    -7479 
   -7431    -7433    -7479    -7527    -7577    -7642    -7711    -7763 
   -7800    -7830    -7865    -7908    -7950    -7990    -8031    -8074 
   -8120    -8176    -8248    -8321    -8387    -8448    -8491    -8498 
   -8459    -8372    -8252    -8114    -7970    -7832    -7728    -7668 
   -7641    -7624    -7607    -7599    -7595    -7584    -7569    -7565 
   -7584    -7614    -7635    -7657    -7686    -7717    -7753    -7794 
   -7831    -7840    -7824    -7807    -7789    -7770    -7754    -7749 
   -7738    -7724    -7716    -7704    -7678    -7642    -7607    -7582 
   -7574    -7580    -7599    -7634    -7677    -7732    -7808    -7902 
   -7998    -8081    -8140    -8170    -8186    -8199    -8191    -8159 
   -8117    -8055    -7962    -7844    -7723    -7605    -7507    -7438 
   -7396    -7373    -7372    -7395    -7453    -7555    -7680    -7794 
   -7886    -7951    -7992    -8020    -8041    -8041    -8027    -8029 
   -8050    -8079    -8109    -8117    -8087    -8020    -7928    -7823 
   -7723    -7642    -7587    -7561    -7572    -7615    -7681    -7743 
   -7790    -7839    -7892    -7944    -7981    -7973    -7940    -7919 
   -7896    -7857    -7819    -7804    -7815    -7832    -7844    -7863 
   -7896    -7927    -7954    -8001    -8055    -8086    -8104    -8113 
   -8091    -8029    -7935    -7839    -7770    -7743    -7753    -7786 
   -7843    -7923    -8014    -8105    -8183    -8233    -8247    -8229 
   -8191    -8137    -8063    -7975    -7882    -7790    -7703    -7618 
   -7533    -7449    -7383    -7341    -7295    -7229    -7179    -7179 
   -7223    -7314    -7456    -7627    -7789    -7916    -8019    -8100 
