Origin Time       2025/03/28 03:50:00
Lat.              35.403
Long.             140.360
Depth. (km)       54
Mag.              4.4
Station Code      TKY031
Station Lat.      35.6789
Station Long.     139.7070
Station Height(m) 29
Record Time       2025/03/28 03:50:53
Sampling Freq(Hz) 100Hz
Duration Time(s)  70
Dir.              N-S
Scale Factor      7845(gal)/8223790
Max. Acc. (gal)   9.177
Last Correction   2025/03/28 03:50:53
Memo.             
[...]
   -3433    -3441    -3424    -3416    -3429    -3429    -3418    -3410 
   -3403    -3392    -3389    -3407    -3414    -3388    -3379    -3414 
   -3424    -3402    -3399    -3415    -3438    -3441    -3402    -3370 
   -3387    -3407    -3407    -3415    -3429    -3422    -3400    -3399 
   -3410    -3407    -3406    -3426    -3443    -3434    -3395    -3362 
   -3375    -3415    -3443    -3439    -3408    -3376    -3365    -3377 
   -3397    -3420    -3419    -3396    -3403    -3427    -3424    -3397 
   -3384    -3408    -3429    -3419    -3416    -3416    -3400    -3383 
   -3402    -3439    -3441    -3404    -3381    -3384    -3392    -3402 
   -3418    -3430    -3426    -3404    -3392    -3411    -3431    -3423 
   -3400    -3392    -3408    -3427    -3430    -3414    -3397    -3399 
   -3399    -3385    -3392    -3419    -3423    -3416    -3418    -3414 
   -3404    -3407    -3426    -3430    -3407    -3388    -3384    -3408 
   -3446    -3439    -3404    -3402    -3404    -3389    -3387    -3397 
   -3418    -3443    -3434    -3403    -3391    -3384    -3395    -3419 
   -3416    -3399    -3391    -3420    -3472    -3477    -3439    -3399 
   -3375    -3380    -3381    -3369    -3377    -3403    -3429    -3438 
   -3422    -3406    -3402    -3410    -3435    -3439    -3399    -3385 
   -3410    -3418    -3418    -3419    -3406    -3397    -3402    -3406 
   -3404    -3391    -3392    -3429    -3454    -3447    -3416    -3381 
   -3376    -3402    -3426    -3431    -3420    -3412    -3412    -3399 
   -3381    -3379    -3393    -3412    -3423    -3422    -3412    -3406 
   -3402    -3406    -3416    -3411    -3411    -3420    -3399    -3377 
   -3391    -3415    -3443    -3457    -3424    -3380    -3368    -3384 
   -3412    -3437    -3438    -3423    -3402    -3395    -3400    -3395 
   -3391    -3399    -3402    -3392    -3388    -3402    -3412    -3412 
   -3412    -3407    -3410    -3429    -3437    -3424    -3404    -3399 
   -3416    -3423    -3416    -3419    -3412    -3393    -3392    -3392 
   -3381    -3377    -3389    -3414    -3433    -3429    -3406    -3383 
   -3384    -3408    -3429    -3430    -3424    -3430    -3442    -3445 
   -3431    -3410    -3392    -3395    -3406    -3400    -3387    -3383 
   -3395    -3419    -3424    -3391    -3370    -3402    -3433    -3422 
   -3400    -3399    -3396    -3400    -3442    -3469    -3429    -3381 
   -3385    -3412    -3426    -3404    -3368    -3379    -3420    -3442 
   -3424    -3389    -3385    -3406    -3416    -3426    -3423    -3404 
   -3407    -3434    -3454    -3446    -3410    -3383    -3411    -3445 
   -3423    -3385    -3366    -3353    -3364    -3402    -3420    -3411 
   -3410    -3416    -3411    -3402    -3396    -3410    -3450    -3480 
   -3451    -3388    -3362    -3380    -3402    -3416    -3431    -3424 
   -3395    -3375    -3380    -3404    -3434    -3442    -3427    -3422 
   -3434    -3415    -3375    -3373    -3402    -3408    -3402    -3404 
   -3406    -3370    -3352    -3400    -3441    -3439    -3431    -3423 
   -3438    -3438    -3397    -3387    -3416    -3434    -3433    -3431 
   -3419    -3383    -3350    -3357    -3381    -3399    -3411    -3422 
   -3438    -3443    -3415    -3372    -3368    -3407    -3433    -3426 
   -3418    -3414    -3400    -3396    -3399    -3391    -3383    -3391 
   -3406    -3423    -3430    -3410    -3391    -3392    -3387    -3383 
   -3407    -3435    -3446    -3443    -3437    -3427    -3408    -3376 
   -3356    -3392    -3462    -3481    -3434    -3375    -3341    -3346 
   -3385    -3427    -3445    -3437    -3410    -3389    -3385    -3384 
   -3393    -3397    -3393    -3399    -3419    -3446    -3450    -3427 
   -3418    -3407    -3385    -3385    -3402    -3400    -3400    -3407 
   -3419    -3435    -3423    -3389    -3373    -3387    -3427    -3443 
   -3430    -3434    -3442    -3427    -3397    -3376    -3388    -3424 
   -3443    -3420    -3379    -3358    -3375    -3412    -3435    -3412 
   -3381    -3376    -3388    -3404    -3415    -3419    -3438    -3454 
   -3439    -3418    -3404    -3391    -3387    -3393    -3411    -3438 
   -3449    -3426    -3400    -3388    -3373    -3375    -3400    -3423 
   -3443    -3435    -3399    -3385    -3395    -3399    -3406    -3410 
   -3408    -3416    -3424    -3420    -3403    -3370    -3349    -3362 
   -3388    -3410    -3434    -3466    -3468    -3383    -3258    -3154 
   -3132    -3343    -3801    -4207    -4151    -3469    -2571    -2234 
   -2790    -3740    -4394    -4513    -4056    -3096    -2258    -2254 
   -2976    -3771    -4194    -4151    -3800    -3451    -3280    -3115 
   -2895    -2991    -3437    -3636    -3483    -3550    -3834    -3705 
   -3180    -2938    -3210    -3488    -3304    -2866    -2841    -3569 
   -4526    -4838    -4210    -3044    -1964    -1671    -2544    -4035 
   -5035    -4791    -3505    -2432    -2701    -3765    -3996    -3078 
   -2412    -2835    -3573    -3828    -3785    -3825    -3974    -4017 
   -3604    -2762    -2096    -2120    -2909    -4232    -5383    -5374 
   -3915    -1923     -988    -1919    -3717    -4712    -4476    -3874 
   -3561    -3181    -2581    -2473    -3095    -3956    -4622    -4590 
   -3628    -2475    -2154    -2851    -3843    -4301    -4062    -3384 
   -2590    -2355    -3029    -3871    -4029    -3573    -3233    -3357 
   -3539    -3473    -3352    -3315    -3321    -3396    -3661    -4040 
   -4023    -3365    -2678    -2585    -3076    -3761    -4032    -3569 
   -2970    -3003    -3446    -3526    -3281    -3384    -3701    -3673 
   -3564    -3685    -3589    -3069    -2722    -3009    -3604    -3892 
   -3759    -3611    -3518    -3107    -2563    -2579    -3150    -3707 
   -4052    -4191    -4035    -3757    -3519    -3057    -2481    -2598 
   -3492    -4063    -3773    -3381    -3487    -3715    -3554    -3063 
   -2729    -2948    -3565    -4043    -4001    -3501    -3040    -3007 
   -3231    -3402    -3550    -3755    -3723    -3165    -2620    -2860 
   -3591    -3956    -3747    -3326    -3137    -3261    -3321    -3150 
   -3061    -3323    -3815    -4060    -3858    -3628    -3591    -3468 
   -3254    -3210    -3304    -3407    -3538    -3624    -3499    -3198 
   -2967    -2998    -3272    -3596    -3661    -3350    -3132    -3468 
   -3928    -3862    -3461    -3291    -3360    -3280    -3005    -2922 
   -3237    -3703    -4051    -4091    -3582    -2702    -2263    -2748 
   -3553    -3836    -3585    -3397    -3613    -3923    -3817    -3334 
   -3026    -3276    -3824    -3981    -3545    -3111    -3123    -3368 
   -3441    -3196    -2855    -2675    -2720    -3125    -3954    -4714 
   -4734    -3963    -3059    -2701    -2947    -3283    -3299    -3199 
   -3424    -3835    -3784    -3136    -2529    -2610    -3372    -4180 
   -4457    -4105    -3449    -2971    -2785    -2733    -2964    -3604 
   -4189    -4086    -3397    -2930    -3102    -3434    -3415    -3202 
   -3164    -3375    -3659    -3739    -3576    -3524    -3616    -3423 
   -2918    -2662    -3034    -3678    -4001    -3996    -3998    -3942 
   -3623    -3253    -3049    -2922    -2891    -3032    -3199    -3230 
   -3241    -3530    -3931    -3877    -3322    -2822    -2813    -3285 
   -3778    -3797    -3487    -3375    -3549    -3655    -3491    -3258 
   -3196    -3214    -3249    -3489    -3846    -3916    -3646    -3331 
   -3106    -2968    -2986    -3204    -3516    -3699    -3688    -3618 
   -3553    -3426    -3229    -3094    -3148    -3335    -3516    -3653 
   -3758    -3861    -3970    -3858    -3331    -2787    -2754    -3173 
   -3522    -3365    -2945    -2870    -3226    -3643    -3842    -3651 
   -3190    -2959    -3246    -3834    -4298    -4249    -3669    -3013 
   -2709    -2813    -3065    -3195    -3222    -3316    -3495    -3649 
   -3624    -3381    -3110    -3095    -3495    -4052    -4234    -4020 
   -3827    -3712    -3511    -3225    -2848    -2479    -2461    -2880 
   -3331    -3505    -3561    -3638    -3663    -3672    -3700    -3638 
   -3503    -3477    -3592    -3754    -3888    -3901    -3704    -3303 
   -2880    -2574    -2323    -2255    -2660    -3426    -4124    -4472 
   -4371    -3908    -3392    -3087    -3090    -3384    -3769    -3890 
   -3649    -3427    -3460    -3412    -3059    -2670    -2535    -2755 
   -3295    -3808    -3981    -3874    -3654    -3468    -3437    -3500 
   -3483    -3334    -3191    -3211    -3387    -3545    -3562    -3524 
   -3531    -3491    -3249    -2880    -2744    -3034    -3429    -3612 
   -3774    -4114    -4229    -3712    -3044    -2840    -2922    -2991 
   -3125    -3315    -3582    -4060    -4360    -3942    -3206    -2956 
   -3083    -3036    -2932    -3136    -3511    -3734    -3673    -3429 
   -3273    -3356    -3510    -3483    -3327    -3511    -4079    -4214 
   -3605    -3210    -3623    -3970    -3358    -2355    -2062    -2619 
   -3352    -3727    -3701    -3592    -3591    -3457    -3094    -3006 
   -3512    -4006    -3820    -3329    -3349    -3842    -3987    -3399 
   -2673    -2523    -2824    -3033    -3140    -3503    -3993    -4067 
   -3651    -3281    -3353    -3693    -3865    -3694    -3485    -3592 
   -3758    -3431    -2763    -2520    -2949    -3503    -3672    -3472 
   -3192    -3114    -3277    -3520    -3834    -4248    -4367    -3759 
   -2785    -2266    -2481    -3088    -3620    -3831    -3790    -3574 
   -3102    -2604    -2693    -3541    -4403    -4484    -4004    -3746 
   -3816    -3634    -3036    -2616    -2748    -3110    -3423    -3639 
   -3577    -3287    -3096    -3072    -3115    -3272    -3546    -3717 
   -3605    -3437    -3558    -3817    -3794    -3450    -3225    -3415 
   -3654    -3566    -3331    -3071    -2889    -3181    -3769    -3966 
   -3696    -3335    -3118    -3034    -2968    -2949    -3053    -3279 
   -3639    -3890    -3712    -3342    -3148    -3153    -3407    -3854 
   -4187    -4160    -3723    -3217    -3111    -3256    -3160    -2817 
   -2632    -2890    -3430    -3796    -3793    -3497    -3007    -2799 
   -3356    -4180    -4392    -4002    -3620    -3508    -3541    -3519 
   -3265    -2930    -2955    -3254    -3262    -3084    -3254    -3553 
   -3499    -3315    -3365    -3546    -3618    -3439    -3028    -2720 
   -2913    -3476    -3859    -3792    -3532    -3411    -3439    -3495 
   -3551    -3663    -3807    -3823    -3631    -3366    -3179    -3130 
   -3213    -3321    -3350    -3314    -3249    -3231    -3299    -3246 
   -2953    -2818    -3198    -3844    -4275    -4257    -3875    -3403 
   -3052    -2893    -3018    -3380    -3580    -3433    -3388    -3757 
   -4082    -3883    -3373    -3042    -3059    -3206    -3231    -3111 
   -3030    -3146    -3354    -3443    -3424    -3534    -3917    -4337 
   -4399    -4091    -3603    -2930    -2293    -2270    -2855    -3304 
   -3281    -3132    -3164    -3381    -3650    -3757    -3650    -3584 
   -3715    -3858    -3805    -3569    -3310    -3217    -3375    -3618 
   -3707    -3596    -3329    -2982    -2798    -2913    -3111    -3172 
   -3177    -3308    -3499    -3595    -3673    -3797    -3843    -3804 
   -3762    -3681    -3500    -3233    -2995    -2945    -3177    -3565 
   -3705    -3322    -2748    -2520    -2771    -3429    -4274    -4781 
   -4683    -4253    -3742    -3132    -2504    -2196    -2373    -2727 
   -2983    -3203    -3414    -3600    -3798    -3878    -3693    -3370 
   -3229    -3410    -3735    -4086    -4391    -4314    -3711    -3088 
   -2938    -3073    -3110    -3003    -2924    -3041    -3311    -3453 
   -3349    -3221    -3258    -3404    -3572    -3740    -3805    -3754 
   -3699    -3699    -3809    -3897    -3532    -2718    -2257    -2600 
   -3252    -3728    -3970    -3952    -3697    -3383    -3133    -2964 
   -2936    -3030    -3079    -3132    -3429    -3836    -4014    -3950 
   -3751    -3453    -3233    -3252    -3476    -3751    -3824    -3584 
   -3237    -2997    -2951    -3094    -3358    -3646    -3701    -3388 
   -3073    -3003    -2940    -2845    -3083    -3747    -4347    -4321 
   -3785    -3453    -3653    -4012    -4044    -3649    -3254    -3125 
   -2871    -2425    -2308    -2579    -2882    -3075    -3136    -3179 
   -3516    -4099    -4326    -3956    -3635    -3859    -4205    -4089 
   -3580    -3156    -3057    -3055    -2880    -2744    -2951    -3365 
   -3690    -3811    -3734    -3582    -3477    -3372    -3258    -3406 
   -3894    -4222    -3991    -3430    -2891    -2513    -2366    -2474 
   -2781    -3175    -3410    -3267    -2997    -3138    -3734    -4251 
   -4428    -4413    -4214    -3823    -3516    -3451    -3458    -3454 
   -3438    -3196    -2774    -2632    -2822    -2948    -2972    -3175 
   -3564    -3892    -4028    -4006    -3896    -3758    -3609    -3420 
   -3241    -3132    -3037    -2836    -2566    -2488    -2781    -3304 
   -3684    -3713    -3728    -4203    -4924    -5147    -4623    -3869 
   -3318    -2994    -2937    -3145    -3241    -2911    -2344    -1892 
   -1709    -1929    -2670    -3604    -4189    -4398    -4417    -4174 
   -3789    -3524    -3306    -3038    -2875    -2960    -3299    -3773 
   -4209    -4490    -4556    -4468    -4275    -3933    -3553    -3204 
   -2663    -1908    -1301     -973     -656     -153      265       62 
   -1051    -2907    -5104    -7203    -8943   -10300   -11067   -10917 
   -9936    -8391    -6382    -3967    -1196     1687     4186     5838 
    6211     5292     3759     1687    -1671    -5856    -9265   -11246 
  -12116   -11982   -10889    -9248    -7402    -5444    -3530    -1561 
     598     2455     3685     4587     5155     5053     3877     1179 
   -2736    -6686    -9747   -11627   -12151   -11360    -9902    -8436 
   -7029    -5526    -3778    -1641      487     1877     2540     3029 
    3454     3523     2835      915    -2384    -6349    -9555   -11144 
  -11591   -11480   -10584    -8680    -6019    -3060     -271     2065 
    3527     3353     1355    -1517    -4112    -5954    -7026    -7169 
   -6018    -3726    -1317      256      643     -186    -1818    -3561 
   -4777    -5013    -4467    -3824    -3523    -3765    -4577    -5512 
   -6127    -6600    -6986    -6681    -5347    -3667    -2497    -1823 
   -1175     -487      -13       98      -48     -229     -411     -858 
   -1826    -3099    -4286    -5545    -7161    -8777    -9721    -9614 
   -8414    -6362    -3850    -1281      858     2006     1950     1167 
     152    -1143    -2755    -4282    -5104    -4981    -4498    -4394 
   -4747    -5128    -5198    -5076    -4895    -4352    -3330    -2258 
   -1583    -1491    -1857    -2411    -3121    -3946    -4596    -4934 
   -4926    -4519    -3950    -3416    -2741    -1836     -932     -330 
    -182     -492    -1355    -2867    -4773    -6608    -7969    -8538 
   -8112    -6747    -4988    -3528    -2540    -1821    -1278    -1042 
   -1317    -2070    -2870    -3153    -2733    -2029    -1579    -1615 
   -2200    -3211    -4249    -4982    -5471    -5877    -5979    -5406 
   -4328    -3314    -2754    -2782    -3190    -3430    -3198    -2705 
   -2281    -2076    -2062    -2096    -2106    -2245    -2710    -3377 
   -3839    -3966    -3964    -3924    -3842    -3728    -3690    -4072 
   -4927    -5622    -5593    -4969    -4141    -3262    -2417    -1719 
   -1263    -1317    -2020    -2924    -3518    -3827    -4028    -3912 
   -3350    -2836    -2789    -2922    -2945    -3046    -3402    -3970 
   -4518    -4661    -4353    -4009    -3955    -4163    -4413    -4519 
   -4436    -4101    -3415    -2428    -1436     -893    -1105    -1876 
   -2682    -3150    -3357    -3705    -4286    -4673    -4660    -4542 
   -4550    -4550    -4267    -3750    -3383    -3242    -2967    -2481 
   -2242    -2555    -3099    -3411    -3450    -3429    -3423    -3438 
   -3451    -3422    -3547    -4001    -4379    -4129    -3314    -2442 
   -1813    -1456    -1418    -1698    -2176    -2843    -3738    -4679 
   -5339    -5549    -5383    -4989    -4402    -3636    -2845    -2218 
   -1861    -1871    -2285    -2909    -3404    -3543    -3373    -3206 
   -3265    -3435    -3472    -3384    -3474    -3978    -4746    -5319 
   -5424    -5213    -4847    -4172    -3114    -2056    -1453    -1339 
   -1586    -2155    -2859    -3470    -4006    -4440    -4557    -4294 
   -3796    -3215    -2809    -2872    -3352    -3847    -4050    -3977 
   -3736    -3362    -2901    -2465    -2188    -2208    -2574    -3078 
   -3466    -3732    -3966    -4283    -4706    -4855    -4436    -3781 
   -3352    -3210    -3207    -3187    -3069    -2866    -2646    -2551 
   -2633    -2752    -2836    -2971    -3215    -3581    -4054    -4565 
   -4966    -5020    -4669    -4095    -3416    -2728    -2353    -2393 
   -2540    -2664    -2875    -3190    -3616    -4010    -4064    -3711 
   -3183    -2748    -2544    -2563    -2798    -3246    -3798    -4352 
   -4807    -5030    -4985    -4718    -4278    -3743    -3211    -2724 
   -2223    -1702    -1378    -1514    -2089    -2768    -3221    -3381 
   -3354    -3314    -3451    -3782    -4222    -4735    -5144    -5182 
   -4926    -4695    -4428    -3798    -2878    -2138    -1823    -1718 
   -1560    -1359    -1370    -1802    -2521    -3215    -3773    -4371 
   -5098    -5661    -5810    -5657    -5333    -4823    -4129    -3369 
   -2705    -2216    -1953    -2000    -2304    -2614    -2793    -2889 
   -2944    -3010    -3172    -3473    -3877    -4191    -4340    -4500 
   -4626    -4479    -4075    -3520    -2910    -2519    -2524    -2744 
   -2952    -3176    -3539    -3939    -4133    -4058    -3829    -3510 
   -3033    -2430    -2006    -2085    -2623    -3307    -3917    -4344 
   -4533    -4549    -4463    -4197    -3649    -2951    -2454    -2273 
   -2292    -2498    -2871    -3271    -3581    -3762    -3827    -3781 
   -3634    -3441    -3217    -3036    -3006    -2984    -2798    -2658 
   -2814    -3190    -3612    -4056    -4521    -4899    -5077    -5001 
   -4617    -4027    -3553    -3307    -3084    -2798    -2532    -2312 
   -2168    -2170    -2313    -2532    -2844    -3289    -3704    -3906 
   -4025    -4193    -4305    -4306    -4255    -4116    -3897    -3700 
   -3474    -3084    -2633    -2400    -2448    -2714    -3204    -3704 
   -3865    -3690    -3402    -3099    -2951    -3121    -3454    -3771 
   -4129    -4491    -4664    -4548    -4164    -3639    -3156    -2802 
   -2524    -2172    -1694    -1379    -1582    -2200    -2824    -3271 
   -3643    -4028    -4388    -4588    -4575    -4496    -4509    -4549 
   -4457    -4271    -4156    -4048    -3739    -3202    -2637    -2304 
   -2276    -2384    -2486    -2673    -2999    -3304    -3470    -3537 
   -3578    -3640    -3680    -3613    -3457    -3387    -3504    -3601 
   -3488    -3315    -3280    -3397    -3627    -3877    -4029    -4025 
   -3836    -3512    -3217    -3056    -2940    -2778    -2724    -2938 
   -3258    -3395    -3271    -3034    -2882    -2894    -3046    -3354 
   -3850    -4338    -4472    -4172    -3740    -3553    -3650    -3670 
   -3418    -3208    -3300    -3510    -3511    -3184    -2741    -2505 
   -2542    -2700    -2871    -3073    -3406    -3807    -4116    -4367 
   -4619    -4797    -4795    -4488    -3896    -3213    -2627    -2254 
