Origin Time       2025/03/28 03:50:00
Lat.              35.403
Long.             140.360
Depth. (km)       54
Mag.              4.4
Station Code      TKY008
Station Lat.      34.7851
Station Long.     139.3909
Station Height(m) 65
Record Time       2025/03/28 03:51:11
Sampling Freq(Hz) 100Hz
Duration Time(s)  60
Dir.              U-D
Scale Factor      7845(gal)/8223790
Max. Acc. (gal)   1.448
Last Correction   2025/03/28 03:51:10
Memo.             
[...]
   12143    11812    11635    11631    11776    12073    12413    12572 
   12684    13043    13369    13209    12818    12667    12776    12972 
   13015    12742    12428    12414    12598    12703    12619    12318 
   11925    11759    11850    11950    12210    12846    13454    13616 
   13423    13196    13165    13192    13065    12843    12522    12078 
   11657    11379    11326    11524    11831    12124    12526    13055 
   13336    13205    13016    12978    13024    13194    13339    13122 
   12699    12469    12507    12692    12764    12521    12104    11846 
   11936    12140    12175    12297    12711    13028    12953    12627 
   12252    12131    12537    13262    13616    13109    12343    12345 
   12942    13123    12710    12302    12085    11774    11430    11369 
   11691    12382    13232    13707    13606    13312    13144    13159 
   13286    13143    12610    12174    11929    11684    11767    12321 
   12768    12708    12533    12780    13166    13054    12680    12698 
   12835    12487    11929    11708    11831    12162    12658    13092 
   13217    13107    12954    12888    12910    12792    12495    12295 
   12206    12086    12069    12231    12279    12212    12567    13119 
   12947    12320    12320    13004    13460    13180    12576    12166 
   12032    12305    13008    13545    13333    12587    12001    12017 
   12348    12476    12451    12467    12399    12325    12555    12901 
   12945    12861    12879    12811    12799    13092    13244    12683 
   11689    11119    11334    11896    12280    12372    12451    12814 
   13244    13421    13525    13689    13560    12870    12012    11747 
   12156    12583    12588    12183    11823    12075    12638    12807 
   12714    12950    13460    13541    12920    12131    11674    11618 
   11907    12514    13207    13489    13266    13085    13090    12799 
   12271    12035    11990    11819    11784    12073    12340    12406 
   12507    12781    13123    13363    13370    13132    12853    12860 
   13128    13103    12490    11731    11402    11659    12135    12372 
   12503    12841    13078    12825    12478    12544    12791    12942 
   13117    13146    12741    12218    12060    12279    12582    12714 
   12652    12559    12511    12447    12402    12403    12295    12191 
   12430    12872    13132    13188    13126    12976    12831    12799 
   12804    12557    12029    11678    11885    12457    12771    12518 
   12178    12266    12675    13043    13090    12870    12816    12950 
   12783    12382    12294    12496    12515    12302    12190    12243 
   12364    12642    12968    12996    12791    12695    12791    12887 
   12753    12424    12174    12186    12445    12718    12793    12714 
   12519    12359    12506    12814    12930    12892    12876    12734 
   12344    12060    12182    12465    12571    12515    12568    12737 
   12704    12436    12307    12487    12776    12942    12833    12506 
   12280    12410    12843    13224    13252    13032    12691    12170 
   11707    11709    12177    12653    12680    12348    12307    12780 
   13135    13045    12918    12954    12920    12723    12509    12413 
   12428    12440    12268    11963    11920    12301    12726    12883 
   12884    12931    12999    12953    12746    12434    12191    12218 
   12488    12822    13001    12710    12051    11788    12279    12973 
   13258    13030    12629    12505    12698    12852    12696    12352 
   12101    12036    12158    12465    12819    12991    12885    12718 
   12707    12721    12634    12521    12523    12769    12989    12712 
   12213    12220    12595    12671    12518    12534    12634    12677 
   12685    12482    12040    11851    12232    12757    12991    13081 
   13193    13176    13018    12868    12638    12213    11805    11722 
   12071    12588    12803    12692    12688    12949    13134    12958 
   12569    12191    11981    12144    12549    12780    12730    12573 
   12563    12808    13104    13193    13001    12658    12391    12247 
   12166    12185    12251    12297    12351    12394    12472    12677 
   12928    13031    12850    12576    12633    12965    13092    12899 
   12571    12263    12159    12378    12764    12920    12590    12075 
   11911    12164    12474    12542    12441    12490    12796    13054 
   13059    12987    12947    12842    12642    12491    12451    12455 
   12552    12665    12474    12123    12070    12233    12303    12366 
   12582    12883    13136    13286    13243    12992    12756    12598 
   12329    12029    12001    12237    12444    12475    12588    12947 
   13213    13108    12722    12306    12274    12692    12937    12626 
   12151    11973    12132    12397    12580    12675    12825    13085 
   13185    12931    12642    12603    12660    12598    12337    11982 
   11804    11923    12240    12559    12733    12910    13207    13301 
   12982    12633    12642    12843    12850    12573    12278    12220 
   12324    12372    12399    12538    12698    12703    12526    12344 
   12411    12664    12756    12680    12712    12864    13027    13077 
   12814    12343    12025    11990    12096    12199    12299    12448 
   12690    12968    13035    12822    12688    12912    13150    12965 
   12594    12463    12472    12378    12228    12131    12127    12313 
   12587    12649    12542    12596    12839    13014    12964    12752 
   12557    12502    12503    12449    12393    12432    12556    12642 
   12586    12457    12429    12604    12910    13046    12901    12704 
   12556    12455    12424    12379    12329    12359    12472    12683 
   12841    12757    12636    12723    12866    12870    12754    12572 
   12395    12268    12193    12283    12548    12766    12808    12742 
   12727    12808    12818    12625    12325    12121    12125    12258 
   12409    12592    12769    12800    12702    12648    12637    12573 
   12525    12506    12428    12320    12305    12507    12883    13143 
   13173    13105    13003    12889    12749    12436    11963    11701 
   11888    12293    12603    12748    12831    12969    13111    13085 
   12907    12722    12565    12418    12252    12104    12060    12123 
   12313    12646    12918    12946    12831    12749    12739    12711 
   12587    12468    12398    12264    12204    12410    12750    13020 
   13127    12938    12483    12168    12287    12536    12496    12237 
   12189    12542    12985    13163    13108    12984    12712    12291 
   12069    12182    12372    12437    12387    12395    12654    13088 
   13355    13292    13081    12931    12827    12569    12063    11566 
   11496    11939    12463    12712    12826    12933    12951    12896 
   12919    13066    13176    13089    12791    12347    11942    11840 
   12086    12413    12542    12472    12429    12528    12617    12606 
   12615    12744    12830    12711    12602    12613    12503    12372 
   12587    13003    13153    12953    12630    12293    12008    11925 
   12148    12542    12738    12649    12599    12754    12953    12991 
   12816    12667    12711    12741    12623    12488    12366    12275 
   12413    12719    12727    12303    12012    12233    12644    12920 
   13134    13275    13120    12721    12475    12441    12329    12127 
   11990    12035    12309    12580    12676    12771    12924    13012 
   12995    12834    12515    12177    12012    12152    12564    12945 
   13038    12949    12850    12787    12758    12719    12599    12386 
   12205    12194    12279    12329    12336    12442    12804    13176 
   13139    12757    12455    12448    12634    12752    12634    12387 
   12244    12289    12405    12475    12510    12542    12606    12679 
   12654    12609    12725    12860    12815    12680    12599    12590 
   12615    12653    12645    12526    12422    12465    12542    12586 
   12660    12679    12583    12565    12722    12823    12721    12540 
   12351    12212    12325    12630    12799    12779    12711    12611 
   12498    12478    12517    12486    12444    12495    12542    12557 
   12721    13030    13215    13126    12910    12711    12464    12137 
   11880    11813    11932    12170    12474    12807    13068    13161 
   13174    13128    12839    12430    12287    12379    12374    12218 
   12096    12175    12449    12733    12885    12879    12802    12814 
   12881    12837    12692    12611    12653    12699    12646    12549 
   12449    12370    12372    12376    12305    12294    12403    12505 
   12567    12667    12834    13005    13070    13015    12908    12748 
   12498    12213    12055    12105    12285    12503    12576    12449 
   12441    12625    12734    12792    12883    12926    12953    12912 
   12664    12374    12344    12560    12696    12522    12247    12259 
   12544    12703    12619    12532    12513    12542    12694    12799 
   12641    12414    12384    12486    12519    12510    12621    12829 
   12915    12754    12538    12519    12552    12432    12341    12414 
   12567    12735    12811    12699    12553    12617    12854    12960 
   12762    12480    12430    12568    12564    12301    12113    12291 
   12631    12798    12688    12484    12518    12872    13126    12891 
   12448    12294    12463    12723    12876    12864    12715    12437 
   12191    12168    12198    12129    12147    12309    12569    12955 
   13185    13007    12717    12671    12862    12984    12771    12418 
   12326    12541    12695    12483    12120    12039    12326    12699 
   12819    12618    12405    12514    12872    13111    13045    12833 
   12714    12696    12600    12395    12221    12139    12181    12357 
   12549    12681    12775    12877    13045    13161    13058    12791 
   12460    12118    11907    11969    12259    12567    12749    12923 
   13103    12984    12542    12168    12096    12295    12572    12695 
   12640    12546    12571    12725    12883    12881    12648    12437 
   12461    12495    12488    12654    12880    12953    12877    12730 
   12573    12430    12388    12503    12514    12344    12378    12528 
   12334    12075    12259    12664    12854    12826    12854    13041 
   13142    12949    12638    12513    12533    12455    12313    12268 
   12371    12579    12671    12482    12249    12307    12622    12904 
   12928    12744    12626    12653    12583    12397    12351    12425 
   12359    12182    12171    12334    12491    12695    13018    13181 
   12938    12583    12590    12885    13018    12908    12758    12580 
   12438    12495    12644    12661    12513    12410    12521    12615 
   12511    12488    12663    12739    12564    12314    12267    12351 
   12275    12225    12519    12973    13312    13428    13220    12785 
   12463    12421    12463    12397    12229    11996    11813    11865 
   12201    12735    13192    13223    12901    12668    12695    12700 
   12509    12453    12717    12946    12901    12664    12399    12325 
   12471    12618    12602    12403    12178    12171    12413    12680 
   12795    12761    12672    12588    12494    12418    12472    12652 
   12879    13036    12854    12295    11875    11994    12469    12989 
   13359    13377    13022    12690    12818    13097    12802    12060 
   11705    11919    12194    12268    12274    12359    12604    13028 
   13431    13435    13065    12761    12580    12264    11952    12012 
   12347    12564    12688    12933    13109    13051    12927    12726 
   12243    11681    11568    12044    12575    12684    12641    12765 
   12827    12703    12667    12773    12784    12644    12505    12495 
   12572    12636    12745    12845    12744    12567    12563    12636 
   12556    12368    12321    12482    12675    12675    12387    12117 
   12295    12729    12927    12899    12830    12657    12440    12469 
   12722    12799    12611    12405    12241    12174    12282    12384 
   12453    12752    13177    13325    13157    12950    12852    12876 
   12988    12915    12321    11580    11511    12025    12363    12390 
   12357    12428    12823    13464    13780    13306    12302    11524 
   11433    11951    12664    13030    12950    12912    13193    13493 
   13489    13057    12271    11545    11361    11738    12189    12440 
   12669    12945    13163    13193    12846    12224    11770    11750 
   12070    12583    13103    13294    13126    13054    13198    13144 
   12968    13136    13378    12991    12033    11218    11084    11697 
   12650    13205    12910    12221    12006    12345    12644    12706 
   12837    13182    13473    13321    12764    12266    12039    11901 
   11832    11988    12241    12325    12317    12511    12916    13230 
   13212    12938    12746    12744    12727    12661    12725    13055 
   13439    13294    12503    11734    11601    11966    12129    11839 
   11755    12386    13246    13636    13463    12974    12468    12243 
   12302    12378    12343    12415    12806    13171    13096    12889 
   12987    13053    12644    12143    12182    12646    12887    12706 
   12474    12320    12093    11967    12191    12474    12364    11994 
   11839    12071    12541    13061    13547    13829    13617    13032 
   12664    12714    12779    12653    12483    12259    11952    11767 
   11823    11924    11888    11979    12484    13095    13416    13454 
   13285    13003    12969    13375    13698    13319    12317    11384 
   11071    11199    11403    11831    12679    13537    13864    13805 
   13732    13397    12688    12194    12140    12043    11661    11439 
   11749    12229    12510    12779    13146    13354    13289    13173 
   13151    12996    12622    12370    12332    12237    12051    11959 
   12083    12351    12438    12348    12534    12997    13251    13201 
   13051    12811    12483    12341    12519    12708    12584    12162 
   11665    11433    11805    12742    13601    13749    13360    12995 
   12781    12595    12452    12357    12290    12313    12390    12437 
   12552    12664    12501    12187    12113    12378    12787    13043 
   12972    12737    12677    12943    13265    13178    12633    12059 
   11859    12152    12677    12947    12749    12322    12118    12380 
   12865    13126    13070    12958    12942    12918    12741    12411 
   12074    11804    11596    11592    11978    12606    13014    12912 
   12480    12163    12267    12669    13004    13095    13032    12985 
   12995    12892    12645    12529    12654    12768    12694    12519 
   12372    12414    12695    12843    12599    12325    12330    12414 
   12417    12463    12586    12668    12685    12721    12849    13000 
   12955    12587    12077    11911    12302    12802    12969    12839 
   12630    12575    12723    12918    13084    13136    12839    12172 
   11577    11496    11836    12240    12582    12864    13001    12957 
   12761    12507    12397    12449    12455    12367    12360    12533 
   12733    12727    12582    12598    12864    13120    13066    12726 
   12442    12402    12480    12623    12912    13293    13545    13386 
   12776    12128    11812    11677    11519    11601    12040    12405 
   12517    12656    12899    13077    13096    13097    13224    13232 
   12906    12540    12444    12523    12537    12410    12336    12479 
   12699    12780    12623    12295    12067    12141    12415    12606 
   12511    12282    12290    12548    12702    12679    12741    12873 
   12799    12519    12380    12529    12681    12712    12830    12976 
   12920    12788    12756    12683    12472    12298    12275    12422 
   12723    13011    13076    12845    12556    12530    12630    12501 
   12164    11946    12086    12506    12820    12706    12247    11857 
   11824    12060    12353    12667    12993    13220    13297    13254 
   13131    13004    12901    12834    12833    12752    12370    11902 
   11797    12070    12434    12698    12791    12748    12637    12474 
   12321    12293    12455    12802    13089    13027    12765    12613 
   12560    12528    12548    12565    12519    12503    12542    12548 
   12587    12727    12744    12494    12245    12262    12514    12830 
   13015    13019    12939    12802    12626    12519    12479    12413 
   12332    12275    12239    12262    12417    12640    12745    12671 
   12606    12727    12833    12649    12276    12024    12052    12357 
   12796    13063    12969    12779    12815    12916    12750    12417 
   12270    12347    12456    12555    12641    12706    12819    12949 
   12968    12829    12584    12401    12405    12463    12391    12260 
   12233    12332    12421    12430    12480    12602    12641    12565 
   12491    12475    12490    12494    12523    12703    13036    13286 
   13246    12969    12703    12650    12706    12568    12237    12106 
   12371    12704    12744    12611    12629    12752    12715    12522 
   12371    12356    12433    12536    12609    12586    12468    12398 
   12486    12676    12854    12950    12933    12808    12626    12461 
   12397    12398    12398    12498    12712    12787    12592    12347 
   12225    12167    12195    12397    12685    12928    12926    12619 
   12357    12426    12663    12831    12918    12943    12866    12764 
   12725    12680    12565    12440    12399    12445    12488    12572 
   12764    12846    12630    12347    12291    12417    12513    12486 
   12410    12370    12344    12368    12563    12793    12783    12636 
   12617    12610    12522    12629    12999    13290    13207    12762 
   12256    12029    12162    12445    12613    12636    12664    12723 
   12695    12507    12291    12285    12486    12690    12729    12564 
   12390    12372    12387    12407    12549    12737    12864    12965 
   13080    13099    12869    12510    12312    12394    12590    12590 
   12357    12150    12075    12133    12407    12820    13088    13113 
   13000    12826    12646    12522    12479    12467    12411    12305 
   12221    12291    12550    12837    12946    12831    12663    12617 
   12648    12663    12687    12707    12663    12592    12553    12503 
   12387    12249    12210    12339    12509    12602    12717    12870 
   12904    12812    12722    12650    12537    12456    12526    12627 
   12606    12599    12721    12781    12652    12494    12456    12498 
   12552    12580    12568    12604    12739    12819    12749    12627 
   12522    12433    12333    12198    12075    12097    12376    12803 
   13065    13066    12968    12822    12568    12268    12037    11927 
   11993    12302    12750    13077    13193    13173    13011    12735 
   12491    12403    12498    12684    12802    12769    12690    12715 
   12807    12820    12708    12533    12379    12302    12298    12322 
   12384    12545    12717    12718    12588    12542    12600    12560 
   12376    12291    12461    12734    12862    12779    12596    12413 
   12294    12289    12384    12548    12744    12912    12984    12947 
   12861    12764    12679    12611    12525    12434    12402    12441 
   12494    12398    12102    11848    11865    12098    12405    12687 
   12892    13054    13189    13235    13213    13252    13312    13167 
   12727    12189    11835    11758    11840    11979    12185    12463 
