Origin Time       2025/03/28 03:50:00
Lat.              35.403
Long.             140.360
Depth. (km)       54
Mag.              4.4
Station Code      TKY018
Station Lat.      35.6553
Station Long.     139.8114
Station Height(m) 6
Record Time       2025/03/28 03:51:01
Sampling Freq(Hz) 100Hz
Duration Time(s)  60
Dir.              E-W
Scale Factor      7845(gal)/8223790
Max. Acc. (gal)   2.083
Last Correction   2025/03/28 03:51:00
Memo.             
[...]
  -53442   -53592   -53553   -53508   -53613   -53568   -53461   -53478 
  -53384   -53423   -53658   -53688   -53580   -53391   -53271   -53496 
  -53671   -53565   -53496   -53505   -53482   -53434   -53458   -53523 
  -53516   -53538   -53526   -53380   -53304   -53443   -53611   -53561 
  -53451   -53454   -53423   -53412   -53489   -53553   -53689   -53782 
  -53617   -53434   -53362   -53376   -53538   -53704   -53658   -53415 
  -53273   -53420   -53667   -53746   -53563   -53304   -53250   -53412 
  -53589   -53653   -53640   -53562   -53370   -53356   -53608   -53678 
  -53535   -53489   -53550   -53509   -53354   -53385   -53535   -53554 
  -53527   -53477   -53460   -53515   -53550   -53635   -53607   -53369 
  -53368   -53593   -53666   -53565   -53354   -53319   -53518   -53558 
  -53497   -53515   -53496   -53457   -53460   -53497   -53557   -53616 
  -53628   -53492   -53352   -53412   -53557   -53654   -53619   -53542 
  -53581   -53514   -53345   -53388   -53518   -53514   -53464   -53431 
  -53415   -53465   -53545   -53538   -53465   -53449   -53531   -53615 
  -53580   -53497   -53515   -53623   -53642   -53514   -53503   -53626 
  -53617   -53477   -53326   -53271   -53419   -53638   -53677   -53482 
  -53262   -53302   -53528   -53615   -53551   -53526   -53523   -53576 
  -53586   -53380   -53318   -53584   -53751   -53667   -53511   -53345 
  -53295   -53445   -53528   -53485   -53480   -53482   -53520   -53573 
  -53545   -53462   -53411   -53466   -53550   -53515   -53414   -53442 
  -53638   -53755   -53632   -53433   -53352   -53376   -53438   -53547 
  -53622   -53539   -53400   -53380   -53443   -53480   -53468   -53495 
  -53580   -53607   -53549   -53468   -53453   -53505   -53512   -53477 
  -53434   -53414   -53468   -53523   -53512   -53470   -53484   -53586 
  -53623   -53514   -53472   -53576   -53636   -53600   -53545   -53497 
  -53491   -53503   -53435   -53354   -53372   -53465   -53593   -53605 
  -53437   -53346   -53433   -53527   -53563   -53562   -53573   -53595 
  -53562   -53478   -53434   -53472   -53530   -53543   -53501   -53466 
  -53499   -53572   -53624   -53607   -53526   -53468   -53454   -53445 
  -53474   -53503   -53460   -53439   -53491   -53541   -53542   -53492 
  -53442   -53468   -53542   -53588   -53566   -53488   -53433   -53439 
  -53469   -53512   -53526   -53489   -53487   -53527   -53523   -53468 
  -53457   -53550   -53638   -53623   -53563   -53481   -53418   -53453 
  -53481   -53446   -53453   -53491   -53512   -53489   -53426   -53445 
  -53542   -53593   -53554   -53453   -53412   -53477   -53542   -53555 
  -53539   -53516   -53501   -53495   -53495   -53500   -53512   -53503 
  -53496   -53524   -53519   -53489   -53519   -53557   -53559   -53538 
  -53500   -53472   -53464   -53495   -53535   -53528   -53496   -53484 
  -53504   -53505   -53482   -53487   -53511   -53549   -53561   -53507 
  -53480   -53472   -53437   -53447   -53509   -53566   -53578   -53532 
  -53468   -53451   -53487   -53518   -53528   -53511   -53495   -53511 
  -53484   -53450   -53493   -53536   -53535   -53526   -53501   -53460 
  -53443   -53488   -53547   -53588   -53620   -53596   -53493   -53422 
  -53423   -53455   -53482   -53462   -53464   -53504   -53504   -53501 
  -53511   -53496   -53504   -53551   -53597   -53577   -53473   -53443 
  -53534   -53588   -53558   -53497   -53469   -53504   -53536   -53520 
  -53485   -53485   -53516   -53515   -53489   -53464   -53445   -53496 
  -53559   -53534   -53449   -53391   -53441   -53551   -53588   -53555 
  -53500   -53460   -53501   -53566   -53554   -53488   -53438   -53447 
  -53512   -53550   -53515   -53469   -53476   -53519   -53522   -53501 
  -53503   -53478   -53460   -53497   -53520   -53488   -53441   -53437 
  -53491   -53532   -53523   -53512   -53536   -53566   -53549   -53493 
  -53466   -53480   -53530   -53572   -53549   -53491   -53435   -53434 
  -53474   -53493   -53519   -53516   -53454   -53446   -53497   -53527 
  -53531   -53528   -53542   -53535   -53503   -53547   -53584   -53522 
  -53460   -53451   -53497   -53543   -53522   -53493   -53482   -53484 
  -53508   -53514   -53492   -53447   -53433   -53487   -53523   -53524 
  -53496   -53460   -53484   -53505   -53519   -53561   -53555   -53514 
  -53480   -53478   -53512   -53514   -53507   -53520   -53518   -53514 
  -53495   -53453   -53464   -53520   -53555   -53542   -53493   -53466 
  -53491   -53535   -53565   -53543   -53484   -53461   -53487   -53528 
  -53550   -53541   -53522   -53470   -53408   -53412   -53446   -53480 
  -53518   -53487   -53422   -53430   -53465   -53462   -53489   -53595 
  -53678   -53669   -53642   -53646   -53588   -53482   -53445   -53458 
  -53503   -53536   -53504   -53484   -53507   -53473   -53353   -53257 
  -53304   -53443   -53584   -53685   -53708   -53713   -53727   -53635 
  -53443   -53289   -53248   -53333   -53470   -53541   -53573   -53590 
  -53519   -53399   -53299   -53266   -53411   -53716   -53924   -53863 
  -53674   -53574   -53615   -53636   -53445   -53198   -53202   -53406 
  -53580   -53642   -53574   -53423   -53333   -53314   -53292   -53316 
  -53392   -53501   -53686   -53844   -53797   -53574   -53366   -53307 
  -53393   -53562   -53682   -53634   -53536   -53550   -53608   -53584 
  -53446   -53275   -53168   -53194   -53403   -53680   -53821   -53805 
  -53731   -53655   -53554   -53400   -53307   -53377   -53515   -53555 
  -53455   -53312   -53231   -53198   -53195   -53268   -53435   -53663 
  -53881   -53973   -53862   -53673   -53605   -53636   -53561   -53364 
  -53257   -53322   -53423   -53422   -53341   -53311   -53365   -53420 
  -53422   -53423   -53547   -53755   -53838   -53747   -53603   -53493 
  -53424   -53304   -53144   -53131   -53334   -53585   -53666   -53551 
  -53445   -53526   -53727   -53833   -53727   -53528   -53458   -53514 
  -53547   -53542   -53482   -53357   -53269   -53298   -53450   -53661 
  -53817   -53851   -53709   -53454   -53285   -53304   -53428   -53538 
  -53551   -53473   -53451   -53570   -53658   -53574   -53469   -53545 
  -53755   -53900   -53892   -53755   -53547   -53369   -53310   -53315 
  -53298   -53298   -53372   -53397   -53342   -53341   -53374   -53311 
  -53226   -53323   -53592   -53762   -53680   -53481   -53338   -53281 
  -53277   -53288   -53347   -53484   -53631   -53771   -53859   -53788 
  -53612   -53542   -53665   -53779   -53724   -53619   -53507   -53373 
  -53343   -53414   -53451   -53449   -53481   -53497   -53441   -53376 
  -53330   -53349   -53519   -53790   -53982   -53896   -53492   -53079 
  -53036   -53271   -53430   -53461   -53484   -53493   -53505   -53617 
  -53701   -53542   -53339   -53331   -53399   -53482   -53582   -53611 
  -53550   -53481   -53478   -53547   -53636   -53705   -53717   -53678 
  -53738   -53896   -53821   -53484   -53184   -53029   -53050   -53171 
  -53222   -53308   -53503   -53632   -53600   -53559   -53650   -53704 
  -53642   -53604   -53590   -53609   -53701   -53747   -53589   -53291 
  -53138   -53214   -53288   -53302   -53381   -53526   -53673   -53765 
  -53682   -53491   -53446   -53541   -53613   -53627   -53516   -53407 
  -53500   -53536   -53345   -53283   -53465   -53647   -53658   -53455 
  -53316   -53419   -53568   -53697   -53690   -53476   -53412   -53527 
  -53508   -53431   -53372   -53303   -53388   -53508   -53424   -53435 
  -53743   -53896   -53649   -53292   -53088   -53157   -53433   -53678 
  -53735   -53662   -53671   -53704   -53607   -53569   -53622   -53658 
  -53707   -53566   -53218   -53060   -53169   -53387   -53666   -53785 
  -53599   -53492   -53669   -53721   -53553   -53520   -53545   -53369 
  -53200   -53229   -53341   -53508   -53632   -53542   -53304   -53204 
  -53441   -53725   -53763   -53721   -53677   -53658   -53755   -53815 
  -53757   -53622   -53376   -53183   -53145   -53126   -53107   -53102 
  -53118   -53271   -53491   -53581   -53539   -53480   -53499   -53604 
  -53784   -54009   -54049   -53877   -53784   -53797   -53669   -53380 
  -53266   -53491   -53694   -53551   -53215   -52930   -52826   -53025 
  -53318   -53331   -53257   -53500   -53835   -53869   -53759   -53798 
  -53897   -53833   -53580   -53280   -53102   -53171   -53374   -53389 
  -53256   -53298   -53473   -53515   -53411   -53333   -53364   -53485 
  -53697   -53956   -54000   -53870   -54018   -54280   -54072   -53569 
  -53354   -53412   -53349   -53181   -53095   -53113   -53269   -53542 
  -53761   -53725   -53530   -53406   -53304   -53210   -53157   -53045 
  -52937   -52996   -53239   -53580   -53808   -53854   -53881   -53858 
  -53811   -53890   -53979   -53882   -53547   -53188   -53145   -53403 
  -53628   -53612   -53445   -53343   -53401   -53609   -53792   -53763 
  -53628   -53518   -53414   -53347   -53362   -53423   -53441   -53415 
  -53399   -53443   -53553   -53577   -53428   -53258   -53237   -53334 
  -53342   -53190   -53082   -53179   -53358   -53404   -53306   -53260 
  -53315   -53343   -53368   -53472   -53658   -53936   -54213   -54240 
  -53941   -53632   -53585   -53661   -53653   -53607   -53623   -53735 
  -53879   -53928   -53867   -53785   -53746   -53738   -53682   -53589 
  -53499   -53383   -53242   -53084   -52987   -53041   -53123   -53134 
  -53199   -53362   -53503   -53559   -53476   -53273   -53215   -53370 
  -53522   -53605   -53665   -53716   -53817   -53905   -53887   -53794 
  -53600   -53349   -53218   -53221   -53331   -53523   -53678   -53746 
  -53734   -53693   -53692   -53697   -53612   -53419   -53210   -53064 
  -53001   -53036   -53165   -53358   -53503   -53485   -53416   -53501 
  -53667   -53665   -53419   -53080   -52911   -53067   -53395   -53653 
  -53727   -53693   -53731   -53855   -53937   -53883   -53738   -53678 
  -53707   -53698   -53667   -53595   -53423   -53271   -53280   -53420 
  -53542   -53528   -53400   -53312   -53377   -53554   -53688   -53649 
  -53508   -53410   -53314   -53160   -53001   -52941   -53037   -53269 
  -53511   -53619   -53655   -53751   -53909   -54055   -54122   -54062 
  -53851   -53588   -53408   -53315   -53262   -53235   -53214   -53249 
  -53415   -53649   -53798   -53794   -53689   -53619   -53600   -53451 
  -53210   -53152   -53291   -53474   -53624   -53617   -53428   -53276 
  -53337   -53515   -53653   -53743   -53815   -53871   -53898   -53813 
  -53642   -53501   -53380   -53299   -53325   -53334   -53277   -53253 
  -53248   -53252   -53318   -53426   -53534   -53611   -53697   -53789 
  -53725   -53461   -53180   -53104   -53275   -53487   -53581   -53582 
  -53558   -53584   -53609   -53555   -53481   -53465   -53516   -53574 
  -53555   -53488   -53430   -53420   -53541   -53681   -53670   -53565 
  -53414   -53226   -53117   -53165   -53392   -53669   -53792   -53766 
  -53740   -53747   -53723   -53639   -53514   -53370   -53306   -53322 
  -53258   -53134   -53121   -53261   -53458   -53580   -53611   -53628 
  -53622   -53595   -53572   -53518   -53482   -53572   -53761   -53921 
  -53936   -53843   -53750   -53678   -53626   -53595   -53545   -53438 
  -53275   -53154   -53199   -53360   -53474   -53457   -53376   -53372 
  -53478   -53638   -53805   -53916   -53905   -53754   -53495   -53212 
  -53001   -52933   -52994   -53072   -53080   -53065   -53158   -53346 
  -53497   -53612   -53759   -53886   -53875   -53723   -53631   -53724 
  -53828   -53806   -53697   -53562   -53518   -53563   -53522   -53433 
  -53464   -53526   -53509   -53449   -53438   -53596   -53802   -53751 
  -53514   -53406   -53384   -53280   -53185   -53144   -53125   -53260 
  -53508   -53596   -53501   -53412   -53437   -53543   -53597   -53568 
  -53601   -53746   -53877   -53885   -53724   -53424   -53136   -53045 
  -53195   -53414   -53523   -53485   -53438   -53495   -53617   -53728 
  -53775   -53743   -53650   -53554   -53511   -53572   -53712   -53800 
  -53770   -53713   -53611   -53470   -53473   -53503   -53458   -53492 
  -53522   -53496   -53516   -53505   -53445   -53412   -53349   -53275 
  -53250   -53258   -53312   -53434   -53589   -53615   -53482   -53399 
  -53365   -53370   -53433   -53441   -53528   -53782   -53978   -53944 
  -53613   -53208   -53104   -53258   -53527   -53854   -53959   -53797 
  -53595   -53426   -53327   -53233   -53038   -52876   -52918   -53137 
  -53377   -53535   -53597   -53534   -53400   -53392   -53541   -53767 
  -53948   -53916   -53746   -53512   -53252   -53082   -53007   -53122 
  -53424   -53589   -53500   -53410   -53434   -53484   -53461   -53343 
  -53204   -53137   -53217   -53353   -53374   -53368   -53472   -53665 
  -53870   -54022   -54114   -54186   -54361   -54649   -54824   -54722 
  -54436   -54171   -53923   -53554   -53168   -52980   -52951   -52888 
  -52774   -52748   -52926   -53237   -53613   -54054   -54445   -54747 
  -54957   -54954   -54722   -54332   -53887   -53581   -53393   -53253 
  -53273   -53426   -53530   -53466   -53291   -53096   -52884   -52749 
  -52671   -52533   -52425   -52358   -52307   -52277   -52145   -51987 
  -51989   -52089   -52212   -52366   -52608   -52990   -53388   -53694 
  -53920   -54056   -54125   -54183   -54298   -54405   -54344   -54122 
  -53751   -53198   -52596   -52166   -51995   -52035   -52311   -52903 
  -53708   -54418   -54865   -55158   -55401   -55556   -55567   -55336 
  -54819   -54183   -53638   -53358   -53392   -53563   -53740   -53862 
  -53858   -53734   -53570   -53420   -53261   -53183   -53393   -53773 
  -53959   -53854   -53410   -52562   -51705   -51320   -51468   -51985 
  -52677   -53407   -54083   -54538   -54673   -54504   -54062   -53528 
  -53212   -53142   -53096   -53056   -53171   -53469   -53812   -54021 
  -54160   -54278   -54338   -54522   -54770   -54818   -54654   -54259 
  -53715   -53117   -52483   -52178   -52294   -52531   -52775   -52941 
  -53111   -53337   -53435   -53566   -53840   -54000   -53971   -53773 
  -53350   -52847   -52583   -52801   -53312   -53757   -54078   -54183 
  -54041   -53928   -53794   -53408   -52936   -52625   -52604   -52794 
  -53021   -53439   -53998   -54264   -54186   -54058   -53968   -53725 
  -53288   -52929   -52875   -53052   -53269   -53620   -54079   -54365 
  -54500   -54550   -54373   -53892   -53207   -52594   -52057   -51547 
  -51426   -51779   -52273   -52797   -53304   -53743   -54129   -54514 
  -54990   -55283   -55069   -54681   -54421   -54178   -54064   -54121 
  -54016   -53539   -52864   -52466   -52571   -52944   -53353   -53662 
  -53871   -53937   -53701   -53362   -53007   -52540   -52253   -52340 
  -52706   -53136   -53491   -53925   -54405   -54704   -54900   -54980 
  -54810   -54388   -53804   -53284   -52957   -52868   -52956   -52975 
  -52925   -52890   -52979   -53362   -53881   -54330   -54500   -54194 
  -53603   -52963   -52567   -52516   -52409   -52463   -52834   -53049 
  -53335   -53808   -54176   -54495   -54693   -54749   -54579   -54114 
  -53551   -52906   -52447   -52358   -52384   -52675   -53040   -53036 
  -53109   -53277   -53222   -53204   -53067   -52670   -52354   -52277 
  -52516   -52822   -53118   -53613   -53936   -54095   -54288   -54252 
  -54179   -54028   -53646   -53504   -53647   -53859   -54094   -54325 
  -54562   -54646   -54691   -54702   -54450   -54195   -53904   -53566 
  -53592   -53549   -53104   -52771   -52683   -52786   -53095   -53320 
  -53366   -53330   -53245   -53154   -52976   -52793   -52779   -52941 
  -53310   -53785   -54243   -54616   -54826   -54974   -55028   -54843 
  -54534   -54207   -53955   -53800   -53582   -53442   -53558   -53620 
  -53450   -53393   -53563   -53626   -53586   -53565   -53334   -52918 
  -52469   -52081   -51904   -51907   -52081   -52435   -52830   -53141 
  -53418   -53766   -54044   -54114   -54095   -54056   -53936   -53781 
  -53586   -53362   -53204   -53045   -52914   -52888   -53068   -53584 
  -54071   -54193   -54059   -53875   -53892   -53952   -53766   -53489 
  -53175   -52922   -52909   -52987   -53183   -53393   -53315   -53090 
  -52922   -52852   -52799   -52797   -52936   -53029   -53144   -53401 
  -53642   -53808   -53896   -53983   -54012   -53819   -53666   -53620 
  -53488   -53435   -53445   -53549   -53820   -53997   -54129   -54135 
  -53959   -53811   -53430   -53087   -53146   -53235   -53446   -53670 
  -53616   -53673   -53775   -53719   -53581   -53333   -53231   -53364 
  -53512   -53609   -53709   -53904   -54031   -54145   -54373   -54450 
  -54486   -54556   -54434   -54265   -54095   -53860   -53574   -53129 
  -52764   -52543   -52284   -52296   -52563   -52860   -53276   -53496 
  -53554   -53723   -53721   -53719   -53812   -53882   -54163   -54259 
  -53951   -53578   -53215   -53055   -52860   -52440   -52326   -52446 
  -52644   -53087   -53469   -53694   -53901   -54021   -53991   -53856 
  -53812   -53842   -53873   -53979   -53948   -53757   -53659   -53514 
  -53256   -53037   -52857   -52888   -53094   -53194   -53214   -53202 
  -53235   -53277   -53257   -53392   -53582   -53738   -54013   -54286 
  -54558   -54746   -54704   -54677   -54595   -54334   -53989   -53535 
  -53149   -52640   -51970   -51733   -51727   -51775   -52074   -52192 
  -52189   -52427   -52866   -53534   -54113   -54464   -54614   -54556 
  -54669   -54488   -53979   -54033   -54020   -53576   -53246   -52880 
  -52720   -52872   -52975   -53138   -53353   -53634   -53909   -53900 
  -53892   -53750   -53287   -53210   -53302   -53002   -52828   -52902 
  -52999   -53335   -53828   -54121   -54160   -54198   -54217   -54130 
  -54330   -54634   -54720   -54841   -54649   -54122   -53666   -53071 
  -52650   -52636   -52706   -52758   -52583   -52407   -52405   -52319 
  -52401   -52612   -52790   -53083   -53281   -53437   -53731   -54008 
  -54209   -54356   -54449   -54365   -54218   -54265   -54257   -54221 
  -54334   -54178   -53806   -53546   -53296   -53088   -52879   -52786 
  -53005   -53171   -53249   -53499   -53835   -54078   -53989   -53747 
  -53738   -53811   -53793   -53630   -53383   -53185   -52829   -52525 
  -52602   -52737   -52944   -53223   -53362   -53534   -53568   -53500 
  -53728   -54021   -54139   -54147   -54103   -54136   -54130   -53986 
  -53897   -53838   -53762   -53639   -53424   -53349   -53303   -53154 
  -53061   -52975   -52822   -52555   -52382   -52380   -52323   -52462 
  -52760   -52909   -53142   -53538   -54013   -54454   -54733   -55019 
  -55070   -54923   -54961   -54742   -54292   -54068   -53913   -53850 
  -53871   -53747   -53500   -53210   -53022   -53005   -52949   -52886 
  -52833   -52721   -52687   -52682   -52722   -52837   -52791   -52650 
  -52648   -52739   -52856   -53122   -53445   -53584   -53515   -53245 
  -52937   -52940   -53300   -53708   -53908   -54105   -54444   -54600 
  -54614   -54697   -54761   -54842   -54820   -54488   -54008   -53613 
  -53472   -53411   -53188   -52937   -52701   -52648   -52861   -52871 
  -52755   -52820   -52843   -52774   -52709   -52660   -52608   -52648 
  -52888   -53110   -53326   -53693   -53993   -54238   -54463   -54562 
  -54714   -54834   -54734   -54600   -54552   -54464   -54180   -53742 
  -53329   -53001   -52841   -52843   -52880   -53044   -53391   -53709 
  -53816   -53852   -53944   -53955   -53908   -53827   -53563   -53210 
  -53056   -53073   -52953   -52799   -52929   -53111   -53146   -53192 
