Origin Time       2025/03/28 03:50:00
Lat.              35.403
Long.             140.360
Depth. (km)       54
Mag.              4.4
Station Code      TKY026
Station Lat.      35.6707
Station Long.     139.8633
Station Height(m) -2
Record Time       2025/03/28 03:51:00
Sampling Freq(Hz) 100Hz
Duration Time(s)  60
Dir.              U-D
Scale Factor      7845(gal)/8223790
Max. Acc. (gal)   1.586
Last Correction   2025/03/28 03:51:00
Memo.             
[...]
   18307    18312    18312    18307    18310    18316    18310    18299 
   18303    18310    18307    18299    18304    18320    18323    18315 
   18315    18318    18314    18312    18315    18315    18308    18300 
   18291    18283    18280    18291    18303    18299    18287    18288 
   18288    18284    18292    18304    18301    18291    18288    18295 
   18301    18299    18300    18304    18296    18292    18303    18312 
   18308    18296    18287    18287    18293    18308    18315    18306 
   18295    18297    18304    18306    18308    18315    18320    18315 
   18308    18311    18315    18310    18300    18296    18297    18303 
   18308    18311    18303    18295    18297    18301    18293    18289 
   18293    18291    18284    18291    18300    18299    18295    18303 
   18308    18300    18299    18310    18310    18296    18292    18301 
   18310    18307    18304    18308    18308    18301    18303    18300 
   18293    18296    18303    18304    18300    18303    18312    18307 
   18291    18295    18310    18311    18310    18311    18311    18308 
   18304    18303    18307    18306    18306    18314    18314    18304 
   18301    18307    18307    18301    18307    18318    18312    18301 
   18300    18306    18301    18301    18315    18319    18307    18296 
   18296    18291    18283    18285    18295    18293    18287    18289 
   18291    18285    18288    18299    18299    18291    18295    18304 
   18306    18304    18307    18311    18310    18306    18300    18292 
   18291    18297    18301    18300    18299    18306    18314    18312 
   18304    18304    18308    18310    18312    18319    18316    18306 
   18301    18306    18304    18296    18300    18310    18300    18288 
   18299    18308    18296    18289    18295    18295    18295    18297 
   18297    18295    18293    18295    18299    18297    18293    18296 
   18301    18297    18288    18293    18304    18300    18293    18301 
   18306    18300    18303    18306    18300    18297    18304    18314 
   18311    18304    18310    18308    18292    18283    18288    18293 
   18293    18293    18301    18304    18304    18310    18312    18299 
   18288    18296    18306    18301    18299    18311    18316    18300 
   18291    18300    18306    18303    18306    18311    18306    18303 
   18312    18316    18306    18308    18322    18323    18307    18297 
   18300    18297    18293    18299    18308    18306    18295    18295 
   18297    18299    18300    18306    18306    18296    18293    18303 
   18303    18297    18303    18306    18304    18301    18299    18295 
   18288    18289    18304    18306    18299    18308    18318    18310 
   18295    18300    18316    18324    18327    18331    18335    18350 
   18385    18423    18431    18400    18361    18358    18408    18500 
   18593    18582    18395    18127    18007    18081    18122    17998 
   17955    18214    18562    18625    18358    18049    17990    18234 
   18553    18651    18463    18157    17890    17749    17798    18072 
   18426    18524    18301    18148    18268    18427    18458    18445 
   18431    18385    18327    18316    18287    18204    18279    18573 
   18746    18619    18411    18306    18265    18192    18106    18142 
   18292    18400    18407    18314    18166    18161    18362    18519 
   18442    18235    18050    17950    18029    18295    18547    18616 
   18543    18362    18129    18071    18261    18457    18497    18397 
   18179    17960    17911    18087    18396    18655    18744    18677 
   18493    18227    17984    17888    17992    18202    18310    18227 
   18146    18256    18434    18474    18399    18310    18218    18162 
   18198    18295    18428    18544    18553    18519    18578    18643 
   18551    18366    18231    18135    18007    17899    17914    18010 
   18079    18185    18445    18733    18773    18515    18262    18223 
   18214    18094    18029    18139    18320    18484    18608    18615 
   18430    18176    18058    18131    18333    18524    18466    18165 
   17996    18183    18578    18878    18836    18493    18145    17959 
   17926    18030    18156    18162    18146    18245    18401    18473 
   18333    18102    18084    18261    18358    18292    18153    18114 
   18270    18439    18472    18495    18538    18489    18380    18247 
   18069    17973    18100    18378    18628    18684    18484    18204 
   18083    18173    18377    18561    18561    18296    17949    17820 
   17972    18262    18519    18571    18351    18053    18038    18401 
   18802    18901    18681    18289    17875    17618    17647    17932 
   18314    18539    18536    18538    18634    18650    18571    18470 
   18257    17991    17867    17914    18064    18226    18323    18395 
   18469    18495    18443    18350    18295    18283    18239    18179 
   18179    18243    18335    18424    18503    18592    18692    18720 
   18598    18409    18254    18077    17919    17938    18102    18322 
   18619    18775    18520    18046    17803    17957    18289    18499 
   18538    18472    18296    18156    18161    18172    18133    18115 
   18095    18103    18237    18427    18507    18480    18461    18484 
   18477    18351    18127    18014    18083    18125    18076    18153 
   18409    18634    18688    18592    18373    18165    18187    18404 
   18511    18303    17917    17718    17921    18334    18624    18681 
   18625    18570    18484    18368    18331    18299    18099    17898 
   17969    18269    18569    18704    18643    18474    18297    18176 
   18112    17992    17770    17710    18004    18474    18913    19165 
   19045    18592    18073    17699    17544    17613    17890    18285 
   18590    18670    18613    18547    18480    18412    18370    18337 
   18284    18242    18245    18234    18126    17965    17922    18171 
   18693    19178    19233    18763    18110    17759    17886    18245 
   18431    18260    17990    18026    18380    18736    18790    18393 
   17745    17293    17298    17732    18330    18805    19102    19218 
   19087    18787    18436    18081    17820    17699    17726    17944 
   18277    18549    18684    18688    18598    18393    18013    17633 
   17560    17807    18181    18523    18723    18742    18617    18476 
   18441    18443    18377    18308    18230    18050    17922    18045 
   18222    18238    18297    18534    18701    18688    18673    18746 
   18738    18447    17994    17625    17412    17485    17956    18557 
   18968    19163    19133    18843    18489    18264    18069    17810 
   17672    17848    18169    18254    18061    17923    18023    18277 
   18553    18675    18527    18270    18183    18326    18569    18750 
   18715    18447    18118    17948    17990    18146    18361    18505 
   18355    18023    17880    18006    18226    18449    18613    18652 
   18611    18570    18480    18306    18131    18036    18038    18114 
   18215    18380    18573    18611    18458    18265    18202    18252 
   18179    18013    18069    18308    18472    18576    18632    18493 
   18187    17891    17697    17667    17891    18314    18654    18669 
   18504    18447    18493    18473    18342    18234    18280    18393 
   18430    18419    18380    18270    18166    18099    18023    18125 
   18520    18894    18944    18689    18284    17944    17853    17991 
   18180    18270    18231    18098    17926    17851    17961    18187 
   18392    18519    18574    18619    18708    18794    18769    18569 
   18237    17950    17910    18153    18484    18635    18522    18252 
   17982    17859    17898    17957    18040    18287    18625    18825 
   18760    18522    18350    18312    18254    18172    18158    18157 
   18077    18004    18090    18283    18378    18337    18333    18477 
   18690    18851    18890    18763    18466    18065    17697    17452 
   17335    17406    17775    18369    18928    19217    19230    19080 
   18773    18337    18000    17906    17945    18003    18084    18191 
   18257    18265    18266    18265    18247    18246    18303    18435 
   18549    18507    18326    18135    18029    18044    18119    18214 
   18388    18628    18787    18692    18324    17967    17865    17969 
   18176    18411    18573    18689    18821    18846    18613    18193 
   17790    17633    17810    18137    18432    18604    18534    18320 
   18260    18412    18581    18607    18481    18304    18181    18162 
   18199    18177    18129    18226    18418    18453    18328    18253 
   18264    18304    18411    18530    18488    18301    18169    18108 
   18003    17915    17995    18179    18264    18168    18000    17961 
   18145    18441    18681    18800    18836    18823    18709    18522 
   18372    18227    18030    17876    17857    17921    17998    18095 
   18222    18303    18303    18310    18333    18268    18138    18127 
   18320    18594    18765    18755    18588    18364    18227    18247 
   18355    18432    18427    18347    18245    18260    18466    18657 
   18604    18397    18196    18006    17882    17936    18122    18284 
   18314    18198    18068    18088    18243    18411    18515    18492 
   18334    18195    18235    18397    18473    18358    18133    17957 
   17977    18235    18558    18692    18571    18316    18090    18021 
   18118    18254    18288    18158    17968    17964    18234    18546 
   18673    18667    18697    18774    18810    18751    18571    18291 
   18033    17884    17814    17825    17940    18090    18193    18264 
   18360    18482    18604    18698    18654    18387    18061    17945 
   18119    18449    18720    18817    18797    18724    18590    18466 
   18381    18235    17994    17724    17504    17513    17861    18333 
   18624    18666    18512    18260    18056    18004    18053    18042 
   17955    18004    18257    18527    18731    18900    19005    19005 
   18856    18563    18261    18083    18037    18006    17892    17799 
   17906    18150    18361    18478    18516    18480    18377    18230 
   18077    17959    17942    18088    18324    18474    18439    18289 
   18141    18081    18150    18264    18382    18547    18685    18658 
   18472    18257    18127    18166    18382    18630    18704    18535 
   18227    17957    17832    17838    17946    18145    18362    18523 
   18612    18621    18585    18561    18473    18242    17998    17938 
   18038    18139    18193    18234    18274    18319    18362    18454 
   18654    18877    18978    18879    18586    18216    17899    17671 
   17606    17799    18185    18630    18991    19071    18823    18458 
   18141    17914    17841    17922    18065    18225    18370    18450 
   18441    18324    18145    18010    17959    18009    18142    18199 
   18076    17894    17820    17874    17955    18052    18287    18693 
   19159    19512    19576    19346    19028    18755    18488    18218 
   17992    17766    17527    17383    17382    17481    17668    17971 
   18389    18814    19095    19182    19078    18786    18403    18080 
   17918    17952    18145    18392    18642    18839    18844    18613 
   18281    17987    17775    17667    17740    18018    18365    18650 
   18816    18766    18469    18085    17740    17524    17624    18041 
   18561    19008    19241    19195    19005    18773    18443    18026 
   17641    17406    17415    17633    17876    17995    17996    18030 
   18235    18554    18769    18762    18665    18628    18619    18549 
   18405    18230    18052    17895    17834    17932    18121    18297 
   18387    18334    18200    18187    18389    18684    18902    18983 
   18918    18733    18476    18168    17832    17532    17362    17454 
   17822    18281    18662    18909    18948    18736    18426    18195 
   18046    17952    17941    18002    18129    18365    18634    18773 
   18738    18574    18350    18144    18021    18050    18226    18412 
   18558    18658    18624    18488    18368    18254    18161    18141 
   18157    18246    18446    18635    18711    18635    18423    18214 
   18080    17934    17768    17664    17655    17718    17849    18090 
   18422    18719    18862    18819    18625    18364    18122    17972 
   17917    17910    17944    18075    18307    18540    18671    18677 
   18608    18566    18624    18696    18631    18509    18493    18511 
   18405    18181    17928    17707    17598    17717    18079    18517 
   18860    19016    18935    18696    18430    18162    17929    17801 
   17778    17840    17965    18067    18112    18168    18260    18369 
   18469    18534    18578    18643    18720    18744    18674    18484 
   18141    17751    17525    17532    17724    18064    18466    18823 
   19045    19056    18886    18678    18539    18522    18621    18733 
   18705    18468    18061    17585    17180    16983    17018    17226 
   17585    18133    18837    19499    19853    19753    19265    18659 
   18158    17809    17672    17797    18056    18300    18449    18442 
   18281    18052    17856    17790    17911    18207    18624    18998 
   19149    19098    18908    18566    18126    17729    17500    17464 
   17621    17980    18438    18783    18924    18920    18798    18559 
   18292    18125    18095    18104    17999    17743    17456    17301 
   17362    17635    18052    18523    18956    19230    19230    18987 
   18689    18509    18517    18732    19056    19336    19496    19464 
   19124    18505    17799    17197    16803    16640    16687    16946 
   17393    17910    18333    18558    18625    18663    18731    18783 
   18810    18856    18910    18894    18802    18661    18439    18172 
   17965    17856    17793    17706    17570    17462    17483    17663 
   17983    18358    18677    18929    19120    19134    18920    18632 
   18422    18287    18177    18069    17973    17936    17972    18085 
   18303    18612    18906    19048    18956    18665    18297    17959 
   17694    17491    17369    17401    17563    17732    17872    17996 
   18085    18172    18301    18419    18476    18574    18813    19110 
   19269    19207    19003    18762    18554    18451    18446    18465 
   18504    18590    18667    18655    18544    18396    18250    18131 
   18094    18158    18281    18405    18439    18288    17969    17629 
   17388    17223    17097    17107    17359    17774    18204    18613 
   18982    19253    19418    19465    19344    19043    18631    18225 
   17914    17737    17740    17911    18115    18219    18202    18122 
   18087    18180    18353    18505    18625    18731    18744    18596 
   18351    18144    18057    18108    18227    18316    18388    18470 
   18516    18499    18459    18427    18388    18330    18256    18139 
   17968    17807    17716    17653    17608    17644    17786    17990 
   18233    18523    18814    19008    19036    18948    18881    18921 
   19067    19264    19342    19152    18729    18206    17717    17423 
   17343    17352    17417    17610    17932    18276    18539    18686 
   18725    18644    18466    18262    18068    17874    17674    17531 
   17521    17617    17768    17999    18268    18528    18854    19225 
   19457    19460    19286    19003    18666    18293    17917    17589 
   17351    17298    17523    17937    18389    18812    19144    19332 
   19365    19238    18960    18589    18192    17797    17420    17122 
   16958    16943    17111    17501    18054    18616    19043    19287 
   19406    19480    19514    19460    19248    18851    18374    17956 
   17605    17288    17093    17145    17431    17824    18184    18423 
   18531    18534    18465    18338    18164    17973    17844    17810 
   17861    18031    18339    18652    18785    18693    18482    18333 
   18373    18546    18701    18786    18850    18925    18967    18910 
   18781    18661    18557    18423    18280    18169    18061    17914 
   17797    17826    18009    18231    18393    18441    18374    18272 
   18187    18085    17911    17697    17564    17593    17760    18033 
   18373    18679    18874    18958    18978    18979    18947    18823 
   18578    18266    18004    17864    17778    17656    17541    17517 
   17591    17764    18041    18331    18495    18503    18415    18272 
   18121    18053    18119    18279    18490    18705    18835    18813 
   18642    18358    18052    17818    17720    17772    17965    18253 
   18554    18786    18924    18972    18925    18790    18609    18408 
   18237    18195    18326    18559    18787    18893    18831    18685 
   18543    18411    18306    18193    17972    17652    17404    17340 
   17427    17612    17879    18206    18523    18769    18925    18998 
   18993    18925    18800    18631    18490    18441    18468    18524 
   18530    18422    18254    18096    17906    17656    17386    17154 
   17059    17182    17444    17726    18046    18468    18910    19221 
   19338    19288    19132    18908    18625    18342    18153    18080 
   18077    18104    18130    18149    18168    18166    18158    18198 
   18285    18391    18499    18585    18627    18617    18569    18503 
   18430    18292    18056    17828    17736    17767    17821    17845 
   17861    17934    18111    18369    18646    18873    18985    18960 
   18810    18569    18330    18154    18031    17991    18067    18222 
   18416    18616    18758    18802    18774    18702    18581    18419 
   18268    18156    18092    18065    18049    18049    18095    18165 
   18200    18196    18184    18177    18165    18149    18139    18152 
   18181    18207    18200    18175    18179    18207    18198    18144 
   18088    18045    18034    18067    18129    18258    18512    18840 
   19120    19302    19400    19380    19191    18852    18459    18122 
   17915    17857    17905    17972    17976    17895    17749    17562 
   17361    17181    17077    17124    17335    17664    18061    18469 
   18840    19159    19395    19500    19457    19296    19094    18916 
   18779    18698    18655    18612    18562    18478    18297    18019 
   17732    17540    17501    17598    17764    17923    18044    18152 
   18249    18296    18269    18160    17983    17817    17752    17805 
   17936    18060    18130    18202    18331    18509    18739    18985 
   19147    19211    19251    19264    19194    19029    18821    18620 
   18453    18342    18289    18264    18247    18268    18330    18376 
   18347    18230    18034    17790    17567    17439    17436    17532 
   17658    17767    17847    17891    17901    17895    17930    18026 
   18153    18297    18457    18630    18812    18975    19074    19070 
   18979    18863    18766    18677    18569    18461    18419    18481 
   18615    18738    18789    18762    18705    18619    18468    18268 
   18063    17868    17721    17647    17624    17636    17687    17770 
   17847    17883    17892    17907    17919    17942    18007    18090 
   18141    18145    18149    18211    18349    18549    18752    18886 
   18932    18936    18936    18928    18882    18771    18590    18382 
   18210    18087    17972    17849    17778    17828    17984    18162 
   18293    18364    18405    18426    18418    18387    18316    18208 
   18121    18102    18193    18380    18561    18705    18864    19013 
