Origin Time       2025/03/28 03:50:00
Lat.              35.403
Long.             140.360
Depth. (km)       54
Mag.              4.4
Station Code      TKY017
Station Lat.      35.6473
Station Long.     139.8092
Station Height(m) 4
Record Time       2025/03/28 03:51:00
Sampling Freq(Hz) 100Hz
Duration Time(s)  60
Dir.              N-S
Scale Factor      7845(gal)/8223790
Max. Acc. (gal)   6.244
Last Correction   2025/03/28 03:51:01
Memo.             
[...]
    1860     1881     1880     1873     1895     1907     1899     1894 
    1899     1903     1900     1900     1892     1885     1895     1888 
    1877     1885     1880     1877     1885     1890     1898     1898 
    1898     1903     1887     1873     1881     1884     1887     1902 
    1919     1911     1899     1910     1903     1884     1892     1903 
    1900     1894     1880     1869     1857     1841     1829     1831 
    1842     1846     1852     1864     1857     1846     1858     1872 
    1876     1885     1900     1910     1904     1899     1904     1906 
    1900     1892     1902     1915     1908     1902     1895     1894 
    1879     1848     1867     1873     1850     1873     1876     1853 
    1845     1819     1822     1846     1841     1854     1880     1869 
    1869     1884     1884     1899     1902     1885     1902     1910 
    1894     1908     1927     1910     1895     1900     1894     1890 
    1888     1857     1840     1846     1848     1863     1869     1863 
    1863     1856     1846     1849     1875     1904     1900     1894 
    1906     1899     1887     1892     1903     1890     1872     1887 
    1899     1892     1885     1871     1865     1872     1864     1865 
    1869     1856     1852     1854     1853     1857     1853     1858 
    1881     1879     1864     1865     1868     1875     1880     1883 
    1898     1900     1898     1906     1907     1903     1903     1900 
    1885     1872     1876     1884     1879     1864     1838     1826 
    1837     1831     1842     1876     1873     1880     1898     1880 
    1884     1903     1904     1925     1937     1925     1910     1895 
    1887     1879     1881     1892     1884     1873     1871     1854 
    1831     1821     1827     1834     1842     1863     1880     1885 
    1884     1888     1898     1915     1926     1925     1937     1929 
    1902     1900     1896     1887     1887     1876     1865     1865 
    1853     1833     1822     1819     1823     1823     1823     1830 
    1833     1831     1834     1848     1869     1881     1888     1899 
    1918     1933     1918     1906     1895     1865     1848     1842 
    1857     1865     1848     1858     1880     1869     1872     1900 
    1907     1898     1890     1884     1875     1853     1846     1869 
    1884     1879     1873     1887     1895     1887     1902     1922 
    1919     1917     1902     1877     1871     1876     1877     1877 
    1884     1891     1891     1883     1873     1880     1898     1899 
    1898     1902     1906     1910     1904     1898     1899     1895 
    1884     1890     1896     1887     1873     1861     1865     1883 
    1888     1888     1904     1902     1876     1869     1876     1884 
    1896     1903     1902     1885     1864     1872     1869     1856 
    1865     1865     1856     1857     1876     1885     1868     1867 
    1873     1875     1877     1885     1903     1899     1884     1876 
    1865     1865     1858     1853     1863     1857     1846     1853 
    1868     1858     1830     1833     1854     1869     1890     1899 
    1900     1906     1895     1887     1880     1856     1854     1872 
    1875     1880     1883     1883     1896     1896     1890     1912 
    1908     1880     1896     1910     1906     1908     1898     1898 
    1892     1880     1899     1919     1914     1903     1899     1899 
    1898     1885     1868     1861     1860     1861     1868     1867 
    1861     1857     1834     1837     1875     1869     1857     1876 
    1869     1864     1877     1869     1880     1894     1879     1891 
    1907     1890     1894     1894     1872     1868     1865     1867 
    1879     1881     1896     1903     1887     1885     1896     1903 
    1900     1898     1881     1842     1834     1848     1848     1845 
    1829     1830     1848     1840     1830     1844     1864     1858 
    1854     1880     1884     1881     1899     1903     1907     1902 
    1883     1892     1896     1881     1888     1898     1877     1848 
    1840     1842     1846     1861     1880     1885     1876     1868 
    1875     1895     1918     1933     1923     1917     1911     1887 
    1890     1895     1884     1898     1900     1879     1869     1867 
    1858     1854     1861     1863     1860     1856     1845     1861 
    1877     1865     1861     1868     1869     1863     1849     1868 
    1890     1881     1896     1915     1904     1895     1898     1906 
    1899     1883     1890     1892     1867     1846     1850     1868 
    1872     1875     1881     1872     1865     1858     1852     1883 
    1895     1877     1892     1900     1899     1900     1888     1892 
    1885     1885     1904     1891     1892     1899     1875     1881 
    1887     1881     1903     1902     1891     1876     1850     1863 
    1872     1863     1867     1880     1884     1869     1861     1861 
    1865     1885     1898     1904     1914     1888     1865     1881 
    1902     1912     1900     1869     1869     1891     1921     1935 
    1891     1850     1852     1869     1929     1972     1960     1929 
    1875     1822     1813     1842     1869     1867     1860     1860 
    1857     1838     1794     1749     1734     1777     1863     1925 
    1949     1923     1853     1844     1887     1900     1898     1883 
    1865     1872     1929     2020     2014     1892     1780     1705 
    1683     1783     1954     2015     1930     1869     1863     1860 
    1876     1904     1938     1944     1946     1987     2002     1961 
    1872     1760     1711     1740     1777     1784     1750     1718 
    1736     1794     1853     1908     1923     1856     1811     1871 
    1981     2107     2160     2088     1983     1915     1934     1992 
    1998     1953     1875     1780     1718     1713     1746     1794 
    1844     1863     1854     1865     1864     1822     1802     1829 
    1880     1952     2020     2012     1907     1822     1818     1846 
    1914     1989     2003     1949     1884     1873     1890     1922 
    1966     1925     1809     1746     1772     1827     1863     1894 
    1941     1938     1879     1857     1867     1841     1821     1849 
    1919     2016     2072     2043     1954     1818     1694     1669 
    1740     1825     1868     1877     1867     1848     1853     1869 
    1850     1830     1854     1891     1922     1956     1992     2031 
    2043     2041     2050     2034     1958     1877     1856     1852 
    1799     1738     1730     1767     1804     1813     1784     1740 
    1715     1680     1628     1620     1668     1745     1838     1934 
    2000     2022     2010     1952     1872     1842     1891     1993 
    2111     2172     2130     2018     1935     1942     1966     1952 
    1930     1892     1833     1819     1871     1930     1952     1926 
    1881     1833     1775     1715     1669     1669     1749     1860 
    1908     1885     1831     1769     1734     1765     1891     2014 
    2011     1948     1904     1912     1961     1954     1926     1898 
    1827     1790     1755     1721     1772     1833     1891     1961 
    2004     2052     2054     1999     2007     2057     2043     2022 
    2037     1998     1902     1834     1802     1773     1733     1714 
    1730     1728     1742     1795     1817     1844     1873     1864 
    1831     1765     1733     1811     1931     2029     2070     2042 
    1983     1888     1755     1679     1706     1779     1860     1921 
    1966     2008     2026     2022     1999     1954     1890     1818 
    1782     1802     1896     2025     2041     1926     1822     1782 
    1748     1717     1760     1898     2000     1950     1821     1738 
    1749     1809     1838     1790     1703     1665     1691     1799 
    1980     2149     2231     2143     1953     1834     1780     1802 
    1937     2050     2050     1985     1875     1722     1580     1560 
    1692     1868     2058     2220     2211     2047     1895     1829 
    1819     1825     1853     1872     1830     1746     1678     1664 
    1728     1810     1837     1821     1810     1821     1856     1918 
    2019     2080     2049     1999     1950     1934     1989     2027 
    2037     2047     2029     2047     2100     2115     2096     2012 
    1879     1757     1649     1584     1563     1530     1537     1638 
    1753     1821     1869     1919     1995     2100     2197     2258 
    2209     2062     1983     1954     1848     1718     1617     1570 
    1588     1644     1687     1636     1560     1556     1568     1634 
    1755     1879     2035     2172     2296     2413     2424     2384 
    2295     2116     1966     1877     1826     1802     1717     1609 
    1547     1480     1433     1448     1525     1683     1888     2047 
    2137     2154     2093     2012     1942     1872     1871     1930 
    1953     1971     2016     2008     1929     1846     1798     1764 
    1696     1618     1651     1776     1831     1800     1742     1692 
    1736     1895     2092     2192     2127     2019     1968     1934 
    1926     1961     2004     2019     1996     1995     2008     1988 
    1946     1895     1876     1941     2053     2158     2151     2041 
    1930     1753     1548     1445     1394     1337     1308     1377 
    1520     1597     1606     1668     1804     1983     2169     2269 
    2257     2207     2111     2025     2050     2095     2058     1968 
    1844     1740     1651     1548     1518     1560     1588     1624 
    1664     1706     1818     1985     2160     2331     2428     2442 
    2420     2324     2176     2076     2033     1964     1865     1852 
    1930     1991     1989     1895     1717     1536     1436     1486 
    1655     1814     1888     1892     1887     1868     1823     1800 
    1817     1902     2057     2211     2299     2259     2115     1944 
    1802     1740     1702     1675     1718     1769     1741     1656 
    1598     1607     1653     1688     1688     1678     1703     1759 
    1867     2025     2146     2189     2157     2057     1989     2006 
    2018     2000     1979     1922     1823     1706     1624     1641 
    1701     1757     1806     1809     1827     1894     1921     1911 
    1891     1875     1895     1921     1935     1952     1957     1962 
    1980     1962     1867     1746     1680     1691     1755     1811 
    1852     1872     1844     1836     1898     1983     2060     2069 
    1988     1880     1813     1849     1939     1980     1981     1962 
    1939     1944     1989     2070     2161     2226     2220     2119 
    1960     1827     1779     1800     1871     1952     1962     1910 
    1844     1733     1613     1563     1583     1624     1653     1746 
    1896     1976     1987     1960     1915     1854     1753     1659 
    1583     1530     1601     1794     1938     1961     2011     2145 
    2263     2313     2257     2099     1917     1784     1742     1761 
    1817     1907     2003     2065     2057     2010     1938     1800 
    1660     1614     1674     1773     1842     1853     1799     1722 
    1686     1684     1682     1696     1767     1863     1941     1973 
    1983     1984     1935     1861     1784     1657     1521     1418 
    1374     1440     1561     1713     1892     2070     2261     2400 
    2446     2446     2394     2293     2149     2027     2019     2081 
    2128     2104     2020     1927     1807     1709     1680     1652 
    1602     1567     1578     1640     1718     1802     1894     1962 
    1953     1867     1775     1723     1692     1674     1721     1817 
    1888     1950     1996     1995     1985     1993     2007     1980 
    1912     1894     1944     2025     2134     2236     2247     2154 
    2076     2060     2022     1907     1759     1653     1593     1587 
    1675     1791     1848     1827     1802     1850     1907     1925 
    1922     1856     1756     1737     1788     1831     1819     1760 
    1722     1755     1817     1879     1945     1996     1975     1868 
    1715     1597     1586     1661     1773     1863     1892     1925 
    1941     1894     1821     1806     1903     2037     2149     2214 
    2197     2116     1993     1863     1746     1633     1555     1566 
    1663     1804     1921     1976     2007     2042     2106     2193 
    2243     2222     2137     2006     1888     1849     1884     1937 
    1948     1910     1811     1629     1436     1367     1439     1578 
    1746     1885     1933     1923     1887     1837     1829     1895 
    1999     2120     2262     2367     2397     2386     2363     2359 
    2363     2307     2199     2057     1884     1725     1594     1524 
    1526     1561     1644     1717     1680     1564     1433     1351 
    1370     1447     1529     1580     1583     1593     1680     1819 
    1937     2015     2012     1935     1887     1856     1796     1714 
    1588     1449     1329     1269     1333     1459     1591     1746 
    1885     1998     2100     2191     2289     2424     2614     2844 
    3076     3222     3213     3099     2944     2766     2569     2299 
    1972     1648     1305     1021      888      854      920     1185 
    1633     2160     2683     3118     3433     3622     3655     3554 
    3287     2841     2300     1652      846     -105    -1142    -2077 
   -2791    -3260    -3449    -3396    -3092    -2415    -1254      353 
    2204     4099     5869     7302     8171     8424     8179     7557 
    6756     5944     5117     4280     3345     2104      579     -986 
   -2326    -3140    -3242    -2735    -1931    -1044       20     1310 
    2577     3678     4695     5508     5892     5872     5513     4730 
    3519     2108      795     -286     -981    -1155     -985     -660 
    -247      105      409      799     1237     1641     2014     2382 
    2689     2824     2789     2666     2492     2347     2384     2700 
    3264     3913     4440     4719     4708     4359     3727     2968 
    2212     1584     1202     1008      776      398      -16     -373 
    -681     -966    -1200    -1354    -1455    -1440    -1193     -735 
     -86      750     1771     2963     4099     4904     5300     5316 
    5017     4413     3584     2756     2027     1462     1169     1080 
    1057     1065     1152     1355     1633     1907     2151     2411 
    2706     3038     3414     3700     3774     3773     3739     3562 
    3217     2733     2250     1818     1360      892      333     -315 
    -846    -1171    -1225     -950     -426      248      896     1314 
    1490     1630     1935     2443     3086     3653     3962     3973 
    3669     3156     2573     1971     1449     1112     1012     1143 
    1387     1696     2062     2355     2532     2683     2856     3075 
    3284     3319     3098     2667     2081     1433      861      490 
     398      611     1066     1615     2089     2396     2496     2315 
    1879     1329      777      342      130      157      326      486 
     660      970     1404     1798     1992     2054     2205     2496 
    2832     3133     3325     3384     3323     3123     2778     2332 
    1898     1667     1746     2062     2440     2709     2813     2778 
    2624     2386     2111     1840     1672     1714     1937     2209 
    2386     2386     2193     1765     1163      596      214       24 
     -10      153      486      777      926      955      996     1233 
    1736     2446     3123     3532     3712     3724     3645     3630 
    3677     3805     3987     4010     3815     3412     2770     1952 
    1061      267     -276     -537     -522     -310      -18      287 
     630     1034     1448     1838     2149     2338     2430     2419 
    2288     2047     1772     1620     1656     1846     2165     2556 
    2897     3107     3146     2933     2467     1842     1190      626 
     183      -87     -159      -54      224      600     1000     1406 
    1817     2268     2751     3180     3524     3780     3869     3743 
    3491     3240     3006     2690     2220     1663     1125      715 
     542      596      756      916     1065     1198     1308     1462 
    1655     1821     1945     2022     2073     2116     2172     2204 
    2145     2053     1987     2018     2231     2525     2744     2790 
    2579     2157     1680     1321     1201     1333     1660     2083 
    2454     2705     2857     2887     2678     2227     1714     1336 
    1243     1474     1884     2228     2312     2178     1938     1580 
    1140      750      529      518      653      843     1017     1124 
    1156     1197     1386     1736     2138     2525     2909     3298 
    3673     3989     4160     4118     3843     3364     2812     2296 
    1861     1497     1135      801      576      432      363      348 
     355      444      619      870     1217     1606     1968     2313 
    2690     3033     3226     3252     3130     2909     2652     2369 
    2064     1729     1348      923      483       76     -214     -330 
    -267       33      592     1300     1999     2535     2872     3049 
    3069     2999     2879     2704     2560     2520     2575     2663 
    2705     2694     2660     2577     2497     2498     2504     2435 
    2278     2043     1831     1718     1744     1917     2056     1962 
    1669     1293      908      604      421      372      498      768 
    1086     1360     1548     1715     1899     2085     2290     2488 
    2646     2762     2845     2930     3014     3061     3013     2801 
    2409     1917     1422     1009      724      572      540      595 
     730      934     1161     1424     1776     2177     2533     2824 
    3030     3099     2960     2641     2324     2101     1881     1632 
    1428     1291     1197     1233     1404     1559     1684     1834 
    2019     2212     2366     2516     2650     2735     2770     2737 
    2690     2619     2485     2328     2130     1850     1528     1248 
    1067      965      901      873      872      864      888     1001 
    1169     1387     1649     1911     2168     2342     2377     2320 
    2193     2037     1898     1787     1710     1668     1690     1745 
    1779     1813     1860     1900     1915     1930     1995     2103 
    2226     2354     2479     2602     2681     2627     2411     2084 
    1737     1462     1290     1227     1277     1394     1561     1825 
    2182     2498     2628     2563     2363     2101     1880     1719 
    1579     1439     1277     1107      961      905      963     1097 
    1336     1674     2034     2342     2559     2686     2685     2583 
    2496     2442     2461     2567     2654     2643     2482     2214 
    1950     1725     1599     1624     1741     1875     1926     1858 
    1746     1656     1607     1598     1641     1718     1776     1772 
    1683     1556     1443     1335     1266     1228     1174     1129 
    1117     1198     1414     1668     1906     2138     2328     2448 
    2517     2558     2573     2550     2477     2343     2151     1961 
    1846     1842     1950     2116     2253     2296     2205     2046 
    1880     1717     1572     1422     1286     1204     1165     1148 
    1143     1182     1304     1478     1676     1907     2139     2281 
