Origin Time       2025/03/28 03:50:00
Lat.              35.403
Long.             140.360
Depth. (km)       54
Mag.              4.4
Station Code      TKY025
Station Lat.      35.7136
Station Long.     139.8972
Station Height(m) 1
Record Time       2025/03/28 03:51:01
Sampling Freq(Hz) 100Hz
Duration Time(s)  60
Dir.              U-D
Scale Factor      7845(gal)/8223790
Max. Acc. (gal)   1.259
Last Correction   2025/03/28 03:51:00
Memo.             
[...]
   28888    28899    28891    28875    28880    28898    28902    28883 
   28875    28898    28902    28880    28868    28864    28869    28885 
   28884    28884    28892    28888    28885    28885    28884    28884 
   28884    28884    28887    28891    28892    28890    28883    28877 
   28865    28871    28894    28898    28896    28903    28885    28877 
   28883    28873    28880    28895    28891    28880    28872    28879 
   28879    28872    28881    28879    28867    28885    28898    28891 
   28904    28898    28873    28894    28910    28883    28883    28904 
   28898    28891    28902    28906    28892    28884    28887    28891 
   28892    28894    28892    28892    28890    28884    28896    28908 
   28896    28890    28888    28880    28888    28898    28888    28884 
   28885    28880    28884    28895    28891    28881    28877    28883 
   28898    28894    28885    28894    28891    28883    28885    28895 
   28900    28894    28894    28896    28895    28903    28911    28903 
   28891    28894    28900    28898    28906    28912    28888    28879 
   28896    28896    28883    28879    28887    28902    28907    28902 
   28887    28864    28865    28890    28904    28908    28902    28887 
   28881    28884    28883    28887    28896    28900    28899    28904 
   28903    28881    28863    28876    28896    28899    28904    28910 
   28899    28887    28891    28903    28899    28887    28888    28888 
   28881    28891    28915    28911    28881    28884    28898    28879 
   28868    28877    28884    28900    28904    28881    28883    28895 
   28885    28881    28884    28873    28865    28876    28885    28891 
   28898    28891    28883    28880    28879    28883    28885    28881 
   28885    28891    28890    28885    28887    28888    28883    28877 
   28872    28873    28898    28912    28898    28890    28883    28872 
   28875    28881    28881    28883    28890    28899    28895    28885 
   28890    28879    28864    28875    28879    28872    28890    28898 
   28885    28895    28896    28872    28871    28881    28879    28892 
   28903    28890    28880    28877    28880    28890    28880    28873 
   28892    28899    28885    28888    28892    28887    28891    28891 
   28879    28876    28883    28879    28864    28872    28898    28904 
   28895    28898    28899    28883    28877    28891    28888    28877 
   28894    28910    28902    28894    28885    28885    28900    28894 
   28877    28888    28899    28894    28890    28892    28895    28888 
   28881    28883    28891    28903    28906    28894    28883    28884 
   28883    28876    28890    28904    28898    28898    28899    28888 
   28887    28892    28885    28877    28881    28884    28885    28898 
   28900    28895    28892    28877    28873    28892    28894    28891 
   28902    28894    28879    28887    28892    28884    28894    28910 
   28903    28887    28887    28887    28879    28880    28880    28877 
   28887    28895    28895    28894    28881    28877    28890    28880 
   28869    28885    28894    28887    28885    28880    28881    28892 
   28891    28892    28904    28898    28880    28877    28876    28879 
   28885    28890    28892    28884    28879    28885    28891    28898 
   28895    28884    28887    28891    28883    28879    28877    28877 
   28883    28877    28872    28879    28885    28890    28887    28885 
   28887    28883    28872    28861    28869    28884    28880    28880 
   28895    28896    28894    28890    28884    28887    28885    28885 
   28894    28902    28904    28891    28876    28873    28875    28880 
   28892    28899    28890    28888    28891    28885    28885    28880 
   28875    28884    28884    28881    28892    28898    28899    28902 
   28894    28885    28883    28880    28888    28900    28902    28899 
   28899    28903    28902    28900    28902    28900    28903    28899 
   28881    28881    28892    28888    28891    28899    28896    28896 
   28896    28884    28883    28890    28883    28875    28879    28895 
   28904    28896    28887    28896    28903    28894    28888    28895 
   28899    28899    28892    28883    28890    28907    28910    28904 
   28894    28871    28869    28890    28903    28903    28899    28902 
   28895    28875    28884    28904    28895    28891    28902    28898 
   28904    28941    28957    28958    28966    28956    28952    29007 
   29076    29107    29077    28950    28771    28669    28749    28946 
   28995    28723    28331    28217    28536    29031    29326    29258 
   28973    28740    28648    28679    28858    29128    29299    29170 
   28803    28528    28501    28636    28819    28918    28960    29025 
   29039    29015    28925    28713    28655    28880    29087    29143 
   29127    29046    28960    28925    28898    28857    28786    28686 
   28686    28792    28867    28872    28775    28651    28664    28777 
   29025    29326    29344    29052    28598    28240    28391    28934 
   29396    29604    29393    28750    28227    28308    28833    29344 
   29500    29216    28773    28599    28799    29154    29357    29153 
   28703    28485    28620    28941    29322    29463    29099    28404 
   27773    27673    28251    28975    29416    29619    29502    28995 
   28383    28116    28444    28989    29246    29261    29052    28625 
   28474    28821    29397    29851    29740    29131    28655    28529 
   28582    28759    29018    29188    29146    28999    28852    28653 
   28634    29016    29397    29394    29112    28687    28331    28219 
   28233    28389    28667    28890    29135    29296    29047    28680 
   28529    28476    28680    29112    29272    29120    28849    28494 
   28441    28854    29232    29299    29313    29403    29362    29120 
   28765    28360    28239    28656    29161    29309    29160    28807 
   28506    28626    29083    29421    29266    28733    28339    28325 
   28598    29006    29299    29276    28887    28410    28329    28641 
   29047    29369    29301    28836    28521    28566    28748    29035 
   29313    29265    28876    28448    28228    28339    28798    29265 
   29293    29061    28972    28958    28934    28930    28915    29019 
   29185    29145    28921    28647    28485    28669    29141    29513 
   29443    29064    28794    28591    28462    28750    29123    29124 
   28904    28555    28298    28455    28773    28984    29085    29015 
   28968    29227    29463    29320    29029    28719    28422    28482 
   28861    29158    29211    28926    28483    28410    28741    29020 
   29092    28985    28745    28696    28948    29104    28964    28732 
   28652    28787    29038    29259    29265    28991    28683    28613 
   28765    28849    28667    28495    28663    29064    29462    29596 
   29169    28487    28316    28718    29045    29004    28838    28660 
   28470    28533    28927    29273    29393    29384    29155    28871 
   28953    29207    29169    28973    28877    28792    28725    28854 
   28988    28791    28555    28678    28823    28671    28507    28462 
   28350    28379    28861    29462    29694    29587    29263    28817 
   28634    28962    29434    29571    29312    28782    28169    27870 
   28085    28440    28625    28833    29168    29381    29334    29069 
   28606    28152    28135    28605    29182    29620    29768    29463 
   28944    28641    28636    28721    28787    28873    28972    29046 
   29029    28823    28641    28803    29204    29543    29656    29438 
   28935    28404    28109    28162    28452    28776    28930    28869 
   28849    28921    28908    28863    28732    28533    28617    29007 
   29438    29681    29451    28937    28648    28572    28552    28682 
   28794    28703    28624    28668    28811    29058    29208    29203 
   29134    28890    28663    28740    28872    28933    29131    29255 
   29035    28842    28846    28718    28682    29011    29262    29231 
   29099    28809    28440    28260    28281    28448    28867    29305 
   29232    28699    28402    28657    29092    29417    29606    29524 
   29199    28894    28745    28733    28767    28813    28860    28796 
   28692    28794    28972    28840    28548    28529    28728    28922 
   29047    29068    29066    29037    28880    28753    28791    28864 
   28823    28661    28522    28587    28815    28956    28898    28830 
   29035    29435    29554    29312    29149    29134    28915    28591 
   28532    28657    28738    28764    28850    29015    29042    28867 
   28741    28833    29104    29276    29038    28552    28356    28586 
   28811    28868    28896    28863    28891    28999    28845    28688 
   28981    29315    29358    29328    29180    28846    28571    28486 
   28594    28822    28985    28979    28827    28702    28759    28884 
   28903    28792    28606    28516    28660    28911    29000    28922 
   28946    29069    29091    29011    28829    28602    28621    28945 
   29331    29539    29389    28996    28653    28463    28559    28914 
   29139    29230    29285    28922    28390    28458    28929    29223 
   29269    29083    28815    28711    28695    28688    28763    28880 
   28954    28993    28972    28814    28687    28756    28809    28753 
   28802    28890    28813    28732    28868    29046    29046    29002 
   28945    28753    28552    28445    28512    28879    29211    29142 
   28953    28884    28823    28819    28807    28667    28691    28984 
   29269    29466    29550    29465    29342    29309    29330    29250 
   28983    28652    28387    28233    28185    28082    27977    28154 
   28559    28962    29226    29292    29451    29799    29764    29241 
   28876    28749    28579    28602    28860    28999    28972    28833 
   28588    28534    28806    29093    29191    29149    29062    28960 
   28771    28549    28467    28502    28597    28786    29034    29227 
   29207    29014    28912    28957    29053    29074    28915    28810 
   28856    28849    28927    29127    29123    28958    28833    28652 
   28555    28769    29041    29058    28887    28748    28757    28822 
   28864    28950    29068    29112    29043    28838    28553    28440 
   28579    28753    28950    29191    29133    28706    28362    28382 
   28672    29022    29204    29104    28931    28925    28930    28876 
   29012    29239    29307    29290    29201    28981    28780    28678 
   28582    28536    28652    28800    28829    28831    28929    29064 
   29150    29139    29010    28865    28772    28657    28593    28678 
   28896    29184    29304    29110    28853    28741    28719    28769 
   28846    28826    28814    28931    28979    28919    28953    28973 
   28817    28683    28790    29004    29085    29007    28877    28760 
   28675    28586    28463    28505    28823    29101    29108    29022 
   29010    29019    28911    28687    28520    28497    28634    28948 
   29265    29400    29350    29097    28765    28695    28881    28993 
   28968    28910    28826    28696    28587    28682    28911    28972 
   28814    28567    28445    28703    29200    29538    29589    29428 
   29073    28626    28347    28351    28584    28961    29249    29250 
   29124    29061    28999    28933    28950    28996    28991    28964 
   28984    29087    29173    29042    28713    28526    28560    28568 
   28560    28555    28517    28653    28844    28883    29042    29277 
   29323    29319    29259    29130    29074    28923    28615    28413 
   28459    28715    28873    28706    28487    28436    28555    28879 
   29146    29077    28881    28759    28680    28788    29106    29297 
   29232    29100    28962    28833    28737    28678    28804    29068 
   29153    29085    28995    28840    28764    28861    28902    28790 
   28637    28474    28368    28545    29045    29490    29643    29639 
   29475    29160    28884    28660    28495    28470    28448    28441 
   28684    29142    29501    29606    29500    29176    28676    28233 
   28044    28128    28395    28742    29061    29241    29289    29227 
   28973    28684    28638    28767    28946    29178    29247    29022 
   28748    28537    28363    28462    28930    29434    29606    29421 
   29185    29077    28985    28922    28857    28664    28537    28536 
   28493    28591    28903    29162    29305    29336    29189    28960 
   28755    28574    28502    28617    28803    28879    28834    28761 
   28695    28655    28675    28741    28864    28980    28977    28958 
   29015    29087    29238    29365    29234    29060    29037    28946 
   28741    28715    28973    29196    29142    28921    28632    28421 
   28455    28624    28854    29111    29195    29174    29216    29261 
   29313    29296    29058    28791    28636    28475    28443    28668 
   28881    28914    28803    28571    28476    28669    28869    28957 
   29043    29120    29209    29263    29112    28823    28534    28305 
   28305    28524    28734    28935    29069    28983    28825    28702 
   28559    28503    28507    28475    28611    28976    29336    29543 
   29511    29239    28988    28925    28950    29027    29142    29173 
   29115    29100    29191    29254    29147    28937    28744    28649 
   28659    28659    28607    28640    28890    29223    29338    29207 
   28911    28441    28047    27954    28062    28293    28624    28927 
   29072    29029    28898    28726    28576    28682    29119    29654 
   30060    30208    29992    29428    28682    28048    27799    27864 
   28119    28615    29187    29548    29590    29261    28742    28374 
   28302    28498    28811    29130    29389    29467    29419    29328 
   29046    28602    28282    28178    28275    28590    28942    29189 
   29369    29405    29277    29115    28865    28493    28197    28155 
   28413    28807    29079    29245    29300    29076    28759    28611 
   28594    28675    28804    28856    28864    28892    28923    28965 
   28976    28961    29043    29214    29300    29242    29118    29035 
   28995    28898    28759    28725    28869    29057    29057    28891 
   28798    28799    28775    28795    28921    29030    29110    29149 
   29007    28771    28644    28624    28632    28625    28626    28709 
   28864    29069    29296    29381    29196    28871    28605    28453 
   28437    28620    28917    29142    29281    29336    29219    28999 
   28765    28561    28587    28919    29295    29427    29261    28949 
   28736    28729    28728    28633    28663    28818    28860    28802 
   28738    28629    28524    28544    28726    29104    29604    29876 
   29695    29246    28810    28480    28287    28274    28318    28275 
   28269    28408    28588    28861    29301    29709    29960    30113 
   30053    29606    28960    28414    27967    27652    27664    28007 
   28541    29088    29442    29494    29299    29122    29110    29041 
   28876    28840    28908    28960    29042    29154    29165    29016 
   28765    28495    28343    28452    28714    28853    28853    28791 
   28597    28377    28297    28348    28591    29019    29443    29798 
   30021    29937    29524    28954    28494    28348    28470    28687 
   28908    29088    29200    29211    29068    28844    28679    28540 
   28389    28351    28483    28772    29139    29351    29295    29037 
   28687    28466    28482    28576    28649    28741    28852    28975 
   29116    29143    28946    28718    28686    28803    29003    29255 
   29455    29558    29477    29108    28692    28464    28350    28413 
   28703    29034    29330    29474    29266    28833    28455    28285 
   28372    28648    28960    29191    29278    29195    28942    28634 
   28420    28351    28493    28833    29200    29469    29543    29378 
   29130    28892    28605    28335    28210    28220    28318    28513 
   28776    29035    29176    29149    29073    29026    29039    29099 
   29066    28989    29007    29088    29226    29327    29203    28933 
   28713    28580    28603    28803    28979    29073    29197    29245 
   29165    29056    28860    28570    28351    28352    28618    29029 
   29393    29565    29435    29095    28777    28549    28344    28219 
   28246    28337    28548    28958    29304    29376    29276    29060 
   28761    28582    28664    28904    29172    29409    29529    29509 
   29361    29039    28603    28186    27916    27957    28250    28601 
   28998    29328    29436    29447    29392    29165    28962    28930 
   28898    28806    28748    28736    28753    28841    28968    29002 
   28910    28736    28514    28397    28441    28459    28395    28378 
   28441    28561    28734    28964    29293    29664    29933    30024 
   29862    29463    29022    28625    28251    28040    28162    28593 
   29164    29633    29810    29698    29440    29131    28779    28495 
   28490    28736    28977    29074    29007    28813    28624    28485 
   28343    28287    28395    28522    28561    28620    28746    28850 
   28971    29154    29238    29122    28942    28819    28780    28825 
   28926    29045    29049    28845    28576    28447    28588    29027 
   29548    29893    30010    29921    29624    29232    28854    28487 
   28216    28121    28169    28381    28742    29057    29178    29057 
   28691    28324    28220    28347    28570    28763    28819    28821 
   28873    28902    28842    28737    28621    28618    28825    29164 
   29531    29781    29771    29598    29359    29039    28728    28495 
   28358    28390    28602    28923    29245    29424    29432    29276 
   28984    28771    28714    28664    28591    28539    28528    28609 
   28750    28867    28867    28775    28748    28807    28891    28966 
   28991    28984    28976    28987    29095    29272    29384    29382 
   29297    29128    28923    28817    28765    28575    28306    28101 
   27940    27903    28086    28405    28784    29203    29555    29713 
   29673    29544    29401    29231    29056    28911    28775    28674 
   28657    28661    28701    28834    28911    28799    28647    28634 
   28794    29029    29180    29173    29049    28848    28699    28729 
   28813    28864    28980    29070    29029    28964    28938    28925 
   28960    29026    29076    29162    29215    29047    28719    28462 
   28337    28301    28355    28507    28729    28976    29180    29273 
   29214    29002    28730    28507    28463    28676    28984    29200 
   29311    29331    29313    29316    29286    29199    29074    28923 
   28740    28579    28518    28522    28548    28668    28829    28895 
   28915    28950    28937    28902    28894    28885    28922    29070 
   29231    29270    29180    28965    28680    28495    28480    28517 
   28551    28602    28634    28606    28516    28456    28557    28750 
   28872    28929    28942    28903    28871    28854    28818    28791 
   28850    29050    29295    29434    29463    29443    29378    29319 
   29323    29286    29166    29095    29079    29046    29041    29064 
   28950    28628    28274    28035    27919    28003    28318    28714 
   29030    29187    29172    29047    28898    28819    28887    29025 
   29114    29114    29039    28934    28811    28695    28637    28620 
   28632    28682    28715    28744    28798    28822    28792    28753 
