Origin Time       2025/03/28 03:50:00
Lat.              35.403
Long.             140.360
Depth. (km)       54
Mag.              4.4
Station Code      TKY021
Station Lat.      35.6875
Station Long.     139.8190
Station Height(m) 1
Record Time       2025/03/28 03:51:01
Sampling Freq(Hz) 100Hz
Duration Time(s)  60
Dir.              N-S
Scale Factor      7845(gal)/8223790
Max. Acc. (gal)   3.272
Last Correction   2025/03/28 03:51:01
Memo.             
[...]
   -2295    -2332    -2307    -2270    -2284    -2289    -2300    -2289 
   -2276    -2280    -2266    -2322    -2354    -2270    -2269    -2347 
   -2322    -2226    -2272    -2361    -2282    -2280    -2367    -2286 
   -2208    -2289    -2330    -2274    -2284    -2313    -2258    -2266 
   -2311    -2285    -2319    -2312    -2241    -2286    -2311    -2303 
   -2336    -2289    -2284    -2317    -2277    -2284    -2296    -2304 
   -2336    -2304    -2268    -2274    -2295    -2332    -2344    -2304 
   -2263    -2295    -2331    -2309    -2328    -2346    -2270    -2246 
   -2304    -2300    -2274    -2324    -2339    -2281    -2265    -2288 
   -2297    -2289    -2293    -2311    -2316    -2307    -2285    -2289 
   -2290    -2297    -2332    -2253    -2199    -2338    -2389    -2299 
   -2268    -2262    -2288    -2371    -2385    -2322    -2300    -2320 
   -2290    -2288    -2349    -2305    -2266    -2342    -2307    -2235 
   -2305    -2334    -2288    -2305    -2320    -2273    -2284    -2309 
   -2269    -2301    -2346    -2293    -2266    -2289    -2309    -2323 
   -2335    -2282    -2247    -2331    -2324    -2227    -2262    -2324 
   -2259    -2222    -2342    -2366    -2242    -2277    -2369    -2299 
   -2247    -2284    -2281    -2285    -2350    -2339    -2261    -2292 
   -2323    -2282    -2344    -2327    -2204    -2308    -2353    -2208 
   -2289    -2405    -2293    -2234    -2315    -2296    -2235    -2309 
   -2328    -2266    -2299    -2312    -2274    -2290    -2301    -2308 
   -2308    -2246    -2246    -2319    -2304    -2276    -2335    -2324 
   -2259    -2292    -2304    -2293    -2331    -2296    -2232    -2263 
   -2322    -2290    -2258    -2338    -2309    -2204    -2276    -2292 
   -2238    -2367    -2412    -2261    -2231    -2344    -2384    -2305 
   -2265    -2332    -2344    -2288    -2297    -2344    -2377    -2357 
   -2296    -2292    -2303    -2290    -2293    -2290    -2288    -2266 
   -2268    -2312    -2301    -2278    -2263    -2245    -2307    -2342 
   -2288    -2274    -2293    -2312    -2328    -2278    -2266    -2330 
   -2309    -2278    -2340    -2340    -2290    -2320    -2338    -2308 
   -2304    -2297    -2288    -2324    -2303    -2247    -2307    -2311 
   -2247    -2315    -2327    -2255    -2263    -2258    -2305    -2334 
   -2239    -2312    -2390    -2231    -2218    -2328    -2299    -2322 
   -2358    -2268    -2251    -2313    -2301    -2300    -2330    -2290 
   -2273    -2307    -2288    -2266    -2296    -2311    -2289    -2269 
   -2274    -2293    -2308    -2334    -2317    -2246    -2282    -2374 
   -2296    -2220    -2315    -2340    -2278    -2308    -2312    -2262 
   -2309    -2326    -2258    -2297    -2339    -2261    -2258    -2324 
   -2335    -2304    -2242    -2254    -2296    -2290    -2330    -2322 
   -2259    -2293    -2301    -2276    -2343    -2332    -2243    -2296 
   -2350    -2286    -2316    -2369    -2261    -2258    -2385    -2328 
   -2258    -2323    -2319    -2301    -2322    -2296    -2290    -2315 
   -2327    -2307    -2249    -2272    -2335    -2307    -2285    -2317 
   -2336    -2331    -2307    -2292    -2293    -2309    -2319    -2293 
   -2295    -2320    -2265    -2223    -2313    -2350    -2270    -2277 
   -2331    -2299    -2265    -2296    -2331    -2312    -2272    -2286 
   -2316    -2288    -2277    -2338    -2340    -2257    -2251    -2315 
   -2309    -2288    -2316    -2326    -2303    -2278    -2299    -2324 
   -2280    -2301    -2320    -2224    -2276    -2385    -2305    -2239 
   -2280    -2313    -2313    -2280    -2269    -2301    -2338    -2357 
   -2295    -2245    -2327    -2327    -2250    -2313    -2362    -2305 
   -2288    -2288    -2278    -2289    -2286    -2277    -2288    -2301 
   -2304    -2285    -2254    -2284    -2384    -2357    -2209    -2230 
   -2344    -2307    -2272    -2315    -2296    -2277    -2303    -2292 
   -2290    -2299    -2277    -2309    -2347    -2281    -2249    -2323 
   -2336    -2261    -2255    -2323    -2313    -2231    -2255    -2351 
   -2324    -2258    -2300    -2330    -2304    -2305    -2286    -2285 
   -2339    -2309    -2257    -2304    -2328    -2284    -2274    -2290 
   -2295    -2311    -2307    -2284    -2308    -2305    -2278    -2295 
   -2297    -2292    -2293    -2299    -2342    -2335    -2273    -2301 
   -2355    -2308    -2259    -2258    -2278    -2313    -2299    -2280 
   -2296    -2262    -2270    -2354    -2312    -2235    -2316    -2362 
   -2257    -2216    -2324    -2398    -2328    -2272    -2308    -2285 
   -2242    -2328    -2376    -2286    -2265    -2297    -2268    -2273 
   -2319    -2308    -2301    -2323    -2292    -2257    -2289    -2328 
   -2305    -2269    -2280    -2280    -2278    -2315    -2330    -2324 
   -2270    -2227    -2272    -2296    -2344    -2386    -2286    -2228 
   -2268    -2309    -2363    -2339    -2272    -2273    -2255    -2239 
   -2326    -2370    -2305    -2286    -2268    -2214    -2285    -2381 
   -2377    -2324    -2249    -2247    -2289    -2297    -2328    -2312 
   -2269    -2304    -2317    -2286    -2304    -2359    -2336    -2205 
   -2203    -2331    -2324    -2274    -2313    -2277    -2214    -2282 
   -2377    -2412    -2385    -2257    -2166    -2270    -2390    -2378 
   -2361    -2338    -2257    -2249    -2269    -2282    -2398    -2412 
   -2261    -2234    -2317    -2308    -2263    -2299    -2324    -2272 
   -2218    -2241    -2365    -2425    -2308    -2262    -2312    -2268 
   -2288    -2381    -2342    -2276    -2228    -2204    -2299    -2347 
   -2272    -2250    -2317    -2367    -2373    -2350    -2274    -2223 
   -2243    -2258    -2330    -2436    -2384    -2226    -2142    -2142 
   -2207    -2305    -2373    -2381    -2285    -2185    -2250    -2362 
   -2390    -2373    -2301    -2234    -2269    -2358    -2377    -2297 
   -2253    -2281    -2251    -2215    -2297    -2367    -2292    -2208 
   -2250    -2380    -2434    -2338    -2290    -2347    -2340    -2327 
   -2384    -2376    -2305    -2261    -2219    -2220    -2292    -2316 
   -2249    -2205    -2219    -2270    -2374    -2382    -2272    -2292 
   -2394    -2361    -2243    -2192    -2261    -2357    -2342    -2299 
   -2323    -2334    -2300    -2277    -2299    -2319    -2274    -2245 
   -2312    -2351    -2199    -2057    -2158    -2284    -2303    -2336 
   -2293    -2188    -2259    -2438    -2477    -2398    -2320    -2246 
   -2207    -2251    -2304    -2319    -2382    -2489    -2512    -2463 
   -2435    -2371    -2197    -2084    -2173    -2282    -2331    -2378 
   -2320    -2226    -2288    -2401    -2440    -2438    -2374    -2261 
   -2224    -2262    -2254    -2187    -2118    -2104    -2189    -2311 
   -2353    -2326    -2344    -2384    -2338    -2289    -2309    -2288 
   -2274    -2347    -2328    -2243    -2277    -2257    -2112    -2118 
   -2289    -2400    -2384    -2327    -2338    -2371    -2346    -2317 
   -2320    -2300    -2258    -2227    -2261    -2388    -2436    -2250 
   -2083    -2151    -2312    -2408    -2385    -2258    -2155    -2218 
   -2427    -2547    -2463    -2388    -2455    -2562    -2563    -2396 
   -2255    -2289    -2282    -2151    -2066    -2096    -2249    -2401 
   -2299    -2107    -2150    -2253    -2258    -2326    -2403    -2340 
   -2212    -2161    -2245    -2377    -2378    -2220    -2097    -2155 
   -2304    -2397    -2363    -2282    -2289    -2322    -2304    -2296 
   -2311    -2328    -2339    -2381    -2459    -2434    -2311    -2266 
   -2315    -2371    -2354    -2241    -2128    -2092    -2134    -2218 
   -2277    -2317    -2385    -2473    -2502    -2407    -2309    -2347 
   -2396    -2361    -2353    -2357    -2313    -2326    -2405    -2411 
   -2316    -2243    -2259    -2369    -2494    -2486    -2371    -2300 
   -2250    -2196    -2215    -2261    -2259    -2227    -2126    -1981 
   -1941    -1991    -2023    -2056    -2168    -2357    -2494    -2511 
   -2498    -2479    -2403    -2311    -2215    -2114    -2123    -2266 
   -2386    -2401    -2315    -2174    -2080    -2118    -2276    -2435 
   -2524    -2544    -2509    -2515    -2550    -2489    -2354    -2239 
   -2219    -2228    -2141    -2085    -2142    -2187    -2216    -2224 
   -2176    -2187    -2315    -2448    -2461    -2362    -2303    -2369 
   -2494    -2542    -2439    -2370    -2455    -2513    -2443    -2293 
   -2114    -1999    -1988    -2092    -2276    -2374    -2369    -2388 
   -2439    -2467    -2439    -2332    -2203    -2151    -2160    -2137 
   -2118    -2147    -2172    -2188    -2278    -2452    -2552    -2484 
   -2384    -2371    -2349    -2235    -2153    -2182    -2241    -2215 
   -2118    -2116    -2228    -2214    -2058    -2012    -2151    -2361 
   -2531    -2612    -2646    -2679    -2675    -2581    -2378    -2143 
   -2029    -2087    -2212    -2241    -2170    -2199    -2373    -2486 
   -2421    -2338    -2409    -2524    -2528    -2517    -2558    -2477 
   -2263    -2170    -2263    -2307    -2191    -2074    -2057    -2108 
   -2147    -2101    -2027    -2056    -2222    -2382    -2385    -2312 
   -2300    -2351    -2440    -2527    -2540    -2489    -2439    -2434 
   -2448    -2384    -2235    -2122    -2091    -2154    -2300    -2370 
   -2305    -2290    -2328    -2251    -2154    -2149    -2115    -2077 
   -2188    -2340    -2404    -2515    -2677    -2694    -2643    -2691 
   -2694    -2524    -2295    -2056    -1765    -1522    -1471    -1607 
   -1848    -2095    -2227    -2278    -2407    -2608    -2766    -2836 
   -2849    -2886    -2898    -2759    -2532    -2296    -2092    -2035 
   -2081    -2080    -2033    -1937    -1831    -1845    -1917    -1964 
   -2050    -2158    -2286    -2465    -2540    -2486    -2502    -2636 
   -2785    -2776    -2519    -2238    -2114    -2038    -1975    -1929 
   -1867    -1935    -2220    -2461    -2457    -2332    -2289    -2386 
   -2520    -2581    -2586    -2601    -2583    -2463    -2353    -2390 
   -2498    -2562    -2579    -2529    -2378    -2173    -1987    -1850 
   -1833    -1952    -2061    -2138    -2285    -2452    -2565    -2602 
   -2504    -2331    -2278    -2304    -2243    -2149    -2081    -2064 
   -2126    -2195    -2278    -2451    -2628    -2646    -2516    -2392 
   -2300    -2173    -2049    -1984    -2016    -2058    -1966    -1869 
   -1934    -2042    -2084    -2165    -2369    -2581    -2706    -2733 
   -2623    -2459    -2413    -2519    -2646    -2644    -2581    -2529 
   -2385    -2215    -2154    -2058    -1917    -1975    -2200    -2365 
   -2508    -2662    -2655    -2488    -2369    -2378    -2388    -2296 
   -2174    -2153    -2199    -2211    -2254    -2315    -2243    -2111 
   -2061    -2023    -1976    -2033    -2164    -2315    -2523    -2675 
   -2617    -2479    -2428    -2366    -2235    -2124    -2037    -1999 
   -2095    -2290    -2444    -2424    -2282    -2265    -2431    -2548 
   -2505    -2416    -2393    -2467    -2533    -2462    -2320    -2231 
   -2219    -2255    -2234    -2146    -2131    -2199    -2258    -2253 
   -2172    -2056    -1998    -2064    -2157    -2235    -2346    -2430 
   -2436    -2373    -2222    -2034    -1954    -2053    -2262    -2494 
   -2656    -2695    -2740    -2845    -2816    -2571    -2340    -2254 
   -2215    -2141    -1987    -1804    -1734    -1771    -1894    -2138 
   -2403    -2600    -2789    -3010    -3150    -3125    -2997    -2714 
   -2289    -1957    -1746    -1587    -1564    -1576    -1552    -1737 
   -2088    -2307    -2470    -2690    -2841    -2889    -2840    -2679 
   -2500    -2438    -2501    -2531    -2405    -2181    -1999    -1949 
   -1939    -1885    -1857    -1888    -2033    -2362    -2693    -2847 
   -2864    -2774    -2573    -2324    -2108    -2008    -2026    -2026 
   -1939    -1912    -2046    -2184    -2216    -2303    -2504    -2583 
   -2444    -2293    -2241    -2273    -2365    -2373    -2270    -2192 
   -2130    -2054    -2084    -2251    -2405    -2477    -2544    -2569 
   -2467    -2284    -2100    -2026    -2100    -2162    -2146    -2205 
   -2400    -2621    -2776    -2818    -2733    -2532    -2357    -2330 
   -2290    -2188    -2165    -2162    -2096    -2066    -2146    -2270 
   -2390    -2501    -2525    -2485    -2474    -2538    -2579    -2423 
   -2161    -1945    -1782    -1711    -1738    -1896    -2130    -2257 
   -2295    -2351    -2417    -2466    -2506    -2527    -2528    -2575 
   -2678    -2732    -2709    -2693    -2570    -2227    -1857    -1613 
   -1498    -1547    -1782    -2150    -2446    -2556    -2573    -2543 
   -2482    -2455    -2358    -2127    -1971    -1938    -1891    -1917 
   -2103    -2330    -2519    -2617    -2593    -2528    -2452    -2361 
   -2369    -2465    -2493    -2452    -2374    -2268    -2243    -2296 
   -2296    -2273    -2347    -2509    -2648    -2747    -2789    -2648 
   -2427    -2346    -2296    -2191    -2170    -2241    -2285    -2288 
   -2293    -2312    -2293    -2236    -2224    -2277    -2346    -2428 
   -2525    -2582    -2581    -2513    -2382    -2257    -2131    -2015 
   -1954    -2006    -2137    -2185    -2178    -2235    -2389    -2647 
   -2763    -2516    -2176    -1965    -1822    -1746    -1649    -1489 
   -1383    -1301    -1243    -1321    -1601    -2068    -2548    -2964 
   -3366    -3558    -3385    -3003    -2465    -1799    -1179     -706 
    -495     -683    -1185    -1881    -2809    -3852    -4750    -5404 
   -5730    -5641    -5123    -4186    -3088    -2130    -1227     -395 
     130      418      533      333     -205     -950    -1779    -2701 
   -3559    -4008    -4090    -4047    -3905    -3692    -3457    -3192 
   -2851    -2398    -1942    -1598    -1294     -986     -792     -760 
    -862    -1138    -1579    -2130    -2879    -3828    -4637    -5013 
   -4965    -4509    -3669    -2705    -1867    -1156     -585     -179 
     155      356      220     -265     -940    -1557    -1899    -2026 
   -2073    -2076    -2212    -2601    -3061    -3376    -3499    -3523 
   -3466    -3221    -2822    -2425    -2103    -1885    -1740    -1665 
   -1822    -2209    -2647    -3088    -3514    -3785    -3716    -3168 
   -2311    -1605    -1227    -1031    -1036    -1321    -1831    -2394 
   -2735    -2835    -2866    -2863    -2864    -2889    -2874    -2849 
   -2794    -2536    -2020    -1386     -855     -631     -776    -1224 
   -1800    -2381    -3010    -3700    -4410    -5080    -5425    -5251 
   -4730    -3971    -2998    -2047    -1212     -472      -91     -264 
    -793    -1421    -2019    -2486    -2805    -3019    -3045    -2725 
   -2085    -1362     -787     -492     -502     -696    -1051    -1701 
   -2401    -2691    -2583    -2316    -1979    -1761    -1871    -2230 
   -2609    -2913    -3069    -2947    -2596    -2141    -1711    -1578 
   -1825    -2228    -2646    -3122    -3553    -3716    -3615    -3318 
   -2866    -2358    -1783    -1219     -877     -788     -966    -1355 
   -1813    -2373    -2988    -3547    -3998    -4082    -3699    -3121 
   -2466    -1760    -1250    -1058    -1058    -1331    -1976    -2700 
   -3303    -3813    -4126    -4233    -4117    -3634    -2952    -2423 
   -2126    -2038    -2197    -2523    -2737    -2666    -2327    -1800 
   -1239     -737     -336     -163     -244     -530     -966    -1308 
   -1397    -1414    -1498    -1659    -1980    -2438    -2929    -3493 
   -4099    -4621    -5008    -5155    -4953    -4390    -3438    -2218 
   -1040      -91      513      675      481       -8     -810    -1729 
   -2489    -2945    -3129    -3115    -2910    -2601    -2281    -2101 
   -2189    -2385    -2555    -2648    -2616    -2504    -2331    -2130 
   -1966    -1840    -1760    -1759    -1880    -2168    -2505    -2729 
   -2917    -3150    -3330    -3446    -3508    -3491    -3538    -3697 
   -3771    -3705    -3609    -3524    -3368    -3015    -2508    -1892 
   -1086     -265      301      676      826      487     -302    -1237 
   -2214    -3308    -4394    -5166    -5463    -5300    -4731    -3828 
   -2735    -1695     -873     -237      130       18     -457     -973 
   -1453    -1935    -2270    -2358    -2332    -2246    -2079    -1917 
   -1842    -1918    -2147    -2417    -2670    -2889    -3044    -3110 
   -3138    -3211    -3241    -3144    -3056    -2984    -2806    -2563 
   -2299    -2043    -1898    -1814    -1782    -1949    -2303    -2624 
   -2748    -2660    -2385    -1950    -1518    -1351    -1507    -1813 
   -2154    -2488    -2698    -2776    -2755    -2609    -2440    -2253 
   -1927    -1611    -1397    -1202    -1108    -1096    -1102    -1328 
   -1688    -1899    -2135    -2562    -3065    -3582    -3990    -4137 
   -4071    -3975    -3850    -3535    -3118    -2729    -2336    -2007 
   -1764    -1582    -1544    -1625    -1718    -1871    -2168    -2550 
   -2924    -3265    -3369    -3133    -2857    -2620    -2351    -2205 
   -2058    -1838    -1775    -1707    -1468    -1286    -1200    -1188 
   -1356    -1614    -1863    -2108    -2343    -2544    -2619    -2532 
   -2331    -2104    -1977    -1975    -1984    -1945    -1912    -1921 
   -1960    -2015    -2047    -2031    -2018    -2054    -2096    -2150 
   -2215    -2207    -2253    -2442    -2625    -2867    -3163    -3298 
   -3373    -3569    -3734    -3739    -3642    -3447    -3133    -2863 
   -2729    -2512    -2203    -2052    -1954    -1823    -1842    -1950 
   -1985    -1993    -2000    -1956    -1904    -1973    -2164    -2400 
   -2646    -2775    -2691    -2508    -2309    -2047    -1728    -1482 
   -1413    -1478    -1629    -1890    -2211    -2462    -2616    -2700 
   -2682    -2590    -2489    -2366    -2133    -1809    -1556    -1395 
   -1294    -1327    -1445    -1605    -1825    -1987    -2056    -2154 
   -2340    -2582    -2740    -2673    -2490    -2361    -2269    -2249 
   -2354    -2475    -2577    -2697    -2913    -3250    -3438    -3346 
   -3222    -3157    -3109    -3092    -3009    -2781    -2515    -2259 
   -2015    -1837    -1663    -1494    -1483    -1586    -1667    -1691 
   -1671    -1680    -1790    -2012    -2296    -2538    -2747    -2988 
   -3221    -3350    -3402    -3451    -3416    -3253    -3055    -2739 
   -2290    -1988    -1879    -1800    -1852    -2011    -2056    -2006 
   -1992    -2019    -1988    -1815    -1613    -1493    -1402    -1310 
   -1216    -1129    -1061    -1000    -1077    -1385    -1717    -1939 
   -2155    -2353    -2479    -2694    -3059    -3342    -3474    -3505 
   -3304    -2890    -2440    -2030    -1744    -1695    -1857    -2064 
   -2317    -2619    -2809    -2951    -3084    -3046    -2911    -2906 
   -3041    -3175    -3229    -3261    -3368    -3427    -3198    -2802 
   -2489    -2138    -1709    -1379    -1139    -1009    -1067    -1196 
   -1377    -1674    -1969    -2209    -2470    -2764    -3121    -3501 
   -3693    -3658    -3508    -3075    -2346    -1756    -1448    -1209 
   -1058    -1085    -1283    -1655    -2057    -2234    -2224    -2243 
   -2212    -1977    -1637    -1336    -1131    -1053    -1169    -1466 
   -1775    -2052    -2409    -2891    -3326    -3546    -3654    -3709 
   -3586    -3291    -2937    -2594    -2235    -1861    -1674    -1748 
   -1937    -2212    -2515    -2683    -2756    -2837    -2921    -2967 
