Origin Time       2025/03/28 03:50:00
Lat.              35.403
Long.             140.360
Depth. (km)       54
Mag.              4.4
Station Code      TKY009
Station Lat.      34.6867
Station Long.     139.4410
Station Height(m) 53
Record Time       2025/03/28 03:51:10
Sampling Freq(Hz) 100Hz
Duration Time(s)  60
Dir.              U-D
Scale Factor      7845(gal)/8223790
Max. Acc. (gal)   1.362
Last Correction   2025/03/28 03:51:10
Memo.             
   15071    15060    15118    15111    15061    15072    15090    15087 
   15094    15082    15076    15099    15091    15071    15082    15097 
   15090    15070    15080    15103    15087    15066    15068    15083 
   15113    15095    15039    15080    15122    15056    15071    15117 
   15061    15083    15111    15049    15087    15109    15040    15091 
   15121    15061    15070    15079    15094    15107    15053    15057 
   15115    15103    15063    15076    15080    15088    15113    15056 
   15075    15138    15048    15066    15144    15070    15061    15093 
   15099    15114    15043    15064    15141    15075    15070    15109 
   15061    15091    15118    15063    15084    15099    15075    15088 
   15090    15090    15082    15075    15099    15090    15078    15088 
   15084    15088    15090    15079    15068    15091    15106    15057 
   15075    15121    15057    15051    15113    15095    15056    15082 
   15099    15070    15097    15101    15040    15084    15120    15063 
   15086    15094    15061    15109    15090    15044    15102    15101 
   15067    15093    15097    15072    15064    15094    15088    15078 
   15084    15055    15105    15130    15047    15071    15110    15082 
   15091    15075    15087    15099    15063    15102    15094    15066 
   15110    15072    15071    15117    15070    15079    15101    15063 
   15091    15114    15075    15067    15079    15097    15118    15070 
   15047    15105    15107    15078    15087    15088    15079    15098 
   15097    15064    15090    15107    15061    15076    15103    15078 
   15091    15099    15059    15084    15124    15075    15056    15095 
   15106    15088    15066    15075    15113    15114    15068    15048 
   15111    15132    15047    15036    15094    15084    15070    15056 
   15037    15090    15121    15045    15029    15107    15110    15084 
   15093    15080    15105    15122    15097    15078    15071    15093 
   15060    15041    15101    15060    15033    15088    15059    15075 
   15114    15024    15025    15110    15067    14998    14987    14985 
   14998    15024    15003    14948    15024    15179    15207    15221 
   15317    15369    15360    15313    15276    15280    15176    14987 
   14902    14929    15001    15014    14951    14982    15097    15178 
   15257    15259    15159    15126    15161    15068    14909    14972 
   15182    15287    15237    15110    15161    15396    15543    15485 
   15163    14821    14770    14814    14785    14747    14619    14423 
   14427    14662    14914    15201    15498    15510    15346    15469 
   15831    15977    15745    15294    14866    14516    14115    14015 
   14565    15014    14775    14472    14670    15233    15830    16208 
   16213    15743    14994    14546    14910    15830    16166    15244 
   14094    14184    14929    14937    14832    15238    15201    14577 
   14169    14445    15264    15688    15317    14941    14985    14818 
   14301    14652    16024    16514    15504    14577    14747    15415 
   15454    14837    14829    15492    15398    14539    14216    14794 
   15662    16025    15715    15377    15192    14833    14688    15369 
   16002    15187    13884    13946    14810    15060    14847    14913 
   15302    15480    15101    14671    14855    15299    15364    15263 
   15461    15662    15273    14590    14615    15456    15904    15396 
   14924    15160    15381    14836    14442    15283    16081    15250 
   13853    13759    14773    15480    15484    15284    15107    14959 
   14975    15191    15529    15661    14976    14062    14377    15426 
   15535    14966    15040    15361    14902    14386    14994    16150 
   16244    15141    14385    14647    15213    15449    15341    15196 
   15223    15246    14831    14122    14116    15017    15606    15399 
   15291    15354    14928    14666    15225    15588    15195    14870 
   14858    14877    15124    15398    15209    15005    15109    14922 
   14598    14779    15078    15125    14929    14446    14548    15614 
   16244    15909    15449    15095    14902    15026    15126    15275 
   15668    15385    14350    14096    14584    14663    14697    15006 
   15191    15263    15129    15148    15823    16048    15053    14513 
   15399    15905    15113    14273    14188    14948    15691    15205 
   14674    15399    15859    15018    14260    14621    15302    15225 
   14673    14789    15604    15699    14913    14804    15253    15078 
   14975    15530    15680    14980    14253    14477    15560    15971 
   15106    14397    14740    15269    15190    14916    15006    15259 
   15283    15151    15296    15520    15006    14446    14906    15145 
   14463    14401    15322    15850    15284    14542    15074    16287 
   15997    14517    14158    14899    15296    15306    15272    15248 
   15264    14991    14655    14808    14937    14678    14743    15163 
   15186    14986    15094    15348    15446    15225    14816    14801 
   15214    15380    15310    15340    15094    14732    15003    15495 
   15410    14995    14751    14928    15396    15255    14454    14415 
   15299    15808    15745    15423    14752    14461    14978    15476 
   15593    15336    14654    14262    14463    14736    15040    15361 
   15412    15277    15125    15120    15282    15309    15284    15391 
   15367    15288    15234    14863    14446    14509    14912    15232 
   15307    15187    14872    14698    15047    15368    15280    15265 
   15156    14678    14689    15390    15637    15207    14920    14967 
   15024    14864    14774    15215    15564    15233    15057    15321 
   15284    15045    15036    14951    14675    14743    15060    15039 
   14894    14963    15149    15317    15232    15118    15240    15232 
   15156    15234    15221    15194    15157    14812    14565    14868 
   15277    15304    15106    15024    14933    14702    14789    15245 
   15437    15318    15300    15265    14970    14650    14686    15176 
   15660    15503    14894    14712    15226    15579    15246    14951 
   15072    15117    14929    14750    14864    15240    15175    14658 
   14712    15186    15163    15066    15334    15300    14985    15030 
   15226    15329    15441    15201    14793    14852    15020    15039 
   15260    15354    15021    14775    14932    15160    15156    15013 
   14940    15128    15462    15338    14854    14872    15172    15049 
   14855    14933    15056    15163    15223    15187    15171    15137 
   14940    14886    15248    15533    15250    14706    14539    14847 
   15136    15253    15444    15461    15010    14693    14922    15167 
   15223    15236    15147    15006    14868    14879    15076    15151 
   15036    14947    15059    15265    15259    15114    15051    15222 
   15596    15611    15199    14935    14858    14810    14847    14966 
   15125    15140    14893    14723    14875    15078    15133    15059 
   14964    15178    15400    15084    14833    15079    15221    15048 
   14955    15233    15512    15264    14828    14775    15207    15669 
   15568    15164    14998    14991    14912    14755    14665    14766 
   14994    15144    15087    14991    15020    15103    15256    15369 
   15241    15169    15307    15245    14902    14696    14955    15426 
   15483    15130    14914    14953    15029    15059    15093    15133 
   15109    15120    15187    15030    14740    14790    15176    15499 
   15465    15094    14758    14847    15246    15376    15043    14837 
   15005    14998    14839    14989    15229    15284    15205    15134 
   15156    15021    14904    15137    15298    15195    15064    14906 
   14891    15091    15184    15052    15018    15302    15438    15138 
   14971    15068    15063    15087    15168    15033    14872    14908 
   14955    14983    15091    15183    15248    15271    15060    14786 
   14922    15419    15639    15202    14715    14895    15267    15151 
   14860    14912    15242    15286    14885    14671    14958    15318 
   15292    14976    14978    15365    15333    14760    14705    15304 
   15541    15222    14879    14827    15018    15006    14841    14966 
   15059    14899    14902    15126    15307    15272    15051    14959 
   15114    15273    15244    15148    15183    15180    15056    15165 
   15423    15314    14945    14777    14859    15014    15095    15125 
   15229    15217    14974    14820    14936    15209    15326    15105 
   14891    14844    14850    15059    15395    15457    15179    15021 
   15259    15430    15191    14960    15067    15169    14980    14763 
   14777    15007    15219    15106    14933    15025    15012    14848 
   15072    15508    15473    15114    15016    15071    15044    15044 
   14976    14885    14991    15028    14943    15187    15493    15265 
   14840    14724    14824    15071    15367    15340    14939    14689 
   15013    15506    15557    15295    15090    15043    15087    15037 
   14993    15180    15344    15244    15063    15014    15090    15048 
   14928    15044    15144    14914    14754    14926    15082    15013 
   14979    15059    15051    14989    14989    15118    15322    15298 
   15133    15167    15194    15048    15013    15124    15168    15063 
   14827    14710    14991    15338    15282    15126    15230    15250 
   15026    14959    15138    15136    14848    14696    14958    15404 
   15368    14832    14773    15273    15449    15225    15043    14966 
   14940    15060    15317    15388    15107    14862    15043    15365 
   15223    14731    14716    15358    15662    15156    14747    15017 
   15394    15221    14677    14582    15126    15468    15169    14864 
   14967    15097    15086    15095    15110    15052    14945    14990 
   15182    15252    15132    14983    15097    15398    15331    14904 
   14708    14985    15384    15404    15053    14902    15137    15304 
   15129    14863    14870    15070    15121    14960    14805    14883 
   15110    15214    15160    15176    15300    15152    14854    15122 
   15616    15299    14526    14488    15145    15437    15030    14770 
   15142    15418    15053    14640    14947    15604    15541    14879 
   14639    14975    15250    15168    15003    14999    15087    15047 
   14987    15252    15460    15260    15082    15134    15183    15060 
   14968    15076    15059    14922    15026    15172    15122    15056 
   15097    15192    15167    14963    14914    15164    15306    15182 
   15145    15175    15007    14917    15014    15034    15118    15199 
   14982    14866    15102    15211    15124    15190    15261    15061 
   14858    14936    15022    14908    14874    15105    15388    15361 
   15056    14991    15234    15268    14987    14860    15066    15145 
   14895    14793    15095    15384    15230    14943    15016    15269 
   15222    14891    14879    15333    15499    15115    14866    15010 
   15101    15016    14999    15036    15117    15222    15142    15055 
   15156    15141    15021    15032    15030    14991    15017    14971 
   14899    15006    15161    15188    15194    15229    15198    15165 
   15192    15138    14994    14987    15051    14881    14748    15053 
   15323    15219    15147    15182    15194    15180    15017    14937 
   15156    15215    14882    14712    15056    15319    15060    14836 
   15047    15290    15142    14789    14878    15412    15506    15040 
   14833    15012    15144    15153    15140    15147    15130    15060 
   15010    15072    15275    15302    15006    14879    15061    15044 
   14774    14831    15264    15373    15109    15002    15059    15124 
   15160    15160    15194    15101    14899    14974    15323    15423 
   15076    14897    15086    15049    14854    14979    15269    15321 
   14987    14624    14835    15391    15510    15201    14975    14990 
   15147    15195    15034    14964    15055    15099    15060    15044 
   15156    15229    15196    15191    14978    14667    14781    15157 
   15315    15149    14935    14970    15056    15053    15095    15095 
   15128    15223    15113    14878    14827    15114    15488    15407 
   14998    14828    14983    15225    15361    15321    15155    14951 
   14770    14719    14953    15333    15333    14924    14791    15114 
   15450    15468    15093    14791    14940    15156    15192    15175 
   15122    15094    15118    15114    14997    14922    15136    15234 
   14943    14828    15075    15219    15076    14990    15207    15383 
   15246    14949    14798    15002    15206    15098    15024    15192 
   15280    15051    14862    15036    15310    15284    14924    14733 
   15028    15236    15091    15049    15175    15228    15117    14975 
   15001    15091    15169    15179    15114    15088    14951    14932 
   15263    15329    14987    14813    14944    15068    14986    14856 
   14933    15242    15480    15337    15079    15090    15275    15336 
   15074    14810    14932    15057    14949    14925    15063    15217 
   15152    14916    14947    15195    15287    15155    15022    15101 
   15165    15009    14936    15126    15279    15152    14970    15012 
   15156    15169    15040    14943    15037    15161    15106    15048 
   15060    14953    14752    14818    15300    15587    15253    14921 
   15082    15242    15022    14887    15182    15507    15417    15063 
   14910    14999    14974    14845    14939    15153    15192    15024 
   14882    14989    15140    15211    15249    15103    14997    15084 
   15103    15114    15099    14894    14905    15402    15631    15114 
   14673    14922    15314    15322    15156    15064    15020    15016 
   15030    15076    15161    15137    14929    14685    14737    15064 
   15201    15141    15126    15149    15255    15338    15310    15298 
   15282    15202    15028    14823    14866    15094    15101    14953 
   14924    14935    14970    14986    14895    14968    15222    15307 
   15128    14893    14882    15066    15149    15064    14916    14770 
   14806    15033    15130    15152    15282    15411    15510    15427 
   15140    14960    14983    15191    15414    15379    15114    14808 
   14763    15010    15121    15030    14945    14939    14994    14943 
   14906    15080    15168    14993    14801    14899    15294    15492 
   15276    15218    15546    15765    15711    15435    14968    14613 
   14465    14482    14716    14948    14944    14774    14931    15498 
   15770    15615    15373    15182    15144    15124    15082    15178 
   15234    15005    14639    14665    15125    15265    14951    14744 
   14692    14870    15461    15789    15367    14763    14513    14677 
   15024    15169    15118    15109    15063    14871    14742    14872 
   15075    15136    15228    15408    15423    15256    15148    15241 
   15600    16027    15982    15426    14939    14797    14952    15159 
   14926    14517    14601    14816    14706    14577    14635    14967 
   15394    15408    15207    15183    14999    14647    14650    15024 
   15309    15142    14816    14968    15369    15257    14719    14656 
   15294    15674    15348    15052    15230    15400    15126    14844 
   15018    15186    15039    14898    14913    15132    15417    15377 
   14989    14662    14813    15233    15225    14805    14690    15024 
   15234    15039    14756    14679    14886    15325    15673    15758 
   15726    15531    15134    14890    15026    15195    15025    14735 
   14744    14983    15059    14990    15176    15552    15533    15121 
   14980    15217    15280    15036    14879    15032    15326    15566 
   15716    15681    15383    14941    14613    14604    14654    14366 
   14044    14280    14955    15438    15437    15142    15017    15145 
   15053    14778    14832    15153    15371    15472    15584    15510 
   15164    15026    15174    15124    14917    14764    14692    14843 
   14999    14906    14937    15222    15282    15047    14943    15043 
   15164    15230    15171    15099    15157    15194    15134    15125 
   15218    15336    15437    15537    15441    15111    14949    14920 
   14775    14796    14966    15048    15130    15147    15017    14864 
   14878    15080    14971    14607    14770    15194    15295    15354 
   15411    15318    15178    15014    15018    15129    14960    14743 
   14904    15246    15265    14887    14760    15244    15712    15643 
   15218    14874    14921    15103    14983    14766    14693    14677 
   14812    14990    15114    15408    15587    15336    15003    14962 
   15180    15192    14858    14748    15026    15165    14941    14763 
   14995    15415    15584    15381    15109    15138    15375    15381 
   15051    14729    14762    15153    15445    15256    14947    15005 
   15331    15587    15425    14889    14640    14829    14832    14636 
   14800    15323    15654    15516    15275    15209    15133    14964 
   14808    14755    14883    15082    15107    14939    14914    15225 
   15469    15358    15188    15148    15047    14894    14966    15171 
   15102    14779    14652    14906    15279    15368    15037    14623 
   14665    15225    15576    15282    14944    14995    15161    15172 
   15014    14886    14897    14955    15026    15201    15433    15376 
   14964    14806    15111    15260    15117    15178    15381    15367 
   15248    15094    14975    15121    15137    14832    14797    14956 
   14910    14970    15295    15417    15053    14760    14972    15167 
   15036    14920    14910    15018    15199    15053    14732    14859 
   15228    15284    15180    15256    15375    15225    14995    15060 
   15280    15411    15437    15344    15184    15097    15084    15045 
   14926    14758    14673    14742    14766    14856    15277    15484 
   15168    15017    15159    15210    15294    15264    14886    14744 
   15132    15373    15086    14759    14785    14945    15196    15514 
   15496    15311    15313    15298    15242    15198    15117    15094 
   14929    14605    14604    14974    15188    15051    14947    15098 
   15203    15070    14967    15048    15183    15357    15408    15174 
   14971    15006    15118    15156    15028    14828    14728    14727 
   14775    14889    15097    15295    15296    15171    15067    14995 
   15063    15157    15079    15067    15163    15223    15223    15078 
   15044    15192    15122    14824    14650    14793    15037    15132 
   15155    15215    15453    15589    15180    14775    14937    15183 
   15151    15032    14951    14947    15053    15155    15172    15214 
   15213    15061    15030    15256    15299    15033    14948    15076 
   15109    15075    15091    15179    15257    15261    15225    15161 
   15075    14968    14978    15118    15142    15061    15005    15060 
   15232    15242    15082    14980    14985    15036    15047    15151 
   15340    15211    14848    14791    15026    15180    15133    15041 
   15006    14914    14852    14924    15009    15121    15128    14941 
   14890    15036    15098    15163    15417    15508    15219    14983 
   15070    15304    15381    15132    14982    15242    15398    15098 
   14794    14863    15032    14975    14856    14931    15132    15215 
   15111    15045    15093    15117    15086    15006    15044    15214 
