Origin Time       2025/03/28 03:50:00
Lat.              35.403
Long.             140.360
Depth. (km)       54
Mag.              4.4
Station Code      TKY015
Station Lat.      35.7313
Station Long.     139.8119
Station Height(m) 4
Record Time       2025/03/28 03:51:02
Sampling Freq(Hz) 100Hz
Duration Time(s)  60
Dir.              N-S
Scale Factor      7845(gal)/8223790
Max. Acc. (gal)   2.545
Last Correction   2025/03/28 03:51:01
Memo.             
[...]
    1178     1107     1008     1077     1119     1044     1036     1067 
    1053     1065     1080     1073     1089     1088     1066     1067 
    1046     1031     1098     1134     1054     1008     1063     1127 
    1117     1065     1085     1138     1088     1026     1061     1088 
    1088     1140     1154     1075     1013     1030     1054     1038 
    1055     1119     1143     1109     1073     1071     1050     1011 
    1030     1070     1098     1120     1081     1073     1113     1077 
    1061     1111     1097     1074     1069     1050     1090     1124 
    1100     1074     1044     1050     1058     1026     1055     1113 
    1100     1101     1121     1071     1042     1081     1069     1019 
    1042     1111     1138     1108     1071     1043     1021     1039 
    1075     1089     1107     1108     1051     1020     1075     1112 
    1081     1063     1084     1081     1063     1090     1113     1077 
    1057     1089     1104     1092     1086     1062     1032     1055 
    1100     1098     1071     1062     1057     1051     1070     1085 
    1090     1111     1098     1043     1026     1070     1104     1088 
    1073     1078     1080     1086     1071     1042     1063     1078 
    1071     1112     1125     1093     1098     1092     1040     1042 
    1092     1085     1051     1080     1111     1098     1101     1100 
    1058     1042     1062     1061     1043     1066     1096     1061 
    1027     1053     1077     1093     1108     1069     1012     1027 
    1073     1070     1069     1101     1092     1065     1074     1067 
    1053     1077     1084     1046     1043     1080     1089     1090 
    1089     1053     1036     1070     1088     1080     1081     1066 
    1053     1085     1090     1040     1046     1121     1116     1028 
    1044     1131     1104     1053     1097     1120     1075     1062 
    1062     1026     1046     1117     1097     1035     1050     1071 
    1057     1067     1080     1088     1117     1096     1038     1053 
    1113     1100     1027     1043     1109     1097     1101     1132 
    1073     1034     1077     1058     1036     1116     1132     1038 
    1034     1117     1097     1026     1061     1112     1078     1065 
    1086     1061     1054     1092     1066     1015     1046     1111 
    1097     1032     1063     1136     1102     1047     1059     1074 
    1063     1039     1055     1115     1125     1097     1093     1085 
    1058     1034     1039     1080     1105     1112     1121     1105 
    1063     1050     1070     1080     1075     1069     1057     1053 
    1075     1093     1108     1147     1097      985     1023     1120 
    1090     1062     1096     1092     1085     1094     1090     1093 
    1082     1047     1044     1090     1120     1088     1058     1067 
    1075     1077     1082     1074     1050     1046     1078     1097 
    1092     1094     1086     1055     1054     1089     1092     1069 
    1075     1090     1071     1073     1108     1096     1054     1058 
    1075     1062     1062     1096     1107     1066     1046     1090 
    1116     1081     1062     1078     1084     1078     1075     1075 
    1086     1096     1088     1075     1081     1084     1059     1050 
    1078     1100     1088     1084     1090     1065     1042     1081 
    1111     1063     1048     1094     1086     1039     1035     1058 
    1074     1061     1028     1040     1066     1050     1030     1047 
    1100     1147     1138     1090     1057     1044     1059     1069 
    1034     1030     1090     1102     1051     1036     1070     1093 
    1098     1098     1090     1075     1044     1040     1105     1159 
    1104     1001      959      973     1036     1166     1219     1097 
     984     1030     1109     1125     1146     1136     1028      974 
    1057     1143     1192     1163     1001      905      994     1073 
    1057     1055     1071     1061     1070     1119     1132     1109 
    1107     1094     1061     1096     1178     1161     1051     1016 
    1080     1102     1024      922      884      967     1123     1210 
    1210     1151     1047      973      974     1020     1085     1171 
    1269     1304     1209     1066     1011      997      950      950 
    1011     1062     1107     1134     1093     1017      976      981 
    1032     1128     1216     1200     1096     1096     1266     1352 
    1175      922      834      918     1040     1144     1246     1264 
    1098      869      824      928      986      994     1021     1067 
    1115     1186     1258     1224     1075      954      978     1097 
    1186     1206     1161     1071     1003      978      969     1008 
    1105     1150     1113     1050      972      967     1088     1148 
    1107     1135     1220     1189     1104     1150     1227     1173 
    1147     1242     1208      931      679      683      866     1024 
    1057     1042     1050     1027      986     1081     1286     1339 
    1206     1139     1156     1125     1119     1166     1131     1026 
     961      945      951      931      847      827      954     1094 
    1165     1170     1073      945      950     1085     1223     1340 
    1386     1247     1001      907      997     1027      928      926 
    1047     1111     1113     1136     1127     1077     1039     1007 
    1008     1107     1223     1200     1073     1027     1093     1159 
    1155     1140     1243     1325     1169      957      959     1043 
    1020      962      945      913      907     1013     1129     1151 
    1136     1077      955      940     1134     1312     1266     1140 
    1132     1169     1094      928      847      957     1124     1189 
    1216     1258     1135      837      695      864     1096     1189 
    1175     1115     1090     1178     1242     1200     1202     1248 
    1165     1003      942      970     1001     1020      965      859 
     891      990      963      915      978     1035     1055     1171 
    1312     1301     1219     1210     1201     1146     1139     1117 
     938      751      764      907     1053     1140     1123     1086 
    1081     1003      928     1035     1233     1301     1204     1108 
    1169     1316     1317     1147     1034     1082     1202     1277 
    1254     1155     1019      870      797      885     1034     1055 
     963      945     1073     1215     1243     1231     1279     1320 
    1237     1058      966     1044     1071      905      765      869 
    1105     1200     1096      970      954      993      928      814 
     880     1057     1053      939      997     1174     1259     1263 
    1223     1175     1306     1528     1532     1341     1158      972 
     729      523      491      631      843     1055     1258     1394 
    1359     1132      859      800     1035     1321     1448     1467 
    1440     1347     1148      901      793      884     1036     1144 
    1206     1273     1278     1108      847      706      704      783 
     958     1127     1162     1143     1139     1136     1165     1232 
    1263     1225     1166     1139     1162     1163     1071      908 
     741      639      622      681      869     1115     1264     1316 
    1370     1433     1462     1493     1516     1410     1236     1134 
     985      673      396      365      540      808     1027     1080 
    1105     1248     1331     1204     1093     1135     1156     1123 
    1119     1101     1119     1237     1270     1125     1042     1062 
     997      920      969     1012      957      974     1142     1296 
    1316     1232     1148     1139     1131     1053     1013     1071 
    1081      955      839      857      930      984     1047     1086 
    1050      981      922      895      940     1004     1042     1115 
    1179     1127     1011     1017     1192     1410     1549     1476 
    1240     1086     1039     1085     1250     1350     1308     1200 
    1061      923      789      706      730      827      977     1148 
    1255     1270     1224     1156     1081     1054     1134     1233 
    1243     1166     1116     1093      969      781      637      581 
     683      872     1104     1381     1512     1444     1375     1371 
    1271     1036      876      816      753      787      927     1024 
    1015      978      967      942      961     1055     1042      935 
     924     1003     1156     1363     1472     1421     1296     1152 
     988      865      835      799      753      787      876      981 
    1134     1298     1367     1356     1372     1420     1497     1597 
    1587     1437     1259     1086      955      886      810      746 
     758      851      993     1098     1136     1138     1098     1027 
     919      804      861     1125     1340     1391     1372     1282 
    1140     1053      976      889      895      977     1034     1047 
    1035     1019     1024     1027      967      885      918     1032 
    1023      931      996     1129     1131     1121     1138     1047 
     949      959      950      905      957      988      923      916 
     932      922     1026     1200     1304     1362     1348     1224 
    1183     1335     1436     1335     1210     1134      992      835 
     810      916     1034     1086     1127     1210     1289     1287 
    1198     1100     1070     1102     1084      965      873      932 
    1067     1109     1065     1093     1178     1152     1039     1009 
    1019      988     1073     1212     1225     1231     1213     1107 
    1046      966      865      908     1007     1011      935      920 
     997     1012     1043     1105     1047     1081     1289     1372 
    1308     1267     1200     1031      893      889     1004     1093 
    1044     1058     1155     1111      953      774      764      951 
    1061     1143     1224     1138     1067     1092     1167     1314 
    1401     1412     1386     1332     1279     1074      828      778 
     727      669      741      823      886      918      985     1169 
    1317     1412     1379     1161     1027      958      834      869 
    1062     1165     1196     1305     1314     1147     1098     1105 
    1019      999     1027     1054     1151     1266     1262     1094 
     922      859      901     1032     1092     1024     1011     1093 
    1192     1269     1287     1198     1007      884      923      946 
     891      886      967     1070     1181     1258     1210     1084 
     993      988     1055     1120     1188     1301     1367     1281 
    1089      978     1012     1044     1046     1075     1089     1085 
    1063     1021     1080     1186     1162     1142     1287     1371 
    1228     1026      915      923      938      843      783      885 
    1062     1231     1293     1165      993      924      908      923 
    1020     1193     1354     1386     1316     1258     1192     1059 
     862      710      718      703      545      459      545      684 
     812      985     1205     1399     1597     1742     1692     1537 
    1399     1248     1086      949      899     1005     1125     1046 
     922      962      963      847      862      970     1030     1154 
    1327     1443     1471     1306      985      820      865      816 
     753      939     1116     1096     1107     1148     1100     1159 
    1275     1107      870      862      884      884      893      981 
    1286     1421     1277     1246     1231     1105     1017     1102 
    1254     1221     1235     1404     1491     1420     1244     1185 
    1237     1177     1053     1020     1069     1073     1119     1171 
    1023      957     1065     1080     1024      869      800      928 
     908      799      750      745      864     1005     1109     1188 
    1098      839      629      567      571      557      492      530 
     758      888      824      805      862      913     1000     1162 
    1413     1568     1483     1381     1343     1224     1181     1254 
    1291     1385     1471     1432     1493     1647     1628     1533 
    1394     1204     1258     1356     1250     1227     1256     1216 
    1287     1437     1520     1669     1985     2047     1672     1545 
    1783     1630     1216     1093     1000      548      -28     -267 
    -375     -691     -745     -349      -13      248      656      977 
    1208     1605     1910     1857     1647     1448     1248      963 
     675      562      514      438      349      301      480      668 
     603      606      973     1359     1385     1327     1364     1362 
    1189      756      484      591      757     1186     1748     1900 
    2111     2542     2629     2408     2097     1829     1494      942 
     710      780      546      504      962     1135     1121     1576 
    2052     2019     1775     1528     1221      967      907      930 
     907     1047     1309     1320     1182     1042      764      268 
    -373     -727     -502      -64      182      452     1100     1830 
    2323     2589     2600     2498     2273     1818     1285      726 
     326      226      155      156      465      768      729      646 
     687      517      436      939     1559     1767     1755     1829 
    1779     1304      807      780     1050     1260     1279     1127 
     899      684      500      297      178      255      263       90 
      78      307      500      598      797     1437     2529     3343 
    3576     3720     3743     3234     2342     1583     1092      495 
    -113     -272     -306     -587     -747     -672     -564     -340 
     126      801     1456     1965     2675     3171     2459     1453 
    1521     1621      766      130      438      675      253       10 
     375      629      677      955     1282     1776     2311     2238 
    2011     2108     1890      918       48      446     1418     1555 
    1066      855     1228     1644     1236      361      629     1980 
    2249     1630     2026     2641     2033      699       28      270 
     259      -17       21      220      542      839     1101     1308 
    1251     1196     1027      614      604     1069     1256      935 
     745      920      973      823      670      650      654      658 
     905      999      831      931     1210     1266      893      641 
     985     1227     1105      947      766      780      978     1248 
    1698     2160     2509     2582     2243     1896     1676     1279 
     831      511      244      164      302      345      283      486 
    1031     1582     1937     2201     2409     2589     2728     2470 
    1944     1777     1730     1194      487      178       78     -240 
    -521     -349       45      298      427      665     1035     1302 
    1343     1255     1140      959      666      353       95      -74 
     -58      203      693     1314     1894     2308     2544     2663 
    2627     2351     2034     1911     1796     1482     1216     1255 
    1367     1309     1325     1344      923      461      452      346 
     -76     -114      298      502      600      962     1147     1028 
    1227     1595     1507     1271     1243     1109     1003     1129 
    1146     1132     1259     1108      811      895      990      685 
     461      587      560      199      -49     -157     -234      -33 
     294      571      955     1277     1518     1954     2317     2315 
    2286     2370     2080     1552     1568     2008     2122     1709 
    1304     1358     1350      812      402      618      604      -78 
    -149      492      345      -29      513      922      703      851 
    1404     1957     2466     2362     1899     2070     2025     1024 
     430      700      854      656      704     1281     1510     1024 
     839      943      843      982     1200     1156     1286     1617 
    1518     1004      820      889      843     1097     1413     1313 
    1167     1005      633      463      596      637      731     1131 
    1451     1420     1296     1239     1177     1142     1167     1090 
    1009     1193     1426     1406     1283     1397     1582     1436 
    1316     1424     1277      990      908      841      583      249 
     145      174      141      252      587     1003     1221     1304 
    1518     1621     1613     1713     1622     1282      958      737 
     729      784      679      762     1089     1124      953     1050 
    1320     1429     1467     1628     1688     1501     1250      942 
     496      210      279      398      417      467      568      858 
    1274     1378     1350     1571     1698     1574     1516     1456 
    1269     1166     1175     1009      639      490      588      425 
     152      279      645      911      957      869      961     1243 
    1341     1225     1263     1472     1563     1536     1459     1395 
    1389     1333     1431     1701     1755     1719     1904     2088 
    1876     1495     1458     1513     1318     1123     1070      972 
     639      297      294      434      421      411      618      843 
     915     1231     1850     2031     1617     1441     1880     2262 
    1877      905      310      392      311     -180     -376        8 
     330      -32     -197      734     1462      986      612     1232 
    1541      664       39      549     1170     1171      864     1260 
    2388     2382     1232     1109     1957     2126     1424      837 
     949     1209      946      645     1051     1649     1734     1692 
    1814     1813     1491      854      345      313      498      693 
     770      650      654      905     1121     1243     1512     1918 
    1948     1575     1420     1312      824      437      513      772 
     870      546      198      487      907      733      510     1027 
    1701     1486      908     1009     1448     1485      974      380 
     579     1425     1773     1451     1333     1809     2219     2011 
    1674     1718     1919     1713     1023      754     1229     1345 
     681      302      718      999      789      803      924      870 
     958      842      507      567      564      225      251      623 
     776      657      634      826      911      940     1216     1534 
    1625     1510     1424     1626     1788     1387      801      656 
     741      591      448      653      811      733      784     1011 
    1104      999     1188     1784     2133     1950     1599     1599 
    1678     1139      675      989     1144      699      364      503 
     994     1274      963      742     1086     1485     1479     1262 
    1124      927      832     1174     1437     1316     1189     1116 
    1094     1246     1352     1232     1090     1107     1244     1290 
     958      588      854     1378     1247      561      265      720 
    1073      703      441      934     1416     1368     1231     1318 
    1456     1337     1205     1321     1223      923     1043     1347 
     915        6      309     1802     2276     1256      438      803 
    1340      730      -44      602     1779     1777      967      843 
    1364     1428      766      303     1031     2049     1900     1147 
     731      589      664      996     1468     1734     1506     1269 
    1399     1377     1131     1247     1444     1217     1174     1447 
