Origin Time       2025/03/28 03:50:00
Lat.              35.403
Long.             140.360
Depth. (km)       54
Mag.              4.4
Station Code      TKY023
Station Lat.      35.7259
Station Long.     139.8254
Station Height(m) 0
Record Time       2025/03/28 03:51:02
Sampling Freq(Hz) 100Hz
Duration Time(s)  60
Dir.              N-S
Scale Factor      7845(gal)/8223790
Max. Acc. (gal)   2.630
Last Correction   2025/03/28 03:51:02
Memo.             
[...]
    8351     8340     8316     8314     8341     8349     8338     8334 
    8324     8324     8352     8370     8348     8317     8313     8338 
    8364     8375     8372     8353     8338     8338     8337     8329 
    8326     8333     8348     8353     8344     8343     8340     8334 
    8333     8328     8332     8347     8359     8359     8322     8280 
    8302     8348     8348     8336     8332     8316     8305     8316 
    8336     8344     8332     8337     8363     8356     8321     8313 
    8336     8359     8386     8417     8391     8309     8270     8298 
    8322     8340     8375     8379     8345     8322     8337     8365 
    8347     8303     8324     8367     8344     8299     8320     8380 
    8387     8341     8328     8340     8325     8306     8306     8324 
    8352     8365     8351     8326     8317     8314     8316     8314 
    8310     8330     8361     8356     8340     8337     8318     8306 
    8338     8363     8357     8355     8353     8357     8374     8361 
    8328     8326     8351     8376     8383     8353     8318     8318 
    8343     8352     8351     8347     8314     8279     8293     8338 
    8365     8359     8347     8365     8386     8349     8289     8271 
    8287     8317     8353     8374     8359     8325     8306     8320 
    8337     8333     8328     8341     8355     8361     8382     8392 
    8374     8351     8349     8356     8348     8345     8371     8402 
    8387     8336     8314     8326     8344     8374     8383     8344 
    8303     8302     8317     8322     8332     8353     8353     8316 
    8282     8299     8347     8365     8353     8334     8305     8279 
    8297     8357     8398     8372     8333     8341     8360     8360 
    8348     8332     8338     8367     8382     8357     8298     8276 
    8332     8384     8380     8351     8332     8340     8351     8340 
    8332     8333     8322     8325     8347     8349     8332     8314 
    8310     8329     8348     8336     8307     8293     8305     8341 
    8375     8376     8348     8324     8330     8353     8357     8345 
    8336     8334     8343     8359     8371     8351     8316     8309 
    8333     8356     8353     8337     8337     8344     8353     8376 
    8380     8349     8322     8326     8341     8334     8322     8326 
    8325     8325     8344     8343     8306     8280     8293     8337 
    8384     8402     8379     8351     8353     8380     8394     8371 
    8332     8322     8341     8341     8321     8299     8276     8278 
    8322     8380     8398     8353     8290     8279     8345     8413 
    8398     8330     8274     8253     8287     8341     8370     8386 
    8390     8355     8294     8252     8257     8310     8383     8441 
    8456     8414     8340     8293     8299     8341     8395     8421 
    8372     8275     8225     8253     8302     8324     8311     8291 
    8311     8382     8428     8399     8359     8360     8384     8395 
    8360     8305     8297     8348     8399     8394     8344     8278 
    8193     8131     8185     8351     8492     8494     8382     8321 
    8364     8388     8356     8340     8363     8402     8406     8345 
    8282     8251     8213     8171     8179     8226     8271     8320 
    8401     8507     8564     8505     8407     8341     8301     8306 
    8329     8287     8259     8349     8440     8405     8309     8235 
    8221     8278     8337     8364     8405     8410     8344     8311 
    8356     8409     8429     8390     8314     8328     8407     8402 
    8351     8341     8305     8245     8279     8382     8419     8347 
    8280     8347     8429     8386     8330     8321     8262     8183 
    8175     8243     8395     8569     8606     8513     8398     8290 
    8236     8286     8347     8359     8386     8383     8252     8093 
    8127     8376     8571     8505     8321     8226     8260     8318 
    8309     8253     8212     8226     8359     8553     8626     8521 
    8392     8374     8351     8206     8071     8081     8135     8124 
    8136     8294     8494     8491     8347     8345     8518     8626 
    8522     8386     8425     8499     8441     8301     8132     8014 
    8075     8208     8232     8202     8251     8371     8488     8499 
    8347     8225     8306     8401     8371     8332     8333     8394 
    8515     8629     8676     8594     8411     8257     8160     8090 
    8100     8228     8322     8302     8352     8476     8514     8521 
    8480     8314     8229     8306     8301     8202     8163     8198 
    8337     8526     8584     8511     8425     8356     8263     8151 
    8118     8170     8181     8178     8314     8488     8457     8321 
    8298     8421     8658     8806     8668     8380     8120     8014 
    8137     8302     8310     8199     8116     8175     8299     8344 
    8390     8514     8550     8407     8228     8148     8172     8266 
    8329     8248     8232     8428     8527     8475     8491     8506 
    8473     8367     8075     7870     8033     8356     8469     8271 
    8097     8282     8586     8604     8479     8488     8536     8576 
    8673     8679     8530     8434     8451     8446     8352     8112 
    7919     8074     8355     8467     8507     8526     8451     8210 
    7938     7994     8324     8441     8282     8235     8491     8780 
    8725     8390     8127     8005     7966     8055     8171     8139 
    8073     8209     8419     8457     8417     8407     8415     8382 
    8203     8101     8328     8641     8739     8568     8324     8257 
    8233     8183     8316     8437     8316     8228     8356     8418 
    8129     7732     7672     7982     8545     9026     8997     8754 
    8622     8441     8303     8328     8432     8637     8876     8874 
    8382     7622     7398     8162     9130     9117     8218     7570 
    7798     8487     8806     8559     8266     8160     8106     8135 
    8276     8318     8235     8343     8599     8648     8542     8419 
    8121     7732     7657     8094     8770     8993     8491     8029 
    8191     8518     8419     8041     7834     7865     8091     8506 
    8802     8737     8446     8202     8284     8613     8683     8428 
    8199     8082     8168     8392     8298     8140     8463     8698 
    8361     8060     8109     8370     8730     8824     8619     8430 
    8286     8229     8230     8247     8432     8457     8164     8116 
    8291     8270     8208     8257     8294     8294     8321     8318 
    8259     8268     8368     8571     8860     8827     8411     8236 
    8326     8222     8176     8368     8345     8006     7758     7958 
    8388     8451     8141     7897     7892     8083     8311     8487 
    8587     8436     8214     8390     8824     9020     8827     8490 
    8490     8811     8696     8090     7812     8010     8226     8316 
    8484     8912     9142     8634     7951     7902     8290     8521 
    8407     8024     7693     7774     8149     8518     8640     8361 
    7990     7989     8324     8579     8561     8580     8754     8621 
    8086     7684     7739     8162     8545     8603     8596     8699 
    8677     8513     8472     8586     8514     8171     7931     8001 
    8260     8465     8468     8441     8514     8459     8151     7901 
    8050     8321     8194     7828     7808     8160     8359     8297 
    8402     8681     8800     8708     8569     8507     8425     8275 
    8216     8193     8136     8236     8515     8695     8615     8436 
    8355     8356     8430     8592     8615     8460     8467     8642 
    8706     8608     8375     8044     7807     7798     7973     8105 
    8004     7905     8091     8332     8415     8480     8569     8652 
    8765     8911     9027     8945     8600     8216     7929     7709 
    7605     7631     7692     7804     8008     8236     8456     8595 
    8564     8500     8576     8718     8802     8789     8661     8438 
    8209     8097     8118     8186     8225     8186     8109     8097 
    8162     8266     8270     8093     7950     8008     8151     8280 
    8448     8677     8845     8861     8864     8831     8592     8328 
    8290     8343     8255     8095     8116     8305     8363     8222 
    8102     8102     8253     8572     8808     8718     8451     8320 
    8471     8718     8702     8409     8129     8012     8020     8032 
    7948     7861     7900     8074     8347     8610     8699     8676 
    8694     8631     8465     8451     8576     8650     8630     8495 
    8309     8183     8141     8167     8118     7861     7618     7713 
    8052     8333     8398     8259     8233     8518     8748     8679 
    8518     8410     8340     8378     8529     8590     8445     8214 
    8040     7998     8079     8141     8160     8209     8270     8344 
    8419     8467     8595     8779     8814     8706     8602     8534 
    8418     8220     8048     7973     7915     7875     7939     8108 
    8310     8491     8671     8833     8876     8773     8521     8290 
    8351     8523     8532     8505     8526     8476     8325     8237 
    8263     8104     7767     7740     8066     8326     8405     8469 
    8461     8267     8151     8232     8187     8077     8213     8328 
    8097     7784     7805     8155     8479     8648     8781     8839 
    8830     8866     8851     8613     8241     8028     8113     8349 
    8459     8301     8052     7952     8044     8282     8556     8710 
    8656     8522     8527     8550     8384     8190     8113     8121 
    8271     8472     8561     8595     8599     8621     8757     8765 
    8428     8124     8174     8214     8010     7911     8062     8199 
    8176     8174     8374     8521     8334     8109     8162     8326 
    8409     8410     8324     8160     7973     7857     7923     8102 
    8251     8338     8307     8230     8344     8583     8695     8657 
    8615     8606     8491     8264     8189     8298     8243     8013 
    7974     8135     8267     8334     8390     8456     8503     8565 
    8702     8672     8357     8124     8116     8066     7955     8077 
    8405     8475     8206     8163     8572     8955     8982     8761 
    8476     8325     8392     8444     8297     8127     8124     8154 
    8073     8081     8336     8634     8784     8833     8824     8714 
    8527     8392     8313     8314     8517     8757     8730     8494 
    8372     8472     8503     8243     7938     7898     8008     8051 
    8136     8289     8247     8044     8036     8291     8445     8245 
    8017     8046     8170     8371     8657     8691     8276     7704 
    7470     7707     7982     7938     7693     7514     7485     7620 
    7985     8473     8820     8899     8739     8567     8594     8631 
    8445     8168     8037     8136     8337     8480     8608     8746 
    8829     8861     8810     8750     8984     9514     9737     9296 
    8837     8831     8827     8644     8533     8486     8426     8351 
    8386     8604     8761     8750     8707     8549     8213     7851 
    7616     7588     7647     7650     7751     8032     8317     8442 
    8376     8356     8515     8673     8781     8753     8429     8051 
    7924     7955     7821     7368     6859     6770     7234     7815 
    8029     7900     7750     7769     7942     8168     8274     8154 
    8035     8203     8500     8567     8476     8521     8694     8768 
    8580     8224     7944     7855     7925     8074     8278     8623 
    9088     9494     9672     9601     9344     8972     8590     8320 
    8280     8422     8527     8523     8413     8210     8113     8237 
    8380     8411     8603     9205     9930    10374    10531    10484 
   10126     9452     8699     8043     7442     6966     6791     6886 
    7118     7385     7485     7338     7149     7086     7125     7271 
    7569     7923     8205     8505     8878     9121     9151     9096 
    8924     8644     8432     8372     8421     8460     8499     8668 
    8858     8743     8228     7535     6868     6336     6054     6049 
    6288     6754     7396     8149     8943     9667    10149    10316 
   10262    10068     9799     9555     9313     9018     8726     8467 
    8290     8190     7998     7786     7759     7859     7958     8002 
    7996     7981     8021     8155     8348     8617     8932     9207 
    9447     9622     9602     9269     8610     7813     7145     6772 
    6759     7084     7688     8446     9086     9450     9649     9730 
    9580     9111     8351     7483     6743     6366     6457     6810 
    7140     7275     7233     7203     7302     7520     7855     8310 
    8829     9350     9833    10179    10332    10342    10246    10107 
    9883     9413     8770     8175     7682     7271     6983     6910 
    7128     7609     8226     8770     9030     8931     8625     8364 
    8220     8059     7803     7496     7279     7311     7631     8149 
    8721     9147     9269     9216     9315     9571     9698     9597 
    9339     8995     8564     8031     7461     6916     6475     6265 
    6250     6347     6569     6987     7585     8203     8708     9119 
    9528     9899    10118    10206    10200    10019     9601     9027 
    8452     7939     7484     7123     6847     6582     6370     6303 
    6411     6716     7219     7842     8507     9216     9888    10390 
   10747    10991    11083    11032    10818    10415     9799     8968 
    8047     7190     6424     5826     5582     5722     6169     6878 
    7684     8455     9178     9733     9961     9846     9516     9100 
    8661     8244     7915     7669     7362     7005     6793     6744 
    6837     7096     7481     7981     8509     8918     9189     9385 
    9521     9560     9551     9443     9198     9008     8899     8866 
    8945     8912     8699     8392     8037     7749     7560     7468 
    7457     7485     7597     7798     8062     8344     8587     8826 
    9089     9335     9504     9501     9256     8792     8213     7666 
    7256     7002     6845     6764     6806     6984     7236     7534 
    7866     8224     8634     9040     9369     9621     9765     9809 
    9794     9644     9319     8872     8343     7840     7527     7407 
    7335     7264     7258     7341     7485     7690     7917     8093 
    8212     8363     8610     8861     8970     8892     8677     8413 
    8143     7911     7823     7919     8102     8267     8433     8662 
    8857     8939     9011     9078     9085     9050     8986     8935 
    8920     8920     8935     8904     8789     8638     8473     8294 
    8114     7970     7857     7739     7639     7587     7601     7711 
    7898     8132     8361     8546     8667     8727     8727     8618 
    8399     8139     7900     7763     7699     7682     7815     8051 
    8302     8556     8716     8764     8776     8764     8698     8625 
    8627     8710     8792     8779     8627     8344     7965     7587 
    7307     7133     7067     7146     7380     7708     8073     8487 
    8941     9340     9605     9730     9744     9667     9472     9105 
    8641     8299     8191     8244     8326     8343     8293     8237 
    8213     8181     8085     8006     8056     8236     8487     8716 
    8846     8862     8818     8770     8692     8541     8328     8087 
    7881     7709     7538     7410     7349     7334     7372     7441 
    7518     7618     7744     7871     7994     8132     8259     8352 
    8413     8429     8388     8267     8089     7966     7904     7844 
    7834     7893     7987     8083     8160     8210     8287     8492 
    8792     9063     9240     9281     9212     9099     8981     8922 
    8950     9054     9174     9207     9097     8874     8648     8487 
    8347     8212     8098     8005     7989     8082     8245     8465 
    8775     9162     9540     9792     9852     9745     9551     9321 
    9072     8780     8421     8021     7659     7410     7290     7246 
    7194     7087     7017     7109     7304     7470     7593     7709 
    7819     7943     8105     8272     8398     8473     8479     8403 
    8291     8206     8160     8081     7889     7650     7511     7516 
    7603     7712     7851     8039     8244     8457     8641     8730 
    8758     8829     8992     9236     9502     9703     9748     9595 
    9293     8931     8613     8351     8064     7767     7588     7581 
    7682     7865     8216     8676     8993     9032     8880     8656 
    8399     8151     7990     7977     8073     8183     8336     8569 
    8756     8841     8810     8599     8326     8131     8010     7920 
    7850     7847     7916     8005     8056     8027     7956     7925 
    7975     8098     8228     8316     8353     8359     8380     8455 
    8530     8519     8478     8532     8661     8766     8814     8806 
    8752     8652     8515     8382     8259     8152     8127     8221 
    8378     8514     8591     8615     8564     8434     8305     8248 
    8271     8298     8253     8167     8075     7952     7809     7699 
    7650     7662     7742     7866     8004     8166     8395     8712 
    9039     9215     9178     9001     8775     8553     8367     8233 
    8171     8143     8095     8054     8070     8137     8240     8378 
    8540     8698     8827     8928     8976     8935     8808     8588 
    8318     8098     7908     7697     7545     7504     7542     7622 
    7759     8014     8378     8765     9107     9373     9518     9468 
    9231     8922     8627     8337     8028     7740     7506     7337 
    7285     7348     7469     7630     7846     8102     8325     8445 
    8496     8523     8510     8444     8310     8118     7920     7821 
    7898     8059     8208     8382     8583     8756     8876     8934 
    8931     8858     8733     8619     8557     8544     8536     8525 
    8569     8679     8783     8819     8777     8696     8596     8494 
    8441     8445     8468     8498     8533     8571     8638     8745 
    8842     8883     8849     8752     8626     8499     8379     8263 
    8121     7931     7711     7514     7398     7362     7362     7395 
    7495     7649     7786     7869     7939     8039     8147     8241 
    8316     8348     8348     8348     8337     8271     8181     8148 
    8183     8230     8271     8328     8417     8521     8627     8723 
    8776     8799     8822     8850     8918     9011     9058     9045 
    9011     8981     8964     8938     8861     8735     8590     8425 
    8232     8032     7842     7677     7568     7519     7546     7649 
    7778     7927     8081     8176     8229     8328     8465     8588 
    8644     8595     8452     8243     8008     7767     7523     7331 
    7303     7474     7796     8193     8554     8819     9023     9201 
    9356     9432     9386     9261     9090     8893     8706     8540 
    8394     8271     8176     8113     8071     8041     8021     8012 
    8027     8091     8183     8253     8293     8306     8264     8206 
    8222     8318     8442     8556     8600     8526     8379     8252 
    8183     8156     8147     8137     8132     8154     8222     8349 
    8510     8660     8766     8793     8704     8548     8415     8314 
    8225     8159     8109     8074     8087     8156     8237     8307 
