Origin Time       2025/03/28 03:50:00
Lat.              35.403
Long.             140.360
Depth. (km)       54
Mag.              4.4
Station Code      TKY023
Station Lat.      35.7259
Station Long.     139.8254
Station Height(m) 0
Record Time       2025/03/28 03:51:02
Sampling Freq(Hz) 100Hz
Duration Time(s)  60
Dir.              U-D
Scale Factor      7845(gal)/8223790
Max. Acc. (gal)   1.702
Last Correction   2025/03/28 03:51:02
Memo.             
    5863     5861     5861     5864     5873     5890     5895     5886 
    5869     5853     5837     5834     5844     5857     5869     5873 
    5869     5861     5863     5868     5872     5883     5896     5904 
    5891     5868     5854     5854     5860     5872     5888     5906 
    5904     5887     5872     5864     5857     5857     5864     5868 
    5859     5842     5834     5837     5853     5872     5881     5875 
    5853     5837     5830     5837     5867     5899     5907     5892 
    5871     5856     5856     5871     5884     5895     5898     5881 
    5861     5860     5869     5880     5886     5884     5879     5871 
    5861     5856     5859     5872     5886     5883     5869     5854 
    5846     5852     5864     5872     5868     5854     5844     5844 
    5854     5865     5873     5875     5873     5868     5863     5864 
    5869     5873     5871     5867     5863     5867     5881     5892 
    5900     5902     5891     5879     5871     5863     5860     5863 
    5861     5860     5864     5869     5876     5886     5890     5879 
    5859     5841     5838     5849     5868     5886     5886     5869 
    5861     5865     5877     5883     5872     5856     5850     5854 
    5865     5880     5891     5892     5887     5875     5865     5867 
    5876     5881     5883     5886     5877     5859     5853     5859 
    5863     5871     5875     5859     5834     5825     5834     5854 
    5872     5880     5877     5864     5854     5856     5863     5872 
    5881     5887     5881     5868     5859     5865     5881     5886 
    5876     5871     5873     5877     5877     5877     5881     5886 
    5875     5850     5832     5834     5860     5887     5892     5877 
    5867     5865     5861     5857     5863     5875     5881     5876 
    5856     5834     5834     5857     5880     5884     5868     5857 
    5867     5884     5898     5902     5887     5873     5876     5879 
    5868     5860     5867     5881     5877     5853     5836     5844 
    5869     5888     5888     5871     5848     5845     5867     5888 
    5894     5892     5890     5879     5859     5844     5845     5857 
    5869     5872     5867     5860     5864     5876     5886     5890 
    5891     5890     5887     5886     5881     5880     5879     5879 
    5875     5863     5853     5856     5867     5872     5864     5853 
    5848     5849     5857     5869     5881     5891     5883     5864 
    5852     5853     5863     5876     5886     5873     5846     5837 
    5846     5856     5873     5891     5896     5886     5863     5846 
    5860     5891     5913     5917     5911     5892     5872     5869 
    5877     5891     5906     5895     5867     5844     5833     5842 
    5864     5876     5877     5877     5857     5833     5837     5868 
    5891     5890     5877     5863     5842     5830     5836     5845 
    5867     5891     5879     5837     5821     5852     5886     5884 
    5876     5917     5964     5946     5886     5854     5873     5910 
    5914     5884     5846     5822     5819     5844     5879     5891 
    5876     5864     5860     5845     5827     5833     5863     5898 
    5923     5919     5883     5841     5817     5821     5856     5898 
    5914     5887     5838     5815     5830     5845     5853     5872 
    5892     5896     5883     5859     5840     5849     5881     5906 
    5903     5881     5865     5860     5864     5894     5935     5944 
    5899     5861     5877     5898     5879     5853     5853     5875 
    5899     5895     5854     5813     5809     5834     5859     5864 
    5845     5814     5806     5838     5883     5899     5877     5849 
    5829     5819     5833     5859     5881     5894     5880     5849 
    5841     5864     5891     5903     5891     5871     5864     5881 
    5910     5925     5921     5927     5946     5940     5895     5860 
    5863     5890     5898     5865     5829     5818     5817     5811 
    5818     5838     5840     5821     5809     5811     5818     5826 
    5853     5898     5914     5879     5827     5802     5813     5853 
    5888     5888     5869     5865     5883     5900     5902     5899 
    5911     5929     5930     5911     5886     5881     5904     5922 
    5915     5896     5872     5856     5856     5861     5863     5861 
    5861     5860     5852     5842     5834     5822     5813     5823 
    5842     5848     5825     5790     5771     5791     5840     5881 
    5900     5906     5922     5956     5988     6004     6007     6016 
    6045     6080     6088     6054     5989     5926     5890     5860 
    5807     5729     5663     5644     5664     5701     5746     5786 
    5788     5749     5717     5755     5842     5895     5873     5826 
    5798     5784     5772     5749     5751     5833     5953     5981 
    5926     5914     5961     6016     6072     6092     6070     6058 
    6023     5913     5796     5742     5711     5675     5657     5668 
    5672     5661     5664     5711     5798     5877     5927     5992 
    6048     6027     5992     6079     6223     6218     6021     5803 
    5726     5782     5838     5825     5794     5807     5842     5848 
    5861     5957     6072     6091     6021     5968     6031     6156 
    6130     5926     5741     5660     5603     5516     5439     5489 
    5645     5703     5593     5501     5605     5811     5948     6057 
    6215     6324     6358     6401     6396     6257     6070     5900 
    5699     5512     5439     5455     5502     5583     5706     5829 
    5871     5809     5771     5830     5895     5972     6112     6210 
    6178     6058     5927     5877     5881     5784     5622     5594 
    5702     5819     5899     5952     6021     6120     6130     6023 
    5979     6016     5981     5896     5864     5873     5880     5813 
    5718     5756     5906     6027     6079     6025     5881     5764 
    5718     5702     5660     5567     5478     5483     5556     5594 
    5570     5575     5714     5980     6235     6345     6328     6268 
    6219     6189     6103     5948     5811     5705     5651     5709 
    5815     5844     5746     5679     5773     5854     5799     5800 
    5917     5988     6011     6085     6160     6110     5975     5892 
    5876     5836     5745     5645     5575     5548     5589     5663 
    5682     5647     5656     5773     5985     6201     6292     6191 
    5960     5757     5699     5741     5760     5714     5707     5834 
    6000     6110     6258     6459     6485     6241     5967     5863 
    5892     5911     5809     5605     5428     5389     5522     5668 
    5682     5699     5802     5887     5910     5875     5884     6054 
    6212     6156     6030     6019     6061     6058     5973     5783 
    5610     5641     5767     5741     5633     5641     5737     5906 
    6139     6228     6107     5937     5795     5730     5779     5822 
    5745     5632     5659     5871     6072     6053     5860     5710 
    5779     5964     5940     5753     5741     5883     5957     5944 
    5911     5879     5838     5795     5732     5641     5603     5732 
    5994     6153     6062     5925     5954     5998     5868     5732 
    5730     5807     5880     5899     6021     6281     6401     6289 
    6060     5859     5863     5968     5930     5726     5524     5468 
    5462     5391     5351     5433     5661     6012     6305     6351 
    6261     6285     6477     6621     6420     5927     5502     5350 
    5389     5331     5082     4932     5065     5351     5620     5842 
    6075     6300     6480     6606     6683     6725     6679     6390 
    5908     5610     5664     5778     5714     5537     5390     5413 
    5652     5918     5992     5941     6007     6130     6054     5845 
    5742     5848     6029     5892     5277     4695     4820     5526 
    6045     6135     6150     6338     6744     7007     6602     5842 
    5540     5792     6093     6114     5791     5269     4858     4719 
    4900     5383     5879     6212     6554     6793     6597     6110 
    5900     6270     6889     7040     6332     5281     4800     5132 
    5641     5614     5169     4934     4995     5212     5746     6373 
    6551     6330     6208     6413     6633     6408     5825     5440 
    5482     5725     5946     6053     6011     5853     5718     5796 
    5945     5880     5730     5792     6096     6266     5994     5647 
    5611     5688     5761     5898     5984     5981     6033     6151 
    6124     5800     5398     5319     5563     5759     5670     5429 
    5378     5610     5813     5842     5908     6037     6107     6200 
    6419     6589     6540     6480     6552     6538     6250     5684 
    5082     4895     5158     5429     5459     5360     5367     5626 
    5962     6139     6277     6436     6349     6133     6212     6361 
    6122     5676     5314     5043     4992     5274     5691     6050 
    6228     6102     5856     5918     6377     6891     7053     6706 
    6120     5775     5834     5918     5737     5441     5157     5005 
    5059     5061     5019     5336     5958     6353     6274     6007 
    5927     6073     6241     6281     6111     5850     5792     5861 
    5818     5730     5653     5618     5721     5922     6160     6304 
    6247     6161     6119     5985     5834     5783     5740     5730 
    5836     5935     5979     6079     6204     6151     5911     5746 
    5814     5954     5887     5574     5314     5289     5398     5506 
    5470     5289     5155     5243     5605     6099     6486     6725 
    6862     6897     6775     6450     6089     5933     5942     5871 
    5571     5190     5046     5277     5599     5668     5572     5562 
    5706     5968     6157     6130     6012     5960     5996     6076 
    6106     6088     6116     6145     6062     5930     5871     5845 
    5746     5618     5564     5562     5560     5583     5633     5724 
    5903     6015     5879     5690     5706     5883     6083     6215 
    6203     6095     6016     6050     6170     6224     6106     5964 
    5961     5994     5957     5879     5699     5428     5269     5298 
    5421     5530     5563     5583     5638     5706     5856     6060 
    6215     6373     6477     6365     6145     6041     6075     6097 
    5971     5752     5670     5814     5984     5927     5634     5351 
    5323     5547     5803     5931     5949     5942     6004     6147 
    6297     6346     6162     5818     5618     5630     5621     5498 
    5436     5578     5763     5827     5998     6320     6408     6239 
    6130     6093     6060     6012     5786     5321     4922     4963 
    5327     5609     5788     5983     6135     6276     6420     6447 
    6281     5976     5800     5950     6134     5985     5634     5452 
    5564     5764     5802     5660     5544     5683     6023     6195 
    6003     5736     5771     6065     6249     6138     5944     5938 
    6062     6069     5954     5863     5822     5848     5933     5879 
    5634     5510     5657     5791     5740     5732     5880     6004 
    5971     5856     5838     5981     6048     5830     5583     5651 
    5879     5960     5902     5853     5902     6016     6100     6111 
    5999     5761     5495     5370     5532     5863     6097     6210 
    6228     6130     6053     6035     5883     5607     5410     5337 
    5363     5524     5775     5976     6049     6076     6165     6330 
    6556     6758     6723     6311     5713     5308     5113     4897 
    4752     4864     5113     5373     5634     5856     6049     6266 
    6409     6484     6735     7086     7076     6660     6237     5958 
    5755     5648     5537     5239     4903     4803     4895     5092 
    5491     5944     6110     6038     6093     6400     6679     6675 
    6475     6292     6205     6131     5972     5783     5620     5425 
    5204     5074     5158     5444     5765     5926     5868     5760 
    5755     5817     5987     6322     6539     6366     6007     5849 
    5988     6191     6201     6025     5902     6004     6200     6228 
    6108     6064     6030     5832     5625     5539     5441     5316 
    5285     5341     5347     5242     5162     5213     5298     5404 
    5659     6057     6482     6794     6897     6856     6764     6615 
    6407     6158     5910     5713     5553     5394     5239     5151 
    5171     5244     5298     5398     5645     6027     6481     6879 
    7024     6864     6554     6211     5922     5794     5783     5744 
    5640     5479     5294     5169     5120     5088     5098     5252 
    5579     6016     6382     6434     6189     5985     6039     6231 
    6354     6404     6413     6230     5838     5576     5617     5745 
    5865     6072     6245     6210     6052     5880     5656     5440 
    5397     5443     5337     5151     5112     5270     5499     5655 
    5761     5938     6191     6490     6882     7317     7533     7311 
    6858     6492     6188     5803     5313     4718     4218     4085 
    4297     4691     5101     5352     5501     5771     6210     6681 
    7015     7145     7164     7115     6912     6567     6245     5981 
    5728     5513     5239     4860     4672     4769     4900     5061 
    5309     5533     5755     6023     6311     6594     6740     6650 
    6453     6343     6330     6189     5860     5583     5422     5298 
    5300     5454     5657     5825     5853     5752     5660     5663 
    5795     6015     6162     6201     6219     6234     6276     6373 
    6408     6297     6120     5975     5899     5890     5849     5680 
    5476     5391     5444     5532     5602     5724     5950     6168 
    6281     6350     6386     6304     6076     5759     5431     5177 
    5089     5189     5406     5705     6029     6272     6432     6548 
    6570     6389     6026     5682     5498     5433     5409     5378 
    5351     5393     5490     5579     5675     5764     5813     5853 
    5894     5949     6097     6277     6276     6065     5846     5765 
    5764     5776     5826     5926     6079     6264     6403     6465 
    6489     6457     6261     5891     5540     5329     5198     5134 
    5085     5044     5174     5464     5725     5952     6160     6235 
    6237     6332     6516     6647     6621     6451     6295     6238 
    6183     6066     5881     5548     5107     4796     4725     4776 
    4897     5147     5499     5877     6245     6561     6778     6859 
    6798     6627     6378     6127     5925     5718     5490     5317 
    5251     5209     5123     5070     5132     5328     5624     5911 
    6177     6448     6624     6664     6644     6554     6351     6077 
    5810     5580     5329     5073     4965     5088     5382     5767 
    6188     6559     6779     6802     6667     6451     6205     5935 
    5655     5390     5139     4985     5066     5293     5458     5556 
    5690     5880     6129     6388     6637     6874     6971     6901 
    6804     6670     6447     6180     5868     5545     5300     5155 
    5078     4972     4830     4818     4972     5158     5337     5553 
    5810     6033     6176     6281     6370     6397     6366     6303 
    6251     6296     6435     6546     6573     6540     6413     6181 
    5927     5718     5520     5317     5189     5161     5225     5406 
    5598     5668     5682     5778     5960     6097     6077     5961 
    5853     5755     5674     5657     5706     5753     5742     5719 
    5759     5856     5969     6075     6137     6149     6147     6143 
    6084     5956     5829     5755     5701     5676     5733     5841 
    5949     6033     6092     6161     6177     6043     5791     5464 
    5112     4876     4858     4992     5181     5401     5664     5942 
    6147     6286     6497     6781     6949     6926     6833     6739 
    6566     6255     5876     5574     5401     5320     5313     5363 
    5468     5651     5872     6087     6251     6282     6135     5891 
    5691     5590     5563     5555     5516     5513     5610     5736 
    5842     5911     5921     5892     5836     5769     5730     5703 
    5695     5745     5838     5910     5953     6019     6100     6147 
    6156     6134     6091     6046     5994     5933     5856     5748 
    5616     5495     5431     5431     5486     5572     5632     5690 
    5786     5910     6056     6160     6181     6197     6238     6262 
    6274     6269     6227     6149     6030     5907     5825     5761 
    5734     5791     5891     5973     6014     6008     5945     5822 
    5707     5645     5603     5547     5466     5391     5377     5455 
    5624     5826     5995     6103     6153     6145     6106     6100 
    6115     6068     5950     5819     5717     5626     5522     5435 
    5381     5350     5344     5364     5432     5576     5803     6084 
    6370     6631     6833     6929     6940     6907     6790     6578 
    6350     6177     6054     5887     5595     5233     4899     4662 
    4569     4583     4671     4889     5263     5709     6149     6531 
    6810     6982     7049     7024     6901     6647     6253     5790 
    5355     5019     4814     4756     4841     5065     5417     5863 
    6343     6763     7024     7084     6960     6690     6311     5895 
    5562     5335     5152     4986     4839     4766     4857     5136 
    5536     5952     6312     6589     6755     6790     6700     6501 
    6251     6025     5814     5583     5383     5270     5235     5267 
    5360     5471     5579     5699     5832     5994     6204     6443 
    6663     6828     6914     6894     6745     6492     6166     5807 
    5475     5215     5020     4914     4909     4988     5112     5254 
    5405     5574     5778     6019     6251     6443     6583     6628 
    6536     6330     6134     6039     5962     5810     5617     5481 
    5416     5348     5246     5165     5169     5271     5462     5728 
    6026     6282     6480     6627     6710     6716     6640     6489 
    6320     6191     6072     5898     5699     5549     5433     5306 
    5169     5055     5000     5009     5094     5293     5587     5895 
    6111     6193     6214     6249     6291     6315     6322     6296 
    6230     6141     6041     5940     5849     5771     5690     5613 
    5555     5518     5513     5535     5586     5707     5910     6139 
    6336     6459     6524     6566     6571     6515     6426     6358 
    6296     6153     5902     5606     5313     5053     4873     4773 
    4756     4845     5000     5144     5287     5508     5805     6087 
    6308     6509     6728     6934     7052     7022     6902     6791 
    6651     6367     5985     5655     5408     5219     5100     5073 
    5135     5270     5440     5579     5655     5683     5675     5661 
    5683     5760     5865     5941     5965     5942     5887     5814 
    5732     5649     5605     5665     5849     6070     6270     6469 
    6631     6697     6664     6552     6366     6126     5890     5724 
    5643     5609     5598     5613     5625     5614     5603     5595 
    5594     5618     5632     5622     5648     5728     5807     5815 
    5759     5687     5622     5580     5572     5605     5714     5887 
