Origin Time       2025/03/28 03:50:00
Lat.              35.403
Long.             140.360
Depth. (km)       54
Mag.              4.4
Station Code      TKY007
Station Lat.      35.7111
Station Long.     139.6864
Station Height(m) 34
Record Time       2025/03/28 03:51:03
Sampling Freq(Hz) 100Hz
Duration Time(s)  60
Dir.              U-D
Scale Factor      7845(gal)/8223790
Max. Acc. (gal)   1.693
Last Correction   2025/03/28 03:51:03
Memo.             
[...]
   -6478    -6496    -6489    -6471    -6475    -6475    -6448    -6436 
   -6461    -6480    -6478    -6481    -6471    -6447    -6457    -6484 
   -6477    -6461    -6448    -6447    -6471    -6485    -6463    -6457 
   -6482    -6484    -6457    -6453    -6478    -6493    -6474    -6457 
   -6469    -6486    -6481    -6461    -6454    -6461    -6463    -6463 
   -6455    -6451    -6463    -6465    -6455    -6455    -6466    -6482 
   -6484    -6471    -6461    -6454    -6459    -6471    -6473    -6467 
   -6462    -6469    -6477    -6475    -6470    -6470    -6474    -6478 
   -6482    -6481    -6463    -6443    -6440    -6455    -6477    -6486 
   -6482    -6474    -6463    -6465    -6470    -6458    -6454    -6473 
   -6482    -6475    -6475    -6486    -6485    -6463    -6451    -6459 
   -6465    -6463    -6467    -6467    -6473    -6482    -6475    -6459 
   -6461    -6475    -6480    -6467    -6465    -6474    -6477    -6471 
   -6469    -6466    -6461    -6461    -6471    -6489    -6494    -6481 
   -6471    -6471    -6467    -6469    -6473    -6474    -6470    -6463 
   -6461    -6462    -6463    -6469    -6473    -6474    -6471    -6455 
   -6448    -6459    -6465    -6469    -6478    -6480    -6478    -6475 
   -6463    -6455    -6461    -6477    -6490    -6489    -6481    -6467 
   -6461    -6481    -6493    -6477    -6469    -6477    -6474    -6462 
   -6458    -6467    -6474    -6470    -6463    -6463    -6469    -6467 
   -6463    -6474    -6488    -6485    -6475    -6469    -6458    -6448 
   -6442    -6444    -6462    -6480    -6490    -6490    -6481    -6473 
   -6457    -6446    -6465    -6485    -6484    -6486    -6482    -6457 
   -6443    -6455    -6469    -6471    -6477    -6485    -6481    -6465 
   -6458    -6465    -6480    -6492    -6486    -6462    -6443    -6453 
   -6474    -6481    -6474    -6463    -6458    -6463    -6469    -6470 
   -6473    -6477    -6477    -6474    -6471    -6474    -6467    -6454 
   -6454    -6459    -6466    -6473    -6474    -6473    -6481    -6482 
   -6465    -6442    -6444    -6470    -6478    -6470    -6470    -6467 
   -6463    -6469    -6474    -6471    -6461    -6457    -6473    -6482 
   -6471    -6473    -6488    -6488    -6469    -6450    -6446    -6455 
   -6469    -6481    -6484    -6474    -6458    -6454    -6459    -6467 
   -6470    -6465    -6469    -6486    -6485    -6463    -6453    -6465 
   -6475    -6470    -6469    -6478    -6484    -6489    -6478    -6448 
   -6443    -6471    -6489    -6482    -6470    -6453    -6439    -6450 
   -6465    -6475    -6492    -6493    -6466    -6446    -6454    -6466 
   -6473    -6482    -6490    -6488    -6471    -6455    -6451    -6463 
   -6481    -6484    -6481    -6475    -6463    -6462    -6477    -6480 
   -6466    -6461    -6477    -6486    -6474    -6459    -6451    -6458 
   -6474    -6481    -6477    -6475    -6481    -6478    -6465    -6462 
   -6471    -6480    -6480    -6473    -6467    -6466    -6463    -6465 
   -6459    -6461    -6478    -6494    -6488    -6459    -6438    -6453 
   -6480    -6486    -6470    -6461    -6478    -6481    -6455    -6451 
   -6478    -6486    -6475    -6470    -6461    -6454    -6469    -6481 
   -6466    -6444    -6451    -6485    -6496    -6469    -6448    -6457 
   -6471    -6482    -6480    -6466    -6466    -6480    -6484    -6467 
   -6451    -6453    -6470    -6488    -6480    -6454    -6448    -6461 
   -6462    -6451    -6447    -6447    -6424    -6370    -6316    -6293 
   -6318    -6372    -6431    -6466    -6423    -6297    -6181    -6212 
   -6444    -6799    -7129    -7233    -6987    -6521    -6174    -6183 
   -6448    -6617    -6461    -6130    -5942    -6027    -6350    -6772 
   -6943    -6609    -6092    -5977    -6404    -7048    -7520    -7511 
   -6917    -6099    -5611    -5630    -5956    -6426    -6943    -7252 
   -7146    -6767    -6382    -6103    -5979    -6034    -6200    -6388 
   -6546    -6600    -6578    -6628    -6655    -6401    -6016    -5934 
   -6227    -6656    -6988    -6997    -6640    -6214    -6029    -6096 
   -6284    -6539    -6752    -6799    -6799    -6883    -6797    -6289 
   -5645    -5404    -5844    -6824    -7773    -7979    -7217    -5994 
   -5071    -4887    -5445    -6461    -7450    -7902    -7600    -6821 
   -6130    -5829    -5802    -6000    -6501    -6994    -6970    -6482 
   -6057    -5946    -6077    -6404    -6732    -6764    -6612    -6605 
   -6601    -6249    -5799    -5818    -6253    -6652    -6943    -7253 
   -7420    -7186    -6667    -6281    -6157    -6022    -5817    -5845 
   -6224    -6704    -6987    -6957    -6650    -6253    -6053    -6118 
   -6253    -6443    -6801    -7099    -6978    -6465    -5942    -5753 
   -5950    -6335    -6701    -6947    -7002    -6826    -6474    -6119 
   -5948    -5989    -6183    -6509    -6875    -7045    -6907    -6567 
   -6238    -6145    -6327    -6525    -6562    -6594    -6723    -6743 
   -6466    -6038    -5821    -5995    -6434    -6947    -7306    -7221 
   -6701    -6165    -5935    -5925    -5950    -6038    -6274    -6593 
   -6879    -7071    -7045    -6675    -6153    -5953    -6204    -6538 
   -6697    -6770    -6747    -6430    -5907    -5647    -5875    -6301 
   -6727    -7234    -7576    -7315    -6619    -6018    -5719    -5760 
   -6211    -6829    -7105    -6844    -6363    -6049    -5971    -6035 
   -6251    -6565    -6786    -6876    -6903    -6839    -6648    -6369 
   -6134    -6097    -6232    -6417    -6605    -6690    -6597    -6450 
   -6351    -6258    -6245    -6453    -6762    -6878    -6729    -6463 
   -6208    -6029    -5960    -6045    -6349    -6791    -7069    -6979 
   -6648    -6328    -6120    -5999    -6026    -6264    -6586    -6828 
   -6967    -7033    -7030    -6902    -6610    -6281    -6114    -6126 
   -6180    -6223    -6349    -6544    -6598    -6405    -6212    -6303 
   -6596    -6795    -6777    -6643    -6519    -6417    -6312    -6247 
   -6288    -6407    -6538    -6631    -6589    -6346    -6054    -5956 
   -6095    -6388    -6758    -7055    -7075    -6825    -6554    -6396 
   -6269    -6150    -6106    -6154    -6320    -6617    -6867    -6847 
   -6616    -6417    -6339    -6316    -6305    -6303    -6285    -6258 
   -6336    -6602    -6912    -7020    -6828    -6447    -6102    -5957 
   -6053    -6340    -6696    -6913    -6832    -6512    -6220    -6181 
   -6404    -6728    -6934    -6879    -6574    -6188    -5979    -6151 
   -6582    -6853    -6727    -6357    -6048    -5999    -6227    -6571 
   -6836    -6898    -6725    -6436    -6238    -6259    -6515    -6832 
   -6849    -6447    -5958    -5713    -5773    -6084    -6486    -6750 
   -6782    -6729    -6756    -6805    -6745    -6592    -6415    -6253 
   -6180    -6276    -6492    -6677    -6764    -6812    -6760    -6507 
   -6207    -6116    -6218    -6322    -6389    -6457    -6427    -6255 
   -6181    -6401    -6752    -6975    -7002    -6894    -6679    -6335 
   -5949    -5718    -5741    -6010    -6471    -6984    -7353    -7368 
   -6979    -6417    -6006    -5881    -6025    -6372    -6758    -6937 
   -6814    -6508    -6197    -5964    -5809    -5814    -6130    -6647 
   -6968    -6945    -6856    -6859    -6797    -6610    -6481    -6504 
   -6496    -6322    -6166    -6196    -6327    -6478    -6629    -6670 
   -6552    -6430    -6413    -6435    -6470    -6547    -6556    -6365 
   -6118    -6107    -6403    -6774    -6939    -6801    -6473    -6191 
   -6123    -6239    -6462    -6747    -6957    -6879    -6447    -5925 
   -5729    -5976    -6400    -6759    -7048    -7252    -7207    -6839 
   -6345    -5979    -5836    -5900    -6096    -6227    -6154    -6048 
   -6161    -6451    -6706    -6906    -7090    -7145    -6980    -6739 
   -6619    -6531    -6234    -5813    -5641    -5864    -6250    -6563 
   -6782    -6941    -6972    -6824    -6585    -6417    -6396    -6421 
   -6353    -6203    -6146    -6334    -6693    -6998    -7076    -6891 
   -6566    -6332    -6295    -6316    -6251    -6146    -6089    -6076 
   -6129    -6318    -6606    -6893    -7083    -7006    -6552    -5991 
   -5768    -5957    -6250    -6438    -6532    -6525    -6434    -6459 
   -6728    -6999    -6975    -6723    -6523    -6428    -6270    -6124 
   -6205    -6400    -6475    -6454    -6432    -6388    -6301    -6278 
   -6430    -6725    -7076    -7375    -7393    -6944    -6154    -5418 
   -5132    -5405    -5988    -6578    -7042    -7257    -7057    -6579 
   -6258    -6280    -6448    -6552    -6529    -6378    -6146    -5972 
   -6048    -6435    -6983    -7442    -7530    -7051    -6228    -5630 
   -5533    -5729    -6042    -6470    -6876    -7014    -6867    -6663 
   -6581    -6548    -6427    -6301    -6328    -6421    -6446    -6481 
   -6617    -6728    -6674    -6540    -6471    -6462    -6459    -6484 
   -6505    -6444    -6342    -6295    -6254    -6124    -6010    -6110 
   -6428    -6775    -6995    -7044    -6875    -6498    -6156    -6129 
   -6370    -6590    -6615    -6490    -6289    -6045    -5923    -6115 
   -6529    -6948    -7196    -7094    -6633    -6112    -5838    -5907 
   -6238    -6660    -7010    -7214    -7221    -6976    -6559    -6168 
   -5994    -6046    -6091    -5989    -5967    -6180    -6399    -6484 
   -6610    -6870    -7103    -7122    -6899    -6573    -6250    -5989 
   -5922    -6103    -6315    -6349    -6316    -6339    -6346    -6367 
   -6520    -6700    -6714    -6558    -6385    -6336    -6365    -6327 
   -6272    -6405    -6691    -6844    -6826    -6930    -7134    -7044 
   -6646    -6289    -6056    -5877    -5867    -6108    -6469    -6720 
   -6789    -6755    -6613    -6370    -6257    -6421    -6617    -6548 
   -6266    -6058    -6079    -6285    -6582    -6862    -6964    -6799 
   -6498    -6268    -6138    -6050    -6030    -6091    -6214    -6459 
   -6856    -7254    -7434    -7258    -6795    -6328    -6062    -5954 
   -5926    -5983    -6107    -6204    -6235    -6338    -6651    -7042 
   -7234    -7130    -6848    -6519    -6230    -6087    -6102    -6157 
   -6210    -6322    -6485    -6578    -6542    -6470    -6454    -6497 
   -6569    -6528    -6247    -5938    -5956    -6339    -6859    -7267 
   -7361    -7051    -6513    -6127    -6058    -6114    -6141    -6234 
   -6427    -6566    -6621    -6700    -6758    -6700    -6602    -6547 
   -6473    -6347    -6311    -6453    -6619    -6640    -6583    -6544 
   -6467    -6320    -6228    -6247    -6173    -5923    -5796    -6030 
   -6486    -6905    -7132    -7155    -7036    -6860    -6713    -6555 
   -6242    -5825    -5568    -5601    -5883    -6385    -6940    -7141 
   -6847    -6482    -6440    -6571    -6613    -6612    -6617    -6504 
   -6312    -6247    -6346    -6516    -6733    -6913    -6853    -6475 
   -5985    -5702    -5769    -6118    -6581    -6912    -6948    -6801 
   -6659    -6578    -6528    -6496    -6467    -6423    -6401    -6494 
   -6678    -6805    -6782    -6637    -6444    -6208    -5954    -5872 
   -6089    -6423    -6654    -6762    -6777    -6713    -6612    -6475 
   -6299    -6134    -6062    -6150    -6424    -6802    -7083    -7142 
   -7051    -6889    -6656    -6366    -6091    -5949    -6000    -6127 
   -6178    -6135    -6077    -6088    -6245    -6534    -6813    -7006 
   -7175    -7261    -7061    -6558    -6015    -5668    -5583    -5783 
   -6238    -6677    -6732    -6382    -6012    -5944    -6142    -6419 
   -6696    -6944    -7075    -7003    -6772    -6554    -6490    -6578 
   -6713    -6790    -6737    -6536    -6181    -5753    -5499    -5620 
   -5992    -6345    -6578    -6732    -6863    -6999    -7020    -6814 
   -6554    -6444    -6486    -6646    -6905    -7146    -7206    -7025 
   -6646    -6151    -5657    -5328    -5337    -5726    -6309    -6852 
   -7196    -7234    -7011    -6777    -6709    -6705    -6546    -6196 
   -5845    -5682    -5772    -6085    -6490    -6849    -7130    -7299 
   -7179    -6687    -6100    -5767    -5701    -5790    -6081    -6562 
   -6925    -6890    -6585    -6303    -6107    -5992    -6084    -6328 
   -6490    -6508    -6490    -6527    -6660    -6920    -7236    -7411 
   -7261    -6779    -6172    -5728    -5622    -5854    -6293    -6712 
   -6913    -6859    -6658    -6430    -6281    -6272    -6349    -6431 
   -6528    -6647    -6731    -6720    -6604    -6393    -6139    -5949 
   -5900    -5992    -6203    -6496    -6805    -7053    -7186    -7156 
   -6951    -6624    -6277    -5979    -5755    -5659    -5746    -6010 
   -6400    -6818    -7110    -7169    -7049    -6862    -6633    -6357 
   -6079    -5890    -5919    -6245    -6713    -7029    -7055    -6856 
   -6548    -6231    -5991    -5930    -6124    -6511    -6902    -7163 
   -7253    -7113    -6717    -6241    -5929    -5827    -5844    -5938 
   -6091    -6185    -6164    -6193    -6457    -6851    -7102    -7105 
   -6944    -6741    -6574    -6500    -6528    -6561    -6501    -6412 
   -6408    -6473    -6481    -6365    -6211    -6178    -6349    -6646 
   -6876    -6913    -6797    -6621    -6365    -5962    -5503    -5224 
   -5313    -5764    -6339    -6748    -6903    -6937    -6955    -6932 
   -6831    -6678    -6515    -6384    -6357    -6466    -6656    -6848 
   -6971    -6945    -6768    -6577    -6494    -6519    -6567    -6574 
   -6484    -6254    -5887    -5522    -5428    -5706    -6160    -6529 
   -6700    -6721    -6759    -6967    -7326    -7701    -7969    -7956 
   -7518    -6724    -5844    -5154    -4779    -4695    -4892    -5405 
   -6065    -6550    -6808    -6943    -6917    -6805    -6810    -6897 
   -6859    -6648    -6431    -6312    -6189    -6012    -5991    -6304 
   -6760    -7015    -6956    -6741    -6500    -6250    -6106    -6230 
   -6525    -6752    -6841    -6832    -6640    -6214    -5778    -5574 
   -5613    -5890    -6376    -6841    -7083    -7160    -7194    -7187 
   -7121    -7009    -6825    -6540    -6222    -5999    -5957    -6114 
   -6390    -6623    -6651    -6415    -6025    -5745    -5796    -6153 
   -6561    -6764    -6701    -6478    -6245    -6143    -6265    -6594 
   -7020    -7338    -7408    -7298    -7072    -6705    -6278    -5962 
   -5845    -5957    -6277    -6666    -6905    -6817    -6461    -6122 
   -5985    -6038    -6258    -6601    -6852    -6741    -6331    -5965 
   -5850    -5965    -6226    -6497    -6633    -6623    -6588    -6636 
   -6750    -6840    -6794    -6593    -6431    -6482    -6631    -6628 
   -6440    -6173    -5887    -5702    -5810    -6249    -6781    -7086 
   -7090    -6974    -6907    -6907    -6897    -6835    -6732    -6544 
   -6274    -6077    -6041    -6123    -6293    -6508    -6673    -6702 
   -6583    -6376    -6174    -6080    -6118    -6185    -6201    -6164 
   -6076    -5985    -6023    -6257    -6593    -6845    -6932    -6970 
   -6986    -6840    -6561    -6343    -6351    -6597    -6922    -7149 
   -7134    -6814    -6355    -6042    -5962    -6011    -6126    -6261 
   -6342    -6324    -6181    -5975    -5861    -5964    -6276    -6677 
   -7001    -7132    -7098    -7020    -6943    -6837    -6693    -6609 
   -6651    -6717    -6675    -6438    -6022    -5625    -5459    -5578 
   -5914    -6319    -6617    -6724    -6643    -6390    -6088    -5940 
   -6070    -6473    -7029    -7504    -7661    -7458    -7051    -6655 
   -6421    -6322    -6242    -6114    -5979    -5954    -6052    -6170 
   -6266    -6370    -6492    -6588    -6620    -6606    -6552    -6463 
   -6400    -6439    -6536    -6585    -6573    -6528    -6462    -6420 
   -6424    -6400    -6281    -6142    -6120    -6245    -6431    -6627 
   -6801    -6879    -6814    -6647    -6438    -6228    -6084    -6089 
   -6255    -6498    -6721    -6853    -6870    -6832    -6778    -6691 
   -6612    -6578    -6558    -6536    -6550    -6566    -6502    -6404 
   -6340    -6282    -6187    -6031    -5803    -5572    -5475    -5589 
   -5921    -6447    -7080    -7631    -7916    -7869    -7534    -7034 
   -6534    -6162    -5971    -5930    -5933    -5900    -5898    -6029 
   -6313    -6666    -6957    -7079    -6975    -6662    -6259    -5930 
   -5772    -5769    -5879    -6106    -6430    -6755    -7007    -7164 
   -7215    -7134    -6909    -6623    -6372    -6193    -6087    -6011 
   -5930    -5884    -5977    -6281    -6696    -7024    -7160    -7132 
   -6990    -6723    -6335    -6012    -5988    -6258    -6597    -6814 
   -6894    -6862    -6704    -6478    -6339    -6346    -6424    -6511 
   -6605    -6723    -6852    -6882    -6704    -6377    -6091    -5954 
   -5923    -5941    -6022    -6178    -6347    -6399    -6315    -6222 
   -6192    -6212    -6259    -6330    -6427    -6524    -6619    -6770 
   -6941    -6998    -6894    -6691    -6442    -6212    -6112    -6176 
   -6335    -6504    -6631    -6709    -6743    -6721    -6637    -6513 
   -6413    -6397    -6457    -6527    -6590    -6648    -6662    -6615 
   -6501    -6324    -6143    -6006    -5921    -5923    -6062    -6335 
   -6693    -7060    -7302    -7315    -7109    -6755    -6397    -6185 
   -6102    -6010    -5894    -5873    -5981    -6138    -6322    -6532 
   -6697    -6728    -6610    -6447    -6327    -6227    -6157    -6216 
   -6444    -6743    -6980    -7094    -7092    -6990    -6809    -6627 
   -6478    -6305    -6111    -5977    -5944    -5994    -6127    -6349 
   -6609    -6813    -6907    -6883    -6736    -6504    -6296    -6224 
   -6264    -6295    -6296    -6299    -6280    -6245    -6278    -6389 
   -6467    -6451    -6457    -6574    -6693    -6686    -6610    -6582 
   -6592    -6534    -6390    -6295    -6347    -6444    -6455    -6417 
   -6411    -6392    -6362    -6409    -6516    -6609    -6685    -6724 
   -6670    -6512    -6340    -6278    -6345    -6458    -6548    -6597 
   -6617    -6628    -6633    -6620    -6593    -6581    -6582    -6565 
   -6531    -6494    -6431    -6350    -6326    -6382    -6454    -6480 
   -6478    -6507    -6574    -6643    -6686    -6681    -6598    -6438 
   -6234    -6041    -5946    -6022    -6188    -6303    -6355    -6446 
   -6631    -6841    -6968    -6975    -6876    -6691    -6490    -6353 
   -6312    -6374    -6507    -6623    -6640    -6581    -6511    -6446 
   -6390    -6350    -6319    -6300    -6264    -6189    -6099    -6050 
   -6088    -6200    -6323    -6426    -6507    -6544    -6527    -6482 
   -6470    -6504    -6555    -6623    -6700    -6751    -6771    -6774 
   -6751    -6674    -6544    -6454    -6453    -6459    -6431    -6435 
   -6509    -6571    -6520    -6358    -6174    -6068    -6099    -6245 
   -6424    -6569    -6623    -6574    -6474    -6405    -6407    -6475 
   -6575    -6628    -6600    -6538    -6469    -6382    -6295    -6231 
   -6208    -6199    -6158    -6157    -6278    -6486    -6698    -6867 
   -6968    -7003    -6959    -6825    -6651    -6494    -6388    -6361 
   -6412    -6482    -6498    -6443    -6366    -6293    -6227    -6176 
   -6124    -6091    -6153    -6288    -6397    -6477    -6554    -6581 
   -6575    -6609    -6648    -6620    -6534    -6465    -6470    -6528 
   -6620    -6748    -6868    -6891    -6791    -6628    -6455    -6312 
   -6262    -6319    -6380    -6369    -6316    -6291    -6330    -6415 
   -6519    -6598    -6588    -6455    -6262    -6142    -6181    -6331 
