Origin Time       2025/03/28 03:50:00
Lat.              35.403
Long.             140.360
Depth. (km)       54
Mag.              4.4
Station Code      TKY030
Station Lat.      35.6698
Station Long.     139.7360
Station Height(m) 13
Record Time       2025/03/28 03:50:53
Sampling Freq(Hz) 100Hz
Duration Time(s)  63
Dir.              N-S
Scale Factor      7845(gal)/8223790
Max. Acc. (gal)   5.577
Last Correction   2025/03/28 03:50:53
Memo.             
[...]
   -9738    -9782    -9807    -9809    -9806    -9795    -9802    -9811 
   -9769    -9724    -9752    -9801    -9815    -9814    -9805    -9794 
   -9805    -9817    -9796    -9759    -9738    -9760    -9832    -9887 
   -9863    -9794    -9730    -9706    -9751    -9834    -9873    -9837 
   -9767    -9732    -9749    -9791    -9823    -9814    -9788    -9787 
   -9792    -9798    -9792    -9775    -9767    -9780    -9815    -9837 
   -9814    -9791    -9796    -9799    -9798    -9798    -9794    -9787 
   -9795    -9810    -9798    -9784    -9782    -9779    -9795    -9799 
   -9783    -9788    -9802    -9809    -9815    -9796    -9752    -9736 
   -9767    -9803    -9832    -9860    -9845    -9788    -9745    -9721 
   -9728    -9784    -9845    -9860    -9836    -9803    -9783    -9795 
   -9811    -9795    -9779    -9790    -9809    -9814    -9798    -9782 
   -9779    -9783    -9788    -9787    -9787    -9794    -9788    -9778 
   -9780    -9791    -9788    -9764    -9756    -9787    -9810    -9814 
   -9815    -9803    -9771    -9756    -9787    -9826    -9825    -9822 
   -9821    -9784    -9769    -9787    -9796    -9807    -9810    -9801 
   -9801    -9790    -9761    -9759    -9792    -9807    -9794    -9798 
   -9810    -9806    -9779    -9774    -9823    -9841    -9778    -9749 
   -9782    -9782    -9765    -9788    -9818    -9818    -9810    -9803 
   -9784    -9771    -9765    -9772    -9799    -9821    -9826    -9837 
   -9830    -9796    -9761    -9757    -9788    -9811    -9809    -9799 
   -9787    -9787    -9796    -9792    -9801    -9833    -9830    -9786 
   -9759    -9747    -9753    -9815    -9868    -9832    -9783    -9769 
   -9763    -9780    -9791    -9776    -9776    -9790    -9799    -9798 
   -9801    -9819    -9815    -9794    -9802    -9836    -9848    -9806 
   -9763    -9768    -9778    -9783    -9799    -9807    -9801    -9767 
   -9733    -9759    -9811    -9846    -9842    -9792    -9752    -9757 
   -9779    -9815    -9844    -9822    -9768    -9730    -9737    -9780 
   -9832    -9859    -9833    -9778    -9747    -9764    -9794    -9814 
   -9819    -9805    -9810    -9840    -9833    -9780    -9742    -9749 
   -9769    -9784    -9801    -9809    -9826    -9841    -9806    -9757 
   -9748    -9780    -9811    -9814    -9822    -9832    -9810    -9787 
   -9761    -9734    -9761    -9828    -9856    -9819    -9769    -9778 
   -9795    -9763    -9741    -9772    -9828    -9848    -9814    -9782 
   -9780    -9791    -9788    -9772    -9782    -9826    -9853    -9822 
   -9771    -9752    -9761    -9787    -9819    -9832    -9819    -9798 
   -9782    -9794    -9794    -9748    -9728    -9776    -9829    -9856 
   -9845    -9799    -9767    -9768    -9794    -9805    -9790    -9791 
   -9798    -9806    -9826    -9805    -9775    -9788    -9792    -9780 
   -9787    -9799    -9792    -9780    -9788    -9788    -9775    -9778 
   -9795    -9806    -9796    -9779    -9765    -9772    -9811    -9832 
   -9795    -9763    -9791    -9829    -9822    -9803    -9792    -9783 
   -9794    -9811    -9801    -9779    -9775    -9792    -9821    -9813 
   -9760    -9734    -9767    -9805    -9825    -9829    -9815    -9790 
   -9761    -9748    -9756    -9778    -9806    -9832    -9828    -9796 
   -9761    -9747    -9774    -9807    -9828    -9845    -9825    -9786 
   -9775    -9760    -9765    -9806    -9810    -9805    -9828    -9830 
   -9806    -9761    -9715    -9715    -9751    -9788    -9833    -9867 
   -9837    -9767    -9736    -9760    -9799    -9834    -9826    -9790 
   -9788    -9795    -9790    -9787    -9790    -9806    -9814    -9794 
   -9783    -9796    -9792    -9780    -9791    -9783    -9753    -9760 
   -9791    -9818    -9833    -9829    -9803    -9769    -9752    -9752 
   -9768    -9823    -9864    -9830    -9796    -9796    -9752    -9710 
   -9749    -9819    -9871    -9871    -9795    -9715    -9744    -9841 
   -9856    -9782    -9745    -9776    -9822    -9850    -9815    -9730 
   -9688    -9738    -9840    -9873    -9803    -9742    -9765    -9823 
   -9828    -9765    -9720    -9748    -9809    -9842    -9841    -9802 
   -9749    -9742    -9778    -9818    -9826    -9810    -9837    -9906 
   -9929    -9842    -9714    -9661    -9682    -9768    -9937   -10034 
   -9904    -9652    -9489    -9495    -9651    -9852    -9990    -9990 
   -9849    -9732    -9795    -9969   -10130   -10141    -9809    -9182 
   -8761    -9089   -10172   -11275   -11356   -10206    -8869    -8353 
   -8552    -8907    -9371   -10318   -11681   -12371   -11277    -8903 
   -7061    -7123    -8864   -10705   -11361   -11171   -11145   -11172 
  -10203    -8133    -6528    -7082    -9686   -12324   -12984   -11530 
   -9486    -8257    -8154    -8810    -9572    -9856    -9803   -10066 
  -10791   -11327   -10889    -9452    -8101    -8050    -9258   -10523 
  -10743   -10019    -9602   -10104   -10454    -9763    -8721    -8426 
   -9217   -10578   -11443   -11065    -9722    -8561    -8625    -9636 
  -10346   -10215    -9786    -9682    -9985   -10176    -9783    -9173 
   -9174   -10029   -10912   -10752    -9657    -8756    -8687    -9231 
  -10081   -10921   -11057   -10162    -9093    -8830    -9238    -9729 
   -9963    -9767    -9452    -9643   -10351   -10802   -10447    -9737 
   -9421    -9555    -9605    -9305    -9196    -9756   -10466   -10562 
   -9992    -9327    -9143    -9474    -9892   -10056    -9979    -9898 
   -9958   -10057    -9900    -9454    -9266    -9691   -10189   -10172 
   -9834    -9643    -9751    -9949    -9861    -9482    -9356    -9759 
  -10115    -9871    -9382    -9379    -9913   -10372   -10289    -9788 
   -9355    -9247    -9462    -9975   -10412   -10274    -9796    -9576 
   -9624    -9656    -9732    -9918   -10003    -9877    -9602    -9265 
   -9113    -9393   -10000   -10565   -10709   -10435   -10141    -9914 
   -9593    -9470    -9620    -9605    -9499    -9599    -9602    -9373 
   -9431   -10044   -10665   -10571    -9834    -9301    -9321    -9387 
   -9347    -9639   -10345   -10879   -10612    -9771    -9219    -9175 
   -9194    -9189    -9367    -9668   -10007   -10365   -10439   -10037 
   -9533    -9385    -9626   -10027   -10370   -10546   -10443    -9880 
   -9026    -8596    -8989    -9779   -10322   -10315    -9950    -9701 
   -9776    -9903    -9855    -9825    -9953   -10030    -9931    -9780 
   -9675    -9576    -9485    -9545    -9769    -9911    -9828    -9722 
   -9737    -9593    -9234    -9220    -9844   -10605   -10824   -10318 
   -9570    -9200    -9292    -9526    -9751   -10056   -10276   -10085 
   -9688    -9495    -9460    -9471    -9682   -10025   -10133   -10064 
  -10131   -10130    -9811    -9429    -9383    -9767   -10096    -9937 
   -9617    -9583    -9778    -9960   -10037   -10073   -10129   -10093 
   -9718    -9070    -8802    -9328   -10135   -10366    -9922    -9533 
   -9551    -9630    -9636    -9706    -9869   -10138   -10443   -10544 
  -10326    -9914    -9462    -9035    -8704    -8695    -9243   -10010 
  -10328   -10185   -10106   -10332   -10705   -10808   -10363    -9663 
   -9023    -8488    -8444    -9298   -10582   -11345   -11167   -10322 
   -9240    -8270    -7850    -8240    -9228   -10519   -11751   -12197 
  -11388    -9845    -8591    -8167    -8417    -9130   -10258   -11404 
  -11751   -10790    -9039    -7686    -7443    -8262    -9668   -11016 
  -11781   -11615   -10602    -9541    -9094    -9090    -9092    -9065 
   -9352    -9990   -10381   -10106    -9583    -9505    -9950   -10482 
  -10721   -10470    -9790    -8996    -8375    -8202    -8753    -9937 
  -11275   -12023   -11510   -10027    -8681    -8093    -8224    -8978 
  -10111   -11086   -11273   -10512    -9558    -9327    -9846   -10324 
  -10031    -9175    -8696    -9031    -9683   -10042   -10091   -10161 
  -10354   -10374    -9969    -9513    -9640   -10164   -10282    -9749 
   -9084    -8935    -9328    -9714    -9896    -9984    -9842    -9559 
   -9574    -9958   -10320   -10374   -10147    -9787    -9463    -9325 
   -9482    -9775    -9729    -9477    -9814   -10574   -10642    -9838 
   -9157    -9146    -9371    -9377    -9313    -9609   -10327   -10978 
  -11114   -10828   -10395    -9769    -8904    -8178    -8064    -8684 
   -9753   -10783   -11311   -10980    -9863    -8842    -8838    -9711 
  -10535   -10639   -10172    -9664    -9377    -9351    -9499    -9524 
   -9385    -9552   -10260   -10835   -10609   -10072    -9972   -10083 
   -9799    -9165    -8746    -8822    -9130    -9574   -10249   -10746 
  -10543    -9899    -9524    -9730   -10153   -10100    -9441    -9073 
   -9657   -10513   -10679   -10156    -9572    -9331    -9232    -8965 
   -8695    -8785    -9336   -10147   -10767   -10805   -10409   -10064 
   -9961    -9925    -9880    -9945   -10100   -10134    -9950    -9711 
   -9556    -9400    -9167    -8941    -8870    -9221    -9998   -10524 
  -10261    -9630    -9370    -9660   -10219   -10636   -10542    -9902 
   -9197    -8965    -9273    -9732    -9906    -9867   -10003   -10295 
  -10388   -10127    -9663    -9294    -9279    -9736   -10353   -10513 
  -10164    -9776    -9495    -9211    -8997    -9034    -9387    -9871 
  -10156   -10168   -10089    -9961    -9722    -9591    -9822   -10287 
  -10608   -10439    -9898    -9599    -9782    -9980    -9823    -9531 
   -9466    -9537    -9375    -8957    -8766    -9301   -10362   -11113 
  -11036   -10451    -9914    -9497    -9013    -8652    -8864    -9690 
  -10500   -10621   -10227    -9971    -9892    -9574    -9084    -9080 
   -9873   -10798   -10933   -10143    -9144    -8738    -8962    -9344 
   -9663    -9942   -10241   -10567   -10741   -10459    -9663    -8980 
   -9170    -9876   -10069    -9629    -9285    -9401    -9641    -9599 
   -9437    -9640   -10227   -10694   -10704   -10380    -9903    -9379 
   -9008    -8969    -9286    -9776   -10057    -9987    -9937   -10172 
  -10338   -10056    -9590    -9404    -9472    -9533    -9535    -9547 
   -9637    -9938   -10478   -10918   -10854   -10419   -10069    -9838 
   -9433    -8938    -8726    -8837    -9058    -9409    -9975   -10482 
  -10493   -10015    -9582    -9586    -9828    -9867    -9610    -9413 
   -9501    -9636    -9707   -10014   -10559   -10800   -10450    -9863 
   -9414    -9207    -9134    -9059    -9201    -9737   -10316   -10681 
  -10860   -10700   -10154    -9504    -9027    -8991    -9464   -10054 
  -10309   -10103    -9563    -9073    -9003    -9294    -9713   -10169 
  -10498   -10444   -10030    -9605    -9490    -9711    -9975    -9923 
   -9598    -9390    -9485    -9736    -9906    -9868    -9815    -9945 
  -10038    -9876    -9595    -9406    -9346    -9398    -9702   -10296 
  -10712   -10443    -9678    -9104    -9111    -9493    -9929   -10307 
  -10563   -10532   -10061    -9451    -9342    -9805   -10253   -10193 
   -9688    -9282    -9269    -9396    -9512    -9715   -10010   -10255 
  -10264    -9967    -9495    -9140    -9192    -9545    -9823    -9929 
  -10079   -10301   -10299    -9991    -9675    -9490    -9409    -9508 
   -9701    -9736    -9575    -9494    -9740   -10093   -10107    -9817 
   -9598    -9498    -9350    -9343    -9767   -10355   -10596   -10484 
  -10327   -10195    -9965    -9648    -9355    -9130    -9051    -9306 
   -9958   -10701   -10979   -10562    -9825    -9308    -9171    -9190 
   -9256    -9537    -9913   -10010    -9921   -10029   -10265   -10224 
   -9833    -9450    -9317    -9304    -9347    -9606   -10085   -10531 
  -10728   -10652   -10265    -9622    -9086    -9007    -9321    -9651 
   -9805    -9968   -10187   -10130    -9679    -9227    -9188    -9641 
  -10230   -10423   -10112    -9595    -9165    -9042    -9279    -9617 
   -9776    -9786    -9826    -9980   -10174   -10261   -10196   -10108 
  -10075   -10041    -9991    -9891    -9763    -9764    -9794    -9599 
   -9362    -9354    -9435    -9459    -9556    -9852   -10253   -10465 
  -10305    -9991    -9711    -9373    -9084    -9175    -9693   -10280 
  -10561   -10427   -10000    -9521    -9259    -9290    -9417    -9418 
   -9344    -9423    -9664    -9964   -10314   -10598   -10612   -10359 
  -10091    -9996    -9900    -9478    -8866    -8575    -8799    -9290 
   -9875   -10516   -10903   -10744   -10237    -9805    -9639    -9616 
   -9526    -9363    -9358    -9606    -9811    -9720    -9640    -9907 
  -10197   -10110    -9844    -9740    -9734    -9701    -9801   -10162 
  -10540   -10532   -10096    -9651    -9531    -9636    -9709    -9640 
   -9493    -9405    -9481    -9706    -9973   -10158   -10116    -9733 
   -9119    -8681    -8796    -9396   -10075   -10484   -10481   -10137 
   -9707    -9414    -9275    -9282    -9580   -10168   -10694   -10925 
  -10924   -10650   -10085    -9583    -9404    -9323    -9022    -8576 
   -8330    -8351    -8338    -8214    -8328    -8922    -9895   -10943 
  -11722   -12098   -12290   -12511   -12561   -12020   -10855    -9514 
   -8461    -7893    -7790    -8010    -8306    -8560    -9005    -9968 
  -11344   -12591   -13163   -12857   -11923   -10719    -9251    -7654 
   -6561    -6480    -7345    -8641    -9756   -10388   -10432    -9715 
   -8514    -7650    -7438    -7765    -8862   -10584   -12094   -12919 
  -13014   -12309   -11115   -10034    -9298    -8827    -8552    -8430 
   -8505    -8752    -8901    -8756    -8648    -9073    -9841   -10450 
  -11071   -12179   -13493   -13954   -12793   -10330    -7542    -5250 
   -3947    -4160    -6367    -9846   -12573   -13224   -12329   -11365 
  -11169   -11306   -11252   -11244   -11281   -10882    -9979    -8841 
   -7701    -6918    -6820    -7527    -8887   -10269   -11044   -11138 
  -10701    -9895    -9130    -8860    -9170    -9753   -10311   -10781 
  -11125   -11244   -11061   -10620   -10210   -10008    -9605    -8518 
   -7138    -6498    -7190    -8914   -10852   -12340   -13271   -13624 
  -13131   -11711    -9622    -7484    -6200    -6230    -7272    -8796 
  -10350   -11573   -12306   -12491   -12066   -11029    -9522    -7928 
   -6760    -6420    -7078    -8533   -10280   -11713   -12198   -11464 
   -9998    -8602    -7885    -8073    -8849    -9645   -10092   -10233 
  -10428   -10885   -11408   -11712   -11641   -11157   -10385    -9625 
   -9117    -8748    -8233    -7564    -7072    -7138    -7828    -8916 
  -10188   -11453   -12364   -12572   -12168   -11707   -11531   -11284 
  -10411    -8991    -7711    -7123    -7365    -8355    -9656   -10490 
  -10548   -10362   -10542   -10997   -11049   -10385    -9637    -9444 
   -9481    -9163    -8617    -8507    -9293   -10496   -11071   -10677 
   -9944    -9567    -9547    -9328    -8603    -7730    -7495    -8375 
  -10012   -11637   -12618   -12565   -11493    -9950    -8687    -8094 
   -8109    -8522    -9103    -9698   -10227   -10635   -10933   -11056 
  -10889   -10463    -9911    -9429    -9325    -9688   -10125   -10183 
   -9786    -9132    -8561    -8376    -8626    -9134    -9721   -10301 
  -10847   -11275   -11408   -11161   -10617    -9899    -9271    -9069 
   -9406   -10134   -10735   -10570    -9663    -8694    -8189    -8175 
   -8452    -8868    -9344    -9857   -10462   -11118   -11608   -11704 
  -11340   -10648    -9802    -8941    -8244    -7812    -7663    -7865 
   -8394    -9096    -9922   -10882   -11758   -12055   -11396   -10048 
   -8843    -8479    -8959    -9695   -10064    -9927    -9628    -9564 
   -9826   -10138   -10160    -9832    -9398    -9197    -9493   -10245 
  -10903   -10836   -10087    -9275    -8922    -9138    -9612    -9952 
  -10066   -10034    -9863    -9510    -9090    -8872    -8843    -8829 
   -9036    -9695   -10588   -11419   -11950   -11952   -11430   -10594 
   -9711    -9045    -8749    -8750    -8831    -8888    -8954    -9076 
   -9421   -10096   -10737   -10808   -10247    -9460    -9013    -9298 
  -10058   -10606   -10658   -10384    -9945    -9490    -9200    -9084 
   -9009    -8985    -9162    -9575   -10073   -10449   -10635   -10723 
  -10743   -10567   -10126    -9566    -9078    -8788    -8772    -8964 
   -9162    -9362    -9806   -10543   -11299   -11761   -11758   -11357 
  -10821   -10285    -9738    -9265    -8947    -8735    -8556    -8448 
   -8496    -8669    -8822    -8891    -8974    -9247    -9709   -10141 
  -10397   -10513   -10590   -10714   -10863   -10908   -10723   -10304 
   -9856    -9543    -9270    -8995    -8865    -9059    -9575   -10034 
  -10115    -9980    -9821    -9612    -9431    -9462    -9776   -10323 
  -10831   -10786   -10007    -8945    -8209    -8144    -8611    -9143 
   -9508    -9783   -10056   -10300   -10399   -10409   -10540   -10766 
  -10871   -10714   -10331    -9919    -9620    -9433    -9394    -9579 
   -9873    -9944    -9671    -9339    -9116    -8888    -8741    -8972 
   -9575   -10162   -10386   -10272   -10161   -10318   -10577   -10627 
  -10335    -9779    -9301    -9215    -9364    -9454    -9649   -10179 
  -10714   -10863   -10685   -10378   -10004    -9579    -9097    -8606 
   -8398    -8808    -9702   -10494   -10790   -10633   -10219    -9724 
   -9270    -8931    -8880    -9138    -9454    -9676    -9755    -9620 
   -9405    -9416    -9679    -9880    -9872    -9733    -9463    -9140 
   -9081    -9603   -10598   -11481   -11820   -11568   -10895   -10160 
   -9624    -9248    -8941    -8765    -8812    -9039    -9332    -9563 
   -9707    -9949   -10357   -10687   -10674   -10320    -9859    -9521 
   -9444    -9671   -10127   -10542   -10462    -9763    -8915    -8419 
   -8469    -8986    -9732   -10571   -11318   -11546   -11078   -10316 
   -9774    -9556    -9485    -9383    -9220    -9180    -9327    -9437 
   -9454    -9437    -9315    -9212    -9390    -9841   -10226   -10219 
  -10108   -10261   -10350   -10111    -9640    -8992    -8413    -8264 
   -8746    -9776   -10755   -11068   -10759   -10142    -9509    -9213 
   -9386    -9822   -10314   -10781   -10932   -10496    -9801    -9306 
   -9158    -9288    -9440    -9525    -9628    -9678    -9707    -9833 
   -9980   -10081   -10044    -9806    -9617    -9605    -9675    -9842 
  -10030   -10143   -10274   -10427   -10461   -10235    -9759    -9238 
   -8912    -8893    -9153    -9630   -10224   -10636   -10627   -10324 
   -9999    -9876   -10004   -10079    -9946    -9853    -9853    -9783 
   -9637    -9531    -9478    -9417    -9270    -8924    -8496    -8395 
   -8791    -9425    -9948   -10218   -10295   -10334   -10430   -10492 
  -10368   -10080    -9829    -9756    -9833    -9942    -9973    -9861 
   -9587    -9289    -9194    -9333    -9533    -9652    -9678    -9630 
   -9616    -9786   -10077   -10241   -10166    -9996    -9930    -9999 
   -9998    -9792    -9660    -9872   -10130   -10018    -9641    -9300 
   -9090    -9097    -9317    -9524    -9652    -9891   -10206   -10363 
  -10422   -10519   -10530   -10315    -9871    -9451    -9379    -9590 
   -9850   -10079   -10160   -10042    -9864    -9757    -9805    -9952 
  -10010   -10073   -10326   -10517   -10366    -9963    -9590    -9456 
   -9520    -9624    -9621    -9552    -9620    -9801    -9888    -9810 
   -9610    -9404    -9374    -9590    -9809    -9782    -9614    -9478 
   -9371    -9246    -9117    -9016    -8907    -8773    -8738    -8945 
   -9369    -9848   -10243   -10530   -10660   -10463   -10011    -9775 
