Origin Time       2025/03/28 03:50:00
Lat.              35.403
Long.             140.360
Depth. (km)       54
Mag.              4.4
Station Code      TKY031
Station Lat.      35.6789
Station Long.     139.7070
Station Height(m) 29
Record Time       2025/03/28 03:50:53
Sampling Freq(Hz) 100Hz
Duration Time(s)  70
Dir.              E-W
Scale Factor      7845(gal)/8223790
Max. Acc. (gal)   8.020
Last Correction   2025/03/28 03:50:53
Memo.             
[...]
    3954     3970     3974     3958     3936     3950     3982     3970 
    3929     3933     3969     3975     3971     3971     3955     3935 
    3920     3931     3977     4000     3973     3952     3964     3958 
    3925     3927     3960     3978     3977     3966     3954     3960 
    3970     3950     3947     3974     3979     3973     3966     3947 
    3943     3954     3951     3951     3963     3962     3958     3970 
    3971     3954     3939     3937     3959     3981     3971     3940 
    3939     3969     3973     3958     3955     3954     3948     3954 
    3967     3969     3960     3964     3969     3959     3940     3946 
    3964     3954     3940     3944     3943     3943     3959     3978 
    3979     3962     3940     3946     3981     3985     3947     3939 
    3971     3985     3966     3947     3942     3940     3942     3939 
    3940     3950     3956     3969     3978     3969     3947     3942 
    3959     3983     3996     3979     3946     3944     3977     3975 
    3928     3913     3943     3954     3948     3955     3944     3933 
    3960     3982     3964     3946     3946     3948     3966     3977 
    3958     3943     3960     3987     3979     3939     3923     3948 
    3982     3997     3981     3951     3940     3943     3951     3951 
    3937     3940     3960     3970     3962     3946     3944     3963 
    3973     3959     3936     3948     3989     3993     3955     3929 
    3939     3958     3978     3996     3973     3928     3928     3948 
    3952     3955     3971     3989     3981     3952     3935     3937 
    3950     3948     3942     3951     3971     3974     3967     3973 
    3975     3960     3952     3970     3985     3967     3936     3920 
    3943     3986     3981     3939     3927     3936     3946     3956 
    3962     3973     3996     3991     3963     3954     3950     3960 
    3996     3991     3935     3902     3925     3964     3975     3970 
    3956     3943     3950     3963     3960     3947     3939     3951 
    3967     3962     3944     3940     3955     3978     3979     3959 
    3952     3970     3979     3970     3962     3954     3956     3973 
    3973     3963     3937     3902     3923     3990     4018     3979 
    3921     3906     3942     3994     4008     3966     3936     3936 
    3929     3942     3973     3969     3943     3947     3966     3962 
    3952     3956     3973     3991     3977     3939     3948     3991 
    3991     3950     3915     3908     3936     3971     3981     3963 
    3936     3942     3978     4001     3996     3946     3902     3927 
    3959     3970     3981     3978     3960     3944     3937     3948 
    3967     3974     3966     3950     3935     3937     3971     4017 
    4014     3943     3886     3901     3954     3991     3990     3964 
    3950     3951     3950     3954     3960     3960     3971     3981 
    3966     3946     3942     3947     3947     3931     3929     3956 
    3963     3962     3977     3971     3952     3951     3954     3959 
    3967     3975     3973     3943     3923     3928     3939     3962 
    3974     3974     3991     3994     3967     3954     3956     3946 
    3921     3915     3937     3964     3971     3950     3921     3906 
    3925     3978     4002     3978     3959     3963     3977     3982 
    3960     3943     3951     3967     3978     3973     3947     3935 
    3951     3964     3971     3970     3963     3959     3955     3960 
    3963     3950     3943     3950     3940     3921     3936     3970 
    3989     3983     3958     3940     3946     3954     3954     3947 
    3954     3982     3991     3962     3929     3932     3969     3994 
    3979     3946     3951     3982     3985     3960     3931     3923 
    3955     3982     3963     3932     3932     3958     3975     3973 
    3958     3955     3964     3970     3979     3973     3942     3943 
    3985     4000     3967     3921     3904     3929     3962     3963 
    3956     3983     3997     3978     3964     3954     3944     3950 
    3960     3963     3956     3946     3932     3936     3971     3982 
    3954     3937     3948     3974     3990     3993     3991     3975 
    3947     3933     3936     3943     3962     3966     3950     3954 
    3946     3915     3917     3940     3958     3971     3982     3985 
    3964     3933     3898     3859     3878     3979     4082     4114 
    4093     4043     3913     3667     3531     3893     4591     4811 
    4201     3384     3069     3348     3925     4572     4911     4428 
    3416     3019     3662     4491     4585     3987     3470     3650 
    4244     4444     3944     3341     3433     4185     4749     4514 
    3635     2844     2928     4009     5263     5532     4460     2988 
    2471     3281     4446     4739     4160     3789     4095     4415 
    4128     3476     3211     3661     4256     4293     3894     3748 
    4122     4660     4915     4514     3316     2026     1885     3322 
    5329     6376     5852     4422     3117     2489     2430     2763 
    3584     4765     5787     5926     4683     2751     1742     2474 
    4213     5552     5611     4440     2895     2288     3150     4565 
    5389     5238     4275     3067     2411     2781     3856     4769 
    5073     4835     4151     3424     3195     3551     4032     4033 
    3831     4272     4864     4396     3316     2975     3537     4234 
    4676     4810     4338     3322     2754     3345     4286     4414 
    4029     4108     4472     4284     3709     3557     3894     4202 
    4137     3630     3088     3283     4351     5302     5036     3736 
    2721     2801     3557     4279     4718     4837     4587     4120 
    3762     3539     3225     2992     3345     4271     5077     5151 
    4437     3427     2940     3256     3890     4333     4248     3676 
    3387     3838     4386     4484     4360     4214     3985     3672 
    3491     3673     4050     4334     4557     4614     4164     3277 
    2697     3091     4109     4779     4784     4484     4166     3913 
    3705     3499     3429     3665     4114     4430     4322     4012 
    3863     3786     3763     4010     4311     4240     3842     3507 
    3454     3573     3762     4129     4521     4483     4050     3739 
    3782     3955     3974     3846     3770     3713     3618     3801 
    4384     4873     4774     4051     3208     2941     3431     4261 
    4745     4479     3893     3713     4006     4244     4051     3622 
    3439     3720     4145     4270     4102     3881     3723     3740 
    3889     3916     3790     3750     3982     4347     4441     4098 
    3642     3549     4021     4641     4718     4260     3854     3739 
    3674     3424     3214     3450     3951     4248     4395     4521 
    4378     3951     3609     3562     3747     3998     4205     4321 
    4267     4129     4054     3894     3501     3160     3316     3888 
    4309     4376     4278     4128     3981     3859     3712     3643 
    3834     4158     4332     4249     3958     3667     3619     3863 
    4314     4707     4707     4303     3680     3103     2988     3424 
    4037     4425     4414     4131     3838     3689     3808     4180 
    4419     4202     3655     3130     3102     3736     4453     4668 
    4444     4097     3817     3581     3379     3462     3925     4467 
    4847     4941     4569     3950     3595     3586     3738     3940 
    3964     3753     3582     3690     4045     4293     4131     3724 
    3470     3608     3958     4110     4058     4114     4310     4482 
    4477     4176     3703     3345     3316     3624     3944     3991 
    3925     3979     4091     4102     4009     3963     3970     3855 
    3699     3784     4122     4457     4591     4500     4248     3813 
    3261     3001     3295     3794     4178     4542     4749     4383 
    3624     3265     3645     4179     4345     4338     4329     4097 
    3694     3493     3569     3635     3662     3994     4550     4645 
    4108     3600     3503     3550     3627     3928     4252     4135 
    3738     3785     4544     5185     4781     3713     3094     3225 
    3600     3935     4230     4291     4037     3854     3939     3856 
    3442     3342     3844     4336     4445     4403     4379     4345 
    4213     3955     3720     3510     3258     3341     4008     4650 
    4563     3950     3549     3592     3727     3802     3986     4121 
    3994     3929     4245     4606     4459     3871     3488     3611 
    3858     3854     3690     3580     3591     3850     4411     4870 
    4757     4267     3985     3906     3677     3500     3704     3927 
    3738     3530     3863     4338     4298     4033     4085     4239 
    4071     3705     3603     3970     4513     4639     4113     3426 
    3121     3202     3473     3835     4274     4730     4876     4475 
    3832     3451     3522     3816     3956     3923     3973     4000 
    3669     3281     3449     3963     4189     4070     3944     3996 
    4140     4179     4136     4202     4376     4477     4306     3874 
    3558     3611     3828     3917     3820     3692     3694     3770 
    3715     3631     3940     4494     4537     3896     3392     3688 
    4271     4344     4035     3809     3643     3497     3721     4437 
    5003     4698     3805     3225     3257     3647     4203     4685 
    4787     4428     3866     3515     3443     3447     3501     3632 
    3866     4218     4494     4442     4083     3817     3979     4293 
    4256     3842     3373     3219     3655     4513     5088     4820 
    4024     3554     3653     3834     3809     3769     3902     4037 
    3802     3275     2970     3117     3667     4429     4874     4785 
    4484     4251     4230     4332     4311     4234     4125     3790 
    3387     3260     3369     3391     3283     3474     4128     4654 
    4604     4193     3743     3503     3669     4108     4422     4233 
    3620     3387     4070     5031     5292     4708     3897     3369 
    3109     3048     3349     3871     4186     4175     3948     3541 
    3152     3241     3970     4747     4885     4560     4340     4305 
    4361     4527     4536     4090     3397     3011     3308     3921 
    4075     3763     3592     3705     3923     4255     4658     4716 
    4132     3438     3395     3805     3904     3618     3510     3757 
    4031     4144     4153     4045     3843     3844     4234     4631 
    4554     4128     3856     3920     4045     3950     3657     3331 
    3146     3341     3970     4542     4504     4091     3946     4043 
    4001     3960     4151     4298     4198     4137     4178     3948 
    3483     3264     3434     3678     3728     3689     3850     4156 
    4321     4394     4423     4210     3974     4074     4163     3780 
    3257     3284     3883     4421     4563     4534     4414     4009 
    3519     3453     3786     3924     3680     3619     3958     4097 
    3794     3580     3805     4205     4374     4280     4136     3974 
    3838     4008     4460     4637     4210     3596     3339     3424 
    3615     3977     4472     4608     4128     3532     3337     3433 
    3609     3921     4317     4429     4140     3990     4218     4272 
    3963     3730     3816     4031     4067     3885     3661     3550 
    3682     3956     4060     3923     3773     3859     4201     4449 
    4298     3959     3774     3726     3659     3635     3777     4036 
    4317     4607     4742     4463     3870     3423     3399     3599 
    3680     3662     3805     4112     4383     4571     4676     4536 
    4099     3613     3279     3095     3133     3543     4151     4448 
    4214     3740     3416     3495     3985     4623     5007     4820 
    4260     3940     4077     4209     3939     3534     3508     3790 
    3946     3932     3842     3523     3153     3291     3882     4230 
    4147     4176     4549     4772     4480     4006     3869     4016 
    4044     3913     3793     3611     3294     3103     3307     3736 
    4095     4311     4455     4558     4546     4519     4638     4564 
    4032     3474     3245     3150     3042     3056     3361     3858 
    4234     4452     4737     4989     4845     4247     3597     3361 
    3530     3688     3639     3564     3699     4060     4376     4419 
    4230     4006     3935     4043     4176     4151     3940     3676 
    3389     3161     3292     3825     4342     4467     4221     3909 
    3730     3757     4125     4758     5148     4735     3704     3067 
    3330     3856     4071     4102     4149     4172     4083     3847 
    3470     3140     3253     3921     4599     4676     4257     4000 
    4244     4702     4896     4618     3932     3113     2608     2764 
    3415     3959     4033     3867     3751     3662     3669     4025 
    4641     5071     5058     4712     4271     3890     3672     3762 
    4082     4128     3565     2762     2354     2650     3510     4469 
    5065     5117     4807     4534     4521     4514     4174     3568 
    3049     2793     2727     2863     3279     3847     4361     4676 
    4665     4465     4446     4699     4997     5165     5150     4845 
    4143     3215     2311     1443      650      148      -28       85 
     634     1729     3443     5601     7680     9421    10721    11335 
   11168    10176     8332     5710     2470     -758    -3169    -4422 
   -4449    -3300    -1206     1485     4108     6030     7236     8136 
    8945     9402     9385     8953     7861     6073     4014     2446 
    2050     2292     2200     2047     2392     2948     3360     3415 
    2832     1676      495       16      492     1614     3164     4949 
    6590     7713     8113     8028     7774     7294     6579     5886 
    5292     4606     3816     3183     2668     1871      708     -511 
   -1540    -1965    -1201      629     2624     4322     6019     7962 
    9850    10798    10203     8591     6751     4869     3026     1459 
     355       27      604     1498     2016     2019     1989     2678 
    4012     5233     6076     6524     6382     5763     5128     4772 
    4446     3649     2527     1944     2385     3435     4363     4903 
    5348     5737     5722     5314     4801     4274     3807     3399 
    2790     1929     1155      726      778     1553     3106     5036 
    6673     7524     7645     7425     6895     5756     4253     3011 
    2133     1312      499       32      342     1493     2978     4345 
    5436     5917     5699     5297     5017     4923     5219     5740 
    5863     5285     4387     3693     3337     3099     2720     2218 
    1918     2139     2866     3646     4032     4052     3997     4163 
    4777     5634     6110     5799     4982     4405     4403     4523 
    4179     3393     2708     2384     2214     2045     1900     1972 
    2515     3426     4284     4822     5108     5401     5844     6239 
    6226     5719     5009     4357     3716     3046     2643     2741 
    3190     3646     3793     3546     3132     2956     3384     4303 
    5054     5113     4625     4077     3777     3731     3689     3435 
    3159     3218     3700     4348     4799     4896     4823     4750 
    4575     4236     3877     3504     3019     2582     2482     2849 
    3537     4149     4421     4450     4353     4047     3559     3188 
    3206     3616     4194     4702     5035     5116     4866     4384 
    3917     3673     3723     3985     4233     4198     3731     3076 
    2810     3146     3669     3962     4095     4320     4598     4769 
    4896     5067     5070     4702     4178     3834     3700     3628 
    3569     3477     3281     3067     2965     3026     3295     3647 
    3761     3538     3273     3253     3466     3847     4371     4884 
    5162     5151     5020     4878     4652     4332     4012     3682 
    3352     3237     3573     4261     4857     4985     4726     4396 
    4140     3873     3528     3260     3217     3249     3190     3092 
    3159     3550     4170     4703     4945     4881     4621     4320 
    4091     4012     4133     4363     4360     3811     2853     2020 
    1725     1968     2458     3033     3730     4488     5197     5837 
    6322     6463     6146     5521     4868     4136     3208     2390 
    2104     2386     2890     3238     3291     3149     3123     3499 
    4220     4950     5398     5516     5429     5186     4695     3943 
    3180     2767     2793     3065     3360     3499     3624     4017 
    4565     4976     5077     4788     4283     3909     3836     3908 
    3809     3435     3017     2880     3109     3505     3815     3867 
    3716     3616     3735     3917     3919     3816     3835     3940 
    4033     4198     4438     4587     4598     4580     4652     4811 
    4862     4679     4352     3979     3677     3627     3828     4071 
    4159     4010     3708     3441     3291     3235     3199     3042 
    2853     2933     3311     3720     3979     4159     4453     4854 
    5084     4941     4548     4216     4160     4365     4706     5020 
    5119     4837     4205     3538     3094     2779     2504     2370 
    2381     2493     2794     3296     3905     4604     5374     6002 
    6150     5656     4779     3970     3435     3133     3061     3157 
    3152     2930     2727     2824     3283     3866     4337     4590 
    4594     4577     4801     5146     5273     5081     4719     4171 
    3460     3011     3075     3366     3566     3654     3746     3883 
    4005     4023     3963     3897     3852     3912     4004     3952 
    3834     3823     3936     4055     4089     4145     4333     4457 
    4284     3952     3811     3997     4274     4226     3759     3294 
    3260     3599     3947     4144     4321     4579     4818     4873 
    4633     4072     3281     2501     2070     2174     2718     3457 
    4054     4341     4491     4679     4942     5235     5400     5346 
    5150     4935     4730     4460     4106     3665     3063     2442 
    2099     2091     2373     2937     3645     4333     4845     4931 
    4595     4252     4234     4488     4784     4896     4739     4337 
    3746     3179     2947     3123     3530     3900     4027     3910 
    3778     3794     3869     3906     4025     4239     4334     4236 
    4095     4055     4094     4098     4016     3894     3834     3937 
    4160     4271     4085     3693     3298     3017     2921     3061 
    3423     3916     4320     4483     4550     4729     5040     5309 
    5310     4996     4401     3604     2928     2706     2887     3150 
    3253     3235     3337     3649     4048     4406     4638     4677 
    4571     4456     4347     4101     3681     3253     2983     2911 
    2991     3134     3303     3508     3773     4207     4833     5412 
    5778     5972     6019     5834     5378     4816     4252     3559 
    2762     2184     2070     2330     2718     3060     3262     3353 
    3458     3628     3855     4175     4576     4957     5158     5040 
    4657     4186     3762     3456     3281     3261     3415     3708 
    4074     4369     4445     4267     3958     3804     3950     4094 
    3896     3541     3528     4014     4644     4932     4749     4380 
