Origin Time       2025/03/28 03:50:00
Lat.              35.403
Long.             140.360
Depth. (km)       54
Mag.              4.4
Station Code      YMN002
Station Lat.      35.6133
Station Long.     138.9473
Station Height(m) 365
Record Time       2025/03/28 03:51:14
Sampling Freq(Hz) 100Hz
Duration Time(s)  60
Dir.              U-D
Scale Factor      7845(gal)/8223790
Max. Acc. (gal)   0.851
Last Correction   2025/03/28 03:51:13
Memo.             
[...]
  -13852   -13913   -14081   -14184   -14157   -14183   -14331   -14401 
  -14292   -14202   -14231   -14165   -13987   -13980   -14169   -14281 
  -14235   -14235   -14335   -14256   -13911   -13613   -13558   -13647 
  -13849   -14211   -14531   -14547   -14393   -14347   -14328   -14143 
  -13984   -14035   -14021   -13779   -13705   -14092   -14588   -14697 
  -14462   -14218   -14052   -13879   -13751   -13801   -14023   -14239 
  -14277   -14208   -14268   -14432   -14418   -14160   -13902   -13791 
  -13830   -14003   -14196   -14338   -14420   -14338   -14156   -14106 
  -14168   -14150   -14058   -14067   -14148   -14126   -14076   -14146 
  -14242   -14195   -14029   -13934   -13973   -14014   -14025   -14087 
  -14200   -14276   -14245   -14204   -14206   -14119   -14014   -14026 
  -14052   -14075   -14162   -14273   -14370   -14382   -14299   -14214 
  -14112   -13965   -13832   -13794   -13895   -14042   -14160   -14343 
  -14543   -14542   -14349   -14165   -14060   -13929   -13755   -13711 
  -13845   -14050   -14324   -14540   -14542   -14436   -14281   -14076 
  -13927   -13888   -13913   -13915   -13905   -14044   -14315   -14508 
  -14551   -14458   -14265   -14041   -13778   -13616   -13779   -14099 
  -14229   -14206   -14285   -14428   -14341   -14108   -14091   -14187 
  -14121   -13984   -13964   -14057   -14092   -14045   -14106   -14208 
  -14165   -14098   -14169   -14305   -14319   -14261   -14291   -14249 
  -14029   -13860   -13830   -13851   -13899   -14027   -14233   -14392 
  -14477   -14535   -14466   -14283   -14116   -13940   -13761   -13711 
  -13867   -14115   -14268   -14365   -14492   -14508   -14320   -14023 
  -13774   -13693   -13744   -13848   -13991   -14172   -14349   -14446 
  -14480   -14503   -14413   -14153   -13876   -13749   -13791   -13914 
  -14102   -14359   -14508   -14408   -14250   -14224   -14192   -14008 
  -13841   -13890   -14015   -14029   -14107   -14358   -14477   -14312 
  -14131   -14129   -14141   -13999   -13878   -13980   -14143   -14137 
  -14065   -14131   -14268   -14284   -14172   -14100   -14123   -14121 
  -14048   -13984   -14035   -14172   -14204   -14130   -14145   -14187 
  -14079   -13971   -14054   -14212   -14266   -14245   -14285   -14315 
  -14185   -14081   -14130   -14116   -13990   -13922   -13964   -14048 
  -14142   -14264   -14378   -14373   -14249   -14164   -14135   -14060 
  -14008   -14048   -14069   -14017   -13988   -14103   -14273   -14274 
  -14138   -14110   -14204   -14203   -14102   -14084   -14115   -14081 
  -14058   -14121   -14169   -14145   -14145   -14224   -14230   -14088 
  -14033   -14161   -14220   -14084   -13979   -14091   -14218   -14149 
  -14050   -14077   -14141   -14154   -14129   -14131   -14179   -14229 
  -14256   -14224   -14149   -14118   -14157   -14191   -14133   -14034 
  -14046   -14141   -14139   -14048   -14033   -14116   -14127   -14003 
  -13949   -14127   -14326   -14337   -14307   -14312   -14195   -13998 
  -13926   -13977   -14014   -14026   -14108   -14235   -14327   -14368 
  -14318   -14173   -14038   -13981   -13991   -14002   -13949   -13932 
  -14076   -14287   -14397   -14382   -14327   -14254   -14122   -14004 
  -13984   -14013   -14053   -14126   -14183   -14224   -14262   -14237 
  -14176   -14137   -14067   -13967   -13948   -14068   -14200   -14203 
  -14148   -14139   -14137   -14091   -14029   -14026   -14083   -14118 
  -14193   -14319   -14399   -14449   -14401   -14135   -13817   -13706 
  -13795   -13906   -13998   -14162   -14358   -14416   -14342   -14285 
  -14261   -14185   -14050   -13940   -13940   -14038   -14177   -14332 
  -14411   -14311   -14149   -14088   -14050   -13907   -13756   -13795 
  -13999   -14162   -14274   -14430   -14513   -14405   -14220   -14118 
  -14048   -13903   -13813   -13914   -14044   -14115   -14265   -14423 
  -14366   -14148   -14019   -14045   -14077   -14069   -14123   -14233 
  -14262   -14199   -14187   -14245   -14208   -14081   -14056   -14075 
  -13930   -13776   -13919   -14203   -14284   -14227   -14243   -14241 
  -14118   -14085   -14266   -14346   -14145   -13959   -13961   -13979 
  -13953   -14033   -14251   -14409   -14368   -14280   -14274   -14235 
  -14089   -13923   -13849   -13892   -13960   -14041   -14195   -14364 
  -14467   -14493   -14401   -14188   -13942   -13770   -13740   -13848 
  -14014   -14197   -14385   -14507   -14480   -14328   -14187   -14100 
  -13952   -13763   -13741   -13914   -14080   -14169   -14278   -14393 
  -14399   -14273   -14129   -14061   -14042   -14000   -13967   -14008 
  -14092   -14162   -14204   -14218   -14227   -14204   -14099   -13990 
  -13973   -14053   -14188   -14303   -14323   -14287   -14266   -14234 
  -14148   -14087   -14069   -14023   -13960   -13969   -14067   -14149 
  -14165   -14196   -14239   -14191   -14080   -14006   -14006   -14064 
  -14135   -14214   -14319   -14372   -14324   -14250   -14165   -14030 
  -13898   -13859   -13952   -14107   -14215   -14305   -14404   -14399 
  -14245   -14081   -14003   -13954   -13879   -13851   -13971   -14176 
  -14319   -14365   -14369   -14328   -14193   -13988   -13865   -13900 
  -13983   -14056   -14197   -14330   -14287   -14177   -14169   -14179 
  -14107   -14044   -14072   -14122   -14111   -14104   -14172   -14287 
  -14331   -14220   -14079   -14052   -14088   -14071   -14013   -14017 
  -14081   -14112   -14104   -14116   -14153   -14177   -14191   -14235 
  -14274   -14233   -14162   -14119   -14052   -13972   -13959   -14000 
  -14041   -14053   -14098   -14269   -14439   -14434   -14339   -14270 
  -14176   -14000   -13846   -13842   -13909   -13967   -14107   -14316 
  -14408   -14346   -14260   -14188   -14091   -14013   -14027   -14094 
  -14116   -14100   -14118   -14204   -14265   -14165   -13984   -13933 
  -14022   -14098   -14122   -14195   -14323   -14357   -14250   -14138 
  -14095   -14045   -13942   -13875   -13942   -14111   -14235   -14283 
  -14330   -14355   -14292   -14169   -14035   -13960   -13979   -14018 
  -14067   -14172   -14262   -14272   -14242   -14214   -14146   -14030 
  -13952   -13959   -14013   -14121   -14270   -14342   -14305   -14262 
  -14241   -14206   -14122   -14002   -13925   -13942   -14033   -14153 
  -14229   -14222   -14169   -14133   -14131   -14137   -14107   -14079 
  -14075   -14071   -14098   -14168   -14212   -14185   -14112   -14069 
  -14085   -14116   -14118   -14089   -14085   -14146   -14215   -14230 
  -14226   -14242   -14231   -14175   -14121   -14079   -14030   -14013 
  -14052   -14095   -14127   -14199   -14265   -14222   -14096   -14033 
  -14092   -14162   -14142   -14095   -14139   -14247   -14311   -14295 
  -14239   -14161   -14037   -13898   -13853   -13952   -14106   -14199 
  -14233   -14274   -14314   -14289   -14218   -14135   -14042   -13952 
  -13923   -13957   -13996   -14062   -14189   -14293   -14288   -14212 
  -14164   -14142   -14081   -14044   -14112   -14215   -14238   -14173 
  -14115   -14135   -14153   -14123   -14142   -14212   -14207   -14129 
  -14089   -14112   -14148   -14153   -14115   -14048   -14006   -14017 
  -14019   -14008   -14077   -14191   -14241   -14239   -14235   -14219 
  -14188   -14172   -14164   -14143   -14119   -14085   -14044   -14015 
  -14017   -14068   -14162   -14251   -14288   -14276   -14251   -14203 
  -14127   -14071   -14018   -13942   -13919   -13996   -14096   -14168 
  -14245   -14323   -14338   -14268   -14173   -14091   -14008   -13968 
  -14014   -14106   -14150   -14114   -14107   -14220   -14335   -14285 
  -14127   -14008   -13954   -13952   -14025   -14148   -14239   -14260 
  -14260   -14262   -14211   -14114   -14056   -14007   -13932   -13953 
  -14114   -14251   -14293   -14322   -14351   -14292   -14129   -13975 
  -13905   -13883   -13918   -14045   -14226   -14365   -14404   -14374 
  -14314   -14184   -14017   -13949   -13977   -13968   -13922   -13950 
  -14094   -14266   -14337   -14301   -14250   -14179   -14076   -14015 
  -14023   -14058   -14100   -14156   -14197   -14218   -14243   -14242 
  -14189   -14133   -14107   -14083   -14044   -14017   -14061   -14172 
  -14261   -14270   -14222   -14177   -14158   -14102   -14017   -13990 
  -14007   -14031   -14094   -14158   -14149   -14115   -14145   -14208 
  -14241   -14235   -14193   -14141   -14129   -14141   -14088   -13995 
  -13992   -14068   -14126   -14152   -14170   -14193   -14208   -14192 
  -14152   -14125   -14122   -14137   -14191   -14261   -14278   -14241 
  -14202   -14153   -14052   -13923   -13845   -13860   -13946   -14094 
  -14304   -14453   -14416   -14307   -14262   -14207   -14045   -13869 
  -13830   -13930   -14048   -14143   -14261   -14357   -14328   -14210 
  -14131   -14094   -13994   -13861   -13894   -14107   -14227   -14189 
  -14223   -14343   -14338   -14195   -14108   -14114   -14075   -13964 
  -13909   -13981   -14126   -14254   -14320   -14324   -14277   -14207 
  -14137   -14075   -14042   -14073   -14131   -14137   -14106   -14125 
  -14187   -14196   -14087   -13946   -13919   -14006   -14100   -14162 
  -14242   -14312   -14277   -14181   -14130   -14106   -14069   -14062 
  -14114   -14173   -14188   -14179   -14162   -14115   -14053   -14015 
  -14008   -14019   -14046   -14111   -14210   -14319   -14416   -14434 
  -14323   -14158   -14007   -13886   -13859   -13957   -14088   -14129 
  -14111   -14137   -14189   -14264   -14341   -14323   -14227   -14138 
  -14057   -13988   -13973   -14046   -14166   -14230   -14210   -14170 
  -14111   -14056   -14080   -14139   -14153   -14126   -14088   -14048 
  -14025   -14077   -14218   -14320   -14307   -14215   -14067   -13944 
  -13965   -14062   -14111   -14164   -14268   -14338   -14332   -14315 
  -14289   -14189   -14057   -13964   -13873   -13815   -13865   -13971 
  -14062   -14175   -14304   -14393   -14408   -14324   -14170   -14071 
  -14077   -14102   -14056   -13999   -14018   -14080   -14168   -14268 
  -14274   -14168   -14035   -13949   -13945   -14025   -14150   -14257 
  -14305   -14316   -14324   -14297   -14180   -14010   -13900   -13888 
  -13922   -13998   -14145   -14310   -14403   -14396   -14295   -14153 
  -14065   -14045   -14023   -13992   -14058   -14199   -14219   -14123 
  -14116   -14183   -14154   -14037   -13972   -14013   -14062   -14046 
  -14045   -14164   -14326   -14365   -14288   -14253   -14246   -14108 
  -13938   -13922   -13976   -14000   -14068   -14180   -14229   -14224 
  -14274   -14330   -14283   -14153   -14003   -13907   -13903   -13981 
  -14156   -14378   -14482   -14403   -14305   -14292   -14220   -14048 
  -13933   -13878   -13806   -13815   -13963   -14126   -14211   -14277 
  -14385   -14430   -14314   -14133   -13995   -13910   -13861   -13884 
  -14025   -14220   -14346   -14382   -14364   -14312   -14292   -14293 
  -14196   -13998   -13863   -13864   -13902   -13937   -14015   -14119 
  -14183   -14199   -14214   -14241   -14238   -14169   -14084   -14089 
  -14179   -14242   -14272   -14264   -14187   -14098   -14044   -13990 
  -13960   -14011   -14099   -14131   -14141   -14223   -14316   -14315 
  -14256   -14160   -14014   -13937   -13988   -14083   -14169   -14229 
  -14210   -14119   -14053   -14079   -14135   -14127   -14092   -14131 
  -14202   -14179   -14091   -14088   -14185   -14258   -14278   -14303 
  -14283   -14137   -13965   -13902   -13909   -13919   -13972   -14099 
  -14258   -14368   -14341   -14246   -14229   -14223   -14104   -13956 
  -13954   -14060   -14069   -13991   -14014   -14157   -14265   -14250 
  -14189   -14181   -14195   -14180   -14200   -14237   -14166   -14050 
  -14026   -14064   -14079   -14072   -14103   -14138   -14081   -14007 
  -14046   -14129   -14153   -14180   -14261   -14281   -14193   -14139 
  -14173   -14192   -14146   -14111   -14123   -14126   -14104   -14111 
  -14161   -14192   -14158   -14112   -14122   -14141   -14103   -14073 
  -14114   -14138   -14108   -14121   -14203   -14230   -14166   -14150 
  -14204   -14192   -14134   -14148   -14206   -14199   -14100   -14000 
  -13976   -13987   -13957   -13929   -14003   -14165   -14320   -14407 
  -14408   -14355   -14239   -14102   -14040   -14027   -13977   -13948 
  -14048   -14215   -14276   -14227   -14212   -14235   -14177   -14021 
  -13906   -13913   -13965   -13957   -13895   -13882   -14017   -14264 
  -14461   -14531   -14557   -14551   -14416   -14170   -13963   -13887 
  -13888   -13853   -13813   -13919   -14141   -14322   -14430   -14451 
  -14386   -14292   -14129   -13898   -13734   -13711   -13797   -13923 
  -14057   -14284   -14594   -14793   -14743   -14504   -14199   -13890 
  -13621   -13477   -13525   -13734   -14026   -14334   -14589   -14742 
  -14743   -14546   -14193   -13828   -13560   -13454   -13555   -13826 
  -14148   -14442   -14694   -14839   -14786   -14508   -14099   -13729 
  -13500   -13428   -13535   -13788   -14092   -14401   -14728   -14971 
  -14910   -14569   -14206   -13864   -13517   -13382   -13528   -13771 
  -14042   -14320   -14524   -14608   -14574   -14454   -14251   -13998 
  -13801   -13726   -13818   -14057   -14311   -14455   -14407   -14168 
  -13921   -13795   -13749   -13771   -13909   -14192   -14513   -14692 
  -14763   -14823   -14678   -14253   -13794   -13493   -13394   -13512 
  -13806   -14168   -14503   -14728   -14751   -14561   -14268   -13967 
  -13702   -13537   -13508   -13593   -13840   -14237   -14586   -14767 
  -14809   -14662   -14264   -13799   -13508   -13444   -13568   -13788 
  -14026   -14353   -14775   -15025   -14909   -14553   -14126   -13680 
  -13332   -13269   -13500   -13890   -14312   -14669   -14906   -14986 
  -14777   -14249   -13711   -13441   -13371   -13451   -13757   -14137 
  -14373   -14563   -14833   -14917   -14602   -14191   -13964   -13811 
  -13710   -13834   -14103   -14235   -14180   -14068   -14004   -14004 
  -14018   -14075   -14156   -14138   -14108   -14250   -14446   -14477 
  -14372   -14238   -14058   -13818   -13630   -13621   -13765   -13971 
  -14206   -14442   -14661   -14787   -14644   -14300   -14040   -13878 
  -13724   -13670   -13749   -13919   -14162   -14384   -14492   -14469 
  -14326   -14145   -14013   -13959   -13979   -14017   -14049   -14100 
  -14173   -14237   -14223   -14139   -14138   -14224   -14238   -14197 
  -14246   -14322   -14233   -13995   -13871   -13980   -14133   -14170 
  -14160   -14170   -14150   -14099   -14075   -14038   -13957   -13925 
  -13963   -13996   -14080   -14261   -14430   -14481   -14455   -14397 
  -14231   -13964   -13818   -13864   -13914   -13919   -14008   -14169 
  -14295   -14393   -14512   -14580   -14478   -14238   -13990   -13794 
  -13709   -13822   -14040   -14126   -14091   -14148   -14250   -14211 
  -14129   -14148   -14139   -13975   -13803   -13848   -14038   -14161 
  -14249   -14434   -14581   -14520   -14357   -14212   -14046   -13868 
  -13791   -13802   -13797   -13869   -14149   -14499   -14715   -14721 
  -14517   -14164   -13787   -13572   -13581   -13659   -13740   -13923 
  -14160   -14320   -14443   -14558   -14553   -14382   -14154   -13979 
  -13880   -13878   -14019   -14250   -14407   -14427   -14349   -14231 
  -14215   -14330   -14370   -14196   -13929   -13786   -13830   -13949 
  -14084   -14222   -14274   -14214   -14130   -14108   -14145   -14165 
  -14116   -14022   -13986   -14118   -14332   -14424   -14365   -14249 
  -14092   -13917   -13849   -13952   -14098   -14125   -14052   -14041 
  -14106   -14143   -14146   -14169   -14197   -14192   -14165   -14153 
  -14166   -14149   -14044   -13894   -13817   -13895   -14067   -14245 
  -14436   -14596   -14638   -14566   -14411   -14197   -14029   -13938 
  -13848   -13744   -13726   -13884   -14115   -14211   -14168   -14143 
  -14173   -14195   -14185   -14219   -14345   -14445   -14418   -14281 
  -14077   -13900   -13815   -13748   -13664   -13695   -13911   -14138 
  -14226   -14299   -14446   -14516   -14413   -14223   -14038   -13922 
  -13907   -14007   -14150   -14243   -14326   -14431   -14485   -14440 
  -14346   -14218   -14044   -13890   -13813   -13834   -14000   -14257 
  -14430   -14430   -14322   -14220   -14162   -14108   -14010   -13857 
  -13741   -13743   -13836   -14011   -14231   -14339   -14273   -14193 
  -14192   -14165   -14076   -14044   -14110   -14149   -14111   -14100 
  -14164   -14165   -14067   -14068   -14220   -14311   -14274   -14233 
  -14247   -14261   -14207   -14118   -14072   -14065   -14062   -14052 
  -14030   -14000   -13981   -14004   -14054   -14067   -14062   -14115 
  -14185   -14199   -14219   -14320   -14407   -14328   -14175   -14143 
  -14173   -14098   -13983   -13957   -13977   -13969   -13977   -14054 
  -14170   -14283   -14353   -14368   -14314   -14199   -14071   -13967 
  -13922   -13972   -14067   -14138   -14173   -14203   -14285   -14380 
  -14341   -14177   -14017   -13882   -13797   -13864   -14058   -14219 
  -14278   -14307   -14339   -14339   -14324   -14322   -14242   -14060 
  -13906   -13867   -13941   -14081   -14211   -14305   -14338   -14249 
  -14096   -14010   -13990   -13940   -13864   -13902   -14088   -14239 
  -14304   -14407   -14496   -14396   -14125   -13882   -13757   -13695 
  -13724   -13903   -14150   -14377   -14555   -14648   -14629   -14484 
  -14253   -14046   -13909   -13813   -13782   -13878   -14072   -14241 
  -14334   -14378   -14337   -14203   -14099   -14041   -13926   -13803 
  -13799   -13842   -13846   -13918   -14123   -14334   -14470   -14551 
  -14530   -14347   -14102   -13968   -13932   -13914   -13996   -14160 
  -14257   -14273   -14276   -14251   -14165   -14038   -13932   -13883 
  -13910   -14025   -14197   -14358   -14430   -14374   -14265   -14202 
  -14162   -14081   -13959   -13873   -13882   -13965   -14111   -14308 
  -14478   -14515   -14385   -14197   -14085   -14034   -13960   -13907 
  -13967   -14085   -14135   -14153   -14254   -14386   -14405   -14281 
  -14080   -13894   -13818   -13875   -14029   -14234   -14388   -14420 
  -14350   -14224   -14099   -13971   -13836   -13792   -13892   -14023 
  -14141   -14308   -14480   -14521   -14400   -14210   -14014   -13811 
  -13682   -13730   -13907   -14107   -14300   -14438   -14418   -14257 
  -14089   -13976   -13926   -13938   -13969   -13998   -14049   -14166 
  -14366   -14542   -14553   -14435   -14300   -14153   -13995   -13917 
  -13940   -13979   -14044   -14208   -14372   -14386   -14308   -14212 
  -14072   -13936   -13890   -13940   -14031   -14104   -14145   -14168 
  -14179   -14224   -14297   -14254   -14050   -13882   -13925   -14072 
  -14134   -14141   -14191   -14230   -14191   -14135   -14139   -14166 
  -14146   -14111   -14107   -14071   -14002   -13992   -14085   -14211 
  -14247   -14191   -14149   -14139   -14142   -14204   -14293   -14296 
  -14187   -14065   -14071   -14156   -14156   -14092   -14091   -14134 
  -14176   -14237   -14304   -14328   -14266   -14162   -14060   -13923 
  -13802   -13805   -13896   -13983   -14041   -14108   -14211   -14292 
  -14312   -14307   -14251   -14118   -14027   -14042   -14080   -14123 
  -14184   -14180   -14079   -14007   -14076   -14187   -14191   -14112 
  -14079   -14111   -14111   -14076   -14094   -14143   -14179   -14229 
  -14278   -14264   -14229   -14239   -14216   -14123   -14069   -14083 
  -14064   -14014   -14031   -14114   -14180   -14237   -14322   -14384 
