Origin Time       2025/03/28 03:50:00
Lat.              35.403
Long.             140.360
Depth. (km)       54
Mag.              4.4
Station Code      YMN002
Station Lat.      35.6133
Station Long.     138.9473
Station Height(m) 365
Record Time       2025/03/28 03:51:14
Sampling Freq(Hz) 100Hz
Duration Time(s)  60
Dir.              N-S
Scale Factor      7845(gal)/8223790
Max. Acc. (gal)   1.705
Last Correction   2025/03/28 03:51:13
Memo.             
[...]
    2261     2266     2277     2273     2273     2276     2273     2274 
    2280     2284     2281     2281     2282     2268     2262     2265 
    2266     2273     2268     2253     2236     2231     2241     2246 
    2258     2269     2253     2219     2182     2173     2209     2282 
    2385     2478     2482     2365     2199     2091     2058     2110 
    2250     2370     2397     2409     2439     2434     2349     2176 
    2034     2101     2371     2590     2519     2189     1907     1900 
    2037     2130     2234     2349     2380     2397     2435     2359 
    2205     2133     2111     2110     2207     2343     2415     2409 
    2350     2320     2401     2520     2509     2330     2124     2031 
    2096     2261     2397     2451     2434     2331     2201     2124 
    2085     2049     2058     2166     2319     2413     2373     2218 
    2076     2025     2085     2216     2305     2376     2511     2639 
    2629     2431     2209     2168     2231     2228     2131     2050 
    2154     2392     2519     2477     2373     2249     2150     2169 
    2226     2181     2151     2165     2073     2039     2207     2374 
    2459     2481     2381     2241     2258     2409     2442     2373 
    2376     2334     2230     2188     2147     2127     2126     2080 
    2151     2317     2338     2257     2197     2150     2149     2223 
    2313     2381     2434     2452     2405     2363     2392     2347 
    2214     2214     2299     2288     2208     2123     2076     2120 
    2216     2327     2385     2299     2177     2160     2180     2146 
    2111     2164     2270     2428     2621     2641     2506     2435 
    2371     2290     2299     2301     2207     2049     1931     1998 
    2176     2281     2308     2285     2223     2193     2219     2245 
    2251     2238     2230     2319     2452     2458     2317     2184 
    2164     2227     2349     2457     2447     2398     2392     2386 
    2338     2177     1998     1942     2023     2172     2222     2218 
    2309     2397     2444     2455     2370     2214     2007     1958 
    2160     2343     2423     2423     2374     2440     2558     2524 
    2312     2127     2123     2133     2085     2095     2122     2157 
    2235     2301     2293     2242     2273     2324     2289     2303 
    2413     2454     2398     2301     2184     2176     2297     2359 
    2326     2238     2161     2214     2297     2326     2347     2259 
    2087     2039     2095     2165     2319     2492     2484     2342 
    2255     2234     2200     2185     2219     2212     2174     2276 
    2489     2585     2531     2423     2288     2153     2010     1912 
    2015     2188     2207     2227     2357     2438     2446     2427 
    2361     2277     2273     2350     2363     2265     2149     2115 
    2161     2168     2153     2197     2216     2214     2255     2317 
    2397     2444     2421     2359     2320     2362     2403     2365 
    2319     2250     2108     2015     2046     2114     2214     2328 
    2312     2226     2253     2326     2349     2324     2218     2091 
    2080     2208     2346     2420     2489     2524     2478     2405 
    2272     2104     2025     2011     2038     2119     2253     2404 
    2438     2340     2269     2282     2362     2394     2290     2228 
    2327     2404     2330     2232     2197     2153     2116     2111 
    2103     2181     2340     2446     2471     2430     2335     2255 
    2211     2170     2139     2188     2263     2246     2192     2182 
    2231     2350     2471     2521     2504     2413     2292     2230 
    2218     2192     2147     2112     2126     2184     2224     2211 
    2173     2197     2276     2296     2278     2290     2324     2388 
    2438     2389     2282     2219     2209     2224     2236     2197 
    2103     2043     2096     2203     2308     2454     2559     2519 
    2435     2405     2382     2317     2245     2188     2141     2130 
    2116     2111     2195     2262     2272     2323     2354     2344 
    2390     2421     2307     2151     2131     2188     2262     2349 
    2312     2180     2127     2173     2232     2241     2227     2245 
    2309     2462     2592     2548     2415     2266     2111     2018 
    2041     2143     2215     2192     2211     2312     2340     2315 
    2322     2305     2270     2292     2373     2439     2454     2452 
    2413     2292     2115     1971     1952     2042     2151     2249 
    2320     2338     2354     2388     2353     2258     2184     2150 
    2189     2295     2394     2473     2496     2413     2249     2092 
    2026     2066     2133     2142     2153     2227     2377     2571 
    2640     2509     2307     2141     2116     2200     2216     2143 
    2092     2162     2299     2338     2315     2336     2354     2289 
    2209     2227     2259     2216     2176     2208     2268     2317 
    2419     2517     2452     2334     2355     2363     2212     2106 
    2147     2195     2218     2258     2301     2332     2336     2332 
    2305     2218     2138     2126     2131     2147     2219     2282 
    2295     2303     2317     2366     2416     2408     2365     2239 
    2091     2092     2195     2280     2305     2257     2216     2262 
    2351     2354     2269     2211     2212     2292     2428     2461 
    2374     2320     2324     2304     2236     2155     2085     2049 
    2023     2002     2076     2269     2443     2494     2455     2382 
    2327     2355     2415     2397     2343     2278     2174     2138 
    2226     2272     2214     2193     2203     2170     2182     2272 
    2347     2313     2200     2145     2203     2322     2457     2533 
    2471     2312     2173     2127     2164     2188     2161     2151 
    2173     2232     2335     2385     2397     2442     2424     2285 
    2180     2212     2270     2295     2307     2247     2177     2204 
    2308     2446     2492     2328     2077     1923     1927     2010 
    2070     2122     2157     2219     2430     2644     2654     2583 
    2567     2560     2509     2344     2116     1966     1914     1950 
    2052     2101     2108     2193     2304     2355     2396     2436 
    2427     2382     2385     2439     2436     2354     2247     2143 
    2087     2097     2182     2293     2340     2353     2350     2257 
    2165     2195     2230     2164     2134     2232     2322     2308 
    2257     2226     2216     2232     2315     2446     2528     2542 
    2505     2432     2339     2216     2088     1950     1826     1822 
    1926     2091     2309     2485     2539     2540     2559     2547 
    2455     2365     2339     2251     2083     2056     2169     2222 
    2226     2218     2170     2138     2115     2079     2133     2297 
    2436     2490     2467     2416     2444     2512     2512     2447 
    2335     2214     2160     2134     2046     1930     1904     1977 
    2091     2238     2366     2398     2381     2411     2455     2409 
    2297     2222     2222     2295     2381     2417     2388     2304 
    2250     2243     2207     2137     2074     2062     2126     2228 
    2299     2293     2281     2309     2300     2285     2354     2411 
    2376     2339     2359     2400     2393     2301     2181     2114 
    2120     2134     2107     2111     2158     2192     2245     2331 
    2378     2377     2386     2361     2307     2362     2444     2416 
    2338     2246     2169     2158     2166     2155     2120     2084 
    2111     2196     2300     2411     2465     2405     2357     2411 
    2398     2263     2150     2106     2128     2232     2339     2349 
    2280     2207     2178     2232     2305     2312     2276     2224 
    2196     2245     2322     2346     2307     2278     2326     2420 
    2475     2428     2324     2253     2220     2181     2127     2080 
    2054     2062     2115     2192     2245     2242     2238     2286 
    2357     2416     2440     2413     2374     2346     2323     2285 
    2218     2170     2182     2242     2338     2435     2484     2458 
    2351     2201     2087     2061     2126     2197     2184     2138 
    2162     2253     2342     2369     2326     2305     2373     2415 
    2342     2227     2101     2010     2056     2178     2284     2361 
    2381     2389     2439     2492     2519     2493     2389     2249 
    2172     2162     2135     2089     2061     2062     2104     2180 
    2274     2347     2373     2343     2245     2155     2178     2288 
    2377     2376     2320     2309     2351     2361     2322     2282 
    2239     2199     2236     2309     2303     2230     2162     2135 
    2180     2286     2343     2319     2305     2317     2292     2253 
    2250     2266     2300     2358     2351     2247     2153     2135 
    2174     2235     2288     2269     2212     2274     2412     2425 
    2336     2317     2357     2344     2328     2308     2189     2085 
    2111     2181     2204     2147     2091     2142     2265     2363 
    2373     2323     2312     2355     2397     2398     2371     2343 
    2274     2158     2118     2174     2219     2270     2363     2392 
    2307     2224     2215     2254     2290     2280     2262     2273 
    2251     2215     2223     2235     2199     2157     2209     2322 
    2351     2335     2376     2421     2397     2327     2234     2142 
    2133     2227     2326     2349     2299     2216     2160     2154 
    2185     2214     2214     2241     2334     2431     2478     2484 
    2420     2317     2277     2250     2165     2103     2101     2149 
    2211     2228     2243     2315     2396     2398     2297     2178 
    2158     2242     2330     2330     2273     2262     2293     2303 
    2269     2176     2089     2087     2157     2278     2363     2339 
    2303     2281     2281     2340     2384     2411     2431     2357 
    2268     2253     2238     2168     2106     2112     2166     2255 
    2353     2362     2305     2290     2330     2353     2330     2263 
    2155     2079     2080     2154     2278     2335     2300     2319 
    2401     2450     2423     2313     2174     2112     2174     2277 
    2342     2389     2412     2350     2258     2218     2168     2095 
    2138     2300     2411     2394     2335     2272     2170     2080 
    2058     2070     2103     2151     2243     2378     2455     2434 
    2382     2331     2316     2373     2438     2454     2431     2351 
    2232     2106     2030     2107     2239     2282     2255     2143 
    2047     2087     2176     2272     2358     2385     2431     2539 
    2608     2551     2389     2222     2118     2095     2111     2080 
    2016     2052     2157     2180     2185     2297     2440     2500 
    2488     2519     2570     2477     2299     2205     2180     2157 
    2123     2103     2164     2276     2358     2374     2297     2188 
    2134     2137     2168     2184     2196     2231     2249     2242 
    2255     2322     2394     2369     2282     2258     2317     2417 
    2473     2438     2336     2246     2245     2268     2220     2112 
    2004     1993     2083     2182     2281     2344     2313     2284 
    2354     2420     2409     2373     2358     2376     2382     2353 
    2319     2270     2204     2153     2145     2208     2251     2212 
    2174     2173     2164     2141     2149     2195     2245     2319 
    2415     2485     2513     2463     2309     2130     2054     2103 
    2219     2346     2390     2299     2154     2103     2231     2448 
    2583     2563     2469     2407     2338     2189     2041     1966 
    1939     1964     2037     2072     2095     2214     2384     2533 
    2663     2714     2652     2566     2501     2343     2034     1729 
    1656     1869     2162     2358     2479     2547     2535     2501 
    2451     2320     2187     2188     2238     2189     2091     2038 
    2016     2018     2120     2265     2339     2482     2682     2650 
    2389     2165     2085     2092     2149     2286     2415     2419 
    2377     2343     2315     2343     2376     2309     2193     2089 
    2042     2110     2207     2226     2218     2234     2286     2381 
    2438     2400     2292     2149     2064     2114     2209     2297 
    2394     2439     2398     2340     2311     2307     2303     2315 
    2363     2326     2169     2074     2056     2000     2012     2154 
    2309     2419     2473     2459     2396     2317     2265     2243 
    2265     2334     2359     2266     2119     2060     2122     2201 
    2232     2259     2339     2465     2542     2488     2350     2268 
    2270     2250     2216     2253     2307     2353     2393     2351 
    2231     2164     2224     2300     2274     2216     2209     2231 
    2224     2151     2043     1961     1971     2064     2138     2209 
    2342     2409     2339     2316     2471     2656     2712     2683 
    2675     2666     2566     2343     2045     1737     1506     1475 
    1567     1637     1868     2288     2609     2856     3111     3187 
    3075     2913     2686     2359     1981     1628     1447     1510 
    1703     1942     2149     2220     2245     2311     2373     2400 
    2396     2396     2431     2519     2605     2544     2315     2111 
    2076     2157     2277     2374     2376     2338     2362     2393 
    2331     2118     1741     1367     1216     1312     1553     1868 
    2228     2590     2907     3284     3775     4056     3893     3406 
    2664     1868     1410     1332     1372     1404     1470     1575 
    1687     1904     2296     2685     2847     2740     2450     2112 
    1926     1976     2118     2180     2214     2435     2894     3383 
    3661     3559     3094     2511     2054     1752     1489     1183 
     940      974     1309     1763     2236     2663     2870     2845 
    2775     2747     2683     2573     2436     2170     1848     1742 
    1892     2150     2389     2489     2401     2209     2139     2373 
    2721     2808     2604     2388     2282     2272     2323     2259 
    1969     1626     1416     1417     1678     2053     2282     2280 
    2212     2382     2787     3163     3427     3420     2976     2411 
    2076     1966     2031     2124     2029     1829     1748     1881 
    2224     2528     2519     2289     2029     1879     1956     2112 
    2077     1858     1710     1817     2139     2555     2938     3125 
    3045     2875     2779     2700     2578     2397     2088     1795 
    1688     1669     1641     1594     1545     1584     1750     2076 
    2504     2802     2876     2883     2920     2974     2960     2774 
    2511     2369     2340     2307     2231     2169     2193     2259 
    2301     2295     2177     1887     1610     1661     1910     1934 
    1749     1599     1559     1795     2373     2887     3011     2928 
    2821     2654     2489     2408     2371     2309     2191     2053 
    2004     2088     2182     2245     2358     2405     2295     2261 
    2469     2700     2685     2509     2339     2101     1815     1699 
    1764     1799     1803     1899     2031     2162     2371     2635 
    2862     3037     3137     3111     2949     2670     2347     2133 
    2116     2220     2188     1977     1887     1931     1941     2014 
    2081     1907     1605     1405     1432     1768     2242     2608 
    2843     2901     2799     2795     2974     3106     2937     2474 
    2025     1779     1733     1896     2085     2027     1780     1638 
    1729     1953     2162     2277     2358     2492     2650     2830 
    3045     3171     3051     2695     2280     2008     2015     2193 
    2195     1919     1645     1553     1636     1884     2222     2435 
    2367     2137     2037     2177     2419     2581     2540     2326 
    2216     2419     2790     3032     3001     2724     2276     1934 
    1973     2185     2250     2184     2018     1719     1506     1583 
    1813     2019     2135     2139     2181     2400     2758     3123 
    3281     3129     2789     2419     2138     2002     1977     1979 
    1949     1876     1807     1819     1960     2201     2332     2254 
    2235     2443     2793     3154     3315     3204     2971     2674 
    2250     1779     1499     1393     1271     1246     1404     1613 
    1890     2254     2550     2702     2729     2644     2536     2484 
    2469     2435     2404     2447     2467     2370     2284     2307 
    2386     2466     2515     2533     2486     2316     2122     2022 
    1906     1628     1340     1242     1352     1657     2056     2420 
    2752     3055     3331     3549     3496     3080     2562     2166 
    1868     1688     1648     1607     1575     1682     1869     2052 
    2266     2452     2471     2334     2193     2207     2392     2639 
    2835     2894     2816     2656     2474     2357     2322     2285 
    2154     1929     1760     1729     1818     2033     2262     2319 
    2224     2149     2193     2330     2467     2513     2439     2312 
    2223     2222     2299     2344     2220     1989     1869     1927 
    2126     2459     2829     3049     3073     2971     2731     2394 
    2145     1983     1782     1552     1317     1159     1286     1768 
    2327     2601     2609     2544     2469     2523     2737     2870 
    2816     2670     2471     2301     2290     2371     2359     2169 
    1925     1836     1904     2047     2278     2477     2471     2377 
    2384     2463     2520     2517     2427     2307     2255     2268 
    2231     2126     2056     2041     2060     2123     2196     2292 
    2412     2465     2436     2335     2208     2033     1701     1421 
    1485     1777     2023     2176     2363     2582     2762     2968 
    3148     3099     2860     2658     2512     2313     2127     2031 
    1922     1730     1557     1494     1572     1804     2130     2392 
    2512     2525     2511     2497     2470     2462     2440     2332 
    2201     2138     2182     2297     2374     2359     2249     2164 
    2269     2477     2606     2651     2614     2451     2247     2138 
    2138     2172     2146     2076     2062     2096     2096     2123 
    2218     2262     2268     2347     2443     2484     2493     2519 
    2547     2505     2438     2377     2173     1917     1888     1975 
    1914     1803     1830     1975     2153     2347     2562     2724 
    2714     2625     2539     2330     2089     2061     2158     2209 
    2274     2416     2532     2583     2632     2635     2531     2349 
    2162     2033     1931     1863     1921     2007     1950     1831 
    1821     1949     2166     2377     2496     2583     2725     2840 
    2810     2628     2322     1987     1834     1848     1880     2019 
    2257     2385     2447     2587     2714     2690     2563     2392 
    2162     1981     1995     2141     2230     2172     2031     1975 
    2101     2316     2446     2417     2259     2108     2058     2084 
    2151     2189     2176     2249     2435     2587     2643     2620 
    2515     2346     2128     1907     1837     1992     2261     2450 
    2438     2363     2408     2552     2729     2798     2546     2088 
    1858     1958     2081     2099     2088     2006     1858     1818 
