Origin Time       2025/03/28 03:50:00
Lat.              35.403
Long.             140.360
Depth. (km)       54
Mag.              4.4
Station Code      YMN002
Station Lat.      35.6133
Station Long.     138.9473
Station Height(m) 365
Record Time       2025/03/28 03:51:14
Sampling Freq(Hz) 100Hz
Duration Time(s)  60
Dir.              E-W
Scale Factor      7845(gal)/8223790
Max. Acc. (gal)   1.212
Last Correction   2025/03/28 03:51:13
Memo.             
[...]
    8010     7842     7809     7857     8051     8328     8449     8376 
    8267     8217     8252     8328     8321     8112     7765     7635 
    7869     8133     8236     8293     8298     8202     8183     8328 
    8378     8210     8097     8131     8089     8012     8159     8371 
    8225     7927     7938     8056     8117     8263     8283     8136 
    8070     8028     8077     8355     8464     8194     8012     8040 
    7998     8120     8446     8468     8282     8129     7908     7925 
    8170     8191     8167     8175     7978     7912     8139     8267 
    8263     8202     8009     7935     8133     8328     8263     8051 
    7952     7948     8083     8465     8725     8614     8303     7970 
    7902     8077     8154     8251     8359     8159     7877     7832 
    7925     8035     8095     8104     8090     8168     8376     8383 
    8190     8195     8248     8208     8284     8306     8140     7973 
    7878     7950     8178     8338     8402     8372     8209     8050 
    7933     7890     8048     8152     8033     8050     8251     8293 
    8198     8286     8440     8284     8009     7986     8102     8159 
    8124     8094     8129     8117     8094     8208     8347     8299 
    8128     8101     8190     8194     8152     8097     8027     7978 
    7938     8016     8222     8310     8274     8255     8213     8218 
    8301     8236     8052     8009     8025     7866     7747     8010 
    8348     8383     8368     8449     8483     8463     8360     8136 
    7923     7871     7979     8121     8220     8252     8195     8073 
    7936     7885     7966     8054     8094     8162     8194     8190 
    8290     8348     8244     8212     8240     8162     8116     8209 
    8291     8203     8067     8097     8189     8183     8159     8117 
    7998     7932     7965     8075     8278     8279     8036     8008 
    8168     8216     8244     8271     8199     8143     8164     8197 
    8203     8189     8187     8185     8110     8081     8187     8241 
    8132     8010     8039     8118     8093     8129     8267     8228 
    8090     8089     8109     8133     8298     8386     8305     8301 
    8284     8170     8114     8047     7967     7989     8014     8059 
    8167     8156     8023     8009     8093     8163     8264     8272 
    8178     8193     8206     8178     8278     8353     8228     8073 
    8073     8129     8089     8043     8139     8278     8264     8137 
    8122     8189     8109     8006     8070     8104     8047     8089 
    8155     8183     8220     8191     8163     8228     8290     8307 
    8275     8132     7973     8002     8143     8183     8159     8139 
    8086     8013     8004     8136     8333     8430     8375     8275 
    8243     8156     7998     8036     8201     8218     8171     8148 
    8055     7955     7951     7993     8073     8171     8170     8109 
    8149     8202     8109     8102     8324     8413     8299     8245 
    8240     8216     8178     8145     8162     8133     8036     7989 
    7998     8000     8010     8083     8239     8374     8376     8329 
    8282     8144     8001     7944     7958     8064     8191     8251 
    8222     8090     7951     7974     8228     8471     8538     8561 
    8445     8139     7917     7812     7682     7658     7825     7952 
    8036     8263     8456     8515     8568     8502     8330     8233 
    8170     8093     8047     8027     7997     7997     8051     8121 
    8190     8170     8032     8033     8176     8181     8193     8340 
    8291     8098     8097     8171     8176     8156     8073     7969 
    7962     8098     8318     8438     8363     8270     8268     8168 
    8033     8149     8267     8140     8051     8055     8040     8093 
    8143     8078     8010     7967     7935     8081     8328     8378 
    8302     8303     8286     8181     8127     8187     8216     8064 
    7921     8004     8059     7974     8079     8275     8243     8170 
    8253     8383     8445     8446     8405     8264     8083     7997 
    7989     7985     7959     7929     7928     8014     8172     8309 
    8347     8230     8114     8140     8125     8079     8168     8206 
    8094     8074     8186     8260     8302     8343     8313     8203 
    8043     7935     7954     7969     7994     8116     8203     8249 
    8347     8367     8237     8132     8132     8121     8037     7947 
    7919     7905     7920     8109     8340     8367     8334     8388 
    8384     8345     8430     8461     8307     8168     8027     7838 
    7781     7792     7836     8028     8160     8122     8131     8203 
    8233     8272     8332     8353     8380     8348     8218     8159 
    8155     8082     8014     7989     7936     7927     8010     8055 
    8043     8158     8370     8419     8322     8330     8344     8182 
    8046     8009     7946     7905     7947     8067     8240     8347 
    8333     8271     8195     8097     8079     8190     8275     8262 
    8233     8248     8236     8164     8135     8106     8006     7931 
    7923     7977     8112     8274     8361     8344     8294     8272 
    8266     8176     8002     7935     7952     7928     7987     8145 
    8236     8210     8164     8232     8345     8363     8328     8226 
    8073     8067     8152     8113     8048     7992     7921     8013 
    8174     8256     8364     8411     8287     8143     8104     8046 
    7898     7873     7993     8095     8210     8337     8401     8432 
    8394     8267     8162     8075     8024     8094     8122     8079 
    8139     8194     8198     8222     8136     8006     8039     8106 
    8046     8021     8106     8112     8063     8089     8143     8187 
    8186     8154     8155     8158     8183     8262     8311     8275 
    8218     8233     8267     8216     8154     8179     8198     8131 
    8136     8224     8174     8043     7990     7956     7936     7992 
    8055     8109     8253     8380     8378     8353     8286     8154 
    8102     8114     8090     8063     8035     8008     8077     8164 
    8170     8221     8289     8260     8255     8286     8253     8179 
    8106     8048     8014     7998     7959     7948     7996     8014 
    8051     8167     8291     8417     8509     8502     8402     8256 
    8137     8047     7954     7896     7917     7982     8066     8217 
    8355     8357     8289     8210     8151     8105     8033     8044 
    8145     8183     8224     8303     8229     8059     8024     8055 
    8033     8031     8056     8060     8073     8154     8309     8433 
    8465     8441     8347     8189     8086     8048     7985     7929 
    7889     7861     7955     8098     8185     8276     8324     8294 
    8267     8290     8344     8306     8191     8139     8070     7936 
    7925     8040     8032     7958     8028     8141     8229     8349 
    8430     8430     8382     8303     8239     8232     8220     8121 
    8021     7974     7929     7908     7928     7982     8075     8159 
    8175     8166     8168     8154     8195     8329     8390     8337 
    8247     8154     8125     8154     8182     8194     8156     8052 
    7975     7967     7985     8091     8232     8225     8197     8278 
    8332     8301     8228     8149     8078     7998     7954     8009 
    8104     8127     8097     8085     8121     8247     8378     8394 
    8324     8206     8052     7963     8078     8252     8217     8132 
    8181     8163     8062     8041     8033     7985     8035     8129 
    8149     8183     8220     8195     8186     8187     8199     8275 
    8357     8402     8395     8260     8017     7886     7955     8066 
    8113     8106     8087     8086     8131     8225     8283     8294 
    8280     8178     8077     8052     8039     8070     8108     8040 
    7973     8027     8144     8310     8513     8552     8390     8218 
    8113     8079     8110     8136     8077     7962     7931     7997 
    8032     8016     8090     8270     8345     8334     8398     8372 
    8160     8012     8013     7998     7978     8029     8105     8187 
    8208     8128     8121     8225     8283     8255     8198     8131 
    8054     8047     8148     8257     8271     8210     8252     8344 
    8287     8209     8209     8147     8033     7965     7913     7831 
    7792     7925     8167     8320     8367     8371     8341     8401 
    8511     8398     8125     7943     7850     7834     7905     7992 
    8106     8239     8298     8326     8411     8434     8321     8208 
    8135     7987     7785     7754     7931     8055     8073     8109 
    8164     8232     8334     8436     8437     8322     8212     8174 
    8183     8175     8122     8081     8058     8090     8182     8172 
    8029     7944     8029     8141     8163     8168     8201     8236 
    8226     8171     8152     8195     8283     8367     8363     8263 
    8100     7952     7889     7908     7974     8039     8112     8209 
    8229     8147     8097     8125     8143     8155     8225     8282 
    8270     8279     8314     8259     8174     8164     8132     8109 
    8174     8168     8048     7929     7939     8102     8255     8325 
    8343     8274     8148     8016     7959     8019     8067     8060 
    8064     8059     8085     8221     8320     8321     8361     8316 
    8163     8144     8175     8137     8114     8104     8055     7965 
    7919     7977     8044     8137     8317     8436     8419     8384 
    8349     8321     8317     8236     8124     8135     8190     8128 
    7965     7859     7840     7838     7923     8116     8266     8287 
    8233     8202     8213     8233     8283     8337     8290     8128 
    7944     7854     7956     8132     8191     8245     8311     8252 
    8217     8240     8156     8050     8043     8102     8159     8201 
    8239     8222     8094     7943     7966     8135     8256     8349 
    8429     8336     8113     8027     8114     8145     8094     8106 
    8189     8228     8128     8066     8164     8144     7996     8027 
    8135     8145     8187     8245     8224     8243     8266     8139 
    8051     8158     8201     8059     7963     7970     7942     7931 
    8035     8182     8241     8239     8340     8472     8480     8438 
    8365     8255     8141     8000     7905     7944     8023     8036 
    8046     8091     8077     8075     8168     8213     8249     8329 
    8303     8213     8155     8097     8071     8068     8079     8218 
    8357     8263     8110     8114     8201     8275     8286     8232 
    8170     8151     8172     8104     7938     7811     7790     7894 
    8055     8224     8380     8407     8324     8272     8259     8274 
    8343     8357     8226     8077     7939     7781     7782     7938 
    8036     8131     8293     8364     8336     8311     8175     7975 
    8002     8194     8333     8388     8329     8136     7975     8024 
    8183     8257     8244     8202     8186     8212     8201     8135 
    8024     7897     7879     8024     8191     8279     8299     8194 
    7989     7890     7979     8176     8367     8446     8392     8220 
    8008     7932     8039     8152     8220     8282     8225     8166 
    8282     8298     8089     7906     7885     7998     8135     8224 
    8268     8232     8131     8104     8235     8365     8375     8382 
    8370     8193     7960     7824     7758     7761     7852     7971 
    8159     8371     8409     8367     8353     8229     8127     8203 
    8280     8255     8243     8208     8058     7917     7906     8029 
    8225     8371     8476     8507     8334     8097     7987     7944 
    7927     7969     7986     7948     7969     8046     8131     8218 
    8282     8361     8490     8540     8449     8368     8341     8202 
    7992     7877     7877     7997     8163     8221     8168     8075 
    8029     8051     8048     8008     8016     8055     7998     7893 
    7885     7920     7975     8139     8333     8442     8475     8494 
    8480     8375     8224     8198     8326     8394     8368     8365 
    8343     8328     8333     8228     8056     7881     7669     7508 
    7499     7672     7970     8183     8190     8110     8083     8117 
    8179     8293     8364     8232     8109     8220     8375     8591 
    8930     9051     8888     8619     8216     7777     7473     7284 
    7298     7522     7700     7882     8243     8533     8669     8818 
    8814     8540     8225     8002     7763     7495     7337     7350 
    7542     7890     8289     8619     8803     8892     8911     8748 
    8453     8141     7803     7560     7539     7670     7817     7917 
    7958     7981     8066     8228     8395     8525     8579     8498 
    8397     8417     8367     8214     8205     8243     8236     8352 
    8515     8540     8356     8024     7750     7599     7485     7423 
    7420     7474     7730     8229     8716     9011     9194     9309 
    9180     8745     8213     7685     7271     7184     7265     7337 
    7497     7682     7804     7997     8283     8486     8569     8630 
    8640     8579     8521     8482     8355     8116     7951     7892 
    7854     7970     8243     8463     8544     8569     8645     8641 
    8405     8078     7776     7460     7186     7076     7188     7574 
    8101     8413     8506     8694     8916     8919     8768     8675 
    8617     8442     8272     8355     8478     8245     7809     7425 
    7052     6883     7064     7385     7840     8448     8922     9131 
    9162     9116     9067     8841     8279     7704     7330     7137 
    7300     7636     7797     8024     8398     8552     8519     8545 
    8495     8203     7827     7649     7808     8083     8266     8479 
    8689     8753     8660     8357     8012     7767     7560     7573 
    7815     7878     7738     7755     8004     8230     8355     8556 
    8772     8779     8615     8388     8198     8193     8185     7993 
    7874     7882     7867     7951     8156     8260     8270     8359 
    8430     8341     8347     8600     8737     8496     8025     7624 
    7476     7431     7392     7609     8067     8352     8445     8657 
    8968     9084     8918     8634     8228     7708     7362     7180 
    6984     6952     7182     7541     7938     8295     8667     9108 
    9398     9356     9096     8718     8311     8041     7915     7892 
    7920     7803     7585     7578     7769     7938     8136     8374 
    8409     8295     8328     8432     8302     8002     7951     8214 
    8379     8291     8108     7889     7670     7604     7866     8364 
    8680     8664     8564     8413     8205     8137     8081     7901 
    7827     7877     7985     8179     8363     8517     8560     8329 
    7979     7751     7700     7827     8013     8118     8255     8480 
    8540     8440     8411     8352     8137     7885     7658     7472 
    7450     7716     8166     8537     8671     8581     8451     8432 
    8492     8529     8395     7927     7325     7028     7182     7724 
    8440     8919     8997     8780     8414     8133     8070     8160 
    8206     8113     8032     8006     8002     8095     8182     8118 
    8014     8012     8158     8417     8556     8440     8298     8202 
    8044     7987     8050     8023     7979     8036     8154     8336 
    8503     8490     8302     8077     7958     7985     8040     8048 
    8013     7901     7798     7816     7951     8147     8226     8127 
    8047     8120     8259     8394     8590     8696     8488     8181 
    7962     7736     7631     7767     7924     8010     8212     8488 
    8638     8619     8499     8353     8205     8109     8125     8181 
    8245     8324     8384     8407     8318     8122     7906     7707 
    7609     7682     7848     7965     7971     7939     8008     8201 
    8333     8411     8594     8645     8426     8251     8228     8209 
    8225     8301     8324     8310     8302     8248     8174     8068 
    7913     7840     7870     7885     7900     7981     8021     7882 
    7723     7781     7993     8179     8303     8380     8394     8351 
    8364     8568     8804     8760     8513     8257     7929     7670 
    7661     7732     7720     7609     7547     7722     7993     8140 
    8311     8638     8899     8905     8746     8641     8621     8394 
    7905     7495     7348     7452     7742     8083     8365     8517 
    8499     8415     8392     8337     8222     8155     8028     7889 
    7969     8122     8182     8255     8379     8449     8403     8311 
    8186     8020     7948     7916     7731     7565     7658     7890 
    8075     8222     8325     8349     8283     8159     8112     8149 
    8209     8349     8459     8402     8294     8210     8125     8127 
    8228     8276     8230     8186     8197     8201     8124     8013 
    7929     7879     7877     7933     8004     7989     7940     8059 
    8316     8519     8576     8573     8637     8635     8513     8425 
    8282     7977     7738     7727     7821     7847     7794     7778 
    7877     8047     8252     8465     8553     8492     8386     8297 
    8270     8236     8090     7908     7784     7639     7504     7647 
    8059     8422     8687     8926     9008     8841     8586     8444 
    8275     7916     7534     7307     7271     7454     7793     8086 
    8247     8306     8263     8217     8293     8398     8414     8291 
    8032     7821     7834     7925     7981     8152     8388     8448 
    8363     8290     8290     8303     8279     8303     8372     8421 
    8433     8328     8110     7932     7884     7990     8208     8414 
    8549     8530     8303     8125     8073     7827     7450     7173 
    7013     7155     7654     8218     8603     8780     8870     8947 
    8991     8915     8646     8274     7931     7666     7539     7569 
    7736     8001     8222     8321     8437     8594     8606     8476 
    8294     8124     8032     7920     7743     7685     7820     8010 
    8172     8352     8424     8271     8118     8078     8068     8162 
    8301     8267     8105     8032     8121     8299     8448     8453 
    8334     8172     8032     7943     7835     7689     7600     7582 
    7522     7450     7689     8283     8858     9170     9155     8892 
    8642     8519     8399     8268     8190     8027     7720     7516 
    7607     7852     8024     8152     8272     8247     8189     8290 
    8461     8523     8424     8259     8067     7838     7730     7871 
    8086     8109     7933     7825     7994     8316     8541     8650 
    8687     8580     8322     8000     7769     7736     7858     8043 
    8117     8019     7947     8033     8194     8334     8422     8397 
    8314     8374     8510     8491     8359     8203     7959     7692 
    7595     7669     7828     8020     8152     8282     8406     8341 
    8193     8159     8175     8155     8118     8135     8201     8235 
    8174     8066     8028     8027     7993     7992     8036     8052 
    8009     8024     8203     8407     8538     8687     8792     8679 
    8353     8021     7869     7885     7900     7893     7932     7973 
    8077     8201     8129     8020     8078     8124     8091     8170 
    8402     8603     8595     8395     8189     8055     7898     7808 
