Origin Time       2024/03/16 06:34:00
Lat.              32.907
Long.             131.047
Depth. (km)       7
Mag.              3.3
Station Code      FKOH10
Station Lat.      33.2891
Station Long.     130.8170
Station Height(m) -10
Record Time       2024/03/16 06:34:47
Sampling Freq(Hz) 100Hz
Duration Time(s)  120
Dir.              1
Scale Factor      2942(gal)/8224139
Max. Acc. (gal)   0.271
Last Correction   2024/03/16 06:34:48
Memo.             
[...]
  131494   131494   131494   131494   131492   131491   131492   131494 
  131491   131488   131491   131491   131491   131494   131494   131492 
  131494   131494   131492   131492   131492   131494   131492   131491 
  131491   131491   131491   131491   131492   131494   131494   131492 
  131492   131492   131491   131492   131494   131494   131492   131492 
  131492   131494   131495   131494   131494   131494   131495   131495 
  131496   131494   131491   131494   131495   131491   131491   131494 
  131492   131492   131495   131494   131494   131494   131491   131492 
  131495   131494   131492   131495   131495   131492   131491   131492 
  131492   131494   131492   131492   131492   131494   131494   131496 
  131496   131495   131494   131494   131492   131492   131494   131494 
  131494   131494   131494   131494   131494   131492   131495   131495 
  131494   131492   131494   131495   131494   131492   131491   131491 
  131494   131495   131494   131495   131494   131491   131492   131495 
  131495   131494   131492   131492   131494   131495   131496   131495 
  131492   131494   131494   131492   131492   131495   131494   131492 
  131495   131495   131492   131494   131492   131491   131492   131495 
  131495   131494   131494   131492   131495   131496   131495   131494 
  131494   131492   131492   131494   131492   131491   131494   131494 
  131494   131494   131494   131494   131495   131495   131492   131492 
  131496   131496   131495   131494   131495   131495   131494   131494 
  131495   131494   131492   131492   131492   131492   131492   131492 
  131494   131495   131495   131494   131492   131492   131492   131491 
  131491   131492   131492   131494   131494   131492   131492   131494 
  131495   131495   131494   131496   131495   131490   131492   131496 
  131495   131492   131492   131494   131492   131492   131494   131494 
  131492   131492   131494   131494   131491   131491   131494   131494 
  131492   131495   131495   131492   131492   131494   131494   131494 
  131494   131491   131490   131494   131495   131492   131492   131494 
  131494   131494   131494   131491   131490   131492   131491   131492 
  131494   131494   131492   131492   131492   131492   131494   131494 
  131492   131492   131494   131492   131490   131491   131492   131494 
  131495   131492   131491   131494   131496   131494   131492   131491 
  131491   131492   131496   131494   131492   131494   131495   131492 
  131491   131492   131491   131490   131492   131495   131492   131492 
  131494   131491   131491   131491   131490   131491   131494   131494 
  131492   131492   131494   131494   131491   131491   131494   131494 
  131492   131492   131490   131490   131492   131492   131492   131494 
  131495   131494   131491   131492   131494   131491   131491   131492 
  131491   131491   131492   131492   131492   131492   131492   131491 
  131491   131494   131494   131492   131494   131494   131490   131491 
  131495   131492   131490   131491   131494   131495   131494   131494 
  131492   131491   131492   131492   131491   131490   131492   131494 
  131491   131491   131491   131490   131492   131491   131488   131492 
  131496   131494   131491   131494   131495   131492   131492   131494 
  131494   131491   131491   131494   131491   131491   131495   131495 
  131491   131492   131492   131491   131494   131495   131494   131491 
  131492   131494   131495   131494   131491   131491   131494   131494 
  131496   131496   131492   131492   131494   131492   131492   131494 
  131494   131495   131494   131494   131494   131491   131490   131492 
  131494   131494   131492   131492   131492   131492   131492   131494 
  131492   131491   131494   131496   131495   131494   131492   131491 
  131492   131492   131494   131495   131494   131492   131492   131492 
  131494   131495   131494   131492   131492   131494   131494   131494 
  131495   131492   131492   131495   131495   131495   131495   131492 
  131494   131495   131494   131494   131494   131492   131492   131495 
  131494   131492   131492   131491   131492   131495   131495   131494 
  131496   131496   131494   131494   131495   131494   131492   131494 
  131495   131492   131491   131491   131491   131491   131494   131492 
  131491   131492   131494   131492   131491   131491   131491   131491 
  131492   131492   131491   131490   131492   131492   131492   131491 
  131492   131494   131492   131494   131496   131494   131492   131494 
  131492   131491   131491   131492   131494   131494   131492   131491 
  131491   131492   131495   131492   131490   131491   131492   131491 
  131490   131492   131495   131494   131492   131492   131492   131492 
  131494   131494   131492   131492   131492   131491   131491   131491 
  131492   131494   131492   131492   131492   131491   131492   131492 
  131492   131492   131492   131494   131494   131492   131492   131494 
  131492   131490   131488   131492   131494   131491   131492   131494 
  131494   131494   131494   131492   131491   131491   131492   131494 
  131492   131491   131492   131492   131490   131492   131495   131494 
  131494   131495   131495   131494   131492   131494   131495   131496 
  131496   131495   131492   131494   131495   131492   131491   131494 
  131492   131492   131494   131492   131494   131494   131491   131491 
  131494   131495   131494   131494   131495   131494   131492   131494 
  131494   131491   131491   131494   131494   131490   131492   131495 
  131492   131492   131494   131492   131492   131491   131492   131494 
  131492   131492   131491   131492   131495   131492   131490   131491 
  131492   131491   131492   131494   131494   131495   131494   131490 
  131490   131494   131494   131490   131490   131494   131494   131494 
  131494   131495   131495   131494   131492   131491   131494   131495 
  131494   131495   131495   131494   131494   131494   131495   131495 
  131492   131491   131492   131491   131492   131495   131494   131491 
  131494   131495   131494   131492   131492   131495   131495   131494 
  131495   131495   131492   131494   131492   131491   131492   131494 
  131492   131492   131492   131492   131495   131495   131492   131492 
  131492   131491   131490   131490   131485   131483   131484   131484 
  131480   131475   131467   131454   131449   131467   131519   131576 
  131598   131575   131521   131469   131454   131485   131530   131558 
  131573   131544   131444   131349   131355   131444   131510   131502 
  131479   131480   131483   131475   131469   131504   131583   131607 
  131534   131463   131444   131440   131444   131468   131531   131614 
  131595   131458   131371   131392   131452   131530   131587   131589 
  131573   131515   131414   131380   131411   131461   131558   131630 
  131588   131521   131465   131390   131386   131464   131496   131504 
  131530   131479   131398   131415   131473   131534   131602   131604 
  131553   131488   131419   131402   131456   131526   131589   131606 
  131522   131407   131384   131448   131512   131542   131541   131502 
  131448   131436   131446   131454   131479   131512   131525   131511 
  131526   131572   131534   131458   131499   131546   131469   131399 
  131427   131479   131506   131529   131538   131518   131480   131458 
  131483   131477   131411   131425   131541   131592   131549   131487 
  131441   131463   131503   131475   131469   131546   131579   131518 
  131450   131426   131458   131500   131519   131556   131564   131484 
  131392   131350   131410   131566   131647   131585   131484   131399 
  131379   131454   131550   131599   131575   131487   131415   131422 
  131503   131576   131549   131483   131438   131375   131386   131484 
  131535   131550   131530   131464   131457   131514   131558   131561 
  131533   131500   131471   131436   131410   131448   131521   131525 
  131464   131452   131522   131564   131531   131494   131507   131538 
  131492   131411   131427   131507   131564   131560   131495   131454 
  131490   131531   131495   131431   131452   131515   131542   131539 
  131483   131398   131414   131507   131541   131485   131442   131472 
  131506   131533   131583   131560   131476   131453   131471   131477 
  131465   131477   131538   131545   131485   131461   131471   131452 
  131407   131430   131539   131610   131588   131507   131429   131418 
  131448   131481   131553   131599   131541   131471   131490   131512 
  131442   131399   131457   131490   131450   131441   131511   131583 
  131576   131527   131471   131426   131433   131465   131485   131496 
  131491   131467   131463   131530   131602   131565   131514   131548 
  131545   131438   131369   131434   131519   131521   131502   131496 
  131449   131449   131549   131557   131456   131446   131488   131481 
  131518   131545   131437   131371   131496   131583   131485   131421 
  131483   131534   131534   131511   131472   131480   131545   131558 
  131491   131442   131450   131479   131519   131556   131554   131533 
  131517   131479   131441   131454   131465   131449   131485   131549 
  131545   131492   131457   131465   131500   131504   131485   131502 
  131538   131548   131508   131441   131407   131453   131518   131488 
  131437   131487   131564   131569   131515   131468   131476   131504 
  131473   131417   131425   131479   131523   131568   131584   131538 
  131479   131425   131402   131463   131531   131508   131467   131479 
  131504   131495   131464   131457   131492   131527   131495   131437 
  131468   131549   131568   131545   131521   131485   131469   131494 
  131504   131475   131484   131553   131569   131504   131464   131458 
  131441   131458   131492   131463   131449   131487   131483   131477 
  131510   131518   131538   131564   131496   131446   131483   131479 
  131468   131508   131510   131481   131499   131521   131494   131472 
  131495   131525   131508   131437   131423   131526   131584   131517 
  131475   131491   131484   131468   131468   131485   131506   131508 
  131517   131508   131445   131410   131448   131490   131512   131525 
  131517   131511   131526   131539   131527   131492   131458   131460 
  131469   131436   131403   131418   131469   131542   131587   131554 
  131492   131507   131550   131491   131431   131479   131517   131488 
  131467   131476   131506   131531   131529   131504   131480   131485 
  131488   131467   131483   131496   131450   131430   131477   131514 
  131491   131456   131480   131538   131545   131496   131483   131525 
  131534   131492   131468   131495   131526   131504   131456   131449 
  131490   131494   131453   131465   131510   131494   131473   131491 
  131498   131512   131538   131537   131519   131511   131515   131500 
  131457   131441   131483   131519   131496   131481   131480   131458 
  131499   131553   131511   131487   131550   131562   131506   131468 
  131438   131426   131437   131425   131449   131500   131479   131456 
  131475   131468   131450   131485   131577   131611   131529   131468 
  131448   131415   131436   131490   131530   131562   131572   131542 
  131495   131476   131476   131460   131484   131514   131472   131445 
  131490   131533   131517   131468   131477   131554   131588   131527 
  131458   131449   131465   131453   131442   131446   131452   131488 
  131530   131514   131481   131476   131468   131469   131485   131465 
  131456   131506   131529   131522   131558   131600   131604   131564 
  131450   131337   131357   131460   131465   131422   131448   131464 
  131476   131544   131576   131549   131565   131635   131661   131599 
  131514   131480   131545   131669   131733   131727   131731   131742 
  131733   131680   131526   131295   131086   130905   130805   130904 
  131086   131180   131236   131311   131453   131653   131727   131641 
  131556   131472   131426   131585   131819   131900   131926   131947 
  131807   131553   131371   131267   131234   131280   131321   131414 
  131598   131704   131650   131562   131587   131633   131510   131294 
  131202   131318   131533   131665   131673   131592   131437   131333 
  131383   131446   131409   131396   131441   131425   131399   131480 
  131573   131539   131454   131430   131413   131395   131460   131541 
  131508   131372   131257   131284   131440   131587   131661   131716 
  131762   131724   131561   131369   131330   131417   131444   131398 
  131423   131539   131583   131519   131479   131468   131496   131614 
  131627   131415   131306   131442   131556   131618   131733   131787 
  131772   131789   131746   131529   131236   131128   131228   131253 
  131237   131413   131593   131545   131460   131510   131558   131487 
  131431   131492   131527   131492   131581   131766   131781   131615 
  131488   131457   131434   131449   131500   131525   131577   131581 
  131345   131130   131319   131619   131576   131399   131390   131414 
  131355   131305   131344   131464   131534   131515   131549   131596 
  131598   131660   131684   131558   131481   131542   131553   131457 
  131402   131402   131282   131117   131240   131548   131629   131538 
  131549   131580   131487   131372   131436   131646   131742   131650 
  131522   131469   131508   131549   131492   131353   131247   131255 
  131368   131575   131809   131892   131780   131633   131510   131463 
  131568   131639   131592   131606   131623   131477   131205   130909 
  130734   130852   131213   131491   131572   131619   131615   131518 
  131452   131414   131345   131340   131481   131699   131785   131669 
  131530   131534   131679   131749   131623   131544   131626   131649 
  131541   131472   131554   131646   131554   131360   131247   131264 
  131380   131530   131619   131630   131619   131571   131483   131476 
  131538   131546   131542   131603   131610   131487   131433   131508 
  131527   131431   131344   131375   131479   131512   131417   131287 
  131295   131391   131410   131442   131565   131635   131581   131472 
  131357   131267   131267   131359   131476   131600   131631   131521 
  131487   131557   131542   131495   131529   131579   131580   131560 
  131526   131484   131510   131593   131604   131548   131546   131557 
  131460   131403   131507   131572   131499   131419   131394   131395 
  131403   131426   131494   131573   131615   131619   131576   131499 
  131445   131384   131352   131496   131673   131619   131468   131394 
  131369   131422   131442   131310   131278   131476   131650   131633 
  131539   131481   131469   131556   131687   131662   131534   131484 
  131483   131449   131427   131421   131367   131321   131376   131463 
  131527   131637   131699   131581   131421   131417   131502   131500 
  131441   131442   131504   131541   131488   131426   131445   131484 
  131495   131514   131530   131506   131454   131433   131496   131568 
  131558   131522   131496   131498   131530   131546   131579   131619 
  131552   131446   131442   131495   131502   131445   131396   131395 
  131372   131364   131467   131558   131530   131525   131589   131560 
  131485   131545   131618   131553   131475   131479   131490   131476 
  131436   131403   131483   131584   131552   131488   131468   131434 
  131409   131422   131449   131483   131511   131580   131637   131546 
  131392   131341   131403   131476   131479   131494   131561   131533 
  131418   131373   131421   131498   131549   131573   131596   131625 
  131642   131599   131512   131461   131458   131507   131564   131561 
  131538   131503   131449   131446   131477   131476   131463   131477 
  131492   131445   131353   131325   131402   131511   131557   131515 
  131441   131396   131414   131440   131422   131415   131444   131464 
  131494   131553   131577   131525   131467   131472   131504   131483 
  131388   131356   131441   131529   131561   131558   131552   131575 
  131604   131635   131650   131604   131533   131498   131494   131495 
  131522   131552   131527   131479   131517   131629   131664   131577 
  131491   131472   131458   131399   131395   131511   131571   131499 
  131485   131546   131537   131492   131494   131485   131448   131431 
  131427   131429   131467   131514   131510   131469   131457   131472 
  131487   131511   131526   131484   131415   131382   131371   131383 
  131441   131500   131554   131593   131556   131517   131568   131577 
  131469   131399   131440   131492   131514   131531   131544   131552 
  131530   131452   131407   131445   131468   131479   131542   131573 
  131506   131434   131423   131434   131463   131517   131538   131518 
  131544   131633   131676   131616   131530   131467   131414   131403 
  131444   131490   131465   131371   131348   131411   131413   131377 
  131419   131504   131552   131562   131564   131526   131430   131349 
  131368   131438   131464   131473   131530   131577   131525   131431 
  131418   131456   131472   131507   131571   131587   131562   131544 
  131515   131502   131542   131600   131638   131668   131664   131595 
  131499   131431   131403   131413   131449   131485   131494   131485 
  131467   131437   131398   131356   131359   131414   131453   131463 
  131490   131506   131487   131492   131508   131483   131463   131488 
  131545   131591   131583   131544   131550   131568   131514   131468 
  131500   131495   131419   131399   131456   131503   131527   131539 
  131546   131562   131557   131527   131511   131507   131510   131533 
  131557   131557   131534   131504   131494   131499   131467   131415 
  131419   131448   131454   131495   131564   131591   131553   131484 
  131445   131453   131453   131427   131423   131453   131464   131444 
  131441   131473   131499   131504   131510   131518   131512   131499 
  131500   131494   131456   131427   131456   131504   131510   131480 
  131463   131476   131496   131492   131476   131464   131449   131427 
  131421   131444   131473   131502   131545   131566   131550   131544 
  131554   131554   131550   131544   131506   131454   131445   131457 
  131448   131434   131438   131446   131454   131468   131475   131460 
  131449   131464   131458   131425   131437   131492   131530   131534 
  131523   131506   131496   131508   131546   131579   131577   131552 
  131525   131498   131484   131471   131448   131446   131461   131454 
  131471   131512   131506   131468   131453   131473   131521   131539 
  131525   131522   131511   131481   131483   131522   131552   131545 
  131525   131508   131487   131490   131529   131562   131562   131527 
  131469   131444   131467   131492   131507   131523   131526   131503 
  131477   131467   131449   131434   131430   131425   131429   131454 
  131476   131504   131529   131515   131499   131498   131484   131495 
  131545   131571   131546   131518   131503   131492   131496   131503 
  131500   131496   131500   131492   131457   131425   131434   131456 
  131449   131440   131446   131473   131514   131533   131522   131510 
  131500   131500   131506   131496   131477   131472   131468   131454 
  131442   131430   131419   131436   131484   131533   131558   131569 
  131573   131571   131562   131560   131556   131537   131515   131506 
  131483   131454   131452   131465   131476   131498   131525   131523 
