Origin Time       2024/03/16 06:34:00
Lat.              32.907
Long.             131.047
Depth. (km)       7
Mag.              3.3
Station Code      FKOH10
Station Lat.      33.2891
Station Long.     130.8170
Station Height(m) -10
Record Time       2024/03/16 06:34:47
Sampling Freq(Hz) 100Hz
Duration Time(s)  120
Dir.              2
Scale Factor      2942(gal)/8224139
Max. Acc. (gal)   0.231
Last Correction   2024/03/16 06:34:48
Memo.             
[...]
  141289   141286   141288   141289   141288   141285   141289   141291 
  141288   141286   141289   141291   141288   141288   141288   141286 
  141289   141291   141288   141288   141292   141289   141288   141289 
  141289   141286   141286   141286   141286   141289   141291   141288 
  141286   141289   141289   141288   141288   141286   141286   141289 
  141291   141288   141286   141288   141292   141289   141285   141288 
  141289   141286   141286   141288   141288   141288   141289   141291 
  141288   141288   141291   141288   141286   141289   141289   141286 
  141286   141289   141289   141289   141288   141286   141289   141291 
  141288   141289   141289   141289   141289   141289   141288   141288 
  141288   141286   141288   141292   141291   141288   141289   141292 
  141289   141288   141288   141286   141286   141288   141288   141288 
  141286   141286   141286   141285   141285   141285   141286   141289 
  141289   141286   141284   141286   141292   141292   141286   141285 
  141285   141288   141288   141286   141286   141288   141286   141288 
  141289   141288   141288   141286   141286   141286   141285   141282 
  141285   141288   141288   141288   141286   141285   141285   141284 
  141286   141286   141284   141288   141292   141288   141286   141288 
  141288   141286   141288   141289   141286   141286   141288   141288 
  141291   141289   141285   141285   141285   141285   141285   141285 
  141285   141289   141289   141289   141288   141284   141284   141289 
  141289   141288   141286   141286   141286   141286   141288   141288 
  141286   141286   141288   141288   141288   141286   141288   141288 
  141285   141286   141289   141288   141286   141288   141289   141286 
  141285   141286   141288   141288   141286   141286   141286   141285 
  141286   141286   141285   141285   141286   141285   141285   141286 
  141286   141286   141285   141285   141288   141288   141285   141282 
  141282   141286   141288   141285   141288   141292   141291   141286 
  141286   141288   141286   141286   141288   141288   141289   141289 
  141288   141288   141288   141289   141291   141289   141286   141286 
  141288   141289   141286   141286   141288   141286   141288   141289 
  141288   141289   141292   141291   141289   141288   141286   141286 
  141288   141288   141288   141286   141286   141289   141289   141285 
  141286   141288   141286   141288   141286   141284   141288   141288 
  141286   141289   141286   141284   141288   141289   141285   141284 
  141288   141288   141284   141284   141285   141286   141288   141288 
  141288   141288   141288   141286   141284   141284   141289   141292 
  141288   141285   141286   141288   141286   141288   141288   141286 
  141286   141289   141289   141289   141288   141286   141286   141288 
  141286   141285   141286   141288   141286   141286   141289   141288 
  141286   141285   141285   141286   141288   141286   141286   141289 
  141289   141286   141286   141288   141286   141288   141288   141285 
  141286   141288   141288   141288   141288   141288   141286   141286 
  141285   141286   141289   141288   141286   141286   141286   141286 
  141286   141285   141284   141284   141286   141291   141289   141285 
  141289   141289   141285   141286   141291   141288   141285   141286 
  141285   141285   141288   141288   141286   141286   141286   141288 
  141288   141286   141286   141286   141286   141288   141286   141286 
  141289   141291   141288   141288   141288   141288   141288   141286 
  141286   141289   141289   141286   141285   141285   141286   141286 
  141286   141288   141288   141288   141286   141285   141285   141288 
  141289   141288   141285   141288   141288   141286   141286   141286 
  141285   141285   141284   141285   141286   141286   141288   141288 
  141286   141286   141286   141284   141285   141288   141288   141288 
  141289   141288   141285   141285   141288   141288   141288   141288 
  141289   141289   141288   141288   141288   141286   141282   141285 
  141289   141288   141286   141288   141288   141286   141289   141288 
  141285   141285   141285   141285   141288   141289   141285   141282 
  141285   141286   141286   141289   141289   141288   141288   141289 
  141288   141286   141288   141288   141285   141285   141286   141288 
  141288   141288   141285   141286   141288   141288   141289   141288 
  141286   141289   141288   141286   141288   141286   141286   141286 
  141286   141288   141288   141286   141285   141285   141288   141288 
  141288   141288   141285   141285   141286   141286   141286   141286 
  141288   141288   141289   141288   141286   141288   141286   141288 
  141289   141285   141286   141288   141289   141289   141288   141289 
  141289   141289   141289   141288   141286   141288   141286   141285 
  141288   141288   141285   141285   141286   141288   141288   141285 
  141285   141286   141288   141288   141288   141288   141289   141288 
  141286   141286   141289   141288   141285   141286   141285   141286 
  141288   141286   141285   141286   141288   141286   141286   141288 
  141286   141285   141286   141285   141286   141289   141288   141285 
  141286   141286   141286   141286   141286   141286   141288   141288 
  141286   141286   141289   141288   141285   141288   141288   141285 
  141285   141288   141289   141288   141285   141285   141286   141288 
  141284   141284   141288   141288   141284   141285   141288   141285 
  141285   141289   141288   141284   141284   141286   141286   141285 
  141288   141288   141288   141289   141288   141284   141285   141288 
  141286   141286   141288   141286   141288   141288   141284   141288 
  141291   141288   141285   141285   141285   141285   141285   141285 
  141285   141286   141285   141284   141286   141289   141289   141288 
  141289   141289   141289   141289   141289   141286   141285   141286 
  141286   141286   141288   141289   141286   141286   141289   141288 
  141288   141289   141286   141286   141289   141288   141286   141289 
  141289   141289   141289   141285   141285   141288   141288   141285 
  141286   141288   141285   141285   141286   141289   141288   141286 
  141286   141285   141285   141288   141289   141288   141286   141286 
  141288   141289   141285   141285   141291   141288   141286   141286 
  141286   141288   141285   141282   141288   141288   141286   141289 
  141291   141289   141286   141285   141286   141286   141285   141286 
  141285   141286   141289   141286   141286   141289   141286   141285 
  141288   141285   141285   141288   141288   141286   141289   141288 
  141286   141288   141286   141289   141291   141288   141286   141286 
  141286   141289   141289   141285   141286   141288   141288   141288 
  141289   141289   141286   141285   141286   141286   141286   141288 
  141288   141286   141288   141288   141288   141288   141286   141285 
  141286   141288   141288   141288   141286   141285   141286   141288 
  141286   141286   141288   141288   141286   141286   141286   141285 
  141285   141286   141286   141286   141288   141289   141286   141286 
  141289   141288   141286   141288   141286   141285   141286   141288 
  141285   141285   141288   141288   141288   141288   141286   141289 
  141286   141286   141289   141288   141288   141289   141286   141284 
  141288   141289   141288   141286   141285   141286   141286   141286 
  141286   141288   141288   141288   141288   141286   141286   141289 
  141289   141288   141286   141286   141286   141286   141286   141289 
  141289   141286   141286   141289   141289   141285   141286   141289 
  141288   141286   141288   141288   141286   141286   141288   141288 
  141285   141285   141286   141285   141285   141286   141285   141286 
  141288   141286   141285   141285   141286   141286   141284   141286 
  141289   141288   141286   141286   141289   141288   141285   141288 
  141289   141285   141285   141288   141286   141288   141285   141282 
  141286   141291   141288   141289   141295   141295   141291   141289 
  141291   141296   141299   141305   141312   141303   141268   141222 
  141200   141223   141277   141340   141376   141349   141278   141224 
  141207   141230   141308   141412   141439   141359   141262   141207 
  141178   141183   141216   141259   141312   141343   141304   141253 
  141255   141272   141295   141350   141408   141435   141381   141243 
  141178   141218   141235   141255   141296   141268   141237   141253 
  141253   141278   141335   141346   141359   141377   141323   141262 
  141234   141207   141234   141303   141338   141345   141315   141251 
  141188   141183   141315   141439   141374   141291   141291   141262 
  141207   141199   141266   141303   141266   141292   141301   141250 
  141336   141396   141291   141285   141315   141251   141281   141318 
  141253   141235   141255   141282   141282   141210   141237   141330 
  141327   141353   141384   141324   141307   141266   141183   141223 
  141265   141237   141274   141318   141354   141408   141343   141242 
  141249   141254   141228   141266   141347   141372   141284   141185 
  141216   141292   141268   141232   141291   141318   141241   141254 
  141389   141400   141285   141231   141239   141247   141235   141232 
  141300   141357   141350   141324   141227   141197   141363   141384 
  141227   141262   141324   141230   141224   141301   141316   141331 
  141318   141235   141193   141251   141343   141388   141354   141281 
  141245   141228   141203   141247   141334   141359   141338   141269 
  141196   141222   141285   141334   141373   141315   141247   141286 
  141266   141215   141303   141327   141234   141261   141308   141268 
  141288   141309   141264   141281   141291   141245   141284   141353 
  141327   141277   141276   141307   141278   141201   141232   141297 
  141316   141382   141366   141234   141200   141191   141169   141268 
  141365   141388   141370   141274   141276   141365   141289   141208 
  141285   141334   141334   141330   141239   141169   141220   141272 
  141299   141327   141277   141199   141211   141301   141401   141400 
  141309   141296   141304   141254   141266   141292   141284   141316 
  141289   141223   141259   141299   141278   141291   141332   141319 
  141246   141242   141281   141254   141285   141353   141296   141265 
  141300   141280   141301   141315   141243   141289   141374   141309 
  141264   141289   141305   141324   141264   141180   141208   141258 
  141326   141376   141270   141228   141365   141377   141281   141249 
  141232   141258   141312   141308   141281   141226   141223   141343 
  141354   141264   141299   141327   141286   141307   141284   141257 
  141354   141373   141258   141196   141205   141246   141258   141228 
  141299   141389   141338   141291   141311   141300   141284   141255 
  141222   141280   141330   141301   141308   141293   141251   141297 
  141308   141254   141296   141326   141291   141319   141268   141170 
  141288   141367   141224   141211   141297   141246   141239   141313 
  141340   141380   141374   141291   141254   141259   141281   141322 
  141346   141367   141326   141224   141205   141216   141227   141297 
  141284   141264   141411   141427   141234   141174   141234   141278 
  141350   141362   141303   141280   141281   141274   141250   141243 
  141299   141349   141343   141285   141219   141230   141253   141226 
  141224   141243   141284   141324   141268   141247   141335   141335 
  141301   141330   141303   141289   141354   141357   141297   141266 
  141258   141276   141297   141262   141228   141282   141326   141259 
  141200   141237   141288   141297   141303   141320   141324   141331 
  141351   141300   141224   141311   141431   141347   141215   141197 
  141189   141214   141295   141319   141350   141407   141313   141191 
  141245   141292   141222   141210   141269   141327   141405   141411 
  141311   141255   141242   141220   141270   141334   141318   141311 
  141323   141278   141192   141146   141222   141351   141343   141266 
  141297   141346   141307   141251   141228   141254   141301   141318 
  141322   141312   141266   141241   141251   141280   141313   141304 
  141299   141334   141320   141274   141269   141281   141304   141289 
  141234   141261   141307   141276   141288   141357   141381   141334 
  141251   141226   141268   141296   141282   141218   141178   141255 
  141331   141318   141286   141262   141273   141293   141234   141234 
  141354   141377   141319   141300   141250   141250   141304   141249 
  141238   141376   141411   141340   141322   141276   141237   141288 
  141282   141234   141274   141313   141296   141272   141246   141262 
  141297   141305   141327   141311   141254   141278   141304   141224 
  141180   141259   141324   141304   141309   141316   141280   141299 
  141318   141269   141282   141304   141269   141304   141303   141223 
  141282   141350   141276   141285   141334   141246   141196   141246 
  141281   141316   141324   141272   141264   141324   141338   141266 
  141254   141350   141361   141258   141228   141253   141232   141245 
  141308   141286   141219   141281   141376   141339   141305   141326 
  141264   141188   141210   141253   141304   141372   141385   141369 
  141396   141431   141409   141380   141432   141511   141531   141554 
  141606   141616   141566   141444   141185   140844   140641   140688 
  140818   140921   141042   141129   141149   141133   141070   141062 
  141075   140964   140975   141243   141446   141529   141621   141662 
  141691   141696   141629   141606   141559   141372   141218   141150 
  141070   141088   141274   141446   141446   141286   141134   141185 
  141320   141266   141123   141127   141216   141254   141264   141276 
  141273   141289   141365   141447   141469   141396   141220   141060 
  141091   141334   141521   141426   141303   141428   141493   141288 
  141151   141219   141242   141195   141241   141350   141339   141166 
  140961   140813   140845   141080   141216   141161   141192   141351 
  141448   141345   141203   141415   141739   141712   141621   141643 
  141523   141369   141261   141106   141034   141103   141223   141300 
  141231   141174   141305   141420   141316   141093   140975   141123 
  141471   141714   141678   141519   141374   141180   141022   141084 
  141257   141355   141423   141488   141419   141184   141027   141149 
  141349   141421   141431   141388   141335   141420   141442   141185 
  140991   141079   141203   141269   141291   141261   141301   141274 
  141048   141010   141232   141249   141139   141245   141343   141315 
  141384   141450   141421   141434   141431   141458   141535   141457 
  141353   141272   141054   141030   141205   141183   141237   141455 
  141358   141104   141122   141330   141502   141451   141212   141110 
  141234   141335   141299   141249   141173   141076   141224   141485 
  141470   141411   141363   141018   140849   141191   141498   141570 
  141462   141223   141241   141380   141270   141219   141247   141131 
  141126   141204   141242   141385   141478   141461   141447   141286 
  141134   141204   141266   141304   141378   141324   141278   141318 
  141214   141022   140971   141110   141315   141370   141307   141327 
  141400   141396   141316   141278   141373   141498   141500   141362 
  141203   141149   141195   141273   141308   141192   141065   141161 
  141257   141215   141374   141562   141342   141143   141280   141309 
  141243   141276   141211   141219   141386   141394   141408   141502 
  141350   141151   141112   141050   141115   141370   141515   141501 
  141377   141161   141080   141184   141292   141358   141404   141397 
  141354   141293   141280   141397   141501   141444   141376   141347 
  141205   141076   141164   141266   141231   141281   141412   141439 
  141480   141515   141303   141107   141265   141407   141261   141146 
  141183   141170   141107   141162   141318   141351   141293   141297 
  141199   141052   141126   141204   141149   141214   141332   141307 
  141219   141200   141307   141392   141281   141197   141301   141428 
  141532   141544   141323   141116   141133   141192   141257   141394 
  141474   141384   141208   141146   141246   141351   141370   141372 
  141439   141450   141278   141227   141465   141539   141285   141203 
  141358   141281   141064   141107   141214   141168   141150   141160 
  141131   141184   141285   141338   141350   141367   141390   141301 
  141197   141270   141312   141227   141191   141135   141154   141393 
  141504   141446   141475   141320   141052   141154   141288   141165 
  141193   141304   141278   141308   141330   141296   141320   141303 
  141380   141554   141463   141338   141412   141331   141166   141196 
  141276   141274   141168   141115   141242   141262   141205   141262 
  141199   141185   141443   141524   141400   141362   141266   141176 
  141234   141273   141340   141455   141435   141365   141326   141281 
  141262   141199   141169   141346   141475   141323   141153   141160 
  141204   141249   141347   141408   141357   141265   141211   141242 
  141278   141205   141165   141216   141216   141253   141347   141334 
  141343   141426   141392   141297   141201   141106   141187   141357 
  141401   141450   141501   141390   141315   141413   141467   141401 
  141311   141210   141156   141162   141131   141130   141215   141214 
  141178   141308   141404   141304   141250   141303   141299   141237 
  141211   141276   141372   141361   141307   141327   141327   141274 
  141284   141297   141193   141108   141174   141249   141257   141318 
  141367   141320   141264   141237   141280   141335   141222   141168 
  141362   141430   141262   141174   141238   141340   141373   141372 
  141469   141512   141435   141421   141370   141222   141180   141207 
  141216   141270   141308   141293   141266   141200   141172   141223 
  141261   141282   141309   141297   141262   141231   141189   141181 
  141246   141340   141382   141326   141280   141357   141397   141319 
  141286   141277   141205   141212   141285   141304   141338   141366 
  141311   141324   141401   141335   141224   141264   141296   141220 
  141241   141326   141264   141195   141284   141312   141192   141192 
  141373   141481   141407   141324   141340   141340   141282   141265 
  141251   141193   141208   141268   141264   141247   141204   141133 
  141173   141269   141291   141311   141312   141239   141214   141253 
  141254   141215   141205   141281   141420   141501   141421   141309 
  141313   141288   141203   141259   141315   141251   141308   141369 
  141241   141174   141195   141172   141251   141372   141381   141386 
  141334   141234   141255   141269   141239   141304   141300   141222 
  141259   141291   141261   141280   141273   141239   141284   141342 
  141343   141342   141354   141338   141301   141282   141249   141207 
  141257   141323   141301   141309   141373   141351   141266   141247 
  141270   141250   141245   141319   141354   141324   141355   141358 
  141289   141315   141342   141264   141286   141362   141295   141239 
