Origin Time       2024/03/16 06:34:00
Lat.              32.907
Long.             131.047
Depth. (km)       7
Mag.              3.3
Station Code      FKOH10
Station Lat.      33.2891
Station Long.     130.8170
Station Height(m) 190
Record Time       2024/03/16 06:34:47
Sampling Freq(Hz) 100Hz
Duration Time(s)  120
Dir.              5
Scale Factor      7845(gal)/8223790
Max. Acc. (gal)   0.523
Last Correction   2024/03/16 06:34:48
Memo.             
[...]
    9996     9999     9998     9995     9995     9995     9995     9995 
    9998     9998     9994     9994     9999     9999     9994     9994 
    9998     9998     9992     9998    10002     9994     9992     9999 
    9995     9992     9999     9996     9991     9996    10002     9994 
    9991    10000     9998     9988     9995    10000     9994     9996 
    9999     9994     9995     9994     9988     9995    10002     9999 
    9994     9994     9999     9998     9995     9996     9996     9998 
    9994     9990     9995    10002    10000     9994     9992     9996 
    9995     9995     9996     9994     9994     9995     9994     9998 
    9999     9995     9996     9996     9994     9995     9998     9999 
    9996     9992     9994     9995     9994     9996     9995     9992 
    9994     9995     9998    10000     9999     9995     9990     9992 
   10000     9999     9995     9996     9995     9994     9998    10002 
    9999     9994     9995     9999     9998     9996     9998     9996 
    9994     9995     9998     9999     9996     9994     9994     9998 
    9998     9996     9998     9996     9995     9996     9994     9995 
   10000     9998     9994     9996     9995     9994     9994     9994 
    9999    10003     9999     9991     9992     9998    10000     9998 
    9995     9996     9996     9994     9998     9999     9994     9996 
    9999     9995     9998     9999     9994     9992     9998     9998 
    9992     9995    10000     9996     9994     9998     9999     9999 
    9995     9994     9998     9996     9996     9999     9995     9996 
    9999     9995     9995     9998     9999     9998     9994     9998 
   10000     9996     9998     9999     9995     9996     9998     9995 
    9998     9996     9994     9998     9998     9994     9995     9996 
    9994     9996     9999     9998     9998     9994     9992     9998 
   10000     9998     9996     9998     9996     9994     9996    10000 
    9995     9996    10002     9996     9994     9999     9999     9996 
   10000     9999     9994     9996    10000     9998     9999     9999 
    9996     9996     9998     9996    10000    10003     9996     9992 
    9995     9999     9999     9998     9996     9994     9994     9999 
    9999     9994     9998     9999     9994     9996     9996     9996 
    9999     9996     9992     9996     9998     9996    10000     9996 
    9992     9996     9998     9999     9996     9994     9995     9996 
    9998     9998     9996     9995     9998     9999     9996     9995 
    9996     9996     9996     9996     9996     9998     9998     9995 
    9994     9996     9996     9996     9996     9999     9999     9998 
    9996     9995     9994    10000    10002     9995     9992     9995 
    9998     9999     9998     9998     9996     9992     9995    10003 
   10002     9994     9992     9994     9995     9999    10000     9996 
    9992     9995     9999     9999     9995     9996     9999     9996 
    9998    10003     9999     9995     9998     9998     9995     9996 
    9999     9999     9996     9995     9994     9992     9996    10002 
   10000     9995     9994     9996     9996     9995     9996    10000 
    9999     9996     9994     9994     9996     9996     9995     9998 
    9999     9995     9995    10000    10000     9995     9994     9996 
    9995     9998     9998     9994     9994     9995     9994     9999 
    9999     9995     9994     9995     9998    10000    10000     9998 
    9992     9995     9996     9995    10000     9999     9994     9995 
    9998     9994     9995     9999    10000     9996     9992     9996 
    9998     9995     9996     9999     9996     9996     9998     9995 
    9996     9996     9995     9998     9999     9994     9992     9995 
    9995     9995     9999     9996     9994    10000     9999     9992 
    9996    10000     9996     9995     9996     9995     9995     9996 
    9995     9999     9998     9994     9994     9995     9996     9999 
    9999     9998     9998     9996     9994     9995    10000     9999 
    9995     9996     9996     9994     9994     9998     9999     9996 
    9994     9994     9995     9998    10000     9995     9994    10000 
    9998     9994     9996     9996     9999     9998     9992     9994 
    9998     9998     9998     9999     9999     9995     9994     9999 
    9999     9995     9998     9999     9992     9995    10000     9995 
    9994     9998     9995     9994     9999     9999     9994     9996 
    9999     9995     9995    10000     9998     9994     9996     9999 
    9996     9995     9999     9999     9992     9992     9999     9999 
    9995     9992     9994     9996     9999     9996     9994     9995 
    9996     9996     9996     9998     9998     9998     9998     9996 
    9994     9996     9998     9998     9999     9996     9991     9995 
   10002     9998     9995     9996     9994     9991     9995     9999 
    9999     9996     9994     9995    10000    10000     9998     9996 
    9996     9994     9994    10000    10000     9994     9996     9998 
    9992     9996    10000     9996     9995     9995     9992     9996 
   10002     9999     9995     9995     9994     9996     9999     9999 
    9999     9996     9994     9994     9999     9999     9995     9998 
    9999     9995     9992     9995     9999     9999     9999     9996 
    9992     9996    10002    10000     9995     9996     9995     9991 
    9995    10002     9999     9994     9992     9992     9996    10000 
    9998     9995     9994     9995    10000     9999     9995     9998 
    9998     9991     9995    10002     9998     9995     9994     9996 
    9996     9994     9996    10000     9995     9994     9995     9995 
    9999    10000     9995     9994     9992     9995     9998     9995 
    9995     9995     9994     9995     9995     9998     9999     9995 
    9998    10003     9995     9994     9996     9991     9996    10002 
    9992     9992     9999     9995     9994     9999     9999     9994 
    9996     9999     9998     9999     9999     9994     9995    10002 
    9999     9992     9995     9999     9994     9994    10000     9998 
    9994     9996     9999     9995     9994     9998     9999     9999 
    9998     9994     9990     9994     9999    10000     9995     9994 
    9998     9998     9996     9999     9998     9992     9991     9996 
   10003    10000     9995     9995     9995     9998    10000     9998 
    9996     9996     9996     9998     9998     9998     9999     9998 
    9994     9995     9996     9999     9996     9995     9999     9999 
    9994     9994     9996     9996    10000    10003     9994     9991 
    9998     9995     9995    10002    10000     9994     9994     9994 
    9998    10002     9995     9988     9995    10002     9999     9996 
    9995     9992     9992     9999    10002    10000     9996     9992 
    9990     9995    10000    10000     9995     9991     9998     9999 
    9994     9996     9998     9992     9995     9999     9998     9996 
    9998     9996     9992     9995    10000     9998     9996    10000 
    9998     9992     9994     9996     9998     9998     9995     9994 
    9994     9998     9998     9998    10000     9996     9992     9998 
   10000    10000     9996     9994     9994     9996     9999    10000 
    9995     9990     9996    10003     9996     9994     9998     9998 
    9995     9995     9999    10002     9998     9994     9996     9998 
    9998     9996     9994     9995     9999     9999     9996     9996 
    9998     9998     9998     9998     9996     9992     9992     9998 
    9999     9998     9995     9992     9991     9996    10000     9999 
    9996     9994     9994     9998    10000     9996     9995     9994 
    9994     9995     9998     9999     9996     9994     9994     9998 
   10002     9999     9995     9998     9995     9992     9998     9999 
    9995     9995     9996     9995     9996    10000    10000     9995 
    9995     9998     9998     9998    10002     9998     9994     9999 
   10004    10006    10008    10004     9992     9981     9979     9979 
    9979     9984     9994    10002    10007    10010    10006     9998 
    9985     9983     9996    10007    10015    10027    10018     9988 
    9972     9976     9994    10012    10025    10022     9985     9937 
    9933     9973    10008    10030    10046    10029     9983     9956 
    9952     9964    10000    10030    10039    10066    10076    10014 
    9931     9894     9907     9967    10033    10056    10050    10033 
    9990     9948     9954    10002    10042    10042    10022    10010 
    9991     9958     9936     9946     9983    10010    10026    10029 
   10027    10021     9981     9961     9996     9999     9975    10006 
   10031     9988     9945     9946     9968    10006    10046    10065 
   10056    10000     9933     9941     9999    10033    10065    10087 
   10031     9929     9867     9884     9967    10048    10079    10081 
   10038     9933     9879     9931     9995    10034    10065    10057 
   10029    10006     9963     9942     9991    10021     9977     9945 
    9980    10023    10031    10038    10033     9971     9913     9934 
   10004    10048    10039    10012    10008    10029    10039    10010 
    9972     9980     9991     9967     9960     9958     9941     9968 
   10026    10060    10080    10048     9949     9904     9953    10002 
   10021    10023    10003     9992    10008     9996     9980    10019 
   10037     9977     9942     9971    10000    10038    10075    10052 
    9995     9965     9953     9954     9988    10027    10030     9996 
    9977     9998    10007     9987     9950     9909     9933    10022 
   10064    10046    10015     9953     9917     9973    10049    10069 
   10041     9988     9957     9954     9973    10045    10099    10042 
    9933     9883     9918     9996    10076    10108    10044     9956 
    9934     9938     9975    10064    10089    10010     9927     9891 
    9914    10015    10111    10100    10022     9950     9909     9922 
    9994    10079    10106    10034     9946     9921     9913     9941 
   10042    10107    10072    10008     9944     9882     9909    10012 
   10069    10076    10085    10031     9937     9904     9925     9965 
   10019    10058    10061    10019     9949     9933    10015    10091 
   10054     9971     9919     9883     9902    10007    10076    10050 
   10010     9984     9965     9988    10030    10038    10042    10050 
    9985     9886     9894     9984    10033    10025    10017    10034 
   10029     9975     9941     9964     9988    10019    10087    10084 
    9960     9902     9957     9977    10014    10091    10037     9927 
    9954    10022    10014    10007    10015     9987     9952     9950 
    9964     9990    10011    10004    10003    10012     9987     9976 
   10017    10033    10011    10004    10010     9998     9987    10003 
   10027    10000     9940     9934     9956     9949     9995    10096 
   10118    10022     9904     9872     9948    10046    10083    10052 
   10002     9967     9946     9952     9995    10037    10054    10054 
   10004     9925     9898     9945    10039    10130    10143    10068 
    9950     9859     9869     9965    10037    10049    10031     9973 
    9913     9929     9999    10056    10073    10027     9933     9890 
    9957    10056    10098    10071    10000     9927     9896     9915 
    9994    10088    10098    10021     9946     9919     9953    10012 
   10026    10006     9996     9987     9979    10010    10050    10052 
   10035    10019     9995     9991     9988     9941     9914     9968 
   10039    10061    10019     9949     9917     9937     9988    10053 
   10066    10003     9942     9953    10011    10049    10048    10027 
   10004     9999    10021    10049    10041     9987     9917     9884 
    9919     9999    10069    10095    10052     9956     9907     9933 
    9948     9953     9996    10037    10025    10002    10019    10039 
   10014     9979     9977    10007    10050    10042     9969     9904 
    9888     9925    10014    10083    10058     9973     9926     9949 
   10018    10089    10106    10033     9944     9917     9944    10002 
   10054    10050    10015    10007     9996     9972     9977     9994 
    9977     9975    10026    10060    10031     9981     9931     9890 
    9906    10000    10083    10068     9994     9952     9957     9987 
   10029    10041     9996     9956     9957     9961     9976    10014 
   10011     9977     9998    10038    10046    10052    10029     9967 
    9952     9988    10006     9991     9976     9976     9991    10015 
   10050    10069    10045    10003     9969     9941     9919     9938 
   10012    10061    10029     9991     9995     9985     9950     9944 
    9977    10003    10008    10010    10004     9972     9933     9954 
   10031    10066    10039    10003     9977     9967     9979     9999 
    9996     9981     9995    10017    10022    10015     9987     9968 
    9995    10022    10022    10006     9969     9934     9937     9973 
   10027    10071    10065    10007     9963     9976     9998     9991 
    9973     9961     9953     9953     9981    10029    10054    10054 
   10042    10031    10031    10015     9994     9996     9998     9957 
    9918     9937     9977    10000    10045    10116    10142    10092 
   10004     9967    10029    10142    10246    10338    10349    10204 
    9984     9779     9585     9447     9466     9605     9772     9938 
   10044    10026     9944     9877     9861     9892     9933     9952 
    9995    10102    10237    10324    10274    10099     9942     9937 
   10072    10215    10227    10084     9838     9594     9566     9848 
   10242    10453    10342    10026     9803     9865    10100    10245 
   10193    10031     9873     9803     9842     9910     9914     9903 
    9990    10143    10219    10129     9910     9687     9641     9887 
   10285    10505    10315     9832     9462     9497     9841    10201 
   10323    10129     9844     9765     9934    10166    10243    10083 
    9850     9790     9944    10170    10269    10129     9848     9656 
    9688     9887    10099    10189    10164    10130    10114    10052 
    9923     9807     9809     9960    10177    10291    10216    10044 
    9911     9888     9980    10088    10112    10110    10169    10228 
   10149     9938     9730     9585     9568     9772    10087    10303 
   10350    10247    10039     9841     9765     9830     9965    10111 
   10208    10143     9907     9683     9605     9649     9790    10007 
   10174    10170    10053     9961     9957    10033    10111    10107 
   10033     9948     9895     9918     9987    10045    10116    10169 
   10083     9923     9903    10058    10254    10361    10241     9859 
    9499     9478     9752    10096    10322    10282    10017     9764 
    9721     9898    10135    10254    10227    10131    10025     9960 
    9985    10049    10064    10072    10126    10143    10046     9877 
    9701     9579     9624     9864    10130    10214    10081     9884 
    9783     9848    10037    10196    10165     9960     9763     9748 
    9960    10265    10412    10266     9945     9691     9657     9826 
   10048    10173    10185    10157    10130    10079     9957     9774 
    9634     9684     9937    10220    10338    10212     9967     9807 
    9817     9961    10174    10289    10161     9902     9742     9757 
    9904    10129    10299    10262    10035     9799     9732     9873 
   10107    10258    10245    10083     9859     9710     9703     9806 
    9969    10103    10120    10085    10073    10035     9958     9922 
    9938     9969    10029    10098    10110    10072    10019     9952 
    9906     9936    10007    10045    10033    10021    10049    10080 
   10076    10066    10068    10039     9972     9915     9886     9864 
    9849     9842     9846     9896    10042    10243    10354    10265 
   10004     9736     9678     9896    10147    10179    10030     9848 
    9737     9813    10052    10219    10162     9967     9806     9782 
    9898    10068    10162    10126    10034     9976     9975    10003 
   10019    10003     9977    10035    10192    10260    10122     9918 
    9787     9768     9887    10061    10125    10054     9938     9819 
    9753     9842    10054    10208    10197    10054     9869     9779 
    9868    10065    10218    10220    10095     9953     9869     9856 
    9887     9926     9975    10035    10066    10031     9954     9921 
    9979    10071    10131    10147    10080     9917     9763     9764 
    9915    10072    10126    10076     9975     9909     9940    10052 
   10143    10123    10017     9914     9871     9898     9971    10041 
   10085    10093    10046     9946     9853     9845     9953    10160 
   10342    10327    10141     9945     9822     9814     9953    10099 
   10079     9948     9859     9852     9910    10002    10046    10012 
    9968     9976    10023    10058    10029     9940     9892     9952 
   10045    10084    10044     9960     9902     9940    10041    10075 
   10007     9975    10044    10115    10104    10019     9899     9815 
    9836     9976    10154    10201    10050     9848     9778     9883 
   10081    10231    10233    10123     9991     9900     9907     9992 
   10048    10026     9968     9930     9922     9918     9904     9902 
    9952    10045    10093    10058     9994     9941     9934    10008 
   10096    10079     9961     9856     9841     9923    10056    10169 
   10184    10072     9922     9864     9909     9994    10069    10089 
   10039     9972     9953     9996    10064    10106    10081     9994 
    9894     9844     9865     9934     9995     9998     9946     9900 
    9909     9987    10092    10133    10083    10011     9992    10023 
   10027     9984     9969    10003    10048    10110    10154    10099 
    9991     9942     9953     9973     9984     9954     9877     9853 
    9941    10064    10134    10112    10000     9875     9850     9949 
   10083    10150    10089     9956     9884     9921     9985    10017 
   10011     9969     9937     9979    10045    10041     9977     9927 
    9934     9999    10068    10073     9996     9895     9871     9956 
   10083    10161    10134    10031     9942     9918     9963    10041 
   10058     9991     9925     9917     9953    10012    10062    10058 
   10014     9983     9980     9975     9949     9922     9917     9936 
    9973    10019    10037    10004     9946     9914     9944    10017 
   10083    10102    10053     9960     9903     9941    10026    10085 
   10088    10037     9975     9944     9960    10006    10026     9996 
    9963     9972    10002    10018    10012     9983     9936     9913 
    9950    10011    10044    10042    10019     9976     9950     9977 
   10037    10069    10064    10053    10031     9996     9979     9979 
    9973     9968     9968     9957     9956     9992    10029    10037 
   10035    10004     9950     9936     9958     9972     9977     9979 
    9968     9976    10017    10039    10012     9967     9940     9954 
   10025    10110    10135    10085    10015     9990    10026    10075 
   10079    10039     9996     9975     9969     9969     9961     9925 
