Origin Time       2024/03/16 06:34:00
Lat.              32.907
Long.             131.047
Depth. (km)       7
Mag.              3.3
Station Code      FKOH10
Station Lat.      33.2891
Station Long.     130.8170
Station Height(m) 190
Record Time       2024/03/16 06:34:47
Sampling Freq(Hz) 100Hz
Duration Time(s)  120
Dir.              6
Scale Factor      7845(gal)/8223790
Max. Acc. (gal)   0.213
Last Correction   2024/03/16 06:34:48
Memo.             
[...]
  -12556   -12546   -12544   -12556   -12556   -12546   -12545   -12550 
  -12550   -12544   -12541   -12553   -12557   -12541   -12542   -12560 
  -12552   -12540   -12549   -12553   -12549   -12548   -12549   -12552 
  -12549   -12546   -12546   -12550   -12556   -12548   -12541   -12550 
  -12556   -12548   -12549   -12552   -12549   -12548   -12546   -12548 
  -12555   -12552   -12545   -12548   -12553   -12550   -12544   -12549 
  -12556   -12548   -12542   -12549   -12552   -12548   -12545   -12549 
  -12555   -12548   -12544   -12548   -12552   -12553   -12545   -12546 
  -12556   -12550   -12544   -12549   -12552   -12553   -12546   -12542 
  -12555   -12553   -12540   -12550   -12560   -12550   -12545   -12548 
  -12552   -12550   -12544   -12548   -12559   -12553   -12544   -12546 
  -12552   -12550   -12545   -12545   -12550   -12553   -12545   -12541 
  -12550   -12553   -12545   -12546   -12555   -12552   -12544   -12546 
  -12552   -12550   -12546   -12545   -12549   -12549   -12549   -12552 
  -12548   -12549   -12552   -12549   -12548   -12550   -12549   -12545 
  -12545   -12550   -12552   -12545   -12548   -12556   -12550   -12542 
  -12550   -12556   -12549   -12541   -12546   -12557   -12552   -12540 
  -12550   -12559   -12548   -12542   -12549   -12552   -12552   -12548 
  -12546   -12555   -12553   -12544   -12548   -12553   -12548   -12544 
  -12546   -12555   -12555   -12545   -12548   -12552   -12548   -12546 
  -12545   -12548   -12552   -12546   -12545   -12550   -12552   -12548 
  -12545   -12550   -12556   -12546   -12542   -12552   -12555   -12544 
  -12544   -12555   -12556   -12542   -12545   -12556   -12550   -12545 
  -12546   -12552   -12552   -12545   -12544   -12552   -12555   -12545 
  -12544   -12552   -12550   -12546   -12550   -12550   -12548   -12552 
  -12548   -12545   -12553   -12552   -12541   -12545   -12553   -12549 
  -12544   -12545   -12555   -12553   -12540   -12548   -12556   -12546 
  -12544   -12546   -12552   -12550   -12542   -12544   -12553   -12550 
  -12545   -12549   -12556   -12552   -12545   -12549   -12550   -12550 
  -12549   -12548   -12550   -12556   -12545   -12541   -12553   -12553 
  -12541   -12542   -12550   -12552   -12548   -12546   -12549   -12553 
  -12548   -12544   -12550   -12555   -12544   -12544   -12553   -12552 
  -12544   -12546   -12549   -12550   -12549   -12546   -12549   -12555 
  -12552   -12545   -12549   -12556   -12550   -12541   -12548   -12557 
  -12548   -12541   -12550   -12552   -12548   -12546   -12546   -12556 
  -12553   -12541   -12548   -12557   -12549   -12542   -12548   -12556 
  -12550   -12542   -12549   -12555   -12550   -12546   -12545   -12548 
  -12553   -12549   -12544   -12553   -12557   -12546   -12546   -12557 
  -12550   -12542   -12549   -12553   -12549   -12550   -12548   -12548 
  -12552   -12549   -12548   -12552   -12548   -12546   -12552   -12552 
  -12549   -12549   -12546   -12550   -12557   -12548   -12544   -12555 
  -12556   -12548   -12544   -12548   -12553   -12549   -12542   -12549 
  -12555   -12544   -12540   -12549   -12555   -12548   -12544   -12552 
  -12556   -12546   -12544   -12552   -12553   -12548   -12542   -12546 
  -12553   -12549   -12542   -12552   -12557   -12545   -12541   -12552 
  -12555   -12549   -12545   -12549   -12552   -12549   -12545   -12546 
  -12550   -12553   -12546   -12545   -12555   -12550   -12541   -12548 
  -12556   -12549   -12541   -12548   -12556   -12550   -12545   -12546 
  -12555   -12553   -12542   -12544   -12555   -12550   -12541   -12548 
  -12556   -12550   -12544   -12548   -12550   -12548   -12548   -12546 
  -12549   -12555   -12548   -12541   -12548   -12553   -12546   -12541 
  -12550   -12557   -12545   -12542   -12553   -12553   -12545   -12545 
  -12549   -12553   -12546   -12545   -12555   -12552   -12545   -12552 
  -12550   -12546   -12552   -12545   -12541   -12553   -12552   -12541 
  -12549   -12556   -12550   -12544   -12546   -12555   -12550   -12542 
  -12552   -12556   -12548   -12544   -12546   -12552   -12552   -12542 
  -12546   -12556   -12549   -12542   -12549   -12556   -12550   -12544 
  -12546   -12552   -12550   -12549   -12545   -12549   -12557   -12546 
  -12541   -12559   -12555   -12538   -12545   -12555   -12546   -12544 
  -12548   -12549   -12550   -12548   -12541   -12548   -12556   -12548 
  -12542   -12552   -12557   -12544   -12541   -12557   -12555   -12541 
  -12545   -12555   -12553   -12546   -12544   -12552   -12553   -12545 
  -12545   -12549   -12550   -12548   -12548   -12552   -12550   -12546 
  -12548   -12544   -12548   -12555   -12548   -12545   -12552   -12550 
  -12545   -12548   -12553   -12552   -12544   -12546   -12556   -12550 
  -12544   -12548   -12552   -12550   -12544   -12544   -12557   -12555 
  -12538   -12548   -12559   -12548   -12541   -12549   -12556   -12550 
  -12542   -12548   -12552   -12549   -12550   -12546   -12546   -12555 
  -12548   -12540   -12550   -12556   -12544   -12541   -12549   -12549 
  -12548   -12548   -12548   -12552   -12550   -12542   -12546   -12555 
  -12550   -12541   -12545   -12557   -12550   -12542   -12553   -12555 
  -12546   -12545   -12552   -12556   -12548   -12544   -12555   -12556 
  -12548   -12550   -12552   -12552   -12549   -12544   -12548   -12555 
  -12549   -12542   -12546   -12555   -12550   -12541   -12548   -12556 
  -12552   -12545   -12545   -12549   -12552   -12548   -12542   -12549 
  -12557   -12548   -12540   -12550   -12557   -12546   -12542   -12553 
  -12552   -12544   -12545   -12550   -12553   -12546   -12542   -12553 
  -12553   -12542   -12546   -12553   -12549   -12545   -12545   -12549 
  -12555   -12552   -12545   -12550   -12552   -12545   -12544   -12550 
  -12555   -12548   -12542   -12550   -12556   -12545   -12542   -12552 
  -12552   -12546   -12542   -12545   -12555   -12552   -12542   -12544 
  -12555   -12552   -12541   -12542   -12556   -12553   -12541   -12545 
  -12557   -12552   -12540   -12545   -12553   -12552   -12544   -12542 
  -12550   -12550   -12542   -12546   -12555   -12552   -12545   -12545 
  -12552   -12555   -12545   -12542   -12550   -12555   -12546   -12541 
  -12550   -12556   -12542   -12540   -12553   -12555   -12545   -12545 
  -12559   -12560   -12552   -12560   -12571   -12564   -12556   -12567 
  -12583   -12592   -12592   -12576   -12522   -12447   -12406   -12430 
  -12498   -12568   -12609   -12604   -12548   -12474   -12438   -12461 
  -12552   -12680   -12731   -12656   -12598   -12602   -12518   -12407 
  -12455   -12549   -12552   -12537   -12550   -12583   -12613   -12577 
  -12518   -12545   -12614   -12599   -12538   -12513   -12502   -12505 
  -12529   -12542   -12557   -12576   -12573   -12545   -12502   -12501 
  -12552   -12557   -12546   -12591   -12584   -12496   -12460   -12486 
  -12530   -12603   -12652   -12661   -12642   -12556   -12436   -12403 
  -12523   -12642   -12590   -12546   -12604   -12575   -12496   -12496 
  -12538   -12584   -12561   -12505   -12525   -12517   -12476   -12573 
  -12658   -12552   -12488   -12580   -12595   -12515   -12505   -12577 
  -12626   -12552   -12483   -12567   -12613   -12502   -12451   -12529 
  -12563   -12536   -12545   -12575   -12613   -12618   -12513   -12453 
  -12567   -12622   -12545   -12542   -12613   -12583   -12465   -12445 
  -12560   -12584   -12471   -12488   -12613   -12609   -12552   -12550 
  -12568   -12606   -12603   -12499   -12426   -12487   -12571   -12559 
  -12530   -12586   -12602   -12540   -12518   -12540   -12607   -12668 
  -12577   -12469   -12528   -12590   -12590   -12602   -12576   -12538 
  -12509   -12455   -12469   -12563   -12621   -12592   -12502   -12440 
  -12457   -12538   -12667   -12754   -12681   -12509   -12376   -12347 
  -12449   -12584   -12626   -12622   -12606   -12540   -12464   -12460 
  -12548   -12625   -12618   -12606   -12588   -12559   -12610   -12625 
  -12496   -12456   -12538   -12517   -12442   -12474   -12583   -12661 
  -12596   -12496   -12515   -12509   -12451   -12506   -12583   -12618 
  -12650   -12584   -12484   -12505   -12576   -12591   -12564   -12603 
  -12669   -12591   -12460   -12421   -12452   -12561   -12629   -12567 
  -12536   -12557   -12542   -12530   -12544   -12582   -12580   -12491 
  -12503   -12673   -12687   -12515   -12513   -12618   -12583   -12529 
  -12482   -12405   -12467   -12575   -12573   -12586   -12590   -12499 
  -12418   -12453   -12572   -12640   -12611   -12573   -12583   -12599 
  -12550   -12521   -12615   -12661   -12533   -12449   -12522   -12553 
  -12487   -12526   -12638   -12591   -12502   -12528   -12538   -12532 
  -12573   -12571   -12544   -12548   -12509   -12440   -12474   -12614 
  -12672   -12561   -12474   -12526   -12563   -12523   -12561   -12641 
  -12544   -12428   -12548   -12663   -12583   -12546   -12592   -12544 
  -12496   -12579   -12567   -12444   -12528   -12669   -12580   -12476 
  -12501   -12530   -12526   -12494   -12542   -12668   -12648   -12529 
  -12499   -12517   -12503   -12487   -12546   -12642   -12575   -12449 
  -12552   -12706   -12621   -12510   -12556   -12515   -12371   -12445 
  -12652   -12665   -12580   -12611   -12625   -12505   -12413   -12468 
  -12592   -12630   -12545   -12506   -12556   -12559   -12537   -12567 
  -12603   -12580   -12486   -12438   -12495   -12517   -12534   -12646 
  -12669   -12564   -12517   -12517   -12488   -12461   -12513   -12633 
  -12634   -12513   -12517   -12599   -12577   -12559   -12586   -12563 
  -12553   -12572   -12532   -12506   -12552   -12586   -12549   -12464 
  -12451   -12542   -12564   -12505   -12526   -12587   -12590   -12564 
  -12537   -12507   -12513   -12561   -12555   -12502   -12538   -12584 
  -12545   -12541   -12571   -12559   -12563   -12563   -12534   -12537 
  -12541   -12529   -12561   -12611   -12587   -12523   -12526   -12596 
  -12622   -12545   -12479   -12550   -12631   -12576   -12530   -12571 
  -12565   -12544   -12542   -12492   -12479   -12553   -12582   -12509 
  -12472   -12557   -12613   -12552   -12530   -12575   -12559   -12526 
  -12549   -12549   -12513   -12529   -12555   -12536   -12565   -12633 
  -12604   -12511   -12495   -12553   -12591   -12584   -12546   -12513 
  -12542   -12580   -12513   -12461   -12550   -12595   -12538   -12544 
  -12577   -12556   -12533   -12528   -12532   -12532   -12548   -12586 
  -12560   -12510   -12517   -12541   -12564   -12576   -12555   -12546 
  -12538   -12521   -12552   -12573   -12528   -12515   -12594   -12636 
  -12534   -12487   -12626   -12654   -12459   -12403   -12565   -12638 
  -12561   -12511   -12534   -12533   -12510   -12533   -12556   -12561 
  -12588   -12565   -12522   -12567   -12598   -12542   -12541   -12596 
  -12571   -12526   -12549   -12541   -12479   -12482   -12553   -12602 
  -12604   -12602   -12591   -12528   -12474   -12522   -12565   -12541 
  -12567   -12614   -12584   -12537   -12526   -12568   -12591   -12502 
  -12447   -12542   -12606   -12548   -12505   -12533   -12552   -12534 
  -12557   -12599   -12568   -12522   -12546   -12557   -12502   -12499 
  -12563   -12553   -12514   -12546   -12602   -12603   -12556   -12542 
  -12587   -12583   -12526   -12519   -12580   -12610   -12538   -12494 
  -12538   -12550   -12536   -12503   -12464   -12530   -12599   -12537 
  -12495   -12550   -12584   -12563   -12542   -12563   -12567   -12540 
  -12580   -12649   -12590   -12484   -12506   -12542   -12465   -12413 
  -12479   -12576   -12607   -12549   -12501   -12534   -12586   -12609 
  -12592   -12577   -12627   -12650   -12587   -12553   -12587   -12586 
  -12533   -12565   -12638   -12546   -12421   -12484   -12577   -12537 
  -12461   -12474   -12521   -12479   -12410   -12445   -12522   -12575 
  -12619   -12644   -12654   -12680   -12702   -12688   -12633   -12565 
  -12550   -12567   -12521   -12449   -12468   -12560   -12583   -12517 
  -12488   -12492   -12457   -12429   -12429   -12484   -12587   -12568 
  -12463   -12482   -12549   -12561   -12623   -12695   -12658   -12577 
  -12569   -12630   -12642   -12598   -12630   -12658   -12514   -12410 
  -12536   -12618   -12499   -12390   -12394   -12422   -12447   -12476 
  -12472   -12451   -12465   -12495   -12528   -12591   -12667   -12685 
  -12602   -12526   -12582   -12644   -12660   -12699   -12676   -12627 
  -12685   -12704   -12606   -12538   -12505   -12491   -12542   -12549 
  -12448   -12391   -12430   -12453   -12476   -12569   -12654   -12637 
  -12559   -12509   -12476   -12436   -12444   -12459   -12398   -12390 
  -12488   -12563   -12611   -12653   -12656   -12648   -12629   -12619 
  -12642   -12668   -12680   -12649   -12621   -12660   -12623   -12499 
  -12488   -12571   -12625   -12638   -12592   -12511   -12430   -12363 
  -12353   -12382   -12457   -12579   -12559   -12411   -12394   -12496 
  -12557   -12580   -12615   -12650   -12637   -12571   -12528   -12545 
  -12555   -12521   -12523   -12567   -12576   -12594   -12664   -12667 
  -12563   -12513   -12556   -12550   -12505   -12523   -12519   -12436 
  -12441   -12522   -12513   -12502   -12569   -12596   -12598   -12648 
  -12708   -12721   -12633   -12511   -12486   -12534   -12572   -12559 
  -12525   -12515   -12492   -12479   -12529   -12548   -12519   -12533 
  -12537   -12471   -12457   -12556   -12613   -12559   -12532   -12591 
  -12617   -12606   -12641   -12657   -12614   -12590   -12571   -12541 
  -12561   -12590   -12553   -12528   -12555   -12536   -12465   -12449 
  -12448   -12376   -12326   -12410   -12534   -12544   -12495   -12513 
  -12552   -12580   -12596   -12582   -12580   -12577   -12568   -12614 
  -12625   -12560   -12540   -12542   -12507   -12505   -12560   -12618 
  -12650   -12669   -12679   -12646   -12579   -12532   -12523   -12526 
  -12525   -12511   -12515   -12545   -12519   -12459   -12478   -12565 
  -12631   -12642   -12631   -12622   -12567   -12488   -12501   -12579 
  -12600   -12576   -12582   -12586   -12565   -12576   -12606   -12586 
  -12522   -12474   -12469   -12491   -12513   -12505   -12449   -12413 
  -12479   -12555   -12525   -12480   -12515   -12530   -12479   -12482 
  -12555   -12573   -12523   -12544   -12652   -12679   -12611   -12619 
  -12684   -12675   -12644   -12677   -12680   -12582   -12468   -12415 
  -12451   -12541   -12572   -12563   -12576   -12552   -12537   -12568 
  -12530   -12465   -12468   -12492   -12494   -12469   -12455   -12486 
  -12502   -12494   -12514   -12538   -12561   -12584   -12594   -12614 
  -12603   -12565   -12588   -12614   -12576   -12544   -12557   -12568 
  -12548   -12548   -12577   -12555   -12513   -12533   -12555   -12521 
  -12487   -12488   -12513   -12542   -12560   -12544   -12487   -12471 
  -12521   -12545   -12538   -12582   -12641   -12644   -12603   -12571 
  -12587   -12631   -12626   -12559   -12526   -12573   -12595   -12537 
  -12484   -12471   -12496   -12568   -12596   -12579   -12621   -12652 
  -12586   -12529   -12572   -12637   -12617   -12560   -12544   -12530 
  -12501   -12501   -12528   -12538   -12549   -12565   -12546   -12540 
  -12560   -12534   -12517   -12540   -12510   -12476   -12514   -12533 
  -12506   -12505   -12513   -12523   -12537   -12519   -12507   -12522 
  -12565   -12609   -12569   -12502   -12519   -12550   -12569   -12613 
  -12626   -12598   -12591   -12609   -12595   -12565   -12577   -12564 
  -12487   -12445   -12468   -12509   -12546   -12564   -12571   -12567 
  -12542   -12555   -12569   -12506   -12465   -12496   -12491   -12472 
  -12499   -12538   -12564   -12576   -12592   -12619   -12613   -12572 
  -12534   -12501   -12502   -12555   -12567   -12537   -12552   -12571 
  -12580   -12614   -12600   -12573   -12607   -12598   -12542   -12563 
  -12613   -12598   -12538   -12513   -12542   -12555   -12546   -12580 
  -12600   -12550   -12513   -12518   -12513   -12509   -12528   -12525 
  -12503   -12518   -12556   -12561   -12560   -12596   -12629   -12618 
  -12592   -12575   -12552   -12532   -12542   -12564   -12545   -12501 
  -12491   -12522   -12553   -12571   -12580   -12557   -12523   -12532 
  -12534   -12532   -12553   -12532   -12509   -12568   -12587   -12511 
  -12501   -12557   -12560   -12541   -12565   -12569   -12521   -12509 
  -12544   -12534   -12492   -12513   -12579   -12599   -12572   -12563 
  -12557   -12533   -12518   -12528   -12553   -12556   -12514   -12506 
  -12564   -12591   -12563   -12555   -12575   -12582   -12583   -12584 
  -12556   -12503   -12494   -12534   -12550   -12540   -12571   -12602 
  -12561   -12506   -12503   -12537   -12553   -12529   -12526   -12548 
  -12525   -12521   -12584   -12607   -12575   -12575   -12586   -12575 
  -12573   -12577   -12564   -12544   -12523   -12519   -12544   -12561 
  -12563   -12569   -12568   -12564   -12571   -12567   -12537   -12505 
  -12517   -12577   -12617   -12595   -12568   -12565   -12537   -12494 
  -12509   -12557   -12569   -12549   -12541   -12534   -12505   -12505 
  -12549   -12564   -12533   -12523   -12548   -12564   -12548   -12536 
  -12557   -12548   -12507   -12532   -12579   -12557   -12518   -12522 
  -12526   -12517   -12546   -12590   -12569   -12533   -12546   -12555 
  -12540   -12536   -12525   -12507   -12518   -12537   -12534   -12530 
  -12541   -12550   -12563   -12583   -12584   -12576   -12584   -12586 
  -12571   -12559   -12561   -12572   -12580   -12584   -12579   -12565 
  -12568   -12584   -12579   -12559   -12550   -12545   -12530   -12523 
  -12538   -12544   -12522   -12514   -12537   -12559   -12556   -12536 
  -12540   -12563   -12546   -12519   -12534   -12541   -12526   -12529 
  -12540   -12540   -12541   -12556   -12576   -12580   -12577   -12573 
  -12563   -12561   -12571   -12552   -12523   -12534   -12550   -12542 
  -12542   -12567   -12571   -12546   -12540   -12545   -12538   -12538 
  -12560   -12572   -12565   -12548   -12537   -12542   -12538   -12522 
  -12533   -12565   -12568   -12542   -12537   -12546   -12533   -12509 
  -12530   -12582   -12591   -12557   -12536   -12545   -12565   -12571 
  -12550   -12523   -12519   -12534   -12549   -12557   -12560   -12552 
  -12537   -12537   -12552   -12567   -12572   -12582   -12590   -12567 
  -12538   -12542   -12546   -12533   -12530   -12529   -12519   -12521 
  -12521   -12511   -12525   -12569   -12586   -12565   -12559   -12561 
  -12540   -12519   -12540   -12561   -12561   -12576   -12594   -12583 
  -12560   -12541   -12541   -12557   -12557   -12548   -12556   -12560 
  -12536   -12515   -12526   -12534   -12523   -12533   -12552   -12553 
  -12556   -12560   -12552   -12553   -12561   -12563   -12557   -12550 
  -12536   -12519   -12529   -12550   -12541   -12529   -12553   -12561 
  -12525   -12523   -12568   -12576   -12546   -12534   -12541   -12544 
  -12528   -12519   -12541   -12549   -12530   -12523   -12529   -12540 
  -12556   -12557   -12555   -12571   -12580   -12556   -12532   -12552 
  -12580   -12564   -12546   -12559   -12563   -12555   -12556   -12571 
  -12563   -12532   -12526   -12537   -12532   -12522   -12526   -12540 
  -12544   -12538   -12542   -12559   -12572   -12576   -12576   -12591 
  -12590   -12555   -12544   -12573   -12579   -12553   -12556   -12587 
  -12587   -12556   -12555   -12576   -12563   -12536   -12546   -12555 
  -12529   -12515   -12537   -12552   -12552   -12552   -12552   -12538 
