Origin Time       2024/03/16 06:34:00
Lat.              32.907
Long.             131.047
Depth. (km)       7
Mag.              3.3
Station Code      FKOH10
Station Lat.      33.2891
Station Long.     130.8170
Station Height(m) -10
Record Time       2024/03/16 06:34:47
Sampling Freq(Hz) 100Hz
Duration Time(s)  120
Dir.              3
Scale Factor      2942(gal)/8224139
Max. Acc. (gal)   0.132
Last Correction   2024/03/16 06:34:48
Memo.             
[...]
   37731    37729    37728    37727    37727    37729    37731    37731 
   37729    37728    37729    37729    37728    37731    37731    37728 
   37729    37731    37728    37729    37732    37731    37732    37729 
   37725    37729    37732    37729    37733    37733    37729    37729 
   37731    37728    37729    37729    37728    37729    37731    37729 
   37729    37731    37732    37731    37729    37729    37731    37731 
   37732    37732    37731    37729    37731    37729    37728    37732 
   37732    37728    37729    37731    37731    37732    37729    37727 
   37731    37729    37727    37729    37729    37731    37732    37731 
   37728    37729    37729    37729    37729    37731    37733    37733 
   37731    37729    37728    37729    37731    37731    37729    37729 
   37729    37731    37732    37732    37731    37731    37729    37729 
   37728    37729    37731    37729    37728    37729    37732    37732 
   37731    37729    37728    37728    37731    37731    37729    37729 
   37728    37728    37728    37729    37732    37731    37725    37727 
   37732    37729    37731    37732    37731    37728    37728    37728 
   37727    37727    37728    37731    37732    37728    37728    37731 
   37729    37727    37731    37731    37727    37729    37731    37729 
   37731    37731    37729    37731    37731    37728    37728    37729 
   37728    37731    37733    37729    37728    37731    37729    37729 
   37731    37729    37728    37728    37731    37731    37728    37727 
   37729    37731    37728    37728    37729    37729    37729    37729 
   37729    37731    37731    37727    37727    37728    37731    37729 
   37729    37731    37729    37728    37732    37732    37729    37728 
   37729    37729    37727    37728    37731    37729    37731    37732 
   37728    37728    37731    37731    37729    37727    37727    37728 
   37728    37729    37729    37728    37727    37728    37729    37729 
   37729    37728    37727    37727    37731    37732    37728    37725 
   37728    37732    37732    37731    37729    37729    37727    37728 
   37732    37731    37728    37729    37731    37729    37729    37731 
   37729    37728    37731    37731    37728    37727    37728    37729 
   37729    37728    37729    37729    37731    37731    37731    37731 
   37732    37731    37729    37727    37727    37729    37729    37731 
   37731    37729    37729    37731    37729    37728    37731    37732 
   37732    37733    37731    37728    37731    37731    37729    37729 
   37731    37729    37729    37731    37729    37729    37733    37733 
   37731    37729    37731    37731    37731    37732    37732    37729 
   37728    37731    37729    37727    37729    37729    37729    37731 
   37731    37731    37732    37729    37728    37731    37731    37728 
   37731    37731    37729    37729    37729    37731    37732    37732 
   37732    37731    37731    37732    37729    37729    37729    37728 
   37731    37729    37728    37731    37732    37729    37729    37731 
   37731    37731    37731    37731    37731    37729    37729    37732 
   37732    37731    37731    37732    37732    37729    37728    37729 
   37729    37729    37729    37728    37728    37731    37732    37732 
   37728    37729    37732    37731    37731    37733    37732    37732 
   37732    37729    37729    37731    37731    37732    37732    37731 
   37731    37729    37728    37731    37731    37729    37732    37731 
   37729    37732    37729    37725    37728    37731    37728    37728 
   37731    37729    37728    37732    37731    37725    37728    37728 
   37724    37728    37732    37728    37727    37728    37728    37728 
   37729    37728    37729    37732    37729    37728    37728    37728 
   37728    37731    37731    37728    37732    37732    37728    37728 
   37725    37727    37727    37725    37729    37731    37731    37731 
   37731    37729    37731    37729    37728    37729    37728    37729 
   37732    37732    37728    37728    37731    37729    37728    37731 
   37733    37732    37731    37731    37731    37729    37729    37729 
   37728    37729    37731    37732    37731    37728    37729    37731 
   37729    37729    37729    37728    37728    37731    37731    37728 
   37727    37727    37729    37728    37727    37728    37731    37729 
   37725    37728    37729    37728    37729    37729    37731    37732 
   37731    37727    37729    37732    37731    37729    37731    37731 
   37729    37729    37728    37728    37729    37731    37729    37729 
   37728    37728    37728    37727    37728    37729    37725    37725 
   37729    37728    37728    37731    37731    37728    37731    37732 
   37728    37729    37732    37729    37725    37728    37731    37729 
   37729    37731    37729    37727    37728    37729    37731    37731 
   37729    37729    37729    37731    37731    37729    37728    37729 
   37728    37727    37727    37729    37731    37729    37729    37732 
   37732    37725    37727    37733    37729    37724    37728    37732 
   37729    37728    37729    37732    37731    37728    37728    37728 
   37728    37728    37731    37731    37728    37728    37731    37728 
   37728    37731    37731    37731    37731    37727    37724    37727 
   37729    37725    37727    37729    37727    37729    37731    37729 
   37731    37729    37729    37731    37729    37728    37732    37731 
   37728    37728    37727    37728    37728    37724    37725    37729 
   37729    37729    37731    37728    37725    37727    37727    37727 
   37728    37728    37729    37729    37729    37729    37728    37725 
   37727    37731    37731    37727    37727    37729    37728    37725 
   37727    37728    37728    37731    37729    37729    37733    37729 
   37724    37727    37731    37731    37729    37729    37732    37731 
   37727    37728    37729    37731    37728    37728    37731    37731 
   37729    37731    37728    37727    37729    37729    37731    37733 
   37729    37727    37727    37728    37727    37728    37731    37731 
   37729    37728    37728    37727    37728    37729    37731    37731 
   37731    37729    37727    37728    37731    37729    37727    37728 
   37729    37727    37725    37728    37729    37731    37731    37729 
   37729    37728    37728    37729    37729    37729    37728    37728 
   37728    37729    37728    37728    37729    37727    37728    37729 
   37727    37727    37729    37732    37731    37727    37725    37727 
   37728    37728    37731    37732    37729    37728    37728    37729 
   37729    37728    37727    37729    37729    37728    37728    37728 
   37727    37728    37729    37727    37728    37733    37731    37729 
   37729    37727    37728    37732    37729    37728    37728    37727 
   37727    37727    37728    37728    37729    37729    37728    37728 
   37728    37729    37731    37728    37727    37728    37731    37731 
   37729    37728    37728    37731    37729    37728    37731    37731 
   37728    37728    37731    37731    37728    37728    37727    37727 
   37727    37728    37728    37728    37729    37729    37727    37727 
   37729    37727    37727    37728    37728    37728    37731    37729 
   37729    37731    37729    37728    37728    37728    37729    37729 
   37728    37727    37725    37728    37732    37729    37725    37727 
   37725    37725    37729    37729    37729    37729    37727    37728 
   37728    37728    37729    37727    37727    37729    37729    37728 
   37729    37729    37729    37729    37729    37728    37728    37731 
   37731    37731    37728    37727    37729    37732    37731    37728 
   37728    37729    37728    37732    37731    37725    37727    37731 
   37729    37728    37729    37729    37728    37725    37727    37729 
   37732    37731    37729    37728    37727    37729    37729    37729 
   37731    37729    37729    37731    37732    37728    37725    37731 
   37732    37728    37729    37731    37728    37728    37729    37729 
   37729    37727    37723    37721    37716    37709    37712    37717 
   37713    37704    37693    37674    37662    37692    37767    37847 
   37885    37872    37805    37701    37623    37624    37683    37762 
   37840    37858    37758    37631    37606    37640    37648    37705 
   37833    37887    37851    37822    37778    37692    37631    37606 
   37606    37673    37735    37706    37687    37725    37760    37798 
   37831    37817    37778    37712    37647    37647    37666    37671 
   37717    37747    37727    37740    37733    37675    37716    37825 
   37856    37843    37814    37728    37629    37592    37613    37701 
   37840    37845    37710    37686    37713    37670    37690    37751 
   37740    37706    37712    37740    37736    37708    37754    37824 
   37747    37633    37708    37795    37705    37659    37756    37800 
   37747    37713    37725    37746    37712    37635    37674    37808 
   37793    37690    37721    37777    37719    37665    37716    37790 
   37781    37724    37724    37768    37737    37647    37685    37800 
   37787    37716    37717    37735    37748    37766    37710    37654 
   37710    37750    37694    37682    37736    37779    37793    37800 
   37817    37768    37666    37682    37760    37727    37679    37658 
   37604    37636    37748    37789    37790    37764    37682    37669 
   37737    37781    37794    37764    37677    37624    37652    37702 
   37775    37829    37740    37642    37658    37673    37702    37809 
   37890    37866    37758    37701    37764    37795    37709    37665 
   37686    37694    37739    37759    37696    37697    37728    37644 
   37631    37781    37848    37797    37758    37736    37756    37771 
   37692    37650    37689    37700    37748    37836    37812    37727 
   37694    37714    37763    37787    37764    37721    37701    37709 
   37662    37592    37635    37739    37804    37835    37812    37750 
   37743    37763    37702    37640    37681    37736    37736    37719 
   37747    37798    37708    37582    37673    37763    37705    37712 
   37719    37687    37770    37824    37759    37723    37670    37592 
   37681    37844    37844    37775    37729    37704    37770    37785 
   37696    37723    37771    37669    37596    37673    37750    37751 
   37768    37810    37770    37662    37635    37694    37728    37727 
   37733    37763    37793    37764    37719    37736    37778    37779 
   37740    37702    37681    37693    37733    37723    37728    37790 
   37724    37670    37816    37829    37644    37621    37690    37669 
   37751    37860    37751    37686    37828    37824    37694    37733 
   37754    37640    37670    37766    37721    37687    37685    37633 
   37713    37831    37746    37709    37849    37840    37702    37709 
   37754    37679    37594    37608    37687    37751    37797    37866 
   37876    37748    37628    37644    37655    37608    37646    37732 
   37779    37783    37760    37779    37781    37712    37697    37714 
   37675    37648    37696    37779    37829    37813    37786    37768 
   37704    37628    37640    37689    37701    37748    37855    37859 
   37729    37689    37752    37719    37636    37654    37698    37708 
   37735    37733    37721    37756    37752    37705    37706    37747 
   37759    37702    37662    37755    37855    37808    37728    37733 
   37752    37729    37714    37733    37737    37724    37744    37744 
   37735    37794    37793    37696    37674    37716    37752    37790 
   37760    37700    37723    37744    37700    37689    37714    37719 
   37700    37681    37725    37786    37754    37701    37702    37677 
   37642    37692    37732    37683    37665    37725    37760    37747 
   37766    37805    37767    37709    37727    37724    37671    37705 
   37763    37713    37677    37717    37725    37751    37816    37797 
   37709    37687    37744    37758    37706    37674    37670    37708 
   37775    37778    37758    37798    37798    37705    37669    37700 
   37686    37673    37698    37709    37723    37774    37790    37747 
   37733    37768    37786    37786    37787    37759    37702    37677 
   37689    37698    37700    37706    37731    37764    37770    37737 
   37702    37725    37785    37752    37678    37724    37797    37768 
   37712    37697    37719    37751    37763    37744    37733    37739 
   37712    37690    37705    37677    37654    37727    37768    37704 
   37669    37698    37696    37687    37748    37833    37847    37779 
   37714    37700    37675    37639    37660    37702    37710    37733 
   37785    37808    37767    37690    37667    37719    37739    37720 
   37759    37801    37740    37658    37681    37762    37754    37678 
   37689    37750    37728    37701    37751    37775    37737    37744 
   37778    37770    37768    37763    37719    37656    37621    37689 
   37779    37739    37654    37670    37755    37764    37697    37708 
   37786    37806    37758    37709    37720    37778    37778    37701 
   37705    37771    37714    37642    37690    37741    37777    37839 
   37829    37712    37600    37619    37723    37771    37783    37825 
   37843    37805    37728    37686    37740    37775    37709    37660 
   37667    37674    37696    37710    37692    37735    37800    37735 
   37673    37724    37701    37590    37619    37768    37837    37812 
   37800    37802    37767    37709    37646    37584    37484    37359 
   37377    37562    37748    37883    37970    37982    37960    37933 
   37867    37778    37759    37854    37955    37925    37774    37651 
   37635    37635    37593    37542    37500    37492    37493    37500 
   37600    37751    37828    37866    37874    37793    37779    37926 
   37998    37882    37732    37663    37678    37698    37693    37770 
   37859    37789    37693    37702    37713    37693    37632    37554 
   37628    37822    37933    37989    38009    37883    37671    37500 
   37471    37638    37832    37912    37922    37887    37837    37813 
   37700    37489    37362    37377    37434    37484    37540    37563 
   37530    37578    37725    37858    37943    37935    37860    37848 
   37860    37840    37827    37839    37881    37893    37845    37789 
   37764    37790    37785    37713    37631    37550    37542    37659 
   37806    37898    37874    37760    37693    37669    37638    37666 
   37748    37756    37675    37643    37642    37524    37377    37359 
   37417    37498    37638    37755    37754    37713    37777    37936 
   38034    38010    37951    37930    37925    37855    37785    37814 
   37825    37760    37704    37635    37563    37625    37775    37802 
   37744    37750    37731    37666    37694    37763    37787    37804 
   37781    37763    37831    37825    37724    37709    37710    37651 
   37692    37763    37694    37667    37747    37713    37616    37619 
   37654    37660    37667    37667    37687    37716    37723    37728 
   37685    37592    37612    37702    37685    37662    37773    37912 
   37959    37913    37821    37729    37659    37631    37646    37659 
   37658    37667    37704    37723    37648    37597    37741    37924 
   37964    37943    37910    37878    37847    37762    37704    37732 
   37717    37650    37674    37755    37723    37635    37679    37797 
   37885    37917    37805    37665    37732    37854    37816    37770 
   37781    37714    37619    37555    37497    37532    37655    37746 
   37782    37785    37748    37685    37640    37643    37692    37752 
   37768    37764    37760    37700    37620    37600    37597    37597 
   37650    37746    37787    37731    37636    37578    37609    37687 
   37713    37728    37768    37779    37790    37816    37805    37802 
   37843    37860    37855    37852    37778    37638    37602    37717 
   37835    37831    37766    37747    37740    37728    37809    37926 
   37916    37777    37662    37627    37619    37611    37567    37509 
   37557    37667    37747    37821    37809    37658    37552    37586 
   37693    37814    37856    37785    37700    37671    37692    37736 
   37770    37801    37855    37868    37798    37756    37789    37793 
   37779    37802    37813    37812    37789    37714    37714    37820 
   37876    37827    37723    37617    37523    37504    37606    37682 
   37636    37654    37798    37839    37756    37751    37794    37813 
   37848    37832    37759    37724    37747    37752    37687    37636 
   37648    37660    37697    37755    37783    37829    37839    37728 
   37629    37646    37679    37666    37656    37683    37686    37601 
   37471    37419    37498    37621    37708    37771    37800    37774 
   37758    37781    37777    37750    37744    37696    37644    37724 
   37825    37822    37783    37731    37692    37735    37773    37754 
   37766    37791    37770    37770    37802    37755    37686    37748 
   37851    37821    37743    37748    37771    37721    37647    37658 
   37747    37795    37775    37752    37760    37767    37694    37593 
   37650    37810    37822    37706    37671    37724    37716    37666 
   37705    37793    37802    37770    37763    37747    37727    37740 
   37758    37763    37774    37773    37760    37740    37743    37791 
   37774    37655    37636    37763    37839    37821    37787    37735 
   37713    37741    37752    37750    37720    37651    37620    37617 
   37588    37596    37663    37712    37721    37713    37706    37705 
   37658    37590    37623    37723    37785    37804    37760    37679 
   37696    37804    37840    37791    37751    37725    37717    37741 
   37736    37690    37669    37666    37683    37706    37678    37636 
   37644    37678    37696    37679    37656    37671    37716    37768 
   37829    37871    37817    37701    37692    37775    37812    37817 
   37813    37770    37771    37797    37739    37696    37735    37759 
   37751    37741    37731    37740    37762    37768    37762    37746 
   37739    37751    37737    37698    37681    37700    37748    37798 
   37813    37791    37754    37721    37701    37683    37669    37673 
   37678    37683    37702    37721    37739    37782    37821    37791 
   37713    37681    37700    37685    37648    37700    37787    37778 
   37719    37712    37731    37744    37756    37766    37774    37782 
   37771    37735    37706    37712    37721    37723    37716    37690 
   37656    37631    37633    37686    37741    37743    37735    37751 
   37752    37716    37660    37606    37605    37648    37687    37748 
   37827    37844    37814    37793    37759    37693    37663    37701 
   37740    37747    37750    37733    37700    37710    37775    37806 
   37777    37756    37750    37698    37659    37683    37716    37739 
   37770    37789    37779    37752    37748    37787    37805    37768 
   37728    37729    37759    37779    37779    37768    37756    37766 
   37763    37733    37739    37754    37737    37746    37762    37727 
   37679    37655    37652    37686    37733    37733    37697    37678 
   37675    37669    37675    37697    37709    37697    37682    37682 
   37677    37666    37681    37714    37743    37763    37762    37744 
