Origin Time       2024/03/16 06:34:00
Lat.              32.907
Long.             131.047
Depth. (km)       7
Mag.              3.3
Station Code      FKOH10
Station Lat.      33.2891
Station Long.     130.8170
Station Height(m) 190
Record Time       2024/03/16 06:34:47
Sampling Freq(Hz) 100Hz
Duration Time(s)  120
Dir.              4
Scale Factor      7845(gal)/8223790
Max. Acc. (gal)   0.456
Last Correction   2024/03/16 06:34:48
Memo.             
[...]
    5413     5416     5413     5413     5414     5416     5414     5410 
    5414     5414     5409     5414     5416     5409     5414     5417 
    5412     5413     5414     5413     5413     5412     5410     5414 
    5416     5414     5412     5410     5416     5416     5409     5414 
    5420     5417     5412     5409     5413     5416     5412     5412 
    5416     5414     5410     5409     5418     5418     5409     5410 
    5414     5413     5414     5410     5410     5417     5416     5413 
    5413     5414     5417     5413     5412     5414     5412     5412 
    5414     5414     5416     5412     5409     5413     5414     5414 
    5414     5412     5414     5417     5413     5414     5417     5413 
    5409     5413     5414     5412     5413     5413     5412     5413 
    5416     5414     5417     5417     5412     5409     5410     5414 
    5414     5410     5412     5416     5414     5414     5414     5412 
    5409     5413     5420     5417     5409     5412     5414     5412 
    5412     5413     5413     5410     5410     5413     5413     5413 
    5413     5409     5412     5418     5414     5410     5413     5414 
    5414     5414     5413     5413     5412     5412     5414     5417 
    5413     5410     5412     5414     5417     5416     5410     5416 
    5416     5410     5413     5414     5410     5413     5414     5413 
    5414     5417     5412     5409     5413     5414     5413     5416 
    5416     5414     5414     5409     5413     5417     5412     5412 
    5416     5412     5414     5414     5413     5416     5413     5412 
    5413     5410     5414     5418     5414     5413     5410     5413 
    5417     5409     5410     5418     5413     5409     5414     5413 
    5410     5413     5413     5413     5416     5410     5409     5416 
    5417     5413     5412     5412     5414     5413     5414     5413 
    5409     5413     5417     5412     5409     5413     5413     5414 
    5416     5412     5412     5413     5413     5414     5416     5410 
    5410     5412     5413     5412     5414     5416     5416     5414 
    5412     5410     5416     5418     5416     5412     5410     5414 
    5416     5413     5413     5416     5416     5416     5414     5414 
    5416     5412     5414     5416     5412     5416     5417     5410 
    5412     5413     5414     5416     5413     5412     5412     5414 
    5417     5412     5412     5416     5412     5412     5417     5413 
    5410     5413     5416     5416     5412     5412     5416     5416 
    5414     5414     5410     5412     5414     5417     5414     5409 
    5413     5417     5413     5414     5414     5412     5413     5413 
    5413     5416     5416     5416     5413     5409     5412     5418 
    5417     5413     5413     5413     5414     5413     5414     5418 
    5416     5409     5413     5418     5414     5412     5412     5412 
    5416     5416     5412     5413     5417     5412     5409     5414 
    5420     5416     5408     5409     5417     5418     5413     5414 
    5414     5413     5413     5412     5413     5416     5413     5410 
    5413     5413     5410     5413     5416     5414     5412     5412 
    5414     5414     5410     5413     5416     5413     5414     5417 
    5412     5409     5414     5418     5417     5412     5409     5413 
    5413     5413     5416     5414     5412     5413     5414     5416 
    5414     5413     5412     5412     5416     5416     5410     5410 
    5413     5416     5416     5414     5414     5416     5414     5414 
    5413     5412     5416     5412     5409     5414     5413     5410 
    5414     5412     5412     5416     5412     5412     5417     5416 
    5410     5410     5417     5416     5412     5414     5414     5409 
    5412     5413     5413     5414     5412     5412     5413     5413 
    5416     5414     5412     5413     5414     5410     5409     5413 
    5417     5416     5412     5413     5416     5416     5416     5414 
    5414     5414     5414     5414     5413     5414     5414     5410 
    5413     5418     5413     5412     5414     5416     5414     5412 
    5409     5414     5416     5414     5417     5414     5409     5412 
    5414     5413     5414     5416     5414     5416     5414     5414 
    5416     5417     5414     5409     5413     5420     5416     5410 
    5414     5417     5416     5412     5413     5416     5410     5410 
    5416     5416     5413     5413     5414     5416     5413     5412 
    5416     5417     5413     5410     5410     5413     5416     5413 
    5413     5416     5416     5413     5414     5413     5413     5412 
    5412     5414     5417     5414     5412     5414     5418     5416 
    5412     5413     5417     5416     5412     5413     5416     5413 
    5410     5413     5417     5413     5408     5410     5416     5417 
    5414     5410     5412     5416     5414     5413     5414     5416 
    5414     5410     5413     5416     5416     5414     5416     5416 
    5413     5413     5416     5416     5413     5412     5412     5417 
    5417     5409     5412     5417     5410     5412     5417     5414 
    5413     5413     5410     5412     5414     5412     5412     5414 
    5416     5412     5413     5418     5416     5412     5413     5412 
    5410     5414     5420     5418     5413     5412     5412     5412 
    5416     5417     5413     5412     5413     5413     5416     5417 
    5416     5418     5414     5410     5417     5418     5413     5413 
    5413     5414     5417     5412     5412     5417     5416     5416 
    5414     5410     5417     5417     5410     5413     5414     5414 
    5416     5413     5412     5414     5412     5412     5416     5414 
    5413     5412     5414     5414     5412     5412     5413     5412 
    5420     5420     5410     5414     5417     5413     5417     5416 
    5410     5413     5413     5412     5414     5416     5413     5412 
    5416     5414     5412     5414     5417     5413     5412     5413 
    5413     5414     5417     5414     5412     5416     5416     5410 
    5412     5417     5418     5412     5408     5414     5418     5413 
    5410     5412     5416     5413     5412     5416     5416     5412 
    5414     5414     5414     5416     5412     5414     5418     5416 
    5412     5414     5417     5416     5412     5412     5417     5416 
    5410     5409     5413     5418     5416     5413     5414     5416 
    5413     5413     5416     5416     5412     5412     5416     5414 
    5412     5413     5413     5416     5420     5417     5410     5410 
    5413     5413     5416     5414     5410     5410     5413     5413 
    5416     5418     5412     5406     5412     5416     5414     5413 
    5413     5410     5412     5416     5417     5414     5412     5412 
    5414     5416     5416     5416     5413     5412     5413     5414 
    5414     5416     5414     5410     5414     5417     5416     5412 
    5410     5413     5413     5412     5416     5416     5414     5414 
    5412     5414     5416     5412     5413     5416     5413     5413 
    5412     5414     5416     5416     5414     5410     5412     5418 
    5417     5414     5414     5414     5416     5416     5413     5417 
    5418     5412     5412     5413     5412     5416     5414     5410 
    5413     5412     5412     5414     5416     5413     5413     5413 
    5412     5417     5416     5412     5412     5414     5417     5414 
    5410     5412     5416     5417     5412     5409     5413     5413 
    5409     5412     5413     5413     5413     5417     5417     5414 
    5414     5413     5414     5417     5416     5412     5414     5414 
    5413     5418     5417     5410     5412     5416     5414     5412 
    5413     5414     5412     5408     5409     5417     5417     5410 
    5410     5416     5413     5410     5410     5414     5416     5409 
    5409     5414     5412     5408     5410     5414     5412     5405 
    5404     5400     5391     5395     5421     5456     5475     5454 
    5405     5364     5351     5378     5443     5502     5520     5475 
    5390     5306     5278     5343     5452     5494     5467     5445 
    5409     5340     5329     5405     5460     5444     5420     5424 
    5418     5405     5421     5447     5440     5425     5418     5410 
    5409     5404     5374     5366     5405     5429     5417     5414 
    5417     5405     5391     5391     5421     5468     5491     5463 
    5404     5360     5356     5360     5377     5440     5508     5512 
    5440     5351     5323     5347     5367     5410     5490     5503 
    5416     5352     5390     5437     5428     5424     5458     5431 
    5321     5314     5454     5502     5416     5387     5437     5421 
    5355     5395     5482     5425     5333     5391     5489     5463 
    5387     5386     5414     5402     5379     5389     5452     5508 
    5454     5359     5362     5404     5374     5368     5479     5528 
    5386     5287     5416     5537     5455     5364     5412     5437 
    5373     5362     5427     5448     5422     5414     5408     5408 
    5420     5400     5382     5433     5455     5383     5352     5397 
    5409     5401     5444     5485     5448     5371     5359     5412 
    5444     5454     5441     5381     5336     5359     5424     5502 
    5545     5494     5355     5236     5260     5428     5594     5617 
    5476     5294     5209     5255     5394     5535     5564     5475 
    5352     5282     5332     5445     5508     5510     5454     5355 
    5333     5408     5452     5458     5468     5435     5339     5300 
    5393     5509     5508     5435     5397     5374     5355     5393 
    5431     5414     5400     5433     5475     5451     5377     5337 
    5350     5401     5475     5514     5491     5417     5336     5332 
    5398     5462     5491     5463     5386     5336     5347     5401 
    5456     5425     5347     5371     5440     5402     5370     5447 
    5506     5468     5406     5371     5363     5367     5393     5466 
    5521     5478     5385     5336     5367     5429     5440     5416 
    5429     5445     5389     5331     5383     5476     5474     5420 
    5414     5397     5296     5271     5455     5601     5495     5348 
    5351     5395     5404     5447     5493     5456     5395     5371 
    5348     5366     5451     5476     5429     5428     5420     5340 
    5360     5525     5545     5363     5289     5382     5420     5400 
    5464     5517     5439     5402     5464     5421     5316     5354 
    5439     5400     5347     5393     5395     5319     5356     5497 
    5521     5458     5454     5444     5355     5274     5310     5467 
    5571     5489     5371     5378     5414     5432     5522     5574 
    5406     5206     5250     5410     5454     5458     5510     5485 
    5352     5287     5363     5447     5451     5456     5474     5413 
    5328     5343     5427     5464     5414     5368     5405     5421 
    5373     5390     5474     5482     5418     5394     5410     5395 
    5400     5481     5522     5440     5359     5366     5387     5391 
    5402     5400     5385     5393     5425     5454     5447     5424 
    5421     5406     5378     5389     5413     5418     5439     5456 
    5433     5405     5425     5447     5414     5375     5371     5386 
    5417     5445     5440     5422     5412     5404     5397     5410 
    5447     5441     5382     5352     5382     5422     5448     5443 
    5390     5354     5389     5429     5412     5409     5451     5439 
    5398     5425     5454     5416     5386     5404     5412     5397 
    5413     5443     5432     5414     5417     5402     5395     5433 
    5437     5385     5400     5462     5433     5363     5366     5400 
    5416     5449     5487     5464     5389     5350     5370     5397 
    5429     5448     5420     5405     5433     5436     5408     5385 
    5370     5374     5414     5454     5435     5389     5413     5448 
    5417     5400     5435     5445     5425     5417     5422     5425 
    5429     5440     5432     5393     5373     5408     5429     5391 
    5374     5408     5397     5355     5406     5506     5467     5331 
    5321     5422     5445     5424     5454     5433     5339     5325 
    5431     5521     5502     5418     5371     5393     5425     5413 
    5394     5413     5412     5363     5394     5503     5486     5355 
    5332     5410     5439     5451     5510     5494     5356     5285 
    5348     5409     5435     5468     5471     5420     5367     5393 
    5476     5489     5397     5320     5331     5395     5452     5478 
    5460     5382     5314     5355     5452     5479     5439     5414 
    5400     5381     5405     5447     5449     5431     5408     5386 
    5385     5409     5433     5432     5405     5366     5354     5405 
    5454     5443     5417     5414     5420     5418     5421     5437 
    5441     5418     5408     5410     5401     5381     5375     5425 
    5481     5444     5366     5382     5441     5413     5364     5406 
    5454     5402     5356     5406     5468     5462     5425     5418 
    5413     5375     5371     5422     5431     5383     5370     5406 
    5452     5432     5331     5323     5458     5517     5445     5414 
    5458     5444     5378     5416     5529     5508     5400     5382 
    5393     5324     5289     5397     5553     5649     5709     5767 
    5765     5675     5541     5389     5211     5038     4936     4954 
    5043     5144     5270     5377     5373     5287     5232     5283 
    5424     5539     5557     5529     5494     5499     5610     5769 
    5810     5653     5402     5227     5175     5208     5336     5501 
    5503     5340     5250     5336     5487     5584     5571     5451 
    5341     5378     5521     5595     5478     5244     5120     5213 
    5412     5524     5428     5252     5209     5302     5448     5597 
    5616     5464     5337     5413     5605     5678     5552     5351 
    5228     5254     5379     5463     5412     5285     5219     5308 
    5503     5606     5501     5324     5242     5275     5394     5525 
    5547     5456     5408     5499     5634     5661     5555     5389 
    5274     5279     5335     5341     5306     5255     5265     5422 
    5598     5586     5421     5262     5221     5327     5513     5663 
    5668     5537     5400     5321     5333     5454     5574     5594 
    5541     5459     5373     5312     5316     5408     5481     5416 
    5314     5323     5382     5368     5310     5320     5343     5277 
    5235     5310     5379     5401     5476     5566     5563     5493 
    5373     5204     5138     5304     5552     5641     5540     5397 
    5323     5346     5471     5622     5661     5567     5439     5343 
    5336     5424     5495     5481     5394     5274     5220     5301 
    5389     5360     5285     5266     5328     5462     5572     5535 
    5405     5356     5409     5499     5610     5649     5524     5354 
    5329     5440     5557     5602     5514     5325     5217     5278 
    5381     5425     5449     5429     5290     5148     5173     5260 
    5260     5233     5277     5394     5532     5629     5638     5518 
    5336     5285     5429     5607     5675     5626     5486     5312 
    5251     5373     5540     5602     5574     5514     5409     5309 
    5324     5418     5486     5509     5491     5420     5278     5131 
    5132     5310     5497     5535     5455     5375     5310     5271 
    5333     5471     5536     5481     5394     5354     5352     5393 
    5468     5510     5497     5449     5389     5359     5410     5490 
    5478     5378     5332     5379     5409     5413     5478     5539 
    5475     5354     5306     5294     5247     5258     5402     5563 
    5606     5564     5509     5432     5374     5416     5498     5497 
    5404     5294     5270     5371     5497     5552     5514     5385 
    5265     5279     5414     5526     5510     5432     5375     5320 
    5283     5343     5420     5414     5412     5464     5468     5378 
    5297     5300     5346     5416     5540     5651     5601     5400 
    5231     5215     5310     5435     5506     5478     5379     5305 
    5320     5406     5508     5559     5537     5487     5459     5455 
    5427     5378     5371     5394     5370     5324     5316     5340 
    5381     5433     5483     5486     5441     5417     5424     5416 
    5400     5405     5431     5425     5367     5316     5317     5366 
    5454     5533     5539     5458     5385     5409     5475     5502 
    5471     5393     5300     5263     5335     5460     5532     5526 
    5471     5418     5421     5412     5346     5301     5313     5344 
    5386     5425     5409     5332     5289     5368     5497     5544 
    5528     5486     5431     5436     5514     5543     5447     5320 
    5290     5355     5448     5508     5481     5385     5317     5348 
    5441     5505     5483     5405     5346     5371     5464     5520 
    5481     5373     5271     5263     5347     5413     5409     5389 
    5386     5390     5397     5397     5385     5374     5414     5524 
    5614     5570     5414     5283     5259     5321     5413     5462 
    5451     5433     5439     5458     5479     5479     5441     5391 
    5363     5373     5406     5424     5390     5343     5359     5413 
    5420     5406     5420     5412     5364     5346     5373     5398 
    5400     5400     5408     5406     5397     5395     5414     5444 
    5458     5452     5439     5440     5460     5460     5436     5440 
    5471     5485     5490     5489     5460     5421     5412     5417 
    5412     5416     5424     5418     5414     5405     5386     5390 
    5404     5395     5385     5400     5425     5444     5464     5486 
    5476     5433     5409     5429     5443     5417     5373     5339 
    5337     5381     5427     5420     5360     5301     5293     5341 
    5405     5437     5444     5443     5433     5416     5406     5400 
    5374     5367     5425     5498     5512     5478     5439     5408 
    5405     5431     5448     5417     5344     5309     5364     5443 
    5478     5467     5395     5300     5286     5379     5474     5495 
    5466     5435     5420     5418     5432     5443     5414     5364 
    5354     5387     5427     5447     5441     5425     5413     5427 
    5468     5487     5447     5393     5374     5379     5386     5405 
    5418     5404     5386     5404     5439     5447     5428     5402 
    5362     5327     5350     5409     5437     5418     5389     5374 
    5364     5366     5401     5444     5447     5420     5410     5418 
    5427     5441     5462     5456     5440     5467     5495     5459 
    5395     5375     5387     5394     5401     5406     5401     5410 
    5455     5505     5518     5470     5395     5362     5366     5370 
    5387     5416     5418     5393     5386     5412     5435     5429 
    5425     5439     5444     5443     5445     5436     5405     5386 
    5389     5404     5416     5417     5401     5373     5373     5420 
    5467     5466     5433     5408     5385     5363     5389     5437 
    5451     5448     5458     5466     5454     5425     5404     5397 
