Origin Time       2024/03/16 06:34:00
Lat.              32.907
Long.             131.047
Depth. (km)       7
Mag.              3.3
Station Code      KMMH18
Station Lat.      33.0031
Station Long.     131.0071
Station Height(m) 932
Record Time       2024/03/16 06:34:35
Sampling Freq(Hz) 100Hz
Duration Time(s)  120
Dir.              5
Scale Factor      7845(gal)/8223790
Max. Acc. (gal)   10.306
Last Correction   2024/03/16 06:34:35
Memo.             
[...]
   -8556    -8557    -8557    -8554    -8556    -8557    -8557    -8556 
   -8557    -8559    -8557    -8557    -8560    -8559    -8554    -8554 
   -8557    -8556    -8557    -8560    -8561    -8561    -8557    -8553 
   -8556    -8557    -8556    -8556    -8556    -8554    -8557    -8556 
   -8556    -8559    -8560    -8557    -8557    -8557    -8556    -8556 
   -8554    -8554    -8557    -8559    -8556    -8556    -8557    -8554 
   -8553    -8556    -8559    -8556    -8556    -8559    -8556    -8554 
   -8559    -8556    -8553    -8556    -8554    -8556    -8559    -8559 
   -8559    -8559    -8556    -8556    -8559    -8559    -8557    -8556 
   -8554    -8554    -8557    -8557    -8554    -8557    -8559    -8557 
   -8556    -8556    -8556    -8556    -8556    -8559    -8559    -8556 
   -8554    -8556    -8556    -8556    -8554    -8553    -8554    -8556 
   -8557    -8559    -8557    -8559    -8560    -8557    -8553    -8556 
   -8559    -8557    -8554    -8557    -8559    -8557    -8557    -8559 
   -8557    -8559    -8559    -8556    -8554    -8556    -8556    -8554 
   -8554    -8556    -8557    -8557    -8559    -8559    -8557    -8557 
   -8556    -8556    -8557    -8556    -8556    -8559    -8559    -8554 
   -8554    -8557    -8557    -8556    -8556    -8559    -8559    -8557 
   -8561    -8559    -8553    -8554    -8556    -8554    -8556    -8557 
   -8557    -8557    -8557    -8557    -8556    -8557    -8557    -8557 
   -8557    -8557    -8556    -8557    -8557    -8556    -8556    -8557 
   -8559    -8556    -8556    -8557    -8556    -8556    -8559    -8559 
   -8557    -8559    -8557    -8557    -8557    -8556    -8554    -8556 
   -8556    -8556    -8557    -8557    -8557    -8559    -8559    -8556 
   -8556    -8556    -8554    -8556    -8559    -8556    -8553    -8556 
   -8560    -8559    -8557    -8559    -8560    -8557    -8557    -8559 
   -8559    -8557    -8559    -8557    -8557    -8559    -8559    -8557 
   -8556    -8556    -8557    -8557    -8557    -8560    -8559    -8554 
   -8556    -8557    -8557    -8556    -8554    -8554    -8554    -8556 
   -8557    -8557    -8556    -8556    -8559    -8559    -8556    -8556 
   -8554    -8554    -8557    -8560    -8557    -8553    -8553    -8556 
   -8557    -8557    -8559    -8560    -8556    -8556    -8559    -8560 
   -8557    -8559    -8560    -8556    -8552    -8554    -8554    -8554 
   -8557    -8559    -8557    -8559    -8560    -8559    -8559    -8557 
   -8556    -8557    -8559    -8557    -8556    -8559    -8560    -8559 
   -8557    -8559    -8557    -8557    -8559    -8557    -8556    -8557 
   -8556    -8556    -8559    -8559    -8556    -8556    -8556    -8556 
   -8554    -8557    -8560    -8561    -8557    -8556    -8559    -8559 
   -8556    -8556    -8553    -8554    -8557    -8557    -8559    -8563 
   -8560    -8557    -8559    -8557    -8559    -8559    -8554    -8553 
   -8553    -8554    -8556    -8557    -8559    -8559    -8556    -8554 
   -8557    -8559    -8557    -8556    -8557    -8559    -8559    -8559 
   -8557    -8553    -8554    -8556    -8556    -8556    -8559    -8560 
   -8559    -8557    -8559    -8557    -8554    -8556    -8559    -8556 
   -8556    -8556    -8554    -8553    -8554    -8559    -8560    -8559 
   -8557    -8557    -8556    -8556    -8559    -8557    -8554    -8554 
   -8557    -8556    -8554    -8557    -8557    -8557    -8559    -8559 
   -8557    -8559    -8559    -8559    -8554    -8553    -8556    -8557 
   -8556    -8557    -8554    -8557    -8559    -8556    -8557    -8559 
   -8557    -8557    -8556    -8556    -8559    -8559    -8556    -8556 
   -8557    -8559    -8556    -8554    -8559    -8560    -8556    -8556 
   -8557    -8557    -8557    -8557    -8554    -8554    -8554    -8557 
   -8557    -8556    -8556    -8557    -8557    -8554    -8557    -8560 
   -8559    -8556    -8554    -8557    -8559    -8559    -8557    -8557 
   -8556    -8559    -8560    -8556    -8554    -8557    -8559    -8559 
   -8557    -8556    -8559    -8557    -8554    -8554    -8556    -8557 
   -8557    -8557    -8557    -8559    -8559    -8557    -8557    -8557 
   -8557    -8556    -8554    -8553    -8556    -8556    -8554    -8557 
   -8561    -8559    -8556    -8557    -8557    -8557    -8559    -8556 
   -8554    -8557    -8559    -8556    -8554    -8557    -8557    -8556 
   -8554    -8556    -8559    -8560    -8557    -8559    -8557    -8554 
   -8553    -8554    -8556    -8557    -8557    -8556    -8556    -8559 
   -8559    -8556    -8557    -8560    -8557    -8554    -8556    -8556 
   -8554    -8556    -8557    -8556    -8556    -8554    -8554    -8556 
   -8557    -8556    -8553    -8556    -8557    -8556    -8556    -8554 
   -8553    -8557    -8560    -8554    -8553    -8557    -8557    -8554 
   -8557    -8559    -8557    -8557    -8557    -8556    -8556    -8557 
   -8557    -8556    -8554    -8556    -8556    -8556    -8556    -8556 
   -8557    -8557    -8557    -8560    -8559    -8556    -8554    -8557 
   -8560    -8557    -8557    -8559    -8559    -8557    -8556    -8556 
   -8556    -8556    -8557    -8559    -8557    -8554    -8557    -8560 
   -8557    -8556    -8557    -8557    -8556    -8556    -8556    -8557 
   -8560    -8556    -8553    -8556    -8557    -8553    -8553    -8556 
   -8556    -8554    -8556    -8559    -8560    -8557    -8556    -8559 
   -8559    -8554    -8557    -8559    -8556    -8554    -8556    -8557 
   -8556    -8554    -8557    -8557    -8556    -8557    -8557    -8554 
   -8556    -8557    -8556    -8556    -8559    -8557    -8554    -8556 
   -8556    -8556    -8557    -8557    -8557    -8557    -8557    -8556 
   -8557    -8557    -8554    -8556    -8556    -8554    -8556    -8559 
   -8559    -8556    -8556    -8557    -8559    -8557    -8557    -8557 
   -8556    -8557    -8557    -8557    -8557    -8554    -8554    -8557 
   -8557    -8556    -8554    -8553    -8554    -8557    -8559    -8556 
   -8554    -8556    -8557    -8554    -8554    -8559    -8559    -8557 
   -8556    -8556    -8557    -8559    -8559    -8559    -8556    -8557 
   -8560    -8559    -8554    -8556    -8559    -8554    -8554    -8557 
   -8557    -8557    -8557    -8557    -8556    -8556    -8557    -8557 
   -8556    -8556    -8557    -8557    -8556    -8557    -8559    -8557 
   -8557    -8556    -8556    -8556    -8556    -8557    -8559    -8557 
   -8554    -8556    -8556    -8554    -8556    -8557    -8556    -8556 
   -8557    -8554    -8556    -8557    -8557    -8557    -8554    -8552 
   -8554    -8557    -8556    -8554    -8556    -8554    -8556    -8559 
   -8557    -8556    -8557    -8557    -8554    -8553    -8557    -8557 
   -8554    -8553    -8554    -8554    -8554    -8556    -8556    -8557 
   -8559    -8556    -8556    -8557    -8557    -8556    -8556    -8554 
   -8554    -8557    -8557    -8554    -8556    -8557    -8557    -8557 
   -8557    -8557    -8557    -8559    -8559    -8554    -8554    -8557 
   -8556    -8554    -8557    -8559    -8554    -8553    -8557    -8560 
   -8557    -8557    -8557    -8557    -8556    -8554    -8556    -8554 
   -8554    -8557    -8557    -8556    -8556    -8556    -8554    -8556 
   -8560    -8559    -8556    -8557    -8560    -8560    -8556    -8554 
   -8557    -8560    -8556    -8556    -8560    -8560    -8556    -8556 
   -8557    -8557    -8556    -8557    -8557    -8554    -8557    -8560 
   -8557    -8556    -8557    -8559    -8560    -8560    -8556    -8557 
   -8560    -8559    -8556    -8557    -8556    -8554    -8557    -8557 
   -8556    -8557    -8557    -8556    -8556    -8557    -8557    -8556 
   -8556    -8556    -8556    -8557    -8556    -8553    -8554    -8556 
   -8556    -8557    -8557    -8557    -8560    -8559    -8554    -8557 
   -8556    -8553    -8554    -8557    -8556    -8556    -8556    -8557 
   -8556    -8556    -8557    -8559    -8557    -8557    -8560    -8559 
   -8557    -8557    -8556    -8554    -8556    -8557    -8559    -8557 
   -8556    -8557    -8557    -8557    -8559    -8559    -8557    -8556 
   -8557    -8557    -8557    -8556    -8554    -8556    -8556    -8556 
   -8556    -8557    -8559    -8559    -8559    -8554    -8554    -8557 
   -8557    -8556    -8556    -8556    -8556    -8556    -8556    -8557 
   -8556    -8554    -8557    -8557    -8553    -8554    -8559    -8559 
   -8557    -8556    -8553    -8554    -8557    -8559    -8559    -8557 
   -8559    -8559    -8557    -8554    -8556    -8559    -8556    -8554 
   -8553    -8554    -8557    -8556    -8554    -8556    -8559    -8557 
   -8559    -8559    -8556    -8556    -8556    -8554    -8554    -8557 
   -8559    -8557    -8557    -8559    -8557    -8557    -8557    -8556 
   -8554    -8557    -8560    -8557    -8554    -8557    -8556    -8554 
   -8554    -8554    -8557    -8560    -8560    -8557    -8556    -8557 
   -8559    -8557    -8556    -8556    -8557    -8557    -8556    -8557 
   -8559    -8554    -8553    -8554    -8556    -8557    -8557    -8556 
   -8557    -8559    -8559    -8560    -8557    -8556    -8559    -8559 
   -8554    -8553    -8554    -8559    -8559    -8556    -8557    -8559 
   -8556    -8554    -8556    -8556    -8556    -8557    -8557    -8556 
   -8556    -8557    -8557    -8554    -8553    -8557    -8559    -8556 
   -8557    -8557    -8557    -8557    -8557    -8556    -8556    -8557 
   -8557    -8559    -8560    -8559    -8557    -8556    -8556    -8557 
   -8557    -8557    -8560    -8557    -8553    -8554    -8556    -8556 
   -8557    -8554    -8554    -8554    -8554    -8557    -8557    -8557 
   -8557    -8560    -8560    -8557    -8556    -8557    -8557    -8557 
   -8557    -8557    -8557    -8557    -8557    -8557    -8556    -8556 
   -8560    -8559    -8554    -8556    -8554    -8552    -8556    -8557 
   -8556    -8556    -8556    -8556    -8557    -8556    -8557    -8557 
   -8554    -8554    -8556    -8554    -8554    -8557    -8557    -8557 
   -8557    -8556    -8553    -8554    -8557    -8556    -8556    -8557 
   -8556    -8554    -8554    -8556    -8556    -8556    -8554    -8556 
   -8557    -8556    -8556    -8556    -8557    -8557    -8557    -8559 
   -8559    -8556    -8557    -8559    -8559    -8559    -8559    -8557 
   -8557    -8557    -8557    -8556    -8557    -8557    -8554    -8557 
   -8559    -8556    -8556    -8557    -8556    -8557    -8557    -8556 
   -8557    -8560    -8557    -8556    -8556    -8557    -8556    -8556 
   -8559    -8556    -8554    -8557    -8559    -8557    -8557    -8559 
   -8557    -8556    -8556    -8557    -8557    -8556    -8557    -8560 
   -8557    -8553    -8554    -8556    -8557    -8556    -8556    -8559 
   -8557    -8556    -8559    -8556    -8554    -8556    -8556    -8554 
   -8554    -8557    -8559    -8557    -8556    -8554    -8559    -8560 
   -8559    -8557    -8559    -8556    -8554    -8554    -8554    -8554 
   -8554    -8554    -8554    -8554    -8557    -8556    -8554    -8557 
   -8559    -8557    -8556    -8556    -8556    -8557    -8554    -8554 
   -8556    -8553    -8554    -8557    -8556    -8553    -8556    -8556 
   -8553    -8554    -8557    -8554    -8554    -8559    -8559    -8554 
   -8554    -8556    -8554    -8554    -8556    -8559    -8557    -8553 
   -8557    -8560    -8557    -8556    -8557    -8556    -8554    -8556 
   -8556    -8553    -8554    -8561    -8559    -8553    -8557    -8560 
   -8559    -8556    -8557    -8557    -8557    -8556    -8554    -8556 
   -8557    -8557    -8557    -8557    -8557    -8559    -8559    -8554 
   -8553    -8556    -8556    -8556    -8557    -8554    -8550    -8550 
   -8549    -8544    -8540    -8538    -8552    -8576    -8580    -8545 
   -8498    -8483    -8544    -8680    -8802    -8808    -8721    -8591 
   -8429    -8290    -8247    -8272    -8353    -8542    -8750    -8846 
   -8893    -8924    -8788    -8483    -8187    -7978    -7963    -8259 
   -8594    -8681    -8741    -8935    -8969    -8762    -8602    -8542 
   -8573    -8823    -9108    -9144    -9153    -9281    -9104    -8476 
   -7835    -7362    -7034    -7087    -7479    -7801    -8054    -8495 
   -9054    -9502    -9772    -9846    -9729    -9521    -9194    -8614 
   -8062    -7973    -8151    -8090    -7719    -7353    -7357    -7848 
   -8472    -8826    -9070    -9603   -10230   -10401   -10025    -9320 
   -8525    -7950    -7597    -7227    -7015    -7258    -7805    -8325 
   -8563    -8490    -8487    -8823    -9166    -9162    -8957    -8843 
   -8959    -9224    -9261    -8847    -8379    -8213    -8127    -7929 
   -7854    -8051    -8359    -8646    -8877    -9023    -9139    -9177 
   -8968    -8662    -8556    -8564    -8518    -8475    -8472    -8433 
   -8272    -8010    -7834    -7819    -7846    -7886    -8039    -8398 
   -8924    -9347    -9474    -9405    -9244    -9008    -8799    -8625 
   -8388    -8276    -8495    -8772    -8766    -8502    -8182    -8036 
   -8158    -8375    -8515    -8638    -8818    -8977    -9012    -8905 
   -8680    -8419    -8282    -8278    -8267    -8287    -8418    -8548 
   -8654    -8741    -8629    -8471    -8619    -8827    -8641    -8260 
   -8164    -8293    -8333    -8432    -8804    -9185    -9327    -9205 
   -8733    -8137    -7932    -8137    -8382    -8552    -8703    -8831 
   -8881    -8776    -8533    -8274    -8085    -7905    -7573    -7223 
   -7204    -7300    -6916    -6008    -4986    -4249    -4039    -4172 
   -4359    -4808    -5787    -7057    -8525   -10530   -13005   -15445 
  -17566   -19024   -19360   -18750   -17741   -16483   -15028   -13558 
  -11896    -9721    -7207    -4880    -3114    -2025    -1528    -1571 
   -2293    -3657    -5240    -6670    -7774    -8337    -8287    -7952 
   -7690    -7469    -7115    -6799    -6933    -7560    -8306    -8999 
   -9724   -10399   -10802   -10648    -9630    -7974    -6570    -6169 
   -6759    -7701    -8282    -8378    -8495    -8889    -9182    -9084 
   -8780    -8595    -8540    -8301    -7848    -7483    -7276    -7508 
   -8789   -10906   -12853   -14033   -14337   -13730   -12370   -10638 
   -8892    -7389    -6336    -5709    -5332    -5282    -5655    -6095 
   -6319    -6650    -7335    -8056    -8707    -9529   -10153    -9963 
   -9278    -8853    -8819    -8988    -9370    -9909   -10203    -9910 
   -9130    -8317    -7985    -8293    -8874    -9256    -9224    -8787 
   -8152    -7636    -7368    -7182    -6918    -6709    -6755    -7007 
   -7319    -7630    -7862    -8009    -8179    -8324    -8237    -7917 
   -7676    -7803    -8197    -8581    -8866    -9066    -9239    -9579 
  -10087   -10416   -10353   -10187   -10334   -10660   -10620   -10115 
   -9620    -9425    -9321    -9038    -8611    -8229    -7886    -7365 
   -6658    -6141    -6095    -6367    -6723    -7236    -8021    -8897 
   -9606   -10072   -10359   -10550   -10604   -10354    -9799    -9042 
   -8090    -7121    -6561    -6578    -6949    -7457    -7996    -8397 
   -8588    -8788    -9162    -9458    -9328    -8772    -8014    -7288 
   -6771    -6594    -6875    -7573    -8310    -8677    -8753    -8861 
   -8953    -8919    -9055    -9474    -9822    -9882    -9699    -9483 
   -9526    -9794    -9896    -9671    -9282    -8897    -8617    -8536 
   -8691    -8914    -8935    -8654    -8064    -7217    -6475    -6230 
   -6409    -6759    -7246    -7803    -8185    -8352    -8473    -8684 
   -9200   -10187   -11321   -12033   -12144   -11855   -11349   -10700 
   -9946    -9124    -8372    -7917    -7719    -7389    -6731    -5950 
   -5277    -4797    -4567    -4603    -4959    -5678    -6563    -7273 
   -7707    -8078    -8526    -8927    -9251    -9691   -10373   -11214 
  -11996   -12521   -12766   -12838   -12762   -12478   -11956   -11315 
  -10704   -10072    -9208    -8043    -6764    -5632    -4791    -4226 
   -3883    -3786    -4048    -4795    -5903    -6891    -7465    -7877 
   -8365    -8803    -9063    -9153    -9136    -9211    -9431    -9454 
   -9063    -8588    -8336    -8216    -8195    -8482    -9117    -9887 
  -10636   -11265   -11551   -11400   -10999   -10453    -9728    -9016 
   -8588    -8456    -8479    -8525    -8510    -8467    -8451    -8445 
   -8409    -8343    -8270    -8189    -8077    -7993    -8010    -8105 
   -8286    -8598    -8900    -8941    -8691    -8344    -8059    -7850 
   -7645    -7402    -7167    -7013    -6953    -6937    -6937    -7018 
   -7237    -7537    -7839    -8118    -8363    -8549    -8708    -8919 
   -9138    -9261    -9377    -9603    -9894   -10208   -10524   -10685 
  -10579   -10335   -10114    -9910    -9590    -9004    -8210    -7526 
   -7192    -7156    -7311    -7607    -7905    -8067    -8139    -8212 
   -8267    -8247    -8195    -8251    -8479    -8833    -9262    -9742 
  -10238   -10675   -10905   -10805   -10400    -9794    -9146    -8596 
   -8116    -7595    -7072    -6674    -6420    -6216    -6021    -5931 
   -6015    -6143    -6166    -6189    -6434    -6899    -7396    -7835 
   -8270    -8758    -9328    -9936   -10496   -10979   -11349   -11520 
  -11510   -11477   -11499   -11421   -11034   -10339    -9558    -8885 
   -8345    -7927    -7681    -7620    -7657    -7620    -7385    -7029 
   -6741    -6636    -6685    -6755    -6754    -6752    -6859    -7075 
   -7352    -7680    -8118    -8706    -9300    -9715    -9971   -10152 
  -10166    -9930    -9585    -9305    -9136    -9132    -9373    -9757 
  -10030   -10025    -9819    -9590    -9390    -9148    -8789    -8320 
   -7878    -7569    -7303    -7024    -6894    -7020    -7287    -7591 
   -7917    -8212    -8465    -8723    -8887    -8849    -8752    -8812 
   -9055    -9359    -9594    -9691    -9683    -9633    -9521    -9309 
   -9046    -8792    -8567    -8363    -8167    -8032    -8010    -8031 
   -7978    -7858    -7766    -7767    -7821    -7854    -7839    -7732 
   -7512    -7291    -7186    -7182    -7265    -7487    -7816    -8095 
   -8228    -8283    -8357    -8453    -8572    -8754    -9049    -9450 
   -9846   -10126   -10301   -10405   -10401   -10309   -10170    -9950 
   -9684    -9458    -9262    -9058    -8839    -8614    -8418    -8253 
   -8095    -7978    -7942    -7969    -8079    -8325    -8606    -8730 
   -8684    -8604    -8534    -8415    -8240    -8046    -7878    -7782 
   -7800    -7931    -8137    -8357    -8540    -8606    -8494    -8270 
   -8079    -8006    -8064    -8214    -8382    -8511    -8591    -8602 
   -8529    -8451    -8482    -8608    -8750    -8857    -8893    -8861 
   -8819    -8785    -8699    -8521    -8333    -8224    -8185    -8179 
   -8175    -8163    -8226    -8411    -8579    -8625    -8634    -8631 
   -8548    -8453    -8433    -8478    -8603    -8804    -9011    -9234 
   -9474    -9602    -9545    -9348    -9042    -8695    -8438    -8297 
   -8232    -8280    -8468    -8703    -8876    -8946    -8939    -8887 
   -8807    -8718    -8671    -8715    -8846    -8999    -9081    -9043 
   -8937    -8839    -8738    -8583    -8399    -8233    -8070    -7939 
   -7919    -8000    -8125    -8266    -8374    -8406    -8345    -8206 
   -8074    -8074    -8225    -8409    -8507    -8515    -8488    -8434 
   -8329    -8199    -8108    -8064    -8048    -8068    -8114    -8113 
   -8043    -7996    -8047    -8191    -8380    -8572    -8765    -8941 
   -9043    -9090    -9157    -9242    -9271    -9231    -9174    -9153 
