Origin Time       2024/03/16 06:34:00
Lat.              32.907
Long.             131.047
Depth. (km)       7
Mag.              3.3
Station Code      KMMH03
Station Lat.      32.9984
Station Long.     130.8301
Station Height(m) 178
Record Time       2024/03/16 06:34:37
Sampling Freq(Hz) 100Hz
Duration Time(s)  120
Dir.              6
Scale Factor      7845(gal)/8223790
Max. Acc. (gal)   2.021
Last Correction   2024/03/16 06:34:37
Memo.             
[...]
  -18111   -18112   -18127   -18133   -18125   -18114   -18112   -18129 
  -18138   -18122   -18099   -18099   -18125   -18156   -18153   -18118 
  -18088   -18091   -18122   -18146   -18142   -18122   -18108   -18107 
  -18119   -18139   -18144   -18125   -18106   -18106   -18115   -18121 
  -18123   -18131   -18138   -18135   -18118   -18099   -18096   -18118 
  -18145   -18150   -18137   -18121   -18111   -18108   -18110   -18117 
  -18126   -18125   -18112   -18121   -18149   -18160   -18134   -18095 
  -18079   -18092   -18119   -18148   -18157   -18141   -18118   -18114 
  -18118   -18111   -18107   -18114   -18126   -18135   -18144   -18137 
  -18117   -18107   -18111   -18117   -18125   -18129   -18126   -18123 
  -18118   -18118   -18126   -18133   -18135   -18127   -18108   -18100 
  -18108   -18129   -18145   -18138   -18117   -18110   -18119   -18126 
  -18125   -18123   -18121   -18117   -18115   -18118   -18126   -18145 
  -18150   -18125   -18096   -18098   -18112   -18121   -18127   -18137 
  -18142   -18133   -18108   -18096   -18115   -18139   -18133   -18104 
  -18095   -18125   -18161   -18158   -18127   -18099   -18096   -18115 
  -18133   -18129   -18115   -18118   -18127   -18129   -18126   -18122 
  -18118   -18119   -18123   -18123   -18129   -18137   -18127   -18104 
  -18096   -18111   -18137   -18145   -18127   -18115   -18122   -18125 
  -18111   -18106   -18121   -18135   -18133   -18123   -18122   -18123 
  -18121   -18115   -18115   -18114   -18112   -18131   -18152   -18138 
  -18110   -18096   -18104   -18127   -18144   -18133   -18108   -18106 
  -18118   -18129   -18137   -18125   -18104   -18117   -18137   -18130 
  -18117   -18112   -18117   -18135   -18146   -18119   -18083   -18090 
  -18135   -18165   -18142   -18104   -18098   -18111   -18126   -18148 
  -18142   -18100   -18079   -18118   -18164   -18149   -18098   -18081 
  -18115   -18148   -18148   -18125   -18102   -18106   -18134   -18157 
  -18131   -18071   -18054   -18110   -18183   -18211   -18142   -18029 
  -18034   -18164   -18234   -18156   -18060   -18064   -18104   -18130 
  -18180   -18187   -18099   -18026   -18068   -18188   -18219   -18095 
  -18018   -18121   -18218   -18181   -18115   -18057   -18029   -18110 
  -18189   -18193   -18175   -18091   -18025   -18094   -18164   -18139 
  -18111   -18114   -18121   -18156   -18166   -18103   -18064   -18080 
  -18112   -18175   -18193   -18123   -18077   -18102   -18127   -18135 
  -18133   -18110   -18094   -18112   -18138   -18158   -18164   -18127 
  -18072   -18067   -18115   -18156   -18158   -18146   -18130   -18098 
  -18085   -18118   -18134   -18121   -18129   -18142   -18121   -18104 
  -18127   -18142   -18127   -18115   -18108   -18094   -18106   -18160 
  -18183   -18131   -18083   -18098   -18125   -18114   -18099   -18119 
  -18142   -18142   -18152   -18161   -18125   -18060   -18044   -18108 
  -18177   -18177   -18148   -18134   -18114   -18081   -18076   -18117 
  -18149   -18138   -18129   -18142   -18135   -18104   -18106   -18126 
  -18122   -18115   -18112   -18117   -18142   -18158   -18135   -18099 
  -18096   -18118   -18118   -18110   -18131   -18145   -18127   -18130 
  -18144   -18112   -18071   -18075   -18123   -18179   -18187   -18141 
  -18095   -18077   -18084   -18111   -18141   -18158   -18164   -18142 
  -18104   -18087   -18098   -18114   -18119   -18119   -18130   -18146 
  -18149   -18133   -18118   -18119   -18121   -18098   -18075   -18099 
  -18153   -18183   -18172   -18135   -18092   -18061   -18058   -18095 
  -18158   -18198   -18175   -18118   -18087   -18096   -18106   -18107 
  -18117   -18121   -18118   -18137   -18172   -18162   -18099   -18067 
  -18096   -18121   -18125   -18144   -18154   -18125   -18087   -18095 
  -18135   -18144   -18123   -18126   -18122   -18088   -18102   -18162 
  -18166   -18103   -18077   -18114   -18137   -18134   -18134   -18125 
  -18108   -18111   -18129   -18126   -18106   -18107   -18129   -18131 
  -18123   -18139   -18146   -18103   -18076   -18110   -18138   -18135 
  -18138   -18129   -18110   -18121   -18141   -18125   -18087   -18080 
  -18118   -18150   -18154   -18156   -18141   -18081   -18052   -18126 
  -18196   -18139   -18049   -18056   -18131   -18191   -18204   -18165 
  -18077   -18014   -18045   -18130   -18179   -18180   -18176   -18130 
  -18053   -18052   -18129   -18171   -18146   -18104   -18091   -18117 
  -18149   -18156   -18133   -18100   -18094   -18106   -18111   -18123 
  -18148   -18144   -18123   -18126   -18130   -18114   -18083   -18080 
  -18126   -18164   -18162   -18156   -18134   -18090   -18067   -18077 
  -18108   -18154   -18183   -18161   -18115   -18095   -18103   -18115 
  -18111   -18110   -18125   -18133   -18135   -18150   -18137   -18096 
  -18083   -18104   -18131   -18139   -18126   -18114   -18117   -18133 
  -18145   -18142   -18115   -18076   -18085   -18121   -18123   -18134 
  -18165   -18157   -18122   -18098   -18085   -18085   -18108   -18145 
  -18157   -18141   -18127   -18118   -18104   -18099   -18118   -18142 
  -18141   -18125   -18123   -18118   -18098   -18094   -18130   -18162 
  -18146   -18112   -18096   -18103   -18127   -18145   -18133   -18118 
  -18118   -18114   -18102   -18108   -18135   -18157   -18149   -18118 
  -18102   -18106   -18104   -18110   -18139   -18148   -18122   -18115 
  -18122   -18111   -18102   -18118   -18137   -18142   -18129   -18114 
  -18121   -18130   -18117   -18099   -18114   -18137   -18127   -18108 
  -18121   -18142   -18134   -18114   -18111   -18121   -18118   -18106 
  -18106   -18125   -18148   -18144   -18126   -18114   -18106   -18112 
  -18131   -18133   -18119   -18117   -18117   -18112   -18122   -18135 
  -18125   -18117   -18123   -18122   -18117   -18121   -18129   -18129 
  -18118   -18106   -18108   -18131   -18146   -18134   -18117   -18106 
  -18102   -18118   -18142   -18146   -18126   -18104   -18103   -18123 
  -18130   -18118   -18117   -18134   -18139   -18119   -18102   -18111 
  -18134   -18142   -18127   -18110   -18104   -18106   -18121   -18142 
  -18146   -18129   -18106   -18100   -18111   -18119   -18125   -18134 
  -18134   -18122   -18110   -18106   -18115   -18129   -18139   -18146 
  -18135   -18100   -18079   -18103   -18142   -18149   -18127   -18118 
  -18121   -18117   -18115   -18127   -18130   -18117   -18117   -18126 
  -18123   -18118   -18118   -18121   -18126   -18123   -18118   -18119 
  -18126   -18134   -18131   -18112   -18111   -18127   -18123   -18112 
  -18126   -18145   -18145   -18127   -18114   -18111   -18103   -18100 
  -18122   -18152   -18154   -18126   -18096   -18090   -18095   -18103 
  -18130   -18171   -18176   -18126   -18075   -18073   -18112   -18148 
  -18160   -18154   -18135   -18104   -18084   -18095   -18125   -18146 
  -18145   -18119   -18096   -18096   -18108   -18122   -18133   -18138 
  -18137   -18126   -18118   -18123   -18130   -18115   -18107   -18133 
  -18166   -18164   -18118   -18064   -18052   -18098   -18171   -18207 
  -18156   -18067   -18042   -18087   -18127   -18145   -18160   -18168 
  -18142   -18095   -18079   -18114   -18154   -18154   -18126   -18108 
  -18112   -18129   -18130   -18110   -18098   -18118   -18145   -18139 
  -18111   -18100   -18117   -18122   -18102   -18102   -18146   -18184 
  -18165   -18110   -18075   -18085   -18125   -18152   -18153   -18134 
  -18111   -18100   -18100   -18114   -18134   -18138   -18129   -18114 
  -18098   -18106   -18134   -18154   -18149   -18127   -18108   -18107 
  -18122   -18134   -18130   -18117   -18111   -18117   -18130   -18138 
  -18137   -18119   -18099   -18098   -18110   -18118   -18135   -18161 
  -18158   -18121   -18081   -18087   -18127   -18148   -18125   -18108 
  -18137   -18161   -18133   -18088   -18087   -18125   -18139   -18119 
  -18108   -18129   -18145   -18127   -18100   -18108   -18135   -18137 
  -18108   -18091   -18111   -18152   -18172   -18144   -18099   -18079 
  -18090   -18117   -18138   -18146   -18142   -18131   -18122   -18110 
  -18095   -18094   -18112   -18137   -18154   -18153   -18127   -18100 
  -18098   -18100   -18106   -18135   -18166   -18158   -18112   -18073 
  -18083   -18127   -18160   -18158   -18135   -18104   -18080   -18081 
  -18118   -18160   -18168   -18130   -18080   -18065   -18106   -18172 
  -18199   -18145   -18063   -18044   -18096   -18165   -18192   -18157 
  -18107   -18092   -18100   -18107   -18126   -18146   -18129   -18092 
  -18098   -18141   -18160   -18135   -18104   -18094   -18091   -18092 
  -18117   -18168   -18195   -18157   -18091   -18063   -18085   -18131 
  -18162   -18161   -18144   -18114   -18077   -18068   -18104   -18154 
  -18165   -18135   -18112   -18111   -18118   -18123   -18117   -18111 
  -18129   -18142   -18122   -18100   -18119   -18152   -18149   -18102 
  -18075   -18104   -18144   -18158   -18153   -18118   -18081   -18088 
  -18111   -18123   -18149   -18173   -18141   -18091   -18088   -18117 
  -18138   -18134   -18115   -18110   -18126   -18138   -18133   -18119 
  -18110   -18106   -18118   -18142   -18144   -18115   -18092   -18096 
  -18126   -18150   -18139   -18117   -18114   -18122   -18119   -18122 
  -18133   -18135   -18123   -18104   -18098   -18121   -18148   -18145 
  -18117   -18100   -18112   -18134   -18139   -18122   -18102   -18107 
  -18129   -18135   -18125   -18123   -18129   -18129   -18119   -18108 
  -18114   -18126   -18126   -18118   -18127   -18135   -18123   -18107 
  -18107   -18118   -18134   -18137   -18127   -18119   -18112   -18106 
  -18115   -18139   -18152   -18131   -18100   -18092   -18118   -18149 
  -18141   -18111   -18104   -18111   -18121   -18138   -18144   -18126 
  -18112   -18117   -18117   -18104   -18115   -18137   -18134   -18126 
  -18126   -18122   -18115   -18106   -18108   -18134   -18144   -18121 
  -18114   -18122   -18115   -18110   -18125   -18134   -18130   -18126 
  -18119   -18106   -18107   -18133   -18148   -18125   -18098   -18103 
  -18125   -18137   -18135   -18126   -18117   -18123   -18131   -18119 
  -18103   -18111   -18125   -18125   -18130   -18138   -18131   -18119 
  -18106   -18096   -18112   -18137   -18134   -18127   -18131   -18122 
  -18106   -18111   -18131   -18139   -18125   -18102   -18092   -18117 
  -18150   -18157   -18153   -18130   -18076   -18058   -18102   -18142 
  -18161   -18166   -18141   -18098   -18080   -18102   -18139   -18157 
  -18129   -18081   -18095   -18157   -18172   -18126   -18079   -18063 
  -18099   -18175   -18195   -18134   -18087   -18094   -18106   -18119 
  -18146   -18150   -18118   -18094   -18106   -18139   -18156   -18126 
  -18090   -18104   -18141   -18133   -18104   -18111   -18130   -18127 
  -18123   -18133   -18129   -18108   -18102   -18117   -18141   -18150 
  -18119   -18095   -18118   -18142   -18129   -18103   -18098   -18112 
  -18119   -18125   -18157   -18172   -18125   -18067   -18067   -18118 
  -18148   -18130   -18117   -18130   -18149   -18142   -18103   -18084 
  -18110   -18131   -18130   -18134   -18139   -18119   -18092   -18088 
  -18126   -18179   -18180   -18106   -18038   -18067   -18144   -18175 
  -18164   -18144   -18095   -18050   -18079   -18154   -18189   -18161 
  -18112   -18076   -18073   -18104   -18141   -18160   -18158   -18127 
  -18080   -18080   -18126   -18154   -18144   -18125   -18123   -18125 
  -18112   -18098   -18106   -18142   -18158   -18125   -18098   -18112 
  -18127   -18119   -18126   -18146   -18142   -18106   -18075   -18091 
  -18148   -18179   -18157   -18112   -18079   -18071   -18102   -18149 
  -18168   -18156   -18129   -18096   -18079   -18095   -18133   -18157 
  -18145   -18107   -18092   -18117   -18133   -18126   -18127   -18142 
  -18135   -18096   -18071   -18099   -18156   -18175   -18153   -18131 
  -18111   -18081   -18068   -18087   -18135   -18179   -18172   -18141 
  -18121   -18096   -18079   -18102   -18138   -18134   -18108   -18103 
  -18118   -18150   -18171   -18148   -18106   -18085   -18084   -18088 
  -18112   -18152   -18169   -18150   -18119   -18118   -18125   -18099 
  -18069   -18075   -18127   -18177   -18177   -18142   -18114   -18103 
  -18099   -18099   -18102   -18111   -18139   -18164   -18148   -18112 
  -18104   -18126   -18131   -18103   -18102   -18138   -18152   -18133 
  -18108   -18098   -18117   -18137   -18125   -18112   -18127   -18127 
  -18110   -18122   -18148   -18138   -18114   -18099   -18103   -18117 
  -18115   -18125   -18166   -18166   -18108   -18079   -18098   -18115 
  -18114   -18111   -18133   -18172   -18177   -18133   -18073   -18058 
  -18110   -18164   -18137   -18084   -18103   -18160   -18172   -18144 
  -18121   -18095   -18060   -18068   -18145   -18199   -18164   -18100 
  -18087   -18111   -18126   -18119   -18126   -18137   -18104   -18077 
  -18142   -18225   -18175   -18037   -18009   -18112   -18188   -18160 
  -18125   -18141   -18138   -18088   -18063   -18095   -18150   -18169 
  -18139   -18125   -18150   -18142   -18067   -18027   -18103   -18196 
  -18176   -18111   -18117   -18134   -18112   -18110   -18114   -18090 
  -18087   -18135   -18180   -18168   -18129   -18114   -18114   -18081 
  -18048   -18088   -18165   -18183   -18160   -18139   -18118   -18108 
  -18112   -18099   -18081   -18094   -18150   -18238   -18285   -18262 
  -18256   -18295   -18314   -18341   -18493   -18724   -18731   -18273 
  -17505   -16830   -16568   -16735   -17065   -17363   -17837   -18720 
  -19732   -20241   -19855   -18721   -17433   -16688   -16733   -17184 
  -17666   -18207   -18806   -19184   -19110   -18756   -18492   -18389 
  -18265   -17965   -17509   -17140   -17157   -17591   -18121   -18439 
  -18527   -18455   -18384   -18438   -18355   -17972   -17726   -17948 
  -18407   -18708   -18547   -17941   -17454   -17564   -18045   -18531 
  -18851   -18720   -18152   -17699   -17631   -17695   -17844   -18072 
  -18130   -18115   -18168   -17984   -17713   -17879   -18180   -18115 
  -18058   -18353   -18558   -18346   -18040   -18061   -18465   -18914 
  -18927   -18392   -17793   -17583   -17680   -17767   -17720   -17714 
  -17922   -18227   -18366   -18274   -18127   -17932   -17801   -18171 
  -18685   -18459   -17825   -17729   -18088   -18203   -17984   -17992 
  -18399   -18705   -18554   -18164   -17971   -18218   -18744   -18935 
  -18395   -17726   -17693   -17929   -17633   -17167   -17392   -17990 
  -18245   -18341   -18481   -18342   -18022   -18048   -18392   -18508 
  -18324   -18341   -18571   -18364   -17604   -17108   -17332   -17743 
  -17988   -18301   -18422   -17977   -17664   -18095   -18679   -18879 
  -18890   -18751   -18225   -17698   -17759   -18060   -18069   -18060 
  -18284   -18403   -18102   -17599   -17456   -17776   -18091   -18257 
  -18484   -18593   -18326   -17992   -18041   -18300   -18337   -18238 
  -18231   -18129   -17794   -17500   -17639   -18256   -18829   -18794 
  -18215   -17645   -17473   -17506   -17439   -17500   -18013   -18650 
  -18883   -18713   -18540   -18604   -18638   -18297   -17786   -17574 
  -17763   -17995   -17956   -17855   -18034   -18414   -18663   -18515 
  -18061   -17760   -17824   -18054   -18260   -18373   -18447   -18451 
  -18192   -17783   -17621   -17788   -18022   -18118   -18148   -18301 
  -18403   -18202   -18023   -18198   -18339   -18057   -17701   -17784 
  -18227   -18554   -18480   -18180   -17975   -17905   -17837   -17760 
  -17921   -18408   -18644   -18207   -17690   -17787   -18304   -18666 
  -18677   -18457   -18071   -17604   -17401   -17728   -18304   -18578 
  -18504   -18397   -18177   -17713   -17431   -17799   -18605   -18982 
  -18424   -17602   -17486   -17999   -18285   -18091   -17934   -18037 
  -18017   -17755   -17782   -18339   -18874   -18852   -18484   -18303 
  -18277   -18029   -17745   -17830   -18052   -18025   -17945   -18096 
  -18226   -18029   -17747   -17848   -18337   -18729   -18689   -18296 
  -17821   -17532   -17631   -18037   -18315   -18296   -18274   -18279 
  -18108   -17869   -17923   -18334   -18530   -18193   -17932   -18158 
  -18370   -18187   -18027   -18160   -18193   -18021   -18038   -18198 
  -18144   -18015   -18014   -18091   -18200   -18171   -18048   -18216 
  -18550   -18490   -18135   -18040   -18112   -17907   -17625   -17689 
  -17949   -18125   -18206   -18152   -17961   -17896   -18115   -18438 
  -18497   -18142   -17749   -17697   -17967   -18423   -18711   -18465 
  -17955   -17698   -17709   -17720   -17829   -18280   -18732   -18704 
  -18370   -18133   -18123   -18324   -18509   -18409   -18064   -17689 
  -17531   -17687   -17771   -17614   -17865   -18748   -19338   -18995 
  -18199   -17666   -17591   -17730   -17933   -18237   -18403   -18238 
  -18038   -18115   -18389   -18459   -18117   -17701   -17475   -17388 
  -17595   -18199   -18754   -18827   -18557   -18280   -18108   -18009 
  -18010   -18230   -18362   -17934   -17475   -17787   -18503   -18769 
  -18353   -17806   -17797   -18118   -18189   -18033   -17845   -17713 
  -17802   -18129   -18436   -18391   -18075   -18042   -18320   -18349 
  -18158   -18227   -18434   -18308   -17890   -17662   -17894   -18270 
  -18307   -18073   -17936   -17956   -18100   -18370   -18547   -18374 
  -18018   -17913   -18179   -18517   -18590   -18366   -17972   -17581 
  -17587   -18003   -18289   -18274   -18117   -17880   -17836   -18080 
  -18314   -18411   -18326   -17925   -17575   -17867   -18480   -18473 
  -17751   -17244   -17568   -18188   -18447   -18554   -18644   -18374 
  -18003   -18212   -18704   -18480   -17651   -17435   -18149   -18728 
  -18446   -17940   -17929   -18107   -18077   -18029   -18083   -18106 
  -18091   -18188   -18441   -18634   -18445   -17905   -17547   -17685 
  -18018   -18242   -18338   -18324   -18090   -17721   -17782   -18296 
  -18418   -17967   -17656   -17743   -17964   -18293   -18651   -18636 
  -18281   -18050   -18045   -18148   -18199   -18092   -18065   -18063 
  -17847   -17865   -18360   -18769   -18774   -18497   -18080   -17666 
  -17363   -17365   -17801   -18233   -18258   -18161   -18121   -18088 
  -18185   -18312   -18408   -18634   -18679   -18208   -17621   -17347 
  -17486   -18031   -18527   -18500   -18222   -18085   -18038   -17982 
  -17911   -17883   -18149   -18632   -18738   -18354   -17957   -17888 
  -18207   -18565   -18531   -18257   -18079   -17890   -17560   -17440 
  -17820   -18262   -18324   -18285   -18389   -18384   -18184   -18077 
  -18203   -18218   -17895   -17817   -18301   -18496   -17918   -17397 
  -17651   -18283   -18571   -18495   -18281   -17772   -17242   -17469 
  -18380   -19053   -18967   -18403   -17960   -17825   -17730   -17691 
  -17811   -17968   -18328   -18839   -18786   -18075   -17581   -17706 
  -18081   -18389   -18376   -18033   -17829   -17967   -18231   -18431 
  -18422   -18148   -17838   -17879   -18200   -18424   -18404   -18090 
  -17794   -18014   -18389   -18227   -17890   -17964   -18029   -17948 
  -18220   -18489   -18171   -17702   -17841   -18439   -18659   -18351 
  -18029   -17798   -17641   -17988   -18748   -18798   -17884   -17415 
  -18184   -19012   -18627   -17550   -16995   -17266   -17879   -18362 
  -18810   -18954   -18064   -17118   -17689   -18904   -18983   -18041 
  -17572   -18157   -18604   -18180   -17938   -18273   -18211   -17724 
