Origin Time       2024/03/16 06:34:00
Lat.              32.907
Long.             131.047
Depth. (km)       7
Mag.              3.3
Station Code      KMMH16
Station Lat.      32.7967
Station Long.     130.8199
Station Height(m) -197
Record Time       2024/03/16 06:34:37
Sampling Freq(Hz) 100Hz
Duration Time(s)  120
Dir.              3
Scale Factor      2942(gal)/8224139
Max. Acc. (gal)   0.294
Last Correction   2024/03/16 06:34:37
Memo.             
[...]
  202540   202544   202544   202541   202543   202544   202545   202547 
  202544   202541   202543   202544   202543   202540   202543   202547 
  202545   202543   202543   202545   202545   202543   202544   202545 
  202543   202543   202547   202545   202544   202547   202545   202544 
  202545   202544   202541   202541   202543   202543   202541   202544 
  202547   202545   202544   202544   202544   202545   202545   202545 
  202544   202544   202545   202547   202544   202544   202544   202544 
  202544   202544   202543   202543   202543   202543   202543   202541 
  202540   202541   202547   202544   202540   202544   202547   202544 
  202541   202541   202544   202544   202541   202541   202541   202543 
  202543   202541   202544   202545   202543   202541   202544   202543 
  202540   202543   202543   202541   202543   202544   202541   202541 
  202543   202545   202544   202543   202543   202541   202541   202544 
  202545   202543   202541   202541   202544   202544   202543   202543 
  202544   202545   202544   202544   202544   202543   202541   202544 
  202545   202543   202544   202545   202545   202544   202543   202541 
  202543   202544   202543   202545   202545   202544   202543   202544 
  202544   202544   202545   202544   202540   202543   202545   202543 
  202541   202543   202541   202543   202544   202544   202547   202544 
  202540   202540   202541   202543   202541   202540   202543   202545 
  202541   202540   202543   202545   202545   202545   202543   202541 
  202544   202544   202543   202541   202543   202543   202541   202543 
  202544   202543   202543   202545   202544   202541   202543   202543 
  202543   202544   202544   202545   202545   202543   202540   202541 
  202543   202541   202543   202545   202544   202543   202543   202543 
  202543   202540   202541   202544   202544   202541   202539   202539 
  202543   202545   202545   202544   202544   202544   202544   202543 
  202543   202544   202544   202543   202543   202543   202544   202543 
  202541   202541   202540   202544   202544   202541   202541   202540 
  202540   202545   202544   202541   202541   202541   202539   202540 
  202543   202544   202541   202541   202543   202543   202543   202545 
  202547   202545   202543   202540   202541   202545   202541   202540 
  202543   202543   202544   202544   202540   202540   202541   202541 
  202540   202541   202543   202543   202543   202545   202545   202543 
  202543   202543   202543   202540   202540   202543   202541   202540 
  202541   202543   202541   202541   202543   202545   202544   202541 
  202543   202544   202541   202541   202543   202541   202540   202541 
  202543   202544   202544   202544   202543   202543   202544   202543 
  202540   202541   202544   202544   202545   202547   202545   202543 
  202543   202543   202543   202543   202544   202544   202541   202543 
  202545   202544   202545   202545   202543   202541   202544   202544 
  202543   202543   202544   202543   202543   202544   202543   202543 
  202544   202544   202543   202544   202545   202544   202543   202544 
  202541   202541   202541   202540   202541   202545   202545   202543 
  202544   202545   202545   202543   202543   202544   202544   202543 
  202543   202543   202543   202541   202540   202540   202543   202544 
  202543   202539   202539   202544   202544   202541   202544   202541 
  202540   202544   202547   202547   202544   202541   202543   202545 
  202543   202541   202541   202541   202543   202544   202543   202543 
  202543   202541   202543   202544   202543   202541   202544   202544 
  202543   202541   202540   202540   202544   202545   202544   202545 
  202545   202544   202544   202545   202544   202541   202541   202544 
  202543   202544   202545   202543   202540   202541   202544   202544 
  202544   202544   202543   202541   202543   202545   202545   202543 
  202541   202543   202544   202540   202541   202545   202545   202543 
  202543   202544   202544   202544   202543   202541   202543   202544 
  202544   202544   202544   202543   202539   202541   202545   202544 
  202540   202539   202541   202543   202541   202543   202543   202544 
  202544   202544   202544   202544   202544   202543   202543   202545 
  202544   202543   202544   202543   202543   202544   202541   202541 
  202545   202544   202543   202544   202545   202544   202543   202544 
  202544   202541   202540   202541   202541   202541   202543   202544 
  202544   202543   202541   202544   202543   202541   202544   202544 
  202541   202541   202541   202540   202543   202543   202540   202541 
  202543   202541   202540   202544   202545   202544   202545   202545 
  202543   202543   202543   202540   202540   202544   202544   202543 
  202543   202543   202543   202543   202541   202543   202541   202541 
  202544   202544   202543   202543   202541   202543   202543   202543 
  202544   202544   202544   202543   202543   202545   202544   202539 
  202541   202545   202544   202544   202545   202541   202539   202540 
  202540   202541   202543   202543   202543   202544   202544   202541 
  202543   202545   202543   202543   202544   202543   202543   202544 
  202541   202540   202544   202545   202543   202541   202543   202544 
  202541   202543   202543   202540   202540   202541   202540   202541 
  202545   202544   202540   202540   202541   202541   202544   202544 
  202543   202541   202541   202543   202543   202544   202543   202540 
  202540   202543   202543   202541   202541   202544   202543   202541 
  202545   202544   202541   202541   202544   202544   202541   202543 
  202544   202543   202541   202543   202541   202541   202541   202540 
  202543   202545   202543   202541   202541   202543   202540   202540 
  202541   202543   202543   202541   202541   202544   202544   202543 
  202543   202544   202544   202541   202540   202543   202544   202543 
  202541   202540   202540   202541   202543   202544   202543   202543 
  202543   202541   202541   202543   202543   202543   202543   202543 
  202544   202545   202543   202543   202541   202540   202544   202545 
  202543   202544   202544   202540   202539   202543   202544   202543 
  202544   202543   202543   202544   202544   202544   202541   202541 
  202544   202544   202543   202541   202543   202544   202543   202541 
  202541   202541   202539   202541   202544   202543   202541   202544 
  202547   202544   202544   202544   202543   202541   202543   202547 
  202544   202539   202540   202544   202544   202543   202543   202544 
  202543   202543   202544   202543   202539   202541   202544   202543 
  202541   202544   202544   202543   202543   202544   202543   202543 
  202543   202541   202543   202545   202544   202543   202544   202543 
  202543   202544   202543   202541   202543   202543   202544   202544 
  202544   202544   202544   202544   202541   202541   202545   202544 
  202544   202543   202541   202543   202544   202545   202543   202540 
  202543   202543   202541   202541   202540   202540   202544   202545 
  202543   202543   202543   202541   202543   202545   202544   202541 
  202541   202543   202544   202543   202540   202540   202543   202543 
  202545   202545   202543   202541   202541   202543   202544   202543 
  202539   202543   202545   202541   202543   202543   202541   202541 
  202541   202541   202544   202544   202543   202544   202544   202544 
  202544   202543   202541   202543   202541   202540   202541   202541 
  202541   202544   202547   202544   202543   202543   202539   202541 
  202543   202541   202544   202541   202539   202543   202543   202541 
  202541   202541   202541   202541   202540   202541   202545   202544 
  202541   202543   202541   202541   202547   202545   202539   202544 
  202548   202543   202540   202543   202545   202544   202543   202545 
  202544   202543   202545   202545   202543   202545   202545   202540 
  202540   202543   202544   202543   202543   202543   202543   202544 
  202545   202543   202541   202543   202544   202544   202541   202543 
  202544   202541   202540   202541   202543   202543   202543   202543 
  202543   202541   202543   202545   202544   202543   202545   202545 
  202544   202545   202545   202544   202541   202543   202543   202541 
  202541   202544   202545   202547   202545   202545   202545   202543 
  202541   202543   202544   202545   202543   202543   202545   202545 
  202544   202544   202544   202544   202544   202544   202544   202544 
  202543   202543   202543   202543   202543   202540   202540   202543 
  202544   202543   202544   202543   202541   202541   202543   202544 
  202544   202543   202545   202544   202541   202544   202544   202540 
  202541   202544   202545   202541   202541   202544   202545   202544 
  202543   202544   202544   202543   202545   202545   202543   202543 
  202547   202547   202543   202543   202545   202543   202540   202544 
  202545   202544   202545   202544   202540   202543   202545   202544 
  202541   202541   202541   202543   202545   202545   202544   202545 
  202544   202544   202545   202544   202541   202543   202545   202545 
  202545   202544   202541   202541   202543   202544   202543   202541 
  202545   202547   202543   202541   202543   202543   202541   202541 
  202544   202545   202544   202544   202543   202541   202543   202544 
  202543   202544   202545   202541   202540   202544   202545   202544 
  202544   202544   202545   202544   202544   202545   202545   202541 
  202540   202541   202541   202543   202543   202541   202541   202543 
  202543   202543   202541   202543   202544   202544   202543   202543 
  202544   202543   202543   202544   202543   202547   202552   202556 
  202558   202560   202567   202581   202602   202624   202643   202656 
  202663   202662   202653   202644   202628   202614   202645   202703 
  202664   202471   202277   202221   202184   202043   201972   202128 
  202354   202444   202448   202616   203008   203218   202969   202668 
  202657   202705   202656   202632   202574   202402   202278   202293 
  202323   202313   202297   202319   202436   202536   202494   202463 
  202514   202506   202490   202574   202637   202605   202601   202701 
  202821   202821   202649   202451   202416   202533   202641   202649 
  202620   202655   202702   202670   202637   202632   202576   202522 
  202544   202568   202521   202427   202333   202262   202242   202274 
  202285   202265   202306   202429   202582   202737   202811   202780 
  202764   202803   202837   202844   202849   202868   202826   202667 
  202485   202398   202382   202331   202270   202294   202323   202292 
  202375   202564   202613   202581   202620   202610   202497   202448 
  202510   202522   202497   202587   202701   202705   202663   202624 
  202567   202524   202513   202512   202545   202595   202559   202479 
  202482   202527   202572   202653   202720   202713   202645   202554 
  202470   202404   202374   202346   202317   202382   202463   202466 
  202494   202598   202726   202813   202798   202672   202485   202304 
  202192   202207   202325   202477   202605   202651   202645   202637 
  202618   202630   202676   202649   202572   202558   202559   202454 
  202320   202304   202358   202410   202475   202539   202566   202567 
  202609   202721   202770   202674   202541   202524   202628   202702 
  202693   202651   202590   202568   202559   202466   202390   202385 
  202383   202463   202606   202648   202633   202689   202751   202701 
  202576   202490   202468   202482   202502   202509   202545   202643 
  202655   202518   202429   202413   202339   202308   202400   202512 
  202570   202590   202659   202756   202765   202706   202674   202664 
  202614   202485   202321   202200   202163   202250   202406   202490 
  202474   202478   202533   202536   202498   202517   202567   202612 
  202663   202702   202698   202639   202591   202629   202678   202672 
  202643   202595   202556   202552   202518   202494   202576   202637 
  202544   202431   202444   202525   202555   202559   202639   202726 
  202683   202566   202498   202451   202397   202390   202458   202548 
  202605   202655   202702   202643   202540   202545   202593   202637 
  202667   202578   202398   202251   202205   202242   202254   202285 
  202425   202606   202752   202811   202753   202686   202695   202695 
  202635   202595   202586   202513   202414   202382   202359   202335 
  202409   202520   202566   202597   202603   202552   202555   202625 
  202601   202460   202410   202536   202640   202608   202602   202694 
  202740   202748   202805   202794   202644   202518   202521   202549 
  202500   202451   202450   202444   202473   202548   202594   202585 
  202548   202551   202620   202668   202635   202585   202612   202675 
  202625   202494   202425   202394   202367   202423   202522   202535 
  202512   202579   202637   202555   202459   202493   202539   202489 
  202413   202362   202327   202300   202306   202375   202440   202456 
  202486   202520   202541   202633   202772   202825   202826   202884 
  202910   202811   202657   202510   202413   202374   202321   202248 
  202207   202230   202324   202428   202505   202583   202649   202671 
  202682   202741   202801   202765   202687   202653   202641   202562 
  202392   202219   202109   202036   201969   201977   202147   202366 
  202513   202657   202837   202981   203080   203170   203273   203364 
  203357   203166   202869   202635   202490   202342   202181   202090 
  202069   202061   202057   202084   202136   202220   202373   202547 
  202645   202649   202575   202464   202423   202493   202618   202713 
  202770   202849   202973   203084   203089   202952   202709   202441 
  202220   202117   202139   202193   202247   202327   202413   202498 
  202535   202435   202284   202216   202219   202269   202389   202500 
  202547   202563   202568   202645   202771   202776   202706   202707 
  202774   202841   202851   202806   202730   202599   202468   202429 
  202459   202494   202522   202594   202724   202794   202740   202641 
  202555   202473   202394   202371   202450   202540   202566   202590 
  202647   202705   202741   202732   202655   202527   202423   202351 
  202270   202205   202196   202189   202182   202258   202389   202500 
  202572   202587   202563   202540   202528   202529   202525   202509 
  202509   202520   202558   202603   202595   202535   202460   202427 
  202459   202495   202524   202589   202652   202680   202728   202815 
  202886   202910   202937   202980   203002   202965   202856   202734 
  202662   202595   202487   202359   202275   202244   202224   202246 
  202329   202412   202477   202554   202643   202703   202709   202682 
  202644   202599   202537   202432   202323   202252   202198   202167 
  202208   202290   202346   202431   202613   202761   202791   202805 
  202813   202732   202612   202566   202582   202585   202593   202647 
  202705   202732   202755   202783   202771   202709   202626   202525 
  202400   202296   202251   202212   202134   202074   202076   202135 
  202250   202371   202477   202598   202721   202778   202745   202682 
  202651   202641   202624   202586   202551   202564   202599   202594 
  202586   202643   202744   202821   202830   202791   202749   202709 
  202676   202671   202640   202535   202417   202328   202250   202203 
  202193   202204   202266   202373   202436   202443   202474   202524 
  202543   202562   202589   202582   202560   202567   202570   202537 
  202506   202475   202432   202412   202390   202379   202427   202464 
  202490   202556   202599   202595   202586   202543   202487   202497 
  202556   202603   202635   202664   202693   202714   202732   202763 
  202747   202635   202548   202544   202520   202455   202414   202432 
  202464   202455   202448   202451   202413   202394   202419   202443 
  202494   202574   202625   202653   202713   202775   202763   202738 
  202774   202798   202768   202722   202683   202620   202552   202521 
  202473   202387   202342   202371   202440   202495   202531   202554 
  202571   202605   202621   202602   202599   202612   202601   202582 
  202570   202564   202547   202491   202437   202439   202475   202505 
  202509   202522   202591   202648   202647   202657   202659   202628 
  202610   202575   202532   202535   202568   202587   202589   202597 
  202598   202562   202540   202535   202458   202366   202371   202413 
  202419   202429   202455   202455   202448   202473   202505   202497 
  202490   202560   202644   202657   202633   202621   202614   202610 
  202616   202616   202576   202500   202443   202429   202409   202367 
  202352   202382   202436   202482   202502   202527   202582   202637 
  202668   202689   202710   202698   202652   202624   202620   202603 
  202559   202517   202506   202481   202425   202397   202413   202432 
  202433   202444   202479   202521   202543   202548   202548   202540 
  202536   202555   202567   202566   202572   202576   202558   202545 
  202575   202608   202595   202586   202606   202601   202568   202566 
  202554   202504   202500   202539   202535   202520   202547   202549 
  202514   202518   202564   202572   202528   202500   202491   202441 
  202405   202432   202435   202416   202439   202478   202495   202478 
  202467   202500   202540   202579   202617   202621   202620   202637 
  202655   202655   202648   202653   202657   202649   202644   202626 
  202597   202575   202578   202593   202594   202594   202609   202609 
  202599   202598   202587   202566   202536   202498   202462   202450 
  202456   202455   202455   202470   202490   202517   202541   202562 
  202599   202629   202628   202626   202643   202645   202621   202594 
  202590   202599   202582   202532   202500   202497   202479   202427 
  202387   202409   202448   202455   202460   202482   202485   202479 
  202509   202531   202510   202513   202551   202554   202524   202518 
  202529   202509   202468   202466   202483   202468   202464   202500 
  202502   202473   202483   202514   202522   202528   202535   202541 
  202548   202560   202589   202609   202599   202576   202556   202547 
  202560   202587   202626   202662   202668   202679   202698   202684 
  202657   202656   202656   202637   202621   202614   202595   202555 
  202535   202545   202554   202558   202571   202575   202556   202541 
  202556   202571   202567   202586   202629   202639   202613   202590 
  202544   202483   202467   202462   202435   202433   202477   202501 
  202475   202452   202473   202505   202528   202552   202571   202574 
  202567   202564   202578   202601   202602   202578   202560   202552 
  202518   202481   202474   202474   202459   202451   202452   202437 
  202432   202458   202467   202452   202464   202501   202521   202535 
  202559   202563   202529   202500   202509   202537   202543   202544 
  202566   202570   202549   202535   202518   202495   202473   202473 
  202504   202532   202535   202529   202522   202518   202512   202516 
  202551   202571   202552   202567   202614   202617   202586   202568 
  202562   202537   202524   202552   202581   202581   202608   202659 
