Origin Time       2024/03/16 06:34:00
Lat.              32.907
Long.             131.047
Depth. (km)       7
Mag.              3.3
Station Code      KMMH18
Station Lat.      33.0031
Station Long.     131.0071
Station Height(m) 854.038
Record Time       2024/03/16 06:34:35
Sampling Freq(Hz) 100Hz
Duration Time(s)  120
Dir.              1
Scale Factor      3923(gal)/8224838
Max. Acc. (gal)   3.015
Last Correction   2024/03/16 06:34:35
Memo.             
[...]
   -9547    -9548    -9547    -9544    -9544    -9545    -9545    -9544 
   -9547    -9547    -9545    -9547    -9545    -9547    -9547    -9544 
   -9545    -9548    -9545    -9544    -9547    -9548    -9545    -9545 
   -9547    -9548    -9547    -9545    -9545    -9548    -9551    -9548 
   -9545    -9545    -9545    -9547    -9548    -9547    -9547    -9548 
   -9545    -9547    -9548    -9544    -9544    -9548    -9547    -9547 
   -9547    -9544    -9544    -9545    -9545    -9548    -9548    -9545 
   -9547    -9545    -9544    -9548    -9548    -9547    -9547    -9548 
   -9547    -9544    -9545    -9548    -9547    -9547    -9547    -9545 
   -9545    -9549    -9549    -9545    -9544    -9547    -9545    -9544 
   -9545    -9547    -9547    -9547    -9547    -9548    -9551    -9548 
   -9547    -9547    -9545    -9547    -9548    -9547    -9547    -9548 
   -9547    -9547    -9545    -9544    -9547    -9547    -9544    -9545 
   -9547    -9547    -9548    -9545    -9544    -9547    -9545    -9547 
   -9548    -9548    -9547    -9547    -9547    -9545    -9545    -9548 
   -9549    -9549    -9548    -9547    -9547    -9548    -9547    -9547 
   -9547    -9545    -9545    -9547    -9547    -9547    -9547    -9545 
   -9545    -9544    -9544    -9547    -9548    -9549    -9547    -9545 
   -9548    -9547    -9545    -9548    -9548    -9544    -9545    -9547 
   -9547    -9548    -9549    -9548    -9547    -9547    -9547    -9548 
   -9549    -9548    -9547    -9548    -9548    -9547    -9548    -9547 
   -9545    -9547    -9548    -9548    -9547    -9547    -9547    -9547 
   -9547    -9548    -9547    -9547    -9548    -9545    -9543    -9545 
   -9548    -9545    -9544    -9547    -9547    -9545    -9545    -9548 
   -9549    -9547    -9547    -9547    -9544    -9547    -9549    -9548 
   -9548    -9545    -9545    -9548    -9545    -9545    -9548    -9547 
   -9547    -9548    -9549    -9548    -9545    -9545    -9548    -9548 
   -9548    -9548    -9547    -9544    -9544    -9545    -9547    -9547 
   -9547    -9545    -9547    -9549    -9549    -9548    -9549    -9548 
   -9547    -9547    -9545    -9545    -9548    -9548    -9544    -9545 
   -9547    -9547    -9548    -9548    -9545    -9544    -9547    -9547 
   -9547    -9548    -9548    -9548    -9548    -9548    -9548    -9547 
   -9548    -9549    -9547    -9547    -9548    -9545    -9545    -9545 
   -9545    -9547    -9549    -9547    -9544    -9547    -9547    -9545 
   -9544    -9545    -9547    -9545    -9545    -9548    -9548    -9548 
   -9548    -9545    -9545    -9548    -9549    -9547    -9545    -9547 
   -9548    -9545    -9545    -9548    -9545    -9544    -9545    -9547 
   -9545    -9544    -9544    -9547    -9545    -9545    -9547    -9547 
   -9547    -9548    -9548    -9547    -9548    -9548    -9547    -9545 
   -9547    -9548    -9548    -9545    -9543    -9547    -9548    -9545 
   -9544    -9545    -9544    -9544    -9547    -9545    -9545    -9545 
   -9545    -9548    -9548    -9547    -9549    -9548    -9545    -9547 
   -9547    -9548    -9549    -9548    -9545    -9547    -9549    -9548 
   -9544    -9544    -9547    -9547    -9547    -9545    -9545    -9548 
   -9545    -9544    -9547    -9548    -9548    -9549    -9548    -9545 
   -9547    -9547    -9545    -9545    -9545    -9544    -9548    -9549 
   -9548    -9548    -9548    -9545    -9545    -9548    -9549    -9548 
   -9547    -9545    -9545    -9547    -9545    -9543    -9544    -9548 
   -9549    -9548    -9545    -9547    -9548    -9548    -9548    -9548 
   -9548    -9549    -9549    -9547    -9544    -9545    -9547    -9545 
   -9547    -9548    -9545    -9545    -9547    -9547    -9545    -9547 
   -9545    -9545    -9545    -9547    -9549    -9548    -9547    -9547 
   -9547    -9548    -9548    -9548    -9549    -9549    -9548    -9548 
   -9545    -9544    -9548    -9545    -9543    -9547    -9547    -9544 
   -9547    -9548    -9547    -9548    -9549    -9549    -9548    -9547 
   -9545    -9544    -9547    -9548    -9548    -9548    -9547    -9547 
   -9548    -9547    -9545    -9545    -9549    -9549    -9547    -9547 
   -9548    -9548    -9547    -9547    -9547    -9547    -9547    -9547 
   -9548    -9549    -9547    -9545    -9547    -9548    -9547    -9547 
   -9547    -9545    -9545    -9547    -9548    -9548    -9547    -9545 
   -9545    -9547    -9548    -9548    -9548    -9545    -9545    -9545 
   -9545    -9548    -9549    -9547    -9545    -9548    -9548    -9544 
   -9543    -9547    -9548    -9547    -9545    -9548    -9547    -9545 
   -9548    -9548    -9547    -9547    -9547    -9547    -9547    -9544 
   -9543    -9545    -9547    -9548    -9547    -9545    -9548    -9548 
   -9544    -9545    -9548    -9545    -9543    -9547    -9548    -9545 
   -9544    -9547    -9547    -9545    -9545    -9547    -9548    -9547 
   -9545    -9545    -9544    -9545    -9547    -9545    -9544    -9547 
   -9548    -9545    -9547    -9548    -9545    -9547    -9548    -9547 
   -9547    -9548    -9549    -9548    -9544    -9547    -9547    -9545 
   -9547    -9544    -9544    -9547    -9547    -9545    -9545    -9545 
   -9545    -9547    -9547    -9547    -9547    -9548    -9549    -9547 
   -9545    -9548    -9551    -9549    -9548    -9545    -9545    -9547 
   -9547    -9545    -9547    -9547    -9544    -9544    -9547    -9548 
   -9547    -9548    -9548    -9548    -9548    -9547    -9545    -9548 
   -9548    -9544    -9544    -9548    -9548    -9545    -9545    -9545 
   -9547    -9549    -9548    -9544    -9545    -9547    -9544    -9547 
   -9547    -9545    -9545    -9548    -9547    -9548    -9548    -9545 
   -9547    -9548    -9544    -9544    -9547    -9547    -9545    -9544 
   -9544    -9545    -9547    -9545    -9547    -9547    -9547    -9547 
   -9548    -9547    -9549    -9549    -9545    -9544    -9545    -9547 
   -9547    -9547    -9547    -9547    -9547    -9547    -9545    -9545 
   -9547    -9547    -9545    -9547    -9548    -9548    -9548    -9549 
   -9547    -9544    -9547    -9549    -9548    -9547    -9548    -9549 
   -9548    -9548    -9548    -9549    -9547    -9544    -9547    -9547 
   -9545    -9548    -9547    -9547    -9549    -9547    -9544    -9547 
   -9547    -9545    -9547    -9548    -9545    -9545    -9547    -9545 
   -9545    -9547    -9548    -9548    -9547    -9547    -9548    -9545 
   -9547    -9547    -9547    -9548    -9548    -9548    -9549    -9547 
   -9545    -9545    -9545    -9547    -9547    -9545    -9544    -9544 
   -9547    -9548    -9547    -9547    -9547    -9547    -9545    -9545 
   -9545    -9545    -9545    -9545    -9547    -9548    -9547    -9545 
   -9547    -9548    -9545    -9545    -9548    -9547    -9545    -9547 
   -9547    -9547    -9548    -9547    -9544    -9545    -9548    -9549 
   -9545    -9544    -9548    -9549    -9545    -9547    -9547    -9545 
   -9544    -9544    -9547    -9549    -9548    -9545    -9545    -9547 
   -9547    -9548    -9548    -9545    -9545    -9545    -9547    -9548 
   -9548    -9545    -9545    -9545    -9547    -9548    -9548    -9545 
   -9547    -9548    -9547    -9547    -9547    -9547    -9549    -9548 
   -9545    -9545    -9545    -9544    -9545    -9547    -9548    -9548 
   -9547    -9547    -9548    -9547    -9545    -9547    -9545    -9544 
   -9548    -9551    -9548    -9544    -9544    -9545    -9547    -9548 
   -9547    -9545    -9548    -9547    -9547    -9549    -9548    -9547 
   -9547    -9545    -9547    -9548    -9547    -9547    -9549    -9548 
   -9547    -9547    -9548    -9547    -9545    -9547    -9548    -9545 
   -9544    -9547    -9547    -9547    -9547    -9547    -9548    -9548 
   -9547    -9548    -9549    -9548    -9547    -9548    -9548    -9548 
   -9548    -9547    -9545    -9547    -9548    -9548    -9547    -9548 
   -9549    -9548    -9547    -9548    -9547    -9547    -9549    -9547 
   -9544    -9545    -9547    -9547    -9545    -9547    -9547    -9545 
   -9545    -9545    -9549    -9551    -9548    -9547    -9548    -9545 
   -9544    -9545    -9545    -9544    -9545    -9547    -9545    -9547 
   -9548    -9548    -9547    -9547    -9548    -9548    -9547    -9545 
   -9547    -9545    -9544    -9545    -9544    -9543    -9548    -9551 
   -9547    -9545    -9547    -9548    -9547    -9547    -9547    -9547 
   -9548    -9548    -9547    -9545    -9545    -9548    -9545    -9544 
   -9547    -9548    -9548    -9547    -9545    -9545    -9545    -9544 
   -9545    -9548    -9548    -9545    -9545    -9549    -9548    -9547 
   -9548    -9547    -9545    -9549    -9549    -9545    -9547    -9547 
   -9547    -9549    -9548    -9548    -9551    -9548    -9544    -9547 
   -9549    -9545    -9545    -9547    -9544    -9544    -9548    -9548 
   -9547    -9547    -9545    -9547    -9549    -9547    -9547    -9547 
   -9545    -9545    -9547    -9548    -9548    -9547    -9545    -9544 
   -9544    -9547    -9547    -9544    -9545    -9549    -9549    -9545 
   -9545    -9547    -9547    -9548    -9548    -9544    -9547    -9551 
   -9548    -9548    -9547    -9547    -9549    -9547    -9545    -9549 
   -9548    -9545    -9548    -9548    -9547    -9547    -9547    -9548 
   -9548    -9545    -9547    -9548    -9545    -9545    -9549    -9547 
   -9545    -9547    -9548    -9547    -9544    -9547    -9548    -9545 
   -9547    -9548    -9544    -9544    -9547    -9548    -9547    -9545 
   -9547    -9548    -9549    -9549    -9548    -9548    -9547    -9545 
   -9547    -9548    -9547    -9548    -9548    -9545    -9547    -9548 
   -9547    -9547    -9549    -9548    -9547    -9545    -9549    -9551 
   -9545    -9544    -9547    -9548    -9547    -9547    -9545    -9547 
   -9549    -9549    -9548    -9547    -9548    -9548    -9544    -9544 
   -9548    -9547    -9545    -9548    -9548    -9547    -9547    -9547 
   -9544    -9545    -9547    -9545    -9545    -9548    -9545    -9544 
   -9547    -9545    -9547    -9549    -9548    -9545    -9543    -9545 
   -9549    -9551    -9551    -9549    -9548    -9544    -9545    -9549 
   -9549    -9547    -9547    -9548    -9549    -9548    -9545    -9545 
   -9547    -9545    -9545    -9548    -9548    -9547    -9547    -9548 
   -9547    -9547    -9547    -9545    -9549    -9549    -9545    -9545 
   -9548    -9548    -9547    -9547    -9545    -9547    -9549    -9548 
   -9545    -9547    -9545    -9544    -9545    -9547    -9548    -9548 
   -9547    -9549    -9551    -9548    -9547    -9548    -9547    -9548 
   -9548    -9547    -9547    -9545    -9544    -9547    -9548    -9547 
   -9547    -9547    -9545    -9545    -9545    -9545    -9545    -9547 
   -9547    -9545    -9545    -9547    -9547    -9549    -9547    -9545 
   -9547    -9547    -9548    -9549    -9548    -9547    -9548    -9548 
   -9545    -9547    -9548    -9547    -9547    -9547    -9548    -9549 
   -9547    -9545    -9549    -9549    -9545    -9545    -9549    -9548 
   -9547    -9547    -9545    -9547    -9548    -9545    -9544    -9548 
   -9549    -9545    -9545    -9548    -9548    -9545    -9544    -9545 
   -9548    -9548    -9545    -9547    -9555    -9560    -9544    -9533 
   -9564    -9602    -9613    -9597    -9533    -9471    -9526    -9616 
   -9597    -9591    -9671    -9607    -9414    -9356    -9379    -9377 
   -9487    -9617    -9562    -9572    -9775    -9757    -9539    -9599 
   -9703    -9402    -9166    -9425    -9699    -9707    -9742    -9799 
   -9699    -9508    -9256    -9026    -9085    -9377    -9481    -9400 
   -9508    -9741    -9775    -9621    -9489    -9529    -9734    -9861 
   -9747    -9683    -9894    -9967    -9736    -9629    -9547    -9158 
   -8889    -9085    -9310    -9362    -9606    -9999   -10210   -10336 
  -10309    -9877    -9420    -9277    -9158    -8951    -8833    -8765 
   -8791    -9138    -9551    -9566    -9421    -9539    -9802    -9925 
   -9761    -9510    -9697   -10235   -10296    -9749    -9355    -9398 
   -9504    -9405    -9213    -9277    -9687   -10052   -10061    -9845 
   -9683    -9698    -9701    -9499    -9331    -9362    -9389    -9391 
   -9410    -9209    -8887    -8880    -9126    -9251    -9266    -9373 
   -9684   -10112   -10287   -10158   -10162   -10308   -10176    -9767 
   -9320    -8862    -8515    -8507    -8733    -9019    -9409    -9666 
   -9560    -9539    -9829    -9969    -9861    -9837    -9976   -10158 
  -10211   -10072    -9936    -9876    -9753    -9543    -9298    -9147 
   -9169    -9189    -9134    -9058    -9019    -9333    -9923   -10007 
   -9660    -9848   -10388   -10319    -9721    -9325    -9331    -9444 
   -9420    -9238    -9061    -9077    -9186    -9174    -9212    -9501 
   -9817    -9918    -9833    -9675    -9590    -9599    -9444    -8926 
   -8370    -8233    -8321    -8309    -8467    -8851    -9042    -9003 
   -9042    -9319    -9934   -10917   -11934   -12445   -12298   -11847 
  -11399   -11003   -10635   -10083    -9063    -7730    -6779    -6814 
   -7561    -8070    -7993    -7894    -8187    -8708    -9238    -9981 
  -11248   -12471   -12576   -11653   -10953   -11014   -11038   -10301 
   -9058    -7851    -6798    -6151    -6583    -7981    -9127    -9533 
   -9919   -10524   -10936   -11319   -12100   -12861   -12750   -11732 
  -10756   -10413   -10204    -9722    -9379    -9329    -8942    -7992 
   -7005    -6135    -5277    -4941    -5572    -6975    -8911   -10986 
  -12356   -12800   -13003   -13184   -13003   -12471   -11772   -11106 
  -10716   -10258    -8959    -6708    -4419    -3226    -3419    -4374 
   -5574    -7060    -8765   -10261   -11349   -12217   -12924   -13292 
  -13333   -13122   -12374   -11133   -10118    -9794    -9875    -9749 
   -9178    -8440    -7881    -7735    -8012    -8428    -8792    -9170 
   -9707   -10459   -11142   -11245   -10646    -9850    -9452    -9576 
   -9946   -10297   -10511   -10405    -9825    -9026    -8553    -8549 
   -8664    -8820    -9254    -9876   -10326   -10411   -10243   -10069 
  -10025   -10088   -10041    -9599    -8866    -8230    -7805    -7526 
   -7531    -7975    -8731    -9429    -9687    -9367    -8734    -8309 
   -8399    -8830    -9263    -9580    -9887   -10341   -10868   -11148 
  -11001   -10704   -10590   -10555   -10384   -10239   -10304   -10405 
  -10342   -10158   -10018    -9973    -9813    -9369    -8791    -8209 
   -7646    -7285    -7364    -7893    -8623    -9244    -9728   -10243 
  -10731   -10962   -10972   -11056   -11234   -11168   -10725   -10162 
   -9653    -9113    -8542    -8217    -8352    -8675    -8757    -8698 
   -8862    -9223    -9535    -9725    -9850    -9941    -9913    -9730 
   -9545    -9464    -9390    -9281    -9244    -9273    -9254    -9204 
   -9224    -9340    -9520    -9679    -9678    -9494    -9282    -9123 
   -8976    -8829    -8768    -8869    -9159    -9537    -9699    -9552 
   -9393    -9428    -9648   -10022   -10401   -10633   -10744   -10767 
  -10596   -10137    -9487    -8873    -8513    -8536    -8889    -9347 
   -9726   -10033   -10277   -10390   -10309    -9973    -9483    -9198 
   -9325    -9545    -9471    -9290    -9360    -9520    -9489    -9360 
   -9328    -9404    -9494    -9559    -9545    -9401    -9297    -9413 
   -9597    -9610    -9429    -9158    -9009    -9221    -9678   -10077 
  -10430   -10783   -10902   -10692   -10426   -10350   -10435   -10571 
  -10733   -10810   -10586   -10057    -9494    -9045    -8653    -8324 
   -8179    -8236    -8347    -8436    -8586    -8807    -8928    -8869 
   -8835    -9023    -9333    -9612    -9875   -10188   -10534   -10797 
  -10816   -10504    -9937    -9335    -8959    -8880    -8838    -8586 
   -8313    -8368    -8699    -9030    -9196    -9155    -9077    -9165 
   -9346    -9487    -9598    -9703    -9806    -9830    -9706    -9520 
   -9362    -9302    -9529   -10045   -10478   -10605   -10590   -10569 
  -10485   -10346   -10250   -10261   -10374   -10528   -10615   -10531 
  -10268    -9948    -9651    -9363    -9113    -8945    -8846    -8776 
   -8606    -8283    -7992    -7867    -7798    -7676    -7611    -7757 
   -8091    -8510    -8949    -9382    -9813   -10234   -10544   -10673 
  -10721   -10755   -10650   -10389   -10160    -9998    -9768    -9475 
   -9256    -9119    -8999    -9004    -9211    -9456    -9644    -9855 
  -10014    -9991    -9879    -9794    -9757    -9802    -9883    -9909 
   -9911    -9927    -9930    -9960   -10100   -10341   -10598   -10739 
  -10638   -10400   -10255   -10195   -10060    -9837    -9605    -9408 
   -9277    -9174    -9020    -8850    -8800    -8924    -9099    -9213 
   -9306    -9389    -9373    -9246    -9097    -9008    -9040    -9202 
   -9339    -9285    -9070    -8885    -8857    -8943    -9080    -9261 
   -9491    -9755    -9964   -10056   -10048    -9940    -9799    -9759 
   -9798    -9786    -9698    -9663    -9786    -9941    -9926    -9755 
   -9580    -9459    -9340    -9171    -8986    -8903    -8945    -9022 
   -9094    -9139    -9093    -9005    -8972    -8914    -8750    -8626 
   -8685    -8889    -9108    -9227    -9258    -9337    -9456    -9464 
   -9436    -9624    -9958   -10125   -10127   -10223   -10428   -10594 
  -10735   -10899   -10974   -10889   -10773   -10725   -10636   -10382 
  -10058    -9834    -9695    -9502    -9244    -9096    -9155    -9275 
   -9304    -9277    -9259    -9207    -9084    -8949    -8899    -8989 
   -9175    -9337    -9378    -9267    -9093    -9007    -9092    -9309 
   -9525    -9597    -9513    -9444    -9521    -9613    -9544    -9400 
   -9359    -9420    -9502    -9591    -9691    -9775    -9815    -9788 
   -9651    -9439    -9301    -9335    -9495    -9653    -9725    -9772 
   -9841    -9837    -9737    -9670    -9674    -9634    -9514    -9418 
   -9413    -9456    -9493    -9528    -9625    -9810   -10003   -10099 
  -10065    -9950    -9849    -9845    -9919    -9961    -9899    -9724 
   -9504    -9352    -9271    -9151    -9000    -8954    -9034    -9132 
   -9219    -9297    -9347    -9406    -9489    -9520    -9483    -9420 
   -9355    -9335    -9374    -9408    -9412    -9439    -9487    -9485 
   -9435    -9405    -9420    -9481    -9537    -9509    -9445    -9462 
   -9505    -9486    -9501    -9629    -9767    -9837    -9861    -9865 
   -9880    -9896    -9864    -9833    -9859    -9868    -9829    -9823 
   -9833    -9768    -9683    -9675    -9698    -9682    -9616    -9502 
   -9369    -9259    -9190    -9146    -9100    -9086    -9178    -9316 
   -9358    -9319    -9312    -9359    -9450    -9571    -9661    -9699 
   -9725    -9752    -9759    -9742    -9720    -9691    -9624    -9487 
   -9351    -9355    -9483    -9571    -9566    -9555    -9624    -9742 
   -9741    -9533    -9289    -9186    -9198    -9234    -9269    -9302 
   -9321    -9321    -9300    -9244    -9163    -9115    -9157    -9288 
   -9447    -9562    -9633    -9711    -9783    -9786    -9722    -9663 
   -9663    -9715    -9787    -9865    -9934    -9967    -9990   -10014 
   -9976    -9882    -9819    -9779    -9711    -9644    -9586    -9533 
   -9568    -9714    -9829    -9813    -9759    -9787    -9876    -9944 
   -9941    -9859    -9728    -9578    -9418    -9298    -9265    -9279 
   -9277    -9289    -9343    -9377    -9362    -9336    -9294    -9224 
   -9178    -9207    -9286    -9351    -9373    -9369    -9363    -9378 
