Origin Time       2024/03/16 06:34:00
Lat.              32.907
Long.             131.047
Depth. (km)       7
Mag.              3.3
Station Code      KMMH18
Station Lat.      33.0031
Station Long.     131.0071
Station Height(m) 854.038
Record Time       2024/03/16 06:34:35
Sampling Freq(Hz) 100Hz
Duration Time(s)  120
Dir.              2
Scale Factor      3923(gal)/8224838
Max. Acc. (gal)   2.061
Last Correction   2024/03/16 06:34:35
Memo.             
[...]
   24682    24680    24680    24682    24678    24679    24682    24679 
   24678    24680    24682    24679    24679    24682    24680    24676 
   24676    24679    24680    24680    24682    24682    24678    24676 
   24679    24678    24679    24679    24679    24680    24680    24676 
   24676    24679    24680    24680    24678    24679    24682    24679 
   24678    24679    24679    24679    24679    24679    24679    24678 
   24679    24679    24678    24680    24683    24680    24678    24678 
   24679    24678    24679    24682    24680    24678    24680    24682 
   24679    24679    24680    24679    24679    24680    24679    24682 
   24682    24678    24678    24682    24682    24679    24682    24680 
   24676    24676    24680    24682    24679    24679    24682    24680 
   24678    24678    24678    24678    24678    24679    24682    24682 
   24680    24680    24679    24678    24679    24679    24678    24678 
   24679    24680    24678    24678    24679    24679    24679    24680 
   24679    24678    24678    24678    24679    24679    24679    24679 
   24678    24680    24682    24676    24675    24679    24679    24678 
   24679    24680    24680    24680    24678    24678    24680    24682 
   24679    24679    24680    24678    24678    24680    24682    24680 
   24679    24680    24682    24678    24676    24680    24682    24682 
   24680    24679    24679    24678    24678    24680    24680    24680 
   24680    24680    24680    24679    24679    24680    24680    24679 
   24679    24678    24679    24680    24680    24679    24678    24679 
   24678    24676    24678    24678    24680    24680    24679    24676 
   24679    24680    24679    24679    24680    24680    24678    24679 
   24680    24679    24679    24679    24678    24679    24676    24678 
   24679    24678    24680    24683    24680    24678    24678    24678 
   24679    24680    24679    24678    24678    24679    24679    24680 
   24680    24679    24679    24678    24678    24680    24680    24678 
   24678    24679    24679    24678    24680    24680    24682    24680 
   24676    24678    24680    24678    24678    24679    24679    24679 
   24680    24679    24678    24678    24679    24680    24678    24676 
   24678    24678    24679    24682    24680    24679    24679    24679 
   24680    24682    24680    24678    24679    24680    24679    24678 
   24682    24682    24678    24678    24679    24679    24680    24682 
   24679    24678    24680    24682    24679    24680    24682    24680 
   24679    24680    24679    24679    24679    24676    24675    24678 
   24680    24679    24676    24679    24682    24679    24678    24679 
   24680    24680    24680    24679    24678    24678    24679    24679 
   24679    24680    24680    24679    24679    24679    24678    24678 
   24678    24676    24678    24680    24679    24676    24678    24680 
   24679    24679    24679    24679    24680    24679    24680    24682 
   24682    24682    24680    24679    24679    24679    24678    24678 
   24679    24680    24679    24679    24680    24679    24679    24679 
   24680    24680    24679    24678    24679    24680    24682    24680 
   24680    24680    24679    24680    24680    24678    24680    24680 
   24679    24680    24680    24679    24679    24679    24679    24679 
   24678    24679    24679    24680    24682    24680    24679    24682 
   24680    24679    24680    24679    24680    24679    24678    24680 
   24682    24679    24679    24680    24679    24679    24680    24682 
   24682    24682    24680    24679    24679    24682    24680    24678 
   24678    24679    24679    24680    24682    24679    24679    24679 
   24680    24682    24680    24679    24676    24679    24684    24683 
   24680    24679    24678    24679    24680    24679    24682    24682 
   24679    24678    24678    24676    24678    24680    24682    24679 
   24679    24682    24679    24679    24679    24676    24678    24680 
   24680    24679    24676    24675    24679    24682    24679    24678 
   24679    24679    24679    24679    24679    24678    24678    24679 
   24679    24678    24680    24680    24679    24679    24679    24680 
   24682    24680    24679    24679    24679    24678    24680    24680 
   24678    24678    24680    24679    24678    24679    24680    24679 
   24682    24679    24675    24678    24679    24679    24683    24682 
   24678    24680    24682    24680    24682    24679    24678    24679 
   24680    24679    24678    24679    24679    24680    24680    24678 
   24678    24682    24680    24678    24680    24680    24679    24678 
   24679    24679    24678    24676    24678    24679    24679    24680 
   24680    24679    24682    24680    24678    24679    24680    24680 
   24680    24680    24682    24680    24678    24679    24680    24680 
   24679    24678    24678    24679    24679    24680    24678    24678 
   24680    24680    24678    24678    24678    24679    24680    24683 
   24680    24679    24682    24680    24680    24680    24679    24679 
   24680    24682    24680    24679    24680    24682    24680    24679 
   24676    24679    24680    24676    24678    24680    24680    24682 
   24680    24679    24679    24680    24680    24680    24678    24679 
   24679    24678    24679    24679    24678    24680    24682    24679 
   24679    24678    24678    24679    24679    24679    24680    24678 
   24679    24680    24679    24682    24682    24678    24678    24679 
   24680    24682    24682    24678    24679    24683    24680    24678 
   24679    24680    24680    24679    24678    24678    24676    24678 
   24679    24680    24680    24679    24678    24679    24680    24682 
   24678    24678    24682    24680    24678    24678    24678    24679 
   24680    24679    24678    24679    24680    24680    24679    24679 
   24680    24680    24678    24678    24680    24678    24678    24679 
   24679    24679    24678    24678    24679    24678    24679    24680 
   24678    24679    24682    24680    24679    24679    24680    24680 
   24679    24678    24679    24678    24678    24679    24679    24680 
   24679    24678    24680    24680    24678    24678    24679    24679 
   24678    24680    24682    24678    24676    24679    24678    24676 
   24679    24679    24679    24683    24682    24678    24678    24679 
   24679    24678    24678    24678    24679    24682    24682    24678 
   24676    24679    24680    24678    24676    24679    24676    24676 
   24680    24678    24675    24678    24680    24679    24679    24680 
   24680    24678    24679    24682    24682    24679    24679    24680 
   24680    24678    24679    24680    24678    24680    24683    24680 
   24680    24679    24676    24679    24682    24680    24682    24680 
   24679    24679    24680    24679    24679    24679    24679    24678 
   24679    24679    24679    24679    24678    24676    24676    24678 
   24679    24679    24682    24682    24679    24679    24682    24676 
   24676    24680    24678    24676    24679    24678    24676    24678 
   24680    24680    24679    24679    24678    24679    24680    24679 
   24679    24680    24679    24680    24683    24682    24678    24678 
   24678    24679    24680    24680    24679    24678    24679    24682 
   24679    24676    24679    24683    24680    24678    24676    24678 
   24678    24678    24676    24676    24679    24679    24675    24679 
   24683    24680    24679    24680    24680    24682    24680    24679 
   24680    24682    24678    24678    24679    24680    24680    24678 
   24678    24679    24679    24679    24679    24678    24679    24679 
   24678    24679    24679    24679    24680    24682    24680    24678 
   24678    24680    24682    24679    24679    24679    24678    24682 
   24684    24680    24678    24678    24679    24682    24682    24679 
   24678    24678    24679    24680    24678    24678    24680    24679 
   24679    24680    24682    24680    24679    24679    24680    24680 
   24680    24680    24682    24680    24680    24679    24680    24682 
   24680    24682    24680    24678    24678    24680    24682    24678 
   24675    24678    24678    24678    24680    24678    24675    24678 
   24682    24680    24678    24678    24678    24678    24678    24679 
   24678    24678    24679    24679    24679    24680    24680    24679 
   24682    24680    24679    24679    24678    24679    24679    24678 
   24680    24680    24678    24678    24682    24680    24678    24679 
   24680    24679    24680    24680    24679    24680    24682    24680 
   24679    24680    24680    24679    24679    24679    24678    24675 
   24678    24680    24680    24679    24680    24680    24679    24678 
   24680    24680    24679    24682    24679    24679    24680    24679 
   24678    24679    24680    24679    24679    24680    24682    24679 
   24682    24684    24680    24679    24682    24680    24680    24683 
   24680    24678    24680    24680    24678    24679    24679    24679 
   24679    24679    24680    24680    24679    24680    24680    24679 
   24680    24682    24680    24679    24678    24680    24682    24679 
   24678    24679    24679    24679    24679    24679    24680    24680 
   24679    24678    24679    24680    24679    24678    24680    24682 
   24679    24680    24683    24680    24679    24680    24679    24679 
   24680    24679    24680    24680    24680    24680    24680    24680 
   24680    24682    24684    24682    24680    24680    24679    24679 
   24679    24680    24678    24678    24680    24680    24679    24679 
   24679    24680    24680    24679    24679    24679    24679    24682 
   24682    24679    24680    24682    24678    24678    24679    24679 
   24679    24679    24679    24680    24680    24680    24679    24678 
   24679    24682    24680    24679    24682    24683    24680    24678 
   24678    24679    24679    24678    24679    24682    24683    24682 
   24679    24679    24679    24679    24680    24682    24679    24679 
   24682    24679    24675    24675    24679    24682    24680    24679 
   24682    24680    24678    24680    24682    24679    24678    24680 
   24680    24678    24679    24680    24676    24676    24682    24680 
   24680    24682    24679    24678    24679    24679    24679    24678 
   24679    24680    24680    24680    24679    24682    24680    24676 
   24679    24683    24680    24679    24679    24678    24679    24679 
   24679    24679    24679    24678    24680    24680    24679    24682 
   24682    24676    24678    24679    24678    24678    24680    24679 
   24679    24683    24683    24679    24678    24680    24680    24679 
   24679    24680    24680    24679    24680    24679    24678    24678 
   24679    24680    24682    24679    24679    24682    24682    24679 
   24679    24682    24682    24678    24679    24680    24679    24679 
   24680    24680    24679    24679    24680    24682    24680    24679 
   24679    24680    24679    24678    24676    24678    24680    24680 
   24680    24680    24678    24679    24680    24679    24679    24682 
   24680    24680    24682    24680    24678    24678    24678    24679 
   24679    24679    24679    24679    24679    24679    24680    24679 
   24678    24679    24683    24682    24679    24680    24680    24679 
   24676    24676    24680    24680    24679    24679    24679    24678 
   24679    24680    24680    24680    24680    24680    24680    24679 
   24678    24678    24678    24678    24679    24682    24683    24682 
   24679    24680    24680    24678    24680    24682    24678    24678 
   24680    24679    24679    24680    24680    24678    24676    24675 
   24684    24706    24709    24661    24617    24656    24729    24745 
   24745    24729    24630    24549    24570    24543    24522    24705 
   24844    24709    24660    24798    24713    24556    24727    24808 
   24534    24501    24700    24594    24541    24819    24810    24480 
   24432    24537    24441    24482    24865    25105    25004    24903 
   24875    24796    24722    24637    24536    24525    24621    24796 
   24904    24779    24617    24638    24622    24389    24163    24131 
   24178    24270    24571    24985    25154    25154    25317    25434 
   25222    24933    24723    24472    24329    24478    24619    24439 
   24201    24220    24328    24344    24302    24328    24646    25155 
   25440    25417    25142    24767    24787    25123    25159    24976 
   24800    24398    24009    24039    24147    24040    24030    24278 
   24582    24765    24779    24732    24742    24846    25141    25482 
   25509    25266    24968    24599    24255    24154    24282    24455 
   24641    24862    24989    25010    24954    24676    24360    24393 
   24614    24746    24841    24842    24687    24570    24526    24394 
   24289    24356    24416    24366    24356    24428    24547    24754 
   25008    25158    25112    24950    24868    24933    24993    24985 
   24965    24883    24707    24586    24552    24493    24451    24533 
   24613    24483    24286    24320    24497    24602    24679    24705 
   24633    24607    24719    24861    24884    24796    24729    24691 
   24672    24745    24856    24922    25047    25311    25706    26203 
   26638    26835    26894    26997    27058    26955    26725    26181 
   25118    23955    23174    22632    22153    21790    21384    20779 
   20358    20623    21336    21898    22586    23976    25508    26287 
   26458    26751    27326    27696    27554    27093    26500    25705 
   24835    24448    24857    25428    25261    24436    23688    23164 
   22603    22153    22239    22902    23565    23908    24413    25126 
   25294    24942    24804    24795    24322    23506    22885    22454 
   21845    21228    21216    21940    22987    24163    25562    27049 
   28223    28831    28927    28703    28460    28468    28571    28362 
   27722    26730    25456    24213    23546    23558    23718    23612 
   23386    23274    23261    23188    22936    22711    22893    23491 
   24147    24645    25046    25277    25083    24572    24379    24868 
   25600    25911    25564    24808    24123    23745    23677    23963 
   24328    24308    23982    23643    23249    22866    22820    23228 
   23876    24406    24536    24294    24062    24240    24834    25574 
   26323    27022    27422    27302    26781    26158    25621    25239 
   25091    25188    25288    25170    25002    25004    25119    25261 
   25402    25346    24922    24335    23882    23634    23661    23947 
   24140    24008    23676    23245    22873    22873    23363    24150 
   24885    25290    25357    25242    25104    25095    25290    25628 
   25894    25905    25743    25550    25267    24834    24312    23792 
   23423    23271    23205    23134    23107    23241    23612    24100 
   24521    24841    25012    25073    25351    25876    26083    25774 
   25419    25311    25440    25809    26172    26172    25887    25663 
   25473    25060    24505    23978    23464    23168    23328    23638 
   23723    23658    23658    23822    24247    24869    25293    25321 
   25218    25034    24632    24275    24262    24429    24548    24653 
   24830    25072    25362    25579    25586    25528    25485    25149 
   24401    23604    23145    23107    23364    23776    24183    24395 
   24444    24568    24817    25056    25246    25400    25447    25367 
   25218    25007    24740    24452    24159    24017    24212    24538 
   24671    24679    24795    24991    25031    24823    24574    24514 
   24602    24661    24587    24340    24069    24003    24034    23920 
   23774    23886    24306    24794    25126    25261    25174    24943 
   24865    24992    25065    25115    25293    25447    25498    25604 
   25759    25851    25893    25906    25824    25618    25389    25189 
   24926    24595    24258    23845    23376    23074    23051    23199 
   23415    23734    24201    24710    25070    25242    25362    25512 
   25641    25737    25807    25776    25539    25118    24742    24524 
   24260    23912    23668    23517    23387    23350    23386    23409 
   23479    23630    23758    23849    24074    24530    24979    25123 
   25033    24930    24842    24748    24655    24559    24525    24597 
   24686    24740    24769    24819    24989    25213    25320    25355 
   25367    25188    24904    24907    25246    25548    25639    25651 
   25656    25641    25606    25477    25238    25034    24918    24817 
   24718    24582    24329    24089    24052    24143    24252    24448 
   24642    24615    24448    24343    24239    24042    23869    23809 
   23764    23642    23492    23391    23399    23519    23697    23896 
   24088    24301    24570    24768    24837    24961    25227    25481 
   25632    25721    25737    25656    25582    25598    25625    25583 
   25490    25363    25151    24894    24757    24798    24916    24980 
   24898    24738    24613    24494    24395    24441    24579    24648 
   24615    24541    24490    24494    24499    24497    24611    24894 
   25199    25353    25274    25039    24827    24673    24524    24401 
   24304    24241    24274    24332    24328    24349    24422    24444 
   24435    24464    24513    24572    24587    24479    24359    24358 
   24395    24439    24517    24545    24548    24690    24964    25235 
   25411    25424    25300    25157    25070    25003    24892    24773 
   24733    24746    24713    24614    24459    24275    24173    24179 
   24150    24011    23876    23807    23758    23739    23785    23849 
   23889    23895    23884    23969    24187    24428    24690    24999 
   25227    25308    25342    25397    25489    25610    25749    25853 
   25848    25763    25685    25574    25384    25165    24977    24860 
   24792    24700    24597    24561    24575    24555    24513    24516 
   24551    24644    24838    24992    24984    24906    24823    24730 
   24676    24698    24767    24813    24759    24645    24572    24545 
   24489    24393    24325    24290    24220    24135    24105    24120 
   24128    24127    24120    24081    23992    23904    23896    23994 
   24169    24360    24503    24571    24590    24591    24591    24619 
   24725    24919    25119    25236    25262    25246    25242    25266 
   25285    25293    25316    25317    25240    25131    25095    25134 
   25157    25120    24995    24773    24551    24359    24219    24262 
   24470    24626    24680    24706    24726    24757    24764    24675 
   24567    24553    24568    24528    24499    24545    24626    24698 
   24752    24776    24759    24717    24680    24641    24613    24638 
   24721    24799    24834    24825    24807    24826    24872    24861 
   24738    24559    24381    24225    24159    24232    24368    24471 
   24497    24425    24267    24085    23966    23988    24116    24223 
   24260    24243    24151    24038    23984    24000    24121    24355 
   24559    24617    24584    24592    24723    24950    25191    25365 
   25419    25357    25273    25270    25365    25451    25428    25350 
   25304    25254    25146    25022    24949    24934    24923    24903 
   24898    24880    24834    24810    24790    24734    24679    24660 
