Origin Time       2024/03/16 06:34:00
Lat.              32.907
Long.             131.047
Depth. (km)       7
Mag.              3.3
Station Code      KMMH16
Station Lat.      32.7967
Station Long.     130.8199
Station Height(m) 55
Record Time       2024/03/16 06:34:37
Sampling Freq(Hz) 100Hz
Duration Time(s)  120
Dir.              4
Scale Factor      7845(gal)/8223790
Max. Acc. (gal)   4.293
Last Correction   2024/03/16 06:34:37
Memo.             
[...]
    -507     -506     -510     -503     -495     -494     -494     -495 
    -503     -508     -507     -502     -502     -502     -506     -507 
    -506     -507     -506     -495     -498     -503     -495     -491 
    -502     -506     -504     -507     -506     -502     -499     -498 
    -499     -506     -510     -508     -508     -507     -502     -498 
    -494     -495     -504     -508     -506     -504     -504     -500 
    -494     -495     -500     -504     -507     -508     -506     -506 
    -507     -503     -502     -506     -510     -515     -514     -503 
    -496     -499     -496     -488     -488     -494     -494     -495 
    -500     -504     -507     -515     -521     -525     -521     -508 
    -502     -498     -491     -495     -502     -500     -498     -502 
    -507     -510     -508     -506     -506     -500     -491     -494 
    -499     -499     -498     -502     -503     -500     -499     -504 
    -506     -504     -513     -515     -507     -507     -507     -500 
    -495     -491     -495     -506     -503     -496     -503     -510 
    -508     -511     -517     -514     -506     -502     -498     -498 
    -499     -498     -498     -498     -498     -498     -500     -503 
    -506     -506     -504     -507     -511     -511     -508     -508 
    -513     -508     -496     -491     -490     -490     -494     -499 
    -507     -514     -508     -503     -508     -513     -510     -510 
    -508     -503     -499     -495     -490     -492     -502     -504 
    -503     -504     -508     -508     -502     -498     -502     -508 
    -513     -511     -507     -508     -503     -498     -499     -500 
    -502     -506     -506     -506     -507     -503     -496     -498 
    -503     -506     -503     -500     -502     -503     -499     -495 
    -496     -500     -506     -511     -513     -507     -503     -508 
    -513     -508     -499     -495     -496     -500     -500     -499 
    -507     -513     -507     -506     -504     -499     -496     -495 
    -494     -502     -511     -514     -514     -513     -502     -494 
    -498     -504     -507     -511     -508     -506     -511     -506 
    -494     -495     -499     -498     -506     -511     -499     -491 
    -498     -510     -522     -529     -521     -500     -490     -490 
    -492     -496     -500     -500     -503     -506     -506     -513 
    -515     -507     -498     -503     -511     -508     -503     -502 
    -500     -500     -502     -500     -500     -500     -494     -494 
    -504     -507     -504     -507     -510     -513     -511     -503 
    -498     -499     -499     -504     -507     -499     -491     -494 
    -495     -495     -503     -508     -508     -507     -508     -511 
    -507     -504     -506     -506     -502     -495     -491     -495 
    -495     -495     -503     -506     -502     -502     -500     -499 
    -508     -513     -504     -502     -502     -499     -495     -498 
    -502     -510     -519     -517     -504     -499     -498     -498 
    -500     -496     -492     -499     -504     -504     -506     -508 
    -513     -517     -511     -500     -496     -495     -492     -494 
    -495     -492     -495     -499     -498     -499     -507     -513 
    -511     -511     -513     -507     -499     -502     -503     -502 
    -504     -502     -495     -495     -495     -495     -504     -510 
    -510     -510     -507     -503     -508     -511     -502     -499 
    -504     -502     -496     -496     -495     -498     -500     -500 
    -502     -503     -502     -504     -510     -513     -513     -513 
    -507     -496     -492     -494     -487     -486     -494     -502 
    -508     -514     -514     -511     -507     -504     -507     -511 
    -507     -495     -491     -496     -498     -498     -503     -507 
    -510     -508     -500     -498     -504     -507     -502     -498 
    -499     -503     -506     -502     -496     -502     -503     -495 
    -498     -506     -507     -508     -507     -503     -504     -504 
    -504     -506     -508     -511     -507     -502     -499     -498 
    -499     -500     -504     -510     -511     -506     -502     -498 
    -494     -490     -492     -500     -510     -511     -508     -507 
    -510     -511     -504     -499     -496     -492     -496     -503 
    -504     -510     -513     -506     -503     -506     -504     -504 
    -502     -495     -496     -502     -502     -503     -508     -503 
    -496     -499     -499     -496     -499     -503     -506     -508 
    -506     -506     -506     -504     -504     -506     -506     -502 
    -496     -495     -496     -500     -507     -507     -506     -508 
    -506     -503     -506     -506     -502     -502     -502     -500 
    -498     -498     -494     -494     -502     -507     -507     -510 
    -510     -508     -513     -511     -502     -498     -499     -502 
    -506     -510     -510     -510     -507     -496     -491     -496 
    -499     -500     -499     -492     -491     -495     -496     -503 
    -517     -523     -525     -523     -517     -506     -494     -490 
    -494     -498     -499     -500     -500     -499     -498     -502 
    -507     -506     -506     -513     -513     -506     -502     -500 
    -498     -498     -502     -503     -506     -510     -510     -510 
    -507     -496     -491     -492     -494     -498     -507     -510 
    -507     -508     -508     -503     -504     -508     -506     -500 
    -498     -498     -500     -500     -500     -507     -510     -502 
    -495     -496     -498     -498     -499     -503     -508     -511 
    -510     -506     -502     -503     -502     -499     -499     -499 
    -500     -506     -506     -502     -506     -508     -508     -508 
    -508     -506     -504     -498     -490     -492     -496     -495 
    -500     -507     -511     -514     -515     -513     -510     -507 
    -499     -492     -492     -496     -499     -499     -500     -506 
    -511     -513     -508     -507     -511     -514     -506     -502 
    -504     -504     -502     -498     -499     -504     -500     -492 
    -495     -502     -500     -506     -510     -507     -503     -502 
    -499     -498     -502     -503     -506     -514     -514     -506 
    -502     -498     -496     -503     -506     -510     -518     -514 
    -502     -496     -492     -494     -499     -496     -492     -498 
    -506     -506     -504     -508     -515     -517     -511     -504 
    -500     -495     -491     -490     -496     -508     -513     -507 
    -504     -502     -500     -502     -500     -503     -508     -508 
    -507     -508     -500     -495     -499     -499     -500     -510 
    -510     -506     -510     -513     -507     -502     -498     -494 
    -495     -498     -499     -506     -511     -506     -507     -508 
    -500     -498     -502     -499     -495     -502     -506     -500 
    -500     -504     -507     -510     -513     -506     -502     -506 
    -504     -503     -503     -502     -503     -506     -504     -499 
    -499     -503     -499     -499     -504     -502     -499     -500 
    -494     -494     -504     -503     -506     -517     -514     -507 
    -507     -506     -502     -504     -506     -507     -513     -514 
    -506     -503     -498     -490     -490     -491     -490     -498 
    -502     -498     -506     -513     -511     -517     -523     -518 
    -508     -508     -507     -494     -487     -494     -502     -506 
    -508     -507     -502     -496     -496     -496     -494     -498 
    -503     -507     -508     -507     -506     -502     -495     -502 
    -511     -511     -518     -521     -513     -506     -500     -498 
    -498     -498     -496     -496     -500     -495     -490     -494 
    -503     -508     -515     -517     -517     -515     -507     -500 
    -506     -506     -500     -502     -507     -508     -506     -500 
    -495     -494     -499     -503     -500     -500     -507     -508 
    -504     -504     -506     -507     -511     -510     -504     -502 
    -499     -496     -499     -503     -504     -507     -504     -500 
    -502     -496     -494     -502     -507     -508     -514     -511 
    -503     -503     -503     -502     -506     -506     -498     -495 
    -498     -498     -502     -507     -504     -500     -503     -504 
    -503     -507     -511     -515     -518     -510     -496     -492 
    -494     -491     -490     -502     -511     -508     -504     -499 
    -494     -495     -498     -507     -515     -517     -513     -511 
    -513     -510     -506     -504     -495     -487     -487     -491 
    -498     -504     -504     -504     -508     -510     -506     -510 
    -513     -507     -503     -503     -498     -496     -499     -498 
    -500     -504     -503     -506     -508     -503     -499     -498 
    -498     -504     -510     -507     -500     -499     -504     -504 
    -504     -513     -517     -515     -510     -503     -496     -492 
    -488     -496     -510     -514     -513     -513     -504     -494 
    -495     -500     -499     -498     -494     -491     -495     -502 
    -504     -513     -518     -514     -511     -510     -504     -502 
    -500     -500     -500     -506     -506     -502     -504     -504 
    -500     -504     -507     -503     -504     -503     -498     -498 
    -498     -496     -496     -502     -511     -517     -517     -510 
    -500     -504     -507     -504     -514     -527     -535     -540 
    -521     -491     -491     -514     -514     -499     -508     -535 
    -533     -488     -440     -432     -425     -348     -261     -292 
    -417     -513     -546     -571     -618     -664     -700     -745 
    -769     -714     -607     -537     -502     -414     -286     -234 
    -290     -372     -415     -422     -442     -498     -556     -587 
    -589     -554     -507     -525     -610     -646     -579     -476 
    -403     -380     -413     -498     -615     -722     -772     -796 
    -832     -801     -657     -508     -461     -481     -465     -367 
    -245     -174     -121      -29       49       70       58        8 
    -112     -279     -464     -658     -843    -1012    -1146    -1212 
   -1206    -1140    -1032     -930     -854     -743     -553     -364 
    -271     -238     -183     -116     -113     -166     -206     -241 
    -326     -463     -567     -581     -538     -473     -379     -274 
    -218     -267     -426     -603     -691     -712     -758     -830 
    -857     -788     -645     -519     -460     -440     -445     -504 
    -619     -738     -820     -853     -826     -718     -530     -329 
    -182      -70       62      190      221      120      -36     -175 
    -306     -456     -645     -865    -1071    -1215    -1270    -1236 
   -1159    -1085     -969     -761     -513     -276      -54      149 
     287      283      121     -112     -340     -558     -729     -787 
    -768     -747     -723     -673     -621     -615     -673     -745 
    -770     -742     -665     -530     -336     -128       33      110 
      85      -35     -233     -511     -831    -1119    -1316    -1372 
   -1290    -1121     -866     -514     -148      110      218      226 
     183       89      -70     -251     -388     -481     -552     -580 
    -600     -693     -872    -1044    -1119    -1101    -1059    -1003 
    -859     -614     -353     -141       22      125      159      149 
      93      -40     -228     -400     -546     -691     -823     -924 
    -986    -1004     -954     -834     -697     -584     -481     -379 
    -302     -286     -319     -372     -422     -452     -464     -486 
    -523     -589     -724     -911    -1055    -1107    -1067     -932 
    -716     -473     -251      -66       71      140      135       94 
      66       32      -52     -168     -275     -363     -429     -481 
    -529     -587     -708     -913    -1142    -1310    -1397    -1389 
   -1248     -974     -637     -324      -87       64      128      108 
      44      -36     -152     -292     -440     -603     -749     -835 
    -873     -865     -795     -675     -579     -561     -580     -592 
    -595     -581     -556     -525     -467     -384     -325     -311 
    -295     -234     -184     -203     -286     -422     -627     -854 
    -994    -1009     -962     -876     -720     -521     -363     -274 
    -194     -109      -64      -87     -162     -256     -356     -463 
    -541     -571     -611     -691     -768     -816     -850     -870 
    -864     -805     -676     -502     -340     -237     -199     -213 
    -275     -373     -479     -558     -602     -623     -631     -638 
    -643     -611     -515     -387     -292     -268     -326     -481 
    -681     -811     -822     -731     -573     -399     -252     -179 
    -216     -337     -486     -627     -724     -741     -692     -633 
    -588     -538     -448     -314     -175      -59       47      110 
      67      -85     -279     -465     -611     -670     -635     -550 
    -486     -492     -581     -742     -961    -1202    -1436    -1617 
   -1690    -1598    -1332     -927     -429      105      598      963 
    1115      992      596      -24     -785    -1571    -2250    -2704 
   -2867    -2728    -2324    -1753    -1117     -450      252      989 
    1718     2385     2940     3343     3537     3443     3030     2303 
    1293       97    -1174    -2430    -3545    -4386    -4876    -5003 
   -4807    -4340    -3647    -2785    -1811     -826       66      789 
    1285     1512     1489     1302     1038      754      494      294 
     193      201      261      295      240       66     -207     -527 
    -850    -1150    -1413    -1638    -1814    -1894    -1829    -1638 
   -1367    -1009     -568     -174       27       10     -191     -526 
    -878    -1140    -1243    -1171     -974     -707     -387      -41 
     272      504      626      633      561      460      332      189 
      47     -105     -253     -325     -257      -86       94      216 
     206       13     -333     -784    -1270    -1719    -2106    -2400 
   -2529    -2470    -2272    -1992    -1648    -1255     -864     -510 
    -222      -43       47      105      183      319      498      646 
     712      680      534      255     -145     -581     -949    -1198 
   -1301    -1216     -949     -581     -210      132      432      634 
     676      538      236     -187     -675    -1162    -1576    -1841 
   -1910    -1794    -1548    -1217     -862     -549     -297      -97 
      67      216      336      392      359      229        1     -309 
    -654    -1007    -1332    -1571    -1688    -1667    -1517    -1278 
    -994     -715     -488     -337     -268     -259     -255     -202 
     -68      125      313      436      452      332       99     -171 
    -414     -585     -646     -577     -421     -259     -162     -141 
    -182     -288     -472     -695     -920    -1147    -1348    -1452 
   -1425    -1309    -1154    -1003     -892     -828     -793     -760 
    -700     -619     -544     -460     -356     -257     -149        2 
     202      446      703      881      907      766      469       82 
    -305     -666     -988    -1219    -1347    -1418    -1460    -1464 
   -1414    -1296    -1120     -908     -664     -426     -263     -180 
    -167     -237     -414     -676     -972    -1260    -1489    -1597 
   -1559    -1375    -1069     -703     -333        0      263      433 
     517      535      510      456      367      234       70     -135 
    -392     -668     -909    -1084    -1182    -1219    -1193    -1097 
    -967     -858     -768     -679     -598     -525     -434     -306 
    -120      117      360      575      723      738      591      310 
     -82     -561    -1047    -1460    -1775    -1969    -2027    -1941 
   -1723    -1421    -1090     -774     -500     -283     -110       35 
     128      144      114       82       54        8      -43      -56 
     -28        4        4      -32      -87     -175     -317     -491 
    -683     -891    -1097    -1269    -1374    -1421    -1426    -1372 
   -1244    -1075     -899     -727     -565     -402     -244     -121 
     -44      -10      -29      -99     -197     -305     -406     -472 
    -475     -400     -248      -33      199      391      511      552 
     491      295      -47     -498     -984    -1437    -1811    -2034 
   -2054    -1917    -1679    -1368    -1028     -708     -448     -280 
    -205     -193     -229     -271     -278     -253     -217     -162 
     -95      -43      -20      -33      -75     -122     -175     -245 
    -324     -406     -499     -606     -731     -881    -1031    -1146 
   -1215    -1239    -1217    -1150    -1040     -899     -727     -525 
    -291      -47      183      383      515      544      465      297 
      40     -283     -616     -918    -1166    -1340    -1426    -1416 
   -1291    -1073     -811     -544     -306     -152     -102     -136 
    -251     -434     -637     -810     -916     -947     -918     -859 
    -768     -639     -504     -365     -202      -32      120      263 
     394      479      477      375      168     -136     -499     -857 
   -1155    -1371    -1487    -1487    -1372    -1174     -919     -630 
    -348     -103       78      186      225      195      103      -35 
    -207     -402     -599     -776     -932    -1073    -1179    -1254 
   -1306    -1325    -1285    -1182    -1028     -837     -595     -290 
      43      344      587      750      789      693      471      139 
    -251     -623     -945    -1194    -1343    -1383    -1333    -1206 
   -1039     -864     -692     -554     -465     -417     -398     -396 
    -410     -433     -454     -475     -491     -498     -484     -456 
    -423     -400     -406     -438     -483     -529     -577     -615 
    -645     -665     -676     -677     -662     -643     -641     -646 
    -648     -639     -594     -507     -396     -260     -114        5 
      90      128      101       24      -93     -247     -400     -530 
    -646     -739     -792     -826     -859     -877     -874     -864 
    -839     -810     -783     -741     -646     -511     -372     -229 
     -78       44      103       97       35      -79     -234     -394 
    -513     -588     -634     -652     -641     -619     -608     -616 
    -637     -662     -695     -730     -749     -742     -714     -646 
    -549     -461     -405     -398     -452     -546     -668     -796 
    -886     -916     -895     -826     -710     -557     -383     -207 
     -63       21       48       27      -43     -155     -291     -444 
    -589     -711     -793     -834     -841     -839     -842     -839 
    -816     -783     -745     -712     -691     -669     -642     -622 
    -603     -575     -523     -433     -310     -170      -40       59 
     110       91       10     -122     -287     -441     -572     -681 
    -747     -773     -788     -787     -754     -702     -629     -546 
    -473     -410     -360     -346     -367     -400     -457     -540 
    -626     -697     -735     -734     -707     -653     -556     -419 
    -264     -124      -21       37       51       22      -31      -97 
