Origin Time       2024/03/16 06:34:00
Lat.              32.907
Long.             131.047
Depth. (km)       7
Mag.              3.3
Station Code      KMMH05
Station Lat.      32.9553
Station Long.     131.2207
Station Height(m) 693
Record Time       2024/03/16 06:34:38
Sampling Freq(Hz) 100Hz
Duration Time(s)  120
Dir.              4
Scale Factor      7845(gal)/8223790
Max. Acc. (gal)   2.855
Last Correction   2024/03/16 06:34:38
Memo.             
[...]
  -27089   -27085   -27086   -27097   -27103   -27103   -27105   -27105 
  -27102   -27103   -27108   -27109   -27113   -27121   -27126   -27126 
  -27125   -27129   -27137   -27149   -27156   -27155   -27149   -27140 
  -27136   -27136   -27130   -27124   -27120   -27110   -27098   -27091 
  -27091   -27091   -27091   -27098   -27105   -27103   -27102   -27103 
  -27105   -27105   -27105   -27101   -27094   -27095   -27106   -27118 
  -27133   -27147   -27156   -27160   -27162   -27159   -27152   -27140 
  -27129   -27126   -27125   -27120   -27114   -27113   -27116   -27113 
  -27105   -27101   -27095   -27089   -27083   -27081   -27085   -27091 
  -27090   -27086   -27095   -27108   -27117   -27126   -27132   -27140 
  -27145   -27148   -27145   -27139   -27130   -27132   -27139   -27141 
  -27143   -27140   -27140   -27145   -27148   -27140   -27135   -27133 
  -27129   -27113   -27086   -27066   -27056   -27051   -27049   -27056 
  -27075   -27098   -27110   -27114   -27120   -27130   -27135   -27132 
  -27130   -27130   -27129   -27125   -27116   -27113   -27126   -27139 
  -27141   -27148   -27157   -27159   -27157   -27155   -27147   -27139 
  -27133   -27121   -27105   -27090   -27081   -27076   -27078   -27078 
  -27078   -27085   -27097   -27102   -27106   -27113   -27117   -27114 
  -27106   -27098   -27093   -27093   -27102   -27116   -27120   -27126 
  -27149   -27166   -27170   -27178   -27184   -27180   -27170   -27152 
  -27136   -27130   -27126   -27114   -27099   -27086   -27076   -27072 
  -27071   -27067   -27064   -27066   -27070   -27076   -27086   -27097 
  -27106   -27110   -27108   -27108   -27117   -27126   -27135   -27145 
  -27157   -27170   -27184   -27191   -27194   -27193   -27178   -27162 
  -27149   -27133   -27117   -27105   -27089   -27070   -27055   -27043 
  -27035   -27029   -27032   -27044   -27054   -27066   -27090   -27109 
  -27121   -27137   -27149   -27155   -27160   -27168   -27180   -27186 
  -27182   -27180   -27178   -27164   -27148   -27130   -27120   -27118 
  -27118   -27113   -27101   -27086   -27075   -27068   -27064   -27064 
  -27064   -27070   -27082   -27091   -27094   -27098   -27098   -27097 
  -27106   -27118   -27125   -27130   -27141   -27149   -27152   -27156 
  -27163   -27167   -27171   -27172   -27167   -27159   -27151   -27139 
  -27126   -27120   -27110   -27099   -27087   -27078   -27075   -27076 
  -27072   -27060   -27055   -27060   -27067   -27071   -27078   -27089 
  -27101   -27113   -27126   -27143   -27157   -27170   -27179   -27187 
  -27189   -27184   -27174   -27159   -27145   -27129   -27116   -27109 
  -27105   -27099   -27099   -27099   -27097   -27090   -27087   -27085 
  -27082   -27079   -27081   -27083   -27086   -27091   -27097   -27105 
  -27118   -27129   -27139   -27149   -27152   -27151   -27152   -27157 
  -27156   -27145   -27133   -27124   -27116   -27112   -27109   -27108 
  -27106   -27105   -27106   -27108   -27112   -27117   -27118   -27113 
  -27099   -27090   -27094   -27098   -27098   -27103   -27109   -27117 
  -27132   -27144   -27145   -27145   -27144   -27129   -27113   -27110 
  -27114   -27116   -27112   -27110   -27113   -27114   -27116   -27122 
  -27132   -27135   -27133   -27135   -27135   -27129   -27116   -27099 
  -27086   -27079   -27082   -27081   -27079   -27089   -27103   -27118 
  -27132   -27140   -27141   -27143   -27143   -27147   -27153   -27152 
  -27147   -27141   -27135   -27128   -27114   -27105   -27109   -27114 
  -27114   -27106   -27097   -27090   -27087   -27086   -27087   -27086 
  -27085   -27090   -27102   -27118   -27132   -27133   -27133   -27143 
  -27153   -27159   -27157   -27151   -27139   -27125   -27113   -27103 
  -27098   -27094   -27094   -27097   -27101   -27113   -27126   -27130 
  -27139   -27149   -27148   -27140   -27129   -27117   -27110   -27110 
  -27112   -27110   -27105   -27097   -27093   -27093   -27095   -27097 
  -27099   -27106   -27116   -27118   -27124   -27135   -27139   -27136 
  -27132   -27129   -27130   -27135   -27135   -27129   -27126   -27129 
  -27129   -27129   -27129   -27118   -27101   -27091   -27094   -27099 
  -27103   -27105   -27110   -27118   -27128   -27128   -27118   -27117 
  -27122   -27121   -27121   -27122   -27117   -27113   -27114   -27117 
  -27124   -27128   -27121   -27114   -27113   -27114   -27120   -27128 
  -27132   -27124   -27108   -27094   -27093   -27102   -27114   -27122 
  -27124   -27126   -27135   -27136   -27128   -27120   -27116   -27109 
  -27108   -27109   -27106   -27106   -27105   -27112   -27136   -27157 
  -27156   -27135   -27116   -27116   -27128   -27135   -27132   -27121 
  -27102   -27083   -27072   -27079   -27095   -27101   -27094   -27087 
  -27086   -27097   -27117   -27129   -27129   -27133   -27135   -27136 
  -27144   -27151   -27159   -27168   -27171   -27170   -27163   -27143 
  -27124   -27110   -27091   -27079   -27072   -27062   -27051   -27049 
  -27055   -27062   -27071   -27087   -27106   -27124   -27137   -27143 
  -27148   -27159   -27167   -27168   -27164   -27155   -27143   -27130 
  -27128   -27129   -27122   -27114   -27112   -27109   -27110   -27121 
  -27132   -27130   -27120   -27099   -27082   -27075   -27071   -27067 
  -27070   -27076   -27090   -27103   -27114   -27126   -27139   -27147 
  -27149   -27151   -27157   -27164   -27164   -27160   -27149   -27132 
  -27113   -27106   -27110   -27117   -27118   -27108   -27091   -27082 
  -27075   -27071   -27081   -27095   -27105   -27109   -27109   -27110 
  -27118   -27126   -27132   -27133   -27135   -27145   -27159   -27156 
  -27147   -27137   -27128   -27121   -27114   -27108   -27106   -27110 
  -27114   -27112   -27109   -27113   -27114   -27112   -27108   -27106 
  -27101   -27085   -27070   -27068   -27083   -27110   -27137   -27156 
  -27160   -27148   -27130   -27121   -27124   -27132   -27140   -27147 
  -27148   -27149   -27152   -27145   -27126   -27105   -27085   -27074 
  -27079   -27094   -27105   -27110   -27108   -27094   -27079   -27074 
  -27081   -27095   -27117   -27130   -27132   -27139   -27152   -27155 
  -27148   -27147   -27147   -27145   -27140   -27136   -27132   -27125 
  -27124   -27125   -27121   -27113   -27101   -27089   -27079   -27072 
  -27067   -27072   -27081   -27085   -27094   -27110   -27129   -27148 
  -27163   -27172   -27171   -27159   -27141   -27124   -27112   -27101 
  -27094   -27094   -27098   -27103   -27103   -27102   -27108   -27118 
  -27125   -27129   -27132   -27128   -27124   -27121   -27120   -27117 
  -27114   -27116   -27118   -27129   -27147   -27157   -27155   -27143 
  -27121   -27093   -27067   -27051   -27054   -27067   -27086   -27109 
  -27125   -27130   -27135   -27133   -27121   -27117   -27122   -27128 
  -27136   -27145   -27152   -27148   -27139   -27129   -27114   -27105 
  -27106   -27112   -27116   -27122   -27125   -27122   -27113   -27094 
  -27079   -27076   -27078   -27086   -27105   -27126   -27148   -27167 
  -27172   -27164   -27145   -27126   -27112   -27101   -27090   -27087 
  -27087   -27081   -27079   -27086   -27093   -27105   -27118   -27124 
  -27132   -27143   -27145   -27143   -27136   -27133   -27136   -27140 
  -27147   -27155   -27163   -27167   -27160   -27140   -27118   -27102 
  -27090   -27079   -27070   -27067   -27063   -27062   -27066   -27070 
  -27075   -27091   -27108   -27124   -27141   -27155   -27166   -27167 
  -27160   -27152   -27147   -27140   -27130   -27125   -27121   -27114 
  -27108   -27103   -27103   -27106   -27108   -27110   -27117   -27126 
  -27130   -27125   -27126   -27129   -27124   -27114   -27108   -27103 
  -27102   -27101   -27094   -27093   -27102   -27112   -27113   -27116 
  -27125   -27130   -27130   -27133   -27130   -27120   -27113   -27116 
  -27112   -27106   -27113   -27125   -27132   -27137   -27141   -27139 
  -27132   -27121   -27114   -27116   -27114   -27112   -27113   -27116 
  -27113   -27108   -27105   -27099   -27095   -27099   -27113   -27121 
  -27126   -27126   -27122   -27122   -27124   -27124   -27118   -27114 
  -27121   -27124   -27117   -27110   -27106   -27097   -27097   -27109 
  -27116   -27118   -27129   -27139   -27140   -27137   -27128   -27122 
  -27124   -27122   -27120   -27121   -27120   -27117   -27121   -27124 
  -27120   -27112   -27108   -27099   -27091   -27085   -27078   -27075 
  -27081   -27090   -27098   -27110   -27128   -27140   -27147   -27151 
  -27153   -27156   -27159   -27155   -27153   -27156   -27149   -27136 
  -27124   -27112   -27106   -27101   -27086   -27071   -27063   -27058 
  -27059   -27063   -27064   -27075   -27098   -27120   -27135   -27148 
  -27156   -27160   -27164   -27163   -27167   -27175   -27174   -27163 
  -27152   -27135   -27120   -27114   -27105   -27091   -27085   -27079 
  -27067   -27054   -27051   -27051   -27055   -27070   -27090   -27110 
  -27126   -27139   -27149   -27153   -27152   -27155   -27156   -27157 
  -27160   -27162   -27162   -27162   -27155   -27147   -27140   -27128 
  -27110   -27095   -27086   -27082   -27081   -27075   -27068   -27068 
  -27074   -27078   -27083   -27093   -27102   -27105   -27103   -27102 
  -27109   -27122   -27136   -27141   -27141   -27149   -27162   -27171 
  -27179   -27182   -27175   -27168   -27160   -27151   -27137   -27124 
  -27114   -27101   -27081   -27064   -27055   -27052   -27051   -27045 
  -27049   -27055   -27059   -27075   -27099   -27116   -27129   -27145 
  -27160   -27164   -27160   -27152   -27137   -27120   -27122   -27149 
  -27186   -27221   -27233   -27211   -27172   -27132   -27099   -27102 
  -27129   -27153   -27166   -27144   -27074   -26998   -26970   -26968 
  -26946   -26919   -26921   -26958   -27028   -27102   -27166   -27248 
  -27303   -27268   -27226   -27211   -27179   -27193   -27252   -27271 
  -27224   -27087   -26914   -26836   -26883   -26959   -26970   -26990 
  -27085   -27129   -27126   -27195   -27307   -27390   -27409   -27372 
  -27378   -27392   -27275   -27171   -27292   -27399   -27251   -27141 
  -27206   -27098   -26855   -26862   -26998   -26929   -26781   -26746 
  -26720   -26731   -26896   -27009   -26971   -27025   -27132   -27076 
  -27008   -27093   -27213   -27291   -27406   -27575   -27618   -27457 
  -27295   -27205   -27037   -26808   -26727   -26863   -26951   -26835 
  -26719   -26686   -26665   -26789   -27090   -27299   -27317   -27328 
  -27487   -27789   -28058   -28044   -27773   -27588   -27576   -27460 
  -27221   -27058   -26939   -26809   -26754   -26728   -26615   -26437 
  -26342   -26424   -26600   -26755   -26883   -27002   -27106   -27190 
  -27279   -27411   -27530   -27564   -27502   -27378   -27299   -27348 
  -27456   -27480   -27338   -27091   -26904   -26808   -26705   -26634 
  -26685   -26759   -26797   -26879   -26923   -26842   -26838   -26958 
  -27031   -27152   -27426   -27662   -27729   -27683   -27623   -27600 
  -27584   -27588   -27584   -27449   -27207   -26977   -26797   -26703 
  -26685   -26671   -26654   -26665   -26680   -26703   -26781   -26877 
  -26954   -27067   -27205   -27330   -27463   -27537   -27503   -27441 
  -27384   -27299   -27268   -27357   -27442   -27419   -27329   -27191 
  -27040   -26914   -26742   -26597   -26676   -26910   -27109   -27236 
  -27328   -27380   -27351   -27222   -27070   -27001   -27028   -27045 
  -26967   -26833   -26750   -26773   -26877   -26960   -26940   -26856 
  -26815   -26856   -26933   -26977   -26993   -27074   -27275   -27542 
  -27741   -27742   -27622   -27573   -27588   -27519   -27329   -27099 
  -26955   -26950   -26978   -26977   -27014   -27118   -27213   -27265 
  -27292   -27295   -27298   -27345   -27403   -27380   -27259   -27103 
  -27002   -27028   -27128   -27140   -26998   -26766   -26524   -26356 
  -26307   -26342   -26426   -26555   -26719   -26873   -26989   -27060 
  -27113   -27184   -27228   -27132   -26897   -26651   -26458   -26334 
  -26379   -26615   -26878   -27112   -27317   -27391   -27406   -27549 
  -27823   -28175   -28559   -28853   -29023   -29080   -28908   -28476 
  -27980   -27517   -26995   -26496   -26181   -26053   -26117   -26357 
  -26597   -26717   -26693   -26573   -26509   -26568   -26681   -26816 
  -26979   -27201   -27464   -27684   -27824   -27835   -27591   -27224 
  -27045   -26997   -26809   -26582   -26514   -26553   -26717   -27089 
  -27511   -27805   -27884   -27697   -27437   -27299   -27237   -27234 
  -27240   -27027   -26573   -26103   -25749   -25604   -25812   -26379 
  -27110   -27703   -27864   -27531   -26954   -26445   -26137   -26033 
  -26169   -26613   -27287   -27945   -28406   -28606   -28615   -28609 
  -28522   -28113   -27398   -26613   -26057   -25986   -26354   -26909 
  -27467   -27808   -27738   -27429   -27240   -27211   -27197   -27261 
  -27494   -27707   -27648   -27272   -26734   -26265   -26045   -26090 
  -26280   -26569   -26943   -27222   -27224   -27014   -26782   -26613 
  -26538   -26596   -26762   -26959   -27166   -27342   -27405   -27400 
  -27417   -27415   -27367   -27265   -27110   -27020   -27094   -27288 
  -27619   -28084   -28439   -28522   -28495   -28499   -28432   -28109 
  -27545   -26975   -26569   -26319   -26204   -26219   -26271   -26237 
  -26138   -26048   -25937   -25837   -25874   -26021   -26164   -26392 
  -26900   -27666   -28404   -28830   -28873   -28620   -28231   -27851 
  -27496   -27167   -26923   -26743   -26616   -26565   -26430   -26052 
  -25533   -25037   -24686   -24709   -25292   -26335   -27567   -28729 
  -29578   -30007   -30110   -29920   -29475   -29038   -28790   -28588 
  -28264   -27843   -27419   -26998   -26539   -26109   -25759   -25401 
  -25039   -24880   -24999   -25282   -25705   -26265   -26754   -26981 
  -27035   -27071   -27101   -27117   -27216   -27472   -27757   -27804 
  -27499   -26973   -26406   -25913   -25614   -25604   -25917   -26546 
  -27379   -28256   -29033   -29531   -29698   -29628   -29330   -28833 
  -28321   -27896   -27496   -27122   -26852   -26649   -26372   -26014 
  -25682   -25402   -25196   -25253   -25671   -26264   -26890   -27595 
  -28282   -28709   -28833   -28757   -28491   -28040   -27553   -27198 
  -26997   -26887   -26815   -26716   -26512   -26176   -25790   -25515 
  -25474   -25713   -26196   -26823   -27426   -27832   -27946   -27789 
  -27445   -27005   -26574   -26287   -26257   -26487   -26842   -27202 
  -27506   -27706   -27807   -27831   -27758   -27637   -27569   -27584 
  -27654   -27760   -27905   -28039   -28043   -27843   -27449   -26975 
  -26590   -26380   -26315   -26360   -26532   -26836   -27180   -27433 
  -27496   -27319   -26990   -26658   -26415   -26299   -26308   -26430 
  -26676   -26979   -27229   -27436   -27581   -27554   -27395   -27237 
  -27095   -27020   -27091   -27286   -27546   -27800   -27903   -27801 
  -27576   -27282   -26947   -26653   -26484   -26461   -26534   -26642 
  -26763   -26912   -27105   -27330   -27535   -27672   -27720   -27681 
  -27534   -27259   -26931   -26688   -26592   -26659   -26870   -27124 
  -27395   -27693   -27932   -28036   -28021   -27843   -27421   -26811 
  -26163   -25583   -25174   -25038   -25218   -25698   -26377   -27076 
  -27703   -28181   -28335   -28151   -27824   -27480   -27175   -27001 
  -27002   -27141   -27345   -27526   -27633   -27670   -27604   -27423 
  -27216   -27048   -26913   -26816   -26778   -26839   -26968   -27078 
  -27160   -27217   -27198   -27125   -27074   -27058   -27089   -27240 
  -27526   -27822   -28053   -28236   -28306   -28247   -28175   -28127 
  -28023   -27838   -27558   -27148   -26613   -26038   -25500   -25045 
  -24748   -24703   -24946   -25394   -25914   -26445   -26939   -27256 
  -27302   -27153   -26962   -26835   -26828   -26960   -27234   -27618 
  -28038   -28421   -28738   -28919   -28873   -28626   -28310   -28001 
  -27653   -27257   -26947   -26765   -26592   -26438   -26404   -26435 
  -26450   -26496   -26635   -26831   -26977   -26979   -26825   -26616 
  -26468   -26372   -26293   -26265   -26342   -26562   -26916   -27336 
  -27727   -28038   -28259   -28368   -28340   -28201   -28000   -27754 
  -27479   -27245   -27091   -26986   -26920   -26906   -26905   -26883 
  -26902   -27032   -27244   -27465   -27629   -27683   -27627   -27508 
  -27387   -27288   -27217   -27148   -27051   -26917   -26755   -26554 
  -26311   -26052   -25832   -25736   -25803   -25992   -26265   -26588 
  -26881   -27067   -27126   -27124   -27162   -27243   -27303   -27367 
  -27456   -27519   -27538   -27542   -27526   -27496   -27495   -27538 
  -27612   -27710   -27828   -27977   -28132   -28243   -28270   -28194 
  -28005   -27714   -27390   -27086   -26766   -26426   -26158   -26003 
  -25902   -25810   -25720   -25598   -25436   -25308   -25334   -25546 
  -25874   -26272   -26736   -27252   -27781   -28277   -28699   -29039 
  -29299   -29455   -29485   -29384   -29150   -28782   -28331   -27895 
  -27486   -27059   -26640   -26287   -26006   -25802   -25712   -25731 
  -25832   -25987   -26185   -26415   -26638   -26800   -26873   -26856 
  -26781   -26689   -26663   -26771   -26962   -27153   -27340   -27526 
  -27673   -27749   -27731   -27625   -27496   -27394   -27292   -27186 
  -27093   -27022   -26970   -26933   -26913   -26890   -26835   -26771 
  -26762   -26820   -26920   -27078   -27286   -27496   -27691   -27869 
  -27980   -27985   -27919   -27811   -27664   -27488   -27297   -27093 
  -26897   -26738   -26632   -26592   -26593   -26578   -26516   -26443 
  -26412   -26457   -26565   -26711   -26867   -27001   -27103   -27207 
  -27326   -27422   -27446   -27384   -27294   -27251   -27263   -27290 
  -27292   -27270   -27249   -27243   -27218   -27171   -27140   -27170 
  -27276   -27441   -27584   -27634   -27576   -27429   -27202   -26947 
  -26763   -26693   -26707   -26786   -26914   -27079   -27284   -27496 
  -27661   -27761   -27772   -27700   -27595   -27486   -27342   -27143 
  -26901   -26640   -26380   -26158   -26034   -26038   -26144   -26302 
  -26500   -26724   -26910   -27021   -27087   -27124   -27110   -27062 
  -27001   -26917   -26831   -26819   -26910   -27047   -27167   -27264 
  -27372   -27508   -27650   -27780   -27896   -27997   -28080   -28121 
  -28112   -28057   -27950   -27788   -27595   -27405   -27226   -27052 
  -26882   -26715   -26568   -26460   -26403   -26419   -26507   -26626 
  -26761   -26908   -27000   -27012   -27002   -27012   -27021   -26987 
  -26910   -26846   -26813   -26808   -26855   -26950   -27054   -27140 
  -27201   -27278   -27406   -27531   -27576   -27507   -27348   -27164 
  -27004   -26886   -26825   -26819   -26844   -26900   -27000   -27130 
  -27251   -27337   -27384   -27390   -27367   -27317   -27233   -27147 
  -27113   -27148   -27245   -27405   -27581   -27710   -27784   -27805 
  -27719   -27500   -27197   -26860   -26536   -26258   -26053   -25948 
  -25963   -26090   -26283   -26504   -26738   -26940   -27082   -27202 
  -27326   -27440   -27552   -27665   -27750   -27788   -27783   -27724 
  -27610   -27469   -27346   -27253   -27178   -27114   -27051   -26995 
  -26983   -27013   -27024   -26991   -26943   -26898   -26882   -26940 
  -27060   -27183   -27283   -27342   -27334   -27263   -27149   -27005 
  -26869   -26789   -26765   -26779   -26825   -26879   -26951   -27064 
  -27187   -27295   -27410   -27533   -27619   -27648   -27650   -27642 
