Origin Time       2024/03/16 06:34:00
Lat.              32.907
Long.             131.047
Depth. (km)       7
Mag.              3.3
Station Code      KMMH03
Station Lat.      32.9984
Station Long.     130.8301
Station Height(m) -22
Record Time       2024/03/16 06:34:37
Sampling Freq(Hz) 100Hz
Duration Time(s)  120
Dir.              3
Scale Factor      2942(gal)/8224139
Max. Acc. (gal)   0.208
Last Correction   2024/03/16 06:34:37
Memo.             
[...]
  -32582   -32584   -32586   -32584   -32584   -32584   -32583   -32583 
  -32583   -32582   -32583   -32584   -32584   -32584   -32587   -32589 
  -32583   -32580   -32586   -32589   -32584   -32583   -32584   -32584 
  -32586   -32586   -32584   -32584   -32583   -32583   -32584   -32584 
  -32586   -32586   -32583   -32583   -32582   -32582   -32584   -32584 
  -32584   -32586   -32586   -32584   -32583   -32582   -32583   -32584 
  -32584   -32583   -32584   -32584   -32583   -32586   -32586   -32583 
  -32582   -32583   -32584   -32586   -32583   -32580   -32582   -32583 
  -32583   -32586   -32587   -32584   -32584   -32584   -32582   -32582 
  -32583   -32582   -32582   -32586   -32587   -32589   -32586   -32584 
  -32584   -32584   -32583   -32583   -32583   -32583   -32583   -32583 
  -32583   -32580   -32580   -32579   -32580   -32584   -32584   -32582 
  -32584   -32586   -32583   -32583   -32584   -32582   -32583   -32584 
  -32583   -32583   -32583   -32580   -32583   -32584   -32583   -32582 
  -32583   -32584   -32586   -32586   -32584   -32584   -32584   -32583 
  -32582   -32584   -32587   -32584   -32582   -32583   -32584   -32583 
  -32583   -32584   -32586   -32587   -32586   -32582   -32583   -32587 
  -32587   -32584   -32584   -32583   -32583   -32580   -32582   -32586 
  -32586   -32586   -32584   -32582   -32582   -32583   -32583   -32586 
  -32584   -32582   -32584   -32586   -32584   -32587   -32587   -32582 
  -32580   -32582   -32584   -32586   -32587   -32586   -32584   -32584 
  -32584   -32584   -32584   -32582   -32580   -32584   -32589   -32587 
  -32583   -32582   -32580   -32582   -32584   -32586   -32586   -32586 
  -32586   -32584   -32583   -32584   -32584   -32584   -32583   -32582 
  -32582   -32586   -32586   -32582   -32582   -32584   -32584   -32584 
  -32584   -32583   -32583   -32583   -32583   -32584   -32580   -32579 
  -32582   -32583   -32583   -32583   -32583   -32583   -32584   -32584 
  -32584   -32584   -32586   -32586   -32584   -32583   -32583   -32586 
  -32584   -32582   -32583   -32586   -32586   -32584   -32586   -32586 
  -32583   -32580   -32582   -32584   -32587   -32587   -32586   -32584 
  -32586   -32586   -32582   -32580   -32582   -32583   -32584   -32584 
  -32584   -32586   -32584   -32582   -32582   -32583   -32584   -32586 
  -32587   -32587   -32584   -32586   -32586   -32583   -32583   -32584 
  -32582   -32583   -32587   -32586   -32582   -32580   -32583   -32583 
  -32583   -32583   -32584   -32586   -32586   -32583   -32583   -32586 
  -32583   -32582   -32583   -32584   -32583   -32584   -32586   -32584 
  -32582   -32583   -32583   -32586   -32586   -32584   -32583   -32583 
  -32583   -32583   -32584   -32587   -32589   -32586   -32587   -32586 
  -32583   -32584   -32584   -32583   -32583   -32583   -32582   -32584 
  -32586   -32586   -32586   -32583   -32582   -32584   -32586   -32587 
  -32587   -32587   -32586   -32584   -32583   -32582   -32583   -32586 
  -32584   -32583   -32584   -32587   -32587   -32584   -32582   -32582 
  -32584   -32586   -32584   -32584   -32589   -32590   -32586   -32580 
  -32582   -32582   -32579   -32584   -32590   -32590   -32587   -32583 
  -32580   -32580   -32582   -32584   -32586   -32584   -32583   -32583 
  -32586   -32589   -32586   -32580   -32579   -32582   -32582   -32583 
  -32586   -32584   -32584   -32586   -32584   -32583   -32582   -32582 
  -32580   -32582   -32587   -32586   -32580   -32580   -32580   -32584 
  -32587   -32584   -32583   -32583   -32582   -32584   -32587   -32584 
  -32582   -32584   -32586   -32586   -32587   -32586   -32583   -32583 
  -32583   -32586   -32586   -32586   -32582   -32580   -32582   -32582 
  -32584   -32590   -32589   -32583   -32582   -32583   -32586   -32587 
  -32584   -32583   -32583   -32583   -32586   -32584   -32584   -32587 
  -32586   -32582   -32583   -32584   -32586   -32587   -32586   -32583 
  -32584   -32586   -32583   -32578   -32580   -32584   -32586   -32587 
  -32586   -32582   -32582   -32583   -32584   -32584   -32586   -32584 
  -32583   -32582   -32583   -32584   -32584   -32582   -32583   -32587 
  -32586   -32586   -32584   -32582   -32578   -32580   -32586   -32586 
  -32583   -32586   -32589   -32589   -32586   -32582   -32579   -32580 
  -32582   -32584   -32587   -32590   -32587   -32580   -32579   -32580 
  -32578   -32580   -32584   -32589   -32590   -32589   -32586   -32584 
  -32582   -32580   -32580   -32580   -32582   -32583   -32587   -32590 
  -32589   -32584   -32580   -32576   -32579   -32586   -32586   -32586 
  -32586   -32586   -32587   -32584   -32579   -32579   -32583   -32586 
  -32587   -32586   -32587   -32586   -32582   -32584   -32587   -32586 
  -32586   -32586   -32584   -32584   -32586   -32584   -32583   -32584 
  -32584   -32582   -32583   -32586   -32587   -32586   -32587   -32589 
  -32586   -32586   -32589   -32584   -32582   -32586   -32583   -32580 
  -32584   -32584   -32583   -32586   -32584   -32583   -32582   -32582 
  -32583   -32583   -32583   -32583   -32584   -32583   -32583   -32584 
  -32586   -32583   -32583   -32586   -32584   -32584   -32589   -32587 
  -32583   -32586   -32589   -32586   -32584   -32587   -32589   -32587 
  -32584   -32583   -32583   -32586   -32584   -32586   -32587   -32587 
  -32587   -32586   -32584   -32584   -32586   -32584   -32586   -32587 
  -32587   -32586   -32586   -32587   -32586   -32583   -32584   -32584 
  -32583   -32589   -32590   -32584   -32584   -32589   -32584   -32582 
  -32582   -32582   -32583   -32584   -32584   -32586   -32586   -32583 
  -32583   -32587   -32587   -32584   -32586   -32586   -32583   -32584 
  -32586   -32583   -32584   -32586   -32586   -32589   -32589   -32583 
  -32586   -32587   -32584   -32584   -32584   -32584   -32584   -32584 
  -32584   -32584   -32584   -32584   -32587   -32587   -32582   -32580 
  -32583   -32584   -32584   -32583   -32582   -32583   -32584   -32583 
  -32583   -32586   -32586   -32584   -32580   -32579   -32582   -32586 
  -32586   -32584   -32584   -32587   -32586   -32583   -32583   -32583 
  -32584   -32587   -32586   -32583   -32586   -32586   -32584   -32586 
  -32587   -32586   -32586   -32584   -32584   -32587   -32587   -32583 
  -32582   -32582   -32582   -32586   -32591   -32589   -32583   -32582 
  -32584   -32584   -32584   -32584   -32583   -32583   -32583   -32584 
  -32586   -32583   -32583   -32586   -32584   -32584   -32583   -32583 
  -32583   -32583   -32584   -32583   -32583   -32586   -32586   -32587 
  -32586   -32582   -32584   -32584   -32579   -32582   -32587   -32586 
  -32583   -32584   -32583   -32584   -32586   -32584   -32582   -32583 
  -32586   -32586   -32584   -32584   -32587   -32587   -32586   -32586 
  -32584   -32583   -32584   -32582   -32582   -32584   -32584   -32583 
  -32584   -32584   -32586   -32586   -32583   -32582   -32582   -32583 
  -32586   -32586   -32584   -32586   -32584   -32582   -32583   -32586 
  -32587   -32583   -32580   -32580   -32580   -32583   -32589   -32587 
  -32584   -32580   -32580   -32583   -32584   -32587   -32589   -32586 
  -32584   -32582   -32582   -32584   -32587   -32586   -32586   -32584 
  -32583   -32583   -32583   -32584   -32584   -32583   -32583   -32582 
  -32580   -32583   -32584   -32582   -32580   -32584   -32584   -32584 
  -32584   -32583   -32583   -32583   -32583   -32586   -32586   -32584 
  -32586   -32586   -32583   -32583   -32586   -32584   -32584   -32584 
  -32583   -32583   -32583   -32584   -32586   -32586   -32584   -32582 
  -32584   -32586   -32583   -32584   -32587   -32586   -32584   -32583 
  -32583   -32584   -32583   -32582   -32582   -32583   -32583   -32580 
  -32582   -32586   -32584   -32584   -32584   -32582   -32582   -32583 
  -32582   -32583   -32583   -32580   -32582   -32587   -32587   -32583 
  -32582   -32582   -32582   -32583   -32583   -32583   -32589   -32587 
  -32582   -32583   -32586   -32586   -32584   -32583   -32582   -32583 
  -32583   -32584   -32587   -32587   -32584   -32583   -32584   -32584 
  -32584   -32584   -32583   -32580   -32582   -32583   -32584   -32583 
  -32584   -32586   -32583   -32580   -32583   -32583   -32583   -32583 
  -32583   -32582   -32582   -32582   -32582   -32583   -32582   -32580 
  -32580   -32582   -32586   -32587   -32583   -32582   -32584   -32582 
  -32580   -32584   -32583   -32582   -32584   -32586   -32586   -32586 
  -32583   -32583   -32583   -32584   -32586   -32584   -32582   -32584 
  -32586   -32583   -32583   -32583   -32582   -32583   -32583   -32584 
  -32586   -32586   -32584   -32584   -32584   -32583   -32583   -32583 
  -32584   -32584   -32583   -32583   -32583   -32582   -32582   -32582 
  -32583   -32586   -32583   -32580   -32584   -32584   -32583   -32584 
  -32583   -32582   -32583   -32582   -32584   -32586   -32583   -32582 
  -32582   -32583   -32583   -32580   -32583   -32586   -32584   -32584 
  -32584   -32583   -32583   -32583   -32580   -32580   -32582   -32583 
  -32583   -32580   -32579   -32582   -32584   -32586   -32584   -32583 
  -32582   -32582   -32583   -32583   -32583   -32580   -32580   -32583 
  -32584   -32583   -32583   -32582   -32579   -32579   -32582   -32583 
  -32582   -32582   -32583   -32584   -32582   -32580   -32584   -32587 
  -32589   -32586   -32582   -32582   -32584   -32584   -32583   -32584 
  -32586   -32583   -32583   -32586   -32583   -32580   -32582   -32582 
  -32582   -32583   -32582   -32583   -32584   -32583   -32582   -32583 
  -32583   -32580   -32582   -32584   -32583   -32583   -32586   -32584 
  -32582   -32580   -32582   -32583   -32584   -32584   -32584   -32583 
  -32583   -32584   -32586   -32583   -32582   -32584   -32584   -32582 
  -32583   -32583   -32580   -32583   -32586   -32583   -32583   -32583 
  -32584   -32584   -32582   -32582   -32582   -32579   -32583   -32586 
  -32583   -32582   -32583   -32582   -32582   -32584   -32586   -32584 
  -32582   -32582   -32584   -32584   -32583   -32582   -32582   -32584 
  -32586   -32583   -32582   -32583   -32583   -32582   -32583   -32582 
  -32583   -32587   -32584   -32580   -32583   -32584   -32584   -32583 
  -32582   -32584   -32589   -32587   -32586   -32587   -32584   -32582 
  -32583   -32586   -32584   -32584   -32586   -32584   -32582   -32583 
  -32586   -32584   -32583   -32583   -32583   -32583   -32583   -32584 
  -32583   -32583   -32586   -32586   -32584   -32587   -32583   -32580 
  -32584   -32587   -32586   -32582   -32582   -32583   -32583   -32582 
  -32584   -32586   -32584   -32582   -32582   -32583   -32584   -32586 
  -32584   -32582   -32582   -32582   -32583   -32586   -32584   -32583 
  -32586   -32584   -32582   -32584   -32586   -32583   -32583   -32583 
  -32583   -32586   -32584   -32583   -32584   -32584   -32584   -32583 
  -32583   -32583   -32583   -32582   -32583   -32584   -32584   -32584 
  -32584   -32582   -32582   -32583   -32584   -32583   -32582   -32583 
  -32586   -32586   -32583   -32579   -32580   -32584   -32587   -32586 
  -32583   -32583   -32586   -32586   -32584   -32586   -32586   -32583 
  -32582   -32582   -32583   -32584   -32586   -32587   -32584   -32584 
  -32584   -32584   -32583   -32582   -32582   -32586   -32586   -32584 
  -32586   -32584   -32584   -32584   -32582   -32584   -32586   -32584 
  -32583   -32583   -32582   -32584   -32587   -32584   -32582   -32583 
  -32584   -32584   -32583   -32583   -32584   -32584   -32584   -32584 
  -32583   -32584   -32584   -32583   -32583   -32583   -32584   -32586 
  -32586   -32586   -32584   -32584   -32584   -32583   -32583   -32583 
  -32583   -32586   -32587   -32583   -32582   -32584   -32583   -32583 
  -32584   -32584   -32583   -32583   -32586   -32586   -32584   -32586 
  -32584   -32580   -32583   -32587   -32583   -32583   -32586   -32587 
  -32584   -32582   -32583   -32583   -32584   -32586   -32584   -32586 
  -32584   -32583   -32582   -32584   -32584   -32583   -32584   -32586 
  -32583   -32583   -32587   -32586   -32583   -32584   -32584   -32584 
  -32587   -32582   -32579   -32589   -32589   -32582   -32583   -32587 
  -32583   -32583   -32586   -32584   -32583   -32587   -32589   -32586 
  -32583   -32582   -32583   -32582   -32582   -32583   -32582   -32582 
  -32584   -32584   -32583   -32584   -32583   -32583   -32584   -32586 
  -32586   -32586   -32584   -32583   -32586   -32586   -32582   -32582 
  -32583   -32584   -32583   -32582   -32583   -32583   -32582   -32583 
  -32584   -32583   -32582   -32582   -32580   -32582   -32584   -32586 
  -32583   -32582   -32584   -32586   -32583   -32582   -32584   -32583 
  -32580   -32583   -32584   -32583   -32583   -32583   -32583   -32583 
  -32580   -32582   -32586   -32583   -32583   -32586   -32584   -32584 
  -32587   -32583   -32580   -32582   -32583   -32586   -32589   -32586 
  -32584   -32589   -32586   -32582   -32583   -32583   -32583   -32586 
  -32587   -32584   -32586   -32586   -32583   -32583   -32586   -32586 
  -32584   -32582   -32584   -32587   -32586   -32586   -32589   -32584 
  -32583   -32589   -32586   -32582   -32583   -32583   -32580   -32582 
  -32582   -32580   -32582   -32582   -32579   -32582   -32583   -32580 
  -32579   -32582   -32584   -32584   -32582   -32582   -32587   -32584 
  -32580   -32584   -32587   -32582   -32579   -32582   -32584   -32586 
  -32586   -32587   -32589   -32598   -32616   -32634   -32659   -32694 
  -32717   -32744   -32813   -32904   -32923   -32823   -32663   -32501 
  -32359   -32235   -32094   -32003   -32104   -32346   -32589   -32800 
  -32894   -32814   -32674   -32545   -32448   -32387   -32324   -32309 
  -32414   -32497   -32483   -32544   -32622   -32570   -32583   -32648 
  -32597   -32598   -32657   -32602   -32568   -32651   -32702   -32680 
  -32722   -32815   -32791   -32724   -32756   -32773   -32729   -32733 
  -32701   -32537   -32425   -32424   -32424   -32452   -32495   -32524 
  -32567   -32545   -32497   -32551   -32621   -32593   -32582   -32638 
  -32626   -32597   -32655   -32678   -32590   -32513   -32516   -32516 
  -32499   -32510   -32513   -32497   -32520   -32603   -32657   -32618 
  -32593   -32653   -32699   -32611   -32479   -32489   -32549   -32539 
  -32548   -32586   -32560   -32517   -32598   -32711   -32647   -32570 
  -32679   -32709   -32563   -32509   -32524   -32517   -32551   -32535 
  -32494   -32556   -32626   -32699   -32795   -32730   -32603   -32640 
  -32675   -32593   -32583   -32641   -32574   -32493   -32575   -32647 
  -32586   -32532   -32576   -32649   -32665   -32680   -32772   -32817 
  -32751   -32665   -32553   -32435   -32363   -32312   -32319   -32354 
  -32305   -32258   -32337   -32463   -32545   -32632   -32718   -32705 
  -32645   -32697   -32759   -32671   -32637   -32757   -32772   -32670 
  -32607   -32553   -32495   -32474   -32483   -32509   -32553   -32632 
  -32674   -32601   -32525   -32582   -32668   -32649   -32607   -32621 
  -32603   -32556   -32591   -32659   -32643   -32601   -32584   -32545 
  -32506   -32443   -32335   -32319   -32410   -32474   -32518   -32576 
  -32620   -32687   -32738   -32710   -32668   -32661   -32651   -32586 
  -32508   -32503   -32560   -32632   -32652   -32540   -32445   -32570 
  -32706   -32659   -32621   -32688   -32748   -32765   -32706   -32620 
  -32613   -32555   -32418   -32416   -32503   -32514   -32526   -32611 
  -32686   -32690   -32614   -32556   -32618   -32671   -32668   -32667 
  -32607   -32547   -32528   -32474   -32406   -32422   -32521   -32532 
  -32440   -32460   -32572   -32640   -32675   -32691   -32701   -32678 
  -32647   -32648   -32617   -32562   -32557   -32613   -32659   -32607 
  -32539   -32536   -32543   -32579   -32618   -32599   -32624   -32652 
  -32582   -32547   -32555   -32517   -32525   -32571   -32559   -32509 
  -32475   -32543   -32638   -32586   -32525   -32594   -32624   -32598 
  -32620   -32634   -32617   -32589   -32536   -32530   -32567   -32574 
  -32602   -32629   -32601   -32617   -32649   -32640   -32653   -32630 
  -32563   -32556   -32552   -32481   -32427   -32464   -32535   -32553 
  -32543   -32553   -32595   -32667   -32717   -32722   -32730   -32721 
  -32680   -32665   -32668   -32661   -32686   -32715   -32688   -32647 
  -32641   -32653   -32597   -32475   -32475   -32576   -32566   -32536 
  -32594   -32562   -32478   -32530   -32625   -32571   -32452   -32520 
  -32632   -32513   -32400   -32476   -32567   -32617   -32632   -32633 
  -32644   -32599   -32548   -32525   -32464   -32395   -32355   -32378 
  -32454   -32472   -32416   -32431   -32636   -32778   -32606   -32424 
  -32514   -32705   -32811   -32856   -32871   -32767   -32582   -32475 
  -32449   -32525   -32703   -32807   -32814   -32757   -32633   -32584 
  -32571   -32514   -32553   -32649   -32678   -32630   -32516   -32491 
  -32594   -32582   -32448   -32433   -32557   -32626   -32584   -32597 
  -32626   -32541   -32529   -32630   -32597   -32530   -32584   -32567 
  -32441   -32428   -32512   -32514   -32508   -32564   -32564   -32576 
  -32653   -32624   -32541   -32551   -32589   -32537   -32447   -32493 
  -32582   -32543   -32516   -32552   -32553   -32578   -32672   -32719 
  -32634   -32579   -32711   -32806   -32709   -32611   -32559   -32502 
  -32516   -32574   -32587   -32580   -32611   -32680   -32725   -32680 
  -32609   -32610   -32630   -32601   -32563   -32521   -32471   -32460 
  -32505   -32595   -32636   -32587   -32598   -32636   -32605   -32667 
  -32795   -32771   -32687   -32721   -32734   -32559   -32367   -32325 
  -32297   -32266   -32355   -32441   -32404   -32404   -32555   -32638 
  -32551   -32590   -32769   -32780   -32683   -32632   -32567   -32494 
  -32463   -32506   -32597   -32633   -32649   -32721   -32741   -32651 
  -32599   -32645   -32643   -32589   -32620   -32652   -32599   -32613 
  -32682   -32624   -32553   -32661   -32748   -32665   -32595   -32549 
  -32487   -32518   -32551   -32516   -32556   -32630   -32620   -32564 
  -32529   -32514   -32478   -32436   -32468   -32529   -32517   -32505 
  -32603   -32732   -32767   -32730   -32671   -32586   -32537   -32578 
  -32641   -32636   -32595   -32613   -32634   -32566   -32497   -32497 
  -32505   -32513   -32543   -32548   -32514   -32516   -32557   -32539 
  -32497   -32564   -32652   -32665   -32670   -32630   -32532   -32524 
  -32572   -32557   -32552   -32574   -32574   -32622   -32722   -32760 
  -32736   -32738   -32734   -32674   -32610   -32570   -32552   -32575 
  -32599   -32597   -32614   -32665   -32663   -32595   -32583   -32641 
  -32683   -32684   -32649   -32593   -32533   -32481   -32494   -32525 
  -32455   -32373   -32379   -32431   -32518   -32593   -32602   -32640 
  -32713   -32710   -32632   -32582   -32583   -32521   -32420   -32468 
  -32563   -32548   -32530   -32526   -32493   -32508   -32555   -32557 
  -32526   -32516   -32586   -32671   -32656   -32638   -32682   -32679 
  -32659   -32664   -32637   -32602   -32599   -32575   -32506   -32482 
  -32530   -32549   -32539   -32579   -32621   -32607   -32567   -32559 
  -32618   -32663   -32647   -32659   -32719   -32746   -32728   -32737 
  -32733   -32640   -32591   -32624   -32607   -32555   -32522   -32508 
  -32529   -32545   -32502   -32458   -32458   -32491   -32537   -32514 
  -32439   -32422   -32447   -32462   -32491   -32547   -32618   -32663 
