Origin Time       2024/03/16 06:34:00
Lat.              32.907
Long.             131.047
Depth. (km)       7
Mag.              3.3
Station Code      KMMH03
Station Lat.      32.9984
Station Long.     130.8301
Station Height(m) 178
Record Time       2024/03/16 06:34:37
Sampling Freq(Hz) 100Hz
Duration Time(s)  120
Dir.              5
Scale Factor      7845(gal)/8223790
Max. Acc. (gal)   1.645
Last Correction   2024/03/16 06:34:37
Memo.             
[...]
    3033     3032     3064     3118     3153     3154     3115     3045 
    3009     3060     3138     3167     3126     3069     3056     3069 
    3084     3103     3105     3083     3076     3088     3117     3141 
    3119     3072     3061     3068     3059     3079     3125     3136 
    3113     3091     3099     3107     3068     3038     3065     3092 
    3099     3133     3165     3130     3048     2999     3029     3111 
    3161     3148     3111     3080     3065     3051     3044     3090 
    3141     3123     3091     3095     3087     3071     3099     3132 
    3099     3051     3059     3102     3117     3094     3094     3110 
    3084     3055     3082     3115     3110     3103     3106     3092 
    3082     3072     3063     3072     3095     3126     3136     3105 
    3088     3090     3069     3056     3072     3103     3122     3121 
    3119     3100     3056     3041     3059     3079     3114     3156 
    3157     3100     3041     3036     3072     3105     3114     3100 
    3071     3063     3106     3146     3140     3113     3073     3021 
    3006     3063     3134     3167     3161     3114     3052     3019 
    3040     3110     3152     3122     3083     3083     3087     3071 
    3067     3099     3123     3117     3092     3071     3078     3099 
    3095     3079     3090     3113     3107     3083     3076     3095 
    3111     3095     3078     3090     3106     3094     3079     3091 
    3106     3099     3084     3075     3083     3096     3100     3105 
    3100     3090     3086     3092     3098     3098     3099     3094 
    3084     3076     3073     3080     3094     3107     3114     3099 
    3084     3094     3103     3088     3079     3092     3092     3069 
    3075     3118     3133     3102     3079     3086     3092     3080 
    3071     3092     3113     3099     3079     3083     3100     3121 
    3127     3098     3063     3055     3057     3075     3117     3140 
    3127     3103     3079     3065     3061     3061     3095     3142 
    3132     3086     3075     3087     3090     3092     3102     3109 
    3103     3079     3056     3069     3095     3103     3114     3121 
    3110     3094     3071     3059     3076     3110     3127     3115 
    3088     3059     3053     3087     3119     3127     3119     3091 
    3059     3053     3078     3119     3146     3130     3092     3068 
    3053     3053     3091     3134     3136     3100     3065     3060 
    3082     3111     3133     3127     3096     3067     3053     3060 
    3092     3134     3145     3117     3067     3041     3063     3102 
    3118     3111     3096     3087     3084     3082     3091     3105 
    3103     3088     3079     3087     3106     3123     3117     3079 
    3040     3033     3065     3123     3165     3156     3106     3056 
    3037     3056     3098     3141     3156     3119     3061     3030 
    3037     3057     3092     3140     3156     3127     3086     3052 
    3042     3075     3122     3141     3119     3083     3051     3033 
    3048     3110     3184     3188     3111     3034     3014     3059 
    3133     3167     3127     3065     3032     3030     3063     3118 
    3154     3140     3095     3052     3040     3064     3100     3113 
    3102     3100     3121     3138     3114     3053     3032     3076 
    3133     3160     3146     3099     3046     3017     3033     3091 
    3138     3133     3105     3084     3059     3040     3067     3118 
    3142     3137     3122     3106     3086     3064     3057     3086 
    3133     3154     3123     3065     3025     3024     3061     3118 
    3153     3137     3096     3056     3032     3045     3098     3137 
    3130     3100     3083     3086     3096     3109     3123     3138 
    3129     3092     3056     3042     3055     3078     3102     3127 
    3127     3094     3049     3032     3053     3091     3123     3142 
    3134     3095     3064     3068     3091     3118     3134     3114 
    3080     3069     3079     3091     3098     3102     3105     3103 
    3087     3061     3055     3073     3091     3086     3078     3098 
    3129     3140     3119     3076     3059     3075     3095     3115 
    3133     3119     3083     3056     3057     3091     3132     3140 
    3103     3034     2992     3045     3142     3173     3140     3098 
    3042     3002     3045     3145     3199     3164     3076     3009 
    3017     3079     3140     3165     3142     3091     3057     3060 
    3075     3071     3055     3071     3117     3134     3110     3082 
    3068     3075     3105     3138     3154     3137     3071     3005 
    3021     3091     3134     3141     3129     3098     3061     3042 
    3055     3087     3110     3099     3083     3096     3119     3113 
    3090     3090     3098     3105     3127     3122     3061     3017 
    3041     3099     3140     3149     3127     3073     3028     3037 
    3083     3119     3136     3126     3087     3048     3053     3088 
    3119     3146     3150     3115     3072     3052     3038     3042 
    3094     3152     3145     3083     3048     3076     3113     3127 
    3132     3105     3046     3028     3057     3094     3134     3152 
    3117     3080     3079     3084     3086     3088     3075     3069 
    3099     3136     3130     3094     3061     3048     3065     3109 
    3138     3125     3079     3042     3056     3100     3134     3140 
    3119     3079     3041     3046     3088     3125     3134     3115 
    3090     3083     3084     3082     3078     3079     3094     3102 
    3092     3090     3098     3091     3083     3098     3126     3123 
    3086     3056     3061     3079     3095     3103     3115     3133 
    3119     3075     3055     3073     3086     3087     3111     3132 
    3099     3052     3045     3076     3121     3141     3119     3091 
    3071     3057     3075     3113     3133     3123     3088     3045 
    3041     3079     3121     3141     3137     3102     3061     3044 
    3056     3100     3136     3102     3072     3099     3109     3092 
    3095     3107     3099     3067     3051     3087     3137     3133 
    3100     3078     3053     3052     3094     3125     3137     3129 
    3075     3036     3064     3110     3132     3122     3090     3059 
    3060     3087     3117     3129     3105     3063     3055     3092 
    3119     3111     3105     3102     3086     3075     3090     3102 
    3088     3079     3088     3099     3105     3105     3096     3083 
    3069     3073     3084     3092     3123     3154     3130     3059 
    3010     3046     3114     3133     3109     3078     3076     3105 
    3114     3107     3105     3072     3049     3086     3114     3098 
    3091     3102     3098     3076     3072     3111     3129     3083 
    3053     3084     3118     3118     3082     3053     3083     3115 
    3109     3106     3103     3090     3082     3063     3053     3096 
    3134     3110     3065     3064     3100     3121     3114     3103 
    3109     3107     3061     3025     3079     3156     3148     3076 
    3040     3049     3060     3095     3163     3190     3142     3041 
    2965     3007     3113     3172     3169     3109     3015     2990 
    3091     3204     3202     3127     3067     3005     2978     3037 
    3132     3199     3191     3080     2997     3048     3115     3113 
    3103     3110     3100     3088     3080     3072     3078     3106 
    3118     3107     3109     3102     3059     3034     3055     3106 
    3169     3168     3092     3045     3052     3060     3075     3111 
    3130     3105     3076     3059     3076     3138     3159     3100 
    3049     3032     3057     3129     3160     3111     3073     3082 
    3082     3065     3084     3123     3123     3094     3060     3057 
    3109     3126     3080     3073     3098     3088     3088     3115 
    3121     3100     3072     3045     3044     3082     3132     3156 
    3146     3115     3068     3033     3028     3042     3095     3154 
    3146     3110     3100     3084     3064     3082     3098     3065 
    3053     3083     3098     3119     3140     3127     3138     3141 
    3075     3003     2987     3007     3080     3198     3229     3163 
    3092     3019     2991     3052     3117     3141     3142     3114 
    3068     3061     3095     3105     3105     3110     3087     3052 
    3041     3082     3127     3133     3137     3118     3057     3032 
    3069     3115     3137     3129     3088     3055     3067     3080 
    3094     3133     3103     3029     3067     3150     3145     3119 
    3098     3049     3025     3041     3083     3164     3202     3119 
    3015     3011     3083     3142     3157     3107     3048     3042 
    3052     3071     3133     3164     3132     3087     3048     3060 
    3122     3129     3073     3053     3082     3096     3068     3063 
    3136     3177     3094     3032     3102     3145     3063     3003 
    3063     3133     3140     3115     3109     3121     3079     3002 
    3029     3149     3188     3095     3017     3065     3136     3121 
    3079     3091     3105     3052     3025     3107     3195     3163 
    3053     3003     3038     3086     3132     3154     3141     3126 
    3075     2992     3002     3105     3150     3127     3117     3107 
    3114     3127     3064     2976     2999     3105     3163     3160 
    3165     3164     3076     2967     2991     3095     3126     3126 
    3141     3111     3078     3086     3084     3071     3078     3100 
    3138     3179     3177     3148     3165     3213     3202     3136 
    3115     3146     3133     3067     2941     2751     2651     2781 
    3049     3273     3397     3483     3546     3615     3639     3411 
    2901     2396     2176     2259     2452     2632     2833     3121 
    3426     3593     3524     3217     2883     2755     2760     2901 
    3267     3622     3823     3916     3709     3161     2639     2386 
    2301     2385     2755     3172     3497     3850     3973     3842 
    3767     3438     2713     2168     1935     1907     2369     3172 
    3861     4446     4731     4328     3595     2961     2330     1846 
    1809     2070     2455     2964     3422     3638     3704     3727 
    3620     3362     3161     3098     2920     2459     2137     2412 
    2975     3325     3397     3211     2816     2496     2681     3287 
    3581     3438     3310     3237     3198     3296     3375     3208 
    2943     2843     2812     2794     2986     3334     3534     3404 
    3123     3087     3289     3316     3130     2999     2880     2741 
    2957     3546     3785     3473     3244     3244     3146     2982 
    2903     2924     3078     3213     3123     3078     3298     3408 
    3137     2679     2293     2118     2185     2404     2637     2964 
    3424     3653     3501     3333     3223     3018     2907     3069 
    3310     3391     3325     3271     3250     3186     3122     3100 
    3065     3019     3032     3154     3307     3311     3234     3206 
    3138     3059     2948     2650     2347     2359     2752     3364 
    3897     4158     4051     3527     2848     2504     2704     3159 
    3312     2882     2270     2212     2835     3512     3889     4151 
    4121     3473     2660     2285     2254     2276     2365     2677 
    3107     3299     3241     3202     3142     3055     3088     3223 
    3439     3609     3569     3487     3429     3289     3146     2941 
    2663     2504     2448     2505     2673     2700     2650     2918 
    3503     3879     3766     3559     3550     3468     3160     2968 
    3231     3608     3496     3079     2937     3024     2894     2569 
    2496     2720     2940     3100     3230     3333     3397     3357 
    3275     3237     3198     2974     2556     2405     2693     3034 
    3311     3592     3678     3399     2916     2554     2635     3111 
    3335     3091     2887     2758     2589     2712     3184     3624 
    3628     3127     2628     2690     3152     3528     3719     3678 
    3368     3065     3019     3173     3311     3311     3163     2824 
    2496     2670     3321     3611     3188     2724     2593     2542 
    2552     2855     3353     3566     3343     3184     3505     3962 
    3839     3303     3107     3130     2909     2643     2566     2597 
    2571     2371     2324     2754     3157     3167     3187     3388 
    3649     3947     4095     3944     3549     3026     2505     1983 
    1530     1441     1819     2492     3273     3993     4490     4608 
    4338     3954     3585     3144     2778     2664     2802     3125 
    3308     3087     2759     2675     2767     2813     2760     2821 
    3049     3092     2970     3176     3696     4025     4035     3959 
    3819     3488     2965     2327     1817     1637     1620     1679 
    2101     2979     3829     4151     4149     4183     3987     3330 
    2668     2442     2380     2290     2559     3194     3696     3812 
    3654     3416     3292     3414     3566     3522     3358     3032 
    2729     2748     2749     2612     2683     2840     2859     2878 
    3059     3453     3844     3869     3559     3149     2747     2556 
    2608     2724     2829     2778     2593     2497     2546     2778 
    3006     3045     3223     3532     3604     3684     3959     3974 
    3573     3060     2710     2810     3294     3667     3847     3905 
    3603     3019     2324     1551     1368     2096     2910     3395 
    3707     3577     2959     2571     2899     3546     3991     4180 
    4186     3915     3323     2694     2261     2019     1980     2085 
    2342     2744     3025     3126     3271     3478     3578     3578 
    3636     3640     3423     3262     3410     3582     3445     3079 
    2779     2529     2254     2371     2933     3196     2925     2683 
    2847     3226     3484     3586     3670     3659     3341     2957 
    3021     3176     2787     2261     2235     2621     3019     3190 
    3219     3369     3491     3385     3512     3789     3383     2679 
    2651     2914     2875     2928     3357     3643     3466     3214 
    3195     3181     2920     2718     2884     3022     2787     2457 
    2493     2997     3501     3715     3825     3704     3199     2754 
    2667     2710     2799     3090     3381     3412     3381     3422 
    3415     3319     3059     2776     2783     2843     2529     2172 
    2327     2667     2683     2866     3496     3954     4079     3998 
    3663     3478     3488     3246     3005     2979     2898     2884 
    2944     2839     2889     3175     3242     3038     2772     2806 
    3262     3384     3056     3075     3172     2787     2512     2821 
    3264     3348     3118     2871     2736     2704     2745     2748 
    2806     3114     3225     3030     3360     3908     3755     3542 
    3689     3538     3302     3375     3202     2717     2577     2717 
    2776     3069     3322     2772     2455     3200     3431     3055 
    3402     3402     2752     2968     3148     2567     2718     3204 
    3125     3289     3481     3361     3470     3281     2764     2901 
    3150     2787     2585     2952     3420     3681     3596     3352 
    3244     2967     2355     2347     3369     3627     2562     2558 
    3397     2929     2511     3235     3481     3233     3136     2775 
    2856     3434     3149     2812     3476     3655     2911     2774 
    3366     3491     3154     3079     2910     2540     2633     3064 
    3543     3682     2806     2041     2781     3639     3420     3240 
    3370     3211     2955     2752     3099     4062     4126     3038 
    2390     2556     2706     2745     2974     3188     3163     3148 
    3410     3716     3789     3537     2934     2268     2029     2639 
    3609     3616     2938     2943     3156     2862     2812     3176 
    3323     2936     2215     2261     3385     4140     3933     3672 
    3693     3470     2837     2525     2947     3203     2709     2382 
    2828     3327     3275     2984     2883     2821     2678     2758 
    3005     3172     3424     3627     3387     2955     2932     3466 
    3947     3746     3258     3055     2878     2685     2817     3051 
    3164     3303     3314     3159     3073     2899     2582     2544 
    2883     3199     3294     3331     3370     3242     2920     2582 
    2515     2795     3080     3191     3322     3441     3298     2988 
    2867     3041     3257     3321     3329     3338     3218     2982 
    2826     2856     2953     2986     3067     3244     3268     3059 
    2822     2705     2814     3179     3588     3824     3757     3353 
    2910     2778     2949     3221     3360     3184     2848     2712 
    2839     3013     3115     3140     3090     3015     3011     3103 
    3184     3121     2874     2604     2612     2887     3161     3419 
    3685     3790     3700     3545     3429     3261     2941     2666 
    2579     2529     2484     2594     2774     2859     2982     3157 
    3233     3292     3368     3476     3762     3944     3688     3316 
    3061     2817     2751     2874     2891     2798     2683     2517 
    2424     2531     2884     3402     3686     3596     3457     3368 
    3230     3142     3165     3134     2968     2847     2862     2864 
    2813     2853     2995     3049     3026     3118     3296     3451 
    3605     3658     3412     3024     2849     2948     3136     3208 
    3107     2976     2886     2940     3292     3681     3643     3167 
    2694     2609     2809     3007     3069     2910     2663     2663 
    2984     3271     3191     2922     2752     2691     2805     3084 
    3312     3392     3284     3110     3202     3520     3678     3577 
    3388     3137     2847     2754     2952     3226     3318     3175 
    2991     2968     3145     3384     3442     3250     2982     2843 
    2978     3296     3462     3291     2916     2586     2490     2637 
    2843     2943     2953     2914     2832     2863     3099     3370 
    3535     3569     3443     3231     3067     3059     3246     3395 
    3231     2898     2708     2729     2893     3119     3253     3171 
    2999     3003     3211     3354     3257     3021     2860     2941 
    3190     3392     3454     3273     2911     2776     3010     3275 
    3377     3404     3364     3213     3075     3078     3145     3125 
    2987     2833     2795     2867     2878     2810     2806     2843 
    2902     3034     3137     3168     3195     3164     3125     3240 
    3431     3485     3361     3159     2957     2818     2828     2934 
    2961     2910     2947     3072     3183     3262     3306     3280 
    3248     3234     3199     3186     3133     2944     2798     2825 
    2887     2944     3064     3148     3148     3165     3125     2992 
    2934     2949     2982     3069     3122     3244     3554     3666 
    3473     3308     3169     2951     2741     2709     2883     2956 
    2856     2917     3159     3281     3275     3287     3242     3160 
    3217     3307     3348     3370     3129     2679     2511     2578 
    2601     2758     3076     3230     3235     3325     3331     3160 
    3127     3219     3184     3149     3208     3246     3291     3310 
