Origin Time       2024/03/16 06:34:00
Lat.              32.907
Long.             131.047
Depth. (km)       7
Mag.              3.3
Station Code      KMMH16
Station Lat.      32.7967
Station Long.     130.8199
Station Height(m) -197
Record Time       2024/03/16 06:34:37
Sampling Freq(Hz) 100Hz
Duration Time(s)  120
Dir.              1
Scale Factor      2942(gal)/8224139
Max. Acc. (gal)   0.426
Last Correction   2024/03/16 06:34:37
Memo.             
[...]
  104134   104137   104137   104134   104136   104139   104136   104134 
  104134   104134   104134   104134   104136   104140   104141   104137 
  104136   104136   104134   104136   104137   104134   104133   104136 
  104139   104141   104141   104137   104136   104137   104136   104133 
  104137   104137   104136   104139   104139   104134   104134   104137 
  104137   104137   104137   104139   104137   104136   104136   104136 
  104133   104137   104139   104136   104136   104137   104136   104137 
  104137   104134   104136   104136   104134   104133   104134   104139 
  104140   104137   104133   104134   104139   104137   104136   104137 
  104136   104136   104137   104136   104133   104134   104136   104137 
  104137   104137   104136   104134   104133   104132   104136   104139 
  104136   104134   104134   104136   104134   104134   104139   104137 
  104134   104137   104137   104133   104133   104137   104137   104134 
  104134   104136   104137   104136   104136   104137   104136   104136 
  104136   104136   104136   104136   104136   104136   104136   104136 
  104136   104137   104136   104134   104137   104137   104134   104136 
  104137   104134   104134   104137   104139   104139   104137   104134 
  104136   104134   104132   104137   104139   104134   104139   104140 
  104134   104134   104139   104136   104134   104137   104139   104136 
  104137   104137   104134   104134   104136   104137   104139   104136 
  104134   104139   104137   104137   104137   104134   104134   104137 
  104137   104136   104137   104136   104134   104136   104139   104139 
  104137   104137   104134   104132   104134   104137   104136   104134 
  104136   104137   104136   104137   104137   104134   104136   104140 
  104137   104134   104134   104136   104137   104136   104134   104136 
  104137   104140   104137   104136   104139   104137   104134   104137 
  104136   104133   104134   104136   104133   104134   104137   104134 
  104134   104137   104136   104133   104134   104134   104136   104139 
  104136   104133   104136   104136   104137   104136   104134   104134 
  104137   104137   104134   104133   104137   104137   104134   104134 
  104137   104137   104136   104134   104134   104134   104136   104136 
  104134   104134   104137   104136   104134   104134   104136   104136 
  104136   104134   104136   104139   104137   104137   104137   104133 
  104134   104134   104136   104139   104137   104134   104134   104137 
  104134   104130   104134   104136   104132   104132   104133   104130 
  104132   104136   104137   104134   104133   104136   104139   104137 
  104136   104133   104132   104134   104136   104136   104134   104134 
  104137   104137   104137   104137   104136   104137   104137   104133 
  104133   104134   104136   104136   104134   104133   104136   104134 
  104132   104133   104134   104136   104136   104136   104133   104133 
  104136   104137   104136   104136   104136   104136   104134   104132 
  104134   104133   104132   104136   104139   104134   104134   104139 
  104139   104136   104133   104133   104136   104139   104136   104134 
  104137   104136   104133   104134   104137   104137   104134   104136 
  104139   104139   104136   104139   104139   104134   104136   104137 
  104137   104136   104134   104136   104137   104136   104136   104137 
  104136   104134   104136   104134   104134   104136   104136   104134 
  104136   104137   104136   104134   104136   104136   104134   104133 
  104133   104136   104140   104139   104136   104137   104137   104137 
  104136   104133   104136   104137   104133   104134   104139   104137 
  104136   104137   104136   104136   104136   104134   104136   104134 
  104134   104137   104136   104134   104136   104136   104133   104134 
  104136   104134   104136   104139   104136   104136   104137   104139 
  104137   104134   104134   104137   104136   104136   104137   104137 
  104137   104136   104134   104134   104133   104133   104134   104133 
  104134   104137   104136   104134   104137   104137   104137   104139 
  104137   104137   104137   104134   104133   104136   104137   104136 
  104134   104132   104134   104137   104134   104137   104139   104134 
  104133   104136   104139   104136   104134   104139   104136   104134 
  104137   104136   104136   104136   104134   104136   104134   104133 
  104133   104134   104136   104139   104137   104136   104133   104130 
  104132   104136   104137   104136   104134   104136   104137   104139 
  104137   104136   104136   104139   104137   104134   104136   104134 
  104132   104133   104137   104137   104134   104136   104136   104133 
  104136   104137   104134   104134   104134   104132   104134   104140 
  104137   104136   104140   104140   104134   104136   104137   104134 
  104133   104137   104136   104132   104133   104136   104134   104133 
  104136   104139   104137   104134   104137   104137   104136   104134 
  104134   104137   104137   104136   104137   104139   104137   104136 
  104134   104136   104139   104137   104137   104137   104136   104133 
  104133   104137   104137   104133   104134   104137   104134   104136 
  104137   104136   104134   104136   104137   104139   104137   104137 
  104137   104134   104134   104136   104136   104133   104133   104137 
  104139   104132   104132   104136   104139   104139   104136   104134 
  104133   104134   104137   104136   104137   104139   104136   104136 
  104139   104137   104139   104139   104136   104136   104136   104134 
  104137   104139   104137   104136   104139   104139   104139   104136 
  104134   104139   104141   104137   104136   104137   104136   104134 
  104137   104137   104134   104136   104140   104139   104134   104133 
  104134   104134   104134   104137   104136   104133   104137   104137 
  104134   104136   104139   104136   104132   104133   104136   104137 
  104137   104136   104136   104137   104136   104136   104136   104134 
  104136   104137   104137   104134   104134   104134   104134   104137 
  104137   104134   104137   104137   104134   104136   104139   104139 
  104136   104134   104136   104139   104137   104133   104134   104136 
  104136   104136   104136   104136   104136   104136   104136   104136 
  104136   104136   104136   104139   104140   104139   104136   104136 
  104137   104136   104136   104139   104137   104136   104139   104139 
  104137   104139   104140   104137   104137   104139   104134   104133 
  104137   104136   104136   104137   104134   104134   104137   104136 
  104136   104136   104136   104137   104136   104133   104134   104137 
  104137   104134   104136   104139   104136   104134   104136   104137 
  104137   104137   104139   104139   104134   104134   104137   104134 
  104133   104136   104136   104133   104134   104136   104136   104137 
  104136   104132   104134   104140   104139   104137   104140   104137 
  104136   104136   104134   104136   104136   104136   104140   104137 
  104133   104134   104134   104136   104139   104136   104134   104139 
  104139   104136   104137   104139   104139   104139   104139   104139 
  104136   104133   104136   104137   104133   104133   104137   104134 
  104134   104137   104139   104137   104136   104137   104137   104136 
  104136   104134   104134   104136   104136   104134   104136   104136 
  104137   104139   104137   104136   104136   104134   104133   104132 
  104137   104140   104137   104137   104140   104139   104136   104140 
  104139   104134   104136   104137   104137   104139   104137   104133 
  104134   104134   104137   104137   104136   104141   104144   104139 
  104136   104134   104134   104136   104137   104140   104139   104137 
  104137   104136   104136   104137   104136   104137   104137   104137 
  104139   104139   104136   104137   104137   104140   104141   104137 
  104139   104140   104134   104134   104137   104137   104137   104139 
  104137   104134   104134   104137   104137   104134   104134   104140 
  104137   104133   104137   104137   104134   104137   104137   104134 
  104133   104136   104134   104133   104139   104140   104134   104136 
  104139   104136   104134   104140   104139   104136   104137   104139 
  104139   104139   104139   104140   104139   104136   104137   104137 
  104136   104136   104137   104139   104136   104134   104134   104134 
  104133   104134   104137   104137   104140   104140   104134   104133 
  104137   104137   104137   104137   104136   104136   104134   104134 
  104136   104134   104136   104137   104136   104136   104139   104136 
  104133   104139   104140   104133   104133   104139   104139   104137 
  104137   104137   104136   104140   104141   104139   104136   104134 
  104134   104134   104136   104137   104136   104136   104136   104136 
  104136   104137   104136   104134   104136   104134   104134   104137 
  104139   104136   104134   104133   104134   104137   104139   104134 
  104134   104137   104134   104134   104136   104139   104139   104136 
  104136   104137   104139   104139   104137   104137   104137   104134 
  104133   104134   104136   104133   104134   104136   104136   104139 
  104140   104140   104139   104137   104133   104132   104134   104137 
  104136   104137   104139   104134   104134   104137   104136   104136 
  104133   104129   104134   104139   104136   104136   104137   104136 
  104134   104137   104139   104137   104136   104136   104137   104137 
  104136   104137   104140   104137   104136   104137   104136   104136 
  104136   104134   104134   104137   104137   104134   104137   104139 
  104137   104137   104139   104136   104134   104134   104134   104133 
  104133   104133   104132   104130   104128   104120   104113   104110 
  104110   104114   104117   104114   104109   104107   104094   104068 
  104085   104170   104237   104229   104226   104278   104299   104242 
  104175   104160   104178   104114   103939   103905   104105   104248 
  104240   104193   104094   104048   104122   104137   104103   104102 
  104029   103939   103954   103985   104036   104170   104205   104122 
  104157   104276   104299   104253   104182   104113   104140   104207 
  104233   104305   104418   104418   104319   104240   104148   104026 
  103974   103979   103966   103962   103960   103951   103985   104043 
  104105   104167   104161   104102   104045   104035   104126   104236 
  104269   104307   104353   104321   104260   104199   104139   104120 
  104093   104058   104041   104017   104041   104089   104087   104125 
  104170   104105   104093   104221   104318   104323   104287   104205 
  104085   104006   103997   103970   103939   103989   104060   104070 
  104062   104107   104170   104175   104168   104206   104257   104314 
  104348   104332   104313   104256   104140   104060   104013   103945 
  103910   103914   103913   103941   103995   104055   104153   104268 
  104368   104450   104465   104413   104357   104283   104179   104082 
  104002   103962   103950   103935   103966   104075   104184   104245 
  104280   104252   104176   104121   104087   104079   104083   104066 
  104066   104086   104103   104133   104120   104026   103939   103937 
  104026   104139   104221   104272   104290   104286   104292   104306 
  104306   104272   104233   104218   104171   104082   104016   103986 
  103964   103981   104093   104207   104210   104157   104087   104017 
  104006   104001   104029   104155   104207   104139   104118   104145 
  104159   104199   104248   104275   104296   104283   104233   104186 
  104168   104184   104194   104179   104184   104187   104140   104085 
  104058   104059   104075   104068   104025   103972   103959   104013 
  104066   104102   104144   104136   104103   104083   104031   103995 
  104018   104040   104079   104199   104322   104356   104349   104333 
  104269   104190   104141   104136   104159   104163   104143   104130 
  104116   104102   104121   104144   104160   104191   104187   104145 
  104137   104120   104021   103925   103931   104008   104101   104213 
  104340   104406   104390   104363   104323   104214   104109   104056 
  104005   103964   103956   103991   104063   104101   104107   104120 
  104121   104143   104182   104187   104167   104132   104124   104159 
  104160   104126   104116   104129   104174   104206   104194   104193 
  104155   104024   103944   103986   104055   104102   104118   104114 
  104113   104121   104136   104134   104128   104140   104156   104179 
  104202   104201   104172   104103   104033   104037   104068   104071 
  104090   104126   104144   104149   104160   104172   104184   104187 
  104170   104132   104101   104116   104149   104141   104120   104133 
  104187   104252   104276   104261   104229   104148   104031   103982 
  104025   104098   104164   104242   104329   104346   104276   104197 
  104110   103994   103885   103821   103812   103842   103905   104029 
  104159   104225   104305   104392   104368   104257   104141   104047 
  104005   104051   104166   104252   104280   104323   104367   104318 
  104167   103971   103813   103763   103848   104041   104288   104514 
  104638   104603   104421   104194   103979   103796   103690   103642 
  103624   103670   103701   103639   103550   103497   103527   103692 
  103972   104292   104618   104946   105202   105255   105034   104615 
  104171   103819   103627   103661   103901   104251   104635   104969 
  105144   105198   105208   105113   104881   104568   104217   103910 
  103693   103485   103257   103053   102944   103030   103302   103671 
  104075   104396   104565   104627   104614   104531   104391   104210 
  104005   103790   103644   103630   103707   103821   103920   103974 
  104006   104043   104116   104244   104388   104541   104737   104943 
  105062   105036   104889   104646   104296   103869   103438   103115 
  103017   103180   103484   103738   103921   104101   104206   104203 
  104193   104182   104139   104122   104153   104186   104222   104236 
  104163   104043   104001   104097   104315   104585   104818   104959 
  104943   104737   104444   104137   103800   103513   103388   103424 
  103628   103960   104280   104542   104768   104900   104900   104831 
  104716   104531   104280   104028   103836   103719   103690   103763 
  103890   104022   104105   104103   104076   104031   103877   103654 
  103486   103419   103442   103540   103711   103958   104230   104457 
  104592   104608   104521   104373   104207   104071   103977   103945 
  104041   104221   104368   104445   104472   104456   104386   104272 
  104152   104045   103964   103900   103867   103905   103993   104075 
  104172   104302   104404   104456   104465   104415   104329   104237 
  104133   104053   104016   103986   103989   104044   104085   104095 
  104132   104182   104193   104163   104125   104098   104097   104110 
  104112   104098   104079   104062   104026   103954   103869   103808 
  103821   103952   104125   104256   104382   104538   104669   104723 
  104689   104556   104341   104103   103902   103779   103725   103721 
  103788   103910   104001   104043   104112   104211   104271   104276 
  104259   104252   104264   104257   104245   104275   104318   104344 
  104379   104400   104375   104325   104272   104214   104141   104075 
  104037   104001   103985   104010   104049   104112   104194   104236 
  104230   104213   104159   104076   103979   103846   103704   103599 
  103524   103495   103500   103511   103567   103697   103806   103891 
  104029   104175   104269   104377   104507   104589   104623   104646 
  104649   104622   104572   104499   104415   104360   104333   104306 
  104294   104303   104282   104244   104234   104202   104130   104064 
  104009   103982   103987   103986   103972   103962   103944   103924 
  103900   103883   103890   103928   103963   103941   103900   103925 
  103990   104064   104166   104252   104292   104319   104361   104396 
  104391   104357   104337   104328   104301   104263   104226   104187 
  104152   104151   104183   104199   104174   104152   104132   104075 
  104008   103955   103906   103902   103958   104025   104106   104213 
  104290   104307   104268   104159   104017   103894   103792   103734 
  103727   103728   103751   103846   103977   104098   104221   104317 
  104356   104350   104303   104245   104211   104170   104137   104178 
  104269   104350   104398   104413   104423   104438   104450   104460 
  104446   104409   104382   104360   104344   104337   104294   104199 
  104089   103968   103846   103777   103775   103783   103779   103798 
  103843   103885   103923   103985   104068   104122   104148   104184 
  104217   104224   104228   104222   104191   104160   104124   104078 
  104063   104072   104058   104024   103999   104001   104028   104053 
  104064   104072   104086   104125   104201   104257   104252   104237 
  104241   104252   104284   104323   104315   104268   104229   104229 
  104264   104292   104284   104256   104226   104220   104236   104221 
  104164   104124   104109   104093   104085   104074   104047   104010 
  103981   103974   103991   104021   104059   104082   104090   104128 
  104178   104184   104148   104095   104059   104036   104032   104063 
  104090   104093   104121   104163   104197   104228   104224   104195 
  104187   104174   104155   104164   104166   104149   104159   104190 
  104205   104199   104167   104105   104051   104036   104037   104040 
  104064   104110   104147   104167   104170   104163   104176   104199 
  104202   104188   104184   104178   104159   104132   104105   104074 
  104043   104018   104028   104070   104103   104117   104144   104178 
  104191   104180   104155   104137   104140   104140   104124   104102 
  104076   104066   104093   104125   104140   104140   104126   104113 
  104103   104085   104076   104105   104141   104164   104180   104183 
  104161   104126   104089   104048   104018   104036   104091   104140 
  104180   104213   104215   104194   104166   104143   104122   104106 
  104116   104145   104175   104214   104260   104283   104280   104252 
  104195   104141   104103   104059   104022   104017   104021   104025 
  104051   104090   104144   104205   104251   104292   104337   104349 
  104325   104290   104249   104222   104222   104207   104179   104175 
  104183   104170   104152   104140   104125   104101   104085   104094 
  104114   104126   104140   104149   104151   104164   104188   104191 
  104179   104171   104148   104101   104066   104059   104064   104076 
  104080   104063   104041   104033   104025   104028   104040   104044 
  104039   104032   104039   104072   104116   104141   104134   104105 
  104093   104095   104085   104079   104083   104075   104076   104105 
  104129   104148   104163   104152   104133   104139   104163   104186 
  104194   104191   104184   104179   104166   104153   104157   104152 
  104124   104101   104093   104099   104121   104144   104155   104168 
  104187   104193   104186   104182   104172   104141   104113   104114 
  104129   104144   104161   104163   104153   104149   104155   104170 
  104187   104193   104182   104164   104163   104182   104202   104234 
  104272   104286   104264   104228   104193   104171   104149   104118 
  104095   104097   104105   104112   104124   104126   104114   104101 
