Origin Time       2024/03/16 06:34:00
Lat.              32.907
Long.             131.047
Depth. (km)       7
Mag.              3.3
Station Code      KMMH05
Station Lat.      32.9553
Station Long.     131.2207
Station Height(m) 593
Record Time       2024/03/16 06:34:38
Sampling Freq(Hz) 100Hz
Duration Time(s)  120
Dir.              3
Scale Factor      3923(gal)/8224838
Max. Acc. (gal)   0.415
Last Correction   2024/03/16 06:34:38
Memo.             
[...]
  -16953   -16953   -16954   -16954   -16957   -16957   -16957   -16961 
  -16960   -16960   -16962   -16960   -16956   -16957   -16953   -16951 
  -16954   -16956   -16954   -16953   -16953   -16956   -16956   -16957 
  -16957   -16956   -16956   -16954   -16953   -16953   -16957   -16960 
  -16958   -16958   -16958   -16956   -16956   -16957   -16956   -16954 
  -16953   -16954   -16954   -16951   -16953   -16956   -16954   -16954 
  -16954   -16953   -16953   -16954   -16957   -16960   -16960   -16958 
  -16960   -16960   -16958   -16958   -16957   -16956   -16956   -16954 
  -16954   -16953   -16951   -16951   -16954   -16956   -16953   -16953 
  -16951   -16953   -16956   -16958   -16954   -16951   -16956   -16957 
  -16956   -16957   -16956   -16953   -16954   -16956   -16957   -16956 
  -16953   -16956   -16958   -16957   -16954   -16954   -16956   -16957 
  -16958   -16956   -16956   -16957   -16954   -16956   -16957   -16956 
  -16954   -16953   -16950   -16953   -16957   -16956   -16956   -16958 
  -16957   -16957   -16958   -16957   -16956   -16956   -16956   -16954 
  -16953   -16954   -16956   -16953   -16954   -16956   -16956   -16957 
  -16958   -16958   -16957   -16957   -16958   -16957   -16956   -16956 
  -16954   -16956   -16957   -16953   -16954   -16958   -16958   -16957 
  -16957   -16956   -16958   -16957   -16954   -16954   -16956   -16954 
  -16953   -16953   -16957   -16957   -16954   -16956   -16957   -16956 
  -16956   -16953   -16954   -16956   -16953   -16953   -16957   -16956 
  -16950   -16951   -16953   -16953   -16954   -16957   -16956   -16956 
  -16960   -16960   -16957   -16958   -16958   -16957   -16957   -16958 
  -16957   -16956   -16958   -16960   -16957   -16956   -16957   -16956 
  -16956   -16957   -16956   -16951   -16953   -16954   -16951   -16951 
  -16954   -16953   -16953   -16957   -16957   -16954   -16958   -16960 
  -16957   -16956   -16958   -16957   -16954   -16957   -16957   -16954 
  -16953   -16951   -16953   -16954   -16956   -16956   -16954   -16954 
  -16957   -16956   -16957   -16957   -16954   -16958   -16961   -16960 
  -16958   -16957   -16956   -16956   -16956   -16954   -16954   -16956 
  -16956   -16956   -16956   -16953   -16954   -16958   -16958   -16953 
  -16953   -16954   -16954   -16958   -16958   -16956   -16956   -16957 
  -16956   -16956   -16957   -16954   -16954   -16954   -16951   -16951 
  -16954   -16956   -16954   -16953   -16954   -16954   -16951   -16956 
  -16960   -16958   -16957   -16957   -16954   -16954   -16957   -16956 
  -16956   -16956   -16954   -16957   -16957   -16954   -16954   -16956 
  -16954   -16954   -16956   -16953   -16953   -16956   -16956   -16954 
  -16954   -16951   -16956   -16960   -16957   -16956   -16958   -16957 
  -16960   -16960   -16954   -16954   -16954   -16953   -16954   -16956 
  -16956   -16956   -16956   -16954   -16953   -16954   -16956   -16956 
  -16956   -16957   -16956   -16954   -16953   -16954   -16956   -16953 
  -16953   -16956   -16957   -16956   -16956   -16956   -16956   -16957 
  -16954   -16951   -16953   -16954   -16956   -16956   -16953   -16953 
  -16957   -16954   -16951   -16954   -16956   -16954   -16956   -16957 
  -16957   -16960   -16958   -16953   -16954   -16956   -16953   -16954 
  -16954   -16951   -16951   -16954   -16957   -16954   -16953   -16954 
  -16957   -16958   -16958   -16956   -16954   -16956   -16954   -16954 
  -16956   -16956   -16956   -16956   -16956   -16953   -16953   -16953 
  -16954   -16957   -16956   -16954   -16957   -16957   -16956   -16956 
  -16958   -16958   -16954   -16954   -16957   -16956   -16954   -16954 
  -16958   -16958   -16956   -16956   -16954   -16953   -16954   -16954 
  -16953   -16954   -16954   -16956   -16956   -16956   -16956   -16953 
  -16953   -16956   -16954   -16953   -16954   -16956   -16957   -16954 
  -16953   -16956   -16953   -16953   -16957   -16956   -16954   -16954 
  -16954   -16954   -16954   -16953   -16953   -16956   -16956   -16954 
  -16953   -16951   -16953   -16954   -16953   -16956   -16954   -16953 
  -16956   -16956   -16953   -16953   -16953   -16951   -16951   -16954 
  -16957   -16957   -16956   -16956   -16956   -16956   -16953   -16953 
  -16956   -16956   -16954   -16951   -16953   -16953   -16950   -16951 
  -16956   -16957   -16957   -16957   -16954   -16956   -16958   -16957 
  -16956   -16954   -16956   -16956   -16954   -16954   -16956   -16956 
  -16954   -16954   -16954   -16953   -16956   -16957   -16953   -16953 
  -16957   -16956   -16953   -16954   -16954   -16953   -16953   -16953 
  -16954   -16958   -16958   -16956   -16956   -16956   -16954   -16953 
  -16954   -16956   -16954   -16951   -16953   -16954   -16954   -16956 
  -16954   -16953   -16956   -16960   -16954   -16951   -16956   -16954 
  -16953   -16956   -16956   -16954   -16956   -16954   -16953   -16956 
  -16957   -16953   -16954   -16958   -16956   -16956   -16958   -16953 
  -16949   -16951   -16954   -16958   -16958   -16954   -16956   -16954 
  -16951   -16953   -16953   -16954   -16957   -16958   -16956   -16953 
  -16954   -16958   -16958   -16951   -16953   -16960   -16960   -16956 
  -16951   -16950   -16954   -16957   -16956   -16954   -16957   -16960 
  -16958   -16954   -16951   -16951   -16956   -16957   -16956   -16956 
  -16953   -16953   -16954   -16953   -16953   -16958   -16958   -16957 
  -16957   -16954   -16954   -16957   -16956   -16954   -16954   -16956 
  -16958   -16956   -16953   -16954   -16956   -16957   -16958   -16957 
  -16956   -16956   -16953   -16951   -16951   -16956   -16958   -16956 
  -16954   -16953   -16956   -16958   -16956   -16954   -16957   -16956 
  -16954   -16956   -16956   -16957   -16954   -16954   -16957   -16956 
  -16951   -16953   -16953   -16951   -16954   -16957   -16957   -16960 
  -16957   -16953   -16956   -16960   -16956   -16953   -16957   -16957 
  -16953   -16956   -16958   -16957   -16957   -16957   -16953   -16951 
  -16953   -16957   -16960   -16958   -16957   -16957   -16953   -16950 
  -16950   -16954   -16958   -16957   -16954   -16953   -16954   -16951 
  -16953   -16957   -16958   -16957   -16954   -16950   -16951   -16956 
  -16960   -16961   -16960   -16958   -16956   -16951   -16949   -16953 
  -16960   -16960   -16956   -16954   -16954   -16956   -16958   -16958 
  -16957   -16957   -16956   -16953   -16954   -16956   -16954   -16954 
  -16956   -16958   -16956   -16953   -16953   -16953   -16950   -16953 
  -16957   -16956   -16951   -16951   -16954   -16956   -16954   -16956 
  -16960   -16957   -16951   -16951   -16951   -16954   -16957   -16957 
  -16953   -16953   -16954   -16957   -16956   -16954   -16953   -16954 
  -16956   -16956   -16954   -16954   -16956   -16960   -16960   -16954 
  -16951   -16953   -16953   -16954   -16957   -16956   -16954   -16953 
  -16950   -16953   -16956   -16954   -16953   -16956   -16953   -16950 
  -16953   -16957   -16957   -16956   -16956   -16954   -16954   -16957 
  -16956   -16957   -16957   -16956   -16957   -16957   -16956   -16956 
  -16956   -16954   -16957   -16958   -16956   -16953   -16953   -16953 
  -16956   -16954   -16953   -16953   -16951   -16950   -16951   -16954 
  -16956   -16957   -16954   -16954   -16953   -16951   -16954   -16957 
  -16954   -16956   -16957   -16956   -16956   -16957   -16957   -16954 
  -16950   -16950   -16954   -16957   -16956   -16954   -16954   -16956 
  -16954   -16953   -16954   -16954   -16950   -16953   -16956   -16953 
  -16951   -16954   -16956   -16956   -16956   -16954   -16953   -16951 
  -16951   -16953   -16953   -16953   -16954   -16954   -16954   -16956 
  -16956   -16956   -16956   -16957   -16957   -16953   -16953   -16956 
  -16956   -16957   -16956   -16954   -16954   -16954   -16954   -16956 
  -16954   -16953   -16953   -16951   -16951   -16953   -16953   -16953 
  -16954   -16954   -16956   -16957   -16957   -16956   -16954   -16956 
  -16956   -16951   -16951   -16954   -16953   -16954   -16956   -16953 
  -16950   -16953   -16956   -16953   -16951   -16956   -16956   -16951 
  -16953   -16954   -16954   -16956   -16954   -16954   -16953   -16951 
  -16953   -16956   -16956   -16954   -16954   -16954   -16954   -16954 
  -16957   -16957   -16957   -16956   -16956   -16956   -16954   -16953 
  -16953   -16956   -16956   -16956   -16954   -16954   -16953   -16954 
  -16956   -16953   -16951   -16953   -16953   -16951   -16953   -16956 
  -16957   -16958   -16957   -16956   -16956   -16953   -16954   -16956 
  -16954   -16956   -16956   -16951   -16953   -16956   -16954   -16954 
  -16956   -16954   -16957   -16956   -16951   -16953   -16954   -16951 
  -16953   -16954   -16956   -16957   -16956   -16956   -16956   -16954 
  -16956   -16957   -16951   -16951   -16954   -16954   -16951   -16951 
  -16951   -16954   -16956   -16954   -16953   -16953   -16951   -16954 
  -16954   -16950   -16949   -16956   -16960   -16956   -16953   -16954 
  -16954   -16954   -16957   -16956   -16954   -16957   -16957   -16954 
  -16954   -16956   -16954   -16956   -16956   -16956   -16954   -16950 
  -16953   -16957   -16956   -16954   -16956   -16953   -16950   -16954 
  -16957   -16953   -16953   -16957   -16954   -16950   -16953   -16954 
  -16956   -16956   -16954   -16956   -16956   -16954   -16956   -16956 
  -16954   -16954   -16954   -16956   -16956   -16956   -16957   -16956 
  -16953   -16956   -16957   -16958   -16957   -16954   -16954   -16957 
  -16956   -16957   -16957   -16953   -16953   -16956   -16956   -16954 
  -16954   -16954   -16953   -16958   -16958   -16954   -16954   -16954 
  -16953   -16956   -16957   -16957   -16958   -16957   -16953   -16953 
  -16956   -16956   -16956   -16957   -16958   -16954   -16953   -16951 
  -16950   -16953   -16958   -16958   -16956   -16954   -16956   -16957 
  -16957   -16953   -16951   -16956   -16954   -16954   -16958   -16957 
  -16953   -16956   -16954   -16953   -16956   -16958   -16958   -16957 
  -16954   -16953   -16951   -16953   -16957   -16956   -16954   -16956 
  -16956   -16954   -16954   -16957   -16956   -16954   -16957   -16958 
  -16956   -16953   -16954   -16954   -16956   -16957   -16954   -16954 
  -16954   -16956   -16956   -16954   -16953   -16956   -16954   -16953 
  -16954   -16954   -16956   -16957   -16957   -16957   -16957   -16957 
  -16956   -16954   -16954   -16954   -16954   -16954   -16953   -16954 
  -16954   -16953   -16956   -16954   -16953   -16954   -16951   -16951 
  -16957   -16958   -16956   -16957   -16954   -16953   -16954   -16956 
  -16954   -16954   -16954   -16951   -16951   -16953   -16956   -16956 
  -16954   -16956   -16957   -16953   -16953   -16956   -16954   -16956 
  -16958   -16957   -16956   -16956   -16957   -16954   -16956   -16957 
  -16956   -16954   -16953   -16950   -16954   -16957   -16954   -16954 
  -16957   -16954   -16953   -16956   -16956   -16954   -16958   -16957 
  -16954   -16958   -16960   -16954   -16954   -16957   -16956   -16957 
  -16958   -16954   -16953   -16951   -16949   -16953   -16957   -16956 
  -16954   -16957   -16957   -16956   -16956   -16954   -16956   -16956 
  -16956   -16956   -16956   -16956   -16954   -16953   -16950   -16947 
  -16946   -16949   -16953   -16953   -16938   -16924   -16926   -16938 
  -16950   -16965   -16976   -16966   -16931   -16872   -16819   -16819 
  -16854   -16893   -16945   -17010   -17045   -16988   -16860   -16795 
  -16893   -17074   -17151   -17091   -17112   -17257   -17238   -17007 
  -16852   -16911   -17045   -17012   -16834   -16845   -17038   -17093 
  -17000   -16934   -16995   -17032   -16829   -16722   -17037   -17358 
  -17205   -16781   -16753   -17122   -17061   -16653   -16811   -17219 
  -16949   -16486   -16691   -17055   -16931   -16708   -16711   -16783 
  -16880   -16973   -16918   -16803   -16920   -17100   -17037   -17049 
  -17165   -16953   -16764   -16995   -17153   -16997   -16950   -17124 
  -17149   -16934   -16854   -17037   -17177   -17113   -16958   -16802 
  -16765   -16889   -17035   -17099   -16965   -16719   -16703   -17032 
  -17366   -17254   -16825   -16613   -16741   -17032   -17267   -17185 
  -16839   -16599   -16749   -17095   -17213   -17078   -16815   -16573 
  -16652   -16939   -17082   -17068   -17012   -16926   -16868   -16865 
  -16864   -16939   -17112   -17207   -17093   -16914   -16923   -17139 
  -17250   -16965   -16652   -16887   -17238   -17113   -16937   -16946 
  -16802   -16746   -16954   -16935   -16735   -16856   -17059   -16945 
  -16839   -16941   -17030   -17115   -17069   -16735   -16598   -16916 
  -17204   -17169   -16999   -16941   -17031   -16965   -16717   -16692 
  -16884   -16980   -16993   -16978   -16981   -17124   -17143   -16935 
  -16931   -17058   -17026   -16970   -16911   -16872   -16951   -16965 
  -16920   -17032   -17142   -17064   -16900   -16764   -16803   -17004 
  -17041   -16906   -16923   -17041   -17005   -16941   -16964   -16904 
  -16853   -16961   -16983   -16868   -16876   -17004   -17068   -17012 
  -16896   -16861   -17004   -17193   -17167   -16895   -16721   -16843 
  -17038   -17082   -16947   -16758   -16748   -16938   -17092   -17109 
  -17031   -16879   -16818   -16953   -17022   -16924   -16856   -16837 
  -16935   -17132   -17095   -16881   -16852   -17041   -17204   -17064 
  -16735   -16691   -16974   -17165   -17088   -16970   -16999   -17092 
  -17045   -16888   -16826   -16838   -16845   -16949   -17113   -17236 
  -17373   -17375   -17039   -16641   -16573   -16798   -17050   -17240 
  -17381   -17373   -17069   -16528   -16085   -16108   -16595   -17088 
  -17173   -17034   -17037   -17041   -16830   -16571   -16532   -16911 
  -17464   -17532   -17119   -16841   -16829   -16834   -16845   -16856 
  -16776   -16762   -16914   -16991   -16837   -16767   -17039   -17209 
  -16966   -16816   -16930   -16951   -17024   -17274   -17301   -17185 
  -17209   -17104   -17003   -17278   -17442   -17080   -16667   -16619 
  -16768   -16895   -16962   -16876   -16767   -16883   -16891   -16530 
  -16372   -16676   -16976   -17047   -16999   -16976   -17124   -17203 
  -16870   -16467   -16563   -16879   -16964   -17042   -17209   -17347 
  -17435   -17220   -16864   -16872   -17054   -17165   -17309   -17332 
  -17230   -17174   -17011   -16744   -16552   -16484   -16708   -17096 
  -17207   -17049   -16875   -16789   -16843   -16902   -16812   -16772 
  -16903   -16992   -17072   -17300   -17332   -17003   -16750   -16767 
  -16857   -16931   -16976   -17004   -16997   -16912   -16875   -16896 
  -16746   -16688   -16989   -17115   -16950   -16947   -16968   -16880 
  -16957   -17011   -16857   -16891   -17190   -17355   -17271   -17099 
  -16946   -16849   -16777   -16669   -16595   -16675   -16833   -16962 
  -17055   -17035   -16915   -16862   -16918   -17035   -17155   -17223 
  -17271   -17226   -17030   -16938   -17005   -17008   -16966   -16896 
  -16752   -16735   -16872   -16942   -16943   -16904   -16837   -16883 
  -16977   -16941   -16904   -16989   -17086   -17069   -17037   -17139 
  -17184   -17003   -16857   -16907   -16919   -16806   -16706   -16654 
  -16629   -16632   -16733   -16958   -17088   -17023   -16947   -16933 
  -16885   -16829   -16842   -16889   -17062   -17309   -17332   -17248 
  -17239   -17154   -17054   -16968   -16779   -16660   -16714   -16868 
  -17077   -17115   -16978   -17015   -17116   -17035   -16954   -16908 
  -16877   -17041   -17197   -17135   -17041   -16970   -16930   -16942 
  -16854   -16785   -16883   -16861   -16723   -16733   -16744   -16692 
  -16753   -16889   -17031   -17095   -16956   -16791   -16843   -16947 
  -16927   -16926   -17018   -17074   -17046   -17015   -17005   -16974 
  -16930   -16895   -16881   -16954   -17088   -17155   -17170   -17158 
  -17050   -16941   -16902   -16831   -16795   -16927   -17143   -17235 
  -17154   -17064   -17020   -16962   -16904   -16861   -16868   -17004 
  -17066   -16926   -16897   -16978   -16920   -16884   -16904   -16827 
  -16794   -16877   -16931   -16923   -16927   -16995   -17108   -17143 
  -17031   -16902   -16877   -16918   -16941   -16887   -16798   -16794 
  -16857   -16891   -16903   -16908   -16933   -16985   -16926   -16799 
  -16883   -17047   -16962   -16827   -16884   -17024   -17211   -17277 
  -17073   -16929   -16991   -17010   -16961   -16956   -16962   -16966 
  -16996   -17039   -17088   -17042   -16854   -16802   -16991   -17140 
  -17163   -17170   -17154   -17072   -16984   -16938   -16919   -16957 
  -16995   -16999   -17030   -16993   -16885   -16843   -16815   -16733 
  -16656   -16640   -16681   -16723   -16735   -16769   -16865   -16961 
  -17012   -17057   -17122   -17166   -17166   -17163   -17127   -17014 
  -16914   -16862   -16860   -16947   -17015   -16984   -16962   -16968 
  -16954   -16956   -16920   -16860   -16887   -16916   -16888   -16912 
  -16961   -16953   -16954   -16974   -17005   -17105   -17221   -17243 
  -17151   -16977   -16799   -16738   -16799   -16838   -16785   -16707 
  -16700   -16762   -16784   -16818   -16965   -17064   -17037   -17057 
  -17126   -17116   -17092   -17080   -16973   -16881   -16914   -16966 
  -17015   -17104   -17163   -17128   -17055   -17018   -16938   -16833 
  -16893   -17030   -16995   -16860   -16762   -16692   -16704   -16811 
  -16891   -16938   -17001   -17068   -17147   -17180   -17127   -17104 
  -17082   -16992   -16938   -16946   -16946   -16926   -16866   -16798 
  -16789   -16850   -16926   -16960   -16996   -17091   -17131   -17000 
  -16792   -16684   -16715   -16791   -16823   -16856   -16977   -17118 
  -17146   -17070   -17003   -17000   -17018   -17010   -16987   -16983 
  -16978   -16923   -16857   -16849   -16902   -16972   -16993   -16977 
  -17022   -17084   -17018   -16902   -16904   -16977   -16956   -16837 
  -16775   -16798   -16831   -16916   -17047   -17089   -17043   -16995 
  -16956   -17000   -17109   -17122   -17080   -17088   -17095   -17076 
  -17061   -17015   -16934   -16881   -16885   -16897   -16888   -16872 
  -16852   -16815   -16773   -16749   -16749   -16812   -16920   -16956 
  -16895   -16829   -16818   -16866   -16966   -17064   -17092   -17095 
  -17101   -17107   -17126   -17081   -16962   -16937   -16988   -17012 
  -17069   -17089   -17026   -17005   -16980   -16916   -16918   -16931 
  -16923   -16987   -17047   -17008   -16946   -16914   -16888   -16900 
  -16956   -16996   -16965   -16914   -16920   -16939   -16958   -17005 
  -16989   -16900   -16849   -16826   -16829   -16879   -16899   -16860 
  -16819   -16854   -16956   -16989   -16935   -16931   -16978   -17028 
  -17089   -17072   -17004   -17026   -17046   -16992   -16974   -16991 
  -17008   -17057   -17103   -17091   -17015   -16939   -16937   -16951 
  -16900   -16852   -16888   -16919   -16897   -16884   -16897   -16900 
  -16888   -16889   -16887   -16876   -16881   -16888   -16910   -16953 
  -16953   -16893   -16856   -16904   -16980   -17003   -17001   -16989 
  -16949   -16954   -17038   -17088   -17057   -17027   -17015   -16996 
  -16991   -16969   -16918   -16931   -16988   -16976   -16938   -16937 
  -16937   -16961   -16987   -16958   -16941   -16962   -16958   -16954 
  -16977   -16985   -16958   -16919   -16920   -16970   -17015   -17051 
  -17054   -16973   -16891   -16869   -16858   -16879   -16945   -16947 
  -16892   -16888   -16908   -16924   -16962   -16960   -16930   -16966 
