Origin Time       2024/03/16 06:34:00
Lat.              32.907
Long.             131.047
Depth. (km)       7
Mag.              3.3
Station Code      KMMH16
Station Lat.      32.7967
Station Long.     130.8199
Station Height(m) 55
Record Time       2024/03/16 06:34:37
Sampling Freq(Hz) 100Hz
Duration Time(s)  120
Dir.              6
Scale Factor      7845(gal)/8223790
Max. Acc. (gal)   1.977
Last Correction   2024/03/16 06:34:37
Memo.             
[...]
   -5551    -5547    -5545    -5544    -5543    -5545    -5545    -5541 
   -5543    -5545    -5545    -5547    -5545    -5540    -5545    -5549 
   -5545    -5548    -5556    -5556    -5552    -5551    -5544    -5536 
   -5535    -5533    -5533    -5544    -5560    -5564    -5559    -5549 
   -5541    -5544    -5548    -5545    -5545    -5545    -5539    -5536 
   -5540    -5541    -5540    -5545    -5548    -5544    -5549    -5560 
   -5553    -5544    -5548    -5549    -5545    -5544    -5537    -5536 
   -5544    -5547    -5541    -5539    -5536    -5541    -5557    -5567 
   -5560    -5545    -5536    -5535    -5537    -5544    -5548    -5549 
   -5553    -5553    -5549    -5549    -5548    -5544    -5544    -5541 
   -5539    -5540    -5543    -5543    -5547    -5549    -5547    -5543 
   -5544    -5547    -5552    -5552    -5545    -5541    -5544    -5549 
   -5548    -5547    -5547    -5540    -5535    -5535    -5539    -5547 
   -5551    -5551    -5553    -5552    -5545    -5543    -5543    -5540 
   -5541    -5549    -5555    -5555    -5552    -5544    -5536    -5535 
   -5537    -5545    -5552    -5553    -5552    -5551    -5548    -5544 
   -5543    -5540    -5536    -5537    -5541    -5541    -5545    -5553 
   -5555    -5553    -5549    -5547    -5549    -5551    -5547    -5544 
   -5547    -5543    -5533    -5536    -5539    -5533    -5539    -5555 
   -5560    -5553    -5548    -5545    -5547    -5549    -5544    -5536 
   -5539    -5545    -5549    -5552    -5549    -5549    -5552    -5549 
   -5545    -5544    -5537    -5535    -5537    -5540    -5545    -5552 
   -5555    -5556    -5557    -5557    -5549    -5541    -5544    -5547 
   -5539    -5535    -5541    -5549    -5551    -5547    -5545    -5545 
   -5545    -5548    -5549    -5548    -5548    -5549    -5548    -5543 
   -5541    -5543    -5544    -5545    -5551    -5552    -5545    -5544 
   -5543    -5539    -5540    -5543    -5544    -5548    -5553    -5553 
   -5555    -5556    -5551    -5539    -5536    -5540    -5548    -5555 
   -5548    -5539    -5540    -5544    -5549    -5552    -5551    -5545 
   -5540    -5540    -5545    -5549    -5548    -5545    -5545    -5545 
   -5547    -5549    -5555    -5553    -5547    -5540    -5541    -5545 
   -5545    -5545    -5543    -5539    -5543    -5552    -5555    -5551 
   -5544    -5547    -5553    -5551    -5548    -5539    -5521    -5522 
   -5549    -5563    -5552    -5540    -5536    -5544    -5560    -5567 
   -5559    -5545    -5530    -5526    -5539    -5548    -5547    -5549 
   -5553    -5548    -5541    -5539    -5539    -5541    -5545    -5545 
   -5543    -5545    -5552    -5553    -5547    -5543    -5540    -5541 
   -5552    -5562    -5564    -5556    -5537    -5526    -5535    -5544 
   -5547    -5548    -5543    -5533    -5533    -5548    -5559    -5560 
   -5556    -5545    -5541    -5545    -5547    -5547    -5548    -5544 
   -5541    -5547    -5553    -5553    -5548    -5537    -5530    -5536 
   -5544    -5548    -5552    -5551    -5548    -5548    -5548    -5547 
   -5547    -5548    -5547    -5539    -5536    -5543    -5551    -5555 
   -5553    -5547    -5541    -5543    -5543    -5545    -5549    -5545 
   -5544    -5549    -5551    -5547    -5541    -5543    -5544    -5544 
   -5544    -5544    -5543    -5545    -5552    -5557    -5552    -5544 
   -5540    -5536    -5539    -5548    -5549    -5548    -5552    -5555 
   -5545    -5537    -5540    -5543    -5544    -5553    -5557    -5547 
   -5543    -5545    -5545    -5549    -5549    -5547    -5547    -5544 
   -5540    -5539    -5539    -5543    -5549    -5555    -5552    -5549 
   -5552    -5549    -5543    -5543    -5543    -5539    -5544    -5551 
   -5548    -5547    -5548    -5545    -5541    -5543    -5548    -5548 
   -5548    -5549    -5549    -5547    -5543    -5541    -5544    -5543 
   -5539    -5544    -5548    -5547    -5549    -5549    -5547    -5549 
   -5549    -5545    -5544    -5541    -5539    -5537    -5537    -5540 
   -5545    -5552    -5557    -5560    -5556    -5549    -5541    -5537 
   -5539    -5543    -5541    -5540    -5540    -5545    -5552    -5553 
   -5552    -5549    -5545    -5543    -5543    -5541    -5544    -5549 
   -5548    -5544    -5545    -5547    -5545    -5544    -5544    -5544 
   -5547    -5551    -5547    -5545    -5547    -5541    -5543    -5551 
   -5549    -5544    -5543    -5544    -5547    -5548    -5547    -5545 
   -5549    -5552    -5547    -5541    -5536    -5535    -5543    -5548 
   -5548    -5552    -5552    -5545    -5543    -5544    -5545    -5548 
   -5549    -5545    -5544    -5547    -5547    -5547    -5547    -5547 
   -5543    -5543    -5551    -5551    -5545    -5544    -5537    -5537 
   -5545    -5547    -5547    -5548    -5547    -5545    -5548    -5548 
   -5545    -5545    -5544    -5541    -5547    -5549    -5544    -5543 
   -5544    -5545    -5548    -5547    -5544    -5547    -5545    -5543 
   -5545    -5547    -5547    -5545    -5547    -5548    -5544    -5541 
   -5541    -5541    -5543    -5544    -5544    -5548    -5549    -5544 
   -5545    -5549    -5549    -5549    -5549    -5548    -5543    -5539 
   -5537    -5536    -5535    -5536    -5540    -5548    -5556    -5555 
   -5553    -5553    -5551    -5548    -5548    -5549    -5547    -5539 
   -5532    -5533    -5541    -5548    -5551    -5555    -5556    -5551 
   -5544    -5540    -5540    -5541    -5543    -5548    -5548    -5545 
   -5545    -5543    -5541    -5545    -5548    -5548    -5548    -5544 
   -5547    -5552    -5551    -5548    -5547    -5547    -5547    -5544 
   -5544    -5540    -5536    -5537    -5540    -5545    -5549    -5548 
   -5551    -5551    -5549    -5553    -5551    -5543    -5543    -5545 
   -5547    -5545    -5544    -5547    -5551    -5548    -5543    -5544 
   -5547    -5547    -5548    -5549    -5545    -5540    -5537    -5539 
   -5544    -5549    -5553    -5557    -5559    -5555    -5547    -5544 
   -5544    -5544    -5543    -5543    -5544    -5545    -5549    -5547 
   -5543    -5544    -5544    -5543    -5548    -5552    -5548    -5545 
   -5544    -5541    -5539    -5543    -5547    -5552    -5556    -5553 
   -5555    -5555    -5544    -5540    -5544    -5541    -5543    -5547 
   -5545    -5547    -5549    -5551    -5551    -5551    -5547    -5540 
   -5535    -5535    -5539    -5544    -5543    -5541    -5548    -5556 
   -5559    -5553    -5551    -5551    -5549    -5552    -5552    -5544 
   -5540    -5539    -5533    -5536    -5544    -5543    -5539    -5545 
   -5551    -5553    -5553    -5549    -5547    -5547    -5544    -5543 
   -5548    -5553    -5551    -5545    -5543    -5541    -5540    -5535 
   -5533    -5539    -5547    -5553    -5560    -5560    -5553    -5553 
   -5555    -5555    -5553    -5547    -5535    -5532    -5535    -5536 
   -5539    -5543    -5543    -5545    -5553    -5555    -5552    -5556 
   -5552    -5541    -5541    -5549    -5548    -5543    -5544    -5544 
   -5543    -5548    -5549    -5547    -5547    -5547    -5545    -5549 
   -5553    -5549    -5544    -5541    -5539    -5544    -5549    -5547 
   -5545    -5543    -5536    -5539    -5553    -5555    -5549    -5549 
   -5549    -5545    -5543    -5540    -5544    -5549    -5551    -5548 
   -5549    -5548    -5541    -5543    -5549    -5548    -5548    -5548 
   -5544    -5541    -5543    -5547    -5547    -5543    -5541    -5545 
   -5549    -5547    -5541    -5541    -5547    -5551    -5552    -5556 
   -5553    -5548    -5549    -5547    -5541    -5543    -5537    -5533 
   -5544    -5553    -5556    -5556    -5551    -5540    -5535    -5535 
   -5540    -5548    -5553    -5553    -5551    -5548    -5547    -5545 
   -5547    -5548    -5547    -5545    -5544    -5539    -5536    -5540 
   -5547    -5556    -5557    -5559    -5559    -5549    -5540    -5541 
   -5544    -5540    -5539    -5545    -5544    -5541    -5548    -5549 
   -5547    -5545    -5543    -5547    -5555    -5555    -5548    -5545 
   -5545    -5541    -5543    -5551    -5549    -5548    -5549    -5543 
   -5536    -5536    -5535    -5532    -5536    -5548    -5557    -5556 
   -5552    -5552    -5555    -5555    -5551    -5547    -5540    -5533 
   -5536    -5543    -5547    -5545    -5541    -5540    -5543    -5547 
   -5553    -5557    -5555    -5551    -5551    -5548    -5544    -5541 
   -5541    -5539    -5535    -5543    -5551    -5547    -5544    -5545 
   -5544    -5547    -5553    -5555    -5551    -5547    -5543    -5540 
   -5544    -5548    -5548    -5547    -5543    -5537    -5539    -5540 
   -5539    -5541    -5549    -5549    -5547    -5548    -5549    -5551 
   -5549    -5551    -5555    -5548    -5540    -5540    -5539    -5539 
   -5543    -5549    -5549    -5545    -5548    -5551    -5544    -5539 
   -5547    -5552    -5548    -5544    -5540    -5535    -5533    -5541 
   -5549    -5553    -5553    -5551    -5552    -5556    -5557    -5555 
   -5545    -5533    -5528    -5533    -5544    -5549    -5547    -5543 
   -5541    -5544    -5549    -5556    -5559    -5551    -5543    -5541 
   -5541    -5541    -5543    -5543    -5544    -5552    -5557    -5552 
   -5544    -5541    -5539    -5536    -5536    -5540    -5548    -5552 
   -5559    -5567    -5562    -5549    -5545    -5545    -5539    -5533 
   -5536    -5537    -5537    -5543    -5549    -5548    -5553    -5564 
   -5560    -5549    -5547    -5539    -5530    -5536    -5543    -5547 
   -5549    -5547    -5544    -5549    -5552    -5544    -5539    -5545 
   -5552    -5557    -5560    -5551    -5539    -5539    -5541    -5547 
   -5553    -5552    -5547    -5548    -5548    -5545    -5543    -5540 
   -5536    -5536    -5537    -5535    -5533    -5537    -5535    -5525 
   -5517    -5499    -5471    -5437    -5395    -5351    -5327    -5336 
   -5373    -5432    -5494    -5539    -5563    -5549    -5491    -5513 
   -5771    -6207    -6583    -6752    -6768    -6690    -6431    -5918 
   -5327    -4899    -4552    -4025    -3531    -3649    -4445    -5298 
   -5637    -5494    -5367    -5632    -6181    -6671    -6891    -6759 
   -6318    -5883    -5778    -5883    -5814    -5424    -4961    -4800 
   -4965    -5066    -4876    -4619    -4638    -5008    -5543    -6029 
   -6388    -6635    -6822    -6897    -6648    -5999    -5240    -4779 
   -4695    -4739    -4681    -4483    -4303    -4379    -4796    -5367 
   -5786    -5958    -6108    -6458    -6918    -7142    -6952    -6585 
   -6324    -6123    -5819    -5339    -4693    -4095    -3846    -3997 
   -4314    -4518    -4569    -4706    -5142    -5810    -6480    -6960 
   -7165    -7105    -6895    -6671    -6419    -6039    -5541    -5030 
   -4607    -4336    -4230    -4295    -4513    -4843    -5192    -5471 
   -5724    -5973    -6120    -6138    -6123    -6145    -6195    -6224 
   -6205    -6141    -5938    -5499    -4954    -4576    -4514    -4679 
   -4834    -4830    -4742    -4776    -5071    -5634    -6359    -7005 
   -7295    -7179    -6856    -6505    -6135    -5692    -5181    -4710 
   -4414    -4276    -4209    -4261    -4507    -4934    -5495    -6031 
   -6299    -6251    -6070    -5908    -5832    -5875    -5999    -6130 
   -6189    -6076    -5776    -5356    -4920    -4604    -4527    -4772 
   -5231    -5580    -5628    -5487    -5421    -5597    -5896    -6106 
   -6158    -6096    -5973    -5832    -5675    -5444    -5121    -4858 
   -4847    -5077    -5335    -5427    -5356    -5273    -5332    -5566 
   -5826    -6007    -6115    -6127    -6019    -5818    -5591    -5422 
   -5352    -5359    -5397    -5428    -5428    -5366    -5232    -5139 
   -5283    -5679    -6054    -6212    -6157    -5902    -5537    -5277 
   -5260    -5410    -5518    -5468    -5312    -5165    -5115    -5184 
   -5364    -5678    -6104    -6439    -6401    -5977    -5463    -5121 
   -5035    -5159    -5398    -5647    -5752    -5651    -5429    -5211 
   -5074    -5074    -5258    -5593    -5873    -5913    -5728    -5499 
   -5440    -5593    -5796    -5872    -5733    -5435    -5177    -5142 
   -5325    -5574    -5714    -5699    -5647    -5653    -5647    -5556 
   -5491    -5568    -5725    -5826    -5845    -5822    -5697    -5389 
   -5049    -4885    -4936    -5109    -5267    -5362    -5422    -5479 
   -5679    -6099    -6523    -6718    -6646    -6365    -5995    -5616 
   -5189    -4706    -4344    -4314    -4588    -4932    -5211    -5447 
   -5613    -5667    -5752    -6015    -6284    -6335    -6238    -6079 
   -5822    -5537    -5359    -5333    -5410    -5472    -5391    -5166 
   -5007    -5057    -5134    -5012    -4841    -4980    -5476    -5996 
   -6251    -6226    -6057    -5904    -5880    -5962    -5967    -5767 
   -5486    -5302    -5273    -5304    -5282    -5252    -5278    -5317 
   -5373    -5437    -5421    -5354    -5367    -5489    -5634    -5765 
   -5949    -6184    -6350    -6363    -6192    -5865    -5520    -5244 
   -5005    -4797    -4679    -4716    -4900    -5105    -5292    -5537 
   -5848    -6137    -6358    -6470    -6393    -6139    -5834    -5540 
   -5273    -5043    -4812    -4592    -4468    -4538    -4818    -5134 
   -5309    -5439    -5757    -6296    -6801    -7079    -7177    -7129 
   -6867    -6386    -5786    -5185    -4638    -4190    -3931    -3870 
   -3936    -4145    -4549    -5097    -5684    -6231    -6662    -6917 
   -7029    -7025    -6833    -6496    -6149    -5778    -5301    -4769 
   -4311    -4036    -3956    -4044    -4303    -4683    -5069    -5436 
   -5876    -6470    -7115    -7562    -7618    -7279    -6748    -6196 
   -5632    -5063    -4563    -4162    -3908    -3861    -4027    -4338 
   -4702    -5085    -5522    -5995    -6415    -6690    -6732    -6520 
   -6195    -5900    -5655    -5481    -5425    -5458    -5518    -5584 
   -5660    -5701    -5610    -5432    -5314    -5336    -5459    -5622 
   -5819    -6029    -6160    -6174    -6072    -5845    -5524    -5173 
   -4828    -4531    -4326    -4228    -4305    -4603    -4992    -5352 
   -5664    -5944    -6257    -6586    -6829    -6924    -6826    -6480 
   -5903    -5259    -4761    -4455    -4282    -4287    -4557    -5046 
   -5584    -6011    -6319    -6602    -6876    -7032    -6932    -6543 
   -5927    -5171    -4455    -3981    -3846    -4006    -4318    -4706 
   -5216    -5788    -6228    -6498    -6662    -6690    -6583    -6412 
   -6176    -5844    -5441    -5061    -4791    -4607    -4453    -4334 
   -4306    -4449    -4803    -5329    -5961    -6602    -7117    -7345 
   -7214    -6851    -6409    -5908    -5363    -4849    -4414    -4090 
   -3882    -3815    -3964    -4326    -4849    -5530    -6316    -7015 
   -7441    -7561    -7470    -7215    -6789    -6174    -5395    -4612 
   -4025    -3721    -3724    -3966    -4294    -4656    -5096    -5611 
   -6139    -6546    -6702    -6670    -6582    -6444    -6204    -5877 
   -5524    -5185    -4904    -4730    -4634    -4569    -4579    -4739 
   -5081    -5555    -6061    -6520    -6856    -6983    -6874    -6612 
   -6304    -5989    -5645    -5269    -4922    -4654    -4491    -4460 
   -4561    -4784    -5113    -5490    -5846    -6126    -6247    -6187 
   -6053    -5956    -5887    -5794    -5675    -5551    -5429    -5331 
   -5248    -5158    -5086    -5090    -5163    -5238    -5297    -5391 
   -5524    -5632    -5695    -5769    -5869    -5884    -5724    -5456 
   -5198    -4997    -4918    -5032    -5301    -5595    -5830    -6003 
   -6146    -6226    -6164    -5994    -5819    -5692    -5603    -5541 
   -5506    -5481    -5429    -5379    -5418    -5535    -5641    -5715 
   -5773    -5795    -5736    -5583    -5395    -5221    -5113    -5159 
   -5344    -5503    -5549    -5559    -5595    -5632    -5641    -5595 
   -5466    -5306    -5223    -5275    -5394    -5485    -5582    -5733 
   -5908    -6042    -6027    -5836    -5563    -5320    -5200    -5189 
   -5209    -5225    -5244    -5297    -5398    -5493    -5541    -5572 
   -5617    -5699    -5817    -5908    -5892    -5776    -5692    -5715 
   -5752    -5690    -5525    -5350    -5269    -5286    -5320    -5347 
   -5363    -5341    -5325    -5337    -5313    -5248    -5239    -5336 
   -5490    -5629    -5729    -5794    -5841    -5903    -6023    -6180 
   -6278    -6211    -5976    -5719    -5547    -5409    -5259    -5144 
   -5097    -5084    -5069    -5112    -5239    -5360    -5421    -5454 
   -5510    -5606    -5714    -5825    -5925    -5967    -5964    -5964 
   -5954    -5854    -5626    -5377    -5242    -5208    -5177    -5119 
   -5092    -5173    -5366    -5571    -5703    -5753    -5724    -5626 
   -5483    -5323    -5217    -5220    -5294    -5408    -5524    -5589 
   -5597    -5610    -5686    -5837    -6006    -6103    -6099    -6037 
   -5965    -5883    -5738    -5547    -5382    -5279    -5238    -5236 
   -5215    -5140    -5093    -5175    -5393    -5649    -5827    -5904 
   -5931    -5917    -5859    -5799    -5732    -5620    -5487    -5370 
   -5278    -5213    -5147    -5061    -4992    -4988    -5063    -5194 
   -5336    -5494    -5691    -5880    -5996    -6050    -6102    -6102 
   -5969    -5775    -5624    -5545    -5528    -5530    -5501    -5436 
   -5363    -5314    -5319    -5378    -5479    -5606    -5740    -5883 
   -6012    -6054    -5968    -5818    -5690    -5578    -5428    -5242 
   -5049    -4873    -4783    -4831    -4977    -5142    -5292    -5478 
   -5707    -5887    -5952    -5950    -5964    -6016    -6052    -6019 
   -5941    -5817    -5617    -5386    -5193    -5047    -4953    -4941 
   -5027    -5196    -5395    -5584    -5741    -5846    -5919    -5999 
   -6054    -6014    -5873    -5692    -5506    -5329    -5178    -5062 
   -4997    -5007    -5113    -5313    -5526    -5686    -5800    -5875 
   -5888    -5861    -5829    -5782    -5692    -5570    -5460    -5401 
   -5363    -5332    -5351    -5422    -5482    -5513    -5547    -5583 
   -5578    -5540    -5540    -5594    -5676    -5790    -5904    -5960 
   -5941    -5876    -5794    -5706    -5621    -5571    -5551    -5495 
   -5387    -5287    -5224    -5171    -5138    -5142    -5152    -5157 
   -5211    -5324    -5432    -5512    -5589    -5668    -5734    -5795 
   -5849    -5854    -5792    -5715    -5684    -5706    -5752    -5786 
   -5756    -5670    -5578    -5526    -5502    -5428    -5305    -5202 
   -5142    -5116    -5136    -5197    -5290    -5390    -5506    -5655 
   -5779    -5825    -5821    -5775    -5694    -5640    -5634    -5628 
   -5621    -5625    -5617    -5594    -5572    -5541    -5498    -5471 
   -5481    -5487    -5464    -5467    -5540    -5651    -5725    -5724 
   -5687    -5651    -5574    -5458    -5346    -5254    -5190    -5182 
   -5233    -5314    -5390    -5443    -5505    -5614    -5740    -5823 
   -5864    -5872    -5841    -5787    -5740    -5709    -5680    -5643 
   -5597    -5545    -5517    -5518    -5517    -5502    -5499    -5524 
   -5556    -5590    -5653    -5734    -5756    -5688    -5584    -5502 
   -5467    -5479    -5512    -5517    -5475    -5401    -5343    -5313 
   -5267    -5216    -5239    -5344    -5474    -5583    -5640    -5620 
   -5567    -5560    -5609    -5633    -5606    -5571    -5557    -5549 
   -5551    -5578    -5601    -5584    -5578    -5617    -5657    -5657 
   -5647    -5651    -5628    -5544    -5443    -5385    -5359    -5352 
