Origin Time       2024/03/16 06:34:00
Lat.              32.907
Long.             131.047
Depth. (km)       7
Mag.              3.3
Station Code      KMMH05
Station Lat.      32.9553
Station Long.     131.2207
Station Height(m) 593
Record Time       2024/03/16 06:34:38
Sampling Freq(Hz) 100Hz
Duration Time(s)  120
Dir.              1
Scale Factor      3923(gal)/8224838
Max. Acc. (gal)   0.435
Last Correction   2024/03/16 06:34:38
Memo.             
[...]
    5121     5123     5121     5117     5116     5117     5120     5121 
    5121     5121     5123     5121     5119     5120     5124     5121 
    5117     5119     5120     5119     5119     5119     5121     5123 
    5123     5120     5120     5121     5123     5121     5121     5120 
    5120     5120     5117     5117     5117     5116     5117     5117 
    5119     5121     5121     5120     5121     5121     5120     5120 
    5120     5121     5120     5119     5120     5120     5119     5121 
    5124     5121     5120     5121     5121     5117     5120     5121 
    5120     5119     5119     5120     5123     5120     5120     5121 
    5120     5120     5121     5120     5119     5120     5119     5117 
    5120     5120     5119     5117     5117     5119     5120     5120 
    5119     5120     5120     5120     5117     5116     5119     5120 
    5121     5121     5121     5120     5121     5121     5119     5120 
    5120     5119     5120     5120     5119     5119     5117     5117 
    5117     5120     5120     5119     5119     5117     5116     5120 
    5120     5117     5120     5121     5119     5120     5124     5123 
    5121     5121     5119     5116     5119     5121     5123     5123 
    5121     5120     5121     5123     5123     5123     5121     5117 
    5117     5119     5121     5121     5120     5119     5117     5120 
    5121     5120     5121     5123     5120     5119     5117     5116 
    5119     5121     5123     5121     5120     5120     5121     5121 
    5117     5119     5123     5120     5120     5124     5125     5121 
    5120     5117     5120     5123     5121     5120     5120     5116 
    5117     5121     5120     5119     5120     5123     5120     5116 
    5120     5121     5120     5121     5123     5123     5121     5119 
    5120     5121     5121     5124     5123     5120     5120     5119 
    5117     5116     5120     5123     5123     5124     5124     5120 
    5120     5123     5121     5121     5121     5119     5117     5120 
    5121     5119     5117     5121     5121     5117     5120     5121 
    5120     5119     5119     5119     5120     5121     5120     5120 
    5121     5121     5121     5121     5121     5121     5121     5121 
    5120     5119     5119     5120     5123     5121     5120     5119 
    5117     5120     5121     5121     5120     5119     5119     5119 
    5117     5117     5120     5119     5117     5120     5120     5120 
    5123     5121     5120     5121     5120     5119     5120     5119 
    5117     5121     5123     5120     5120     5123     5119     5119 
    5121     5123     5121     5117     5116     5119     5119     5117 
    5120     5120     5116     5117     5119     5116     5119     5123 
    5120     5119     5120     5123     5123     5121     5120     5119 
    5119     5119     5121     5123     5120     5119     5121     5120 
    5119     5123     5124     5120     5119     5120     5119     5119 
    5119     5119     5121     5119     5119     5121     5117     5116 
    5119     5119     5119     5119     5117     5119     5120     5119 
    5120     5121     5121     5121     5123     5123     5119     5119 
    5124     5123     5119     5120     5120     5119     5120     5120 
    5116     5116     5119     5121     5123     5124     5124     5121 
    5120     5120     5119     5119     5119     5120     5120     5120 
    5121     5123     5123     5120     5119     5120     5123     5121 
    5120     5120     5120     5119     5119     5119     5119     5119 
    5120     5124     5123     5119     5119     5121     5121     5120 
    5120     5123     5124     5123     5121     5120     5120     5120 
    5120     5121     5121     5119     5120     5119     5117     5120 
    5120     5120     5119     5116     5117     5120     5120     5121 
    5121     5117     5119     5120     5119     5117     5120     5123 
    5123     5121     5121     5120     5120     5121     5121     5123 
    5123     5120     5117     5119     5120     5120     5117     5116 
    5117     5119     5121     5123     5121     5119     5120     5121 
    5119     5121     5125     5125     5120     5119     5121     5123 
    5121     5120     5117     5117     5123     5123     5120     5117 
    5115     5119     5124     5121     5117     5117     5119     5121 
    5121     5121     5120     5121     5124     5124     5120     5119 
    5121     5121     5119     5117     5121     5124     5124     5123 
    5117     5116     5123     5125     5124     5121     5119     5120 
    5123     5120     5119     5121     5123     5120     5119     5124 
    5123     5117     5117     5117     5116     5120     5121     5119 
    5119     5121     5124     5124     5121     5119     5120     5123 
    5123     5124     5123     5121     5120     5119     5121     5124 
    5124     5123     5117     5116     5121     5123     5119     5119 
    5119     5117     5116     5117     5120     5121     5120     5119 
    5117     5120     5123     5123     5123     5120     5121     5124 
    5121     5120     5120     5119     5119     5123     5123     5120 
    5121     5121     5121     5121     5123     5120     5117     5121 
    5121     5119     5120     5120     5116     5116     5121     5125 
    5123     5120     5120     5120     5119     5120     5123     5124 
    5121     5120     5121     5123     5120     5116     5119     5125 
    5127     5121     5117     5115     5116     5121     5124     5123 
    5123     5119     5116     5119     5119     5120     5124     5120 
    5117     5121     5121     5123     5124     5120     5117     5121 
    5121     5121     5124     5120     5119     5123     5120     5115 
    5117     5121     5120     5120     5121     5120     5121     5121 
    5117     5120     5120     5116     5117     5121     5121     5120 
    5123     5121     5121     5123     5120     5117     5121     5124 
    5121     5117     5116     5121     5123     5120     5121     5121 
    5117     5117     5123     5123     5119     5119     5120     5121 
    5119     5120     5123     5120     5120     5121     5120     5120 
    5121     5120     5121     5120     5119     5120     5121     5121 
    5120     5121     5124     5119     5117     5123     5123     5124 
    5127     5121     5117     5120     5120     5121     5124     5123 
    5119     5116     5117     5120     5120     5121     5120     5119 
    5120     5121     5121     5121     5121     5120     5117     5120 
    5121     5120     5121     5125     5123     5120     5120     5120 
    5121     5123     5120     5121     5124     5120     5120     5121 
    5117     5119     5124     5121     5120     5125     5123     5119 
    5121     5124     5121     5119     5119     5119     5121     5124 
    5121     5119     5119     5116     5117     5121     5124     5121 
    5119     5119     5119     5121     5123     5123     5124     5121 
    5119     5121     5121     5119     5121     5121     5120     5121 
    5121     5119     5119     5120     5119     5117     5120     5119 
    5119     5121     5121     5120     5121     5121     5120     5121 
    5123     5120     5120     5121     5120     5120     5120     5120 
    5121     5123     5123     5121     5121     5119     5119     5120 
    5120     5119     5119     5119     5121     5124     5123     5120 
    5121     5123     5121     5120     5119     5117     5119     5121 
    5123     5121     5119     5121     5124     5123     5123     5123 
    5120     5120     5120     5120     5121     5123     5120     5119 
    5121     5123     5121     5121     5121     5121     5120     5120 
    5123     5123     5119     5117     5119     5120     5120     5120 
    5119     5119     5120     5121     5123     5123     5123     5124 
    5120     5119     5123     5125     5123     5123     5120     5117 
    5117     5117     5119     5121     5117     5117     5124     5125 
    5117     5116     5121     5123     5120     5119     5120     5120 
    5121     5124     5123     5123     5123     5121     5119     5119 
    5120     5119     5119     5120     5121     5121     5123     5123 
    5123     5123     5121     5120     5121     5123     5123     5121 
    5121     5121     5121     5121     5121     5119     5119     5123 
    5121     5120     5119     5117     5117     5120     5123     5124 
    5121     5119     5120     5121     5121     5120     5120     5123 
    5123     5120     5123     5123     5121     5120     5119     5120 
    5121     5121     5121     5123     5123     5121     5120     5121 
    5119     5116     5119     5120     5120     5121     5123     5124 
    5123     5121     5119     5120     5121     5121     5120     5120 
    5121     5123     5124     5124     5121     5120     5119     5117 
    5119     5119     5119     5120     5120     5120     5117     5119 
    5121     5121     5120     5121     5121     5121     5121     5121 
    5124     5125     5120     5116     5121     5124     5121     5119 
    5117     5120     5121     5121     5120     5119     5117     5119 
    5120     5121     5121     5120     5121     5124     5124     5121 
    5120     5123     5123     5119     5121     5121     5119     5119 
    5121     5121     5120     5120     5123     5120     5117     5121 
    5121     5119     5119     5119     5119     5119     5117     5116 
    5120     5125     5124     5120     5121     5123     5120     5119 
    5121     5121     5120     5120     5121     5121     5124     5123 
    5119     5119     5121     5120     5117     5117     5120     5120 
    5119     5117     5121     5123     5120     5120     5120     5120 
    5120     5121     5124     5123     5121     5120     5120     5119 
    5120     5121     5119     5117     5119     5120     5121     5123 
    5123     5121     5121     5120     5120     5121     5120     5120 
    5121     5121     5121     5123     5121     5121     5121     5120 
    5120     5121     5120     5119     5121     5123     5121     5120 
    5117     5120     5124     5124     5120     5116     5116     5119 
    5119     5116     5117     5120     5120     5120     5120     5119 
    5119     5120     5121     5120     5121     5123     5123     5124 
    5125     5121     5121     5123     5124     5124     5123     5125 
    5125     5116     5115     5125     5134     5143     5151     5143 
    5134     5124     5103     5090     5107     5134     5159     5169 
    5147     5115     5112     5097     5028     5028     5131     5157 
    5117     5131     5144     5152     5128     5017     5027     5159 
    5139     5100     5190     5225     5219     5186     5055     5023 
    5157     5184     5019     5035     5286     5169     4833     4978 
    5259     5167     4942     4931     5186     5240     4922     4935 
    5346     5304     4869     4968     5418     5270     4920     5171 
    5358     5024     4946     5221     5223     5050     5077     5138 
    5157     5181     5003     4978     5266     5096     4843     5266 
    5497     5132     5040     5306     5235     4954     5100     5255 
    5015     5047     5239     5074     5081     5277     5108     4903 
    4931     4997     5076     5097     5123     5224     5208     5167 
    5281     5300     5023     4842     5047     5239     5184     5186 
    5377     5331     5001     5000     5197     5089     4978     5113 
    5144     5049     5067     5053     5043     5205     5228     5024 
    4930     5065     5235     5204     5080     5136     5220     5148 
    5132     5248     5252     5098     5119     5229     5082     5078 
    5258     5028     4800     5043     5190     5074     5074     5082 
    5001     5026     5057     5043     5211     5336     5192     5188 
    5281     5067     5009     5270     5179     5009     5233     5281 
    5069     5103     5204     5113     5062     5189     5252     5136 
    5093     5148     5097     5070     5158     5124     5061     5175 
    5151     4955     4962     5093     5112     5011     4939     4999 
    5063     5082     5085     5077     5112     5142     5138     5152 
    5058     4934     5077     5223     5174     5204     5277     5339 
    5327     5136     5088     5208     5188     5139     5154     5088 
    5085     5212     5217     5151     5130     5077     5043     5086 
    5093     5012     5043     5130     5058     5066     5167     5169 
    5192     5119     4963     4997     5003     4893     4932     5051 
    5069     5020     5028     5151     5236     5170     5138     5169 
    5115     5143     5352     5475     5445     5449     5478     5390 
    5312     5327     5235     5254     5553     5590     5425     5482 
    5325     5027     5096     5150     4978     4793     4576     4459 
    4503     4596     4803     5073     5252     5350     5167     4719 
    4494     4546     4773     5211     5458     5391     5394     5435 
    5228     5019     5066     5140     5359     5830     5883     5363 
    5004     4942     4816     4874     5233     5294     5073     5177 
    5355     5308     5347     5262     4957     4833     4737     4499 
    4301     4320     4738     5201     5363     5463     5383     5007 
    4752     4621     4500     4627     4872     4955     5023     5228 
    5447     5431     5103     4874     5070     5374     5406     5250 
    5325     5503     5242     4947     5059     5166     5309     5552 
    5536     5670     6033     5829     5298     5080     5003     4999 
    5038     5016     5139     5317     5202     5030     5162     5265 
    5142     5112     5019     4738     4627     4621     4637     4891 
    5061     4954     5009     5167     5120     5162     5356     5359 
    5301     5243     5049     5026     5224     5336     5331     5329 
    5485     5678     5614     5308     4936     4772     4791     4719 
    4730     4934     4942     4666     4557     4747     4815     4756 
    4995     5346     5394     5332     5421     5471     5339     5193 
    5159     5158     5062     4945     5036     5233     5182     5090 
    5254     5331     5197     5165     5175     4981     4707     4725 
    5031     5235     5250     5382     5643     5633     5406     5329 
    5231     4993     4887     4965     5086     5054     4909     4891 
    4903     4761     4548     4527     4730     4887     5015     5117 
    5076     5103     5200     5213     5275     5309     5363     5521 
    5463     5370     5516     5539     5395     5317     5266     5157 
    4932     4808     4877     4814     4819     5196     5417     5294 
    5238     5196     5167     5279     5309     5304     5294     5143 
    5177     5251     4962     4819     4981     4968     4934     5016 
    4978     4919     4911     4892     4914     4882     4919     5178 
    5304     5293     5466     5476     5213     5167     5256     5186 
    5107     5090     5104     5123     5128     5213     5270     5208 
    5246     5300     5185     5070     5077     5105     5013     4865 
    4843     4831     4796     4887     4969     4988     5038     5089 
    5128     5101     5024     5034     5070     5073     5127     5217 
    5267     5242     5125     5082     5208     5319     5367     5437 
    5439     5371     5336     5283     5166     5069     5053     5040 
    5005     4985     5001     5115     5193     5125     5127     5223 
    5229     5205     5231     5198     5135     5159     5161     5154 
    5189     5078     4988     5113     5139     5026     5036     5071 
    5024     4974     4876     4804     4892     5007     5116     5255 
    5293     5227     5188     5211     5213     5104     4941     4858 
    4914     5058     5194     5250     5243     5242     5193     5093 
    5063     5011     4843     4742     4792     4918     5077     5242 
    5366     5432     5466     5493     5490     5416     5309     5256 
    5208     5078     4941     4878     4866     4915     5044     5194 
    5320     5408     5436     5408     5283     5069     4874     4719 
    4604     4645     4810     4963     5138     5344     5493     5547 
    5490     5402     5402     5343     5123     4982     4977     4877 
    4750     4841     5028     5086     5124     5250     5306     5273 
    5251     5171     5024     4927     4881     4843     4806     4792 
    4882     5053     5182     5273     5363     5416     5414     5339 
    5178     5032     4931     4866     4872     4922     5020     5144 
    5173     5144     5163     5174     5131     5085     5092     5127 
    5105     5057     5022     4982     4992     5071     5174     5246 
    5278     5300     5309     5324     5331     5270     5197     5173 
    5130     5097     5139     5147     5146     5235     5246     5155 
    5152     5194     5224     5273     5263     5221     5228     5236 
    5233     5243     5185     5034     4930     4930     4943     4946 
    4988     5067     5165     5235     5194     5107     5096     5098 
    5027     4953     4962     4985     4947     4908     4922     4973 
    5043     5132     5150     5088     5120     5213     5206     5147 
    5084     5024     5042     5092     5097     5147     5217     5213 
    5256     5337     5285     5188     5179     5158     5080     5061 
    5077     5013     4953     5003     5043     5050     5144     5206 
    5154     5152     5150     5066     5073     5113     5080     5124 
    5217     5227     5242     5302     5347     5328     5263     5275 
    5304     5223     5215     5308     5279     5221     5220     5125 
    5017     5019     5035     5070     5135     5119     5046     5005 
    4958     4909     4922     4939     4926     4958     5032     5066 
    5027     4995     5024     5049     5054     5107     5169     5179 
    5150     5112     5086     5062     5036     5024     5038     5069 
    5142     5242     5260     5215     5188     5175     5165     5132 
    5097     5121     5144     5105     5086     5134     5163     5121 
    5108     5174     5206     5200     5216     5198     5138     5117 
    5121     5088     5074     5100     5096     5085     5092     5070 
    5050     5074     5119     5139     5120     5123     5140     5125 
    5143     5205     5238     5240     5204     5152     5142     5125 
    5104     5146     5197     5173     5086     5034     5062     5084 
    5066     5080     5116     5136     5112     5080     5113     5143 
    5100     5104     5166     5182     5190     5211     5204     5165 
    5109     5100     5117     5053     4990     5039     5086     5081 
    5084     5067     5034     5042     5026     4965     4945     4947 
    4974     5058     5105     5098     5146     5179     5135     5111 
    5109     5100     5108     5100     5094     5140     5162     5125 
    5115     5136     5151     5177     5196     5211     5252     5255 
    5209     5186     5159     5140     5170     5196     5231     5267 
    5248     5224     5208     5171     5162     5179     5202     5204 
    5142     5101     5100     5054     5043     5051     4974     4965 
    5057     5078     5063     5061     5017     4980     4976     4962 
    4972     5026     5080     5123     5140     5142     5202     5262 
    5233     5185     5150     5136     5154     5161     5165     5166 
