Origin Time       2024/03/16 06:34:00
Lat.              32.907
Long.             131.047
Depth. (km)       7
Mag.              3.3
Station Code      KMMH03
Station Lat.      32.9984
Station Long.     130.8301
Station Height(m) -22
Record Time       2024/03/16 06:34:37
Sampling Freq(Hz) 100Hz
Duration Time(s)  120
Dir.              1
Scale Factor      2942(gal)/8224139
Max. Acc. (gal)   0.194
Last Correction   2024/03/16 06:34:37
Memo.             
[...]
 -122054  -122053  -122052  -122053  -122054  -122056  -122054  -122054 
 -122050  -122049  -122052  -122053  -122054  -122058  -122061  -122058 
 -122054  -122050  -122053  -122057  -122056  -122054  -122056  -122058 
 -122057  -122054  -122057  -122056  -122052  -122053  -122053  -122054 
 -122056  -122054  -122052  -122052  -122054  -122057  -122054  -122054 
 -122057  -122056  -122054  -122054  -122054  -122056  -122054  -122052 
 -122053  -122056  -122054  -122054  -122056  -122050  -122049  -122054 
 -122057  -122054  -122054  -122052  -122050  -122052  -122052  -122054 
 -122057  -122056  -122054  -122054  -122053  -122053  -122052  -122050 
 -122050  -122052  -122054  -122057  -122057  -122057  -122053  -122053 
 -122054  -122053  -122050  -122053  -122056  -122057  -122056  -122054 
 -122053  -122053  -122052  -122054  -122054  -122054  -122054  -122054 
 -122053  -122053  -122053  -122053  -122053  -122052  -122052  -122053 
 -122052  -122053  -122056  -122053  -122050  -122054  -122057  -122054 
 -122054  -122050  -122046  -122050  -122057  -122056  -122054  -122056 
 -122056  -122057  -122056  -122050  -122048  -122049  -122049  -122053 
 -122058  -122062  -122062  -122053  -122046  -122049  -122049  -122053 
 -122054  -122054  -122057  -122058  -122057  -122056  -122053  -122050 
 -122050  -122050  -122052  -122058  -122060  -122054  -122052  -122053 
 -122053  -122049  -122049  -122052  -122052  -122054  -122057  -122057 
 -122057  -122056  -122050  -122049  -122052  -122053  -122050  -122053 
 -122057  -122056  -122052  -122050  -122052  -122054  -122054  -122050 
 -122053  -122057  -122054  -122052  -122056  -122056  -122052  -122053 
 -122053  -122053  -122052  -122050  -122052  -122053  -122056  -122057 
 -122057  -122054  -122053  -122054  -122054  -122053  -122050  -122050 
 -122053  -122053  -122054  -122054  -122054  -122054  -122056  -122054 
 -122052  -122052  -122054  -122056  -122054  -122053  -122056  -122056 
 -122053  -122053  -122054  -122053  -122053  -122054  -122056  -122054 
 -122053  -122054  -122054  -122052  -122052  -122053  -122054  -122054 
 -122057  -122057  -122054  -122054  -122052  -122052  -122054  -122057 
 -122054  -122052  -122052  -122054  -122056  -122053  -122049  -122050 
 -122056  -122057  -122053  -122056  -122056  -122053  -122053  -122054 
 -122056  -122054  -122053  -122054  -122057  -122054  -122050  -122054 
 -122058  -122057  -122053  -122054  -122054  -122050  -122052  -122056 
 -122058  -122056  -122053  -122054  -122057  -122056  -122053  -122053 
 -122057  -122054  -122052  -122052  -122053  -122053  -122052  -122053 
 -122054  -122056  -122057  -122057  -122053  -122052  -122054  -122054 
 -122052  -122050  -122054  -122058  -122056  -122053  -122054  -122053 
 -122056  -122056  -122053  -122054  -122058  -122054  -122052  -122052 
 -122052  -122053  -122052  -122052  -122056  -122058  -122054  -122052 
 -122053  -122052  -122052  -122054  -122057  -122057  -122053  -122052 
 -122053  -122052  -122048  -122052  -122057  -122054  -122053  -122056 
 -122056  -122054  -122053  -122054  -122056  -122054  -122052  -122053 
 -122058  -122061  -122054  -122054  -122058  -122057  -122060  -122058 
 -122050  -122050  -122053  -122052  -122056  -122056  -122054  -122056 
 -122053  -122050  -122053  -122057  -122057  -122054  -122052  -122052 
 -122056  -122056  -122052  -122053  -122056  -122053  -122052  -122053 
 -122052  -122053  -122057  -122054  -122053  -122054  -122054  -122053 
 -122054  -122056  -122056  -122053  -122053  -122054  -122054  -122054 
 -122052  -122052  -122056  -122050  -122050  -122054  -122054  -122053 
 -122053  -122052  -122053  -122057  -122061  -122061  -122057  -122049 
 -122049  -122054  -122056  -122056  -122057  -122056  -122053  -122053 
 -122054  -122056  -122054  -122052  -122052  -122050  -122052  -122056 
 -122054  -122052  -122053  -122057  -122058  -122053  -122049  -122052 
 -122053  -122050  -122053  -122058  -122061  -122057  -122053  -122053 
 -122052  -122054  -122056  -122053  -122054  -122056  -122052  -122050 
 -122053  -122052  -122052  -122056  -122053  -122053  -122056  -122060 
 -122058  -122054  -122054  -122056  -122050  -122050  -122057  -122057 
 -122054  -122053  -122052  -122052  -122052  -122053  -122053  -122050 
 -122050  -122052  -122056  -122054  -122054  -122056  -122057  -122057 
 -122054  -122050  -122050  -122056  -122060  -122054  -122052  -122057 
 -122057  -122054  -122056  -122054  -122053  -122053  -122054  -122056 
 -122053  -122052  -122053  -122056  -122057  -122058  -122057  -122056 
 -122056  -122054  -122053  -122053  -122053  -122057  -122058  -122053 
 -122052  -122054  -122054  -122053  -122056  -122057  -122053  -122053 
 -122056  -122056  -122053  -122050  -122053  -122056  -122054  -122054 
 -122056  -122056  -122056  -122056  -122053  -122054  -122056  -122054 
 -122053  -122054  -122058  -122056  -122052  -122052  -122054  -122052 
 -122049  -122052  -122054  -122054  -122056  -122056  -122057  -122056 
 -122052  -122053  -122057  -122054  -122052  -122054  -122054  -122050 
 -122053  -122057  -122056  -122054  -122053  -122050  -122050  -122053 
 -122054  -122053  -122050  -122056  -122058  -122050  -122049  -122054 
 -122054  -122053  -122054  -122053  -122054  -122054  -122053  -122052 
 -122054  -122057  -122057  -122056  -122056  -122053  -122052  -122054 
 -122057  -122056  -122056  -122054  -122054  -122054  -122054  -122054 
 -122052  -122054  -122057  -122054  -122053  -122052  -122054  -122057 
 -122054  -122053  -122054  -122053  -122053  -122052  -122050  -122054 
 -122056  -122050  -122049  -122054  -122060  -122060  -122054  -122053 
 -122053  -122054  -122056  -122056  -122054  -122056  -122056  -122053 
 -122053  -122052  -122050  -122054  -122057  -122052  -122050  -122053 
 -122052  -122052  -122057  -122057  -122054  -122053  -122053  -122054 
 -122057  -122056  -122050  -122049  -122054  -122054  -122053  -122056 
 -122056  -122053  -122052  -122053  -122053  -122056  -122054  -122050 
 -122052  -122053  -122053  -122054  -122057  -122054  -122054  -122054 
 -122052  -122052  -122053  -122056  -122056  -122056  -122054  -122052 
 -122054  -122058  -122056  -122052  -122054  -122058  -122054  -122052 
 -122056  -122057  -122054  -122054  -122056  -122053  -122054  -122054 
 -122054  -122054  -122053  -122054  -122057  -122058  -122054  -122050 
 -122056  -122060  -122054  -122052  -122053  -122054  -122056  -122054 
 -122052  -122054  -122057  -122056  -122056  -122054  -122054  -122054 
 -122054  -122054  -122058  -122057  -122053  -122050  -122053  -122053 
 -122052  -122053  -122056  -122056  -122054  -122052  -122053  -122054 
 -122053  -122056  -122056  -122054  -122057  -122056  -122052  -122053 
 -122057  -122054  -122053  -122057  -122056  -122052  -122057  -122058 
 -122050  -122050  -122056  -122054  -122053  -122053  -122053  -122056 
 -122057  -122056  -122054  -122053  -122057  -122058  -122054  -122053 
 -122053  -122053  -122056  -122054  -122052  -122050  -122053  -122057 
 -122058  -122054  -122052  -122054  -122053  -122053  -122056  -122056 
 -122054  -122057  -122058  -122050  -122049  -122056  -122056  -122052 
 -122053  -122054  -122053  -122052  -122056  -122057  -122053  -122053 
 -122054  -122056  -122056  -122053  -122053  -122054  -122058  -122058 
 -122054  -122052  -122054  -122053  -122050  -122052  -122053  -122054 
 -122053  -122054  -122058  -122057  -122052  -122052  -122054  -122053 
 -122054  -122057  -122056  -122056  -122054  -122052  -122052  -122054 
 -122050  -122050  -122056  -122054  -122053  -122056  -122056  -122054 
 -122053  -122054  -122054  -122053  -122050  -122054  -122060  -122057 
 -122053  -122052  -122056  -122057  -122054  -122054  -122053  -122054 
 -122054  -122054  -122053  -122052  -122052  -122054  -122054  -122054 
 -122053  -122052  -122053  -122053  -122054  -122057  -122056  -122053 
 -122054  -122056  -122053  -122054  -122056  -122052  -122053  -122054 
 -122053  -122054  -122054  -122053  -122053  -122053  -122056  -122057 
 -122056  -122054  -122054  -122057  -122054  -122053  -122058  -122058 
 -122052  -122053  -122054  -122054  -122056  -122053  -122052  -122054 
 -122054  -122057  -122058  -122053  -122050  -122052  -122056  -122054 
 -122049  -122053  -122057  -122054  -122054  -122053  -122052  -122056 
 -122056  -122053  -122056  -122060  -122057  -122054  -122056  -122054 
 -122054  -122057  -122056  -122052  -122052  -122054  -122056  -122056 
 -122054  -122052  -122054  -122058  -122058  -122056  -122058  -122060 
 -122054  -122056  -122058  -122054  -122054  -122057  -122056  -122052 
 -122053  -122056  -122057  -122057  -122054  -122054  -122057  -122054 
 -122052  -122053  -122056  -122052  -122053  -122057  -122056  -122054 
 -122056  -122057  -122056  -122053  -122054  -122056  -122054  -122054 
 -122053  -122052  -122054  -122053  -122052  -122057  -122057  -122053 
 -122053  -122054  -122058  -122058  -122054  -122053  -122056  -122056 
 -122054  -122053  -122054  -122056  -122054  -122056  -122056  -122053 
 -122056  -122057  -122054  -122053  -122053  -122056  -122056  -122052 
 -122052  -122053  -122054  -122057  -122057  -122053  -122054  -122056 
 -122054  -122054  -122053  -122054  -122061  -122057  -122050  -122053 
 -122056  -122053  -122054  -122053  -122053  -122054  -122054  -122056 
 -122056  -122056  -122056  -122053  -122052  -122054  -122054  -122052 
 -122054  -122057  -122052  -122049  -122054  -122056  -122056  -122056 
 -122054  -122054  -122053  -122052  -122057  -122057  -122054  -122054 
 -122056  -122057  -122056  -122053  -122054  -122058  -122054  -122052 
 -122054  -122057  -122057  -122056  -122054  -122054  -122050  -122049 
 -122056  -122058  -122056  -122053  -122054  -122056  -122054  -122053 
 -122057  -122057  -122053  -122054  -122056  -122054  -122054  -122054 
 -122054  -122054  -122054  -122056  -122053  -122052  -122054  -122054 
 -122054  -122056  -122056  -122054  -122054  -122053  -122053  -122056 
 -122056  -122056  -122054  -122053  -122054  -122056  -122054  -122057 
 -122056  -122054  -122056  -122054  -122050  -122052  -122054  -122053 
 -122053  -122054  -122054  -122053  -122054  -122054  -122053  -122056 
 -122054  -122052  -122054  -122054  -122056  -122056  -122052  -122053 
 -122056  -122056  -122053  -122056  -122056  -122053  -122053  -122053 
 -122054  -122060  -122058  -122058  -122067  -122079  -122087  -122095 
 -122099  -122106  -122137  -122179  -122172  -122103  -122021  -121957 
 -121914  -121894  -121883  -121892  -121969  -122084  -122158  -122170 
 -122119  -122030  -121967  -121936  -121932  -121987  -122098  -122208 
 -122287  -122312  -122268  -122216  -122141  -121979  -121875  -121871 
 -121817  -121797  -121890  -121953  -121990  -122087  -122153  -122148 
 -122172  -122157  -122022  -121967  -122000  -121933  -121953  -122156 
 -122206  -122107  -122165  -122235  -122143  -122142  -122218  -122122 
 -121987  -121957  -121926  -121902  -121927  -121956  -122015  -122106 
 -122129  -122099  -122069  -122019  -121950  -121934  -122007  -122064 
 -122067  -122112  -122164  -122149  -122119  -122107  -122095  -122106 
 -122126  -122103  -122079  -122044  -121940  -121911  -121969  -121965 
 -121967  -122003  -121973  -121938  -122013  -122092  -122045  -121996 
 -122092  -122173  -122130  -122112  -122164  -122197  -122210  -122164 
 -122071  -122015  -121987  -121975  -121981  -121934  -121899  -121986 
 -122053  -122022  -122031  -122088  -122071  -122011  -122042  -122137 
 -122161  -122127  -122145  -122168  -122096  -122014  -122015  -122056 
 -122102  -122121  -122095  -122100  -122126  -122071  -121991  -121984 
 -121967  -121915  -121953  -122041  -122044  -122008  -122003  -121992 
 -121986  -122000  -122014  -122065  -122199  -122308  -122288  -122231 
 -122175  -122068  -121992  -121987  -121957  -121922  -121981  -122053 
 -121984  -121873  -121896  -121976  -122033  -122096  -122112  -122099 
 -122129  -122123  -122062  -122061  -122084  -122069  -122092  -122154 
 -122193  -122176  -122103  -122096  -122154  -122114  -122019  -121941 
 -121857  -121846  -121906  -121925  -121891  -121883  -121961  -122045 
 -122038  -122048  -122143  -122211  -122203  -122172  -122161  -122162 
 -122131  -122058  -122000  -122000  -122057  -122095  -122072  -122064 
 -122065  -122007  -121961  -121990  -122017  -122010  -122042  -122092 
 -122100  -122098  -122077  -122049  -122068  -122081  -122040  -122002 
 -122025  -122062  -122054  -122035  -122048  -122100  -122173  -122143 
 -122035  -121986  -121984  -122021  -122079  -122045  -121956  -121984 
 -122081  -122073  -122015  -122045  -122103  -122089  -122023  -121995 
 -122048  -122130  -122152  -122106  -122075  -122095  -122076  -122013 
 -122019  -122022  -121980  -122046  -122125  -122091  -122072  -122081 
 -122061  -122069  -122085  -122042  -122022  -122079  -122088  -122027 
 -122035  -122099  -122094  -122041  -122033  -122053  -122044  -122023 
 -122017  -122004  -121977  -121953  -121944  -121941  -121956  -122004 
 -122068  -122154  -122230  -122231  -122202  -122204  -122189  -122104 
 -122033  -122038  -122042  -122014  -121988  -121977  -121981  -121983 
 -121967  -121973  -122035  -122115  -122152  -122139  -122141  -122141 
 -122067  -122008  -122023  -122019  -122034  -122123  -122191  -122199 
 -122202  -122215  -122242  -122245  -122181  -122096  -122056  -122048 
 -121996  -121910  -121903  -121976  -122045  -122084  -122037  -121871 
 -121672  -121527  -121512  -121613  -121693  -121770  -121952  -122164 
 -122330  -122455  -122500  -122477  -122472  -122447  -122310  -122121 
 -121979  -121807  -121621  -121630  -121840  -122081  -122284  -122341 
 -122227  -122145  -122165  -122126  -121983  -121918  -121980  -122026 
 -122041  -122067  -122064  -122062  -122084  -122067  -122037  -122104 
 -122215  -122193  -122081  -122073  -122104  -122004  -121868  -121833 
 -121888  -122002  -122104  -122084  -121987  -121926  -121844  -121709 
 -121709  -121902  -122092  -122183  -122233  -122296  -122328  -122277 
 -122195  -122126  -122058  -122008  -122071  -122215  -122281  -122320 
 -122386  -122312  -122083  -121852  -121717  -121709  -121792  -121872 
 -121883  -121875  -121896  -121896  -121878  -121914  -122031  -122180 
 -122262  -122250  -122200  -122134  -122049  -121986  -121981  -122007 
 -122031  -122062  -122083  -122094  -122119  -122142  -122142  -122148 
 -122169  -122168  -122112  -122010  -121929  -121882  -121824  -121818 
 -121906  -121972  -121994  -122038  -122091  -122137  -122191  -122243 
 -122229  -122133  -122081  -122114  -122100  -122004  -121938  -121948 
 -121992  -122046  -122080  -122088  -122111  -122150  -122184  -122220 
 -122231  -122206  -122148  -122035  -121925  -121860  -121822  -121842 
 -121922  -122002  -122089  -122211  -122312  -122322  -122262  -122185 
 -122111  -122069  -122046  -121971  -121867  -121868  -121984  -122089 
 -122169  -122234  -122210  -122115  -122018  -121967  -122007  -122033 
 -121936  -121814  -121798  -121852  -121876  -121910  -122027  -122141 
 -122162  -122122  -122076  -122035  -121991  -121994  -122067  -122127 
 -122134  -122153  -122192  -122160  -122050  -121994  -122027  -122069 
 -122100  -122139  -122149  -122127  -122092  -122042  -122015  -122011 
 -122008  -122002  -121973  -121922  -121867  -121860  -121934  -122035 
 -122127  -122227  -122310  -122341  -122326  -122235  -122088  -121988 
 -121934  -121880  -121884  -121945  -121957  -121917  -121926  -122026 
 -122150  -122202  -122160  -122116  -122112  -122143  -122164  -122138 
 -122139  -122166  -122106  -121986  -121944  -121988  -122013  -122026 
 -122125  -122206  -122123  -122013  -122015  -122038  -122008  -121952 
 -121894  -121903  -122014  -122142  -122245  -122331  -122337  -122216 
 -122076  -122006  -121969  -121981  -122030  -122026  -121998  -121987 
 -121945  -121902  -121919  -121987  -122054  -122080  -122094  -122152 
 -122207  -122200  -122156  -122073  -121980  -121949  -121977  -122013 
 -122004  -121961  -121979  -122041  -122015  -121922  -121872  -121869 
 -121892  -121954  -122029  -122084  -122139  -122180  -122166  -122108 
 -122057  -122037  -122008  -121967  -121956  -121960  -121977  -122017 
 -122030  -122031  -122064  -122088  -122098  -122148  -122197  -122188 
 -122177  -122185  -122156  -122102  -122064  -121995  -121894  -121894 
 -121991  -122006  -121963  -121994  -122035  -122045  -122073  -122110 
 -122122  -122115  -122114  -122141  -122175  -122176  -122153  -122153 
 -122180  -122195  -122169  -122092  -122007  -121960  -121952  -121980 
 -122021  -122044  -122067  -122091  -122083  -122060  -122041  -122041 
 -122068  -122077  -122048  -122035  -122041  -122013  -121996  -122026 
 -122035  -122003  -121967  -121946  -121959  -121998  -122034  -122042 
 -122011  -121998  -122042  -122118  -122177  -122160  -122108  -122125 
 -122137  -122062  -121995  -121987  -121992  -122013  -122053  -122073 
 -122067  -122065  -122071  -122075  -122071  -122069  -122083  -122084 
 -122054  -122003  -121946  -121929  -121953  -121987  -122017  -122026 
 -122027  -122034  -122034  -122022  -122019  -122054  -122099  -122100 
 -122085  -122072  -122027  -121971  -121959  -122003  -122057  -122079 
 -122083  -122106  -122156  -122210  -122226  -122197  -122172  -122157 
 -122108  -122049  -122031  -122044  -122048  -122018  -121965  -121938 
 -121961  -122015  -122071  -122096  -122073  -122044  -122044  -122061 
 -122100  -122161  -122193  -122172  -122121  -122065  -122026  -122004 
 -122002  -122026  -122054  -122053  -122058  -122089  -122116  -122130 
 -122107  -122048  -122025  -122053  -122073  -122081  -122116  -122149 
 -122145  -122112  -122056  -121973  -121903  -121879  -121899  -121932 
 -121950  -121969  -122014  -122049  -122033  -121995  -121992  -122007 
 -122003  -122011  -122049  -122054  -122048  -122083  -122126  -122129 
 -122100  -122077  -122089  -122115  -122087  -122010  -121965  -121976 
 -121983  -121977  -122003  -122044  -122062  -122069  -122069  -122060 
 -122057  -122056  -122049  -122027  -121977  -121940  -121956  -122017 
 -122088  -122126  -122133  -122152  -122170  -122168  -122143  -122092 
 -122038  -122023  -122019  -122004  -122007  -122011  -121991  -121975 
 -121983  -122015  -122046  -122069  -122072  -122045  -122041  -122088 
 -122142  -122164  -122158  -122153  -122164  -122168  -122152  -122116 
 -122079  -122034  -121987  -121960  -121956  -121975  -122026  -122087 
 -122133  -122152  -122127  -122076  -122050  -122062  -122071  -122060 
 -122061  -122075  -122080  -122065  -122038  -122037  -122072  -122085 
 -122072  -122075  -122083  -122076  -122065  -122052  -122022  -121988 
 -121964  -121963  -121977  -122002  -122029  -122060  -122092  -122111 
 -122108  -122081  -122052  -122056  -122065  -122031  -122007  -122034 
 -122038  -122004  -122002  -122029  -122022  -121998  -122026  -122077 
 -122098  -122116  -122145  -122156  -122164  -122160  -122119  -122064 
 -122026  -122011  -122023  -122037  -122025  -122014  -122019  -122010 
 -121992  -122007  -122034  -122038  -122023  -122006  -122006  -122029 
 -122061  -122079  -122068  -122052  -122046  -122042  -122056  -122067 
 -122061  -122064  -122079  -122092  -122092  -122068  -122042  -122021 
 -122014  -122030  -122058  -122081  -122077  -122062  -122081  -122114 
