Origin Time       2024/03/16 06:34:00
Lat.              32.907
Long.             131.047
Depth. (km)       7
Mag.              3.3
Station Code      KMMH03
Station Lat.      32.9984
Station Long.     130.8301
Station Height(m) -22
Record Time       2024/03/16 06:34:37
Sampling Freq(Hz) 100Hz
Duration Time(s)  120
Dir.              2
Scale Factor      2942(gal)/8224139
Max. Acc. (gal)   0.194
Last Correction   2024/03/16 06:34:37
Memo.             
[...]
   35594    35595    35598    35598    35596    35595    35595    35596 
   35598    35598    35599    35599    35598    35598    35596    35596 
   35598    35598    35598    35599    35598    35595    35595    35596 
   35596    35596    35598    35596    35596    35596    35598    35596 
   35595    35596    35596    35596    35598    35596    35595    35598 
   35595    35596    35600    35598    35595    35596    35596    35596 
   35599    35599    35598    35598    35599    35596    35596    35598 
   35594    35594    35595    35595    35596    35598    35595    35596 
   35599    35598    35596    35596    35595    35596    35600    35600 
   35599    35599    35598    35596    35596    35598    35599    35599 
   35595    35595    35598    35599    35598    35596    35598    35596 
   35599    35600    35598    35598    35598    35596    35598    35599 
   35598    35598    35599    35596    35595    35596    35596    35598 
   35598    35596    35595    35596    35596    35595    35594    35599 
   35600    35599    35596    35595    35596    35599    35599    35598 
   35598    35596    35595    35595    35596    35598    35596    35595 
   35595    35595    35596    35598    35596    35596    35595    35596 
   35600    35599    35595    35596    35596    35595    35596    35598 
   35599    35599    35596    35596    35598    35596    35596    35595 
   35598    35600    35599    35596    35596    35596    35596    35598 
   35599    35599    35596    35595    35595    35595    35595    35598 
   35598    35596    35596    35596    35595    35596    35596    35595 
   35596    35599    35599    35595    35595    35598    35599    35595 
   35596    35599    35598    35596    35596    35594    35595    35598 
   35595    35596    35598    35595    35594    35594    35596    35598 
   35596    35596    35599    35599    35596    35596    35599    35598 
   35594    35594    35598    35599    35598    35595    35595    35595 
   35596    35595    35595    35595    35595    35596    35598    35596 
   35595    35594    35596    35599    35598    35595    35595    35594 
   35594    35596    35598    35595    35595    35598    35595    35595 
   35598    35596    35595    35596    35596    35598    35599    35598 
   35596    35595    35595    35595    35596    35595    35596    35598 
   35598    35599    35598    35595    35595    35596    35598    35598 
   35595    35596    35598    35595    35595    35595    35595    35595 
   35596    35598    35598    35596    35598    35599    35596    35595 
   35596    35598    35599    35599    35596    35594    35594    35596 
   35598    35596    35598    35598    35598    35598    35598    35599 
   35598    35596    35596    35598    35598    35596    35596    35595 
   35595    35598    35598    35596    35594    35594    35598    35599 
   35599    35596    35594    35595    35598    35598    35598    35599 
   35595    35594    35596    35598    35595    35595    35598    35596 
   35598    35599    35598    35599    35598    35594    35595    35598 
   35598    35596    35596    35598    35598    35596    35595    35594 
   35594    35596    35598    35596    35598    35598    35595    35596 
   35598    35596    35595    35595    35596    35596    35598    35598 
   35596    35596    35596    35596    35596    35596    35596    35596 
   35596    35595    35596    35596    35594    35595    35600    35599 
   35598    35599    35599    35596    35595    35596    35595    35594 
   35599    35603    35600    35598    35595    35592    35592    35595 
   35598    35600    35602    35600    35598    35595    35595    35595 
   35595    35596    35598    35600    35598    35595    35598    35595 
   35592    35596    35598    35596    35599    35599    35595    35595 
   35595    35592    35595    35598    35596    35595    35595    35596 
   35598    35596    35596    35595    35595    35596    35596    35598 
   35600    35599    35594    35591    35592    35596    35600    35600 
   35595    35594    35595    35595    35594    35596    35599    35599 
   35596    35595    35596    35598    35595    35595    35596    35598 
   35599    35600    35599    35598    35595    35594    35594    35598 
   35598    35594    35594    35599    35602    35598    35594    35592 
   35595    35595    35594    35596    35599    35598    35598    35599 
   35595    35592    35594    35595    35596    35600    35602    35600 
   35599    35596    35594    35595    35595    35598    35596    35595 
   35596    35596    35595    35598    35598    35592    35594    35598 
   35596    35596    35598    35595    35594    35596    35596    35594 
   35594    35594    35594    35595    35595    35594    35595    35596 
   35595    35594    35595    35595    35594    35594    35595    35598 
   35598    35596    35595    35595    35596    35596    35596    35595 
   35594    35595    35595    35595    35598    35600    35598    35595 
   35596    35595    35595    35596    35596    35596    35596    35598 
   35598    35595    35596    35599    35596    35596    35596    35595 
   35595    35598    35596    35595    35595    35594    35594    35595 
   35595    35595    35596    35595    35595    35596    35596    35592 
   35592    35595    35595    35594    35592    35595    35596    35595 
   35596    35596    35592    35592    35594    35594    35595    35596 
   35596    35596    35596    35596    35595    35594    35595    35595 
   35594    35595    35595    35596    35598    35596    35595    35596 
   35596    35595    35595    35596    35599    35598    35595    35595 
   35598    35598    35595    35594    35594    35592    35595    35596 
   35594    35595    35596    35594    35594    35598    35598    35596 
   35595    35595    35595    35595    35598    35598    35594    35595 
   35598    35596    35596    35598    35596    35596    35596    35598 
   35595    35592    35594    35598    35599    35598    35595    35594 
   35595    35596    35596    35598    35596    35596    35598    35598 
   35595    35594    35594    35595    35596    35595    35596    35595 
   35595    35595    35592    35594    35598    35596    35594    35594 
   35595    35596    35595    35594    35594    35592    35594    35598 
   35596    35591    35594    35596    35595    35595    35598    35596 
   35596    35598    35595    35594    35596    35599    35596    35594 
   35595    35596    35596    35598    35598    35596    35596    35596 
   35594    35594    35596    35599    35598    35595    35595    35596 
   35594    35594    35598    35602    35599    35594    35594    35594 
   35594    35595    35598    35600    35598    35594    35594    35595 
   35596    35599    35599    35594    35594    35599    35599    35594 
   35596    35598    35596    35598    35598    35595    35595    35595 
   35596    35599    35596    35595    35596    35595    35595    35596 
   35599    35598    35598    35596    35594    35594    35596    35599 
   35599    35598    35598    35596    35595    35595    35599    35598 
   35592    35594    35595    35595    35598    35598    35594    35598 
   35599    35595    35594    35599    35599    35596    35599    35598 
   35595    35596    35599    35598    35596    35596    35595    35592 
   35595    35600    35600    35599    35598    35595    35594    35596 
   35598    35595    35596    35598    35598    35595    35592    35595 
   35598    35596    35596    35596    35596    35595    35595    35595 
   35592    35594    35596    35596    35598    35598    35595    35595 
   35595    35596    35596    35596    35596    35596    35598    35598 
   35594    35592    35596    35596    35596    35598    35598    35595 
   35594    35594    35595    35598    35598    35596    35596    35596 
   35598    35596    35595    35596    35599    35598    35594    35594 
   35595    35596    35595    35598    35598    35594    35592    35596 
   35595    35592    35595    35598    35596    35595    35596    35596 
   35595    35596    35598    35595    35595    35598    35598    35598 
   35598    35596    35595    35598    35596    35595    35595    35594 
   35592    35595    35599    35599    35598    35596    35596    35596 
   35596    35596    35598    35596    35596    35596    35596    35595 
   35596    35599    35600    35599    35596    35595    35594    35595 
   35598    35600    35598    35594    35595    35596    35595    35595 
   35595    35596    35599    35596    35592    35592    35594    35594 
   35596    35598    35595    35595    35595    35596    35596    35598 
   35596    35594    35595    35596    35596    35595    35594    35595 
   35595    35594    35598    35599    35595    35594    35595    35595 
   35595    35596    35599    35596    35595    35596    35594    35594 
   35596    35596    35596    35598    35599    35599    35599    35598 
   35596    35596    35596    35595    35598    35598    35595    35594 
   35595    35594    35596    35596    35596    35599    35598    35595 
   35598    35599    35598    35599    35596    35595    35596    35596 
   35596    35598    35598    35595    35594    35595    35596    35596 
   35596    35596    35598    35596    35596    35596    35595    35596 
   35598    35595    35595    35596    35596    35596    35595    35594 
   35595    35595    35595    35596    35598    35598    35598    35598 
   35595    35595    35595    35595    35596    35598    35595    35596 
   35598    35594    35594    35598    35598    35595    35596    35596 
   35592    35595    35599    35598    35595    35595    35595    35598 
   35598    35596    35596    35598    35596    35595    35598    35599 
   35596    35594    35595    35598    35598    35596    35596    35594 
   35592    35594    35595    35596    35596    35596    35598    35598 
   35596    35595    35594    35595    35596    35596    35598    35598 
   35595    35595    35596    35598    35600    35598    35595    35596 
   35598    35596    35594    35595    35595    35594    35594    35595 
   35596    35595    35598    35599    35598    35596    35598    35598 
   35599    35596    35595    35596    35598    35595    35595    35599 
   35598    35594    35595    35596    35595    35595    35595    35596 
   35596    35595    35594    35595    35596    35596    35595    35595 
   35596    35595    35595    35599    35596    35592    35595    35598 
   35596    35595    35595    35596    35596    35594    35592    35594 
   35596    35598    35595    35594    35595    35596    35598    35598 
   35595    35595    35596    35596    35595    35595    35598    35600 
   35599    35596    35595    35595    35598    35599    35595    35592 
   35595    35599    35596    35595    35598    35596    35595    35598 
   35598    35596    35596    35598    35598    35595    35591    35594 
   35599    35598    35596    35595    35594    35594    35596    35598 
   35596    35595    35595    35596    35598    35595    35595    35596 
   35598    35595    35595    35598    35598    35595    35595    35599 
   35598    35595    35595    35595    35594    35594    35596    35598 
   35598    35598    35598    35598    35598    35596    35595    35595 
   35594    35595    35596    35596    35598    35599    35596    35596 
   35599    35598    35596    35596    35594    35594    35595    35595 
   35596    35596    35596    35598    35595    35592    35596    35598 
   35595    35592    35594    35598    35598    35595    35595    35595 
   35595    35598    35599    35598    35596    35595    35594    35595 
   35598    35595    35594    35594    35592    35594    35596    35595 
   35595    35596    35595    35594    35596    35596    35594    35595 
   35596    35595    35592    35592    35598    35599    35598    35595 
   35592    35594    35595    35595    35595    35594    35594    35595 
   35594    35595    35596    35596    35595    35595    35595    35595 
   35599    35596    35594    35596    35595    35591    35596    35600 
   35598    35596    35596    35595    35594    35592    35594    35598 
   35598    35598    35596    35598    35599    35596    35594    35595 
   35596    35596    35595    35595    35595    35595    35595    35596 
   35594    35594    35595    35594    35595    35596    35596    35595 
   35594    35596    35596    35595    35598    35599    35595    35594 
   35592    35596    35599    35598    35599    35600    35595    35594 
   35596    35598    35595    35595    35598    35595    35595    35598 
   35598    35598    35595    35594    35596    35596    35594    35596 
   35596    35596    35595    35592    35596    35599    35595    35594 
   35598    35598    35596    35596    35596    35596    35599    35598 
   35592    35595    35598    35595    35595    35596    35595    35595 
   35595    35596    35599    35599    35594    35591    35595    35598 
   35596    35595    35595    35596    35596    35596    35595    35594 
   35594    35596    35596    35594    35594    35594    35594    35595 
   35596    35596    35596    35595    35595    35595    35595    35596 
   35598    35596    35599    35598    35592    35595    35602    35599 
   35594    35596    35599    35598    35598    35595    35596    35599 
   35598    35596    35598    35599    35598    35594    35595    35600 
   35600    35596    35596    35599    35599    35596    35595    35599 
   35599    35598    35602    35610    35623    35645    35671    35695 
   35718    35745    35806    35885    35897    35811    35681    35540 
   35403    35274    35133    35055    35144    35349    35577    35742 
   35749    35658    35587    35523    35465    35475    35580    35727 
   35861    35954    35980    35953    35827    35637    35525    35410 
   35289    35262    35226    35264    35433    35523    35530    35596 
   35711    35737    35689    35737    35753    35652    35672    35775 
   35711    35611    35658    35712    35734    35785    35738    35629 
   35572    35491    35375    35317    35309    35275    35293    35437 
   35563    35625    35702    35765    35765    35758    35792    35777 
   35710    35652    35579    35515    35514    35571    35588    35553 
   35603    35707    35733    35664    35572    35556    35575    35522 
   35429    35382    35398    35446    35550    35664    35671    35662 
   35748    35800    35748    35648    35541    35527    35583    35536 
   35465    35509    35583    35646    35669    35600    35603    35721 
   35708    35611    35631    35657    35595    35571    35598    35619 
   35625    35575    35521    35532    35557    35598    35618    35581 
   35642    35750    35699    35623    35625    35579    35548    35602 
   35646    35654    35634    35604    35619    35614    35517    35445 
   35490    35560    35577    35590    35677    35750    35719    35708 
   35694    35583    35529    35557    35513    35413    35386    35430 
   35464    35499    35575    35658    35687    35667    35657    35633 
   35590    35604    35649    35644    35644    35691    35675    35588 
   35557    35546    35506    35525    35599    35649    35638    35569 
   35529    35571    35595    35546    35494    35536    35646    35658 
   35584    35604    35699    35730    35673    35561    35511    35591 
   35646    35577    35490    35499    35567    35544    35452    35472 
   35608    35683    35649    35638    35704    35769    35764    35683 
   35608    35615    35614    35554    35534    35594    35642    35554 
   35457    35537    35611    35576    35581    35617    35606    35557 
   35507    35525    35599    35627    35579    35565    35572    35537 
   35615    35802    35851    35741    35649    35684    35726    35614 
   35473    35464    35511    35533    35519    35513    35586    35656 
   35621    35540    35456    35463    35575    35631    35671    35737 
   35716    35716    35765    35694    35583    35565    35577    35590 
   35625    35652    35642    35579    35488    35449    35449    35441 
   35461    35498    35548    35613    35626    35631    35673    35657 
   35642    35727    35779    35712    35661    35667    35633    35581 
   35565    35490    35390    35402    35476    35523    35546    35586 
   35669    35718    35667    35633    35700    35745    35650    35460 
   35297    35255    35306    35356    35417    35532    35637    35691 
   35739    35834    35919    35873    35766    35745    35795    35814 
   35716    35617    35665    35692    35581    35456    35370    35368 
   35461    35552    35606    35623    35611    35607    35586    35544 
   35538    35599    35692    35707    35575    35383    35310    35413 
   35540    35571    35563    35568    35573    35622    35734    35768 
   35638    35490    35432    35414    35460    35560    35627    35710 
   35831    35949    35985    35843    35685    35710    35768    35687 
   35522    35424    35506    35681    35738    35633    35510    35484 
   35550    35615    35598    35488    35413    35478    35569    35572 
   35559    35592    35596    35542    35538    35540    35433    35376 
   35457    35527    35521    35488    35540    35714    35866    35878 
   35781    35695    35675    35658    35640    35641    35637    35668 
   35742    35734    35634    35541    35479    35451    35465    35479 
   35467    35511    35606    35594    35500    35459    35478    35542 
   35660    35766    35757    35634    35525    35519    35594    35644 
   35600    35554    35564    35584    35613    35652    35722    35789 
   35758    35668    35638    35658    35658    35649    35646    35587 
   35509    35530    35617    35646    35598    35536    35514    35491 
   35438    35402    35376    35365    35409    35490    35592    35680 
   35706    35689    35664    35631    35599    35565    35553    35573 
   35587    35602    35671    35762    35793    35757    35704    35633 
   35522    35457    35503    35533    35490    35529    35660    35730 
   35745    35748    35696    35587    35510    35545    35625    35611 
   35518    35475    35484    35461    35451    35514    35603    35641 
   35640    35661    35675    35623    35563    35550    35560    35577 
   35599    35596    35619    35671    35658    35631    35657    35698 
   35702    35634    35571    35621    35704    35707    35684    35671 
   35644    35621    35584    35529    35499    35513    35560    35611 
   35623    35633    35667    35667    35610    35529    35483    35552 
   35694    35726    35600    35509    35514    35490    35468    35530 
   35615    35667    35675    35644    35615    35664    35739    35692 
   35576    35537    35572    35611    35591    35534    35545    35610 
   35633    35622    35633    35698    35769    35700    35521    35413 
   35380    35392    35515    35683    35758    35746    35685    35573 
   35525    35614    35675    35608    35548    35527    35488    35445 
   35434    35487    35579    35617    35603    35580    35572    35646 
   35742    35710    35577    35502    35560    35702    35799    35804 
   35760    35702    35685    35704    35698    35683    35664    35587 
   35469    35384    35411    35538    35618    35563    35486    35473 
   35482    35502    35538    35545    35534    35503    35455    35476 
   35548    35559    35529    35542    35583    35607    35614    35618 
   35629    35644    35660    35711    35766    35743    35680    35676 
