Origin Time       2024/03/16 06:34:00
Lat.              32.907
Long.             131.047
Depth. (km)       7
Mag.              3.3
Station Code      KMMH03
Station Lat.      32.9984
Station Long.     130.8301
Station Height(m) 178
Record Time       2024/03/16 06:34:37
Sampling Freq(Hz) 100Hz
Duration Time(s)  120
Dir.              4
Scale Factor      7845(gal)/8223790
Max. Acc. (gal)   1.325
Last Correction   2024/03/16 06:34:37
Memo.             
[...]
    4276     4282     4276     4260     4239     4230     4234     4251 
    4278     4288     4268     4226     4199     4220     4261     4291 
    4303     4286     4244     4216     4230     4268     4284     4282 
    4280     4272     4245     4232     4244     4244     4229     4237 
    4252     4247     4239     4252     4264     4256     4244     4252 
    4264     4264     4263     4266     4260     4255     4268     4276 
    4268     4259     4240     4222     4239     4259     4251     4236 
    4239     4244     4239     4243     4268     4287     4275     4256 
    4255     4270     4280     4279     4257     4229     4226     4240 
    4243     4253     4279     4286     4264     4239     4218     4209 
    4224     4271     4306     4287     4248     4234     4234     4233 
    4251     4288     4299     4267     4243     4244     4244     4239 
    4263     4305     4313     4272     4218     4189     4195     4230 
    4268     4291     4297     4288     4253     4197     4182     4236 
    4295     4309     4288     4259     4241     4234     4232     4247 
    4286     4314     4298     4251     4207     4207     4240     4264 
    4266     4268     4276     4268     4226     4194     4212     4266 
    4309     4314     4286     4239     4206     4210     4236     4274 
    4315     4318     4270     4207     4178     4198     4244     4287 
    4301     4286     4264     4252     4248     4243     4240     4251 
    4263     4263     4267     4275     4257     4230     4233     4247 
    4243     4256     4293     4293     4247     4212     4225     4266 
    4291     4284     4252     4224     4220     4226     4249     4303 
    4338     4303     4232     4189     4190     4222     4270     4302 
    4299     4274     4239     4205     4203     4240     4278     4295 
    4290     4272     4252     4244     4248     4253     4256     4263 
    4261     4243     4230     4243     4266     4270     4264     4270 
    4267     4241     4224     4229     4239     4248     4266     4291 
    4295     4253     4206     4221     4278     4295     4264     4237 
    4240     4259     4263     4253     4252     4255     4261     4264 
    4244     4222     4229     4252     4279     4299     4294     4271 
    4237     4210     4213     4243     4279     4299     4290     4260 
    4226     4195     4199     4257     4310     4309     4276     4240 
    4222     4229     4241     4261     4287     4279     4239     4220 
    4236     4259     4275     4280     4280     4276     4264     4244 
    4209     4189     4228     4293     4309     4284     4255     4229 
    4222     4236     4237     4244     4284     4318     4298     4245 
    4221     4226     4236     4252     4270     4276     4275     4261 
    4241     4224     4225     4264     4291     4276     4260     4260 
    4251     4234     4224     4239     4280     4303     4271     4229 
    4226     4251     4260     4264     4276     4278     4249     4213 
    4203     4233     4268     4280     4283     4276     4255     4244 
    4248     4244     4241     4249     4259     4272     4279     4256 
    4233     4243     4255     4248     4241     4261     4290     4268 
    4218     4217     4256     4288     4298     4283     4252     4222 
    4210     4221     4240     4266     4297     4298     4272     4252 
    4244     4239     4234     4245     4263     4251     4236     4261 
    4270     4247     4270     4295     4248     4205     4228     4253 
    4264     4283     4291     4271     4244     4236     4233     4232 
    4253     4272     4264     4259     4263     4260     4244     4240 
    4252     4255     4244     4251     4264     4264     4257     4256 
    4263     4264     4243     4229     4257     4272     4249     4247 
    4268     4275     4257     4237     4236     4249     4256     4249 
    4255     4284     4293     4256     4221     4217     4233     4263 
    4282     4279     4272     4253     4216     4221     4261     4252 
    4224     4253     4297     4299     4278     4257     4229     4210 
    4228     4249     4267     4294     4290     4270     4270     4226 
    4164     4198     4295     4336     4309     4264     4224     4207 
    4229     4247     4232     4248     4307     4318     4263     4214 
    4222     4255     4256     4236     4255     4306     4299     4214 
    4180     4261     4325     4278     4218     4224     4248     4260 
    4260     4243     4251     4284     4286     4257     4244     4237 
    4225     4232     4272     4302     4284     4252     4217     4189 
    4202     4248     4291     4320     4338     4325     4245     4172 
    4183     4210     4217     4261     4317     4314     4279     4255 
    4229     4220     4259     4286     4251     4217     4226     4248 
    4270     4286     4268     4248     4274     4279     4213     4183 
    4267     4337     4283     4198     4210     4274     4290     4261 
    4236     4248     4287     4280     4228     4210     4252     4278 
    4260     4252     4252     4241     4251     4255     4233     4249 
    4297     4291     4240     4233     4261     4257     4245     4257 
    4260     4259     4259     4241     4229     4241     4264     4270 
    4257     4255     4264     4263     4243     4243     4270     4271 
    4240     4228     4252     4275     4264     4253     4268     4264 
    4230     4230     4257     4261     4252     4259     4274     4278 
    4256     4217     4207     4240     4261     4263     4274     4287 
    4294     4284     4244     4206     4198     4201     4218     4278 
    4328     4321     4298     4268     4229     4216     4212     4198 
    4218     4276     4314     4307     4284     4249     4203     4213 
    4245     4229     4243     4298     4310     4280     4257     4232 
    4220     4236     4232     4230     4278     4299     4259     4241 
    4270     4280     4240     4201     4232     4284     4271     4248 
    4268     4275     4243     4213     4216     4249     4282     4283 
    4274     4274     4266     4236     4216     4224     4248     4282 
    4306     4274     4229     4225     4233     4251     4261     4230 
    4236     4301     4314     4268     4245     4247     4243     4225 
    4198     4205     4257     4299     4297     4295     4297     4276 
    4241     4199     4174     4209     4263     4267     4261     4307 
    4334     4271     4212     4224     4243     4234     4237     4267 
    4283     4255     4222     4232     4270     4288     4271     4261 
    4284     4278     4212     4171     4203     4249     4278     4298 
    4307     4298     4283     4266     4214     4156     4176     4249 
    4284     4294     4318     4322     4257     4209     4229     4218 
    4199     4263     4322     4303     4267     4237     4193     4179 
    4233     4290     4299     4313     4332     4294     4202     4153 
    4193     4226     4229     4298     4361     4302     4225     4230 
    4255     4241     4213     4229     4272     4268     4257     4290 
    4299     4217     4147     4213     4297     4244     4170     4193 
    4234     4214     4214     4307     4392     4382     4399     4486 
    4450     4229     3939     3663     3586     3813     4121     4432 
    4820     5082     5073     4915     4561     3973     3418     3179 
    3357     3854     4318     4615     4927     5131     5007     4784 
    4592     4216     3761     3557     3580     3781     4202     4553 
    4687     4803     4784     4519     4284     4110     3878     3742 
    3751     3801     3913     3964     3846     3851     4180     4719 
    5314     5611     5304     4661     4072     3514     3001     2948 
    3470     4016     4293     4668     5127     5063     4468     4032 
    3913     3838     3893     4178     4419     4434     4469     4758 
    5005     4874     4637     4517     4162     3589     3468     3840 
    4128     4271     4544     4725     4475     4058     3829     3720 
    3750     4141     4719     5038     5070     5001     4666     4025 
    3523     3484     3669     3824     4064     4309     4332     4396 
    4754     4935     4552     4097     3989     3873     3645     3728 
    4109     4375     4444     4464     4438     4259     3987     3958 
    4291     4612     4689     4719     4658     4202     3591     3427 
    3711     3963     4106     4390     4695     4749     4737     4815 
    4700     4409     4334     4413     4284     4051     3958     3871 
    3770     3909     4147     4166     4081     4090     4155     4283 
    4579     4874     4834     4575     4419     4314     4182     4202 
    4423     4584     4457     4168     3977     3915     3875     3886 
    4016     4153     4125     3993     3877     3732     3678     3990 
    4550     4974     5185     5265     5065     4568     4168     4045 
    4001     4016     4083     4041     3981     3952     3817     3758 
    3973     4299     4557     4603     4428     4307     4259     4052 
    3875     3979     4136     4131     4144     4371     4698     4934 
    4992     4799     4409     4075     3979     4102     4267     4361 
    4514     4742     4722     4388     4071     3804     3512     3469 
    3653     3739     3879     4280     4617     4622     4536     4618 
    4756     4730     4488     4174     3967     3862     3851     4091 
    4476     4656     4552     4307     3973     3651     3662     4021 
    4388     4629     4729     4631     4295     3809     3569     3762 
    4066     4232     4375     4610     4776     4772     4727     4594 
    4276     4020     3983     3943     3869     4055     4423     4580 
    4568     4688     4738     4341     3709     3388     3578     4055 
    4479     4635     4558     4405     4133     3861     4089     4702 
    4996     4904     4641     4206     3924     3973     4060     4086 
    4058     3954     3933     3966     3939     4054     4380     4623 
    4517     4136     3946     4145     4287     4239     4379     4549 
    4422     4252     4172     4010     3893     3989     4171     4329 
    4487     4522     4317     4162     4229     4183     3851     3514 
    3569     4035     4459     4615     4729     4905     5057     5128 
    5058     4793     4492     4417     4536     4563     4479     4430 
    4368     4256     4193     4136     3873     3433     3206     3304 
    3492     3654     3831     4178     4704     5115     5251     5200 
    5011     4641     4144     3767     3618     3499     3356     3399 
    3572     3734     4039     4338     4313     4124     3947     3896 
    4171     4587     4816     4878     4920     4823     4351     3801 
    3653     3842     4104     4379     4752     5103     5192     5179 
    5138     4869     4459     4093     3871     3823     3920     4133 
    4182     3933     3770     3933     4267     4479     4441     4433 
    4630     4608     4091     3558     3430     3530     3713     4122 
    4765     5296     5289     4851     4483     4255     4044     4010 
    4063     3998     3915     3870     3809     3680     3534     3634 
    4081     4552     4687     4558     4438     4364     4288     4251 
    4325     4476     4510     4473     4591     4585     4162     3888 
    4232     4564     4274     3854     4009     4449     4546     4509 
    4626     4413     3759     3550     4089     4476     4333     4305 
    4510     4430     4147     4125     4261     4124     3893     4116 
    4558     4642     4348     3865     3483     3508     3778     4039 
    4342     4677     4824     4772     4788     4861     4735     4496 
    4306     4071     3782     3599     3613     3827     4180     4515 
    4704     4687     4587     4615     4594     4367     4240     4259 
    4147     3900     3680     3622     3774     3977     4095     4245 
    4436     4502     4517     4657     4838     4896     4822     4685 
    4498     4213     3894     3672     3612     3796     4093     4207 
    4240     4382     4515     4565     4423     4077     3956     4132 
    4113     4043     4288     4465     4486     4634     4560     4272 
    4266     4336     4360     4519     4419     3923     3537     3350 
    3140     3084     3439     3974     4239     4340     4648     4753 
    4348     4222     4652     4870     4746     4854     5119     4966 
    4490     4247     4193     3956     3770     3851     3840     3877 
    4359     4918     5309     5551     5224     4537     4039     3433 
    2911     3176     3670     3836     4297     4974     4904     4357 
    4320     4468     4272     4172     4108     3846     4002     4294 
    3915     3596     3854     4082     4383     4692     4394     4056 
    4166     4198     4236     4486     4396     3970     3997     4480 
    4599     4329     4340     4681     5028     5023     4446     4077 
    4174     3873     4036     5282     5335     4113     4013     4163 
    3510     3593     3871     3634     4222     4521     3847     4423 
    5124     4284     4259     4958     4402     3937     3954     3446 
    3809     4768     4432     4180     4619     3979     3275     3690 
    3767     3705     4332     4341     3939     4413     4738     4352 
    4271     4426     4587     4934     4795     4302     4407     4442 
    3767     3526     4145     4553     4414     4345     4517     4545 
    4168     3773     4037     4554     4179     3372     3763     4945 
    5112     4396     4052     4178     4342     4244     3850     3832 
    4162     3990     3956     4923     5643     5008     4032     3952 
    4396     4382     4025     4145     4800     5228     5004     4496 
    3990     3335     2895     3183     3838     4356     4577     4511 
    4598     4888     4688     4001     3640     3843     4105     4113 
    4089     4267     4444     4392     4251     4167     4090     3933 
    3823     4001     4328     4477     4538     4664     4707     4610 
    4491     4382     4297     4236     4048     3785     3688     3727 
    3809     4037     4380     4650     4719     4572     4355     4182 
    4090     4160     4248     4152     4113     4356     4698     4908 
    4820     4456     4206     4288     4473     4531     4398     4079 
    3707     3437     3373     3522     3699     3778     3886     4114 
    4371     4583     4792     4997     5043     4780     4378     4131 
    4048     4120     4371     4502     4341     4221     4302     4394 
    4472     4604     4625     4369     4029     3916     3989     4050 
    4133     4260     4314     4352     4448     4436     4279     4116 
    4087     4340     4611     4461     4106     3956     3923     3881 
    3859     3811     3794     3916     4095     4247     4294     4189 
    4189     4457     4718     4830     4865     4783     4629     4509 
    4409     4299     4225     4232     4257     4212     4124     4070 
    4048     4005     3955     3983     4043     4035     4018     4120 
    4356     4626     4810     4784     4504     4195     4137     4175 
    4035     3928     4081     4240     4283     4428     4518     4263 
    3885     3715     3811     4050     4275     4413     4336     4091 
    4058     4244     4230     4025     3989     4199     4438     4553 
    4618     4673     4619     4545     4563     4483     4232     4121 
    4282     4487     4571     4521     4367     4164     3997     3915 
    3867     3820     3862     4082     4372     4463     4318     4135 
    4025     4078     4294     4415     4286     4141     4237     4406 
    4376     4321     4410     4371     4145     4122     4302     4297 
    4158     4189     4298     4270     4206     4264     4305     4225 
    4291     4583     4708     4587     4553     4545     4301     3973 
    3794     3777     3931     4309     4695     4698     4342     4063 
    4039     4085     4110     4152     4148     4056     4020     4109 
    4171     4124     4068     4102     4194     4233     4243     4290 
    4328     4378     4504     4565     4437     4267     4158     4059 
    4037     4170     4329     4440     4568     4652     4549     4306 
    4089     3981     4005     4147     4256     4233     4198     4276 
    4426     4527     4500     4378     4295     4336     4414     4415 
    4372     4329     4245     4189     4239     4272     4210     4147 
    4164     4283     4378     4225     3942     3893     4094     4260 
    4288     4270     4251     4253     4245     4143     4054     4056 
    4021     4009     4166     4338     4390     4383     4355     4275 
    4156     4055     4081     4266     4445     4506     4452     4293 
    4164     4193     4297     4407     4464     4383     4293     4330 
    4351     4257     4213     4232     4198     4206     4267     4279 
    4328     4356     4301     4368     4419     4217     4067     4094 
    4067     4144     4406     4468     4271     4086     4005     4029 
    4056     4012     4068     4193     4213     4282     4371     4275 
    4210     4274     4271     4290     4288     4093     3997     4180 
    4395     4575     4646     4471     4314     4394     4444     4349 
    4314     4302     4267     4349     4395     4239     4110     4164 
    4252     4266     4272     4299     4291     4290     4326     4334 
    4306     4310     4291     4189     4144     4162     4091     4098 
    4261     4301     4236     4255     4222     4125     4144     4186 
    4109     4055     4118     4166     4182     4240     4226     4137 
    4203     4396     4413     4248     4155     4121     4024     3974 
    4087     4317     4565     4719     4747     4689     4533     4342 
    4212     4145     4156     4230     4268     4261     4260     4217 
    4156     4175     4210     4225     4328     4495     4599     4583 
    4457     4290     4097     3831     3592     3609     3909     4256 
    4521     4669     4580     4287     4052     3998     4010     4040 
    4147     4232     4203     4166     4129     4055     4121     4390 
    4583     4575     4568     4567     4457     4421     4529     4567 
    4515     4456     4341     4140     3924     3848     3989     4174 
    4329     4540     4587     4341     4132     4063     3989     4035 
    4248     4440     4503     4371     4131     4012     3924     3858 
    4097     4413     4391     4260     4255     4218     4145     4112 
    4129     4256     4342     4255     4182     4170     4095     4109 
    4288     4455     4587     4611     4430     4303     4345     4326 
    4241     4229     4229     4129     4071     4214     4403     4476 
    4506     4456     4249     4075     4062     4087     4125     4287 
    4471     4402     4110     3913     3906     3996     4195     4440 
    4482     4307     4172     4149     4112     4090     4153     4248 
    4352     4418     4353     4261     4301     4433     4552     4588 
    4523     4390     4237     4160     4226     4345     4409     4418 
    4383     4261     4085     3971     3958     4033     4197     4332 
    4318     4230     4180     4148     4125     4160     4224     4248 
    4236     4218     4194     4160     4145     4163     4193     4240 
    4313     4398     4475     4527     4541     4496     4401     4309 
    4260     4221     4168     4133     4166     4261     4351     4414 
    4482     4498     4407     4236     4037     3882     3842     3937 
