Origin Time       2024/03/16 06:34:00
Lat.              32.907
Long.             131.047
Depth. (km)       7
Mag.              3.3
Station Code      KMMH18
Station Lat.      33.0031
Station Long.     131.0071
Station Height(m) 932
Record Time       2024/03/16 06:34:35
Sampling Freq(Hz) 100Hz
Duration Time(s)  120
Dir.              4
Scale Factor      7845(gal)/8223790
Max. Acc. (gal)   7.779
Last Correction   2024/03/16 06:34:35
Memo.             
[...]
    1787     1787     1790     1788     1788     1790     1787     1786 
    1787     1786     1786     1788     1788     1787     1786     1786 
    1787     1788     1787     1786     1788     1788     1784     1784 
    1788     1788     1787     1788     1791     1790     1786     1786 
    1786     1787     1787     1786     1787     1787     1787     1787 
    1787     1786     1787     1788     1787     1787     1787     1787 
    1787     1788     1788     1787     1786     1788     1788     1787 
    1786     1786     1788     1790     1787     1787     1788     1788 
    1788     1787     1787     1788     1787     1787     1788     1788 
    1790     1791     1788     1786     1786     1788     1790     1788 
    1788     1788     1784     1786     1788     1788     1787     1786 
    1784     1784     1788     1790     1788     1790     1790     1788 
    1791     1792     1788     1788     1787     1784     1786     1787 
    1787     1788     1790     1787     1787     1790     1790     1788 
    1788     1788     1786     1786     1788     1786     1787     1788 
    1787     1787     1791     1790     1786     1788     1790     1787 
    1788     1787     1784     1786     1787     1786     1786     1788 
    1787     1788     1788     1787     1787     1786     1786     1788 
    1788     1788     1788     1786     1786     1788     1788     1788 
    1788     1787     1787     1787     1786     1787     1787     1787 
    1786     1786     1788     1787     1786     1786     1787     1787 
    1786     1784     1787     1790     1790     1788     1788     1787 
    1786     1786     1784     1784     1784     1786     1788     1788 
    1788     1790     1790     1790     1790     1788     1787     1787 
    1788     1788     1787     1787     1787     1787     1787     1786 
    1787     1788     1788     1787     1787     1787     1787     1788 
    1788     1786     1784     1788     1788     1787     1787     1787 
    1787     1787     1788     1788     1787     1786     1786     1786 
    1786     1784     1786     1787     1787     1787     1786     1787 
    1788     1786     1786     1788     1787     1786     1788     1787 
    1786     1787     1787     1783     1784     1788     1787     1787 
    1788     1786     1787     1790     1788     1788     1787     1786 
    1784     1786     1788     1787     1786     1787     1788     1788 
    1787     1788     1788     1786     1784     1787     1786     1784 
    1786     1787     1786     1787     1788     1787     1788     1787 
    1787     1788     1788     1786     1786     1786     1787     1787 
    1786     1787     1787     1787     1787     1788     1790     1788 
    1788     1790     1788     1786     1787     1787     1787     1786 
    1787     1787     1786     1787     1790     1791     1788     1787 
    1788     1788     1788     1788     1786     1786     1788     1787 
    1786     1788     1791     1787     1787     1788     1790     1791 
    1790     1787     1788     1788     1788     1787     1787     1786 
    1786     1786     1784     1786     1788     1790     1790     1788 
    1786     1786     1786     1786     1786     1790     1788     1787 
    1788     1788     1787     1786     1786     1788     1788     1787 
    1787     1787     1787     1788     1788     1787     1786     1786 
    1787     1788     1787     1786     1788     1790     1788     1787 
    1788     1788     1788     1788     1787     1787     1786     1787 
    1788     1787     1787     1787     1787     1787     1788     1790 
    1788     1786     1787     1788     1788     1787     1786     1787 
    1787     1786     1788     1790     1787     1786     1787     1790 
    1790     1788     1786     1784     1786     1786     1784     1787 
    1790     1790     1788     1787     1787     1788     1787     1786 
    1787     1786     1784     1784     1787     1788     1787     1787 
    1788     1787     1787     1787     1786     1786     1788     1788 
    1787     1787     1788     1787     1786     1786     1786     1784 
    1787     1790     1788     1786     1786     1786     1786     1787 
    1787     1786     1787     1788     1787     1790     1791     1788 
    1787     1786     1787     1790     1788     1786     1784     1786 
    1786     1787     1786     1786     1787     1788     1787     1787 
    1787     1784     1787     1788     1784     1784     1786     1786 
    1787     1786     1784     1786     1787     1787     1787     1787 
    1790     1790     1787     1787     1788     1787     1784     1784 
    1786     1786     1788     1790     1788     1787     1787     1787 
    1787     1788     1787     1786     1786     1784     1784     1787 
    1787     1788     1790     1790     1788     1788     1788     1787 
    1788     1790     1787     1787     1790     1787     1783     1786 
    1791     1790     1788     1788     1787     1788     1788     1787 
    1788     1787     1784     1787     1788     1786     1783     1784 
    1787     1787     1786     1787     1787     1787     1788     1787 
    1784     1786     1788     1788     1786     1786     1787     1788 
    1787     1787     1787     1786     1787     1786     1784     1786 
    1787     1788     1786     1784     1786     1787     1788     1787 
    1787     1786     1788     1790     1788     1786     1787     1788 
    1787     1788     1790     1788     1786     1786     1787     1787 
    1786     1787     1790     1788     1787     1788     1787     1786 
    1788     1787     1786     1786     1786     1786     1787     1787 
    1787     1787     1786     1787     1787     1786     1787     1790 
    1787     1784     1788     1790     1786     1784     1787     1790 
    1788     1787     1788     1788     1787     1790     1791     1788 
    1786     1786     1787     1788     1788     1788     1788     1788 
    1787     1787     1787     1787     1787     1786     1787     1787 
    1786     1786     1786     1786     1786     1787     1787     1787 
    1786     1784     1788     1788     1786     1787     1790     1788 
    1784     1784     1784     1784     1786     1788     1788     1788 
    1788     1787     1786     1786     1784     1786     1787     1786 
    1786     1786     1787     1787     1787     1788     1786     1784 
    1787     1787     1787     1788     1788     1787     1787     1786 
    1783     1784     1786     1786     1786     1787     1788     1790 
    1788     1788     1788     1787     1787     1787     1787     1788 
    1786     1786     1786     1787     1788     1790     1788     1788 
    1790     1790     1786     1788     1790     1786     1784     1787 
    1788     1786     1784     1787     1788     1787     1788     1790 
    1787     1786     1788     1787     1786     1786     1787     1786 
    1784     1787     1788     1787     1787     1788     1788     1787 
    1787     1787     1786     1786     1786     1786     1787     1786 
    1786     1786     1787     1788     1791     1791     1787     1787 
    1791     1788     1784     1786     1787     1787     1788     1787 
    1787     1788     1788     1788     1790     1790     1790     1790 
    1790     1788     1787     1787     1787     1787     1787     1787 
    1788     1787     1787     1788     1790     1787     1787     1790 
    1790     1788     1787     1786     1784     1784     1787     1786 
    1787     1788     1788     1787     1788     1788     1787     1788 
    1787     1784     1783     1784     1786     1787     1787     1786 
    1787     1788     1788     1788     1790     1788     1788     1787 
    1786     1787     1788     1787     1787     1788     1788     1787 
    1787     1788     1787     1786     1787     1787     1787     1788 
    1787     1786     1787     1786     1784     1787     1786     1783 
    1786     1787     1787     1788     1788     1784     1784     1787 
    1788     1790     1787     1786     1787     1788     1787     1787 
    1787     1790     1791     1788     1787     1788     1790     1788 
    1787     1788     1790     1788     1787     1788     1788     1790 
    1788     1786     1787     1790     1788     1788     1788     1786 
    1786     1790     1788     1784     1784     1787     1787     1788 
    1787     1786     1787     1788     1787     1787     1787     1784 
    1784     1786     1784     1786     1790     1788     1787     1788 
    1788     1787     1787     1787     1788     1786     1784     1786 
    1788     1787     1788     1787     1786     1787     1788     1787 
    1786     1788     1787     1787     1790     1788     1786     1787 
    1790     1788     1787     1788     1790     1787     1787     1787 
    1786     1786     1787     1786     1786     1787     1786     1787 
    1791     1790     1786     1788     1790     1788     1786     1788 
    1787     1784     1787     1788     1787     1787     1787     1787 
    1787     1788     1787     1784     1786     1790     1790     1787 
    1787     1787     1787     1787     1787     1788     1788     1787 
    1787     1787     1786     1786     1788     1787     1784     1786 
    1790     1787     1788     1790     1788     1787     1787     1786 
    1786     1786     1786     1787     1790     1787     1784     1786 
    1787     1787     1786     1787     1790     1788     1787     1786 
    1787     1788     1790     1790     1788     1786     1788     1790 
    1786     1783     1783     1787     1787     1787     1787     1788 
    1788     1788     1787     1787     1787     1787     1787     1788 
    1787     1786     1790     1790     1787     1784     1784     1787 
    1788     1787     1787     1788     1788     1788     1788     1787 
    1787     1787     1787     1787     1787     1788     1787     1786 
    1790     1790     1787     1787     1788     1788     1790     1790 
    1788     1787     1787     1787     1786     1787     1788     1787 
    1787     1787     1787     1787     1787     1788     1787     1787 
    1788     1786     1787     1791     1788     1786     1787     1788 
    1788     1788     1788     1788     1787     1786     1786     1787 
    1788     1788     1787     1787     1787     1787     1788     1787 
    1787     1788     1787     1786     1786     1786     1786     1787 
    1786     1786     1788     1790     1787     1787     1788     1790 
    1788     1788     1787     1788     1790     1790     1788     1786 
    1787     1790     1788     1786     1788     1788     1788     1788 
    1787     1787     1788     1787     1786     1787     1787     1787 
    1787     1787     1787     1787     1788     1790     1790     1788 
    1790     1790     1787     1784     1786     1787     1787     1787 
    1788     1788     1788     1788     1787     1784     1787     1787 
    1786     1787     1788     1788     1787     1787     1787     1787 
    1787     1788     1787     1787     1790     1788     1788     1788 
    1787     1786     1787     1788     1787     1786     1786     1786 
    1786     1787     1788     1787     1787     1790     1788     1787 
    1787     1787     1790     1788     1786     1788     1790     1786 
    1784     1786     1787     1788     1788     1787     1788     1790 
    1788     1787     1786     1787     1788     1787     1786     1787 
    1786     1784     1786     1790     1790     1787     1786     1788 
    1790     1787     1787     1788     1786     1787     1787     1787 
    1788     1787     1787     1786     1773     1764     1773     1786 
    1779     1755     1713     1683     1715     1779     1811     1842 
    1902     1935     1953     2010     2045     2004     1937     1802 
    1563     1398     1408     1471     1571     1745     1817     1680 
    1540     1556     1671     1814     1968     2093     2161     2166 
    2095     1956     1880     1950     1952     1657     1329     1371 
    1659     1815     1783     1722     1706     1691     1655     1736 
    2073     2494     2700     2619     2292     1787     1356     1216 
    1304     1437     1476     1355     1259     1426     1668     1647 
    1466     1476     1686     1746     1522     1418     1742     2168 
    2268     2072     1908     1999     2253     2389     2257     2069 
    2120     2309     2331     2087     1659     1278     1227     1363 
    1335     1260     1470     1919     2246     2128     1694     1410 
    1412     1517     1703     1941     2089     2224     2400     2365 
    2000     1512     1156     1127     1310     1332     1210     1344 
    1815     2316     2513     2354     2189     2234     2239     2054 
    1807     1520     1244     1192     1340     1441     1439     1497 
    1717     2047     2299     2315     2261     2396     2560     2389 
    1910     1485     1328     1360     1386     1360     1398     1429 
    1356     1301     1304     1345     1582     1937     2104     2106 
    2099     2137     2312     2455     2209     1748     1514     1507 
    1512     1528     1641     1750     1664     1452     1310     1237 
    1306     1694     2241     2625     2776     2705     2363     1902 
    1648     1790     2209     2485     2285     1890     1723     1633 
    1290      847      680      927     1474     2112     2791     3674 
    4567     4812     4252     3542     3244     3233     3049     2358 
    1005     -932    -3001    -4583    -5283    -5038    -4055    -2447 
    -175     2471     4881     6678     7925     8702     8726     7776 
    6091     3933     1341    -1549    -4284    -6092    -6367    -5243 
   -3249     -851     1460     3307     4621     5562     6481     7551 
    8357     8311     7148     4977     2517      729     -189     -668 
    -915     -945     -783     -391      136      560      866     1174 
    1375     1379     1390     1478     1566     1887     2727     3838 
    4480     4101     2934     1660      707      263      386      989 
    1922     2783     2990     2428     1706     1479     1665     1763 
    1746     1989     2520     2963     2982     2482     1678      923 
     373      -41     -319     -287      135      730     1227     1634 
    2064     2386     2421     2205     1887     1586     1386     1291 
    1287     1382     1579     1896     2313     2658     2674     2236 
    1447      602       67       12      329      927     1868     3073 
    4158     4838     5279     5729     6057     5890     5120     3982 
    2793     1834     1185      637       51     -562    -1256    -2053 
   -2729    -2891    -2322    -1186      164     1409     2320     2893 
    3285     3553     3673     3753     3804     3578     2920     2007 
    1228      832      687      589      608      886     1360     1833 
    2236     2635     3021     3353     3566     3534     3191     2639 
    2043     1552     1345     1449     1541     1344     1009      891 
    1120     1447     1507     1297     1059      835      465      -55 
    -473     -557     -386     -187       21      400     1124     2224 
    3437     4455     5259     5887     6237     6232     5952     5560 
    5121     4594     3942     3117     2103      974     -210    -1305 
   -1937    -1900    -1421     -814     -183      476     1065     1386 
    1406     1317     1306     1451     1728     2041     2273     2335 
    2288     2249     2128     1800     1381     1097     1016     1035 
    1088     1221     1432     1606     1684     1710     1750     1840 
    1939     1993     2008     2058     2241     2594     3060     3532 
    3904     4077     3959     3465     2727     2130     1895     1867 
    1773     1440      938      594      544      534      380      162 
       4      -70     -175     -384     -552     -446       22      712 
    1335     1733     1966     2178     2403     2536     2590     2806 
    3258     3692     3867     3766     3473     3098     2797     2683 
    2702     2687     2501     2151     1784     1536     1489     1657 
    1918     2127     2191     2084     1929     1853     1829     1807 
    1794     1765     1706     1644     1591     1532     1485     1464 
    1399     1213      951      722      587      544      565      658 
     834     1054     1262     1413     1499     1528     1543     1620 
    1741     1831     1880     1915     1988     2130     2247     2284 
    2331     2450     2614     2762     2817     2787     2690     2521 
    2357     2253     2182     2142     2161     2284     2542     2906 
    3229     3307     3046     2540     1984     1495     1058      668 
     421      386      502      637      735      884     1138     1391 
    1510     1472     1335     1152      993      977     1097     1183 
    1201     1274     1425     1611     1857     2165     2397     2385 
    2122     1783     1544     1456     1421     1286     1024      803 
     811     1077     1485     1926     2347     2681     2871     2991 
    3117     3199     3217     3240     3306     3339     3211     2884 
    2477     2112     1782     1452     1147      922      808      739 
     584      330       90      -47      -82      -70      -37       98 
     430      901     1381     1818     2249     2689     3072     3319 
    3426     3446     3412     3395     3491     3627     3638     3531 
    3435     3404     3404     3357     3194     2907     2543     2160 
    1794     1424     1046      696      368        8     -386     -673 
    -700     -510     -280      -93       97      336      621      922 
    1221     1507     1787     2039     2208     2304     2400     2528 
    2670     2812     2963     3110     3190     3154     3028     2820 
    2517     2155     1783     1413     1085      838      679      629 
     681      769      876     1059     1289     1482     1669     1933 
    2243     2479     2535     2436     2327     2324     2432     2558 
    2619     2637     2678     2691     2586     2349     2037     1779 
    1679     1657     1571     1404     1236     1132     1080     1028 
     997     1062     1243     1466     1632     1690     1683     1710 
    1806     1900     1945     1960     1939     1861     1721     1540 
    1382     1309     1310     1354     1432     1520     1561     1564 
    1567     1575     1575     1590     1668     1786     1871     1908 
    1948     2030     2126     2187     2218     2246     2309     2417 
    2489     2481     2477     2535     2644     2762     2816     2760 
    2636     2486     2319     2142     1962     1753     1498     1201 
     891      616      417      290      218      168      141      167 
     245      410      719     1132     1552     1933     2222     2380 
    2493     2651     2826     2980     3092     3107     3005     2817 
    2592     2428     2371     2336     2238     2068     1848     1655 
    1553     1516     1509     1525     1543     1549     1533     1443 
    1273     1154     1197     1318     1383     1377     1372     1401 
    1451     1499     1547     1613     1706     1783     1834     1902 
    2003     2119     2232     2324     2365     2328     2249     2222 
    2255     2254     2191     2123     2087     2054     1989     1904 
    1829     1753     1647     1494     1308     1159     1116     1194 
    1352     1512     1618     1678     1725     1782     1852     1945 
    2070     2170     2143     1999     1830     1675     1540     1472 
