Origin Time       2024/03/16 06:34:00
Lat.              32.907
Long.             131.047
Depth. (km)       7
Mag.              3.3
Station Code      KMMH16
Station Lat.      32.7967
Station Long.     130.8199
Station Height(m) -197
Record Time       2024/03/16 06:34:37
Sampling Freq(Hz) 100Hz
Duration Time(s)  120
Dir.              2
Scale Factor      2942(gal)/8224139
Max. Acc. (gal)   0.761
Last Correction   2024/03/16 06:34:37
Memo.             
[...]
  113695   113698   113699   113697   113694   113695   113695   113694 
  113695   113697   113698   113699   113699   113697   113698   113698 
  113695   113695   113697   113698   113699   113697   113695   113695 
  113695   113697   113699   113698   113695   113697   113698   113697 
  113697   113698   113697   113695   113695   113697   113698   113695 
  113695   113698   113697   113697   113698   113697   113695   113698 
  113699   113697   113697   113698   113695   113694   113695   113698 
  113698   113698   113698   113697   113697   113698   113695   113694 
  113697   113697   113695   113699   113698   113695   113698   113697 
  113695   113698   113697   113694   113698   113701   113698   113698 
  113699   113698   113697   113698   113699   113698   113699   113701 
  113697   113694   113698   113698   113695   113694   113697   113698 
  113698   113698   113698   113698   113698   113697   113697   113697 
  113698   113699   113698   113695   113697   113698   113697   113699 
  113699   113697   113697   113698   113699   113698   113699   113698 
  113695   113697   113698   113695   113697   113699   113697   113695 
  113698   113699   113695   113697   113697   113695   113698   113698 
  113697   113697   113698   113697   113697   113697   113697   113697 
  113695   113695   113697   113699   113699   113697   113694   113697 
  113699   113697   113697   113697   113698   113698   113698   113697 
  113698   113699   113699   113695   113695   113697   113695   113695 
  113697   113698   113698   113698   113695   113695   113695   113697 
  113698   113698   113695   113695   113697   113697   113697   113698 
  113697   113695   113697   113698   113695   113697   113697   113697 
  113697   113695   113694   113697   113699   113698   113697   113695 
  113692   113692   113697   113698   113698   113697   113695   113697 
  113698   113698   113697   113697   113698   113698   113698   113698 
  113699   113703   113702   113697   113695   113697   113697   113698 
  113699   113697   113695   113699   113701   113697   113695   113698 
  113697   113697   113697   113695   113695   113699   113697   113694 
  113698   113701   113697   113694   113697   113695   113695   113698 
  113697   113697   113699   113697   113697   113699   113697   113697 
  113699   113697   113694   113695   113697   113695   113695   113695 
  113695   113697   113697   113695   113697   113699   113699   113698 
  113697   113697   113694   113694   113697   113698   113697   113695 
  113697   113699   113699   113695   113694   113697   113698   113697 
  113695   113697   113697   113697   113697   113698   113698   113697 
  113695   113695   113697   113699   113699   113697   113697   113698 
  113697   113697   113698   113695   113695   113698   113698   113697 
  113694   113695   113698   113697   113695   113697   113698   113697 
  113697   113701   113701   113695   113695   113699   113699   113698 
  113697   113694   113695   113697   113695   113695   113698   113698 
  113697   113698   113698   113697   113697   113699   113699   113697 
  113698   113701   113697   113694   113697   113698   113698   113695 
  113697   113698   113697   113695   113698   113698   113698   113697 
  113698   113697   113695   113697   113697   113697   113698   113697 
  113697   113698   113698   113698   113699   113698   113698   113695 
  113697   113697   113695   113697   113701   113698   113695   113698 
  113701   113698   113697   113698   113699   113697   113697   113697 
  113695   113697   113699   113697   113697   113698   113697   113697 
  113697   113697   113697   113697   113697   113697   113697   113697 
  113695   113697   113698   113697   113698   113701   113699   113699 
  113698   113698   113697   113697   113697   113697   113694   113695 
  113698   113697   113694   113695   113697   113697   113699   113698 
  113697   113697   113697   113697   113697   113697   113697   113697 
  113698   113699   113698   113695   113695   113697   113698   113699 
  113697   113697   113699   113698   113697   113697   113697   113697 
  113695   113695   113698   113698   113698   113695   113695   113695 
  113695   113695   113698   113698   113697   113697   113698   113699 
  113701   113699   113697   113695   113695   113697   113698   113697 
  113695   113697   113695   113695   113697   113698   113698   113698 
  113701   113699   113695   113695   113695   113697   113695   113694 
  113695   113697   113695   113695   113697   113697   113697   113698 
  113697   113695   113697   113697   113695   113694   113695   113698 
  113697   113695   113698   113695   113695   113698   113697   113698 
  113698   113698   113698   113697   113695   113695   113698   113698 
  113695   113698   113697   113694   113699   113699   113697   113697 
  113698   113697   113697   113698   113699   113698   113697   113695 
  113694   113697   113697   113695   113697   113697   113697   113697 
  113697   113695   113697   113697   113697   113698   113699   113698 
  113701   113699   113695   113697   113699   113697   113697   113697 
  113697   113695   113695   113697   113697   113698   113698   113695 
  113697   113698   113697   113697   113698   113698   113698   113698 
  113699   113699   113699   113698   113695   113694   113695   113698 
  113697   113695   113698   113699   113698   113697   113697   113697 
  113697   113698   113698   113698   113697   113697   113695   113695 
  113697   113698   113699   113698   113697   113698   113699   113699 
  113697   113697   113697   113695   113697   113697   113697   113698 
  113697   113694   113695   113698   113697   113695   113697   113695 
  113695   113697   113698   113701   113699   113697   113695   113698 
  113699   113697   113695   113698   113699   113698   113698   113697 
  113697   113698   113698   113697   113697   113698   113698   113695 
  113697   113698   113698   113698   113698   113698   113698   113695 
  113694   113695   113697   113695   113697   113697   113698   113699 
  113697   113694   113697   113697   113695   113698   113699   113698 
  113697   113698   113698   113697   113694   113695   113698   113698 
  113697   113697   113697   113698   113697   113695   113695   113695 
  113697   113698   113698   113695   113698   113699   113698   113698 
  113698   113697   113697   113698   113699   113698   113697   113699 
  113698   113695   113698   113699   113697   113698   113701   113699 
  113697   113698   113699   113698   113694   113695   113697   113697 
  113697   113699   113699   113698   113697   113697   113695   113698 
  113702   113701   113697   113698   113699   113699   113698   113698 
  113697   113695   113698   113698   113698   113698   113698   113694 
  113695   113699   113699   113698   113698   113699   113698   113698 
  113698   113698   113697   113695   113697   113698   113697   113695 
  113697   113698   113699   113697   113695   113697   113697   113697 
  113697   113698   113697   113695   113698   113698   113695   113698 
  113699   113697   113698   113701   113698   113694   113695   113698 
  113695   113695   113695   113694   113695   113699   113698   113695 
  113697   113698   113698   113699   113698   113697   113699   113698 
  113694   113695   113697   113697   113698   113697   113695   113699 
  113698   113695   113698   113699   113697   113694   113694   113695 
  113698   113698   113698   113698   113698   113698   113699   113699 
  113697   113697   113697   113697   113697   113697   113697   113699 
  113699   113697   113698   113699   113695   113695   113699   113699 
  113697   113697   113699   113701   113698   113695   113697   113698 
  113697   113698   113695   113695   113699   113699   113698   113698 
  113697   113697   113698   113697   113698   113701   113699   113698 
  113697   113694   113698   113699   113697   113697   113698   113697 
  113698   113699   113701   113699   113695   113697   113699   113699 
  113699   113698   113697   113699   113699   113698   113697   113697 
  113698   113699   113697   113697   113699   113699   113697   113695 
  113697   113699   113698   113698   113698   113697   113695   113698 
  113698   113699   113699   113695   113697   113699   113698   113697 
  113697   113698   113698   113695   113698   113698   113695   113697 
  113699   113698   113698   113697   113695   113698   113698   113695 
  113695   113698   113698   113697   113695   113697   113698   113699 
  113699   113698   113697   113697   113698   113698   113697   113694 
  113697   113698   113697   113695   113699   113699   113697   113697 
  113697   113698   113699   113697   113697   113698   113697   113697 
  113698   113695   113697   113697   113695   113695   113694   113697 
  113698   113695   113695   113698   113698   113697   113698   113697 
  113697   113695   113695   113697   113697   113695   113694   113695 
  113695   113695   113698   113699   113699   113697   113697   113698 
  113698   113697   113698   113698   113697   113698   113698   113698 
  113698   113697   113697   113698   113698   113698   113697   113695 
  113697   113698   113697   113697   113698   113697   113697   113698 
  113698   113695   113697   113698   113698   113698   113698   113698 
  113698   113699   113699   113698   113695   113695   113699   113697 
  113697   113699   113699   113698   113698   113695   113697   113698 
  113698   113698   113697   113697   113698   113698   113697   113695 
  113694   113692   113695   113699   113698   113698   113698   113697 
  113697   113699   113699   113699   113699   113697   113697   113698 
  113697   113695   113699   113701   113698   113697   113701   113698 
  113695   113697   113698   113697   113697   113695   113692   113692 
  113691   113687   113683   113678   113668   113655   113645   113643 
  113640   113640   113644   113648   113649   113649   113638   113629 
  113663   113752   113833   113845   113823   113833   113867   113871 
  113818   113786   113844   113860   113683   113489   113521   113670 
  113674   113467   113242   113274   113530   113684   113697   113788 
  113860   113760   113688   113803   113992   114060   113895   113653 
  113626   113764   113788   113668   113559   113544   113590   113626 
  113649   113706   113780   113802   113742   113671   113690   113764 
  113765   113686   113651   113678   113643   113526   113471   113553 
  113683   113709   113630   113620   113734   113845   113860   113815 
  113815   113877   113896   113848   113784   113730   113715   113724 
  113690   113638   113593   113510   113458   113508   113578   113626 
  113679   113698   113699   113745   113813   113861   113869   113807 
  113738   113742   113755   113706   113656   113637   113603   113540 
  113517   113559   113598   113609   113651   113718   113779   113854 
  113899   113853   113799   113776   113722   113659   113633   113637 
  113660   113648   113572   113528   113571   113622   113643   113660 
  113697   113725   113728   113740   113787   113825   113806   113759 
  113746   113786   113836   113830   113769   113736   113724   113686 
  113657   113647   113634   113640   113637   113628   113643   113633 
  113602   113618   113683   113742   113760   113752   113740   113698 
  113664   113680   113682   113621   113570   113594   113675   113736 
  113734   113715   113715   113728   113728   113706   113672   113648 
  113656   113692   113728   113751   113749   113711   113652   113632 
  113678   113703   113678   113691   113746   113783   113792   113741 
  113671   113674   113683   113644   113641   113683   113710   113736 
  113775   113815   113846   113826   113751   113692   113657   113616 
  113589   113616   113680   113722   113709   113670   113653   113660 
  113657   113648   113663   113706   113737   113733   113722   113741 
  113772   113778   113763   113759   113745   113702   113652   113594 
  113551   113591   113672   113718   113753   113779   113755   113710 
  113695   113705   113714   113725   113707   113640   113587   113605 
  113657   113692   113718   113744   113737   113703   113694   113707 
  113703   113678   113660   113680   113730   113773   113807   113796 
  113690   113584   113587   113657   113737   113773   113726   113674 
  113667   113671   113690   113721   113714   113670   113638   113670 
  113745   113796   113790   113759   113751   113746   113709   113660 
  113628   113590   113556   113545   113557   113595   113644   113661 
  113659   113703   113780   113807   113791   113764   113717   113668 
  113647   113636   113643   113655   113633   113611   113657   113746 
  113768   113701   113634   113624   113643   113638   113643   113702 
  113751   113751   113759   113784   113823   113884   113907   113875 
  113852   113857   113852   113836   113834   113821   113807   113803 
  113765   113703   113645   113579   113513   113487   113578   113798 
  114003   114085   114100   114066   113950   113786   113599   113401 
  113269   113217   113236   113379   113629   113865   114016   114061 
  113987   113811   113570   113313   113108   112986   112978   113098 
  113292   113475   113587   113624   113605   113535   113463   113462 
  113528   113630   113772   113972   114214   114377   114388   114311 
  114235   114223   114311   114454   114600   114660   114529   114203 
  113709   113062   112368   111813   111569   111739   112267   112973 
  113682   114220   114485   114517   114419   114303   114268   114339 
  114459   114531   114489   114335   114070   113680   113217   112839 
  112699   112799   113053   113398   113728   113914   113940   113848 
  113698   113559   113418   113282   113244   113395   113714   114039 
  114193   114118   113872   113551   113260   113136   113209   113381 
  113563   113733   113875   113940   113890   113755   113638   113633 
  113732   113868   114010   114162   114305   114366   114293   114087 
  113776   113467   113296   113323   113522   113779   113962   114014 
  113919   113730   113537   113378   113263   113217   113239   113323 
  113451   113540   113548   113521   113489   113458   113495   113661 
  113926   114205   114404   114488   114480   114377   114215   114062 
  113946   113881   113881   113913   113880   113748   113571   113375 
  113162   113009   112999   113125   113350   113624   113899   114139 
  114289   114273   114118   113910   113698   113529   113417   113320 
  113228   113167   113177   113285   113468   113701   113940   114127 
  114220   114201   114103   113953   113742   113499   113319   113236 
  113204   113200   113242   113323   113420   113512   113593   113680 
  113773   113848   113902   113953   114008   114061   114084   114037 
  113938   113825   113703   113599   113547   113557   113637   113757 
  113879   113983   114048   114031   113941   113849   113799   113768 
  113742   113714   113668   113602   113528   113475   113439   113381 
  113305   113221   113134   113104   113174   113300   113440   113557 
  113622   113663   113703   113734   113769   113810   113827   113829 
  113860   113938   114012   114012   113937   113826   113705   113574 
  113472   113462   113541   113665   113800   113918   113996   114018 
  113979   113896   113823   113783   113745   113699   113671   113665 
  113672   113687   113715   113776   113869   113946   113969   113938 
  113871   113786   113691   113584   113472   113395   113397   113462 
  113544   113643   113752   113840   113880   113868   113809   113726 
  113643   113556   113463   113367   113267   113213   113232   113271 
  113317   113394   113482   113574   113683   113788   113857   113883 
  113890   113887   113873   113872   113884   113873   113845   113826 
  113829   113845   113865   113886   113894   113871   113827   113786 
  113745   113718   113718   113756   113822   113869   113877   113868 
  113827   113764   113719   113686   113645   113617   113576   113513 
  113499   113566   113651   113724   113782   113802   113788   113771 
  113760   113745   113702   113628   113563   113524   113513   113536 
  113556   113548   113549   113567   113574   113595   113648   113688 
  113698   113711   113734   113728   113676   113602   113544   113540 
  113582   113636   113679   113686   113655   113630   113621   113609 
  113602   113628   113678   113699   113709   113745   113771   113782 
  113799   113794   113779   113782   113775   113756   113741   113729 
  113741   113794   113849   113873   113869   113852   113821   113807 
  113845   113879   113860   113823   113792   113755   113714   113675 
  113645   113633   113601   113548   113537   113582   113628   113640 
  113634   113625   113613   113599   113575   113551   113543   113549 
  113566   113617   113701   113776   113826   113844   113832   113805 
  113780   113764   113737   113691   113643   113610   113613   113648 
  113691   113725   113734   113736   113761   113805   113832   113832 
  113811   113778   113744   113730   113742   113749   113737   113736 
  113775   113842   113886   113884   113865   113848   113822   113783 
  113729   113671   113629   113606   113595   113593   113590   113586 
  113576   113563   113567   113594   113618   113636   113655   113667 
  113664   113660   113674   113699   113717   113729   113724   113694 
  113663   113629   113562   113495   113466   113474   113522   113571 
  113595   113629   113682   113725   113740   113741   113738   113725 
  113725   113756   113792   113814   113815   113790   113753   113732 
  113738   113763   113779   113773   113756   113729   113698   113668 
  113647   113633   113620   113606   113609   113629   113655   113676 
  113680   113661   113633   113614   113625   113659   113675   113674 
  113665   113647   113636   113653   113676   113697   113725   113760 
  113788   113795   113783   113771   113768   113755   113726   113706 
  113706   113707   113699   113702   113725   113740   113734   113725 
  113722   113717   113705   113692   113686   113679   113661   113651 
  113653   113653   113655   113671   113688   113703   113737   113779 
  113794   113790   113775   113738   113698   113675   113667   113674 
  113695   113714   113719   113711   113691   113674   113683   113711 
  113736   113753   113756   113737   113711   113702   113703   113710 
  113713   113698   113686   113702   113729   113745   113748   113732 
  113710   113698   113690   113684   113688   113714   113740   113733 
  113706   113687   113670   113656   113657   113661   113649   113653 
  113670   113678   113682   113668   113632   113618   113636   113648 
  113656   113667   113674   113682   113682   113664   113653   113651 
  113637   113609   113583   113586   113624   113667   113701   113726 
  113722   113680   113638   113628   113648   113688   113718   113718 
  113714   113730   113749   113756   113765   113768   113737   113698 
  113701   113737   113769   113786   113779   113753   113733   113721 
  113713   113729   113769   113788   113782   113778   113761   113726 
  113694   113667   113637   113625   113643   113676   113713   113730 
  113718   113701   113707   113722   113726   113730   113732   113713 
