Origin Time       2024/03/16 06:34:00
Lat.              32.907
Long.             131.047
Depth. (km)       7
Mag.              3.3
Station Code      KMMH05
Station Lat.      32.9553
Station Long.     131.2207
Station Height(m) 693
Record Time       2024/03/16 06:34:38
Sampling Freq(Hz) 100Hz
Duration Time(s)  120
Dir.              6
Scale Factor      7845(gal)/8223790
Max. Acc. (gal)   1.617
Last Correction   2024/03/16 06:34:38
Memo.             
[...]
  -14933   -14940   -14941   -14937   -14941   -14958   -14964   -14959 
  -14955   -14951   -14944   -14941   -14947   -14958   -14968   -14971 
  -14970   -14971   -14967   -14959   -14952   -14949   -14945   -14939 
  -14932   -14932   -14929   -14926   -14928   -14936   -14949   -14962 
  -14967   -14966   -14962   -14960   -14960   -14953   -14952   -14955 
  -14952   -14949   -14949   -14949   -14952   -14958   -14959   -14956 
  -14955   -14951   -14943   -14944   -14949   -14951   -14951   -14951 
  -14948   -14945   -14943   -14947   -14952   -14956   -14958   -14958 
  -14956   -14956   -14952   -14947   -14948   -14952   -14952   -14952 
  -14952   -14951   -14948   -14947   -14947   -14948   -14949   -14951 
  -14952   -14952   -14948   -14944   -14947   -14955   -14959   -14963 
  -14968   -14964   -14958   -14953   -14948   -14945   -14944   -14941 
  -14943   -14949   -14953   -14959   -14959   -14956   -14956   -14956 
  -14952   -14945   -14941   -14941   -14941   -14939   -14939   -14945 
  -14951   -14952   -14956   -14963   -14971   -14976   -14971   -14966 
  -14962   -14952   -14943   -14941   -14939   -14941   -14947   -14948 
  -14947   -14951   -14953   -14948   -14941   -14939   -14936   -14936 
  -14939   -14944   -14952   -14960   -14967   -14972   -14972   -14966 
  -14958   -14952   -14948   -14943   -14943   -14945   -14945   -14951 
  -14956   -14952   -14945   -14947   -14951   -14953   -14958   -14959 
  -14956   -14953   -14955   -14951   -14947   -14947   -14945   -14941 
  -14940   -14941   -14944   -14952   -14963   -14970   -14970   -14966 
  -14960   -14956   -14952   -14948   -14948   -14948   -14949   -14949 
  -14947   -14947   -14948   -14948   -14948   -14948   -14947   -14949 
  -14959   -14958   -14952   -14953   -14955   -14952   -14947   -14943 
  -14944   -14947   -14948   -14955   -14963   -14970   -14967   -14956 
  -14949   -14945   -14943   -14941   -14939   -14939   -14945   -14951 
  -14955   -14960   -14962   -14959   -14953   -14944   -14940   -14940 
  -14940   -14945   -14952   -14949   -14951   -14960   -14964   -14963 
  -14958   -14953   -14955   -14952   -14949   -14948   -14945   -14948 
  -14953   -14962   -14966   -14958   -14944   -14937   -14939   -14940 
  -14937   -14936   -14943   -14949   -14949   -14952   -14959   -14962 
  -14962   -14960   -14960   -14956   -14952   -14952   -14955   -14953 
  -14955   -14960   -14963   -14962   -14962   -14955   -14943   -14933 
  -14926   -14926   -14931   -14933   -14939   -14943   -14945   -14951 
  -14958   -14963   -14966   -14966   -14968   -14970   -14967   -14964 
  -14959   -14953   -14952   -14951   -14943   -14935   -14933   -14933 
  -14932   -14932   -14939   -14951   -14958   -14964   -14967   -14967 
  -14963   -14956   -14955   -14955   -14951   -14949   -14948   -14947 
  -14951   -14952   -14952   -14952   -14948   -14947   -14945   -14943 
  -14944   -14944   -14941   -14943   -14949   -14958   -14958   -14953 
  -14956   -14960   -14959   -14955   -14952   -14945   -14940   -14947 
  -14956   -14963   -14968   -14966   -14959   -14953   -14944   -14929 
  -14926   -14936   -14943   -14949   -14959   -14958   -14952   -14952 
  -14951   -14949   -14953   -14959   -14958   -14951   -14947   -14947 
  -14944   -14943   -14945   -14947   -14945   -14951   -14959   -14962 
  -14964   -14968   -14967   -14963   -14959   -14959   -14955   -14944 
  -14936   -14929   -14924   -14933   -14945   -14953   -14959   -14956 
  -14951   -14951   -14948   -14945   -14949   -14958   -14960   -14959 
  -14958   -14958   -14956   -14959   -14959   -14955   -14952   -14949 
  -14947   -14949   -14951   -14953   -14958   -14958   -14955   -14949 
  -14940   -14932   -14931   -14929   -14933   -14940   -14948   -14960 
  -14968   -14966   -14959   -14956   -14960   -14960   -14959   -14962 
  -14962   -14956   -14949   -14944   -14940   -14940   -14945   -14949 
  -14951   -14952   -14949   -14947   -14951   -14955   -14958   -14956 
  -14955   -14955   -14949   -14944   -14949   -14958   -14960   -14963 
  -14962   -14955   -14953   -14953   -14952   -14948   -14945   -14947 
  -14945   -14944   -14940   -14939   -14943   -14944   -14943   -14944 
  -14951   -14960   -14964   -14964   -14967   -14964   -14953   -14948 
  -14952   -14963   -14964   -14959   -14956   -14952   -14943   -14939 
  -14941   -14945   -14948   -14952   -14958   -14952   -14941   -14939 
  -14941   -14949   -14959   -14956   -14945   -14937   -14935   -14945 
  -14963   -14974   -14974   -14964   -14958   -14955   -14948   -14944 
  -14943   -14937   -14940   -14947   -14952   -14959   -14959   -14953 
  -14947   -14944   -14949   -14958   -14955   -14945   -14944   -14951 
  -14956   -14956   -14956   -14952   -14949   -14951   -14953   -14956 
  -14955   -14948   -14944   -14944   -14948   -14952   -14955   -14952 
  -14947   -14939   -14940   -14949   -14955   -14962   -14964   -14955 
  -14947   -14947   -14947   -14948   -14955   -14959   -14960   -14962 
  -14959   -14956   -14955   -14956   -14959   -14958   -14951   -14939 
  -14931   -14929   -14933   -14943   -14951   -14960   -14966   -14959 
  -14953   -14952   -14952   -14955   -14953   -14945   -14940   -14941 
  -14945   -14952   -14960   -14966   -14959   -14944   -14935   -14937 
  -14949   -14962   -14963   -14955   -14949   -14947   -14947   -14953 
  -14963   -14966   -14962   -14953   -14940   -14929   -14932   -14945 
  -14962   -14979   -14987   -14976   -14959   -14944   -14932   -14928 
  -14940   -14956   -14959   -14949   -14931   -14916   -14928   -14953 
  -14970   -14976   -14970   -14949   -14935   -14933   -14943   -14955 
  -14960   -14959   -14956   -14958   -14958   -14959   -14964   -14967 
  -14963   -14956   -14948   -14940   -14941   -14945   -14947   -14945 
  -14943   -14941   -14941   -14948   -14959   -14963   -14963   -14953 
  -14939   -14936   -14943   -14952   -14964   -14971   -14970   -14955 
  -14941   -14939   -14945   -14956   -14964   -14967   -14960   -14948 
  -14939   -14931   -14933   -14943   -14947   -14951   -14959   -14962 
  -14953   -14949   -14958   -14960   -14958   -14956   -14953   -14949 
  -14952   -14960   -14967   -14970   -14960   -14944   -14935   -14940 
  -14948   -14945   -14936   -14926   -14921   -14931   -14948   -14960 
  -14968   -14971   -14967   -14963   -14959   -14956   -14958   -14958 
  -14953   -14955   -14956   -14952   -14952   -14955   -14955   -14958 
  -14963   -14963   -14959   -14951   -14943   -14939   -14933   -14933 
  -14935   -14936   -14941   -14951   -14958   -14958   -14952   -14948 
  -14951   -14959   -14968   -14975   -14979   -14972   -14959   -14952 
  -14948   -14936   -14925   -14925   -14936   -14947   -14955   -14963 
  -14960   -14951   -14951   -14949   -14947   -14949   -14958   -14964 
  -14959   -14951   -14956   -14956   -14951   -14949   -14944   -14933 
  -14935   -14947   -14958   -14963   -14966   -14964   -14958   -14948 
  -14944   -14948   -14951   -14948   -14947   -14947   -14943   -14940 
  -14953   -14972   -14980   -14975   -14964   -14953   -14941   -14935 
  -14936   -14935   -14928   -14924   -14924   -14932   -14951   -14971 
  -14985   -14983   -14971   -14960   -14952   -14947   -14945   -14947 
  -14945   -14947   -14948   -14947   -14948   -14959   -14970   -14971 
  -14959   -14944   -14939   -14939   -14940   -14941   -14940   -14935 
  -14933   -14941   -14955   -14970   -14979   -14975   -14964   -14948 
  -14939   -14943   -14947   -14951   -14959   -14962   -14952   -14943 
  -14941   -14947   -14949   -14952   -14953   -14949   -14944   -14948 
  -14952   -14953   -14958   -14955   -14947   -14944   -14949   -14959 
  -14970   -14976   -14971   -14953   -14937   -14924   -14918   -14928 
  -14945   -14959   -14971   -14971   -14959   -14951   -14948   -14945 
  -14949   -14953   -14956   -14956   -14958   -14959   -14955   -14948 
  -14940   -14937   -14936   -14933   -14941   -14960   -14970   -14967 
  -14966   -14959   -14948   -14941   -14943   -14947   -14949   -14952 
  -14958   -14958   -14951   -14948   -14949   -14947   -14947   -14949 
  -14952   -14953   -14959   -14962   -14958   -14952   -14947   -14945 
  -14945   -14945   -14947   -14949   -14952   -14956   -14962   -14967 
  -14966   -14959   -14947   -14933   -14922   -14928   -14943   -14953 
  -14958   -14958   -14953   -14955   -14960   -14956   -14953   -14959 
  -14958   -14955   -14960   -14962   -14960   -14958   -14948   -14943 
  -14941   -14939   -14941   -14944   -14944   -14945   -14945   -14943 
  -14939   -14941   -14947   -14953   -14960   -14963   -14960   -14959 
  -14960   -14963   -14963   -14960   -14955   -14951   -14947   -14945 
  -14945   -14941   -14936   -14935   -14939   -14947   -14951   -14955 
  -14960   -14963   -14968   -14968   -14956   -14945   -14940   -14944 
  -14953   -14962   -14963   -14963   -14963   -14959   -14949   -14937 
  -14935   -14939   -14940   -14941   -14944   -14945   -14945   -14947 
  -14949   -14956   -14960   -14958   -14958   -14963   -14964   -14962 
  -14959   -14959   -14951   -14940   -14943   -14951   -14952   -14953 
  -14952   -14951   -14949   -14947   -14948   -14949   -14944   -14945 
  -14951   -14955   -14960   -14960   -14952   -14948   -14953   -14959 
  -14962   -14963   -14960   -14951   -14943   -14935   -14933   -14939 
  -14941   -14943   -14945   -14944   -14943   -14944   -14948   -14956 
  -14968   -14976   -14980   -14978   -14971   -14962   -14952   -14940 
  -14935   -14939   -14944   -14949   -14952   -14947   -14939   -14935 
  -14933   -14936   -14940   -14943   -14945   -14948   -14956   -14963 
  -14966   -14971   -14975   -14971   -14970   -14966   -14956   -14951 
  -14952   -14948   -14940   -14937   -14937   -14937   -14940   -14943 
  -14943   -14948   -14951   -14951   -14956   -14962   -14960   -14959 
  -14960   -14958   -14953   -14953   -14956   -14958   -14958   -14959 
  -14956   -14951   -14943   -14937   -14933   -14929   -14929   -14937 
  -14944   -14949   -14955   -14955   -14960   -14971   -14976   -14978 
  -14975   -14967   -14963   -14958   -14949   -14944   -14944   -14945 
  -14943   -14940   -14939   -14940   -14941   -14940   -14939   -14937 
  -14940   -14952   -14963   -14963   -14963   -14963   -14964   -14964 
  -14962   -14959   -14955   -14947   -14939   -14932   -14929   -14935 
  -14932   -14924   -14913   -14904   -14905   -14928   -14967   -14999 
  -15003   -14966   -14877   -14760   -14674   -14650   -14702   -14845 
  -15039   -15192   -15236   -15161   -15044   -15003   -15087   -15242 
  -15444   -15664   -15765   -15619   -15286   -14917   -14627   -14453 
  -14353   -14326   -14426   -14561   -14586   -14566   -14631   -14781 
  -14932   -15016   -15097   -15276   -15444   -15372   -15134   -15013 
  -14982   -14872   -14823   -14928   -14937   -14742   -14553   -14505 
  -14553   -14674   -14820   -14852   -14823   -14945   -15169   -15252 
  -15202   -15217   -15322   -15361   -15329   -15425   -15603   -15504 
  -15097   -14787   -14748   -14728   -14643   -14663   -14742   -14766 
  -14794   -14836   -14823   -14758   -14658   -14565   -14602   -14781 
  -14909   -14858   -14723   -14675   -14814   -15137   -15519   -15758 
  -15712   -15417   -15113   -14976   -14974   -14990   -14917   -14767 
  -14701   -14818   -15022   -15025   -14740   -14489   -14489   -14681 
  -15016   -15322   -15310   -15017   -14773   -14759   -14885   -15003 
  -15036   -14951   -14890   -15053   -15361   -15530   -15434   -15186 
  -14936   -14716   -14586   -14609   -14669   -14678   -14692   -14697 
  -14674   -14755   -14966   -15059   -14952   -14909   -15043   -15182 
  -15217   -15140   -14995   -14935   -15003   -15136   -15288   -15338 
  -15168   -14833   -14485   -14307   -14403   -14666   -14882   -14943 
  -14931   -15020   -15211   -15340   -15338   -15292   -15276   -15267 
  -15180   -15029   -14937   -14920   -14851   -14737   -14743   -14859 
  -14909   -14839   -14693   -14557   -14567   -14732   -14926   -15101 
  -15210   -15163   -14987   -14827   -14796   -14893   -15017   -15117 
  -15206   -15241   -15161   -15022   -14947   -14952   -14987   -15041 
  -15117   -15121   -14968   -14744   -14575   -14478   -14469   -14593 
  -14791   -14932   -14982   -15017   -15109   -15246   -15299   -15179 
  -15007   -14949   -14979   -14995   -14963   -14917   -14922   -14959 
  -14955   -14956   -15018   -15075   -15060   -15005   -14970   -14964 
  -14959   -14937   -14932   -14987   -15032   -14956   -14847   -14813 
  -14783   -14713   -14729   -14974   -15373   -15669   -15685   -15430 
  -15029   -14685   -14497   -14476   -14663   -14939   -14978   -14629 
  -14065   -13678   -13824   -14472   -15183   -15546   -15516   -15291 
  -15059   -14922   -14921   -15066   -15350   -15642   -15753   -15685 
  -15558   -15369   -15114   -14914   -14852   -14818   -14644   -14300 
  -13930   -13814   -14127   -14716   -15241   -15514   -15584   -15515 
  -15300   -15025   -14867   -14902   -15020   -15059   -15016   -15053 
  -15233   -15361   -15214   -14770   -14291   -14143   -14382   -14712 
  -14914   -15059   -15225   -15304   -15256   -15178   -15047   -14812 
  -14574   -14516   -14767   -15171   -15327   -15102   -14812   -14721 
  -14758   -14801   -14901   -15130   -15392   -15518   -15530   -15539 
  -15514   -15400   -15248   -15040   -14708   -14377   -14254   -14332 
  -14445   -14466   -14416   -14377   -14332   -14250   -14237   -14384 
  -14682   -15126   -15708   -16294   -16646   -16600   -16243   -15753 
  -15206   -14688   -14364   -14277   -14338   -14504   -14721   -14858 
  -14851   -14735   -14566   -14439   -14400   -14377   -14342   -14420 
  -14727   -15174   -15589   -15851   -15920   -15836   -15664   -15503 
  -15434   -15349   -15095   -14670   -14153   -13709   -13544   -13722 
  -14187   -14754   -15167   -15392   -15560   -15685   -15736   -15697 
  -15527   -15295   -15179   -15176   -15047   -14690   -14295   -14154 
  -14420   -14906   -15234   -15257   -15083   -14827   -14627   -14562 
  -14519   -14509   -14732   -15180   -15628   -15873   -15838   -15574 
  -15203   -14855   -14658   -14663   -14762   -14779   -14604   -14238 
  -13840   -13693   -13987   -14593   -15157   -15449   -15496   -15352 
  -15048   -14836   -15006   -15492   -15978   -16224   -16160   -15842 
  -15415   -14995   -14601   -14269   -14104   -14203   -14530   -14859 
  -14956   -14810   -14577   -14440   -14532   -14802   -15033   -15103 
  -15097   -15115   -15191   -15299   -15383   -15437   -15464   -15380 
  -15148   -14821   -14434   -14042   -13819   -13918   -14301   -14777 
  -15129   -15250   -15219   -15230   -15348   -15477   -15556   -15584 
  -15529   -15331   -15017   -14728   -14567   -14505   -14534   -14686 
  -14912   -15128   -15272   -15287   -15159   -14867   -14462   -14192 
  -14251   -14571   -15020   -15485   -15785   -15830   -15674   -15344 
  -14879   -14442   -14169   -14072   -14131   -14386   -14827   -15272 
  -15538   -15600   -15518   -15310   -15020   -14817   -14827   -14968 
  -15115   -15232   -15307   -15306   -15172   -14935   -14689   -14492 
  -14405   -14523   -14840   -15238   -15485   -15344   -14856   -14319 
  -13961   -13884   -14103   -14497   -14904   -15188   -15286   -15286 
  -15309   -15358   -15392   -15438   -15472   -15379   -15159   -14945 
  -14814   -14821   -14989   -15203   -15313   -15232   -14972   -14659 
  -14416   -14327   -14470   -14789   -15118   -15344   -15422   -15349 
  -15159   -14882   -14628   -14558   -14709   -14974   -15232   -15375 
  -15372   -15310   -15248   -15159   -15028   -14868   -14681   -14493 
  -14334   -14195   -14106   -14141   -14337   -14646   -14943   -15120 
  -15171   -15168   -15190   -15269   -15368   -15399   -15340   -15265 
  -15264   -15344   -15448   -15541   -15604   -15556   -15368   -15113 
  -14808   -14449   -14111   -13891   -13863   -14000   -14218   -14490 
  -14814   -15107   -15279   -15342   -15377   -15399   -15331   -15142 
  -14921   -14735   -14592   -14543   -14659   -14925   -15242   -15507 
  -15631   -15560   -15321   -15020   -14735   -14513   -14400   -14420 
  -14593   -14882   -15174   -15368   -15414   -15329   -15215   -15140 
  -15067   -14956   -14820   -14708   -14661   -14686   -14773   -14885 
  -14989   -15043   -15003   -14925   -14909   -14920   -14877   -14809 
  -14783   -14801   -14833   -14882   -14967   -15076   -15172   -15225 
  -15226   -15199   -15141   -15039   -14899   -14736   -14584   -14543 
  -14659   -14862   -15057   -15199   -15263   -15257   -15256   -15250 
  -15156   -14987   -14836   -14744   -14752   -14881   -15048   -15132 
  -15090   -14975   -14844   -14696   -14521   -14386   -14370   -14466 
  -14655   -14906   -15133   -15283   -15381   -15427   -15358   -15151 
  -14891   -14727   -14710   -14760   -14810   -14895   -15009   -15091 
  -15138   -15169   -15171   -15117   -15025   -14978   -15039   -15167 
  -15241   -15167   -14958   -14696   -14494   -14472   -14655   -14960 
  -15273   -15462   -15446   -15271   -15039   -14813   -14620   -14489 
  -14455   -14503   -14580   -14696   -14868   -15045   -15180   -15276 
  -15318   -15283   -15188   -15070   -14929   -14766   -14588   -14434 
  -14388   -14485   -14689   -14976   -15319   -15623   -15770   -15718 
  -15520   -15272   -15045   -14882   -14797   -14791   -14856   -14952 
  -15028   -15049   -14982   -14827   -14646   -14526   -14512   -14580 
  -14670   -14767   -14871   -14933   -14920   -14882   -14852   -14794 
  -14725   -14756   -14935   -15174   -15364   -15473   -15504   -15448 
  -15319   -15169   -15003   -14773   -14489   -14272   -14224   -14354 
  -14600   -14918   -15265   -15554   -15730   -15796   -15736   -15523 
  -15196   -14841   -14546   -14373   -14334   -14403   -14553   -14746 
  -14924   -15067   -15171   -15206   -15167   -15090   -14991   -14864 
  -14731   -14638   -14611   -14643   -14717   -14832   -14963   -15072 
  -15168   -15238   -15238   -15192   -15145   -15083   -14998   -14925 
  -14870   -14809   -14759   -14754   -14806   -14898   -15002   -15133 
  -15287   -15417   -15496   -15506   -15399   -15157   -14820   -14480 
  -14246   -14164   -14189   -14285   -14463   -14692   -14916   -15134 
  -15358   -15539   -15604   -15535   -15403   -15259   -15076   -14843 
  -14634   -14512   -14469   -14532   -14720   -14906   -14982   -14979 
  -14955   -14951   -14993   -15057   -15097   -15084   -15056   -15052 
  -15076   -15113   -15138   -15147   -15148   -15115   -15056   -15029 
  -15006   -14936   -14852   -14786   -14739   -14716   -14702   -14693 
  -14708   -14732   -14731   -14715   -14706   -14716   -14770   -14901 
  -15067   -15199   -15276   -15317   -15326   -15287   -15191   -15068 
  -14959   -14885   -14860   -14909   -15007   -15084   -15115   -15151 
  -15209   -15246   -15225   -15137   -15002   -14828   -14627   -14455 
  -14376   -14392   -14457   -14519   -14577   -14658   -14773   -14922 
  -15088   -15222   -15290   -15292   -15261   -15226   -15194   -15160 
  -15117   -15066   -15028   -15013   -15021   -15064   -15122   -15137 
  -15072   -14936   -14781   -14654   -14565   -14528   -14567   -14669 
  -14808   -14953   -15074   -15156   -15226   -15280   -15283   -15225 
  -15120   -14993   -14893   -14848   -14832   -14813   -14801   -14824 
