Origin Time       2024/03/16 06:34:00
Lat.              32.907
Long.             131.047
Depth. (km)       7
Mag.              3.3
Station Code      KMMH18
Station Lat.      33.0031
Station Long.     131.0071
Station Height(m) 854.038
Record Time       2024/03/16 06:34:35
Sampling Freq(Hz) 100Hz
Duration Time(s)  120
Dir.              3
Scale Factor      3923(gal)/8224838
Max. Acc. (gal)   0.881
Last Correction   2024/03/16 06:34:35
Memo.             
[...]
  -26387   -26387   -26385   -26387   -26389   -26385   -26385   -26388 
  -26385   -26384   -26387   -26388   -26387   -26384   -26387   -26387 
  -26384   -26385   -26387   -26387   -26387   -26384   -26381   -26385 
  -26387   -26385   -26385   -26385   -26384   -26385   -26388   -26385 
  -26381   -26383   -26387   -26387   -26384   -26384   -26385   -26388 
  -26388   -26387   -26387   -26385   -26385   -26387   -26388   -26385 
  -26384   -26384   -26385   -26385   -26385   -26387   -26387   -26385 
  -26384   -26384   -26385   -26387   -26385   -26384   -26384   -26385 
  -26385   -26385   -26387   -26385   -26385   -26387   -26385   -26387 
  -26385   -26383   -26384   -26384   -26383   -26385   -26387   -26384 
  -26383   -26384   -26387   -26388   -26387   -26385   -26387   -26384 
  -26384   -26387   -26385   -26383   -26383   -26385   -26384   -26384 
  -26387   -26387   -26387   -26387   -26387   -26385   -26385   -26387 
  -26387   -26385   -26384   -26387   -26389   -26385   -26384   -26385 
  -26385   -26384   -26387   -26389   -26387   -26384   -26385   -26387 
  -26387   -26385   -26383   -26385   -26387   -26385   -26384   -26384 
  -26383   -26384   -26388   -26385   -26385   -26388   -26385   -26385 
  -26387   -26385   -26384   -26384   -26384   -26387   -26388   -26388 
  -26387   -26385   -26385   -26385   -26387   -26387   -26388   -26389 
  -26389   -26385   -26383   -26385   -26387   -26385   -26388   -26388 
  -26385   -26387   -26387   -26383   -26385   -26389   -26385   -26385 
  -26388   -26385   -26385   -26387   -26387   -26387   -26389   -26388 
  -26384   -26384   -26387   -26387   -26385   -26385   -26387   -26387 
  -26388   -26388   -26385   -26387   -26389   -26385   -26385   -26388 
  -26387   -26384   -26385   -26387   -26387   -26385   -26385   -26384 
  -26383   -26383   -26384   -26385   -26385   -26388   -26385   -26384 
  -26387   -26388   -26387   -26385   -26387   -26388   -26387   -26385 
  -26384   -26385   -26387   -26384   -26384   -26387   -26388   -26385 
  -26384   -26385   -26387   -26387   -26387   -26385   -26387   -26389 
  -26387   -26384   -26385   -26385   -26384   -26388   -26388   -26384 
  -26385   -26388   -26385   -26387   -26387   -26384   -26385   -26387 
  -26385   -26387   -26387   -26385   -26387   -26389   -26389   -26387 
  -26385   -26387   -26387   -26387   -26387   -26385   -26387   -26387 
  -26385   -26387   -26385   -26383   -26385   -26387   -26387   -26385 
  -26385   -26385   -26387   -26385   -26384   -26387   -26385   -26384 
  -26385   -26385   -26385   -26387   -26387   -26384   -26384   -26384 
  -26384   -26385   -26387   -26387   -26387   -26385   -26385   -26387 
  -26385   -26384   -26385   -26391   -26389   -26384   -26385   -26387 
  -26385   -26384   -26384   -26384   -26385   -26385   -26385   -26385 
  -26385   -26388   -26387   -26387   -26385   -26385   -26388   -26387 
  -26385   -26387   -26384   -26383   -26387   -26387   -26387   -26387 
  -26384   -26384   -26388   -26387   -26384   -26385   -26387   -26387 
  -26387   -26385   -26384   -26384   -26385   -26388   -26387   -26384 
  -26384   -26385   -26385   -26384   -26385   -26387   -26387   -26387 
  -26387   -26387   -26387   -26388   -26388   -26384   -26383   -26387 
  -26387   -26387   -26387   -26385   -26385   -26385   -26385   -26387 
  -26385   -26385   -26385   -26387   -26384   -26380   -26384   -26388 
  -26387   -26387   -26385   -26385   -26385   -26385   -26384   -26384 
  -26385   -26385   -26384   -26385   -26387   -26385   -26385   -26387 
  -26387   -26385   -26385   -26385   -26384   -26387   -26389   -26387 
  -26385   -26385   -26385   -26385   -26387   -26384   -26385   -26385 
  -26383   -26383   -26385   -26387   -26387   -26385   -26384   -26385 
  -26384   -26384   -26387   -26385   -26384   -26385   -26387   -26387 
  -26387   -26385   -26384   -26384   -26385   -26387   -26387   -26385 
  -26387   -26387   -26385   -26385   -26387   -26388   -26384   -26384 
  -26385   -26385   -26387   -26385   -26383   -26387   -26388   -26385 
  -26388   -26388   -26387   -26388   -26389   -26388   -26388   -26385 
  -26384   -26384   -26385   -26385   -26388   -26388   -26385   -26387 
  -26385   -26384   -26387   -26388   -26385   -26381   -26384   -26387 
  -26384   -26385   -26388   -26387   -26385   -26385   -26385   -26385 
  -26385   -26387   -26388   -26387   -26384   -26385   -26387   -26384 
  -26384   -26387   -26388   -26385   -26383   -26384   -26387   -26385 
  -26383   -26384   -26385   -26385   -26388   -26387   -26383   -26387 
  -26388   -26387   -26384   -26381   -26384   -26387   -26384   -26384 
  -26387   -26384   -26384   -26388   -26387   -26383   -26385   -26387 
  -26387   -26385   -26384   -26385   -26387   -26387   -26387   -26387 
  -26388   -26387   -26385   -26384   -26387   -26387   -26384   -26384 
  -26385   -26385   -26385   -26388   -26388   -26384   -26385   -26388 
  -26387   -26384   -26388   -26388   -26385   -26385   -26384   -26385 
  -26387   -26385   -26388   -26389   -26385   -26381   -26384   -26387 
  -26387   -26388   -26388   -26387   -26387   -26385   -26383   -26385 
  -26389   -26388   -26385   -26385   -26387   -26385   -26384   -26385 
  -26385   -26387   -26392   -26388   -26385   -26388   -26385   -26381 
  -26384   -26385   -26384   -26385   -26385   -26384   -26387   -26388 
  -26387   -26387   -26385   -26384   -26385   -26387   -26387   -26385 
  -26385   -26385   -26384   -26384   -26385   -26388   -26388   -26384 
  -26385   -26388   -26387   -26384   -26385   -26387   -26387   -26384 
  -26384   -26385   -26387   -26385   -26387   -26387   -26388   -26388 
  -26387   -26384   -26385   -26387   -26388   -26387   -26385   -26387 
  -26387   -26385   -26387   -26385   -26387   -26384   -26381   -26385 
  -26389   -26388   -26387   -26388   -26388   -26385   -26385   -26384 
  -26384   -26385   -26385   -26385   -26385   -26385   -26388   -26388 
  -26388   -26388   -26387   -26388   -26387   -26384   -26385   -26388 
  -26387   -26385   -26384   -26385   -26388   -26387   -26384   -26387 
  -26387   -26385   -26387   -26385   -26384   -26385   -26387   -26387 
  -26385   -26383   -26384   -26387   -26383   -26384   -26387   -26387 
  -26387   -26387   -26387   -26385   -26385   -26384   -26384   -26385 
  -26388   -26387   -26383   -26384   -26385   -26384   -26385   -26389 
  -26385   -26381   -26383   -26383   -26385   -26388   -26385   -26385 
  -26387   -26387   -26385   -26384   -26384   -26385   -26387   -26385 
  -26381   -26383   -26385   -26383   -26384   -26387   -26385   -26385 
  -26385   -26385   -26387   -26388   -26388   -26385   -26384   -26385 
  -26387   -26387   -26384   -26385   -26388   -26385   -26383   -26384 
  -26385   -26387   -26388   -26389   -26388   -26387   -26388   -26387 
  -26385   -26387   -26389   -26388   -26384   -26384   -26387   -26387 
  -26385   -26384   -26384   -26385   -26385   -26384   -26385   -26387 
  -26385   -26384   -26385   -26387   -26385   -26384   -26384   -26385 
  -26387   -26389   -26389   -26384   -26383   -26384   -26385   -26387 
  -26385   -26383   -26384   -26388   -26388   -26387   -26387   -26387 
  -26387   -26385   -26385   -26385   -26385   -26385   -26387   -26387 
  -26384   -26383   -26384   -26385   -26385   -26384   -26385   -26387 
  -26388   -26387   -26385   -26387   -26387   -26387   -26385   -26385 
  -26385   -26385   -26384   -26385   -26387   -26385   -26385   -26385 
  -26385   -26387   -26387   -26385   -26385   -26385   -26385   -26387 
  -26387   -26387   -26387   -26384   -26384   -26387   -26385   -26384 
  -26385   -26387   -26387   -26385   -26387   -26387   -26387   -26387 
  -26387   -26387   -26387   -26385   -26385   -26387   -26387   -26389 
  -26389   -26387   -26389   -26389   -26384   -26384   -26388   -26388 
  -26385   -26385   -26387   -26385   -26385   -26387   -26385   -26384 
  -26387   -26387   -26385   -26387   -26387   -26384   -26384   -26385 
  -26384   -26385   -26387   -26387   -26385   -26385   -26384   -26385 
  -26387   -26385   -26385   -26388   -26387   -26385   -26384   -26383 
  -26383   -26384   -26385   -26385   -26387   -26387   -26387   -26388 
  -26387   -26385   -26387   -26387   -26385   -26385   -26385   -26384 
  -26384   -26385   -26385   -26385   -26385   -26388   -26387   -26385 
  -26385   -26387   -26385   -26385   -26385   -26384   -26383   -26384 
  -26384   -26387   -26388   -26385   -26384   -26387   -26387   -26384 
  -26384   -26385   -26384   -26384   -26385   -26387   -26387   -26387 
  -26384   -26384   -26387   -26388   -26385   -26385   -26385   -26384 
  -26385   -26387   -26388   -26387   -26385   -26385   -26387   -26387 
  -26387   -26387   -26385   -26385   -26387   -26385   -26384   -26384 
  -26385   -26385   -26385   -26384   -26383   -26384   -26388   -26387 
  -26384   -26385   -26385   -26388   -26388   -26384   -26384   -26385 
  -26384   -26383   -26385   -26387   -26385   -26387   -26385   -26385 
  -26385   -26383   -26383   -26385   -26384   -26383   -26385   -26385 
  -26383   -26385   -26385   -26383   -26383   -26384   -26384   -26384 
  -26387   -26388   -26388   -26385   -26383   -26383   -26385   -26388 
  -26389   -26385   -26385   -26387   -26384   -26383   -26383   -26384 
  -26385   -26385   -26383   -26384   -26385   -26385   -26387   -26387 
  -26384   -26387   -26387   -26385   -26389   -26389   -26384   -26384 
  -26387   -26387   -26387   -26387   -26388   -26388   -26384   -26383 
  -26384   -26385   -26387   -26388   -26387   -26384   -26385   -26388 
  -26387   -26384   -26384   -26385   -26385   -26384   -26384   -26387 
  -26387   -26383   -26383   -26387   -26385   -26383   -26385   -26385 
  -26384   -26384   -26383   -26384   -26387   -26384   -26384   -26385 
  -26385   -26385   -26384   -26384   -26387   -26385   -26384   -26385 
  -26385   -26385   -26385   -26384   -26384   -26387   -26385   -26385 
  -26385   -26385   -26387   -26385   -26384   -26384   -26384   -26385 
  -26385   -26385   -26385   -26385   -26384   -26385   -26388   -26387 
  -26385   -26385   -26385   -26385   -26385   -26385   -26387   -26383 
  -26384   -26385   -26383   -26385   -26387   -26384   -26383   -26384 
  -26385   -26388   -26387   -26384   -26385   -26385   -26384   -26388 
  -26387   -26381   -26383   -26387   -26387   -26387   -26387   -26385 
  -26389   -26388   -26383   -26385   -26388   -26388   -26387   -26385 
  -26387   -26387   -26384   -26385   -26384   -26384   -26385   -26384 
  -26385   -26388   -26388   -26385   -26383   -26383   -26387   -26388 
  -26384   -26384   -26387   -26387   -26385   -26384   -26383   -26384 
  -26387   -26385   -26384   -26385   -26385   -26384   -26384   -26385 
  -26385   -26384   -26384   -26385   -26385   -26385   -26384   -26385 
  -26387   -26384   -26385   -26385   -26385   -26385   -26385   -26387 
  -26385   -26383   -26381   -26381   -26383   -26385   -26387   -26387 
  -26385   -26385   -26387   -26387   -26385   -26387   -26385   -26385 
  -26388   -26387   -26384   -26387   -26388   -26385   -26392   -26404 
  -26415   -26430   -26468   -26518   -26508   -26428   -26426   -26589 
  -26765   -26793   -26631   -26275   -25901   -25758   -25725   -25658 
  -25753   -25938   -25955   -26057   -26445   -26802   -26909   -26860 
  -26785   -26678   -26534   -26439   -26493   -26655   -26599   -26233 
  -26030   -26138   -26269   -26379   -26478   -26595   -26801   -26882 
  -26686   -26503   -26569   -26671   -26536   -26283   -26150   -26188 
  -26342   -26503   -26559   -26415   -26059   -25839   -26057   -26353 
  -26250   -25915   -25833   -26129   -26518   -26669   -26615   -26643 
  -26723   -26597   -26319   -26090   -26040   -26225   -26392   -26369 
  -26410   -26508   -26515   -26670   -26827   -26539   -26154   -26194 
  -26422   -26508   -26536   -26538   -26373   -26253   -26354   -26430 
  -26530   -26712   -26603   -26302   -26163   -26084   -26064   -26152 
  -26118   -26036   -26053   -25991   -26080   -26465   -26586   -26468 
  -26636   -26847   -26817   -26682   -26370   -26126   -26227   -26296 
  -26322   -26539   -26703   -26657   -26453   -26233   -26169   -26227 
  -26349   -26455   -26508   -26619   -26703   -26638   -26617   -26626 
  -26451   -26298   -26323   -26311   -26276   -26379   -26476   -26435 
  -26300   -26146   -26206   -26462   -26465   -26257   -26235   -26242 
  -26136   -26083   -26067   -26176   -26365   -26284   -26227   -26473 
  -26582   -26545   -26512   -26373   -26424   -26655   -26750   -26927 
  -27041   -26817   -26704   -26708   -26547   -26551   -26636   -26461 
  -26237   -26110   -26095   -26177   -26036   -25639   -25428   -25575 
  -25936   -26310   -26368   -26164   -26179   -26392   -26468   -26353 
  -26221   -26248   -26299   -26244   -26212   -26183   -26111   -26100 
  -26231   -26466   -26599   -26554   -26469   -26482   -26640   -26748 
  -26669   -26568   -26612   -26762   -26688   -26330   -26308   -26801 
  -27113   -26919   -26613   -26451   -26258   -26072   -26212   -26572 
  -26751   -26713   -26659   -26609   -26408   -26028   -25647   -25456 
  -25431   -25474   -25834   -26611   -27101   -26856   -26485   -26480 
  -26689   -26979   -27093   -26806   -26489   -26487   -26608   -26515 
  -26230   -26090   -26072   -26002   -25941   -25772   -25571   -25618 
  -25901   -26520   -27209   -27249   -26794   -26531   -26620   -26793 
  -26954   -27301   -27749   -28013   -27977   -27668   -27283   -26761 
  -25951   -25245   -24899   -24723   -24614   -24538   -24713   -25292 
  -25840   -26169   -26538   -26912   -27033   -26769   -26241   -25786 
  -25651   -25780   -25957   -26136   -26343   -26419   -26384   -26581 
  -26919   -26986   -26842   -26759   -26862   -26901   -26532   -26163 
  -26110   -26034   -26068   -26476   -26991   -27433   -27742   -27770 
  -27569   -27287   -26886   -26327   -25872   -25820   -25915   -25698 
  -25381   -25446   -25805   -26099   -26177   -26211   -26314   -26298 
  -26268   -26374   -26361   -26141   -25867   -25747   -25910   -26140 
  -26306   -26491   -26674   -26825   -26821   -26615   -26531   -26739 
  -26956   -26962   -26852   -26734   -26580   -26434   -26380   -26450 
  -26697   -27020   -27072   -26653   -25979   -25471   -25278   -25228 
  -25177   -25193   -25447   -25848   -26025   -25936   -25953   -26146 
  -26238   -26190   -26177   -26307   -26500   -26588   -26623   -26769 
  -26960   -27014   -26959   -27004   -27129   -27205   -27333   -27467 
  -27356   -27059   -26817   -26711   -26634   -26482   -26379   -26380 
  -26307   -26140   -25948   -25729   -25620   -25752   -26063   -26360 
  -26545   -26721   -26916   -27064   -27156   -27163   -27153   -27167 
  -27022   -26689   -26377   -26175   -26099   -26045   -25818   -25591 
  -25593   -25745   -25947   -26119   -26245   -26320   -26225   -25952 
  -25654   -25454   -25416   -25474   -25477   -25402   -25412   -25523 
  -25604   -25706   -25845   -25974   -26198   -26485   -26684   -26844 
  -27039   -27176   -27279   -27464   -27572   -27513   -27535   -27652 
  -27677   -27589   -27394   -27189   -27153   -27184   -27027   -26703 
  -26350   -26045   -25957   -26061   -26036   -25848   -25643   -25520 
  -25613   -25825   -26028   -26217   -26271   -26239   -26299   -26352 
  -26273   -26160   -26123   -26115   -26069   -26056   -26125   -26190 
  -26194   -26161   -26104   -26061   -26100   -26191   -26192   -26072 
  -25976   -25926   -25898   -25982   -26144   -26288   -26433   -26557 
  -26677   -26827   -26941   -26982   -26964   -26948   -26987   -27040 
  -27079   -27059   -26905   -26746   -26690   -26662   -26676   -26715 
  -26649   -26528   -26482   -26505   -26518   -26415   -26219   -26092 
  -26022   -25866   -25687   -25654   -25743   -25830   -25882   -25965 
  -26167   -26428   -26609   -26730   -26820   -26805   -26727   -26713 
  -26759   -26762   -26734   -26747   -26684   -26503   -26393   -26369 
  -26361   -26356   -26253   -26103   -25998   -25856   -25755   -25798 
  -25859   -25893   -25909   -25836   -25756   -25826   -26007   -26171 
  -26280   -26306   -26222   -26163   -26275   -26519   -26694   -26662 
  -26615   -26701   -26730   -26663   -26678   -26766   -26792   -26730 
  -26688   -26751   -26863   -26894   -26831   -26781   -26771   -26700 
  -26593   -26554   -26578   -26601   -26495   -26272   -26154   -26126 
  -26083   -26073   -26098   -26167   -26208   -26179   -26266   -26420 
  -26403   -26252   -26092   -25974   -25922   -25926   -25960   -26048 
  -26203   -26342   -26441   -26573   -26701   -26790   -26881   -26946 
  -26948   -26896   -26808   -26758   -26750   -26700   -26636   -26624 
  -26592   -26438   -26222   -26083   -26033   -26013   -25957   -25814 
  -25699   -25743   -25898   -26076   -26160   -26122   -26107   -26133 
  -26126   -26157   -26249   -26291   -26269   -26291   -26365   -26370 
  -26283   -26229   -26296   -26455   -26613   -26723   -26883   -27102 
  -27191   -27147   -27129   -27091   -26959   -26836   -26789   -26750 
  -26659   -26573   -26518   -26407   -26242   -26134   -26057   -25953 
  -25848   -25785   -25829   -25969   -26042   -26075   -26204   -26346 
  -26427   -26497   -26532   -26489   -26361   -26227   -26234   -26356 
  -26450   -26489   -26473   -26379   -26273   -26253   -26284   -26293 
  -26284   -26250   -26202   -26207   -26249   -26319   -26419   -26401 
  -26308   -26342   -26401   -26379   -26400   -26470   -26547   -26624 
  -26635   -26603   -26565   -26496   -26451   -26455   -26454   -26435 
  -26415   -26408   -26377   -26326   -26337   -26389   -26428   -26439 
  -26399   -26364   -26411   -26503   -26542   -26505   -26466   -26465 
  -26468   -26430   -26326   -26230   -26212   -26215   -26204   -26235 
  -26327   -26408   -26435   -26457   -26451   -26400   -26364   -26356 
  -26387   -26423   -26380   -26316   -26284   -26250   -26225   -26184 
  -26153   -26179   -26215   -26254   -26300   -26306   -26318   -26393 
  -26461   -26454   -26420   -26381   -26338   -26339   -26357   -26323 
  -26312   -26374   -26462   -26593   -26752   -26840   -26855   -26824 
  -26697   -26570   -26563   -26572   -26528   -26519   -26497   -26423 
  -26397   -26396   -26323   -26219   -26145   -26088   -26073   -26119 
  -26179   -26223   -26217   -26134   -26073   -26063   -26044   -26063 
  -26127   -26157   -26214   -26362   -26489   -26495   -26419   -26373 
  -26424   -26519   -26578   -26590   -26545   -26497   -26526   -26609 
  -26711   -26788   -26794   -26761   -26709   -26628   -26562   -26514 
  -26461   -26450   -26438   -26337   -26226   -26208   -26241   -26250 
  -26244   -26271   -26319   -26333   -26311   -26289   -26311   -26366 
  -26393   -26387   -26392   -26422   -26487   -26547   -26531   -26466 
  -26407   -26346   -26315   -26331   -26320   -26256   -26191   -26144 
  -26123   -26123   -26150   -26244   -26349   -26366   -26341   -26356 
  -26381   -26385   -26423   -26469   -26451   -26427   -26462   -26538 
  -26617   -26649   -26608   -26553   -26485   -26399   -26358   -26374 
  -26362   -26289   -26226   -26221   -26246   -26273   -26287   -26272 
  -26265   -26291   -26310   -26307   -26281   -26238   -26237   -26281 
  -26320   -26356   -26385   -26400   -26438   -26478   -26495   -26522 
  -26562   -26617   -26665   -26665   -26651   -26630   -26609   -26627 
