Origin Time       2024/03/16 06:34:00
Lat.              32.907
Long.             131.047
Depth. (km)       7
Mag.              3.3
Station Code      KMMH05
Station Lat.      32.9553
Station Long.     131.2207
Station Height(m) 693
Record Time       2024/03/16 06:34:38
Sampling Freq(Hz) 100Hz
Duration Time(s)  120
Dir.              5
Scale Factor      7845(gal)/8223790
Max. Acc. (gal)   2.790
Last Correction   2024/03/16 06:34:38
Memo.             
[...]
   25119    25120    25110    25101    25096    25089    25076    25056 
   25037    25033    25045    25064    25092    25123    25146    25164 
   25180    25186    25184    25182    25176    25153    25123    25095 
   25072    25053    25042    25031    25020    25020    25039    25069 
   25092    25108    25120    25130    25139    25143    25139    25128 
   25114    25101    25093    25092    25095    25096    25101    25111 
   25115    25116    25123    25126    25123    25115    25105    25099 
   25089    25083    25083    25078    25070    25073    25080    25087 
   25099    25114    25120    25115    25114    25119    25114    25100 
   25093    25099    25104    25108    25116    25120    25119    25119 
   25119    25118    25110    25091    25077    25077    25081    25078 
   25073    25078    25091    25099    25107    25120    25128    25130 
   25128    25123    25119    25116    25105    25093    25087    25084 
   25081    25081    25087    25097    25115    25123    25118    25111 
   25111    25107    25093    25084    25083    25084    25091    25103 
   25110    25111    25111    25114    25115    25111    25100    25095 
   25092    25091    25093    25097    25100    25104    25108    25111 
   25114    25110    25105    25111    25124    25127    25115    25107 
   25104    25099    25092    25084    25080    25084    25092    25101 
   25105    25104    25105    25104    25100    25103    25101    25089 
   25080    25089    25105    25111    25112    25112    25110    25107 
   25107    25108    25110    25111    25115    25115    25115    25116 
   25112    25104    25100    25101    25104    25104    25101    25101 
   25101    25095    25091    25089    25081    25073    25076    25077 
   25074    25074    25080    25099    25118    25128    25139    25151 
   25150    25145    25142    25134    25120    25104    25096    25093 
   25083    25074    25076    25080    25081    25085    25091    25095 
   25101    25104    25099    25091    25089    25095    25095    25097 
   25110    25119    25119    25120    25123    25119    25112    25110 
   25110    25110    25114    25115    25112    25110    25108    25101 
   25095    25093    25091    25089    25092    25095    25093    25085 
   25085    25091    25093    25095    25100    25105    25111    25123 
   25131    25130    25128    25128    25120    25108    25097    25091 
   25085    25081    25081    25087    25093    25099    25105    25112 
   25115    25114    25112    25108    25096    25085    25087    25089 
   25088    25089    25092    25099    25111    25118    25119    25120 
   25120    25123    25131    25134    25127    25120    25114    25100 
   25091    25084    25077    25070    25066    25068    25072    25074 
   25080    25087    25101    25116    25119    25119    25120    25116 
   25114    25116    25118    25119    25122    25122    25126    25127 
   25118    25103    25095    25091    25084    25080    25081    25089 
   25101    25114    25116    25107    25096    25093    25093    25087 
   25077    25069    25069    25076    25084    25095    25108    25119 
   25130    25139    25145    25147    25145    25138    25131    25119 
   25105    25096    25087    25080    25084    25089    25087    25084 
   25091    25101    25105    25100    25092    25091    25092    25089 
   25088    25085    25081    25083    25093    25103    25107    25107 
   25111    25122    25126    25126    25131    25134    25132    25134 
   25135    25128    25115    25103    25095    25091    25087    25085 
   25083    25081    25083    25084    25083    25085    25085    25087 
   25091    25099    25107    25105    25101    25105    25115    25118 
   25116    25112    25111    25112    25112    25110    25104    25103 
   25103    25103    25107    25110    25111    25116    25120    25112 
   25103    25101    25101    25100    25103    25099    25091    25092 
   25092    25092    25092    25087    25087    25093    25099    25104 
   25108    25112    25112    25103    25095    25097    25095    25085 
   25087    25096    25105    25114    25122    25126    25123    25126 
   25128    25120    25114    25114    25111    25104    25105    25114 
   25115    25111    25105    25097    25093    25093    25089    25081 
   25073    25066    25061    25062    25068    25083    25097    25108 
   25119    25127    25126    25119    25120    25128    25137    25139 
   25139    25142    25137    25122    25110    25100    25093    25091 
   25081    25072    25073    25077    25081    25087    25089    25089 
   25087    25087    25093    25104    25110    25107    25110    25123 
   25131    25130    25134    25138    25130    25115    25103    25096 
   25096    25096    25088    25084    25091    25099    25100    25097 
   25093    25089    25088    25091    25095    25096    25089    25083 
   25085    25100    25119    25130    25131    25130    25130    25131 
   25132    25127    25115    25103    25095    25095    25101    25103 
   25096    25095    25095    25091    25089    25091    25096    25107 
   25108    25100    25093    25091    25088    25085    25081    25078 
   25084    25097    25107    25111    25116    25118    25120    25124 
   25124    25127    25130    25123    25114    25114    25124    25128 
   25126    25123    25118    25104    25087    25072    25066    25073 
   25084    25083    25078    25077    25073    25073    25083    25088 
   25087    25089    25100    25114    25131    25150    25168    25181 
   25180    25155    25122    25095    25081    25077    25070    25061 
   25060    25066    25077    25093    25108    25114    25110    25095 
   25078    25073    25084    25105    25127    25137    25142    25146 
   25141    25124    25112    25111    25112    25112    25108    25103 
   25100    25097    25089    25081    25073    25062    25057    25061 
   25076    25097    25112    25120    25126    25124    25107    25085 
   25077    25080    25091    25111    25132    25147    25155    25161 
   25165    25154    25127    25097    25077    25068    25065    25073 
   25084    25089    25089    25087    25081    25078    25083    25091 
   25104    25111    25110    25112    25118    25112    25097    25077 
   25062    25066    25081    25104    25135    25159    25170    25176 
   25172    25155    25130    25100    25077    25068    25072    25080 
   25087    25087    25084    25078    25081    25089    25088    25081 
   25078    25084    25096    25111    25124    25134    25134    25123 
   25111    25104    25104    25114    25127    25134    25127    25114 
   25101    25092    25083    25070    25056    25050    25057    25076 
   25104    25138    25161    25157    25139    25119    25097    25083 
   25080    25081    25085    25091    25103    25120    25137    25142 
   25137    25119    25100    25093    25095    25096    25100    25104 
   25103    25097    25095    25089    25078    25072    25069    25076 
   25095    25115    25132    25146    25146    25142    25134    25112 
   25088    25068    25051    25049    25061    25078    25100    25124 
   25139    25142    25134    25127    25122    25114    25105    25100 
   25097    25101    25111    25124    25139    25145    25138    25119 
   25093    25078    25073    25064    25060    25069    25078    25083 
   25089    25091    25088    25092    25096    25092    25089    25099 
   25112    25126    25138    25141    25130    25114    25103    25105 
   25119    25127    25128    25128    25126    25123    25118    25103 
   25080    25062    25057    25066    25084    25101    25116    25127 
   25131    25123    25101    25073    25054    25057    25065    25077 
   25099    25122    25131    25135    25132    25123    25111    25103 
   25101    25107    25112    25118    25124    25131    25135    25127 
   25115    25103    25096    25088    25078    25070    25066    25064 
   25062    25064    25069    25080    25097    25116    25132    25139 
   25139    25142    25145    25149    25149    25135    25114    25092 
   25080    25081    25084    25084    25088    25095    25099    25100 
   25100    25097    25089    25078    25074    25078    25085    25093 
   25111    25127    25134    25137    25135    25126    25114    25103 
   25091    25083    25080    25078    25083    25097    25112    25119 
   25118    25115    25115    25115    25110    25097    25088    25085 
   25089    25099    25105    25112    25119    25126    25131    25137 
   25134    25119    25104    25096    25092    25084    25070    25065 
   25068    25065    25058    25056    25056    25061    25072    25087 
   25105    25127    25149    25170    25186    25189    25177    25162 
   25146    25131    25116    25100    25087    25077    25070    25066 
   25066    25070    25077    25081    25081    25081    25081    25081 
   25081    25085    25093    25100    25110    25122    25132    25141 
   25142    25139    25134    25127    25116    25103    25089    25078 
   25069    25065    25072    25088    25107    25119    25128    25134 
   25134    25127    25122    25116    25111    25110    25112    25111 
   25103    25096    25095    25099    25100    25091    25081    25076 
   25068    25068    25072    25078    25088    25099    25112    25123 
   25124    25124    25124    25122    25115    25110    25108    25107 
   25107    25110    25114    25114    25111    25111    25112    25114 
   25111    25110    25110    25107    25104    25099    25093    25093 
   25099    25099    25095    25092    25092    25088    25084    25080 
   25074    25070    25073    25080    25085    25092    25101    25114 
   25128    25141    25147    25150    25151    25151    25150    25146 
   25139    25127    25115    25107    25097    25087    25080    25073 
   25068    25068    25062    25056    25051    25047    25053    25064 
   25076    25084    25093    25111    25134    25149    25154    25155 
   25157    25155    25157    25164    25161    25147    25131    25115 
   25100    25085    25066    25053    25046    25039    25042    25054 
   25069    25084    25095    25099    25101    25104    25108    25112 
   25118    25120    25123    25127    25128    25130    25131    25127 
   25118    25108    25104    25110    25115    25118    25118    25116 
   25118    25130    25141    25141    25127    25099    25061    25027 
   25022    25043    25084    25139    25193    25222    25208    25165 
   25111    25081    25097    25145    25192    25242    25261    25200 
   25072    24933    24853    24876    24958    25056    25186    25294 
   25280    25173    25054    24949    24896    24888    24869    24860 
   24880    24877    24827    24813    24884    24981    25069    25157 
   25230    25301    25346    25350    25413    25496    25436    25301 
   25236    25159    24977    24849    24884    24923    24960    25147 
   25319    25270    25195    25220    25199    25164    25277    25423 
   25404    25280    25170    25084    25002    24891    24742    24664 
   24738    24876    24972    25041    25107    25115    25061    25095 
   25303    25513    25560    25544    25508    25297    24956    24746 
   24700    24713    24817    24965    25035    25069    25137    25128 
   25006    25034    25328    25605    25709    25713    25563    25238 
   24946    24821    24781    24786    24796    24734    24709    24865 
   25050    25078    25023    25008    25045    25087    25088    25068 
   25038    24984    24995    25107    25227    25307    25326    25262 
   25166    25093    25064    25068    25060    25015    24988    25091 
   25296    25405    25374    25312    25207    25047    24914    24845 
   24906    25146    25363    25312    25158    25203    25334    25332 
   25253    25176    25124    25184    25331    25354    25132    24852 
   24742    24732    24678    24625    24576    24534    24653    24969 
   25296    25496    25583    25559    25342    25015    24845    24875 
   24952    25076    25286    25486    25610    25651    25570    25378 
   25164    25031    25030    25111    25189    25159    24979    24760 
   24638    24613    24656    24799    25045    25277    25397    25436 
   25415    25323    25201    25066    24930    24841    24799    24787 
   24745    24595    24466    24553    24764    24908    25007    25104 
   25143    25176    25290    25421    25515    25625    25756    25821 
   25817    25783    25648    25407    25203    25107    25053    24999 
   24966    24925    24765    24484    24236    24155    24256    24502 
   24849    25203    25405    25335    25003    24609    24510    24943 
   25713    26415    26858    26985    26705    26087    25394    24900 
   24781    24957    25093    24970    24590    24038    23587    23566 
   23985    24579    25080    25326    25309    25132    24939    24939 
   25272    25799    26173    26096    25575    24900    24333    23974 
   23938    24302    24910    25420    25602    25416    24922    24375 
   24155    24439    25180    26144    26839    26974    26771    26455 
   25983    25402    24834    24341    24074    24131    24370    24640 
   24975    25378    25641    25612    25374    25080    24840    24736 
   24699    24530    24197    23903    23762    23787    24128    24829 
   25597    26149    26474    26666    26653    26283    25704    25335 
   25294    25297    25191    25115    25178    25317    25455    25563 
   25562    25367    25046    24688    24201    23527    22877    22500 
   22563    23251    24489    25802    26840    27614    28028    27772 
   26821    25558    24335    23396    23016    23253    23862    24572 
   25191    25605    25787    25637    25130    24543    24160    24020 
   24082    24243    24412    24757    25404    26065    26480    26755 
   26968    26979    26813    26715    26709    26572    26272    25944 
   25508    24867    24240    23932    24020    24412    24976    25492 
   25590    25127    24362    23526    22735    22277    22453    23153 
   23992    24804    25644    26447    27021    27195    26916    26333 
   25650    24973    24417    24094    24012    24092    24295    24684 
   25236    25682    25779    25574    25267    25003    24776    24578 
   24520    24624    24792    25074    25475    25803    26030    26291 
   26512    26503    26271    25857    25224    24559    24162    24000 
   23884    23780    23747    23880    24179    24548    24958    25380 
   25691    25879    26003    26038    25976    25856    25672    25444 
   25293    25309    25415    25473    25425    25177    24719    24331 
   24271    24478    24808    25208    25547    25705    25701    25562 
   25359    25235    25247    25366    25551    25686    25585    25151 
   24530    23931    23452    23222    23322    23639    24000    24258 
   24344    24335    24339    24412    24655    25166    25890    26631 
   27221    27568    27662    27643    27591    27344    26793    26076 
   25347    24671    24088    23635    23365    23269    23286    23391 
   23550    23683    23822    24090    24475    24857    25249    25743 
   26221    26466    26445    26194    25717    25157    24722    24497 
   24448    24529    24696    24903    25096    25257    25412    25523 
   25498    25370    25274    25292    25428    25659    25907    26084 
   26144    26045    25704    25142    24576    24187    24011    24038 
   24247    24544    24800    24957    25105    25305    25407    25312 
   25142    24941    24648    24378    24295    24390    24591    24854 
   25119    25332    25485    25575    25587    25515    25401    25300 
   25208    25143    25162    25239    25292    25327    25420    25625 
   25907    26154    26245    26109    25751    25231    24641    24135 
   23859    23849    24035    24370    24796    25143    25272    25200 
   25029    24842    24679    24583    24640    24879    25254    25717 
   26168    26451    26457    26169    25668    25095    24557    24084 
   23733    23598    23708    24019    24422    24746    24871    24871 
   24900    25012    25211    25478    25743    26002    26283    26473 
   26424    26142    25749    25377    25141    25091    25164    25272 
   25396    25516    25510    25232    24687    24066    23585    23348 
   23386    23687    24179    24760    25317    25745    25948    25886 
   25647    25343    25042    24842    24840    25014    25276    25548 
   25764    25875    25867    25787    25702    25612    25498    25407 
   25344    25240    25046    24813    24606    24440    24317    24306 
   24471    24788    25180    25550    25826    25972    25942    25713 
   25312    24779    24192    23708    23469    23495    23720    24088 
   24576    25114    25554    25814    25890    25753    25439    25100 
   24837    24661    24607    24729    25019    25419    25864    26318 
   26693    26870    26808    26523    26037    25455    24949    24613 
   24412    24329    24387    24525    24680    24876    25099    25245 
   25258    25159    24975    24710    24420    24201    24112    24159 
   24331    24607    24993    25421    25725    25834    25801    25648 
   25384    25084    24846    24696    24664    24818    25131    25466 
   25717    25832    25751    25459    25000    24489    24077    23859 
   23838    24003    24333    24769    25262    25747    26123    26329 
   26368    26252    25994    25651    25299    25003    24846    24861 
   24988    25168    25366    25517    25556    25490    25363    25232 
   25142    25080    24996    24892    24819    24783    24763    24771 
   24806    24826    24821    24780    24663    24498    24390    24366 
   24374    24421    24544    24723    24926    25120    25277    25409 
   25536    25640    25724    25813    25933    26109    26319    26457 
   26428    26248    25964    25590    25137    24636    24143    23722 
   23456    23441    23684    24061    24444    24776    25038    25201 
   25254    25216    25103    24972    24902    24887    24899    24983 
   25162    25393    25647    25886    26049    26131    26165    26150 
   26053    25864    25601    25292    25018    24864    24814    24799 
   24800    24845    24915    24960    24952    24879    24733    24538 
   24339    24181    24100    24142    24363    24750    25176    25524 
   25764    25907    25948    25890    25768    25624    25475    25331 
   25203    25122    25099    25111    25123    25115    25080    25030 
   24956    24834    24672    24497    24322    24193    24170    24262 
   24409    24555    24696    24827    24953    25097    25257    25392 
   25494    25559    25559    25529    25509    25481    25461    25493 
   25582    25737    25955    26148    26225    26157    25949    25640 
   25299    24964    24676    24507    24484    24547    24628    24715 
   24784    24790    24746    24692    24634    24580    24576    24668 
   24852    25099    25378    25601    25697    25667    25524    25289 
   25016    24752    24538    24413    24363    24372    24443    24563 
   24699    24840    25029    25281    25525    25685    25752    25749 
   25654    25456    25195    24926    24753    24754    24887    25095 
   25371    25659    25855    25910    25844    25675    25454    25254 
   25076    24885    24717    24636    24663    24748    24840    24930 
   25016    25076    25115    25176    25259    25332    25375    25384 
