Origin Time       2024/03/16 06:34:00
Lat.              32.907
Long.             131.047
Depth. (km)       7
Mag.              3.3
Station Code      KMMH18
Station Lat.      33.0031
Station Long.     131.0071
Station Height(m) 932
Record Time       2024/03/16 06:34:35
Sampling Freq(Hz) 100Hz
Duration Time(s)  120
Dir.              6
Scale Factor      7845(gal)/8223790
Max. Acc. (gal)   2.699
Last Correction   2024/03/16 06:34:35
Memo.             
[...]
   -2573    -2574    -2573    -2571    -2573    -2574    -2574    -2571 
   -2570    -2573    -2574    -2574    -2574    -2573    -2571    -2571 
   -2573    -2573    -2571    -2573    -2575    -2573    -2569    -2573 
   -2575    -2571    -2574    -2574    -2570    -2571    -2571    -2570 
   -2573    -2573    -2571    -2573    -2571    -2571    -2573    -2570 
   -2570    -2571    -2571    -2573    -2573    -2571    -2571    -2573 
   -2574    -2574    -2573    -2571    -2571    -2574    -2573    -2571 
   -2571    -2571    -2574    -2574    -2571    -2571    -2571    -2574 
   -2574    -2571    -2571    -2573    -2571    -2573    -2573    -2571 
   -2573    -2571    -2571    -2573    -2570    -2573    -2573    -2569 
   -2570    -2574    -2571    -2570    -2573    -2573    -2574    -2570 
   -2569    -2571    -2571    -2571    -2573    -2571    -2571    -2574 
   -2574    -2570    -2570    -2571    -2573    -2571    -2573    -2575 
   -2573    -2570    -2571    -2571    -2569    -2571    -2574    -2571 
   -2571    -2571    -2571    -2571    -2571    -2573    -2573    -2573 
   -2573    -2571    -2571    -2573    -2571    -2571    -2573    -2573 
   -2571    -2573    -2571    -2570    -2573    -2574    -2573    -2571 
   -2571    -2573    -2571    -2570    -2571    -2571    -2571    -2571 
   -2571    -2573    -2574    -2571    -2571    -2571    -2573    -2573 
   -2570    -2570    -2573    -2573    -2573    -2573    -2573    -2571 
   -2570    -2573    -2573    -2571    -2574    -2575    -2573    -2571 
   -2573    -2573    -2571    -2570    -2571    -2573    -2571    -2571 
   -2573    -2573    -2571    -2573    -2575    -2574    -2573    -2571 
   -2571    -2571    -2571    -2573    -2574    -2569    -2569    -2571 
   -2571    -2571    -2573    -2573    -2573    -2571    -2571    -2574 
   -2574    -2574    -2574    -2573    -2573    -2574    -2571    -2569 
   -2571    -2571    -2573    -2571    -2570    -2571    -2573    -2571 
   -2571    -2570    -2569    -2570    -2571    -2573    -2573    -2573 
   -2573    -2570    -2571    -2573    -2573    -2573    -2573    -2571 
   -2571    -2573    -2574    -2573    -2571    -2571    -2573    -2574 
   -2573    -2573    -2571    -2571    -2571    -2570    -2570    -2571 
   -2571    -2571    -2570    -2570    -2573    -2573    -2573    -2573 
   -2573    -2573    -2573    -2571    -2569    -2571    -2571    -2569 
   -2570    -2571    -2573    -2573    -2570    -2569    -2573    -2571 
   -2571    -2575    -2573    -2571    -2577    -2575    -2571    -2571 
   -2571    -2571    -2573    -2574    -2571    -2570    -2571    -2571 
   -2573    -2573    -2573    -2573    -2573    -2573    -2573    -2571 
   -2571    -2573    -2573    -2573    -2573    -2573    -2571    -2573 
   -2574    -2573    -2573    -2573    -2571    -2571    -2573    -2573 
   -2573    -2571    -2571    -2573    -2573    -2571    -2574    -2575 
   -2573    -2571    -2575    -2577    -2574    -2571    -2573    -2574 
   -2573    -2573    -2571    -2571    -2573    -2573    -2573    -2571 
   -2573    -2575    -2574    -2571    -2571    -2573    -2571    -2573 
   -2571    -2570    -2575    -2577    -2571    -2570    -2574    -2574 
   -2571    -2573    -2574    -2573    -2571    -2573    -2574    -2574 
   -2574    -2573    -2573    -2573    -2573    -2573    -2571    -2574 
   -2574    -2574    -2574    -2573    -2571    -2573    -2574    -2574 
   -2574    -2573    -2573    -2573    -2571    -2573    -2571    -2570 
   -2575    -2577    -2573    -2571    -2573    -2575    -2577    -2575 
   -2573    -2573    -2574    -2574    -2571    -2571    -2573    -2573 
   -2573    -2571    -2573    -2575    -2574    -2573    -2574    -2574 
   -2573    -2573    -2574    -2573    -2574    -2573    -2570    -2571 
   -2573    -2574    -2573    -2573    -2571    -2573    -2574    -2573 
   -2571    -2573    -2574    -2574    -2574    -2573    -2571    -2574 
   -2575    -2573    -2570    -2570    -2574    -2574    -2571    -2571 
   -2573    -2573    -2573    -2573    -2574    -2577    -2574    -2571 
   -2573    -2575    -2573    -2573    -2574    -2573    -2571    -2574 
   -2575    -2573    -2573    -2573    -2573    -2573    -2573    -2573 
   -2573    -2573    -2574    -2573    -2571    -2574    -2575    -2574 
   -2574    -2575    -2574    -2571    -2574    -2574    -2571    -2570 
   -2573    -2574    -2574    -2574    -2574    -2573    -2571    -2573 
   -2573    -2573    -2573    -2574    -2571    -2570    -2571    -2573 
   -2571    -2574    -2575    -2574    -2571    -2571    -2573    -2573 
   -2571    -2573    -2573    -2571    -2571    -2573    -2573    -2573 
   -2575    -2575    -2573    -2569    -2571    -2574    -2573    -2571 
   -2573    -2571    -2571    -2571    -2573    -2574    -2574    -2573 
   -2574    -2573    -2574    -2575    -2573    -2571    -2573    -2571 
   -2573    -2571    -2570    -2570    -2573    -2574    -2574    -2573 
   -2574    -2574    -2573    -2574    -2574    -2571    -2573    -2574 
   -2575    -2574    -2573    -2573    -2573    -2571    -2573    -2571 
   -2571    -2574    -2575    -2573    -2571    -2571    -2571    -2573 
   -2574    -2573    -2570    -2571    -2573    -2573    -2573    -2573 
   -2571    -2571    -2573    -2571    -2570    -2573    -2574    -2573 
   -2573    -2575    -2571    -2569    -2571    -2573    -2570    -2570 
   -2571    -2573    -2573    -2573    -2573    -2573    -2573    -2571 
   -2573    -2574    -2574    -2573    -2570    -2570    -2571    -2571 
   -2574    -2573    -2571    -2573    -2574    -2574    -2573    -2573 
   -2574    -2574    -2573    -2573    -2573    -2570    -2570    -2574 
   -2575    -2575    -2575    -2574    -2570    -2571    -2574    -2573 
   -2573    -2571    -2570    -2571    -2573    -2571    -2571    -2574 
   -2574    -2573    -2574    -2573    -2571    -2573    -2573    -2571 
   -2573    -2573    -2571    -2571    -2571    -2571    -2571    -2571 
   -2573    -2574    -2575    -2574    -2573    -2573    -2573    -2574 
   -2573    -2570    -2571    -2574    -2574    -2574    -2574    -2574 
   -2571    -2570    -2573    -2575    -2573    -2571    -2573    -2574 
   -2574    -2573    -2573    -2573    -2573    -2573    -2573    -2573 
   -2571    -2571    -2571    -2573    -2574    -2574    -2571    -2571 
   -2573    -2573    -2571    -2573    -2574    -2573    -2573    -2573 
   -2573    -2574    -2573    -2570    -2571    -2573    -2573    -2571 
   -2573    -2573    -2574    -2574    -2574    -2574    -2573    -2571 
   -2571    -2573    -2574    -2571    -2571    -2574    -2574    -2573 
   -2574    -2574    -2573    -2573    -2573    -2573    -2571    -2573 
   -2577    -2573    -2570    -2574    -2575    -2573    -2573    -2571 
   -2573    -2574    -2574    -2574    -2574    -2574    -2574    -2574 
   -2574    -2574    -2571    -2570    -2574    -2577    -2574    -2573 
   -2574    -2573    -2571    -2571    -2575    -2577    -2574    -2573 
   -2573    -2570    -2573    -2574    -2570    -2570    -2573    -2574 
   -2575    -2577    -2573    -2569    -2573    -2575    -2571    -2571 
   -2573    -2575    -2575    -2575    -2574    -2571    -2573    -2575 
   -2574    -2571    -2571    -2573    -2573    -2571    -2571    -2573 
   -2573    -2570    -2570    -2573    -2571    -2569    -2571    -2573 
   -2571    -2570    -2570    -2573    -2574    -2573    -2573    -2574 
   -2574    -2574    -2574    -2575    -2573    -2571    -2573    -2575 
   -2573    -2573    -2573    -2573    -2573    -2575    -2574    -2574 
   -2573    -2573    -2571    -2571    -2573    -2574    -2571    -2573 
   -2573    -2571    -2574    -2573    -2570    -2573    -2577    -2575 
   -2573    -2573    -2573    -2573    -2573    -2573    -2574    -2573 
   -2571    -2571    -2573    -2573    -2574    -2574    -2574    -2573 
   -2573    -2575    -2575    -2570    -2570    -2574    -2571    -2571 
   -2574    -2571    -2570    -2573    -2574    -2574    -2575    -2575 
   -2573    -2571    -2574    -2574    -2574    -2573    -2573    -2571 
   -2570    -2571    -2573    -2573    -2574    -2574    -2571    -2571 
   -2573    -2573    -2574    -2574    -2571    -2571    -2573    -2574 
   -2573    -2573    -2574    -2573    -2570    -2573    -2574    -2573 
   -2574    -2574    -2573    -2571    -2573    -2574    -2573    -2571 
   -2573    -2573    -2573    -2573    -2573    -2573    -2571    -2574 
   -2575    -2573    -2574    -2575    -2573    -2573    -2574    -2571 
   -2570    -2573    -2574    -2571    -2571    -2574    -2574    -2573 
   -2574    -2574    -2573    -2573    -2573    -2573    -2571    -2571 
   -2571    -2573    -2574    -2574    -2574    -2575    -2574    -2571 
   -2573    -2573    -2571    -2573    -2578    -2575    -2570    -2574 
   -2575    -2570    -2570    -2575    -2577    -2574    -2573    -2574 
   -2574    -2573    -2574    -2575    -2573    -2573    -2573    -2571 
   -2574    -2575    -2573    -2574    -2574    -2571    -2571    -2571 
   -2574    -2575    -2573    -2570    -2571    -2573    -2571    -2570 
   -2571    -2571    -2573    -2573    -2573    -2574    -2573    -2571 
   -2573    -2575    -2574    -2574    -2575    -2574    -2573    -2571 
   -2571    -2574    -2574    -2574    -2573    -2573    -2573    -2573 
   -2573    -2573    -2575    -2577    -2574    -2573    -2571    -2571 
   -2573    -2575    -2573    -2570    -2571    -2573    -2573    -2574 
   -2574    -2574    -2573    -2574    -2574    -2573    -2571    -2571 
   -2573    -2575    -2573    -2571    -2571    -2571    -2571    -2573 
   -2574    -2574    -2573    -2573    -2571    -2571    -2573    -2574 
   -2574    -2573    -2573    -2573    -2574    -2574    -2573    -2574 
   -2574    -2573    -2571    -2573    -2575    -2574    -2571    -2571 
   -2573    -2573    -2573    -2573    -2573    -2575    -2575    -2573 
   -2571    -2575    -2575    -2574    -2573    -2574    -2574    -2570 
   -2571    -2573    -2571    -2573    -2574    -2574    -2574    -2573 
   -2573    -2574    -2574    -2571    -2571    -2571    -2570    -2571 
   -2573    -2571    -2571    -2573    -2574    -2574    -2574    -2573 
   -2571    -2571    -2571    -2574    -2574    -2573    -2574    -2573 
   -2573    -2574    -2575    -2575    -2573    -2574    -2575    -2573 
   -2571    -2573    -2571    -2571    -2571    -2573    -2574    -2573 
   -2571    -2573    -2573    -2571    -2573    -2573    -2571    -2571 
   -2571    -2574    -2575    -2573    -2570    -2573    -2574    -2571 
   -2571    -2570    -2571    -2575    -2574    -2571    -2570    -2571 
   -2571    -2571    -2571    -2571    -2573    -2573    -2571    -2571 
   -2571    -2574    -2574    -2573    -2573    -2571    -2571    -2574 
   -2574    -2574    -2575    -2574    -2571    -2571    -2573    -2573 
   -2573    -2573    -2573    -2575    -2577    -2573    -2573    -2574 
   -2573    -2573    -2573    -2573    -2573    -2570    -2571    -2574 
   -2573    -2573    -2574    -2574    -2573    -2571    -2573    -2574 
   -2574    -2571    -2571    -2574    -2571    -2569    -2571    -2573 
   -2570    -2570    -2571    -2571    -2571    -2574    -2575    -2574 
   -2574    -2573    -2571    -2571    -2574    -2571    -2571    -2575 
   -2578    -2573    -2570    -2571    -2571    -2570    -2571    -2574 
   -2574    -2573    -2573    -2574    -2571    -2570    -2573    -2573 
   -2569    -2571    -2573    -2571    -2573    -2577    -2586    -2605 
   -2627    -2659    -2720    -2771    -2733    -2648    -2679    -2866 
   -3026    -2990    -2691    -2178    -1684    -1341    -1020     -827 
   -1084    -1659    -2250    -2990    -3946    -4727    -5008    -4823 
   -4274    -3497    -2759    -2134    -1618    -1399    -1397    -1318 
   -1264    -1536    -2077    -2516    -2758    -3133    -3636    -3832 
   -3628    -3352    -3219    -3121    -2783    -2164    -1642    -1641 
   -2003    -2214    -2151    -2029    -1989    -2101    -2230    -2211 
   -2189    -2369    -2697    -3053    -3376    -3609    -3750    -3816 
   -3643    -3052    -2224    -1520    -1131    -1123    -1466    -1980 
   -2474    -2879    -3260    -3636    -3700    -3304    -2924    -2882 
   -2920    -2779    -2520    -2273    -2130    -2106    -1965    -1649 
   -1649    -2060    -2324    -2362    -2506    -2710    -2879    -2987 
   -2944    -2902    -2944    -2944    -2998    -3017    -2708    -2296 
   -2146    -2215    -2384    -2496    -2404    -2331    -2488    -2701 
   -2857    -3022    -3123    -3065    -2883    -2592    -2211    -1881 
   -1756    -1927    -2339    -2772    -3032    -3160    -3310    -3368 
   -3157    -2806    -2520    -2393    -2427    -2415    -2197    -1937 
   -1794    -1811    -1993    -2104    -2100    -2359    -2836    -3063 
   -2984    -2833    -2820    -3037    -3148    -2947    -2786    -2768 
   -2721    -2674    -2539    -2266    -2115    -2169    -2390    -2829 
   -3277    -3466    -3411    -3267    -3119    -2809    -2284    -1840 
   -1590    -1444    -1417    -1533    -1723    -1899    -2064    -2276 
   -2528    -2768    -2878    -2825    -2893    -3161    -3218    -2955 
   -2768    -2766    -2802    -2810    -2601    -2161    -1884    -1984 
   -2230    -2381    -2419    -2330    -2176    -2250    -2685    -3219 
   -3531    -3504    -3370    -3497    -3812    -3962    -3931    -3815 
   -3426    -2677    -1872    -1296     -855     -371       48      136 
    -214     -943    -1917    -2948    -3928    -4765    -5247    -5389 
   -5402    -5138    -4403    -3423    -2416    -1548    -1003     -676 
    -518     -699    -1138    -1723    -2408    -2829    -2779    -2575 
   -2350    -1908    -1443    -1432    -1900    -2431    -2782    -3025 
   -3406    -3989    -4388    -4342    -4074    -3753    -3287    -2735 
   -2446    -2623    -2974    -3005    -2606    -2165    -2030    -2120 
   -2180    -2199    -2350    -2708    -3129    -3299    -3030    -2416 
   -1688     -997     -325      203      221     -372    -1104    -1578 
   -2104    -3057    -4087    -4702    -4888    -4688    -4171    -3746 
   -3632    -3600    -3434    -3191    -3029    -2872    -2517    -2030 
   -1675    -1644    -1892    -2193    -2469    -2797    -3046    -2997 
   -2743    -2608    -2600    -2340    -1848    -1591    -1452    -1039 
    -803    -1329    -2316    -3057    -3237    -3001    -2648    -2488 
   -2677    -3026    -3333    -3600    -3769    -3758    -3634    -3458 
   -3241    -3123    -3218    -3307    -3163    -2891    -2612    -2295 
   -1954    -1660    -1475    -1418    -1467    -1588    -1711    -1768 
   -1765    -1721    -1719    -1833    -1849    -1606    -1447    -1692 
   -2127    -2481    -2808    -3177    -3511    -3842    -4239    -4514 
   -4538    -4421    -4194    -3888    -3647    -3484    -3262    -2924 
   -2513    -2054    -1586    -1148     -687     -332     -409     -912 
   -1528    -2083    -2594    -3038    -3265    -3248    -3240    -3403 
   -3595    -3685    -3643    -3446    -3177    -2986    -2880    -2743 
   -2461    -2006    -1591    -1499    -1686    -1954    -2370    -3007 
   -3603    -3919    -4032    -4035    -3816    -3248    -2479    -1784 
   -1201     -706     -406     -318     -321     -349     -468     -761 
   -1250    -1895    -2631    -3454    -4260    -4768    -4880    -4719 
   -4328    -3771    -3252    -2867    -2543    -2309    -2343    -2667 
   -3063    -3287    -3326    -3276    -3137    -2926    -2713    -2470 
   -2187    -1953    -1765    -1613    -1622    -1779    -1900    -1956 
   -1987    -2047    -2253    -2563    -2840    -3106    -3369    -3550 
   -3595    -3480    -3267    -3110    -3069    -2988    -2713    -2373 
   -2201    -2184    -2178    -2124    -2003    -1885    -1933    -2124 
   -2220    -2115    -1976    -1958    -2046    -2166    -2224    -2172 
   -2112    -2137    -2214    -2295    -2412    -2613    -2863    -3127 
   -3383    -3542    -3570    -3538    -3480    -3388    -3288    -3208 
   -3096    -2872    -2574    -2374    -2339    -2361    -2365    -2346 
   -2281    -2170    -2065    -2042    -2120    -2228    -2317    -2413 
   -2531    -2641    -2698    -2702    -2710    -2743    -2739    -2673 
   -2637    -2713    -2883    -3065    -3163    -3118    -2987    -2889 
   -2825    -2705    -2540    -2446    -2434    -2405    -2297    -2122 
   -1988    -1996    -2079    -2123    -2104    -2095    -2165    -2278 
   -2412    -2570    -2623    -2467    -2216    -2042    -1977    -1942 
   -1863    -1732    -1701    -1952    -2461    -3002    -3364    -3545 
   -3673    -3782    -3838    -3793    -3586    -3277    -3003    -2798 
   -2670    -2685    -2812    -2880    -2829    -2794    -2799    -2678 
   -2421    -2227    -2216    -2339    -2442    -2436    -2388    -2357 
   -2304    -2207    -2153    -2165    -2093    -1883    -1730    -1823 
   -2110    -2446    -2739    -2925    -2982    -2982    -3046    -3218 
   -3373    -3338    -3117    -2898    -2787    -2712    -2608    -2467 
   -2295    -2124    -2007    -1995    -2084    -2215    -2350    -2454 
   -2477    -2434    -2397    -2397    -2439    -2485    -2425    -2255 
   -2126    -2123    -2209    -2336    -2459    -2585    -2786    -3037 
   -3176    -3163    -3122    -3111    -3098    -3060    -2978    -2841 
   -2718    -2694    -2770    -2868    -2910    -2847    -2721    -2637 
   -2575    -2454    -2282    -2127    -2026    -1998    -2030    -2108 
   -2218    -2322    -2378    -2367    -2307    -2258    -2280    -2370 
   -2448    -2474    -2542    -2710    -2895    -3040    -3172    -3299 
   -3406    -3435    -3325    -3099    -2814    -2527    -2327    -2257 
   -2272    -2330    -2390    -2398    -2363    -2324    -2301    -2293 
   -2299    -2313    -2342    -2376    -2421    -2497    -2574    -2583 
   -2528    -2488    -2477    -2488    -2542    -2624    -2691    -2714 
   -2670    -2594    -2566    -2606    -2678    -2748    -2793    -2797 
   -2783    -2737    -2612    -2438    -2313    -2280    -2297    -2312 
   -2330    -2398    -2515    -2619    -2666    -2668    -2656    -2648 
   -2666    -2690    -2682    -2637    -2586    -2559    -2560    -2581 
   -2619    -2651    -2666    -2713    -2820    -2921    -2938    -2887 
   -2833    -2759    -2624    -2461    -2320    -2245    -2216    -2178 
   -2169    -2245    -2357    -2461    -2566    -2662    -2751    -2835 
   -2820    -2660    -2497    -2451    -2492    -2531    -2523    -2482 
   -2466    -2524    -2637    -2744    -2806    -2832    -2818    -2745 
   -2640    -2574    -2538    -2444    -2277    -2104    -1984    -1987 
   -2137    -2335    -2500    -2629    -2689    -2675    -2662    -2666 
   -2679    -2735    -2785    -2760    -2700    -2658    -2660    -2705 
   -2754    -2802    -2871    -2914    -2876    -2783    -2685    -2623 
   -2627    -2668    -2679    -2647    -2616    -2592    -2533    -2447 
   -2371    -2342    -2366    -2396    -2389    -2374    -2370    -2346 
   -2334    -2393    -2462    -2448    -2412    -2450    -2543    -2617 
   -2677    -2743    -2798    -2833    -2847    -2844    -2833    -2808 
   -2749    -2637    -2496    -2377    -2322    -2358    -2450    -2488 
   -2421    -2336    -2330    -2385    -2451    -2523    -2575    -2579 
   -2565    -2598    -2714    -2845    -2897    -2883    -2852    -2778 
   -2663    -2592    -2593    -2608    -2624    -2650    -2655    -2656 
