Origin Time       2024/03/16 06:34:00
Lat.              32.907
Long.             131.047
Depth. (km)       7
Mag.              3.3
Station Code      KMMH16
Station Lat.      32.7967
Station Long.     130.8199
Station Height(m) 55
Record Time       2024/03/16 06:34:37
Sampling Freq(Hz) 100Hz
Duration Time(s)  120
Dir.              5
Scale Factor      7845(gal)/8223790
Max. Acc. (gal)   3.692
Last Correction   2024/03/16 06:34:37
Memo.             
[...]
   -5005    -4999    -4996    -4995    -4989    -4988    -4990    -4989 
   -4993    -5007    -5009    -5005    -5008    -5011    -5013    -5011 
   -5001    -5000    -4997    -4986    -4985    -4993    -4999    -5005 
   -5007    -5001    -5003    -5001    -4992    -4989    -5000    -5005 
   -5008    -5008    -5001    -4996    -4995    -4990    -4995    -5004 
   -5005    -5000    -5003    -5007    -4997    -4986    -4990    -4999 
   -5007    -5012    -5007    -4997    -4997    -4999    -4995    -4996 
   -4999    -4993    -4990    -4997    -5000    -5003    -5009    -5005 
   -4999    -5003    -5003    -4999    -4999    -4993    -4992    -5000 
   -5005    -5011    -5012    -5004    -4999    -5000    -5000    -4996 
   -4995    -4995    -4992    -4995    -4997    -4997    -5000    -5003 
   -4999    -5003    -5012    -5008    -5007    -5008    -5001    -4995 
   -4997    -4997    -4995    -4997    -5001    -4999    -4999    -5005 
   -5004    -5001    -5005    -5003    -5000    -5004    -5003    -4996 
   -4996    -5000    -5004    -5007    -5005    -5000    -4999    -4999 
   -4993    -4990    -4993    -4996    -5003    -5009    -5009    -5007 
   -5009    -5007    -5003    -5000    -4993    -4990    -4995    -4996 
   -4996    -4999    -4996    -4988    -4993    -5007    -5015    -5019 
   -5015    -5008    -5011    -5009    -4999    -4996    -4997    -4992 
   -4984    -4981    -4982    -4989    -5007    -5015    -5004    -5001 
   -5016    -5023    -5015    -5003    -4990    -4990    -5000    -5005 
   -5007    -5005    -4992    -4981    -4984    -4989    -4993    -5004 
   -5011    -5007    -5004    -5001    -4996    -4999    -4996    -4993 
   -5003    -5009    -5008    -5008    -5001    -4997    -5001    -5005 
   -5004    -4996    -4995    -4997    -4996    -4999    -5003    -4996 
   -4989    -4992    -4997    -5001    -5007    -5009    -5005    -5005 
   -5004    -5003    -5005    -5005    -5000    -5001    -5000    -4992 
   -4992    -4996    -4995    -4999    -5005    -5003    -5000    -4999 
   -4989    -4990    -5003    -5007    -5007    -5012    -5011    -5004 
   -5003    -4995    -4988    -4993    -4993    -4990    -4996    -5000 
   -5000    -5005    -5009    -5007    -5004    -5003    -5000    -4997 
   -5001    -5005    -5005    -5005    -5004    -5000    -4997    -4999 
   -4996    -4990    -4995    -4997    -4997    -5004    -5007    -5001 
   -5003    -5000    -4995    -5003    -5004    -4999    -5008    -5015 
   -5009    -5008    -5000    -4986    -4980    -4981    -4988    -4997 
   -5005    -5008    -5009    -5008    -5004    -5004    -5003    -4999 
   -5001    -5001    -4996    -4996    -4997    -4995    -4992    -4995 
   -5000    -5003    -5001    -5004    -5005    -5008    -5012    -5012 
   -5007    -5001    -4999    -4996    -4995    -4993    -4997    -5000 
   -5001    -5001    -5003    -5005    -5003    -5001    -5005    -4999 
   -4990    -4988    -4986    -4990    -4997    -5003    -5011    -5017 
   -5012    -5007    -5005    -4999    -4996    -4997    -4996    -4995 
   -4999    -5001    -5001    -5003    -5001    -4999    -5007    -5008 
   -5001    -5005    -5004    -4996    -5000    -5004    -5000    -5001 
   -5004    -5000    -4995    -4997    -5001    -5001    -5004    -5004 
   -5001    -5000    -5000    -4996    -4997    -5003    -5003    -5001 
   -5003    -5004    -5003    -5007    -5008    -5000    -4997    -4997 
   -4996    -4997    -5001    -4996    -4992    -4995    -4997    -5000 
   -5001    -4999    -5000    -5003    -5000    -5000    -5004    -5003 
   -5000    -5004    -5005    -5004    -5011    -5011    -5007    -5007 
   -5005    -5000    -4997    -4995    -4993    -4995    -4999    -4997 
   -4996    -5000    -4999    -4992    -4996    -5003    -5003    -5003 
   -5005    -5000    -4997    -5000    -5004    -5008    -5009    -5004 
   -5003    -5005    -4999    -4990    -4993    -4993    -4992    -5001 
   -5004    -5001    -5008    -5008    -5001    -5005    -5009    -5005 
   -5003    -4999    -4990    -4990    -4993    -4995    -4997    -4999 
   -4996    -4997    -5001    -4999    -4997    -5004    -5009    -5009 
   -5015    -5012    -5001    -5000    -5003    -4999    -4995    -4996 
   -4997    -4997    -5003    -5005    -5000    -4999    -4996    -4988 
   -4990    -4999    -5001    -5003    -5000    -4993    -4995    -4997 
   -5001    -5011    -5016    -5008    -5001    -5004    -5001    -4997 
   -4999    -4999    -5001    -5008    -5004    -5000    -5000    -4996 
   -4997    -5004    -5003    -5000    -4999    -4997    -4993    -4993 
   -4996    -4999    -5001    -5003    -5003    -5004    -5001    -5001 
   -5005    -5005    -5005    -5007    -5005    -5003    -4999    -4999 
   -5003    -4999    -4993    -5000    -5008    -5007    -5007    -5005 
   -5001    -5000    -5000    -4997    -4999    -4996    -4989    -4986 
   -4985    -4986    -4993    -5000    -5001    -5003    -5008    -5012 
   -5011    -5012    -5011    -5012    -5012    -5011    -5011    -5003 
   -4990    -4989    -4993    -4995    -4996    -4995    -4992    -4993 
   -4999    -5007    -5009    -5004    -4997    -4995    -4995    -4997 
   -5000    -5003    -5001    -4999    -4997    -5004    -5008    -5004 
   -5004    -5007    -5001    -4999    -5001    -5000    -5000    -5000 
   -4999    -5000    -5001    -5001    -5005    -5005    -5001    -4999 
   -4996    -4989    -4986    -4992    -4997    -5000    -5005    -5009 
   -5008    -5011    -5008    -5003    -5004    -5004    -4996    -4989 
   -4988    -4990    -4997    -5001    -5001    -5005    -5009    -5009 
   -5012    -5012    -5009    -5005    -5001    -4999    -4996    -4993 
   -4990    -4988    -4988    -4989    -4992    -4997    -5005    -5007 
   -5003    -5004    -5007    -5005    -5008    -5011    -5007    -5005 
   -5004    -4999    -4999    -4996    -4989    -4992    -4997    -4996 
   -5000    -5004    -4999    -5004    -5012    -5004    -5000    -5009 
   -5005    -5000    -5001    -4999    -4995    -4997    -5001    -5001 
   -4996    -4993    -4996    -4999    -5007    -5013    -5013    -5011 
   -5001    -4990    -4989    -4989    -4989    -4992    -4997    -4999 
   -5004    -5013    -5011    -5007    -5009    -5000    -4990    -4999 
   -5001    -4999    -5001    -5001    -5003    -5007    -5005    -5000 
   -5000    -4997    -4995    -5003    -5004    -4996    -4995    -4996 
   -4999    -5005    -5004    -4997    -4996    -4996    -4996    -5005 
   -5016    -5013    -5007    -5008    -5005    -4997    -4995    -4995 
   -4993    -4997    -5000    -4996    -4995    -4997    -4996    -4996 
   -5000    -5004    -5007    -5009    -5009    -5005    -5003    -4999 
   -4993    -4996    -5000    -4999    -5001    -5003    -4995    -4997 
   -5007    -5005    -5003    -5000    -4996    -5001    -5008    -5007 
   -5005    -5001    -4992    -4990    -4995    -4997    -4999    -4996 
   -4997    -5000    -5001    -5003    -5003    -4999    -5001    -5001 
   -4999    -4997    -4997    -4997    -5001    -5003    -5004    -5007 
   -5004    -4999    -5003    -5008    -5004    -5004    -5004    -4995 
   -4990    -4995    -4995    -4997    -4999    -4993    -4993    -4997 
   -5000    -5003    -5005    -5003    -5003    -5005    -5001    -5000 
   -5008    -5007    -4997    -4997    -4995    -4990    -4997    -5001 
   -5009    -5017    -5013    -5005    -5000    -4992    -4982    -4980 
   -4986    -4996    -5000    -5004    -5009    -5011    -5007    -5005 
   -5007    -5004    -5001    -5001    -4997    -4990    -4995    -5000 
   -5003    -5004    -5004    -5004    -5004    -5008    -5011    -5007 
   -5000    -4992    -4981    -4984    -4997    -5001    -5001    -5001 
   -4995    -4989    -5000    -5007    -5004    -5008    -5012    -5001 
   -4997    -5003    -5000    -4995    -4995    -4992    -4993    -5007 
   -5015    -5011    -5005    -5003    -4997    -4996    -4999    -5000 
   -5003    -5005    -5004    -5001    -4999    -4995    -4993    -4997 
   -5003    -5005    -5001    -4997    -4992    -4988    -4993    -5007 
   -5011    -5011    -5008    -5001    -4996    -4993    -4999    -5011 
   -5012    -5009    -5007    -5000    -4997    -4997    -4996    -4999 
   -5001    -4996    -4990    -4986    -4988    -4990    -4995    -5003 
   -5008    -5015    -5023    -5019    -5012    -5007    -4993    -4988 
   -4995    -4999    -5000    -5000    -4996    -4992    -4993    -5001 
   -5009    -5008    -5003    -4995    -4989    -4993    -4995    -4995 
   -5004    -5009    -5011    -5016    -5013    -5003    -5003    -5004 
   -4999    -5000    -5000    -4993    -4990    -4992    -4995    -5004 
   -5007    -5000    -4995    -4996    -4993    -4993    -5004    -5007 
   -5001    -5001    -5003    -5001    -5004    -5007    -5005    -5009 
   -5013    -5012    -5012    -5013    -5013    -5019    -5027    -5032 
   -5038    -5044    -5040    -5031    -5026    -5020    -5013    -5013 
   -5015    -5009    -4989    -4939    -4872    -4818    -4781    -4754 
   -4772    -4858    -4977    -5084    -5154    -5198    -5247    -5285 
   -5251    -5170    -5125    -5107    -5038    -4928    -4850    -4862 
   -4945    -4961    -4860    -4781    -4815    -4882    -4927    -4968 
   -5011    -5022    -5004    -5032    -5177    -5382    -5481    -5374 
   -5155    -4961    -4851    -4810    -4774    -4702    -4637    -4656 
   -4726    -4766    -4789    -4854    -4945    -5007    -5082    -5251 
   -5454    -5512    -5359    -5139    -5005    -4965    -4961    -5007 
   -5101    -5128    -4989    -4776    -4672    -4711    -4769    -4785 
   -4823    -4935    -5105    -5271    -5360    -5364    -5348    -5346 
   -5332    -5256    -5085    -4872    -4718    -4658    -4679    -4716 
   -4680    -4580    -4517    -4549    -4648    -4738    -4762    -4774 
   -4912    -5233    -5613    -5867    -5921    -5817    -5624    -5408 
   -5216    -5023    -4783    -4537    -4369    -4310    -4345    -4463 
   -4668    -4936    -5170    -5300    -5351    -5400    -5505    -5682 
   -5841    -5840    -5603    -5213    -4828    -4552    -4352    -4158 
   -3973    -3863    -3878    -4033    -4309    -4671    -5081    -5454 
   -5706    -5840    -5875    -5792    -5638    -5517    -5476    -5460 
   -5368    -5166    -4909    -4657    -4436    -4256    -4158    -4202 
   -4375    -4590    -4793    -4963    -5131    -5350    -5611    -5880 
   -6096    -6138    -5896    -5421    -4884    -4463    -4251    -4205 
   -4217    -4257    -4333    -4425    -4542    -4729    -4973    -5242 
   -5501    -5706    -5800    -5755    -5594    -5394    -5238    -5161 
   -5132    -5082    -4936    -4664    -4333    -4054    -3909    -3956 
   -4185    -4545    -4961    -5308    -5529    -5688    -5825    -5929 
   -6003    -6023    -5923    -5660    -5248    -4800    -4445    -4247 
   -4193    -4213    -4232    -4205    -4125    -4047    -4091    -4351 
   -4804    -5323    -5748    -5976    -5987    -5825    -5609    -5463 
   -5422    -5447    -5481    -5439    -5260    -4981    -4681    -4436 
   -4317    -4364    -4538    -4716    -4787    -4770    -4766    -4823 
   -4953    -5146    -5333    -5421    -5370    -5192    -4950    -4765 
   -4730    -4815    -4943    -5046    -5080    -5035    -4949    -4872 
   -4855    -4942    -5115    -5304    -5459    -5576    -5620    -5543 
   -5368    -5177    -5015    -4866    -4673    -4444    -4244    -4093 
   -4024    -4126    -4409    -4781    -5140    -5371    -5414    -5343 
   -5294    -5331    -5428    -5544    -5605    -5556    -5443    -5321 
   -5200    -5082    -4969    -4851    -4742    -4619    -4445    -4260 
   -4147    -4166    -4359    -4726    -5174    -5564    -5802    -5856 
   -5773    -5665    -5564    -5416    -5216    -5009    -4826    -4702 
   -4649    -4634    -4648    -4719    -4847    -4985    -5053    -4989 
   -4803    -4596    -4490    -4563    -4823    -5167    -5436    -5526 
   -5439    -5271    -5111    -4932    -4689    -4440    -4280    -4270 
   -4402    -4627    -4914    -5225    -5474    -5572    -5544    -5460 
   -5329    -5140    -4954    -4855    -4864    -4938    -5011    -5028 
   -4966    -4816    -4585    -4353    -4233    -4284    -4457    -4660 
   -4885    -5177    -5528    -5859    -6057    -6053    -5895    -5665 
   -5386    -5065    -4746    -4506    -4406    -4449    -4627    -4939 
   -5289    -5545    -5682    -5746    -5746    -5671    -5545    -5402 
   -5271    -5194    -5202    -5298    -5441    -5528    -5451    -5165 
   -4692    -4117    -3535    -3011    -2598    -2351    -2338    -2639 
   -3242    -4048    -4914    -5714    -6400    -6975    -7414    -7668 
   -7728    -7639    -7469    -7261    -7003    -6631    -6043    -5204 
   -4193    -3149    -2222    -1560    -1244    -1274    -1637    -2342 
   -3349    -4538    -5748    -6816    -7632    -8137    -8291    -8075 
   -7474    -6513    -5302    -4028    -2893    -2074    -1692    -1791 
   -2376    -3369    -4619    -5935    -7132    -8021    -8467    -8451 
   -8052    -7346    -6408    -5381    -4411    -3581    -2940    -2525 
   -2304    -2215    -2286    -2548    -2988    -3630    -4452    -5319 
   -6120    -6818    -7398    -7825    -8017    -7884    -7445    -6810 
   -6064    -5274    -4519    -3829    -3198    -2647    -2276    -2211 
   -2498    -3078    -3882    -4862    -5934    -6937    -7650    -7894 
   -7609    -6847    -5795    -4729    -3863    -3272    -2932    -2799 
   -2836    -2999    -3211    -3415    -3642    -3940    -4371    -5005 
   -5850    -6801    -7701    -8417    -8837    -8870    -8473    -7685 
   -6629    -5459    -4315    -3318    -2566    -2145    -2089    -2362 
   -2889    -3600    -4433    -5243    -5857    -6218    -6355    -6288 
   -6050    -5706    -5316    -4922    -4545    -4212    -3985    -3951 
   -4120    -4402    -4726    -5055    -5337    -5548    -5697    -5792 
   -5836    -5807    -5724    -5653    -5616    -5562    -5455    -5278 
   -4996    -4569    -4017    -3408    -2863    -2531    -2528    -2922 
   -3715    -4746    -5776    -6616    -7118    -7183    -6825    -6191 
   -5470    -4824    -4391    -4233    -4338    -4661    -5116    -5570 
   -5910    -6080    -6050    -5842    -5521    -5151    -4776    -4456 
   -4244    -4190    -4315    -4557    -4818    -5022    -5117    -5101 
   -5024    -4923    -4816    -4741    -4735    -4818    -5001    -5279 
   -5595    -5864    -5985    -5915    -5687    -5323    -4816    -4240 
   -3735    -3396    -3262    -3357    -3665    -4112    -4610    -5078 
   -5454    -5738    -5931    -6010    -5960    -5795    -5541    -5238 
   -4963    -4773    -4657    -4598    -4614    -4730    -4930    -5171 
   -5412    -5601    -5679    -5624    -5479    -5319    -5159    -4985 
   -4841    -4757    -4711    -4719    -4791    -4878    -4908    -4837 
   -4689    -4529    -4414    -4401    -4521    -4774    -5146    -5579 
   -5971    -6207    -6242    -6079    -5737    -5285    -4799    -4364 
   -4079    -3981    -4062    -4307    -4665    -5050    -5387    -5616 
   -5686    -5589    -5377    -5109    -4853    -4687    -4642    -4698 
   -4824    -4981    -5105    -5148    -5086    -4903    -4637    -4375 
   -4191    -4087    -4028    -4018    -4083    -4236    -4479    -4793 
   -5155    -5516    -5800    -6003    -6154    -6243    -6276    -6269 
   -6205    -6068    -5869    -5636    -5405    -5181    -4957    -4747 
   -4567    -4411    -4286    -4213    -4210    -4272    -4376    -4500 
   -4650    -4818    -4953    -5026    -5051    -5047    -5020    -4980 
   -4908    -4820    -4746    -4695    -4687    -4745    -4855    -4989 
   -5131    -5275    -5387    -5437    -5428    -5367    -5244    -5074 
   -4911    -4796    -4734    -4695    -4652    -4639    -4699    -4774 
   -4807    -4816    -4837    -4899    -5032    -5216    -5409    -5594 
   -5742    -5811    -5829    -5826    -5763    -5606    -5375    -5088 
   -4800    -4595    -4500    -4490    -4533    -4602    -4668    -4719 
   -4745    -4747    -4733    -4706    -4683    -4654    -4612    -4577 
   -4564    -4552    -4548    -4577    -4644    -4741    -4850    -4954 
   -5061    -5181    -5304    -5405    -5482    -5559    -5625    -5634 
   -5567    -5432    -5265    -5093    -4930    -4788    -4706    -4708 
   -4783    -4911    -5078    -5250    -5383    -5458    -5454    -5394 
   -5312    -5198    -5063    -4966    -4930    -4927    -4938    -4938 
   -4907    -4843    -4760    -4680    -4627    -4603    -4614    -4679 
   -4788    -4920    -5061    -5206    -5344    -5445    -5483    -5447 
   -5366    -5269    -5158    -5055    -4986    -4951    -4926    -4892 
   -4869    -4878    -4896    -4909    -4930    -4973    -5032    -5065 
   -5046    -4995    -4926    -4838    -4764    -4723    -4696    -4689 
   -4699    -4685    -4645    -4611    -4588    -4604    -4681    -4804 
   -4959    -5140    -5323    -5470    -5553    -5562    -5522    -5458 
   -5358    -5227    -5092    -4963    -4853    -4781    -4774    -4841 
   -4945    -5044    -5142    -5244    -5336    -5382    -5363    -5285 
   -5162    -5012    -4851    -4688    -4536    -4422    -4368    -4360 
   -4391    -4483    -4618    -4761    -4905    -5044    -5173    -5279 
   -5340    -5368    -5395    -5421    -5443    -5467    -5493    -5502 
   -5493    -5452    -5355    -5219    -5070    -4931    -4827    -4760 
   -4722    -4692    -4644    -4575    -4511    -4461    -4433    -4465 
   -4569    -4712    -4878    -5089    -5316    -5499    -5614    -5648 
   -5576    -5404    -5181    -4959    -4785    -4691    -4679    -4737 
   -4837    -4957    -5071    -5147    -5151    -5097    -5011    -4904 
   -4804    -4750    -4733    -4733    -4764    -4814    -4870    -4939 
   -5011    -5059    -5085    -5094    -5103    -5128    -5162    -5186 
   -5193    -5174    -5138    -5090    -5042    -4999    -4949    -4876 
   -4795    -4737    -4720    -4745    -4807    -4908    -5046    -5188 
   -5300    -5391    -5452    -5459    -5435    -5390    -5313    -5212 
   -5104    -5003    -4942    -4915    -4897    -4891    -4888    -4874 
   -4846    -4818    -4807    -4810    -4816    -4823    -4838    -4870 
   -4897    -4909    -4926    -4939    -4927    -4891    -4846    -4820 
   -4830    -4874    -4946    -5020    -5067    -5086    -5094    -5101 
   -5113    -5146    -5188    -5215    -5223    -5229    -5232    -5212 
   -5174    -5142    -5107    -5050    -4972    -4881    -4787    -4685 
   -4596    -4549    -4552    -4587    -4638    -4685    -4710    -4741 
   -4814    -4928    -5071    -5243    -5408    -5529    -5603    -5628 
   -5591    -5503    -5386    -5260    -5147    -5040    -4934    -4849 
   -4796    -4765    -4766    -4800    -4828    -4831    -4827    -4826 
   -4824    -4823    -4831    -4862    -4909    -4954    -4999    -5053 
   -5100    -5124    -5121    -5107    -5080    -5043    -5000    -4958 
   -4926    -4908    -4899    -4901    -4926    -4958    -4977    -4984 
   -4992    -5012    -5043    -5081    -5116    -5135    -5142    -5148 
   -5159    -5179    -5190    -5184    -5167    -5148    -5144    -5166 
   -5179    -5165    -5143    -5116    -5062    -4995    -4931    -4870 
   -4822    -4780    -4734    -4707    -4702    -4711    -4743    -4804 
   -4887    -4978    -5055    -5111    -5140    -5139    -5121    -5101 
   -5089    -5089    -5088    -5076    -5044    -4988    -4907    -4814 
