Origin Time       2024/03/16 06:34:00
Lat.              32.907
Long.             131.047
Depth. (km)       7
Mag.              3.3
Station Code      KMMH05
Station Lat.      32.9553
Station Long.     131.2207
Station Height(m) 593
Record Time       2024/03/16 06:34:38
Sampling Freq(Hz) 100Hz
Duration Time(s)  120
Dir.              2
Scale Factor      3923(gal)/8224838
Max. Acc. (gal)   0.447
Last Correction   2024/03/16 06:34:38
Memo.             
[...]
   32659    32657    32657    32659    32659    32657    32653    32653 
   32655    32655    32653    32657    32659    32656    32656    32661 
   32661    32657    32660    32661    32657    32656    32657    32660 
   32660    32656    32656    32657    32656    32653    32655    32657 
   32659    32657    32656    32655    32657    32659    32659    32657 
   32657    32660    32657    32656    32657    32659    32656    32655 
   32657    32659    32659    32659    32657    32657    32659    32659 
   32656    32656    32655    32656    32656    32655    32656    32656 
   32656    32657    32656    32656    32659    32657    32656    32657 
   32657    32657    32657    32659    32659    32656    32655    32656 
   32660    32659    32657    32657    32657    32657    32659    32660 
   32659    32656    32657    32660    32659    32656    32656    32656 
   32657    32659    32656    32655    32657    32659    32657    32657 
   32659    32657    32657    32656    32656    32657    32657    32659 
   32659    32655    32655    32657    32659    32660    32659    32657 
   32657    32660    32663    32659    32653    32653    32656    32657 
   32657    32656    32656    32659    32660    32659    32656    32657 
   32659    32659    32656    32656    32657    32657    32657    32656 
   32653    32656    32659    32659    32660    32660    32657    32660 
   32660    32655    32652    32655    32656    32657    32659    32659 
   32659    32660    32661    32660    32659    32659    32659    32659 
   32657    32657    32659    32660    32660    32659    32657    32657 
   32656    32655    32655    32656    32657    32656    32653    32655 
   32656    32657    32657    32656    32656    32659    32660    32657 
   32656    32659    32660    32660    32659    32660    32661    32660 
   32657    32655    32653    32656    32656    32655    32655    32656 
   32653    32653    32656    32657    32657    32657    32657    32655 
   32657    32660    32659    32656    32656    32656    32660    32661 
   32657    32659    32663    32661    32657    32656    32657    32659 
   32656    32653    32653    32653    32653    32657    32660    32660 
   32660    32657    32656    32656    32656    32657    32660    32660 
   32659    32659    32657    32659    32659    32657    32657    32657 
   32656    32656    32659    32657    32659    32660    32659    32660 
   32659    32657    32659    32659    32656    32653    32655    32660 
   32660    32656    32655    32659    32659    32656    32656    32659 
   32660    32659    32656    32655    32656    32659    32661    32659 
   32657    32661    32660    32656    32657    32660    32660    32660 
   32659    32659    32659    32655    32653    32656    32659    32657 
   32656    32656    32656    32653    32653    32657    32659    32657 
   32659    32660    32660    32659    32657    32659    32657    32657 
   32661    32664    32661    32660    32661    32659    32656    32657 
   32659    32656    32657    32656    32655    32656    32657    32655 
   32655    32655    32656    32657    32656    32657    32659    32656 
   32657    32661    32660    32657    32657    32657    32659    32659 
   32657    32660    32660    32656    32655    32656    32660    32661 
   32657    32653    32657    32659    32656    32656    32655    32655 
   32657    32657    32656    32656    32659    32660    32659    32659 
   32659    32659    32659    32659    32660    32659    32659    32657 
   32653    32657    32660    32657    32659    32660    32657    32657 
   32659    32657    32657    32655    32653    32657    32659    32655 
   32653    32656    32657    32659    32661    32659    32656    32659 
   32659    32657    32659    32661    32657    32655    32657    32657 
   32655    32655    32657    32657    32657    32659    32656    32655 
   32657    32657    32656    32657    32657    32655    32659    32661 
   32657    32656    32657    32659    32660    32657    32656    32657 
   32659    32659    32657    32657    32659    32659    32659    32656 
   32653    32656    32657    32656    32656    32657    32657    32657 
   32659    32659    32656    32655    32656    32657    32660    32660 
   32657    32657    32656    32656    32660    32661    32659    32659 
   32656    32656    32660    32660    32657    32657    32659    32659 
   32661    32660    32657    32657    32657    32657    32660    32661 
   32657    32655    32656    32659    32659    32660    32660    32656 
   32656    32659    32657    32659    32659    32657    32659    32661 
   32660    32660    32660    32660    32659    32657    32657    32657 
   32655    32657    32661    32660    32656    32656    32656    32656 
   32656    32656    32656    32660    32661    32656    32652    32657 
   32660    32657    32656    32657    32656    32657    32660    32657 
   32655    32657    32659    32660    32657    32653    32653    32659 
   32663    32660    32656    32657    32661    32657    32656    32657 
   32659    32657    32656    32653    32653    32657    32659    32656 
   32655    32652    32655    32661    32661    32656    32656    32657 
   32657    32659    32657    32656    32660    32660    32657    32661 
   32661    32655    32655    32659    32656    32655    32659    32659 
   32655    32655    32659    32659    32656    32655    32655    32660 
   32660    32657    32656    32656    32655    32656    32659    32659 
   32656    32656    32659    32660    32659    32659    32657    32656 
   32656    32659    32657    32655    32655    32657    32657    32657 
   32659    32660    32660    32657    32656    32660    32659    32656 
   32660    32660    32657    32660    32660    32659    32660    32659 
   32656    32655    32655    32655    32659    32657    32655    32656 
   32659    32660    32660    32657    32653    32653    32659    32661 
   32659    32656    32653    32657    32659    32656    32659    32663 
   32657    32653    32659    32659    32657    32657    32657    32659 
   32657    32653    32656    32661    32659    32656    32659    32663 
   32660    32656    32659    32657    32655    32660    32661    32657 
   32657    32655    32653    32659    32659    32656    32659    32657 
   32652    32656    32661    32660    32657    32657    32656    32655 
   32656    32659    32661    32659    32655    32659    32663    32660 
   32655    32653    32656    32657    32656    32655    32656    32656 
   32657    32659    32657    32657    32657    32656    32657    32659 
   32659    32657    32659    32659    32655    32653    32657    32660 
   32659    32656    32656    32657    32657    32659    32659    32656 
   32655    32657    32659    32657    32659    32659    32657    32656 
   32657    32657    32657    32660    32659    32657    32660    32660 
   32657    32657    32656    32656    32659    32660    32657    32656 
   32656    32653    32655    32660    32661    32659    32657    32659 
   32655    32655    32660    32660    32657    32660    32661    32659 
   32656    32656    32659    32657    32653    32655    32660    32659 
   32659    32663    32660    32657    32660    32660    32657    32657 
   32659    32657    32657    32659    32659    32656    32657    32657 
   32655    32656    32659    32659    32657    32660    32661    32657 
   32659    32659    32656    32659    32660    32659    32660    32663 
   32660    32657    32657    32657    32656    32657    32657    32659 
   32659    32656    32655    32656    32656    32657    32659    32657 
   32656    32655    32657    32659    32659    32657    32659    32660 
   32660    32659    32657    32659    32657    32656    32657    32659 
   32657    32657    32659    32657    32653    32652    32657    32659 
   32659    32659    32657    32655    32655    32657    32657    32655 
   32657    32659    32659    32656    32652    32653    32659    32657 
   32656    32656    32656    32656    32655    32655    32659    32659 
   32655    32656    32657    32656    32657    32657    32656    32659 
   32661    32659    32656    32656    32659    32657    32655    32655 
   32657    32657    32656    32656    32657    32657    32657    32656 
   32655    32653    32656    32657    32656    32655    32655    32657 
   32661    32660    32657    32656    32655    32655    32657    32659 
   32659    32659    32656    32655    32657    32657    32656    32655 
   32657    32655    32656    32659    32657    32656    32660    32660 
   32656    32656    32659    32657    32656    32656    32659    32659 
   32659    32660    32656    32655    32659    32657    32653    32657 
   32660    32656    32653    32656    32657    32657    32655    32653 
   32656    32659    32657    32656    32659    32660    32657    32656 
   32657    32659    32657    32656    32657    32661    32661    32659 
   32657    32659    32660    32659    32656    32659    32660    32656 
   32656    32659    32659    32656    32657    32660    32659    32656 
   32656    32656    32656    32657    32659    32657    32657    32657 
   32657    32656    32656    32656    32657    32657    32656    32657 
   32659    32656    32655    32655    32657    32657    32657    32657 
   32657    32659    32660    32657    32657    32657    32659    32659 
   32659    32660    32659    32657    32657    32657    32656    32655 
   32656    32659    32659    32656    32652    32653    32659    32657 
   32655    32659    32659    32657    32659    32659    32656    32656 
   32659    32659    32657    32659    32655    32653    32656    32657 
   32656    32653    32656    32659    32657    32656    32657    32659 
   32660    32660    32657    32657    32659    32659    32659    32659 
   32657    32657    32659    32657    32655    32659    32660    32656 
   32656    32657    32657    32659    32659    32657    32656    32656 
   32657    32657    32657    32656    32659    32659    32655    32657 
   32659    32657    32656    32656    32657    32659    32659    32659 
   32657    32656    32655    32656    32657    32657    32659    32657 
   32655    32656    32659    32661    32660    32659    32657    32656 
   32657    32660    32659    32655    32656    32659    32657    32657 
   32659    32657    32656    32657    32656    32655    32656    32656 
   32657    32659    32657    32657    32659    32657    32657    32657 
   32655    32655    32656    32659    32659    32655    32653    32659 
   32660    32657    32657    32659    32657    32656    32656    32655 
   32655    32656    32657    32656    32655    32653    32655    32656 
   32659    32657    32655    32655    32656    32656    32655    32657 
   32660    32657    32657    32660    32660    32657    32656    32657 
   32657    32656    32659    32659    32657    32660    32659    32656 
   32659    32659    32656    32656    32656    32656    32657    32657 
   32656    32657    32659    32657    32656    32657    32657    32657 
   32660    32659    32657    32661    32664    32664    32668    32674 
   32671    32665    32664    32665    32664    32676    32699    32707 
   32709    32717    32717    32707    32702    32706    32718    32725 
   32702    32653    32611    32606    32611    32603    32602    32611 
   32616    32570    32468    32445    32560    32667    32698    32725 
   32741    32674    32518    32429    32518    32645    32725    32784 
   32792    32783    32678    32485    32516    32670    32690    32736 
   32746    32672    32765    32753    32439    32451    32826    32788 
   32447    32570    32914    32796    32562    32705    32833    32640 
   32539    32692    32702    32572    32609    32671    32597    32495 
   32560    32738    32634    32474    32674    32705    32393    32433 
   32765    32649    32410    32764    33053    32773    32715    32957 
   32788    32540    32760    32872    32620    32630    32818    32703 
   32584    32701    32707    32590    32633    32682    32618    32595 
   32616    32637    32620    32607    32640    32624    32567    32583 
   32690    32710    32759    32969    32950    32697    32601    32667 
   32622    32482    32603    32738    32518    32432    32632    32683 
   32610    32632    32616    32514    32505    32557    32605    32676 
   32692    32721    32834    32803    32644    32652    32706    32641 
   32633    32697    32741    32733    32649    32607    32590    32591 
   32764    32833    32629    32544    32653    32672    32529    32413 
   32545    32717    32664    32660    32713    32572    32602    32823 
   32703    32495    32620    32796    32784    32690    32687    32779 
   32761    32655    32632    32611    32557    32640    32765    32655 
   32506    32656    32849    32806    32744    32768    32763    32765 
   32722    32586    32533    32557    32641    32775    32698    32614 
   32721    32625    32471    32530    32556    32560    32622    32653 
   32618    32513    32560    32713    32566    32443    32668    32725 
   32551    32560    32698    32769    32746    32680    32653    32705 
   32752    32661    32564    32644    32772    32782    32664    32510 
   32458    32525    32552    32513    32553    32645    32680    32621 
   32509    32464    32471    32557    32714    32810    33022    33311 
   33353    33129    32598    32046    31988    32246    32557    32918 
   33123    33223    33265    32911    32296    31862    31764    32081 
   32715    33343    33474    32940    32341    32088    32066    32194 
   32397    32849    33471    33594    33291    32969    32417    32000 
   32208    32512    32568    32555    32543    32544    32532    32649 
   32881    32971    32981    32859    32476    32320    32624    32910 
   32973    33046    33049    32776    32575    32664    32653    32528 
   32544    32563    32593    32705    32717    32672    32632    32532 
   32433    32337    32240    32224    32427    32818    32891    32626 
   32594    32586    32281    32185    32582    33102    33268    33054 
   33025    33230    33080    32706    32464    32238    32366    32973 
   33258    33052    32827    32586    32335    32227    32254    32505 
   32845    32937    32917    32985    32796    32201    31784    31934 
   32382    32813    33092    33192    33075    32697    32341    32254 
   32190    32190    32540    32826    32814    32903    32842    32424 
   32175    32058    31961    32289    32788    33070    33241    33176 
   32906    32691    32553    32644    32881    32888    32772    32803 
   32906    32883    32760    32683    32648    32652    32628    32479 
   32424    32556    32575    32501    32599    32740    32752    32697 
   32699    32778    32753    32757    32868    32768    32643    32746 
   32756    32755    32991    33029    32757    32713    32763    32541 
   32443    32575    32597    32595    32683    32686    32580    32537 
   32616    32661    32672    32755    32829    32819    32682    32452 
   32378    32463    32482    32464    32481    32436    32429    32580 
   32660    32578    32552    32602    32497    32256    32248    32444 
   32574    32710    32749    32690    32814    32896    32856    32926 
   32895    32749    32787    32913    32923    32771    32574    32583 
   32707    32645    32551    32682    32842    32842    32791    32845 
   32887    32702    32587    32740    32706    32508    32568    32626 
   32451    32486    32718    32674    32533    32536    32437    32317 
   32447    32621    32611    32645    32844    32960    32902    32811 
   32729    32648    32690    32821    32832    32710    32568    32495 
   32529    32576    32607    32645    32637    32643    32697    32690 
   32651    32632    32545    32386    32333    32497    32638    32606 
   32651    32809    32827    32705    32595    32626    32767    32830 
   32782    32703    32636    32568    32501    32535    32656    32688 
   32709    32822    32822    32773    32838    32794    32648    32571 
   32482    32433    32493    32530    32556    32630    32714    32786 
   32810    32680    32462    32420    32533    32544    32509    32644 
   32833    32802    32636    32659    32836    32856    32765    32814 
   32817    32602    32424    32360    32320    32337    32462    32702 
   32922    33058    33149    33087    32931    32798    32682    32655 
   32645    32522    32433    32501    32628    32756    32867    32884 
   32865    32875    32759    32526    32360    32194    31989    32008 
   32215    32360    32617    33002    33154    33118    33064    32927 
   32757    32648    32609    32645    32680    32628    32582    32629 
   32624    32590    32740    32914    32860    32695    32634    32637 
   32567    32499    32497    32474    32456    32508    32566    32591 
   32683    32881    32988    32918    32823    32765    32701    32567 
   32341    32212    32329    32502    32560    32598    32680    32753 
   32778    32724    32601    32489    32468    32510    32571    32701 
   32838    32833    32753    32751    32780    32740    32656    32668 
   32749    32719    32591    32524    32584    32671    32675    32682 
   32769    32850    32846    32799    32772    32748    32691    32616 
   32610    32701    32776    32821    32900    32911    32778    32672 
   32629    32476    32316    32297    32256    32227    32418    32616 
   32641    32707    32782    32682    32580    32640    32718    32672 
   32593    32626    32652    32617    32672    32717    32665    32730 
   32877    32869    32769    32715    32656    32571    32525    32524 
   32575    32684    32744    32706    32709    32755    32691    32563 
   32513    32540    32598    32614    32560    32536    32553    32562 
   32579    32618    32683    32805    32927    32948    32854    32744 
   32715    32734    32683    32652    32744    32787    32765    32833 
   32827    32647    32536    32497    32387    32383    32497    32536 
   32514    32533    32626    32660    32540    32508    32624    32663 
   32679    32734    32703    32624    32570    32524    32559    32679 
   32737    32725    32703    32679    32722    32779    32729    32682 
   32670    32634    32690    32765    32722    32682    32682    32661 
   32657    32683    32661    32583    32598    32721    32749    32707 
   32710    32664    32598    32597    32568    32535    32562    32630 
   32741    32788    32725    32674    32670    32683    32671    32622 
   32626    32672    32672    32655    32649    32660    32695    32706 
   32711    32740    32711    32651    32620    32598    32618    32640 
   32632    32652    32644    32660    32787    32829    32695    32583 
   32556    32530    32530    32584    32626    32652    32687    32676 
   32640    32678    32738    32724    32676    32638    32582    32528 
   32526    32567    32611    32674    32742    32740    32714    32725 
   32710    32719    32794    32800    32729    32690    32683    32671 
   32656    32651    32686    32745    32780    32818    32814    32726 
   32648    32589    32536    32576    32664    32694    32698    32699 
   32638    32556    32551    32578    32571    32576    32587    32587 
   32613    32611    32563    32518    32510    32556    32587    32593 
   32643    32702    32749    32753    32678    32624    32597    32562 
   32622    32706    32699    32687    32656    32583    32579    32622 
