Origin Time       2024/04/21 06:19:00
Lat.              34.232
Long.             135.137
Depth. (km)       7
Mag.              2.9
Station Code      OSK010
Station Lat.      34.3744
Station Long.     135.2553
Station Height(m) 3
Record Time       2024/04/21 06:19:29
Sampling Freq(Hz) 100Hz
Duration Time(s)  60
Dir.              E-W
Scale Factor      7845(gal)/8223790
Max. Acc. (gal)   4.046
Last Correction   2024/04/21 06:19:29
Memo.             
[...]
  -11334   -11310   -11321   -11319   -11291   -11292   -11308   -11296 
  -11280   -11303   -11333   -11319   -11295   -11317   -11346   -11331 
  -11299   -11288   -11292   -11302   -11313   -11319   -11311   -11311 
  -11331   -11327   -11304   -11302   -11306   -11302   -11292   -11295 
  -11319   -11322   -11292   -11290   -11314   -11304   -11299   -11340 
  -11352   -11302   -11271   -11313   -11345   -11298   -11253   -11275 
  -11319   -11340   -11326   -11300   -11303   -11340   -11352   -11300 
  -11252   -11261   -11276   -11294   -11348   -11379   -11352   -11294 
  -11252   -11277   -11319   -11315   -11318   -11335   -11335   -11321 
  -11276   -11238   -11250   -11281   -11326   -11377   -11377   -11341 
  -11325   -11294   -11248   -11256   -11296   -11308   -11321   -11333 
  -11326   -11330   -11317   -11273   -11286   -11327   -11318   -11292 
  -11283   -11295   -11327   -11337   -11313   -11291   -11294   -11326 
  -11349   -11302   -11238   -11237   -11276   -11341   -11423   -11422 
  -11331   -11290   -11284   -11241   -11230   -11276   -11329   -11353 
  -11334   -11302   -11295   -11304   -11323   -11364   -11376   -11319 
  -11252   -11222   -11238   -11277   -11310   -11356   -11408   -11391 
  -11323   -11275   -11238   -11236   -11279   -11308   -11319   -11348 
  -11369   -11362   -11337   -11303   -11269   -11252   -11265   -11300 
  -11318   -11308   -11310   -11327   -11333   -11330   -11325   -11318 
  -11325   -11325   -11294   -11259   -11252   -11281   -11325   -11335 
  -11308   -11298   -11307   -11306   -11310   -11342   -11369   -11357 
  -11315   -11260   -11219   -11234   -11296   -11337   -11345   -11340 
  -11306   -11269   -11287   -11345   -11387   -11380   -11323   -11259 
  -11221   -11213   -11248   -11318   -11381   -11407   -11379   -11318 
  -11269   -11253   -11265   -11290   -11298   -11311   -11340   -11338 
  -11313   -11306   -11303   -11302   -11326   -11352   -11327   -11279 
  -11257   -11269   -11304   -11342   -11350   -11333   -11311   -11292 
  -11294   -11303   -11292   -11288   -11296   -11287   -11281   -11311 
  -11349   -11360   -11340   -11317   -11304   -11286   -11276   -11295 
  -11314   -11315   -11311   -11295   -11277   -11296   -11338   -11354 
  -11342   -11317   -11291   -11283   -11294   -11304   -11302   -11292 
  -11296   -11321   -11346   -11354   -11334   -11295   -11259   -11245 
  -11275   -11334   -11373   -11365   -11334   -11295   -11260   -11261 
  -11288   -11314   -11340   -11357   -11340   -11303   -11275   -11260 
  -11267   -11308   -11350   -11345   -11303   -11287   -11306   -11314 
  -11310   -11308   -11295   -11279   -11294   -11326   -11346   -11348 
  -11322   -11281   -11268   -11283   -11298   -11322   -11350   -11349 
  -11319   -11294   -11288   -11290   -11291   -11306   -11323   -11313 
  -11294   -11294   -11302   -11300   -11304   -11333   -11358   -11354 
  -11321   -11276   -11252   -11259   -11284   -11321   -11354   -11358 
  -11342   -11323   -11295   -11277   -11288   -11302   -11308   -11314 
  -11308   -11299   -11295   -11288   -11290   -11321   -11353   -11353 
  -11329   -11304   -11284   -11275   -11281   -11291   -11294   -11300 
  -11319   -11335   -11335   -11325   -11314   -11300   -11291   -11287 
  -11290   -11291   -11292   -11308   -11329   -11329   -11322   -11317 
  -11304   -11298   -11318   -11334   -11313   -11283   -11273   -11273 
  -11294   -11344   -11364   -11325   -11298   -11308   -11311   -11299 
  -11300   -11315   -11318   -11292   -11277   -11296   -11310   -11300 
  -11308   -11345   -11367   -11348   -11306   -11276   -11276   -11302 
  -11321   -11300   -11288   -11318   -11329   -11313   -11314   -11299 
  -11267   -11273   -11326   -11380   -11381   -11338   -11290   -11246 
  -11244   -11294   -11327   -11322   -11314   -11315   -11317   -11310 
  -11302   -11308   -11318   -11326   -11346   -11348   -11306   -11257 
  -11244   -11272   -11323   -11348   -11348   -11352   -11321   -11260 
  -11249   -11290   -11331   -11348   -11345   -11327   -11287   -11253 
  -11272   -11310   -11314   -11306   -11311   -11330   -11349   -11337 
  -11302   -11292   -11306   -11308   -11310   -11317   -11307   -11280 
  -11273   -11294   -11314   -11333   -11357   -11360   -11326   -11283 
  -11264   -11264   -11276   -11308   -11338   -11335   -11317   -11317 
  -11318   -11300   -11273   -11273   -11321   -11367   -11358   -11315 
  -11273   -11254   -11277   -11323   -11346   -11329   -11290   -11264 
  -11277   -11319   -11350   -11353   -11333   -11299   -11288   -11303 
  -11303   -11291   -11290   -11298   -11321   -11337   -11330   -11322 
  -11322   -11314   -11291   -11267   -11281   -11329   -11353   -11338 
  -11315   -11292   -11280   -11294   -11306   -11296   -11302   -11334 
  -11345   -11321   -11291   -11273   -11288   -11329   -11350   -11329 
  -11284   -11268   -11287   -11303   -11303   -11318   -11342   -11342 
  -11318   -11291   -11263   -11253   -11292   -11346   -11361   -11331 
  -11295   -11300   -11329   -11307   -11259   -11269   -11322   -11337 
  -11318   -11302   -11294   -11299   -11311   -11306   -11284   -11273 
  -11295   -11337   -11360   -11348   -11313   -11294   -11311   -11322 
  -11292   -11271   -11295   -11319   -11329   -11323   -11292   -11275 
  -11311   -11346   -11326   -11286   -11272   -11292   -11323   -11330 
  -11317   -11295   -11284   -11306   -11315   -11300   -11317   -11344 
  -11333   -11307   -11294   -11280   -11272   -11287   -11321   -11358 
  -11360   -11310   -11275   -11298   -11321   -11310   -11292   -11283 
  -11296   -11337   -11350   -11321   -11300   -11302   -11300   -11310 
  -11318   -11292   -11280   -11313   -11341   -11340   -11325   -11314 
  -11322   -11321   -11281   -11254   -11280   -11318   -11337   -11322 
  -11291   -11294   -11317   -11310   -11300   -11306   -11306   -11314 
  -11337   -11335   -11319   -11306   -11288   -11275   -11291   -11317 
  -11314   -11296   -11303   -11327   -11334   -11318   -11300   -11292 
  -11298   -11317   -11323   -11317   -11307   -11290   -11276   -11284 
  -11310   -11337   -11335   -11315   -11306   -11321   -11333   -11306 
  -11273   -11281   -11302   -11311   -11308   -11296   -11299   -11323 
  -11340   -11334   -11304   -11272   -11280   -11315   -11323   -11294 
  -11280   -11325   -11376   -11348   -11275   -11272   -11314   -11306 
  -11279   -11294   -11335   -11361   -11333   -11272   -11257   -11304 
  -11337   -11325   -11317   -11327   -11318   -11283   -11253   -11256 
  -11327   -11415   -11379   -11253   -11221   -11302   -11353   -11337 
  -11313   -11298   -11295   -11314   -11329   -11321   -11310   -11298 
  -11284   -11287   -11307   -11331   -11335   -11300   -11275   -11294 
  -11319   -11327   -11322   -11304   -11295   -11302   -11311   -11311 
  -11306   -11311   -11321   -11321   -11314   -11299   -11279   -11286 
  -11319   -11341   -11335   -11317   -11295   -11283   -11299   -11323 
  -11318   -11300   -11294   -11304   -11319   -11325   -11321   -11304 
  -11290   -11291   -11303   -11319   -11325   -11302   -11286   -11310 
  -11340   -11333   -11310   -11299   -11300   -11298   -11299   -11310 
  -11314   -11306   -11304   -11317   -11326   -11315   -11295   -11291 
  -11300   -11307   -11308   -11310   -11323   -11338   -11329   -11311 
  -11308   -11308   -11304   -11300   -11302   -11303   -11302   -11302 
  -11302   -11304   -11308   -11304   -11299   -11313   -11331   -11330 
  -11322   -11327   -11321   -11299   -11294   -11308   -11314   -11300 
  -11284   -11286   -11302   -11317   -11315   -11306   -11299   -11313 
  -11331   -11327   -11308   -11300   -11304   -11310   -11306   -11287 
  -11280   -11307   -11330   -11319   -11300   -11302   -11307   -11307 
  -11311   -11310   -11306   -11311   -11323   -11334   -11317   -11286 
  -11284   -11300   -11300   -11299   -11310   -11321   -11325   -11322 
  -11307   -11284   -11286   -11313   -11327   -11326   -11323   -11313 
  -11299   -11292   -11299   -11306   -11296   -11291   -11308   -11323 
  -11314   -11298   -11298   -11313   -11331   -11326   -11306   -11300 
  -11307   -11314   -11319   -11314   -11300   -11300   -11313   -11308 
  -11295   -11302   -11317   -11318   -11319   -11321   -11307   -11303 
  -11314   -11318   -11310   -11304   -11306   -11314   -11315   -11304 
  -11298   -11300   -11307   -11313   -11313   -11306   -11299   -11296 
  -11307   -11321   -11322   -11315   -11314   -11317   -11321   -11322 
  -11313   -11292   -11279   -11292   -11313   -11314   -11307   -11308 
  -11310   -11310   -11314   -11322   -11317   -11303   -11302   -11308 
  -11308   -11306   -11303   -11303   -11308   -11313   -11311   -11299 
  -11286   -11294   -11323   -11341   -11331   -11317   -11308   -11298 
  -11287   -11292   -11306   -11304   -11303   -11314   -11322   -11319 
  -11308   -11304   -11315   -11325   -11311   -11296   -11298   -11306 
  -11307   -11304   -11307   -11308   -11304   -11300   -11302   -11299 
  -11295   -11303   -11315   -11322   -11327   -11326   -11327   -11331 
  -11311   -11280   -11280   -11307   -11313   -11303   -11318   -11333 
  -11317   -11294   -11283   -11288   -11307   -11319   -11321   -11327 
  -11331   -11314   -11296   -11300   -11303   -11298   -11292   -11298 
  -11313   -11325   -11319   -11311   -11310   -11303   -11302   -11318 
  -11325   -11308   -11302   -11307   -11296   -11287   -11303   -11325 
  -11335   -11334   -11313   -11286   -11281   -11298   -11307   -11308 
  -11306   -11300   -11302   -11315   -11325   -11323   -11322   -11319 
  -11307   -11300   -11296   -11296   -11307   -11313   -11313   -11315 
  -11307   -11292   -11290   -11298   -11308   -11321   -11337   -11335 
  -11318   -11307   -11302   -11296   -11298   -11290   -11284   -11306 
  -11329   -11330   -11323   -11313   -11304   -11311   -11318   -11304 
  -11286   -11284   -11294   -11307   -11337   -11356   -11330   -11300 
  -11299   -11300   -11298   -11302   -11298   -11286   -11294   -11311 
  -11325   -11329   -11313   -11292   -11296   -11315   -11321   -11322 
  -11330   -11314   -11290   -11295   -11317   -11326   -11321   -11310 
  -11295   -11277   -11280   -11308   -11335   -11335   -11321   -11318 
  -11314   -11288   -11267   -11272   -11294   -11313   -11326   -11334 
  -11334   -11318   -11304   -11302   -11300   -11298   -11300   -11302 
  -11303   -11307   -11315   -11325   -11326   -11310   -11304   -11317 
  -11314   -11296   -11287   -11288   -11295   -11311   -11322   -11308 
  -11296   -11307   -11326   -11344   -11340   -11306   -11296   -11313 
  -11296   -11287   -11321   -11310   -11267   -11323   -11375   -11237 
  -11194   -11518   -11527   -10941   -11057   -11780   -11346   -10741 
  -11527   -11897   -11117   -11006   -11443   -11291   -11099   -11465 
  -11620   -11021   -10814   -11506   -11767   -11430   -11040   -10720 
  -11371   -12182   -11520   -10790   -11075   -11325   -11508   -11591 
  -11128   -11037   -11298   -11184   -11321   -11588   -11442   -11188 
  -11037   -11246   -11643   -11574   -11203   -10995   -11067   -11464 
  -11736   -11456   -11137   -11075   -11043   -11368   -11784   -11524 
  -11288   -11304   -10728   -10296   -10894   -11871   -12433   -12108 
  -11145   -10720   -10980   -11048   -11412   -12035   -11330   -10362 
  -11128   -12220   -11916   -10957   -10640   -11229   -11757   -11475 
  -11218   -11337   -11028   -10700   -11128   -11935   -12127   -11111 
  -10287   -11025   -11924   -11664   -11102   -11102   -11495   -11747 
  -11556   -11342   -11013   -10430   -10921   -12071   -12067   -11330 
  -10762   -10866   -11766   -12009   -11041   -10463   -10929   -11414 
  -11497   -11504   -11515   -11592   -11669   -11637   -11379   -10690 
  -10184   -10677   -11723   -12231   -11846   -11105   -10741   -11180 
  -11842   -11688   -10984   -10720   -11022   -11534   -11952   -11839 
  -11227   -10901   -11064   -11121   -11082   -11402   -11726   -11460 
  -11040   -11200   -11578   -11313   -10710   -11028   -11996   -11793 
  -10679   -10702   -11685   -12050   -11611   -11074   -11005   -11291 
  -11318   -11215   -11375   -11438   -11233   -11006   -10945   -11300 
  -11680   -11538   -11404   -11534   -11265   -10810   -11075   -11684 
  -11565   -11134   -11229   -11296   -11238   -11676   -11867   -11344 
  -10963   -10712   -10540   -11209   -12106   -12102   -11448   -10779 
  -10500   -10866   -11658   -12063   -11562   -10902   -10844   -11275 
  -11881   -11948   -11246   -10854   -10984   -11088   -11549   -11939 
  -11523   -11092   -11052   -11161   -11562   -11758   -11156   -10381 
  -10569   -11545   -11827   -11327   -11265   -11569   -11651   -11581 
  -11352   -11032   -10999   -11172   -11341   -11610   -11527   -10916 
  -10717   -11287   -11801   -11539   -10895   -10939   -11680   -11959 
  -11427   -10925   -11095   -11570   -11265   -10613   -11206   -12245 
  -11962   -10891   -10488   -11074   -11761   -11402   -10709   -11394 
  -12125   -11084   -10368   -11457   -12405   -12118   -11353   -10628 
  -10351   -11063   -12091   -11938   -10917   -10411   -10802   -12019 
  -12537   -10998    -9887   -10937   -11954   -11934   -11608   -10939 
  -10743   -11646   -11986   -11020   -10673   -11703   -12010   -10960 
  -10785   -11804   -12125   -11464   -10989   -11464   -12137   -11566 
  -10235    -9601   -10012   -11283   -12451   -12186   -11133   -11250 
  -12229   -12132   -11210   -10690   -10787   -11782   -12206   -10130 
   -8284   -10099   -13698   -15144   -13023    -9058    -7067    -9117 
  -12226   -12833   -11917   -11716   -12089   -11800   -10841   -10916 
  -12266   -12846   -12000   -10700    -9915   -10426   -11631   -11969 
  -11065    -9949    -9988   -11353   -12340   -11657   -10218   -10243 
  -12555   -14211   -12681   -10210    -9375   -10243   -12116   -13026 
  -11630   -10060   -10725   -12306   -12114   -10488    -9522   -10266 
  -12393   -13481   -11746    -9934   -10698   -12020   -11743   -10844 
  -10967   -12117   -12586   -11244    -9382    -9312   -11641   -13946 
  -13362   -10570    -8731    -9294   -11419   -13405   -13500   -11657 
   -9826    -9626   -10902   -12244   -12649   -12480   -11961   -10405 
   -9189   -10758   -12924   -12187   -10069    -9423   -10635   -12282 
  -12147   -10485   -10037   -11456   -12889   -13027   -12218   -11364 
  -10831   -10756   -10848   -10814   -10918   -11079   -11496   -11884 
  -10966    -9949   -10844   -12289   -12293   -11387   -11068   -11346 
  -11155   -10952   -11981   -12981   -11808    -9709    -9512   -11152 
  -12456   -12048   -10670   -10455   -11786   -12482   -11530   -10492 
  -10482   -11018   -11458   -11757   -12275   -12567   -11492    -9599 
   -9101   -10741   -12695   -12804   -11191   -10218   -10843   -11614 
  -12055   -12252   -11619   -11041   -11350   -11479   -11068   -10813 
  -11065   -11792   -12172   -11462   -10334   -10069   -10837   -11553 
  -11556   -11250   -11263   -11578   -11612   -11554   -11723   -11446 
  -11006   -11304   -11619   -11330   -11060   -11103   -11281   -11421 
  -11534   -11718   -11759   -11330   -10339    -9865   -11072   -12434 
  -12082   -10890   -10304   -10835   -12120   -12622   -11539   -10423 
  -10916   -12197   -12328   -11117   -10076   -10222   -11146   -11898 
  -11773   -11028   -10795   -11128   -11172   -11055   -11195   -11549 
  -11897   -11828   -11442   -11229   -11219   -11356   -11585   -11573 
  -11315   -11240   -11437   -11616   -11460   -11002   -10918   -11349 
  -11399   -11005   -11041   -11562   -11681   -10939   -10133   -10281 
  -11340   -12317   -12239   -11430   -11083   -11414   -11659   -11508 
  -11299   -11159   -10984   -11036   -11469   -11767   -11627   -11340 
  -11025   -10774   -10793   -10953   -11128   -11353   -11526   -11558 
  -11550   -11587   -11665   -11668   -11489   -11179   -10843   -10872 
  -11542   -12085   -11892   -11425   -10817   -10223   -10538   -11489 
  -11786   -11399   -11226   -11553   -11722   -11091   -10318   -10615 
  -11835   -12487   -11708   -10611   -10674   -11519   -11962   -11753 
  -11136   -10582   -10675   -11192   -11526   -11686   -11676   -11303 
  -10945   -11110   -11657   -12023   -11773   -10998   -10458   -10832 
  -11673   -11803   -11041   -10592   -11092   -11711   -11848   -11882 
  -11826   -11352   -10854   -10810   -11010   -11090   -11110   -11369 
  -11727   -11700   -11272   -10855   -10760   -11086   -11638   -11954 
  -11749   -11227   -10898   -11210   -11762   -11631   -11134   -11233 
  -11616   -11522   -11101   -11026   -11449   -11653   -11357   -11241 
  -11387   -11288   -11091   -11020   -10966   -11025   -11159   -11226 
  -11338   -11310   -10887   -10646   -11232   -12081   -12360   -12020 
  -11292   -10789   -11071   -11541   -11438   -10990   -10692   -10770 
  -11250   -11700   -11568   -11087   -11002   -11462   -11831   -11587 
  -11068   -10886   -11241   -11842   -12052   -11654   -11115   -10984 
  -11439   -11813   -11433   -10872   -10825   -11113   -11458   -11681 
  -11458   -10806   -10513   -11140   -11808   -11479   -10754   -10837 
  -11626   -11967   -11500   -11149   -11325   -11399   -11206   -11128 
  -11260   -11469   -11519   -11368   -11379   -11585   -11503   -11132 
  -11068   -11354   -11468   -11352   -11257   -11188   -11157   -11253 
  -11464   -11635   -11391   -10714   -10430   -11072   -11935   -12058 
  -11372   -10605   -10520   -11168   -11831   -11881   -11497   -11183 
  -11037   -11052   -11329   -11653   -11673   -11381   -11032   -11028 
  -11457   -11723   -11556   -11349   -11218   -11115   -11219   -11476 
  -11661   -11645   -11290   -10854   -10851   -11138   -11232   -11068 
  -10848   -10859   -11194   -11519   -11677   -11750   -11623   -11292 
  -11064   -11160   -11429   -11515   -11388   -11275   -11221   -11303 
  -11547   -11566   -11238   -11065   -11245   -11514   -11601   -11346 
  -11025   -11064   -11238   -11190   -11129   -11288   -11419   -11322 
  -11230   -11329   -11477   -11497   -11443   -11446   -11464   -11407 
  -11299   -11179   -11084   -11140   -11425   -11612   -11308   -10885 
  -11033   -11618   -11913   -11596   -11074   -10971   -11238   -11357 
  -11256   -11238   -11345   -11315   -11107   -10966   -11001   -11167 
  -11325   -11291   -11149   -11168   -11381   -11596   -11664   -11529 
  -11277   -11182   -11395   -11677   -11696   -11453   -11252   -11281 
  -11372   -11244   -10971   -10941   -11240   -11368   -11045   -10840 
  -11206   -11700   -11808   -11583   -11271   -11097   -11294   -11665 
  -11696   -11367   -11007   -10835   -10993   -11287   -11296   -11126 
  -11118   -11144   -11113   -11268   -11547   -11666   -11600   -11449 
  -11373   -11507   -11616   -11423   -11124   -11061   -11260   -11438 
  -11354   -11149   -11110   -11238   -11376   -11456   -11399   -11229 
  -11198   -11330   -11389   -11321   -11237   -11253   -11387   -11489 
  -11398   -11117   -10912   -11055   -11457   -11782   -11763   -11394 
  -11011   -11014   -11402   -11734   -11608   -11129   -10767   -10849 
  -11217   -11376   -11194   -11087   -11254   -11377   -11263   -11128 
  -11213   -11453   -11578   -11512   -11492   -11628   -11662   -11448 
  -11199   -11125   -11218   -11326   -11357   -11257   -11038   -11006 
  -11308   -11526   -11329   -10935   -10789   -11126   -11600   -11708 
