Origin Time       2024/04/21 06:19:00
Lat.              34.232
Long.             135.137
Depth. (km)       7
Mag.              2.9
Station Code      OSK010
Station Lat.      34.3744
Station Long.     135.2553
Station Height(m) 3
Record Time       2024/04/21 06:19:29
Sampling Freq(Hz) 100Hz
Duration Time(s)  60
Dir.              N-S
Scale Factor      7845(gal)/8223790
Max. Acc. (gal)   3.177
Last Correction   2024/04/21 06:19:29
Memo.             
[...]
   -4970    -4945    -4946    -4985    -5003    -4974    -4934    -4892 
   -4891    -4968    -5044    -5035    -4976    -4932    -4916    -4912 
   -4918    -4949    -4995    -5009    -4978    -4939    -4932    -4951 
   -4974    -4982    -4976    -4968    -4942    -4914    -4938    -4985 
   -4993    -4959    -4927    -4941    -4982    -5001    -4989    -4951 
   -4907    -4915    -4969    -4986    -4962    -4968    -5009    -5028 
   -4981    -4896    -4846    -4869    -4946    -5042    -5069    -5008 
   -4943    -4920    -4919    -4911    -4891    -4908    -4984    -5049 
   -5046    -5003    -4965    -4924    -4874    -4862    -4914    -4974 
   -4990    -4988    -5011    -5034    -5011    -4977    -4966    -4943 
   -4911    -4891    -4893    -4934    -4984    -4995    -5000    -5035 
   -5034    -4972    -4905    -4864    -4847    -4869    -4928    -5005 
   -5061    -5073    -5055    -5013    -4965    -4919    -4860    -4810 
   -4834    -4926    -5012    -5059    -5070    -5040    -4990    -4953 
   -4927    -4896    -4865    -4870    -4920    -4984    -5032    -5054 
   -5035    -4973    -4909    -4899    -4939    -4986    -5003    -4982 
   -4950    -4924    -4918    -4943    -4980    -5000    -4997    -4953 
   -4891    -4885    -4949    -5011    -5039    -5039    -4995    -4918 
   -4872    -4882    -4908    -4934    -4988    -5043    -5050    -5005 
   -4951    -4918    -4888    -4870    -4909    -4980    -5009    -5022 
   -5047    -5031    -4969    -4919    -4885    -4865    -4885    -4942 
   -4996    -5015    -4990    -4965    -4977    -4992    -4966    -4936 
   -4930    -4939    -4963    -4977    -4957    -4938    -4947    -4966 
   -4972    -4976    -4981    -4978    -4969    -4950    -4923    -4907 
   -4936    -4993    -5026    -5020    -4981    -4908    -4874    -4920 
   -4966    -4972    -4978    -4992    -5001    -4996    -4953    -4899 
   -4896    -4946    -4993    -4996    -4969    -4949    -4941    -4928 
   -4908    -4916    -4965    -5012    -5026    -5000    -4958    -4942 
   -4945    -4941    -4935    -4941    -4949    -4954    -4968    -4986 
   -4988    -4970    -4945    -4920    -4927    -4976    -5008    -4993 
   -4961    -4934    -4914    -4923    -4968    -4999    -4989    -4955 
   -4923    -4915    -4942    -4977    -4990    -4984    -4974    -4977 
   -4970    -4941    -4912    -4905    -4924    -4976    -5034    -5046 
   -4996    -4934    -4904    -4907    -4932    -4958    -4973    -4992 
   -5013    -5000    -4957    -4926    -4911    -4912    -4949    -4997 
   -5013    -4989    -4961    -4961    -4955    -4935    -4932    -4950 
   -4962    -4963    -4961    -4966    -4974    -4972    -4959    -4930 
   -4915    -4946    -4970    -4963    -4972    -4984    -4966    -4959 
   -4969    -4954    -4935    -4953    -4974    -4974    -4969    -4957 
   -4946    -4973    -5004    -4974    -4920    -4922    -4938    -4918 
   -4931    -5004    -5047    -5004    -4932    -4908    -4924    -4945 
   -4970    -4981    -4957    -4945    -4985    -5016    -4992    -4946 
   -4930    -4945    -4954    -4934    -4930    -4973    -5007    -4985 
   -4942    -4919    -4942    -4976    -4980    -4972    -4968    -4930 
   -4888    -4919    -4974    -4986    -4999    -5004    -4973    -4945 
   -4932    -4941    -4970    -4977    -4955    -4950    -4954    -4957 
   -4955    -4955    -4955    -4942    -4941    -4943    -4939    -4961 
   -4999    -5009    -5000    -4992    -4973    -4938    -4911    -4919 
   -4943    -4954    -4953    -4963    -4984    -4981    -4957    -4946 
   -4951    -4949    -4935    -4943    -4974    -4995    -4999    -4993 
   -4974    -4946    -4924    -4904    -4907    -4947    -4970    -4965 
   -4988    -5009    -4970    -4941    -4976    -4992    -4953    -4914 
   -4891    -4892    -4945    -5016    -5043    -5011    -4953    -4931 
   -4955    -4968    -4943    -4934    -4954    -4972    -4978    -4974 
   -4951    -4938    -4946    -4968    -4992    -4990    -4953    -4928 
   -4951    -4970    -4954    -4930    -4936    -4966    -4986    -4980 
   -4962    -4947    -4942    -4946    -4939    -4935    -4970    -5007 
   -4982    -4947    -4950    -4958    -4958    -4968    -4986    -4993 
   -4968    -4918    -4897    -4920    -4954    -4974    -4980    -4984 
   -4985    -4968    -4939    -4942    -4972    -4978    -4961    -4969 
   -4988    -4972    -4932    -4903    -4918    -4984    -5024    -4986 
   -4941    -4947    -4959    -4946    -4949    -4980    -4985    -4954 
   -4942    -4951    -4949    -4946    -4954    -4969    -4984    -4993 
   -4969    -4899    -4872    -4942    -4999    -4976    -4943    -4950 
   -4978    -4993    -4977    -4951    -4954    -4982    -4976    -4922 
   -4920    -4976    -4989    -4981    -4985    -4943    -4888    -4900 
   -4953    -4996    -4996    -4955    -4961    -5012    -5001    -4941 
   -4920    -4943    -4962    -4961    -4949    -4936    -4951    -4997 
   -5013    -4990    -4955    -4924    -4927    -4953    -4954    -4962 
   -4961    -4914    -4912    -4995    -5038    -5004    -4974    -4977 
   -4968    -4932    -4914    -4936    -4957    -4938    -4935    -4986 
   -5011    -4976    -4961    -4980    -4962    -4924    -4930    -4962 
   -4977    -4977    -4962    -4953    -4973    -4982    -4963    -4953 
   -4947    -4949    -4963    -4955    -4946    -4958    -4954    -4941 
   -4955    -4989    -5007    -4972    -4932    -4943    -4959    -4946 
   -4936    -4942    -4962    -4990    -4988    -4950    -4920    -4919 
   -4941    -4968    -4966    -4941    -4943    -4980    -4990    -4990 
   -5008    -4982    -4920    -4914    -4947    -4970    -4986    -4973 
   -4938    -4941    -4976    -4984    -4962    -4941    -4922    -4918 
   -4941    -4953    -4966    -5004    -5031    -5022    -4942    -4861 
   -4947    -5062    -4982    -4895    -4958    -4989    -4923    -4905 
   -4962    -4988    -4976    -4970    -4959    -4945    -4946    -4950 
   -4939    -4924    -4957    -5020    -5042    -4949    -4824    -4907 
   -5093    -5042    -4881    -4897    -4970    -4963    -4953    -4972 
   -4977    -4961    -4947    -4961    -4976    -4943    -4915    -4961 
   -5009    -4995    -4978    -4986    -4969    -4919    -4899    -4932 
   -4966    -4966    -4953    -4957    -4972    -4973    -4961    -4972 
   -4984    -4958    -4932    -4945    -4955    -4942    -4947    -4977 
   -4982    -4965    -4969    -4980    -4962    -4947    -4959    -4955 
   -4924    -4915    -4947    -4981    -4985    -4972    -4969    -4977 
   -4972    -4946    -4942    -4973    -4985    -4957    -4938    -4958 
   -4976    -4965    -4950    -4949    -4951    -4954    -4965    -4982 
   -4986    -4972    -4959    -4962    -4965    -4961    -4953    -4941 
   -4941    -4951    -4951    -4954    -4968    -4972    -4962    -4955 
   -4955    -4959    -4959    -4953    -4954    -4973    -4989    -4986 
   -4959    -4931    -4936    -4958    -4958    -4943    -4946    -4962 
   -4959    -4951    -4981    -5005    -4965    -4923    -4942    -4980 
   -4982    -4962    -4957    -4968    -4966    -4954    -4953    -4954 
   -4955    -4958    -4957    -4958    -4970    -4977    -4968    -4959 
   -4950    -4941    -4958    -4986    -4976    -4953    -4961    -4953 
   -4919    -4943    -5001    -4982    -4924    -4939    -4989    -4977 
   -4931    -4930    -4962    -4973    -4961    -4951    -4951    -4965 
   -4970    -4958    -4957    -4972    -4980    -4974    -4958    -4941 
   -4931    -4941    -4966    -4980    -4961    -4938    -4953    -4981 
   -4984    -4969    -4958    -4958    -4966    -4963    -4938    -4931 
   -4955    -4970    -4963    -4957    -4961    -4969    -4969    -4962 
   -4957    -4963    -4963    -4955    -4962    -4966    -4950    -4942 
   -4951    -4962    -4966    -4962    -4954    -4957    -4966    -4959 
   -4941    -4947    -4969    -4976    -4972    -4961    -4954    -4962 
   -4963    -4958    -4957    -4954    -4955    -4962    -4961    -4958 
   -4955    -4955    -4973    -4984    -4972    -4962    -4966    -4963 
   -4946    -4941    -4955    -4972    -4978    -4973    -4959    -4951 
   -4957    -4965    -4957    -4943    -4946    -4963    -4977    -4970 
   -4951    -4947    -4954    -4958    -4954    -4951    -4955    -4954 
   -4943    -4945    -4957    -4966    -4977    -4990    -4985    -4958 
   -4947    -4962    -4966    -4953    -4936    -4927    -4941    -4972 
   -4989    -4977    -4955    -4947    -4945    -4950    -4963    -4962 
   -4945    -4943    -4961    -4976    -4974    -4968    -4962    -4962 
   -4958    -4942    -4930    -4943    -4959    -4958    -4962    -4977 
   -4976    -4961    -4954    -4955    -4958    -4955    -4958    -4966 
   -4966    -4959    -4954    -4946    -4942    -4947    -4961    -4974 
   -4985    -4988    -4977    -4957    -4936    -4935    -4958    -4974 
   -4963    -4954    -4963    -4969    -4966    -4966    -4954    -4936 
   -4943    -4963    -4976    -4980    -4969    -4938    -4930    -4961 
   -4990    -4989    -4970    -4947    -4935    -4949    -4968    -4969 
   -4959    -4955    -4959    -4969    -4973    -4963    -4951    -4939 
   -4932    -4938    -4947    -4959    -4973    -4980    -4980    -4970 
   -4953    -4946    -4954    -4958    -4957    -4963    -4974    -4974 
   -4970    -4968    -4955    -4946    -4954    -4965    -4962    -4951 
   -4949    -4950    -4949    -4951    -4963    -4977    -4985    -4984 
   -4976    -4961    -4949    -4946    -4950    -4957    -4959    -4953 
   -4951    -4959    -4954    -4942    -4932    -4934    -4953    -4977 
   -4990    -4978    -4959    -4958    -4965    -4961    -4958    -4959 
   -4958    -4955    -4959    -4963    -4951    -4942    -4955    -4972 
   -4974    -4966    -4947    -4939    -4957    -4977    -4981    -4970 
   -4949    -4935    -4947    -4969    -4982    -4984    -4972    -4959 
   -4954    -4950    -4950    -4949    -4949    -4950    -4958    -4973 
   -4976    -4959    -4950    -4959    -4965    -4961    -4958    -4951 
   -4941    -4939    -4955    -4982    -5003    -4993    -4946    -4901 
   -4926    -5003    -5016    -4949    -4905    -4872    -4864    -5076 
   -5294    -5016    -4556    -4769    -5305    -4936    -4506    -5395 
   -5595    -4341    -4530    -5598    -5022    -4306    -5011    -5597 
   -4936    -4401    -5105    -5414    -4607    -4666    -5325    -5070 
   -4816    -4909    -4970    -5032    -4811    -4941    -5267    -4996 
   -4899    -4788    -4507    -5196    -5583    -4675    -4527    -5240 
   -5301    -4984    -4606    -4617    -5252    -5189    -4820    -5143 
   -4930    -4590    -5042    -5109    -4892    -4915    -4989    -5331 
   -5377    -4807    -4291    -4430    -5169    -5597    -5408    -4745 
   -3933    -4136    -5375    -6328    -5971    -4302    -3442    -4792 
   -5940    -5279    -4583    -4892    -5441    -5316    -4436    -3978 
   -4749    -5752    -5822    -5196    -4437    -4194    -4747    -5188 
   -5298    -5305    -4977    -4680    -4611    -4702    -4962    -5289 
   -5594    -5177    -4279    -4457    -5204    -5096    -5023    -5410 
   -5031    -4553    -4962    -5152    -4965    -5001    -4891    -4621 
   -4560    -4968    -5521    -5424    -5011    -4733    -4222    -4152 
   -5186    -6006    -5628    -4716    -4318    -4966    -5490    -4932 
   -4568    -4923    -5128    -4916    -4603    -4901    -5599    -5412 
   -4652    -4658    -5179    -5124    -4486    -4120    -4546    -5486 
   -5925    -5235    -4500    -4781    -5260    -5109    -4695    -4534 
   -4924    -5417    -5123    -4518    -4666    -5386    -5749    -5058 
   -3967    -4151    -5495    -6172    -5513    -4396    -3944    -4540 
   -5460    -5706    -4990    -4179    -4363    -5089    -5314    -5105 
   -4961    -5059    -5076    -4845    -5043    -5517    -5200    -4492 
   -4321    -4369    -4653    -5621    -6157    -5221    -4043    -4137 
   -5105    -5622    -5451    -4969    -4482    -4658    -5186    -5140 
   -4774    -4627    -4955    -5247    -4733    -4621    -5572    -5706 
   -4791    -4403    -4626    -5140    -5724    -5340    -4342    -4375 
   -5144    -5161    -4471    -4518    -5425    -5576    -4909    -4449 
   -4197    -4592    -5705    -6112    -5329    -4311    -4187    -5212 
   -5802    -4972    -4217    -4553    -5293    -5648    -5255    -4472 
   -4220    -4907    -5671    -5406    -4550    -4503    -5067    -4864 
   -4546    -5073    -5098    -4380    -4568    -5830    -6534    -5413 
   -3549    -3492    -5412    -6469    -5414    -4352    -4509    -4880 
   -5146    -5346    -4833    -4333    -4980    -5474    -4783    -4326 
   -4729    -5458    -6066    -5283    -3816    -4137    -5459    -5598 
   -4756    -4406    -4969    -5320    -5217    -5125    -4692    -4738 
   -5487    -5233    -4498    -4747    -5189    -5090    -4864    -4737 
   -4413    -3789    -3838    -4992    -5472    -4460    -4379    -5926 
   -6529    -6264    -6183    -5040    -3940    -4718    -6030    -6504 
   -5702    -4000    -3258    -4348    -6064    -6501    -5323    -4526 
   -4453    -3582    -2979    -4364    -6254    -6104    -3981    -2521 
   -3491    -5724    -6567    -4538    -2011    -3059    -6679    -7908 
   -5888    -4336    -5551    -7848    -7341    -3549    -1701    -4476 
   -7416    -6362    -3002    -2064    -5050    -7929    -7015    -3773 
   -2074    -3916    -6983    -6948    -4305    -3437    -4626    -5320 
   -5148    -4113    -3053    -4622    -7546    -7024    -3433    -2182 
   -5197    -8290    -7237    -3538    -1728    -3358    -6161    -7295 
   -6307    -4764    -3658    -3306    -4426    -6359    -6875    -5562 
   -3936    -3213    -3928    -5158    -5567    -5530    -5814    -6208 
   -5509    -3427    -2727    -5166    -7792    -7133    -4071    -2253 
   -2951    -4518    -5764    -6413    -6065    -4492    -2933    -3854 
   -6656    -7489    -5279    -2727    -2621    -4949    -6956    -7080 
   -5914    -4137    -2982    -3905    -6053    -6502    -4630    -3500 
   -4977    -6659    -5675    -3353    -3042    -4780    -5913    -5497 
   -4704    -4315    -4718    -5984    -6484    -5142    -3649    -3748 
   -4861    -5512    -5502    -5582    -5674    -4951    -3885    -3877 
   -4837    -5975    -6380    -4761    -2543    -2833    -5489    -7690 
   -7150    -4588    -3277    -4247    -5618    -5984    -5243    -4518 
   -4726    -5115    -4989    -4742    -4834    -5078    -5213    -5487 
   -5428    -4645    -4482    -5304    -5517    -4665    -4014    -4405 
   -4903    -4453    -3971    -4576    -5472    -5486    -5001    -4522 
   -3983    -4434    -6016    -6712    -5917    -4708    -3716    -3624 
   -4977    -6446    -5983    -4313    -3823    -4803    -5881    -5919 
   -5024    -4473    -4680    -4954    -5022    -5185    -5574    -5493 
   -4627    -4263    -4896    -5089    -4422    -4132    -4750    -5406 
   -5266    -4946    -5346    -5676    -5042    -4367    -4502    -4985 
   -5321    -5251    -4752    -4303    -4361    -5050    -5914    -6053 
   -5370    -4603    -4118    -4047    -4513    -5023    -5256    -5454 
   -5491    -5262    -5067    -4959    -4842    -4905    -5182    -5292 
   -5023    -4515    -4240    -4726    -5265    -4847    -4349    -4558 
   -4865    -5309    -5881    -5788    -5182    -4627    -4305    -4575 
   -5192    -5314    -4688    -3966    -4216    -5132    -5309    -5086 
   -5491    -5806    -5158    -4077    -3856    -4992    -6033    -5725 
   -4965    -4723    -4878    -5058    -4727    -4139    -4369    -5298 
   -5683    -5077    -4556    -5105    -5745    -5385    -4899    -4961 
   -5016    -5078    -5316    -5142    -4510    -4172    -4432    -4864 
   -5059    -5116    -5097    -4764    -4387    -4606    -5347    -5849 
   -5451    -4509    -4303    -5023    -5378    -4997    -4800    -4935 
   -4951    -5103    -5343    -5094    -4684    -4745    -5090    -5277 
   -5192    -5051    -4819    -4380    -4359    -5013    -5486    -5358 
   -4986    -4623    -4530    -4911    -5395    -5332    -4738    -4372 
   -4585    -4919    -5016    -5032    -5080    -5049    -4972    -4926 
   -4951    -5255    -5601    -5327    -4665    -4453    -4675    -4870 
   -5039    -5154    -5053    -4990    -5151    -5208    -5019    -4842 
   -4841    -4978    -5070    -4961    -4919    -5100    -5071    -4773 
   -4596    -4588    -4644    -4776    -5042    -5258    -5142    -4935 
   -4978    -5080    -4988    -4850    -4920    -5132    -5177    -4990 
   -4837    -4896    -5125    -5232    -4931    -4560    -4588    -4847 
   -5038    -5090    -5031    -5011    -5127    -5290    -5231    -4743 
   -4183    -4163    -4753    -5360    -5378    -5015    -4923    -5142 
   -5227    -5044    -4884    -5013    -5321    -5447    -5262    -5046 
   -5080    -5243    -5232    -4924    -4430    -4121    -4419    -5063 
   -5301    -5051    -4835    -4823    -4833    -4789    -4706    -4590 
   -4552    -4753    -5104    -5381    -5524    -5452    -5158    -4916 
   -4839    -4742    -4622    -4731    -4953    -4853    -4683    -4981 
   -5395    -5410    -5200    -4981    -4791    -4752    -4835    -4951 
   -5138    -5296    -5225    -4938    -4662    -4668    -4899    -4926 
   -4634    -4487    -4811    -5286    -5328    -4935    -4692    -4774 
   -4927    -5115    -5163    -4853    -4642    -4916    -5301    -5440 
   -5321    -5104    -5050    -5057    -4882    -4746    -4849    -4993 
   -5040    -4965    -4845    -4854    -4934    -4951    -4924    -4892 
   -4928    -5003    -5062    -5209    -5335    -5206    -4935    -4727 
   -4681    -4792    -4846    -4854    -5035    -5161    -5019    -4843 
   -4773    -4806    -4969    -5140    -5107    -4845    -4617    -4702 
   -5023    -5258    -5246    -5113    -5044    -5051    -5005    -4850 
   -4739    -4897    -5240    -5316    -4958    -4672    -4822    -5076 
   -5059    -4839    -4737    -4869    -4908    -4746    -4714    -4803 
   -4834    -4935    -5069    -5007    -4806    -4707    -4824    -5046 
   -5131    -5058    -4966    -4888    -4936    -5174    -5320    -5209 
   -5044    -5003    -5022    -5001    -4972    -4993    -5073    -5132 
   -5004    -4735    -4614    -4675    -4815    -5069    -5278    -5198 
   -5009    -4984    -5062    -5076    -4989    -4905    -4896    -4865 
   -4819    -4887    -4961    -4950    -4976    -4997    -4907    -4818 
   -4833    -4912    -4938    -4850    -4847    -5040    -5167    -5042 
   -4831    -4819    -5009    -5062    -4887    -4824    -4961    -5008 
   -4881    -4788    -4897    -5175    -5347    -5174    -4861    -4823 
   -5080    -5244    -5119    -4864    -4700    -4806    -5088    -5196 
   -5103    -4981    -4861    -4841    -4934    -4970    -4934    -4923 
   -4897    -4803    -4749    -4834    -4972    -4968    -4801    -4710 
   -4803    -4934    -4972    -4941    -4984    -5111    -5161    -5130 
   -5089    -5080    -5215    -5394    -5339    -5090    -4900    -4893 
   -5013    -5035    -4895    -4827    -4861    -4861    -4861    -4891 
   -4946    -4947    -4757    -4569    -4672    -4931    -5076    -5047 
   -4938    -4822    -4749    -4845    -5036    -5070    -5003    -4986 
   -4959    -4932    -5019    -5211    -5377    -5313    -4932    -4556 
   -4594    -5000    -5343    -5270    -4872    -4603    -4710    -4973 
   -5046    -4862    -4707    -4787    -4939    -4995    -4993    -5022 
