Origin Time       2024/04/21 06:19:00
Lat.              34.232
Long.             135.137
Depth. (km)       7
Mag.              2.9
Station Code      WKY001
Station Lat.      34.2293
Station Long.     135.1694
Station Height(m) 11
Record Time       2024/04/21 06:19:23
Sampling Freq(Hz) 100Hz
Duration Time(s)  60
Dir.              E-W
Scale Factor      7845(gal)/8223790
Max. Acc. (gal)   244.979
Last Correction   2024/04/21 06:19:22
Memo.             
[...]
    2354     2351     2354     2353     2347     2346     2340     2342 
    2353     2349     2342     2350     2353     2347     2347     2339 
    2328     2331     2339     2336     2330     2332     2343     2349 
    2344     2339     2332     2331     2335     2335     2342     2357 
    2358     2349     2353     2353     2334     2339     2363     2369 
    2365     2351     2340     2342     2335     2328     2343     2351 
    2342     2349     2359     2350     2336     2336     2338     2331 
    2328     2339     2354     2347     2331     2331     2343     2350 
    2346     2338     2334     2336     2338     2336     2344     2353 
    2349     2342     2343     2349     2353     2353     2353     2344 
    2340     2350     2349     2343     2350     2357     2359     2362 
    2349     2331     2338     2351     2346     2338     2343     2351 
    2353     2344     2340     2349     2340     2324     2328     2336 
    2338     2340     2343     2342     2335     2331     2335     2344 
    2344     2339     2339     2347     2357     2358     2347     2332 
    2338     2353     2346     2338     2353     2365     2357     2349 
    2344     2347     2357     2354     2343     2342     2350     2357 
    2355     2343     2340     2350     2346     2336     2338     2339 
    2346     2350     2340     2330     2327     2327     2335     2338 
    2331     2339     2353     2336     2322     2334     2340     2342 
    2353     2359     2357     2355     2355     2357     2355     2354 
    2359     2365     2359     2350     2350     2359     2355     2340 
    2331     2334     2342     2340     2334     2332     2335     2340 
    2336     2328     2334     2344     2344     2339     2334     2332 
    2331     2331     2344     2350     2339     2339     2347     2347 
    2343     2336     2335     2346     2358     2359     2353     2350 
    2354     2350     2340     2340     2343     2344     2353     2359 
    2353     2342     2335     2332     2332     2339     2357     2365 
    2358     2353     2349     2346     2336     2324     2334     2350 
    2350     2347     2349     2344     2334     2336     2347     2344 
    2335     2339     2346     2335     2323     2324     2343     2358 
    2354     2344     2346     2343     2340     2349     2350     2342 
    2342     2339     2335     2340     2339     2342     2358     2351 
    2334     2340     2355     2358     2353     2340     2334     2335 
    2340     2343     2346     2349     2346     2334     2330     2347 
    2361     2350     2340     2339     2331     2335     2354     2355 
    2351     2354     2349     2338     2339     2354     2359     2351 
    2342     2335     2334     2340     2350     2355     2353     2354 
    2357     2350     2340     2342     2343     2332     2323     2330 
    2349     2359     2346     2326     2330     2336     2327     2326 
    2336     2344     2350     2349     2343     2338     2339     2346 
    2350     2351     2351     2346     2346     2353     2351     2339 
    2340     2351     2346     2342     2353     2351     2346     2354 
    2353     2340     2339     2346     2340     2338     2340     2339 
    2343     2347     2346     2347     2342     2338     2347     2344 
    2342     2347     2344     2336     2336     2338     2342     2349 
    2349     2344     2343     2340     2342     2346     2342     2340 
    2344     2344     2351     2353     2344     2339     2336     2335 
    2336     2335     2338     2350     2349     2332     2323     2332 
    2349     2351     2340     2336     2344     2350     2349     2344 
    2344     2361     2371     2357     2342     2343     2347     2347 
    2351     2351     2347     2347     2347     2347     2351     2349 
    2343     2340     2340     2339     2331     2322     2330     2347 
    2355     2344     2328     2338     2351     2346     2339     2343 
    2343     2340     2350     2354     2340     2340     2353     2338 
    2327     2351     2359     2338     2327     2330     2328     2334 
    2339     2336     2343     2351     2350     2346     2342     2357 
    2363     2340     2335     2357     2358     2346     2353     2355 
    2335     2332     2361     2366     2342     2334     2343     2340 
    2335     2349     2349     2331     2338     2357     2347     2326 
    2330     2359     2359     2331     2338     2366     2353     2335 
    2351     2347     2327     2342     2354     2336     2336     2349 
    2347     2346     2346     2346     2339     2323     2332     2350 
    2338     2327     2332     2334     2340     2347     2338     2332 
    2338     2343     2350     2353     2351     2361     2365     2354 
    2357     2363     2355     2351     2349     2346     2351     2342 
    2335     2342     2336     2332     2347     2353     2344     2339 
    2332     2331     2346     2353     2340     2342     2353     2343 
    2326     2334     2357     2358     2342     2339     2343     2351 
    2358     2351     2339     2330     2327     2340     2349     2343 
    2338     2334     2334     2336     2339     2340     2338     2338 
    2339     2340     2344     2344     2343     2347     2353     2370 
    2377     2353     2342     2354     2344     2324     2335     2358 
    2355     2339     2338     2347     2355     2349     2335     2331 
    2334     2346     2349     2330     2328     2346     2340     2328 
    2339     2357     2359     2350     2328     2331     2363     2365 
    2342     2340     2344     2340     2342     2343     2347     2351 
    2347     2335     2324     2332     2351     2358     2344     2331 
    2340     2359     2354     2332     2319     2324     2346     2349 
    2340     2349     2353     2343     2344     2351     2353     2349 
    2342     2346     2354     2346     2335     2343     2359     2350 
    2336     2340     2349     2350     2347     2340     2340     2359 
    2367     2350     2332     2327     2336     2351     2347     2340 
    2347     2349     2349     2349     2335     2320     2335     2361 
    2361     2338     2322     2335     2363     2365     2334     2324 
    2349     2357     2338     2335     2355     2361     2346     2340 
    2349     2357     2353     2339     2332     2346     2359     2349 
    2338     2344     2355     2357     2338     2320     2342     2369 
    2354     2332     2331     2336     2344     2342     2326     2331 
    2359     2365     2342     2332     2342     2350     2346     2340 
    2343     2344     2344     2347     2346     2351     2361     2357 
    2338     2324     2336     2355     2350     2331     2330     2354 
    2363     2340     2328     2338     2340     2340     2343     2344 
    2347     2350     2353     2357     2350     2339     2346     2350 
    2347     2357     2362     2357     2350     2335     2327     2339 
    2340     2330     2330     2338     2347     2354     2347     2331 
    2334     2351     2351     2340     2347     2357     2350     2342 
    2342     2336     2342     2359     2361     2346     2342     2336 
    2339     2351     2354     2344     2336     2340     2355     2362 
    2342     2323     2338     2362     2355     2330     2327     2347 
    2351     2334     2317     2316     2338     2366     2362     2343 
    2342     2340     2343     2359     2359     2355     2354     2339 
    2334     2349     2350     2346     2355     2354     2338     2334 
    2339     2344     2351     2351     2336     2326     2336     2354 
    2359     2353     2346     2339     2330     2335     2355     2361 
    2354     2344     2335     2339     2346     2340     2340     2351 
    2353     2340     2330     2328     2335     2340     2332     2332 
    2342     2347     2346     2334     2324     2346     2365     2347 
    2328     2349     2370     2362     2354     2354     2351     2349 
    2349     2354     2351     2347     2350     2344     2335     2338 
    2347     2349     2338     2324     2326     2344     2362     2353 
    2331     2338     2357     2354     2335     2323     2331     2343 
    2339     2336     2353     2362     2350     2344     2351     2349 
    2349     2346     2339     2342     2336     2320     2327     2351 
    2363     2358     2342     2328     2332     2351     2358     2344 
    2335     2342     2339     2332     2335     2340     2353     2363 
    2363     2350     2331     2338     2366     2359     2326     2323 
    2346     2359     2359     2353     2347     2346     2342     2331 
    2324     2326     2335     2344     2349     2354     2351     2335 
    2323     2331     2344     2350     2362     2366     2347     2331 
    2328     2328     2342     2359     2361     2354     2340     2326 
    2332     2353     2354     2340     2335     2342     2344     2342 
    2346     2350     2347     2344     2346     2349     2347     2350 
    2351     2340     2334     2346     2354     2343     2332     2340 
    2344     2335     2346     2361     2347     2331     2334     2338 
    2346     2359     2358     2342     2332     2343     2359     2355 
    2344     2340     2340     2344     2349     2353     2353     2350 
    2347     2346     2339     2339     2350     2350     2343     2347 
    2353     2334     2322     2342     2355     2340     2326     2332 
    2346     2344     2335     2336     2338     2331     2336     2355 
    2362     2353     2342     2343     2354     2358     2347     2336 
    2328     2326     2332     2346     2354     2359     2359     2347 
    2330     2340     2358     2346     2339     2354     2350     2338 
    2342     2349     2354     2353     2342     2340     2343     2339 
    2342     2347     2343     2346     2355     2351     2335     2326 
    2334     2347     2346     2331     2326     2343     2355     2346 
    2343     2346     2331     2326     2346     2357     2355     2353 
    2338     2335     2344     2336     2339     2367     2367     2334 
    2319     2332     2353     2367     2361     2349     2354     2353 
    2335     2338     2343     2335     2336     2340     2344     2361 
    2355     2323     2317     2334     2336     2342     2359     2366 
    2355     2346     2346     2346     2336     2327     2339     2366 
    2369     2344     2328     2327     2330     2332     2335     2344 
    2353     2358     2359     2338     2316     2327     2343     2347 
    2357     2362     2343     2338     2354     2347     2331     2334 
    2350     2367     2362     2338     2334     2351     2358     2343 
    2339     2353     2351     2338     2331     2327     2336     2347 
    2343     2346     2355     2346     2327     2327     2342     2350 
    2353     2351     2353     2358     2346     2327     2334     2343 
    2342     2351     2357     2347     2342     2338     2338     2350 
    2350     2331     2331     2346     2349     2346     2353     2353 
    2340     2328     2330     2346     2355     2344     2336     2342 
    2349     2350     2353     2361     2359     2350     2336     2327 
    2335     2346     2343     2354     2366     2350     2334     2336 
    2335     2338     2349     2351     2357     2354     2332     2330 
    2343     2340     2339     2349     2351     2353     2353     2347 
    2353     2350     2326     2322     2340     2344     2340     2353 
    2367     2358     2346     2342     2334     2330     2332     2332 
    2338     2350     2359     2369     2363     2338     2322     2326 
    2330     2338     2353     2355     2353     2359     2358     2346 
    2339     2338     2331     2327     2340     2361     2361     2349 
    2346     2351     2349     2340     2339     2347     2353     2353 
    2343     2328     2323     2328     2339     2344     2338     2342 
    2350     2336     2331     2346     2351     2354     2359     2353 
    2340     2347     2361     2351     2331     2330     2343     2353 
    2342     2332     2344     2344     2332     2343     2362     2362 
    2354     2350     2350     2351     2339     2334     2347     2359 
    2346     2324     2323     2336     2339     2335     2344     2359 
    2357     2335     2327     2350     2363     2350     2343     2350 
    2346     2332     2319     2316     2334     2350     2353     2357 
    2365     2367     2357     2340     2339     2358     2374     2363 
    2339     2330     2332     2328     2323     2328     2346     2354 
    2344     2335     2349     2366     2361     2346     2344     2347 
    2351     2347     2331     2336     2357     2355     2339     2334 
    2346     2397     2551     2706     2077      317      295     4689 
    8776     7249     1175    -9549   -13289     9855    27403    -3555 
  -21074    17373    20586   -15931     -413    23602     4205   -12505 
  -26952   -18327    48157    58861   -30237   -59541     2575    34398 
   31511    12449   -35777   -23325    36844     6659   -40248     8417 
   45400    14175   -14685   -18125     1786    15616    -3241    -1633 
   25043     8256   -26873   -14125    18501    24732     2050   -21548 
   -6166    20544    11531    -4330    -1861     2307     4023     5562 
    3827    -2797    -8607     4753    23998     7832   -18937    -6805 
   13763    10413     3477    -6617   -15182    10849    37168     5287 
  -31010   -15230     6606    15705    27507    15012   -15919   -21429 
   -5748     6894    16417    11929    -9909    -9292    17594    17949 
  -13046   -41854   -70405   -61472    85727   259152   125743  -208013 
 -202512    65824    66538   -46129    30446    48964    19484    54156 
  -49423   -94366    22495    -9072   -13651   109296    39330   -78494 
  -17815    22262    -7333    11677    24544     8316    -4315   -37245 
  -21039    47753    31672   -23380    -5421    18617    -6959   -36517 
  -19278    48832    86355    21959   -74385   -85143   -10584    53125 
   42661     4271     3167      853   -13699    12644    25284   -19183 
  -38157    -8634    22327    37395    15715   -18041   -11377     1404 
   -1485    14386    21123       68    -6060    -2817    -5624     5957 
    5159   -17450    -7686    16108    14261    17043    16796    -3908 
  -11377    -2020     7744    15601     8256   -10615   -11151     3697 
    3462    -1355     9979    11967    -2043    -4529     -843      604 
    5235     3215     -970    -1316    -1908     9310    18906     2722 
  -14311   -11742    -2258     8298    13300     7414      349    -1098 
    3527     5957      164     1348     9381     7225     4291     6528 
    1865    -1950     1075       64    -4348    -8078    -4953    10126 
   15349    -1323   -13865    -5065    12204    20250    14654     3466 
   -4307    -6243    -2593     4684     8094     3470    -2245    -2428 
    1659     6625     9301     7628     2508    -2095    -2424     -318 
    2218     3871     1066    -1618      124      388      453     6272 
    9556     2250    -3962     1190     8932     8040    -1601    -7789 
   -1367     7203     9040     9127     4499    -5994    -7663     2412 
   10011     8005     2482     1236     3060     3190     1561      581 
    2182     5278     5653      792    -5004    -4102     1962     6160 
    7406     4986     1139     1490     1887     -637     -334     2278 
    2824     1846     2833     6397     6176     1861     2016     4212 
    1409    -1948    -1609      854     3622     3584     2766     4737 
    3743      834     4132     6740     2641      283     1512     1937 
    1900      321    -1213     1420     3661     2876     3225     2353 
     415     2694     3572     1719     5316     7199     1377     -650 
    2107     1170     -868      764     4063     4567     2189     1240 
    1726     2304     4511     5575     3142     2349     4912     4349 
     199     -765      444      402     2026     3281      800      287 
    2953     2898     1598     1815      900     1048     4429     5344 
    3391     3634     4233     2724     1015      778     2949     5017 
    4168     3318     3704     1984     -959       71     3948     3901 
    1140      742      908      502      978     1043      236      772 
    3200     4014     2516     2749     3861     3400     3464     3773 
    2766     1937     1860     2330     3499     3526     2585     3889 
    4816     1495     -965      764     2247     2621     3619     3160 
    1494     1690     2346     1277      265      739     1506      996 
     400     2100     3933     3537     3792     4915     3883     2874 
    3164     2523     3246     4379     1283     -685     1950     3092 
    3402     4781     2845      137      801     1894     2317     2151 
     997     1381     2448     2056     2342     2245      237      368 
    3017     4282     4329     4455     3218     1013     1115     3483 
    4212     2467     1024      801     1240     2467     3339     2512 
    1250     1224     2284     3789     4691     3429      994      498 
    1988     3136     3257     2559     1745     1975     2818     3397 
    3358     1710      -86     1339     3447     2316     1377     2843 
    3379     2573     2308     2548     2978     2809     1503      926 
    2091     3441     3804     3146     2030     1302     1466     2560 
    3512     2848     1255      961     2089     2826     2459     1594 
    1266     2322     3653     3250     2106     2166     2419     2255 
    2496     2806     2824     2269     1952     2698     2049      654 
    1809     2826     1912     1730     2087     2281     2979     3194 
    2830     2864     2677     2673     3632     3569     2281     1838 
    2095     2934     3466     1718      183     1283     2539     2666 
    2416     1830     1964     2880     2509     1815     2751     2889 
    1440     1262     1868     2110     2910     2937     2091     2882 
    3618     1825      615     2214     3645     2778     1440     1715 
    2803     3238     3045     2481     2254     2513     2143     1790 
    2215     2107     1668     1894     2118     2527     3202     2857 
    2200     2523     3019     2671     1772     1825     2710     2586 
    2074     2323     2643     2729     2336     1868     2209     2192 
    1791     2411     2562     1559     1435     2099     2586     3103 
    3049     2482     2439     2617     2542     2311     2192     2825 
    3335     2693     2324     2508     2135     2097     2794     2893 
    2122     1451     1512     1949     2158     2087     1831     1512 
    1514     1938     2296     2474     2944     3532     3580     2884 
    1613      946     1979     3250     3153     2269     1493     1659 
    2889     3468     2648     1993     2353     2907     2972     2443 
    1796     1749     2000     2189     2585     2670     2308     2251 
    2204     2103     2477     2475     1811     1707     2316     2736 
    2733     2593     2292     2081     2540     3153     2890     2100 
    1846     2170     2675     3168     2937     2208     2147     2133 
    1691     1979     2513     2280     2092     2239     2118     1894 
    1988     2270     2305     2111     2157     2455     2660     2673 
    2562     2493     2484     2401     2342     2247     1987     1858 
    1898     1991     2309     2641     2789     2845     2771     2787 
    2979     2859     2353     2130     2436     2560     2246     2019 
