Origin Time       2024/04/21 06:19:00
Lat.              34.232
Long.             135.137
Depth. (km)       7
Mag.              2.9
Station Code      WKY001
Station Lat.      34.2293
Station Long.     135.1694
Station Height(m) 11
Record Time       2024/04/21 06:19:23
Sampling Freq(Hz) 100Hz
Duration Time(s)  60
Dir.              N-S
Scale Factor      7845(gal)/8223790
Max. Acc. (gal)   161.754
Last Correction   2024/04/21 06:19:22
Memo.             
[...]
   -6540    -6539    -6534    -6531    -6525    -6523    -6534    -6546 
   -6538    -6529    -6525    -6523    -6529    -6535    -6534    -6532 
   -6524    -6525    -6542    -6538    -6524    -6525    -6523    -6531 
   -6546    -6527    -6513    -6527    -6531    -6529    -6531    -6519 
   -6516    -6531    -6532    -6525    -6532    -6540    -6534    -6527 
   -6532    -6529    -6523    -6534    -6543    -6539    -6535    -6529 
   -6521    -6528    -6534    -6523    -6525    -6535    -6535    -6539 
   -6547    -6546    -6535    -6521    -6520    -6529    -6539    -6539 
   -6527    -6516    -6521    -6535    -6543    -6534    -6525    -6536 
   -6538    -6531    -6539    -6535    -6523    -6529    -6527    -6519 
   -6529    -6536    -6527    -6529    -6535    -6527    -6527    -6534 
   -6528    -6523    -6524    -6528    -6538    -6546    -6544    -6546 
   -6542    -6521    -6512    -6523    -6531    -6534    -6529    -6525 
   -6531    -6528    -6521    -6531    -6531    -6523    -6529    -6532 
   -6521    -6525    -6544    -6540    -6516    -6521    -6544    -6542 
   -6534    -6534    -6529    -6527    -6525    -6523    -6527    -6524 
   -6527    -6544    -6543    -6524    -6527    -6536    -6529    -6521 
   -6532    -6538    -6525    -6527    -6540    -6540    -6540    -6540 
   -6531    -6527    -6529    -6532    -6531    -6532    -6546    -6546 
   -6528    -6523    -6524    -6529    -6539    -6540    -6528    -6521 
   -6524    -6528    -6527    -6523    -6523    -6528    -6532    -6527 
   -6524    -6529    -6529    -6528    -6527    -6521    -6519    -6516 
   -6515    -6524    -6532    -6532    -6532    -6536    -6534    -6528 
   -6532    -6534    -6531    -6539    -6540    -6535    -6534    -6532 
   -6536    -6544    -6542    -6532    -6524    -6523    -6521    -6521 
   -6531    -6534    -6525    -6532    -6544    -6539    -6528    -6525 
   -6529    -6535    -6532    -6524    -6524    -6529    -6525    -6525 
   -6529    -6532    -6535    -6539    -6543    -6539    -6524    -6523 
   -6532    -6528    -6524    -6528    -6524    -6520    -6529    -6528 
   -6519    -6521    -6527    -6523    -6519    -6520    -6524    -6531 
   -6534    -6534    -6540    -6543    -6547    -6552    -6540    -6527 
   -6531    -6532    -6528    -6527    -6529    -6535    -6535    -6529 
   -6529    -6531    -6525    -6523    -6527    -6524    -6520    -6525 
   -6527    -6520    -6524    -6539    -6547    -6538    -6525    -6527 
   -6535    -6540    -6538    -6524    -6515    -6523    -6538    -6544 
   -6540    -6539    -6539    -6535    -6535    -6535    -6532    -6528 
   -6523    -6523    -6524    -6523    -6525    -6532    -6528    -6521 
   -6529    -6542    -6535    -6523    -6528    -6538    -6538    -6534 
   -6532    -6535    -6529    -6531    -6538    -6535    -6529    -6532 
   -6527    -6515    -6519    -6529    -6527    -6528    -6529    -6527 
   -6531    -6529    -6524    -6528    -6536    -6532    -6529    -6535 
   -6540    -6536    -6532    -6539    -6542    -6532    -6525    -6528 
   -6535    -6534    -6524    -6520    -6532    -6543    -6539    -6532 
   -6524    -6521    -6529    -6532    -6528    -6529    -6535    -6534 
   -6525    -6519    -6520    -6525    -6525    -6531    -6539    -6535 
   -6525    -6519    -6513    -6517    -6527    -6528    -6532    -6531 
   -6525    -6525    -6534    -6540    -6536    -6535    -6536    -6532 
   -6528    -6528    -6529    -6536    -6542    -6536    -6540    -6546 
   -6532    -6519    -6529    -6539    -6534    -6539    -6551    -6544 
   -6534    -6531    -6529    -6528    -6528    -6528    -6517    -6502 
   -6516    -6539    -6531    -6508    -6513    -6536    -6538    -6528 
   -6529    -6531    -6534    -6540    -6539    -6535    -6539    -6536 
   -6525    -6528    -6536    -6536    -6534    -6529    -6529    -6539 
   -6542    -6527    -6509    -6511    -6534    -6536    -6520    -6520 
   -6531    -6532    -6538    -6543    -6525    -6519    -6540    -6539 
   -6516    -6523    -6544    -6538    -6521    -6531    -6542    -6531 
   -6527    -6540    -6540    -6528    -6523    -6531    -6531    -6525 
   -6535    -6538    -6517    -6512    -6538    -6548    -6527    -6519 
   -6529    -6529    -6524    -6527    -6532    -6528    -6523    -6535 
   -6546    -6532    -6524    -6531    -6534    -6529    -6528    -6528 
   -6528    -6535    -6540    -6523    -6521    -6548    -6551    -6532 
   -6525    -6521    -6512    -6519    -6535    -6528    -6523    -6535 
   -6534    -6517    -6520    -6535    -6540    -6525    -6515    -6523 
   -6540    -6543    -6536    -6538    -6527    -6511    -6539    -6555 
   -6521    -6512    -6532    -6540    -6535    -6529    -6535    -6532 
   -6517    -6529    -6544    -6531    -6531    -6544    -6527    -6500 
   -6515    -6552    -6552    -6524    -6519    -6531    -6531    -6527 
   -6531    -6529    -6519    -6520    -6539    -6547    -6535    -6517 
   -6517    -6523    -6520    -6525    -6539    -6534    -6523    -6524 
   -6534    -6540    -6536    -6527    -6519    -6512    -6521    -6534 
   -6531    -6527    -6532    -6544    -6555    -6551    -6538    -6523 
   -6521    -6534    -6538    -6532    -6529    -6528    -6525    -6524 
   -6528    -6535    -6535    -6524    -6521    -6521    -6516    -6523 
   -6536    -6534    -6528    -6529    -6529    -6535    -6536    -6529 
   -6527    -6529    -6538    -6550    -6539    -6513    -6512    -6529 
   -6535    -6528    -6531    -6531    -6524    -6523    -6528    -6531 
   -6523    -6521    -6534    -6534    -6525    -6524    -6525    -6534 
   -6540    -6534    -6525    -6531    -6538    -6531    -6529    -6540 
   -6538    -6525    -6527    -6538    -6543    -6536    -6529    -6535 
   -6532    -6521    -6529    -6540    -6535    -6536    -6543    -6532 
   -6512    -6511    -6540    -6563    -6529    -6489    -6515    -6551 
   -6534    -6515    -6527    -6524    -6516    -6536    -6544    -6525 
   -6527    -6542    -6538    -6521    -6525    -6538    -6536    -6521 
   -6521    -6531    -6528    -6523    -6536    -6540    -6521    -6517 
   -6531    -6534    -6532    -6538    -6534    -6516    -6516    -6532 
   -6542    -6543    -6542    -6538    -6532    -6529    -6519    -6520 
   -6539    -6550    -6544    -6527    -6513    -6527    -6550    -6546 
   -6529    -6529    -6529    -6528    -6536    -6529    -6517    -6523 
   -6531    -6532    -6535    -6531    -6525    -6524    -6520    -6528 
   -6538    -6529    -6525    -6538    -6539    -6529    -6521    -6515 
   -6516    -6527    -6534    -6539    -6542    -6538    -6532    -6529 
   -6528    -6521    -6521    -6532    -6531    -6521    -6525    -6532 
   -6532    -6531    -6534    -6532    -6527    -6528    -6532    -6531 
   -6529    -6536    -6534    -6521    -6523    -6529    -6531    -6529 
   -6534    -6531    -6519    -6520    -6540    -6547    -6547    -6552 
   -6540    -6519    -6517    -6521    -6521    -6527    -6535    -6535 
   -6536    -6532    -6525    -6524    -6524    -6524    -6529    -6532 
   -6524    -6520    -6531    -6539    -6536    -6536    -6532    -6521 
   -6517    -6523    -6532    -6540    -6536    -6523    -6523    -6532 
   -6532    -6528    -6523    -6521    -6532    -6540    -6535    -6534 
   -6531    -6524    -6524    -6532    -6532    -6525    -6532    -6542 
   -6536    -6529    -6529    -6529    -6527    -6529    -6531    -6528 
   -6532    -6535    -6524    -6519    -6527    -6524    -6513    -6520 
   -6538    -6540    -6535    -6540    -6542    -6524    -6519    -6534 
   -6540    -6540    -6538    -6534    -6532    -6532    -6529    -6527 
   -6527    -6531    -6535    -6527    -6520    -6527    -6527    -6520 
   -6524    -6528    -6528    -6528    -6523    -6525    -6534    -6531 
   -6527    -6525    -6525    -6529    -6520    -6512    -6529    -6543 
   -6540    -6534    -6528    -6528    -6539    -6538    -6517    -6513 
   -6534    -6539    -6531    -6538    -6543    -6539    -6536    -6529 
   -6524    -6521    -6519    -6523    -6538    -6546    -6535    -6524 
   -6534    -6539    -6538    -6539    -6534    -6524    -6525    -6532 
   -6532    -6519    -6508    -6520    -6532    -6519    -6509    -6525 
   -6546    -6539    -6523    -6532    -6543    -6532    -6528    -6529 
   -6527    -6532    -6535    -6525    -6527    -6531    -6531    -6532 
   -6535    -6535    -6529    -6525    -6528    -6532    -6538    -6540 
   -6525    -6513    -6519    -6527    -6534    -6532    -6524    -6524 
   -6532    -6535    -6529    -6531    -6536    -6524    -6521    -6536 
   -6543    -6546    -6544    -6525    -6515    -6524    -6535    -6539 
   -6542    -6534    -6521    -6524    -6538    -6534    -6519    -6519 
   -6531    -6534    -6524    -6519    -6525    -6531    -6525    -6520 
   -6529    -6536    -6532    -6529    -6528    -6532    -6538    -6534 
   -6531    -6542    -6550    -6539    -6517    -6516    -6532    -6532 
   -6528    -6528    -6527    -6532    -6535    -6525    -6524    -6531 
   -6532    -6525    -6521    -6532    -6543    -6543    -6538    -6529 
   -6517    -6519    -6529    -6534    -6532    -6532    -6531    -6524 
   -6519    -6528    -6535    -6536    -6532    -6523    -6527    -6536 
   -6529    -6519    -6512    -6524    -6548    -6540    -6523    -6529 
   -6534    -6532    -6538    -6542    -6539    -6531    -6521    -6521 
   -6527    -6529    -6534    -6536    -6534    -6532    -6539    -6539 
   -6525    -6511    -6511    -6525    -6539    -6540    -6529    -6528 
   -6540    -6538    -6521    -6521    -6529    -6534    -6540    -6532 
   -6525    -6532    -6534    -6531    -6534    -6535    -6535    -6538 
   -6538    -6528    -6516    -6519    -6531    -6529    -6525    -6535 
   -6539    -6529    -6519    -6517    -6528    -6535    -6532    -6535 
   -6536    -6525    -6523    -6525    -6525    -6528    -6534    -6528 
   -6520    -6524    -6538    -6542    -6535    -6524    -6525    -6538 
   -6542    -6532    -6520    -6517    -6524    -6531    -6535    -6539 
   -6542    -6534    -6523    -6525    -6535    -6532    -6519    -6519 
   -6535    -6540    -6528    -6517    -6523    -6539    -6543    -6534 
   -6532    -6532    -6523    -6528    -6546    -6540    -6523    -6525 
   -6539    -6538    -6534    -6532    -6531    -6534    -6523    -6509 
   -6525    -6550    -6540    -6523    -6520    -6521    -6524    -6527 
   -6520    -6521    -6535    -6538    -6532    -6528    -6528    -6540 
   -6536    -6516    -6523    -6542    -6543    -6535    -6531    -6531 
   -6529    -6531    -6536    -6539    -6532    -6523    -6521    -6525 
   -6529    -6536    -6544    -6538    -6521    -6521    -6528    -6524 
   -6523    -6527    -6525    -6531    -6535    -6521    -6519    -6532 
   -6542    -6544    -6539    -6531    -6531    -6525    -6524    -6535 
   -6540    -6538    -6534    -6527    -6529    -6536    -6534    -6527 
   -6523    -6525    -6532    -6529    -6527    -6529    -6521    -6519 
   -6532    -6540    -6542    -6536    -6527    -6524    -6524    -6520 
   -6523    -6536    -6546    -6544    -6543    -6540    -6531    -6525 
   -6529    -6534    -6532    -6528    -6524    -6520    -6520    -6521 
   -6521    -6523    -6525    -6528    -6529    -6531    -6534    -6538 
   -6543    -6540    -6534    -6535    -6540    -6544    -6544    -6539 
   -6535    -6529    -6523    -6529    -6540    -6535    -6527    -6527 
   -6525    -6521    -6521    -6527    -6534    -6538    -6534    -6524 
   -6521    -6523    -6520    -6521    -6527    -6538    -6548    -6548 
   -6538    -6531    -6525    -6521    -6521    -6525    -6532    -6540 
   -6539    -6529    -6528    -6524    -6515    -6519    -6536    -6547 
   -6542    -6532    -6525    -6529    -6534    -6529    -6525    -6528 
   -6536    -6539    -6529    -6531    -6540    -6534    -6525    -6529 
   -6529    -6521    -6515    -6516    -6531    -6539    -6538    -6539 
   -6536    -6527    -6532    -6536    -6529    -6534    -6542    -6539 
   -6534    -6534    -6525    -6517    -6524    -6534    -6538    -6531 
   -6517    -6524    -6535    -6527    -6524    -6531    -6528    -6529 
   -6536    -6539    -6534    -6528    -6521    -6516    -6523    -6535 
   -6536    -6536    -6546    -6554    -6551    -6532    -6516    -6515 
   -6525    -6528    -6515    -6512    -6525    -6538    -6540    -6538 
   -6535    -6527    -6519    -6521    -6523    -6527    -6546    -6558 
   -6554    -6544    -6534    -6524    -6528    -6540    -6548    -6543 
   -6528    -6516    -6515    -6523    -6534    -6529    -6517    -6519 
   -6529    -6535    -6486    -6151    -5445    -6212   -10412   -11368 
    -711     5682   -12691   -25978     -344    17146   -12492   -30388 
   -2538    14261    -8257   -22917    -5863     2478    -9738    -4916 
    8334    -9765   -31878    -8681    19862    -7180   -33764     3975 
   25316   -27186   -48832    13572    41312   -13636   -38237    -6623 
     660    -6856     1312    -8279   -14629     2473    -6663   -18311 
   -1564    -1510    -8209    -6999   -14278    -6014     2928   -14102 
  -14216     5441    -1047   -12847    -5144    -7308   -10328     2536 
     797   -12204   -15333   -15491    -4591     8950    -1915   -18405 
  -19133    -6157     8386     -919   -14724    -5093     -425   -10443 
  -12086    -8656    -8050    -2301     -102    -6689    -9659   -12861 
   -9207     2589    -5454   -16954    -5159     8077    -1667   -23450 
  -15584    11472     9995    -8488   -25393   -14571    51449    60034 
  -84785  -176094   -21774   148398    92772   -50295   -93529   -32973 
   31318    -8124   -64108    25471   110263     7638   -97160   -58325 
    -895    17227    20579    -3915   -11448     3271   -30920   -43343 
   27990    42585   -34435   -49906    11836    30152    -5148   -18760 
    2149    10716   -22335   -49022   -16222    20753     9525   -11249 
  -21208   -25802   -17253     2045    33885    48177    -4625   -67616 
  -50395     6250    20880    -1537   -12675     2158     2855   -21336 
  -19969     1181    -7163   -22226    -3893    17454     4307   -21834 
  -26678   -10801     5265     2790    -7669     3650    14293   -11430 
  -34312   -19885    -4371    -7904    -4860     9126     6694   -17386 
  -29142   -12664     2274     1410     4965     7705   -11065   -26392 
  -14173      634     4519     4723    -4233   -17023   -18609    -9690 
    -274      849    -7499   -11314    -1499      460   -16551   -21255 
   -5034      -17    -8492    -7550    -2045    -4969    -7253    -2374 
   -1489    -9090   -14040    -8525     -796    -3072   -10218   -11677 
  -10145    -7252    -3231    -3653    -5872    -5931    -6567    -6851 
   -6403    -7207    -5918    -1074     -766    -9259   -15003   -10046 
   -4943    -6894    -7268    -2984    -4374   -10056    -6100     2485 
    -673   -11161   -14166    -9348    -6242    -6551    -4139    -1790 
   -5902   -12171   -14073    -9236    -1813       18    -3726    -8046 
   -9513    -7574    -5806    -4973    -5359    -8217    -8283    -4988 
   -6480   -11013    -8869    -2963    -4762   -11059    -9383    -2748 
   -2127    -5632    -5347    -3254    -6654   -10682    -6644    -2396 
   -5487    -8644    -7674    -6590    -7815    -9367    -7717    -4617 
   -5729    -8874    -8216    -6853    -8008    -7375    -3927    -2448 
   -4220    -5995    -6142    -5501    -5591    -7360    -8739    -7794 
   -6912    -7014    -5904    -5204    -6632    -7979    -9292    -9568 
   -5636    -1667    -3302    -7636    -8857    -6932    -6551    -8356 
   -9400    -8721    -5796    -2334    -1962    -4429    -6686    -7223 
   -8496   -10563    -8143    -3840    -3963    -6000    -6937    -6531 
   -5580    -6532    -7796    -6863    -6396    -8473    -9617    -6812 
   -3712    -4703    -7604    -7921    -5894    -5620    -7832    -7928 
   -5005    -3701    -4533    -5193    -6604    -7738    -5856    -4148 
   -6242    -9018    -9548    -8363    -6060    -4410    -5431    -8525 
  -10277    -8222    -5710    -6018    -6789    -6552    -6293    -6386 
   -7102    -7273    -6045    -4962    -4957    -5915    -6916    -6415 
   -5092    -4675    -5051    -5860    -6949    -7192    -6898    -7092 
   -6983    -6612    -6909    -7750    -7584    -5996    -6390    -8664 
   -8287    -6002    -5510    -6203    -5421    -3917    -5086    -8294 
   -8934    -6953    -5810    -5439    -5463    -6700    -7452    -6905 
   -6959    -7049    -5714    -5113    -6170    -6767    -6351    -6359 
   -7331    -6976    -5228    -5850    -8360    -9305    -8549    -6736 
   -4688    -5032    -7454    -8291    -7106    -5992    -5655    -6228 
   -6714    -5683    -4486    -4882    -5890    -6363    -7072    -8068 
   -7487    -5934    -6232    -7281    -6389    -4918    -5269    -6627 
   -7052    -7051    -7484    -7199    -6239    -6145    -6951    -7561 
   -7045    -6272    -6828    -7227    -6216    -5904    -6787    -6847 
   -5867    -5373    -5787    -6168    -5896    -5977    -7065    -7173 
   -6242    -6583    -7150    -6740    -6717    -7570    -8395    -7766 
   -6354    -6262    -6694    -6432    -6196    -6181    -6161    -6133 
   -5590    -4982    -5404    -5958    -6380    -7485    -7704    -6489 
   -5895    -6135    -6138    -6439    -7203    -7061    -6399    -6524 
   -6521    -6120    -6439    -6721    -6578    -6966    -7091    -6782 
   -7261    -7663    -7172    -6525    -5728    -5260    -6023    -6967 
   -7075    -6507    -5757    -6049    -6995    -6778    -5823    -5614 
   -6374    -7161    -6856    -6309    -7042    -7805    -6858    -5783 
   -6480    -7254    -6297    -5389    -6261    -7325    -6650    -5374 
   -5907    -7411    -7213    -6268    -6682    -7094    -6430    -5787 
   -5661    -6579    -8040    -7792    -6288    -5738    -6029    -6199 
   -6093    -6106    -6446    -6717    -6554    -5972    -5834    -6578 
   -6871    -6255    -6174    -6829    -6906    -6393    -6156    -6338 
   -6817    -7250    -7385    -7352    -7103    -6862    -6930    -6804 
   -6293    -6177    -6505    -6291    -5829    -6412    -7001    -6168 
   -5624    -6562    -7383    -6953    -5994    -5880    -6664    -6751 
   -6068    -6396    -7330    -6988    -6192    -6412    -6528    -5798 
   -5734    -6821    -7331    -6647    -6000    -5957    -6320    -6636 
   -6502    -6408    -6586    -6736    -6947    -7114    -6893    -6300 
   -6049    -6725    -7317    -6990    -6704    -6976    -7109    -6670 
   -6278    -6574    -6705    -5914    -5170    -5377    -5994    -6161 
   -6065    -6170    -6319    -6475    -6867    -7314    -7356    -6982 
   -6772    -7026    -7111    -6628    -6257    -6297    -6401    -6409 
   -6280    -6301    -6450    -6219    -6102    -6600    -6913    -6723 
   -6763    -7087    -6895    -6268    -6277    -6953    -7163    -6590 
   -6138    -6280    -6326    -6060    -6004    -6039    -6093    -6463 
   -6918    -7022    -6786    -6636    -6772    -6925    -6681    -6230 
   -6336    -6737    -6592    -6363    -6496    -6289    -5880    -6138 
   -6678    -6660    -6245    -6243    -6866    -7142    -6683    -6515 
   -6889    -6889    -6475    -6394    -6696    -6770    -6443    -6316 
   -6529    -6388    -5952    -6050    -6654    -7067    -6939    -6444 
   -6261    -6628    -6867    -6768    -6687    -6632    -6601    -6535 
   -6432    -6718    -7053    -6585    -5908    -6035    -6436    -6280 
