Origin Time       2024/06/23 22:54:00
Lat.              35.645
Long.             140.060
Depth. (km)       72
Mag.              4.1
Station Code      CHBH11
Station Lat.      35.2867
Station Long.     140.1529
Station Height(m) -1920
Record Time       2024/06/23 22:54:36
Sampling Freq(Hz) 100Hz
Duration Time(s)  120
Dir.              1
Scale Factor      2942(gal)/8224139
Max. Acc. (gal)   0.722
Last Correction   2024/06/23 22:54:36
Memo.             
[...]
  220783   220784   220783   220781   220783   220783   220785   220785 
  220781   220783   220784   220784   220781   220779   220780   220783 
  220784   220783   220783   220784   220785   220783   220781   220784 
  220784   220783   220783   220783   220781   220783   220784   220784 
  220781   220781   220785   220788   220783   220783   220784   220781 
  220783   220785   220784   220784   220784   220783   220784   220784 
  220784   220784   220784   220785   220783   220781   220784   220784 
  220783   220784   220785   220784   220784   220783   220784   220784 
  220783   220785   220785   220781   220783   220785   220785   220785 
  220784   220784   220783   220780   220781   220783   220783   220784 
  220784   220785   220785   220784   220781   220783   220784   220784 
  220785   220784   220783   220785   220787   220784   220784   220784 
  220784   220784   220784   220785   220785   220785   220784   220783 
  220783   220785   220785   220784   220785   220785   220783   220783 
  220783   220783   220783   220781   220783   220785   220784   220781 
  220783   220784   220785   220785   220783   220783   220785   220784 
  220783   220787   220785   220783   220784   220785   220785   220785 
  220784   220781   220783   220785   220783   220784   220785   220787 
  220784   220783   220784   220783   220781   220784   220784   220783 
  220784   220785   220784   220784   220787   220785   220784   220785 
  220787   220783   220780   220784   220785   220785   220785   220785 
  220784   220785   220785   220783   220783   220785   220785   220783 
  220781   220783   220784   220784   220783   220785   220784   220783 
  220784   220784   220783   220785   220785   220784   220784   220785 
  220785   220785   220783   220783   220783   220783   220784   220784 
  220784   220785   220785   220783   220780   220780   220783   220783 
  220781   220783   220784   220783   220783   220787   220785   220780 
  220783   220785   220784   220784   220783   220784   220784   220784 
  220784   220785   220785   220785   220784   220783   220784   220784 
  220781   220783   220785   220785   220783   220784   220785   220784 
  220783   220784   220784   220783   220783   220784   220781   220781 
  220785   220787   220783   220784   220785   220783   220783   220781 
  220781   220781   220780   220781   220784   220781   220781   220783 
  220781   220781   220784   220781   220781   220784   220783   220781 
  220784   220784   220781   220783   220783   220780   220780   220781 
  220783   220784   220781   220780   220781   220781   220781   220781 
  220781   220783   220783   220781   220781   220783   220780   220779 
  220780   220784   220784   220781   220781   220783   220781   220781 
  220781   220781   220781   220780   220780   220781   220780   220780 
  220781   220781   220781   220783   220781   220783   220785   220783 
  220781   220785   220784   220781   220780   220781   220783   220781 
  220780   220783   220784   220784   220783   220781   220784   220784 
  220780   220781   220783   220783   220783   220783   220781   220783 
  220784   220783   220781   220783   220783   220784   220783   220780 
  220781   220785   220784   220781   220780   220783   220784   220784 
  220783   220783   220783   220783   220784   220784   220781   220783 
  220785   220785   220783   220784   220784   220781   220781   220783 
  220781   220783   220785   220784   220783   220785   220784   220783 
  220784   220784   220781   220783   220784   220785   220787   220784 
  220783   220784   220785   220784   220784   220784   220783   220783 
  220785   220785   220783   220785   220784   220780   220783   220784 
  220781   220781   220784   220784   220784   220784   220783   220784 
  220787   220784   220781   220784   220785   220783   220785   220785 
  220784   220783   220784   220784   220783   220784   220785   220784 
  220781   220784   220788   220785   220783   220783   220785   220787 
  220783   220781   220784   220787   220785   220787   220787   220784 
  220781   220785   220787   220785   220785   220787   220784   220784 
  220785   220785   220787   220787   220788   220787   220783   220785 
  220788   220784   220783   220785   220787   220787   220785   220785 
  220787   220785   220785   220787   220785   220785   220785   220787 
  220787   220784   220784   220784   220784   220784   220785   220785 
  220785   220785   220785   220785   220787   220784   220783   220785 
  220785   220783   220784   220784   220783   220784   220784   220783 
  220784   220787   220787   220784   220783   220783   220785   220784 
  220785   220785   220783   220784   220785   220784   220783   220784 
  220784   220781   220781   220783   220784   220785   220785   220785 
  220785   220785   220783   220783   220785   220784   220783   220784 
  220784   220784   220785   220783   220781   220783   220783   220784 
  220783   220781   220783   220781   220781   220783   220783   220783 
  220784   220783   220784   220784   220781   220783   220785   220784 
  220784   220783   220783   220784   220785   220784   220783   220783 
  220781   220779   220781   220783   220780   220780   220784   220785 
  220785   220783   220783   220781   220783   220783   220783   220783 
  220785   220785   220783   220780   220780   220781   220781   220781 
  220783   220783   220781   220780   220780   220781   220784   220784 
  220784   220784   220783   220783   220784   220783   220781   220781 
  220784   220785   220783   220780   220783   220784   220784   220781 
  220779   220781   220784   220781   220780   220779   220773   220770 
  220772   220764   220757   220760   220764   220773   220792   220810 
  220819   220814   220797   220784   220780   220783   220784   220776 
  220754   220731   220725   220737   220760   220787   220801   220806 
  220808   220807   220781   220739   220730   220764   220792   220791 
  220781   220796   220860   220911   220893   220914   221047   221042 
  220685   220348   220405   220588   220719   220984   221138   220918 
  220626   220511   220634   220876   220934   220845   220815   220919 
  220977   220746   220544   220536   220467   220565   220914   221143 
  221150   220907   220590   220561   220764   220928   220961   220963 
  220914   220600   220355   220579   220882   220988   221077   221016 
  220687   220338   220261   220607   221044   221111   220877   220653 
  220611   220707   220801   220909   220953   220846   220727   220704 
  220774   220837   220841   220864   220855   220766   220723   220730 
  220735   220765   220727   220665   220766   220877   220833   220824 
  220927   220893   220634   220483   220625   220783   220866   220990 
  221008   220858   220747   220742   220783   220823   220784   220696 
  220668   220707   220770   220815   220865   220885   220824   220823 
  220873   220838   220770   220679   220592   220684   220878   220926 
  220780   220617   220650   220847   220895   220712   220596   220668 
  220780   220878   220966   220957   220785   220564   220573   220874 
  221090   220988   220828   220734   220606   220585   220691   220750 
  220843   220989   220962   220707   220538   220703   220943   220957 
  220849   220752   220631   220573   220703   220884   220915   220900 
  220923   220796   220603   220635   220723   220666   220700   220864 
  220934   220877   220749   220629   220648   220847   221059   221074 
  220928   220730   220522   220471   220666   220888   220963   220972 
  220922   220766   220676   220746   220788   220712   220665   220746 
  220889   220915   220776   220671   220683   220714   220789   220872 
  220803   220698   220783   220972   220995   220838   220730   220708 
  220699   220773   220839   220780   220754   220769   220654   220591 
  220746   220847   220773   220793   220934   220949   220800   220590 
  220422   220434   220633   220891   221134   221273   221227   221009 
  220661   220365   220390   220673   220973   221132   221078   220909 
  220737   220576   220554   220706   220866   220931   220824   220608 
  220572   220747   220847   220865   220939   220912   220741   220657 
  220615   220529   220656   220980   221108   220954   220799   220830 
  220924   220868   220700   220612   220617   220681   220799   220843 
  220754   220644   220615   220702   220884   221039   220970   220725 
  220629   220706   220715   220695   220780   220838   220777   220787 
  220927   220989   220864   220708   220708   220799   220804   220718 
  220641   220596   220583   220658   220769   220801   220822   220881 
  220914   220919   220899   220758   220585   220635   220838   220950 
  221004   221043   220911   220630   220464   220506   220680   220869 
  220881   220720   220584   220552   220649   220820   220949   221077 
  221224   221263   221198   221074   220833   220542   220419   220504 
  220666   220769   220737   220677   220741   220831   220838   220783 
  220677   220548   220463   220464   220549   220702   220868   221027 
  221169   221182   221078   220988   220897   220783   220725   220785 
  220858   220789   220712   220773   220742   220575   220644   220963 
  221098   220927   220737   220654   220558   220456   220519   220749 
  220907   220861   220761   220718   220649   220590   220650   220772 
  220873   220922   220878   220830   220854   220845   220791   220815 
  220881   220891   220866   220826   220792   220765   220673   220604 
  220642   220652   220630   220644   220592   220565   220650   220700 
  220768   220976   221161   221182   221115   221043   220920   220776 
  220733   220753   220770   220801   220754   220615   220602   220719 
  220756   220758   220860   220943   220850   220672   220662   220849 
  220931   220784   220681   220781   220916   220993   221008   220923 
  220797   220718   220696   220675   220541   220364   220357   220513 
  220661   220746   220762   220743   220837   221009   221063   221049 
  221012   220838   220648   220581   220604   220742   220900   220939 
  220935   220909   220823   220727   220646   220654   220753   220800 
  220870   220984   220889   220665   220588   220607   220623   220661 
  220702   220789   220935   220963   220834   220722   220699   220739 
  220849   220949   220974   221005   221063   221034   220842   220683 
  220780   220915   220808   220666   220687   220745   220811   220914 
  220932   220822   220669   220560   220480   220419   220484   220689 
  220862   220858   220760   220793   220938   220942   220766   220584 
  220471   220388   220394   220623   220953   221061   220905   220789 
  220909   221059   221035   220989   220953   220769   220569   220491 
  220469   220513   220623   220715   220827   220984   221089   221142 
  221167   221138   221063   220922   220807   220909   221035   220865 
  220560   220490   220638   220683   220599   220664   220853   220905 
  220850   220837   220828   220769   220662   220573   220594   220671 
  220708   220727   220761   220762   220687   220568   220455   220380 
  220448   220660   220857   220934   220953   220997   220977   220926 
  221023   221165   221185   221093   220872   220630   220548   220618 
  220735   220846   220924   220914   220799   220681   220622   220607 
  220685   220815   220831   220684   220500   220504   220741   220918 
  220934   220977   221005   220959   220909   220787   220615   220557 
  220614   220793   221046   221162   221123   221022   220914   220895 
  220891   220779   220608   220410   220270   220314   220507   220692 
  220733   220722   220804   220812   220646   220514   220552   220753 
  220999   221108   221115   221182   221279   221229   221011   220810 
  220703   220619   220662   220849   220901   220801   220738   220653 
  220531   220526   220623   220664   220658   220757   220861   220816 
  220828   220982   220966   220742   220656   220720   220679   220568 
  220554   220565   220506   220517   220722   220972   221030   220895 
  220815   220931   221053   221012   220909   220776   220585   220575 
  220849   221071   221009   220865   220850   220903   220941   220961 
  220861   220639   220541   220599   220595   220569   220633   220691 
  220723   220793   220873   220950   221000   220946   220831   220710 
  220569   220496   220549   220630   220696   220715   220695   220710 
  220706   220684   220791   220984   221098   221055   220916   220849 
  220842   220765   220710   220826   220977   220942   220777   220661 
  220600   220553   220583   220731   220922   221065   221104   221031 
  220934   220914   220926   220843   220656   220503   220491   220567 
  220648   220765   220815   220699   220654   220754   220756   220750 
  220885   220963   221015   221220   221352   221251   221108   220972 
  220793   220580   220305   220097   220172   220419   220612   220793 
  221023   221162   221105   220955   220857   220818   220769   220662 
  220479   220282   220243   220409   220604   220762   220989   221188 
  221171   221001   220823   220703   220679   220723   220820   220923 
  220895   220770   220648   220418   220124   219987   220083   220421 
  220873   221136   221067   220837   220731   220824   221015   221319 
  221613   221606   221331   220980   220590   220274   220197   220314 
  220506   220776   221152   221562   221918   222191   222292   222205 
  222014   221711   221287   220810   220291   219807   219457   219144 
  218825   218764   219105   219616   220048   220386   220714   221026 
  221221   221240   221201   221294   221518   221611   221283   220571 
  219913   219744   220149   220855   221351   221321   221024   220897 
  220934   220791   220376   220010   220036   220556   221427   222308 
  222799   222588   221659   220490   219689   219427   219495   219627 
  219663   219750   220180   220896   221580   222081   222359   222319 
  221883   221175   220509   220106   219987   220062   220131   220085 
  220078   220264   220644   221197   221745   221941   221836   221884 
  222153   222253   221962   221366   220712   220193   219738   219281 
  218995   219060   219507   220286   221198   221876   222019   221614 
  220965   220509   220355   220180   219747   219240   218987   219103 
  219477   220058   220846   221633   222174   222450   222540   222550 
  222609   222590   222183   221402   220558   219840   219385   219267 
  219237   219125   219225   219694   220278   220884   221582   222177 
  222438   222350   221869   220989   220141   219902   220248   220610 
  220684   220707   220953   221359   221676   221667   221274   220727 
  220360   220276   220359   220506   220650   220747   220761   220642 
  220411   220159   220083   220468   221282   222027   222231   221837 
  221196   220754   220627   220688   220831   220843   220533   220048 
  219709   219631   219685   219701   219676   219762   220074   220598 
  221177   221568   221779   222030   222270   222238   221861   221269 
  220675   220279   220104   220032   220023   220079   220183   220342 
  220536   220679   220731   220757   220823   220923   221088   221293 
  221412   221470   221557   221551   221336   220985   220635   220449 
  220515   220729   220924   220963   220737   220330   220081   220168 
  220425   220652   220749   220649   220422   220324   220584   221124 
  221571   221718   221725   221702   221494   221017   220476   220144 
  220098   220233   220446   220656   220734   220595   220325   220128 
  220128   220266   220450   220673   220884   220978   220970   220972 
  221013   221001   220915   220823   220737   220749   220947   221138 
  221062   220766   220526   220521   220720   221032   221335   221478 
  221410   221179   220949   220919   221024   220980   220742   220533 
  220465   220487   220527   220572   220707   220947   221097   220989 
  220766   220664   220669   220602   220421   220284   220306   220446 
  220688   221020   221256   221194   220904   220569   220278   220118 
  220145   220264   220440   220791   221275   221628   221663   221431 
  221076   220737   220550   220577   220720   220804   220743   220618 
  220573   220664   220824   220954   221016   221073   221065   220839 
  220510   220356   220378   220444   220563   220749   220989   221244 
  221422   221498   221498   221350   221062   220831   220726   220635 
  220557   220530   220523   220549   220622   220679   220681   220666 
  220633   220525   220375   220256   220186   220201   220322   220460 
  220511   220488   220514   220687   220958   221217   221425   221537 
  221521   221470   221455   221368   221146   220870   220630   220479 
  220441   220482   220583   220703   220772   220806   220835   220793 
  220689   220668   220766   220865   220873   220795   220660   220538 
  220500   220522   220541   220560   220617   220750   220986   221229 
  221297   221171   220986   220841   220752   220649   220503   220414 
  220407   220414   220495   220752   221071   221252   221300   221362 
  221482   221566   221528   221308   220930   220571   220379   220378 
  220538   220766   220912   220936   220905   220822   220671   220522 
  220418   220317   220226   220268   220471   220658   220716   220675 
  220499   220137   219746   219566   219655   219920   220309   220797 
  221282   221634   221807   221815   221692   221478   221202   220872 
  220506   220230   220193   220348   220557   220745   220873   220963 
  221027   221023   220968   220916   220889   220877   220866   220849 
  220801   220735   220733   220818   220907   220959   221034   221146 
  221174   221074   220970   220931   220928   220918   220838   220725 
  220707   220812   220973   221119   221159   221062   220938   220912 
  220963   220954   220791   220536   220321   220198   220155   220209 
  220330   220440   220563   220716   220806   220787   220691   220554 
  220473   220480   220468   220429   220457   220553   220675   220815 
  220939   220985   220930   220824   220754   220764   220845   220963 
  221090   221205   221244   221200   221163   221188   221238   221256 
  221239   221219   221177   221096   220981   220804   220561   220336 
  220193   220131   220140   220244   220413   220563   220688   220837 
  220982   221028   220932   220745   220557   220449   220499   220718 
  221023   221301   221467   221528   221568   221629   221616   221371 
  220878   220299   219816   219538   219497   219663   219923   220140 
  220288   220452   220702   221015   221290   221428   221366   221155 
  220941   220818   220826   220953   221063   221051   220968   220885 
  220834   220791   220720   220652   220625   220673   220814   220941 
  220946   220876   220781   220610   220390   220256   220271   220376 
  220452   220473   220526   220631   220779   221031   221351   221589 
  221667   221594   221409   221206   221035   220878   220757   220633 
  220423   220189   220032   219985   220063   220255   220475   220654 
  220795   220927   221042   221108   221200   221367   221449   221337 
  221173   221020   220815   220603   220486   220438   220401   220380 
  220409   220500   220695   220978   221271   221529   221698   221665 
  221463   221242   221049   220892   220788   220685   220554   220444 
  220414   220473   220544   220537   220463   220415   220457   220486 
