Origin Time       2024/06/23 22:54:00
Lat.              35.645
Long.             140.060
Depth. (km)       72
Mag.              4.1
Station Code      CHBH13
Station Lat.      35.8307
Station Long.     140.2980
Station Height(m) 12
Record Time       2024/06/23 22:54:35
Sampling Freq(Hz) 100Hz
Duration Time(s)  120
Dir.              4
Scale Factor      7845(gal)/8223790
Max. Acc. (gal)   3.693
Last Correction   2024/06/23 22:54:36
Memo.             
[...]
    -310     -298     -291     -299     -311     -322     -329     -326 
    -319     -328     -338     -332     -311     -288     -297     -324 
    -313     -290     -307     -332     -326     -315     -325     -338 
    -329     -305     -305     -318     -307     -295     -310     -321 
    -317     -309     -310     -326     -332     -317     -314     -325 
    -324     -311     -301     -311     -326     -311     -298     -306 
    -313     -314     -310     -319     -333     -315     -303     -317 
    -325     -317     -305     -307     -318     -314     -303     -310 
    -324     -317     -305     -317     -333     -319     -305     -307 
    -311     -311     -313     -309     -311     -315     -310     -310 
    -325     -333     -324     -314     -319     -324     -311     -302 
    -310     -318     -305     -288     -303     -332     -332     -311 
    -313     -330     -321     -309     -321     -324     -314     -309 
    -305     -310     -314     -307     -314     -324     -314     -313 
    -329     -328     -307     -297     -309     -326     -324     -303 
    -301     -321     -328     -319     -317     -318     -314     -307 
    -309     -319     -321     -318     -314     -313     -313     -305 
    -310     -322     -311     -298     -303     -324     -334     -322 
    -311     -315     -317     -313     -306     -303     -311     -313 
    -307     -311     -325     -332     -324     -318     -318     -317 
    -317     -310     -305     -306     -302     -303     -315     -319 
    -317     -324     -333     -328     -321     -321     -311     -301 
    -299     -299     -306     -314     -315     -322     -325     -322 
    -328     -325     -319     -318     -314     -307     -310     -314 
    -311     -305     -310     -324     -328     -315     -310     -325 
    -326     -314     -315     -318     -315     -321     -322     -313 
    -309     -309     -307     -314     -321     -317     -311     -321 
    -328     -319     -319     -319     -313     -315     -317     -309 
    -310     -311     -301     -306     -330     -337     -322     -317 
    -325     -329     -319     -306     -302     -305     -306     -315 
    -324     -326     -322     -314     -322     -333     -325     -313 
    -313     -309     -301     -306     -318     -318     -317     -324 
    -322     -317     -315     -322     -326     -326     -324     -311 
    -297     -303     -314     -310     -303     -310     -324     -329 
    -325     -319     -324     -326     -319     -313     -309     -305 
    -309     -313     -310     -311     -322     -329     -322     -311 
    -318     -330     -322     -307     -310     -317     -314     -314 
    -319     -325     -319     -302     -298     -313     -321     -329 
    -334     -324     -310     -311     -322     -318     -306     -309 
    -318     -313     -303     -311     -321     -321     -328     -334 
    -319     -319     -328     -310     -299     -305     -307     -310 
    -306     -303     -319     -330     -322     -328     -338     -325 
    -306     -305     -305     -311     -321     -311     -307     -317 
    -319     -322     -328     -324     -319     -321     -317     -310 
    -307     -302     -302     -314     -326     -326     -314     -306 
    -318     -324     -319     -325     -319     -299     -303     -318 
    -319     -318     -314     -307     -309     -317     -319     -319 
    -315     -307     -315     -329     -318     -303     -311     -318 
    -321     -317     -302     -299     -313     -321     -325     -321 
    -315     -324     -326     -314     -305     -309     -317     -313 
    -315     -325     -318     -310     -310     -318     -328     -329 
    -324     -317     -307     -306     -307     -310     -311     -317 
    -329     -324     -314     -321     -328     -329     -321     -310 
    -307     -299     -299     -311     -317     -321     -329     -336 
    -333     -319     -313     -319     -324     -310     -302     -309 
    -307     -298     -314     -340     -346     -341     -329     -306 
    -297     -311     -317     -305     -306     -317     -329     -337 
    -334     -324     -318     -321     -317     -305     -295     -298 
    -309     -314     -321     -333     -334     -326     -324     -330 
    -332     -314     -294     -286     -283     -290     -302     -314 
    -330     -337     -340     -348     -341     -329     -321     -314 
    -307     -299     -303     -313     -306     -282     -270     -315 
    -360     -311     -253     -261     -311     -406     -449     -359 
    -294     -326     -352     -357     -321     -224     -195     -270 
    -345     -378     -321     -232     -244     -330     -418     -453 
    -357     -263     -353     -460     -405     -255      -78      -24 
    -222     -432     -446     -360     -186      -37     -167     -427 
    -537     -521     -429     -363     -464     -494     -205       70 
     -18     -299     -491     -517     -338      -62       28     -140 
    -419     -677     -778     -634     -369     -260     -299     -207 
     -29       58       71     -159     -610     -751     -494     -299 
    -302     -344     -349     -234      -98     -237     -557     -654 
    -438      -54      282      310      -22     -491     -832     -897 
    -650     -248      -48     -143     -197      -89      -68     -221 
    -405     -469     -310      -33       12     -305     -654     -727 
    -521     -153       89     -128     -691    -1121    -1124     -741 
    -240      112      209      108     -102     -440     -765     -754 
    -427      -97      112      118     -125     -464     -805    -1104 
   -1062     -529      128      481      406       44     -288     -407 
    -414     -398     -311     -182     -175     -287     -245        2 
     168       20     -450     -970    -1144     -924     -530      -82 
     328      495      240     -356     -915    -1015     -594     -117 
      -2     -121     -301     -548     -645     -463     -336     -513 
    -777     -778     -349      373      913      733     -148    -1119 
   -1595    -1333     -469      457      886      710      122     -653 
   -1202    -1154     -808     -621     -440     -108      167      268 
     178      -28     -143     -217     -498     -896    -1136    -1050 
    -573       79      585      778      452     -407    -1360    -1939 
   -1817     -928      202     1004     1310     1008      193     -703 
   -1356    -1472     -919     -132      346      345       25     -336 
    -693    -1035    -1080     -673      -90      305      426      369 
     148     -260     -691     -849     -677     -423     -278     -255 
    -292     -372     -549     -696     -545     -216     -160     -448 
    -670     -581     -256      160      422      349       28     -433 
    -845     -918     -734     -591     -553     -568     -519     -317 
    -113      -62      -28       97      121     -114     -450     -611 
    -468     -122      176      218        1     -267     -468     -654 
    -822     -908     -841     -573     -211       59      125      -56 
    -341     -409     -166      101       66     -261     -596     -737 
    -652     -440     -260      -93       75        4     -344     -685 
    -882     -938     -814     -615     -399      -27      360      461 
     303      -40     -506     -792     -745     -537     -369     -349 
    -436     -403     -156       25      -79     -271     -359     -442 
    -577     -564     -275        6      -39     -338     -607     -675 
    -576     -386     -140       -6      -62      -55       44     -164 
    -656     -896     -792     -616     -453     -271       27      317 
     295       56     -187     -527     -907     -992     -618      -63 
     189       35     -271     -523     -534     -332     -253     -328 
    -314     -318     -514     -639     -399       62      346      247 
    -124     -575     -963    -1158    -1007     -503       32      164 
    -149     -519     -565     -303      -51       54      130      167 
     125      -49     -541    -1117    -1147     -537       99      283 
     137     -106     -472     -920    -1201    -1143     -714      -74 
     282      135      -74     -112     -193     -248     -198     -315 
    -596     -661     -473     -345     -321     -245     -139       -6 
     182      259       97     -103     -195     -348     -595     -776 
    -909     -847     -398      -21     -137     -334     -295     -349 
    -623     -681     -302      143      270       25     -402     -596 
    -402     -220     -228     -232     -263     -500     -924    -1250 
   -1138     -695     -290       90      488      545      156     -355 
    -733     -807     -635     -562     -545     -238      259      545 
     388      -68     -445     -623     -710     -610     -322     -203 
    -407     -688     -753     -375      292      599      233     -351 
    -653     -638     -552     -502     -356     -125       35      162 
     210      -94     -743    -1305    -1447    -1179     -664     -155 
     175      355      337      132     -124     -418     -704     -830 
    -654     -121      425      523      163     -484    -1108    -1239 
    -896     -461      -87      176      210        1     -263     -395 
    -517     -738     -796     -518      -83      283      480      542 
     425     -117    -1062    -1834    -1830    -1084     -202      365 
     623      576      102     -594    -1058    -1109     -828     -395 
     -91      -13      -10      -20     -137     -336     -406     -442 
    -716     -989     -835     -330      197      579      723      527 
     105     -278     -572     -881    -1152    -1136     -785     -369 
     -22      243      221     -118     -479     -662     -648     -479 
    -313     -275     -218      -22       93      -86     -415     -598 
    -583     -490     -387     -426     -611     -669     -517     -260 
     113      430      356      -21     -369     -673     -932     -908 
    -635     -382     -190      -66      -72      -94      -43      -32 
    -137     -295     -444     -595     -737     -703     -346      157 
     503      461      -16     -544     -656     -446     -340     -454 
    -552     -445     -220      -83     -240     -654     -930     -750 
    -245      124       39     -301     -522     -565     -522     -390 
    -191       -6      128      122     -116     -411     -525     -492 
    -538     -757     -942     -888     -681     -465     -216      116 
     419      442      141     -202     -359     -376     -376     -359 
    -360     -527     -750     -751     -606     -553     -549     -460 
    -332     -318     -371     -130      426      789      731      429 
      58     -221     -460     -776     -934     -781     -573     -530 
    -703    -1009    -1190    -1096     -793     -321      166      365 
     252       32     -126      -41      229      280      -48     -456 
    -673     -719     -631     -376     -133     -143     -259     -270 
    -276     -334     -386     -440     -418     -288     -255     -452 
    -723     -804     -641     -432     -278     -182     -184     -168 
     -37       -5     -170     -310     -315     -337     -440     -417 
    -145       51     -106     -399     -527     -467     -310     -198 
    -265     -471     -696     -854     -749     -256      364      684 
     519       44     -400     -653     -807     -854     -639     -205 
     184      330      234      -14     -394     -865    -1192    -1132 
    -734     -306      -78        5      -37     -392     -993    -1379 
   -1208     -650     -110      229      403      503      557      463 
     217      -76     -473     -985    -1285    -1011     -265      437 
     679      352     -334     -976    -1321    -1424    -1267     -719 
      -2      463      540      251     -234     -568     -660     -654 
    -545     -330     -145      -17      141      310      319       56 
    -345     -643     -733     -622     -468     -465     -533     -476 
    -346     -294     -355     -465     -558     -623     -649     -515 
    -145      163       43     -378     -729     -801     -544      -90 
     286      437      271     -321    -1175    -1803    -1825    -1282 
    -554      -64       66       67      118       27     -387     -831 
   -1005    -1090    -1135     -773       -1      656      943     1005 
     859      546      344      369      531      778      936      753 
     402      337      584      697      413      -83     -469     -688 
    -966    -1472    -1996    -2077    -1632    -1181    -1182    -1501 
   -1809    -1919    -1652     -928       55      905     1169      661 
    -259     -993    -1287    -1283    -1158     -976     -795     -787 
   -1131    -1636    -1753    -1217     -313      621     1458     1971 
    1919     1464     1059      907      845      715      619      737 
     911      618     -356    -1460    -2088    -2263    -2149    -1655 
    -811      129      907     1196      714     -486    -2002    -3214 
   -3565    -2821    -1088     1092     2772     3362     3192     2875 
    2497     1777      648     -611    -1667    -2296    -2187    -1140 
     310     1189     1001     -101    -1659    -3068    -3905    -4116 
   -3758    -2868    -1602     -271      785     1390     1537     1459 
    1563     1891     1898     1167     -128    -1649    -3055    -3792 
   -3522    -2566    -1533     -899     -830    -1027     -972     -409 
     326      668      727     1051     1667     2351     3069     3555 
    3323     2263      689     -997    -2359    -3005    -2826    -1964 
    -687      490      996      689      -89     -950    -1678    -2115 
   -2199    -2111    -1992    -1768    -1374     -876     -329      279 
     841     1125     1242     1414     1356      677     -392    -1193 
   -1277     -695      237     1221     1900     1854     1004     -213 
   -1283    -1954    -2236    -2296    -2274    -2164    -1867    -1324 
    -664     -151       72       43      -93     -124       62      311 
     415      417      414      234     -176     -437     -236      186 
     492      788     1202     1385      959      110     -715    -1417 
   -2176    -2906    -3267    -3034    -2246    -1229     -382      238 
     922     1854     2641     2596     1642      390     -591    -1092 
   -1124     -808     -423     -286     -490     -924    -1405    -1710 
   -1656    -1271     -874     -776     -850     -630       60      810 
    1201     1250     1088      715      190     -265     -592     -916 
   -1183    -1270    -1217     -988     -475      186      706      959 
     972      623     -199    -1223    -1962    -2165    -1865    -1240 
    -473      303      916     1086      746      253      -85     -405 
    -784     -954     -826     -562     -152      427      810      665 
     197     -336     -915    -1402    -1679    -1784    -1663    -1340 
   -1031     -729     -307      187      683     1105     1264     1081 
     774      598      506      348      207      190      118     -163 
    -463     -502     -375     -360     -511     -796    -1225    -1648 
   -1786    -1526    -1034     -594     -440     -664    -1073    -1256 
    -950     -375       -2       74       98       90      -99     -425 
    -716     -837     -712     -406      -32      371      738      907 
     807      503       40     -500     -962    -1263    -1336    -1013 
    -346      279      599      649      492      236       54       20 
     120      282      328      128     -193     -311      -82      329 
     643      596      144     -438    -1008    -1696    -2485    -3129 
   -3446    -3348    -2776    -1756     -448      873     1846     2137 
    1648      634     -318     -637     -307      264      896     1483 
    1630     1104      203     -627    -1231    -1680    -2112    -2590 
   -2960    -2933    -2489    -1938    -1547    -1251     -814     -283 
      25       94      267      657      994     1092     1071     1088 
    1119     1174     1321     1459     1404     1040      322     -629 
   -1507    -2066    -2212    -1923    -1239     -271      722     1313 
    1227      577     -286    -1028    -1495    -1740    -1798    -1567 
    -962     -130      621     1112     1283     1000      210     -745 
   -1313    -1196     -550      183      583      463      -58     -649 
   -1074    -1377    -1719    -2209    -2735    -2938    -2512    -1470 
    -106     1271     2405     2937     2717     2103     1539     1125 
     697      157     -376     -764    -1007    -1202    -1510    -1973 
   -2397    -2598    -2604    -2405    -1825     -915      -85      449 
     807     1094     1289     1231      769      116     -361     -556 
    -525     -338     -144      -39        0      -36     -153     -197 
     -21      248      348      153     -152     -276     -164       71 
     317      329      -99     -845    -1601    -2077    -1992    -1344 
    -594     -167      -25       67      195      237      122      -25 
    -179     -464     -832    -1067    -1042     -857     -702     -592 
    -472     -367     -280     -202     -129      -51      -47     -145 
    -207     -121       60      224      298      247      152      151 
     137      -91     -475     -831    -1055    -1081     -876     -491 
    -118       54       33     -105     -301     -442     -453     -391 
    -283      -86       66      -76     -486     -832     -830     -453 
      35      318      253      -70     -471     -804     -945     -851 
    -703     -645     -568     -363      -55      334      766     1003 
     729      -44     -889    -1394    -1456    -1175     -730     -410 
    -460     -819    -1205    -1323    -1067     -723     -579     -515 
    -388     -305     -268     -114      113      174      -20     -349 
    -579     -492      -91      464     1021     1447     1564     1235 
     615       74     -279     -579     -827     -935     -911     -841 
    -791     -729     -623     -567     -580     -498     -251        4 
      78     -103     -380     -502     -452     -379     -391     -506 
    -664     -820     -978    -1080    -1031     -803     -398      112 
     487      518      267      -43     -287     -442     -514     -577 
    -706     -865     -967     -989     -918     -742     -561     -496 
    -472     -360     -260     -310     -403     -388     -243       48 
     456      819      988      961      799      513      113     -224 
    -264      -55      124      126       -1     -144     -216     -280 
    -526     -989    -1447    -1672    -1637    -1416    -1147     -980 
    -849     -603     -306      -64      163      341      329      232 
     329      583      734      760      819      951     1008      773 
     202     -467     -982    -1351    -1684    -1935    -1991    -1811 
   -1441    -1024     -706     -538     -527     -643     -772     -801 
    -734     -649     -515     -103      625     1266     1420     1084 
     518      -48     -603    -1120    -1358    -1251    -1096    -1070 
   -1035     -870     -643     -469     -406     -448     -499     -425 
    -156      243      615      859      981     1000      955      903 
     841      719      518      221     -179     -592     -994    -1493 
   -2018    -2297    -2130    -1474     -477      518     1156     1302 
