Origin Time       2024/06/23 22:54:00
Lat.              35.645
Long.             140.060
Depth. (km)       72
Mag.              4.1
Station Code      CHBH13
Station Lat.      35.8307
Station Long.     140.2980
Station Height(m) -1288
Record Time       2024/06/23 22:54:35
Sampling Freq(Hz) 100Hz
Duration Time(s)  120
Dir.              1
Scale Factor      2942(gal)/8224139
Max. Acc. (gal)   0.471
Last Correction   2024/06/23 22:54:36
Memo.             
[...]
   85885    85885    85885    85885    85882    85884    85885    85884 
   85882    85884    85884    85884    85885    85887    85884    85882 
   85885    85885    85882    85882    85882    85881    85884    85885 
   85882    85881    85884    85885    85884    85882    85882    85884 
   85885    85884    85884    85884    85884    85884    85884    85881 
   85881    85882    85884    85884    85884    85885    85884    85881 
   85882    85885    85884    85884    85884    85882    85882    85884 
   85880    85881    85885    85884    85884    85885    85884    85882 
   85884    85884    85884    85884    85882    85884    85885    85885 
   85885    85884    85882    85884    85885    85884    85882    85881 
   85882    85884    85884    85884    85884    85884    85884    85885 
   85884    85882    85884    85884    85882    85882    85884    85887 
   85887    85884    85882    85882    85884    85884    85882    85884 
   85884    85884    85885    85882    85881    85884    85882    85881 
   85885    85887    85884    85882    85884    85884    85885    85884 
   85882    85881    85882    85885    85884    85884    85884    85884 
   85884    85882    85882    85884    85884    85882    85882    85884 
   85882    85881    85882    85887    85887    85884    85882    85882 
   85884    85884    85885    85884    85881    85884    85885    85884 
   85885    85885    85885    85884    85884    85884    85884    85881 
   85881    85884    85884    85884    85884    85884    85885    85885 
   85881    85881    85885    85885    85882    85882    85885    85885 
   85885    85884    85881    85884    85885    85881    85880    85884 
   85882    85882    85884    85884    85885    85885    85884    85884 
   85884    85882    85882    85882    85881    85881    85882    85881 
   85882    85884    85881    85882    85884    85884    85884    85882 
   85881    85884    85885    85882    85882    85882    85882    85884 
   85884    85884    85882    85882    85882    85885    85884    85882 
   85882    85882    85882    85882    85884    85884    85881    85881 
   85885    85885    85885    85884    85882    85885    85885    85882 
   85884    85882    85882    85885    85884    85882    85882    85882 
   85884    85884    85882    85882    85884    85882    85884    85885 
   85884    85881    85884    85885    85884    85881    85882    85884 
   85884    85882    85882    85885    85885    85882    85884    85885 
   85885    85884    85882    85884    85882    85882    85885    85889 
   85887    85882    85885    85887    85884    85884    85887    85884 
   85882    85884    85885    85888    85885    85882    85884    85885 
   85884    85885    85885    85882    85880    85882    85885    85884 
   85882    85882    85882    85882    85882    85881    85881    85882 
   85882    85882    85884    85884    85884    85881    85880    85881 
   85884    85884    85884    85885    85882    85880    85882    85884 
   85884    85887    85885    85884    85884    85882    85881    85881 
   85882    85887    85885    85882    85882    85881    85884    85887 
   85882    85881    85884    85884    85884    85884    85885    85882 
   85882    85887    85887    85884    85884    85884    85884    85884 
   85884    85884    85882    85884    85884    85881    85882    85884 
   85882    85882    85884    85882    85884    85885    85884    85884 
   85884    85884    85885    85885    85881    85881    85884    85885 
   85884    85884    85884    85884    85884    85882    85884    85885 
   85885    85884    85882    85882    85885    85885    85882    85884 
   85885    85884    85884    85885    85884    85882    85884    85884 
   85884    85885    85887    85885    85884    85884    85882    85884 
   85885    85884    85885    85885    85881    85881    85885    85885 
   85884    85881    85884    85884    85884    85885    85885    85884 
   85884    85885    85885    85882    85884    85885    85884    85882 
   85885    85884    85885    85885    85882    85884    85882    85882 
   85885    85885    85881    85884    85885    85881    85882    85885 
   85884    85882    85887    85885    85884    85884    85884    85884 
   85882    85884    85885    85884    85882    85884    85884    85882 
   85885    85882    85882    85885    85884    85882    85884    85884 
   85881    85882    85885    85884    85882    85882    85882    85882 
   85884    85884    85885    85887    85887    85887    85887    85884 
   85884    85887    85885    85882    85882    85882    85882    85882 
   85884    85882    85881    85881    85884    85884    85884    85882 
   85884    85884    85884    85882    85882    85882    85881    85884 
   85885    85884    85882    85884    85884    85884    85884    85882 
   85882    85884    85882    85882    85881    85882    85885    85885 
   85882    85884    85884    85884    85882    85882    85884    85882 
   85884    85882    85880    85882    85885    85885    85887    85884 
   85882    85885    85885    85884    85882    85882    85882    85882 
   85881    85882    85884    85882    85884    85884    85882    85882 
   85882    85882    85884    85887    85887    85882    85881    85881 
   85884    85884    85882    85885    85885    85884    85885    85885 
   85884    85884    85884    85882    85884    85884    85884    85884 
   85881    85881    85884    85882    85880    85884    85884    85881 
   85884    85884    85881    85882    85884    85882    85881    85884 
   85885    85882    85881    85884    85882    85880    85882    85885 
   85884    85884    85885    85887    85889    85891    85893    85901 
   85907    85911    85915    85909    85896    85881    85873    85864 
   85850    85845    85853    85868    85895    85918    85928    85947 
   85958    85931    85923    85939    85918    85891    85889    85887 
   85896    85893    85843    85803    85796    85796    85803    85785 
   85706    85641    85758    86034    86174    86104    86059    85962 
   85676    85564    85799    86061    86196    86170    85976    85768 
   85565    85410    85514    85823    86109    86247    86193    85970 
   85681    85479    85507    85908    86508    86598    86109    85704 
   85401    85183    85492    86092    86445    86433    86040    85433 
   85059    85252    85803    86302    86614    86564    86092    85664 
   85637    85733    85696    85769    86015    86135    86076    85896 
   85703    85654    85567    85504    85760    86055    86171    86287 
   86341    86186    85989    85855    85575    85345    85571    85914 
   86031    86131    86186    86007    85789    85733    85638    85500 
   85680    86050    86147    86004    85919    85990    86065    85954 
   85757    85673    85711    85850    86076    86131    85927    85860 
   85942    85804    85590    85579    85777    86027    86104    86063 
   86026    85912    85828    85896    85927    85831    85772    85774 
   85781    85858    85938    85897    85850    85945    86039    85958 
   85779    85610    85660    85972    86173    86143    86031    85916 
   85868    85834    85757    85677    85710    85865    85869    85769 
   85858    86003    86023    85932    85818    85811    85905    86055 
   86196    86144    85878    85603    85567    85777    85889    85769 
   85745    85905    86009    86055    86065    85888    85650    85626 
   85776    85959    86161    86162    85897    85774    85873    85922 
   85941    85965    85874    85716    85668    85722    85733    85803 
   86019    86044    85870    85885    85966    85870    85783    85834 
   85988    86140    86112    85915    85735    85590    85513    85745 
   86112    86152    85988    85895    85730    85598    85785    86086 
   86193    86166    86123    86071    85986    85773    85488    85475 
   85831    86188    86215    85969    85784    85777    85699    85534 
   85603    85942    86184    86092    85874    85781    85783    85806 
   85893    86009    86032    86001    85996    85896    85704    85665 
   85788    85853    85862    85954    86085    86051    85811    85610 
   85642    85905    86198    86159    85850    85675    85702    85815 
   85907    85912    85911    85927    85953    85955    85882    85877 
   85974    85961    85831    85756    85758    85843    85989    86054 
   86076    86094    85951    85780    85753    85693    85596    85652 
   85797    85936    86104    86194    86084    85819    85580    85679 
   85974    86004    85965    86073    85986    85760    85735    85828 
   85865    85915    86077    86192    86000    85644    85457    85537 
   85828    86039    85958    85915    85919    85634    85523    85905 
   86178    86221    86256    86007    85591    85510    85765    86089 
   86263    86212    86059    85791    85587    85788    85965    85760 
   85679    85833    85919    85973    85962    85827    85822    85970 
   85950    85841    85847    85739    85552    85592    85818    86026 
   86108    86135    86135    85984    85787    85708    85753    85877 
   85888    85849    85985    85999    85792    85780    85897    85912 
   85924    85918    85849    85811    85866    85922    85762    85622 
   85776    85839    85842    86128    86216    85946    85850    85866 
   85822    85951    86155    86197    86085    85824    85580    85518 
   85544    85702    86038    86233    86054    85791    85804    85892 
   85826    85916    86190    86287    86198    85980    85617    85355 
   85379    85668    86084    86240    86005    85823    85895    85885 
   85703    85569    85644    86022    86387    86292    85981    85753 
   85599    85783    86120    86013    85656    85526    85561    85585 
   85642    85914    86428    86722    86420    85849    85378    85247 
   85662    86131    86224    86173    85995    85762    85612    85422 
   85395    85729    86175    86374    86201    85989    85922    85877 
   85916    86032    86117    86040    85703    85506    85644    85706 
   85780    86013    85966    85741    85760    85818    85769    85847 
   86085    86273    86200    85891    85633    85621    85818    86007 
   85993    85904    85870    85833    85872    85860    85619    85615 
   85981    86157    86061    85915    85712    85650    85850    85996 
   85965    85873    85750    85787    86005    86117    86135    86132 
   85936    85731    85807    85885    85777    85761    85850    85816 
   85738    85806    85932    85919    85812    85765    85823    86034 
   86217    86146    85986    85824    85702    85865    86038    85950 
   85977    86139    86070    85845    85696    85606    85596    85711 
   85737    85681    85837    86065    86038    85873    85866    85946 
   85951    86022    86144    86092    85914    85784    85680    85618 
   85764    85977    85930    85762    85698    85753    85985    86177 
   86093    85908    85792    85715    85692    85804    85942    85997 
   86069    86116    86046    85986    85972    85804    85533    85548 
   85833    86000    86028    86077    86038    85803    85588    85565 
   85687    85932    86115    86020    85873    85928    85997    85916 
   85907    86020    86015    85847    85638    85544    85687    85986 
   86193    86065    85754    85598    85668    85945    86154    86077 
   85893    85727    85702    85834    85942    86004    85985    85885 
   85845    85891    86016    86059    85920    85851    85926    85984 
   85912    85764    85734    85760    85783    85909    85936    85783 
   85684    85707    85841    86009    86057    85995    85941    85953 
   85907    85700    85634    85927    86151    86012    85811    85808 
   85916    85949    85903    85895    85880    85776    85698    85762 
   85895    85966    85877    85785    85973    86139    85996    85918 
   85936    85837    85861    85976    85919    85843    85864    85872 
   85812    85712    85706    85860    85974    85966    85999    85961 
   85777    85806    86035    86119    86036    85777    85482    85611 
   85949    85986    85989    86101    86063    85980    85922    85826 
   85780    85835    86024    86150    86003    85766    85585    85479 
   85527    85693    85918    86086    85995    85814    85831    85860 
   85718    85725    86096    86387    86155    85722    85660    85878 
   85912    85793    85761    85711    85583    85649    86043    86339 
   86265    86178    86112    85834    85626    85734    85857    85783 
   85785    85969    85950    85665    85572    85816    86020    85973 
   85850    85803    85855    85978    85968    85785    85691    85742 
   85803    85758    85669    85765    85918    85927    85954    85945 
   85806    85774    85858    85880    85833    85768    85780    85891 
   85993    86050    86040    85957    85896    85896    85923    86013 
   86177    86332    86373    86290    86216    86082    85747    85526 
   85698    86005    86144    86143    86136    86046    85907    85946 
   85880    85476    85195    85267    85415    85545    85766    86012 
   86152    86111    85858    85662    85668    85695    85760    85876 
   85857    85689    85500    85445    85588    85839    86076    86224 
   86381    86516    86425    86229    86205    86316    86374    86312 
   86085    85791    85622    85455    85151    84966    85064    85322 
   85681    86047    86229    86329    86456    86451    86390    86292 
   85828    85160    84794    84744    84878    85440    86447    87161 
   87199    87103    87124    87054    86830    86316    85569    85023 
   84892    85155    85671    85999    85885    85610    85503    85513 
   85379    85222    85383    85617    85761    86308    87015    87068 
   86566    86027    85675    85712    86078    86314    86112    85638 
   85313    85162    84997    85075    85434    85621    85645    85774 
   85862    85806    85901    86167    86142    85912    86062    86516 
   86830    86900    86636    86057    85595    85595    85912    86140 
   85973    85487    85135    85239    85526    85572    85477    85491 
   85526    85515    85557    85683    85873    85957    85668    85301 
   85437    85977    86440    86637    86595    86506    86543    86606 
   86557    86356    85978    85591    85467    85569    85687    85810 
   85936    85997    86019    85885    85490    85209    85391    85810 
   86053    86015    85914    85818    85626    85548    85688    85834 
   86009    86209    86189    86008    85962    86039    86044    85992 
   85997    86062    86078    85920    85641    85560    85776    85932 
   85963    86117    86174    85923    85683    85580    85534    85703 
   85928    85833    85634    85677    85888    86130    86273    86130 
   85788    85625    85706    85741    85741    85811    85787    85680 
   85730    85947    86123    86171    86198    86263    86266    86146 
   86020    85946    85815    85698    85723    85810    85976    86213 
   86211    85893    85637    85653    85652    85380    85256    85608 
   85962    86027    86031    85981    85806    85525    85244    85294 
   85641    85870    86022    86278    86394    86229    85996    85881 
   86013    86368    86622    86524    86235    85972    85762    85673 
   85653    85579    85568    85587    85537    85630    85841    85959 
   86030    86090    86084    85932    85669    85513    85560    85761 
   86017    86121    86017    85877    85806    85838    85992    86134 
   86139    86092    86105    86143    86051    85846    85781    85888 
   85923    85792    85546    85314    85298    85498    85692    85834 
   85957    85963    85865    85776    85747    85801    85922    86162 
   86409    86437    86373    86215    85827    85522    85498    85563 
   85658    85843    86057    86185    86202    86161    86066    85905 
   85691    85472    85409    85629    85939    86035    85954    85951 
   86084    86166    86119    86070    86050    86015    85935    85765 
   85693    85907    86269    86609    86717    86394    85880    85557 
   85571    85795    85841    85553    85159    84893    85075    85650 
   86100    86347    86424    86093    85569    85322    85347    85436 
   85695    86186    86544    86517    86335    86184    86020    85893 
   85814    85629    85398    85356    85500    85702    85903    86044 
   86093    86120    86103    85877    85561    85409    85379    85446 
   85680    85984    86227    86344    86296    86139    86044    86019 
   85897    85734    85691    85757    85905    86066    86121    86104 
   86113    86201    86364    86501    86416    86027    85572    85369 
   85414    85492    85567    85722    85911    86063    86134    86104 
   86055    85954    85765    85700    85830    85919    85808    85549 
   85309    85197    85190    85305    85531    85677    85699    85810 
   85920    85868    85899    86012    86067    86304    86587    86570 
   86443    86323    86085    85862    85822    85901    85920    85837 
   85757    85656    85573    85695    85951    86096    86094    86100 
   86119    86061    86011    86001    85923    85795    85719    85688 
   85610    85479    85476    85718    85965    86058    86136    86131 
   86019    85980    85893    85747    85828    86039    86016    85801 
   85677    85658    85653    85741    85916    86026    86026    85988 
   85961    85951    85945    85932    85928    85951    86042    86127 
   86008    85756    85638    85653    85722    85888    86013    85934 
   85795    85769    85823    85900    85918    85828    85742    85671 
   85538    85479    85630    85851    85992    86146    86379    86491 
   86387    86178    85916    85739    85737    85747    85715    85718 
   85735    85761    85814    85842    85849    85899    85912    85857 
   85907    86098    86189    86054    85908    85920    85989    85950 
   85752    85583    85617    85681    85685    85774    85899    85919 
   85914    85912    85868    85861    85941    86092    86244    86211 
   86007    85855    85835    85892    85903    85818    85803    85934 
   86022    85993    85995    85972    85800    85619    85507    85406 
   85387    85456    85483    85473    85517    85662    85868    86046 
   86240    86416    86400    86244    86139    86120    86174    86232 
   86213    86186    86224    86228    86061    85845    85758    85662 
   85573    85710    85889    85892    85880    85878    85769    85662 
   85611    85537    85538    85676    85835    85972    86089    86103 
   85989    85865    85797    85780    85853    85855    85693    85702 
   85895    85912    85857    85958    86046    85965    85820    85745 
   85796    85931    86012    85947    85784    85668    85665    85722 
   85804    85889    85912    85816    85729    85842    85997    86046 
   86127    86148    86061    86059    86030    85873    85851    85974 
   86013    86012    86016    85947    85882    85834    85769    85860 
   86071    86144    86128    86198    86169    85904    85681    85649 
   85668    85638    85557    85499    85518    85598    85708    85756 
   85769    85882    85982    85927    85860    85896    85954    85980 
   86043    86094    85988    85824    85785    85828    85853    85842 
   85806    85787    85814    85835    85858    85984    86166    86217 
   86098    85932    85815    85760    85735    85745    85791    85804 
