Origin Time       2024/06/23 22:54:00
Lat.              35.645
Long.             140.060
Depth. (km)       72
Mag.              4.1
Station Code      CHBH11
Station Lat.      35.2867
Station Long.     140.1529
Station Height(m) -1920
Record Time       2024/06/23 22:54:36
Sampling Freq(Hz) 100Hz
Duration Time(s)  120
Dir.              3
Scale Factor      2942(gal)/8224139
Max. Acc. (gal)   1.265
Last Correction   2024/06/23 22:54:36
Memo.             
[...]
   52447    52446    52446    52446    52444    52444    52444    52446 
   52447    52446    52443    52443    52446    52444    52443    52446 
   52447    52448    52447    52444    52444    52444    52446    52447 
   52448    52446    52443    52444    52446    52444    52446    52447 
   52446    52446    52446    52444    52444    52446    52446    52446 
   52447    52447    52446    52447    52447    52446    52446    52447 
   52447    52447    52446    52448    52448    52447    52446    52444 
   52446    52447    52446    52444    52447    52447    52446    52444 
   52444    52444    52446    52448    52447    52444    52443    52443 
   52444    52447    52447    52444    52444    52446    52446    52447 
   52448    52448    52446    52444    52444    52446    52446    52444 
   52446    52448    52446    52444    52446    52446    52444    52444 
   52444    52447    52447    52446    52444    52446    52444    52444 
   52446    52448    52447    52446    52446    52447    52447    52447 
   52446    52444    52447    52448    52444    52447    52450    52447 
   52446    52448    52447    52444    52446    52447    52444    52444 
   52446    52447    52446    52447    52447    52444    52444    52447 
   52448    52447    52447    52446    52446    52446    52444    52444 
   52446    52447    52448    52447    52446    52447    52448    52447 
   52446    52447    52447    52447    52448    52446    52446    52447 
   52446    52446    52447    52447    52447    52447    52448    52448 
   52447    52446    52444    52447    52447    52444    52446    52447 
   52446    52446    52446    52444    52443    52446    52447    52446 
   52446    52448    52447    52447    52448    52446    52444    52447 
   52450    52447    52444    52446    52446    52447    52447    52446 
   52444    52447    52447    52447    52447    52446    52446    52446 
   52446    52444    52447    52446    52443    52444    52446    52446 
   52444    52444    52448    52447    52444    52447    52447    52444 
   52443    52444    52444    52444    52446    52446    52446    52447 
   52447    52446    52446    52444    52446    52447    52446    52444 
   52447    52447    52446    52446    52447    52448    52447    52447 
   52447    52446    52446    52446    52444    52446    52448    52447 
   52444    52444    52447    52446    52444    52447    52447    52446 
   52447    52446    52444    52444    52443    52443    52446    52447 
   52447    52448    52447    52446    52447    52446    52444    52447 
   52448    52446    52446    52444    52444    52446    52448    52448 
   52446    52443    52446    52446    52446    52446    52447    52448 
   52448    52447    52447    52450    52448    52446    52447    52448 
   52446    52447    52450    52446    52446    52448    52448    52447 
   52447    52447    52447    52447    52447    52448    52448    52447 
   52444    52446    52448    52448    52447    52444    52443    52444 
   52444    52444    52446    52447    52448    52448    52447    52446 
   52447    52447    52446    52447    52448    52447    52447    52447 
   52446    52447    52447    52447    52447    52448    52447    52446 
   52446    52448    52448    52446    52444    52444    52447    52448 
   52446    52447    52448    52447    52448    52450    52447    52444 
   52447    52446    52444    52446    52446    52447    52446    52444 
   52446    52446    52446    52447    52447    52446    52447    52448 
   52447    52446    52447    52446    52446    52447    52450    52448 
   52447    52448    52447    52446    52448    52447    52446    52447 
   52446    52446    52447    52448    52448    52450    52450    52447 
   52444    52446    52447    52446    52447    52448    52447    52448 
   52446    52444    52447    52447    52444    52447    52448    52447 
   52448    52447    52444    52444    52446    52446    52446    52447 
   52447    52447    52448    52446    52446    52447    52448    52447 
   52446    52446    52448    52448    52446    52444    52446    52446 
   52447    52447    52444    52444    52447    52447    52446    52446 
   52447    52447    52447    52446    52446    52447    52448    52444 
   52444    52447    52446    52444    52448    52448    52446    52447 
   52448    52448    52450    52448    52444    52446    52446    52446 
   52444    52444    52447    52448    52447    52446    52447    52446 
   52447    52448    52446    52444    52446    52446    52447    52451 
   52450    52446    52446    52443    52443    52444    52446    52446 
   52446    52447    52447    52447    52447    52444    52444    52447 
   52448    52447    52444    52444    52446    52447    52447    52444 
   52447    52447    52446    52444    52447    52447    52444    52444 
   52447    52446    52446    52447    52444    52444    52446    52444 
   52444    52446    52446    52446    52446    52444    52446    52446 
   52447    52448    52447    52446    52447    52447    52444    52444 
   52446    52446    52446    52446    52446    52444    52444    52447 
   52446    52444    52446    52446    52444    52447    52448    52444 
   52443    52444    52446    52446    52447    52448    52447    52444 
   52447    52447    52446    52447    52443    52443    52447    52447 
   52446    52446    52444    52446    52447    52447    52447    52447 
   52446    52448    52446    52444    52448    52448    52446    52448 
   52448    52444    52446    52447    52446    52448    52448    52447 
   52447    52447    52448    52447    52447    52448    52447    52447 
   52447    52448    52448    52448    52448    52448    52448    52447 
   52447    52448    52447    52447    52448    52448    52447    52450 
   52450    52447    52448    52448    52446    52447    52448    52446 
   52446    52447    52448    52447    52448    52448    52448    52450 
   52450    52447    52446    52447    52447    52447    52447    52450 
   52448    52446    52446    52446    52446    52448    52447    52446 
   52446    52447    52448    52451    52450    52446    52448    52452 
   52450    52448    52448    52447    52447    52447    52447    52450 
   52450    52446    52447    52450    52447    52447    52448    52447 
   52444    52447    52448    52446    52446    52446    52446    52448 
   52450    52450    52448    52447    52447    52448    52450    52447 
   52447    52450    52450    52448    52447    52447    52447    52447 
   52448    52447    52447    52448    52448    52447    52447    52448 
   52447    52446    52444    52446    52447    52448    52446    52446 
   52448    52448    52446    52446    52446    52447    52450    52447 
   52446    52447    52446    52446    52446    52446    52447    52448 
   52447    52447    52447    52446    52446    52447    52447    52446 
   52444    52444    52446    52446    52446    52446    52446    52447 
   52448    52446    52446    52446    52444    52443    52444    52446 
   52446    52446    52446    52447    52446    52446    52446    52443 
   52446    52447    52446    52446    52447    52447    52446    52444 
   52447    52447    52446    52447    52447    52446    52446    52446 
   52447    52447    52446    52446    52448    52447    52444    52446 
   52448    52448    52447    52446    52447    52448    52447    52446 
   52447    52446    52444    52446    52447    52448    52450    52447 
   52444    52447    52448    52448    52447    52446    52444    52446 
   52446    52444    52444    52446    52448    52448    52447    52446 
   52446    52446    52447    52447    52447    52448    52447    52446 
   52446    52446    52447    52446    52446    52447    52448    52446 
   52446    52446    52446    52446    52446    52447    52448    52446 
   52446    52447    52447    52448    52448    52446    52444    52446 
   52444    52444    52447    52447    52447    52447    52446    52444 
   52444    52446    52446    52446    52447    52446    52443    52444 
   52448    52448    52446    52444    52447    52446    52444    52446 
   52444    52443    52447    52447    52446    52448    52447    52446 
   52447    52448    52448    52447    52446    52448    52446    52444 
   52447    52447    52446    52447    52447    52446    52446    52447 
   52447    52447    52450    52448    52447    52450    52450    52448 
   52450    52451    52446    52444    52448    52448    52447    52450 
   52448    52447    52450    52451    52448    52447    52447    52444 
   52443    52448    52450    52446    52446    52448    52448    52444 
   52444    52447    52446    52446    52448    52451    52448    52446 
   52446    52447    52446    52446    52447    52448    52450    52446 
   52442    52444    52444    52444    52447    52447    52446    52446 
   52444    52444    52446    52444    52446    52446    52446    52448 
   52450    52447    52446    52447    52446    52443    52444    52444 
   52446    52446    52443    52443    52447    52450    52446    52443 
   52444    52444    52446    52446    52444    52446    52446    52444 
   52446    52447    52446    52446    52446    52446    52446    52443 
   52443    52447    52447    52444    52446    52446    52443    52443 
   52444    52447    52447    52447    52448    52447    52444    52447 
   52448    52446    52446    52446    52444    52447    52448    52447 
   52447    52448    52447    52448    52447    52444    52447    52447 
   52446    52446    52446    52444    52444    52446    52444    52446 
   52447    52443    52442    52446    52446    52446    52448    52448 
   52446    52444    52444    52446    52448    52448    52447    52447 
   52447    52447    52447    52447    52444    52443    52443    52443 
   52447    52446    52442    52446    52448    52446    52446    52447 
   52447    52444    52444    52444    52442    52443    52446    52447 
   52447    52444    52446    52448    52448    52446    52446    52446 
   52444    52446    52447    52446    52447    52447    52447    52447 
   52447    52447    52446    52444    52446    52447    52444    52444 
   52447    52446    52446    52447    52446    52444    52447    52448 
   52446    52446    52446    52444    52446    52447    52446    52444 
   52446    52447    52447    52447    52444    52444    52444    52444 
   52446    52448    52446    52446    52446    52446    52448    52448 
   52446    52446    52447    52446    52444    52447    52448    52448 
   52447    52447    52448    52447    52447    52447    52447    52450 
   52448    52447    52447    52446    52446    52447    52446    52446 
   52446    52446    52446    52448    52448    52450    52448    52444 
   52444    52447    52447    52447    52447    52447    52447    52444 
   52446    52447    52447    52447    52447    52447    52448    52446 
   52446    52448    52447    52447    52448    52448    52446    52444 
   52447    52447    52446    52448    52447    52444    52447    52444 
   52443    52447    52447    52448    52451    52448    52447    52448 
   52448    52450    52450    52450    52448    52448    52448    52448 
   52447    52446    52447    52447    52448    52448    52447    52447 
   52448    52448    52447    52446    52446    52447    52447    52447 
   52448    52447    52446    52447    52447    52444    52444    52447 
   52448    52448    52447    52447    52447    52447    52446    52444 
   52446    52447    52446    52446    52447    52446    52447    52447 
   52446    52447    52448    52447    52447    52447    52444    52446 
   52447    52446    52446    52446    52447    52448    52448    52447 
   52446    52446    52447    52447    52447    52447    52446    52444 
   52446    52447    52448    52447    52444    52446    52448    52447 
   52447    52447    52446    52447    52448    52446    52447    52446 
   52447    52448    52448    52447    52446    52443    52444    52447 
   52446    52444    52444    52447    52448    52447    52448    52450 
   52448    52447    52447    52447    52448    52448    52447    52447 
   52447    52447    52448    52447    52447    52447    52447    52447 
   52446    52446    52446    52447    52448    52448    52446    52443 
   52444    52447    52447    52448    52450    52447    52444    52446 
   52447    52447    52446    52446    52447    52446    52444    52446 
   52448    52448    52446    52444    52444    52444    52446    52447 
   52447    52447    52446    52443    52443    52447    52448    52447 
   52444    52446    52447    52446    52446    52447    52447    52447 
   52446    52446    52444    52446    52448    52447    52444    52446 
   52447    52446    52447    52446    52443    52446    52448    52447 
   52444    52444    52446    52444    52444    52448    52448    52446 
   52446    52446    52446    52447    52446    52444    52444    52443 
   52444    52444    52446    52446    52446    52447    52444    52446 
   52447    52444    52446    52448    52447    52446    52446    52447 
   52447    52446    52444    52447    52447    52446    52447    52447 
   52444    52446    52448    52451    52459    52475    52496    52517 
   52544    52570    52579    52562    52505    52409    52300    52227 
   52242    52342    52439    52442    52371    52339    52404    52547 
   52726    52841    52778    52579    52429    52393    52369    52327 
   52362    52508    52674    52720    52509    52185    52161    52473 
   52628    52254    51652    51478    51624    51268    50780    51975 
   54781    55983    54113    51831    50874    50722    51808    53743 
   54591    53928    52463    51324    51212    51366    51742    52416 
   52685    52929    53222    53226    53065    52288    51294    51082 
   51524    52293    53033    53265    52883    52240    51962    52131 
   52633    53442    53604    52600    51680    51497    51591    52196 
   53242    53898    53532    52273    51580    52149    52562    52199 
   52024    52502    53003    52799    52146    51910    52226    52471 
   52458    52539    52693    52659    52663    52786    52456    51908 
   52041    52469    52543    52516    52470    52496    52767    52798 
   52429    52220    52228    52276    52442    52560    52554    52398 
   52027    51929    52342    52687    52618    52469    52542    52658 
   52693    52645    52438    52243    52219    52367    52540    52485 
   52469    52610    52474    52215    52290    52508    52440    52203 
   52281    52639    52668    52228    51985    52365    52860    52959 
   52725    52396    52362    52643    52542    52045    51954    52371 
   52752    52672    52130    51960    52529    52774    52381    52315 
   52687    52821    52618    52442    52388    52338    52274    52266 
   52465    52817    52905    52590    52186    51979    52161    52552 
   52617    52425    52442    52577    52582    52493    52415    52424 
   52504    52562    52609    52643    52562    52442    52402    52444 
   52610    52721    52536    52196    51973    52014    52218    52330 
   52209    51889    51725    52049    52559    52764    52683    52654 
   52780    52794    52579    52448    52589    52771    52828    52837 
   52774    52452    51906    51503    51669    52462    53191    53079 
   52421    52054    52151    52305    52505    52894    52829    52157 
   51834    51991    52227    52677    52988    52643    52069    51884 
   52016    52288    52760    53153    53207    53118    52778    52135 
   51931    52428    52702    52343    52083    52388    52863    52880 
   52375    51907    51831    52057    52469    52963    53098    52554 
   51925    51945    52474    52837    52695    52465    52566    52714 
   52635    52435    52180    52065    52300    52639    52771    52618 
   52223    52011    52334    52648    52459    52232    52385    52658 
   52664    52494    52512    52559    52307    52092    52280    52439 
   52181    51921    52087    52560    52988    53044    52708    52380 
   52297    52362    52551    52528    52049    51821    52208    52633 
   52790    52775    52591    52350    52375    52720    52952    52818 
   52564    52471    52536    52539    52303    52020    51869    51833 
   52227    53028    53446    53026    52203    51860    52137    52407 
   52569    52604    52289    51906    51804    52174    52709    52644 
   52192    52031    52049    52313    52932    53221    52979    52694 
   52459    52315    52539    53119    53509    53199    52556    52273 
   52362    52443    52257    52030    52150    52353    52242    51983 
   51777    51657    51767    52173    52589    52624    52265    51929 
   51975    52311    52655    52918    53100    52988    52328    51615 
   51798    52681    53177    53194    53304    53226    52535    51796 
   51734    52239    52682    52816    52932    52944    52550    52294 
   52489    52474    52209    52212    52408    52458    52286    52196 
   52321    52331    52168    52114    52196    52301    52543    52940 
   52915    52209    51745    52215    52920    53022    52745    52432 
   52103    52091    52374    52546    52655    52704    52600    52563 
   52614    52486    52223    52170    52435    52682    52560    52313 
   52334    52492    52550    52504    52465    52415    52115    51644 
   51537    51877    52134    52223    52369    52461    52645    53013 
   53092    52789    52469    52354    52563    52991    53334    53345 
   52910    52390    52338    52547    52556    52663    52847    52362 
   51699    51888    52366    52272    51777    51278    51139    51613 
   52385    53055    53431    53260    52647    52186    52150    52265 
   52375    52725    53275    53426    52910    52421    52679    53217 
   53273    53033    52758    52320    51976    52122    52493    52466 
   51926    51397    51329    51547    51757    51999    52285    52542 
   52602    52409    52193    51772    51204    51378    52222    52771 
   52983    53199    53329    53461    53809    54006    53561    52751 
   52195    52138    52386    52389    52026    51996    52537    53067 
   53260    53067    52465    51822    51757    52265    52296    51409 
   50939    51516    51969    51942    52371    53190    53518    53469 
   53362    52890    52304    52115    52039    51695    51294    51359 
   51962    52489    52739    52990    52980    52691    52748    53014 
   52934    52790    52882    52907    52801    52640    52305    52038 
   52083    52218    52278    52335    52481    52535    52200    51763 
   51815    52396    53014    53211    52953    52670    52666    52519 
   51979    51777    52222    52623    52645    52458    52266    52296 
   52501    52513    52290    52334    52809    53068    52774    52444 
   52226    51834    51746    52277    52641    52478    52354    52354 
   52267    52483    52934    52775    52188    52112    52385    52308 
   51823    51472    51857    52601    52899    52945    52957    52708 
   52620    53040    53406    53215    52714    52516    52679    52672 
   52481    52465    52486    52211    51723    51509    51538    51336 
   51528    52542    53064    52834    53030    53258    52763    52315 
   52436    52639    52493    52077    51830    52030    52535    53013 
   53110    52803    52525    52587    52770    52686    52331    52016 
   51881    51910    52242    52721    52866    52855    52938    52616 
