Origin Time       2024/06/23 22:54:00
Lat.              35.645
Long.             140.060
Depth. (km)       72
Mag.              4.1
Station Code      CHBH17
Station Lat.      35.1714
Station Long.     140.3398
Station Height(m) 10
Record Time       2024/06/23 22:54:46
Sampling Freq(Hz) 100Hz
Duration Time(s)  120
Dir.              4
Scale Factor      7845(gal)/8223790
Max. Acc. (gal)   1.277
Last Correction   2024/06/23 22:54:46
Memo.             
[...]
   -2118    -2115    -2107    -2108    -2112    -2111    -2106    -2107 
   -2111    -2111    -2110    -2112    -2114    -2112    -2112    -2110 
   -2110    -2115    -2115    -2110    -2107    -2114    -2119    -2119 
   -2114    -2106    -2103    -2108    -2111    -2107    -2100    -2100 
   -2111    -2120    -2118    -2110    -2115    -2128    -2133    -2120 
   -2101    -2088    -2093    -2107    -2112    -2114    -2123    -2128 
   -2126    -2122    -2106    -2072    -2046    -2038    -2046    -2068 
   -2106    -2153    -2181    -2185    -2193    -2191    -2122    -2018 
   -1983    -2046    -2122    -2112    -2045    -2043    -2168    -2330 
   -2382    -2285    -2124    -1965    -1845    -1844    -1988    -2158 
   -2216    -2178    -2149    -2160    -2180    -2181    -2150    -2088 
   -2031    -2003    -1965    -1948    -2052    -2266    -2420    -2390 
   -2223    -2053    -1956    -1910    -1890    -1926    -2049    -2196 
   -2253    -2219    -2192    -2172    -2114    -2070    -2128    -2250 
   -2251    -2056    -1880    -1926    -2143    -2323    -2311    -2191 
   -2142    -2116    -2004    -1888    -1900    -2038    -2165    -2195 
   -2204    -2220    -2157    -2031    -1939    -1944    -2022    -2091 
   -2153    -2219    -2204    -2108    -2047    -2049    -2079    -2155 
   -2305    -2405    -2272    -1995    -1879    -1993    -2123    -2151 
   -2203    -2323    -2304    -2039    -1769    -1718    -1879    -2124 
   -2320    -2392    -2327    -2119    -1875    -1811    -1980    -2178 
   -2276    -2320    -2290    -2097    -1860    -1825    -2030    -2307 
   -2469    -2419    -2172    -1877    -1749    -1850    -2062    -2269 
   -2407    -2388    -2180    -1917    -1788    -1868    -2080    -2259 
   -2282    -2199    -2108    -1998    -1903    -1962    -2187    -2396 
   -2417    -2273    -2123    -2047    -1961    -1875    -1960    -2177 
   -2293    -2250    -2146    -2054    -2000    -1979    -1975    -2000 
   -2083    -2201    -2284    -2268    -2141    -1966    -1875    -1919 
   -2058    -2243    -2389    -2398    -2269    -2092    -1976    -1952 
   -1996    -2110    -2253    -2282    -2155    -2043    -2079    -2188 
   -2239    -2180    -2053    -1956    -1908    -1880    -1927    -2095 
   -2259    -2284    -2160    -2004    -1944    -1983    -2054    -2131 
   -2223    -2309    -2311    -2196    -2079    -2053    -2089    -2093 
   -2031    -2016    -2139    -2270    -2285    -2250    -2178    -1992 
   -1818    -1854    -2041    -2181    -2250    -2326    -2328    -2150 
   -1945    -1895    -1908    -1888    -1973    -2220    -2425    -2411 
   -2262    -2128    -2023    -1942    -1944    -2035    -2161    -2295 
   -2355    -2236    -1995    -1836    -1873    -2030    -2141    -2168 
   -2211    -2278    -2231    -2073    -1992    -2034    -2074    -2079 
   -2099    -2150    -2203    -2209    -2165    -2119    -2064    -1980 
   -1935    -1998    -2119    -2226    -2272    -2234    -2151    -2123 
   -2176    -2203    -2123    -2019    -2010    -2053    -2026    -1972 
   -2046    -2231    -2328    -2242    -2064    -1923    -1894    -1989 
   -2120    -2182    -2216    -2259    -2211    -2056    -1980    -2087 
   -2193    -2124    -2056    -2209    -2396    -2305    -2058    -1993 
   -2097    -2107    -2046    -2070    -2060    -1900    -1798    -1953 
   -2220    -2317    -2257    -2242    -2269    -2212    -2095    -1998 
   -1950    -1980    -2070    -2187    -2305    -2351    -2251    -2061 
   -1912    -1867    -1888    -1973    -2147    -2282    -2234    -2096 
   -2042    -2083    -2154    -2211    -2200    -2128    -2084    -2072 
   -2039    -2026    -2087    -2199    -2301    -2312    -2178    -1999 
   -1926    -1935    -1938    -2002    -2218    -2427    -2371    -2127 
   -1981    -1968    -1977    -2016    -2088    -2143    -2127    -2041 
   -2031    -2181    -2303    -2191    -1966    -1930    -2077    -2141 
   -2083    -2120    -2280    -2338    -2235    -2143    -2162    -2178 
   -2084    -1953    -1910    -1948    -2011    -2112    -2296    -2459 
   -2409    -2150    -1871    -1696    -1657    -1800    -2124    -2454 
   -2528    -2371    -2234    -2165    -2038    -1879    -1818    -1875 
   -1995    -2172    -2344    -2409    -2381    -2305    -2122    -1865 
   -1756    -1858    -1985    -2064    -2189    -2349    -2396    -2249 
   -1998    -1846    -1873    -1937    -1972    -2126    -2425    -2569 
   -2315    -1894    -1730    -1883    -2087    -2215    -2349    -2455 
   -2350    -2074    -1906    -1952    -2077    -2177    -2203    -2119 
   -2020    -2046    -2147    -2184    -2146    -2077    -1946    -1800 
   -1796    -1989    -2250    -2408    -2416    -2350    -2247    -2095 
   -1931    -1842    -1867    -1998    -2193    -2357    -2407    -2357 
   -2232    -2019    -1836    -1860    -2037    -2162    -2169    -2161 
   -2184    -2157    -2068    -2039    -2088    -2069    -2004    -2091 
   -2290    -2339    -2207    -2068    -1981    -1962    -2050    -2174 
   -2185    -2050    -1918    -1939    -2081    -2230    -2343    -2370 
   -2254    -2037    -1833    -1742    -1806    -1995    -2249    -2500 
   -2647    -2560    -2243    -1884    -1680    -1690    -1883    -2178 
   -2388    -2389    -2295    -2243    -2181    -1977    -1707    -1642 
   -1877    -2205    -2394    -2381    -2236    -2111    -2103    -2165 
   -2195    -2161    -2095    -2010    -1912    -1912    -2050    -2146 
   -2115    -2122    -2207    -2203    -2089    -2058    -2160    -2222 
   -2201    -2204    -2169    -1946    -1659    -1632    -1971    -2421 
   -2697    -2756    -2647    -2319    -1786    -1337    -1341    -1773 
   -2219    -2450    -2582    -2606    -2388    -2039    -1830    -1831 
   -1915    -1960    -1960    -1992    -2138    -2349    -2462    -2386 
   -2166    -1956    -1877    -1906    -1973    -2056    -2141    -2209 
   -2192    -2104    -2126    -2276    -2293    -2114    -1989    -2060 
   -2193    -2255    -2241    -2185    -2085    -1948    -1852    -1894 
   -2060    -2174    -2133    -2101    -2185    -2242    -2189    -2097 
   -1971    -1840    -1883    -2137    -2361    -2378    -2288    -2238 
   -2209    -2127    -1985    -1834    -1817    -2007    -2178    -2155 
   -2149    -2319    -2401    -2192    -1957    -2014    -2158    -2043 
   -1880    -2053    -2396    -2504    -2301    -2008    -1845    -1806 
   -1761    -1779    -2033    -2436    -2632    -2454    -2127    -1927 
   -1890    -1914    -1938    -2029    -2239    -2419    -2407    -2301 
   -2241    -2166    -1979    -1740    -1636    -1750    -1971    -2155 
   -2290    -2401    -2461    -2389    -2162    -1934    -1908    -2045 
   -2107    -2060    -2097    -2243    -2336    -2316    -2224    -2099 
   -1996    -2008    -2100    -2097    -2002    -2002    -2092    -2085 
   -2002    -2066    -2281    -2331    -2087    -1863    -1914    -2053 
   -2072    -2087    -2215    -2311    -2245    -2135    -2066    -1984 
   -1956    -2101    -2276    -2266    -2153    -2103    -2092    -2041 
   -1995    -2023    -2045    -2019    -2079    -2223    -2276    -2214 
   -2151    -2111    -2035    -1950    -2007    -2243    -2443    -2415 
   -2215    -1996    -1894    -1954    -2104    -2282    -2405    -2286 
   -1907    -1560    -1574    -1912    -2234    -2376    -2404    -2336 
   -2168    -1939    -1744    -1753    -2020    -2313    -2382    -2290 
   -2245    -2255    -2212    -2155    -2181    -2212    -2112    -1922 
   -1817    -1863    -1980    -2130    -2315    -2434    -2362    -2141 
   -1921    -1787    -1745    -1825    -2031    -2303    -2555    -2662 
   -2521    -2223    -1931    -1714    -1653    -1840    -2172    -2408 
   -2420    -2282    -2103    -1894    -1703    -1696    -1912    -2151 
   -2276    -2351    -2419    -2419    -2307    -2106    -1917    -1871 
   -2018    -2232    -2340    -2299    -2208    -2130    -2007    -1853 
   -1829    -2002    -2214    -2263    -2115    -1926    -1906    -2073 
   -2262    -2344    -2304    -2131    -1869    -1723    -1884    -2218 
   -2432    -2455    -2397    -2288    -2079    -1850    -1782    -1895 
   -2022    -2056    -2058    -2110    -2197    -2265    -2284    -2249 
   -2145    -1988    -1845    -1809    -1956    -2220    -2400    -2424 
   -2390    -2327    -2170    -1960    -1842    -1868    -1960    -2099 
   -2300    -2415    -2289    -2031    -1848    -1759    -1688    -1734 
   -2025    -2403    -2567    -2467    -2313    -2273    -2250    -2053 
   -1813    -1838    -2065    -2172    -2164    -2282    -2466    -2416 
   -2120    -1849    -1759    -1807    -1939    -2135    -2344    -2455 
   -2385    -2224    -2087    -1969    -1861    -1803    -1845    -1945 
   -1999    -2074    -2272    -2392    -2251    -2068    -2088    -2189 
   -2134    -1979    -1961    -2110    -2222    -2208    -2199    -2284 
   -2330    -2185    -1961    -1910    -2088    -2281    -2323    -2281 
   -2224    -2069    -1819    -1692    -1815    -2020    -2122    -2154 
   -2201    -2253    -2280    -2243    -2133    -2057    -2095    -2126 
   -2029    -1887    -1822    -1823    -1831    -1852    -1917    -2007 
   -2084    -2111    -2050    -1952    -1941    -2011    -2050    -2052 
   -2056    -2058    -2076    -2126    -2182    -2241    -2249    -2112 
   -1927    -1923    -2169    -2512    -2766    -2859    -2810    -2596 
   -2262    -1981    -1856    -1852    -1900    -1939    -1939    -1914 
   -1918    -2015    -2205    -2400    -2496    -2469    -2425    -2458 
   -2490    -2421    -2296    -2223    -2203    -2130    -1930    -1676 
   -1551    -1626    -1796    -1961    -2099    -2168    -2103    -1950 
   -1875    -1979    -2157    -2234    -2236    -2328    -2486    -2559 
   -2512    -2373    -2158    -1964    -1884    -1937    -2120    -2365 
   -2513    -2474    -2257    -1983    -1802    -1679    -1486    -1308 
   -1329    -1584    -1992    -2413    -2667    -2646    -2427    -2201 
   -2072    -2062    -2203    -2380    -2393    -2226    -1933    -1512 
   -1136    -1138    -1609    -2290    -2822    -2976    -2751    -2305 
   -1853    -1567    -1487    -1512    -1530    -1617    -1933    -2420 
   -2799    -2928    -2920    -2851    -2609    -2236    -2003    -1948 
   -1864    -1757    -1763    -1852    -1980    -2153    -2301    -2327 
   -2239    -2153    -2116    -2068    -1988    -2004    -2199    -2432 
   -2556    -2573    -2532    -2396    -2073    -1645    -1375    -1339 
   -1404    -1605    -2042    -2527    -2805    -2878    -2813    -2617 
   -2376    -2197    -2035    -1822    -1664    -1641    -1678    -1782 
   -1977    -2060    -1879    -1637    -1610    -1768    -1950    -2130 
   -2285    -2322    -2246    -2173    -2189    -2335    -2554    -2749 
   -2922    -3071    -3042    -2693    -2142    -1637    -1275    -1065 
   -1113    -1490    -2027    -2471    -2716    -2737    -2502    -2069 
   -1620    -1331    -1316    -1622    -2074    -2390    -2531    -2590 
   -2511    -2209    -1833    -1667    -1792    -2023    -2205    -2290 
   -2280    -2184    -1946    -1607    -1468    -1753    -2289    -2732 
   -2929    -2937    -2805    -2520    -2151    -1879    -1809    -1930 
   -2197    -2493    -2652    -2566    -2228    -1788    -1507    -1493 
   -1559    -1553    -1582    -1732    -1911    -1993    -1942    -1837 
   -1798    -1864    -2012    -2258    -2560    -2737    -2681    -2478 
   -2232    -1972    -1787    -1845    -2172    -2592    -2918    -3040 
   -2883    -2473    -1956    -1505    -1286    -1414    -1798    -2115 
   -2087    -1786    -1548    -1549    -1690    -1896    -2219    -2600 
   -2813    -2705    -2409    -2191    -2122    -2114    -2127    -2184 
   -2234    -2165    -2002    -1933    -2073    -2317    -2469    -2411 
   -2181    -1917    -1745    -1672    -1630    -1617    -1671    -1800 
   -1972    -2154    -2384    -2636    -2733    -2627    -2488    -2466 
   -2581    -2709    -2702    -2551    -2278    -1908    -1583    -1497 
   -1690    -1975    -2143    -2173    -2088    -1876    -1634    -1521 
   -1557    -1675    -1872    -2114    -2259    -2308    -2446    -2650 
   -2633    -2334    -2035    -1949    -1987    -1971    -1896    -1946 
   -2176    -2366    -2362    -2280    -2273    -2313    -2289    -2191 
   -2110    -2138    -2299    -2471    -2469    -2247    -1950    -1714 
   -1551    -1470    -1555    -1795    -2018    -2141    -2243    -2323 
   -2268    -2062    -1804    -1582    -1470    -1578    -1954    -2412 
   -2647    -2632    -2554    -2420    -2146    -1834    -1683    -1767 
   -1999    -2276    -2571    -2799    -2758    -2376    -1888    -1578 
   -1521    -1687    -2020    -2357    -2511    -2423    -2176    -1952 
   -1825    -1688    -1476    -1344    -1501    -1965    -2558    -3057 
   -3218    -2914    -2309    -1696    -1312    -1285    -1617    -2173 
   -2698    -2914    -2737    -2344    -1977    -1765    -1725    -1826 
   -1993    -2162    -2299    -2373    -2369    -2284    -2103    -1884 
   -1782    -1925    -2270    -2546    -2478    -2114    -1790    -1684 
   -1683    -1742    -1996    -2430    -2732    -2654    -2296    -1923 
   -1680    -1583    -1660    -1979    -2427    -2709    -2709    -2552 
   -2308    -1984    -1656    -1472    -1586    -1945    -2311    -2601 
   -2826    -2853    -2613    -2214    -1800    -1499    -1432    -1691 
   -2204    -2664    -2830    -2735    -2465    -2003    -1476    -1209 
   -1333    -1703    -2157    -2571    -2868    -2982    -2748    -2087 
   -1267     -772     -862    -1378    -2039    -2667    -3115    -3268 
   -3060    -2496    -1823    -1412    -1417    -1740    -2185    -2579 
   -2841    -2917    -2704    -2191    -1594    -1209    -1120    -1243 
   -1559    -1988    -2327    -2477    -2461    -2305    -2084    -1875 
   -1717    -1694    -1915    -2313    -2656    -2812    -2766    -2521 
   -2165    -1840    -1632    -1579    -1687    -1945    -2319    -2671 
   -2849    -2835    -2629    -2172    -1560    -1117    -1082    -1448 
   -2064    -2666    -2936    -2754    -2261    -1714    -1425    -1588 
   -2050    -2446    -2567    -2451    -2220    -1980    -1854    -1935 
   -2177    -2392    -2376    -2149    -1972    -1999    -2107    -2107 
   -1975    -1838    -1763    -1746    -1890    -2227    -2560    -2685 
   -2565    -2268    -1942    -1796    -1907    -2142    -2366    -2555 
   -2586    -2296    -1818    -1487    -1441    -1625    -1933    -2231 
   -2432    -2515    -2458    -2269    -2061    -1946    -1906    -1884 
   -1942    -2177    -2524    -2744    -2691    -2430    -2131    -1922 
   -1798    -1710    -1686    -1734    -1806    -1919    -2142    -2432 
   -2620    -2542    -2227    -1857    -1560    -1379    -1382    -1591 
   -1934    -2363    -2793    -3053    -3048    -2783    -2296    -1694 
   -1196    -1086    -1452    -2020    -2461    -2639    -2566    -2330 
   -1996    -1615    -1395    -1541    -1929    -2263    -2461    -2598 
   -2662    -2587    -2435    -2293    -2162    -2025    -1894    -1822 
   -1921    -2201    -2490    -2597    -2408    -2012    -1718    -1694 
   -1857    -2118    -2367    -2471    -2392    -2188    -1988    -1907 
   -1912    -1892    -1856    -1906    -2088    -2322    -2490    -2533 
   -2444    -2284    -2146    -2065    -2022    -2020    -2043    -2070 
   -2103    -2081    -1985    -1910    -1907    -1960    -2016    -1980 
   -1865    -1833    -1880    -1852    -1745    -1691    -1784    -2056 
   -2420    -2685    -2728    -2605    -2432    -2227    -2065    -2128 
   -2384    -2533    -2417    -2174    -1969    -1821    -1734    -1787 
   -1998    -2239    -2420    -2501    -2393    -2149    -1971    -1923 
   -1953    -2061    -2200    -2227    -2107    -2000    -2022    -2091 
   -2088    -2012    -1977    -2035    -2083    -2039    -2037    -2173 
   -2316    -2332    -2247    -2123    -1968    -1799    -1744    -1902 
   -2177    -2393    -2444    -2301    -2069    -1919    -1899    -1952 
   -2025    -2066    -2074    -2110    -2166    -2172    -2091    -1952 
   -1794    -1659    -1629    -1773    -2038    -2322    -2563    -2729 
   -2783    -2710    -2536    -2328    -2143    -2002    -1910    -1919 
   -2076    -2281    -2362    -2261    -2070    -1914    -1809    -1707 
   -1669    -1815    -2084    -2286    -2354    -2312    -2146    -1896 
   -1753    -1853    -2103    -2338    -2488    -2529    -2427    -2145 
   -1780    -1540    -1489    -1548    -1699    -1966    -2270    -2488 
   -2565    -2527    -2415    -2241    -2046    -1911    -1911    -2041 
   -2189    -2276    -2339    -2419    -2482    -2478    -2428    -2362 
   -2247    -2091    -1980    -1915    -1845    -1815    -1868    -1995 
   -2181    -2311    -2230    -2003    -1840    -1777    -1746    -1796 
   -1962    -2130    -2200    -2215    -2201    -2056    -1773    -1601 
   -1715    -2010    -2334    -2643    -2876    -2951    -2845    -2594 
   -2332    -2187    -2091    -1919    -1723    -1606    -1566    -1632 
   -1891    -2263    -2520    -2528    -2322    -2022    -1742    -1572 
   -1620    -1902    -2242    -2394    -2313    -2164    -2061    -1995 
   -2002    -2158    -2403    -2517    -2412    -2257    -2172    -2070 
   -1937    -1903    -2031    -2197    -2234    -2131    -2025    -2023 
   -2074    -2034    -1915    -1887    -1946    -1946    -1938    -2134 
   -2520    -2794    -2739    -2438    -2043    -1656    -1444    -1503 
   -1719    -1964    -2172    -2299    -2351    -2386    -2415    -2370 
   -2204    -1991    -1825    -1732    -1744    -1917    -2220    -2484 
   -2566    -2447    -2177    -1875    -1707    -1733    -1899    -2141 
   -2347    -2425    -2427    -2381    -2239    -2037    -1930    -2030 
   -2211    -2250    -2182    -2157    -2118    -1980    -1842    -1844 
   -1988    -2151    -2223    -2230    -2238    -2219    -2135    -2054 
   -2049    -2107    -2164    -2191    -2211    -2204    -2141    -2093 
   -2118    -2138    -2089    -2004    -1961    -1985    -2065    -2185 
   -2281    -2253    -2108    -1942    -1833    -1814    -1873    -1965 
   -2047    -2099    -2131    -2153    -2174    -2209    -2235    -2208 
   -2154    -2137    -2154    -2157    -2143    -2151    -2205    -2261 
   -2263    -2219    -2165    -2108    -2037    -1961    -1935    -1996 
   -2083    -2114    -2103    -2110    -2149    -2180    -2182    -2184 
   -2165    -2087    -2003    -1999    -2099    -2265    -2400    -2421 
   -2353    -2243    -2099    -1949    -1842    -1792    -1809    -1912 
   -2060    -2149    -2128    -2035    -1929    -1876    -1922    -2020 
   -2123    -2262    -2424    -2500    -2423    -2254    -2118    -2074 
   -2092    -2110    -2106    -2087    -2064    -2080    -2149    -2219 
   -2255    -2219    -2079    -1906    -1815    -1848    -1971    -2116 
   -2216    -2246    -2215    -2120    -1971    -1852    -1872    -2011 
   -2151    -2249    -2320    -2332    -2243    -2099    -2002    -1998 
   -2058    -2158    -2286    -2405    -2438    -2308    -2045    -1780 
   -1610    -1549    -1621    -1867    -2234    -2554    -2697    -2658 
   -2470    -2149    -1773    -1521    -1533    -1773    -2089    -2358 
   -2552    -2655    -2608    -2420    -2208    -2042    -1908    -1853 
   -1937    -2083    -2182    -2281    -2405    -2430    -2266    -2011 
   -1779    -1609    -1539    -1601    -1792    -2076    -2346    -2494 
