Origin Time       2024/06/23 22:54:00
Lat.              35.645
Long.             140.060
Depth. (km)       72
Mag.              4.1
Station Code      CHBH13
Station Lat.      35.8307
Station Long.     140.2980
Station Height(m) -1288
Record Time       2024/06/23 22:54:35
Sampling Freq(Hz) 100Hz
Duration Time(s)  120
Dir.              2
Scale Factor      2942(gal)/8224139
Max. Acc. (gal)   0.354
Last Correction   2024/06/23 22:54:36
Memo.             
[...]
 -120544  -120542  -120542  -120542  -120541  -120541  -120542  -120544 
 -120545  -120544  -120542  -120542  -120542  -120542  -120542  -120542 
 -120542  -120541  -120541  -120541  -120542  -120542  -120540  -120540 
 -120541  -120540  -120542  -120544  -120542  -120541  -120542  -120542 
 -120541  -120541  -120541  -120538  -120541  -120542  -120542  -120542 
 -120542  -120541  -120541  -120541  -120542  -120541  -120540  -120540 
 -120540  -120540  -120540  -120540  -120541  -120542  -120542  -120542 
 -120542  -120542  -120542  -120540  -120540  -120542  -120544  -120542 
 -120541  -120541  -120541  -120541  -120541  -120542  -120542  -120540 
 -120540  -120542  -120541  -120540  -120541  -120541  -120540  -120541 
 -120540  -120538  -120540  -120542  -120542  -120541  -120541  -120542 
 -120541  -120538  -120540  -120541  -120541  -120541  -120541  -120540 
 -120541  -120542  -120542  -120542  -120542  -120542  -120542  -120540 
 -120541  -120544  -120542  -120541  -120544  -120544  -120541  -120541 
 -120542  -120542  -120540  -120540  -120541  -120541  -120542  -120542 
 -120540  -120541  -120542  -120540  -120540  -120542  -120540  -120538 
 -120542  -120542  -120541  -120544  -120542  -120540  -120540  -120540 
 -120541  -120542  -120541  -120541  -120540  -120541  -120542  -120542 
 -120544  -120542  -120541  -120541  -120540  -120541  -120541  -120542 
 -120542  -120542  -120542  -120542  -120541  -120541  -120541  -120541 
 -120541  -120540  -120540  -120541  -120542  -120542  -120541  -120542 
 -120541  -120541  -120542  -120542  -120542  -120542  -120542  -120542 
 -120541  -120541  -120541  -120541  -120541  -120542  -120542  -120540 
 -120540  -120542  -120542  -120542  -120542  -120542  -120542  -120541 
 -120542  -120542  -120544  -120545  -120544  -120540  -120542  -120544 
 -120541  -120542  -120542  -120542  -120542  -120542  -120541  -120541 
 -120542  -120540  -120538  -120541  -120542  -120541  -120541  -120541 
 -120541  -120541  -120541  -120540  -120541  -120541  -120538  -120540 
 -120544  -120544  -120541  -120540  -120540  -120541  -120542  -120542 
 -120542  -120542  -120542  -120540  -120540  -120541  -120540  -120541 
 -120544  -120542  -120541  -120541  -120541  -120540  -120541  -120542 
 -120541  -120540  -120540  -120541  -120541  -120538  -120540  -120540 
 -120541  -120541  -120541  -120541  -120540  -120542  -120544  -120542 
 -120542  -120541  -120540  -120540  -120541  -120541  -120541  -120541 
 -120541  -120540  -120542  -120544  -120542  -120544  -120544  -120542 
 -120540  -120540  -120542  -120542  -120541  -120544  -120542  -120540 
 -120541  -120540  -120540  -120541  -120541  -120542  -120542  -120542 
 -120544  -120542  -120544  -120545  -120542  -120541  -120540  -120540 
 -120541  -120541  -120541  -120542  -120545  -120542  -120540  -120540 
 -120542  -120540  -120540  -120540  -120541  -120542  -120542  -120540 
 -120541  -120541  -120541  -120541  -120542  -120544  -120544  -120542 
 -120542  -120544  -120544  -120542  -120541  -120542  -120542  -120538 
 -120538  -120541  -120542  -120541  -120542  -120542  -120542  -120542 
 -120541  -120541  -120541  -120541  -120541  -120542  -120542  -120540 
 -120540  -120541  -120542  -120542  -120541  -120542  -120542  -120544 
 -120542  -120540  -120540  -120542  -120542  -120540  -120540  -120542 
 -120542  -120541  -120544  -120542  -120541  -120541  -120540  -120538 
 -120541  -120541  -120541  -120542  -120542  -120542  -120542  -120542 
 -120544  -120542  -120542  -120542  -120541  -120542  -120542  -120540 
 -120541  -120544  -120542  -120540  -120541  -120542  -120541  -120542 
 -120542  -120542  -120541  -120541  -120542  -120542  -120542  -120541 
 -120541  -120542  -120541  -120541  -120542  -120542  -120544  -120545 
 -120541  -120540  -120541  -120541  -120541  -120540  -120540  -120542 
 -120544  -120541  -120542  -120544  -120541  -120541  -120542  -120542 
 -120544  -120542  -120541  -120545  -120544  -120538  -120541  -120542 
 -120540  -120540  -120541  -120542  -120542  -120542  -120541  -120542 
 -120541  -120538  -120540  -120541  -120544  -120544  -120541  -120540 
 -120542  -120544  -120544  -120541  -120540  -120541  -120544  -120544 
 -120542  -120544  -120545  -120544  -120542  -120541  -120540  -120541 
 -120542  -120542  -120544  -120544  -120542  -120544  -120545  -120542 
 -120541  -120542  -120542  -120540  -120540  -120542  -120542  -120542 
 -120541  -120542  -120542  -120541  -120542  -120542  -120541  -120544 
 -120545  -120541  -120542  -120542  -120540  -120540  -120544  -120542 
 -120542  -120542  -120541  -120542  -120544  -120541  -120540  -120542 
 -120542  -120542  -120544  -120544  -120542  -120541  -120541  -120541 
 -120542  -120542  -120541  -120541  -120542  -120541  -120541  -120541 
 -120541  -120542  -120541  -120541  -120541  -120540  -120541  -120542 
 -120541  -120542  -120542  -120540  -120540  -120540  -120540  -120542 
 -120542  -120541  -120540  -120541  -120544  -120542  -120540  -120541 
 -120542  -120542  -120544  -120541  -120540  -120542  -120542  -120541 
 -120541  -120542  -120541  -120540  -120541  -120541  -120541  -120542 
 -120544  -120540  -120540  -120542  -120544  -120542  -120541  -120542 
 -120541  -120542  -120542  -120541  -120541  -120542  -120541  -120540 
 -120541  -120542  -120542  -120541  -120541  -120542  -120542  -120540 
 -120540  -120541  -120541  -120541  -120540  -120538  -120541  -120542 
 -120541  -120541  -120542  -120541  -120541  -120541  -120540  -120541 
 -120544  -120540  -120538  -120541  -120541  -120542  -120542  -120541 
 -120544  -120544  -120540  -120541  -120542  -120542  -120541  -120541 
 -120540  -120538  -120542  -120541  -120537  -120534  -120533  -120529 
 -120523  -120518  -120513  -120511  -120521  -120538  -120552  -120559 
 -120568  -120582  -120584  -120564  -120536  -120515  -120503  -120480 
 -120467  -120491  -120519  -120509  -120494  -120523  -120573  -120595 
 -120568  -120521  -120513  -120561  -120582  -120544  -120579  -120711 
 -120784  -120752  -120658  -120480  -120294  -120255  -120352  -120490 
 -120649  -120729  -120586  -120383  -120356  -120430  -120537  -120719 
 -120873  -120883  -120729  -120415  -120132  -120135  -120399  -120726 
 -120916  -120834  -120564  -120316  -120194  -120272  -120519  -120784 
 -120920  -120785  -120499  -120376  -120366  -120355  -120529  -120811 
 -120918  -120833  -120542  -120101  -119956  -120263  -120607  -120792 
 -120793  -120542  -120316  -120393  -120594  -120750  -120922  -120939 
 -120642  -120332  -120197  -120168  -120411  -120775  -120810  -120681 
 -120615  -120441  -120209  -120141  -120272  -120542  -120845  -120938 
 -120704  -120474  -120468  -120464  -120461  -120617  -120708  -120640 
 -120630  -120595  -120394  -120236  -120264  -120414  -120591  -120708 
 -120707  -120573  -120432  -120410  -120429  -120517  -120723  -120791 
 -120644  -120514  -120502  -120606  -120735  -120695  -120456  -120222 
 -120271  -120534  -120579  -120413  -120420  -120582  -120661  -120667 
 -120673  -120564  -120394  -120436  -120576  -120583  -120588  -120684 
 -120708  -120572  -120422  -120382  -120444  -120564  -120584  -120496 
 -120514  -120617  -120627  -120579  -120549  -120506  -120496  -120615 
 -120711  -120630  -120479  -120363  -120356  -120483  -120602  -120582 
 -120475  -120426  -120468  -120534  -120614  -120665  -120629  -120556 
 -120523  -120568  -120618  -120553  -120420  -120318  -120343  -120576 
 -120773  -120700  -120545  -120456  -120422  -120471  -120542  -120596 
 -120653  -120636  -120546  -120563  -120652  -120603  -120476  -120463 
 -120492  -120495  -120572  -120645  -120582  -120448  -120359  -120391 
 -120544  -120653  -120607  -120560  -120623  -120653  -120596  -120575 
 -120549  -120464  -120468  -120560  -120572  -120556  -120611  -120622 
 -120525  -120415  -120382  -120463  -120623  -120699  -120627  -120538 
 -120480  -120453  -120472  -120478  -120469  -120546  -120649  -120598 
 -120503  -120584  -120627  -120410  -120255  -120420  -120681  -120812 
 -120768  -120626  -120514  -120430  -120357  -120356  -120444  -120596 
 -120696  -120669  -120617  -120519  -120403  -120463  -120592  -120644 
 -120730  -120698  -120418  -120232  -120313  -120490  -120649  -120715 
 -120634  -120515  -120540  -120707  -120715  -120464  -120347  -120449 
 -120455  -120451  -120622  -120726  -120598  -120428  -120401  -120436 
 -120467  -120594  -120703  -120641  -120604  -120610  -120487  -120468 
 -120636  -120673  -120484  -120279  -120332  -120577  -120671  -120590 
 -120540  -120588  -120661  -120656  -120559  -120410  -120336  -120433 
 -120498  -120486  -120609  -120742  -120766  -120796  -120687  -120370 
 -120171  -120290  -120588  -120796  -120679  -120452  -120471  -120565 
 -120522  -120453  -120478  -120602  -120700  -120692  -120619  -120397 
 -120085  -120123  -120546  -120700  -120528  -120617  -120702  -120401 
 -120260  -120548  -120858  -121009  -121020  -120746  -120239  -119990 
 -120225  -120591  -120873  -121004  -120814  -120546  -120484  -120425 
 -120251  -120129  -120189  -120379  -120599  -120834  -120953  -120830 
 -120611  -120463  -120399  -120393  -120476  -120646  -120714  -120646 
 -120619  -120522  -120353  -120448  -120592  -120438  -120337  -120440 
 -120471  -120492  -120614  -120648  -120645  -120749  -120711  -120492 
 -120399  -120387  -120360  -120461  -120622  -120680  -120688  -120680 
 -120582  -120415  -120349  -120495  -120699  -120711  -120449  -120164 
 -120236  -120546  -120746  -120764  -120664  -120559  -120463  -120425 
 -120507  -120591  -120673  -120748  -120640  -120418  -120313  -120360 
 -120502  -120663  -120660  -120453  -120318  -120414  -120576  -120623 
 -120575  -120529  -120549  -120658  -120715  -120501  -120123  -120093 
 -120577  -121014  -121032  -120834  -120555  -120312  -120298  -120405 
 -120521  -120661  -120681  -120627  -120658  -120622  -120495  -120440 
 -120417  -120386  -120374  -120403  -120490  -120606  -120725  -120722 
 -120580  -120532  -120564  -120486  -120428  -120523  -120575  -120522 
 -120599  -120738  -120631  -120428  -120440  -120491  -120409  -120457 
 -120711  -120802  -120606  -120451  -120468  -120463  -120483  -120671 
 -120771  -120583  -120337  -120285  -120401  -120483  -120486  -120600 
 -120826  -120901  -120717  -120442  -120357  -120452  -120422  -120321 
 -120376  -120492  -120600  -120750  -120865  -120742  -120390  -120191 
 -120390  -120754  -120906  -120729  -120472  -120343  -120328  -120368 
 -120430  -120614  -120887  -120900  -120600  -120301  -120191  -120309 
 -120530  -120726  -120846  -120735  -120434  -120245  -120255  -120413 
 -120722  -120889  -120714  -120521  -120460  -120364  -120299  -120414 
 -120675  -120847  -120735  -120561  -120598  -120648  -120538  -120530 
 -120703  -120671  -120263  -119916  -120037  -120405  -120609  -120679 
 -120744  -120702  -120576  -120518  -120542  -120627  -120661  -120556 
 -120514  -120634  -120668  -120526  -120407  -120507  -120748  -120780 
 -120549  -120349  -120235  -120194  -120356  -120630  -120783  -120769 
 -120715  -120623  -120417  -120326  -120472  -120573  -120595  -120582 
 -120445  -120359  -120422  -120571  -120737  -120722  -120606  -120580 
 -120505  -120340  -120286  -120426  -120610  -120738  -120841  -120756 
 -120447  -120324  -120536  -120753  -120843  -120804  -120564  -120314 
 -120233  -120251  -120353  -120436  -120434  -120529  -120664  -120645 
 -120560  -120594  -120741  -120815  -120725  -120602  -120529  -120409 
 -120305  -120436  -120656  -120638  -120464  -120341  -120255  -120317 
 -120634  -120877  -120744  -120459  -120406  -120577  -120618  -120482 
 -120498  -120645  -120683  -120627  -120474  -120280  -120287  -120480 
 -120664  -120696  -120553  -120540  -120683  -120619  -120468  -120460 
 -120532  -120644  -120641  -120502  -120414  -120366  -120455  -120676 
 -120711  -120588  -120487  -120363  -120318  -120472  -120684  -120793 
 -120758  -120565  -120376  -120399  -120491  -120507  -120631  -120825 
 -120811  -120614  -120444  -120415  -120425  -120316  -120264  -120457 
 -120690  -120791  -120731  -120542  -120498  -120617  -120582  -120518 
 -120663  -120685  -120486  -120428  -120494  -120399  -120291  -120448 
 -120607  -120476  -120290  -120349  -120602  -120791  -120819  -120711 
 -120494  -120401  -120486  -120555  -120621  -120636  -120530  -120515 
 -120614  -120653  -120663  -120679  -120671  -120622  -120469  -120267 
 -120172  -120163  -120204  -120395  -120664  -120800  -120714  -120534 
 -120453  -120420  -120457  -120667  -120831  -120837  -120764  -120614 
 -120587  -120745  -120750  -120546  -120318  -120128  -120139  -120355 
 -120484  -120488  -120536  -120590  -120598  -120645  -120625  -120457 
 -120355  -120259  -120123  -120297  -120684  -120808  -120683  -120590 
 -120567  -120480  -120407  -120582  -120862  -120938  -120765  -120474 
 -120260  -120197  -120171  -120152  -120245  -120410  -120505  -120646 
 -120945  -121176  -121131  -120847  -120567  -120559  -120765  -120914 
 -120918  -120838  -120690  -120391  -119970  -119804  -120123  -120629 
 -120968  -121082  -121073  -120937  -120702  -120582  -120565  -120467 
 -120267  -120008  -119794  -119754  -119900  -120104  -120194  -120258 
 -120430  -120607  -120834  -121159  -121311  -121223  -121120  -120988 
 -120717  -120503  -120567  -120708  -120654  -120471  -120271  -120089 
 -119959  -119896  -120096  -120588  -121032  -121305  -121446  -121292 
 -120839  -120407  -120098  -119777  -119551  -119573  -119815  -120266 
 -120788  -121072  -121011  -120829  -120726  -120652  -120528  -120452 
 -120528  -120613  -120657  -120914  -121339  -121478  -121215  -120888 
 -120640  -120361  -120171  -120139  -120035  -119880  -119858  -119885 
 -119932  -120152  -120492  -120665  -120549  -120452  -120580  -120749 
 -120960  -121211  -121167  -120800  -120494  -120399  -120386  -120357 
 -120289  -120289  -120511  -120804  -121041  -121235  -121109  -120559 
 -120112  -120156  -120391  -120418  -120329  -120336  -120378  -120313 
 -120189  -120195  -120343  -120472  -120515  -120482  -120436  -120549 
 -120771  -120843  -120765  -120648  -120442  -120213  -120094  -120110 
 -120297  -120677  -121165  -121404  -121061  -120498  -120243  -120321 
 -120649  -121024  -121097  -120888  -120564  -120156  -119807  -119695 
 -119877  -120306  -120710  -120893  -120999  -121117  -121150  -121001 
 -120685  -120339  -120043  -119902  -120140  -120638  -120907  -120816 
 -120675  -120553  -120436  -120579  -120889  -120911  -120607  -120283 
 -120133  -120167  -120289  -120372  -120367  -120380  -120434  -120383 
 -120244  -120328  -120810  -121204  -121055  -120788  -120760  -120704 
 -120641  -120838  -121009  -120690  -120125  -119896  -120074  -120371 
 -120658  -120978  -121123  -120872  -120513  -120258  -120032  -120020 
 -120289  -120530  -120557  -120442  -120417  -120487  -120499  -120552 
 -120641  -120611  -120629  -120798  -120869  -120726  -120623  -120752 
 -120874  -120779  -120711  -120748  -120552  -120195  -120069  -120162 
 -120267  -120374  -120498  -120556  -120490  -120405  -120496  -120698 
 -120696  -120553  -120492  -120398  -120293  -120411  -120598  -120588 
 -120548  -120677  -120776  -120582  -120249  -120168  -120360  -120559 
 -120723  -120839  -120742  -120494  -120384  -120553  -120808  -120919 
 -120966  -120988  -120795  -120479  -120256  -120086  -120059  -120330 
 -120710  -120939  -120892  -120555  -120193  -120050  -120127  -120352 
 -120546  -120591  -120653  -120795  -120825  -120725  -120749  -120866 
 -120698  -120236  -119907  -119863  -119988  -120217  -120515  -120784 
 -120891  -120888  -120916  -120911  -120850  -120815  -120748  -120677 
 -120707  -120738  -120684  -120565  -120363  -120145  -119989  -119897 
 -120023  -120380  -120657  -120773  -120892  -120862  -120526  -120199 
 -120152  -120241  -120322  -120363  -120406  -120565  -120783  -120911 
 -120937  -120814  -120599  -120534  -120561  -120483  -120452  -120555 
 -120604  -120460  -120274  -120332  -120496  -120587  -120756  -120908 
 -120919  -120906  -120804  -120623  -120521  -120386  -120220  -120328 
 -120630  -120738  -120710  -120745  -120688  -120511  -120370  -120247 
 -120197  -120294  -120409  -120425  -120371  -120347  -120399  -120414 
 -120391  -120476  -120615  -120719  -120807  -120766  -120579  -120407 
 -120262  -120167  -120313  -120540  -120549  -120521  -120610  -120679 
 -120752  -120826  -120838  -120885  -120961  -121030  -121039  -120826 
 -120515  -120349  -120305  -120378  -120502  -120564  -120582  -120440 
 -120105  -119913  -120090  -120455  -120691  -120658  -120499  -120371 
 -120347  -120522  -120742  -120775  -120764  -120853  -120881  -120781 
 -120706  -120676  -120618  -120529  -120417  -120383  -120468  -120465 
 -120313  -120117  -120019  -120175  -120447  -120626  -120806  -120965 
 -120872  -120613  -120498  -120451  -120348  -120465  -120783  -120870 
 -120676  -120499  -120491  -120545  -120549  -120594  -120669  -120564 
 -120351  -120318  -120438  -120533  -120606  -120641  -120592  -120521 
 -120479  -120468  -120494  -120494  -120433  -120415  -120486  -120549 
 -120568  -120619  -120745  -120872  -120852  -120694  -120532  -120372 
 -120198  -120108  -120177  -120355  -120502  -120559  -120640  -120723 
 -120672  -120636  -120803  -121008  -121045  -120927  -120741  -120515 
 -120274  -120098  -120066  -120226  -120453  -120442  -120285  -120337 
 -120471  -120463  -120540  -120758  -120793  -120619  -120456  -120334 
 -120322  -120463  -120540  -120502  -120491  -120545  -120668  -120799 
 -120834  -120800  -120804  -120815  -120660  -120368  -120163  -120151 
 -120314  -120530  -120664  -120675  -120580  -120528  -120586  -120595 
 -120515  -120469  -120429  -120310  -120268  -120413  -120572  -120594 
 -120488  -120415  -120561  -120787  -120893  -120958  -120976  -120800 
 -120563  -120501  -120502  -120403  -120348  -120391  -120409  -120372 
 -120290  -120262  -120417  -120688  -120927  -121046  -121003  -120812 
 -120552  -120360  -120258  -120114  -120013  -120114  -120325  -120541 
 -120733  -120738  -120559  -120459  -120533  -120629  -120649  -120677 
 -120757  -120773  -120680  -120627  -120715  -120741  -120600  -120561 
 -120700  -120780  -120710  -120515  -120318  -120321  -120455  -120533 
 -120573  -120548  -120418  -120306  -120305  -120401  -120518  -120532 
 -120434  -120372  -120456  -120626  -120695  -120600  -120507  -120507 
 -120584  -120730  -120850  -120839  -120721  -120583  -120491  -120456 
 -120457  -120487  -120490  -120487  -120533  -120455  -120217  -120120 
 -120222  -120336  -120407  -120491  -120577  -120569  -120502  -120517 
 -120576  -120603  -120626  -120680  -120777  -120872  -120883  -120764 
 -120599  -120553  -120577  -120483  -120321  -120274  -120372  -120511 
 -120602  -120649  -120640  -120583  -120591  -120594  -120459  -120322 
 -120295  -120314  -120357  -120395  -120452  -120587  -120734  -120864 
 -120980  -120995  -120970  -120997  -120937  -120765  -120603  -120440 
 -120305  -120244  -120218  -120251  -120345  -120422  -120459  -120468 
 -120437  -120379  -120336  -120332  -120372  -120415  -120445  -120503 
 -120583  -120642  -120739  -120858  -120872  -120783  -120631  -120469 
 -120429  -120460  -120434  -120401  -120401  -120388  -120387  -120411 
