Origin Time       2024/06/23 22:54:00
Lat.              35.645
Long.             140.060
Depth. (km)       72
Mag.              4.1
Station Code      CHBH16
Station Lat.      35.1384
Station Long.     139.9649
Station Height(m) 160
Record Time       2024/06/23 22:54:46
Sampling Freq(Hz) 100Hz
Duration Time(s)  120
Dir.              5
Scale Factor      7845(gal)/8223790
Max. Acc. (gal)   1.964
Last Correction   2024/06/23 22:54:46
Memo.             
[...]
    1871     1871     1869     1869     1872     1871     1868     1869 
    1871     1872     1871     1869     1871     1868     1867     1871 
    1871     1869     1873     1872     1868     1868     1868     1869 
    1872     1872     1873     1872     1867     1868     1869     1871 
    1873     1872     1871     1872     1871     1869     1869     1868 
    1869     1872     1872     1871     1871     1871     1871     1869 
    1869     1868     1867     1869     1871     1868     1871     1871 
    1868     1871     1872     1871     1872     1871     1871     1872 
    1871     1871     1871     1872     1875     1872     1869     1868 
    1867     1871     1875     1872     1872     1873     1872     1872 
    1871     1869     1871     1871     1872     1873     1871     1871 
    1873     1872     1872     1875     1875     1873     1872     1871 
    1871     1871     1871     1871     1871     1873     1872     1871 
    1872     1873     1872     1872     1871     1871     1873     1872 
    1872     1871     1869     1871     1872     1871     1872     1871 
    1869     1873     1872     1871     1871     1871     1871     1872 
    1871     1872     1872     1869     1869     1869     1869     1871 
    1872     1871     1871     1871     1871     1869     1871     1872 
    1869     1869     1873     1872     1868     1868     1865     1868 
    1871     1867     1871     1875     1868     1867     1868     1868 
    1871     1871     1872     1872     1868     1869     1871     1871 
    1871     1871     1872     1872     1869     1871     1869     1865 
    1865     1868     1868     1871     1869     1868     1871     1869 
    1869     1871     1869     1869     1871     1867     1868     1869 
    1868     1869     1871     1869     1869     1869     1871     1869 
    1867     1871     1872     1868     1869     1869     1864     1867 
    1872     1872     1871     1871     1872     1872     1871     1872 
    1871     1868     1871     1869     1868     1869     1869     1871 
    1872     1871     1871     1872     1872     1872     1871     1872 
    1873     1869     1868     1871     1869     1869     1873     1871 
    1869     1871     1871     1871     1872     1872     1873     1873 
    1871     1871     1871     1871     1871     1871     1872     1871 
    1868     1871     1873     1872     1873     1871     1869     1875 
    1871     1869     1872     1872     1872     1871     1868     1871 
    1869     1868     1871     1869     1869     1872     1869     1869 
    1872     1871     1871     1871     1871     1872     1871     1869 
    1872     1871     1872     1875     1872     1872     1872     1872 
    1873     1871     1868     1868     1871     1872     1873     1872 
    1871     1868     1868     1869     1872     1872     1873     1876 
    1877     1876     1871     1869     1868     1868     1872     1875 
    1872     1872     1872     1869     1865     1863     1867     1873 
    1875     1876     1877     1872     1867     1867     1864     1867 
    1871     1873     1875     1872     1871     1864     1854     1858 
    1877     1900     1919     1921     1894     1846     1809     1803 
    1831     1873     1908     1922     1907     1873     1836     1822 
    1842     1875     1902     1919     1919     1898     1863     1834 
    1827     1836     1840     1849     1872     1904     1938     1942 
    1896     1825     1775     1782     1838     1906     1938     1910 
    1844     1792     1784     1821     1892     1956     1969     1938 
    1892     1860     1850     1860     1871     1863     1845     1845 
    1860     1872     1881     1896     1899     1871     1836     1830 
    1849     1856     1838     1825     1845     1891     1930     1934 
    1907     1869     1845     1846     1871     1904     1930     1925 
    1884     1829     1795     1794     1799     1800     1810     1842 
    1898     1942     1942     1911     1879     1861     1861     1877 
    1902     1914     1910     1898     1876     1846     1821     1806 
    1803     1819     1850     1887     1904     1887     1856     1853 
    1885     1923     1917     1864     1826     1822     1826     1837 
    1863     1895     1918     1922     1914     1911     1911     1900 
    1865     1810     1765     1756     1787     1842     1880     1885 
    1883     1894     1929     1965     1966     1919     1856     1819 
    1822     1848     1880     1910     1918     1898     1868     1842 
    1827     1822     1819     1822     1827     1845     1883     1918 
    1934     1935     1934     1941     1938     1910     1857     1795 
    1744     1719     1728     1772     1830     1875     1906     1930 
    1944     1949     1948     1938     1929     1919     1906     1891 
    1876     1853     1813     1767     1752     1780     1834     1885 
    1911     1911     1895     1876     1876     1906     1941     1944 
    1906     1852     1819     1811     1818     1846     1880     1904 
    1921     1917     1888     1858     1850     1853     1841     1827 
    1854     1906     1931     1919     1895     1875     1853     1825 
    1810     1831     1875     1915     1929     1908     1873     1856 
    1860     1872     1872     1868     1872     1884     1906     1935 
    1956     1944     1903     1857     1822     1792     1768     1775 
    1818     1877     1926     1941     1933     1923     1907     1879 
    1844     1813     1803     1823     1872     1926     1945     1926 
    1892     1865     1852     1842     1825     1807     1804     1821 
    1842     1857     1868     1880     1885     1883     1884     1896 
    1910     1911     1896     1883     1875     1864     1854     1845 
    1841     1850     1860     1867     1881     1896     1910     1922 
    1927     1931     1927     1896     1841     1780     1745     1752 
    1777     1802     1821     1848     1895     1942     1965     1976 
    1971     1945     1912     1872     1836     1818     1814     1819 
    1837     1857     1872     1879     1888     1895     1877     1846 
    1830     1831     1841     1849     1854     1871     1885     1884 
    1880     1892     1921     1954     1966     1954     1927     1884 
    1831     1811     1849     1914     1945     1930     1895     1849 
    1811     1794     1780     1769     1764     1760     1779     1838 
    1914     1960     1968     1961     1948     1922     1894     1868 
    1837     1815     1811     1814     1826     1849     1881     1926 
    1952     1941     1919     1907     1891     1849     1795     1771 
    1791     1836     1883     1915     1927     1934     1945     1953 
    1953     1935     1898     1858     1837     1830     1813     1779 
    1757     1768     1795     1819     1822     1809     1800     1807 
    1836     1884     1938     1983     2004     1996     1976     1948 
    1904     1867     1864     1892     1907     1879     1827     1791 
    1786     1800     1821     1846     1873     1883     1883     1888 
    1888     1873     1867     1881     1902     1899     1872     1838 
    1817     1818     1829     1837     1841     1837     1822     1823 
    1861     1917     1965     1992     2014     2037     2037     1996 
    1923     1830     1745     1695     1690     1723     1771     1813 
    1856     1898     1934     1964     1973     1942     1888     1838 
    1796     1768     1777     1827     1885     1939     1993     2038 
    2049     2010     1925     1837     1773     1728     1710     1730 
    1763     1786     1807     1841     1876     1888     1872     1853 
    1841     1836     1838     1868     1930     1996     2045     2069 
    2069     2043     1998     1926     1830     1730     1653     1618 
    1630     1663     1691     1696     1696     1744     1853     1983 
    2092     2134     2096     2023     1969     1946     1922     1864 
    1783     1713     1686     1714     1783     1863     1930     1965 
    1966     1969     1995     2012     1981     1914     1854     1826 
    1837     1875     1910     1922     1899     1850     1817     1817 
    1848     1895     1930     1923     1880     1817     1765     1757 
    1779     1804     1814     1799     1790     1809     1840     1865 
    1892     1925     1969     2027     2084     2119     2103     2034 
    1946     1869     1806     1745     1686     1651     1637     1645 
    1678     1734     1813     1917     2039     2138     2160     2097 
    2006     1918     1818     1701     1601     1564     1597     1668 
    1749     1819     1875     1931     1992     2034     2039     1998 
    1910     1818     1777     1796     1833     1850     1863     1896 
    1957     2029     2077     2065     1992     1895     1818     1806 
    1846     1895     1923     1930     1930     1926     1885     1786 
    1669     1599     1591     1613     1638     1705     1833     2000 
    2153     2245     2269     2239     2149     2003     1837     1688 
    1578     1520     1526     1602     1702     1779     1837     1888 
    1933     1958     1976     1993     1999     1984     1981     2019 
    2084     2128     2110     2039     1954     1863     1763     1682 
    1651     1672     1702     1717     1733     1771     1815     1844 
    1852     1848     1837     1827     1848     1906     1973     2019 
    2031     2025     2012     1985     1942     1875     1769     1644 
    1545     1520     1595     1742     1891     2004     2077     2112 
    2133     2141     2110     2011     1869     1752     1701     1699 
    1713     1722     1753     1825     1917     2000     2061     2084 
    2050     1954     1821     1701     1636     1636     1675     1719 
    1759     1814     1895     1989     2069     2108     2107     2072 
    2006     1934     1873     1817     1756     1702     1692     1761 
    1887     2020     2108     2114     2045     1918     1752     1606 
    1534     1552     1634     1737     1836     1925     2002     2072 
    2134     2164     2124     2002     1833     1687     1595     1559 
    1574     1634     1732     1852     1976     2092     2196     2274 
    2300     2251     2142     2004     1871     1765     1695     1656 
    1651     1660     1656     1647     1665     1730     1823     1898 
    1921     1906     1872     1831     1799     1779     1777     1799 
    1830     1865     1903     1933     1929     1888     1849     1848 
    1863     1876     1910     1973     2043     2100     2139     2166 
    2172     2150     2095     1987     1834     1678     1552     1478 
    1458     1478     1524     1593     1694     1837     2006     2165 
    2282     2327     2290     2180     2002     1800     1629     1518 
    1489     1522     1582     1653     1748     1860     1961     2004 
    1987     1939     1902     1896     1918     1948     1980     2010 
    2049     2093     2104     2062     1996     1935     1892     1861 
    1845     1838     1826     1809     1800     1795     1775     1730 
    1669     1618     1599     1632     1721     1831     1914     1957 
    1962     1938     1900     1873     1887     1956     2068     2178 
    2243     2239     2174     2060     1903     1740     1607     1528 
    1497     1503     1539     1598     1684     1796     1896     1958 
    1998     2023     2018     1980     1934     1910     1934     1998 
    2065     2103     2079     1987     1857     1717     1586     1494 
    1471     1526     1630     1755     1873     1965     2030     2068 
    2069     2035     1981     1925     1895     1899     1919     1934 
    1912     1846     1763     1687     1633     1617     1642     1702 
    1786     1895     2026     2142     2200     2199     2158     2099 
    2033     1937     1809     1696     1637     1621     1633     1679 
    1757     1838     1892     1911     1900     1876     1860     1850 
    1845     1846     1865     1912     1999     2126     2281     2423 
    2513     2546     2515     2427     2295     2128     1942     1752 
    1576     1452     1397     1410     1497     1648     1834     2015 
    2145     2193     2172     2108     2020     1921     1834     1782 
    1786     1864     2004     2166     2322     2448     2519     2519 
    2444     2289     2049     1741     1409     1108      880      761 
     777      922     1163     1452     1738     1965     2100     2160 
    2176     2145     2057     1915     1729     1524     1328     1162 
    1061     1061     1163     1355     1606     1876     2135     2330 
    2421     2404     2288     2089     1831     1529     1212      927 
     719      637      708      913     1194     1483     1728     1883 
    1921     1864     1756     1641     1568     1575     1664     1821 
    2029     2286     2583     2879     3123     3264     3256     3100 
    2817     2431     2000     1574     1174      837      606      515 
     588      816     1175     1621     2091     2529     2887     3125 
    3238     3237     3144     3001     2843     2689     2566     2481 
    2454     2504     2616     2732     2789     2764     2671     2519 
    2309     2046     1736     1406     1107      876      747      734 
     819      978     1189     1433     1690     1925     2079     2115 
    2020     1814     1551     1318     1196     1215     1355     1564 
    1794     2026     2250     2457     2637     2787     2887     2928 
    2907     2817     2655     2444     2203     1935     1634     1278 
     874      469      124     -105     -189     -105      149      540 
    1009     1503     1956     2334     2619     2818     2968     3094 
    3192     3242     3207     3078     2878     2629     2344     2027 
    1679     1332     1026      787      639      603      677      847 
    1071     1301     1491     1632     1742     1838     1915     1987 
    2066     2182     2367     2610     2868     3073     3153     3067 
    2810     2404     1914     1418      993      695      537      513 
     627      877     1254     1723     2216     2647     2922     2991 
    2868     2610     2282     1975     1764     1691     1742     1856 
    1971     2047     2073     2053     1979     1848     1691     1544 
    1441     1420     1490     1636     1838     2068     2278     2413 
    2424     2300     2079     1819     1567     1351     1212     1190 
    1312     1559     1871     2180     2432     2581     2604     2515 
    2336     2100     1860     1663     1551     1553     1661     1833 
    2008     2124     2134     2020     1796     1503     1201      959 
     850      895     1069     1329     1630     1931     2201     2423 
    2587     2678     2679     2621     2542     2451     2362     2293 
    2261     2253     2224     2124     1938     1688     1428     1212 
    1075     1046     1124     1287     1513     1767     2014     2215 
    2317     2303     2188     1996     1755     1497     1269     1119 
    1081     1167     1356     1606     1867     2087     2216     2246 
    2197     2095     1960     1818     1698     1633     1672     1840 
    2107     2421     2722     2944     3040     3010     2866     2620 
    2295     1918     1532     1188      934      826      882     1062 
    1298     1529     1705     1810     1845     1842     1844     1865 
    1895     1914     1902     1875     1854     1836     1814     1798 
    1784     1757     1691     1607     1567     1598     1706     1887 
    2107     2320     2474     2521     2454     2285     2037     1756 
    1486     1274     1146     1094     1123     1250     1472     1761 
    2073     2358     2590     2764     2868     2894     2832     2695 
    2521     2340     2170     2025     1887     1740     1578     1416 
    1306     1304     1417     1620     1864     2087     2238     2284 
    2215     2061     1864     1680     1559     1506     1502     1517 
    1536     1576     1648     1744     1845     1930     1989     2022 
    2034     2049     2072     2107     2139     2138     2088     1991 
    1840     1653     1460     1278     1142     1080     1092     1170 
    1298     1458     1641     1821     1972     2085     2172     2253 
    2330     2380     2369     2278     2114     1906     1692     1513 
    1401     1360     1381     1439     1510     1602     1729     1898 
    2095     2290     2458     2583     2652     2651     2570     2408 
    2192     1949     1718     1551     1482     1512     1614     1753 
    1902     2046     2161     2219     2214     2145     2034     1907 
    1776     1652     1543     1440     1350     1290     1275     1314 
    1399     1520     1671     1840     2010     2173     2323     2447 
    2532     2562     2535     2452     2327     2172     1992     1813 
    1659     1545     1490     1497     1543     1593     1632     1660 
    1683     1705     1733     1769     1811     1864     1938     2025 
    2095     2124     2100     2031     1931     1811     1683     1560 
    1459     1398     1382     1421     1522     1668     1841     2012 
    2157     2263     2324     2330     2278     2177     2060     1953 
    1863     1800     1775     1786     1826     1884     1942     1991 
    2018     2012     1980     1927     1880     1860     1856     1867 
    1892     1922     1952     1964     1945     1903     1854     1814 
    1804     1830     1873     1922     1962     1985     1985     1965 
    1923     1850     1745     1618     1471     1318     1188     1098 
    1075     1129     1258     1456     1706     1983     2259     2501 
    2671     2744     2716     2609     2459     2288     2120     1979 
    1880     1834     1837     1865     1900     1922     1917     1887 
    1840     1790     1750     1729     1732     1752     1772     1786 
    1773     1726     1657     1579     1507     1463     1447     1447 
    1463     1485     1517     1571     1645     1744     1873     2022 
    2184     2355     2535     2704     2832     2899     2883     2767 
    2565     2297     1992     1710     1499     1371     1333     1386 
    1521     1714     1925     2110     2224     2249     2178     2016 
    1787     1537     1312     1147     1065     1065     1146     1290 
    1470     1661     1848     2003     2104     2133     2093     2011 
    1915     1830     1765     1707     1671     1663     1680     1726 
    1788     1845     1883     1891     1864     1809     1746     1698 
    1661     1630     1620     1634     1665     1717     1804     1927 
    2074     2218     2344     2466     2582     2681     2745     2751 
    2686     2556     2384     2203     2027     1868     1742     1647 
    1567     1497     1439     1398     1377     1370     1382     1412 
    1464     1552     1668     1807     1961     2108     2214     2259 
    2254     2214     2145     2065     1984     1895     1809     1733 
    1665     1609     1567     1539     1539     1584     1688     1852 
    2050     2249     2416     2527     2563     2524     2401     2208 
    1973     1726     1507     1348     1255     1228     1255     1314 
    1387     1459     1532     1611     1687     1755     1823     1890 
    1956     2027     2092     2142     2181     2195     2178     2128 
    2041     1931     1823     1736     1661     1593     1541     1503 
    1470     1444     1436     1463     1557     1738     2008     2336 
