Origin Time       2024/06/23 22:54:00
Lat.              35.645
Long.             140.060
Depth. (km)       72
Mag.              4.1
Station Code      CHBH06
Station Lat.      35.7215
Station Long.     140.5046
Station Height(m) 35
Record Time       2024/06/23 22:54:37
Sampling Freq(Hz) 100Hz
Duration Time(s)  120
Dir.              4
Scale Factor      7845(gal)/8223790
Max. Acc. (gal)   4.163
Last Correction   2024/06/23 22:54:37
Memo.             
[...]
   -1071    -1065    -1058    -1058    -1061    -1055    -1057    -1059 
   -1055    -1058    -1063    -1062    -1066    -1070    -1066    -1063 
   -1065    -1065    -1063    -1067    -1069    -1062    -1054    -1055 
   -1057    -1055    -1054    -1057    -1065    -1065    -1062    -1067 
   -1066    -1059    -1061    -1066    -1066    -1065    -1065    -1069 
   -1073    -1069    -1063    -1058    -1058    -1061    -1057    -1054 
   -1063    -1067    -1066    -1069    -1070    -1067    -1067    -1062 
   -1059    -1062    -1063    -1066    -1069    -1069    -1071    -1063 
   -1048    -1047    -1053    -1055    -1062    -1070    -1071    -1070 
   -1071    -1074    -1070    -1063    -1061    -1058    -1048    -1047 
   -1057    -1063    -1065    -1065    -1061    -1062    -1066    -1063 
   -1059    -1059    -1062    -1063    -1063    -1065    -1063    -1062 
   -1062    -1062    -1062    -1065    -1062    -1059    -1061    -1061 
   -1059    -1062    -1066    -1069    -1066    -1061    -1062    -1069 
   -1071    -1071    -1066    -1059    -1058    -1058    -1063    -1070 
   -1071    -1065    -1058    -1053    -1048    -1050    -1061    -1069 
   -1070    -1071    -1077    -1077    -1066    -1058    -1061    -1063 
   -1058    -1057    -1065    -1071    -1067    -1059    -1053    -1057 
   -1062    -1058    -1055    -1062    -1067    -1069    -1069    -1070 
   -1066    -1062    -1061    -1061    -1063    -1067    -1065    -1061 
   -1062    -1059    -1057    -1058    -1062    -1066    -1067    -1077 
   -1097    -1105    -1088    -1066    -1035     -989     -963     -980 
   -1017    -1058    -1102    -1131    -1120    -1116    -1162    -1192 
   -1163    -1113    -1046     -959     -928     -974     -994     -955 
    -911     -854     -796     -847    -1035    -1246    -1410    -1498 
   -1452    -1294    -1119    -1004     -977    -1026    -1085    -1070 
    -978     -909     -889     -830     -739     -747     -854     -986 
   -1167    -1368    -1471    -1462    -1399    -1269    -1098    -1009 
    -988     -924     -816     -745     -749     -827     -949    -1031 
   -1053    -1081    -1128    -1177    -1270    -1414    -1507    -1428 
   -1209    -1026     -980    -1000     -980     -907     -800     -691 
    -627     -614     -668     -851    -1131    -1401    -1595    -1638 
   -1462    -1154     -924     -903    -1053    -1201    -1196    -1071 
    -977     -949     -916     -868     -896    -1085    -1343    -1475 
   -1408    -1198     -945     -745     -662     -657     -656     -668 
    -727     -800     -927    -1224    -1624    -1879    -1856    -1644 
   -1377    -1104     -865     -696     -608     -675     -934    -1178 
   -1244    -1196    -1039     -837     -761     -815     -857     -826 
    -811     -951    -1232    -1485    -1557    -1445    -1279    -1185 
   -1139    -1027     -812     -618     -561     -638     -849    -1183 
   -1479    -1580    -1493    -1282    -1043     -920     -957    -1024 
    -992     -865     -773     -839    -1026    -1163    -1171    -1127 
   -1105    -1113    -1152    -1215    -1273    -1335    -1399    -1389 
   -1228     -919     -565     -351     -425     -700     -904     -905 
    -855     -988    -1343    -1738    -1976    -2027    -1965    -1798 
   -1471     -981     -418       39      230      106     -279     -800 
   -1274    -1539    -1541    -1412    -1428    -1711    -1962    -1775 
   -1128     -368      139      167     -261     -869    -1375    -1628 
   -1626    -1572    -1579    -1494    -1267    -1111    -1208    -1443 
   -1479    -1109     -552     -237     -270     -349     -275     -195 
    -348     -812    -1399    -1799    -1945    -2039    -2222    -2357 
   -2170    -1574     -807     -225        9      -22     -206     -477 
    -812    -1198    -1543    -1702    -1617    -1274     -815     -577 
    -692     -909     -986     -905     -784     -788    -1001    -1364 
   -1777    -2038    -1894    -1414     -992     -851     -886     -880 
    -753     -618     -622     -758     -841     -642     -243      -79 
    -410    -1040    -1664    -2123    -2412    -2543    -2440    -2068 
   -1599    -1163     -633        2      402      372      143      -29 
    -155     -337     -661    -1202    -1898    -2442    -2542    -2317 
   -2145    -2068    -1830    -1332     -714     -186       71        1 
    -283     -606     -822     -909     -981    -1093    -1194    -1296 
   -1501    -1844    -2123    -2004    -1410     -724     -422     -527 
    -658     -571     -399     -390     -545     -689     -788     -986 
   -1378    -1817    -2069    -2066    -1917    -1717    -1463    -1163 
    -878     -606     -376     -324     -487     -734     -865     -805 
    -715     -819    -1151    -1498    -1567    -1247     -820     -731 
   -1059    -1487    -1734    -1756    -1615    -1333     -915     -542 
    -475     -689     -901     -945     -888     -800     -679     -625 
    -814    -1243    -1637    -1725    -1497    -1196    -1096    -1177 
   -1190    -1077    -1055    -1264    -1498    -1420     -958     -373 
     -71     -164     -378     -558     -816    -1188    -1595    -1958 
   -2174    -2160    -1898    -1439     -953     -687     -693     -687 
    -456     -263     -448     -897    -1260    -1343    -1127     -765 
    -535     -612     -928    -1305    -1615    -1790    -1822    -1784 
   -1692    -1449    -1027     -561     -217      -91     -230     -616 
   -1085    -1383    -1422    -1356    -1320    -1313    -1310    -1250 
   -1088     -922     -851     -888    -1021    -1190    -1309    -1389 
   -1414    -1228     -803     -417     -372     -695    -1111    -1316 
   -1258    -1109    -1001     -977    -1051    -1173    -1281    -1360 
   -1318    -1093     -878     -870    -1020    -1177    -1232    -1156 
   -1024     -918     -832     -814     -934    -1102    -1146    -1015 
    -803     -707     -901    -1279    -1539    -1539    -1364    -1150 
    -999     -877     -685     -479     -421     -584     -938    -1336 
   -1566    -1615    -1687    -1795    -1791    -1733    -1705    -1576 
   -1236     -774     -357      -83       -6     -126     -291     -348 
    -363     -502     -815    -1236    -1709    -2146    -2398    -2385 
   -2182    -1861    -1387     -774     -282     -191     -375     -417 
    -186       32      -54     -476     -981    -1278    -1416    -1671 
   -2077    -2369    -2304    -1838    -1116     -473     -253     -484 
    -924    -1306    -1460    -1359    -1069     -661     -259      -33 
     -94     -434     -930    -1321    -1447    -1459    -1559    -1753 
   -1919    -1895    -1611    -1252    -1093    -1179    -1320    -1310 
   -1100     -815     -630     -633     -795     -943     -869     -583 
    -322     -236     -314     -556     -927    -1324    -1611    -1655 
   -1412    -1058     -872     -989    -1314    -1684    -1988    -2115 
   -1937    -1540    -1216    -1024     -743     -352     -110     -151 
    -346     -534     -652     -687     -654     -623     -704     -953 
   -1324    -1675    -1822    -1710    -1506    -1329    -1154    -1081 
   -1267    -1545    -1653    -1613    -1514    -1269     -864     -537 
    -499     -669     -778     -666     -468     -403     -523     -765 
   -1081    -1394    -1561    -1526    -1381    -1239    -1161    -1169 
   -1239    -1301    -1310    -1248    -1078     -815     -577     -491 
    -664    -1134    -1696    -2042    -2061    -1814    -1387     -923 
    -560     -351     -249     -179     -168     -284     -517     -778 
    -976    -1134    -1378    -1702    -1935    -1941    -1775    -1583 
   -1348    -1001     -641     -325     -116     -290     -959    -1741 
   -2146    -2041    -1628    -1196     -931     -872     -918     -904 
    -780     -652     -577     -490     -426     -535     -826    -1174 
   -1495    -1695    -1668    -1486    -1309    -1205    -1132     -993 
    -773     -600     -579     -719     -935    -1063    -1055    -1004 
    -997    -1108    -1362    -1609    -1652    -1464    -1127     -719 
    -436     -492     -843    -1266    -1574    -1580    -1240     -831 
    -677     -830    -1125    -1350    -1426    -1459    -1529    -1595 
   -1575    -1405    -1034     -526     -140      -63     -152     -182 
    -198     -387     -787    -1282    -1683    -1840    -1775    -1645 
   -1567    -1517    -1421    -1294    -1231    -1252    -1275    -1193 
    -969     -697     -549     -619     -834    -1048    -1155    -1120 
   -1032    -1020    -1090    -1120    -1004     -803     -685     -743 
    -936    -1138    -1229    -1200    -1175    -1250    -1301    -1209 
   -1069    -1032    -1136    -1239    -1142     -876     -660     -622 
    -766    -1027    -1206    -1162    -1075    -1146    -1289    -1362 
   -1314    -1154     -982     -909     -886     -830     -815     -980 
   -1283    -1498    -1471    -1283    -1104    -1015     -989     -966 
    -946     -920     -862     -866    -1048    -1293    -1359    -1152 
    -834     -653     -669     -741     -811     -992    -1297    -1560 
   -1661    -1607    -1406    -1116     -888     -804     -816     -823 
    -760     -692     -722     -847    -1071    -1456    -1894    -2154 
   -2137    -1854    -1374     -891     -569     -330      -36      229 
     267       -1     -442     -865    -1197    -1470    -1660    -1690 
   -1561    -1455    -1532    -1691    -1723    -1641    -1548    -1424 
   -1167     -793     -517     -506     -631     -648     -560     -567 
    -749    -1046    -1343    -1505    -1491    -1379    -1267    -1197 
   -1142    -1061     -993     -986     -966     -865     -738     -645 
    -573     -486     -380     -403     -738    -1343    -1991    -2461 
   -2579    -2296    -1819    -1441    -1196     -928     -556     -152 
      95       35     -291     -665     -900     -989    -1077    -1246 
   -1416    -1525    -1602    -1626    -1548    -1395    -1242    -1117 
    -984     -811     -623     -479     -427     -449     -506     -672 
   -1013    -1404    -1669    -1780    -1783    -1736    -1715    -1705 
   -1574    -1239     -739     -230       99      163        2     -318 
    -727    -1097    -1323    -1401    -1421    -1533    -1829    -2188 
   -2397    -2309    -1887    -1325     -989    -1015    -1255    -1559 
   -1783    -1764    -1449     -940     -454     -190     -101       10 
     194      336      382      333      112     -355     -973    -1602 
   -2180    -2623    -2808    -2687    -2284    -1637     -850      -32 
     664     1008      850      263     -514    -1224    -1750    -2111 
   -2354    -2515    -2605    -2592    -2367    -1883    -1267     -706 
    -318     -149     -137     -187     -286     -472     -730     -936 
    -935     -754     -625     -657     -726     -727     -699     -733 
    -889    -1112    -1283    -1324    -1220    -1053     -966    -1043 
   -1246    -1498    -1768    -1996    -2100    -2093    -2069    -2031 
   -1891    -1634    -1398    -1281    -1166     -868     -429      -99 
      21       67      118      126       76       33        5     -112 
    -376     -672     -895    -1154    -1557    -1948    -2120    -2103 
   -2066    -2110    -2207    -2292    -2343    -2351    -2261    -1965 
   -1393     -595      251      950     1367     1443     1151      562 
    -139     -787    -1312    -1694    -1956    -2141    -2274    -2400 
   -2529    -2562    -2403    -2083    -1713    -1356     -986     -598 
    -249      -43      -51     -164     -198     -144      -85      -98 
    -294     -669    -1028    -1175    -1092     -919     -805     -793 
    -888    -1124    -1532    -2037    -2448    -2585    -2430    -2155 
   -2027    -2184    -2474    -2519    -2030    -1142     -272      355 
     792     1085     1143      864      222     -623    -1312    -1587 
   -1571    -1498    -1368    -1100     -766     -591     -770    -1290 
   -1934    -2494    -2882    -3086    -3034    -2608    -1825     -903 
     -64      595     1011     1121      945      556       17     -615 
   -1310    -2045    -2739    -3261    -3481    -3338    -2889    -2254 
   -1570     -892     -190      554     1317     2012     2424     2336 
    1776      982      113     -873    -1973    -2961    -3565    -3724 
   -3588    -3319    -3025    -2751    -2444    -2065    -1726    -1532 
   -1337     -920     -355        5     -121     -653    -1186    -1345 
   -1081     -589      -63      390      697      818      719      442 
     118     -199     -589    -1082    -1575    -2000    -2421    -2841 
   -3156    -3287    -3184    -2856    -2403    -1914    -1381     -774 
    -135      459      928     1175     1092      656        6     -630 
   -1093    -1286    -1208    -1023     -953    -1162    -1671    -2304 
   -2840    -3150    -3199    -3025    -2655    -2023    -1167     -360 
     136      302      302      274      179      -54     -387     -738 
    -989    -1007     -818     -661     -766    -1189    -1806    -2431 
   -2898    -3059    -2830    -2272    -1544     -796      -97      483 
     843      926      785      562      305      -79     -585    -1058 
   -1424    -1737    -1987    -2081    -2011    -1804    -1445     -980 
    -529     -238     -318     -901    -1854    -2809    -3329    -3164 
   -2425    -1443     -480      373     1081     1536     1583     1158 
     365     -585    -1453    -2010    -2182    -2137    -2106    -2228 
   -2542    -2964    -3337    -3526    -3449    -3109    -2598    -2025 
   -1432     -791      -49      831     1788     2620     3154     3302 
    2994     2259     1254      133    -1027    -2191    -3276    -4135 
   -4676    -4914    -4827    -4338    -3461    -2362    -1304     -535 
    -129       43      129      183      195      159      117       47 
    -198     -711    -1367    -1907    -2100    -1846    -1205     -414 
     162      259     -118     -822    -1692    -2524    -3064    -3117 
   -2675    -1917    -1098     -417       74      400      507      314 
     -99     -584    -1081    -1560    -1968    -2309    -2569    -2596 
   -2230    -1486     -562      276      819      990      845      473 
      10     -452     -920    -1389    -1771    -1987    -2042    -2022 
   -2014    -1985    -1800    -1404     -930     -581     -481     -639 
    -976    -1387    -1810    -2184    -2436    -2457    -2162    -1644 
   -1150     -835     -658     -513     -337     -137       54      211 
     282      210       -8     -356     -818    -1320    -1782    -2164 
   -2473    -2754    -2967    -2880    -2335    -1490     -652      -40 
     245      248       99     -101     -332     -587     -820     -932 
    -908     -922    -1121    -1428    -1687    -1771    -1642    -1401 
   -1147     -837     -376      205      683      741      225     -683 
   -1659    -2505    -3179    -3653    -3869    -3782    -3387    -2720 
   -1876    -1003     -198      499      982     1094      815      338 
     -36      -94      125      365      422      275       40     -155 
    -359     -762    -1416    -2162    -2801    -3148    -3141    -2932 
   -2731    -2589    -2424    -2205    -1981    -1776    -1537    -1186 
    -707     -183      283      650      961     1281     1590     1740 
    1553      949      -25    -1198    -2311    -3092    -3396    -3258 
   -2818    -2230    -1663    -1316    -1351    -1713    -2126    -2351 
   -2355    -2280    -2259    -2266    -2181    -1945    -1559    -1039 
    -407      276      872     1190     1134      783      282     -253 
    -715    -1019    -1183    -1278    -1310    -1220    -1050     -970 
   -1069    -1264    -1455    -1613    -1728    -1772    -1715    -1509 
   -1102     -521      151      772     1142     1097      616     -197 
   -1166    -2093    -2799    -3165    -3194    -3007    -2741    -2461 
   -2149    -1772    -1356    -1000     -797     -723     -646     -496 
    -286      -63       97      155       95     -103     -405     -691 
    -901    -1089    -1324    -1617    -1896    -2014    -1877    -1543 
   -1136     -764     -537     -554     -784    -1086    -1358    -1560 
   -1642    -1578    -1397    -1213    -1132    -1108    -1044     -905 
    -699     -499     -409     -423     -480     -534     -603     -792 
   -1182    -1682    -2057    -2142    -1971    -1695    -1452    -1308 
   -1263    -1275    -1298    -1304    -1264    -1155     -950     -642 
    -330     -160     -155     -240     -387     -576     -761     -911 
   -1048    -1231    -1491    -1759    -1906    -1900    -1827    -1760 
   -1686    -1567    -1382    -1127     -827     -546     -376     -415 
    -666     -970    -1147    -1152    -1009     -741     -371       70 
     518      850      961      812      429      -87     -637    -1232 
   -1960    -2801    -3585    -4108    -4274    -4167    -3924    -3524 
   -2868    -1964     -934       63      886     1405     1530     1291 
     846      384       -8     -394     -854    -1377    -1880    -2336 
   -2772    -3165    -3411    -3450    -3272    -2835    -2122    -1201 
    -152      916     1825     2412     2592     2326     1655      715 
    -329    -1331    -2168    -2754    -3037    -3002    -2675    -2165 
   -1648    -1260    -1047     -999    -1061    -1148    -1161    -1046 
    -877     -789     -854    -1024    -1192    -1297    -1351    -1364 
   -1304    -1177    -1044     -950     -899     -845     -695     -415 
    -112       58      -16     -371     -940    -1561    -2047    -2300 
   -2334    -2227    -2052    -1850    -1633    -1364    -1008     -598 
    -265     -103      -82     -166     -355     -654    -1058    -1483 
   -1810    -1993    -2077    -2115    -2147    -2154    -2045    -1750 
   -1290     -731     -174      318      724     1012     1148     1159 
    1084      907      571       39     -691    -1568    -2434    -3110 
   -3538    -3707    -3612    -3308    -2862    -2315    -1764    -1328 
   -1027     -791     -598     -496     -468     -426     -318     -118 
     157      417      527      402       35     -464     -912    -1197 
   -1331    -1393    -1431    -1448    -1485    -1583    -1718    -1842 
   -1926    -1911    -1745    -1501    -1333    -1289    -1314    -1368 
   -1412    -1368    -1220    -1059     -966     -926     -896     -834 
    -707     -544     -413     -340     -337     -419     -576     -726 
    -780     -762     -785     -880     -974    -1009     -993     -989 
   -1053    -1170    -1364    -1684    -2054    -2334    -2444    -2378 
   -2147    -1788    -1351     -874     -426     -103       31      -21 
    -229     -529     -838    -1074    -1183    -1193    -1201    -1264 
   -1337    -1386    -1444    -1522    -1590    -1613    -1543    -1318 
    -922     -380      209      724     1075     1209     1102      757 
     187     -537    -1281    -1918    -2388    -2706    -2906    -3001 
   -3001    -2887    -2648    -2373    -2182    -2083    -1981    -1788 
   -1547    -1350    -1146     -835     -436      -39      272      454 
     484      353       81     -274     -623     -865     -955     -958 
    -976    -1097    -1345    -1630    -1815    -1860    -1829    -1730 
   -1497    -1154     -808     -546     -427     -472     -641     -891 
   -1173    -1412    -1545    -1543    -1397    -1151     -918     -812 
    -865     -999    -1096    -1100    -1035     -962     -864     -650 
