Origin Time       2024/06/23 22:54:00
Lat.              35.645
Long.             140.060
Depth. (km)       72
Mag.              4.1
Station Code      CHBH10
Station Lat.      35.5458
Station Long.     140.2417
Station Height(m) -1935
Record Time       2024/06/23 22:54:35
Sampling Freq(Hz) 100Hz
Duration Time(s)  120
Dir.              3
Scale Factor      2942(gal)/8224139
Max. Acc. (gal)   0.766
Last Correction   2024/06/23 22:54:35
Memo.             
[...]
  238014   238011   238010   238013   238013   238011   238014   238013 
  238010   238011   238013   238010   238011   238013   238011   238010 
  238010   238013   238013   238013   238013   238011   238011   238014 
  238014   238013   238010   238009   238010   238011   238010   238013 
  238015   238013   238010   238013   238013   238010   238011   238013 
  238011   238011   238013   238010   238009   238010   238010   238011 
  238013   238011   238011   238010   238010   238011   238011   238011 
  238011   238011   238013   238011   238011   238013   238013   238013 
  238013   238014   238014   238011   238010   238009   238009   238010 
  238011   238011   238013   238013   238011   238011   238011   238011 
  238010   238013   238014   238013   238011   238011   238013   238013 
  238013   238013   238010   238013   238014   238010   238010   238011 
  238010   238014   238015   238010   238011   238013   238010   238011 
  238014   238013   238010   238010   238010   238013   238013   238010 
  238011   238011   238011   238013   238013   238013   238011   238011 
  238013   238013   238010   238010   238014   238014   238011   238014 
  238014   238011   238011   238011   238010   238011   238013   238010 
  238009   238011   238013   238011   238011   238013   238013   238011 
  238010   238010   238013   238011   238010   238013   238011   238009 
  238010   238011   238010   238009   238013   238013   238009   238009 
  238011   238011   238011   238011   238010   238009   238007   238010 
  238011   238010   238010   238010   238010   238011   238011   238011 
  238010   238009   238011   238013   238010   238010   238009   238007 
  238009   238011   238011   238013   238013   238010   238009   238009 
  238011   238010   238009   238011   238014   238013   238009   238009 
  238013   238010   238009   238010   238010   238009   238011   238013 
  238010   238009   238011   238013   238011   238011   238014   238015 
  238011   238010   238011   238011   238010   238010   238011   238011 
  238013   238013   238010   238011   238011   238011   238011   238010 
  238010   238011   238011   238010   238010   238007   238009   238013 
  238010   238009   238011   238011   238010   238009   238009   238009 
  238007   238006   238009   238011   238010   238009   238013   238011 
  238007   238009   238010   238009   238011   238013   238011   238013 
  238013   238011   238010   238013   238014   238010   238009   238011 
  238010   238007   238010   238013   238010   238010   238011   238010 
  238011   238011   238009   238010   238010   238010   238009   238007 
  238009   238011   238013   238013   238013   238011   238010   238010 
  238010   238010   238009   238009   238007   238010   238011   238009 
  238009   238011   238009   238010   238014   238011   238009   238010 
  238010   238010   238010   238011   238011   238010   238010   238011 
  238013   238010   238010   238013   238011   238010   238011   238013 
  238011   238009   238010   238013   238013   238009   238010   238013 
  238011   238010   238010   238010   238011   238011   238011   238014 
  238013   238011   238010   238013   238014   238010   238010   238011 
  238010   238014   238017   238014   238010   238011   238011   238011 
  238011   238013   238017   238017   238013   238013   238015   238014 
  238013   238013   238014   238014   238014   238015   238015   238014 
  238013   238014   238014   238011   238013   238013   238010   238009 
  238013   238014   238014   238015   238014   238011   238014   238014 
  238014   238017   238014   238011   238013   238015   238014   238015 
  238017   238014   238011   238013   238017   238017   238014   238011 
  238013   238013   238013   238015   238015   238013   238014   238014 
  238011   238011   238014   238011   238011   238013   238013   238014 
  238014   238011   238010   238013   238015   238014   238013   238011 
  238013   238013   238011   238013   238015   238013   238010   238013 
  238011   238010   238014   238013   238010   238011   238014   238013 
  238014   238014   238013   238017   238018   238011   238010   238014 
  238013   238013   238015   238014   238011   238011   238013   238011 
  238014   238014   238013   238011   238013   238013   238011   238013 
  238014   238011   238009   238010   238013   238013   238011   238013 
  238014   238015   238014   238013   238014   238013   238009   238011 
  238014   238011   238011   238015   238015   238011   238010   238011 
  238015   238015   238014   238011   238010   238011   238013   238011 
  238011   238014   238013   238011   238013   238013   238011   238007 
  238009   238011   238013   238013   238010   238011   238013   238011 
  238011   238010   238009   238009   238009   238007   238009   238010 
  238010   238010   238007   238009   238011   238013   238011   238013 
  238011   238010   238010   238010   238007   238009   238010   238010 
  238010   238011   238010   238010   238010   238009   238010   238010 
  238011   238010   238010   238009   238010   238011   238011   238010 
  238011   238014   238010   238007   238011   238011   238009   238009 
  238009   238010   238010   238010   238013   238013   238006   238006 
  238010   238010   238010   238011   238009   238009   238009   238010 
  238010   238013   238014   238011   238011   238014   238013   238009 
  238009   238013   238010   238010   238013   238013   238013   238011 
  238010   238011   238010   238009   238010   238011   238015   238013 
  238009   238010   238010   238010   238011   238011   238011   238011 
  238010   238011   238013   238013   238013   238011   238011   238013 
  238013   238011   238011   238013   238013   238013   238011   238011 
  238011   238010   238009   238010   238011   238010   238009   238010 
  238011   238011   238011   238010   238010   238010   238010   238010 
  238010   238011   238014   238014   238013   238011   238010   238011 
  238013   238013   238014   238011   238010   238011   238010   238009 
  238010   238011   238013   238013   238011   238009   238011   238013 
  238011   238010   238011   238013   238011   238010   238010   238010 
  238011   238014   238014   238013   238011   238010   238009   238011 
  238013   238011   238011   238013   238013   238011   238011   238013 
  238010   238011   238013   238013   238011   238011   238013   238011 
  238009   238011   238011   238009   238010   238013   238014   238014 
  238011   238010   238011   238013   238010   238009   238011   238014 
  238013   238013   238010   238007   238009   238013   238011   238011 
  238011   238013   238013   238011   238010   238011   238011   238010 
  238011   238010   238010   238013   238013   238011   238010   238011 
  238014   238011   238011   238015   238014   238010   238013   238015 
  238013   238010   238011   238011   238011   238011   238013   238014 
  238013   238013   238014   238013   238010   238011   238013   238010 
  238009   238010   238011   238010   238010   238011   238011   238011 
  238011   238011   238011   238013   238014   238013   238013   238013 
  238013   238011   238009   238010   238010   238013   238015   238013 
  238010   238010   238009   238007   238010   238011   238011   238010 
  238011   238014   238013   238010   238009   238010   238011   238011 
  238010   238010   238013   238014   238013   238010   238013   238013 
  238010   238013   238013   238011   238013   238013   238010   238010 
  238010   238007   238009   238010   238010   238010   238011   238011 
  238010   238011   238011   238007   238007   238011   238013   238013 
  238013   238013   238010   238009   238010   238009   238009   238013 
  238013   238010   238010   238011   238013   238011   238013   238014 
  238014   238011   238010   238010   238010   238011   238013   238011 
  238011   238014   238014   238011   238011   238011   238010   238011 
  238013   238013   238013   238011   238011   238010   238013   238014 
  238011   238013   238013   238010   238010   238013   238011   238009 
  238010   238013   238010   238009   238013   238015   238011   238011 
  238014   238014   238011   238011   238011   238013   238013   238011 
  238011   238011   238010   238011   238014   238013   238011   238014 
  238015   238010   238009   238011   238014   238015   238015   238013 
  238010   238014   238015   238011   238010   238013   238013   238013 
  238013   238011   238013   238014   238013   238011   238011   238014 
  238014   238011   238011   238013   238011   238013   238013   238011 
  238010   238009   238010   238013   238011   238010   238011   238011 
  238013   238014   238011   238010   238011   238011   238010   238010 
  238010   238014   238013   238010   238011   238010   238007   238009 
  238011   238011   238013   238014   238011   238010   238011   238010 
  238010   238010   238009   238011   238013   238009   238007   238009 
  238006   238009   238014   238011   238009   238011   238010   238009 
  238009   238013   238013   238010   238010   238013   238013   238010 
  238009   238010   238011   238009   238010   238013   238011   238011 
  238013   238011   238009   238010   238010   238011   238014   238011 
  238010   238011   238011   238010   238009   238009   238011   238011 
  238009   238010   238011   238011   238009   238010   238011   238010 
  238011   238015   238013   238009   238011   238010   238007   238007 
  238009   238013   238013   238007   238007   238009   238009   238009 
  238010   238010   238007   238007   238011   238010   238007   238009 
  238010   238011   238011   238010   238009   238009   238009   238007 
  238006   238009   238011   238011   238014   238011   238006   238006 
  238009   238007   238006   238007   238011   238014   238011   238007 
  238009   238011   238011   238010   238010   238010   238010   238011 
  238010   238010   238013   238013   238010   238009   238010   238011 
  238011   238013   238011   238010   238009   238009   238011   238011 
  238011   238011   238011   238013   238014   238014   238013   238010 
  238011   238014   238014   238010   238011   238011   238011   238015 
  238015   238013   238013   238013   238011   238013   238014   238011 
  238010   238011   238013   238011   238014   238014   238011   238011 
  238011   238011   238013   238013   238009   238013   238015   238013 
  238010   238011   238011   238011   238011   238011   238013   238015 
  238014   238014   238014   238013   238013   238011   238010   238011 
  238011   238011   238013   238013   238013   238013   238013   238013 
  238013   238014   238014   238013   238013   238013   238013   238011 
  238010   238011   238011   238011   238013   238015   238013   238011 
  238013   238013   238010   238011   238014   238014   238013   238013 
  238011   238010   238010   238010   238011   238011   238011   238010 
  238010   238010   238011   238010   238010   238014   238014   238014 
  238013   238011   238009   238010   238014   238013   238011   238011 
  238010   238010   238013   238013   238010   238010   238010   238011 
  238011   238011   238013   238014   238010   238009   238011   238013 
  238011   238013   238013   238013   238011   238010   238009   238009 
  238007   238009   238011   238013   238011   238011   238013   238013 
  238013   238013   238011   238013   238013   238011   238011   238010 
  238011   238014   238013   238011   238011   238013   238011   238010 
  238010   238010   238009   238011   238011   238007   238010   238013 
  238011   238014   238013   238010   238010   238009   238007   238010 
  238014   238014   238010   238009   238013   238013   238011   238013 
  238015   238014   238013   238010   238010   238011   238013   238013 
  238011   238011   238011   238009   238010   238013   238014   238013 
  238011   238013   238013   238013   238014   238011   238010   238009 
  238010   238011   238011   238013   238013   238013   238011   238013 
  238014   238011   238010   238011   238011   238013   238014   238013 
  238013   238014   238011   238010   238010   238011   238014   238013 
  238010   238011   238014   238013   238013   238013   238011   238013 
  238014   238011   238010   238015   238015   238011   238011   238013 
  238011   238011   238011   238013   238013   238010   238011   238014 
  238014   238013   238013   238014   238013   238010   238011   238011 
  238011   238013   238011   238011   238014   238013   238013   238013 
  238011   238011   238011   238011   238015   238013   238010   238013 
  238013   238009   238009   238013   238011   238009   238011   238014 
  238011   238011   238009   238009   238015   238015   238011   238013 
  238014   238011   238013   238013   238013   238014   238013   238013 
  238013   238011   238011   238013   238013   238013   238014   238014 
  238010   238007   238010   238011   238011   238014   238014   238011 
  238013   238011   238010   238014   238017   238014   238014   238015 
  238013   238010   238011   238013   238011   238013   238014   238013 
  238013   238013   238013   238013   238014   238013   238011   238013 
  238013   238014   238013   238013   238013   238010   238011   238014 
  238013   238018   238036   238063   238102   238137   238146   238161 
  238214   238276   238296   238265   238167   237984   237820   237751 
  237735   237766   237830   237874   237886   237880   237982   238358 
  238897   239186   238864   238134   237728   237965   238311   238277 
  237972   237548   236981   236277   235869   236510   237834   238538 
  238380   238121   238168   238200   237610   236702   236686   237855 
  239325   240124   240015   239542   238553   237069   236580   237092 
  237373   237772   238370   238432   238137   237722   237627   238528 
  239375   238937   238053   237844   238134   237957   237327   237416 
  238122   238358   237884   237242   237351   238254   238832   238580 
  237960   237660   237832   237811   237579   238006   238828   238887 
  238590   238891   239001   238108   236996   236810   237554   237907 
  237338   236999   237768   239033   239417   238528   237494   237351 
  237764   237871   237843   238098   238256   238250   238177   237771 
  237428   237721   238164   238221   238366   238585   238165   237733 
  238052   238230   237882   238067   238674   238373   237485   237271 
  237506   237482   237402   237775   238439   238492   237844   237568 
  238084   238684   238585   238149   238365   238692   238099   237452 
  237834   238410   238096   237590   237604   237555   237770   238696 
  238813   237868   237735   238295   238065   237400   237485   238248 
  238567   238069   237656   237736   237776   237591   237389   237433 
  237936   238423   238357   238041   237757   237547   237604   237841 
  238065   238297   238592   238945   239080   238608   237848   237568 
  237863   238311   238605   238432   237822   237421   237481   237479 
  237425   237698   237982   238108   238265   238261   237987   237763 
  237973   238368   238470   238581   238756   238516   238029   237763 
  237917   238249   238277   238050   237776   237529   237624   238015 
  238152   238050   238204   238434   238253   237832   237671   237921 
  238411   238716   238345   237581   237049   236734   236673   237166 
  238059   238665   238451   237878   237556   237242   236939   237184 
  237902   238677   239286   239303   238596   237840   237438   237181 
  237207   237807   238469   238663   238752   238684   238087   237610 
  237740   238177   238636   238535   237899   237945   238640   238586 
  237940   237882   238285   238289   237780   237451   237625   237837 
  237867   237820   237591   237474   237942   238553   238658   238419 
  238068   237726   237737   237937   237915   237964   238234   238164 
  237755   237496   237411   237632   238180   238581   238863   238821 
  237959   237213   237262   237450   238027   238975   238931   238069 
  237666   237767   238297   239087   239099   238370   237821   237304 
  236985   237671   238469   238415   238439   238577   237949   237336 
  237563   237942   237722   237096   237035   238118   239198   238831 
  237708   237145   237127   237685   238634   238989   238963   238833 
  237818   236844   237277   237987   237936   237718   237563   237529 
  237636   237527   237647   238092   238241   238304   238130   237847 
  238315   238481   238000   238561   239384   239025   238393   238081 
  237857   237683   237450   237320   237600   238125   238206   237527 
  236817   236742   237261   238049   238512   238422   238226   238272 
  238469   238624   238875   238999   238536   238219   238434   238196 
  237502   237261   237532   237917   238003   237651   237500   237863 
  238158   238080   237915   237972   238216   238443   238287   237743 
  237847   238431   238167   237863   238392   238458   237749   237504 
  237973   238341   238280   238187   237967   237420   237182   237443 
  237848   238280   238377   238160   237944   237479   237174   237756 
  238621   238796   238424   238169   238019   237828   237991   238266 
  237986   237805   238403   238779   238318   237902   237892   237829 
  237697   237824   238207   238599   238936   238982   238315   237482 
  237367   237297   236563   236436   237304   237847   238149   238559 
  238414   238003   237816   237618   237776   238428   238696   238400 
  238339   238759   238871   238287   237903   237932   237595   237325 
  237694   237922   237759   237825   238042   237959   237660   237554 
  237763   238083   238337   238329   238071   238113   238512   238578 
  238331   238107   237780   237583   237629   237475   237315   237837 
  238485   238264   238086   238739   238999   238578   238437   238453 
  238180   237874   237779   237683   237489   237532   237826   238181 
  238495   238283   237681   237483   237505   237544   237925   238319 
  238594   238924   238840   238059   237270   237327   237867   237928 
  237776   238036   238140   237613   237374   238041   238422   237964 
  237922   238223   237936   237698   237764   237648   237756   238204 
  238418   238148   237764   237892   238253   238285   238412   238693 
  238558   238184   238119   238397   238407   237791   237401   237755 
  237961   237687   237546   237535   237471   237712   238141   238107 
  237876   238177   238557   238395   238200   238235   238009   237705 
  237706   237722   237809   238146   238387   238326   237924   237450 
  237436   237760   238079   238268   238242   238239   238250   238156 
  238311   238470   238104   237675   237683   237860   237876   237876 
  238172   238478   238272   237838   237807   238142   238252   237810 
  237312   237516   238374   238794   238270   237901   238133   238214 
  238192   238327   238347   238140   237789   237655   237752   237501 
  237211   237567   238088   238358   238607   238457   237797   237585 
  238046   238299   238142   238199   238648   238939   238636   238264 
  238230   237836   237105   237006   237352   237540   237759   238011 
  237924   237540   237296   237420   237710   237967   238319   238738 
  238904   238717   238360   238084   237959   237903   237899   237783 
  237658   237722   237699   237555   237590   237848   238044   237941 
  237921   238183   238380   238531   238503   238095   237907   238142 
