Origin Time       2024/06/23 22:54:00
Lat.              35.645
Long.             140.060
Depth. (km)       72
Mag.              4.1
Station Code      CHBH10
Station Lat.      35.5458
Station Long.     140.2417
Station Height(m) -1935
Record Time       2024/06/23 22:54:35
Sampling Freq(Hz) 100Hz
Duration Time(s)  120
Dir.              2
Scale Factor      2942(gal)/8224139
Max. Acc. (gal)   1.336
Last Correction   2024/06/23 22:54:35
Memo.             
[...]
  -54247   -54244   -54245   -54245   -54245   -54245   -54244   -54245 
  -54247   -54245   -54244   -54247   -54247   -54244   -54244   -54244 
  -54243   -54244   -54245   -54244   -54244   -54244   -54245   -54245 
  -54244   -54245   -54245   -54244   -54247   -54247   -54244   -54244 
  -54243   -54244   -54248   -54248   -54244   -54244   -54243   -54244 
  -54245   -54247   -54247   -54245   -54244   -54243   -54244   -54244 
  -54244   -54248   -54247   -54245   -54245   -54247   -54244   -54244 
  -54248   -54245   -54245   -54247   -54247   -54245   -54245   -54248 
  -54248   -54245   -54245   -54247   -54247   -54247   -54248   -54249 
  -54248   -54244   -54244   -54247   -54247   -54247   -54248   -54247 
  -54245   -54247   -54247   -54244   -54245   -54249   -54249   -54248 
  -54249   -54247   -54245   -54249   -54247   -54245   -54248   -54248 
  -54247   -54245   -54245   -54247   -54248   -54249   -54248   -54245 
  -54248   -54249   -54245   -54244   -54245   -54247   -54247   -54245 
  -54245   -54245   -54245   -54245   -54248   -54248   -54245   -54244 
  -54244   -54245   -54245   -54243   -54244   -54245   -54247   -54245 
  -54243   -54244   -54245   -54245   -54245   -54245   -54247   -54245 
  -54245   -54245   -54245   -54247   -54248   -54247   -54245   -54247 
  -54247   -54245   -54244   -54243   -54244   -54248   -54248   -54247 
  -54248   -54247   -54244   -54244   -54245   -54244   -54244   -54244 
  -54244   -54245   -54245   -54244   -54245   -54243   -54241   -54247 
  -54249   -54245   -54244   -54245   -54244   -54247   -54248   -54245 
  -54247   -54247   -54244   -54244   -54248   -54247   -54243   -54243 
  -54245   -54247   -54247   -54247   -54245   -54245   -54244   -54244 
  -54248   -54249   -54247   -54248   -54248   -54244   -54247   -54247 
  -54245   -54248   -54247   -54244   -54248   -54248   -54243   -54245 
  -54247   -54244   -54247   -54248   -54248   -54247   -54245   -54244 
  -54247   -54247   -54245   -54247   -54248   -54247   -54245   -54245 
  -54248   -54247   -54247   -54248   -54247   -54247   -54248   -54245 
  -54245   -54247   -54244   -54245   -54249   -54245   -54244   -54247 
  -54247   -54245   -54245   -54247   -54245   -54244   -54245   -54248 
  -54247   -54245   -54247   -54247   -54244   -54241   -54241   -54245 
  -54248   -54245   -54244   -54247   -54248   -54248   -54245   -54244 
  -54247   -54245   -54245   -54247   -54249   -54247   -54244   -54245 
  -54245   -54245   -54247   -54244   -54244   -54247   -54247   -54244 
  -54243   -54244   -54247   -54245   -54244   -54243   -54243   -54244 
  -54244   -54245   -54247   -54245   -54245   -54248   -54244   -54243 
  -54247   -54247   -54245   -54245   -54244   -54245   -54245   -54244 
  -54244   -54244   -54244   -54243   -54245   -54247   -54243   -54244 
  -54247   -54245   -54244   -54245   -54244   -54244   -54247   -54247 
  -54247   -54247   -54244   -54245   -54245   -54244   -54244   -54245 
  -54247   -54243   -54243   -54247   -54248   -54245   -54244   -54244 
  -54244   -54243   -54245   -54245   -54244   -54244   -54247   -54245 
  -54243   -54245   -54247   -54245   -54247   -54245   -54241   -54244 
  -54247   -54245   -54244   -54244   -54245   -54244   -54244   -54244 
  -54244   -54244   -54245   -54245   -54244   -54244   -54244   -54244 
  -54245   -54244   -54244   -54244   -54244   -54244   -54243   -54244 
  -54244   -54245   -54245   -54243   -54244   -54245   -54243   -54244 
  -54245   -54244   -54244   -54245   -54244   -54244   -54245   -54245 
  -54244   -54244   -54243   -54244   -54244   -54243   -54244   -54248 
  -54245   -54243   -54245   -54247   -54243   -54244   -54247   -54244 
  -54243   -54244   -54244   -54244   -54245   -54244   -54244   -54244 
  -54244   -54245   -54247   -54245   -54243   -54244   -54245   -54243 
  -54243   -54245   -54248   -54244   -54244   -54244   -54243   -54244 
  -54247   -54247   -54245   -54244   -54245   -54244   -54241   -54244 
  -54247   -54244   -54247   -54248   -54245   -54244   -54245   -54247 
  -54244   -54244   -54245   -54247   -54247   -54248   -54247   -54247 
  -54248   -54248   -54245   -54247   -54247   -54247   -54247   -54247 
  -54247   -54248   -54247   -54245   -54247   -54247   -54245   -54245 
  -54247   -54248   -54248   -54248   -54248   -54248   -54247   -54247 
  -54248   -54247   -54247   -54248   -54247   -54248   -54249   -54247 
  -54245   -54248   -54248   -54244   -54245   -54249   -54249   -54248 
  -54247   -54244   -54245   -54249   -54248   -54245   -54245   -54248 
  -54248   -54248   -54247   -54248   -54248   -54248   -54245   -54245 
  -54248   -54247   -54245   -54247   -54248   -54247   -54245   -54247 
  -54248   -54248   -54248   -54248   -54247   -54248   -54248   -54247 
  -54247   -54248   -54248   -54247   -54249   -54248   -54248   -54248 
  -54245   -54245   -54245   -54247   -54248   -54247   -54248   -54251 
  -54249   -54247   -54245   -54245   -54247   -54247   -54247   -54245 
  -54247   -54248   -54247   -54247   -54247   -54247   -54245   -54245 
  -54247   -54248   -54244   -54244   -54248   -54249   -54245   -54247 
  -54249   -54248   -54245   -54247   -54249   -54248   -54247   -54248 
  -54245   -54244   -54247   -54249   -54249   -54247   -54247   -54248 
  -54248   -54247   -54247   -54248   -54248   -54245   -54247   -54247 
  -54244   -54247   -54248   -54248   -54248   -54247   -54247   -54245 
  -54245   -54247   -54248   -54249   -54248   -54245   -54245   -54245 
  -54247   -54249   -54248   -54247   -54245   -54245   -54245   -54248 
  -54248   -54244   -54245   -54247   -54245   -54245   -54247   -54245 
  -54247   -54247   -54247   -54248   -54247   -54248   -54248   -54247 
  -54248   -54247   -54245   -54248   -54248   -54245   -54247   -54247 
  -54245   -54245   -54248   -54247   -54247   -54245   -54245   -54247 
  -54244   -54243   -54245   -54248   -54247   -54247   -54245   -54247 
  -54248   -54247   -54247   -54247   -54244   -54244   -54245   -54245 
  -54245   -54245   -54245   -54245   -54244   -54244   -54247   -54247 
  -54244   -54244   -54245   -54245   -54248   -54248   -54244   -54243 
  -54245   -54245   -54244   -54245   -54244   -54243   -54243   -54243 
  -54244   -54247   -54245   -54245   -54243   -54243   -54244   -54245 
  -54244   -54244   -54244   -54244   -54244   -54243   -54244   -54244 
  -54245   -54247   -54244   -54241   -54243   -54240   -54234   -54230 
  -54225   -54220   -54217   -54220   -54225   -54229   -54241   -54260 
  -54270   -54268   -54271   -54278   -54268   -54256   -54259   -54243 
  -54201   -54170   -54160   -54184   -54222   -54222   -54213   -54221 
  -54230   -54249   -54284   -54341   -54417   -54446   -54382   -54290 
  -54233   -54201   -54191   -54211   -54234   -54272   -54322   -54274 
  -54135   -54052   -54044   -54066   -54164   -54326   -54384   -54342 
  -54384   -54384   -54230   -54157   -54197   -54178   -54133   -54113 
  -54113   -54145   -54141   -54067   -54036   -54145   -54348   -54523 
  -54607   -54627   -54596   -54441   -54201   -54120   -54234   -54344 
  -54394   -54430   -54479   -54460   -54255   -53990   -53885   -53954 
  -54022   -53990   -54112   -54498   -54681   -54461   -54153   -54049 
  -54249   -54450   -54337   -54153   -54103   -54035   -53954   -53998 
  -54102   -54118   -54117   -54282   -54522   -54490   -54228   -54234 
  -54409   -54306   -54186   -54299   -54387   -54376   -54302   -54054 
  -53900   -54206   -54457   -54144   -53902   -54153   -54274   -54074 
  -54105   -54413   -54618   -54634   -54471   -54228   -54180   -54356 
  -54444   -54176   -53896   -54041   -54272   -54351   -54391   -54259 
  -54101   -54124   -54213   -54309   -54373   -54464   -54460   -54202 
  -54144   -54382   -54359   -54102   -54051   -54244   -54283   -54078 
  -54049   -54162   -54194   -54306   -54356   -54183   -54166   -54372 
  -54407   -54252   -54118   -54021   -54102   -54364   -54402   -54317 
  -54422   -54387   -54122   -54009   -54097   -54248   -54398   -54522 
  -54541   -54334   -54095   -54048   -54083   -54137   -54183   -54253 
  -54437   -54410   -54140   -54160   -54321   -54159   -53963   -54112 
  -54445   -54604   -54434   -54156   -54149   -54275   -54144   -54056 
  -54322   -54456   -54147   -53931   -54164   -54391   -54291   -54178 
  -54237   -54352   -54438   -54476   -54473   -54355   -54085   -53925 
  -54068   -54294   -54348   -54263   -54234   -54283   -54186   -54020 
  -54109   -54373   -54499   -54392   -54257   -54279   -54217   -54013 
  -54029   -54203   -54251   -54240   -54247   -54229   -54276   -54414 
  -54430   -54283   -54218   -54217   -54079   -53977   -54143   -54355 
  -54337   -54268   -54371   -54444   -54260   -54006   -53941   -54070 
  -54355   -54685   -54693   -54291   -53959   -54049   -54279   -54275 
  -54211   -54349   -54406   -54159   -53921   -53993   -54297   -54476 
  -54391   -54270   -54221   -54233   -54252   -54175   -54190   -54386 
  -54476   -54356   -54145   -53967   -54025   -54307   -54380   -54187 
  -54228   -54418   -54287   -54059   -54141   -54294   -54206   -54226 
  -54534   -54602   -54264   -54039   -54145   -54251   -54207   -54160 
  -54155   -54170   -54128   -54102   -54271   -54432   -54378   -54288 
  -54221   -54122   -54121   -54228   -54405   -54579   -54422   -54129 
  -54265   -54436   -54202   -54055   -54202   -54346   -54314   -54153 
  -54136   -54233   -54186   -54135   -54278   -54442   -54465   -54411 
  -54322   -54189   -54110   -54162   -54167   -54052   -54160   -54515 
  -54622   -54357   -54024   -53819   -53816   -53958   -54054   -54180 
  -54494   -54696   -54615   -54415   -54106   -53883   -54062   -54367 
  -54419   -54319   -54295   -54275   -54056   -53863   -53948   -54110 
  -54317   -54561   -54567   -54481   -54442   -54217   -53989   -54043 
  -54191   -54243   -54217   -54232   -54382   -54526   -54394   -54125 
  -54143   -54367   -54403   -54190   -53929   -53862   -54071   -54326 
  -54373   -54280   -54229   -54218   -54309   -54531   -54581   -54365 
  -54217   -54128   -53865   -53846   -54301   -54425   -54090   -54126 
  -54502   -54614   -54372   -54052   -53981   -54194   -54357   -54360 
  -54437   -54468   -54214   -53951   -53970   -54220   -54436   -54345 
  -54178   -54284   -54468   -54477   -54345   -54125   -53921   -53906 
  -54143   -54391   -54398   -54333   -54294   -54189   -54175   -54221 
  -54094   -54047   -54299   -54465   -54396   -54375   -54365   -54319 
  -54375   -54319   -54133   -54172   -54344   -54305   -54054   -53913 
  -54062   -54260   -54379   -54496   -54498   -54340   -54195   -54140 
  -54136   -54170   -54194   -54218   -54303   -54286   -54114   -54052 
  -54124   -54051   -53842   -53881   -54190   -54372   -54418   -54587 
  -54859   -54961   -54702   -54214   -53833   -53831   -54091   -54310 
  -54434   -54506   -54410   -54062   -53775   -53875   -54068   -54120 
  -54201   -54257   -54330   -54554   -54553   -54315   -54305   -54322 
  -54213   -54321   -54409   -54207   -54099   -54141   -54155   -54174 
  -54135   -54201   -54479   -54467   -54106   -54000   -54081   -53933 
  -53893   -54218   -54440   -54415   -54436   -54403   -54221   -54031 
  -53844   -53900   -54351   -54637   -54477   -54332   -54380   -54371 
  -54252   -54218   -54309   -54395   -54438   -54463   -54398   -54168 
  -53897   -53838   -54028   -54272   -54356   -54298   -54280   -54301 
  -54278   -54141   -53951   -53971   -54222   -54476   -54545   -54452 
  -54471   -54548   -54430   -54220   -54002   -53886   -54043   -54305 
  -54469   -54472   -54280   -54060   -54039   -54129   -53995   -53730 
  -53881   -54394   -54672   -54648   -54542   -54360   -54230   -54214 
  -54191   -54248   -54342   -54275   -54184   -54261   -54380   -54297 
  -54045   -54021   -54271   -54395   -54359   -54361   -54303   -54153 
  -54136   -54257   -54333   -54342   -54265   -54074   -53975   -54133 
  -54328   -54337   -54245   -54172   -54160   -54220   -54342   -54396 
  -54268   -54148   -54156   -54168   -54170   -54176   -54263   -54468 
  -54580   -54471   -54310   -54288   -54260   -54116   -54040   -54093 
  -54229   -54371   -54317   -54060   -53879   -53954   -54176   -54395 
  -54526   -54476   -54229   -54006   -54039   -54191   -54311   -54568 
  -54816   -54664   -54306   -54101   -53963   -53832   -53827   -53947 
  -54133   -54264   -54220   -54182   -54403   -54704   -54699   -54405 
  -54164   -54122   -54145   -54203   -54433   -54596   -54349   -54027 
  -54045   -54210   -54352   -54507   -54460   -54156   -53994   -54153 
  -54321   -54228   -54047   -53994   -54049   -54255   -54464   -54326 
  -54002   -53896   -54095   -54421   -54448   -54193   -54183   -54406 
  -54491   -54403   -54309   -54346   -54422   -54441   -54464   -54372 
  -54135   -53977   -53995   -54081   -54071   -53968   -54044   -54433 
  -54726   -54522   -54099   -53836   -53831   -54122   -54454   -54662 
  -54859   -54803   -54442   -54283   -54338   -54220   -54098   -54121 
  -53993   -53794   -53720   -53655   -53723   -54037   -54363   -54529 
  -54541   -54487   -54502   -54495   -54222   -53750   -53323   -52955 
  -52575   -52370   -52497   -52714   -52948   -53514   -54315   -54939 
  -55301   -55526   -55682   -55794   -55803   -55422   -54481   -53325 
  -52402   -51946   -52003   -52505   -53365   -54465   -55559   -56284 
  -56492   -56374   -56177   -55958   -55560   -55075   -54930   -55151 
  -55350   -55424   -55512   -55759   -56478   -57539   -57979   -57252 
  -55890   -54718   -54008   -53275   -52137   -51146   -51061   -51621 
  -51931   -51825   -51772   -52080   -52718   -53248   -53241   -52917 
  -52870   -53323   -53975   -54618   -55375   -56118   -56319   -55761 
  -54907   -54298   -53975   -53654   -53190   -52739   -52639   -53242 
  -54513   -55561   -55479   -54634   -53893   -53492   -53565   -54197 
  -54830   -55044   -55185   -55325   -55088   -54423   -53600   -53110 
  -53250   -53705   -54229   -54932   -55664   -55861   -55301   -54596 
  -54149   -53820   -53959   -54549   -54534   -53744   -53117   -52932 
  -52955   -53266   -53658   -53599   -53427   -53966   -54851   -55231 
  -55189   -55035   -54882   -54970   -55119   -54842   -54135   -53572 
  -53804   -54518   -54765   -54650   -54670   -54548   -54198   -54033 
  -54275   -54878   -55300   -54812   -53761   -53316   -53784   -54453 
  -54761   -54534   -53878   -53323   -53283   -53519   -53692   -53901 
  -54391   -54849   -54731   -54109   -53497   -53458   -54054   -54481 
  -54513   -54857   -55286   -54950   -54151   -53709   -53712   -53781 
  -53865   -54164   -54519   -54653   -54579   -54233   -53711   -53481 
  -53604   -53812   -54301   -54974   -55077   -54506   -53966   -53778 
  -53686   -53576   -53608   -53802   -54040   -54180   -54194   -54398 
  -55020   -55648   -55653   -54942   -54002   -53430   -53539   -54031 
  -54352   -54599   -55102   -55563   -55409   -54722   -54329   -54452 
  -54332   -53912   -53808   -53962   -53954   -53658   -53338   -53493 
  -54114   -54638   -54881   -54928   -54561   -53894   -53585   -53846 
  -54261   -54390   -54129   -53885   -54141   -54622   -54599   -54054 
  -53788   -54240   -54789   -54765   -54313   -53690   -53107   -52983 
  -53318   -53669   -53856   -54097   -54550   -54851   -54724   -54699 
  -55120   -55530   -55506   -55028   -54396   -54016   -53808   -53474 
  -53230   -53433   -53964   -54396   -54556   -54741   -55063   -55107 
  -54758   -54332   -53950   -53763   -53842   -53682   -53157   -52866 
  -53041   -53597   -54460   -55228   -55534   -55320   -54827   -54676 
  -55034   -55225   -54905   -54341   -53762   -53464   -53735   -54279 
  -54484   -54328   -54259   -54375   -54415   -54189   -53615   -52915 
  -52662   -53111   -53813   -54283   -54444   -54355   -54287   -54562 
  -54951   -55074   -54996   -54855   -54656   -54615   -54919   -55170 
  -55008   -54735   -54611   -54448   -54180   -53963   -53860   -53856 
  -53802   -53596   -53588   -53967   -54336   -54569   -54896   -55178 
  -55165   -54849   -54371   -53901   -53454   -53050   -52952   -53303 
  -53686   -53592   -53195   -53037   -53217   -53608   -54252   -54980 
  -55306   -54901   -53990   -53246   -53106   -53453   -54005   -54576 
  -55054   -55306   -55285   -55171   -55113   -54986   -54801   -54815 
  -54819   -54413   -53854   -53585   -53757   -54294   -54810   -55020 
  -54912   -54531   -54189   -54085   -54040   -53978   -53896   -53789 
  -53847   -54055   -54109   -53985   -53914   -53883   -53716   -53570 
  -53698   -53867   -53815   -53846   -54252   -54712   -54851   -54877 
  -55048   -55209   -55188   -55046   -54861   -54619   -54384   -54301 
  -54344   -54282   -54031   -53755   -53536   -53326   -53217   -53343 
  -53632   -53937   -54171   -54265   -54244   -54295   -54450   -54444 
  -54251   -54187   -54382   -54677   -54795   -54560   -54203   -54058 
  -54101   -54182   -54297   -54399   -54373   -54329   -54426   -54518 
  -54454   -54338   -54336   -54522   -54720   -54731   -54583   -54342 
  -54051   -53796   -53669   -53696   -53869   -54205   -54517   -54576 
  -54480   -54336   -54225   -54275   -54301   -54218   -54267   -54384 
  -54326   -54079   -53769   -53661   -53854   -54031   -54012   -54051 
  -54261   -54394   -54261   -53987   -53796   -53789   -54058   -54583 
  -54990   -54988   -54800   -54619   -54286   -53900   -53794   -53935 
  -54162   -54464   -54716   -54703   -54475   -54317   -54288   -54268 
  -54334   -54529   -54675   -54608   -54272   -53878   -53802   -54097 
  -54422   -54591   -54712   -54723   -54507   -54202   -53898   -53673 
  -53721   -53951   -54047   -53993   -54055   -54255   -54256   -53955 
  -53682   -53746   -54101   -54446   -54519   -54313   -54047   -53847 
  -53742   -53873   -54179   -54292   -54033   -53573   -53285   -53426 
  -53815   -54148   -54338   -54440   -54533   -54549   -54384   -54141 
  -53950   -53871   -53923   -54090   -54405   -54789   -54959   -54831 
  -54569   -54383   -54531   -54877   -54922   -54665   -54457   -54432 
  -54637   -54877   -54903   -54919   -55070   -55093   -54876   -54611 
  -54432   -54209   -53806   -53323   -52886   -52510   -52281   -52338 
  -52594   -52814   -53122   -53771   -54513   -55001   -55285   -55431 
  -55483   -55655   -55984   -56236   -56272   -56142   -55941   -55672 
  -55264   -54691   -54122   -53897   -54184   -54681   -54870   -54554 
  -53901   -53177   -52668   -52424   -52220   -52024   -52073   -52479 
  -53157   -53959   -54718   -55239   -55397   -55212   -54773   -54276 
  -54012   -54010   -54068   -54176   -54453   -54819   -55008   -54861 
  -54468   -53954   -53430   -53118   -53167   -53547   -54074   -54425 
  -54450   -54265   -53987   -53754   -53750   -53986   -54298   -54453 
  -54336   -54125   -54037   -54172   -54526   -54915   -55196   -55358 
  -55310   -55015   -54638   -54290   -53967   -53752   -53752   -53865 
  -53854   -53738   -53782   -54039   -54245   -54268   -54260   -54372 
  -54611   -54760   -54650   -54554   -54656   -54733   -54695   -54635 
  -54535   -54353   -54153   -54090   -54130   -54051   -53905   -53927 
  -54097   -54271   -54380   -54430   -54477   -54498   -54477   -54556 
  -54711   -54668   -54271   -53700   -53292   -53210   -53395   -53711 
