Origin Time       2024/06/23 22:54:00
Lat.              35.645
Long.             140.060
Depth. (km)       72
Mag.              4.1
Station Code      CHBH11
Station Lat.      35.2867
Station Long.     140.1529
Station Height(m) 80
Record Time       2024/06/23 22:54:36
Sampling Freq(Hz) 100Hz
Duration Time(s)  120
Dir.              6
Scale Factor      7845(gal)/8223790
Max. Acc. (gal)   3.410
Last Correction   2024/06/23 22:54:36
Memo.             
[...]
   -2020    -2022    -2027    -2020    -2022    -2026    -2020    -2023 
   -2027    -2025    -2027    -2025    -2022    -2029    -2025    -2020 
   -2025    -2022    -2022    -2026    -2020    -2022    -2026    -2019 
   -2018    -2022    -2022    -2027    -2025    -2016    -2025    -2027 
   -2020    -2025    -2023    -2019    -2023    -2023    -2023    -2025 
   -2022    -2025    -2026    -2018    -2022    -2026    -2022    -2023 
   -2023    -2020    -2026    -2026    -2023    -2025    -2022    -2020 
   -2026    -2022    -2020    -2025    -2016    -2022    -2030    -2018 
   -2018    -2029    -2025    -2020    -2023    -2022    -2026    -2022 
   -2018    -2023    -2023    -2020    -2025    -2022    -2022    -2027 
   -2020    -2020    -2029    -2023    -2019    -2026    -2023    -2020 
   -2023    -2020    -2022    -2023    -2019    -2025    -2025    -2020 
   -2025    -2025    -2025    -2026    -2022    -2025    -2027    -2020 
   -2020    -2025    -2022    -2022    -2025    -2020    -2022    -2019 
   -2018    -2025    -2023    -2019    -2023    -2020    -2018    -2025 
   -2022    -2020    -2026    -2022    -2020    -2023    -2018    -2020 
   -2026    -2020    -2025    -2023    -2016    -2022    -2022    -2020 
   -2025    -2022    -2022    -2027    -2020    -2019    -2026    -2022 
   -2020    -2019    -2018    -2027    -2026    -2018    -2025    -2022 
   -2018    -2027    -2023    -2020    -2025    -2018    -2020    -2030 
   -2018    -2016    -2026    -2022    -2023    -2027    -2020    -2019 
   -2023    -2025    -2027    -2020    -2016    -2025    -2025    -2018 
   -2023    -2023    -2020    -2025    -2023    -2022    -2022    -2016 
   -2022    -2026    -2023    -2029    -2025    -2014    -2022    -2026 
   -2019    -2023    -2023    -2020    -2026    -2025    -2020    -2022 
   -2019    -2026    -2029    -2018    -2022    -2026    -2018    -2022 
   -2025    -2020    -2025    -2023    -2018    -2023    -2026    -2022 
   -2023    -2018    -2018    -2026    -2026    -2023    -2025    -2020 
   -2023    -2026    -2022    -2025    -2023    -2018    -2022    -2022 
   -2020    -2023    -2020    -2018    -2026    -2025    -2020    -2026 
   -2023    -2019    -2023    -2022    -2022    -2025    -2020    -2025 
   -2029    -2020    -2020    -2023    -2019    -2025    -2027    -2023 
   -2023    -2022    -2020    -2023    -2023    -2023    -2027    -2023 
   -2022    -2026    -2023    -2023    -2020    -2019    -2025    -2025 
   -2022    -2023    -2019    -2020    -2027    -2022    -2019    -2026 
   -2022    -2020    -2026    -2020    -2020    -2027    -2022    -2025 
   -2025    -2016    -2022    -2025    -2019    -2026    -2025    -2018 
   -2023    -2023    -2022    -2027    -2020    -2018    -2026    -2022 
   -2019    -2026    -2022    -2020    -2020    -2019    -2027    -2027 
   -2022    -2027    -2025    -2019    -2023    -2023    -2025    -2029 
   -2022    -2019    -2026    -2023    -2025    -2026    -2020    -2023 
   -2026    -2020    -2025    -2026    -2022    -2025    -2020    -2019 
   -2026    -2022    -2022    -2026    -2018    -2018    -2026    -2022 
   -2023    -2027    -2018    -2019    -2030    -2027    -2022    -2022 
   -2025    -2027    -2023    -2020    -2027    -2023    -2019    -2023 
   -2025    -2020    -2023    -2025    -2023    -2023    -2022    -2025 
   -2025    -2022    -2026    -2025    -2018    -2022    -2026    -2023 
   -2022    -2022    -2025    -2029    -2023    -2020    -2027    -2025 
   -2022    -2026    -2022    -2020    -2025    -2025    -2025    -2025 
   -2022    -2020    -2020    -2023    -2026    -2020    -2020    -2029 
   -2022    -2019    -2025    -2018    -2018    -2029    -2025    -2023 
   -2023    -2018    -2026    -2027    -2018    -2025    -2025    -2019 
   -2026    -2025    -2016    -2022    -2022    -2023    -2029    -2023 
   -2022    -2025    -2018    -2022    -2025    -2019    -2023    -2025 
   -2019    -2023    -2023    -2022    -2027    -2020    -2019    -2029 
   -2022    -2016    -2026    -2022    -2022    -2029    -2022    -2018 
   -2025    -2025    -2023    -2025    -2023    -2023    -2020    -2018 
   -2023    -2022    -2019    -2023    -2020    -2020    -2027    -2025 
   -2022    -2025    -2018    -2018    -2026    -2020    -2019    -2025 
   -2023    -2023    -2020    -2018    -2025    -2023    -2019    -2023 
   -2020    -2019    -2027    -2022    -2019    -2027    -2023    -2019 
   -2025    -2022    -2018    -2025    -2023    -2020    -2020    -2022 
   -2026    -2022    -2018    -2025    -2022    -2018    -2023    -2020 
   -2022    -2026    -2019    -2020    -2027    -2018    -2015    -2026 
   -2025    -2022    -2023    -2020    -2023    -2025    -2019    -2022 
   -2025    -2019    -2022    -2022    -2022    -2026    -2020    -2019 
   -2023    -2020    -2022    -2025    -2019    -2022    -2026    -2022 
   -2022    -2019    -2018    -2023    -2019    -2019    -2027    -2020 
   -2018    -2026    -2020    -2016    -2026    -2026    -2020    -2020 
   -2022    -2022    -2023    -2022    -2022    -2020    -2019    -2025 
   -2022    -2019    -2020    -2018    -2018    -2025    -2022    -2022 
   -2026    -2020    -2019    -2020    -2019    -2025    -2025    -2016 
   -2022    -2022    -2018    -2023    -2022    -2015    -2020    -2023 
   -2020    -2023    -2020    -2020    -2025    -2020    -2022    -2026 
   -2022    -2025    -2023    -2016    -2023    -2025    -2016    -2022 
   -2022    -2018    -2023    -2020    -2016    -2022    -2019    -2022 
   -2027    -2016    -2015    -2026    -2023    -2018    -2019    -2019 
   -2020    -2023    -2023    -2025    -2023    -2023    -2023    -2020 
   -2020    -2026    -2022    -2020    -2025    -2022    -2029    -2029 
   -2019    -2025    -2026    -2018    -2025    -2029    -2018    -2020 
   -2027    -2025    -2023    -2020    -2020    -2025    -2022    -2025 
   -2029    -2020    -2022    -2030    -2023    -2022    -2025    -2020 
   -2026    -2029    -2019    -2025    -2027    -2018    -2023    -2026 
   -2020    -2023    -2025    -2022    -2025    -2023    -2025    -2023 
   -2018    -2026    -2030    -2020    -2023    -2027    -2020    -2023 
   -2027    -2026    -2026    -2022    -2023    -2031    -2025    -2022 
   -2029    -2020    -2020    -2029    -2023    -2026    -2029    -2016 
   -2022    -2033    -2022    -2019    -2023    -2020    -2029    -2030 
   -2020    -2023    -2020    -2022    -2030    -2027    -2022    -2025 
   -2022    -2025    -2029    -2022    -2020    -2020    -2022    -2026 
   -2023    -2022    -2025    -2020    -2019    -2026    -2026    -2023 
   -2020    -2020    -2029    -2029    -2019    -2022    -2026    -2022 
   -2025    -2025    -2019    -2025    -2027    -2022    -2023    -2025 
   -2023    -2025    -2020    -2019    -2023    -2020    -2023    -2027 
   -2020    -2020    -2026    -2022    -2023    -2023    -2020    -2025 
   -2020    -2015    -2025    -2025    -2019    -2027    -2022    -2016 
   -2025    -2022    -2020    -2022    -2018    -2022    -2026    -2019 
   -2022    -2023    -2019    -2022    -2023    -2018    -2023    -2027 
   -2022    -2023    -2022    -2023    -2025    -2015    -2019    -2030 
   -2020    -2016    -2023    -2023    -2025    -2020    -2015    -2023 
   -2026    -2019    -2025    -2025    -2012    -2016    -2023    -2025 
   -2026    -2022    -2018    -2022    -2022    -2025    -2025    -2019 
   -2019    -2019    -2022    -2027    -2022    -2014    -2023    -2027 
   -2020    -2023    -2023    -2019    -2025    -2022    -2018    -2022 
   -2019    -2022    -2027    -2018    -2018    -2025    -2020    -2025 
   -2025    -2018    -2025    -2026    -2019    -2020    -2019    -2023 
   -2030    -2016    -2014    -2026    -2023    -2022    -2027    -2019 
   -2016    -2020    -2023    -2029    -2026    -2020    -2025    -2019 
   -2016    -2030    -2027    -2016    -2019    -2022    -2023    -2029 
   -2025    -2019    -2022    -2020    -2023    -2025    -2020    -2026 
   -2027    -2019    -2020    -2023    -2020    -2023    -2020    -2020 
   -2023    -2018    -2019    -2025    -2020    -2023    -2025    -2016 
   -2022    -2026    -2019    -2022    -2023    -2018    -2026    -2030 
   -2019    -2016    -2020    -2022    -2023    -2020    -2020    -2025 
   -2022    -2022    -2025    -2020    -2020    -2022    -2019    -2025 
   -2027    -2020    -2023    -2025    -2018    -2022    -2023    -2022 
   -2027    -2026    -2022    -2023    -2023    -2026    -2026    -2020 
   -2026    -2027    -2018    -2025    -2027    -2022    -2026    -2026 
   -2020    -2025    -2022    -2019    -2030    -2027    -2019    -2026 
   -2025    -2022    -2026    -2026    -2023    -2022    -2018    -2026 
   -2029    -2022    -2025    -2025    -2020    -2029    -2027    -2020 
   -2026    -2023    -2023    -2031    -2023    -2016    -2025    -2025 
   -2022    -2023    -2019    -2023    -2026    -2019    -2019    -2019 
   -2020    -2030    -2026    -2020    -2022    -2019    -2023    -2030 
   -2022    -2020    -2029    -2022    -2020    -2026    -2023    -2023 
   -2022    -2019    -2023    -2020    -2019    -2027    -2020    -2014 
   -2026    -2026    -2016    -2018    -2019    -2023    -2026    -2022 
   -2025    -2023    -2016    -2022    -2025    -2018    -2022    -2023 
   -2019    -2025    -2025    -2020    -2026    -2023    -2019    -2025 
   -2019    -2019    -2026    -2022    -2020    -2022    -2015    -2018 
   -2023    -2020    -2025    -2023    -2020    -2025    -2018    -2018 
   -2027    -2019    -2014    -2025    -2023    -2023    -2030    -2019 
   -2014    -2025    -2023    -2019    -2020    -2019    -2023    -2023 
   -2018    -2025    -2026    -2019    -2020    -2018    -2016    -2027 
   -2026    -2022    -2026    -2018    -2014    -2020    -2022    -2023 
   -2020    -2011    -2020    -2029    -2019    -2019    -2022    -2019 
   -2022    -2019    -2016    -2025    -2026    -2023    -2025    -2020 
   -2020    -2022    -2018    -2022    -2023    -2020    -2025    -2025 
   -2018    -2022    -2023    -2018    -2019    -2022    -2023    -2023 
   -2019    -2022    -2025    -2016    -2020    -2027    -2018    -2015 
   -2022    -2023    -2023    -2022    -2016    -2020    -2022    -2020 
   -2026    -2020    -2018    -2025    -2019    -2016    -2023    -2020 
   -2022    -2025    -2016    -2015    -2018    -2020    -2025    -2025 
   -2020    -2022    -2020    -2019    -2025    -2022    -2016    -2022 
   -2022    -2020    -2025    -2022    -2019    -2022    -2020    -2025 
   -2026    -2018    -2020    -2027    -2023    -2020    -2023    -2023 
   -2022    -2018    -2020    -2029    -2025    -2020    -2025    -2020 
   -2019    -2026    -2023    -2020    -2025    -2025    -2027    -2022 
   -2016    -2022    -2025    -2023    -2025    -2018    -2016    -2027 
   -2027    -2022    -2026    -2020    -2019    -2026    -2020    -2020 
   -2027    -2023    -2020    -2020    -2022    -2029    -2022    -2015 
   -2025    -2027    -2022    -2027    -2020    -2016    -2027    -2025 
   -2020    -2025    -2020    -2022    -2026    -2020    -2026    -2030 
   -2023    -2025    -2023    -2022    -2029    -2025    -2023    -2027 
   -2016    -2016    -2027    -2023    -2022    -2027    -2020    -2020 
   -2025    -2025    -2029    -2031    -2022    -2020    -2022    -2022 
   -2029    -2023    -2018    -2026    -2025    -2023    -2027    -2022 
   -2019    -2025    -2026    -2029    -2023    -2014    -2022    -2030 
   -2023    -2023    -2025    -2019    -2027    -2030    -2020    -2023 
   -2027    -2025    -2027    -2026    -2023    -2027    -2025    -2023 
   -2029    -2026    -2020    -2020    -2022    -2027    -2026    -2020 
   -2026    -2023    -2019    -2026    -2026    -2025    -2029    -2020 
   -2018    -2027    -2022    -2020    -2026    -2022    -2025    -2026 
   -2019    -2027    -2027    -2018    -2023    -2027    -2020    -2025 
   -2026    -2022    -2025    -2022    -2022    -2025    -2019    -2019 
   -2025    -2020    -2019    -2026    -2022    -2020    -2023    -2018 
   -2022    -2026    -2020    -2022    -2019    -2019    -2026    -2022 
   -2020    -2027    -2020    -2019    -2025    -2020    -2023    -2026 
   -2019    -2023    -2025    -2014    -2022    -2027    -2019    -2020 
   -2020    -2016    -2026    -2029    -2023    -2023    -2016    -2016 
   -2022    -2019    -2022    -2026    -2022    -2022    -2020    -2018 
   -2023    -2023    -2018    -2022    -2023    -2018    -2019    -2019 
   -2020    -2023    -2016    -2022    -2033    -2020    -2014    -2022 
   -2023    -2023    -2025    -2020    -2022    -2022    -2018    -2020 
   -2022    -2025    -2029    -2023    -2019    -2023    -2022    -2020 
   -2026    -2023    -2022    -2022    -2019    -2023    -2026    -2022 
   -2020    -2019    -2022    -2027    -2022    -2020    -2026    -2019 
   -2016    -2023    -2019    -2022    -2027    -2020    -2022    -2025 
   -2018    -2025    -2027    -2019    -2023    -2027    -2020    -2023 
   -2023    -2019    -2025    -2023    -2023    -2026    -2020    -2019 
   -2022    -2018    -2025    -2022    -2003    -1995    -1975    -1937 
   -1919    -1899    -1877    -1903    -1977    -2091    -2219    -2281 
   -2228    -2106    -2025    -2073    -2177    -2160    -1996    -1791 
   -1625    -1560    -1657    -1895    -2089    -2103    -2118    -2269 
   -2268    -1948    -1688    -1841    -2184    -2243    -1958    -1782 
   -2107    -2623    -2631    -2373    -3073    -4476    -4074    -1026 
    1552     1027    -1140    -2662    -3194    -2840    -1834    -1005 
    -858    -1462    -2636    -3446    -2918    -2126    -2714    -3038 
   -1424     -237     -891    -1638    -1952    -2689    -3626    -3699 
   -2574    -1424    -1579    -2538    -2280     -714     -513    -1885 
   -2200    -1717    -2070    -2272    -1753    -1898    -2786    -2895 
   -1698     -353     -469    -2463    -4217    -3296    -1190    -1279 
   -2897    -2768    -1147    -1013    -2481    -2972    -2050    -1638 
   -2058    -1877    -1151    -1237    -1956    -2207    -2223    -2446 
   -2227    -1657    -1892    -2795    -3044    -2192     -974     -662 
   -1872    -3148    -2724    -1458    -1215    -1934    -2473    -2481 
   -2307    -2220    -2151    -1807    -1514    -2070    -2841    -2393 
   -1332    -1316    -2158    -2523    -2177    -1834    -1696    -1609 
   -1794    -2342    -2808    -2620    -1656     -762     -982    -2052 
   -2797    -2705    -2308    -2293    -2447    -2137    -1617    -1634 
   -2103    -2099    -1401    -1205    -2274    -3437    -3218    -1987 
   -1240    -1522    -2103    -2250    -2107    -2155    -2178    -1656 
    -982    -1098    -1964    -2547    -2312    -1827    -1873    -2322 
   -2355    -1885    -1746    -2238    -2604    -2407    -2211    -2181 
   -1753    -1264    -1672    -2631    -2843    -2057    -1406    -1715 
   -2276    -2011    -1274    -1308    -2308    -3005    -2477    -1575 
   -1460    -1815    -1802    -1695    -2201    -2907    -2859    -2214 
   -1898    -2068    -2099    -1794    -1586    -1678    -1885    -2100 
   -2243    -2170    -1937    -1842    -1991    -2116    -2079    -1895 
   -1638    -1782    -2346    -2457    -1931    -1571    -1769    -2257 
   -2592    -2525    -2261    -2092    -1761    -1140    -1166    -2268 
   -3080    -2621    -1777    -1521    -1653    -1861    -2274    -2573 
   -2195    -1495    -1327    -1845    -2457    -2621    -2485    -2355 
   -2151    -1863    -1661    -1609    -1765    -2092    -2327    -2322 
   -2164    -2025    -1879    -1559    -1404    -1738    -2043    -2077 
   -2235    -2424    -2367    -2215    -2127    -1977    -1719    -1633 
   -1838    -2273    -2768    -2682    -1906    -1402    -1517    -1665 
   -1814    -2231    -2493    -2268    -1968    -1852    -1737    -1725 
   -1993    -2226    -2126    -1858    -1815    -2304    -2882    -2733 
   -2160    -1977    -1969    -1552    -1116    -1416    -2205    -2614 
   -2220    -1393    -1285    -2346    -3184    -2700    -1745    -1586 
   -2145    -2309    -1795    -1563    -1871    -1814    -1242    -1217 
   -2074    -2594    -2161    -1873    -2313    -2735    -2732    -2392 
   -1757    -1192    -1219    -1921    -2679    -2643    -1887    -1436 
   -1791    -2408    -2668    -2625    -2535    -2245    -1674    -1425 
   -2042    -2787    -2467    -1528    -1281    -1579    -1543    -1458 
   -1910    -2263    -1730    -1000    -1273    -2347    -2910    -2430 
   -1883    -2003    -2062    -1688    -1840    -2871    -3780    -3618 
   -2544    -1609    -1460    -1651    -1768    -2093    -2505    -2297 
   -1567    -1202    -1370    -1490    -1632    -2303    -2987    -2690 
   -1813    -1584    -1989    -1952    -1337    -1209    -2049    -2984 
   -2948    -2016    -1359    -1699    -2369    -2467    -2007    -1482 
   -1324    -1676    -2091    -2072    -1867    -1989    -2259    -2182 
   -2014    -2334    -2809    -2613    -1782    -1144    -1146    -1470 
   -2015    -3033    -3694    -2955    -1732    -1452    -1858    -1992 
   -1663    -1455    -1779    -2118    -1764    -1223    -1591    -2420 
   -2434    -2137    -2521    -2728    -2030    -1482    -1661    -1861 
   -1888    -1961    -1915    -1937    -2239    -2500    -2689    -2840 
   -2567    -2035    -1875    -2022    -2023    -1952    -2008    -1854 
   -1447    -1432    -1745    -1833    -1960    -2131    -1775    -1313 
   -1518    -2120    -2419    -2234    -1840    -1478    -1582    -2559 
   -3465    -3164    -2513    -2444    -2246    -1827    -1865    -1780 
   -1124     -680     -758    -1377    -2766    -3731    -2752    -1194 
   -1266    -2062    -1895    -1620    -2207    -2658    -2182    -1390 
   -1128    -1752    -2614    -2571    -2182    -2806    -3476    -2764 
   -1919    -2322    -2774    -1917     -542     -194    -1173    -2428 
   -2898    -2690    -2555    -2536    -2273    -2033    -1954    -1574 
   -1169    -1464    -1864    -1391     -884    -1564    -2481    -2400 
   -2041    -2276    -2812    -2926    -2231    -1401    -1414    -1867 
   -1705    -1337    -1811    -2481    -2258    -1926    -2428    -3053 
   -3001    -2601    -2442    -2295    -1432     -338     -395    -1256 
   -1586    -1556    -1908    -2683    -3473    -3531    -2856    -2496 
   -2579    -2134    -1323    -1468    -2520    -2867    -2025    -1140 
    -996    -1341    -1517    -1425    -1790    -2686    -3111    -2628 
   -1875    -1548    -1651    -1683    -1544    -1725    -2257    -2490 
   -2149    -1648    -1460    -1678    -2045    -2197    -1965    -1732 
   -2046    -2637    -2818    -2520    -2196    -2197    -2413    -2614 
   -2717    -2563    -2143    -1590    -1050     -996    -1575    -2128 
   -2235    -2073    -1834    -1715    -1846    -2155    -2486    -2450 
   -1802    -1263    -1686    -2457    -2200    -1009     -558    -1634 
   -2944    -3194    -2782    -2481    -2261    -2056    -2126    -2430 
   -2442    -1906    -1418    -1622    -2205    -2475    -2300    -1961 
   -1737    -1671    -1668    -1907    -2381    -2367    -1668    -1252 
   -1497    -1725    -1644    -1435    -1414    -1841    -2315    -2475 
   -2667    -2862    -2589    -2265    -2513    -2502    -1557    -1066 
   -1823    -2405    -2120    -1858    -2081    -2632    -3059    -2828 
   -2425    -2579    -2602    -1786     -980     -942    -1154    -1246 
