Origin Time       2024/06/23 22:54:00
Lat.              35.645
Long.             140.060
Depth. (km)       72
Mag.              4.1
Station Code      CHBH11
Station Lat.      35.2867
Station Long.     140.1529
Station Height(m) 80
Record Time       2024/06/23 22:54:36
Sampling Freq(Hz) 100Hz
Duration Time(s)  120
Dir.              4
Scale Factor      7845(gal)/8223790
Max. Acc. (gal)   3.189
Last Correction   2024/06/23 22:54:36
Memo.             
[...]
   -3140    -3146    -3145    -3138    -3142    -3148    -3146    -3141 
   -3140    -3142    -3140    -3140    -3145    -3142    -3134    -3141 
   -3146    -3142    -3142    -3145    -3141    -3134    -3138    -3146 
   -3145    -3144    -3142    -3138    -3140    -3145    -3145    -3145 
   -3146    -3140    -3133    -3138    -3145    -3146    -3146    -3145 
   -3141    -3140    -3142    -3144    -3145    -3146    -3142    -3137 
   -3137    -3146    -3150    -3144    -3141    -3142    -3141    -3142 
   -3145    -3144    -3142    -3145    -3145    -3140    -3140    -3146 
   -3148    -3141    -3138    -3144    -3149    -3145    -3138    -3140 
   -3142    -3142    -3144    -3145    -3144    -3138    -3136    -3141 
   -3149    -3149    -3145    -3144    -3140    -3137    -3142    -3148 
   -3145    -3140    -3141    -3144    -3141    -3141    -3142    -3144 
   -3142    -3138    -3141    -3148    -3145    -3142    -3141    -3141 
   -3145    -3140    -3136    -3145    -3150    -3142    -3140    -3141 
   -3142    -3142    -3146    -3144    -3137    -3140    -3145    -3142 
   -3142    -3145    -3145    -3142    -3141    -3144    -3146    -3145 
   -3140    -3138    -3142    -3145    -3146    -3142    -3134    -3134 
   -3144    -3148    -3146    -3142    -3137    -3136    -3140    -3145 
   -3144    -3142    -3142    -3140    -3137    -3142    -3145    -3144 
   -3141    -3141    -3141    -3141    -3141    -3144    -3145    -3144 
   -3140    -3136    -3138    -3146    -3148    -3141    -3136    -3137 
   -3141    -3142    -3142    -3141    -3142    -3141    -3142    -3144 
   -3141    -3140    -3145    -3142    -3140    -3142    -3142    -3142 
   -3142    -3140    -3140    -3141    -3141    -3146    -3146    -3138 
   -3136    -3144    -3145    -3141    -3142    -3141    -3138    -3142 
   -3146    -3145    -3146    -3142    -3136    -3140    -3146    -3146 
   -3142    -3141    -3142    -3142    -3140    -3140    -3142    -3141 
   -3140    -3140    -3141    -3148    -3146    -3140    -3137    -3134 
   -3137    -3144    -3144    -3144    -3137    -3133    -3144    -3150 
   -3145    -3138    -3133    -3137    -3142    -3145    -3146    -3140 
   -3134    -3138    -3142    -3144    -3144    -3140    -3137    -3140 
   -3144    -3142    -3136    -3132    -3137    -3145    -3142    -3137 
   -3137    -3142    -3144    -3141    -3137    -3137    -3141    -3140 
   -3137    -3141    -3141    -3137    -3141    -3145    -3144    -3138 
   -3138    -3141    -3141    -3141    -3141    -3141    -3141    -3137 
   -3140    -3146    -3141    -3138    -3142    -3140    -3137    -3140 
   -3145    -3148    -3140    -3136    -3134    -3133    -3142    -3150 
   -3142    -3133    -3134    -3141    -3144    -3145    -3142    -3137 
   -3138    -3144    -3141    -3138    -3142    -3142    -3136    -3137 
   -3142    -3145    -3145    -3145    -3141    -3137    -3141    -3142 
   -3141    -3141    -3141    -3140    -3142    -3145    -3145    -3144 
   -3138    -3134    -3140    -3144    -3142    -3144    -3145    -3138 
   -3137    -3144    -3145    -3141    -3140    -3142    -3142    -3142 
   -3145    -3142    -3141    -3145    -3145    -3138    -3140    -3145 
   -3144    -3140    -3145    -3146    -3140    -3140    -3149    -3150 
   -3140    -3134    -3140    -3146    -3146    -3146    -3146    -3140 
   -3138    -3145    -3145    -3142    -3144    -3142    -3142    -3146 
   -3146    -3144    -3144    -3142    -3142    -3145    -3146    -3144 
   -3141    -3142    -3144    -3145    -3146    -3146    -3144    -3138 
   -3141    -3146    -3148    -3146    -3146    -3145    -3142    -3140 
   -3140    -3145    -3150    -3149    -3142    -3138    -3141    -3150 
   -3148    -3144    -3149    -3146    -3138    -3141    -3145    -3146 
   -3150    -3149    -3142    -3141    -3144    -3146    -3145    -3142 
   -3141    -3142    -3145    -3145    -3144    -3145    -3146    -3141 
   -3140    -3145    -3148    -3141    -3138    -3145    -3148    -3146 
   -3146    -3146    -3142    -3141    -3145    -3146    -3144    -3144 
   -3141    -3137    -3138    -3144    -3146    -3145    -3142    -3144 
   -3140    -3134    -3145    -3152    -3141    -3137    -3142    -3145 
   -3145    -3144    -3144    -3144    -3138    -3140    -3145    -3141 
   -3141    -3149    -3145    -3145    -3157    -3163    -3154    -3136 
   -3119    -3113    -3122    -3148    -3180    -3177    -3136    -3099 
   -3103    -3122    -3142    -3172    -3176    -3141    -3132    -3171 
   -3187    -3132    -3096    -3175    -3267    -3242    -3152    -3098 
   -3078    -3056    -3025    -3022    -3118    -3254    -3195    -2925 
   -2844    -3149    -3522    -3690    -3635    -3233    -2554    -2308 
   -2937    -3580    -3454    -3175    -3222    -3429    -3742    -3418 
   -2222    -1902    -3055    -3735    -3222    -3145    -3681    -3230 
   -2278    -2263    -2802    -3454    -4102    -4180    -3875    -3485 
   -2770    -2187    -2304    -2631    -2776    -3235    -3816    -3616 
   -3059    -3100    -3516    -3840    -3742    -2914    -2170    -2489 
   -3169    -3118    -2793    -3149    -3677    -3465    -3221    -3600 
   -3445    -2355    -2092    -3200    -3762    -3126    -3017    -3807 
   -3793    -2812    -2484    -2933    -3123    -3175    -3364    -3275 
   -3199    -3585    -3542    -2505    -1814    -2458    -3410    -3673 
   -3466    -3213    -3373    -3932    -4062    -3489    -2709    -2262 
   -2598    -3326    -3516    -3144    -2924    -3028    -2943    -2624 
   -2658    -3046    -3246    -3172    -3217    -3572    -3879    -3715 
   -3160    -2628    -2458    -2648    -2874    -3049    -3469    -4048 
   -4158    -3572    -2901    -2736    -2891    -2918    -2836    -2894 
   -3005    -2898    -2806    -3145    -3559    -3433    -3006    -2986 
   -3439    -3788    -3559    -2940    -2548    -2605    -2822    -3094 
   -3485    -3753    -3559    -2994    -2543    -2717    -3458    -3869 
   -3334    -2648    -2789    -3365    -3454    -3123    -3037    -3173 
   -3088    -2879    -2943    -3285    -3499    -3246    -2772    -2646 
   -2928    -3240    -3416    -3566    -3623    -3275    -2712    -2659 
   -3099    -3246    -3040    -3167    -3589    -3593    -3177    -2968 
   -3048    -3025    -2866    -2893    -3177    -3388    -3322    -3122 
   -2965    -3015    -3249    -3258    -2968    -2957    -3373    -3515 
   -3117    -2748    -2712    -2974    -3418    -3541    -3225    -3038 
   -3080    -3010    -2932    -2944    -2833    -2891    -3410    -3651 
   -3177    -2794    -3133    -3784    -3912    -3366    -2957    -3056 
   -3106    -2902    -2728    -2702    -2890    -3269    -3547    -3483 
   -3204    -2979    -2864    -2820    -2876    -3106    -3501    -3788 
   -3676    -3289    -2853    -2524    -2624    -3048    -3314    -3397 
   -3368    -3273    -3331    -3307    -3046    -3040    -3272    -3211 
   -3030    -3115    -3046    -2567    -2425    -3030    -3612    -3638 
   -3574    -3620    -3308    -2727    -2500    -2705    -3041    -3442 
   -3808    -3832    -3431    -2921    -2702    -2820    -2965    -3069 
   -3168    -3010    -2779    -2971    -3303    -3219    -3001    -3210 
   -3612    -3686    -3434    -3006    -2597    -2555    -2995    -3538 
   -3577    -3087    -2886    -3312    -3545    -3087    -2660    -2787 
   -3019    -3022    -3078    -3333    -3520    -3397    -2994    -2685 
   -2925    -3407    -3447    -3204    -3145    -3156    -3100    -3148 
   -3354    -3466    -3258    -2964    -2943    -2979    -2794    -2801 
   -3219    -3361    -3053    -3153    -3654    -3692    -3296    -2991 
   -2940    -3076    -3007    -2689    -2763    -3265    -3543    -3416 
   -3142    -2947    -2940    -3048    -3132    -3144    -2990    -2706 
   -2764    -3349    -3767    -3512    -3171    -3410    -3820    -3631 
   -2979    -2592    -2666    -2884    -3037    -3161    -3281    -3289 
   -3165    -2991    -2830    -2859    -3184    -3537    -3577    -3281 
   -2902    -2818    -3110    -3285    -3082    -2986    -3187    -3150 
   -2767    -2552    -2695    -2995    -3360    -3685    -3780    -3636 
   -3518    -3522    -3269    -2629    -2339    -2928    -3630    -3546 
   -3196    -3392    -3696    -3507    -3034    -2659    -2659    -2956 
   -3133    -3231    -3402    -3211    -2662    -2681    -3311    -3485 
   -3271    -3474    -3632    -3122    -2533    -2407    -2471    -2621 
   -2999    -3248    -3208    -3310    -3430    -3230    -3036    -3045 
   -3210    -3572    -3763    -3622    -3526    -3381    -3028    -2876 
   -3057    -3260    -3238    -2948    -2659    -2627    -2818    -3191 
   -3456    -3096    -2477    -2562    -3060    -3123    -3069    -3141 
   -3009    -3149    -3797    -4027    -3649    -3433    -3312    -2982 
   -3026    -3415    -3366    -3218    -3379    -3073    -2425    -2628 
   -3420    -3642    -3318    -2949    -2601    -2461    -2613    -2817 
   -3191    -3762    -3744    -3019    -2794    -3350    -3673    -3430 
   -3033    -2743    -2632    -2637    -2802    -3213    -3538    -3524 
   -3545    -3819    -3925    -3532    -2978    -2824    -2988    -2918 
   -2635    -2679    -3117    -3474    -3524    -3319    -2974    -2918 
   -3203    -3245    -3053    -2925    -2798    -2956    -3392    -3326 
   -2837    -2863    -3342    -3458    -3107    -2835    -2926    -3115 
   -3087    -2959    -2930    -2902    -2847    -3026    -3350    -3539 
   -3858    -4206    -4032    -3785    -3703    -3019    -2173    -2215 
   -2704    -2982    -3179    -3271    -3173    -3014    -2794    -2758 
   -3217    -3672    -3580    -3275    -3069    -2762    -2300    -1983 
   -2219    -2956    -3380    -3159    -3122    -3693    -4190    -4172 
   -3836    -3446    -3276    -3280    -3122    -2940    -3136    -3588 
   -3600    -2898    -2374    -2709    -3307    -3508    -3285    -2878 
   -2586    -2586    -2826    -3026    -3068    -3229    -3469    -3370 
   -3015    -2937    -3289    -3527    -3199    -2793    -2916    -3276 
   -3360    -3257    -3160    -2814    -2307    -2448    -3377    -4097 
   -4018    -3581    -3267    -3073    -2929    -2913    -3019    -3122 
   -3188    -3221    -3098    -2889    -2918    -3083    -3022    -2961 
   -3240    -3541    -3512    -3375    -3254    -2860    -2419    -2547 
   -3072    -3408    -3370    -3233    -3454    -3686    -3316    -3042 
   -3387    -3447    -3075    -3168    -3500    -3325    -3079    -3149 
   -2980    -2577    -2524    -2810    -3154    -3257    -2890    -2543 
   -2681    -2874    -2862    -2967    -3121    -3069    -3025    -3091 
   -3160    -3542    -4303    -4664    -4075    -3141    -2857    -3099 
   -2922    -2570    -2901    -3388    -3284    -3107    -3253    -3238 
   -2898    -2704    -2843    -2974    -2940    -2938    -2895    -2768 
   -2926    -3310    -3461    -3411    -3439    -3589    -3692    -3523 
   -3122    -2751    -2554    -2619    -2991    -3460    -3746    -3780 
   -3566    -3187    -2928    -2863    -2781    -2797    -3121    -3427 
   -3450    -3431    -3364    -3013    -2656    -2571    -2536    -2511 
   -2654    -2874    -3153    -3628    -4144    -4216    -3586    -2766 
   -2455    -2635    -2948    -3200    -3250    -3211    -3343    -3537 
   -3514    -3302    -3177    -3211    -3078    -2735    -2691    -2933 
   -2992    -3059    -3295    -3204    -2805    -2828    -3389    -3711 
   -3508    -3438    -3592    -3410    -3022    -2840    -2767    -2731 
   -2878    -3177    -3376    -3310    -3057    -2799    -2690    -2713 
   -2798    -3082    -3542    -3842    -3890    -3750    -3373    -3110 
   -3285    -3411    -3064    -2704    -2710    -2810    -2759    -2677 
   -2794    -3142    -3375    -3246    -3061    -3079    -3171    -3218 
   -3213    -3277    -3532    -3645    -3333    -3032    -3064    -3060 
   -2813    -2694    -3002    -3514    -3732    -3534    -3285    -3208 
   -3119    -2833    -2428    -2215    -2524    -3277    -3869    -3824 
   -3372    -3015    -3006    -3211    -3208    -2938    -2830    -3018 
   -3231    -3299    -3204    -3111    -3226    -3331    -3121    -2948 
   -3264    -3693    -3780    -3672    -3457    -3115    -2853    -2752 
   -2803    -2887    -2783    -2759    -3078    -3265    -3019    -2758 
   -2803    -3115    -3559    -3807    -3615    -3370    -3372    -3188 
   -2639    -2211    -2218    -2650    -3319    -3712    -3568    -3225 
   -2926    -2675    -2573    -2675    -2941    -3329    -3676    -3835 
   -3839    -3719    -3554    -3527    -3566    -3433    -3111    -2749 
   -2428    -2176    -2222    -2702    -3119    -3152    -3252    -3570 
   -3757    -3824    -3866    -3649    -3221    -2994    -3068    -3133 
   -2936    -2689    -2743    -2948    -2979    -2936    -2994    -3005 
   -2884    -2906    -3122    -3218    -3268    -3572    -3879    -3892 
   -3763    -3638    -3469    -3157    -2655    -2170    -1966    -2006 
   -2181    -2505    -2924    -3312    -3613    -3863    -4066    -4139 
   -4033    -3732    -3237    -2720    -2508    -2740    -3007    -2785 
   -2166    -1576    -1247    -1485    -2562    -4028    -5020    -5159 
   -4666    -4005    -3572    -3488    -3631    -3771    -3748    -3561 
   -3287    -2940    -2420    -1809    -1578    -2004    -2809    -3619 
   -4182    -4282    -3909    -3252    -2610    -2393    -2785    -3419 
   -3659    -3325    -3003    -3215    -3716    -4047    -3975    -3230 
   -1977    -1350    -2174    -3731    -4888    -5242    -4851    -4112 
   -3487    -3080    -2837    -2605    -2083    -1189     -244      201 
    -295    -1796    -3742    -5100    -5258    -4590    -3850    -3503 
   -3593    -3800    -3701    -3114    -2304    -1962    -2459    -3117 
   -3014    -2342    -2150    -2952    -4198    -5073    -5346    -5151 
   -4421    -3132    -1694     -599     -171     -711    -2234    -4118 
   -5467    -5722    -4957    -3885    -3115    -2533    -2139    -2263 
   -2602    -2732    -2849    -3167    -3600    -3908    -3877    -3600 
   -3399    -3477    -3738    -3878    -3522    -2560    -1694    -1628 
   -2131    -2799    -3539    -4016    -3767    -2914    -2145    -1906 
   -2061    -2362    -2840    -3546    -4097    -4095    -3798    -3592 
   -3461    -3437    -3651    -3816    -3532    -3061    -2808    -2596 
   -2241    -1899    -1761    -2093    -2922    -3758    -4290    -4590 
   -4610    -4368    -4059    -3612    -2963    -2452    -2424    -2849 
   -3337    -3454    -3156    -2701    -2369    -2313    -2442    -2683 
   -3125    -3623    -3821    -3527    -2880    -2439    -2652    -3231 
   -3549    -3354    -2849    -2417    -2343    -2670    -3103    -3273 
   -3199    -3090    -2952    -2926    -3289    -3958    -4581    -4851 
   -4631    -4114    -3640    -3387    -3215    -2774    -2049    -1601 
   -1792    -2308    -2697    -2929    -3204    -3414    -3218    -2766 
   -2573    -2674    -2848    -3222    -3950    -4799    -5324    -5246 
   -4714    -4068    -3335    -2373    -1422     -930     -928    -1158 
   -1567    -2218    -3017    -3763    -4234    -4243    -3794    -3167 
   -2783    -2768    -2782    -2693    -2797    -3121    -3469    -3942 
   -4459    -4606    -4314    -3892    -3592    -3476    -3414    -3283 
   -3160    -3088    -2967    -2836    -2890    -3113    -3300    -3264 
   -2840    -2157    -1645    -1510    -1705    -2191    -2767    -3157 
   -3300    -3298    -3331    -3531    -3708    -3638    -3446    -3310 
   -3225    -3331    -3748    -4110    -4031    -3632    -3157    -2816 
   -2847    -3148    -3376    -3430    -3358    -3191    -3028    -2918 
   -2759    -2552    -2533    -2832    -3233    -3416    -3231    -2798 
   -2416    -2265    -2408    -2794    -2997    -2654    -2131    -2074 
   -2679    -3642    -4437    -4693    -4371    -3723    -3167    -2976 
   -3125    -3354    -3375    -3210    -3127    -3302    -3708    -4097 
   -4210    -4059    -3758    -3488    -3554    -3929    -4247    -4220 
   -3620    -2586    -1791    -1559    -1613    -1764    -1985    -2119 
   -2064    -2012    -2142    -2370    -2602    -2783    -2849    -2886 
   -3056    -3420    -3898    -4255    -4324    -4193    -4005    -3813 
   -3651    -3543    -3477    -3437    -3353    -3160    -2945    -2824 
   -2728    -2700    -2876    -3102    -3206    -3245    -3222    -3171 
   -3165    -3136    -3094    -3121    -3114    -3037    -2979    -2910 
   -2986    -3450    -3952    -4017    -3771    -3474    -3140    -2890 
   -2799    -2652    -2447    -2438    -2559    -2592    -2539    -2446 
   -2373    -2520    -2984    -3596    -4113    -4452    -4614    -4473 
   -4023    -3593    -3406    -3271    -2999    -2632    -2269    -2008 
   -1954    -2064    -2218    -2535    -3126    -3658    -3821    -3794 
   -3805    -3866    -3923    -3865    -3627    -3352    -3184    -3091 
   -3001    -2902    -2751    -2616    -2633    -2664    -2589    -2690 
   -3114    -3499    -3485    -3187    -2991    -3111    -3373    -3496 
   -3488    -3477    -3345    -2979    -2546    -2215    -2035    -2070 
   -2363    -2813    -3252    -3574    -3767    -3854    -3846    -3777 
   -3649    -3449    -3244    -3071    -2929    -2895    -2978    -3092 
   -3213    -3315    -3423    -3630    -3850    -3839    -3547    -3125 
   -2704    -2407    -2322    -2427    -2660    -2999    -3364    -3600 
   -3649    -3600    -3609    -3744    -3886    -3909    -3828    -3624 
   -3229    -2754    -2465    -2439    -2496    -2498    -2475    -2509 
   -2643    -2782    -2855    -2982    -3207    -3295    -3199    -3225 
   -3477    -3727    -3808    -3717    -3496    -3241    -3057    -2941 
   -2758    -2498    -2373    -2509    -2756    -2898    -2998    -3210 
   -3402    -3419    -3380    -3377    -3365    -3319    -3196    -3032 
   -2979    -3098    -3294    -3395    -3314    -3204    -3165    -3033 
   -2790    -2704    -2905    -3260    -3586    -3747    -3697    -3514 
   -3337    -3296    -3402    -3524    -3543    -3439    -3269    -3036 
   -2660    -2289    -2173    -2208    -2192    -2272    -2567    -2916 
   -3208    -3503    -3742    -3825    -3901    -4054    -4018    -3726 
   -3416    -3117    -2759    -2497    -2444    -2547    -2706    -2794 
   -2876    -3161    -3496    -3570    -3526    -3627    -3805    -3923 
   -3937    -3782    -3416    -2868    -2250    -1817    -1767    -1977 
   -2282    -2677    -3026    -3164    -3164    -3167    -3231    -3411 
   -3632    -3748    -3780    -3789    -3823    -3963    -4016    -3748 
   -3466    -3442    -3426    -3283    -3207    -3223    -3199    -3098 
   -2929    -2755    -2650    -2496    -2212    -1971    -1836    -1777 
   -1980    -2478    -2963    -3373    -3861    -4191    -4144    -3962 
   -3877    -3843    -3750    -3499    -3123    -2805    -2693    -2779 
   -2905    -2986    -3048    -3068    -3018    -2929    -2849    -2898 
   -3055    -3109    -3025    -2905    -2776    -2668    -2658    -2836 
   -3200    -3591    -3881    -4010    -3905    -3620    -3333    -3127 
   -2987    -2893    -2866    -2951    -3145    -3364    -3516    -3526 
   -3406    -3252    -3064    -2805    -2594    -2602    -2830    -3122 
   -3357    -3551    -3694    -3657    -3407    -3142    -3061    -3121 
   -3154    -3123    -3080    -2990    -2751    -2408    -2142    -2122 
   -2403    -2879    -3370    -3758    -3966    -3970    -3873    -3755 
