Origin Time       2024/06/23 22:54:00
Lat.              35.645
Long.             140.060
Depth. (km)       72
Mag.              4.1
Station Code      CHBH19
Station Lat.      35.5943
Station Long.     140.5107
Station Height(m) -1629
Record Time       2024/06/23 22:54:36
Sampling Freq(Hz) 100Hz
Duration Time(s)  120
Dir.              1
Scale Factor      2942(gal)/8224139
Max. Acc. (gal)   0.450
Last Correction   2024/06/23 22:54:36
Memo.             
[...]
 -159144  -159144  -159146  -159144  -159143  -159144  -159146  -159143 
 -159142  -159144  -159146  -159143  -159143  -159144  -159144  -159142 
 -159143  -159147  -159146  -159143  -159144  -159146  -159144  -159144 
 -159144  -159142  -159143  -159144  -159144  -159144  -159144  -159143 
 -159146  -159146  -159143  -159143  -159143  -159143  -159146  -159147 
 -159144  -159143  -159146  -159146  -159144  -159144  -159144  -159142 
 -159142  -159143  -159144  -159144  -159143  -159143  -159146  -159144 
 -159144  -159143  -159142  -159143  -159144  -159142  -159143  -159144 
 -159142  -159143  -159144  -159144  -159144  -159144  -159142  -159144 
 -159147  -159144  -159143  -159146  -159144  -159143  -159143  -159144 
 -159144  -159146  -159144  -159143  -159144  -159143  -159143  -159144 
 -159144  -159144  -159146  -159144  -159144  -159146  -159146  -159143 
 -159143  -159144  -159144  -159144  -159143  -159144  -159146  -159146 
 -159143  -159142  -159143  -159144  -159144  -159142  -159143  -159143 
 -159143  -159143  -159144  -159146  -159144  -159142  -159142  -159143 
 -159143  -159144  -159143  -159143  -159143  -159144  -159144  -159144 
 -159143  -159143  -159144  -159144  -159144  -159144  -159146  -159144 
 -159143  -159143  -159144  -159146  -159146  -159143  -159143  -159146 
 -159146  -159144  -159146  -159147  -159146  -159144  -159146  -159143 
 -159143  -159146  -159146  -159144  -159144  -159143  -159143  -159146 
 -159147  -159144  -159143  -159143  -159144  -159142  -159140  -159144 
 -159144  -159142  -159143  -159144  -159143  -159143  -159143  -159144 
 -159146  -159142  -159142  -159146  -159146  -159142  -159142  -159144 
 -159144  -159143  -159146  -159147  -159143  -159142  -159143  -159143 
 -159142  -159142  -159142  -159143  -159144  -159144  -159143  -159143 
 -159143  -159143  -159144  -159144  -159146  -159144  -159143  -159144 
 -159144  -159142  -159144  -159147  -159147  -159144  -159143  -159143 
 -159143  -159144  -159146  -159143  -159142  -159142  -159142  -159144 
 -159147  -159146  -159142  -159142  -159144  -159143  -159143  -159144 
 -159144  -159144  -159143  -159143  -159143  -159144  -159143  -159143 
 -159143  -159144  -159147  -159146  -159144  -159147  -159144  -159143 
 -159146  -159146  -159143  -159144  -159143  -159142  -159143  -159144 
 -159144  -159144  -159144  -159144  -159144  -159143  -159143  -159143 
 -159143  -159143  -159144  -159147  -159146  -159143  -159143  -159146 
 -159146  -159143  -159144  -159146  -159144  -159146  -159147  -159144 
 -159144  -159144  -159144  -159146  -159146  -159146  -159147  -159146 
 -159144  -159144  -159146  -159147  -159144  -159146  -159147  -159144 
 -159143  -159146  -159144  -159144  -159147  -159146  -159146  -159146 
 -159144  -159146  -159146  -159144  -159144  -159144  -159143  -159143 
 -159143  -159146  -159147  -159144  -159144  -159146  -159143  -159144 
 -159146  -159143  -159143  -159146  -159144  -159142  -159144  -159148 
 -159146  -159142  -159143  -159144  -159144  -159146  -159147  -159147 
 -159147  -159146  -159143  -159144  -159146  -159144  -159144  -159146 
 -159146  -159144  -159146  -159147  -159147  -159147  -159147  -159146 
 -159148  -159147  -159142  -159144  -159146  -159142  -159143  -159146 
 -159143  -159144  -159146  -159143  -159140  -159142  -159142  -159140 
 -159140  -159136  -159135  -159135  -159135  -159140  -159143  -159138 
 -159135  -159133  -159132  -159128  -159123  -159117  -159115  -159113 
 -159121  -159136  -159144  -159144  -159143  -159138  -159123  -159111 
 -159115  -159131  -159133  -159136  -159148  -159150  -159148  -159159 
 -159152  -159129  -159139  -159167  -159187  -159228  -159278  -159291 
 -159264  -159227  -159202  -159167  -159105  -159055  -159052  -159084 
 -159125  -159169  -159189  -159160  -159124  -159132  -159163  -159167 
 -159159  -159181  -159213  -159210  -159158  -159075  -159038  -159066 
 -159078  -159081  -159116  -159146  -159167  -159190  -159208  -159201 
 -159135  -159070  -159084  -159131  -159169  -159210  -159224  -159179 
 -159146  -159156  -159123  -159104  -159193  -159194  -159081  -159088 
 -159133  -159066  -159023  -159096  -159225  -159301  -159240  -159124 
 -159040  -158984  -159005  -159092  -159120  -159119  -159190  -159291 
 -159349  -159313  -159186  -159092  -159084  -159093  -159113  -159159 
 -159206  -159237  -159219  -159160  -159144  -159160  -159116  -159027 
 -158981  -158985  -159048  -159192  -159268  -159206  -159140  -159129 
 -159146  -159128  -159069  -159071  -159144  -159193  -159233  -159262 
 -159232  -159197  -159192  -159170  -159121  -159097  -159135  -159197 
 -159224  -159200  -159135  -159074  -159063  -159058  -159011  -159011 
 -159106  -159173  -159178  -159205  -159204  -159132  -159071  -159066 
 -159097  -159119  -159119  -159160  -159201  -159177  -159155  -159136 
 -159097  -159096  -159136  -159212  -159262  -159194  -159147  -159223 
 -159239  -159179  -159166  -159175  -159200  -159213  -159183  -159182 
 -159193  -159104  -158949  -158920  -159016  -159074  -159125  -159205 
 -159231  -159213  -159158  -159082  -159088  -159142  -159140  -159155 
 -159225  -159223  -159129  -159077  -159082  -159100  -159156  -159228 
 -159279  -159312  -159275  -159171  -159071  -159047  -159102  -159117 
 -159094  -159119  -159116  -159073  -159081  -159128  -159140  -159121 
 -159129  -159156  -159197  -159255  -159212  -159097  -159084  -159094 
 -159052  -159052  -159111  -159152  -159115  -159052  -159061  -159094 
 -159121  -159182  -159256  -159282  -159264  -159235  -159198  -159181 
 -159179  -159120  -159077  -159124  -159140  -159133  -159179  -159189 
 -159165  -159136  -159074  -159075  -159154  -159179  -159135  -159055 
 -158988  -159054  -159217  -159277  -159246  -159273  -159286  -159212 
 -159183  -159183  -159086  -158988  -159007  -159089  -159150  -159163 
 -159183  -159204  -159167  -159166  -159264  -159314  -159208  -159051 
 -159023  -159078  -159036  -158967  -159020  -159082  -159059  -159071 
 -159173  -159254  -159260  -159263  -159252  -159186  -159166  -159221 
 -159241  -159225  -159227  -159229  -159162  -159001  -158892  -158928 
 -159013  -159090  -159139  -159133  -159169  -159258  -159304  -159310 
 -159282  -159192  -159105  -159092  -159142  -159162  -159086  -159003 
 -159015  -159081  -159125  -159170  -159221  -159202  -159116  -159086 
 -159135  -159144  -159100  -159071  -159019  -158927  -158931  -159066 
 -159158  -159175  -159256  -159335  -159282  -159220  -159263  -159327 
 -159290  -159143  -159030  -159044  -159111  -159132  -159093  -159038 
 -159034  -159048  -159057  -159121  -159210  -159289  -159391  -159424 
 -159324  -159270  -159316  -159263  -159139  -159120  -159108  -159034 
 -159039  -159119  -159128  -159030  -158961  -158990  -159035  -159074 
 -159088  -159021  -158984  -159013  -159012  -159032  -159133  -159217 
 -159240  -159250  -159213  -159201  -159306  -159351  -159250  -159170 
 -159144  -159148  -159206  -159250  -159220  -159152  -159132  -159155 
 -159148  -159151  -159148  -159023  -158866  -158831  -158890  -159015 
 -159223  -159397  -159379  -159286  -159308  -159339  -159237  -159131 
 -159124  -159094  -159024  -159069  -159174  -159167  -159111  -159116 
 -159147  -159183  -159240  -159209  -159058  -159003  -159090  -159111 
 -159082  -159101  -159106  -159135  -159206  -159187  -159067  -158957 
 -158932  -158985  -159028  -159073  -159179  -159248  -159251  -159317 
 -159410  -159430  -159393  -159281  -159124  -159040  -159036  -159031 
 -159011  -159021  -159085  -159154  -159186  -159204  -159200  -159177 
 -159192  -159212  -159185  -159143  -159128  -159174  -159209  -159155 
 -159127  -159177  -159178  -159090  -159043  -159120  -159162  -159082 
 -159070  -159192  -159277  -159212  -159084  -159085  -159221  -159258 
 -159170  -159148  -159140  -159044  -159007  -159090  -159125  -159055 
 -159059  -159140  -159116  -159040  -159048  -159113  -159179  -159190 
 -159181  -159208  -159190  -159092  -159020  -159046  -159123  -159162 
 -159154  -159181  -159244  -159282  -159301  -159297  -159212  -159112 
 -159119  -159158  -159125  -159073  -159034  -158998  -158992  -159005 
 -159036  -159151  -159333  -159457  -159468  -159399  -159289  -159185 
 -159098  -159030  -159027  -159063  -159042  -158980  -158976  -159051 
 -159136  -159187  -159224  -159205  -159111  -159059  -159074  -159100 
 -159171  -159233  -159236  -159259  -159264  -159220  -159212  -159187 
 -159108  -159097  -159140  -159143  -159170  -159237  -159224  -159112 
 -159003  -159034  -159159  -159162  -159073  -159065  -159085  -159082 
 -159088  -159097  -159169  -159264  -159247  -159185  -159147  -159071 
 -159038  -159119  -159159  -159084  -159043  -159115  -159192  -159177 
 -159140  -159210  -159297  -159275  -159250  -159235  -159189  -159197 
 -159232  -159198  -159085  -158969  -158953  -158990  -159016  -159065 
 -159101  -159125  -159173  -159173  -159129  -159140  -159202  -159258 
 -159268  -159213  -159154  -159147  -159124  -159054  -159016  -159070 
 -159196  -159293  -159279  -159210  -159193  -159208  -159179  -159151 
 -159163  -159135  -159075  -159075  -159093  -159089  -159117  -159140 
 -159093  -159057  -159093  -159109  -159096  -159159  -159198  -159124 
 -159117  -159254  -159337  -159273  -159183  -159166  -159170  -159085 
 -158963  -158959  -159015  -159024  -159048  -159085  -159101  -159142 
 -159171  -159160  -159173  -159186  -159162  -159135  -159104  -159074 
 -159097  -159150  -159193  -159240  -159286  -159325  -159329  -159274 
 -159209  -159179  -159152  -159116  -159108  -159109  -159075  -159111 
 -159248  -159283  -159174  -159112  -159086  -158977  -158888  -158931 
 -159011  -159039  -159077  -159169  -159293  -159389  -159381  -159251 
 -159113  -159104  -159179  -159179  -159100  -159079  -159105  -159085 
 -159067  -159119  -159162  -159143  -159136  -159189  -159246  -159256 
 -159256  -159263  -159235  -159190  -159165  -159147  -159105  -159021 
 -158986  -159051  -159094  -159079  -159109  -159143  -159142  -159202 
 -159281  -159274  -159239  -159174  -159062  -158986  -158974  -159017 
 -159116  -159185  -159206  -159227  -159212  -159131  -159043  -159015 
 -159051  -159113  -159171  -159186  -159154  -159131  -159165  -159237 
 -159282  -159293  -159304  -159273  -159205  -159181  -159171  -159117 
 -159047  -159007  -158984  -158947  -158940  -158986  -159024  -159034 
 -159085  -159187  -159243  -159229  -159212  -159201  -159231  -159328 
 -159371  -159282  -159189  -159175  -159142  -159082  -159081  -159100 
 -159129  -159194  -159193  -159120  -159089  -159066  -158994  -158947 
 -159000  -159113  -159182  -159200  -159198  -159171  -159193  -159287 
 -159328  -159270  -159219  -159225  -159190  -159106  -159073  -159081 
 -159113  -159181  -159221  -159209  -159173  -159154  -159159  -159124 
 -159096  -159156  -159182  -159119  -159097  -159117  -159074  -159020 
 -159051  -159100  -159096  -159129  -159216  -159264  -159283  -159300 
 -159301  -159313  -159291  -159200  -159132  -159088  -159023  -159004 
 -159017  -159004  -159021  -159040  -158981  -158915  -158889  -158881 
 -158899  -158915  -158927  -158980  -159065  -159151  -159240  -159358 
 -159513  -159653  -159726  -159756  -159814  -159902  -159916  -159802 
 -159607  -159382  -159213  -159100  -158847  -158468  -158236  -158225 
 -158288  -158372  -158498  -158625  -158751  -158976  -159324  -159691 
 -159929  -159960  -159857  -159714  -159586  -159497  -159382  -159190 
 -158965  -158735  -158506  -158333  -158267  -158307  -158399  -158483 
 -158608  -158869  -159197  -159425  -159552  -159705  -159853  -159826 
 -159659  -159557  -159518  -159429  -159356  -159325  -159282  -159248 
 -159192  -159040  -158882  -158792  -158681  -158571  -158607  -158738 
 -158847  -158924  -158963  -159004  -159100  -159179  -159198  -159223 
 -159286  -159314  -159264  -159231  -159235  -159192  -159175  -159287 
 -159425  -159479  -159490  -159510  -159507  -159452  -159389  -159333 
 -159286  -159274  -159236  -159120  -158990  -158878  -158768  -158684 
 -158641  -158641  -158718  -158842  -158907  -158890  -158885  -158896 
 -158845  -158814  -158927  -159108  -159285  -159493  -159659  -159723 
 -159803  -159937  -160023  -159983  -159777  -159484  -159244  -159048 
 -158866  -158699  -158533  -158437  -158464  -158566  -158724  -158954 
 -159232  -159487  -159661  -159799  -159922  -159937  -159800  -159556 
 -159227  -158946  -158824  -158726  -158571  -158511  -158592  -158673 
 -158700  -158745  -158854  -159000  -159144  -159281  -159381  -159456 
 -159530  -159553  -159520  -159456  -159378  -159340  -159306  -159163 
 -158986  -158904  -158843  -158791  -158868  -159023  -159136  -159248 
 -159374  -159425  -159455  -159536  -159507  -159322  -159183  -159123 
 -159027  -158931  -158877  -158801  -158711  -158666  -158657  -158676 
 -158787  -158951  -159016  -158954  -158888  -158909  -159046  -159210 
 -159333  -159464  -159599  -159675  -159667  -159576  -159440  -159268 
 -159063  -158907  -158865  -158908  -159013  -159165  -159268  -159283 
 -159304  -159336  -159295  -159258  -159309  -159329  -159233  -159146 
 -159174  -159210  -159120  -159001  -159020  -159085  -159039  -158942 
 -158944  -159057  -159196  -159312  -159355  -159287  -159200  -159175 
 -159124  -158957  -158805  -158820  -158881  -158858  -158782  -158677 
 -158565  -158480  -158415  -158418  -158552  -158793  -159111  -159487 
 -159849  -160120  -160308  -160402  -160353  -160173  -159949  -159717 
 -159448  -159185  -158990  -158804  -158588  -158463  -158483  -158614 
 -158851  -159121  -159294  -159344  -159300  -159186  -159044  -158854 
 -158683  -158704  -158899  -159139  -159390  -159567  -159618  -159621 
 -159609  -159602  -159630  -159583  -159395  -159235  -159171  -159073 
 -158963  -158915  -158800  -158585  -158410  -158284  -158255  -158446 
 -158768  -159066  -159322  -159524  -159667  -159796  -159864  -159822 
 -159684  -159428  -159174  -159121  -159182  -159139  -158947  -158722 
 -158622  -158656  -158674  -158657  -158706  -158827  -159019  -159308 
 -159567  -159663  -159652  -159578  -159441  -159291  -159132  -158961 
 -158791  -158629  -158619  -158818  -159028  -159178  -159351  -159437 
 -159352  -159291  -159378  -159517  -159605  -159606  -159553  -159518 
 -159467  -159328  -159169  -159094  -158969  -158614  -158288  -158365 
 -158647  -158699  -158554  -158515  -158680  -158998  -159324  -159448 
 -159435  -159506  -159626  -159655  -159611  -159576  -159607  -159659 
 -159575  -159335  -159101  -158966  -158876  -158819  -158843  -158934 
 -159004  -159007  -159043  -159173  -159278  -159281  -159197  -159117 
 -159196  -159401  -159499  -159359  -159108  -159025  -159163  -159287 
 -159263  -159113  -158828  -158537  -158469  -158606  -158755  -158880 
 -159039  -159209  -159339  -159416  -159464  -159491  -159478  -159460 
 -159463  -159410  -159228  -158927  -158693  -158693  -158807  -158819 
 -158738  -158737  -158949  -159246  -159343  -159306  -159376  -159448 
 -159390  -159341  -159337  -159262  -159136  -159073  -159067  -159098 
 -159208  -159318  -159243  -159069  -159066  -159220  -159324  -159359 
 -159383  -159362  -159306  -159302  -159316  -159243  -159100  -158978 
 -158903  -158880  -158874  -158765  -158645  -158762  -159027  -159174 
 -159239  -159376  -159532  -159525  -159341  -159221  -159260  -159264 
 -159181  -159143  -159170  -159212  -159248  -159197  -159051  -158986 
 -159069  -159136  -159120  -159132  -159206  -159275  -159297  -159271 
 -159302  -159459  -159534  -159410  -159304  -159320  -159277  -159071 
 -158834  -158687  -158626  -158604  -158618  -158712  -158846  -158882 
 -158812  -158796  -158912  -159066  -159170  -159278  -159433  -159538 
 -159517  -159448  -159394  -159312  -159216  -159162  -159074  -158900 
 -158757  -158726  -158704  -158677  -158804  -159088  -159360  -159591 
 -159784  -159817  -159695  -159544  -159390  -159236  -159106  -158965 
 -158814  -158741  -158751  -158737  -158730  -158876  -159104  -159270 
 -159375  -159444  -159459  -159408  -159322  -159277  -159285  -159291 
 -159309  -159322  -159251  -159151  -159106  -159046  -158967  -158931 
 -158913  -158924  -159057  -159229  -159251  -159196  -159252  -159372 
 -159393  -159283  -159143  -159034  -158935  -158853  -158777  -158711 
 -158730  -158838  -158981  -159116  -159142  -159105  -159160  -159256 
 -159266  -159194  -159119  -159101  -159139  -159193  -159260  -159341 
 -159399  -159430  -159486  -159502  -159381  -159225  -159156  -159106 
 -159036  -159004  -159008  -159009  -159005  -159058  -159175  -159270 
 -159341  -159389  -159327  -159205  -159123  -159051  -159003  -159028 
 -159108  -159187  -159204  -159200  -159308  -159410  -159313  -159135 
 -159035  -158967  -158903  -158870  -158909  -159017  -159094  -159121 
 -159162  -159185  -159155  -159094  -158984  -158824  -158688  -158666 
 -158811  -159084  -159385  -159615  -159722  -159733  -159707  -159668 
 -159572  -159418  -159322  -159300  -159209  -159069  -158997  -158931 
 -158811  -158780  -158911  -159051  -159079  -159075  -159101  -159109 
 -159128  -159189  -159204  -159148  -159098  -159058  -158986  -158935 
 -158963  -159015  -159027  -159054  -159123  -159154  -159154  -159171 
 -159140  -159094  -159159  -159260  -159255  -159205  -159224  -159262 
 -159209  -159108  -159050  -159048  -159111  -159216  -159275  -159270 
 -159239  -159174  -159090  -159027  -158984  -158962  -158961  -158966 
 -159015  -159139  -159270  -159316  -159274  -159220  -159205  -159206 
 -159212  -159258  -159305  -159259  -159182  -159177  -159170  -159117 
 -159120  -159174  -159174  -159101  -158989  -158882  -158858  -158939 
 -159050  -159152  -159264  -159348  -159368  -159355  -159385  -159479 
 -159510  -159390  -159221  -159086  -158990  -158939  -158884  -158799 
 -158749  -158795  -158917  -159042  -159115  -159146  -159185  -159250 
 -159301  -159318  -159318  -159295  -159271  -159289  -159329  -159318 
 -159252  -159214  -159231  -159220  -159140  -159017  -158916  -158909 
 -158996  -159094  -159178  -159240  -159233  -159210  -159224  -159196 
 -159147  -159160  -159166  -159084  -158967  -158924  -158978  -159048 
 -159097  -159173  -159278  -159341  -159343  -159306  -159255  -159214 
 -159228  -159283  -159285  -159187  -159066  -158973  -158926  -158946 
 -159025  -159101  -159106  -159028  -158926  -158853  -158835  -158882 
 -158969  -159086  -159225  -159300  -159283  -159263  -159271  -159281 
 -159305  -159362  -159418  -159414  -159317  -159213  -159181  -159154 
 -159061  -158954  -158908  -158919  -158949  -158955  -158915  -158899 
 -158957  -159034  -159088  -159117  -159120  -159112  -159108  -159128 
 -159200  -159305  -159364  -159308  -159192  -159152  -159212  -159291 
 -159331  -159305  -159262  -159259  -159282  -159297  -159317  -159328 
 -159263  -159135  -159052  -159069  -159125  -159170  -159170  -159123 
 -159098  -159109  -159105  -159120  -159173  -159186  -159151  -159089 
 -159011  -158973  -158974  -158949  -158904  -158893  -158936  -158998 
 -159047  -159073  -159084  -159096  -159140  -159209  -159262  -159298 
 -159321  -159314  -159305  -159293  -159254  -159233  -159247  -159241 
 -159228  -159197  -159101  -158996  -158940  -158908  -158893  -158911 
