Origin Time       2024/06/23 22:54:00
Lat.              35.645
Long.             140.060
Depth. (km)       72
Mag.              4.1
Station Code      CHBH16
Station Lat.      35.1384
Station Long.     139.9649
Station Height(m) -1842.75
Record Time       2024/06/23 22:54:46
Sampling Freq(Hz) 100Hz
Duration Time(s)  120
Dir.              3
Scale Factor      7845(gal)/8223790
Max. Acc. (gal)   0.165
Last Correction   2024/06/23 22:54:46
Memo.             
[...]
  -17990   -17986   -17977   -17984   -17984   -17980   -17986   -17984 
  -17980   -17986   -17983   -17977   -17983   -17987   -17980   -17980 
  -17987   -17986   -17986   -17986   -17980   -17984   -17986   -17977 
  -17982   -17987   -17982   -17982   -17988   -17986   -17980   -17984 
  -17986   -17982   -17982   -17982   -17979   -17980   -17982   -17983 
  -17986   -17979   -17977   -17983   -17983   -17983   -17984   -17984 
  -17983   -17982   -17982   -17983   -17980   -17979   -17983   -17986 
  -17982   -17982   -17980   -17980   -17982   -17983   -17984   -17983 
  -17983   -17986   -17987   -17983   -17983   -17986   -17987   -17987 
  -17982   -17979   -17982   -17983   -17982   -17982   -17980   -17983 
  -17983   -17982   -17986   -17984   -17979   -17980   -17982   -17983 
  -17984   -17983   -17984   -17986   -17982   -17980   -17984   -17987 
  -17986   -17983   -17979   -17979   -17984   -17984   -17982   -17983 
  -17983   -17982   -17982   -17984   -17987   -17986   -17980   -17980 
  -17983   -17984   -17984   -17982   -17984   -17987   -17984   -17982 
  -17980   -17980   -17983   -17984   -17980   -17982   -17984   -17982 
  -17980   -17983   -17983   -17983   -17984   -17986   -17984   -17982 
  -17979   -17983   -17986   -17980   -17983   -17984   -17983   -17987 
  -17984   -17979   -17986   -17987   -17982   -17980   -17983   -17984 
  -17983   -17983   -17982   -17983   -17983   -17980   -17980   -17984 
  -17986   -17986   -17984   -17984   -17984   -17980   -17982   -17984 
  -17984   -17984   -17984   -17982   -17983   -17984   -17982   -17980 
  -17986   -17984   -17979   -17982   -17986   -17984   -17984   -17982 
  -17980   -17986   -17987   -17984   -17983   -17982   -17982   -17984 
  -17983   -17982   -17987   -17988   -17983   -17980   -17983   -17987 
  -17984   -17980   -17982   -17983   -17984   -17986   -17984   -17982 
  -17982   -17982   -17983   -17983   -17982   -17983   -17983   -17983 
  -17983   -17983   -17984   -17984   -17982   -17983   -17986   -17983 
  -17979   -17982   -17986   -17983   -17980   -17983   -17983   -17982 
  -17983   -17984   -17983   -17980   -17982   -17984   -17983   -17984 
  -17980   -17979   -17984   -17983   -17980   -17986   -17987   -17979 
  -17979   -17987   -17986   -17977   -17980   -17988   -17984   -17982 
  -17986   -17983   -17980   -17982   -17982   -17982   -17982   -17983 
  -17983   -17980   -17982   -17986   -17986   -17982   -17983   -17984 
  -17983   -17983   -17984   -17984   -17983   -17980   -17982   -17983 
  -17982   -17986   -17988   -17982   -17980   -17983   -17980   -17984 
  -17988   -17983   -17979   -17980   -17984   -17986   -17982   -17980 
  -17982   -17982   -17983   -17984   -17984   -17986   -17984   -17983 
  -17984   -17983   -17980   -17984   -17984   -17982   -17982   -17983 
  -17984   -17984   -17984   -17984   -17983   -17983   -17984   -17983 
  -17982   -17984   -17984   -17982   -17982   -17982   -17982   -17980 
  -17982   -17983   -17983   -17984   -17984   -17983   -17982   -17983 
  -17982   -17983   -17986   -17982   -17977   -17983   -17988   -17987 
  -17983   -17983   -17982   -17983   -17986   -17986   -17984   -17983 
  -17983   -17984   -17984   -17982   -17982   -17980   -17982   -17984 
  -17984   -17982   -17983   -17986   -17984   -17980   -17982   -17984 
  -17984   -17984   -17986   -17983   -17980   -17983   -17984   -17984 
  -17982   -17980   -17986   -17986   -17980   -17983   -17986   -17980 
  -17979   -17986   -17987   -17982   -17980   -17984   -17984   -17983 
  -17983   -17984   -17983   -17983   -17984   -17987   -17987   -17982 
  -17980   -17984   -17980   -17980   -17983   -17980   -17982   -17984 
  -17983   -17983   -17984   -17986   -17984   -17980   -17982   -17984 
  -17980   -17983   -17986   -17980   -17982   -17983   -17982   -17986 
  -17983   -17976   -17983   -17984   -17979   -17982   -17986   -17982 
  -17980   -17984   -17984   -17979   -17982   -17987   -17986   -17979 
  -17980   -17986   -17986   -17982   -17979   -17984   -17986   -17983 
  -17984   -17983   -17980   -17983   -17980   -17980   -17986   -17986 
  -17983   -17986   -17984   -17983   -17983   -17987   -17986   -17982 
  -17983   -17983   -17979   -17980   -17983   -17983   -17982   -17982 
  -17983   -17984   -17984   -17984   -17982   -17979   -17983   -17984 
  -17979   -17979   -17982   -17980   -17979   -17983   -17984   -17983 
  -17982   -17982   -17983   -17983   -17984   -17983   -17982   -17986 
  -17987   -17982   -17984   -17986   -17982   -17983   -17986   -17983 
  -17984   -17983   -17982   -17986   -17983   -17982   -17986   -17984 
  -17982   -17983   -17984   -17983   -17982   -17984   -17984   -17980 
  -17980   -17986   -17986   -17982   -17984   -17983   -17980   -17984 
  -17984   -17979   -17979   -17984   -17987   -17983   -17980   -17982 
  -17983   -17980   -17982   -17987   -17986   -17983   -17984   -17982 
  -17982   -17986   -17984   -17983   -17983   -17984   -17986   -17984 
  -17979   -17983   -17987   -17982   -17977   -17980   -17977   -17973 
  -17976   -17980   -17982   -17986   -17990   -17988   -17987   -17983 
  -17977   -17984   -17991   -17990   -17991   -17996   -17992   -17980 
  -17977   -17983   -17980   -17976   -17987   -17998   -17992   -17984 
  -17990   -17986   -17967   -17971   -17991   -17998   -17992   -17990 
  -17980   -17952   -17930   -17945   -17996   -18052   -18080   -18073 
  -18023   -17941   -17874   -17860   -17925   -18042   -18107   -18061 
  -17976   -17923   -17911   -17909   -17903   -17956   -18050   -18080 
  -18073   -18075   -17999   -17865   -17844   -17972   -18069   -18013 
  -17972   -18044   -18031   -17913   -17879   -17956   -18023   -18017 
  -18026   -18071   -18003   -17902   -17950   -18025   -17999   -17956 
  -17929   -17948   -18036   -18048   -17971   -17948   -17961   -17960 
  -17946   -17948   -17988   -18007   -17982   -17969   -17969   -18009 
  -18083   -18080   -17991   -17901   -17869   -17932   -18038   -18076 
  -18015   -17909   -17865   -17938   -18009   -18026   -18034   -17992 
  -17922   -17929   -17973   -17982   -18007   -18058   -18041   -17945 
  -17903   -17983   -18067   -18045   -17971   -17940   -17972   -17990 
  -17948   -17934   -17988   -18006   -17961   -17963   -18002   -18002 
  -18003   -18015   -17998   -17975   -17963   -17961   -17968   -17986 
  -17994   -17959   -17937   -17990   -18049   -18042   -18015   -18014 
  -17983   -17923   -17941   -18007   -18000   -17961   -18004   -18050 
  -17977   -17896   -17952   -18045   -18034   -17990   -18011   -18027 
  -17975   -17926   -17932   -17971   -18010   -18021   -17988   -17961 
  -17995   -18040   -18013   -17956   -17922   -17869   -17847   -17948 
  -18094   -18112   -18017   -17980   -18019   -17999   -17950   -17948 
  -17948   -17963   -17999   -17980   -17922   -17922   -17987   -18060 
  -18073   -17994   -17945   -17999   -18033   -18010   -17971   -17926 
  -17937   -17979   -17995   -18022   -18011   -17923   -17871   -17925 
  -18006   -18018   -17994   -17994   -17991   -17995   -18007   -17976 
  -17964   -18007   -18019   -17980   -17937   -17929   -17967   -18029 
  -18090   -18060   -17937   -17888   -17956   -18044   -18058   -17948 
  -17871   -17950   -18015   -17961   -17915   -17952   -18002   -18013 
  -17988   -17965   -17986   -18017   -17999   -17956   -17942   -17979 
  -18061   -18103   -18017   -17918   -17934   -17971   -17950   -17942 
  -17976   -18023   -18041   -17986   -17940   -17988   -18046   -18014 
  -17942   -17918   -17930   -17950   -17986   -18017   -18025   -18004 
  -17977   -18015   -18054   -17986   -17942   -18017   -18034   -17923 
  -17863   -17926   -18022   -18075   -18056   -17971   -17914   -17956 
  -18021   -18027   -18009   -18021   -18046   -17998   -17928   -17944 
  -17959   -17940   -17979   -18002   -17941   -17921   -17994   -18052 
  -18027   -17971   -17929   -17921   -17964   -18017   -18022   -18002 
  -18010   -18034   -18023   -17971   -17903   -17883   -17964   -18044 
  -18011   -17959   -17961   -17971   -17968   -17992   -18045   -18041 
  -17942   -17896   -17965   -18004   -17984   -17995   -18013   -17971 
  -17918   -17937   -17991   -18014   -18029   -18038   -17995   -17949 
  -17959   -17988   -18014   -18036   -18002   -17930   -17918   -17967 
  -18019   -18041   -18007   -17944   -17945   -18004   -18026   -18022 
  -18002   -17946   -17936   -17972   -17963   -17936   -17960   -18011 
  -18014   -17973   -17982   -18000   -17953   -17926   -17955   -17987 
  -18038   -18071   -18022   -17992   -18036   -18029   -17955   -17921 
  -17928   -17955   -18014   -18038   -18009   -17991   -17995   -17972 
  -17933   -17925   -17952   -17969   -17986   -18034   -18067   -17990 
  -17882   -17902   -18011   -18065   -18034   -17996   -18000   -17998 
  -17973   -17960   -17922   -17888   -17952   -18040   -18033   -17982 
  -17988   -17996   -17952   -17952   -18011   -18023   -17979   -17940 
  -17950   -17987   -17990   -17972   -17992   -18029   -18034   -18018 
  -17994   -17956   -17945   -17986   -18019   -18003   -17972   -17955 
  -17944   -17968   -18006   -17990   -17945   -17929   -17955   -18022 
  -18077   -18058   -17994   -17930   -17890   -17899   -17965   -18034 
  -18045   -17995   -17959   -17984   -17999   -17971   -17990   -18034 
  -18010   -17964   -17948   -17925   -17928   -17976   -18000   -18017 
  -18041   -18014   -17983   -17995   -17984   -17961   -17990   -18036 
  -18042   -18018   -17986   -17948   -17938   -17967   -17988   -18000 
  -18003   -17965   -17941   -17991   -18034   -17991   -17929   -17925 
  -17956   -17961   -17957   -17983   -17992   -17983   -18000   -18007 
  -18009   -18017   -17986   -17984   -18036   -18019   -17960   -17953 
  -17984   -17996   -17980   -17967   -17967   -17965   -17957   -17950 
  -17949   -17965   -18019   -18073   -18045   -17971   -17950   -17969 
  -17960   -17949   -17973   -17979   -17959   -17994   -18023   -17963 
  -17918   -17955   -18002   -18022   -18003   -17988   -18033   -18054 
  -17977   -17891   -17907   -17998   -18056   -18042   -17991   -17976 
  -18013   -18045   -18077   -18094   -18019   -17918   -17890   -17941 
  -18040   -18053   -17945   -17886   -17945   -17990   -17936   -17910 
  -17973   -17956   -17853   -17871   -17972   -17992   -17972   -17987 
  -17992   -17984   -18013   -18037   -18031   -18073   -18126   -18087 
  -17984   -17899   -17872   -17901   -17945   -18006   -18069   -18073 
  -18031   -17988   -17941   -17922   -17950   -17986   -17998   -17969 
  -17915   -17894   -17956   -18057   -18095   -18083   -18112   -18142 
  -18094   -18010   -17930   -17872   -17875   -17887   -17868   -17896 
  -17959   -17963   -17967   -17995   -17988   -18003   -18044   -18025 
  -18018   -18033   -17977   -17933   -17972   -18006   -17953   -17861 
  -17871   -17984   -18034   -17994   -17972   -18019   -18077   -18061 
  -17980   -17903   -17886   -17938   -17984   -17979   -17968   -18000 
  -18013   -17950   -17971   -18072   -18042   -17983   -18007   -17969 
  -17946   -18018   -18015   -17946   -17938   -17979   -18013   -18015 
  -18003   -17990   -17956   -17903   -17882   -17961   -18067   -18037 
  -17921   -17903   -17959   -17957   -17964   -18058   -18115   -18061 
  -18006   -18036   -18095   -18073   -17994   -17956   -17968   -17983 
  -17925   -17848   -17914   -18064   -18130   -18106   -18040   -17938 
  -17851   -17833   -17855   -17883   -17934   -17945   -17942   -18018 
  -18065   -18026   -18000   -18003   -17998   -17994   -18044   -18126 
  -18107   -17956   -17867   -17949   -18010   -17963   -17976   -18026 
  -17984   -17961   -18014   -18019   -17973   -17952   -17921   -17882 
  -17892   -17926   -17936   -17907   -17896   -17969   -18018   -18009 
  -18068   -18102   -18027   -18014   -18060   -18021   -17971   -18006 
  -18023   -17956   -17922   -17992   -18033   -17963   -17907   -17929 
  -17969   -18004   -18021   -18026   -18023   -17967   -17880   -17853 
  -17892   -17949   -18009   -18038   -18058   -18111   -18110   -18019 
  -17960   -17960   -17950   -17906   -17855   -17872   -17946   -17969 
  -17965   -18044   -18141   -18131   -18061   -18018   -17976   -17957 
  -18018   -18052   -17956   -17845   -17840   -17888   -17925   -17940 
  -17965   -18038   -18110   -18088   -17976   -17886   -17919   -18021 
  -18065   -18067   -18057   -18006   -17957   -17975   -17979   -17932 
  -17933   -17991   -18007   -17983   -17959   -17952   -17982   -18025 
  -18014   -17953   -17965   -18034   -18023   -17987   -17965   -17923 
  -17977   -18087   -18069   -18011   -18009   -17961   -17899   -17899 
  -17879   -17834   -17867   -17938   -17984   -18026   -18041   -18022 
  -18042   -18094   -18067   -17987   -17956   -17976   -17996   -17967 
  -17940   -18010   -18088   -18056   -17965   -17896   -17875   -17894 
  -17929   -17933   -17925   -17973   -18030   -18009   -17976   -17998 
  -18026   -18040   -18046   -18014   -17983   -18015   -18040   -18003 
  -18002   -18050   -18052   -17996   -17944   -17910   -17895   -17898 
  -17907   -17957   -18044   -18077   -18058   -18026   -17963   -17942 
  -17992   -18019   -18030   -18049   -18010   -17929   -17902   -17967 
  -18036   -18000   -17932   -17923   -17903   -17891   -17933   -17932 
  -17901   -17965   -18042   -18010   -17964   -17986   -18000   -17987 
  -18007   -18053   -18076   -18069   -18061   -18073   -18107   -18100 
  -17998   -17860   -17810   -17860   -17909   -17910   -17928   -17982 
  -18010   -17984   -17961   -17968   -17984   -18015   -18033   -18009 
  -17994   -18021   -18071   -18104   -18068   -18010   -17987   -17926 
  -17851   -17890   -17975   -17950   -17895   -17930   -17967   -17959 
  -17971   -18011   -18058   -18044   -17994   -18023   -18065   -18004 
  -17914   -17891   -17909   -17914   -17902   -17921   -17983   -18015 
  -18022   -18079   -18112   -18057   -18007   -17961   -17890   -17887 
  -17949   -17995   -18014   -18002   -17991   -18011   -18025   -18021 
  -18011   -17998   -17983   -17961   -17994   -18077   -18098   -18033 
  -17976   -17969   -17984   -17987   -18000   -18048   -18056   -18007 
  -17982   -17942   -17868   -17861   -17902   -17923   -17964   -18015 
  -17990   -17895   -17841   -17883   -17953   -18007   -18052   -18073 
  -18057   -18021   -18010   -18046   -18077   -18054   -17996   -17923 
  -17883   -17925   -18004   -18037   -18000   -17948   -17925   -17910 
  -17895   -17917   -17979   -18023   -18015   -18018   -18053   -18068 
  -18048   -17995   -17964   -17995   -18010   -17990   -17982   -17967 
  -17959   -17976   -17995   -18025   -18040   -18007   -17968   -17942 
  -17930   -17953   -18010   -18018   -17948   -17892   -17910   -17972 
  -18013   -17973   -17929   -17965   -18019   -18027   -17996   -17959 
  -17980   -18068   -18118   -18073   -18013   -17988   -17950   -17898 
  -17899   -17942   -17961   -17968   -18002   -18006   -17972   -17998 
  -18075   -18092   -18054   -18025   -17995   -17933   -17895   -17937 
  -17982   -17965   -17937   -17902   -17867   -17907   -17994   -18019 
  -17968   -17913   -17917   -17955   -17965   -17956   -17949   -17957 
  -17996   -18046   -18069   -18068   -18034   -17992   -17995   -18025 
  -18033   -18015   -17968   -17930   -17949   -17967   -17929   -17898 
  -17926   -17967   -17972   -17977   -17987   -17967   -17956   -17988 
  -17994   -17956   -17944   -17982   -18025   -18022   -17999   -18000 
  -18021   -18044   -18049   -18030   -18017   -18026   -18053   -18065 
  -18060   -18056   -18041   -18038   -18045   -17992   -17923   -17919 
  -17937   -17941   -17956   -17956   -17952   -17999   -18029   -17999 
  -17988   -17983   -17940   -17945   -17999   -17999   -17942   -17883 
  -17852   -17872   -17914   -17941   -17976   -18015   -18007   -17972 
  -17973   -17969   -17938   -17923   -17914   -17905   -17929   -17979 
  -18034   -18077   -18088   -18090   -18108   -18126   -18130   -18121 
  -18067   -17973   -17921   -17913   -17890   -17883   -17934   -17998 
  -18023   -18017   -17990   -17928   -17886   -17937   -18009   -18029 
  -18044   -18053   -18015   -17957   -17906   -17859   -17861   -17928 
  -17988   -18007   -18026   -18046   -18063   -18095   -18096   -18041 
  -17982   -17942   -17921   -17917   -17925   -17961   -17990   -17980 
  -17980   -18003   -18023   -18046   -18054   -18017   -17965   -17949 
  -17950   -17936   -17926   -17938   -17963   -18002   -18009   -17956 
  -17905   -17894   -17929   -17983   -17987   -17945   -17946   -17983 
  -17986   -17979   -18002   -18003   -17986   -18002   -18033   -18040 
  -18025   -17996   -17973   -17967   -17948   -17917   -17910   -17942 
  -18009   -18068   -18094   -18119   -18129   -18088   -18045   -18031 
  -18010   -17979   -17956   -17934   -17929   -17942   -17957   -17968 
  -17964   -17959   -17964   -17959   -17956   -17986   -18011   -18010 
  -17991   -17934   -17882   -17917   -17988   -18006   -18011   -18036 
  -18022   -17986   -17987   -17984   -17946   -17930   -17944   -17948 
  -17946   -17953   -17982   -18030   -18049   -18042   -18068   -18098 
  -18063   -18007   -17968   -17906   -17853   -17860   -17880   -17898 
  -17921   -17918   -17929   -17990   -18027   -18011   -18000   -18009 
  -18017   -18031   -18037   -18013   -17995   -18009   -18010   -17995 
  -17987   -17969   -17938   -17928   -17933   -17936   -17946   -17963 
  -17955   -17955   -17986   -18011   -18004   -17984   -17983   -18007 
  -18018   -18002   -18025   -18080   -18085   -18049   -18031   -18009 
  -17965   -17945   -17948   -17950   -17977   -18036   -18068   -18045 
  -18006   -17995   -17996   -17984   -17967   -17946   -17923   -17919 
  -17930   -17950   -17980   -17996   -17995   -17996   -18007   -18026 
  -18053   -18064   -18048   -18025   -18004   -17996   -17999   -17999 
  -17996   -17961   -17895   -17867   -17902   -17948   -17961   -17953 
  -17950   -17961   -17983   -18018   -18044   -18048   -18031   -18003 
  -17980   -17967   -17960   -17982   -17984   -17945   -17903   -17855 
  -17815   -17829   -17878   -17905   -17899   -17884   -17887   -17932 
  -18003   -18042   -18041   -18045   -18050   -18027   -18013   -18038 
  -18061   -18053   -18023   -17990   -17979   -18009   -18045   -18046 
  -18058   -18108   -18127   -18115   -18127   -18130   -18087   -18033 
  -17990   -17965   -17959   -17955   -17964   -17975   -17955   -17937 
  -17932   -17898   -17860   -17871   -17899   -17906   -17902   -17910 
  -17929   -17942   -17969   -17994   -17988   -17972   -17950   -17944 
  -17977   -18009   -18007   -17999   -17998   -17998   -17979   -17955 
  -17969   -18000   -18000   -17983   -17965   -17955   -17965   -18007 
  -18048   -18057   -18049   -18045   -18052   -18061   -18046   -18025 
  -18026   -18037   -18023   -17991   -17980   -17995   -18011   -18022 
  -17999   -17956   -17944   -17942   -17919   -17915   -17929   -17928 
  -17919   -17905   -17892   -17891   -17888   -17918   -17982   -18023 
  -18038   -18041   -18023   -18002   -17976   -17941   -17928   -17940 
  -17957   -17980   -17980   -17950   -17948   -17972   -17967   -17937 
  -17928   -17952   -17992   -18021   -18027   -18027   -18030   -18029 
  -18007   -17979   -17977   -18006   -18038   -18057   -18069   -18077 
