Origin Time       2024/06/23 22:54:00
Lat.              35.645
Long.             140.060
Depth. (km)       72
Mag.              4.1
Station Code      CHBH19
Station Lat.      35.5943
Station Long.     140.5107
Station Height(m) 1
Record Time       2024/06/23 22:54:36
Sampling Freq(Hz) 100Hz
Duration Time(s)  120
Dir.              4
Scale Factor      7845(gal)/8223790
Max. Acc. (gal)   2.493
Last Correction   2024/06/23 22:54:36
Memo.             
[...]
   -7839    -7830    -7825    -7834    -7846    -7850    -7848    -7844 
   -7842    -7834    -7824    -7830    -7838    -7836    -7835    -7835 
   -7831    -7834    -7836    -7834    -7834    -7831    -7823    -7824 
   -7834    -7839    -7843    -7846    -7840    -7832    -7831    -7835 
   -7839    -7842    -7843    -7839    -7835    -7836    -7840    -7836 
   -7831    -7835    -7834    -7827    -7835    -7836    -7832    -7836 
   -7838    -7830    -7827    -7834    -7835    -7831    -7834    -7838 
   -7835    -7834    -7840    -7842    -7836    -7835    -7835    -7834 
   -7835    -7832    -7823    -7815    -7815    -7823    -7838    -7848 
   -7846    -7842    -7846    -7846    -7839    -7838    -7838    -7838 
   -7834    -7828    -7831    -7839    -7842    -7839    -7834    -7830 
   -7836    -7848    -7852    -7848    -7843    -7840    -7839    -7836 
   -7842    -7848    -7844    -7836    -7840    -7850    -7854    -7852 
   -7847    -7840    -7835    -7834    -7838    -7839    -7834    -7828 
   -7831    -7832    -7824    -7828    -7836    -7838    -7836    -7836 
   -7838    -7834    -7825    -7824    -7828    -7834    -7840    -7840 
   -7835    -7834    -7834    -7834    -7834    -7838    -7840    -7836 
   -7831    -7835    -7838    -7838    -7839    -7838    -7836    -7836 
   -7832    -7831    -7834    -7832    -7828    -7825    -7830    -7834 
   -7830    -7828    -7832    -7838    -7840    -7836    -7832    -7838 
   -7838    -7835    -7836    -7835    -7836    -7840    -7834    -7827 
   -7824    -7831    -7842    -7842    -7839    -7836    -7834    -7835 
   -7839    -7838    -7835    -7830    -7832    -7843    -7848    -7847 
   -7847    -7847    -7843    -7838    -7834    -7835    -7844    -7848 
   -7843    -7838    -7834    -7835    -7840    -7844    -7842    -7835 
   -7835    -7835    -7827    -7825    -7834    -7834    -7825    -7815 
   -7819    -7844    -7865    -7859    -7838    -7816    -7794    -7786 
   -7805    -7832    -7847    -7859    -7865    -7857    -7848    -7847 
   -7839    -7823    -7805    -7794    -7801    -7834    -7878    -7919 
   -7929    -7890    -7820    -7757    -7731    -7771    -7851    -7902 
   -7908    -7889    -7854    -7815    -7777    -7739    -7739    -7793 
   -7857    -7905    -7954    -7975    -7943    -7867    -7784    -7724 
   -7712    -7753    -7817    -7855    -7854    -7847    -7831    -7798 
   -7777    -7780    -7803    -7846    -7911    -7986    -8041    -8013 
   -7877    -7703    -7607    -7627    -7703    -7771    -7834    -7885 
   -7927    -7969    -7983    -7947    -7897    -7865    -7830    -7786 
   -7746    -7726    -7742    -7773    -7790    -7811    -7858    -7905 
   -7915    -7889    -7858    -7848    -7877    -7894    -7866    -7844 
   -7871    -7909    -7888    -7784    -7650    -7577    -7593    -7661 
   -7766    -7919    -8086    -8186    -8171    -8050    -7874    -7742 
   -7705    -7724    -7747    -7762    -7747    -7715    -7699    -7707 
   -7758    -7827    -7879    -7952    -8048    -8109    -8094    -7998 
   -7873    -7759    -7663    -7615    -7661    -7761    -7834    -7858 
   -7857    -7835    -7805    -7782    -7763    -7762    -7821    -7927 
   -7979    -7960    -7924    -7873    -7816    -7794    -7801    -7836 
   -7893    -7878    -7746    -7612    -7619    -7747    -7866    -7925 
   -7966    -7994    -7974    -7902    -7790    -7666    -7619    -7678 
   -7753    -7821    -7913    -7990    -8017    -7993    -7932    -7846 
   -7770    -7743    -7732    -7703    -7727    -7834    -7944    -8005 
   -7982    -7877    -7796    -7789    -7800    -7803    -7830    -7908 
   -7996    -8027    -7994    -7947    -7927    -7890    -7753    -7565 
   -7499    -7607    -7780    -7921    -7960    -7885    -7773    -7655 
   -7593    -7701    -7947    -8176    -8243    -8089    -7836    -7642 
   -7519    -7474    -7569    -7788    -8029    -8128    -8017    -7846 
   -7744    -7724    -7797    -7898    -7929    -7863    -7734    -7654 
   -7707    -7836    -7948    -7970    -7890    -7811    -7834    -7919 
   -7947    -7897    -7828    -7743    -7638    -7615    -7751    -7940 
   -8033    -8031    -7974    -7851    -7719    -7696    -7788    -7882 
   -7928    -7942    -7959    -8004    -7956    -7744    -7526    -7406 
   -7384    -7533    -7838    -8139    -8276    -8226    -8100    -7947 
   -7758    -7657    -7727    -7854    -7929    -7919    -7851    -7785 
   -7686    -7558    -7510    -7574    -7705    -7858    -7985    -8054 
   -8056    -7996    -7936    -7919    -7851    -7715    -7619    -7636 
   -7807    -8047    -8133    -8006    -7800    -7645    -7597    -7642 
   -7727    -7817    -7871    -7877    -7867    -7863    -7874    -7943 
   -8064    -8116    -8013    -7842    -7762    -7797    -7857    -7879 
   -7838    -7750    -7685    -7657    -7649    -7724    -7877    -7938 
   -7839    -7765    -7850    -7993    -8066    -8048    -7985    -7890 
   -7753    -7599    -7520    -7612    -7847    -8043    -8097    -8087 
   -8021    -7873    -7739    -7697    -7688    -7653    -7641    -7732 
   -7862    -7875    -7781    -7722    -7736    -7785    -7852    -7875 
   -7809    -7777    -7855    -7917    -7902    -7889    -7886    -7874 
   -7863    -7809    -7689    -7609    -7650    -7763    -7894    -8006 
   -8043    -7986    -7867    -7778    -7813    -7920    -7975    -7955 
   -7894    -7854    -7836    -7773    -7701    -7722    -7797    -7807 
   -7769    -7784    -7859    -7960    -8024    -7992    -7894    -7805 
   -7801    -7893    -8032    -8147    -8154    -8048    -7877    -7666 
   -7500    -7456    -7527    -7654    -7747    -7777    -7803    -7873 
   -7948    -7979    -8024    -8143    -8259    -8259    -8085    -7747 
   -7376    -7157    -7206    -7473    -7759    -7942    -8062    -8129 
   -8077    -7951    -7852    -7798    -7803    -7877    -7979    -8079 
   -8117    -8019    -7820    -7628    -7489    -7412    -7383    -7388 
   -7456    -7603    -7812    -8024    -8182    -8295    -8336    -8224 
   -8058    -7975    -7902    -7770    -7678    -7696    -7794    -7877 
   -7854    -7780    -7713    -7623    -7508    -7419    -7435    -7624 
   -7885    -8020    -7992    -7877    -7744    -7676    -7754    -7958 
   -8160    -8276    -8313    -8249    -8023    -7672    -7379    -7321 
   -7518    -7801    -7974    -7966    -7840    -7727    -7709    -7709 
   -7657    -7659    -7821    -8074    -8275    -8340    -8309    -8268 
   -8189    -7987    -7792    -7759    -7761    -7663    -7596    -7651 
   -7761    -7869    -7917    -7863    -7767    -7666    -7534    -7457 
   -7553    -7740    -7869    -7923    -7931    -7913    -7947    -8043 
   -8116    -8079    -7919    -7739    -7669    -7681    -7692    -7674 
   -7632    -7632    -7732    -7851    -7906    -7931    -7973    -8020 
   -8013    -7936    -7821    -7689    -7595    -7623    -7774    -7973 
   -8095    -8058    -7950    -7900    -7890    -7848    -7780    -7732 
   -7681    -7615    -7650    -7834    -8032    -8108    -8058    -7970 
   -7927    -7935    -7908    -7801    -7680    -7609    -7597    -7616 
   -7642    -7680    -7726    -7773    -7828    -7857    -7817    -7735 
   -7672    -7704    -7854    -8074    -8257    -8278    -8102    -7867 
   -7735    -7717    -7773    -7911    -8079    -8137    -8028    -7890 
   -7825    -7739    -7619    -7561    -7545    -7547    -7654    -7863 
   -8002    -7974    -7912    -7919    -7942    -7951    -7900    -7793 
   -7801    -7955    -8029    -7932    -7823    -7805    -7821    -7831 
   -7857    -7877    -7850    -7771    -7666    -7561    -7504    -7553 
   -7707    -7867    -7935    -7929    -7965    -8044    -8068    -7973 
   -7805    -7645    -7491    -7350    -7349    -7537    -7773    -7942 
   -8044    -8075    -8032    -7948    -7808    -7623    -7565    -7762 
   -8073    -8274    -8330    -8317    -8249    -8104    -7897    -7690 
   -7528    -7422    -7376    -7408    -7495    -7580    -7689    -7874 
   -8145    -8451    -8652    -8634    -8406    -8051    -7678    -7376 
   -7210    -7186    -7295    -7551    -7858    -8017    -7943    -7736 
   -7570    -7531    -7603    -7740    -7919    -8114    -8262    -8290 
   -8257    -8270    -8272    -8121    -7847    -7614    -7511    -7523 
   -7574    -7649    -7776    -7889    -7924    -7888    -7817    -7788 
   -7797    -7762    -7678    -7605    -7543    -7547    -7703    -7939 
   -8152    -8326    -8376    -8236    -8025    -7848    -7653    -7462 
   -7464    -7672    -7878    -7960    -7947    -7866    -7763    -7753 
   -7847    -7931    -7978    -8012    -7962    -7821    -7703    -7676 
   -7703    -7716    -7703    -7716    -7778    -7803    -7713    -7555 
   -7464    -7528    -7708    -7920    -8110    -8185    -8113    -8014 
   -7947    -7865    -7776    -7736    -7744    -7792    -7896    -8047 
   -8203    -8314    -8305    -8121    -7819    -7495    -7261    -7256 
   -7483    -7759    -7931    -7981    -7943    -7836    -7703    -7614 
   -7636    -7765    -7909    -7986    -7985    -7935    -7861    -7781 
   -7753    -7838    -7978    -8048    -8024    -7932    -7771    -7615 
   -7585    -7673    -7796    -7906    -7979    -7971    -7852    -7692 
   -7608    -7661    -7786    -7838    -7747    -7603    -7541    -7665 
   -8000    -8424    -8692    -8657    -8401    -8077    -7749    -7491 
   -7368    -7373    -7496    -7670    -7784    -7825    -7854    -7852 
   -7788    -7751    -7838    -7966    -7998    -7936    -7874    -7836 
   -7781    -7755    -7816    -7897    -7912    -7857    -7758    -7635 
   -7527    -7487    -7542    -7701    -7881    -7965    -7979    -8008 
   -8046    -8044    -8008    -8008    -8039    -7990    -7843    -7712 
   -7684    -7720    -7762    -7784    -7751    -7677    -7645    -7704 
   -7809    -7927    -8058    -8135    -8097    -8006    -7954    -7943 
   -7906    -7832    -7788    -7753    -7647    -7522    -7501    -7591 
   -7682    -7701    -7653    -7592    -7588    -7678    -7857    -8063 
   -8212    -8233    -8117    -7955    -7866    -7873    -7951    -8100 
   -8216    -8139    -7909    -7685    -7541    -7539    -7707    -7905 
   -7966    -7844    -7622    -7461    -7435    -7485    -7584    -7758 
   -7950    -8062    -8081    -8040    -7978    -7998    -8140    -8286 
   -8337    -8264    -8064    -7820    -7647    -7589    -7634    -7749 
   -7867    -7875    -7716    -7468    -7273    -7237    -7373    -7600 
   -7815    -7974    -8064    -8051    -7986    -8017    -8172    -8337 
   -8367    -8186    -7847    -7491    -7281    -7349    -7646    -7948 
   -8087    -8050    -7921    -7786    -7685    -7672    -7790    -8010 
   -8232    -8314    -8156    -7821    -7511    -7365    -7403    -7533 
   -7609    -7591    -7562    -7615    -7763    -7944    -8108    -8264 
   -8397    -8401    -8208    -7928    -7750    -7735    -7816    -7906 
   -7935    -7832    -7591    -7317    -7106    -6971    -6936    -7017 
   -7184    -7427    -7751    -8120    -8446    -8669    -8765    -8752 
   -8719    -8748    -8811    -8851    -8834    -8733    -8579    -8468 
   -8407    -8289    -8017    -7564    -6976    -6423    -6106    -6097 
   -6293    -6563    -6851    -7121    -7425    -7875    -8438    -8968 
   -9385    -9606    -9512    -9084    -8442    -7788    -7318    -7041 
   -6781    -6416    -6016    -5752    -5763    -6085    -6629    -7217 
   -7730    -8178    -8549    -8806    -8991    -9147    -9281    -9389 
   -9409    -9283    -9036    -8696    -8294    -7893    -7501    -7095 
   -6718    -6411    -6184    -6111    -6269    -6647    -7130    -7570 
   -7906    -8156    -8343    -8482    -8603    -8727    -8797    -8715 
   -8465    -8152    -7927    -7863    -7943    -8017    -7909    -7686 
   -7560    -7585    -7701    -7832    -7904    -7902    -7862    -7852 
   -7965    -8182    -8365    -8397    -8245    -7942    -7581    -7288 
   -7102    -6998    -6929    -6828    -6666    -6534    -6551    -6786 
   -7250    -7861    -8482    -9047    -9532    -9838    -9904    -9806 
   -9583    -9217    -8749    -8210    -7596    -6940    -6330    -5923 
   -5863    -6110    -6505    -6937    -7375    -7846    -8392    -8942 
   -9346    -9543    -9580    -9498    -9310    -8997    -8571    -8129 
   -7749    -7384    -6955    -6467    -6046    -5819    -5887    -6299 
   -6902    -7445    -7828    -8085    -8289    -8521    -8779    -8968 
   -9004    -8911    -8745    -8499    -8208    -7939    -7690    -7438 
   -7172    -6883    -6625    -6500    -6579    -6840    -7194    -7584 
   -7989    -8382    -8707    -8897    -8905    -8739    -8456    -8162 
   -7916    -7693    -7506    -7377    -7237    -7015    -6718    -6403 
   -6180    -6151    -6358    -6794    -7375    -7939    -8451    -8962 
   -9467    -9910   -10174   -10021    -9305    -8248    -7302    -6781 
   -6682    -6828    -7076    -7339    -7514    -7534    -7406    -7246 
   -7288    -7659    -8256    -8872    -9371    -9732    -9963   -10072 
  -10099   -10006    -9666    -9023    -8164    -7275    -6543    -6112 
   -6072    -6350    -6706    -6972    -7203    -7458    -7655    -7720 
   -7688    -7642    -7674    -7807    -7966    -7998    -7743    -7211 
   -6569    -5995    -5653    -5664    -6042    -6712    -7551    -8425 
   -9169    -9676    -9929    -9922    -9682    -9266    -8706    -8075 
   -7474    -6928    -6470    -6226    -6268    -6516    -6863    -7223 
   -7511    -7701    -7830    -7921    -7974    -7994    -8048    -8199 
   -8473    -8900    -9458   -10006   -10373   -10449   -10222    -9747 
   -9080    -8318    -7616    -7117    -6843    -6637    -6331    -5956 
   -5659    -5467    -5348    -5377    -5649    -6123    -6739    -7507 
   -8384    -9202    -9813   -10141   -10170    -9961    -9586    -9100 
   -8587    -8132    -7766    -7470    -7207    -6961    -6791    -6781 
   -6932    -7192    -7528    -7951    -8437    -8843    -9019    -8985 
   -8830    -8514    -7967    -7213    -6385    -5709    -5346    -5375 
   -5846    -6648    -7524    -8299    -8878    -9142    -9066    -8847 
   -8711    -8699    -8741    -8816    -8918    -8972    -8946    -8895 
   -8839    -8688    -8274    -7551    -6720    -6045    -5663    -5539 
   -5556    -5709    -6111    -6782    -7614    -8507    -9289    -9703 
   -9653    -9300    -8915    -8703    -8695    -8792    -8912    -8941 
   -8731    -8278    -7754    -7357    -7123    -6925    -6619    -6191 
   -5800    -5660    -5838    -6258    -6840    -7528    -8243    -8885 
   -9374    -9680    -9776    -9653    -9378    -9031    -8625    -8127 
   -7464    -6608    -5767    -5289    -5316    -5730    -6399    -7225 
   -8063    -8708    -9039    -9150    -9228    -9355    -9466    -9378 
   -8986    -8397    -7816    -7407    -7144    -6912    -6724    -6625 
   -6585    -6652    -6947    -7447    -8012    -8513    -8899    -9200 
   -9437    -9535    -9402    -9040    -8529    -7955    -7362    -6806 
   -6399    -6237    -6339    -6670    -7206    -7888    -8521    -8869 
   -8842    -8590    -8378    -8311    -8271    -8071    -7666    -7207 
   -6859    -6633    -6488    -6459    -6581    -6810    -7071    -7306 
   -7531    -7819    -8140    -8401    -8608    -8857    -9175    -9474 
   -9601    -9431    -8988    -8428    -7879    -7466    -7325    -7438 
   -7638    -7738    -7619    -7277    -6829    -6493    -6531    -7015 
   -7734    -8391    -8818    -9019    -9089    -9069    -8926    -8615 
   -8143    -7576    -6987    -6421    -5930    -5587    -5493    -5734 
   -6318    -7144    -8062    -8920    -9601    -9984    -9984    -9686 
   -9310    -9004    -8787    -8591    -8321    -7890    -7240    -6439 
   -5746    -5433    -5572    -6035    -6631    -7241    -7854    -8475 
   -9062    -9544    -9872   -10003    -9850    -9375    -8685    -7933 
   -7198    -6558    -6189    -6242    -6656    -7173    -7569    -7798 
   -7889    -7861    -7780    -7701    -7646    -7711    -7948    -8256 
   -8511    -8629    -8592    -8488    -8391    -8284    -8139    -7955 
   -7736    -7500    -7302    -7241    -7400    -7744    -8118    -8375 
   -8419    -8244    -7919    -7530    -7168    -6971    -7010    -7199 
   -7439    -7705    -7924    -8017    -7993    -7875    -7677    -7458 
   -7308    -7260    -7279    -7323    -7407    -7605    -7963    -8436 
   -8910    -9219    -9258    -9057    -8692    -8251    -7863    -7645 
   -7580    -7469    -7126    -6651    -6299    -6231    -6502    -7020 
   -7531    -7866    -8060    -8216    -8353    -8441    -8490    -8532 
   -8571    -8641    -8770    -8849    -8762    -8542    -8248    -7900 
   -7549    -7267    -7115    -7102    -7148    -7192    -7257    -7376 
   -7565    -7800    -7998    -8087    -8029    -7813    -7531    -7373 
   -7446    -7703    -8000    -8179    -8205    -8197    -8256    -8386 
   -8527    -8625    -8635    -8518    -8266    -7923    -7560    -7291 
   -7253    -7452    -7713    -7875    -7916    -7882    -7844    -7875 
   -7931    -7925    -7854    -7757    -7686    -7666    -7630    -7523 
   -7354    -7177    -7080    -7092    -7211    -7460    -7808    -8189 
   -8602    -9008    -9274    -9324    -9177    -8868    -8465    -8055 
   -7680    -7329    -6963    -6601    -6334    -6242    -6340    -6575 
   -6880    -7171    -7383    -7530    -7663    -7824    -8001    -8143 
   -8176    -8068    -7888    -7766    -7797    -7998    -8317    -8603 
   -8734    -8708    -8568    -8378    -8233    -8228    -8347    -8463 
   -8480    -8392    -8187    -7862    -7501    -7234    -7096    -7038 
   -7021    -7030    -7028    -7025    -7129    -7412    -7825    -8245 
   -8557    -8684    -8617    -8426    -8217    -8043    -7912    -7842 
   -7857    -7905    -7900    -7859    -7858    -7919    -8027    -8156 
   -8259    -8275    -8152    -7915    -7668    -7501    -7458    -7495 
   -7523    -7507    -7449    -7358    -7258    -7179    -7182    -7272 
   -7344    -7376    -7520    -7867    -8297    -8640    -8849    -8954 
   -9012    -9080    -9130    -9063    -8791    -8282    -7611    -6953 
   -6494    -6349    -6489    -6794    -7146    -7403    -7425    -7257 
   -7125    -7204    -7480    -7796    -8002    -8060    -8044    -8051 
   -8113    -8167    -8125    -7966    -7738    -7561    -7564    -7734 
   -7956    -8090    -8041    -7851    -7661    -7654    -7929    -8368 
   -8748    -8943    -8901    -8645    -8297    -7993    -7803    -7728 
   -7711    -7705    -7751    -7885    -8058    -8158    -8073    -7786 
   -7414    -7105    -6994    -7125    -7442    -7844    -8214    -8456 
   -8532    -8407    -8091    -7661    -7213    -6871    -6732    -6805 
   -7018    -7272    -7465    -7520    -7472    -7476    -7641    -7929 
   -8252    -8545    -8708    -8630    -8371    -8156    -8116    -8217 
   -8384    -8532    -8583    -8532    -8375    -8077    -7670    -7298 
   -7099    -7109    -7267    -7493    -7735    -7927    -7998    -7958 
   -7861    -7759    -7688    -7655    -7631    -7591    -7528    -7479 
   -7516    -7690    -7936    -8117    -8151    -8075    -7970    -7871 
   -7793    -7744    -7723    -7692    -7603    -7504    -7489    -7573 
   -7701    -7804    -7874    -7927    -7948    -7970    -8005    -8037 
   -8105    -8228    -8317    -8263    -8094    -7958    -7931    -7955 
   -7928    -7808    -7595    -7315    -7042    -6901    -6968    -7233 
