Origin Time       2024/06/23 22:54:00
Lat.              35.645
Long.             140.060
Depth. (km)       72
Mag.              4.1
Station Code      CHBH06
Station Lat.      35.7215
Station Long.     140.5046
Station Height(m) -145
Record Time       2024/06/23 22:54:37
Sampling Freq(Hz) 100Hz
Duration Time(s)  120
Dir.              2
Scale Factor      3923(gal)/8224838
Max. Acc. (gal)   0.768
Last Correction   2024/06/23 22:54:37
Memo.             
[...]
   -6934    -6936    -6934    -6933    -6937    -6936    -6932    -6932 
   -6932    -6930    -6929    -6926    -6922    -6921    -6922    -6921 
   -6925    -6930    -6932    -6936    -6943    -6945    -6948    -6941 
   -6924    -6913    -6907    -6903    -6898    -6905    -6920    -6913 
   -6894    -6909    -6944    -6964    -6983    -7001    -6986    -6959 
   -6974    -7006    -7014    -7006    -6982    -6922    -6875    -6893 
   -6925    -6924    -6932    -6953    -6928    -6872    -6867    -6890 
   -6899    -6934    -6988    -6995    -6970    -6955    -6920    -6859 
   -6856    -6891    -6866    -6836    -6876    -6886    -6831    -6843 
   -6944    -7011    -7042    -7094    -7074    -6947    -6868    -6917 
   -6991    -7030    -7053    -6999    -6845    -6714    -6691    -6750 
   -6847    -6926    -6928    -6868    -6844    -6887    -6980    -7130 
   -7272    -7261    -7099    -6951    -6885    -6841    -6825    -6853 
   -6866    -6844    -6841    -6825    -6729    -6660    -6760    -6966 
   -7133    -7230    -7237    -7103    -6907    -6806    -6831    -6894 
   -6933    -6917    -6822    -6693    -6639    -6721    -6890    -7065 
   -7165    -7140    -7048    -7026    -7101    -7180    -7236    -7260 
   -7176    -7001    -6856    -6770    -6702    -6702    -6793    -6848 
   -6805    -6772    -6832    -6901    -6928    -6987    -7096    -7204 
   -7275    -7194    -6894    -6608    -6594    -6762    -6909    -7013 
   -7059    -6994    -6952    -7045    -7110    -7017    -6890    -6837 
   -6831    -6889    -7038    -7153    -7132    -7041    -6944    -6851 
   -6816    -6837    -6836    -6839    -6903    -6930    -6832    -6718 
   -6689    -6723    -6817    -7002    -7171    -7157    -6974    -6802 
   -6783    -6913    -7083    -7226    -7344    -7361    -7172    -6845 
   -6601    -6581    -6724    -6864    -6889    -6797    -6686    -6685 
   -6812    -6933    -6963    -6970    -7014    -7047    -7047    -7055 
   -7018    -6848    -6678    -6740    -6990    -7177    -7195    -7121 
   -7025    -6943    -6961    -7117    -7285    -7319    -7163    -6868 
   -6598    -6490    -6488    -6488    -6542    -6724    -6987    -7219 
   -7339    -7338    -7242    -7122    -7065    -7084    -7107    -7096 
   -7060    -6963    -6797    -6660    -6636    -6737    -6913    -7052 
   -7109    -7125    -7111    -7072    -7053    -7040    -6959    -6853 
   -6851    -6939    -6991    -6964    -6903    -6828    -6770    -6762 
   -6772    -6804    -6916    -7075    -7138    -7025    -6772    -6509 
   -6473    -6787    -7213    -7391    -7327    -7269    -7238    -7114 
   -6961    -6874    -6797    -6710    -6671    -6673    -6687    -6778 
   -6945    -7037    -6991    -6937    -6939    -6932    -6880    -6832 
   -6852    -6945    -7002    -6952    -6885    -6882    -6867    -6779 
   -6735    -6828    -6971    -7076    -7163    -7218    -7179    -7087 
   -7028    -6976    -6891    -6856    -6897    -6864    -6690    -6563 
   -6637    -6790    -6886    -6976    -7095    -7187    -7261    -7346 
   -7388    -7325    -7190    -7071    -6975    -6826    -6679    -6677 
   -6781    -6852    -6847    -6779    -6694    -6673    -6764    -6939 
   -7094    -7122    -6988    -6818    -6826    -7017    -7186    -7234 
   -7191    -7056    -6918    -6899    -6947    -6939    -6893    -6810 
   -6662    -6579    -6675    -6770    -6685    -6592    -6697    -6943 
   -7191    -7364    -7392    -7315    -7263    -7219    -7059    -6839 
   -6710    -6627    -6504    -6434    -6504    -6671    -6848    -6948 
   -6960    -7029    -7241    -7388    -7294    -7138    -7118    -7113 
   -6933    -6655    -6490    -6502    -6582    -6646    -6687    -6741 
   -6899    -7156    -7315    -7288    -7246    -7304    -7315    -7150 
   -6945    -6835    -6766    -6739    -6845    -7029    -7138    -7098 
   -6882    -6583    -6458    -6648    -6999    -7233    -7214    -7074 
   -7071    -7213    -7199    -6917    -6693    -6767    -6913    -6879 
   -6795    -6810    -6844    -6853    -6847    -6772    -6717    -6841 
   -7044    -7103    -7038    -6974    -6882    -6781    -6832    -7040 
   -7199    -7204    -7103    -6944    -6779    -6659    -6621    -6663 
   -6741    -6860    -7018    -7059    -6910    -6787    -6878    -7069 
   -7221    -7307    -7241    -7005    -6848    -6921    -7018    -6966 
   -6905    -6945    -6890    -6632    -6419    -6481    -6687    -6802 
   -6856    -7037    -7280    -7348    -7233    -7090    -6948    -6806 
   -6754    -6781    -6775    -6781    -6902    -7059    -7141    -7160 
   -7103    -6986    -6951    -7005    -6979    -6922    -7015    -7134 
   -7076    -6964    -6928    -6878    -6832    -6910    -7010    -6941 
   -6790    -6697    -6578    -6421    -6453    -6754    -7092    -7230 
   -7188    -7095    -7018    -7022    -7140    -7244    -7182    -7024 
   -6975    -7038    -7045    -6976    -6947    -6929    -6837    -6704 
   -6633    -6700    -6872    -6990    -6999    -7010    -7029    -6964 
   -6872    -6903    -6997    -6924    -6716    -6644    -6700    -6660 
   -6632    -6843    -7125    -7209    -7153    -7082    -6978    -6944 
   -7119    -7331    -7393    -7420    -7418    -7168    -6775    -6586 
   -6598    -6602    -6610    -6689    -6710    -6640    -6683    -6894 
   -7049    -7048    -6983    -6916    -6929    -7086    -7222    -7161 
   -7001    -6871    -6763    -6732    -6879    -7091    -7179    -7134 
   -7074    -7069    -7055    -6883    -6615    -6524    -6702    -6937 
   -7041    -6999    -6855    -6743    -6829    -7015    -7105    -7126 
   -7103    -6905    -6601    -6459    -6577    -6856    -7146    -7306 
   -7346    -7348    -7261    -7056    -6921    -6943    -6899    -6729 
   -6736    -7018    -7231    -7137    -6889    -6687    -6582    -6597 
   -6714    -6844    -6929    -6978    -7024    -7118    -7230    -7222 
   -7065    -6936    -6910    -6845    -6720    -6681    -6735    -6756 
   -6774    -6917    -7184    -7445    -7578    -7495    -7219    -6943 
   -6851    -6917    -6972    -6971    -7009    -7049    -6941    -6708 
   -6496    -6357    -6311    -6412    -6608    -6778    -6930    -7118 
   -7268    -7322    -7388    -7473    -7398    -7142    -6894    -6732 
   -6612    -6555    -6594    -6700    -6880    -7099    -7184    -7113 
   -7020    -6901    -6712    -6606    -6725    -6947    -7096    -7213 
   -7344    -7361    -7183    -6928    -6752    -6741    -6875    -6999 
   -7006    -6959    -6897    -6806    -6767    -6833    -6895    -6932 
   -7047    -7175    -7176    -7106    -7040    -6928    -6766    -6652 
   -6631    -6678    -6793    -6963    -7094    -7115    -7101    -7128 
   -7141    -7060    -6922    -6828    -6809    -6856    -6922    -6914 
   -6835    -6828    -6926    -6978    -6948    -6957    -7001    -6990 
   -6971    -7036    -7107    -7045    -6914    -6856    -6832    -6759 
   -6704    -6685    -6628    -6677    -6994    -7280    -7188    -6963 
   -6943    -6995    -6955    -6949    -6998    -6960    -6901    -6947 
   -6986    -6909    -6822    -6809    -6826    -6901    -7059    -7169 
   -7118    -6980    -6893    -6905    -6957    -6971    -6922    -6837 
   -6763    -6714    -6702    -6781    -6929    -6995    -6936    -6893 
   -6934    -6961    -6925    -6903    -6918    -6920    -6941    -7060 
   -7194    -7142    -6917    -6745    -6717    -6748    -6849    -7057 
   -7237    -7290    -7279    -7192    -6993    -6840    -6795    -6685 
   -6548    -6609    -6768    -6805    -6832    -6993    -7134    -7126 
   -7072    -7080    -7157    -7245    -7211    -7011    -6832    -6812 
   -6817    -6708    -6571    -6547    -6627    -6743    -6912    -7126 
   -7244    -7187    -7101    -7090    -7065    -6975    -6929    -6980 
   -7030    -7021    -7013    -7048    -7092    -7082    -6960    -6793 
   -6706    -6679    -6654    -6696    -6786    -6816    -6849    -6991 
   -7119    -7102    -7060    -7088    -7072    -6959    -6851    -6741 
   -6592    -6534    -6658    -6829    -6913    -6893    -6849    -6921 
   -7103    -7233    -7288    -7381    -7429    -7264    -6968    -6754 
   -6643    -6535    -6405    -6313    -6367    -6647    -7063    -7372 
   -7439    -7361    -7319    -7344    -7295    -7130    -6978    -6903 
   -6832    -6714    -6586    -6534    -6601    -6686    -6683    -6677 
   -6733    -6770    -6801    -6936    -7063    -6990    -6837    -6848 
   -7028    -7233    -7358    -7323    -7134    -6949    -6879    -6848 
   -6820    -6901    -7064    -7179    -7306    -7510    -7564    -7325 
   -7045    -6944    -6893    -6808    -6841    -6940    -6839    -6648 
   -6651    -6744    -6748    -6790    -6922    -6951    -6863    -6870 
   -6967    -7009    -7028    -7068    -6999    -6851    -6856    -6983 
   -6993    -6929    -6943    -6891    -6709    -6616    -6652    -6633 
   -6627    -6797    -6995    -7071    -7133    -7210    -7209    -7225 
   -7294    -7171    -6826    -6606    -6596    -6539    -6448    -6527 
   -6636    -6565    -6478    -6571    -6728    -6853    -7010    -7095 
   -6966    -6786    -6802    -6947    -7006    -6986    -7024    -7141 
   -7261    -7337    -7375    -7391    -7348    -7254    -7253    -7384 
   -7429    -7236    -6967    -6839    -6804    -6694    -6498    -6300 
   -6178    -6238    -6485    -6743    -6885    -7005    -7182    -7290 
   -7269    -7292    -7429    -7547    -7618    -7655    -7570    -7346 
   -7144    -7032    -6933    -6883    -6971    -7034    -6897    -6678 
   -6511    -6346    -6254    -6385    -6621    -6737    -6791    -6945 
   -7121    -7176    -7183    -7190    -7072    -6851    -6702    -6629 
   -6559    -6583    -6681    -6697    -6737    -6982    -7204    -7083 
   -6764    -6540    -6413    -6369    -6461    -6558    -6588    -6744 
   -7053    -7257    -7334    -7491    -7599    -7416    -7160    -7168 
   -7331    -7373    -7287    -7177    -7030    -6833    -6652    -6513 
   -6424    -6481    -6677    -6825    -6872    -7001    -7280    -7523 
   -7576    -7487    -7345    -7179    -7025    -6910    -6835    -6799 
   -6767    -6717    -6698    -6701    -6679    -6673    -6725    -6770 
   -6777    -6828    -6937    -7038    -7160    -7318    -7403    -7381 
   -7381    -7446    -7496    -7537    -7565    -7462    -7203    -6932 
   -6713    -6490    -6268    -6157    -6205    -6340    -6477    -6550 
   -6516    -6457    -6484    -6548    -6531    -6492    -6612    -6868 
   -7013    -6929    -6813    -6928    -7231    -7423    -7372    -7217 
   -7040    -6855    -6816    -7010    -7217    -7231    -7171    -7194 
   -7219    -7160    -7111    -7119    -7115    -7182    -7443    -7701 
   -7676    -7465    -7296    -7121    -6844    -6601    -6497    -6438 
   -6378    -6362    -6327    -6193    -6031    -5952    -6010    -6296 
   -6836    -7404    -7769    -7994    -8174    -8163    -7913    -7643 
   -7408    -7029    -6574    -6313    -6261    -6270    -6359    -6554 
   -6702    -6741    -6772    -6782    -6720    -6741    -6906    -7005 
   -6952    -6879    -6848    -6907    -7132    -7362    -7317    -7011 
   -6706    -6546    -6586    -6831    -7074    -7052    -6855    -6783 
   -6855    -6814    -6588    -6363    -6334    -6543    -6910    -7267 
   -7491    -7584    -7555    -7391    -7183    -7055    -6980    -6909 
   -6953    -7204    -7499    -7612    -7537    -7380    -7221    -7128 
   -7169    -7285    -7269    -7003    -6600    -6223    -5921    -5709 
   -5633    -5688    -5868    -6220    -6720    -7192    -7473    -7543 
   -7506    -7461    -7404    -7294    -7164    -7067    -6982    -6901 
   -6910    -7045    -7182    -7199    -7098    -6983    -6974    -7090 
   -7258    -7398    -7418    -7248    -6925    -6604    -6411    -6357 
   -6405    -6469    -6426    -6326    -6392    -6650    -6859    -6893 
   -6853    -6808    -6774    -6882    -7145    -7329    -7292    -7159 
   -7021    -6878    -6822    -6932    -7055    -7038    -6978    -7013 
   -7153    -7326    -7439    -7452    -7420    -7391    -7333    -7249 
   -7188    -7167    -7142    -7107    -7087    -7075    -7032    -6934 
   -6764    -6470    -6062    -5725    -5660    -5819    -6006    -6196 
   -6494    -6855    -7150    -7362    -7496    -7473    -7284    -7068 
   -6952    -6932    -6928    -6910    -6902    -6899    -6882    -6847 
   -6797    -6806    -6995    -7311    -7554    -7619    -7537    -7391 
   -7272    -7217    -7169    -7060    -6880    -6660    -6465    -6401 
   -6515    -6683    -6743    -6669    -6542    -6471    -6565    -6841 
   -7132    -7203    -7056    -6894    -6839    -6882    -7009    -7138 
   -7101    -6891    -6728    -6744    -6858    -6952    -6964    -6876 
   -6786    -6782    -6801    -6767    -6743    -6786    -6898    -7117 
   -7429    -7651    -7666    -7607    -7568    -7434    -7180    -7005 
   -7009    -7052    -7022    -6937    -6826    -6706    -6625    -6609 
   -6637    -6687    -6727    -6763    -6860    -7034    -7207    -7271 
   -7190    -7036    -6906    -6810    -6732    -6708    -6751    -6799 
   -6797    -6733    -6637    -6598    -6727    -6936    -7007    -6932 
   -6897    -6970    -7101    -7265    -7404    -7388    -7187    -6920 
   -6689    -6574    -6651    -6907    -7214    -7429    -7495    -7460 
   -7384    -7267    -7084    -6859    -6631    -6440    -6358    -6394 
   -6461    -6523    -6656    -6836    -6963    -7064    -7229    -7406 
   -7481    -7415    -7184    -6782    -6346    -6031    -5782    -5509 
   -5325    -5374    -5620    -5980    -6436    -6868    -7092    -7132 
   -7182    -7331    -7512    -7690    -7927    -8171    -8290    -8255 
   -8122    -7923    -7707    -7555    -7456    -7306    -7078    -6872 
   -6806    -6906    -7086    -7214    -7223    -7137    -7021    -6918 
   -6840    -6791    -6737    -6640    -6581    -6675    -6871    -6978 
   -6899    -6725    -6600    -6586    -6648    -6712    -6754    -6809 
   -6874    -6894    -6875    -6889    -6982    -7123    -7211    -7167 
   -7075    -7113    -7275    -7369    -7356    -7356    -7366    -7307 
   -7200    -7086    -6901    -6624    -6353    -6169    -6088    -6131 
   -6281    -6466    -6639    -6762    -6770    -6691    -6659    -6728 
   -6847    -6976    -7107    -7214    -7227    -7071    -6747    -6377 
   -6081    -5880    -5796    -5918    -6222    -6558    -6863    -7175 
   -7457    -7643    -7753    -7861    -7996    -8129    -8199    -8148 
   -7950    -7643    -7311    -7006    -6744    -6507    -6273    -6091 
   -6054    -6180    -6347    -6471    -6612    -6833    -7074    -7261 
   -7373    -7399    -7325    -7176    -7037    -6987    -7003    -6990 
   -6912    -6843    -6862    -6945    -7024    -7082    -7140    -7206 
   -7271    -7310    -7269    -7145    -7061    -7114    -7209    -7200 
   -7125    -7091    -7095    -7044    -6889    -6658    -6407    -6210 
   -6095    -6048    -6081    -6234    -6477    -6705    -6860    -6956 
   -6974    -6895    -6853    -6995    -7264    -7493    -7614    -7663 
   -7670    -7618    -7515    -7404    -7294    -7144    -6970    -6848 
   -6791    -6764    -6774    -6755    -6573    -6277    -6097    -6111 
   -6215    -6390    -6696    -7049    -7267    -7258    -7095    -6903 
   -6771    -6708    -6669    -6643    -6685    -6797    -6901    -6971 
   -7044    -7090    -7037    -6913    -6816    -6772    -6754    -6744 
   -6750    -6759    -6799    -6924    -7122    -7330    -7535    -7754 
   -7931    -7967    -7866    -7699    -7468    -7164    -6847    -6602 
   -6494    -6517    -6573    -6577    -6571    -6663    -6841    -6986 
   -7056    -7091    -7055    -6944    -6879    -6921    -6991    -6995 
   -6922    -6795    -6637    -6494    -6427    -6466    -6585    -6756 
   -6947    -7107    -7226    -7341    -7437    -7434    -7319    -7182 
   -7082    -7014    -6993    -7055    -7156    -7196    -7172    -7129 
   -7061    -6959    -6851    -6759    -6702    -6685    -6671    -6597 
   -6486    -6443    -6516    -6631    -6709    -6777    -6853    -6863 
   -6782    -6713    -6725    -6801    -6897    -6964    -6970    -6937 
   -6905    -6844    -6735    -6656    -6683    -6750    -6760    -6747 
   -6782    -6858    -6917    -6917    -6852    -6777    -6752    -6793 
   -6901    -7110    -7404    -7663    -7805    -7862    -7830    -7663 
   -7414    -7188    -7010    -6840    -6694    -6624    -6652    -6760 
   -6906    -7011    -6979    -6795    -6605    -6524    -6493    -6424 
   -6351    -6349    -6423    -6534    -6675    -6847    -6971    -6979 
   -6922    -6914    -7009    -7165    -7318    -7441    -7495    -7457 
   -7414    -7435    -7445    -7369    -7281    -7264    -7253    -7145 
   -6978    -6891    -6918    -6991    -7068    -7145    -7190    -7152 
   -7055    -6990    -6994    -7020    -7017    -6956    -6841    -6693 
   -6523    -6332    -6122    -5957    -5919    -5996    -6130    -6273 
   -6403    -6548    -6747    -6956    -7110    -7168    -7132    -7055 
   -7011    -7032    -7076    -7121    -7186    -7248    -7246    -7209 
   -7188    -7137    -6983    -6775    -6640    -6656    -6808    -7034 
   -7257    -7362    -7331    -7292    -7308    -7308    -7257    -7164 
   -7034    -6905    -6801    -6677    -6493    -6307    -6204    -6205 
   -6269    -6334    -6363    -6394    -6502    -6697    -6912    -7129 
   -7384    -7649    -7861    -7981    -7987    -7879    -7699    -7512 
   -7368    -7296    -7300    -7306    -7238    -7115    -6993    -6866 
   -6717    -6596    -6528    -6484    -6457    -6477    -6544    -6632 
   -6741    -6878    -7005    -7111    -7223    -7319    -7344    -7306 
   -7268    -7234    -7163    -7055    -6921    -6733    -6485    -6247 
   -6075    -6004    -6093    -6297    -6485    -6655    -6883    -7150 
   -7384    -7542    -7577    -7483    -7331    -7203    -7099    -7007 
   -6966    -6953    -6890    -6795    -6751    -6732    -6673    -6612 
   -6602    -6602    -6594    -6640    -6772    -6918    -7015    -7074 
   -7092    -7064    -7038    -7052    -7071    -7063    -7015    -6925 
   -6806    -6700    -6639    -6662    -6799    -6994    -7134    -7199 
   -7249    -7287    -7273    -7236    -7234    -7271    -7295    -7271 
   -7184    -7045    -6894    -6785    -6732    -6691    -6644    -6623 
   -6636    -6682    -6767    -6826    -6775    -6659    -6620    -6708 
   -6851    -6994    -7118    -7179    -7187    -7233    -7348    -7450 
   -7457    -7368    -7223    -7072    -6979    -6963    -6939    -6832 
   -6706    -6669    -6721    -6785    -6801    -6785    -6793    -6821 
   -6841    -6859    -6875    -6858    -6798    -6721    -6675    -6697 
   -6740    -6725    -6658    -6597    -6588    -6627    -6685    -6739 
   -6759    -6740    -6744    -6822    -6952    -7083    -7195    -7287 
   -7384    -7519    -7686    -7825    -7867    -7789    -7626    -7442 
   -7265    -7094    -6939    -6816    -6714    -6617    -6531    -6459 
   -6401    -6376    -6394    -6484    -6637    -6786    -6870    -6875 
   -6810    -6720    -6696    -6798    -6968    -7102    -7145    -7096 
   -6995    -6929    -6914    -6891    -6864    -6912    -7007    -7064 
   -7092    -7110    -7049    -6917    -6855    -6899    -6947    -6968 
   -7007    -7020    -6966    -6918    -6912    -6876    -6799    -6752 
   -6747    -6741    -6752    -6826    -6932    -7010    -7059    -7122 
