Origin Time       2024/06/23 22:54:00
Lat.              35.645
Long.             140.060
Depth. (km)       72
Mag.              4.1
Station Code      CHBH10
Station Lat.      35.5458
Station Long.     140.2417
Station Height(m) 65
Record Time       2024/06/23 22:54:35
Sampling Freq(Hz) 100Hz
Duration Time(s)  120
Dir.              5
Scale Factor      7845(gal)/8223790
Max. Acc. (gal)   5.399
Last Correction   2024/06/23 22:54:35
Memo.             
[...]
   -2154    -2150    -2145    -2146    -2157    -2157    -2146    -2147 
   -2155    -2155    -2151    -2149    -2149    -2149    -2147    -2146 
   -2147    -2149    -2149    -2151    -2153    -2149    -2143    -2147 
   -2153    -2151    -2147    -2150    -2150    -2143    -2142    -2149 
   -2150    -2151    -2151    -2150    -2150    -2150    -2151    -2149 
   -2145    -2146    -2147    -2146    -2149    -2155    -2153    -2146 
   -2143    -2146    -2150    -2151    -2147    -2146    -2149    -2150 
   -2149    -2153    -2154    -2150    -2150    -2150    -2147    -2151 
   -2155    -2149    -2146    -2150    -2151    -2153    -2151    -2147 
   -2145    -2146    -2146    -2145    -2145    -2149    -2151    -2151 
   -2147    -2150    -2155    -2149    -2141    -2143    -2150    -2149 
   -2147    -2155    -2160    -2150    -2142    -2143    -2149    -2153 
   -2151    -2149    -2149    -2150    -2149    -2143    -2143    -2151 
   -2157    -2154    -2147    -2146    -2151    -2154    -2151    -2150 
   -2145    -2143    -2147    -2146    -2146    -2154    -2158    -2154 
   -2147    -2149    -2150    -2145    -2145    -2151    -2154    -2154 
   -2155    -2151    -2147    -2149    -2147    -2145    -2151    -2154 
   -2154    -2154    -2149    -2149    -2154    -2150    -2145    -2150 
   -2150    -2149    -2151    -2151    -2151    -2151    -2151    -2150 
   -2149    -2153    -2151    -2146    -2150    -2153    -2150    -2149 
   -2146    -2145    -2151    -2150    -2143    -2147    -2154    -2154 
   -2155    -2153    -2151    -2154    -2151    -2147    -2146    -2143 
   -2145    -2150    -2153    -2153    -2150    -2146    -2147    -2143 
   -2145    -2153    -2149    -2143    -2146    -2147    -2150    -2151 
   -2147    -2150    -2150    -2145    -2139    -2143    -2154    -2155 
   -2146    -2146    -2153    -2150    -2141    -2142    -2149    -2149 
   -2149    -2151    -2154    -2154    -2149    -2141    -2143    -2150 
   -2151    -2150    -2149    -2143    -2141    -2146    -2150    -2147 
   -2147    -2147    -2146    -2149    -2151    -2153    -2150    -2145 
   -2145    -2149    -2146    -2143    -2147    -2147    -2146    -2147 
   -2147    -2147    -2147    -2146    -2145    -2145    -2146    -2147 
   -2146    -2146    -2150    -2151    -2145    -2145    -2149    -2147 
   -2147    -2151    -2153    -2147    -2141    -2143    -2150    -2147 
   -2145    -2150    -2146    -2141    -2146    -2151    -2151    -2146 
   -2143    -2149    -2150    -2146    -2147    -2149    -2149    -2150 
   -2150    -2154    -2154    -2150    -2147    -2146    -2149    -2153 
   -2151    -2147    -2147    -2147    -2146    -2150    -2153    -2147 
   -2145    -2146    -2145    -2141    -2142    -2149    -2151    -2149 
   -2143    -2145    -2153    -2150    -2142    -2146    -2155    -2154 
   -2149    -2149    -2147    -2147    -2150    -2149    -2146    -2149 
   -2151    -2151    -2153    -2153    -2153    -2151    -2146    -2143 
   -2147    -2153    -2150    -2147    -2149    -2153    -2153    -2150 
   -2145    -2145    -2149    -2147    -2143    -2151    -2162    -2157 
   -2145    -2147    -2157    -2153    -2142    -2142    -2150    -2151 
   -2147    -2149    -2153    -2150    -2146    -2149    -2151    -2151 
   -2154    -2154    -2151    -2150    -2147    -2147    -2153    -2153 
   -2151    -2153    -2150    -2150    -2153    -2153    -2150    -2151 
   -2153    -2147    -2143    -2149    -2149    -2147    -2150    -2149 
   -2149    -2154    -2155    -2153    -2149    -2149    -2153    -2151 
   -2147    -2147    -2151    -2155    -2155    -2153    -2151    -2149 
   -2147    -2147    -2150    -2151    -2150    -2153    -2151    -2149 
   -2150    -2150    -2153    -2149    -2145    -2154    -2158    -2150 
   -2147    -2153    -2151    -2147    -2149    -2150    -2153    -2151 
   -2146    -2143    -2146    -2153    -2154    -2151    -2153    -2157 
   -2155    -2151    -2153    -2160    -2155    -2145    -2143    -2151 
   -2154    -2153    -2151    -2153    -2153    -2150    -2149    -2150 
   -2149    -2146    -2146    -2149    -2147    -2149    -2155    -2157 
   -2154    -2154    -2157    -2157    -2150    -2147    -2154    -2154 
   -2149    -2151    -2157    -2154    -2151    -2153    -2153    -2155 
   -2153    -2146    -2149    -2154    -2155    -2150    -2147    -2151 
   -2154    -2149    -2147    -2151    -2154    -2154    -2149    -2149 
   -2155    -2154    -2149    -2151    -2153    -2151    -2151    -2151 
   -2147    -2150    -2154    -2150    -2147    -2153    -2157    -2155 
   -2154    -2153    -2150    -2151    -2151    -2150    -2149    -2149 
   -2154    -2155    -2150    -2149    -2155    -2154    -2145    -2145 
   -2154    -2155    -2151    -2149    -2150    -2149    -2146    -2145 
   -2147    -2147    -2147    -2149    -2147    -2147    -2147    -2147 
   -2154    -2160    -2155    -2158    -2161    -2143    -2123    -2123 
   -2130    -2153    -2196    -2195    -2161    -2151    -2141    -2135 
   -2150    -2147    -2164    -2168    -2084    -1964    -1952    -2127 
   -2351    -2412    -2326    -2197    -2027    -1902    -2030    -2421 
   -2724    -2548    -1999    -1594    -1539    -1644    -1879    -2263 
   -2646    -2832    -2655    -2292    -2033    -1784    -1591    -1787 
   -2343    -2774    -2605    -2064    -1746    -1660    -1690    -2026 
   -2494    -2794    -2802    -2384    -1831    -1525    -1436    -1606 
   -2054    -2681    -3019    -2451    -1719    -1907    -2359    -2353 
   -2228    -2115    -2000    -1846    -1588    -1688    -2212    -2587 
   -2677    -2484    -2195    -2342    -2532    -2135    -1717    -1779 
   -1935    -1957    -1987    -2085    -2209    -2363    -2585    -2666 
   -2313    -1803    -1698    -1975    -2228    -2231    -2012    -1852 
   -2015    -2393    -2601    -2531    -2390    -2141    -1760    -1636 
   -1877    -2052    -1911    -1822    -2101    -2435    -2442    -2313 
   -2489    -2849    -2731    -2079    -1595    -1549    -1718    -1965 
   -2177    -2299    -2276    -2192    -2222    -2178    -2087    -2153 
   -2120    -2103    -2297    -2227    -1917    -1849    -2026    -2357 
   -2525    -2319    -2200    -2242    -2133    -2007    -1904    -1842 
   -2029    -2236    -2211    -2169    -2196    -2207    -2255    -2327 
   -2390    -2430    -2347    -2122    -1741    -1408    -1605    -2212 
   -2544    -2500    -2416    -2382    -2295    -2061    -1873    -1899 
   -1930    -1945    -2074    -2216    -2323    -2317    -2116    -1992 
   -2143    -2358    -2454    -2344    -2031    -1845    -1927    -2007 
   -2100    -2270    -2342    -2400    -2401    -2166    -1998    -2016 
   -2050    -2164    -2185    -1949    -1744    -1764    -2046    -2502 
   -2698    -2463    -2106    -1852    -1803    -1989    -2191    -2232 
   -2316    -2531    -2596    -2376    -2047    -1863    -1918    -2004 
   -2004    -2019    -1981    -1954    -2134    -2371    -2521    -2562 
   -2369    -2111    -2080    -2161    -2193    -2147    -2104    -2284 
   -2601    -2778    -2743    -2331    -1591    -1170    -1393    -1925 
   -2354    -2444    -2309    -2162    -2003    -1908    -1921    -1992 
   -2214    -2430    -2408    -2282    -2076    -1769    -1626    -1730 
   -2025    -2432    -2694    -2798    -2697    -2104    -1381    -1212 
   -1617    -2250    -2683    -2640    -2454    -2407    -2289    -2149 
   -2212    -2326    -2284    -2174    -2137    -2035    -1806    -1795 
   -2205    -2617    -2398    -1625    -1231    -1659    -2339    -2778 
   -2828    -2506    -2196    -2168    -2242    -2259    -2176    -1987 
   -1815    -1711    -1744    -2104    -2542    -2578    -2388    -2247 
   -2018    -1814    -1887    -2158    -2363    -2258    -2018    -1956 
   -1956    -1958    -2038    -2173    -2407    -2509    -2326    -2196 
   -2085    -1771    -1607    -1938    -2602    -3022    -2755    -2189 
   -1957    -2085    -2257    -2228    -2162    -2301    -2174    -1544 
   -1140    -1318    -1837    -2485    -2894    -2917    -2662    -2168 
   -1763    -1722    -1895    -2150    -2363    -2489    -2511    -2196 
   -1737    -1648    -1960    -2404    -2673    -2635    -2378    -1848 
   -1285    -1225    -1676    -2316    -2714    -2525    -2191    -2222 
   -2409    -2502    -2392    -2080    -1825    -1753    -1869    -2065 
   -2042    -1914    -2050    -2378    -2650    -2654    -2241    -1864 
   -2058    -2540    -2758    -2466    -1952    -1884    -2226    -2266 
   -1922    -1761    -1954    -2070    -1887    -1760    -1929    -2196 
   -2385    -2425    -2258    -2034    -2034    -2281    -2403    -2216 
   -2120    -2247    -2301    -2286    -2216    -2003    -1861    -1925 
   -2112    -2261    -2130    -1884    -1948    -2245    -2411    -2307 
   -2034    -1888    -2043    -2295    -2424    -2332    -2022    -1809 
   -1946    -2182    -2254    -2280    -2334    -2346    -2340    -2339 
   -2308    -2242    -2114    -1976    -1917    -1833    -1736    -1811 
   -1972    -2095    -2162    -1999    -1776    -1987    -2573    -3121 
   -3343    -3133    -2612    -1915    -1244    -1008    -1352    -2056 
   -2678    -2789    -2539    -2323    -1989    -1437    -1138    -1521 
   -2380    -2947    -2856    -2508    -2203    -2011    -2123    -2421 
   -2477    -2138    -1691    -1482    -1505    -1638    -1900    -2285 
   -2725    -2994    -2833    -2417    -2165    -2228    -2367    -2226 
   -1918    -1814    -1794    -1687    -1728    -2011    -2307    -2442 
   -2444    -2331    -2008    -1676    -1786    -2263    -2605    -2606 
   -2304    -1888    -1792    -1985    -2006    -1918    -2066    -2386 
   -2552    -2346    -1965    -1777    -1831    -2079    -2357    -2326 
   -2033    -1798    -1773    -2007    -2398    -2743    -2903    -2741 
   -2320    -1961    -1792    -1813    -2097    -2404    -2304    -1795 
   -1306    -1305    -1864    -2562    -2941    -2803    -2268    -1749 
   -1555    -1624    -1995    -2706    -3229    -3053    -2412    -1831 
   -1645    -1869    -2230    -2486    -2581    -2357    -1826    -1453 
   -1458    -1691    -2195    -2791    -2984    -2631    -1976    -1503 
   -1587    -2010    -2469    -2835    -2812    -2323    -1660    -1162 
   -1221    -1871    -2463    -2516    -2270    -2014    -1715    -1534 
   -1798    -2447    -2944    -2866    -2511    -2326    -2269    -2230 
   -2218    -2238    -2262    -2123    -1804    -1614    -1738    -2095 
   -2493    -2628    -2415    -2150    -2014    -2002    -2150    -2328 
   -2290    -2041    -1729    -1503    -1487    -1625    -1965    -2601 
   -3092    -2982    -2469    -1961    -1765    -1979    -2220    -2133 
   -1892    -1741    -1719    -1953    -2471    -2918    -3032    -2921 
   -2679    -2322    -1934    -1613    -1476    -1513    -1571    -1692 
   -1991    -2380    -2694    -2756    -2478    -2130    -1969    -1926 
   -1991    -2178    -2258    -2087    -1850    -1842    -2147    -2463 
   -2500    -2357    -2208    -2153    -2280    -2470    -2473    -2297 
   -2181    -2185    -2087    -1845    -1725    -1818    -1852    -1736 
   -1777    -2003    -2106    -2087    -1972    -1737    -1748    -2168 
   -2632    -2856    -2748    -2393    -2099    -2092    -2440    -2878 
   -2843    -2334    -1883    -1636    -1525    -1667    -1953    -2080 
   -2041    -2066    -2246    -2473    -2628    -2700    -2620    -2304 
   -1915    -1624    -1377    -1270    -1578    -2234    -2758    -2809 
   -2450    -1973    -1802    -2135    -2654    -2999    -3032    -2636 
   -1973    -1456    -1290    -1512    -2008    -2374    -2415    -2253 
   -1910    -1555    -1530    -1779    -1946    -1950    -2115    -2754 
   -3532    -3700    -3084    -2216    -1655    -1574    -1710    -1729 
   -1607    -1529    -1663    -2020    -2497    -2979    -3307    -3273 
   -2809    -2072    -1324     -865     -918    -1385    -1931    -2274 
   -2390    -2511    -2716    -2763    -2556    -2289    -2085    -1921 
   -1715    -1526    -1588    -1856    -2135    -2475    -2690    -2489 
   -2119    -1957    -2127    -2554    -2859    -2686    -2065    -1352 
   -1028    -1229    -1714    -2313    -2899    -3180    -2918    -2249 
   -1702    -1648    -1925    -2247    -2552    -2820    -2868    -2550 
   -2139    -2049    -2157    -2057    -1786    -1580    -1408    -1260 
   -1395    -1944    -2632    -3113    -3256    -2997    -2390    -1861 
   -1717    -1698    -1594    -1582    -1692    -1728    -1796    -2258 
   -2979    -3342    -3137    -2682    -2193    -1692    -1314    -1240 
   -1521    -2077    -2656    -2884    -2567    -1956    -1590    -1726 
   -2222    -2744    -2856    -2355    -1528     -819     -616    -1154 
   -2278    -3488    -4085    -3686    -2768    -2034    -1736    -1887 
   -2292    -2517    -2262    -1642    -1258    -1543    -2041    -2253 
   -2378    -2434    -2128    -1621    -1323    -1453    -1903    -2269 
   -2415    -2492    -2500    -2448    -2469    -2519    -2413    -2056 
   -1597    -1308    -1340    -1683    -2114    -2317    -2218    -1877 
   -1371     -927     -820    -1067    -1451    -1742    -1773    -1472 
    -963     -527     -446     -850    -1582    -2285    -2857    -3586 
   -4556    -5371    -5568    -5015    -3942    -2654    -1321     -182 
     356       39    -1138    -3064    -5333    -7090    -7542    -6677 
   -5209    -3790    -2442     -866      882     2299     2880     2405 
     830    -1575    -4012    -5764    -6799    -7256    -7087    -6461 
   -5618    -4526    -3053    -1135      982     2702     3511     3210 
    2088      885      118     -184     -333     -807    -1676    -2447 
   -2558    -1837     -774     -126     -368    -1733    -4052    -6361 
   -7487    -7034    -5344    -3123    -1266     -333     -391    -1178 
   -2145    -2828    -2951    -2313    -1335     -874    -1161    -1876 
   -2795    -3658    -3920    -3049    -1321       98      353     -383 
   -1426    -2080    -2025    -1645    -1499    -1800    -2640    -3802 
   -4563    -4322    -2899     -594     1404     1703       87    -2560 
   -5113    -6567    -6417    -5017    -3380    -2446    -2203    -1819 
    -774      549     1352     1081     -151    -1711    -3030    -3775 
   -3847    -3524    -3079    -2666    -2739    -3528    -4469    -4854 
   -4488    -3495    -2119     -985     -607     -525      -93      518 
     889      892      495     -305    -1441    -2686    -3708    -4198 
   -3906    -2956    -2041    -1798    -2300    -3213    -3893    -3809 
   -3091    -2243    -1759    -1921    -2430    -2655    -2377    -1879 
   -1464    -1262    -1282    -1448    -1653    -1872    -2146    -2339 
   -2143    -1609    -1271    -1478    -1969    -2304    -2311    -2060 
   -1741    -1602    -1767    -2106    -2444    -2866    -3437    -3859 
   -3807    -3246    -2362    -1555    -1209    -1374    -1841    -2354 
   -2755    -3001    -3086    -3051    -2864    -2493    -2069    -1667 
   -1250     -832     -464     -360     -861    -1894    -2845    -3125 
   -2632    -1745    -1054    -1050    -1771    -2708    -3257    -3217 
   -2790    -2324    -2046    -1992    -2155    -2554    -3100    -3601 
   -3846    -3597    -2749    -1567     -598     -238     -388     -569 
    -477     -252     -352    -1125    -2295    -3273    -3917    -4314 
   -4313    -3893    -3362    -2961    -2675    -2367    -1956    -1521 
   -1146     -905    -1017    -1551    -2247    -2837    -3204    -3265 
   -2978    -2511    -2074    -1687    -1300     -870     -344       48 
    -221    -1344    -2779    -3802    -4191    -4078    -3523    -2619 
   -1736    -1301    -1344    -1533    -1749    -2079    -2299    -2222 
   -2164    -2354    -2546    -2536    -2367    -2137    -2031    -2204 
   -2454    -2347    -1854    -1464    -1497    -1799    -2137    -2481 
   -2818    -2976    -2898    -2701    -2374    -1948    -1777    -2169 
   -2924    -3492    -3512    -3026    -2280    -1696    -1656    -1948 
   -2123    -2188    -2344    -2582    -2849    -3001    -2776    -2147 
   -1310     -491      108      461      614      490      -33     -961 
   -2085    -3180    -4098    -4637    -4638    -4174    -3404    -2381 
   -1140        8      504       75     -897    -1764    -2173    -2187 
   -2145    -2381    -2894    -3346    -3422    -3192    -2902    -2594 
   -2354    -2390    -2671    -2978    -3180    -3215    -3001    -2578 
   -2174    -1979    -1966    -1964    -1837    -1617    -1406    -1287 
   -1296    -1358    -1367    -1339    -1329    -1356    -1432    -1522 
   -1640    -1912    -2371    -2887    -3321    -3616    -3770    -3763 
   -3565    -3271    -3130    -3219    -3302    -3183    -2845    -2255 
   -1429     -552      102      292       35     -423     -849    -1127 
   -1335    -1671    -2282    -3126    -3831    -3929    -3350    -2504 
   -1894    -1746    -1968    -2319    -2492    -2251    -1768    -1480 
   -1543    -1764    -1887    -1715    -1260     -803     -787    -1548 
   -2866    -4035    -4502    -4217    -3600    -3200    -3134    -3057 
   -2712    -2181    -1652    -1285    -1250    -1645    -2328    -2941 
   -3165    -2945    -2488    -2069    -1806    -1597    -1289     -934 
    -749     -849    -1246    -1938    -2679    -2964    -2538    -1694 
    -966     -718     -978    -1509    -1999    -2289    -2488    -2759 
   -3090    -3404    -3677    -3848    -3781    -3260    -2312    -1398 
    -916     -823     -913    -1090    -1237    -1215    -1167    -1432 
   -2025    -2601    -2880    -2864    -2656    -2392    -2346    -2667 
   -3130    -3441    -3511    -3403    -3329    -3461    -3538    -3095 
   -2077     -916     -172     -129     -665    -1475    -2215    -2602 
   -2571    -2211    -1694    -1221     -939     -936    -1186    -1566 
   -1993    -2342    -2376    -2073    -1707    -1557    -1738    -2192 
   -2709    -3099    -3261    -3067    -2479    -1771    -1318    -1250 
   -1452    -1745    -2054    -2479    -3057    -3555    -3728    -3538 
   -3082    -2489    -1863    -1244     -730     -560     -865    -1447 
   -1987    -2365    -2659    -2839    -2732    -2517    -2594    -2967 
   -3333    -3473    -3318    -2920    -2338    -1676    -1192    -1094 
   -1356    -1738    -1896    -1713    -1513    -1705    -2377    -3268 
   -3878    -3816    -3175    -2330    -1545    -1017     -900    -1066 
   -1165    -1086    -1053    -1146    -1275    -1591    -2295    -3211 
   -3896    -4036    -3624    -2813    -1864    -1142     -814     -742 
    -788     -922    -1088    -1220    -1370    -1745    -2505    -3468 
   -4221    -4496    -4233    -3516    -2675    -2137    -2042    -2123 
   -1950    -1372     -689     -302     -380     -823    -1317    -1659 
   -1966    -2396    -2897    -3315    -3574    -3658    -3492    -3075 
   -2602    -2246    -2027    -2011    -2278    -2743    -3153    -3246 
   -2971    -2450    -1829    -1286    -1028    -1109    -1387    -1713 
   -2030    -2276    -2396    -2475    -2627    -2763    -2690    -2373 
   -1975    -1736    -1873    -2427    -3146    -3586    -3404    -2623 
   -1579     -738     -406     -488     -716     -935    -1119    -1329 
   -1617    -1987    -2389    -2691    -2798    -2741    -2621    -2508 
   -2398    -2243    -2033    -1844    -1798    -1910    -1996    -1845 
   -1444    -1021     -837     -969    -1358    -1830    -2154    -2242 
