Origin Time       2024/06/23 22:54:00
Lat.              35.645
Long.             140.060
Depth. (km)       72
Mag.              4.1
Station Code      CHBH11
Station Lat.      35.2867
Station Long.     140.1529
Station Height(m) 80
Record Time       2024/06/23 22:54:36
Sampling Freq(Hz) 100Hz
Duration Time(s)  120
Dir.              5
Scale Factor      7845(gal)/8223790
Max. Acc. (gal)   3.202
Last Correction   2024/06/23 22:54:36
Memo.             
[...]
   -2542    -2546    -2542    -2540    -2546    -2544    -2542    -2542 
   -2543    -2543    -2542    -2544    -2550    -2543    -2539    -2547 
   -2546    -2540    -2548    -2547    -2540    -2542    -2542    -2543 
   -2548    -2543    -2542    -2546    -2544    -2547    -2547    -2540 
   -2542    -2544    -2543    -2543    -2538    -2538    -2546    -2543 
   -2543    -2546    -2540    -2539    -2543    -2544    -2547    -2544 
   -2536    -2543    -2544    -2536    -2538    -2544    -2543    -2542 
   -2538    -2536    -2543    -2544    -2542    -2542    -2536    -2539 
   -2546    -2543    -2543    -2542    -2536    -2539    -2540    -2540 
   -2544    -2540    -2539    -2544    -2542    -2540    -2543    -2538 
   -2538    -2542    -2539    -2540    -2544    -2539    -2538    -2539 
   -2536    -2543    -2544    -2538    -2540    -2540    -2533    -2538 
   -2544    -2544    -2544    -2533    -2529    -2539    -2542    -2542 
   -2540    -2536    -2540    -2543    -2539    -2538    -2539    -2542 
   -2543    -2538    -2535    -2539    -2540    -2540    -2542    -2539 
   -2540    -2542    -2538    -2538    -2540    -2535    -2539    -2546 
   -2542    -2542    -2536    -2531    -2542    -2544    -2536    -2536 
   -2538    -2538    -2542    -2540    -2539    -2540    -2536    -2538 
   -2538    -2539    -2544    -2543    -2536    -2540    -2542    -2538 
   -2539    -2538    -2539    -2542    -2535    -2533    -2542    -2539 
   -2538    -2542    -2536    -2539    -2540    -2538    -2544    -2542 
   -2529    -2538    -2546    -2540    -2539    -2535    -2535    -2543 
   -2544    -2539    -2536    -2536    -2542    -2546    -2539    -2538 
   -2540    -2538    -2538    -2542    -2544    -2543    -2538    -2536 
   -2544    -2543    -2535    -2538    -2543    -2547    -2547    -2535 
   -2531    -2540    -2542    -2542    -2544    -2536    -2536    -2540 
   -2538    -2544    -2547    -2539    -2542    -2543    -2538    -2543 
   -2548    -2543    -2540    -2540    -2540    -2543    -2543    -2544 
   -2544    -2539    -2540    -2547    -2542    -2538    -2538    -2539 
   -2546    -2546    -2540    -2542    -2539    -2538    -2544    -2544 
   -2544    -2547    -2543    -2543    -2543    -2538    -2542    -2547 
   -2542    -2547    -2548    -2535    -2539    -2552    -2551    -2544 
   -2538    -2535    -2544    -2548    -2544    -2544    -2544    -2543 
   -2543    -2542    -2544    -2544    -2539    -2542    -2546    -2543 
   -2544    -2546    -2544    -2546    -2544    -2542    -2548    -2547 
   -2539    -2540    -2546    -2547    -2547    -2540    -2540    -2543 
   -2540    -2542    -2547    -2546    -2546    -2542    -2535    -2542 
   -2547    -2546    -2548    -2544    -2538    -2538    -2540    -2548 
   -2552    -2542    -2538    -2538    -2536    -2544    -2548    -2546 
   -2546    -2543    -2538    -2540    -2543    -2543    -2546    -2542 
   -2536    -2542    -2544    -2542    -2544    -2540    -2543    -2547 
   -2539    -2538    -2544    -2542    -2542    -2540    -2539    -2543 
   -2543    -2543    -2546    -2542    -2542    -2547    -2539    -2536 
   -2542    -2542    -2543    -2547    -2546    -2544    -2540    -2538 
   -2543    -2544    -2540    -2543    -2547    -2543    -2543    -2543 
   -2542    -2544    -2546    -2542    -2542    -2540    -2543    -2547 
   -2540    -2540    -2542    -2536    -2540    -2543    -2540    -2548 
   -2548    -2536    -2539    -2546    -2543    -2540    -2539    -2543 
   -2546    -2540    -2540    -2544    -2543    -2543    -2542    -2540 
   -2542    -2536    -2535    -2544    -2544    -2542    -2548    -2544 
   -2538    -2542    -2540    -2539    -2543    -2539    -2533    -2536 
   -2536    -2539    -2546    -2547    -2560    -2573    -2567    -2559 
   -2539    -2508    -2500    -2520    -2551    -2567    -2544    -2508 
   -2493    -2511    -2555    -2601    -2609    -2570    -2520    -2520 
   -2543    -2505    -2448    -2492    -2601    -2644    -2597    -2562 
   -2585    -2573    -2511    -2525    -2623    -2644    -2508    -2245 
   -2020    -2122    -2612    -3138    -3264    -2906    -2385    -1954 
   -1848    -2474    -3252    -2856    -1954    -2311    -3146    -2835 
   -2220    -2357    -2474    -2322    -2741    -3384    -3122    -2342 
   -1989    -1935    -2022    -2347    -2663    -2824    -2883    -2906 
   -2768    -2189    -1714    -2180    -3022    -3153    -2797    -2731 
   -2575    -1921    -1891    -2797    -3042    -2457    -2619    -3399 
   -3217    -2323    -2076    -2010    -1485    -1772    -3196    -3809 
   -2756    -1657    -1761    -2357    -2785    -3331    -3628    -3122 
   -2565    -2527    -2236    -1522    -1517    -2361    -2871    -2867 
   -2918    -2744    -2223    -2108    -2606    -3065    -3110    -2922 
   -2612    -2155    -1783    -1780    -2209    -2867    -3319    -3238 
   -2748    -2353    -2299    -2371    -2438    -2439    -2367    -2474 
   -2686    -2520    -2110    -2112    -2512    -2832    -3090    -3315 
   -3204    -2806    -2450    -2169    -1875    -1732    -2006    -2573 
   -2932    -2862    -2681    -2727    -2866    -2813    -2613    -2380 
   -2069    -1846    -2042    -2625    -3157    -3213    -2735    -2124 
   -1945    -2389    -3018    -3190    -2901    -2685    -2624    -2335 
   -1958    -2011    -2343    -2386    -2340    -2683    -2979    -2790 
   -2613    -2747    -2798    -2597    -2380    -2259    -2258    -2459 
   -2647    -2475    -2242    -2509    -2998    -2995    -2614    -2475 
   -2528    -2365    -2180    -2366    -2620    -2540    -2462    -2579 
   -2540    -2421    -2602    -2875    -2895    -2813    -2741    -2529 
   -2254    -2193    -2344    -2361    -2161    -2199    -2620    -2897 
   -2782    -2646    -2747    -2929    -2897    -2679    -2620    -2717 
   -2529    -1998    -1760    -2108    -2448    -2558    -2839    -3086 
   -2797    -2313    -2251    -2404    -2412    -2501    -2754    -2851 
   -2698    -2521    -2420    -2351    -2512    -2887    -2897    -2470 
   -2234    -2334    -2531    -2745    -2817    -2644    -2420    -2278 
   -2185    -2172    -2305    -2569    -2848    -2941    -2754    -2490 
   -2407    -2519    -2589    -2400    -2200    -2367    -2636    -2597 
   -2598    -2897    -2965    -2722    -2697    -2779    -2517    -2104 
   -2060    -2292    -2334    -2339    -2609    -2808    -2668    -2570 
   -2718    -2713    -2516    -2512    -2597    -2543    -2439    -2442 
   -2609    -2668    -2461    -2317    -2295    -2215    -2367    -2820 
   -3049    -2914    -2756    -2718    -2668    -2488    -2351    -2363 
   -2359    -2394    -2543    -2579    -2381    -2128    -2182    -2560 
   -2748    -2610    -2593    -2845    -3063    -3006    -2693    -2331 
   -2184    -2245    -2300    -2416    -2716    -2856    -2650    -2461 
   -2435    -2351    -2214    -2209    -2371    -2527    -2556    -2627 
   -2817    -2830    -2666    -2706    -2772    -2478    -2249    -2511 
   -2770    -2629    -2424    -2397    -2462    -2578    -2704    -2724 
   -2586    -2419    -2389    -2451    -2565    -2768    -2791    -2458 
   -2124    -2016    -2000    -2139    -2631    -3235    -3388    -3013 
   -2644    -2524    -2380    -2158    -2142    -2344    -2527    -2646 
   -2697    -2589    -2438    -2425    -2492    -2592    -2803    -2975 
   -2862    -2542    -2192    -1912    -1958    -2465    -2988    -3030 
   -2797    -2720    -2700    -2505    -2344    -2403    -2427    -2349 
   -2466    -2728    -2694    -2334    -2201    -2462    -2623    -2582 
   -2717    -2994    -3017    -2648    -2146    -1961    -2231    -2548 
   -2617    -2571    -2431    -2118    -1998    -2528    -3284    -3406 
   -3034    -2903    -2817    -2278    -1858    -2091    -2349    -2311 
   -2465    -2673    -2552    -2508    -2713    -2713    -2571    -2648 
   -2736    -2644    -2452    -2116    -1912    -2182    -2637    -2986 
   -3130    -2930    -2613    -2502    -2586    -2740    -2687    -2342 
   -2088    -2120    -2377    -2687    -2612    -2272    -2323    -2633 
   -2725    -2817    -3032    -3021    -2852    -2756    -2435    -1894 
   -1722    -2042    -2520    -2997    -3271    -2933    -2119    -1829 
   -2413    -2940    -2968    -2893    -2685    -2284    -2079    -2070 
   -2108    -2505    -3107    -3241    -2971    -2778    -2594    -2362 
   -2473    -2764    -2485    -1819    -1621    -2020    -2609    -2961 
   -2890    -2575    -2320    -2358    -2629    -2805    -2728    -2488 
   -2308    -2390    -2655    -2826    -2801    -2771    -2920    -3094 
   -2910    -2258    -1626    -1516    -1881    -2538    -3207    -3307 
   -2907    -2778    -2848    -2555    -2195    -2301    -2658    -2713 
   -2394    -2110    -1973    -1879    -2070    -2596    -2945    -2911 
   -2820    -2805    -2810    -2886    -2905    -2725    -2608    -2660 
   -2396    -1885    -1961    -2565    -2936    -2952    -2709    -2324 
   -2193    -2335    -2465    -2533    -2511    -2417    -2335    -2224 
   -2254    -2469    -2446    -2365    -2860    -3464    -3404    -3063 
   -2818    -2461    -2165    -2037    -1818    -1760    -2235    -2943 
   -3304    -3141    -2841    -2785    -2708    -2420    -2353    -2493 
   -2330    -1966    -1728    -1715    -2068    -2605    -3072    -3437 
   -3538    -3285    -2803    -2339    -2218    -2367    -2327    -1923 
   -1555    -1761    -2443    -2909    -2961    -3042    -3190    -3040 
   -2793    -2862    -2909    -2563    -2211    -2176    -2293    -2361 
   -2373    -2416    -2446    -2531    -2816    -2898    -2509    -2211 
   -2330    -2393    -2182    -2110    -2398    -2744    -2863    -2929 
   -3061    -2911    -2485    -2344    -2521    -2509    -2195    -1919 
   -1962    -2074    -2066    -2397    -2948    -3082    -3186    -3585 
   -3639    -3300    -3068    -2837    -2336    -1737    -1435    -1587 
   -1867    -2003    -2296    -2767    -2837    -2548    -2496    -2631 
   -2609    -2533    -2609    -2704    -2547    -2367    -2604    -2847 
   -2641    -2544    -2787    -2737    -2405    -2443    -2754    -2781 
   -2666    -2643    -2286    -1638    -1495    -2027    -2697    -3203 
   -3450    -3258    -2735    -2459    -2663    -2760    -2469    -2189 
   -2096    -2158    -2376    -2614    -2848    -3041    -2988    -2651 
   -2269    -2228    -2558    -2698    -2394    -2123    -2139    -2177 
   -2228    -2478    -2628    -2411    -2214    -2415    -2868    -3308 
   -3478    -3175    -2652    -2424    -2459    -2322    -2088    -2153 
   -2423    -2609    -2749    -2841    -2714    -2461    -2386    -2439 
   -2369    -2411    -2751    -2863    -2473    -2066    -2020    -2172 
   -2278    -2500    -2862    -2864    -2551    -2621    -2902    -2683 
   -2269    -2293    -2594    -2795    -2934    -3111    -3123    -2870 
   -2647    -2493    -2216    -2087    -2295    -2415    -2218    -2066 
   -2174    -2317    -2397    -2547    -2732    -2755    -2627    -2574 
   -2650    -2683    -2639    -2627    -2681    -2744    -2728    -2629 
   -2613    -2756    -2826    -2571    -2169    -2033    -2231    -2479 
   -2562    -2493    -2380    -2262    -2268    -2624    -3096    -3088 
   -2648    -2376    -2478    -2693    -2722    -2552    -2477    -2581 
   -2632    -2558    -2434    -2301    -2262    -2319    -2346    -2397 
   -2562    -2660    -2528    -2312    -2288    -2515    -2852    -3141 
   -3190    -2965    -2673    -2492    -2478    -2489    -2289    -2030 
   -2061    -2327    -2550    -2722    -2830    -2720    -2563    -2600 
   -2705    -2756    -2728    -2581    -2385    -2151    -1944    -2031 
   -2358    -2606    -2695    -2590    -2394    -2401    -2546    -2625 
   -2725    -2839    -2749    -2451    -2255    -2374    -2651    -2886 
   -3007    -2988    -2905    -2876    -2847    -2709    -2540    -2434 
   -2292    -2103    -2066    -2203    -2255    -2149    -2169    -2427 
   -2560    -2438    -2336    -2355    -2501    -2874    -3381    -3642 
   -3406    -3017    -2830    -2575    -2146    -1977    -2138    -2265 
   -2276    -2308    -2354    -2369    -2428    -2605    -2770    -2694 
   -2466    -2369    -2409    -2462    -2535    -2566    -2450    -2286 
   -2290    -2479    -2701    -2922    -3161    -3296    -3214    -3009 
   -2824    -2662    -2457    -2199    -2003    -1992    -2068    -2053 
   -1998    -1998    -1965    -1853    -1822    -1933    -1968    -1856 
   -1887    -2222    -2608    -2790    -2791    -2654    -2421    -2343 
   -2546    -2721    -2590    -2319    -2219    -2413    -2828    -3264 
   -3458    -3231    -2673    -2106    -1831    -2004    -2548    -3105 
   -3338    -3237    -2974    -2675    -2423    -2401    -2830    -3559 
   -4164    -4455    -4461    -4078    -3225    -2344    -2047    -2293 
   -2702    -3079    -3163    -2813    -2420    -2290    -2142    -1742 
   -1302    -1092    -1135    -1289    -1489    -1784    -2193    -2641 
   -3022    -3245    -3288    -3252    -3208    -3164    -3088    -2820 
   -2424    -2332    -2633    -2806    -2353    -1305     -288     -144 
   -1182    -2902    -4330    -4595    -3616    -2089     -795     -213 
    -369    -1102    -2289    -3549    -4384    -4560    -4202    -3715 
   -3406    -3250    -3149    -3169    -3326    -3460    -3532    -3546 
   -3250    -2448    -1510    -1102    -1306    -1661    -2019    -2419 
   -2686    -2732    -2701    -2670    -2473    -2027    -1714    -1844 
   -2161    -2373    -2566    -2859    -3159    -3492    -3985    -4255 
   -3627    -2119     -473      635      815      -54    -1591    -2995 
   -3559    -3299    -2799    -2405    -2151    -2065    -2062    -2142 
   -2498    -3117    -3615    -3620    -3222    -2789    -2508    -2432 
   -2501    -2612    -2845    -3214    -3500    -3689    -3870    -3811 
   -3377    -2870    -2555    -2398    -2297    -2263    -2331    -2355 
   -2245    -2124    -2047    -1969    -1937    -1991    -2126    -2371 
   -2828    -3500    -3994    -3765    -2868    -1879    -1177     -900 
   -1124    -1663    -2164    -2504    -2681    -2556    -2143    -1834 
   -1927    -2273    -2640    -3006    -3258    -3215    -2994    -2884 
   -2933    -2952    -2864    -2760    -2664    -2559    -2539    -2732 
   -3041    -3110    -2762    -2259    -1942    -1911    -2070    -2249 
   -2357    -2486    -2643    -2677    -2658    -2766    -2867    -2862 
   -2948    -3160    -3223    -3099    -2988    -2855    -2529    -2131 
   -1879    -1691    -1467    -1512    -2012    -2581    -2878    -3042 
   -3195    -3244    -3230    -3219    -2994    -2408    -1786    -1534 
   -1644    -1810    -1857    -1857    -1907    -1964    -1954    -1908 
   -1960    -2200    -2523    -2713    -2733    -2770    -2921    -3028 
   -3018    -3067    -3291    -3604    -3821    -3897    -3920    -3788 
   -3357    -2789    -2192    -1512     -943     -792    -1062    -1502 
   -1917    -2262    -2490    -2601    -2776    -3088    -3357    -3450 
   -3366    -3071    -2604    -2155    -1814    -1584    -1615    -1960 
   -2355    -2582    -2698    -2840    -2991    -3100    -3240    -3399 
   -3441    -3360    -3273    -3190    -2964    -2439    -1636     -796 
    -248     -337    -1224    -2528    -3554    -3989    -3974    -3759 
   -3596    -3650    -3859    -3944    -3661    -3028    -2258    -1583 
   -1119     -913    -1042    -1429    -1875    -2316    -2716    -2882 
   -2810    -2764    -2857    -2928    -2830    -2590    -2269    -1933 
   -1748    -1796    -1927    -2097    -2331    -2488    -2562    -2725 
   -2986    -3184    -3208    -3084    -2883    -2705    -2681    -2812 
   -2964    -3091    -3106    -2806    -2296    -2015    -2120    -2336 
   -2394    -2195    -1784    -1387    -1185    -1260    -1668    -2266 
   -2883    -3468    -3782    -3655    -3280    -2867    -2600    -2650 
   -2853    -2907    -2722    -2338    -1896    -1665    -1809    -2195 
   -2542    -2718    -2793    -2803    -2824    -3065    -3481    -3712 
   -3612    -3281    -2735    -2057    -1552    -1340    -1269    -1360 
   -1717    -2111    -2355    -2629    -2990    -3196    -3191    -3140 
   -3133    -3130    -3088    -3017    -2930    -2828    -2686    -2455 
   -2201    -2074    -2041    -2014    -2089    -2273    -2369    -2311 
   -2193    -2065    -1968    -2056    -2404    -2830    -3079    -3094 
   -2974    -2809    -2740    -2830    -2932    -2930    -2813    -2608 
   -2466    -2467    -2547    -2705    -2922    -3067    -3102    -3096 
   -3032    -2841    -2554    -2261    -1999    -1818    -1818    -1952 
   -2064    -2097    -2080    -2158    -2448    -2783    -2953    -2944 
   -2786    -2577    -2463    -2455    -2511    -2602    -2558    -2230 
   -1803    -1591    -1733    -2161    -2643    -2938    -2974    -2867 
   -2821    -2964    -3237    -3462    -3511    -3396    -3238    -3098 
   -2898    -2566    -2131    -1749    -1622    -1738    -1972    -2239 
   -2353    -2223    -2112    -2188    -2253    -2181    -2160    -2304 
   -2474    -2597    -2770    -2991    -3110    -3106    -3071    -2994 
   -2754    -2389    -2091    -1912    -1844    -1966    -2257    -2504 
   -2592    -2602    -2596    -2552    -2536    -2635    -2786    -2844 
   -2778    -2686    -2573    -2394    -2255    -2241    -2303    -2398 
   -2484    -2555    -2733    -3013    -3233    -3330    -3353    -3325 
   -3248    -3134    -2976    -2716    -2381    -2172    -2128    -2045 
   -1895    -1786    -1629    -1417    -1377    -1534    -1703    -1890 
   -2257    -2732    -3092    -3354    -3605    -3761    -3804    -3801 
   -3696    -3469    -3208    -2910    -2593    -2359    -2143    -1860 
   -1680    -1768    -1968    -2053    -2015    -1988    -1993    -1941 
   -1894    -1998    -2166    -2270    -2440    -2835    -3349    -3738 
   -3871    -3789    -3545    -3177    -2851    -2690    -2583    -2451 
   -2412    -2431    -2297    -2106    -2110    -2209    -2197    -2128 
   -2079    -2006    -1907    -1892    -2073    -2394    -2698    -2926 
   -3072    -3095    -2974    -2745    -2509    -2322    -2189    -2127 
   -2114    -2111    -2188    -2407    -2683    -2918    -3056    -3065 
   -2963    -2814    -2695    -2646    -2654    -2766    -2984    -3117 
   -3040    -2795    -2448    -2178    -2154    -2304    -2519    -2756 
   -2905    -2913    -2847    -2743    -2589    -2367    -2147    -2030 
   -2008    -2065    -2181    -2231    -2151    -2015    -1807    -1494 
   -1202    -1124    -1377    -1937    -2690    -3483    -4074    -4283 
   -4220    -4054    -3816    -3546    -3300    -3111    -3033    -3044 
   -3030    -2918    -2724    -2494    -2223    -1898    -1651    -1603 
   -1682    -1829    -2110    -2482    -2745    -2764    -2636    -2550 
   -2540    -2583    -2717    -2835    -2724    -2401    -2076    -1869 
   -1771    -1813    -2031    -2319    -2546    -2751    -2980    -3087 
   -2986    -2790    -2555    -2257    -1985    -1894    -1949    -1922 
   -1721    -1533    -1521    -1679    -2003    -2466    -2924    -3227 
   -3362    -3389    -3341    -3240    -3157    -3138    -3150    -3114 
   -2949    -2666    -2413    -2326    -2427    -2646    -2824    -2802 
   -2577    -2259    -1993    -1930    -2150    -2556    -2933    -3090 
   -2941    -2628    -2378    -2259    -2215    -2212    -2261    -2361 
   -2517    -2716    -2855    -2882    -2829    -2702    -2543    -2457 
