Origin Time       2024/06/23 22:54:00
Lat.              35.645
Long.             140.060
Depth. (km)       72
Mag.              4.1
Station Code      CHBH16
Station Lat.      35.1384
Station Long.     139.9649
Station Height(m) 160
Record Time       2024/06/23 22:54:46
Sampling Freq(Hz) 100Hz
Duration Time(s)  120
Dir.              4
Scale Factor      7845(gal)/8223790
Max. Acc. (gal)   1.754
Last Correction   2024/06/23 22:54:46
Memo.             
[...]
   -4730    -4731    -4730    -4730    -4729    -4730    -4731    -4729 
   -4729    -4730    -4729    -4727    -4729    -4731    -4731    -4729 
   -4725    -4726    -4730    -4734    -4731    -4730    -4730    -4726 
   -4725    -4730    -4730    -4730    -4731    -4730    -4727    -4729 
   -4730    -4730    -4729    -4729    -4727    -4727    -4729    -4729 
   -4726    -4727    -4729    -4729    -4731    -4730    -4726    -4726 
   -4725    -4729    -4734    -4731    -4727    -4726    -4723    -4727 
   -4730    -4730    -4731    -4727    -4723    -4725    -4727    -4730 
   -4730    -4727    -4726    -4725    -4725    -4729    -4730    -4729 
   -4729    -4727    -4727    -4730    -4730    -4727    -4726    -4729 
   -4731    -4729    -4729    -4730    -4727    -4729    -4733    -4730 
   -4729    -4730    -4726    -4725    -4727    -4731    -4731    -4731 
   -4730    -4729    -4727    -4729    -4731    -4730    -4729    -4729 
   -4729    -4730    -4733    -4731    -4730    -4729    -4729    -4730 
   -4731    -4731    -4727    -4727    -4729    -4730    -4731    -4733 
   -4730    -4727    -4727    -4727    -4727    -4729    -4730    -4733 
   -4731    -4730    -4729    -4730    -4729    -4727    -4727    -4727 
   -4730    -4733    -4731    -4727    -4727    -4729    -4730    -4733 
   -4733    -4729    -4725    -4727    -4730    -4730    -4731    -4730 
   -4726    -4727    -4730    -4730    -4730    -4729    -4726    -4727 
   -4729    -4729    -4729    -4730    -4729    -4726    -4725    -4729 
   -4731    -4730    -4730    -4727    -4725    -4726    -4727    -4729 
   -4727    -4725    -4729    -4731    -4730    -4725    -4723    -4726 
   -4727    -4729    -4730    -4727    -4726    -4729    -4727    -4729 
   -4731    -4729    -4726    -4726    -4726    -4730    -4733    -4733 
   -4730    -4725    -4725    -4729    -4730    -4731    -4733    -4730 
   -4726    -4727    -4730    -4730    -4730    -4730    -4730    -4730 
   -4731    -4731    -4729    -4727    -4726    -4726    -4730    -4731 
   -4730    -4726    -4723    -4726    -4729    -4731    -4733    -4733 
   -4729    -4726    -4727    -4727    -4729    -4729    -4729    -4729 
   -4730    -4729    -4729    -4729    -4726    -4726    -4729    -4730 
   -4729    -4727    -4726    -4723    -4723    -4729    -4731    -4730 
   -4729    -4729    -4726    -4726    -4729    -4731    -4729    -4726 
   -4727    -4727    -4729    -4731    -4729    -4727    -4726    -4729 
   -4734    -4733    -4727    -4727    -4727    -4729    -4731    -4733 
   -4731    -4729    -4726    -4727    -4730    -4731    -4731    -4729 
   -4727    -4729    -4730    -4730    -4730    -4729    -4727    -4729 
   -4730    -4733    -4730    -4727    -4727    -4729    -4729    -4731 
   -4730    -4729    -4729    -4727    -4729    -4731    -4730    -4727 
   -4727    -4726    -4727    -4730    -4730    -4729    -4726    -4725 
   -4727    -4731    -4733    -4729    -4725    -4725    -4725    -4726 
   -4731    -4731    -4726    -4726    -4727    -4729    -4730    -4730 
   -4727    -4727    -4727    -4729    -4727    -4725    -4726    -4726 
   -4725    -4727    -4729    -4729    -4729    -4726    -4725    -4729 
   -4731    -4731    -4729    -4727    -4727    -4726    -4727    -4726 
   -4725    -4726    -4729    -4726    -4725    -4729    -4727    -4726 
   -4726    -4726    -4729    -4731    -4729    -4726    -4722    -4722 
   -4726    -4730    -4731    -4731    -4730    -4730    -4730    -4731 
   -4733    -4729    -4725    -4725    -4725    -4729    -4731    -4729 
   -4723    -4722    -4722    -4725    -4729    -4733    -4737    -4738 
   -4737    -4734    -4727    -4722    -4719    -4719    -4725    -4734 
   -4737    -4733    -4726    -4718    -4715    -4725    -4739    -4753 
   -4760    -4752    -4722    -4687    -4662    -4662    -4698    -4746 
   -4783    -4793    -4772    -4727    -4687    -4676    -4708    -4768 
   -4814    -4814    -4774    -4714    -4654    -4629    -4653    -4708 
   -4760    -4781    -4765    -4727    -4696    -4685    -4698    -4726 
   -4760    -4784    -4792    -4780    -4760    -4738    -4716    -4702 
   -4700    -4712    -4727    -4730    -4706    -4664    -4633    -4638 
   -4679    -4738    -4795    -4833    -4841    -4828    -4811    -4785 
   -4741    -4680    -4631    -4619    -4641    -4668    -4685    -4696 
   -4706    -4714    -4747    -4808    -4855    -4862    -4834    -4785 
   -4711    -4629    -4591    -4621    -4672    -4700    -4708    -4720 
   -4738    -4769    -4819    -4861    -4855    -4808    -4742    -4687 
   -4656    -4653    -4664    -4671    -4668    -4673    -4698    -4737 
   -4779    -4818    -4842    -4841    -4807    -4754    -4706    -4679 
   -4680    -4695    -4707    -4710    -4706    -4703    -4710    -4725 
   -4738    -4727    -4691    -4656    -4650    -4685    -4754    -4830 
   -4874    -4860    -4791    -4707    -4656    -4658    -4702    -4743 
   -4747    -4703    -4639    -4604    -4633    -4716    -4800    -4842 
   -4834    -4773    -4692    -4644    -4642    -4668    -4708    -4757 
   -4787    -4784    -4752    -4702    -4661    -4645    -4648    -4666 
   -4696    -4735    -4772    -4789    -4789    -4781    -4772    -4757 
   -4745    -4745    -4753    -4745    -4710    -4662    -4631    -4621 
   -4639    -4700    -4789    -4865    -4889    -4849    -4762    -4680 
   -4648    -4662    -4692    -4712    -4706    -4680    -4668    -4692 
   -4747    -4803    -4833    -4834    -4818    -4789    -4757    -4735 
   -4731    -4738    -4741    -4737    -4731    -4723    -4708    -4679 
   -4646    -4644    -4685    -4741    -4783    -4788    -4758    -4719 
   -4704    -4712    -4725    -4726    -4720    -4719    -4729    -4749 
   -4769    -4777    -4764    -4726    -4685    -4657    -4661    -4707 
   -4764    -4800    -4808    -4797    -4780    -4761    -4745    -4731 
   -4718    -4703    -4689    -4668    -4646    -4644    -4661    -4677 
   -4693    -4710    -4723    -4735    -4741    -4726    -4692    -4661 
   -4656    -4681    -4735    -4812    -4877    -4892    -4858    -4796 
   -4733    -4687    -4668    -4681    -4719    -4749    -4749    -4725 
   -4698    -4687    -4688    -4683    -4673    -4666    -4675    -4698 
   -4719    -4720    -4719    -4733    -4762    -4788    -4793    -4774 
   -4741    -4702    -4677    -4681    -4707    -4742    -4774    -4789 
   -4785    -4779    -4787    -4804    -4811    -4797    -4766    -4726 
   -4676    -4630    -4615    -4641    -4684    -4712    -4718    -4706 
   -4692    -4707    -4757    -4812    -4838    -4826    -4777    -4714 
   -4675    -4677    -4707    -4737    -4746    -4734    -4731    -4760 
   -4799    -4815    -4797    -4760    -4711    -4660    -4614    -4588 
   -4587    -4606    -4642    -4681    -4716    -4757    -4801    -4837 
   -4838    -4800    -4734    -4661    -4614    -4623    -4685    -4762 
   -4812    -4818    -4793    -4754    -4719    -4707    -4700    -4685 
   -4677    -4677    -4673    -4675    -4689    -4720    -4756    -4780 
   -4776    -4749    -4729    -4734    -4747    -4756    -4745    -4716 
   -4687    -4680    -4699    -4727    -4750    -4774    -4799    -4811 
   -4803    -4784    -4758    -4731    -4714    -4715    -4743    -4772 
   -4762    -4719    -4673    -4649    -4652    -4669    -4700    -4749 
   -4801    -4826    -4810    -4765    -4726    -4707    -4695    -4677 
   -4660    -4661    -4689    -4731    -4768    -4789    -4793    -4792 
   -4796    -4799    -4796    -4784    -4756    -4722    -4693    -4677 
   -4676    -4698    -4737    -4772    -4784    -4769    -4747    -4733 
   -4719    -4702    -4680    -4657    -4638    -4630    -4648    -4680 
   -4704    -4720    -4741    -4769    -4796    -4804    -4800    -4789 
   -4774    -4750    -4700    -4633    -4587    -4581    -4617    -4689 
   -4777    -4855    -4892    -4862    -4785    -4706    -4657    -4638 
   -4637    -4652    -4692    -4746    -4785    -4788    -4764    -4735 
   -4715    -4702    -4698    -4692    -4675    -4646    -4627    -4641 
   -4691    -4760    -4822    -4835    -4796    -4746    -4711    -4693 
   -4693    -4703    -4714    -4716    -4712    -4723    -4764    -4807 
   -4826    -4816    -4791    -4752    -4703    -4664    -4637    -4612 
   -4595    -4610    -4660    -4726    -4792    -4838    -4857    -4857 
   -4839    -4806    -4770    -4749    -4739    -4749    -4776    -4799 
   -4799    -4785    -4769    -4756    -4753    -4747    -4719    -4668 
   -4604    -4545    -4523    -4563    -4657    -4780    -4882    -4924 
   -4909    -4864    -4814    -4773    -4742    -4707    -4653    -4581 
   -4519    -4476    -4464    -4503    -4598    -4730    -4869    -4969 
   -5001    -4965    -4868    -4734    -4600    -4506    -4482    -4533 
   -4639    -4765    -4866    -4899    -4843    -4742    -4676    -4679 
   -4723    -4765    -4774    -4745    -4693    -4639    -4623    -4665 
   -4738    -4804    -4837    -4823    -4788    -4752    -4712    -4660 
   -4602    -4560    -4561    -4608    -4685    -4765    -4835    -4901 
   -4938    -4904    -4796    -4672    -4596    -4591    -4644    -4722 
   -4780    -4788    -4766    -4758    -4799    -4876    -4932    -4911 
   -4804    -4641    -4480    -4391    -4409    -4518    -4669    -4812 
   -4914    -4961    -4966    -4936    -4862    -4764    -4684    -4641 
   -4622    -4599    -4575    -4573    -4618    -4725    -4878    -5017 
   -5089    -5062    -4928    -4725    -4523    -4371    -4278    -4259 
   -4348    -4536    -4760    -4946    -5062    -5113    -5120    -5096 
   -5027    -4900    -4729    -4583    -4515    -4522    -4561    -4600 
   -4637    -4691    -4749    -4777    -4766    -4731    -4689    -4660 
   -4642    -4631    -4637    -4660    -4683    -4692    -4696    -4707 
   -4723    -4733    -4737    -4753    -4780    -4803    -4818    -4824 
   -4819    -4793    -4752    -4722    -4716    -4715    -4704    -4677 
   -4629    -4564    -4517    -4515    -4573    -4679    -4808    -4919 
   -4969    -4955    -4911    -4858    -4816    -4797    -4785    -4747 
   -4689    -4656    -4660    -4683    -4707    -4703    -4644    -4552 
   -4486    -4479    -4517    -4564    -4619    -4703    -4818    -4935 
   -5026    -5067    -5057    -4995    -4881    -4735    -4590    -4486 
   -4464    -4542    -4691    -4843    -4951    -5004    -5009    -4969 
   -4884    -4765    -4630    -4494    -4372    -4298    -4303    -4409 
   -4590    -4796    -4986    -5131    -5217    -5244    -5209    -5100 
   -4912    -4668    -4426    -4260    -4203    -4244    -4351    -4506 
   -4676    -4833    -4961    -5047    -5078    -5057    -4997    -4893 
   -4729    -4526    -4352    -4263    -4279    -4384    -4553    -4734 
   -4866    -4931    -4942    -4924    -4885    -4820    -4723    -4622 
   -4557    -4541    -4560    -4594    -4646    -4734    -4851    -4977 
   -5066    -5078    -5012    -4915    -4831    -4764    -4689    -4599 
   -4515    -4460    -4445    -4490    -4591    -4707    -4796    -4835 
   -4831    -4792    -4726    -4639    -4564    -4538    -4571    -4649 
   -4758    -4870    -4950    -4988    -4999    -5003    -4981    -4887 
   -4727    -4572    -4480    -4453    -4464    -4503    -4588    -4714 
   -4833    -4908    -4945    -4965    -4965    -4931    -4857    -4742 
   -4603    -4473    -4387    -4374    -4453    -4617    -4815    -5003 
   -5143    -5201    -5170    -5058    -4905    -4749    -4592    -4450 
   -4349    -4298    -4295    -4336    -4407    -4504    -4615    -4739 
   -4862    -4947    -4955    -4884    -4766    -4650    -4571    -4545 
   -4567    -4618    -4689    -4770    -4831    -4850    -4834    -4812 
   -4815    -4846    -4891    -4928    -4945    -4930    -4889    -4834 
   -4784    -4757    -4742    -4725    -4707    -4687    -4660    -4634 
   -4625    -4642    -4692    -4754    -4811    -4837    -4820    -4762 
   -4679    -4603    -4554    -4530    -4523    -4534    -4553    -4579 
   -4619    -4669    -4735    -4818    -4897    -4947    -4947    -4900 
   -4823    -4743    -4673    -4615    -4585    -4603    -4652    -4706 
   -4768    -4831    -4878    -4908    -4920    -4904    -4842    -4747 
   -4637    -4521    -4418    -4351    -4340    -4405    -4533    -4672 
   -4792    -4888    -4950    -4970    -4955    -4923    -4881    -4830 
   -4774    -4731    -4720    -4739    -4777    -4830    -4881    -4900 
   -4869    -4807    -4734    -4671    -4649    -4669    -4685    -4650 
   -4558    -4465    -4436    -4490    -4607    -4752    -4872    -4941 
   -4966    -4965    -4962    -4968    -4963    -4920    -4830    -4706 
   -4579    -4482    -4444    -4463    -4506    -4557    -4612    -4677 
   -4764    -4869    -4963    -5011    -4986    -4909    -4816    -4712 
   -4610    -4534    -4494    -4488    -4517    -4579    -4666    -4764 
   -4849    -4907    -4914    -4849    -4726    -4590    -4467    -4376 
   -4330    -4340    -4406    -4530    -4699    -4876    -5013    -5078 
   -5059    -4985    -4887    -4777    -4645    -4498    -4364    -4294 
   -4324    -4459    -4654    -4861    -5039    -5147    -5171    -5136 
   -5066    -4974    -4878    -4781    -4681    -4584    -4511    -4492 
   -4542    -4653    -4811    -5001    -5188    -5314    -5339    -5275 
   -5171    -5051    -4891    -4653    -4333    -3994    -3735    -3639 
   -3746    -4027    -4388    -4749    -5059    -5314    -5536    -5742 
   -5918    -6006    -5949    -5721    -5323    -4788    -4197    -3638 
   -3191    -2925    -2890    -3086    -3470    -3991    -4573    -5127 
   -5582    -5908    -6100    -6158    -6092    -5926    -5684    -5381 
   -5040    -4706    -4411    -4186    -4048    -4004    -4033    -4110 
   -4210    -4306    -4369    -4388    -4392    -4409    -4446    -4480 
   -4479    -4423    -4337    -4272    -4290    -4422    -4666    -4989 
   -5327    -5621    -5827    -5927    -5921    -5813    -5622    -5371 
   -5081    -4758    -4406    -4027    -3650    -3330    -3126    -3090 
   -3262    -3642    -4156    -4703    -5190    -5552    -5767    -5879 
   -5923    -5904    -5822    -5686    -5512    -5309    -5081    -4815 
   -4494    -4118    -3728    -3381    -3152    -3095    -3221    -3520 
   -3970    -4499    -5027    -5503    -5895    -6172    -6300    -6234 
   -5949    -5471    -4882    -4294    -3808    -3488    -3361    -3420 
   -3645    -3987    -4403    -4851    -5277    -5616    -5818    -5838 
   -5660    -5305    -4830    -4334    -3931    -3700    -3690    -3904 
   -4291    -4757    -5202    -5557    -5772    -5818    -5695    -5424 
   -5050    -4633    -4232    -3894    -3657    -3530    -3503    -3577 
   -3759    -4056    -4460    -4938    -5433    -5869    -6172    -6316 
   -6313    -6185    -5968    -5706    -5435    -5158    -4857    -4537 
   -4260    -4079    -4020    -4086    -4257    -4473    -4676    -4826 
   -4919    -4984    -5043    -5092    -5098    -5038    -4895    -4673 
   -4405    -4149    -3979    -3935    -3981    -4071    -4176    -4272 
   -4347    -4405    -4448    -4492    -4563    -4685    -4873    -5109 
   -5348    -5535    -5632    -5637    -5553    -5387    -5152    -4870 
   -4569    -4284    -4054    -3908    -3859    -3894    -3993    -4141 
   -4320    -4500    -4660    -4779    -4841    -4842    -4807    -4764 
   -4733    -4733    -4787    -4896    -5036    -5171    -5265    -5286 
   -5215    -5055    -4839    -4602    -4372    -4190    -4095    -4114 
   -4230    -4407    -4596    -4750    -4857    -4919    -4938    -4922 
   -4872    -4780    -4672    -4584    -4552    -4602    -4737    -4932 
   -5162    -5395    -5587    -5701    -5711    -5603    -5367    -5024 
   -4619    -4220    -3882    -3646    -3530    -3547    -3678    -3879 
   -4099    -4303    -4477    -4617    -4718    -4780    -4806    -4806 
   -4792    -4799    -4843    -4918    -5008    -5108    -5202    -5279 
   -5339    -5377    -5385    -5362    -5308    -5211    -5059    -4861 
   -4631    -4409    -4232    -4117    -4066    -4082    -4159    -4290 
   -4465    -4666    -4885    -5116    -5335    -5525    -5667    -5741 
   -5721    -5583    -5336    -5011    -4650    -4301    -4008    -3805 
   -3711    -3723    -3825    -3998    -4220    -4464    -4706    -4932 
   -5127    -5266    -5340    -5350    -5312    -5235    -5123    -4984 
   -4837    -4704    -4598    -4529    -4500    -4504    -4533    -4567 
   -4587    -4585    -4564    -4527    -4486    -4441    -4401    -4382 
   -4384    -4392    -4391    -4390    -4396    -4419    -4469    -4560 
   -4700    -4885    -5077    -5229    -5312    -5321    -5278    -5198 
   -5112    -5030    -4924    -4781    -4603    -4406    -4228    -4102 
   -4064    -4137    -4302    -4518    -4754    -4990    -5209    -5383 
   -5479    -5468    -5337    -5097    -4787    -4463    -4195    -4028 
   -3970    -4016    -4139    -4318    -4525    -4718    -4855    -4931 
   -4947    -4924    -4897    -4899    -4931    -4972    -4999    -5004 
   -4980    -4935    -4895    -4881    -4893    -4911    -4914    -4888 
   -4823    -4720    -4594    -4459    -4325    -4214    -4149    -4149 
   -4232    -4391    -4598    -4824    -5038    -5206    -5306    -5339 
   -5325    -5287    -5223    -5121    -4982    -4827    -4693    -4614 
   -4608    -4661    -4731    -4780    -4784    -4753    -4702    -4630 
   -4541    -4456    -4380    -4315    -4274    -4266    -4291    -4356 
   -4445    -4531    -4594    -4611    -4585    -4534    -4482    -4461 
   -4506    -4634    -4833    -5059    -5279    -5466    -5598    -5655 
   -5630    -5524    -5340    -5090    -4810    -4525    -4271    -4082 
   -3975    -3954    -4021    -4171    -4386    -4641    -4891    -5097 
   -5232    -5283    -5255    -5169    -5047    -4911    -4785    -4689 
   -4625    -4590    -4580    -4581    -4573    -4536    -4468    -4382 
   -4293    -4226    -4185    -4163    -4178    -4236    -4328    -4436 
   -4544    -4635    -4707    -4766    -4827    -4899    -4995    -5116 
   -5247    -5364    -5452    -5497    -5491    -5443    -5354    -5225 
   -5062    -4882    -4698    -4518    -4365    -4261    -4207    -4203 
   -4240    -4313    -4429    -4572    -4718    -4849    -4955    -5028 
   -5057    -5027    -4943    -4822    -4689    -4577    -4498    -4445 
   -4421    -4421    -4441    -4490    -4576    -4687    -4807    -4928 
   -5032    -5100    -5111    -5058    -4949    -4793    -4633    -4511 
   -4442    -4423    -4442    -4477    -4503    -4504    -4483    -4464 
   -4477    -4548    -4677    -4843    -5003    -5121    -5170    -5148 
   -5090    -5026    -4982    -4977    -4989    -4985    -4949    -4878 
   -4777    -4653    -4523    -4396    -4284    -4202    -4163    -4182 
   -4260    -4380    -4533    -4699    -4860    -5007    -5128    -5211 
   -5258    -5283    -5289    -5282    -5278    -5273    -5251    -5200 
   -5111    -4972    -4796    -4606    -4422    -4274    -4175    -4124 
   -4113    -4122    -4124    -4101    -4062    -4031    -4037    -4106 
   -4237    -4410    -4604    -4797    -4968    -5097    -5188    -5247 
   -5287    -5327    -5366    -5391    -5387    -5335    -5223    -5059 
   -4857    -4639    -4444    -4282    -4158    -4079    -4056    -4091 
   -4174    -4282    -4414    -4564    -4714    -4838    -4923    -4963 
   -4965    -4951    -4942    -4943    -4957    -4973    -4978    -4972 
