Origin Time       2024/06/23 22:54:00
Lat.              35.645
Long.             140.060
Depth. (km)       72
Mag.              4.1
Station Code      CHBH17
Station Lat.      35.1714
Station Long.     140.3398
Station Height(m) 10
Record Time       2024/06/23 22:54:46
Sampling Freq(Hz) 100Hz
Duration Time(s)  120
Dir.              5
Scale Factor      7845(gal)/8223790
Max. Acc. (gal)   1.670
Last Correction   2024/06/23 22:54:46
Memo.             
[...]
   -3686    -3653    -3574    -3433    -3276    -3231    -3342    -3511 
   -3631    -3670    -3657    -3626    -3566    -3465    -3362    -3310 
   -3333    -3431    -3584    -3732    -3793    -3711    -3565    -3501 
   -3516    -3474    -3348    -3256    -3299    -3429    -3561    -3669 
   -3699    -3638    -3562    -3512    -3449    -3335    -3241    -3310 
   -3503    -3631    -3661    -3688    -3707    -3636    -3476    -3339 
   -3314    -3366    -3441    -3535    -3603    -3564    -3465    -3483 
   -3651    -3798    -3755    -3537    -3331    -3283    -3334    -3393 
   -3460    -3510    -3538    -3615    -3735    -3757    -3608    -3419 
   -3358    -3407    -3439    -3434    -3433    -3456    -3527    -3622 
   -3659    -3615    -3545    -3508    -3488    -3412    -3300    -3267 
   -3388    -3599    -3757    -3771    -3658    -3510    -3414    -3369 
   -3362    -3429    -3528    -3572    -3553    -3531    -3523    -3523 
   -3545    -3585    -3596    -3534    -3414    -3308    -3318    -3465 
   -3628    -3686    -3635    -3532    -3451    -3426    -3423    -3429 
   -3466    -3549    -3639    -3654    -3566    -3456    -3388    -3377 
   -3412    -3477    -3550    -3596    -3600    -3588    -3549    -3468 
   -3391    -3366    -3395    -3447    -3519    -3616    -3705    -3724 
   -3645    -3518    -3441    -3445    -3460    -3435    -3412    -3469 
   -3608    -3734    -3763    -3654    -3446    -3265    -3176    -3191 
   -3334    -3554    -3715    -3738    -3676    -3597    -3501    -3396 
   -3361    -3415    -3481    -3541    -3615    -3661    -3626    -3534 
   -3454    -3403    -3368    -3388    -3510    -3662    -3738    -3732 
   -3670    -3528    -3342    -3221    -3217    -3295    -3454    -3684 
   -3856    -3846    -3686    -3484    -3322    -3258    -3298    -3388 
   -3456    -3481    -3527    -3639    -3746    -3736    -3601    -3446 
   -3364    -3375    -3442    -3496    -3499    -3485    -3520    -3596 
   -3615    -3537    -3424    -3353    -3346    -3411    -3527    -3628 
   -3682    -3684    -3630    -3539    -3434    -3323    -3261    -3295 
   -3410    -3568    -3715    -3802    -3808    -3709    -3545    -3408 
   -3333    -3314    -3339    -3349    -3341    -3410    -3564    -3677 
   -3658    -3568    -3534    -3565    -3577    -3561    -3569    -3572 
   -3489    -3368    -3339    -3400    -3438    -3453    -3532    -3632 
   -3662    -3667    -3677    -3604    -3439    -3289    -3248    -3325 
   -3433    -3492    -3555    -3663    -3750    -3765    -3723    -3640 
   -3524    -3370    -3244    -3257    -3384    -3515    -3612    -3662 
   -3627    -3534    -3445    -3379    -3322    -3318    -3415    -3573 
   -3692    -3703    -3601    -3466    -3399    -3397    -3424    -3477 
   -3496    -3439    -3435    -3577    -3751    -3808    -3735    -3618 
   -3499    -3369    -3265    -3271    -3385    -3500    -3551    -3570 
   -3607    -3659    -3658    -3549    -3400    -3296    -3246    -3281 
   -3446    -3654    -3743    -3680    -3585    -3526    -3439    -3303 
   -3222    -3283    -3451    -3618    -3751    -3870    -3904    -3766 
   -3520    -3299    -3173    -3167    -3273    -3446    -3593    -3635 
   -3622    -3634    -3627    -3535    -3423    -3397    -3446    -3485 
   -3523    -3616    -3704    -3707    -3632    -3503    -3357    -3267 
   -3262    -3299    -3342    -3450    -3657    -3850    -3896    -3778 
   -3566    -3349    -3215    -3223    -3354    -3510    -3613    -3639 
   -3623    -3646    -3684    -3605    -3446    -3387    -3434    -3447 
   -3406    -3391    -3418    -3430    -3443    -3522    -3645    -3726 
   -3730    -3640    -3465    -3326    -3331    -3437    -3524    -3565 
   -3623    -3712    -3724    -3605    -3420    -3242    -3141    -3177 
   -3308    -3445    -3584    -3758    -3913    -3959    -3861    -3649 
   -3395    -3190    -3125    -3226    -3393    -3538    -3678    -3781 
   -3736    -3570    -3415    -3310    -3252    -3272    -3402    -3595 
   -3728    -3744    -3688    -3581    -3443    -3361    -3395    -3493 
   -3550    -3546    -3549    -3577    -3593    -3584    -3523    -3393 
   -3276    -3291    -3445    -3612    -3643    -3546    -3457    -3453 
   -3523    -3632    -3684    -3605    -3446    -3319    -3304    -3392 
   -3488    -3546    -3631    -3735    -3758    -3661    -3489    -3289 
   -3148    -3186    -3399    -3618    -3723    -3743    -3723    -3674 
   -3618    -3545    -3419    -3275    -3223    -3312    -3453    -3555 
   -3638    -3727    -3759    -3703    -3622    -3538    -3402    -3253 
   -3210    -3304    -3460    -3599    -3699    -3720    -3604    -3414 
   -3333    -3431    -3570    -3591    -3514    -3456    -3439    -3419 
   -3447    -3595    -3763    -3817    -3789    -3740    -3618    -3365 
   -3064    -2886    -2940    -3206    -3596    -3986    -4206    -4132 
   -3824    -3447    -3142    -3003    -3069    -3279    -3489    -3609 
   -3681    -3755    -3762    -3611    -3341    -3137    -3167    -3396 
   -3670    -3878    -3971    -3910    -3717    -3503    -3354    -3258 
   -3167    -3094    -3141    -3384    -3703    -3881    -3838    -3628 
   -3345    -3160    -3217    -3422    -3564    -3605    -3627    -3661 
   -3713    -3777    -3769    -3609    -3362    -3177    -3165    -3322 
   -3515    -3586    -3499    -3438    -3582    -3777    -3786    -3676 
   -3578    -3468    -3304    -3163    -3146    -3254    -3403    -3532 
   -3647    -3784    -3937    -4035    -3997    -3812    -3515    -3186 
   -2938    -2868    -2990    -3225    -3481    -3713    -3882    -3962 
   -3932    -3770    -3508    -3269    -3190    -3277    -3420    -3508 
   -3531    -3565    -3665    -3792    -3838    -3738    -3493    -3168 
   -2934    -2968    -3241    -3580    -3850    -3986    -3952    -3751 
   -3484    -3300    -3250    -3276    -3326    -3366    -3376    -3410 
   -3570    -3804    -3898    -3800    -3674    -3578    -3442    -3298 
   -3261    -3375    -3507    -3532    -3511    -3501    -3447    -3373 
   -3379    -3461    -3546    -3620    -3699    -3728    -3642    -3500 
   -3438    -3430    -3364    -3302    -3353    -3481    -3613    -3728 
   -3775    -3676    -3451    -3269    -3222    -3246    -3330    -3535 
   -3792    -3924    -3875    -3712    -3526    -3376    -3260    -3144 
   -3106    -3276    -3591    -3846    -3962    -3969    -3858    -3645 
   -3423    -3253    -3136    -3105    -3180    -3321    -3508    -3739 
   -3885    -3820    -3612    -3437    -3364    -3334    -3321    -3379 
   -3488    -3546    -3554    -3565    -3568    -3557    -3557    -3558 
   -3531    -3503    -3535    -3611    -3655    -3615    -3516    -3438 
   -3423    -3453    -3474    -3449    -3433    -3478    -3515    -3516 
   -3547    -3572    -3511    -3408    -3349    -3377    -3483    -3588 
   -3659    -3693    -3645    -3519    -3404    -3334    -3294    -3304 
   -3395    -3570    -3762    -3844    -3780    -3634    -3489    -3392 
   -3326    -3260    -3215    -3261    -3446    -3690    -3842    -3838 
   -3720    -3578    -3461    -3311    -3167    -3214    -3464    -3719 
   -3855    -3865    -3743    -3519    -3283    -3114    -3034    -3051 
   -3214    -3535    -3905    -4109    -4055    -3867    -3676    -3528 
   -3447    -3381    -3260    -3152    -3169    -3287    -3434    -3601 
   -3748    -3798    -3753    -3639    -3456    -3230    -3069    -3113 
   -3356    -3635    -3852    -3991    -3971    -3750    -3447    -3234 
   -3206    -3354    -3593    -3798    -3839    -3643    -3273    -2976 
   -2959    -3126    -3267    -3388    -3601    -3840    -3904    -3782 
   -3646    -3562    -3515    -3527    -3603    -3662    -3615    -3487 
   -3380    -3310    -3245    -3226    -3329    -3542    -3759    -3878 
   -3898    -3850    -3678    -3385    -3157    -3132    -3235    -3352 
   -3493    -3690    -3866    -3912    -3819    -3659    -3468    -3267 
   -3138    -3164    -3334    -3566    -3744    -3812    -3782    -3667 
   -3480    -3262    -3095    -3006    -2970    -3002    -3192    -3530 
   -3854    -3982    -3851    -3546    -3227    -3044    -3034    -3122 
   -3254    -3422    -3577    -3682    -3731    -3723    -3662    -3523 
   -3295    -3073    -2980    -3046    -3235    -3501    -3800    -4077 
   -4274    -4321    -4217    -4036    -3824    -3595    -3391    -3281 
   -3311    -3492    -3755    -3996    -4147    -4140    -3915    -3496 
   -3018    -2663    -2589    -2863    -3403    -4000    -4426    -4577 
   -4479    -4224    -3892    -3496    -3073    -2752    -2627    -2678 
   -2847    -3072    -3308    -3507    -3655    -3816    -4006    -4124 
   -4068    -3790    -3339    -2887    -2559    -2367    -2330    -2517 
   -2967    -3566    -4079    -4341    -4372    -4251    -4029    -3778 
   -3543    -3304    -3053    -2872    -2866    -3060    -3438    -3937 
   -4371    -4536    -4428    -4182    -3886    -3562    -3222    -2934 
   -2813    -2945    -3339    -3856    -4232    -4224    -3800    -3181 
   -2678    -2458    -2461    -2583    -2848    -3291    -3838    -4325 
   -4561    -4453    -4101    -3738    -3570    -3632    -3755    -3753 
   -3613    -3439    -3272    -3114    -3037    -3137    -3408    -3723 
   -3964    -4067    -3933    -3501    -2902    -2371    -2101    -2238 
   -2833    -3712    -4530    -5009    -5035    -4652    -4037    -3422 
   -2975    -2751    -2736    -2884    -3154    -3449    -3613    -3589 
   -3468    -3358    -3310    -3316    -3410    -3673    -4035    -4237 
   -4148    -3861    -3512    -3246    -3187    -3323    -3570    -3848 
   -4023    -3962    -3651    -3187    -2725    -2419    -2384    -2662 
   -3156    -3689    -4144    -4446    -4509    -4315    -3952    -3527 
   -3129    -2841    -2720    -2759    -2883    -3009    -3167    -3489 
   -4027    -4600    -4920    -4820    -4322    -3630    -3084    -2944 
   -3175    -3545    -3852    -3998    -3933    -3665    -3264    -2806 
   -2370    -2122    -2220    -2670    -3325    -3990    -4473    -4641 
   -4504    -4194    -3839    -3507    -3257    -3168    -3233    -3342 
   -3376    -3269    -3071    -2944    -3010    -3267    -3636    -3993 
   -4198    -4170    -3910    -3496    -3083    -2829    -2783    -2924 
   -3275    -3831    -4440    -4818    -4753    -4271    -3588    -2978 
   -2667    -2706    -2948    -3199    -3352    -3391    -3368    -3311 
   -3234    -3188    -3273    -3532    -3885    -4186    -4325    -4221 
   -3885    -3430    -3003    -2759    -2793    -3105    -3611    -4131 
   -4490    -4610    -4452    -4050    -3555    -3148    -2937    -2970 
   -3186    -3422    -3527    -3468    -3343    -3300    -3358    -3397 
   -3357    -3357    -3497    -3697    -3802    -3773    -3700    -3662 
   -3630    -3541    -3391    -3219    -3109    -3133    -3295    -3539 
   -3786    -3962    -3993    -3858    -3623    -3365    -3132    -2948 
   -2829    -2833    -3005    -3303    -3680    -4097    -4440    -4506 
   -4176    -3562    -2938    -2547    -2484    -2714    -3119    -3526 
   -3786    -3852    -3763    -3604    -3451    -3385    -3438    -3522 
   -3538    -3523    -3573    -3672    -3742    -3773    -3780    -3734 
   -3627    -3539    -3515    -3470    -3325    -3141    -3013    -2951 
   -2963    -3137    -3545    -4052    -4376    -4363    -4093    -3740 
   -3424    -3200    -3117    -3176    -3338    -3541    -3689    -3690 
   -3543    -3358    -3253    -3262    -3402    -3681    -3989    -4095 
   -3877    -3451    -3087    -2995    -3225    -3662    -4058    -4203 
   -4082    -3766    -3314    -2833    -2543    -2641    -3107    -3692 
   -4126    -4263    -4072    -3643    -3148    -2791    -2706    -2867 
   -3171    -3539    -3919    -4230    -4379    -4297    -3967    -3457 
   -2949    -2670    -2709    -2975    -3296    -3549    -3674    -3677 
   -3616    -3581    -3639    -3775    -3901    -3929    -3834    -3655 
   -3470    -3352    -3345    -3403    -3423    -3370    -3310    -3294 
   -3323    -3383    -3442    -3468    -3484    -3558    -3704    -3863 
   -3989    -4050    -4009    -3858    -3666    -3512    -3376    -3195 
   -2988    -2822    -2749    -2816    -3084    -3554    -4067    -4384 
   -4378    -4118    -3773    -3451    -3208    -3133    -3280    -3558 
   -3781    -3794    -3589    -3306    -3122    -3137    -3352    -3662 
   -3890    -3913    -3748    -3524    -3361    -3300    -3350    -3457 
   -3480    -3362    -3207    -3140    -3186    -3304    -3478    -3684 
   -3844    -3908    -3873    -3713    -3423    -3088    -2864    -2871 
   -3107    -3433    -3640    -3639    -3543    -3522    -3605    -3727 
   -3823    -3838    -3726    -3518    -3327    -3294    -3507    -3888 
   -4209    -4288    -4102    -3781    -3480    -3250    -3080    -2990 
   -2987    -3018    -3059    -3132    -3250    -3389    -3523    -3638 
   -3709    -3761    -3848    -3946    -3969    -3879    -3693    -3480 
   -3350    -3376    -3542    -3766    -3955    -4020    -3906    -3634 
   -3299    -3006    -2821    -2794    -2936    -3164    -3346    -3431 
   -3466    -3501    -3568    -3685    -3839    -3994    -4077    -3981 
   -3682    -3296    -2994    -2867    -2889    -2974    -3079    -3203 
   -3321    -3408    -3522    -3713    -3909    -3973    -3847    -3605 
   -3381    -3280    -3334    -3531    -3808    -4041    -4131    -4068 
   -3865    -3542    -3221    -3022    -2948    -2980    -3164    -3495 
   -3861    -4126    -4179    -3973    -3555    -3095    -2829    -2934 
   -3415    -4078    -4584    -4630    -4125    -3244    -2331    -1759 
   -1763    -2311    -3171    -4090    -4850    -5247    -5165    -4627 
   -3844    -3137    -2718    -2633    -2855    -3292    -3773    -4081 
   -4087    -3840    -3499    -3211    -3075    -3118    -3279    -3458 
   -3591    -3613    -3507    -3331    -3179    -3111    -3132    -3213 
   -3349    -3532    -3701    -3802    -3834    -3821    -3792    -3727 
   -3624    -3531    -3431    -3241    -2980    -2790    -2821    -3132 
   -3661    -4272    -4768    -4945    -4700    -4091    -3322    -2663 
   -2303    -2297    -2610    -3102    -3586    -3909    -3985    -3835 
   -3582    -3362    -3276    -3338    -3492    -3692    -3852    -3871 
   -3740    -3545    -3373    -3280    -3262    -3276    -3300    -3360 
   -3449    -3516    -3523    -3456    -3342    -3241    -3225    -3388 
   -3773    -4233    -4525    -4502    -4183    -3692    -3191    -2849 
   -2766    -2902    -3152    -3458    -3769    -3977    -3997    -3847 
   -3588    -3269    -2995    -2887    -2947    -3090    -3283    -3508 
   -3690    -3792    -3858    -3923    -3963    -3936    -3835    -3674 
   -3470    -3296    -3257    -3372    -3581    -3801    -3928    -3905 
   -3781    -3604    -3400    -3223    -3146    -3191    -3292    -3356 
   -3334    -3253    -3208    -3275    -3462    -3735    -3960    -3939 
   -3645    -3262    -2968    -2835    -2868    -3028    -3231    -3431 
   -3626    -3834    -4033    -4139    -4047    -3735    -3321    -2991 
   -2911    -3122    -3501    -3877    -4122    -4180    -4055    -3767 
   -3362    -2999    -2871    -3042    -3430    -3879    -4218    -4318 
   -4155    -3804    -3415    -3154    -3100    -3188    -3288    -3325 
   -3288    -3186    -3086    -3098    -3269    -3558    -3883    -4149 
   -4247    -4059    -3577    -3003    -2612    -2546    -2799    -3300 
   -3900    -4367    -4515    -4340    -3977    -3564    -3194    -2944 
   -2856    -2910    -3080    -3373    -3751    -4077    -4217    -4155 
   -3954    -3692    -3438    -3214    -3022    -2909    -2905    -2990 
   -3152    -3377    -3605    -3793    -3963    -4106    -4139    -4004 
   -3743    -3454    -3215    -3095    -3156    -3366    -3632    -3859 
   -3956    -3888    -3703    -3500    -3314    -3141    -3045    -3102 
   -3277    -3469    -3632    -3743    -3739    -3608    -3468    -3435 
   -3499    -3580    -3628    -3628    -3562    -3424    -3280    -3222 
   -3241    -3234    -3192    -3200    -3298    -3445    -3564    -3586 
   -3523    -3437    -3402    -3480    -3639    -3767    -3797    -3747 
   -3678    -3631    -3615    -3651    -3763    -3883    -3912    -3840 
   -3716    -3526    -3211    -2841    -2610    -2627    -2849    -3225 
   -3674    -4072    -4328    -4368    -4163    -3785    -3380    -3082 
   -2961    -3040    -3283    -3576    -3780    -3874    -3920    -3905 
   -3777    -3577    -3402    -3283    -3190    -3115    -3078    -3083 
   -3150    -3311    -3545    -3788    -3966    -4025    -3942    -3720 
   -3458    -3291    -3265    -3352    -3493    -3613    -3663    -3651 
   -3616    -3578    -3539    -3480    -3397    -3325    -3318    -3396 
   -3526    -3676    -3808    -3839    -3701    -3449    -3219    -3092 
   -3065    -3150    -3342    -3553    -3681    -3721    -3705    -3615 
   -3443    -3254    -3167    -3249    -3447    -3655    -3804    -3836 
   -3716    -3480    -3262    -3184    -3264    -3457    -3690    -3848 
   -3839    -3697    -3537    -3412    -3316    -3292    -3391    -3565 
   -3711    -3744    -3636    -3420    -3175    -3009    -3029    -3253 
   -3605    -3963    -4191    -4201    -3983    -3616    -3231    -2991 
   -3003    -3260    -3650    -4017    -4221    -4190    -3925    -3520 
   -3145    -2929    -2914    -3094    -3392    -3686    -3856    -3829 
   -3640    -3416    -3287    -3310    -3474    -3715    -3933    -4025 
   -3917    -3622    -3262    -2995    -2889    -2944    -3133    -3385 
   -3605    -3708    -3628    -3388    -3095    -2903    -2934    -3192 
   -3565    -3906    -4091    -4075    -3919    -3719    -3546    -3442 
   -3418    -3465    -3568    -3696    -3792    -3790    -3672    -3468 
   -3264    -3149    -3154    -3241    -3337    -3416    -3493    -3573 
   -3635    -3676    -3721    -3774    -3785    -3721    -3601    -3465 
   -3370    -3358    -3404    -3449    -3477    -3512    -3538    -3528 
   -3496    -3470    -3450    -3415    -3376    -3393    -3470    -3550 
   -3607    -3643    -3649    -3603    -3478    -3306    -3194    -3223 
   -3399    -3677    -3944    -4054    -3944    -3684    -3389    -3142 
   -2975    -2883    -2875    -2980    -3194    -3476    -3793    -4098 
   -4290    -4288    -4104    -3792    -3416    -3059    -2839    -2845 
   -3061    -3383    -3720    -4004    -4137    -4099    -3964    -3798 
   -3636    -3520    -3472    -3473    -3473    -3438    -3410    -3451 
   -3561    -3676    -3720    -3651    -3473    -3241    -3059    -3007 
   -3098    -3285    -3488    -3631    -3689    -3667    -3582    -3468 
   -3349    -3262    -3233    -3249    -3318    -3447    -3589    -3699 
   -3757    -3751    -3678    -3570    -3470    -3404    -3402    -3462 
   -3519    -3539    -3559    -3588    -3603    -3591    -3569    -3537 
   -3466    -3383    -3353    -3379    -3402    -3426    -3496    -3595 
   -3666    -3704    -3720    -3693    -3622    -3535    -3466    -3415 
   -3383    -3399    -3462    -3522    -3539    -3526    -3489    -3446 
   -3449    -3507    -3562    -3573    -3550    -3545    -3573    -3597 
   -3605    -3626    -3635    -3566    -3397    -3195    -3067    -3087 
   -3238    -3447    -3653    -3798    -3852    -3825    -3731    -3586 
   -3451    -3387    -3387    -3416    -3458    -3504    -3561    -3616 
   -3635    -3588    -3468    -3322    -3245    -3298    -3453    -3627 
