Origin Time       2024/06/23 22:54:00
Lat.              35.645
Long.             140.060
Depth. (km)       72
Mag.              4.1
Station Code      CHBH13
Station Lat.      35.8307
Station Long.     140.2980
Station Height(m) 12
Record Time       2024/06/23 22:54:35
Sampling Freq(Hz) 100Hz
Duration Time(s)  120
Dir.              5
Scale Factor      7845(gal)/8223790
Max. Acc. (gal)   3.618
Last Correction   2024/06/23 22:54:36
Memo.             
[...]
   -1325    -1333    -1339    -1333    -1318    -1321    -1339    -1329 
   -1314    -1321    -1327    -1328    -1341    -1339    -1328    -1340 
   -1344    -1324    -1324    -1336    -1321    -1318    -1339    -1335 
   -1324    -1329    -1328    -1333    -1344    -1333    -1329    -1347 
   -1340    -1308    -1308    -1331    -1329    -1325    -1337    -1343 
   -1343    -1343    -1335    -1328    -1323    -1316    -1327    -1336 
   -1321    -1323    -1347    -1350    -1335    -1329    -1325    -1329 
   -1341    -1335    -1323    -1335    -1345    -1327    -1310    -1320 
   -1333    -1331    -1321    -1328    -1345    -1337    -1327    -1333 
   -1336    -1336    -1340    -1339    -1336    -1324    -1314    -1324 
   -1333    -1333    -1328    -1321    -1328    -1339    -1336    -1332 
   -1332    -1332    -1331    -1329    -1332    -1329    -1324    -1325 
   -1328    -1329    -1341    -1343    -1331    -1336    -1336    -1324 
   -1333    -1336    -1323    -1325    -1329    -1328    -1329    -1324 
   -1331    -1344    -1337    -1327    -1324    -1325    -1327    -1332 
   -1340    -1332    -1325    -1339    -1339    -1331    -1340    -1331 
   -1321    -1329    -1327    -1318    -1324    -1339    -1347    -1336 
   -1329    -1331    -1320    -1324    -1336    -1331    -1328    -1336 
   -1341    -1339    -1335    -1333    -1340    -1347    -1327    -1306 
   -1321    -1328    -1318    -1335    -1340    -1323    -1325    -1332 
   -1332    -1343    -1343    -1335    -1335    -1323    -1308    -1325 
   -1345    -1335    -1328    -1331    -1324    -1329    -1332    -1324 
   -1336    -1341    -1328    -1323    -1324    -1327    -1332    -1331 
   -1323    -1325    -1336    -1336    -1337    -1344    -1336    -1335 
   -1337    -1323    -1312    -1323    -1333    -1335    -1333    -1340 
   -1332    -1318    -1328    -1335    -1335    -1337    -1332    -1325 
   -1323    -1318    -1324    -1336    -1344    -1341    -1329    -1324 
   -1328    -1331    -1331    -1332    -1332    -1331    -1328    -1328 
   -1325    -1321    -1328    -1331    -1327    -1331    -1339    -1340 
   -1337    -1337    -1335    -1327    -1331    -1333    -1320    -1314 
   -1327    -1332    -1328    -1329    -1336    -1340    -1343    -1345 
   -1336    -1324    -1327    -1329    -1325    -1325    -1331    -1329 
   -1317    -1318    -1341    -1350    -1337    -1328    -1328    -1337 
   -1344    -1337    -1329    -1329    -1332    -1325    -1323    -1329 
   -1331    -1331    -1332    -1325    -1324    -1331    -1339    -1343 
   -1341    -1336    -1327    -1317    -1327    -1329    -1320    -1327 
   -1341    -1344    -1328    -1325    -1348    -1351    -1327    -1321 
   -1332    -1327    -1313    -1321    -1333    -1329    -1332    -1337 
   -1335    -1339    -1341    -1336    -1335    -1335    -1332    -1318 
   -1306    -1317    -1336    -1340    -1340    -1345    -1340    -1317 
   -1317    -1343    -1347    -1335    -1333    -1332    -1325    -1317 
   -1320    -1336    -1337    -1328    -1329    -1332    -1328    -1332 
   -1344    -1345    -1328    -1320    -1331    -1339    -1332    -1324 
   -1333    -1336    -1317    -1314    -1327    -1332    -1345    -1351 
   -1341    -1333    -1323    -1314    -1321    -1329    -1333    -1332 
   -1325    -1329    -1341    -1335    -1327    -1337    -1341    -1331 
   -1332    -1336    -1331    -1323    -1317    -1328    -1337    -1331 
   -1327    -1331    -1332    -1332    -1329    -1333    -1340    -1329 
   -1314    -1318    -1324    -1325    -1339    -1344    -1328    -1327 
   -1336    -1324    -1316    -1327    -1340    -1345    -1339    -1328 
   -1320    -1320    -1329    -1333    -1335    -1335    -1329    -1329 
   -1333    -1328    -1335    -1345    -1328    -1308    -1321    -1335 
   -1329    -1329    -1337    -1337    -1325    -1317    -1324    -1327 
   -1328    -1339    -1339    -1329    -1327    -1321    -1324    -1336 
   -1336    -1333    -1335    -1317    -1304    -1320    -1337    -1343 
   -1345    -1336    -1332    -1335    -1321    -1313    -1325    -1333 
   -1329    -1320    -1321    -1332    -1329    -1327    -1343    -1354 
   -1343    -1325    -1316    -1320    -1321    -1317    -1321    -1331 
   -1325    -1318    -1329    -1341    -1348    -1350    -1348    -1341 
   -1316    -1302    -1321    -1317    -1309    -1329    -1339    -1332 
   -1332    -1333    -1340    -1348    -1343    -1336    -1333    -1323 
   -1309    -1306    -1318    -1331    -1332    -1332    -1336    -1339 
   -1341    -1343    -1345    -1341    -1329    -1323    -1312    -1305 
   -1316    -1324    -1331    -1341    -1344    -1335    -1320    -1324 
   -1345    -1348    -1328    -1324    -1333    -1318    -1304    -1320 
   -1329    -1327    -1335    -1329    -1320    -1323    -1318    -1320 
   -1336    -1355    -1367    -1355    -1345    -1350    -1344    -1332 
   -1314    -1278    -1240    -1243    -1273    -1287    -1320    -1381 
   -1401    -1410    -1440    -1420    -1395    -1412    -1352    -1258 
   -1233    -1177    -1132    -1225    -1366    -1536    -1640    -1436 
   -1107     -969    -1054    -1383    -1714    -1713    -1553    -1370 
   -1104     -931     -946    -1219    -1756    -2049    -1790    -1232 
    -545     -121     -518    -1489    -2323    -2658    -2322    -1513 
    -831     -437     -238     -594    -1495    -2236    -2415    -1952 
    -939      -43       68     -625    -1810    -2925    -3273    -2617 
   -1358     -164      548      591     -209    -1621    -2922    -3415 
   -2832    -1537     -307      268       41     -882    -2076    -2772 
   -2641    -1904     -757      176      141     -623    -1557    -2374 
   -2654    -2281    -1571     -774     -234     -322     -988    -1794 
   -2268    -2196    -1630     -885     -463     -530     -824    -1219 
   -1691    -2020    -2089    -1890    -1394     -889     -715     -880 
   -1250    -1537    -1499    -1289    -1115    -1048    -1135    -1324 
   -1545    -1752    -1898    -1930    -1744    -1410    -1104     -818 
    -650     -749    -1105    -1688    -2218    -2320    -1941    -1154 
    -313      -51     -513    -1425    -2448    -2986    -2648    -1686 
    -526      364      415     -419    -1534    -2488    -2924    -2334 
    -989      102      353     -278    -1470    -2570    -3083    -2860 
   -2035    -1038     -213      237       40     -839    -1944    -2609 
   -2444    -1648     -808     -392     -521    -1013    -1594    -2087 
   -2315    -2122    -1607    -1104     -835     -715     -654     -805 
   -1296    -1921    -2246    -2035    -1468     -892     -608     -754 
   -1154    -1498    -1667    -1692    -1534    -1161     -865    -1067 
   -1661    -2002    -1714    -1161     -724     -398     -384     -901 
   -1597    -2083    -2142    -1702    -1179     -982    -1113    -1395 
   -1455    -1291    -1358    -1552    -1620    -1598    -1337     -973 
    -873    -1021    -1351    -1709    -1898    -1968    -1790    -1291 
    -873     -837    -1081    -1320    -1337    -1296    -1426    -1628 
   -1756    -1767    -1529    -1024     -480     -280     -710    -1532 
   -2127    -2141    -1721    -1260     -993     -915     -949    -1074 
   -1364    -1691    -1744    -1552    -1273     -919     -770    -1054 
   -1428    -1624    -1696    -1483    -1038     -884    -1129    -1491 
   -1819    -1830    -1448    -1102     -974     -959    -1078    -1328 
   -1674    -1957    -1825    -1266     -800     -858    -1281    -1521 
   -1401    -1256    -1300    -1444    -1561    -1512    -1285    -1067 
   -1036    -1244    -1543    -1744    -1844    -1699    -1215     -800 
    -731     -922    -1325    -1698    -1802    -1651    -1300    -1084 
   -1192    -1267    -1304    -1414    -1282    -1116    -1404    -1800 
   -1834    -1537    -1066     -747     -812    -1031    -1277    -1593 
   -1660    -1298     -893     -747     -900    -1347    -1852    -2119 
   -2104    -1846    -1479    -1277    -1297    -1340    -1325    -1198 
    -882     -554     -446     -608    -1026    -1605    -2047    -2072 
   -1822    -1634    -1470    -1244    -1223    -1412    -1483    -1429 
   -1337    -1077     -719     -491     -472     -743    -1206    -1655 
   -2123    -2451    -2416    -2126    -1599    -1015     -684     -538 
    -656    -1054    -1313    -1479    -1678    -1541    -1224    -1125 
   -1151    -1327    -1701    -2014    -2077    -1777    -1239     -909 
    -859     -716     -606     -947    -1501    -1726    -1696    -1717 
   -1576    -1129     -768     -704     -911    -1551    -2409    -2740 
   -2246    -1318     -540     -357     -693    -1088    -1300    -1395 
   -1480    -1462    -1237    -1089    -1317    -1686    -1721    -1506 
   -1543    -1826    -1921    -1620     -986     -395     -328     -787 
   -1329    -1584    -1425     -985     -758    -1139    -1721    -1933 
   -1906    -1764    -1391    -1001     -715     -544     -845    -1576 
   -2088    -2012    -1530    -1027     -699     -641     -972    -1505 
   -2011    -2401    -2342    -1783    -1143     -711     -745    -1233 
   -1733    -2008    -1937    -1502    -1101     -847     -621     -639 
    -904    -1260    -1856    -2478    -2498    -1840    -1078     -657 
    -546     -533     -623     -999    -1512    -1711    -1402     -873 
    -653     -965    -1502    -1876    -1976    -1827    -1499    -1212 
   -1173    -1321    -1440    -1404    -1255    -1125    -1067    -1058 
   -1186    -1420    -1467    -1335    -1256    -1246    -1321    -1447 
   -1507    -1574    -1602    -1551    -1593    -1595    -1421    -1439 
   -1652    -1556    -1181     -881     -629     -457     -635    -1197 
   -1910    -2386    -2334    -1898    -1368     -904     -652     -750 
   -1192    -1536    -1332     -893     -594     -444     -710    -1297 
   -1603    -1568    -1462    -1389    -1362    -1331    -1480    -1944 
   -2288    -2134    -1663    -1155     -749     -653    -1012    -1543 
   -1833    -1788    -1503    -1109     -828     -928    -1431    -1973 
   -2180    -1911    -1304     -822     -716     -707     -656     -831 
   -1335    -1819    -1929    -1761    -1653    -1702    -1630    -1188 
    -693     -723    -1142    -1339    -1274    -1331    -1561    -1686 
   -1449     -972     -711     -912    -1389    -1740    -1679    -1468 
   -1471    -1503    -1398    -1389    -1529    -1601    -1518    -1328 
   -1089     -963    -1003    -1053    -1124    -1244    -1371    -1609 
   -1819    -1750    -1583    -1463    -1262    -1026     -841     -758 
    -986    -1487    -1803    -1734    -1636    -1683    -1593    -1309 
   -1000     -652     -383     -413     -669    -1044    -1549    -2050 
   -2311    -2234    -1887    -1321     -680     -488    -1017    -1661 
   -1792    -1556    -1312    -1044     -814     -981    -1503    -1890 
   -1918    -1644    -1198     -858     -810    -1038    -1402    -1692 
   -1822    -1768    -1470    -1070     -931    -1125    -1348    -1441 
   -1445    -1356    -1332    -1472    -1485    -1333    -1336    -1439 
   -1431    -1341    -1287    -1378    -1510    -1471    -1283    -1078 
    -992    -1085    -1219    -1335    -1408    -1293    -1167    -1366 
   -1694    -1738    -1521    -1263     -992     -768     -751     -924 
   -1215    -1543    -1787    -1923    -1831    -1467    -1163    -1057 
   -1113    -1416    -1606    -1345     -955     -733     -700     -930 
   -1351    -1744    -1899    -1745    -1528    -1437    -1313    -1179 
   -1286    -1528    -1660    -1605    -1402    -1281    -1309    -1260 
    -997     -673     -749    -1296    -1699    -1668    -1401    -1066 
    -920    -1039    -1244    -1556    -1966    -2212    -2050    -1513 
   -1048    -1003    -1225    -1533    -1744    -1599    -1271    -1069 
    -839     -522     -471     -783    -1193    -1520    -1733    -1860 
   -1880    -1703    -1393    -1150    -1082    -1190    -1387    -1509 
   -1547    -1541    -1348    -1030     -927    -1101    -1390    -1674 
   -1753    -1533    -1196     -961     -913    -1069    -1313    -1451 
   -1378    -1155     -980    -1011    -1235    -1551    -1884    -2115 
   -2000    -1563    -1312    -1447    -1563    -1463    -1290    -1116 
   -1011    -1004     -990     -936     -950    -1138    -1381    -1498 
   -1553    -1551    -1354    -1069     -893     -893    -1115    -1447 
   -1699    -1802    -1725    -1628    -1719    -1794    -1648    -1378 
    -999     -703     -862    -1341    -1655    -1597    -1358    -1171 
   -1113    -1301    -1660    -1726    -1382    -1054     -953     -945 
   -1015    -1341    -1831    -1953    -1485     -778     -280     -337 
    -876    -1520    -2119    -2498    -2357    -1729     -962     -460 
    -454     -850    -1340    -1609    -1580    -1429    -1248    -1061 
   -1005    -1115    -1246    -1233     -990     -724     -756    -1042 
   -1374    -1690    -2020    -2290    -2230    -1763    -1209     -857 
    -783     -884     -980    -1093    -1283    -1425    -1494    -1528 
   -1414    -1165    -1036    -1154    -1444    -1846    -2309    -2737 
   -2980    -2876    -2432    -1844    -1344    -1109    -1077     -986 
    -730     -446     -310     -382     -714    -1262    -1765    -2170 
   -2575    -2694    -2350    -1861    -1420     -901     -207      548 
    1082     1306     1437     1498     1134      125    -1270    -2600 
   -3607    -4174    -4225    -3796    -2975    -2010    -1409    -1324 
   -1231     -756     -152      229      344      255     -232    -1437 
   -3141    -4563    -5124    -4827    -3989    -2949    -1953    -1027 
     -59      892     1611     1975     1925     1383      422     -743 
   -1892    -2729    -3026    -2845    -2438    -2065    -1860    -1885 
   -2223    -2670    -2799    -2439    -1607     -602     -130     -545 
   -1251    -1305     -525      371      773      614      -29     -864 
   -1424    -1605    -1579    -1379    -1162    -1331    -1846    -2115 
   -1906    -1540    -1255    -1150    -1256    -1444    -1641    -1850 
   -2038    -2344    -2847    -3287    -3261    -2540    -1409     -330 
     558     1023      711     -137     -897    -1170     -986     -634 
    -338     -291     -719    -1601    -2511    -2979    -2898    -2475 
   -1898    -1220     -530      -20      167      -37     -691    -1652 
   -2552    -3140    -3380    -3273    -2924    -2563    -2285    -1961 
   -1455     -737       74      762     1127      981      346     -353 
    -814    -1194    -1698    -2403    -3242    -3856    -3989    -3804 
   -3346    -2408    -1015      419     1321     1472     1194      684 
     -98     -942    -1567    -1908    -1988    -1907    -1814    -1814 
   -1845    -1717    -1502    -1343    -1069     -679     -546     -792 
   -1189    -1566    -1881    -2114    -2308    -2602    -3065    -3408 
   -3123    -2180    -1084     -229      260      375      145     -346 
    -868    -1210    -1425    -1555    -1495    -1225     -938     -889 
   -1067    -1282    -1467    -1551    -1401     -997     -534     -475 
   -1098    -2100    -3002    -3466    -3312    -2606    -1540     -411 
     421      738      418     -405    -1300    -2064    -2625    -2697 
   -2134    -1193     -405     -175     -353     -499     -449     -371 
    -463     -751    -1208    -1887    -2783    -3630    -3905    -3318 
   -2235    -1327     -857     -560     -303     -340     -684    -1115 
   -1571    -1961    -2143    -2073    -1738    -1263     -837     -610 
    -683     -800     -675     -515     -623    -1071    -1746    -2293 
   -2532    -2735    -2988    -2965    -2447    -1494     -457       86 
     -68     -510     -857    -1085    -1173     -972     -510      -87 
     -82     -650    -1456    -1989    -2165    -2178    -2093    -1921 
   -1769    -1694    -1579    -1267     -718      -87      221     -128 
    -920    -1626    -2022    -2243    -2473    -2694    -2733    -2512 
   -2089    -1475     -614      338     1078     1440     1283      594 
    -396    -1441    -2363    -3096    -3619    -3736    -3356    -2662 
   -1895    -1204     -589     -178     -214     -607    -1030    -1378 
   -1752    -2197    -2632    -2978    -3237    -3334    -3037    -2205 
   -1015      122      815      922      602      114     -342     -562 
    -445     -206     -148     -382     -816    -1242    -1574    -1914 
   -2188    -2205    -2087    -1996    -1833    -1582    -1453    -1657 
   -2166    -2601    -2612    -2199    -1533     -784     -152      106 
    -106     -577    -1050    -1363    -1449    -1597    -2031    -2344 
   -2146    -1675    -1275    -1016     -800     -648     -745    -1067 
   -1341    -1377    -1194    -1082    -1309    -1725    -2049    -2313 
   -2563    -2573    -2224    -1672    -1085     -626     -390     -305 
    -355     -654    -1210    -1737    -1849    -1606    -1386    -1262 
   -1039     -735     -614     -808    -1182    -1502    -1539    -1251 
    -861     -583     -592    -1054    -1875    -2693    -3078    -2859 
   -2335    -1923    -1736    -1669    -1571    -1354    -1136    -1048 
   -1050    -1086    -1185    -1297    -1345    -1318    -1270    -1343 
   -1591    -1752    -1561    -1181     -909     -756     -610     -514 
    -433     -217       55      151      -51     -591    -1328    -1964 
   -2407    -2631    -2492    -2111    -1788    -1576    -1417    -1340 
   -1260    -1039     -742     -557     -523     -587     -835    -1345 
   -1871    -2196    -2417    -2554    -2515    -2363    -2160    -1914 
   -1779    -1868    -1981    -1861    -1582    -1277     -891     -479 
    -217      -68       94      292      469      430     -102    -1071 
   -2012    -2589    -2785    -2654    -2274    -1765    -1343    -1220 
   -1275    -1242    -1089     -950     -967    -1165    -1305    -1240 
   -1204    -1422    -1732    -1849    -1694    -1274     -716     -326 
    -318     -638    -1193    -1917    -2586    -2874    -2717    -2381 
   -1999    -1506     -999     -660     -583     -781    -1065    -1266 
   -1433    -1544    -1520    -1422    -1328    -1286    -1350    -1525 
   -1783    -2027    -2060    -1672     -920     -201      145      147 
     -39     -398     -926    -1464    -1771    -1757    -1578    -1445 
   -1437    -1459    -1398    -1339    -1453    -1686    -1826    -1773 
   -1625    -1598    -1795    -2134    -2424    -2436    -2145    -1721 
   -1258     -757     -249      182      459      556      444       90 
    -504    -1225    -1879    -2381    -2739    -2898    -2813    -2524 
   -2164    -1815    -1416     -959     -545     -317     -421     -737 
   -1036    -1385    -1852    -2207    -2315    -2349    -2405    -2322 
   -1977    -1490     -972     -423        2      109      -35     -271 
    -571     -873    -1081    -1255    -1486    -1729    -1995    -2349 
   -2675    -2867    -2932    -2783    -2347    -1760    -1215     -849 
    -684     -634     -715     -927    -1055     -978     -747     -454 
    -278     -249     -193     -103     -139     -440    -1098    -1933 
   -2593    -2974    -3130    -3057    -2805    -2489    -2137    -1779 
   -1414     -982     -603     -417     -338     -268     -147       98 
     313      214     -238     -932    -1713    -2309    -2569    -2589 
   -2474    -2335    -2324    -2362    -2230    -1881    -1382     -868 
    -584     -612     -761     -900    -1138    -1512    -1809    -1914 
