Origin Time       2024/06/23 22:54:00
Lat.              35.645
Long.             140.060
Depth. (km)       72
Mag.              4.1
Station Code      CHBH10
Station Lat.      35.5458
Station Long.     140.2417
Station Height(m) 65
Record Time       2024/06/23 22:54:35
Sampling Freq(Hz) 100Hz
Duration Time(s)  120
Dir.              6
Scale Factor      7845(gal)/8223790
Max. Acc. (gal)   3.329
Last Correction   2024/06/23 22:54:35
Memo.             
[...]
   -5246    -5243    -5244    -5248    -5248    -5243    -5242    -5246 
   -5246    -5247    -5247    -5244    -5250    -5251    -5240    -5239 
   -5250    -5251    -5248    -5243    -5242    -5247    -5246    -5240 
   -5242    -5246    -5248    -5248    -5244    -5243    -5246    -5246 
   -5242    -5243    -5244    -5246    -5247    -5244    -5244    -5244 
   -5239    -5240    -5247    -5248    -5248    -5247    -5246    -5246 
   -5244    -5248    -5250    -5244    -5246    -5246    -5240    -5242 
   -5248    -5252    -5251    -5246    -5242    -5244    -5250    -5247 
   -5242    -5240    -5244    -5247    -5247    -5247    -5247    -5250 
   -5246    -5239    -5246    -5252    -5244    -5239    -5243    -5248 
   -5247    -5242    -5238    -5244    -5251    -5248    -5246    -5244 
   -5246    -5246    -5242    -5240    -5247    -5250    -5247    -5244 
   -5242    -5244    -5247    -5242    -5243    -5246    -5243    -5242 
   -5240    -5243    -5248    -5247    -5240    -5242    -5247    -5244 
   -5242    -5240    -5239    -5248    -5251    -5242    -5242    -5247 
   -5246    -5242    -5239    -5246    -5251    -5244    -5240    -5240 
   -5247    -5251    -5243    -5239    -5242    -5242    -5242    -5242 
   -5242    -5244    -5240    -5238    -5242    -5243    -5242    -5243 
   -5240    -5239    -5242    -5247    -5246    -5240    -5244    -5247 
   -5244    -5243    -5243    -5243    -5246    -5246    -5243    -5244 
   -5246    -5244    -5240    -5239    -5242    -5247    -5244    -5239 
   -5242    -5247    -5244    -5239    -5239    -5242    -5244    -5240 
   -5239    -5243    -5243    -5239    -5239    -5239    -5243    -5246 
   -5242    -5239    -5238    -5242    -5243    -5242    -5243    -5244 
   -5246    -5240    -5235    -5243    -5246    -5236    -5235    -5239 
   -5244    -5250    -5244    -5239    -5242    -5243    -5240    -5239 
   -5240    -5244    -5246    -5239    -5238    -5244    -5247    -5242 
   -5240    -5243    -5244    -5243    -5243    -5244    -5243    -5242 
   -5242    -5242    -5243    -5247    -5250    -5246    -5242    -5244 
   -5247    -5244    -5242    -5244    -5250    -5248    -5242    -5240 
   -5248    -5248    -5240    -5239    -5244    -5247    -5246    -5239 
   -5236    -5247    -5252    -5244    -5242    -5247    -5251    -5247 
   -5243    -5244    -5248    -5248    -5251    -5254    -5252    -5247 
   -5239    -5238    -5244    -5251    -5250    -5247    -5246    -5247 
   -5248    -5246    -5240    -5244    -5248    -5244    -5242    -5247 
   -5254    -5258    -5250    -5236    -5239    -5251    -5248    -5242 
   -5242    -5248    -5252    -5248    -5244    -5247    -5247    -5247 
   -5247    -5247    -5250    -5252    -5246    -5246    -5254    -5252 
   -5244    -5247    -5252    -5248    -5247    -5251    -5247    -5242 
   -5247    -5250    -5246    -5243    -5242    -5247    -5251    -5243 
   -5240    -5246    -5248    -5248    -5246    -5242    -5246    -5250 
   -5246    -5242    -5248    -5252    -5246    -5244    -5250    -5248 
   -5244    -5242    -5246    -5251    -5246    -5244    -5248    -5247 
   -5243    -5243    -5246    -5248    -5247    -5246    -5247    -5247 
   -5248    -5247    -5242    -5240    -5242    -5246    -5248    -5246 
   -5242    -5248    -5248    -5242    -5240    -5243    -5247    -5248 
   -5243    -5242    -5246    -5246    -5247    -5246    -5243    -5244 
   -5246    -5242    -5238    -5246    -5251    -5244    -5243    -5248 
   -5247    -5244    -5244    -5244    -5244    -5247    -5247    -5243 
   -5242    -5244    -5247    -5247    -5240    -5242    -5247    -5243 
   -5239    -5242    -5243    -5246    -5247    -5242    -5242    -5244 
   -5244    -5244    -5243    -5243    -5244    -5242    -5240    -5243 
   -5243    -5242    -5244    -5247    -5248    -5246    -5243    -5242 
   -5240    -5238    -5239    -5244    -5247    -5244    -5242    -5242 
   -5239    -5236    -5243    -5247    -5242    -5239    -5242    -5242 
   -5240    -5238    -5239    -5246    -5247    -5244    -5244    -5243 
   -5240    -5240    -5238    -5239    -5243    -5243    -5243    -5244 
   -5242    -5238    -5239    -5243    -5246    -5246    -5240    -5239 
   -5246    -5246    -5242    -5239    -5238    -5243    -5247    -5240 
   -5239    -5246    -5246    -5239    -5238    -5235    -5217    -5184 
   -5132    -5084    -5061    -5047    -5009    -4957    -4927    -4949 
   -5067    -5324    -5611    -5788    -5863    -5806    -5582    -5364 
   -5236    -5120    -4990    -4665    -4024    -3491    -3677    -4658 
   -5703    -6089    -5958    -5807    -5779    -5859    -6288    -7238 
   -8023    -7550    -5827    -4139    -3453    -3438    -3523    -4023 
   -5474    -7187    -7620    -6501    -4819    -3204    -2207    -2506 
   -4050    -5956    -7213    -7655    -7582    -6870    -5651    -4461 
   -3909    -4401    -4779    -3682    -2563    -3415    -5325    -6389 
   -6450    -6562    -6856    -6292    -5043    -4479    -4930    -5691 
   -5771    -4942    -4345    -4558    -5076    -5598    -5721    -5387 
   -5132    -4827    -4614    -5007    -5017    -4099    -3858    -5063 
   -6382    -6623    -6088    -6027    -6789    -6957    -5579    -3743 
   -2835    -3103    -4090    -5158    -6084    -6755    -6579    -5622 
   -4912    -4824    -4973    -5286    -5653    -5643    -5354    -5113 
   -4981    -5081    -5074    -4583    -4280    -4673    -5192    -5363 
   -5587    -6149    -6419    -6083    -5644    -5420    -5379    -5235 
   -4858    -4773    -5113    -5247    -4876    -4429    -4606    -5177 
   -5206    -4993    -5220    -5530    -5537    -5232    -5090    -5649 
   -6193    -5952    -5387    -4980    -4835    -4860    -4718    -4733 
   -5335    -5895    -5877    -5560    -5235    -5120    -5228    -5136 
   -4938    -5263    -5991    -6254    -5625    -4792    -4737    -5281 
   -5526    -5316    -5197    -5440    -5508    -4873    -4168    -4153 
   -4490    -4714    -4900    -5144    -5314    -5130    -4845    -5211 
   -6150    -6805    -6750    -6218    -5699    -5377    -4978    -4514 
   -4425    -4685    -4982    -5227    -5138    -4895    -5040    -5134 
   -4990    -5167    -5363    -5173    -4891    -4758    -4989    -5508 
   -5879    -6079    -6147    -5778    -5165    -4864    -4760    -4662 
   -4899    -5362    -5617    -5653    -5494    -5292    -5398    -5647 
   -5768    -5837    -5680    -5144    -4417    -3885    -4023    -4665 
   -5182    -5632    -6266    -6523    -5807    -4730    -4456    -4992 
   -5287    -5022    -4892    -5216    -5611    -5703    -5483    -5263 
   -5121    -4839    -4627    -4823    -5235    -5448    -5370    -5429 
   -5729    -5509    -4762    -4637    -5333    -5722    -5223    -4626 
   -4837    -5590    -6060    -5944    -5454    -5081    -5016    -4743 
   -4284    -4391    -5034    -5806    -6640    -6987    -6336    -5270 
   -4641    -4572    -4600    -4469    -4688    -5653    -6651    -6664 
   -5614    -4299    -3462    -3474    -4388    -5630    -6507    -6733 
   -6146    -5204    -4745    -4711    -4760    -4770    -4338    -3700 
   -3888    -4884    -5819    -6525    -6880    -6507    -5829    -5301 
   -4839    -4648    -4758    -4880    -4928    -4808    -4990    -5969 
   -6697    -6072    -4764    -4245    -4907    -5599    -5489    -5062 
   -4808    -4739    -4735    -4854    -5451    -6226    -6369    -5934 
   -5705    -6041    -6205    -5449    -4611    -4730    -5081    -4791 
   -4517    -5081    -6095    -6301    -5316    -4519    -4564    -4268 
   -3364    -3057    -3898    -5174    -6019    -6426    -6656    -6558 
   -6072    -5398    -4945    -5116    -5703    -6123    -5805    -4869 
   -4567    -5274    -5887    -5755    -4872    -3744    -3496    -4295 
   -5127    -5424    -5520    -5892    -6424    -6481    -5895    -5211 
   -4924    -4935    -4735    -4294    -4175    -4666    -5562    -6258 
   -6089    -5458    -5459    -5775    -5371    -4685    -4463    -4486 
   -4720    -5324    -5833    -5748    -5328    -5166    -5312    -5290 
   -4957    -4839    -5227    -5674    -5748    -5432    -5017    -5001 
   -5427    -5570    -5065    -4469    -4324    -4702    -5193    -5317 
   -5360    -5499    -5358    -5251    -5607    -5946    -5791    -5323 
   -5011    -5112    -5360    -5371    -5144    -4785    -4429    -4341 
   -4384    -4414    -4934    -5957    -6625    -6818    -7032    -6912 
   -6064    -5104    -4677    -4757    -4943    -4909    -4868    -5104 
   -5275    -5208    -5142    -4810    -4114    -3781    -4201    -5115 
   -6012    -6384    -6253    -5971    -5753    -5517    -5057    -4789 
   -5085    -5413    -5464    -5499    -5420    -4934    -4367    -4359 
   -4797    -4887    -4492    -4384    -4986    -5879    -6480    -6623 
   -6579    -6490    -6045    -5231    -4525    -4176    -4068    -3993 
   -3986    -4318    -5071    -5872    -6276    -6384    -6289    -5778 
   -5312    -5323    -5123    -4359    -3809    -4206    -5343    -6184 
   -6091    -5628    -5514    -5656    -5479    -4787    -4110    -4160 
   -5007    -5980    -6440    -6363    -6015    -5475    -4819    -4409 
   -4301    -4135    -4178    -4758    -5395    -5799    -6033    -5998 
   -5815    -5471    -4741    -4098    -4409    -5610    -6615    -6723 
   -6247    -5590    -4820    -4104    -3824    -4147    -4773    -5285 
   -5493    -5572    -5819    -6174    -6316    -6050    -5543    -5094 
   -4723    -4483    -4563    -4892    -5317    -5749    -5923    -5746 
   -5462    -5055    -4530    -4453    -4947    -5293    -5247    -5193 
   -5242    -5445    -5911    -6340    -6243    -5400    -4291    -3890 
   -4353    -5044    -5661    -5873    -5481    -5155    -5143    -4932 
   -4826    -5242    -5532    -5354    -5136    -4997    -4972    -5225 
   -5475    -5432    -5331    -5421    -5629    -5614    -5252    -4953 
   -4953    -5001    -4892    -4688    -4672    -4899    -5201    -5641 
   -6016    -5861    -5478    -5539    -5817    -5692    -5278    -5027 
   -5157    -5478    -5462    -5073    -4800    -4754    -4779    -4808 
   -4791    -4820    -4905    -4899    -5074    -5680    -6166    -6126 
   -5834    -5325    -4606    -4267    -4583    -5189    -5759    -5933 
   -5628    -5354    -5202    -4923    -4734    -4716    -4756    -4980 
   -5360    -5803    -6235    -6303    -5960    -5745    -5829    -5834 
   -5448    -4664    -4056    -4309    -5013    -5332    -5282    -5124 
   -4827    -4657    -4936    -5476    -5919    -6092    -5884    -5354 
   -4858    -4669    -4649    -4563    -4477    -4692    -5254    -5991 
   -6797    -7231    -6799    -5741    -4567    -3758    -3796    -4372 
   -4827    -5127    -5359    -5381    -5109    -4845    -5185    -5908 
   -6079    -5760    -5663    -5746    -5641    -5204    -4561    -4320 
   -4706    -4999    -4892    -4850    -4876    -4818    -4962    -5373 
   -5837    -6116    -6072    -6142    -6640    -6851    -6169    -5046 
   -4125    -3646    -3570    -3601    -3815    -4681    -5756    -6166 
   -6138    -6235    -6461    -6507    -5798    -4270    -2963    -2567 
   -2660    -3014    -3748    -4619    -5420    -6218    -7024    -7720 
   -7933    -7353    -6303    -5356    -4712    -4455    -4658    -5165 
   -5738    -6073    -5925    -5621    -5636    -5776    -5568    -5040 
   -4522    -4126    -3917    -4036    -4518    -5229    -5869    -6181 
   -6300    -6421    -6245    -5390    -4159    -3366    -3505    -4199 
   -4695    -4949    -5526    -6361    -6724    -6304    -5479    -4818 
   -4465    -4117    -3932    -4486    -5644    -6616    -6859    -6583 
   -6242    -5678    -4766    -4145    -4255    -4766    -5281    -5629 
   -5668    -5440    -5175    -4922    -4712    -4822    -5167    -5232 
   -5078    -5246    -5695    -6015    -6149    -6226    -6130    -5603 
   -4746    -4045    -3820    -4062    -4583    -4924    -4846    -4818 
   -5170    -5510    -5587    -5665    -5929    -6258    -6339    -5923 
   -5155    -4413    -4029    -4268    -5028    -5705    -5937    -5950 
   -5975    -5900    -5505    -4881    -4446    -4328    -4392    -4677 
   -5150    -5549    -5659    -5537    -5368    -5192    -5055    -5098 
   -5362    -5652    -5544    -4995    -4669    -4989    -5587    -5875 
   -5699    -5501    -5651    -5941    -6184    -6388    -6284    -5688 
   -4828    -3997    -3480    -3362    -3473    -3827    -4449    -5088 
   -5601    -5983    -6197    -6301    -6332    -6200    -5817    -5254 
   -4785    -4571    -4577    -4865    -5390    -5849    -5991    -5814 
   -5544    -5368    -5135    -4693    -4352    -4492    -4963    -5285 
   -5363    -5498    -5702    -5694    -5443    -5111    -4891    -4978 
   -5250    -5405    -5389    -5297    -5204    -5031    -4720    -4545 
   -4677    -4853    -4882    -4904    -5032    -5319    -5868    -6532 
   -6980    -7011    -6466    -5490    -4669    -4418    -4684    -5040 
   -5049    -4808    -4602    -4407    -4294    -4337    -4419    -4691 
   -5246    -5788    -6250    -6664    -6659    -6026    -5119    -4322 
   -3915    -4156    -4787    -5300    -5802    -6369    -6480    -6134 
   -5814    -5308    -4527    -4218    -4715    -5493    -5915    -5730 
   -5216    -4828    -4554    -4239    -4193    -4542    -5004    -5412 
   -5675    -5869    -6183    -6426    -6208    -5676    -5432    -5456 
   -5216    -4874    -4877    -5016    -5121    -5543    -6066    -5794 
   -4776    -3712    -2592    -1972    -3064    -5293    -7080    -8163 
   -8734    -8490    -7526    -6284    -4962    -3936    -3514    -3234 
   -2825    -2920    -3758    -4637    -5309    -6285    -7488    -8139 
   -7812    -6586    -4828    -3242    -2412    -2535    -3442    -4581 
   -5555    -6307    -6620    -6463    -6242    -6038    -5710    -5611 
   -6025    -6492    -6362    -5355    -3854    -2855    -2887    -3545 
   -4425    -5358    -6025    -6223    -6141    -6170    -6330    -6133 
   -5337    -4405    -4113    -4708    -5552    -6045    -6172    -5992 
   -5479    -4776    -4278    -4189    -4213    -4210    -4418    -4810 
   -5125    -5238    -5251    -5479    -5976    -6249    -5965    -5472 
   -5225    -5256    -5379    -5502    -5637    -5782    -5842    -5691 
   -5431    -5304    -5267    -5196    -5208    -5321    -5286    -4915 
   -4507    -4626    -5169    -5522    -5491    -5270    -5124    -5305 
   -5702    -5888    -5730    -5412    -4965    -4584    -4692    -5044 
   -4914    -4228    -3709    -3946    -4745    -5566    -6110    -6313 
   -6272    -6158    -5950    -5532    -5000    -4538    -4274    -4442 
   -5148    -5906    -6042    -5501    -4923    -4835    -5023    -5009 
   -4743    -4514    -4645    -5155    -5702    -6035    -6114    -5929 
   -5589    -5279    -5169    -5312    -5466    -5497    -5611    -5786 
   -5815    -5697    -5374    -4868    -4554    -4596    -4768    -4968 
   -5217    -5355    -5296    -5244    -5316    -5313    -5088    -4847 
   -4889    -5158    -5229    -4810    -4159    -3790    -3958    -4652 
   -5811    -7194    -8078    -7807    -6770    -5940    -5605    -5325 
   -4839    -4392    -4203    -4105    -3927    -3844    -4163    -4858 
   -5414    -5447    -5231    -5108    -5096    -5209    -5474    -5763 
   -5942    -5964    -5891    -5782    -5562    -5267    -5111    -5225 
   -5572    -5832    -5597    -4988    -4496    -4241    -4160    -4403 
   -4858    -5016    -4957    -5219    -5602    -5659    -5567    -5375 
   -4986    -4811    -5067    -5475    -5940    -6357    -6300    -5724 
   -5139    -4884    -4880    -4934    -4976    -4992    -4947    -4903 
   -4861    -4792    -4853    -5043    -5197    -5377    -5648    -5729 
   -5460    -5175    -5131    -5188    -5331    -5603    -5686    -5325 
   -4822    -4669    -4969    -5319    -5300    -5030    -4959    -5247 
   -5671    -6069    -6447    -6632    -6326    -5652    -5123    -4928 
   -4811    -4629    -4546    -4715    -5107    -5552    -5792    -5664 
   -5188    -4569    -4122    -3998    -4110    -4365    -4793    -5377 
   -5856    -5980    -5881    -5832    -5841    -5773    -5643    -5464 
   -5071    -4464    -4037    -4059    -4413    -4988    -5733    -6485 
   -6976    -6856    -6048    -5030    -4367    -4117    -3993    -3924 
   -4185    -4931    -5810    -6297    -6330    -6199    -6042    -5832 
   -5620    -5498    -5464    -5468    -5482    -5373    -5049    -4672 
   -4464    -4573    -4966    -5304    -5350    -5267    -5201    -5111 
   -5005    -4969    -5012    -4943    -4591    -4228    -4267    -4712 
   -5293    -5836    -6228    -6315    -6003    -5436    -4973    -4869 
   -5008    -5135    -5233    -5468    -5880    -6254    -6373    -6270 
   -6052    -5741    -5363    -4909    -4365    -3927    -3921    -4479 
   -5363    -6066    -6226    -5942    -5545    -5174    -4777    -4378 
   -4128    -4175    -4483    -4846    -5165    -5358    -5350    -5387 
   -5726    -6169    -6357    -6212    -5906    -5618    -5360    -5074 
   -4822    -4733    -4792    -4866    -4955    -5184    -5494    -5630 
   -5513    -5387    -5375    -5231    -4823    -4334    -3987    -3973 
   -4320    -4753    -5067    -5329    -5649    -6064    -6394    -6415 
   -6214    -5972    -5722    -5432    -5119    -4936    -4920    -4922 
   -4957    -5125    -5329    -5364    -5058    -4527    -4263    -4522 
   -5043    -5503    -5736    -5680    -5516    -5514    -5657    -5717 
   -5576    -5282    -5080    -5252    -5632    -5792    -5645    -5281 
   -4764    -4349    -4294    -4529    -4853    -5103    -5265    -5536 
   -5857    -5908    -5773    -5710    -5614    -5448    -5436    -5624 
   -5819    -5802    -5485    -5046    -4691    -4441    -4278    -4174 
   -4167    -4419    -4841    -5092    -5131    -5173    -5328    -5618 
   -5903    -5967    -5911    -5942    -5892    -5532    -5063    -4866 
   -4990    -5209    -5367    -5406    -5316    -5179    -5016    -4730 
   -4394    -4247    -4446    -4976    -5595    -6000    -6150    -6219 
   -6230    -6062    -5733    -5328    -4911    -4625    -4635    -4938 
   -5333    -5532    -5448    -5344    -5400    -5464    -5491    -5593 
   -5659    -5520    -5155    -4650    -4272    -4186    -4233    -4372 
   -4637    -4891    -5111    -5358    -5553    -5622    -5521    -5285 
   -5088    -5058    -5167    -5335    -5485    -5557    -5533    -5486 
   -5513    -5570    -5483    -5196    -4897    -4868    -5144    -5529 
   -5869    -6093    -6131    -5987    -5753    -5487    -5196    -4915 
   -4706    -4656    -4792    -4985    -5140    -5224    -5109    -4850 
   -4700    -4707    -4796    -4976    -5201    -5383    -5524    -5663 
   -5733    -5640    -5481    -5428    -5482    -5530    -5529    -5460 
   -5293    -5081    -4915    -4822    -4873    -5117    -5347    -5319 
   -5108    -4914    -4823    -4854    -5019    -5271    -5491    -5522 
   -5312    -5074    -5065    -5254    -5427    -5433    -5265    -5047 
   -4881    -4783    -4846    -5096    -5287    -5289    -5250    -5259 
   -5277    -5371    -5652    -6035    -6274    -6224    -5950    -5622 
   -5324    -5004    -4727    -4627    -4654    -4708    -4850    -5179 
   -5609    -5891    -5899    -5745    -5605    -5487    -5310    -5117 
   -4999    -4918    -4812    -4703    -4615    -4591    -4680    -4842 
   -4973    -5036    -5057    -5107    -5281    -5516    -5625    -5593 
