Origin Time       2024/06/23 22:54:00
Lat.              35.645
Long.             140.060
Depth. (km)       72
Mag.              4.1
Station Code      CHBH13
Station Lat.      35.8307
Station Long.     140.2980
Station Height(m) 12
Record Time       2024/06/23 22:54:35
Sampling Freq(Hz) 100Hz
Duration Time(s)  120
Dir.              6
Scale Factor      7845(gal)/8223790
Max. Acc. (gal)   5.291
Last Correction   2024/06/23 22:54:36
Memo.             
[...]
   -2054    -2042    -2035    -2033    -2042    -2052    -2061    -2064 
   -2053    -2039    -2045    -2057    -2053    -2037    -2034    -2052 
   -2066    -2060    -2046    -2043    -2050    -2061    -2061    -2047 
   -2041    -2047    -2056    -2052    -2041    -2039    -2058    -2069 
   -2054    -2038    -2041    -2057    -2061    -2050    -2046    -2046 
   -2043    -2052    -2060    -2057    -2052    -2050    -2046    -2047 
   -2058    -2057    -2050    -2050    -2042    -2033    -2038    -2050 
   -2061    -2065    -2056    -2053    -2068    -2068    -2046    -2037 
   -2047    -2050    -2041    -2039    -2045    -2047    -2046    -2060 
   -2079    -2068    -2049    -2054    -2054    -2038    -2031    -2046 
   -2058    -2054    -2047    -2045    -2050    -2060    -2056    -2041 
   -2041    -2060    -2070    -2057    -2045    -2050    -2057    -2061 
   -2060    -2043    -2031    -2042    -2060    -2062    -2045    -2037 
   -2053    -2062    -2047    -2037    -2050    -2066    -2061    -2045 
   -2045    -2050    -2052    -2057    -2064    -2060    -2050    -2050 
   -2057    -2047    -2030    -2034    -2056    -2070    -2064    -2046 
   -2037    -2042    -2054    -2056    -2052    -2058    -2062    -2054 
   -2038    -2031    -2050    -2064    -2060    -2061    -2050    -2043 
   -2066    -2074    -2047    -2030    -2029    -2033    -2041    -2045 
   -2052    -2064    -2065    -2061    -2061    -2053    -2047    -2060 
   -2057    -2041    -2041    -2038    -2034    -2052    -2057    -2050 
   -2066    -2074    -2054    -2035    -2031    -2045    -2064    -2061 
   -2047    -2049    -2054    -2057    -2060    -2046    -2035    -2049 
   -2060    -2052    -2039    -2034    -2053    -2080    -2068    -2042 
   -2046    -2052    -2039    -2035    -2043    -2047    -2052    -2057 
   -2057    -2052    -2043    -2047    -2065    -2069    -2050    -2035 
   -2033    -2047    -2061    -2053    -2045    -2058    -2065    -2049 
   -2039    -2061    -2074    -2047    -2027    -2031    -2039    -2047 
   -2056    -2064    -2064    -2054    -2056    -2057    -2045    -2042 
   -2052    -2056    -2047    -2027    -2026    -2056    -2073    -2064 
   -2056    -2061    -2064    -2052    -2033    -2026    -2039    -2056 
   -2057    -2054    -2056    -2056    -2049    -2045    -2053    -2057 
   -2046    -2041    -2047    -2046    -2039    -2062    -2091    -2083 
   -2056    -2038    -2035    -2049    -2049    -2031    -2031    -2043 
   -2053    -2061    -2058    -2053    -2062    -2074    -2069    -2049 
   -2031    -2033    -2052    -2062    -2058    -2061    -2056    -2042 
   -2043    -2054    -2050    -2047    -2047    -2045    -2043    -2050 
   -2056    -2050    -2043    -2056    -2076    -2077    -2064    -2056 
   -2047    -2043    -2045    -2038    -2027    -2031    -2045    -2061 
   -2069    -2064    -2057    -2057    -2056    -2050    -2046    -2052 
   -2052    -2047    -2045    -2045    -2057    -2065    -2058    -2056 
   -2054    -2047    -2049    -2053    -2047    -2043    -2047    -2058 
   -2069    -2076    -2061    -2033    -2033    -2054    -2047    -2031 
   -2043    -2061    -2062    -2064    -2066    -2058    -2054    -2061 
   -2053    -2041    -2033    -2026    -2026    -2035    -2050    -2068 
   -2083    -2084    -2069    -2054    -2045    -2045    -2050    -2045 
   -2030    -2029    -2039    -2049    -2054    -2061    -2072    -2074 
   -2064    -2043    -2034    -2038    -2045    -2053    -2058    -2049 
   -2041    -2043    -2050    -2060    -2060    -2062    -2069    -2050 
   -2022    -2020    -2038    -2061    -2070    -2050    -2035    -2054 
   -2073    -2057    -2038    -2037    -2045    -2050    -2046    -2052 
   -2065    -2060    -2057    -2069    -2060    -2045    -2041    -2029 
   -2031    -2054    -2065    -2064    -2060    -2046    -2041    -2054 
   -2065    -2062    -2061    -2047    -2026    -2023    -2034    -2054 
   -2070    -2065    -2065    -2068    -2047    -2035    -2047    -2057 
   -2056    -2047    -2039    -2037    -2038    -2046    -2058    -2070 
   -2069    -2060    -2053    -2039    -2041    -2057    -2053    -2049 
   -2057    -2052    -2043    -2045    -2058    -2068    -2064    -2060 
   -2052    -2037    -2037    -2043    -2049    -2058    -2069    -2066 
   -2056    -2049    -2042    -2027    -2031    -2057    -2073    -2064 
   -2046    -2042    -2053    -2061    -2061    -2058    -2054    -2047 
   -2034    -2035    -2043    -2045    -2056    -2068    -2062    -2056 
   -2054    -2050    -2052    -2056    -2058    -2053    -2035    -2026 
   -2031    -2045    -2065    -2084    -2080    -2054    -2042    -2047 
   -2046    -2038    -2038    -2050    -2056    -2039    -2025    -2042 
   -2061    -2062    -2068    -2076    -2058    -2039    -2041    -2049 
   -2047    -2045    -2049    -2056    -2049    -2039    -2045    -2056 
   -2068    -2072    -2049    -2023    -2031    -2046    -2054    -2065 
   -2072    -2061    -2045    -2038    -2043    -2052    -2045    -2037 
   -2049    -2054    -2041    -2043    -2060    -2068    -2065    -2060 
   -2052    -2043    -2031    -2025    -2034    -2053    -2062    -2064 
   -2058    -2052    -2053    -2060    -2047    -2034    -2052    -2065 
   -2043    -2023    -2026    -2045    -2068    -2081    -2080    -2065 
   -2043    -2034    -2039    -2045    -2041    -2034    -2033    -2039 
   -2057    -2066    -2057    -2060    -2074    -2066    -2045    -2038 
   -2038    -2034    -2038    -2053    -2057    -2049    -2049    -2057 
   -2056    -2054    -2056    -2049    -2047    -2047    -2045    -2053 
   -2064    -2062    -2064    -2062    -2043    -2029    -2038    -2046 
   -2045    -2053    -2060    -2052    -2043    -2054    -2076    -2073 
   -2052    -2042    -2043    -2038    -2034    -2037    -2043    -2060 
   -2077    -2073    -2061    -2053    -2050    -2056    -2053    -2043 
   -2041    -2034    -2041    -2060    -2058    -2042    -2050    -2069 
   -2068    -2053    -2050    -2054    -2050    -2049    -2050    -2052 
   -2050    -2042    -2039    -2047    -2052    -2060    -2070    -2069 
   -2054    -2046    -2047    -2046    -2042    -2045    -2049    -2053 
   -2058    -2058    -2050    -2042    -2049    -2058    -2050    -2037 
   -2043    -2061    -2065    -2060    -2061    -2058    -2052    -2049 
   -2043    -2039    -2047    -2061    -2066    -2054    -2037    -2039 
   -2056    -2061    -2052    -2045    -2052    -2066    -2062    -2045 
   -2037    -2038    -2041    -2057    -2068    -2054    -2037    -2039 
   -2060    -2066    -2052    -2039    -2042    -2050    -2052    -2043 
   -2045    -2058    -2061    -2052    -2052    -2057    -2053    -2053 
   -2056    -2038    -2023    -2034    -2054    -2068    -2069    -2060 
   -2061    -2057    -2038    -2027    -2041    -2056    -2047    -2035 
   -2043    -2060    -2064    -2061    -2058    -2064    -2062    -2053 
   -2049    -2052    -2042    -2020    -2030    -2064    -2060    -2038 
   -2043    -2053    -2058    -2060    -2056    -2061    -2068    -2058 
   -2037    -2026    -2046    -2068    -2057    -2038    -2033    -2037 
   -2043    -2053    -2058    -2054    -2056    -2064    -2068    -2064 
   -2046    -2031    -2046    -2058    -2052    -2041    -2035    -2045 
   -2042    -2031    -2050    -2069    -2061    -2050    -2053    -2061 
   -2065    -2068    -2060    -2034    -2020    -2034    -2049    -2045 
   -2035    -2056    -2083    -2073    -2049    -2041    -2045    -2049 
   -2054    -2057    -2049    -2038    -2046    -2061    -2064    -2060 
   -2050    -2037    -2026    -2031    -2047    -2054    -2069    -2080 
   -2068    -2052    -2045    -2045    -2046    -2039    -2047    -2064 
   -2057    -2045    -2049    -2057    -2053    -2050    -2061    -2062 
   -2045    -2041    -2047    -2046    -2041    -2046    -2062    -2065 
   -2053    -2049    -2047    -2046    -2056    -2062    -2054    -2041 
   -2037    -2047    -2054    -2046    -2046    -2061    -2068    -2061 
   -2056    -2047    -2038    -2042    -2050    -2049    -2046    -2052 
   -2058    -2054    -2049    -2053    -2060    -2066    -2065    -2045 
   -2033    -2043    -2057    -2050    -2038    -2050    -2066    -2062 
   -2052    -2045    -2046    -2054    -2050    -2042    -2049    -2056 
   -2062    -2070    -2062    -2042    -2039    -2053    -2046    -2034 
   -2043    -2056    -2058    -2056    -2049    -2050    -2062    -2058 
   -2047    -2047    -2045    -2041    -2046    -2047    -2046    -2058 
   -2068    -2060    -2045    -2041    -2045    -2046    -2046    -2045 
   -2046    -2050    -2060    -2068    -2057    -2043    -2046    -2050 
   -2054    -2058    -2047    -2038    -2046    -2057    -2054    -2050 
   -2049    -2041    -2043    -2056    -2053    -2053    -2061    -2057 
   -2053    -2046    -2037    -2045    -2056    -2052    -2050    -2052 
   -2053    -2061    -2062    -2049    -2041    -2052    -2060    -2054 
   -2046    -2042    -2049    -2052    -2047    -2043    -2041    -2050 
   -2060    -2043    -2037    -2065    -2077    -2066    -2062    -2054 
   -2035    -2031    -2038    -2043    -2049    -2050    -2049    -2053 
   -2053    -2053    -2061    -2058    -2042    -2035    -2037    -2042 
   -2060    -2066    -2058    -2061    -2069    -2060    -2052    -2047 
   -2037    -2034    -2045    -2041    -2034    -2046    -2062    -2066 
   -2062    -2060    -2065    -2060    -2046    -2042    -2033    -2027 
   -2047    -2066    -2066    -2060    -2049    -2043    -2057    -2060 
   -2046    -2045    -2047    -2046    -2041    -2037    -2050    -2069 
   -2069    -2053    -2047    -2054    -2054    -2054    -2056    -2046 
   -2039    -2038    -2035    -2046    -2053    -2053    -2069    -2073 
   -2047    -2037    -2046    -2047    -2043    -2049    -2058    -2060 
   -2053    -2045    -2043    -2052    -2060    -2049    -2035    -2049 
   -2065    -2056    -2045    -2056    -2072    -2068    -2047    -2045 
   -2053    -2042    -2034    -2043    -2046    -2038    -2042    -2062 
   -2081    -2077    -2065    -2058    -2054    -2041    -2029    -2035 
   -2053    -2056    -2054    -2049    -2042    -2042    -2047    -2058 
   -2064    -2057    -2050    -2050    -2050    -2047    -2052    -2060 
   -2056    -2049    -2047    -2042    -2041    -2045    -2043    -2042 
   -2050    -2064    -2058    -2045    -2060    -2073    -2058    -2049 
   -2054    -2050    -2030    -2026    -2042    -2049    -2045    -2052 
   -2061    -2066    -2060    -2049    -2053    -2061    -2054    -2037 
   -2029    -2037    -2046    -2047    -2050    -2057    -2068    -2065 
   -2052    -2049    -2047    -2042    -2042    -2046    -2053    -2056 
   -2052    -2052    -2054    -2052    -2052    -2061    -2058    -2041 
   -2039    -2047    -2046    -2052    -2056    -2052    -2058    -2058 
   -2049    -2052    -2054    -2058    -2057    -2045    -2049    -2061 
   -2058    -2053    -2052    -2049    -2047    -2050    -2050    -2045 
   -2046    -2053    -2060    -2068    -2058    -2043    -2056    -2073 
   -2066    -2049    -2041    -2043    -2046    -2046    -2052    -2057 
   -2057    -2054    -2052    -2049    -2052    -2065    -2069    -2057 
   -2046    -2041    -2038    -2049    -2057    -2056    -2056    -2062 
   -2065    -2057    -2049    -2045    -2042    -2043    -2047    -2053 
   -2053    -2050    -2057    -2061    -2050    -2050    -2057    -2054 
   -2056    -2060    -2056    -2054    -2057    -2052    -2039    -2031 
   -2039    -2060    -2068    -2062    -2058    -2056    -2052    -2052 
   -2052    -2045    -2046    -2043    -2041    -2054    -2065    -2068 
   -2062    -2041    -2033    -2049    -2061    -2057    -2052    -2052 
   -2049    -2047    -2046    -2043    -2045    -2045    -2045    -2052 
   -2058    -2053    -2058    -2072    -2061    -2045    -2047    -2053 
   -2049    -2046    -2042    -2041    -2047    -2054    -2047    -2046 
   -2052    -2056    -2056    -2056    -2058    -2052    -2037    -2042 
   -2052    -2041    -2039    -2054    -2057    -2053    -2049    -2049 
   -2056    -2054    -2047    -2050    -2053    -2045    -2038    -2043 
   -2043    -2042    -2046    -2057    -2064    -2060    -2057    -2064 
   -2058    -2041    -2034    -2041    -2049    -2053    -2053    -2052 
   -2050    -2052    -2054    -2046    -2045    -2050    -2042    -2041 
   -2061    -2069    -2056    -2046    -2053    -2058    -2045    -2031 
   -2043    -2057    -2043    -2031    -2043    -2058    -2065    -2072 
   -2069    -2054    -2047    -2052    -2047    -2030    -2025    -2037 
   -2043    -2046    -2056    -2065    -2068    -2068    -2069    -2066 
   -2058    -2052    -2041    -2023    -2015    -2027    -2050    -2057 
   -2047    -2058    -2077    -2074    -2070    -2069    -2050    -2037 
   -2043    -2037    -2018    -2026    -2054    -2072    -2066    -2057 
   -2058    -2058    -2046    -2035    -2020    -2000    -1981    -1964 
   -1946    -1926    -1921    -1957    -2034    -2122    -2168    -2178 
   -2208    -2239    -2211    -2103    -1933    -1806    -1761    -1691 
   -1655    -1811    -1952    -1898    -1956    -2176    -2277    -2398 
   -2505    -2312    -2245    -2416    -2133    -1630    -1752    -2470 
   -3245    -3341    -2242     -714      -68     -702    -2016    -3111 
   -3651    -3559    -2436     -900     -351    -1048    -2612    -4425 
   -5198    -4075    -1244     1988     3078      769    -2975    -5736 
   -6532    -4792    -1382     1225     1794      392    -2851    -6149 
   -6752    -4583    -1410     1752     3495     2193    -1443    -5161 
   -7327    -6718    -3118      961     2598     1723     -750    -4147 
   -6157    -5066    -2536     -683      112     -432    -2039    -2902 
   -2624    -2547    -2384    -1613    -1209    -1383    -1958    -3100 
   -3811    -2961    -1189        5       -5    -1069    -2797    -4017 
   -3828    -2952    -2162    -1439    -1221    -1796    -2331    -2366 
   -2212    -1764    -1294    -1579    -2285    -2654    -2712    -2412 
   -1575     -820     -980    -1810    -2494    -2889    -2852    -2010 
   -1223    -1529    -2371    -2934    -2994    -2231     -947     -556 
   -1622    -2785    -2964    -2397    -1302     -345     -706    -2204 
   -3832    -4788    -4066    -1823      178      722     -271    -2197 
   -3917    -4530    -3840    -2203     -383      773      695     -826 
   -3453    -5594    -5468    -3488    -1378      -40      141     -783 
   -2020    -3021    -3719    -3730    -2616    -1026     -294     -660 
   -1458    -2432    -3184    -3130    -2581    -2149    -1903    -1899 
   -2262    -2625    -2362    -1506     -793     -805    -1667    -2853 
   -3287    -2582    -1543    -1081    -1436    -2315    -3005    -2643 
   -1437     -735    -1155    -2208    -3211    -3473    -2705    -1445 
    -727    -1048    -1923    -2644    -2826    -2623    -2458    -2238 
   -1871    -1714    -1713    -1702    -1968    -2338    -2380    -2184 
   -1775    -1494    -1965    -2670    -2862    -2587    -1914    -1121 
    -746     -982    -1807    -2789    -3208    -2903    -2284    -1898 
   -1941    -2074    -2137    -2180    -2035    -1771    -1705    -1914 
   -2311    -2631    -2556    -2054    -1398    -1105    -1426    -2124 
   -2803    -3019    -2633    -1922    -1279    -1077    -1244    -1686 
   -2543    -3156    -2697    -1713    -1293    -1656    -2339    -2836 
   -2741    -2054    -1414    -1401    -1988    -2610    -2547    -1908 
   -1410    -1318    -1800    -2671    -3006    -2655    -2222    -1642 
    -935     -994    -2242    -3627    -3800    -2706    -1275     -522 
   -1140    -2578    -3153    -2224    -1101    -1043    -1865    -2754 
   -3146    -2839    -1780     -473      -60     -967    -2579    -3985 
   -4131    -2828    -1088      114      -28    -1516    -2920    -3333 
   -2960    -2137    -1549    -1672    -2295    -3015    -3107    -2560 
   -2307    -2204    -1641    -1291    -1786    -2371    -2408    -2344 
   -2169    -1516     -939     -951    -1494    -2361    -2917    -2673 
   -2069    -1810    -1890    -2100    -2343    -2033    -1190    -1084 
   -2133    -3298    -3821    -3592    -2376     -425      772      116 
   -1836    -3798    -4526    -3708    -2263    -1112     -812    -1485 
   -2216    -2160    -1989    -2438    -2797    -2501    -1834    -1146 
    -913    -1310    -1923    -2286    -2307    -2425    -2532    -2224 
   -2339    -2859    -2454    -1686    -1408    -1107    -1325    -2535 
   -3341    -2824    -1833    -1335    -1387    -1864    -2575    -2856 
   -2459    -1895    -1325     -828    -1008    -1977    -3138    -3773 
   -3339    -2353    -1868    -1845    -1753    -1605    -1239     -880 
   -1551    -2829    -3061    -2232    -1547    -1356    -1408    -1729 
   -2122    -2251    -2489    -2859    -2567    -1846    -1745    -2077 
   -1921    -1410    -1209    -1533    -2511    -3655    -3645    -2332 
   -1163    -1009    -1707    -2778    -2995    -1742     -708    -1347 
   -2554    -2983    -2963    -2855    -2263    -1607    -1352     -861 
    -583    -1603    -2783    -2739    -2274    -2326    -2469    -2184 
   -1711    -1260     -962    -1534    -2782    -3314    -3040    -2647 
   -2268    -2209    -2124    -1470    -1026    -1186    -1506    -2027 
   -2531    -2609    -2598    -2629    -2223    -1467     -984    -1007 
   -1412    -2008    -2732    -3408    -3470    -2851    -2030    -1264 
   -1166    -2054    -2825    -2523    -1660    -1205    -1437    -1995 
   -2493    -2650    -2392    -2030    -1728    -1364    -1080    -1237 
   -1837    -2403    -2889    -3580    -3661    -2419     -999     -618 
   -1204    -2226    -2945    -2718    -1856    -1358    -1610    -2253 
   -2988    -3414    -3029    -1872     -692     -399     -905    -1479 
   -2135    -2778    -2577    -1684    -1251    -1595    -2137    -2547 
   -2789    -2620    -2203    -2115    -2099    -1896    -2157    -2743 
   -2836    -2416    -1675     -896     -801    -1561    -2435    -2666 
   -2330    -1921    -1474    -1271    -1768    -2384    -2554    -2789 
   -3163    -2902    -2177    -2002    -2147    -1838    -1476    -1428 
   -1398    -1516    -2022    -2497    -2532    -2500    -2686    -2686 
   -2282    -1636    -1015     -718     -918    -1817    -3099    -3680 
   -3082    -1891     -915     -807    -1560    -2141    -1849    -1559 
   -2079    -2825    -3134    -2907    -2263    -1625    -1409    -1539 
   -1463    -1152    -1514    -2758    -3724    -3589    -2776    -1952 
   -1389    -1252    -1468    -1800    -2214    -2506    -2327    -1848 
   -1655    -1995    -2478    -2513    -2100    -1884    -2157    -2531 
   -2648    -2427    -2025    -1732    -1582    -1401    -1205    -1273 
   -1840    -2555    -2660    -2027    -1405    -1386    -1829    -2423 
   -2878    -2848    -2608    -2535    -2185    -1613    -1633    -2015 
   -1995    -1845    -1958    -1906    -1609    -1582    -1641    -1540 
   -1698    -2110    -2559    -2987    -2971    -2459    -2068    -2049 
   -2023    -1737    -1493    -1490    -1499    -1530    -1740    -2101 
   -2667    -3138    -2982    -2458    -2199    -2170    -1861    -1323 
   -1390    -2239    -2956    -2907    -2199    -1256     -598     -573 
   -1340    -2624    -3535    -3551    -2983    -2235    -1591    -1301 
   -1328    -1474    -1741    -2042    -2060    -1968    -2201    -2494 
