Origin Time       2024/06/23 22:54:00
Lat.              35.645
Long.             140.060
Depth. (km)       72
Mag.              4.1
Station Code      CHBH19
Station Lat.      35.5943
Station Long.     140.5107
Station Height(m) -1629
Record Time       2024/06/23 22:54:36
Sampling Freq(Hz) 100Hz
Duration Time(s)  120
Dir.              3
Scale Factor      2942(gal)/8224139
Max. Acc. (gal)   0.485
Last Correction   2024/06/23 22:54:36
Memo.             
[...]
  -54761   -54762   -54761   -54757   -54760   -54764   -54761   -54761 
  -54762   -54761   -54762   -54762   -54761   -54761   -54761   -54761 
  -54761   -54762   -54762   -54762   -54762   -54762   -54762   -54762 
  -54764   -54764   -54761   -54761   -54762   -54761   -54761   -54764 
  -54762   -54761   -54762   -54762   -54760   -54757   -54760   -54764 
  -54764   -54761   -54764   -54765   -54762   -54764   -54764   -54758 
  -54760   -54764   -54761   -54760   -54760   -54761   -54764   -54764 
  -54762   -54762   -54762   -54762   -54764   -54761   -54761   -54764 
  -54764   -54762   -54761   -54764   -54766   -54765   -54762   -54761 
  -54761   -54762   -54762   -54764   -54762   -54760   -54762   -54764 
  -54762   -54764   -54762   -54762   -54764   -54761   -54761   -54762 
  -54764   -54764   -54762   -54762   -54765   -54764   -54762   -54764 
  -54766   -54764   -54760   -54762   -54766   -54766   -54764   -54762 
  -54762   -54764   -54765   -54765   -54764   -54764   -54766   -54766 
  -54764   -54762   -54764   -54762   -54761   -54762   -54764   -54764 
  -54762   -54761   -54762   -54764   -54765   -54765   -54760   -54760 
  -54764   -54762   -54760   -54762   -54764   -54762   -54758   -54761 
  -54766   -54765   -54764   -54764   -54762   -54761   -54762   -54762 
  -54761   -54762   -54764   -54764   -54765   -54764   -54760   -54758 
  -54762   -54761   -54760   -54765   -54765   -54762   -54764   -54765 
  -54765   -54766   -54764   -54761   -54762   -54761   -54760   -54761 
  -54764   -54765   -54765   -54764   -54761   -54761   -54761   -54761 
  -54762   -54764   -54762   -54761   -54762   -54764   -54762   -54762 
  -54761   -54762   -54764   -54760   -54758   -54761   -54761   -54760 
  -54761   -54764   -54764   -54765   -54765   -54764   -54764   -54762 
  -54762   -54762   -54760   -54760   -54761   -54761   -54761   -54760 
  -54760   -54761   -54760   -54760   -54762   -54761   -54760   -54762 
  -54764   -54762   -54761   -54761   -54762   -54762   -54761   -54760 
  -54760   -54762   -54762   -54760   -54762   -54764   -54761   -54760 
  -54760   -54760   -54761   -54762   -54764   -54765   -54761   -54758 
  -54762   -54764   -54762   -54762   -54761   -54760   -54761   -54760 
  -54758   -54760   -54761   -54762   -54764   -54762   -54761   -54762 
  -54760   -54760   -54761   -54761   -54761   -54764   -54764   -54764 
  -54765   -54762   -54761   -54762   -54762   -54762   -54762   -54760 
  -54761   -54761   -54761   -54762   -54764   -54762   -54760   -54761 
  -54764   -54764   -54766   -54765   -54762   -54765   -54765   -54761 
  -54761   -54762   -54762   -54761   -54762   -54762   -54764   -54764 
  -54761   -54761   -54761   -54762   -54762   -54760   -54761   -54764 
  -54762   -54761   -54764   -54765   -54764   -54762   -54764   -54764 
  -54761   -54760   -54760   -54760   -54762   -54760   -54760   -54761 
  -54760   -54760   -54762   -54761   -54761   -54762   -54762   -54764 
  -54764   -54761   -54761   -54762   -54762   -54761   -54761   -54761 
  -54761   -54760   -54761   -54762   -54764   -54761   -54762   -54764 
  -54761   -54760   -54761   -54761   -54761   -54762   -54761   -54760 
  -54764   -54764   -54761   -54764   -54764   -54761   -54762   -54762 
  -54764   -54764   -54761   -54762   -54764   -54761   -54762   -54764 
  -54761   -54762   -54764   -54762   -54762   -54762   -54762   -54762 
  -54761   -54762   -54764   -54761   -54760   -54762   -54762   -54761 
  -54760   -54761   -54762   -54762   -54760   -54760   -54761   -54764 
  -54762   -54762   -54762   -54762   -54761   -54760   -54761   -54762 
  -54762   -54764   -54762   -54760   -54762   -54764   -54762   -54762 
  -54764   -54762   -54762   -54764   -54764   -54764   -54762   -54761 
  -54762   -54762   -54761   -54762   -54762   -54764   -54765   -54764 
  -54762   -54762   -54764   -54764   -54761   -54761   -54764   -54761 
  -54762   -54765   -54762   -54761   -54765   -54765   -54761   -54761 
  -54760   -54761   -54764   -54765   -54764   -54764   -54762   -54762 
  -54762   -54761   -54762   -54762   -54760   -54761   -54764   -54764 
  -54764   -54764   -54761   -54760   -54762   -54764   -54761   -54762 
  -54764   -54762   -54762   -54762   -54761   -54764   -54764   -54761 
  -54761   -54764   -54762   -54761   -54764   -54764   -54760   -54761 
  -54762   -54760   -54761   -54766   -54764   -54760   -54760   -54762 
  -54764   -54766   -54764   -54761   -54761   -54761   -54762   -54764 
  -54762   -54761   -54761   -54761   -54762   -54764   -54762   -54761 
  -54762   -54762   -54761   -54762   -54761   -54760   -54762   -54764 
  -54762   -54764   -54762   -54762   -54762   -54764   -54765   -54764 
  -54761   -54760   -54762   -54762   -54760   -54762   -54765   -54764 
  -54762   -54762   -54762   -54762   -54764   -54764   -54762   -54761 
  -54761   -54760   -54760   -54762   -54764   -54762   -54761   -54762 
  -54762   -54761   -54762   -54761   -54761   -54762   -54762   -54764 
  -54764   -54762   -54764   -54762   -54760   -54761   -54764   -54764 
  -54762   -54762   -54764   -54764   -54762   -54761   -54764   -54764 
  -54762   -54764   -54764   -54764   -54764   -54761   -54761   -54761 
  -54761   -54762   -54762   -54761   -54761   -54762   -54762   -54762 
  -54764   -54764   -54760   -54758   -54761   -54761   -54762   -54764 
  -54762   -54760   -54760   -54762   -54764   -54764   -54764   -54762 
  -54762   -54764   -54765   -54764   -54761   -54758   -54761   -54765 
  -54764   -54762   -54762   -54764   -54761   -54761   -54764   -54764 
  -54760   -54761   -54764   -54764   -54764   -54764   -54761   -54761 
  -54762   -54764   -54762   -54764   -54764   -54760   -54760   -54764 
  -54762   -54761   -54762   -54762   -54761   -54761   -54761   -54762 
  -54761   -54758   -54761   -54765   -54764   -54761   -54760   -54762 
  -54764   -54762   -54762   -54762   -54762   -54764   -54764   -54761 
  -54762   -54764   -54762   -54761   -54762   -54764   -54765   -54765 
  -54762   -54764   -54765   -54764   -54762   -54762   -54762   -54761 
  -54761   -54765   -54765   -54760   -54762   -54764   -54760   -54761 
  -54762   -54762   -54764   -54764   -54762   -54762   -54762   -54761 
  -54762   -54762   -54761   -54761   -54762   -54762   -54758   -54760 
  -54762   -54764   -54764   -54764   -54762   -54761   -54761   -54764 
  -54764   -54761   -54761   -54762   -54765   -54762   -54760   -54762 
  -54761   -54762   -54764   -54760   -54760   -54762   -54764   -54761 
  -54761   -54761   -54758   -54761   -54766   -54762   -54761   -54764 
  -54762   -54761   -54762   -54761   -54761   -54761   -54761   -54764 
  -54762   -54762   -54761   -54760   -54762   -54765   -54764   -54762 
  -54761   -54762   -54764   -54761   -54760   -54761   -54762   -54762 
  -54762   -54762   -54761   -54760   -54761   -54762   -54762   -54762 
  -54765   -54762   -54758   -54761   -54762   -54761   -54764   -54765 
  -54761   -54761   -54762   -54762   -54764   -54764   -54762   -54761 
  -54761   -54762   -54761   -54762   -54762   -54760   -54758   -54760 
  -54762   -54764   -54761   -54760   -54764   -54764   -54761   -54762 
  -54764   -54761   -54761   -54761   -54761   -54760   -54757   -54760 
  -54764   -54762   -54760   -54762   -54765   -54762   -54761   -54761 
  -54762   -54761   -54761   -54760   -54761   -54762   -54760   -54758 
  -54761   -54762   -54762   -54761   -54761   -54762   -54762   -54762 
  -54764   -54764   -54762   -54764   -54765   -54764   -54762   -54764 
  -54764   -54760   -54761   -54761   -54760   -54761   -54761   -54760 
  -54764   -54765   -54762   -54761   -54762   -54764   -54764   -54762 
  -54761   -54761   -54764   -54764   -54761   -54762   -54764   -54764 
  -54762   -54762   -54762   -54764   -54765   -54765   -54762   -54762 
  -54764   -54764   -54764   -54762   -54761   -54762   -54761   -54764 
  -54765   -54764   -54764   -54765   -54761   -54761   -54764   -54764 
  -54762   -54762   -54761   -54761   -54762   -54762   -54761   -54764 
  -54764   -54764   -54764   -54762   -54760   -54761   -54762   -54760 
  -54760   -54762   -54762   -54760   -54761   -54764   -54761   -54760 
  -54762   -54762   -54762   -54761   -54761   -54762   -54762   -54761 
  -54762   -54762   -54762   -54762   -54762   -54762   -54760   -54761 
  -54764   -54764   -54762   -54764   -54762   -54761   -54762   -54764 
  -54764   -54764   -54765   -54761   -54758   -54761   -54766   -54765 
  -54761   -54760   -54762   -54762   -54761   -54761   -54761   -54760 
  -54761   -54762   -54760   -54762   -54765   -54761   -54764   -54768 
  -54764   -54760   -54760   -54762   -54764   -54762   -54760   -54761 
  -54764   -54765   -54762   -54760   -54761   -54762   -54761   -54761 
  -54762   -54764   -54764   -54764   -54762   -54762   -54765   -54765 
  -54761   -54761   -54764   -54764   -54764   -54761   -54762   -54766 
  -54764   -54761   -54762   -54764   -54762   -54762   -54764   -54764 
  -54761   -54761   -54762   -54762   -54761   -54761   -54762   -54762 
  -54762   -54762   -54758   -54760   -54762   -54760   -54758   -54761 
  -54764   -54762   -54762   -54761   -54761   -54761   -54761   -54760 
  -54760   -54762   -54762   -54761   -54765   -54764   -54760   -54760 
  -54762   -54760   -54758   -54761   -54761   -54761   -54762   -54761 
  -54760   -54761   -54761   -54761   -54761   -54761   -54761   -54761 
  -54762   -54764   -54764   -54760   -54758   -54760   -54761   -54760 
  -54760   -54761   -54761   -54761   -54761   -54764   -54762   -54760 
  -54761   -54764   -54762   -54760   -54758   -54760   -54762   -54762 
  -54761   -54762   -54762   -54760   -54758   -54762   -54764   -54762 
  -54761   -54760   -54760   -54760   -54760   -54762   -54761   -54760 
  -54762   -54762   -54758   -54760   -54764   -54761   -54760   -54761 
  -54761   -54761   -54761   -54761   -54762   -54762   -54761   -54762 
  -54764   -54757   -54754   -54760   -54761   -54760   -54761   -54760 
  -54760   -54762   -54762   -54761   -54761   -54761   -54761   -54762 
  -54760   -54760   -54761   -54762   -54761   -54761   -54761   -54761 
  -54764   -54762   -54760   -54758   -54758   -54761   -54762   -54760 
  -54761   -54764   -54761   -54760   -54762   -54762   -54764   -54765 
  -54762   -54761   -54761   -54761   -54761   -54762   -54761   -54761 
  -54761   -54761   -54761   -54760   -54761   -54762   -54762   -54762 
  -54764   -54764   -54761   -54758   -54761   -54764   -54762   -54761 
  -54762   -54762   -54761   -54762   -54764   -54760   -54758   -54761 
  -54761   -54758   -54761   -54762   -54760   -54760   -54762   -54761 
  -54761   -54762   -54761   -54762   -54761   -54757   -54760   -54764 
  -54762   -54762   -54762   -54762   -54762   -54764   -54764   -54764 
  -54761   -54764   -54766   -54761   -54760   -54764   -54764   -54764 
  -54765   -54764   -54761   -54761   -54764   -54762   -54761   -54762 
  -54762   -54760   -54762   -54765   -54761   -54761   -54764   -54765 
  -54764   -54761   -54762   -54764   -54762   -54762   -54762   -54762 
  -54762   -54762   -54762   -54764   -54762   -54761   -54761   -54762 
  -54764   -54765   -54766   -54764   -54760   -54764   -54764   -54758 
  -54761   -54762   -54760   -54762   -54764   -54762   -54762   -54762 
  -54761   -54762   -54765   -54765   -54762   -54760   -54762   -54764 
  -54764   -54761   -54761   -54762   -54762   -54762   -54764   -54762 
  -54761   -54762   -54761   -54762   -54764   -54761   -54761   -54764 
  -54764   -54764   -54762   -54762   -54764   -54762   -54764   -54764 
  -54760   -54758   -54764   -54764   -54758   -54761   -54762   -54762 
  -54765   -54764   -54764   -54764   -54761   -54760   -54760   -54762 
  -54764   -54762   -54762   -54765   -54764   -54761   -54762   -54764 
  -54762   -54762   -54764   -54765   -54762   -54762   -54762   -54761 
  -54764   -54765   -54765   -54762   -54762   -54765   -54764   -54761 
  -54764   -54765   -54765   -54766   -54762   -54760   -54764   -54764 
  -54762   -54764   -54762   -54761   -54762   -54761   -54762   -54765 
  -54766   -54765   -54764   -54762   -54761   -54764   -54764   -54762 
  -54761   -54761   -54760   -54762   -54765   -54765   -54764   -54761 
  -54761   -54761   -54762   -54762   -54761   -54761   -54762   -54761 
  -54761   -54764   -54765   -54764   -54762   -54762   -54761   -54761 
  -54762   -54762   -54762   -54762   -54761   -54762   -54762   -54760 
  -54762   -54766   -54762   -54760   -54762   -54762   -54761   -54764 
  -54764   -54761   -54762   -54762   -54760   -54761   -54761   -54761 
  -54762   -54762   -54761   -54762   -54761   -54761   -54765   -54765 
  -54761   -54761   -54760   -54761   -54762   -54761   -54761   -54760 
  -54762   -54762   -54760   -54761   -54761   -54760   -54761   -54760 
  -54760   -54761   -54762   -54758   -54756   -54754   -54753   -54753 
  -54756   -54753   -54746   -54747   -54747   -54739   -54731   -54718 
  -54699   -54677   -54660   -54661   -54681   -54715   -54749   -54770 
  -54776   -54772   -54750   -54716   -54680   -54626   -54556   -54506 
  -54507   -54575   -54679   -54756   -54772   -54730   -54653   -54621 
  -54723   -54922   -55090   -55171   -55150   -55032   -54924   -54888 
  -54816   -54670   -54577   -54594   -54737   -55069   -55472   -55667 
  -55480   -55030   -54629   -54413   -54351   -54473   -54708   -54862 
  -54911   -54899   -54838   -54764   -54684   -54670   -54812   -54977 
  -55062   -55174   -55223   -54972   -54492   -53968   -53550   -53407 
  -53644   -54306   -55100   -55548   -55642   -55525   -55151   -54652 
  -54283   -54232   -54475   -54807   -55224   -55678   -55737   -55146 
  -54321   -53815   -53739   -54009   -54427   -54649   -54741   -54982 
  -55236   -55341   -55251   -54994   -54832   -54714   -54498   -54459 
  -54573   -54588   -54704   -54997   -55142   -55078   -54911   -54692 
  -54625   -54652   -54492   -54357   -54526   -54762   -54858   -54936 
  -55081   -55151   -54989   -54707   -54550   -54561   -54592   -54584 
  -54610   -54646   -54699   -54841   -54911   -54747   -54492   -54380 
  -54496   -54688   -54859   -55007   -54997   -54895   -54870   -54789 
  -54621   -54616   -54828   -55094   -55256   -55229   -55081   -54908 
  -54789   -54787   -54801   -54696   -54535   -54442   -54399   -54399 
  -54442   -54440   -54446   -54592   -54760   -54862   -54990   -55090 
  -55057   -54966   -54832   -54604   -54425   -54395   -54525   -54811 
  -55057   -55073   -54924   -54769   -54758   -54912   -54992   -54903 
  -54911   -54996   -54834   -54587   -54606   -54749   -54708   -54514 
  -54396   -54398   -54434   -54568   -54738   -54768   -54742   -54692 
  -54542   -54518   -54693   -54837   -54962   -55128   -55208   -55177 
  -55069   -54847   -54699   -54780   -54823   -54816   -55013   -55171 
  -55040   -54785   -54595   -54554   -54634   -54765   -54864   -54862 
  -54872   -54880   -54812   -54820   -54785   -54604   -54577   -54691 
  -54778   -54889   -54888   -54735   -54607   -54537   -54494   -54432 
  -54440   -54638   -54800   -54797   -54868   -55032   -55039   -54908 
  -54900   -54989   -54982   -54899   -54777   -54630   -54518   -54432 
  -54488   -54730   -54839   -54793   -54849   -54884   -54784   -54681 
  -54562   -54402   -54297   -54321   -54556   -54913   -55113   -55104 
  -55061   -55047   -54959   -54726   -54537   -54556   -54630   -54576 
  -54446   -54456   -54658   -54932   -55151   -55186   -55101   -55054 
  -55039   -55017   -54939   -54768   -54514   -54274   -54272   -54453 
  -54515   -54510   -54638   -54803   -54884   -54912   -54865   -54818 
  -54942   -55069   -55001   -54911   -54874   -54764   -54591   -54468 
  -54486   -54643   -54839   -55003   -55078   -55008   -54845   -54739 
  -54762   -54791   -54724   -54683   -54774   -54859   -54865   -54886 
  -54905   -54831   -54656   -54491   -54483   -54553   -54569   -54653 
  -54849   -54936   -54851   -54734   -54676   -54642   -54585   -54556 
  -54653   -54828   -54834   -54653   -54612   -54676   -54641   -54724 
  -55004   -55229   -55293   -55274   -55259   -55125   -54801   -54556 
  -54473   -54409   -54441   -54556   -54584   -54669   -54828   -54819 
  -54761   -54803   -54792   -54708   -54634   -54579   -54589   -54741 
  -54908   -54905   -54865   -54897   -54832   -54737   -54770   -54727 
  -54500   -54396   -54510   -54611   -54746   -54920   -54930   -54939 
  -54985   -54857   -54805   -54928   -54857   -54616   -54544   -54558 
  -54436   -54368   -54494   -54603   -54684   -54820   -54936   -54985 
  -54992   -55036   -55081   -54990   -54892   -54865   -54734   -54592 
  -54618   -54754   -54940   -55001   -54854   -54727   -54689   -54602 
  -54488   -54457   -54483   -54515   -54623   -54832   -54939   -54824 
  -54739   -54815   -54824   -54793   -54916   -55035   -54942   -54741 
  -54634   -54696   -54828   -54795   -54588   -54521   -54560   -54494 
  -54552   -54826   -55062   -55251   -55410   -55409   -55252   -54958 
  -54623   -54499   -54526   -54468   -54394   -54423   -54562   -54792 
  -54955   -54932   -54880   -54861   -54768   -54716   -54823   -54892 
  -54804   -54715   -54765   -54859   -54846   -54801   -54854   -54876 
  -54780   -54683   -54619   -54549   -54480   -54473   -54583   -54673 
  -54569   -54392   -54388   -54515   -54634   -54819   -55042   -55100 
  -55021   -54985   -55012   -54977   -54820   -54703   -54702   -54650 
  -54592   -54699   -54868   -54928   -54866   -54768   -54687   -54530 
  -54363   -54417   -54639   -54801   -54884   -54965   -54994   -54903 
  -54841   -54961   -55146   -55256   -55254   -55166   -55047   -54866 
  -54658   -54476   -54340   -54317   -54345   -54375   -54460   -54562 
  -54662   -54761   -54816   -54850   -54865   -54797   -54699   -54645 
  -54549   -54426   -54454   -54638   -54868   -55097   -55213   -55131 
  -54992   -54934   -54876   -54765   -54676   -54635   -54650   -54760 
  -54909   -54963   -54940   -54908   -54827   -54783   -54811   -54723 
  -54607   -54637   -54554   -54333   -54369   -54641   -54857   -54970 
  -55017   -55059   -55081   -54961   -54789   -54696   -54670   -54691 
  -54712   -54785   -54896   -54824   -54604   -54507   -54552   -54633 
  -54661   -54550   -54538   -54778   -54953   -55034   -55154   -55097 
  -54924   -54899   -54805   -54499   -54278   -54290   -54413   -54531 
  -54696   -54977   -55151   -55086   -54936   -54712   -54490   -54486 
  -54683   -54936   -55084   -55058   -55027   -55000   -54862   -54766 
  -54822   -54847   -54683   -54467   -54403   -54375   -54348   -54495 
  -54708   -54841   -55003   -55161   -55135   -54950   -54761   -54656 
  -54614   -54591   -54646   -54741   -54741   -54672   -54612   -54669 
  -54837   -54896   -54913   -55038   -55043   -54843   -54680   -54670 
  -54679   -54618   -54661   -54858   -54984   -54985   -54972   -54905 
  -54774   -54693   -54652   -54544   -54414   -54322   -54256   -54315 
  -54560   -54743   -54747   -54819   -54963   -54986   -54962   -54940 
  -54850   -54808   -54872   -54877   -54807   -54754   -54704   -54645 
  -54684   -54895   -55105   -55134   -55012   -54799   -54584   -54519 
  -54621   -54800   -54981   -55069   -55043   -54920   -54715   -54577 
  -54629   -54785   -54885   -54892   -54884   -54803   -54619   -54561 
