Origin Time       2024/06/23 22:54:00
Lat.              35.645
Long.             140.060
Depth. (km)       72
Mag.              4.1
Station Code      CHBH06
Station Lat.      35.7215
Station Long.     140.5046
Station Height(m) 35
Record Time       2024/06/23 22:54:37
Sampling Freq(Hz) 100Hz
Duration Time(s)  120
Dir.              5
Scale Factor      7845(gal)/8223790
Max. Acc. (gal)   3.496
Last Correction   2024/06/23 22:54:37
Memo.             
[...]
   -2767    -2772    -2767    -2748    -2736    -2733    -2732    -2733 
   -2731    -2727    -2731    -2747    -2767    -2789    -2806    -2810 
   -2797    -2778    -2760    -2748    -2748    -2755    -2744    -2694 
   -2633    -2606    -2617    -2664    -2745    -2813    -2817    -2790 
   -2802    -2864    -2968    -3082    -3105    -2991    -2832    -2695 
   -2612    -2636    -2710    -2671    -2493    -2293    -2180    -2239 
   -2479    -2790    -3052    -3195    -3169    -3005    -2887    -2984 
   -3210    -3345    -3280    -3014    -2582    -2122    -1864    -1939 
   -2258    -2616    -2832    -2851    -2763    -2681    -2662    -2772 
   -3044    -3339    -3461    -3364    -3142    -2864    -2593    -2431 
   -2417    -2484    -2543    -2523    -2376    -2184    -2172    -2450 
   -2866    -3188    -3300    -3215    -3041    -2897    -2859    -2968 
   -3111    -3041    -2674    -2246    -2088    -2299    -2671    -2970 
   -3100    -3013    -2706    -2344    -2199    -2451    -3014    -3537 
   -3684    -3396    -2826    -2203    -1802    -1868    -2396    -3029 
   -3345    -3246    -2936    -2558    -2187    -2023    -2259    -2789 
   -3281    -3473    -3316    -2937    -2548    -2380    -2524    -2871 
   -3203    -3331    -3164    -2775    -2398    -2251    -2355    -2563 
   -2674    -2581    -2351    -2127    -2015    -2083    -2340    -2740 
   -3177    -3557    -3854    -4104    -4267    -4212    -3843    -3150 
   -2269    -1509    -1209    -1479    -2099    -2677    -2937    -2836 
   -2546    -2340    -2385    -2639    -2941    -3132    -3145    -3011 
   -2820    -2718    -2862    -3188    -3446    -3442    -3137    -2633 
   -2199    -2069    -2218    -2486    -2778    -3025    -3115    -3003 
   -2771    -2554    -2452    -2512    -2729    -3032    -3283    -3353 
   -3194    -2911    -2686    -2548    -2413    -2295    -2243    -2238 
   -2251    -2290    -2412    -2670    -2994    -3195    -3211    -3215 
   -3287    -3227    -2928    -2563    -2344    -2346    -2523    -2789 
   -3096    -3387    -3515    -3354    -2956    -2529    -2246    -2131 
   -2106    -2003    -1776    -1696    -2041    -2720    -3431    -3928 
   -4029    -3720    -3242    -2829    -2535    -2369    -2312    -2311 
   -2316    -2289    -2261    -2320    -2569    -3102    -3767    -4114 
   -3902    -3325    -2685    -2216    -2062    -2191    -2400    -2517 
   -2547    -2575    -2610    -2616    -2612    -2713    -3007    -3356 
   -3496    -3356    -3049    -2704    -2471    -2446    -2529    -2620 
   -2697    -2725    -2740    -2785    -2751    -2614    -2523    -2489 
   -2452    -2527    -2844    -3294    -3600    -3562    -3237    -2855 
   -2589    -2513    -2625    -2810    -2836    -2497    -1919    -1545 
   -1688    -2292    -3091    -3746    -3902    -3474    -2789    -2278 
   -2178    -2446    -2821    -3087    -3207    -3187    -3049    -2925 
   -2836    -2608    -2168    -1764    -1729    -2087    -2609    -3142 
   -3569    -3726    -3659    -3527    -3284    -2829    -2258    -1836 
   -1815    -2154    -2570    -2921    -3159    -3095    -2643    -2097 
   -1948    -2382    -3079    -3561    -3608    -3279    -2797    -2481 
   -2519    -2821    -3122    -3130    -2745    -2238    -1998    -2150 
   -2570    -3099    -3642    -4031    -4025    -3576    -2948    -2466 
   -2200    -2016    -1831    -1710    -1715    -1871    -2231    -2739 
   -3113    -3126    -2852    -2559    -2559    -2953    -3492    -3865 
   -3963    -3808    -3445    -2998    -2705    -2659    -2614    -2297 
   -1782    -1382    -1310    -1557    -2016    -2617    -3242    -3601 
   -3531    -3258    -3144    -3306    -3503    -3357    -2876    -2424 
   -2157    -2020    -2031    -2158    -2304    -2502    -2778    -2990 
   -3110    -3308    -3608    -3815    -3788    -3501    -3029    -2500 
   -2002    -1625    -1507    -1644    -1842    -1953    -2037    -2261 
   -2710    -3375    -4039    -4305    -4086    -3694    -3356    -3102 
   -2980    -2971    -2929    -2772    -2520    -2231    -2050    -2068 
   -2134    -2065    -1961    -2054    -2370    -2772    -3159    -3465 
   -3659    -3680    -3442    -3030    -2670    -2447    -2351    -2378 
   -2463    -2575    -2770    -2959    -2906    -2554    -2216    -2280 
   -2728    -3203    -3488    -3568    -3416    -3059    -2637    -2295 
   -2089    -2011    -2042    -2181    -2369    -2544    -2760    -3086 
   -3418    -3555    -3435    -3161    -2883    -2721    -2702    -2735 
   -2704    -2565    -2358    -2236    -2382    -2752    -3067    -3113 
   -2932    -2709    -2597    -2646    -2813    -2979    -3022    -2911 
   -2717    -2585    -2600    -2679    -2710    -2635    -2457    -2274 
   -2218    -2282    -2427    -2695    -3017    -3150    -3033    -2872 
   -2886    -3163    -3599    -3894    -3823    -3408    -2771    -2058 
   -1526    -1375    -1584    -2015    -2521    -2889    -2999    -2995 
   -3022    -3055    -3022    -2938    -2898    -2976    -3132    -3267 
   -3298    -3141    -2756    -2270    -1898    -1728    -1757    -1988 
   -2336    -2641    -2872    -3141    -3520    -3971    -4394    -4634 
   -4564    -4158    -3391    -2286    -1179     -540     -469     -766 
   -1302    -1973    -2548    -2906    -3171    -3427    -3581    -3600 
   -3599    -3585    -3477    -3311    -3132    -2876    -2552    -2236 
   -1984    -1879    -1995    -2312    -2752    -3207    -3535    -3635 
   -3537    -3341    -3127    -2922    -2697    -2554    -2655    -2799 
   -2600    -2145    -1838    -1768    -1848    -2177    -2783    -3379 
   -3634    -3454    -2991    -2546    -2370    -2478    -2700    -2914 
   -3060    -3055    -2922    -2814    -2774    -2731    -2663    -2604 
   -2585    -2620    -2677    -2748    -2875    -3006    -3045    -3022 
   -2984    -2845    -2525    -2180    -2039    -2100    -2293    -2644 
   -3100    -3537    -3869    -3950    -3619    -2960    -2293    -1871 
   -1733    -1826    -2061    -2319    -2573    -2841    -3106    -3469 
   -4013    -4448    -4376    -3770    -2844    -1864    -1215    -1205 
   -1728    -2366    -2743    -2733    -2505    -2269    -2134    -2227 
   -2593    -3021    -3295    -3446    -3565    -3642    -3639    -3532 
   -3292    -2918    -2454    -2027    -1865    -2076    -2481    -2758 
   -2768    -2646    -2527    -2430    -2423    -2617    -2959    -3246 
   -3349    -3306    -3207    -3075    -2913    -2701    -2425    -2189 
   -2089    -2080    -2120    -2268    -2551    -2882    -3111    -3215 
   -3315    -3441    -3480    -3325    -2988    -2597    -2253    -2057 
   -2112    -2361    -2613    -2814    -3064    -3449    -3923    -4266 
   -4244    -3820    -3115    -2270    -1445     -847     -622     -783 
   -1274    -1983    -2674    -3164    -3453    -3555    -3562    -3666 
   -3801    -3642    -3160    -2682    -2420    -2342    -2443    -2763 
   -3183    -3418    -3300    -2949    -2619    -2463    -2450    -2494 
   -2606    -2775    -2856    -2754    -2520    -2251    -2054    -2054 
   -2303    -2705    -3019    -3040    -2835    -2667    -2673    -2818 
   -3063    -3285    -3358    -3303    -3199    -3063    -2932    -2883 
   -2907    -2876    -2694    -2430    -2142    -1838    -1647    -1710 
   -1998    -2423    -2929    -3415    -3750    -3854    -3739    -3493 
   -3169    -2767    -2370    -2062    -1825    -1703    -1799    -2030 
   -2273    -2601    -3087    -3568    -3802    -3726    -3493    -3311 
   -3199    -3001    -2650    -2254    -1898    -1574    -1395    -1579 
   -2122    -2745    -3242    -3603    -3842    -3951    -3977    -3952 
   -3842    -3576    -3088    -2403    -1719    -1274    -1132    -1217 
   -1459    -1840    -2322    -2806    -3211    -3539    -3819    -4050 
   -4202    -4255    -4203    -3997    -3561    -2938    -2259    -1636 
   -1120     -749     -614     -820    -1372    -2141    -2945    -3619 
   -4047    -4210    -4180    -4024    -3786    -3526    -3269    -2984 
   -2601    -2150    -1864    -1933    -2272    -2637    -2829    -2803 
   -2639    -2439    -2340    -2461    -2772    -3111    -3240    -3055 
   -2731    -2469    -2336    -2408    -2671    -2876    -2798    -2482 
   -2162    -2114    -2432    -2922    -3337    -3528    -3427    -3137 
   -2895    -2839    -2936    -3042    -3022    -2886    -2722    -2560 
   -2394    -2245    -2177    -2241    -2380    -2479    -2500    -2501 
   -2565    -2771    -3121    -3430    -3427    -3130    -2871    -2848 
   -2957    -3024    -2944    -2694    -2351    -2057    -1953    -2106 
   -2466    -2840    -2979    -2801    -2486    -2322    -2462    -2872 
   -3369    -3751    -3883    -3686    -3221    -2691    -2268    -2035 
   -2054    -2243    -2467    -2722    -3021    -3298    -3554    -3801 
   -3892    -3642    -3079    -2421    -1934    -1779    -1949    -2316 
   -2701    -2920    -2895    -2725    -2569    -2515    -2567    -2685 
   -2799    -2876    -2902    -2871    -2794    -2701    -2671    -2735 
   -2749    -2612    -2444    -2363    -2370    -2500    -2781    -3072 
   -3177    -3109    -3084    -3219    -3393    -3447    -3361    -3154 
   -2798    -2289    -1737    -1321    -1146    -1174    -1397    -1842 
   -2393    -2849    -3160    -3435    -3723    -3913    -3851    -3493 
   -2936    -2338    -1877    -1745    -2025    -2604    -3273    -3852 
   -4189    -4195    -3974    -3723    -3519    -3339    -3186    -3064 
   -2960    -2843    -2641    -2323    -1942    -1555    -1194     -923 
    -800     -827     -985    -1293    -1807    -2493    -3184    -3735 
   -4182    -4662    -5146    -5436    -5441    -5197    -4718    -4044 
   -3326    -2705    -2209    -1881    -1788    -1873    -1931    -1809 
   -1509    -1152     -874     -793     -958    -1291    -1711    -2182 
   -2613    -2964    -3322    -3703    -3997    -4132    -4172    -4186 
   -4144    -3967    -3647    -3273    -2929    -2604    -2235    -1792 
   -1298     -861     -612     -641     -967    -1575    -2411    -3345 
   -4186    -4784    -5104    -5189    -5055    -4699    -4198    -3672 
   -3141    -2565    -1984    -1522    -1233    -1086    -1047    -1090 
   -1144    -1205    -1399    -1792    -2319    -2930    -3607    -4226 
   -4627    -4806    -4878    -4816    -4445    -3743    -2879    -2106 
   -1696    -1742    -2030    -2297    -2458    -2494    -2386    -2188 
   -2043    -2053    -2212    -2502    -2860    -3061    -2928    -2536 
   -2137    -1991    -2149    -2469    -2930    -3607    -4318    -4746 
   -4781    -4460    -3843    -3106    -2440    -1894    -1468    -1174 
    -961     -807     -810    -1039    -1444    -1972    -2640    -3337 
   -3820    -4006    -4012    -3952    -3858    -3728    -3549    -3299 
   -2974    -2590    -2232    -2064    -2188    -2610    -3299    -4083 
   -4676    -4838    -4459    -3615    -2585    -1705    -1166     -905 
    -774     -788    -1005    -1339    -1725    -2263    -2978    -3638 
   -3993    -3998    -3753    -3327    -2739    -2074    -1579    -1526 
   -1971    -2698    -3466    -4156    -4680    -4977    -5051    -4851 
   -4243    -3207    -1939     -762       12      260       59     -526 
   -1443    -2502    -3445    -4078    -4321    -4186    -3721    -3065 
   -2451    -2112    -2162    -2540    -3052    -3510    -3785    -3785 
   -3495    -3022    -2535    -2157    -1937    -1856    -1915    -2150 
   -2502    -2797    -2901    -2816    -2643    -2490    -2492    -2779 
   -3295    -3726    -3809    -3630    -3485    -3493    -3497    -3362 
   -3150    -2959    -2760    -2525    -2350    -2276    -2199    -2072 
   -2030    -2187    -2386    -2384    -2182    -1991    -1919    -1942 
   -2029    -2195    -2471    -2828    -3157    -3384    -3538    -3672 
   -3811    -3931    -3939    -3746    -3377    -2911    -2386    -1898 
   -1622    -1644    -1854    -2169    -2605    -3134    -3665    -4109 
   -4341    -4220    -3724    -3045    -2420    -1929    -1564    -1344 
   -1262    -1336    -1636    -2143    -2685    -3059    -3148    -2987 
   -2783    -2763    -2951    -3202    -3331    -3200    -2817    -2342 
   -1960    -1799    -1930    -2358    -2987    -3651    -4249    -4726 
   -4980    -4959    -4702    -4232    -3541    -2674    -1834    -1309 
   -1256    -1601    -2101    -2509    -2658    -2501    -2143    -1784 
   -1567    -1530    -1614    -1711    -1803    -1923    -2030    -2083 
   -2178    -2447    -2914    -3491    -4010    -4306    -4290    -3994 
   -3573    -3192    -2948    -2934    -3210    -3649    -4006    -4131 
   -4025    -3747    -3312    -2698    -1960    -1239     -635     -147 
     183      213     -129     -805    -1777    -2949    -4122    -5054 
   -5553    -5545    -5076    -4271    -3310    -2446    -1899    -1709 
   -1783    -2079    -2620    -3361    -4131    -4672    -4743    -4253 
   -3287    -2089    -1017     -336     -102     -280     -805    -1540 
   -2288    -2884    -3237    -3276    -3028    -2686    -2536    -2736 
   -3221    -3794    -4279    -4553    -4554    -4336    -4066    -3905 
   -3829    -3647    -3214    -2598    -1961    -1410    -1005     -823 
    -923    -1267    -1728    -2189    -2597    -2983    -3408    -3842 
   -4174    -4345    -4341    -4156    -3893    -3693    -3505    -3177 
   -2705    -2151    -1576    -1116     -905     -919    -1024    -1098 
   -1124    -1221    -1518    -2057    -2818    -3731    -4626    -5279 
   -5547    -5427    -5066    -4700    -4453    -4306    -4209    -4067 
   -3647    -2770    -1570     -388      496      908      815      355 
    -338    -1216    -2169    -3055    -3802    -4392    -4770    -4847 
   -4522    -3748    -2632    -1459     -558     -164     -321     -866 
   -1572    -2336    -3069    -3599    -3856    -3921    -3844    -3658 
   -3441    -3314    -3380    -3622    -3925    -4170    -4236    -4037 
   -3562    -2880    -2153    -1618    -1483    -1757    -2270    -2839 
   -3326    -3670    -3896    -4058    -4106    -3898    -3369    -2646 
   -1944    -1413    -1075     -896     -927    -1229    -1705    -2133 
   -2398    -2567    -2816    -3219    -3674    -4058    -4328    -4441 
   -4369    -4143    -3838    -3531    -3257    -2992    -2709    -2409 
   -2138    -1942    -1807    -1688    -1632    -1725    -1958    -2174 
   -2205    -2047    -1829    -1652    -1575    -1657    -1930    -2371 
   -2909    -3462    -3975    -4414    -4718    -4810    -4658    -4253 
   -3626    -2901    -2262    -1825    -1571    -1409    -1293    -1259 
   -1360    -1624    -2091    -2797    -3676    -4502    -4951    -4828 
   -4207    -3323    -2452    -1846    -1630    -1775    -2153    -2590 
   -2894    -2983    -2932    -2836    -2754    -2727    -2697    -2590 
   -2432    -2254    -2081    -2031    -2189    -2492    -2789    -2963 
   -3030    -3083    -3163    -3240    -3326    -3437    -3524    -3531 
   -3457    -3353    -3252    -3117    -2910    -2623    -2278    -1966 
   -1796    -1791    -1871    -1973    -2130    -2401    -2766    -3161 
   -3572    -3967    -4225    -4180    -3747    -3003    -2178    -1526 
   -1209    -1283    -1675    -2222    -2759    -3129    -3275    -3307 
   -3331    -3334    -3307    -3296    -3276    -3191    -3075    -2979 
   -2841    -2579    -2236    -1944    -1792    -1814    -1972    -2161 
   -2303    -2413    -2554    -2721    -2860    -2959    -3034    -3041 
   -2975    -2963    -3095    -3298    -3449    -3512    -3543    -3538 
   -3372    -2960    -2355    -1713    -1229    -1028    -1136    -1560 
   -2231    -2940    -3466    -3712    -3693    -3434    -2971    -2463 
   -2084    -1894    -1922    -2196    -2671    -3218    -3715    -4122 
   -4434    -4595    -4542    -4278    -3827    -3222    -2552    -1927 
   -1443    -1198    -1271    -1656    -2247    -2853    -3294    -3484 
   -3434    -3199    -2843    -2448    -2141    -1996    -1989    -2073 
   -2250    -2535    -2872    -3156    -3289    -3223    -2976    -2650 
   -2385    -2300    -2432    -2728    -3092    -3418    -3591    -3547 
   -3345    -3059    -2712    -2362    -2130    -2060    -2103    -2227 
   -2428    -2677    -2905    -3057    -3142    -3177    -3146    -2999 
   -2675    -2193    -1707    -1405    -1425    -1837    -2585    -3441 
   -4133    -4514    -4521    -4193    -3716    -3291    -2991    -2794 
   -2629    -2407    -2104    -1796    -1563    -1451    -1474    -1591 
   -1775    -2004    -2231    -2393    -2470    -2439    -2307    -2182 
   -2178    -2335    -2643    -3022    -3368    -3634    -3828    -3979 
   -4099    -4191    -4268    -4325    -4301    -4131    -3831    -3462 
   -3044    -2579    -2126    -1787    -1598    -1491    -1402    -1327 
   -1306    -1414    -1634    -1876    -2114    -2362    -2573    -2666 
   -2633    -2593    -2724    -3086    -3569    -4008    -4294    -4418 
   -4418    -4311    -4106    -3855    -3653    -3501    -3283    -2924 
   -2494    -2138    -1969    -1999    -2130    -2276    -2413    -2531 
   -2633    -2743    -2864    -2959    -2995    -2944    -2745    -2408 
   -2023    -1637    -1254     -934     -781     -838    -1086    -1498 
   -2020    -2583    -3146    -3678    -4110    -4349    -4382    -4275 
   -4102    -3929    -3801    -3704    -3573    -3358    -3069    -2756 
   -2500    -2361    -2301    -2245    -2195    -2219    -2365    -2631 
   -2911    -3030    -2944    -2762    -2535    -2286    -2099    -2027 
   -2076    -2207    -2330    -2362    -2284    -2176    -2150    -2265 
   -2519    -2868    -3233    -3523    -3677    -3703    -3677    -3703 
   -3827    -4002    -4151    -4221    -4185    -4010    -3666    -3171 
   -2587    -1957    -1317     -727     -228      105      132     -232 
    -936    -1833    -2762    -3576    -4183    -4536    -4592    -4388 
   -4068    -3726    -3365    -3052    -2855    -2779    -2825    -2955 
   -3082    -3150    -3123    -2976    -2712    -2347    -1949    -1660 
   -1614    -1823    -2191    -2608    -3019    -3392    -3663    -3793 
   -3773    -3585    -3227    -2759    -2292    -1938    -1749    -1676 
   -1664    -1715    -1837    -2030    -2311    -2637    -2920    -3103 
   -3180    -3186    -3157    -3113    -3082    -3080    -3057    -2998 
   -2951    -2918    -2883    -2879    -2880    -2835    -2745    -2623 
   -2502    -2462    -2546    -2749    -3028    -3298    -3474    -3504 
   -3376    -3118    -2817    -2620    -2589    -2687    -2852    -2970 
   -2945    -2816    -2643    -2409    -2135    -1894    -1737    -1694 
   -1771    -1911    -2087    -2316    -2601    -2937    -3308    -3650 
   -3894    -4016    -3990    -3801    -3497    -3190    -2984    -2895 
   -2848    -2774    -2654    -2504    -2365    -2249    -2154    -2073 
   -2002    -1942    -1921    -1950    -1996    -2034    -2134    -2378 
   -2762    -3225    -3697    -4072    -4249    -4194    -3993    -3755 
   -3477    -3117    -2681    -2236    -1896    -1715    -1640    -1615 
   -1638    -1723    -1914    -2277    -2783    -3298    -3721    -4006 
   -4104    -4035    -3879    -3673    -3397    -3048    -2627    -2169 
   -1749    -1429    -1240    -1208    -1351    -1653    -2077    -2548 
   -2975    -3307    -3555    -3766    -3979    -4179    -4272    -4164 
   -3862    -3460    -3017    -2570    -2170    -1841    -1583    -1410 
   -1347    -1393    -1521    -1702    -1941    -2253    -2631    -3051 
