Origin Time       2024/06/23 22:54:00
Lat.              35.645
Long.             140.060
Depth. (km)       72
Mag.              4.1
Station Code      CHBH19
Station Lat.      35.5943
Station Long.     140.5107
Station Height(m) 1
Record Time       2024/06/23 22:54:36
Sampling Freq(Hz) 100Hz
Duration Time(s)  120
Dir.              6
Scale Factor      7845(gal)/8223790
Max. Acc. (gal)   1.459
Last Correction   2024/06/23 22:54:36
Memo.             
[...]
    -479     -473     -472     -475     -479     -477     -475     -475 
    -475     -479     -484     -484     -481     -483     -487     -486 
    -481     -477     -475     -476     -477     -477     -481     -484 
    -483     -479     -476     -475     -473     -475     -477     -476 
    -475     -477     -473     -473     -479     -473     -461     -461 
    -463     -467     -476     -480     -486     -496     -491     -479 
    -471     -463     -460     -464     -465     -468     -475     -481 
    -487     -483     -473     -477     -481     -476     -475     -480 
    -477     -475     -477     -477     -480     -487     -480     -479 
    -483     -476     -475     -477     -469     -467     -475     -476 
    -475     -472     -471     -473     -476     -481     -483     -476 
    -471     -473     -472     -468     -469     -473     -472     -473 
    -477     -475     -473     -479     -479     -475     -473     -472 
    -472     -473     -476     -483     -487     -484     -486     -481 
    -477     -480     -475     -471     -475     -473     -472     -479 
    -480     -477     -481     -484     -477     -472     -471     -465 
    -456     -450     -440     -417     -395     -395     -405     -414 
    -438     -464     -472     -477     -492     -492     -467     -434 
    -390     -314     -251     -237     -271     -340     -399     -414 
    -403     -396     -436     -537     -642     -727     -780     -751 
    -676     -645     -648     -603     -491     -369     -301     -332 
    -502     -750     -984    -1129    -1085     -869     -616     -414 
    -317     -353     -400     -302     -153     -167     -334     -483 
    -540     -589     -722     -837     -837     -795     -731     -571 
    -290       74      390      484      328       16     -324     -584 
    -761     -858     -868     -832     -778     -696     -581     -456 
    -450     -619     -711     -525     -197        5      -60     -283 
    -365     -228     -125     -264     -568     -807     -830     -735 
    -697     -688     -630     -544     -433     -326     -302     -326 
    -360     -473     -629     -689     -635     -510     -365     -319 
    -352     -303     -216     -264     -453     -658     -742     -673 
    -580     -557     -552     -479     -353     -275     -280     -309 
    -311     -276     -248     -345     -562     -702     -661     -533 
    -440     -438     -444     -429     -484     -560     -623     -731 
    -766     -691     -648     -685     -766     -826     -758     -592 
    -388      -99      183      252      133      -17     -144     -291 
    -502     -693     -801     -843     -774     -606     -444     -363 
    -375     -403     -469     -639     -719     -579     -433     -382 
    -394     -552     -756     -792     -742     -769     -789     -622 
    -336     -256     -407     -391     -144      -17     -116     -348 
    -630     -796     -774     -589     -325     -157      -82      -67 
    -222     -406     -510     -673     -731     -637     -683     -764 
    -699     -556     -414     -427     -477     -325     -186     -229 
    -267     -303     -379     -387     -415     -506     -580     -626 
    -525     -376     -415     -438     -359     -391     -459     -463 
    -469     -481     -515     -564     -639     -801     -909     -810 
    -638     -535     -450     -321     -271     -460     -704     -691 
    -514     -427     -398     -298     -247     -399     -564     -557 
    -550     -557     -457     -351     -313     -318     -294     -184 
    -160     -314     -514     -662     -724     -730     -710     -646 
    -576     -488     -311     -108      -20     -114     -396     -723 
    -880     -901     -896     -795     -648     -542     -411     -282 
    -166      -17        6     -148     -345     -488     -527     -589 
    -735     -778     -741     -753     -818     -913     -872     -591 
    -268      -85      -66     -189     -364     -477     -502     -506 
    -511     -526     -599     -672     -603     -392     -206     -183 
    -337     -561     -730     -793     -766     -685     -544     -346 
    -222     -291     -515     -702     -679     -518     -351     -226 
    -205     -224     -209     -248     -353     -460     -510     -468 
    -445     -495     -504     -456     -409     -445     -615     -780 
    -808     -729     -638     -604     -521     -338     -249     -326 
    -453     -484     -390     -365     -494     -611     -695     -729 
    -612     -472     -475     -562     -608     -486     -261     -191 
    -294     -406     -440     -376     -301     -307     -349     -413 
    -553     -654     -627     -600     -610     -631     -673     -622 
    -434     -276     -270     -292     -194      -70      -83     -270 
    -530     -689     -753     -818     -811     -719     -603     -472 
    -348     -310     -348     -351     -351     -444     -565     -612 
    -510     -332     -302     -440     -545     -510     -450     -452 
    -456     -441     -361     -236     -288     -562     -847     -990 
    -965     -847     -641     -336     -117     -113     -220     -279 
    -249     -249     -305     -348     -468     -666     -839    -1007 
   -1082     -962     -747     -488     -253     -213     -257     -238 
    -278     -375     -456     -556     -610     -615     -664     -672 
    -618     -542     -361     -168     -159     -275     -392     -487 
    -531     -511     -457     -461     -571     -656     -589     -437 
    -284     -159     -121     -155     -197     -299     -445     -573 
    -670     -625     -456     -332     -265     -299     -457     -537 
    -483     -481     -616     -780     -807     -691     -587     -522 
    -453     -432     -464     -511     -535     -486     -409     -415 
    -499     -560     -542     -507     -488     -502     -630     -819 
    -915     -927     -874     -679     -359      -52      110       71 
     -66     -145     -126      -78     -149     -379     -573     -656 
    -715     -743     -685     -540     -340     -151      -71     -191 
    -434     -637     -792     -918     -986     -988     -866     -689 
    -588     -492     -355     -251     -156      -98     -199     -432 
    -662     -808     -831     -742     -571     -409     -309     -252 
    -325     -481     -562     -579     -495     -359     -290     -197 
    -179     -345     -481     -554     -594     -546     -567     -706 
    -762     -626     -396     -284     -346     -388     -307     -280 
    -398     -561     -737     -864     -841     -703     -461      -76 
     337      430       18     -522     -764     -735     -635     -600 
    -681     -787     -803     -750     -739     -788     -739     -429 
     -25       78      -98     -317     -548     -692     -611     -386 
    -210     -184     -244     -321     -375     -342     -321     -426 
    -558     -588     -480     -400     -521     -673     -680     -600 
    -492     -421     -469     -616     -761     -784     -703     -658 
    -665     -585     -359     -172     -221     -383     -477     -549 
    -626     -685     -789     -931     -996     -901     -657     -328 
      -4      187      247      243      122     -103     -329     -553 
    -742     -797     -739     -577     -384     -402     -596     -695 
    -653     -549     -504     -599     -645     -533     -372     -214 
    -135     -220     -384     -468     -475     -530     -633     -688 
    -702     -730     -742     -735     -831     -970     -922     -643 
    -283      -45      -48     -224     -448     -567     -503     -384 
    -319     -228      -95      -70     -210     -418     -530     -484 
    -427     -491     -653     -770     -630     -340     -241     -306 
    -321     -255     -211     -287     -429     -600     -780     -819 
    -712     -639     -603     -494     -388     -361     -410     -537 
    -602     -554     -561     -643     -683     -629     -542     -504 
    -506     -533     -579     -581     -521     -402     -287     -265 
    -302     -315     -315     -345     -405     -459     -490     -506 
    -529     -577     -649     -707     -688     -608     -518     -387 
    -230     -153     -189     -303     -492     -710     -811     -724 
    -569     -490     -476     -448     -406     -398     -398     -376 
    -407     -476     -441     -314     -222     -186     -209     -317 
    -477     -650     -793     -839     -778     -684     -600     -521 
    -441     -387     -371     -337     -276     -255     -257     -319 
    -531     -746     -783     -726     -672     -569     -386     -202 
    -135     -178     -247     -365     -584     -807     -931     -926 
    -791     -603     -461     -388     -382     -382     -310     -225 
    -247     -363     -507     -664     -757     -754     -718     -584 
    -318      -71       91      140       25     -116     -180     -278 
    -452     -610     -731     -810     -827     -823     -793     -702 
    -602     -564     -611     -731     -815     -707     -471     -298 
    -218     -263     -452     -606     -627     -581     -484     -371 
    -310     -341     -450     -503     -454     -457     -553     -603 
    -569     -568     -643     -685     -615     -486     -368     -259 
    -170     -168     -267     -386     -441     -468     -553     -661 
    -666     -513     -352     -344     -367     -306     -261     -283 
    -284     -245     -272     -418     -600     -764     -899     -978 
    -967     -800     -491     -209      -94     -157     -371     -618 
    -739     -729     -661     -596     -600     -645     -641     -576 
    -442     -284     -190     -160     -152     -167     -234     -305 
    -298     -260     -191      -76      -75     -220     -406     -635 
    -835     -915     -908     -855     -796     -733     -607     -472 
    -472     -594     -724     -777     -670     -441     -252     -168 
    -120     -124     -236     -353     -432     -558     -711     -830 
    -897     -889     -828     -703     -460     -184        0       74 
      33      -79     -170     -240     -341     -468     -595     -687 
    -726     -696     -611     -541     -513     -464     -329     -195 
    -206     -351     -568     -803     -926     -936     -909     -864 
    -819     -762     -652     -514     -376     -255     -210     -247 
    -317     -386     -376     -297     -267     -278     -286     -310 
    -341     -361     -336     -291     -345     -459     -548     -642 
    -692     -675     -692     -731     -742     -733     -637     -425 
    -222     -118     -122     -249     -446     -603     -658     -608 
    -507     -430     -360     -280     -244     -241     -229     -203 
    -205     -278     -384     -457     -495     -538     -637     -778 
    -919    -1032    -1013     -810     -608     -545     -533     -549 
    -626     -677     -581     -355     -180     -195     -286     -288 
    -225     -203     -295     -527     -795     -869     -700     -515 
    -448     -430     -413     -396     -368     -301     -217     -183 
    -278     -475     -608     -626     -629     -677     -784     -895 
    -897     -760     -542     -325     -116       83      175      140 
      60      -45     -207     -430     -695     -919    -1066    -1161 
   -1147     -994     -820     -703     -588     -456     -332     -198 
     -55       59      136      209      272      256      116      -97 
    -326     -585     -886    -1183    -1379    -1387    -1221     -985 
    -803     -715     -625     -422     -166      -43     -139     -315 
    -399     -368     -310     -311     -392     -494     -550     -600 
    -714     -815     -783     -608     -348     -172     -214     -333 
    -403     -436     -406     -342     -303     -313     -406     -526 
    -614     -662     -648     -572     -494     -499     -569     -557 
    -454     -400     -442     -557     -733     -893     -922     -772 
    -538     -342     -213     -118      -49       -5       49       95 
      41      -94     -222     -380     -594     -780     -885     -905 
    -845     -749     -646     -577     -625     -706     -672     -558 
    -411     -230     -129     -153     -222     -274     -291     -344 
    -498     -715     -966    -1258    -1452    -1367    -1047     -680 
    -413     -288     -233     -155       18      275      425      368 
     202      -16     -290     -618     -938    -1147    -1221    -1189 
   -1078     -949     -822     -656     -395      -75      148      202 
     170      108       29      -44     -132     -314     -610     -943 
   -1255    -1474    -1490    -1351    -1190     -992     -692     -376 
    -201     -160     -130      -54       27       -4     -206     -496 
    -699     -704     -558     -384     -291     -307     -367     -464 
    -619     -780     -884     -874     -734     -521     -265       24 
     248      344      378      406      434      467      471      341 
      13     -464     -970    -1350    -1578    -1748    -1825    -1725 
   -1444    -1084     -788     -572     -384     -238     -105       28 
      91       81        9     -155     -398     -668     -895    -1016 
   -1063    -1054     -927     -688     -426     -224     -112      -74 
     -97     -170     -268     -375     -467     -541     -604     -646 
    -685     -706     -652     -550     -422     -238      -24      179 
     378      561      616      454      183      -68     -337     -720 
   -1197    -1610    -1872    -2004    -1975    -1760    -1412    -1017 
    -712     -583     -561     -506     -328      -35      322      657 
     826      747      442       -9     -440     -695     -741     -639 
    -542     -498     -395     -248     -174     -217     -359     -499 
    -548     -531     -496     -418     -357     -469     -789    -1200 
   -1534    -1672    -1590    -1313     -885     -436      -64      261 
     561      773      822      689      429       82     -306     -645 
    -913    -1174    -1416    -1518    -1394    -1078     -696     -382 
    -160      -22       -4      -36      -74     -230     -521     -808 
    -986     -997     -846     -616     -418     -282     -230     -319 
    -499     -645     -729     -789     -881    -1023    -1124    -1047 
    -742     -346      -37      118      137       79       -2      -58 
     -54      -75     -190     -341     -453     -519     -630     -841 
   -1011     -946     -631     -232       94      272      329      348 
     371      348      121     -392    -1042    -1568    -1776    -1664 
   -1358     -984     -727     -707     -850    -1017    -1050     -857 
    -557     -280      -79      -25      -87     -121      -78      -49 
    -202     -607    -1089    -1393    -1414    -1182     -807     -422 
     -82      186      318      326      294      236      121      -10 
    -147     -334     -565     -776     -934    -1039    -1104    -1120 
   -1027     -787     -473     -189       54      255      394      461 
     411      247       60     -124     -341     -557     -711     -822 
    -950    -1142    -1418    -1748    -1985    -1981    -1692    -1161 
    -550      -41      329      567      635      529      286      -28 
    -373     -734    -1040    -1206    -1189    -1013     -765     -538 
    -392     -318     -256     -190     -157     -168     -178     -120 
     -49     -130     -402     -734     -969     -984     -797     -541 
    -328     -253     -341     -473     -544     -545     -527     -538 
    -561     -535     -418     -247     -120     -105     -166     -213 
    -216     -263     -449     -787    -1178    -1428    -1401    -1139 
    -746     -333        1      182      191      112       44       24 
      25       -1      -91     -234     -410     -616     -810     -923 
    -946     -915     -857     -789     -746     -760     -814     -853 
    -792     -575     -203      224      461      337      -67     -608 
   -1136    -1421    -1333     -974     -610     -488     -630     -853 
    -955     -783     -349       76      241      155        9      -59 
     -56      -64     -184     -465     -793     -962     -838     -468 
     -58      128      -39     -425     -760     -846     -634     -243 
     132      348      298      -17     -442     -834    -1185    -1476 
   -1629    -1637    -1548    -1387    -1146     -830     -484     -143 
     148      317      373      356      279      171       24     -190 
    -445     -661     -788     -853     -891     -930     -981    -1015 
    -994     -869     -633     -399     -264     -201     -143      -62 
      48      172      249      191      -39     -382     -706     -911 
    -989     -954     -816     -649     -556     -546     -596     -665 
    -666     -580     -446     -259      -60       27      -40     -172 
    -249     -286     -380     -517     -665     -846     -988    -1036 
   -1013     -891     -681     -463     -283     -171     -124     -124 
    -156     -162     -133     -184     -402     -764    -1189    -1520 
   -1613    -1459    -1159     -830     -523     -255      -48      120 
     276      363      345      253       90     -151     -414     -581 
    -568     -438     -341     -341     -430     -577     -719     -785 
    -761     -710     -676     -625     -508     -337     -175     -110 
    -153     -257     -395     -508     -530     -491     -504     -643 
    -862    -1030    -1057     -936     -723     -518     -382     -371 
    -480     -621     -757     -847     -826     -746     -657     -526 
    -405     -348     -310     -272     -260     -247     -224     -205 
    -190     -193     -201     -206     -272     -417     -549     -619 
    -631     -580     -484     -375     -276     -228     -244     -326 
    -436     -506     -468     -291      -75       22      -58     -305 
    -629     -893    -1044    -1127    -1161    -1144    -1097    -1016 
    -862     -612     -260      128      414      530      469      255 
     -70     -440     -785    -1069    -1236    -1236    -1125    -1013 
    -953     -943     -942     -880     -735     -529     -318     -180 
    -139     -155     -167     -109       18      141      149      -12 
    -317     -695    -1015    -1139    -1046     -815     -515     -190 
      89      252      291      214       36     -174     -345     -461 
    -521     -548     -591     -676     -805     -931     -976     -909 
    -729     -496     -356     -342     -361     -384     -442     -508 
    -562     -615     -664     -679     -633     -554     -517     -527 
    -562     -621     -654     -622     -553     -464     -353     -252 
    -199     -256     -411     -581     -712     -793     -815     -787 
    -737     -700     -673     -634     -557     -430     -328     -294 
    -270     -218     -147      -70      -31      -43      -98     -199 
    -299     -380     -502     -661     -784     -800     -681     -510 
    -403     -390     -433     -483     -473     -378     -234      -90 
      13       24      -90     -309     -530     -697     -824     -876 
    -832     -749     -641     -480     -298     -157     -102     -140 
    -237     -363     -508     -652     -751     -816     -899    -1009 
   -1085    -1069     -936     -720     -507     -380     -349     -352 
    -315     -233     -143      -93     -140     -279     -446     -568 
