Origin Time       2024/06/23 22:54:00
Lat.              35.645
Long.             140.060
Depth. (km)       72
Mag.              4.1
Station Code      CHBH06
Station Lat.      35.7215
Station Long.     140.5046
Station Height(m) 35
Record Time       2024/06/23 22:54:37
Sampling Freq(Hz) 100Hz
Duration Time(s)  120
Dir.              6
Scale Factor      7845(gal)/8223790
Max. Acc. (gal)   2.848
Last Correction   2024/06/23 22:54:37
Memo.             
[...]
  -18198   -18198   -18199   -18196   -18191   -18193   -18198   -18199 
  -18203   -18210   -18208   -18204   -18200   -18196   -18196   -18196 
  -18195   -18187   -18184   -18189   -18191   -18189   -18195   -18199 
  -18195   -18195   -18199   -18204   -18202   -18195   -18196   -18200 
  -18195   -18189   -18188   -18187   -18187   -18187   -18192   -18199 
  -18200   -18199   -18198   -18198   -18200   -18202   -18202   -18200 
  -18193   -18184   -18183   -18187   -18193   -18195   -18192   -18191 
  -18192   -18196   -18199   -18198   -18193   -18192   -18199   -18203 
  -18196   -18189   -18187   -18185   -18188   -18196   -18199   -18199 
  -18202   -18204   -18204   -18200   -18199   -18195   -18187   -18185 
  -18193   -18202   -18202   -18198   -18198   -18200   -18202   -18203 
  -18202   -18191   -18184   -18195   -18207   -18208   -18206   -18200 
  -18193   -18189   -18191   -18195   -18200   -18200   -18199   -18199 
  -18199   -18196   -18200   -18207   -18203   -18195   -18192   -18191 
  -18189   -18199   -18203   -18200   -18202   -18202   -18198   -18196 
  -18195   -18193   -18199   -18203   -18198   -18193   -18196   -18199 
  -18202   -18200   -18193   -18191   -18191   -18191   -18193   -18200 
  -18206   -18203   -18195   -18192   -18193   -18192   -18196   -18200 
  -18202   -18196   -18191   -18192   -18196   -18196   -18192   -18195 
  -18202   -18203   -18199   -18198   -18202   -18207   -18202   -18191 
  -18188   -18192   -18195   -18195   -18198   -18200   -18193   -18191 
  -18199   -18202   -18196   -18189   -18187   -18192   -18196   -18200 
  -18203   -18198   -18192   -18193   -18195   -18192   -18193   -18195 
  -18193   -18196   -18200   -18199   -18198   -18198   -18198   -18196 
  -18193   -18189   -18189   -18192   -18192   -18191   -18193   -18195 
  -18192   -18192   -18193   -18195   -18195   -18198   -18200   -18193 
  -18192   -18193   -18195   -18196   -18193   -18192   -18188   -18184 
  -18189   -18196   -18196   -18195   -18195   -18196   -18195   -18191 
  -18189   -18188   -18189   -18193   -18193   -18189   -18191   -18199 
  -18198   -18191   -18189   -18193   -18193   -18193   -18195   -18193 
  -18192   -18196   -18198   -18191   -18188   -18189   -18188   -18189 
  -18196   -18199   -18195   -18195   -18196   -18196   -18200   -18198 
  -18191   -18188   -18188   -18189   -18192   -18192   -18192   -18195 
  -18203   -18202   -18191   -18187   -18191   -18195   -18196   -18195 
  -18195   -18196   -18192   -18188   -18192   -18196   -18191   -18192 
  -18196   -18195   -18198   -18199   -18198   -18199   -18199   -18196 
  -18192   -18196   -18202   -18196   -18193   -18196   -18198   -18195 
  -18193   -18195   -18199   -18196   -18198   -18206   -18202   -18193 
  -18195   -18200   -18199   -18196   -18199   -18203   -18199   -18196 
  -18198   -18199   -18200   -18199   -18196   -18198   -18198   -18199 
  -18200   -18198   -18199   -18200   -18199   -18195   -18195   -18200 
  -18203   -18202   -18200   -18198   -18202   -18208   -18203   -18199 
  -18203   -18202   -18198   -18198   -18199   -18200   -18199   -18198 
  -18199   -18199   -18198   -18198   -18200   -18200   -18202   -18202 
  -18199   -18198   -18198   -18196   -18198   -18200   -18200   -18203 
  -18207   -18203   -18195   -18193   -18196   -18202   -18207   -18204 
  -18196   -18192   -18193   -18200   -18204   -18204   -18204   -18196 
  -18189   -18196   -18204   -18203   -18199   -18196   -18195   -18195 
  -18195   -18198   -18202   -18198   -18196   -18200   -18200   -18196 
  -18193   -18193   -18198   -18199   -18192   -18189   -18195   -18202 
  -18199   -18195   -18196   -18196   -18195   -18193   -18198   -18199 
  -18196   -18196   -18196   -18191   -18189   -18195   -18196   -18195 
  -18196   -18199   -18198   -18196   -18199   -18199   -18199   -18200 
  -18198   -18192   -18193   -18202   -18200   -18193   -18192   -18192 
  -18193   -18198   -18203   -18202   -18198   -18195   -18195   -18199 
  -18202   -18198   -18193   -18195   -18199   -18198   -18195   -18199 
  -18203   -18199   -18192   -18195   -18200   -18200   -18198   -18200 
  -18206   -18202   -18193   -18192   -18198   -18200   -18199   -18196 
  -18195   -18195   -18192   -18195   -18199   -18200   -18200   -18195 
  -18193   -18193   -18191   -18195   -18203   -18202   -18195   -18193 
  -18196   -18192   -18189   -18196   -18202   -18196   -18192   -18193 
  -18198   -18199   -18198   -18192   -18192   -18196   -18196   -18193 
  -18193   -18192   -18189   -18191   -18195   -18199   -18199   -18193 
  -18192   -18196   -18198   -18195   -18193   -18195   -18192   -18187 
  -18189   -18193   -18191   -18188   -18193   -18198   -18198   -18198 
  -18195   -18193   -18196   -18196   -18195   -18196   -18195   -18191 
  -18189   -18195   -18196   -18195   -18193   -18192   -18196   -18200 
  -18196   -18191   -18198   -18202   -18195   -18191   -18191   -18191 
  -18198   -18200   -18196   -18199   -18202   -18199   -18200   -18196 
  -18188   -18187   -18191   -18196   -18200   -18202   -18199   -18196 
  -18195   -18191   -18188   -18196   -18202   -18199   -18193   -18195 
  -18198   -18195   -18196   -18202   -18202   -18199   -18198   -18200 
  -18204   -18200   -18193   -18193   -18196   -18196   -18198   -18199 
  -18199   -18199   -18199   -18195   -18195   -18199   -18198   -18198 
  -18202   -18203   -18199   -18195   -18193   -18191   -18191   -18196 
  -18202   -18199   -18195   -18196   -18196   -18195   -18195   -18192 
  -18192   -18196   -18199   -18200   -18200   -18193   -18188   -18188 
  -18192   -18199   -18199   -18192   -18189   -18193   -18196   -18192 
  -18193   -18199   -18196   -18189   -18189   -18195   -18199   -18198 
  -18195   -18192   -18191   -18195   -18198   -18198   -18198   -18198 
  -18196   -18195   -18195   -18193   -18193   -18195   -18198   -18202 
  -18200   -18198   -18196   -18193   -18192   -18193   -18196   -18202 
  -18200   -18199   -18199   -18196   -18193   -18195   -18196   -18202 
  -18207   -18206   -18199   -18195   -18198   -18202   -18203   -18202 
  -18199   -18198   -18199   -18199   -18199   -18196   -18199   -18203 
  -18202   -18203   -18204   -18199   -18193   -18198   -18204   -18207 
  -18202   -18198   -18193   -18192   -18196   -18203   -18203   -18199 
  -18198   -18198   -18196   -18199   -18202   -18200   -18196   -18192 
  -18191   -18199   -18204   -18202   -18196   -18196   -18199   -18198 
  -18198   -18204   -18203   -18193   -18188   -18189   -18192   -18196 
  -18200   -18206   -18204   -18195   -18189   -18195   -18202   -18203 
  -18200   -18195   -18195   -18198   -18195   -18198   -18202   -18196 
  -18192   -18193   -18198   -18203   -18206   -18204   -18202   -18196 
  -18191   -18198   -18207   -18206   -18199   -18193   -18196   -18202 
  -18203   -18196   -18193   -18200   -18203   -18198   -18199   -18206 
  -18202   -18196   -18196   -18198   -18196   -18196   -18199   -18206 
  -18202   -18195   -18202   -18203   -18196   -18193   -18195   -18198 
  -18199   -18198   -18199   -18202   -18203   -18200   -18192   -18189 
  -18193   -18200   -18204   -18202   -18196   -18191   -18188   -18196 
  -18207   -18203   -18195   -18191   -18193   -18196   -18199   -18199 
  -18196   -18192   -18191   -18198   -18202   -18200   -18200   -18193 
  -18191   -18196   -18199   -18198   -18200   -18199   -18195   -18193 
  -18195   -18198   -18198   -18195   -18195   -18193   -18192   -18196 
  -18202   -18200   -18193   -18189   -18189   -18198   -18196   -18192 
  -18193   -18196   -18198   -18202   -18200   -18196   -18196   -18193 
  -18192   -18198   -18199   -18192   -18184   -18187   -18195   -18198 
  -18198   -18195   -18193   -18195   -18193   -18192   -18195   -18199 
  -18198   -18193   -18193   -18195   -18189   -18191   -18196   -18195 
  -18195   -18198   -18195   -18191   -18193   -18196   -18196   -18196 
  -18195   -18192   -18191   -18192   -18198   -18198   -18195   -18195 
  -18193   -18185   -18187   -18196   -18199   -18192   -18189   -18191 
  -18193   -18198   -18193   -18188   -18195   -18202   -18198   -18192 
  -18193   -18195   -18192   -18193   -18198   -18196   -18193   -18196 
  -18199   -18196   -18192   -18188   -18191   -18200   -18203   -18199 
  -18196   -18192   -18192   -18198   -18196   -18192   -18191   -18193 
  -18199   -18200   -18195   -18191   -18191   -18196   -18202   -18200 
  -18195   -18195   -18198   -18198   -18192   -18191   -18193   -18192 
  -18192   -18195   -18199   -18196   -18192   -18192   -18193   -18195 
  -18199   -18202   -18203   -18202   -18198   -18195   -18198   -18199 
  -18195   -18191   -18193   -18202   -18200   -18193   -18191   -18195 
  -18198   -18198   -18202   -18198   -18192   -18195   -18202   -18204 
  -18202   -18196   -18195   -18196   -18198   -18198   -18199   -18200 
  -18193   -18189   -18196   -18204   -18206   -18203   -18202   -18200 
  -18202   -18203   -18203   -18204   -18202   -18196   -18196   -18202 
  -18207   -18203   -18196   -18198   -18202   -18199   -18199   -18207 
  -18207   -18199   -18198   -18206   -18211   -18204   -18196   -18199 
  -18196   -18193   -18203   -18208   -18204   -18199   -18196   -18196 
  -18196   -18199   -18207   -18208   -18204   -18202   -18202   -18199 
  -18199   -18199   -18200   -18200   -18200   -18203   -18204   -18200 
  -18199   -18199   -18195   -18195   -18200   -18200   -18196   -18199 
  -18203   -18203   -18202   -18199   -18202   -18203   -18200   -18193 
  -18191   -18192   -18198   -18199   -18195   -18193   -18195   -18195 
  -18199   -18204   -18200   -18196   -18198   -18203   -18204   -18200 
  -18196   -18196   -18196   -18196   -18195   -18191   -18188   -18193 
  -18200   -18200   -18198   -18199   -18202   -18199   -18196   -18196 
  -18196   -18195   -18195   -18196   -18195   -18191   -18189   -18192 
  -18193   -18193   -18192   -18192   -18198   -18202   -18203   -18203 
  -18199   -18195   -18192   -18192   -18200   -18203   -18192   -18185 
  -18191   -18193   -18196   -18199   -18198   -18199   -18199   -18195 
  -18196   -18199   -18198   -18195   -18195   -18198   -18195   -18191 
  -18196   -18199   -18193   -18192   -18196   -18196   -18193   -18192 
  -18198   -18204   -18202   -18193   -18195   -18202   -18203   -18199 
  -18199   -18200   -18198   -18189   -18192   -18202   -18202   -18196 
  -18198   -18198   -18193   -18196   -18203   -18203   -18196   -18192 
  -18198   -18203   -18200   -18196   -18193   -18193   -18199   -18203 
  -18200   -18196   -18193   -18189   -18193   -18203   -18206   -18200 
  -18198   -18198   -18196   -18196   -18195   -18192   -18193   -18198 
  -18199   -18199   -18193   -18188   -18188   -18192   -18196   -18199 
  -18193   -18185   -18191   -18199   -18196   -18192   -18191   -18189 
  -18191   -18195   -18195   -18195   -18195   -18193   -18193   -18195 
  -18193   -18191   -18189   -18193   -18198   -18196   -18195   -18193 
  -18192   -18191   -18191   -18191   -18193   -18196   -18198   -18198 
  -18199   -18198   -18193   -18191   -18195   -18195   -18192   -18195 
  -18195   -18193   -18196   -18198   -18195   -18199   -18199   -18193 
  -18193   -18198   -18196   -18195   -18198   -18200   -18200   -18198 
  -18196   -18196   -18193   -18192   -18196   -18202   -18200   -18196 
  -18198   -18199   -18196   -18196   -18198   -18199   -18203   -18203 
  -18193   -18189   -18193   -18198   -18195   -18195   -18196   -18196 
  -18198   -18200   -18199   -18193   -18195   -18203   -18208   -18203 
  -18189   -18185   -18196   -18206   -18203   -18200   -18200   -18196 
  -18191   -18193   -18199   -18199   -18199   -18202   -18203   -18200 
  -18198   -18202   -18202   -18196   -18196   -18199   -18195   -18195 
  -18200   -18200   -18193   -18193   -18200   -18200   -18199   -18203 
  -18202   -18198   -18199   -18202   -18200   -18196   -18195   -18195 
  -18198   -18196   -18193   -18196   -18199   -18199   -18202   -18204 
  -18204   -18204   -18200   -18199   -18202   -18202   -18196   -18195 
  -18198   -18200   -18199   -18199   -18204   -18207   -18203   -18200 
  -18203   -18203   -18198   -18193   -18196   -18200   -18202   -18204 
  -18207   -18203   -18199   -18200   -18199   -18199   -18199   -18200 
  -18200   -18198   -18198   -18202   -18203   -18196   -18187   -18171 
  -18148   -18123   -18095   -18068   -18056   -18068   -18095   -18127 
  -18168   -18226   -18306   -18382   -18430   -18418   -18327   -18166 
  -17984   -17848   -17787   -17793   -17840   -17871   -17821   -17766 
  -17874   -18168   -18561   -18959   -19188   -19144   -19021   -19048 
  -19179   -19217   -18970   -18320   -17454   -16881   -16922   -17352 
  -17741   -17864   -17703   -17416   -17281   -17496   -18037   -18721 
  -19329   -19707   -19831   -19724   -19317   -18538   -17644   -17127 
  -17174   -17555   -17946   -18076   -17838   -17466   -17344   -17653 
  -18304   -19037   -19473   -19383   -18995   -18709   -18603   -18495 
  -18253   -17883   -17490   -17247   -17226   -17305   -17406   -17539 
  -17674   -17821   -18009   -18243   -18535   -18885   -19295   -19683 
  -19701   -19045   -17971   -17213   -17294   -18000   -18597   -18623 
  -18246   -17863   -17659   -17547   -17410   -17363   -17617   -18195 
  -18851   -19151   -18798   -17929   -17096   -16972   -17739   -18823 
  -19475   -19448   -19029   -18632   -18387   -18165   -17864   -17477 
  -17132   -17076   -17382   -17795   -17987   -17991   -18245   -19078 
  -20286   -21182   -21062   -19854   -18303   -17239   -16812   -16671 
  -16546   -16470   -16649   -17151   -17602   -17581   -17227   -17077 
  -17560   -18708   -20015   -20788   -20655   -19749   -18659   -18033 
  -18007   -18239   -18369   -18189   -17622   -16822   -16171   -16031 
  -16572   -17748   -19182   -20218   -20405   -19766   -18724   -17874 
  -17605   -17813   -18117   -18202   -17994   -17658   -17433   -17483 
  -17811   -18242   -18523   -18455   -18077   -17740   -17748   -18100 
  -18630   -19090   -19272   -19101   -18628   -18091   -17826   -17946 
  -18231   -18403   -18331   -18030   -17662   -17459   -17563   -17987 
  -18604   -19122   -19168   -18551   -17559   -16843   -16883   -17624 
  -18648   -19433   -19530   -18886   -18052   -17636   -17706   -18013 
  -18335   -18489   -18442   -18291   -18018   -17637   -17450   -17768 
  -18455   -18941   -18752   -18122   -17868   -18412   -19205   -19352 
  -18603   -17583   -17163   -17586   -18242   -18324   -17679   -17011 
  -17099   -17879   -18523   -18353   -17663   -17451   -18295   -19677 
  -20447   -19946   -18647   -17631   -17586   -18258   -18704   -18323 
  -17533   -17113   -17300   -17790   -18133   -18057   -17755   -17726 
  -18231   -18995   -19394   -19043   -18256   -17726   -17848   -18360 
  -18640   -18361   -17864   -17751   -18108   -18381   -18081   -17379 
  -16900   -17135   -18052   -19072   -19583   -19508   -19202   -18937 
  -18766   -18647   -18482   -18164   -17709   -17243   -16961   -17050 
  -17444   -17787   -17825   -17662   -17547   -17717   -18288   -19039 
  -19489   -19363   -18848   -18419   -18395   -18681   -18960   -18939 
  -18505   -17890   -17462   -17296   -17244   -17267   -17433   -17747 
  -18112   -18490   -18889   -19105   -18882   -18360   -18004   -18099 
  -18407   -18470   -18196   -17922   -17938   -18112   -18077   -17791 
  -17617   -17793   -18198   -18577   -18738   -18673   -18511   -18328 
  -18233   -18403   -18777   -19016   -18850   -18326   -17697   -17155 
  -16806   -16808   -17217   -17766   -18130   -18272   -18408   -18738 
  -19179   -19391   -19155   -18620   -18157   -18044   -18241   -18385 
  -18115   -17506   -17062   -17278   -18215   -19249   -19487   -18711 
  -17682   -17331   -17798   -18458   -18763   -18673   -18442   -18252 
  -18045   -17687   -17197   -16843   -16983   -17622   -18296   -18522 
  -18273   -17969   -18114   -18879   -19792   -20029   -19321   -18220 
  -17451   -17348   -17810   -18393   -18585   -18284   -17884   -17736 
  -17794   -17944   -18214   -18566   -18814   -18840   -18642   -18303 
  -18023   -17948   -17944   -17815   -17544   -17298   -17329   -17670 
  -18050   -18323   -18528   -18612   -18469   -18223   -18148   -18365 
  -18798   -19296   -19561   -19282   -18546   -17770   -17313   -17348 
  -17801   -18314   -18453   -18134   -17744   -17658   -17807   -17977 
  -18185   -18486   -18717   -18635   -18192   -17716   -17659   -17984 
  -18234   -18239   -18247   -18436   -18623   -18462   -17895   -17321 
  -17211   -17632   -18287   -18833   -19072   -19066   -19029   -18959 
  -18670   -18237   -17880   -17637   -17563   -17809   -18227   -18428 
  -18195   -17612   -17035   -16926   -17425   -18180   -18698   -18789 
  -18625   -18505   -18535   -18603   -18616   -18617   -18674   -18767 
  -18782   -18623   -18358   -18138   -17975   -17838   -17805   -17824 
  -17767   -17766   -17995   -18281   -18318   -17992   -17450   -17113 
  -17366   -18056   -18678   -18975   -19003   -18816   -18408   -17898 
  -17523   -17524   -18015   -18779   -19313   -19271   -18733   -18049 
  -17591   -17598   -18013   -18478   -18617   -18377   -18058   -17984 
  -18210   -18488   -18497   -18218   -17857   -17610   -17680   -18041 
  -18284   -18144   -17782   -17523   -17610   -18042   -18512   -18686 
  -18513   -18231   -18102   -18171   -18307   -18435   -18608   -18863 
  -19044   -18847   -18212   -17494   -17131   -17294   -17825   -18368 
  -18627   -18594   -18424   -18223   -18100   -18187   -18382   -18378 
  -18085   -17766   -17659   -17799   -18123   -18457   -18598   -18534 
  -18353   -18148   -18004   -17990   -18129   -18384   -18643   -18801 
  -18773   -18543   -18242   -18053   -18050   -18171   -18266   -18181 
  -17955   -17859   -18026   -18230   -18195   -17902   -17563   -17464 
  -17740   -18177   -18420   -18395   -18265   -18130   -18034   -18033 
  -18094   -18145   -18250   -18561   -19002   -19206   -18939   -18381 
  -17899   -17784   -18041   -18283   -18156   -17741   -17398   -17405 
  -17780   -18277   -18593   -18635   -18543   -18484   -18488   -18435 
  -18206   -17918   -17844   -17991   -18102   -18076   -18067   -18133 
  -18230   -18376   -18527   -18526   -18366   -18241   -18306   -18577 
  -18918   -19072   -18844   -18273   -17594   -17153   -17221   -17706 
  -18127   -18075   -17586   -17068   -16993   -17579   -18611   -19526 
  -19753   -19186   -18277   -17593   -17442   -17806   -18366   -18732 
  -18832   -18805   -18590   -18144   -17786   -17788   -18013   -18216 
  -18323   -18320   -18238   -18219   -18349   -18517   -18542   -18308 
  -17922   -17668   -17702   -17901   -18013   -17864   -17599   -17550 
  -17805   -18193   -18547   -18747   -18771   -18704   -18632   -18570 
  -18443   -18225   -18036   -17987   -18040   -18063   -17957   -17817 
  -17860   -18075   -18222   -18242   -18341   -18663   -19076   -19349 
  -19302   -18801   -17964   -17228   -16915   -17020   -17383   -17806 
  -18142   -18393   -18594   -18665   -18493   -18176   -18065   -18343 
  -18713   -18752   -18397   -17964   -17734   -17764   -18031   -18409 
  -18601   -18436   -18056   -17691   -17501   -17617   -18046   -18528 
  -18817   -18873   -18634   -18090   -17527   -17365   -17732   -18350 
  -18882   -19134   -18941   -18304   -17599   -17255   -17370   -17820 
