Origin Time       2024/06/23 22:54:00
Lat.              35.645
Long.             140.060
Depth. (km)       72
Mag.              4.1
Station Code      CHBH16
Station Lat.      35.1384
Station Long.     139.9649
Station Height(m) -1842.75
Record Time       2024/06/23 22:54:46
Sampling Freq(Hz) 100Hz
Duration Time(s)  120
Dir.              2
Scale Factor      7845(gal)/8223790
Max. Acc. (gal)   0.336
Last Correction   2024/06/23 22:54:46
Memo.             
[...]
  -13382   -13385   -13385   -13378   -13383   -13386   -13382   -13385 
  -13383   -13383   -13389   -13383   -13385   -13385   -13379   -13383 
  -13386   -13382   -13385   -13383   -13383   -13385   -13379   -13382 
  -13385   -13382   -13386   -13386   -13382   -13385   -13383   -13383 
  -13386   -13382   -13385   -13385   -13381   -13386   -13385   -13382 
  -13386   -13383   -13383   -13386   -13382   -13385   -13386   -13382 
  -13389   -13386   -13382   -13386   -13383   -13385   -13387   -13382 
  -13386   -13387   -13381   -13387   -13386   -13382   -13386   -13383 
  -13382   -13386   -13382   -13386   -13387   -13381   -13387   -13387 
  -13382   -13389   -13385   -13382   -13387   -13381   -13382   -13386 
  -13382   -13385   -13385   -13383   -13389   -13383   -13381   -13387 
  -13383   -13382   -13385   -13383   -13387   -13385   -13381   -13389 
  -13385   -13381   -13386   -13383   -13386   -13387   -13381   -13385 
  -13385   -13381   -13386   -13385   -13383   -13387   -13382   -13386 
  -13389   -13382   -13386   -13386   -13382   -13387   -13386   -13385 
  -13389   -13382   -13383   -13387   -13382   -13383   -13385   -13383 
  -13387   -13382   -13381   -13390   -13385   -13383   -13389   -13383 
  -13385   -13387   -13383   -13387   -13386   -13383   -13390   -13386 
  -13383   -13386   -13382   -13385   -13386   -13382   -13386   -13386 
  -13382   -13385   -13382   -13385   -13389   -13383   -13383   -13386 
  -13383   -13387   -13383   -13379   -13385   -13382   -13382   -13386 
  -13379   -13382   -13387   -13382   -13386   -13387   -13383   -13386 
  -13385   -13382   -13385   -13382   -13383   -13386   -13383   -13386 
  -13385   -13382   -13386   -13382   -13381   -13385   -13383   -13385 
  -13383   -13379   -13385   -13385   -13381   -13386   -13385   -13383 
  -13386   -13382   -13386   -13386   -13379   -13386   -13387   -13379 
  -13385   -13383   -13379   -13383   -13382   -13383   -13386   -13385 
  -13387   -13383   -13381   -13387   -13383   -13382   -13386   -13382 
  -13385   -13386   -13381   -13385   -13385   -13383   -13386   -13382 
  -13385   -13387   -13382   -13387   -13389   -13379   -13383   -13385 
  -13381   -13385   -13382   -13381   -13386   -13381   -13382   -13386 
  -13382   -13386   -13385   -13382   -13390   -13386   -13382   -13386 
  -13381   -13383   -13386   -13381   -13385   -13385   -13382   -13386 
  -13383   -13382   -13386   -13381   -13382   -13386   -13381   -13383 
  -13386   -13383   -13386   -13381   -13379   -13385   -13383   -13386 
  -13386   -13379   -13386   -13387   -13382   -13383   -13382   -13383 
  -13387   -13381   -13383   -13385   -13381   -13383   -13382   -13379 
  -13385   -13382   -13383   -13387   -13382   -13385   -13386   -13381 
  -13385   -13383   -13379   -13386   -13385   -13383   -13386   -13381 
  -13385   -13387   -13379   -13383   -13385   -13381   -13386   -13382 
  -13383   -13389   -13385   -13386   -13386   -13379   -13383   -13385 
  -13382   -13387   -13383   -13381   -13386   -13383   -13385   -13386 
  -13382   -13386   -13385   -13381   -13387   -13386   -13383   -13387 
  -13382   -13383   -13386   -13383   -13386   -13386   -13383   -13389 
  -13386   -13385   -13389   -13385   -13386   -13387   -13381   -13383 
  -13386   -13383   -13387   -13385   -13383   -13387   -13382   -13382 
  -13385   -13382   -13386   -13383   -13379   -13386   -13383   -13382 
  -13387   -13383   -13385   -13387   -13379   -13382   -13386   -13385 
  -13387   -13385   -13382   -13386   -13381   -13382   -13387   -13383 
  -13386   -13389   -13385   -13386   -13383   -13381   -13387   -13383 
  -13382   -13387   -13383   -13385   -13385   -13382   -13387   -13385 
  -13383   -13387   -13382   -13383   -13389   -13381   -13385   -13390 
  -13382   -13383   -13385   -13382   -13387   -13383   -13382   -13387 
  -13383   -13386   -13387   -13382   -13386   -13387   -13382   -13385 
  -13385   -13383   -13385   -13379   -13385   -13389   -13382   -13383 
  -13385   -13379   -13382   -13383   -13385   -13387   -13383   -13383 
  -13385   -13382   -13385   -13383   -13383   -13389   -13383   -13385 
  -13390   -13383   -13385   -13387   -13379   -13382   -13385   -13383 
  -13386   -13385   -13386   -13389   -13382   -13382   -13385   -13383 
  -13389   -13387   -13382   -13386   -13382   -13381   -13386   -13382 
  -13385   -13387   -13382   -13387   -13386   -13381   -13387   -13385 
  -13383   -13389   -13385   -13386   -13387   -13382   -13386   -13386 
  -13382   -13387   -13387   -13386   -13389   -13383   -13385   -13387 
  -13382   -13386   -13386   -13379   -13387   -13390   -13385   -13387 
  -13386   -13385   -13389   -13385   -13386   -13389   -13385   -13389 
  -13387   -13383   -13387   -13383   -13381   -13386   -13382   -13386 
  -13389   -13382   -13385   -13385   -13381   -13385   -13385   -13383 
  -13387   -13383   -13387   -13392   -13383   -13385   -13387   -13382 
  -13383   -13382   -13383   -13389   -13385   -13385   -13386   -13379 
  -13385   -13390   -13389   -13389   -13382   -13377   -13373   -13367 
  -13381   -13398   -13404   -13405   -13392   -13371   -13366   -13371 
  -13382   -13394   -13394   -13397   -13389   -13367   -13374   -13389 
  -13370   -13362   -13396   -13427   -13408   -13366   -13367   -13386 
  -13375   -13373   -13392   -13405   -13402   -13369   -13354   -13378 
  -13374   -13366   -13410   -13427   -13374   -13339   -13371   -13412 
  -13405   -13393   -13396   -13385   -13370   -13362   -13365   -13401 
  -13428   -13406   -13381   -13370   -13370   -13387   -13392   -13385 
  -13373   -13352   -13363   -13396   -13408   -13402   -13377   -13367 
  -13394   -13405   -13396   -13390   -13393   -13393   -13370   -13355 
  -13382   -13398   -13396   -13401   -13400   -13387   -13373   -13371 
  -13394   -13389   -13363   -13377   -13394   -13389   -13397   -13396 
  -13375   -13367   -13369   -13375   -13393   -13400   -13408   -13406 
  -13382   -13360   -13359   -13377   -13398   -13409   -13405   -13379 
  -13367   -13398   -13404   -13371   -13366   -13374   -13371   -13383 
  -13405   -13419   -13412   -13377   -13351   -13356   -13369   -13389 
  -13409   -13401   -13370   -13350   -13373   -13402   -13389   -13373 
  -13397   -13423   -13410   -13367   -13342   -13360   -13397   -13421 
  -13412   -13389   -13375   -13366   -13371   -13393   -13397   -13396 
  -13397   -13378   -13358   -13351   -13356   -13385   -13416   -13420 
  -13408   -13389   -13377   -13377   -13392   -13401   -13379   -13347 
  -13355   -13390   -13404   -13394   -13386   -13393   -13396   -13390 
  -13398   -13408   -13390   -13373   -13370   -13373   -13381   -13381 
  -13383   -13386   -13370   -13373   -13392   -13389   -13387   -13387 
  -13385   -13396   -13393   -13379   -13378   -13362   -13352   -13373 
  -13383   -13383   -13387   -13400   -13417   -13406   -13387   -13396 
  -13385   -13360   -13377   -13396   -13386   -13375   -13375   -13392 
  -13402   -13398   -13396   -13378   -13366   -13373   -13373   -13389 
  -13409   -13389   -13375   -13383   -13370   -13360   -13389   -13424 
  -13408   -13354   -13352   -13389   -13387   -13387   -13408   -13400 
  -13378   -13377   -13383   -13396   -13406   -13404   -13383   -13369 
  -13377   -13377   -13370   -13386   -13392   -13370   -13379   -13406 
  -13406   -13383   -13358   -13356   -13379   -13404   -13416   -13398 
  -13371   -13370   -13367   -13354   -13365   -13396   -13414   -13404 
  -13385   -13375   -13360   -13355   -13382   -13402   -13398   -13396 
  -13398   -13406   -13404   -13383   -13369   -13362   -13367   -13386 
  -13390   -13381   -13373   -13369   -13375   -13379   -13373   -13390 
  -13417   -13413   -13383   -13371   -13392   -13396   -13365   -13370 
  -13397   -13393   -13387   -13386   -13379   -13382   -13381   -13378 
  -13383   -13382   -13386   -13385   -13377   -13390   -13398   -13387 
  -13387   -13379   -13359   -13369   -13397   -13410   -13406   -13398 
  -13386   -13359   -13350   -13379   -13393   -13379   -13373   -13374 
  -13386   -13397   -13385   -13382   -13412   -13431   -13408   -13373 
  -13370   -13378   -13366   -13370   -13397   -13404   -13389   -13379 
  -13377   -13377   -13382   -13398   -13398   -13385   -13382   -13379 
  -13377   -13379   -13367   -13360   -13382   -13382   -13374   -13392 
  -13394   -13390   -13397   -13385   -13366   -13367   -13386   -13396 
  -13393   -13402   -13390   -13356   -13367   -13382   -13365   -13370 
  -13397   -13406   -13408   -13398   -13383   -13375   -13383   -13409 
  -13406   -13377   -13366   -13367   -13377   -13389   -13386   -13394 
  -13400   -13387   -13396   -13396   -13367   -13371   -13385   -13367 
  -13373   -13397   -13401   -13401   -13394   -13390   -13392   -13382 
  -13385   -13394   -13383   -13381   -13381   -13377   -13390   -13382 
  -13362   -13375   -13397   -13392   -13379   -13383   -13389   -13379 
  -13371   -13383   -13396   -13400   -13405   -13396   -13377   -13369 
  -13377   -13400   -13410   -13405   -13401   -13386   -13371   -13374 
  -13362   -13347   -13356   -13365   -13377   -13409   -13414   -13393 
  -13378   -13381   -13383   -13379   -13385   -13400   -13405   -13386 
  -13354   -13351   -13379   -13394   -13400   -13405   -13394   -13390 
  -13394   -13379   -13369   -13367   -13365   -13374   -13383   -13371 
  -13354   -13365   -13401   -13412   -13400   -13400   -13389   -13367 
  -13382   -13410   -13413   -13396   -13378   -13383   -13397   -13400 
  -13390   -13370   -13354   -13360   -13383   -13404   -13404   -13390 
  -13386   -13379   -13375   -13400   -13409   -13379   -13362   -13374 
  -13383   -13375   -13359   -13367   -13393   -13392   -13375   -13383 
  -13410   -13427   -13409   -13386   -13379   -13370   -13369   -13375 
  -13362   -13348   -13354   -13366   -13389   -13413   -13412   -13387 
  -13378   -13409   -13435   -13417   -13377   -13336   -13332   -13359 
  -13371   -13394   -13428   -13410   -13382   -13401   -13428   -13425 
  -13396   -13381   -13393   -13393   -13375   -13350   -13331   -13359 
  -13408   -13413   -13394   -13387   -13392   -13405   -13404   -13375 
  -13346   -13346   -13370   -13373   -13351   -13362   -13390   -13392 
  -13392   -13405   -13413   -13402   -13370   -13351   -13358   -13363 
  -13377   -13383   -13379   -13392   -13383   -13366   -13396   -13424 
  -13409   -13381   -13367   -13381   -13387   -13374   -13378   -13386 
  -13379   -13383   -13406   -13425   -13413   -13398   -13410   -13413 
  -13394   -13379   -13358   -13351   -13373   -13369   -13350   -13373 
  -13405   -13406   -13405   -13414   -13402   -13365   -13350   -13363 
  -13365   -13360   -13367   -13367   -13373   -13385   -13383   -13397 
  -13402   -13381   -13400   -13432   -13405   -13370   -13370   -13362 
  -13339   -13350   -13396   -13433   -13455   -13456   -13428   -13402 
  -13390   -13356   -13343   -13362   -13362   -13363   -13373   -13371 
  -13385   -13404   -13401   -13392   -13373   -13369   -13393   -13417 
  -13432   -13405   -13351   -13333   -13328   -13317   -13344   -13396 
  -13436   -13450   -13446   -13446   -13432   -13396   -13375   -13362 
  -13335   -13321   -13312   -13316   -13375   -13439   -13431   -13387 
  -13373   -13387   -13392   -13375   -13370   -13365   -13362   -13378 
  -13389   -13394   -13392   -13387   -13400   -13402   -13397   -13413 
  -13436   -13447   -13428   -13389   -13378   -13374   -13355   -13344 
  -13328   -13315   -13340   -13374   -13401   -13423   -13414   -13404 
  -13408   -13408   -13402   -13369   -13331   -13344   -13375   -13392 
  -13401   -13387   -13373   -13375   -13374   -13373   -13385   -13402 
  -13409   -13404   -13404   -13397   -13369   -13362   -13383   -13389 
  -13385   -13392   -13402   -13421   -13437   -13433   -13400   -13365 
  -13363   -13362   -13347   -13356   -13365   -13355   -13377   -13394 
  -13378   -13383   -13405   -13408   -13389   -13354   -13339   -13348 
  -13346   -13346   -13366   -13390   -13390   -13389   -13412   -13410 
  -13387   -13390   -13387   -13392   -13436   -13444   -13397   -13362 
  -13343   -13338   -13359   -13374   -13363   -13348   -13348   -13366 
  -13374   -13371   -13385   -13421   -13460   -13443   -13398   -13416 
  -13441   -13409   -13374   -13360   -13340   -13325   -13348   -13404 
  -13451   -13460   -13425   -13386   -13386   -13389   -13346   -13320 
  -13348   -13371   -13378   -13385   -13374   -13374   -13397   -13398 
  -13375   -13354   -13367   -13401   -13393   -13377   -13398   -13416 
  -13412   -13392   -13379   -13390   -13383   -13366   -13363   -13348 
  -13348   -13385   -13414   -13428   -13421   -13390   -13363   -13352 
  -13371   -13404   -13406   -13397   -13387   -13371   -13381   -13400 
  -13413   -13431   -13427   -13408   -13389   -13356   -13343   -13360 
  -13355   -13343   -13339   -13309   -13293   -13331   -13369   -13393 
  -13440   -13479   -13486   -13483   -13460   -13397   -13336   -13296 
  -13244   -13201   -13198   -13223   -13252   -13300   -13371   -13440 
  -13463   -13464   -13483   -13483   -13462   -13459   -13441   -13371 
  -13308   -13294   -13277   -13257   -13269   -13297   -13343   -13414 
  -13477   -13521   -13541   -13513   -13456   -13402   -13366   -13346 
  -13351   -13373   -13366   -13319   -13274   -13279   -13347   -13423 
  -13448   -13425   -13397   -13397   -13419   -13420   -13406   -13394 
  -13360   -13321   -13304   -13302   -13338   -13435   -13574   -13698 
  -13736   -13698   -13651   -13579   -13462   -13355   -13300   -13275 
  -13250   -13219   -13196   -13201   -13248   -13336   -13436   -13487 
  -13473   -13452   -13433   -13393   -13363   -13332   -13286   -13302 
  -13396   -13493   -13566   -13589   -13545   -13460   -13336   -13234 
  -13209   -13213   -13213   -13247   -13329   -13409   -13428   -13385 
  -13323   -13323   -13401   -13455   -13451   -13463   -13485   -13468 
  -13425   -13362   -13311   -13313   -13350   -13385   -13408   -13408 
  -13390   -13369   -13360   -13371   -13383   -13409   -13447   -13444 
  -13408   -13389   -13377   -13360   -13351   -13369   -13419   -13444 
  -13404   -13332   -13270   -13259   -13325   -13428   -13505   -13510 
  -13419   -13289   -13212   -13217   -13263   -13321   -13400   -13462 
  -13431   -13333   -13265   -13266   -13320   -13390   -13446   -13494 
  -13548   -13576   -13586   -13598   -13590   -13549   -13464   -13342 
  -13246   -13207   -13182   -13182   -13231   -13282   -13265   -13196 
  -13144   -13163   -13250   -13360   -13448   -13493   -13494   -13463 
  -13429   -13427   -13446   -13441   -13435   -13455   -13460   -13441 
  -13448   -13494   -13516   -13483   -13466   -13479   -13468   -13433 
  -13405   -13389   -13378   -13369   -13360   -13354   -13336   -13288 
  -13243   -13244   -13254   -13250   -13274   -13311   -13319   -13317 
  -13362   -13456   -13543   -13572   -13554   -13508   -13429   -13340 
  -13282   -13271   -13323   -13405   -13463   -13500   -13531   -13509 
  -13452   -13424   -13401   -13352   -13312   -13278   -13208   -13128 
  -13100   -13150   -13273   -13423   -13547   -13609   -13576   -13497 
  -13432   -13386   -13367   -13389   -13423   -13431   -13431   -13423 
  -13390   -13369   -13374   -13378   -13381   -13381   -13363   -13340 
  -13321   -13313   -13327   -13343   -13360   -13386   -13419   -13448 
  -13444   -13402   -13377   -13375   -13392   -13414   -13412   -13412 
  -13428   -13420   -13386   -13333   -13271   -13235   -13217   -13203 
  -13209   -13247   -13321   -13414   -13483   -13522   -13537   -13524 
  -13505   -13482   -13439   -13396   -13373   -13348   -13308   -13282 
  -13294   -13320   -13339   -13359   -13386   -13401   -13402   -13402 
  -13382   -13335   -13297   -13273   -13257   -13281   -13333   -13394 
  -13460   -13513   -13525   -13493   -13428   -13358   -13340   -13383 
  -13420   -13440   -13464   -13454   -13401   -13351   -13317   -13297 
  -13294   -13288   -13282   -13312   -13369   -13423   -13450   -13446 
  -13436   -13443   -13459   -13464   -13460   -13485   -13512   -13510 
  -13522   -13549   -13543   -13497   -13429   -13360   -13327   -13335 
  -13352   -13362   -13367   -13373   -13365   -13346   -13335   -13339 
  -13342   -13344   -13350   -13375   -13414   -13421   -13394   -13374 
  -13382   -13382   -13360   -13359   -13378   -13396   -13412   -13420 
  -13433   -13448   -13443   -13436   -13429   -13396   -13367   -13363 
  -13355   -13340   -13332   -13323   -13312   -13304   -13316   -13356 
  -13397   -13421   -13425   -13406   -13377   -13348   -13352   -13379 
  -13392   -13401   -13405   -13400   -13409   -13421   -13428   -13425 
  -13401   -13392   -13409   -13412   -13404   -13398   -13383   -13381 
  -13404   -13428   -13447   -13450   -13421   -13387   -13355   -13315 
  -13279   -13252   -13243   -13251   -13259   -13275   -13312   -13340 
  -13366   -13392   -13414   -13444   -13458   -13437   -13424   -13425 
  -13416   -13409   -13412   -13387   -13350   -13328   -13317   -13313 
  -13305   -13294   -13309   -13348   -13385   -13421   -13447   -13448 
  -13441   -13447   -13458   -13456   -13447   -13424   -13370   -13308 
  -13265   -13243   -13236   -13235   -13248   -13301   -13373   -13420 
  -13440   -13444   -13429   -13412   -13406   -13404   -13400   -13390 
  -13362   -13343   -13358   -13397   -13452   -13493   -13482   -13443 
  -13393   -13335   -13308   -13329   -13371   -13431   -13479   -13497 
  -13501   -13481   -13427   -13371   -13328   -13304   -13313   -13347 
  -13387   -13416   -13433   -13444   -13440   -13413   -13378   -13351 
  -13323   -13311   -13335   -13377   -13412   -13437   -13463   -13478 
  -13462   -13437   -13421   -13394   -13374   -13381   -13379   -13369 
  -13374   -13381   -13392   -13412   -13402   -13371   -13340   -13313 
  -13311   -13325   -13338   -13350   -13348   -13339   -13335   -13340 
  -13378   -13433   -13474   -13486   -13460   -13409   -13351   -13319 
  -13336   -13352   -13340   -13331   -13329   -13339   -13366   -13396 
  -13425   -13452   -13464   -13460   -13458   -13481   -13500   -13470 
  -13416   -13360   -13297   -13248   -13239   -13246   -13251   -13257 
  -13269   -13292   -13332   -13374   -13413   -13450   -13475   -13493 
  -13486   -13448   -13409   -13386   -13360   -13327   -13296   -13274 
  -13274   -13304   -13355   -13425   -13491   -13529   -13536   -13520 
  -13490   -13447   -13402   -13382   -13374   -13348   -13319   -13320 
  -13344   -13369   -13405   -13439   -13441   -13420   -13392   -13378 
  -13377   -13392   -13428   -13459   -13479   -13489   -13471   -13441 
  -13431   -13413   -13381   -13354   -13327   -13290   -13275   -13290 
  -13319   -13352   -13377   -13393   -13406   -13404   -13400   -13392 
  -13369   -13367   -13381   -13373   -13335   -13297   -13286   -13282 
  -13273   -13278   -13300   -13332   -13366   -13382   -13393   -13406 
  -13406   -13404   -13397   -13366   -13344   -13358   -13382   -13398 
  -13396   -13385   -13400   -13416   -13423   -13435   -13432   -13425 
  -13421   -13402   -13402   -13425   -13429   -13432   -13439   -13417 
  -13393   -13396   -13412   -13429   -13433   -13421   -13419   -13420 
  -13404   -13389   -13375   -13343   -13324   -13331   -13340   -13358 
  -13378   -13369   -13352   -13346   -13340   -13336   -13332   -13327 
