Origin Time       2024/06/23 22:54:00
Lat.              35.645
Long.             140.060
Depth. (km)       72
Mag.              4.1
Station Code      CHBH17
Station Lat.      35.1714
Station Long.     140.3398
Station Height(m) 10
Record Time       2024/06/23 22:54:46
Sampling Freq(Hz) 100Hz
Duration Time(s)  120
Dir.              6
Scale Factor      7845(gal)/8223790
Max. Acc. (gal)   0.872
Last Correction   2024/06/23 22:54:46
Memo.             
   18254    18260    18285    18292    18258    18229    18235    18258 
   18276    18291    18288    18245    18210    18227    18279    18307 
   18280    18230    18216    18247    18295    18316    18277    18212 
   18212    18276    18306    18279    18243    18222    18238    18288 
   18303    18260    18207    18215    18292    18337    18281    18204 
   18199    18265    18304    18280    18253    18241    18241    18269 
   18281    18254    18238    18256    18285    18291    18256    18226 
   18239    18268    18279    18266    18258    18266    18262    18252 
   18254    18260    18270    18281    18265    18235    18231    18254 
   18276    18277    18268    18265    18262    18253    18250    18254 
   18256    18270    18289    18276    18242    18227    18245    18270 
   18277    18266    18264    18272    18270    18256    18243    18242 
   18254    18272    18285    18281    18262    18238    18233    18262 
   18295    18287    18247    18225    18243    18277    18292    18280 
   18256    18242    18253    18274    18276    18257    18246    18252 
   18262    18265    18262    18260    18260    18265    18265    18262 
   18265    18262    18258    18260    18261    18261    18264    18260 
   18252    18261    18272    18270    18264    18254    18246    18257 
   18272    18273    18261    18253    18254    18254    18260    18264 
   18258    18262    18274    18270    18261    18254    18256    18260 
   18261    18262    18268    18265    18262    18260    18249    18245 
   18260    18276    18279    18265    18249    18249    18260    18266 
   18268    18256    18243    18254    18274    18279    18265    18250 
   18245    18247    18261    18274    18270    18254    18243    18253 
   18273    18277    18265    18249    18239    18249    18268    18276 
   18274    18254    18229    18235    18274    18307    18296    18246 
   18216    18231    18265    18283    18274    18254    18234    18241 
   18279    18297    18269    18231    18226    18257    18289    18296 
   18272    18235    18220    18243    18273    18287    18284    18256 
   18227    18245    18287    18291    18253    18218    18220    18265 
   18315    18307    18243    18198    18219    18281    18315    18288 
   18238    18220    18254    18289    18281    18238    18214    18252 
   18304    18312    18266    18216    18218    18254    18284    18291 
   18266    18242    18250    18270    18268    18253    18246    18264 
   18279    18272    18258    18246    18243    18254    18273    18283 
   18273    18253    18249    18256    18264    18270    18262    18252 
   18258    18265    18265    18261    18256    18254    18257    18264 
   18270    18270    18265    18264    18257    18250    18256    18268 
   18272    18266    18260    18257    18256    18257    18264    18268 
   18261    18252    18253    18265    18270    18265    18260    18258 
   18258    18261    18265    18260    18256    18261    18269    18269 
   18262    18256    18253    18256    18268    18274    18266    18256 
   18250    18252    18262    18273    18269    18254    18247    18256 
   18265    18266    18264    18257    18252    18257    18261    18260 
   18258    18257    18258    18261    18261    18264    18264    18256 
   18254    18262    18264    18258    18264    18265    18257    18254 
   18258    18258    18256    18261    18269    18268    18260    18254 
   18258    18261    18260    18260    18261    18261    18264    18264 
   18257    18257    18258    18257    18261    18265    18264    18265 
   18262    18261    18261    18258    18256    18256    18256    18258 
   18265    18272    18268    18260    18254    18254    18258    18265 
   18265    18257    18252    18260    18270    18269    18258    18256 
   18258    18257    18262    18268    18258    18253    18260    18260 
   18257    18261    18268    18266    18258    18252    18256    18262 
   18264    18264    18260    18253    18254    18262    18262    18257 
   18262    18269    18264    18253    18254    18260    18266    18270 
   18264    18250    18247    18256    18268    18270    18260    18253 
   18254    18264    18269    18264    18253    18249    18256    18265 
   18269    18266    18261    18254    18250    18260    18273    18270 
   18256    18249    18253    18266    18274    18269    18256    18249 
   18254    18262    18265    18266    18264    18257    18253    18261 
   18266    18269    18269    18261    18252    18252    18264    18272 
   18268    18257    18252    18257    18265    18268    18265    18261 
   18260    18262    18265    18262    18260    18261    18265    18264 
   18260    18261    18258    18256    18265    18266    18256    18254 
   18265    18266    18262    18261    18264    18262    18260    18260 
   18264    18262    18260    18264    18265    18260    18258    18260 
   18262    18268    18270    18258    18245    18250    18266    18272 
   18268    18262    18253    18252    18265    18273    18264    18256 
   18257    18260    18264    18264    18260    18260    18262    18265 
   18262    18256    18254    18261    18268    18265    18260    18261 
   18261    18261    18266    18265    18260    18261    18264    18261 
   18260    18261    18265    18266    18260    18260    18262    18260 
   18258    18264    18266    18264    18260    18262    18262    18257 
   18261    18266    18265    18262    18261    18258    18258    18262 
   18265    18261    18260    18261    18261    18264    18269    18266 
   18256    18250    18264    18272    18262    18254    18260    18268 
   18266    18262    18258    18256    18262    18268    18264    18256 
   18258    18268    18268    18258    18254    18260    18265    18265 
   18262    18258    18258    18264    18269    18265    18257    18257 
   18264    18261    18260    18264    18265    18260    18254    18257 
   18265    18265    18261    18260    18257    18258    18264    18262 
   18257    18257    18260    18261    18264    18268    18272    18269 
   18264    18266    18273    18281    18284    18276    18272    18285 
   18297    18284    18250    18226    18227    18243    18257    18264 
   18276    18304    18328    18312    18269    18239    18247    18279 
   18300    18293    18273    18262    18283    18323    18341    18310 
   18245    18171    18081    17991    17944    17979    18095    18285 
   18481    18516    18315    18049    17996    18231    18520    18536 
   18214    17853    17852    18270    18770    18983    18824    18438 
   18071    17942    18085    18312    18411    18334    18157    17996 
   17994    18153    18277    18238    18141    18108    18096    18080 
   18175    18372    18509    18508    18415    18364    18461    18567 
   18455    18148    17890    17892    18111    18343    18451    18358 
   18108    17965    18104    18387    18519    18358    18103    18087 
   18368    18655    18624    18320    18107    18133    18214    18206 
   18154    18173    18297    18361    18215    17950    17798    17984 
   18442    18779    18740    18428    18134    18038    18127    18333 
   18540    18561    18341    18087    18006    18042    18084    18270 
   18584    18598    18134    17594    17490    17994    18771    19175 
   18843    18104    17616    17716    18242    18740    18812    18520 
   18289    18283    18254    18076    17972    18130    18403    18505 
   18324    17977    17736    17864    18269    18492    18308    18010 
   18013    18355    18621    18519    18270    18142    18157    18288 
   18431    18455    18377    18284    18181    18111    18162    18281 
   18347    18405    18473    18381    18130    17986    18108    18381 
   18558    18481    18241    18099    18189    18381    18420    18222 
   17991    17979    18195    18414    18426    18253    18095    18080 
   18169    18296    18409    18445    18381    18295    18249    18243 
   18281    18346    18347    18252    18148    18164    18314    18415 
   18288    18057    17991    18125    18301    18404    18392    18335 
   18341    18343    18261    18164    18150    18239    18362    18400 
   18331    18216    18135    18160    18270    18415    18490    18324 
   17982    17814    17988    18301    18477    18451    18319    18196 
   18192    18297    18343    18283    18293    18409    18409    18210 
   18052    18125    18234    18227    18276    18388    18372    18287 
   18258    18200    18077    18030    18148    18338    18481    18517 
   18415    18219    18110    18237    18485    18517    18233    17952 
   17959    18204    18462    18507    18299    18037    17928    18019 
   18241    18449    18516    18447    18316    18175    18123    18230 
   18373    18416    18368    18273    18171    18126    18164    18241 
   18284    18252    18172    18162    18285    18387    18316    18202 
   18234    18354    18357    18207    18094    18189    18468    18667 
   18497    18080    17867    18014    18256    18339    18291    18229 
   18185    18235    18435    18620    18480    18022    17710    17890 
   18341    18628    18573    18324    18121    18112    18333    18565 
   18458    18049    17832    18060    18427    18577    18466    18196 
   17952    17953    18223    18520    18580    18382    18095    17917 
   18014    18304    18516    18567    18457    18142    17837    17861 
   18141    18380    18484    18476    18364    18257    18242    18241 
   18198    18181    18231    18355    18527    18592    18441    18247 
   18200    18227    18185    18125    18134    18075    17879    17836 
   18110    18463    18624    18504    18225    18044    18168    18566 
   18904    18839    18347    17759    17552    17898    18426    18663 
   18511    18195    17960    17860    17874    18076    18435    18702 
   18708    18516    18281    18146    18176    18273    18230    18006 
   17880    18069    18431    18698    18717    18501    18162    17805 
   17676    18006    18561    18824    18574    18114    17922    18061 
   18279    18436    18438    18246    18122    18291    18532    18531 
   18323    18076    17856    17824    18098    18466    18613    18477 
   18223    18060    18087    18245    18409    18515    18522    18373 
   18107    17934    18076    18364    18351    18036    17857    17961 
   18188    18465    18671    18625    18392    18195    18103    18095 
   18257    18601    18833    18632    18156    17894    18019    18250 
   18334    18249    18056    17932    18050    18343    18546    18489 
   18222    17964    17930    18162    18488    18654    18526    18246 
   18042    17977    18076    18354    18586    18489    18184    18057 
   18199    18353    18360    18261    18152    18149    18308    18504 
   18485    18168    17851    17884    18235    18561    18639    18476 
   18180    17984    18108    18411    18474    18193    17936    18013 
   18331    18617    18669    18393    17982    17809    17972    18227 
   18372    18366    18306    18354    18477    18436    18192    18007 
   18094    18353    18570    18578    18285    17895    17847    18261 
   18752    18847    18462    17948    17734    17995    18474    18697 
   18463    18057    17874    17983    18207    18428    18589    18558 
   18338    18173    18145    18049    17921    17972    18096    18161 
   18342    18643    18736    18516    18218    18018    17986    18104 
   18206    18218    18247    18254    18216    18314    18526    18577 
   18397    18150    17990    18013    18193    18393    18503    18404 
   18091    17910    18111    18446    18609    18512    18117    17652 
   17643    18235    18882    18963    18391    17672    17506    18036 
   18689    18956    18805    18412    18042    18004    18326    18648 
   18600    18173    17725    17651    18048    18571    18705    18315 
   17775    17590    17983    18665    19030    18733    18060    17698 
   18004    18651    19059    18877    18146    17436    17458    18148 
   18682    18634    18285    17991    17977    18246    18427    18266 
   18079    18184    18320    18200    18091    18215    18364    18415 
   18450    18480    18461    18431    18435    18378    18202    18077 
   18080    18100    18161    18312    18374    18230    18061    18040 
   18098    18135    18156    18176    18215    18333    18436    18415 
   18414    18520    18524    18357    18169    18029    17957    17995 
   18144    18404    18663    18655    18308    17934    17875    18077 
   18269    18392    18538    18578    18287    17834    17705    18025 
   18535    18933    18866    18256    17725    17832    18280    18458 
   18296    18169    18253    18369    18412    18489    18608    18576 
   18274    17895    17693    17757    18115    18617    18851    18598 
   18172    17976    17984    18038    18243    18600    18723    18368 
   17857    17647    17821    18230    18646    18765    18497    18150 
   18069    18179    18211    18268    18535    18739    18528    18042 
   17660    17649    18091    18655    18769    18378    17967    17845 
   18010    18387    18735    18697    18297    17925    17838    18069 
   18414    18531    18351    18154    18149    18204    18125    18014 
   18129    18424    18562    18412    18212    18160    18237    18351 
   18373    18238    18083    18085    18233    18361    18428    18531 
   18643    18566    18243    17919    17840    18030    18354    18578 
   18534    18323    18177    18154    18141    18144    18243    18366 
   18435    18476    18455    18370    18311    18242    18038    17791 
   17767    18019    18300    18330    18090    17883    18014    18405 
   18739    18793    18516    18127    18019    18219    18380    18412 
   18478    18543    18457    18193    17880    17818    18219    18750 
   18824    18357    17770    17497    17728    18308    18781    18781 
   18408    18088    18090    18256    18307    18249    18254    18323 
   18323    18256    18219    18210    18183    18166    18161    18135 
   18134    18234    18393    18486    18486    18436    18285    18084 
   18067    18231    18322    18287    18265    18276    18268    18262 
   18252    18171    18110    18198    18345    18389    18349    18378 
   18472    18369    18004    17757    17973    18520    18904    18747 
   18257    17982    18079    18250    18315    18335    18281    18110 
   18026    18164    18350    18449    18442    18269    17959    17790 
   18049    18546    18800    18652    18341    18139    18135    18223 
   18295    18343    18354    18239    18044    17975    18088    18187 
   18154    18150    18308    18485    18503    18395    18225    18007 
   17892    17996    18195    18354    18446    18414    18284    18207 
   18243    18273    18223    18199    18262    18349    18445    18520 
   18474    18343    18226    18126    18041    18040    18160    18262 
   18202    18115    18215    18420    18481    18341    18176    18129 
   18206    18324    18409    18496    18619    18603    18285    17844 
   17671    17960    18476    18816    18797    18517    18203    18014 
   17972    18106    18378    18513    18346    18076    17963    18110 
   18434    18674    18646    18374    18014    17753    17733    17984 
   18387    18677    18634    18285    17929    17875    18148    18473 
   18536    18266    17975    17979    18207    18361    18288    18095 
   18018    18161    18343    18333    18188    18129    18215    18377 
   18547    18667    18669    18524    18339    18206    18088    17960 
   17865    17871    17975    18084    18235    18453    18536    18451 
   18409    18473    18596    18767    18813    18480    17905    17622 
   17903    18368    18435    17995    17485    17442    18021    18778 
   19074    18739    18161    17820    17919    18327    18679    18662 
   18343    18084    18045    18083    18068    18011    17994    18085 
   18243    18372    18443    18458    18458    18535    18657    18655 
   18526    18461    18474    18360    18067    17817    17805    17946 
   18015    17980    17984    18094    18328    18644    18774    18557 
   18265    18200    18288    18339    18330    18319    18326    18284 
   18150    18048    18112    18266    18347    18319    18234    18161 
   18154    18231    18324    18266    18044    17905    18002    18207 
   18374    18422    18281    18073    18050    18220    18365    18409 
   18442    18497    18565    18659    18681    18457    18090    17933 
   18133    18482    18669    18526    18148    17838    17857    18173 
   18481    18449    18056    17664    17660    18036    18431    18511 
   18233    17894    17879    18249    18692    18891    18804    18598 
   18458    18441    18481    18458    18265    17960    17775    17883 
   18150    18293    18229    18107    18072    18161    18323    18449 
   18465    18362    18203    18098    18162    18393    18554    18393 
   18026    17807    17886    18095    18218    18188    18146    18257 
   18473    18612    18598    18465    18335    18397    18625    18658 
   18277    17749    17467    17612    18090    18535    18652    18507 
   18304    18166    18135    18229    18397    18549    18646    18644 
   18461    18199    18079    18123    18188    18176    18114    18065 
   18096    18238    18387    18427    18397    18385    18377    18233 
   17925    17747    17964    18403    18627    18424    18048    17899 
   18067    18346    18526    18535    18396    18191    18058    18061 
   18185    18426    18655    18681    18472    18112    17766    17621 
   17734    18017    18315    18466    18486    18528    18643    18709 
   18573    18326    18256    18396    18504    18422    18219    18073 
   18040    18038    18048    18072    18148    18281    18303    18156 
   18002    17949    18079    18430    18777    18824    18570    18274 
   18133    18171    18347    18526    18528    18387    18223    18009 
   17749    17689    17968    18346    18430    18179    17986    18122 
   18395    18489    18296    18014    17950    18161    18442    18612 
   18619    18497    18341    18188    18037    18010    18233    18516 
   18504    18225    18081    18256    18501    18516    18235    17861 
   17722    17975    18438    18724    18580    18172    17890    17923 
   18215    18589    18759    18513    17994    17653    17805    18295 
   18704    18778    18585    18327    18145    18108    18187    18253 
   18274    18311    18341    18307    18215    18150    18218    18401 
   18515    18403    18154    18010    18058    18175    18219    18198 
   18208    18306    18445    18500    18349    18041    17871    18037 
   18382    18616    18597    18351    18029    17860    17964    18250 
   18538    18667    18566    18296    18031    18009    18323    18712 
   18775    18430    17952    17652    17707    18114    18566    18624 
   18215    17767    17725    18091    18501    18644    18493    18245 
   18114    18141    18237    18311    18280    18169    18121    18176 
   18234    18268    18331    18392    18372    18295    18258    18333 
   18485    18596    18544    18355    18141    17937    17840    18027 
   18393    18612    18623    18590    18509    18293    18068    18007 
   18064    18115    18126    18117    18104    18081    18073    18088 
   18118    18227    18384    18458    18449    18484    18628    18756 
