Origin Time       2024/06/23 22:54:00
Lat.              35.645
Long.             140.060
Depth. (km)       72
Mag.              4.1
Station Code      CHBH06
Station Lat.      35.7215
Station Long.     140.5046
Station Height(m) -145
Record Time       2024/06/23 22:54:37
Sampling Freq(Hz) 100Hz
Duration Time(s)  120
Dir.              3
Scale Factor      3923(gal)/8224838
Max. Acc. (gal)   0.504
Last Correction   2024/06/23 22:54:37
Memo.             
[...]
      72       70       70       74       72       67       67       70 
      67       66       68       71       71       72       78       81 
      72       70       71       67       68       71       68       71 
      75       75       74       75       75       74       75       75 
      74       72       71       74       76       75       75       76 
      72       72       72       70       71       74       75       76 
      76       72       68       68       68       68       74       74 
      74       78       75       72       72       70       68       70 
      68       67       68       70       72       74       72       68 
      68       70       70       70       68       68       72       68 
      63       67       66       67       72       68       60       63 
      67       64       63       67       68       64       63       64 
      68       70       67       68       68       64       63       64 
      67       68       67       70       70       66       66       68 
      68       70       64       62       66       67       66       64 
      62       66       68       68       68       66       66       67 
      64       66       64       63       66       68       67       66 
      66       63       60       64       70       70       70       72 
      74       71       68       67       67       64       66       68 
      66       66       70       72       71       68       67       70 
      70       68       64       66       66       67       68       66 
      66       70       71       71       71       72       72       70 
      70       72       71       71       70       67       67       68 
      67       70       72       71       68       71       74       70 
      70       74       71       72       72       70       68       68 
      70       72       72       72       72       71       71       75 
      72       68       71       71       74       75       71       71 
      76       72       71       72       71       72       74       70 
      70       74       76       74       71       74       74       68 
      68       71       70       70       74       75       74       72 
      71       70       74       74       70       68       70       72 
      74       75       76       75       71       68       71       74 
      75       71       74       76       72       72       72       70 
      71       71       71       74       71       72       72       71 
      75       72       67       70       74       71       66       68 
      74       71       71       74       71       68       68       71 
      70       66       67       68       67       67       68       70 
      67       66       68       70       70       68       70       70 
      67       66       66       64       63       63       64       67 
      67       66       68       67       62       63       62       63 
      63       60       62       66       66       63       63       66 
      64       62       62       60       62       64       63       64 
      66       64       62       59       62       63       60       62 
      64       63       60       60       60       58       59       63 
      62       60       64       62       59       62       63       63 
      62       60       62       60       60       62       63       62 
      60       62       66       66       64       64       64       63 
      64       67       67       64       66       68       67       64 
      64       68       71       67       64       64       67       70 
      70       67       67       66       67       71       70       66 
      66       68       70       71       67       64       71       70 
      66       70       71       68       68       67       66       66 
      68       68       64       64       68       68       67       68 
      70       68       68       68       66       64       70       67 
      63       66       66       66       68       66       64       66 
      66       66       67       67       67       67       67       63 
      63       66       64       66       68       66       67       66 
      64       64       66       68       70       64       63       66 
      67       66       66       70       70       66       67       67 
      64       66       64       62       60       64       68       68 
      70       70       68       67       66       67       68       68 
      71       71       71       71       67       68       72       71 
      72       75       72       75       75       70       67       70 
      71       72       74       74       72       75       74       68 
      71       72       72       78       78       72       68       68 
      72       72       70       75       76       74       76       78 
      74       72       72       70       70       74       78       74 
      70       68       71       72       70       74       74       71 
      74       75       68       64       67       70       70       72 
      72       71       72       72       68       68       68       72 
      72       64       68       76       70       67       70       67 
      67       72       74       71       68       68       70       70 
      70       71       71       70       70       71       68       67 
      72       72       70       70       74       72       68       71 
      71       70       72       70       67       71       71       71 
      72       72       71       70       70       71       68       66 
      68       68       67       70       71       72       71       72 
      72       70       64       62       66       68       68       68 
      68       70       70       70       71       70       66       64 
      66       72       72       68       70       67       66       67 
      67       67       66       67       67       63       66       70 
      66       66       66       60       64       70       68       68 
      70       67       66       66       68       68       66       64 
      64       64       66       72       70       63       62       62 
      60       66       71       71       68       68       64       59 
      62       66       67       67       63       64       71       70 
      67       70       68       64       63       64       62       58 
      62       67       68       70       75       71       62       58 
      56       56       64       70       72       76       72       67 
      62       59       60       63       66       68       71       71 
      67       66       68       64       63       64       59       59 
      66       72       75       72       71       70       62       59 
      62       62       64       71       74       70       67       70 
      72       70       63       58       59       62       66       72 
      74       70       67       63       60       63       70       68 
      66       67       67       68       68       63       60       60 
      60       63       64       68       72       70       67       66 
      63       63       63       60       62       66       70       71 
      68       67       67       67       64       62       66       67 
      66       71       74       71       66       66       67       66 
      68       70       68       71       71       71       72       67 
      63       67       67       68       71       71       74       78 
      76       71       67       68       70       68       68       70 
      71       74       72       75       76       75       71       70 
      70       72       74       72       72       74       71       70 
      70       67       71       75       70       71       75       72 
      72       72       70       72       75       71       70       71 
      71       72       74       72       72       74       68       71 
      79       76       71       72       70       70       71       70 
      72       72       68       70       71       68       70       74 
      72       71       72       74       72       71       71       71 
      70       70       71       71       71       70       68       67 
      67       71       72       72       74       70       67       68 
      66       63       67       70       72       75       75       71 
      67       66       70       68       67       70       70       70 
      72       72       71       68       68       70       64       64 
      67       70       72       70       67       68       70       66 
      66       68       67       64       71       74       68       66 
      66       67       67       64       64       67       68       66 
      66       66       63       64       66       68       72       71 
      70       66       64       67       63       59       66       67 
      64       66       66       67       66       66       67       62 
      59       62       63       64       64       67       70       66 
      64       62       59       59       59       63       68       67 
      66       66       66       66       63       62       62       62 
      63       62       62       66       68       66       63       60 
      58       59       62       62       63       68       67       66 
      64       60       60       60       62       63       62       63 
      68       64       59       66       68       64       63       64 
      66       64       67       68       64       62       62       66 
      67       64       63       64       66       68       66       64 
      68       67       64       66       68       70       63       62 
      66       67       66       67       67       64       64       67 
      68       67       68       71       71       71       70       71 
      71       67       70       72       68       67       66       64 
      71       72       72       74       71       68       70       70 
      71       72       70       66       66       70       71       70 
      72       71       64       62       64       68       68       71 
      72       71       71       71       68       66       67       67 
      66       67       71       70       70       71       67       63 
      66       68       68       67       66       68       68       68 
      70       70       66       66       68       68       66       64 
      66       71       72       70       68       68       67       68 
      67       68       72       67       67       71       68       66 
      67       67       68       71       71       67       66       68 
      68       68       72       71       68       70       70       66 
      66       68       70       71       71       71       74       72 
      68       71       75       72       72       75       76       76 
      72       71       75       74       70       68       74       79 
      76       75       76       75       72       74       75       76 
      75       74       74       72       74       74       75       76 
      75       72       72       71       71       75       78       78 
      75       75       74       72       71       70       71       75 
      78       76       74       72       70       70       68       66 
      70       74       74       75       75       71       70       72 
      72       70       68       68       70       71       74       71 
      68       70       70       66       66       67       67       70 
      72       72       74       76       70       66       68       66 
      64       64       66       68       70       71       70       64 
      66       67       64       66       70       67       66       67 
      67       67       67       68       68       67       67       66 
      66       66       66       70       68       64       66       68 
      66       63       64       71       70       68       67       64 
      64       64       64       68       66       64       66       63 
      62       64       63       60       64       67       67       64 
      63       63       63       60       59       60       63       66 
      63       60       63       64       60       60       60       59 
      60       63       62       62       63       66       64       68 
      79       89      105      122      130      136      137      130 
     121      108       79       41        8      -16      -20       25 
     113      191      245      283      292      255      243      317 
     355      270      168       33     -168     -261     -216     -229 
    -338     -423     -436     -307       18      384      534      433 
     245      114       86      166      349      537      537      309 
      31     -182     -382     -588     -710     -599     -233      159 
     346      295       60     -226     -379     -329     -137      108 
     307      351      237      130      110       44     -121     -256 
    -189       93      365      441      378      267       76     -128 
    -186     -113       -6      153      295      276      164      -12 
    -280     -361      -66      326      486      295      -78     -305 
    -334     -319     -225       44      422      727      780      608 
     355       76     -132      -90      302      808      954      573 
     -36     -507     -699     -742     -720     -531     -163      313 
     772      974      820      456      122       -8      -33      -93 
    -209     -513     -862     -773     -294       44      137      234 
     410      585      707      704      526      263      137      203 
     282      240       60     -261     -695     -988     -776     -166 
     341      558      580      418       89     -291     -526     -440 
     -87      310      515      434      224      109      207      457 
     608      594      556      433      189      -39     -237     -396 
    -460     -411     -198      144      398      375      183       66 
       8      -39       35      167      221      253      253      103 
    -113     -205     -167     -159     -174      -60      162      341 
     364      222       33      -86      -24      228      427      406 
     243        0     -259     -360     -247      -91      -32      -33 
     -25       16       54       16      -75     -109      -66       -1 
      40       63      210      471      521      237     -114     -298 
    -245       -1      205      182        8      -97       -4      186 
     279      255      198      211      364      506      375      -49 
    -454     -511     -233      139      338      164     -230     -427 
    -306      -55      172      288      295      324      449      594 
     534       78     -510     -631     -199      252      418      388 
     283      244      278      160     -128     -313     -199      112 
     332      294       67     -214     -453     -558     -442     -106 
     291      454      261       28       43      149      193      201 
     172      182      297      337      241      171      106        8 
     -40      -75      -37      159      251       45     -268     -454 
    -337      -22       85      -64     -168      -95      168      467 
     525      414      265       16     -145      -22      209      353 
     363      243      132      105      -17     -261     -336     -149 
      70      167      124        8      -55      -51      -49       -4 
      72       41      -82     -226     -276      -59      248      361 
     427      589      662      515      247       55      -32     -197 
    -405     -365      -64      189      225      105     -121     -357 
    -382     -139      244      649      793      410     -163     -340 
    -108       72      -63     -282     -257      -51      105      194 
     330      453      475      477      433      230       56       93 
     117      -43     -112      106      229      -47     -301     -193 
     -13       40       21      -70     -108       35      228      225 
      12     -122       27      278      360      306      270      228 
      90      -72     -109       18      214      382      399      178 
     -63     -116     -166     -257     -121      180      328      244 
      45     -194     -421     -538     -526     -419     -187      159 
     479      562      309       35       99      264      275      355 
     541      579      433      180     -110     -286     -265     -144 
     -13       74       56      -43     -193     -388     -492     -372 
    -116      207      534      625      437      228       24     -209 
    -233      -16      210      442      610      461       95     -228 
    -410     -372     -126      210      530      648      454      187 
     112      103      -16      -82        1       62       66       52 
     -89     -309     -432     -498     -535     -373      -35      263 
     481      602      506      248       36        9      202      506 
     692      588      253     -106     -392     -562     -510     -218 
     145      421      540      434       93     -333     -616     -603 
    -321       -4      206      356      406      371      361      272 
      22     -145      -28      232      427      484      306      -71 
    -345     -353     -207        4      191      243      216      228 
     265      291      247       41     -193     -206      -79      -75 
    -194     -267     -214      -44      184      365      442      448 
     403      311      168       44       72      201      197       58 
     -40     -116     -184     -160     -108      -16      203      384 
     357      166      -67     -129       10       83       18      -20 
     -59     -180     -276     -256     -182     -113      -21      110 
     264      359      306      170       70       58      162      367 
     556      579      373       55     -224     -394     -375     -191 
     -17       94      220      299      139     -206     -410     -387 
    -265      -32      303      568      618      477      287      114 
      -5        4       87      135      137      125       99      -14 
    -206     -255     -128       21      232      519      654      468 
     139      -87     -245     -352     -284     -156     -101      -29 
      25       -5      -49      -68       -9      175      330      301 
     190      132       70       18       76      170      180       86 
     -49      -21      218      364      256       58     -117     -167 
     -31       71      -17     -102      -70      -45      -64       -9 
     184      348      261       56      -12        1      -37      -32 
     159      388      396      213       25      -47       70      256 
     298      226      174      144       68     -103     -306     -434 
    -437     -284      -71       99      255      337      290      247 
     265      247      162      114      130       72      -91     -199 
    -218     -210     -132        4      149      294      357      326 
     274      224      203      180       66      -25       44      128 
      39     -143     -229     -240     -260     -172      -22      -40 
    -133      -85        4      -67     -193     -117      149      437 
     669      714      479      175       48      122      225      187 
      91       17     -113     -198      -70      133      183      114 
      99      141       75      -82     -130      -70      -29       31 
     128      163      141       64     -112     -237     -124      143 
