Origin Time       2024/06/23 22:54:00
Lat.              35.645
Long.             140.060
Depth. (km)       72
Mag.              4.1
Station Code      CHBH17
Station Lat.      35.1714
Station Long.     140.3398
Station Height(m) -811.7
Record Time       2024/06/23 22:54:46
Sampling Freq(Hz) 100Hz
Duration Time(s)  120
Dir.              3
Scale Factor      2942(gal)/8224139
Max. Acc. (gal)   0.208
Last Correction   2024/06/23 22:54:46
Memo.             
[...]
 -183186  -183159  -183088  -183022  -183015  -183035  -183077  -183162 
 -183204  -183172  -183165  -183143  -183061  -183045  -183115  -183168 
 -183176  -183173  -183143  -183151  -183290  -183417  -183375  -183267 
 -183204  -183188  -183177  -183136  -183135  -183161  -183131  -183060 
 -183003  -183062  -183223  -183271  -183178  -183134  -183215  -183296 
 -183280  -183228  -183185  -183141  -183072  -183023  -183089  -183097 
 -182943  -182952  -183199  -183269  -183095  -183012  -183116  -183231 
 -183173  -183007  -183034  -183212  -183243  -183217  -183325  -183394 
 -183251  -183091  -183111  -183203  -183224  -183153  -183034  -182993 
 -183074  -183197  -183261  -183146  -182956  -182992  -183195  -183228 
 -183145  -183158  -183200  -183170  -183147  -183170  -183181  -183182 
 -183227  -183261  -183223  -183134  -183031  -183045  -183192  -183242 
 -183186  -183177  -183154  -183093  -183105  -183192  -183204  -183109 
 -183066  -183116  -183128  -183107  -183146  -183270  -183365  -183300 
 -183200  -183184  -183166  -183136  -183136  -183139  -183126  -183109 
 -183124  -183146  -183153  -183193  -183228  -183153  -183041  -183108 
 -183321  -183392  -183273  -183145  -183054  -183024  -183092  -183166 
 -183151  -183054  -183026  -183177  -183343  -183330  -183203  -183069 
 -182964  -182973  -183100  -183223  -183240  -183132  -183060  -183181 
 -183340  -183331  -183262  -183250  -183177  -183024  -182987  -183109 
 -183236  -183285  -183285  -183271  -183230  -183118  -183014  -183030 
 -183087  -183126  -183212  -183259  -183219  -183196  -183116  -182945 
 -182930  -183047  -183024  -182956  -183037  -183165  -183236  -183311 
 -183409  -183439  -183398  -183351  -183238  -183134  -183132  -183112 
 -183062  -183015  -182938  -182904  -182966  -183112  -183296  -183362 
 -183281  -183224  -183246  -183174  -183053  -183169  -183381  -183294 
 -183064  -183014  -183043  -183003  -182987  -183066  -183127  -183170 
 -183303  -183406  -183393  -183317  -183184  -183039  -182954  -182938 
 -183003  -183165  -183352  -183362  -183128  -182964  -183084  -183197 
 -183138  -183170  -183308  -183280  -183139  -183104  -183138  -183111 
 -183070  -183085  -183085  -183057  -183138  -183351  -183424  -183215 
 -183015  -183011  -183031  -183039  -183154  -183253  -183162  -183014 
 -183015  -183104  -183193  -183317  -183402  -183367  -183377  -183501 
 -183455  -183204  -183097  -183104  -183000  -182854  -182729  -182753 
 -183008  -183222  -183271  -183239  -183104  -182960  -182974  -183165 
 -183278  -183177  -183158  -183319  -183365  -183249  -183168  -183180 
 -183178  -183122  -183141  -183246  -183304  -183298  -183236  -183128 
 -183020  -182960  -183027  -183161  -183199  -183168  -183174  -183204 
 -183172  -183072  -183034  -183108  -183216  -183307  -183309  -183161 
 -182976  -182934  -183018  -183088  -183197  -183346  -183336  -183238 
 -183238  -183250  -183226  -183213  -183168  -183099  -183049  -183010 
 -183018  -183074  -183115  -183065  -182968  -182974  -183095  -183230 
 -183350  -183428  -183435  -183396  -183340  -183243  -183122  -183012 
 -182980  -183097  -183220  -183163  -183033  -182962  -182893  -182879 
 -183030  -183139  -183016  -182875  -182957  -183199  -183370  -183367 
 -183263  -183188  -183234  -183347  -183363  -183301  -183288  -183261 
 -183142  -183031  -182969  -182931  -182984  -183127  -183284  -183398 
 -183411  -183339  -183201  -183007  -182885  -182904  -182999  -183092 
 -183153  -183226  -183308  -183320  -183286  -183284  -183293  -183286 
 -183249  -183138  -183033  -183045  -183081  -183070  -183134  -183253 
 -183246  -183166  -183155  -183162  -183127  -183046  -182934  -182949 
 -183131  -183269  -183327  -183366  -183289  -183143  -183118  -183230 
 -183297  -183215  -183116  -183100  -183069  -182984  -182979  -183100 
 -183126  -182992  -182954  -183064  -183138  -183159  -183159  -183151 
 -183196  -183238  -183212  -183184  -183177  -183185  -183222  -183251 
 -183235  -183190  -183163  -183097  -182947  -182887  -183033  -183282 
 -183443  -183392  -183297  -183274  -183173  -183053  -183055  -183089 
 -183116  -183180  -183186  -183119  -183095  -183150  -183266  -183371 
 -183390  -183313  -183147  -183018  -183004  -183004  -183008  -183053 
 -183092  -183116  -183176  -183267  -183269  -183168  -183107  -183115 
 -183120  -183174  -183278  -183277  -183231  -183304  -183347  -183284 
 -183240  -183193  -183130  -183162  -183186  -183037  -182879  -182911 
 -183028  -183104  -183170  -183205  -183093  -182996  -183101  -183205 
 -183201  -183249  -183321  -183336  -183308  -183222  -183119  -183128 
 -183232  -183294  -183277  -183143  -182908  -182800  -182914  -183084 
 -183158  -183123  -183131  -183227  -183213  -183122  -183173  -183216 
 -183073  -183028  -183203  -183276  -183184  -183166  -183242  -183296 
 -183281  -183159  -183031  -183030  -183046  -183011  -183087  -183182 
 -183054  -182926  -183045  -183219  -183307  -183367  -183409  -183359 
 -183228  -183170  -183211  -183200  -183159  -183222  -183251  -183108 
 -183000  -183024  -183026  -183035  -183172  -183321  -183332  -183238 
 -183159  -183159  -183228  -183278  -183174  -182976  -182933  -183037 
 -183084  -183116  -183257  -183393  -183366  -183243  -183169  -183122 
 -183109  -183230  -183367  -183319  -183166  -183072  -183035  -183033 
 -183070  -183138  -183201  -183186  -183100  -183087  -183172  -183195 
 -183037  -182806  -182737  -182848  -183031  -183294  -183514  -183533 
 -183460  -183354  -183155  -182997  -183008  -183042  -183008  -183072 
 -183170  -183134  -183132  -183239  -183266  -183193  -183088  -182989 
 -183022  -183224  -183386  -183365  -183288  -183266  -183282  -183284 
 -183211  -183124  -183126  -183168  -183159  -183093  -183073  -183193 
 -183320  -183250  -183042  -182893  -182885  -183004  -183173  -183257 
 -183188  -183023  -182907  -183008  -183265  -183446  -183508  -183504 
 -183390  -183189  -183033  -182995  -183030  -183085  -183174  -183280 
 -183323  -183222  -183066  -183069  -183150  -183115  -183049  -183107 
 -183235  -183250  -183132  -183018  -182962  -182991  -183073  -183119 
 -183207  -183338  -183300  -183168  -183126  -183070  -183039  -183176 
 -183307  -183278  -183170  -183058  -183008  -183041  -183050  -183019 
 -183061  -183126  -183100  -183095  -183288  -183558  -183641  -183513 
 -183269  -183062  -183042  -183046  -182958  -182995  -183118  -183105 
 -183060  -183115  -183177  -183193  -183162  -183085  -183077  -183185 
 -183282  -183313  -183281  -183161  -183014  -182949  -183014  -183095 
 -183064  -183084  -183208  -183231  -183213  -183263  -183255  -183219 
 -183274  -183404  -183486  -183388  -183209  -183122  -183054  -182980 
 -182981  -183039  -183159  -183316  -183369  -183234  -183019  -182911 
 -182925  -182937  -182953  -183053  -183255  -183412  -183330  -183142 
 -183053  -182952  -182823  -182887  -183101  -183240  -183282  -183288 
 -183296  -183321  -183290  -183185  -183097  -183074  -183100  -183146 
 -183211  -183297  -183359  -183369  -183327  -183212  -183049  -182954 
 -182981  -183058  -183173  -183277  -183238  -183092  -182991  -183008 
 -183109  -183267  -183439  -183452  -183254  -183070  -182983  -182885 
 -182839  -182895  -182953  -183016  -183097  -183112  -183157  -183386 
 -183641  -183670  -183492  -183316  -183211  -183085  -182981  -182977 
 -182946  -182885  -182977  -183196  -183323  -183263  -183122  -183001 
 -182950  -183006  -183108  -183185  -183271  -183371  -183406  -183348 
 -183250  -183207  -183223  -183181  -183062  -183037  -183139  -183146 
 -183023  -183026  -183230  -183402  -183346  -183122  -182960  -182968 
 -183077  -183212  -183301  -183308  -183281  -183204  -183047  -182966 
 -183096  -183294  -183267  -183041  -182984  -183136  -183262  -183358 
 -183396  -183265  -183126  -183118  -183089  -182991  -182950  -182966 
 -183026  -183170  -183224  -183045  -182862  -182923  -183089  -183181 
 -183267  -183325  -183265  -183185  -183161  -183231  -183433  -183537 
 -183363  -183166  -183136  -183093  -182984  -182952  -182973  -182992 
 -183004  -183054  -183230  -183386  -183348  -183249  -183204  -183162 
 -183153  -183222  -183317  -183347  -183259  -183154  -183126  -183089 
 -182993  -182972  -183080  -183238  -183321  -183290  -183226  -183184 
 -183172  -183159  -183077  -182993  -183041  -183154  -183227  -183261 
 -183284  -183307  -183281  -183177  -183147  -183259  -183307  -183219 
 -183189  -183220  -183165  -183062  -182922  -182714  -182628  -182756 
 -182898  -183001  -183201  -183382  -183294  -183069  -183042  -183188 
 -183263  -183263  -183285  -183290  -183246  -183254  -183363  -183390 
 -183246  -183147  -183246  -183405  -183419  -183298  -183189  -183109 
 -183041  -183022  -183038  -183047  -183055  -183045  -183020  -183011 
 -182980  -182969  -183039  -183101  -183158  -183274  -183335  -183257 
 -183128  -183087  -183139  -183159  -183174  -183259  -183284  -183192 
 -183149  -183243  -183321  -183270  -183207  -183201  -183223  -183285 
 -183284  -183118  -182964  -182984  -183096  -183172  -183153  -183023 
 -182839  -182781  -182933  -183104  -183224  -183311  -183220  -182993 
 -182916  -183039  -183100  -183069  -183220  -183512  -183595  -183450 
 -183315  -183208  -183095  -183064  -183064  -183034  -183054  -183103 
 -183136  -183158  -183103  -183046  -183145  -183292  -183315  -183234 
 -183122  -183060  -183091  -183112  -183035  -182970  -183039  -183197 
 -183382  -183536  -183563  -183470  -183338  -183168  -183043  -183089 
 -183228  -183335  -183363  -183294  -183154  -182970  -182856  -182918 
 -183060  -183188  -183321  -183367  -183227  -183008  -182879  -182892 
 -182953  -182914  -182881  -183024  -183168  -183166  -183243  -183444 
 -183496  -183369  -183263  -183251  -183261  -183251  -183243  -183212 
 -183161  -183132  -183126  -183170  -183216  -183116  -182942  -182879 
 -182920  -183000  -183128  -183281  -183328  -183235  -183168  -183147 
 -183016  -182865  -182930  -183120  -183166  -183035  -182946  -183033 
 -183184  -183266  -183259  -183231  -183292  -183393  -183433  -183479 
 -183496  -183340  -183114  -182989  -182926  -182914  -183016  -183169 
 -183235  -183145  -183014  -183001  -183019  -182984  -182988  -183070 
 -183234  -183416  -183432  -183300  -183189  -183089  -182984  -182961 
 -183008  -183074  -183123  -183109  -183085  -183119  -183178  -183226 
 -183249  -183276  -183373  -183417  -183254  -183088  -183119  -183240 
 -183347  -183389  -183298  -183139  -183072  -183119  -183168  -183200 
 -183232  -183185  -183084  -183046  -183055  -183031  -183019  -183058 
 -183078  -183114  -183193  -183234  -183234  -183199  -183172  -183262 
 -183354  -183284  -183172  -183127  -183115  -183150  -183205  -183170 
 -183061  -183014  -183062  -183103  -183119  -183180  -183258  -183269 
 -183208  -183181  -183230  -183267  -183240  -183209  -183201  -183146 
 -183065  -183077  -183143  -183178  -183181  -183103  -183011  -183037 
 -183047  -182981  -182977  -183022  -183054  -183077  -183088  -183145 
 -183247  -183307  -183330  -183363  -183340  -183212  -183115  -183207 
 -183398  -183474  -183365  -183155  -182974  -182910  -182987  -183188 
 -183361  -183305  -183115  -183012  -183003  -182984  -182934  -182937 
 -183041  -183132  -183172  -183227  -183246  -183127  -182961  -182941 
 -183087  -183231  -183274  -183281  -183336  -183401  -183374  -183319 
 -183284  -183190  -183074  -183042  -183062  -183054  -183042  -183080 
 -183120  -183134  -183222  -183389  -183463  -183406  -183344  -183270 
 -183170  -183109  -183053  -182952  -182856  -182861  -182988  -183074 
 -183066  -183093  -183185  -183261  -183212  -183033  -182945  -183051 
 -183173  -183281  -183396  -183390  -183284  -183224  -183230  -183217 
 -183207  -183265  -183266  -183082  -182864  -182800  -182868  -182961 
 -183076  -183239  -183417  -183487  -183374  -183192  -183031  -182915 
 -182912  -182996  -183078  -183176  -183293  -183339  -183281  -183222 
 -183235  -183240  -183138  -183015  -183008  -183099  -183220  -183327 
 -183402  -183431  -183332  -183155  -183070  -183084  -183084  -183053 
 -183070  -183128  -183139  -183131  -183168  -183170  -183112  -183080 
 -183068  -183015  -182965  -182958  -182962  -183000  -183092  -183236 
 -183396  -183436  -183379  -183336  -183313  -183324  -183325  -183254 
 -183159  -183069  -183022  -183020  -182989  -182992  -183119  -183258 
 -183290  -183238  -183192  -183177  -183115  -183062  -183155  -183259 
 -183227  -183155  -183134  -183172  -183249  -183263  -183124  -182993 
 -183088  -183271  -183277  -183163  -183119  -183070  -182968  -182965 
 -183057  -183127  -183190  -183227  -183182  -183142  -183162  -183188 
 -183195  -183231  -183359  -183494  -183475  -183280  -183011  -182854 
 -182865  -182885  -182862  -182868  -182972  -183188  -183331  -183321 
 -183350  -183381  -183289  -183249  -183286  -183257  -183205  -183153 
 -183095  -183066  -183051  -183089  -183130  -183078  -183045  -183078 
 -183084  -183099  -183176  -183253  -183240  -183146  -183114  -183163 
 -183159  -183100  -183060  -183060  -183149  -183276  -183292  -183219 
 -183149  -183073  -183061  -183161  -183238  -183224  -183166  -183081 
 -183031  -183091  -183180  -183151  -183065  -183120  -183258  -183317 
 -183316  -183274  -183153  -183033  -183038  -183111  -183136  -183197 
 -183377  -183524  -183510  -183428  -183384  -183339  -183259  -183185 
 -183080  -182938  -182804  -182661  -182576  -182671  -182876  -183073 
 -183258  -183405  -183433  -183336  -183217  -183155  -183118  -183069 
 -183064  -183147  -183238  -183243  -183212  -183174  -183109  -183108 
 -183150  -183142  -183168  -183244  -183290  -183265  -183131  -183049 
 -183131  -183184  -183131  -183061  -183020  -183096  -183247  -183334 
 -183358  -183321  -183240  -183208  -183172  -183093  -183078  -183124 
 -183154  -183163  -183150  -183101  -183054  -183038  -183077  -183170 
 -183227  -183176  -183076  -183055  -183092  -183058  -183006  -183045 
 -183141  -183230  -183315  -183340  -183293  -183294  -183338  -183304 
 -183213  -183168  -183166  -183119  -183006  -182937  -182966  -182973 
 -182908  -182892  -182976  -183077  -183159  -183227  -183254  -183195 
 -183112  -183122  -183204  -183284  -183303  -183263  -183303  -183408 
 -183402  -183307  -183265  -183271  -183216  -183108  -183050  -183042 
 -183037  -183073  -183139  -183184  -183193  -183168  -183166  -183219 
 -183232  -183174  -183141  -183166  -183182  -183161  -183138  -183104 
 -183061  -183074  -183130  -183145  -183115  -183054  -182964  -182923 
 -182983  -183097  -183226  -183294  -183263  -183244  -183258  -183231 
 -183213  -183227  -183209  -183205  -183246  -183265  -183246  -183212 
 -183168  -183131  -183111  -183060  -182996  -183010  -183096  -183154 
 -183158  -183162  -183141  -183077  -183060  -183122  -183185  -183203 
 -183212  -183255  -183258  -183154  -183076  -183128  -183188  -183163 
 -183138  -183172  -183220  -183184  -183074  -183047  -183112  -183150 
 -183141  -183111  -183103  -183116  -183070  -183010  -183049  -183142 
 -183153  -183073  -183070  -183200  -183297  -183324  -183350  -183347 
 -183321  -183292  -183232  -183182  -183173  -183135  -183038  -182947 
 -182939  -183001  -183069  -183136  -183200  -183231  -183257  -183284 
 -183289  -183288  -183254  -183149  -183076  -183131  -183203  -183173 
 -183154  -183249  -183288  -183162  -183055  -183043  -183020  -183022 
 -183095  -183153  -183151  -183132  -183100  -183096  -183178  -183274 
 -183317  -183366  -183390  -183324  -183246  -183205  -183181  -183197 
 -183243  -183253  -183219  -183196  -183186  -183132  -183058  -183030 
 -183016  -183007  -182999  -182945  -182898  -182923  -182968  -183030 
 -183127  -183189  -183220  -183261  -183270  -183227  -183185  -183209 
 -183282  -183305  -183307  -183323  -183267  -183170  -183118  -183055 
 -183008  -183031  -183039  -183031  -183035  -183007  -182987  -183022 
 -183096  -183188  -183267  -183315  -183311  -183265  -183249  -183250 
 -183196  -183166  -183235  -183271  -183257  -183289  -183281  -183208 
 -183201  -183246  -183247  -183215  -183193  -183184  -183184  -183178 
 -183145  -183105  -183097  -183096  -183109  -183143  -183118  -183073 
 -183128  -183186  -183150  -183103  -183078  -183053  -183053  -183081 
 -183078  -183031  -183001  -183020  -183057  -183097  -183135  -183151 
 -183130  -183096  -183084  -183060  -183033  -183069  -183139  -183182 
 -183166  -183115  -183127  -183217  -183277  -183263  -183239  -183255 
 -183303  -183365  -183388  -183342  -183288  -183254  -183208  -183166 
 -183165  -183185  -183208  -183230  -183212  -183176  -183182  -183213 
 -183196  -183145  -183150  -183209  -183211  -183134  -183074  -183051 
 -183028  -183050  -183092  -183077  -183046  -183034  -183018  -183024 
 -183070  -183108  -183112  -183104  -183105  -183100  -183089  -183099 
 -183134  -183180  -183232  -183249  -183201  -183165  -183173  -183190 
 -183226  -183271  -183281  -183243  -183186  -183124  -183074  -183060 
 -183069  -183054  -183019  -183033  -183120  -183209  -183254  -183270 
 -183269  -183227  -183157  -183128  -183154  -183163  -183142  -183123 
 -183127  -183136  -183135  -183168  -183226  -183234  -183174  -183130 
 -183149  -183199  -183250  -183285  -183282  -183259  -183262  -183254 
 -183159  -183073  -183099  -183123  -183084  -183068  -183073  -183057 
 -183006  -182965  -182997  -183030  -183047  -183128  -183200  -183207 
 -183240  -183301  -183282  -183220  -183235  -183250  -183207  -183196 
 -183212  -183228  -183250  -183193  -183089  -183070  -183085  -183043 
 -182997  -183033  -183136  -183224  -183226  -183159  -183127  -183149 
 -183132  -183089  -183111  -183172  -183238  -183321  -183366  -183334 
 -183262  -183163  -183078  -183061  -183062  -183037  -183038  -183108 
 -183196  -183242  -183243  -183220  -183174  -183103  -183031  -183043 
 -183135  -183190  -183185  -183163  -183165  -183185  -183165  -183155 
 -183219  -183242  -183211  -183211  -183201  -183189  -183211  -183199 
 -183155  -183127  -183087  -183045  -183031  -182999  -182953  -182980 
 -183047  -183061  -183095  -183176  -183185  -183172  -183228  -183261 
 -183239  -183236  -183251  -183235  -183190  -183173  -183177  -183151 
 -183120  -183132  -183157  -183145  -183134  -183150  -183136  -183127 
 -183163  -183201  -183243  -183257  -183200  -183168  -183184  -183199 
 -183226  -183247  -183266  -183284  -183276  -183250  -183197  -183143 
 -183149  -183165  -183163  -183177  -183178  -183157  -183141  -183123 
 -183088  -183065  -183108  -183161  -183126  -183078  -183076  -183072 
 -183099  -183122  -183051  -183004  -183070  -183131  -183101  -183077 
 -183124  -183169  -183192  -183226  -183227  -183182  -183173  -183230 
 -183289  -183284  -183228  -183180  -183168  -183170  -183136  -183087 
 -183050  -183024  -183053  -183103  -183118  -183143  -183173  -183190 
 -183263  -183354  -183396  -183378  -183296  -183217  -183204  -183236 
 -183244  -183184  -183131  -183114  -183099  -183112  -183127  -183120 
 -183128  -183107  -183042  -183041  -183105  -183159  -183185  -183168 
 -183112  -183054  -182970  -182900  -182950  -183053  -183077  -183055 
 -183066  -183096  -183089  -183064  -183087  -183143  -183207  -183250 
