Origin Time       2024/06/23 22:54:00
Lat.              35.645
Long.             140.060
Depth. (km)       72
Mag.              4.1
Station Code      CHBH19
Station Lat.      35.5943
Station Long.     140.5107
Station Height(m) 1
Record Time       2024/06/23 22:54:36
Sampling Freq(Hz) 100Hz
Duration Time(s)  120
Dir.              5
Scale Factor      7845(gal)/8223790
Max. Acc. (gal)   2.463
Last Correction   2024/06/23 22:54:36
Memo.             
[...]
   -2656    -2654    -2646    -2646    -2650    -2650    -2650    -2655 
   -2659    -2654    -2643    -2636    -2641    -2651    -2656    -2662 
   -2666    -2655    -2632    -2621    -2640    -2677    -2701    -2701 
   -2689    -2664    -2631    -2609    -2623    -2647    -2647    -2636 
   -2637    -2651    -2664    -2673    -2685    -2683    -2643    -2592 
   -2578    -2616    -2686    -2748    -2764    -2725    -2643    -2569 
   -2571    -2625    -2648    -2662    -2704    -2727    -2702    -2655 
   -2616    -2616    -2627    -2617    -2617    -2652    -2701    -2721 
   -2693    -2639    -2587    -2556    -2567    -2616    -2675    -2741 
   -2786    -2778    -2741    -2698    -2655    -2592    -2494    -2461 
   -2552    -2674    -2718    -2671    -2600    -2608    -2698    -2763 
   -2764    -2745    -2739    -2736    -2716    -2674    -2628    -2600 
   -2581    -2567    -2556    -2558    -2583    -2614    -2628    -2655 
   -2731    -2806    -2798    -2717    -2644    -2613    -2606    -2592 
   -2550    -2515    -2532    -2585    -2633    -2682    -2737    -2766 
   -2740    -2666    -2594    -2586    -2639    -2697    -2701    -2631 
   -2511    -2408    -2434    -2590    -2771    -2891    -2911    -2851 
   -2781    -2733    -2695    -2625    -2490    -2371    -2384    -2508 
   -2627    -2671    -2660    -2636    -2641    -2698    -2795    -2874 
   -2849    -2743    -2659    -2640    -2643    -2635    -2644    -2631 
   -2523    -2432    -2477    -2566    -2633    -2708    -2747    -2693 
   -2581    -2521    -2571    -2635    -2625    -2552    -2450    -2434 
   -2589    -2772    -2829    -2847    -2910    -2920    -2797    -2636 
   -2578    -2597    -2570    -2513    -2492    -2525    -2656    -2847 
   -2964    -2976    -2938    -2879    -2798    -2671    -2562    -2562 
   -2589    -2587    -2620    -2621    -2566    -2566    -2628    -2712 
   -2798    -2859    -2903    -2884    -2725    -2492    -2285    -2197 
   -2332    -2594    -2782    -2882    -2922    -2875    -2762    -2627 
   -2582    -2677    -2787    -2851    -2884    -2852    -2775    -2662 
   -2474    -2266    -2128    -2110    -2235    -2448    -2666    -2847 
   -2932    -2878    -2729    -2598    -2596    -2687    -2739    -2768 
   -2848    -2910    -2847    -2674    -2538    -2484    -2451    -2475 
   -2565    -2602    -2558    -2533    -2590    -2640    -2623    -2598 
   -2656    -2816    -2982    -3068    -3018    -2772    -2436    -2227 
   -2245    -2438    -2663    -2783    -2790    -2701    -2513    -2353 
   -2400    -2594    -2756    -2897    -3063    -3164    -3140    -3007 
   -2825    -2641    -2469    -2404    -2484    -2566    -2589    -2613 
   -2648    -2682    -2691    -2697    -2710    -2637    -2473    -2350 
   -2315    -2340    -2447    -2616    -2764    -2876    -2940    -2924 
   -2859    -2837    -2867    -2818    -2646    -2478    -2425    -2505 
   -2631    -2650    -2552    -2479    -2482    -2490    -2496    -2567 
   -2725    -2909    -3018    -3003    -2909    -2751    -2562    -2469 
   -2475    -2459    -2401    -2401    -2552    -2787    -2916    -2855 
   -2675    -2524    -2508    -2590    -2718    -2855    -2880    -2781 
   -2700    -2679    -2635    -2558    -2505    -2448    -2371    -2401 
   -2589    -2782    -2884    -2940    -2916    -2806    -2724    -2698 
   -2673    -2632    -2600    -2583    -2555    -2521    -2524    -2563 
   -2597    -2640    -2714    -2771    -2775    -2741    -2670    -2578 
   -2528    -2560    -2640    -2686    -2659    -2569    -2463    -2447 
   -2517    -2577    -2633    -2736    -2824    -2852    -2890    -2974 
   -2982    -2797    -2513    -2317    -2254    -2282    -2361    -2447 
   -2583    -2733    -2760    -2706    -2683    -2698    -2722    -2706 
   -2625    -2558    -2619    -2789    -2925    -2994    -3021    -2975 
   -2848    -2662    -2489    -2451    -2519    -2574    -2633    -2735 
   -2782    -2709    -2579    -2470    -2417    -2443    -2489    -2520 
   -2548    -2533    -2439    -2359    -2416    -2625    -2941    -3234 
   -3331    -3252    -3110    -2909    -2664    -2436    -2250    -2165 
   -2222    -2361    -2516    -2632    -2709    -2749    -2747    -2763 
   -2855    -2968    -2955    -2735    -2470    -2378    -2462    -2600 
   -2695    -2690    -2609    -2559    -2606    -2708    -2760    -2662 
   -2474    -2398    -2467    -2558    -2650    -2755    -2870    -2945 
   -2874    -2704    -2573    -2498    -2466    -2459    -2458    -2538 
   -2685    -2779    -2833    -2868    -2816    -2701    -2609    -2575 
   -2609    -2673    -2731    -2751    -2700    -2619    -2579    -2593 
   -2628    -2654    -2677    -2686    -2679    -2687    -2662    -2563 
   -2493    -2540    -2683    -2839    -2918    -2951    -2980    -2907 
   -2679    -2412    -2234    -2193    -2239    -2297    -2331    -2340 
   -2386    -2504    -2646    -2813    -2979    -3018    -2953    -2868 
   -2700    -2465    -2292    -2230    -2347    -2668    -3017    -3203 
   -3188    -3041    -2852    -2629    -2408    -2334    -2416    -2529 
   -2594    -2616    -2619    -2617    -2664    -2760    -2806    -2749 
   -2593    -2448    -2504    -2743    -3001    -3145    -3119    -2986 
   -2799    -2586    -2454    -2421    -2378    -2309    -2320    -2408 
   -2509    -2659    -2822    -2849    -2722    -2539    -2403    -2425 
   -2644    -2913    -3063    -3105    -3107    -3052    -2835    -2455 
   -2170    -2172    -2324    -2473    -2574    -2640    -2756    -2893 
   -2852    -2635    -2543    -2694    -2864    -2890    -2841    -2836 
   -2771    -2498    -2249    -2326    -2617    -2818    -2806    -2712 
   -2702    -2778    -2849    -2795    -2558    -2309    -2276    -2489 
   -2799    -2968    -2889    -2716    -2637    -2655    -2690    -2712 
   -2677    -2556    -2435    -2407    -2447    -2457    -2463    -2536 
   -2617    -2677    -2756    -2841    -2898    -2936    -2943    -2874 
   -2755    -2677    -2655    -2632    -2590    -2550    -2492    -2459 
   -2582    -2808    -2916    -2840    -2704    -2613    -2565    -2494 
   -2421    -2443    -2529    -2550    -2488    -2409    -2393    -2524 
   -2745    -2903    -2930    -2830    -2617    -2420    -2417    -2593 
   -2805    -2967    -3024    -2953    -2789    -2601    -2486    -2461 
   -2446    -2448    -2578    -2791    -2872    -2775    -2631    -2506 
   -2403    -2359    -2475    -2766    -3044    -3122    -3018    -2847 
   -2666    -2500    -2392    -2358    -2361    -2386    -2462    -2602 
   -2794    -3005    -3088    -2934    -2705    -2562    -2485    -2477 
   -2528    -2586    -2714    -2945    -3098    -3013    -2766    -2511 
   -2307    -2162    -2120    -2250    -2552    -2903    -3082    -2986 
   -2778    -2602    -2438    -2308    -2257    -2269    -2376    -2628 
   -2975    -3283    -3476    -3546    -3427    -3119    -2802    -2569 
   -2369    -2272    -2307    -2339    -2339    -2365    -2380    -2407 
   -2521    -2674    -2771    -2755    -2624    -2497    -2471    -2505 
   -2523    -2512    -2511    -2579    -2731    -2924    -3051    -3025 
   -2925    -2848    -2747    -2594    -2498    -2535    -2635    -2693 
   -2731    -2791    -2795    -2706    -2629    -2658    -2743    -2747 
   -2640    -2533    -2481    -2450    -2428    -2444    -2513    -2593 
   -2637    -2644    -2633    -2625    -2592    -2548    -2575    -2654 
   -2691    -2685    -2668    -2650    -2637    -2610    -2560    -2516 
   -2488    -2496    -2594    -2739    -2847    -2930    -2951    -2816 
   -2602    -2473    -2434    -2389    -2313    -2266    -2282    -2381 
   -2608    -2955    -3281    -3366    -3156    -2856    -2628    -2502 
   -2521    -2677    -2851    -2948    -2978    -2936    -2787    -2596 
   -2502    -2558    -2639    -2612    -2527    -2547    -2713    -2921 
   -3044    -3030    -2924    -2774    -2583    -2450    -2455    -2505 
   -2552    -2641    -2727    -2700    -2532    -2342    -2332    -2567 
   -2875    -3042    -3006    -2856    -2678    -2440    -2126    -1869 
   -1845    -2045    -2320    -2554    -2725    -2829    -2826    -2725 
   -2627    -2636    -2717    -2749    -2747    -2783    -2806    -2756 
   -2679    -2628    -2593    -2546    -2505    -2511    -2533    -2520 
   -2532    -2629    -2749    -2829    -2868    -2874    -2875    -2866 
   -2803    -2729    -2695    -2670    -2654    -2687    -2729    -2740 
   -2766    -2825    -2855    -2774    -2570    -2373    -2284    -2281 
   -2412    -2694    -2944    -3017    -2967    -2839    -2560    -2219 
   -2069    -2168    -2339    -2470    -2573    -2679    -2798    -2897 
   -2959    -2979    -2878    -2629    -2438    -2461    -2577    -2652 
   -2733    -2855    -2955    -2984    -2945    -2845    -2729    -2648 
   -2612    -2596    -2535    -2455    -2482    -2594    -2641    -2602 
   -2577    -2581    -2559    -2570    -2727    -2932    -2980    -2890 
   -2813    -2727    -2562    -2420    -2438    -2544    -2597    -2605 
   -2658    -2782    -2963    -3148    -3246    -3221    -3127    -2998 
   -2789    -2533    -2299    -2097    -1975    -2007    -2168    -2330 
   -2396    -2340    -2199    -2085    -2112    -2285    -2506    -2667 
   -2698    -2587    -2405    -2309    -2435    -2812    -3302    -3623 
   -3624    -3429    -3217    -3040    -2902    -2847    -2835    -2736 
   -2517    -2247    -1956    -1661    -1436    -1358    -1467    -1777 
   -2243    -2751    -3218    -3631    -3985    -4260    -4433    -4498 
   -4450    -4256    -3844    -3211    -2525    -1988    -1669    -1584 
   -1660    -1703    -1636    -1553    -1560    -1698    -1976    -2377 
   -2806    -3082    -3149    -3134    -3103    -3022    -2911    -2805 
   -2716    -2654    -2652    -2764    -2921    -2959    -2839    -2632 
   -2404    -2191    -2050    -2087    -2249    -2316    -2208    -2046 
   -1939    -2000    -2334    -2821    -3191    -3312    -3241    -3133 
   -3082    -3030    -2972    -2987    -3041    -2988    -2805    -2652 
   -2652    -2735    -2797    -2797    -2754    -2751    -2779    -2732 
   -2590    -2425    -2282    -2150    -2046    -2037    -2130    -2234 
   -2339    -2511    -2727    -2925    -3146    -3407    -3576    -3553 
   -3399    -3203    -2988    -2813    -2758    -2786    -2782    -2697 
   -2547    -2363    -2242    -2273    -2374    -2396    -2286    -2116 
   -2018    -2041    -2107    -2195    -2367    -2605    -2845    -3078 
   -3269    -3357    -3360    -3341    -3296    -3169    -2910    -2560 
   -2201    -1838    -1444    -1088     -930    -1047    -1408    -1980 
   -2647    -3188    -3514    -3693    -3773    -3765    -3700    -3620 
   -3577    -3595    -3624    -3599    -3464    -3144    -2656    -2147 
   -1728    -1422    -1304    -1499    -2002    -2586    -3034    -3288 
   -3364    -3321    -3256    -3211    -3194    -3161    -3073    -2955 
   -2809    -2594    -2347    -2143    -1985    -1861    -1850    -2041 
   -2404    -2787    -3064    -3214    -3249    -3225    -3223    -3257 
   -3283    -3223    -2952    -2447    -1900    -1536    -1406    -1432 
   -1502    -1559    -1637    -1817    -2119    -2457    -2693    -2790 
   -2785    -2693    -2544    -2388    -2255    -2106    -1865    -1632 
   -1561    -1641    -1833    -2128    -2438    -2658    -2754    -2775 
   -2837    -2991    -3231    -3607    -4109    -4521    -4599    -4371 
   -4002    -3537    -2987    -2471    -2106    -1945    -1969    -2047 
   -2070    -2106    -2242    -2436    -2633    -2818    -2941    -2983 
   -3014    -3140    -3362    -3592    -3740    -3762    -3635    -3379 
   -3141    -3096    -3208    -3306    -3289    -3126    -2866    -2629 
   -2527    -2586    -2718    -2744    -2538    -2164    -1819    -1601 
   -1429    -1252    -1146    -1163    -1244    -1368    -1568    -1821 
   -2084    -2311    -2469    -2654    -2988    -3422    -3782    -3932 
   -3882    -3775    -3731    -3788    -3889    -3929    -3882    -3767 
   -3545    -3190    -2787    -2400    -1988    -1463     -835     -334 
    -178     -356     -785    -1393    -2016    -2498    -2826    -3056 
   -3199    -3287    -3424    -3670    -3916    -3979    -3796    -3460 
   -3086    -2736    -2435    -2234    -2227    -2393    -2590    -2745 
   -2818    -2747    -2547    -2295    -2104    -2054    -2146    -2408 
   -2803    -3150    -3358    -3445    -3377    -3132    -2786    -2420 
   -2085    -1849    -1750    -1728    -1733    -1799    -1919    -1999 
   -2020    -2157    -2532    -3015    -3423    -3666    -3717    -3642 
   -3580    -3599    -3582    -3354    -2938    -2562    -2365    -2250 
   -2058    -1794    -1597    -1611    -1933    -2520    -3169    -3647 
   -3844    -3823    -3727    -3615    -3489    -3392    -3321    -3180 
   -2953    -2720    -2504    -2272    -2043    -1857    -1745    -1761 
   -1939    -2191    -2297    -2166    -1933    -1787    -1881    -2228 
   -2616    -2813    -2830    -2891    -3176    -3584    -3817    -3676 
   -3191    -2602    -2197    -2100    -2254    -2520    -2740    -2810 
   -2745    -2586    -2286    -1796    -1181     -669     -538     -858 
   -1428    -2030    -2609    -3156    -3607    -3888    -3966    -3905 
   -3813    -3736    -3672    -3620    -3612    -3659    -3719    -3649 
   -3323    -2813    -2276    -1826    -1602    -1718    -2119    -2565 
   -2871    -3041    -3061    -2855    -2479    -2123    -1914    -1850 
   -1850    -1829    -1748    -1706    -1937    -2601    -3616    -4644 
   -5236    -5135    -4452    -3543    -2685    -1953    -1404    -1093 
    -976    -1032    -1328    -1768    -2092    -2268    -2509    -2961 
   -3568    -4147    -4511    -4592    -4425    -4064    -3624    -3257 
   -2965    -2582    -2039    -1495    -1146    -1032    -1100    -1328 
   -1732    -2253    -2718    -2980    -3040    -2970    -2832    -2724 
   -2733    -2806    -2793    -2600    -2254    -1912    -1752    -1796 
   -1925    -2018    -2025    -1949    -1868    -1854    -1892    -2015 
   -2330    -2843    -3397    -3793    -3948    -3933    -3858    -3755 
   -3604    -3439    -3315    -3169    -2899    -2574    -2390    -2509 
   -2918    -3426    -3796    -3897    -3750    -3511    -3318    -3146 
   -2894    -2550    -2195    -1860    -1549    -1374    -1448    -1736 
   -2047    -2151    -1956    -1626    -1401    -1408    -1698    -2218 
   -2781    -3244    -3661    -4122    -4556    -4743    -4538    -4021 
   -3427    -2867    -2316    -1810    -1483    -1441    -1607    -1852 
   -2130    -2350    -2407    -2378    -2400    -2448    -2434    -2404 
   -2515    -2820    -3200    -3473    -3489    -3159    -2525    -1848 
   -1436    -1382    -1568    -1848    -2104    -2327    -2601    -2948 
   -3235    -3277    -3009    -2574    -2218    -2110    -2288    -2686 
   -3161    -3557    -3744    -3662    -3350    -2943    -2579    -2354 
   -2299    -2420    -2670    -2884    -2894    -2679    -2405    -2293 
   -2432    -2728    -3042    -3289    -3385    -3289    -3111    -3010 
   -3037    -3121    -3096    -2862    -2517    -2261    -2154    -2111 
   -2035    -1938    -1895    -1953    -2123    -2401    -2748    -3105 
   -3423    -3612    -3572    -3308    -2970    -2710    -2579    -2547 
   -2587    -2687    -2775    -2744    -2582    -2355    -2195    -2223 
   -2404    -2592    -2685    -2643    -2479    -2219    -1902    -1663 
   -1671    -1977    -2451    -2884    -3153    -3221    -3119    -2961 
   -2901    -2995    -3171    -3322    -3368    -3283    -3146    -3028 
   -2880    -2652    -2415    -2269    -2222    -2258    -2407    -2631 
   -2789    -2789    -2716    -2705    -2764    -2826    -2808    -2632 
   -2332    -2046    -1879    -1848    -1906    -1988    -2077    -2168 
   -2292    -2555    -2965    -3342    -3476    -3360    -3167    -3032 
   -2953    -2895    -2826    -2690    -2473    -2282    -2227    -2300 
   -2415    -2508    -2539    -2443    -2251    -2141    -2200    -2339 
   -2465    -2548    -2596    -2646    -2714    -2808    -2956    -3140 
   -3237    -3200    -3152    -3233    -3423    -3581    -3595    -3445 
   -3198    -2940    -2686    -2427    -2255    -2293    -2519    -2749 
   -2856    -2870    -2833    -2725    -2521    -2227    -1876    -1544 
   -1364    -1455    -1800    -2259    -2671    -2874    -2768    -2411 
   -1980    -1661    -1575    -1737    -2043    -2366    -2646    -2903 
   -3206    -3557    -3889    -4094    -4058    -3751    -3291    -2874 
   -2627    -2506    -2403    -2288    -2228    -2284    -2442    -2629 
   -2778    -2860    -2914    -3003    -3098    -3142    -3141    -3110 
   -3042    -2914    -2693    -2398    -2077    -1738    -1385    -1066 
    -854     -797     -942    -1331    -1921    -2559    -3072    -3369 
   -3434    -3299    -3080    -2920    -2917    -3088    -3375    -3674 
   -3870    -3871    -3684    -3387    -3071    -2833    -2722    -2700 
   -2714    -2759    -2824    -2905    -3048    -3321    -3658    -3850 
   -3774    -3472    -3025    -2539    -2151    -1939    -1872    -1858 
   -1868    -1939    -2077    -2224    -2374    -2570    -2809    -3026 
   -3090    -2898    -2511    -2088    -1759    -1599    -1599    -1668 
   -1749    -1860    -2037    -2296    -2592    -2874    -3156    -3430 
   -3655    -3817    -3861    -3746    -3527    -3272    -2978    -2625 
   -2272    -1983    -1776    -1648    -1579    -1557    -1598    -1714 
   -1895    -2138    -2458    -2821    -3132    -3350    -3516    -3704 
   -3932    -4085    -4058    -3846    -3480    -2986    -2428    -1965 
   -1752    -1775    -1890    -1983    -2041    -2120    -2273    -2482 
   -2729    -3024    -3321    -3503    -3453    -3161    -2768    -2413 
   -2142    -1968    -1898    -1867    -1825    -1838    -1999    -2290 
   -2616    -2894    -3106    -3213    -3214    -3210    -3252    -3289 
   -3271    -3198    -3122    -3064    -2975    -2835    -2681    -2546 
   -2444    -2381    -2351    -2388    -2532    -2768    -3007    -3159 
   -3200    -3165    -3088    -2979    -2824    -2614    -2365    -2088 
   -1831    -1684    -1695    -1804    -1894    -1912    -1891    -1892 
   -1989    -2211    -2528    -2882    -3171    -3292    -3222    -3011 
   -2731    -2467    -2335    -2371    -2497    -2614    -2677    -2660 
   -2571    -2477    -2494    -2713    -3092    -3492    -3782    -3923 
   -3937    -3885    -3821    -3719    -3492    -3145    -2781    -2477 
   -2269    -2184    -2201    -2254    -2250    -2138    -1957    -1786 
   -1688    -1705    -1842    -2120    -2536    -2970    -3262    -3366 
   -3342    -3237    -3065    -2860    -2646    -2440    -2288    -2203 
   -2188    -2249    -2362    -2508    -2655    -2724    -2697    -2647 
   -2670    -2821    -3049    -3238    -3327    -3296    -3142    -2916 
   -2685    -2501    -2377    -2272    -2147    -2019    -1922    -1907 
   -2042    -2323    -2660    -3002    -3316    -3527    -3549    -3373 
   -3059    -2687    -2367    -2191    -2147    -2118    -2022    -1891 
   -1775    -1680    -1634    -1686    -1827    -2008    -2223    -2471 
   -2743    -3037    -3350    -3649    -3838    -3855    -3751    -3595 
   -3404    -3157    -2855    -2555    -2324    -2199    -2195    -2301 
   -2474    -2640    -2754    -2832    -2944    -3150    -3430    -3689 
   -3854    -3851    -3622    -3198    -2677    -2166    -1767    -1533 
