Origin Time       2024/06/23 22:54:00
Lat.              35.645
Long.             140.060
Depth. (km)       72
Mag.              4.1
Station Code      CHBH16
Station Lat.      35.1384
Station Long.     139.9649
Station Height(m) -1842.75
Record Time       2024/06/23 22:54:46
Sampling Freq(Hz) 100Hz
Duration Time(s)  120
Dir.              1
Scale Factor      7845(gal)/8223790
Max. Acc. (gal)   0.340
Last Correction   2024/06/23 22:54:46
Memo.             
[...]
  -50750   -50751   -50753   -50753   -50751   -50751   -50751   -50753 
  -50755   -50754   -50753   -50753   -50753   -50751   -50751   -50751 
  -50753   -50754   -50753   -50753   -50754   -50751   -50750   -50751 
  -50753   -50753   -50751   -50751   -50751   -50753   -50753   -50751 
  -50750   -50753   -50754   -50751   -50751   -50753   -50751   -50751 
  -50753   -50753   -50750   -50751   -50754   -50751   -50749   -50753 
  -50754   -50750   -50750   -50754   -50753   -50750   -50751   -50754 
  -50751   -50750   -50753   -50751   -50751   -50753   -50753   -50753 
  -50751   -50750   -50750   -50753   -50751   -50751   -50751   -50751 
  -50751   -50751   -50750   -50750   -50750   -50750   -50751   -50751 
  -50753   -50754   -50753   -50751   -50755   -50754   -50753   -50754 
  -50751   -50750   -50751   -50750   -50750   -50755   -50751   -50749 
  -50751   -50751   -50749   -50750   -50753   -50753   -50751   -50750 
  -50751   -50753   -50751   -50751   -50751   -50751   -50751   -50751 
  -50753   -50751   -50751   -50751   -50751   -50754   -50754   -50750 
  -50750   -50753   -50750   -50749   -50751   -50751   -50751   -50751 
  -50751   -50753   -50751   -50751   -50753   -50751   -50750   -50751 
  -50753   -50753   -50753   -50753   -50751   -50751   -50751   -50750 
  -50751   -50753   -50751   -50750   -50751   -50753   -50751   -50751 
  -50751   -50751   -50751   -50751   -50751   -50753   -50750   -50750 
  -50750   -50753   -50754   -50751   -50751   -50753   -50750   -50750 
  -50753   -50751   -50749   -50751   -50754   -50751   -50753   -50754 
  -50750   -50749   -50751   -50751   -50751   -50751   -50753   -50754 
  -50754   -50751   -50751   -50751   -50750   -50751   -50751   -50750 
  -50751   -50753   -50753   -50754   -50751   -50750   -50753   -50753 
  -50750   -50751   -50753   -50751   -50754   -50755   -50751   -50750 
  -50753   -50753   -50751   -50753   -50753   -50753   -50753   -50751 
  -50750   -50749   -50747   -50751   -50755   -50751   -50750   -50753 
  -50754   -50753   -50751   -50751   -50753   -50754   -50753   -50751 
  -50753   -50754   -50751   -50749   -50751   -50754   -50753   -50753 
  -50753   -50751   -50753   -50753   -50753   -50751   -50751   -50753 
  -50754   -50753   -50750   -50750   -50751   -50751   -50751   -50751 
  -50753   -50753   -50750   -50750   -50753   -50751   -50751   -50753 
  -50753   -50753   -50753   -50751   -50750   -50751   -50751   -50751 
  -50753   -50751   -50750   -50754   -50755   -50751   -50749   -50751 
  -50753   -50751   -50751   -50754   -50753   -50750   -50750   -50753 
  -50753   -50753   -50753   -50750   -50751   -50751   -50750   -50751 
  -50753   -50753   -50754   -50753   -50753   -50754   -50753   -50750 
  -50753   -50753   -50751   -50751   -50751   -50751   -50753   -50751 
  -50749   -50747   -50751   -50753   -50750   -50750   -50751   -50751 
  -50751   -50753   -50753   -50751   -50750   -50751   -50753   -50753 
  -50751   -50751   -50753   -50751   -50751   -50750   -50750   -50751 
  -50753   -50751   -50751   -50751   -50751   -50751   -50753   -50754 
  -50751   -50750   -50749   -50750   -50750   -50750   -50750   -50749 
  -50750   -50753   -50753   -50751   -50751   -50751   -50753   -50754 
  -50753   -50751   -50753   -50751   -50751   -50751   -50750   -50750 
  -50753   -50751   -50749   -50750   -50753   -50750   -50749   -50751 
  -50753   -50750   -50753   -50753   -50751   -50751   -50750   -50749 
  -50749   -50751   -50753   -50753   -50750   -50750   -50750   -50750 
  -50750   -50753   -50753   -50750   -50753   -50755   -50751   -50749 
  -50753   -50751   -50751   -50751   -50751   -50753   -50751   -50750 
  -50751   -50753   -50751   -50750   -50751   -50750   -50751   -50754 
  -50754   -50751   -50751   -50753   -50751   -50750   -50749   -50751 
  -50751   -50750   -50750   -50751   -50751   -50751   -50753   -50753 
  -50753   -50751   -50751   -50751   -50750   -50750   -50751   -50751 
  -50750   -50751   -50753   -50753   -50753   -50750   -50751   -50753 
  -50750   -50750   -50751   -50751   -50750   -50751   -50750   -50749 
  -50750   -50750   -50750   -50750   -50751   -50753   -50754   -50754 
  -50753   -50751   -50751   -50751   -50753   -50753   -50751   -50751 
  -50753   -50751   -50753   -50754   -50751   -50750   -50753   -50753 
  -50751   -50750   -50750   -50753   -50753   -50751   -50751   -50751 
  -50751   -50753   -50753   -50753   -50751   -50751   -50753   -50754 
  -50754   -50753   -50751   -50750   -50751   -50754   -50754   -50754 
  -50754   -50751   -50751   -50751   -50751   -50751   -50753   -50753 
  -50754   -50753   -50753   -50753   -50750   -50749   -50751   -50754 
  -50753   -50747   -50746   -50753   -50754   -50749   -50750   -50754 
  -50749   -50747   -50757   -50761   -50753   -50745   -50746   -50751 
  -50757   -50762   -50766   -50757   -50734   -50723   -50730   -50745 
  -50760   -50772   -50776   -50772   -50751   -50727   -50727   -50751 
  -50765   -50758   -50747   -50750   -50764   -50755   -50739   -50753 
  -50768   -50749   -50746   -50769   -50766   -50743   -50753   -50774 
  -50743   -50700   -50735   -50787   -50761   -50722   -50726   -50735 
  -50735   -50758   -50808   -50800   -50727   -50708   -50750   -50768 
  -50770   -50774   -50743   -50710   -50724   -50753   -50773   -50781 
  -50753   -50726   -50747   -50784   -50789   -50772   -50762   -50741 
  -50695   -50695   -50745   -50768   -50754   -50745   -50746   -50754 
  -50762   -50772   -50778   -50769   -50747   -50734   -50747   -50781 
  -50796   -50757   -50710   -50722   -50766   -50764   -50741   -50768 
  -50792   -50739   -50681   -50699   -50761   -50791   -50782   -50769 
  -50747   -50731   -50723   -50722   -50766   -50818   -50793   -50733 
  -50720   -50745   -50747   -50733   -50753   -50796   -50795   -50747 
  -50734   -50769   -50781   -50734   -50695   -50724   -50789   -50803 
  -50780   -50765   -50741   -50711   -50710   -50724   -50733   -50741 
  -50760   -50778   -50755   -50727   -50764   -50793   -50745   -50718 
  -50769   -50803   -50769   -50737   -50738   -50745   -50734   -50716 
  -50728   -50762   -50768   -50750   -50747   -50776   -50797   -50760 
  -50704   -50703   -50743   -50762   -50747   -50745   -50760   -50754 
  -50739   -50761   -50808   -50809   -50758   -50711   -50695   -50706 
  -50749   -50799   -50792   -50737   -50715   -50743   -50769   -50768 
  -50747   -50741   -50755   -50773   -50785   -50787   -50777   -50742 
  -50689   -50681   -50723   -50769   -50796   -50769   -50708   -50714 
  -50770   -50780   -50745   -50739   -50777   -50795   -50764   -50735 
  -50728   -50734   -50742   -50749   -50769   -50784   -50773   -50762 
  -50745   -50715   -50719   -50747   -50749   -50742   -50753   -50769 
  -50777   -50762   -50739   -50735   -50749   -50750   -50746   -50758 
  -50777   -50792   -50791   -50755   -50720   -50728   -50753   -50755 
  -50747   -50742   -50737   -50739   -50753   -50753   -50731   -50728 
  -50761   -50789   -50793   -50777   -50758   -50755   -50737   -50708 
  -50718   -50746   -50764   -50768   -50733   -50706   -50754   -50819 
  -50807   -50739   -50693   -50706   -50765   -50814   -50804   -50747 
  -50708   -50719   -50730   -50719   -50734   -50784   -50805   -50773 
  -50737   -50731   -50743   -50747   -50747   -50757   -50765   -50754 
  -50739   -50750   -50770   -50770   -50745   -50730   -50742   -50755 
  -50742   -50723   -50735   -50761   -50778   -50780   -50762   -50758 
  -50772   -50757   -50714   -50700   -50727   -50741   -50726   -50747 
  -50805   -50815   -50778   -50773   -50781   -50750   -50704   -50699 
  -50722   -50737   -50758   -50778   -50761   -50742   -50749   -50745 
  -50737   -50753   -50758   -50741   -50743   -50764   -50769   -50764 
  -50751   -50739   -50753   -50782   -50785   -50758   -50723   -50700 
  -50724   -50768   -50761   -50745   -50768   -50778   -50765   -50760 
  -50766   -50780   -50769   -50737   -50726   -50731   -50735   -50749 
  -50739   -50711   -50724   -50760   -50768   -50776   -50785   -50768 
  -50760   -50746   -50708   -50715   -50770   -50780   -50734   -50726 
  -50770   -50778   -50742   -50728   -50747   -50762   -50774   -50785 
  -50780   -50760   -50724   -50701   -50733   -50770   -50761   -50746 
  -50747   -50739   -50737   -50751   -50761   -50765   -50777   -50766 
  -50719   -50699   -50727   -50755   -50776   -50799   -50808   -50793 
  -50747   -50699   -50689   -50727   -50773   -50784   -50760   -50739 
  -50735   -50751   -50780   -50773   -50741   -50742   -50757   -50746 
  -50724   -50722   -50728   -50749   -50774   -50778   -50761   -50743 
  -50733   -50742   -50769   -50784   -50787   -50780   -50757   -50733 
  -50735   -50776   -50795   -50749   -50720   -50751   -50761   -50737 
  -50737   -50750   -50760   -50776   -50770   -50743   -50750   -50747 
  -50696   -50685   -50734   -50765   -50764   -50757   -50746   -50731 
  -50737   -50772   -50789   -50754   -50726   -50750   -50769   -50761 
  -50772   -50791   -50770   -50722   -50711   -50743   -50760   -50750 
  -50755   -50773   -50769   -50746   -50734   -50723   -50701   -50708 
  -50739   -50768   -50805   -50808   -50750   -50708   -50714   -50738 
  -50770   -50789   -50787   -50773   -50746   -50724   -50745   -50774 
  -50772   -50758   -50741   -50712   -50726   -50774   -50774   -50750 
  -50780   -50811   -50789   -50764   -50750   -50715   -50688   -50710 
  -50747   -50757   -50734   -50731   -50776   -50795   -50764   -50749 
  -50762   -50772   -50765   -50746   -50731   -50730   -50760   -50782 
  -50746   -50711   -50716   -50711   -50715   -50751   -50762   -50733 
  -50710   -50712   -50734   -50758   -50751   -50745   -50791   -50814 
  -50780   -50788   -50831   -50824   -50778   -50757   -50766   -50777 
  -50764   -50726   -50695   -50704   -50728   -50720   -50710   -50728 
  -50750   -50764   -50764   -50758   -50764   -50778   -50785   -50766 
  -50728   -50720   -50739   -50731   -50712   -50728   -50754   -50762 
  -50772   -50780   -50757   -50711   -50695   -50723   -50742   -50739 
  -50741   -50751   -50774   -50777   -50737   -50741   -50820   -50849 
  -50791   -50749   -50734   -50706   -50701   -50747   -50807   -50826 
  -50774   -50722   -50728   -50747   -50750   -50757   -50758   -50764 
  -50769   -50749   -50735   -50746   -50734   -50695   -50685   -50739 
  -50816   -50843   -50792   -50724   -50708   -50727   -50754   -50768 
  -50754   -50737   -50727   -50727   -50762   -50792   -50785   -50785 
  -50772   -50716   -50692   -50735   -50770   -50745   -50695   -50679 
  -50701   -50741   -50778   -50830   -50862   -50818   -50768   -50781 
  -50782   -50751   -50745   -50743   -50724   -50706   -50704   -50726 
  -50747   -50761   -50769   -50768   -50765   -50777   -50796   -50777 
  -50745   -50758   -50772   -50733   -50695   -50691   -50718   -50773 
  -50800   -50765   -50743   -50758   -50750   -50746   -50754   -50726 
  -50707   -50712   -50712   -50742   -50799   -50812   -50769   -50727 
  -50723   -50746   -50739   -50696   -50710   -50760   -50722   -50658 
  -50699   -50780   -50796   -50778   -50773   -50760   -50751   -50778 
  -50804   -50800   -50800   -50824   -50831   -50787   -50718   -50674 
  -50662   -50664   -50689   -50730   -50738   -50734   -50765   -50801 
  -50820   -50830   -50799   -50724   -50695   -50745   -50774   -50743 
  -50733   -50755   -50754   -50730   -50723   -50758   -50796   -50804 
  -50793   -50758   -50714   -50704   -50728   -50741   -50743   -50760 
  -50770   -50754   -50742   -50770   -50801   -50765   -50695   -50700 
  -50760   -50761   -50719   -50720   -50769   -50803   -50784   -50761 
  -50781   -50796   -50777   -50757   -50735   -50710   -50712   -50733 
  -50724   -50700   -50697   -50726   -50762   -50774   -50764   -50751 
  -50743   -50727   -50718   -50741   -50757   -50743   -50749   -50770 
  -50768   -50764   -50776   -50776   -50765   -50764   -50742   -50699 
  -50712   -50770   -50760   -50723   -50760   -50797   -50793   -50787 
  -50762   -50749   -50776   -50776   -50727   -50720   -50769   -50788 
  -50758   -50727   -50730   -50768   -50788   -50770   -50754   -50754 
  -50757   -50741   -50726   -50747   -50758   -50731   -50742   -50796 
  -50787   -50719   -50703   -50739   -50777   -50803   -50789   -50746 
  -50722   -50739   -50758   -50735   -50712   -50726   -50733   -50738 
  -50755   -50745   -50727   -50755   -50777   -50737   -50701   -50704 
  -50688   -50679   -50719   -50750   -50760   -50784   -50785   -50778 
  -50812   -50830   -50795   -50766   -50754   -50723   -50707   -50742 
  -50769   -50755   -50739   -50755   -50778   -50785   -50782   -50760 
  -50719   -50712   -50739   -50754   -50758   -50768   -50782   -50805 
  -50820   -50800   -50781   -50814   -50853   -50836   -50826   -50850 
  -50830   -50753   -50684   -50657   -50664   -50688   -50703   -50707 
  -50743   -50791   -50762   -50689   -50658   -50653   -50652   -50656 
  -50661   -50701   -50776   -50832   -50866   -50884   -50881   -50886 
  -50893   -50865   -50797   -50697   -50587   -50514   -50502   -50510 
  -50491   -50461   -50494   -50608   -50750   -50869   -50950   -51004 
  -51042   -51048   -51012   -50928   -50812   -50691   -50584   -50517 
  -50503   -50542   -50630   -50720   -50757   -50768   -50797   -50838 
  -50866   -50882   -50888   -50838   -50723   -50625   -50585   -50557 
  -50542   -50595   -50704   -50839   -50966   -51052   -51101   -51108 
  -51051   -50950   -50850   -50761   -50670   -50607   -50569   -50518 
  -50468   -50476   -50548   -50650   -50773   -50901   -51007   -51031 
  -50965   -50888   -50846   -50811   -50791   -50791   -50782   -50760 
  -50722   -50661   -50581   -50531   -50571   -50672   -50762   -50814 
  -50809   -50747   -50666   -50625   -50654   -50703   -50726   -50762 
  -50809   -50816   -50776   -50716   -50684   -50676   -50668   -50689 
  -50749   -50807   -50863   -50931   -50951   -50876   -50778   -50758 
  -50808   -50841   -50800   -50728   -50695   -50695   -50703   -50715 
  -50723   -50720   -50701   -50696   -50747   -50819   -50831   -50785 
  -50734   -50710   -50715   -50730   -50747   -50787   -50818   -50792 
  -50747   -50730   -50724   -50715   -50710   -50716   -50739   -50765 
  -50768   -50742   -50708   -50706   -50739   -50760   -50749   -50738 
  -50715   -50673   -50656   -50683   -50745   -50831   -50885   -50876 
  -50862   -50870   -50815   -50699   -50638   -50661   -50691   -50689 
  -50683   -50692   -50700   -50700   -50733   -50791   -50823   -50818 
  -50808   -50807   -50796   -50777   -50754   -50708   -50669   -50669 
  -50665   -50631   -50598   -50598   -50652   -50735   -50800   -50842 
  -50863   -50841   -50808   -50824   -50855   -50842   -50785   -50706 
  -50642   -50653   -50720   -50757   -50745   -50734   -50768   -50804 
  -50787   -50743   -50710   -50693   -50706   -50749   -50801   -50842 
  -50841   -50799   -50765   -50765   -50781   -50785   -50768   -50738 
  -50720   -50734   -50758   -50770   -50792   -50831   -50870   -50905 
  -50920   -50885   -50816   -50761   -50723   -50688   -50674   -50687 
  -50688   -50668   -50658   -50669   -50687   -50712   -50746   -50751 
  -50707   -50661   -50666   -50719   -50776   -50807   -50815   -50822 
  -50843   -50868   -50851   -50796   -50743   -50716   -50716   -50734 
  -50764   -50792   -50809   -50824   -50823   -50778   -50720   -50685 
  -50674   -50687   -50708   -50726   -50747   -50781   -50824   -50853 
  -50857   -50861   -50866   -50851   -50795   -50716   -50665   -50660 
  -50670   -50676   -50660   -50631   -50642   -50718   -50812   -50872 
  -50882   -50851   -50805   -50770   -50734   -50701   -50696   -50696 
  -50670   -50654   -50673   -50707   -50733   -50755   -50770   -50745 
  -50688   -50669   -50692   -50688   -50672   -50688   -50697   -50680 
  -50672   -50684   -50692   -50687   -50691   -50735   -50785   -50792 
  -50781   -50785   -50788   -50788   -50807   -50831   -50831   -50822 
  -50823   -50805   -50751   -50691   -50654   -50626   -50612   -50657 
  -50743   -50809   -50841   -50873   -50920   -50957   -50953   -50909 
  -50849   -50799   -50761   -50718   -50669   -50631   -50622   -50635 
  -50642   -50666   -50746   -50839   -50885   -50866   -50803   -50760 
  -50776   -50824   -50850   -50828   -50768   -50681   -50602   -50583 
  -50629   -50689   -50719   -50720   -50715   -50716   -50720   -50731 
  -50747   -50751   -50747   -50769   -50808   -50819   -50791   -50761 
  -50739   -50719   -50703   -50710   -50751   -50812   -50853   -50865 
  -50866   -50841   -50782   -50735   -50715   -50719   -50750   -50778 
  -50776   -50766   -50770   -50777   -50787   -50812   -50835   -50812 
  -50753   -50708   -50693   -50697   -50715   -50731   -50746   -50768 
  -50770   -50757   -50738   -50711   -50684   -50679   -50695   -50712 
  -50715   -50704   -50701   -50726   -50764   -50809   -50851   -50862 
  -50853   -50841   -50814   -50774   -50734   -50684   -50629   -50603 
  -50610   -50620   -50630   -50649   -50670   -50706   -50761   -50807 
  -50828   -50828   -50824   -50839   -50850   -50834   -50828   -50835 
  -50805   -50764   -50769   -50781   -50761   -50737   -50715   -50685 
  -50685   -50726   -50751   -50746   -50745   -50741   -50715   -50695 
  -50712   -50750   -50778   -50787   -50784   -50772   -50753   -50746 
  -50747   -50733   -50711   -50703   -50711   -50731   -50747   -50738 
  -50704   -50673   -50679   -50715   -50758   -50785   -50778   -50760 
  -50743   -50733   -50739   -50754   -50757   -50766   -50789   -50796 
  -50776   -50750   -50727   -50706   -50708   -50741   -50766   -50766 
  -50770   -50792   -50809   -50815   -50818   -50823   -50824   -50816 
  -50787   -50742   -50712   -50710   -50722   -50743   -50766   -50778 
  -50791   -50807   -50818   -50812   -50805   -50815   -50826   -50811 
  -50781   -50762   -50728   -50674   -50650   -50676   -50712   -50714 
  -50683   -50660   -50657   -50674   -50710   -50747   -50780   -50795 
  -50782   -50758   -50751   -50770   -50795   -50792   -50795   -50826 
  -50854   -50868   -50884   -50892   -50882   -50851   -50778   -50691 
  -50642   -50633   -50633   -50629   -50622   -50627   -50637   -50649 
  -50670   -50677   -50664   -50665   -50684   -50695   -50707   -50735 
  -50772   -50785   -50772   -50770   -50791   -50795   -50784   -50787 
  -50800   -50801   -50784   -50754   -50735   -50733   -50720   -50696 
  -50687   -50696   -50714   -50741   -50782   -50824   -50849   -50861 
  -50874   -50863   -50824   -50796   -50800   -50805   -50788   -50762 
  -50753   -50755   -50758   -50766   -50782   -50787   -50780   -50768 
  -50755   -50751   -50743   -50718   -50699   -50712   -50750   -50777 
  -50765   -50738   -50730   -50724   -50716   -50723   -50724   -50715 
  -50719   -50734   -50733   -50720   -50704   -50685   -50683   -50712 
  -50754   -50777   -50785   -50791   -50787   -50774   -50765   -50749 
  -50722   -50687   -50643   -50608   -50620   -50676   -50741   -50795 
  -50830   -50843   -50841   -50828   -50807   -50780   -50768   -50772 
  -50784   -50801   -50814   -50811   -50807   -50804   -50805   -50807 
  -50785   -50738   -50691   -50670   -50684   -50716   -50751   -50778 
