Origin Time       2024/06/23 22:54:00
Lat.              35.645
Long.             140.060
Depth. (km)       72
Mag.              4.1
Station Code      CHBH17
Station Lat.      35.1714
Station Long.     140.3398
Station Height(m) -811.7
Record Time       2024/06/23 22:54:46
Sampling Freq(Hz) 100Hz
Duration Time(s)  120
Dir.              1
Scale Factor      2942(gal)/8224139
Max. Acc. (gal)   0.283
Last Correction   2024/06/23 22:54:46
Memo.             
[...]
 -244701  -244703  -244702  -244699  -244698  -244695  -244691  -244691 
 -244691  -244688  -244691  -244698  -244701  -244703  -244706  -244703 
 -244702  -244703  -244703  -244703  -244703  -244699  -244696  -244702 
 -244709  -244709  -244703  -244698  -244690  -244676  -244649  -244624 
 -244625  -244648  -244674  -244698  -244714  -244714  -244701  -244691 
 -244713  -244750  -244755  -244706  -244652  -244649  -244694  -244736 
 -244757  -244769  -244765  -244737  -244702  -244686  -244692  -244687 
 -244656  -244634  -244633  -244633  -244620  -244609  -244629  -244665 
 -244684  -244687  -244691  -244705  -244699  -244675  -244688  -244732 
 -244752  -244752  -244746  -244726  -244711  -244729  -244759  -244759 
 -244728  -244687  -244640  -244614  -244625  -244653  -244695  -244729 
 -244717  -244675  -244657  -244683  -244718  -244728  -244688  -244634 
 -244636  -244675  -244694  -244695  -244718  -244756  -244749  -244692 
 -244649  -244652  -244695  -244737  -244728  -244706  -244723  -244737 
 -244710  -244687  -244699  -244725  -244734  -244723  -244688  -244614 
 -244557  -244587  -244671  -244746  -244773  -244748  -244725  -244703 
 -244665  -244667  -244722  -244763  -244750  -244717  -244696  -244688 
 -244690  -244714  -244752  -244771  -244742  -244657  -244587  -244613 
 -244672  -244674  -244653  -244667  -244676  -244637  -244603  -244641 
 -244721  -244767  -244742  -244694  -244675  -244676  -244686  -244722 
 -244756  -244755  -244744  -244732  -244707  -244686  -244683  -244674 
 -244636  -244610  -244642  -244717  -244764  -244759  -244742  -244749 
 -244733  -244687  -244668  -244683  -244684  -244671  -244656  -244649 
 -244664  -244676  -244667  -244675  -244706  -244718  -244715  -244713 
 -244690  -244655  -244645  -244668  -244692  -244676  -244665  -244734 
 -244795  -244771  -244745  -244759  -244760  -244706  -244601  -244552 
 -244609  -244674  -244699  -244729  -244753  -244733  -244707  -244721 
 -244742  -244729  -244699  -244694  -244688  -244661  -244667  -244690 
 -244686  -244701  -244746  -244765  -244749  -244709  -244657  -244641 
 -244655  -244638  -244611  -244605  -244625  -244671  -244690  -244665 
 -244679  -244740  -244764  -244737  -244728  -244721  -244665  -244622 
 -244668  -244729  -244723  -244713  -244745  -244763  -244730  -244686 
 -244713  -244796  -244796  -244701  -244672  -244707  -244653  -244571 
 -244609  -244678  -244648  -244582  -244610  -244717  -244795  -244802 
 -244788  -244777  -244706  -244586  -244551  -244602  -244632  -244656 
 -244729  -244780  -244750  -244713  -244745  -244825  -244853  -244795 
 -244719  -244660  -244613  -244625  -244674  -244663  -244621  -244620 
 -244649  -244709  -244775  -244795  -244756  -244690  -244668  -244691 
 -244698  -244710  -244756  -244795  -244802  -244760  -244694  -244665 
 -244661  -244648  -244667  -244709  -244695  -244630  -244590  -244575 
 -244566  -244586  -244641  -244691  -244699  -244683  -244683  -244690 
 -244694  -244705  -244721  -244755  -244802  -244819  -244796  -244753 
 -244730  -244757  -244761  -244699  -244667  -244698  -244707  -244678 
 -244645  -244636  -244661  -244684  -244686  -244688  -244675  -244634 
 -244605  -244593  -244580  -244614  -244711  -244776  -244750  -244718 
 -244721  -244707  -244683  -244688  -244702  -244715  -244741  -244760 
 -244765  -244760  -244737  -244710  -244684  -244664  -244667  -244680 
 -244690  -244718  -244748  -244741  -244707  -244661  -244636  -244665 
 -244706  -244682  -244607  -244570  -244597  -244656  -244717  -244755 
 -244768  -244787  -244817  -244834  -244821  -244738  -244611  -244566 
 -244614  -244636  -244617  -244637  -244684  -244699  -244713  -244732 
 -244737  -244737  -244714  -244686  -244691  -244680  -244615  -244571 
 -244598  -244669  -244717  -244721  -244728  -244741  -244748  -244750 
 -244748  -244742  -244732  -244698  -244663  -244669  -244707  -244757 
 -244799  -244783  -244701  -244637  -244633  -244640  -244624  -244626 
 -244686  -244759  -244776  -244722  -244610  -244479  -244445  -244572 
 -244722  -244771  -244773  -244764  -244733  -244738  -244782  -244804 
 -244798  -244756  -244696  -244678  -244682  -244678  -244695  -244721 
 -244706  -244672  -244664  -244667  -244653  -244644  -244668  -244686 
 -244667  -244665  -244695  -244718  -244748  -244799  -244814  -244746 
 -244665  -244674  -244744  -244760  -244694  -244640  -244637  -244626 
 -244610  -244640  -244675  -244648  -244587  -244557  -244595  -244703 
 -244809  -244834  -244809  -244788  -244761  -244702  -244653  -244625 
 -244591  -244614  -244703  -244756  -244736  -244691  -244659  -244653 
 -244674  -244692  -244684  -244696  -244722  -244707  -244684  -244688 
 -244696  -244702  -244702  -244715  -244756  -244765  -244734  -244721 
 -244696  -244610  -244541  -244591  -244703  -244742  -244696  -244674 
 -244705  -244737  -244725  -244675  -244660  -244702  -244746  -244788 
 -244817  -244772  -244691  -244665  -244692  -244703  -244675  -244642 
 -244633  -244647  -244671  -244703  -244706  -244669  -244637  -244649 
 -244695  -244725  -244737  -244759  -244771  -244759  -244745  -244729 
 -244702  -244649  -244597  -244615  -244679  -244698  -244672  -244647 
 -244640  -244656  -244684  -244711  -244741  -244759  -244734  -244710 
 -244706  -244709  -244733  -244749  -244711  -244665  -244644  -244599 
 -244553  -244575  -244617  -244628  -244653  -244709  -244763  -244806 
 -244825  -244811  -244775  -244729  -244701  -244710  -244753  -244790 
 -244792  -244777  -244750  -244690  -244609  -244534  -244483  -244480 
 -244539  -244590  -244599  -244647  -244765  -244868  -244885  -244829 
 -244779  -244776  -244755  -244684  -244630  -244629  -244671  -244733 
 -244760  -244723  -244640  -244559  -244541  -244580  -244640  -244722 
 -244804  -244831  -244790  -244726  -244705  -244745  -244772  -244710 
 -244638  -244647  -244672  -244659  -244652  -244667  -244699  -244740 
 -244748  -244729  -244711  -244674  -244633  -244640  -244637  -244586 
 -244559  -244609  -244713  -244806  -244822  -244794  -244790  -244813 
 -244836  -244811  -244718  -244638  -244628  -244634  -244633  -244649 
 -244699  -244755  -244767  -244756  -244750  -244726  -244675  -244628 
 -244601  -244586  -244563  -244543  -244576  -244653  -244702  -244718 
 -244744  -244772  -244783  -244765  -244723  -244669  -244629  -244618 
 -244636  -244687  -244756  -244764  -244729  -244753  -244769  -244691 
 -244630  -244660  -244695  -244710  -244737  -244753  -244717  -244665 
 -244661  -244688  -244718  -244767  -244809  -244800  -244733  -244634 
 -244603  -244688  -244779  -244773  -244725  -244718  -244717  -244659 
 -244588  -244575  -244566  -244516  -244498  -244559  -244634  -244695 
 -244782  -244906  -244971  -244930  -244854  -244791  -244750  -244713 
 -244657  -244637  -244645  -244587  -244509  -244514  -244606  -244729 
 -244792  -244773  -244759  -244745  -244687  -244657  -244701  -244763 
 -244794  -244768  -244684  -244610  -244621  -244690  -244730  -244738 
 -244748  -244722  -244621  -244513  -244498  -244529  -244545  -244614 
 -244753  -244834  -244790  -244715  -244701  -244753  -244818  -244834 
 -244809  -244773  -244719  -244699  -244742  -244763  -244715  -244651 
 -244628  -244653  -244674  -244667  -244651  -244620  -244572  -244513 
 -244478  -244530  -244649  -244764  -244868  -244919  -244840  -244699 
 -244636  -244644  -244671  -244706  -244729  -244736  -244721  -244671 
 -244637  -244657  -244690  -244725  -244779  -244823  -244815  -244756 
 -244706  -244690  -244652  -244586  -244580  -244626  -244651  -244679 
 -244719  -244726  -244729  -244749  -244748  -244713  -244710  -244772 
 -244815  -244796  -244768  -244705  -244568  -244486  -244529  -244593 
 -244617  -244638  -244660  -244671  -244684  -244725  -244779  -244795 
 -244767  -244741  -244723  -244680  -244618  -244584  -244599  -244652 
 -244707  -244752  -244786  -244763  -244683  -244645  -244687  -244742 
 -244759  -244759  -244757  -244723  -244676  -244667  -244675  -244667 
 -244672  -244680  -244668  -244672  -244705  -244726  -244732  -244730 
 -244701  -244647  -244630  -244659  -244692  -244701  -244679  -244682 
 -244734  -244768  -244773  -244826  -244902  -244891  -244776  -244640 
 -244552  -244528  -244537  -244545  -244563  -244570  -244539  -244544 
 -244617  -244701  -244795  -244891  -244937  -244915  -244834  -244733 
 -244634  -244526  -244448  -244447  -244478  -244485  -244472  -244462 
 -244456  -244486  -244559  -244641  -244738  -244825  -244841  -244810 
 -244773  -244711  -244624  -244549  -244517  -244525  -244584  -244691 
 -244777  -244837  -244917  -244965  -244950  -244915  -244879  -244860 
 -244861  -244871  -244875  -244837  -244756  -244686  -244651  -244659 
 -244686  -244686  -244678  -244684  -244680  -244680  -244702  -244737 
 -244769  -244799  -244842  -244900  -244971  -245045  -245058  -244962 
 -244788  -244583  -244382  -244232  -244140  -244119  -244202  -244350 
 -244499  -244671  -244863  -245006  -245046  -244993  -244910  -244850 
 -244814  -244773  -244732  -244718  -244738  -244783  -244856  -244927 
 -244965  -244953  -244846  -244630  -244414  -244310  -244328  -244401 
 -244475  -244552  -244605  -244559  -244456  -244426  -244479  -244551 
 -244638  -244730  -244779  -244795  -244823  -244837  -244827  -244837 
 -244838  -244787  -244746  -244776  -244844  -244917  -244981  -244989 
 -244906  -244730  -244510  -244321  -244181  -244101  -244135  -244263 
 -244441  -244663  -244857  -244939  -244948  -244938  -244891  -244791 
 -244701  -244684  -244759  -244860  -244871  -244771  -244659  -244601 
 -244588  -244594  -244603  -244610  -244595  -244586  -244656  -244802 
 -244930  -244968  -244950  -244958  -244976  -244949  -244912  -244879 
 -244798  -244660  -244506  -244409  -244417  -244513  -244675  -244837 
 -244875  -244769  -244625  -244543  -244524  -244526  -244561  -244611 
 -244633  -244633  -244641  -244638  -244571  -244422  -244298  -244304 
 -244393  -244448  -244452  -244480  -244582  -244722  -244876  -245037 
 -245133  -245099  -244977  -244861  -244807  -244790  -244745  -244692 
 -244655  -244556  -244406  -244287  -244213  -244237  -244416  -244636 
 -244786  -244884  -244949  -244980  -245022  -245091  -245110  -245002 
 -244814  -244684  -244675  -244744  -244809  -244796  -244734  -244690 
 -244680  -244703  -244730  -244740  -244780  -244899  -245052  -245126 
 -245064  -244926  -244809  -244722  -244638  -244607  -244669  -244741 
 -244741  -244725  -244749  -244779  -244780  -244726  -244582  -244399 
 -244289  -244279  -244317  -244332  -244308  -244283  -244290  -244331 
 -244460  -244661  -244784  -244788  -244783  -244788  -244760  -244745 
 -244814  -244923  -244973  -244949  -244917  -244896  -244845  -244772 
 -244760  -244819  -244880  -244903  -244877  -244833  -244826  -244817 
 -244719  -244545  -244368  -244258  -244224  -244247  -244317  -244385 
 -244425  -244474  -244543  -244620  -244687  -244737  -244796  -244853 
 -244861  -244845  -244829  -244809  -244806  -244860  -244942  -244968 
 -244911  -244834  -244773  -244696  -244595  -244518  -244483  -244485 
 -244552  -244642  -244703  -244744  -244773  -244799  -244822  -244836 
 -244842  -244807  -244707  -244655  -244728  -244826  -244863  -244861 
 -244844  -244780  -244671  -244582  -244568  -244630  -244706  -244709 
 -244648  -244615  -244668  -244815  -245025  -245204  -245265  -245180 
 -244980  -244738  -244518  -244355  -244278  -244266  -244251  -244239 
 -244293  -244417  -244543  -244614  -244655  -244705  -244733  -244703 
 -244651  -244647  -244690  -244734  -244782  -244845  -244896  -244917 
 -244921  -244923  -244906  -244815  -244672  -244582  -244595  -244661 
 -244741  -244838  -244907  -244891  -244792  -244652  -244506  -244391 
 -244327  -244289  -244246  -244221  -244274  -244398  -244548  -244684 
 -244776  -244844  -244918  -244989  -245045  -245076  -245037  -244902 
 -244713  -244540  -244437  -244422  -244444  -244466  -244540  -244687 
 -244815  -244810  -244686  -244580  -244574  -244629  -244698  -244776 
 -244841  -244853  -244823  -244796  -244784  -244799  -244852  -244911 
 -244911  -244825  -244711  -244645  -244641  -244663  -244679  -244645 
 -244525  -244347  -244201  -244175  -244308  -244548  -244798  -244950 
 -244937  -244821  -244741  -244683  -244536  -244337  -244229  -244283 
 -244483  -244761  -244988  -245076  -245050  -244983  -244927  -244896 
 -244856  -244811  -244811  -244850  -244869  -244849  -244794  -244699 
 -244599  -244553  -244613  -244783  -244977  -245084  -245091  -245065 
 -245000  -244850  -244682  -244594  -244567  -244520  -244428  -244321 
 -244269  -244302  -244402  -244528  -244603  -244602  -244590  -244610 
 -244672  -244803  -244989  -245139  -245142  -244984  -244761  -244605 
 -244618  -244763  -244868  -244858  -244759  -244611  -244478  -244416 
 -244459  -244622  -244836  -244995  -245068  -245061  -244948  -244723 
 -244509  -244453  -244575  -244746  -244831  -244791  -244675  -244541 
 -244433  -244343  -244227  -244115  -244100  -244221  -244455  -244728 
 -244907  -244938  -244912  -244922  -244960  -244975  -244969  -245003 
 -245103  -245169  -245072  -244845  -244649  -244568  -244571  -244597 
 -244628  -244680  -244742  -244776  -244777  -244761  -244695  -244570 
 -244453  -244390  -244381  -244448  -244564  -244607  -244530  -244406 
 -244294  -244231  -244248  -244343  -244466  -244537  -244533  -244540 
 -244648  -244837  -245047  -245223  -245343  -245436  -245485  -245394 
 -245151  -244861  -244576  -244308  -244119  -244070  -244188  -244421 
 -244636  -244757  -244831  -244857  -244819  -244756  -244710  -244698 
 -244691  -244648  -244625  -244684  -244752  -244746  -244695  -244629 
 -244563  -244526  -244532  -244548  -244548  -244560  -244628  -244750 
 -244880  -244971  -245011  -245033  -245068  -245091  -245046  -244930 
 -244784  -244644  -244537  -244453  -244362  -244298  -244313  -244408 
 -244566  -244733  -244815  -244776  -244661  -244540  -244475  -244491 
 -244560  -244621  -244665  -244753  -244898  -245008  -245003  -244900 
 -244765  -244648  -244559  -244489  -244467  -244549  -244738  -244956 
 -245093  -245092  -244968  -244817  -244725  -244688  -244644  -244576 
 -244539  -244597  -244748  -244949  -245124  -245131  -244914  -244606 
 -244374  -244291  -244320  -244370  -244417  -244494  -244599  -244680 
 -244722  -244752  -244773  -244786  -244807  -244844  -244877  -244857 
 -244718  -244502  -244340  -244317  -244418  -244574  -244701  -244791 
 -244914  -245085  -245204  -245185  -245057  -244900  -244759  -244647 
 -244593  -244595  -244597  -244593  -244610  -244584  -244471  -244358 
 -244368  -244512  -244664  -244729  -244711  -244671  -244671  -244725 
 -244745  -244671  -244559  -244495  -244536  -244664  -244800  -244895 
 -244958  -245022  -245073  -245058  -244973  -244856  -244733  -244667 
 -244706  -244790  -244837  -244830  -244777  -244744  -244783  -244837 
 -244795  -244609  -244343  -244125  -244062  -244161  -244335  -244466 
 -244490  -244448  -244440  -244507  -244615  -244726  -244825  -244922 
 -245008  -245012  -244900  -244777  -244733  -244748  -244782  -244792 
 -244752  -244703  -244719  -244788  -244818  -244780  -244738  -244748 
 -244796  -244857  -244919  -244945  -244881  -244763  -244626  -244471 
 -244336  -244264  -244260  -244310  -244390  -244485  -244584  -244647 
 -244668  -244694  -244748  -244829  -244907  -244929  -244899  -244872 
 -244879  -244900  -244888  -244834  -244787  -244750  -244698  -244649 
 -244624  -244611  -244590  -244557  -244545  -244571  -244628  -244722 
 -244837  -244899  -244869  -244788  -244699  -244632  -244602  -244574 
 -244525  -244497  -244497  -244506  -244520  -244522  -244532  -244602 
 -244718  -244813  -244856  -244852  -244803  -244737  -244663  -244575 
 -244509  -244530  -244641  -244796  -244941  -245027  -245016  -244915 
 -244777  -244668  -244638  -244692  -244761  -244813  -244852  -244849 
 -244788  -244702  -244629  -244580  -244541  -244503  -244503  -244556 
 -244628  -244686  -244715  -244702  -244665  -244660  -244695  -244742 
 -244783  -244799  -244782  -244760  -244776  -244814  -244850  -244876 
 -244879  -244845  -244752  -244605  -244474  -244405  -244397  -244445 
 -244522  -244602  -244707  -244810  -244850  -244846  -244826  -244807 
 -244817  -244837  -244825  -244761  -244642  -244509  -244431  -244421 
 -244471  -244553  -244632  -244719  -244806  -244836  -244822  -244825 
 -244844  -244863  -244881  -244903  -244910  -244881  -244825  -244742 
 -244611  -244470  -244420  -244464  -244517  -244520  -244476  -244453 
 -244497  -244564  -244603  -244602  -244572  -244541  -244540  -244593 
 -244696  -244794  -244844  -244876  -244908  -244926  -244926  -244915 
 -244908  -244907  -244891  -244842  -244761  -244674  -244611  -244586 
 -244587  -244590  -244568  -244514  -244456  -244421  -244425  -244479 
 -244559  -244609  -244621  -244644  -244706  -244773  -244796  -244775 
 -244745  -244741  -244780  -244840  -244896  -244949  -244992  -245020 
 -245037  -245030  -244981  -244899  -244798  -244711  -244669  -244656 
 -244652  -244651  -244640  -244602  -244545  -244491  -244453  -244444 
 -244459  -244459  -244435  -244420  -244431  -244472  -244540  -244613 
 -244667  -244695  -244709  -244730  -244755  -244753  -244718  -244664 
 -244622  -244614  -244609  -244594  -244609  -244683  -244800  -244903 
 -244954  -244984  -245035  -245088  -245092  -245034  -244945  -244848 
 -244752  -244667  -244602  -244570  -244567  -244578  -244598  -244625 
 -244640  -244633  -244613  -244587  -244575  -244582  -244574  -244547 
 -244541  -244567  -244610  -244657  -244705  -244761  -244834  -244892 
 -244896  -244856  -244798  -244723  -244648  -244595  -244567  -244561 
 -244561  -244557  -244582  -244652  -244737  -244818  -244875  -244899 
 -244900  -244891  -244879  -244869  -244850  -244800  -244714  -244599 
 -244478  -244401  -244408  -244475  -244564  -244648  -244705  -244740 
 -244761  -244765  -244759  -244741  -244694  -244636  -244611  -244620 
 -244638  -244659  -244675  -244671  -244649  -244644  -244674  -244725 
 -244756  -244726  -244652  -244597  -244588  -244602  -244625  -244661 
 -244703  -244738  -244760  -244780  -244807  -244818  -244795  -244749 
 -244695  -244665  -244691  -244741  -244753  -244718  -244672  -244647 
 -244648  -244678  -244709  -244710  -244701  -244707  -244722  -244719 
 -244703  -244701  -244706  -244711  -244719  -244734  -244768  -244810 
 -244827  -244811  -244768  -244703  -244649  -244622  -244606  -244611 
 -244647  -244678  -244692  -244694  -244667  -244633  -244640  -244683 
 -244721  -244722  -244696  -244680  -244682  -244679  -244669  -244669 
 -244682  -244691  -244702  -244707  -244690  -244653  -244602  -244549 
 -244529  -244551  -244602  -244652  -244675  -244682  -244705  -244738 
 -244740  -244698  -244663  -244651  -244632  -244611  -244607  -244624 
 -244663  -244719  -244788  -244853  -244895  -244919  -244929  -244912 
 -244880  -244837  -244795  -244783  -244804  -244822  -244802  -244740 
 -244659  -244586  -244544  -244529  -244525  -244529  -244551  -244588 
 -244634  -244682  -244732  -244779  -244787  -244752  -244719  -244710 
 -244719  -244738  -244750  -244750  -244744  -244741  -244737  -244722 
