Origin Time       2024/06/23 22:54:00
Lat.              35.645
Long.             140.060
Depth. (km)       72
Mag.              4.1
Station Code      CHBH17
Station Lat.      35.1714
Station Long.     140.3398
Station Height(m) -811.7
Record Time       2024/06/23 22:54:46
Sampling Freq(Hz) 100Hz
Duration Time(s)  120
Dir.              2
Scale Factor      2942(gal)/8224139
Max. Acc. (gal)   0.246
Last Correction   2024/06/23 22:54:46
Memo.             
[...]
 -346199  -346199  -346196  -346195  -346195  -346196  -346198  -346192 
 -346192  -346199  -346198  -346195  -346195  -346198  -346198  -346198 
 -346198  -346198  -346198  -346198  -346196  -346195  -346198  -346198 
 -346196  -346198  -346198  -346198  -346196  -346196  -346198  -346199 
 -346196  -346196  -346199  -346200  -346199  -346198  -346198  -346198 
 -346199  -346198  -346195  -346195  -346198  -346196  -346196  -346198 
 -346195  -346194  -346196  -346198  -346196  -346198  -346198  -346194 
 -346195  -346198  -346196  -346198  -346199  -346196  -346198  -346198 
 -346196  -346196  -346198  -346199  -346196  -346195  -346198  -346198 
 -346196  -346198  -346198  -346198  -346199  -346196  -346195  -346196 
 -346198  -346198  -346198  -346198  -346196  -346196  -346196  -346196 
 -346195  -346196  -346198  -346196  -346196  -346196  -346196  -346195 
 -346195  -346195  -346195  -346196  -346198  -346195  -346195  -346196 
 -346198  -346198  -346198  -346196  -346196  -346196  -346194  -346195 
 -346198  -346196  -346194  -346196  -346196  -346194  -346195  -346198 
 -346196  -346196  -346199  -346199  -346198  -346196  -346198  -346200 
 -346199  -346194  -346195  -346199  -346199  -346198  -346198  -346195 
 -346195  -346198  -346199  -346198  -346198  -346199  -346198  -346195 
 -346195  -346198  -346198  -346198  -346199  -346199  -346198  -346200 
 -346198  -346195  -346196  -346198  -346195  -346194  -346198  -346199 
 -346195  -346192  -346194  -346194  -346192  -346194  -346195  -346196 
 -346196  -346196  -346198  -346198  -346192  -346191  -346192  -346195 
 -346196  -346196  -346196  -346195  -346194  -346194  -346192  -346189 
 -346188  -346188  -346191  -346195  -346202  -346211  -346222  -346230 
 -346229  -346219  -346206  -346194  -346192  -346211  -346233  -346235 
 -346218  -346194  -346189  -346212  -346238  -346226  -346181  -346145 
 -346133  -346134  -346146  -346168  -346189  -346198  -346195  -346199 
 -346210  -346216  -346211  -346203  -346203  -346207  -346207  -346207 
 -346210  -346222  -346235  -346238  -346234  -346227  -346221  -346206 
 -346169  -346129  -346126  -346158  -346198  -346219  -346222  -346223 
 -346214  -346180  -346162  -346192  -346225  -346216  -346181  -346154 
 -346171  -346214  -346241  -346242  -346221  -346184  -346173  -346203 
 -346231  -346218  -346176  -346160  -346173  -346185  -346199  -346218 
 -346214  -346208  -346230  -346243  -346215  -346156  -346113  -346123 
 -346164  -346210  -346245  -346239  -346206  -346175  -346185  -346243 
 -346268  -346223  -346172  -346141  -346141  -346176  -346203  -346218 
 -346234  -346230  -346206  -346202  -346214  -346202  -346169  -346169 
 -346188  -346172  -346130  -346121  -346158  -346208  -346225  -346204 
 -346207  -346254  -346289  -346268  -346214  -346165  -346146  -346161 
 -346202  -346245  -346243  -346189  -346157  -346177  -346211  -346245 
 -346273  -346265  -346219  -346184  -346196  -346222  -346204  -346165 
 -346142  -346121  -346108  -346135  -346181  -346218  -346229  -346215 
 -346203  -346176  -346131  -346118  -346148  -346175  -346181  -346199 
 -346243  -346295  -346337  -346327  -346239  -346156  -346127  -346121 
 -346149  -346211  -346256  -346262  -346248  -346229  -346204  -346157 
 -346140  -346188  -346231  -346225  -346218  -346216  -346177  -346138 
 -346149  -346152  -346115  -346118  -346181  -346221  -346215  -346229 
 -346257  -346253  -346218  -346177  -346150  -346171  -346222  -346253 
 -346238  -346188  -346156  -346167  -346196  -346239  -346254  -346208 
 -346175  -346195  -346227  -346246  -346231  -346179  -346141  -346138 
 -346150  -346158  -346158  -346168  -346202  -346239  -346253  -346253 
 -346256  -346264  -346276  -346253  -346179  -346117  -346121  -346160 
 -346194  -346204  -346195  -346165  -346131  -346152  -346225  -346249 
 -346198  -346160  -346161  -346164  -346165  -346192  -346231  -346239 
 -346206  -346195  -346238  -346273  -346238  -346185  -346189  -346200 
 -346179  -346185  -346230  -346246  -346227  -346225  -346234  -346210 
 -346157  -346134  -346149  -346157  -346141  -346138  -346179  -346229 
 -346239  -346227  -346216  -346188  -346148  -346133  -346156  -346187 
 -346203  -346221  -346226  -346195  -346179  -346208  -346225  -346210 
 -346203  -346215  -346241  -346262  -346266  -346260  -346242  -346210 
 -346176  -346168  -346175  -346150  -346102  -346084  -346122  -346199 
 -346260  -346260  -346241  -346246  -346222  -346164  -346130  -346145 
 -346181  -346199  -346199  -346206  -346200  -346185  -346181  -346179 
 -346189  -346206  -346229  -346280  -346306  -346281  -346265  -346235 
 -346191  -346187  -346198  -346175  -346129  -346083  -346071  -346125 
 -346199  -346226  -346223  -346230  -346233  -346226  -346248  -346277 
 -346234  -346153  -346162  -346229  -346216  -346149  -346118  -346119 
 -346137  -346180  -346207  -346191  -346184  -346211  -346249  -346268 
 -346233  -346179  -346168  -346169  -346154  -346172  -346207  -346202 
 -346181  -346188  -346210  -346218  -346215  -346229  -346233  -346189 
 -346154  -346171  -346195  -346196  -346184  -346191  -346223  -346252 
 -346265  -346270  -346234  -346168  -346161  -346204  -346202  -346175 
 -346188  -346208  -346191  -346158  -346134  -346130  -346157  -346211 
 -346260  -346281  -346277  -346226  -346117  -346037  -346083  -346175 
 -346207  -346212  -346225  -346225  -346218  -346216  -346208  -346203 
 -346200  -346187  -346171  -346173  -346203  -346239  -346264  -346275 
 -346252  -346181  -346131  -346169  -346249  -346264  -346188  -346102 
 -346080  -346131  -346202  -346229  -346234  -346262  -346287  -346275 
 -346241  -346198  -346157  -346131  -346131  -346158  -346191  -346215 
 -346233  -346219  -346196  -346191  -346169  -346135  -346122  -346122 
 -346164  -346241  -346256  -346223  -346238  -346283  -346293  -346268 
 -346223  -346199  -346212  -346210  -346164  -346137  -346160  -346157 
 -346115  -346110  -346140  -346176  -346221  -346248  -346241  -346230 
 -346204  -346135  -346083  -346118  -346196  -346222  -346194  -346179 
 -346188  -346211  -346260  -346299  -346319  -346345  -346330  -346235 
 -346127  -346084  -346114  -346152  -346167  -346185  -346196  -346188 
 -346194  -346199  -346171  -346130  -346117  -346142  -346183  -346202 
 -346214  -346227  -346218  -346191  -346169  -346179  -346229  -346277 
 -346284  -346268  -346249  -346231  -346212  -346169  -346119  -346122 
 -346167  -346200  -346214  -346204  -346175  -346158  -346154  -346146 
 -346168  -346207  -346215  -346202  -346183  -346175  -346195  -346215 
 -346206  -346212  -346258  -346269  -346215  -346177  -346200  -346231 
 -346254  -346281  -346268  -346185  -346087  -346077  -346162  -346215 
 -346189  -346173  -346210  -346260  -346268  -346246  -346262  -346287 
 -346257  -346187  -346134  -346135  -346152  -346137  -346138  -346153 
 -346131  -346117  -346158  -346208  -346212  -346180  -346156  -346184 
 -346249  -346283  -346273  -346243  -346196  -346164  -346192  -346249 
 -346265  -346239  -346212  -346200  -346172  -346119  -346115  -346171 
 -346203  -346241  -346335  -346380  -346315  -346219  -346129  -346056 
 -346037  -346084  -346179  -346258  -346265  -346221  -346175  -346146 
 -346142  -346187  -346277  -346320  -346253  -346161  -346141  -346168 
 -346187  -346175  -346160  -346183  -346215  -346222  -346226  -346203 
 -346125  -346114  -346222  -346326  -346372  -346381  -346324  -346223 
 -346141  -346075  -346049  -346104  -346150  -346102  -346076  -346169 
 -346272  -346289  -346265  -346223  -346150  -346086  -346103  -346211 
 -346306  -346312  -346272  -346215  -346176  -346189  -346195  -346160 
 -346137  -346138  -346179  -346256  -346291  -346280  -346297  -346307 
 -346242  -346146  -346123  -346206  -346257  -346189  -346126  -346141 
 -346175  -346225  -346284  -346288  -346219  -346125  -346076  -346075 
 -346075  -346111  -346195  -346254  -346280  -346292  -346275  -346252 
 -346260  -346269  -346243  -346175  -346086  -346030  -346044  -346119 
 -346195  -346189  -346179  -346243  -346292  -346297  -346311  -346299 
 -346252  -346195  -346158  -346189  -346242  -346229  -346175  -346129 
 -346103  -346127  -346192  -346231  -346238  -346256  -346260  -346194 
 -346098  -346057  -346087  -346160  -346238  -346277  -346250  -346194 
 -346188  -346227  -346229  -346203  -346208  -346235  -346245  -346227 
 -346189  -346169  -346223  -346306  -346292  -346184  -346081  -346040 
 -346053  -346131  -346243  -346279  -346227  -346214  -346254  -346253 
 -346196  -346140  -346122  -346158  -346208  -346223  -346222  -346238 
 -346246  -346214  -346192  -346223  -346248  -346212  -346169  -346157 
 -346157  -346148  -346114  -346068  -346076  -346169  -346277  -346331 
 -346349  -346329  -346256  -346185  -346173  -346194  -346218  -346212 
 -346157  -346114  -346144  -346192  -346211  -346231  -346242  -346189 
 -346113  -346094  -346125  -346181  -346233  -346221  -346194  -346237 
 -346296  -346308  -346304  -346288  -346261  -346258  -346243  -346175 
 -346113  -346088  -346045  -346046  -346145  -346200  -346149  -346142 
 -346222  -346268  -346215  -346138  -346114  -346123  -346162  -346229 
 -346248  -346239  -346312  -346415  -346404  -346293  -346207  -346198 
 -346223  -346221  -346145  -346036  -346005  -346076  -346175  -346241 
 -346233  -346154  -346110  -346127  -346117  -346102  -346162  -346258 
 -346307  -346295  -346254  -346218  -346204  -346215  -346238  -346246 
 -346225  -346196  -346189  -346202  -346241  -346284  -346264  -346216 
 -346219  -346237  -346237  -346229  -346196  -346183  -346226  -346250 
 -346202  -346138  -346152  -346225  -346261  -346239  -346214  -346194 
 -346142  -346073  -346036  -346018  -346019  -346077  -346165  -346200 
 -346181  -346137  -346067  -346010  -346036  -346115  -346138  -346079 
 -346021  -345973  -345887  -345838  -345910  -346038  -346127  -346160 
 -346164  -346175  -346227  -346316  -346378  -346357  -346256  -346137 
 -346095  -346167  -346287  -346370  -346418  -346466  -346507  -346512 
 -346505  -346519  -346561  -346584  -346576  -346607  -346651  -346578 
 -346383  -346191  -346068  -345976  -345888  -345859  -345909  -345975 
 -346046  -346189  -346423  -346639  -346724  -346693  -346620  -346520 
 -346376  -346198  -346009  -345821  -345658  -345541  -345516  -345610 
 -345771  -345929  -346080  -346218  -346311  -346327  -346269  -346183 
 -346118  -346079  -346095  -346183  -346264  -346287  -346287  -346284 
 -346285  -346269  -346222  -346180  -346126  -346038  -346007  -346076 
 -346219  -346410  -346500  -346391  -346231  -346158  -346142  -346160 
 -346207  -346265  -346343  -346412  -346403  -346329  -346252  -346142 
 -345975  -345845  -345817  -345852  -345930  -346019  -346071  -346086 
 -346087  -346118  -346223  -346350  -346393  -346324  -346261  -346302 
 -346381  -346407  -346404  -346388  -346316  -346210  -346177  -346256 
 -346360  -346434  -346491  -346503  -346453  -346392  -346350  -346279 
 -346144  -345995  -345871  -345806  -345838  -345936  -346054  -346195 
 -346341  -346431  -346420  -346345  -346258  -346177  -346129  -346119 
 -346119  -346130  -346137  -346104  -346049  -345968  -345855  -345818 
 -345938  -346113  -346233  -346316  -346431  -346553  -346581  -346497 
 -346369  -346250  -346154  -346069  -345975  -345887  -345836  -345859 
 -345938  -345992  -345988  -345957  -345944  -345988  -346100  -346245 
 -346361  -346400  -346364  -346306  -346268  -346265  -346285  -346257 
 -346125  -345959  -345887  -345980  -346211  -346458  -346608  -346685 
 -346750  -346792  -346813  -346833  -346775  -346572  -346307  -346095 
 -345967  -345932  -345952  -345972  -345999  -346059  -346122  -346167 
 -346187  -346144  -346069  -346115  -346292  -346408  -346374  -346284 
 -346222  -346202  -346156  -346049  -345945  -345897  -345933  -346072 
 -346242  -346351  -346383  -346349  -346257  -346150  -346099  -346111 
 -346161  -346238  -346304  -346293  -346177  -346019  -345929  -345932 
 -345996  -346044  -345982  -345867  -345805  -345806  -345905  -346099 
 -346280  -346373  -346374  -346346  -346392  -346513  -346632  -346690 
 -346675  -346636  -346607  -346495  -346284  -346131  -346100  -346056 
 -345948  -345887  -345918  -345983  -346073  -346200  -346293  -346316 
 -346337  -346354  -346316  -346270  -346250  -346211  -346150  -346102 
 -346073  -346076  -346133  -346231  -346310  -346342  -346377  -346445 
 -346497  -346488  -346427  -346385  -346384  -346331  -346208  -346111 
 -346063  -346011  -345988  -346040  -346113  -346111  -346019  -345930 
 -345926  -346011  -346131  -346202  -346149  -346030  -345959  -345953 
 -345983  -346057  -346184  -346303  -346351  -346333  -346258  -346134 
 -346019  -345971  -345988  -346037  -346115  -346245  -346389  -346482 
 -346515  -346504  -346439  -346342  -346281  -346287  -346279  -346206 
 -346119  -346090  -346094  -346077  -346046  -346049  -346088  -346122 
 -346125  -346091  -346044  -346040  -346096  -346173  -346215  -346198 
 -346149  -346121  -346149  -346239  -346334  -346389  -346426  -346428 
 -346396  -346368  -346327  -346269  -346237  -346211  -346164  -346152 
 -346192  -346257  -346326  -346372  -346351  -346254  -346121  -346011 
 -345949  -345902  -345851  -345814  -345816  -345871  -345973  -346096 
 -346230  -346341  -346407  -346486  -346616  -346704  -346635  -346415 
 -346134  -345890  -345767  -345794  -345898  -345984  -346021  -345994 
 -345929  -345969  -346214  -346554  -346809  -346886  -346750  -346435 
 -346106  -345959  -346013  -346142  -346277  -346364  -346358  -346335 
 -346377  -346432  -346426  -346318  -346090  -345829  -345689  -345760 
 -346022  -346326  -346482  -346407  -346164  -345890  -345712  -345714 
 -345887  -346130  -346327  -346431  -346481  -346504  -346486  -346449 
 -346435  -346472  -346550  -346608  -346573  -346430  -346254  -346140 
 -346079  -346009  -345968  -346040  -346172  -346250  -346246  -346181 
 -346077  -345963  -345887  -345878  -345928  -346072  -346291  -346472 
 -346531  -346485  -346374  -346227  -346081  -345998  -345999  -346088 
 -346250  -346388  -346414  -346337  -346164  -345909  -345712  -345730 
 -345906  -346044  -346071  -346044  -346029  -346069  -346168  -346256 
 -346250  -346144  -346009  -345933  -345960  -346067  -346219  -346380 
 -346451  -346361  -346198  -346122  -346175  -346262  -346288  -346241 
 -346207  -346273  -346420  -346549  -346576  -346476  -346315  -346207 
 -346184  -346161  -346111  -346107  -346148  -346141  -346056  -345951 
 -345867  -345820  -345886  -346088  -346311  -346469  -346581  -346651 
 -346630  -346486  -346253  -346023  -345894  -345922  -346072  -346243 
 -346381  -346500  -346593  -346609  -346526  -346376  -346218  -346099 
 -346054  -346061  -346027  -345926  -345863  -345905  -346026  -346183 
 -346327  -346420  -346430  -346326  -346117  -345901  -345799  -345837 
 -345938  -346041  -346144  -346269  -346395  -346404  -346208  -345946 
 -345828  -345890  -346029  -346149  -346219  -346253  -346250  -346225 
 -346216  -346238  -346233  -346157  -346087  -346141  -346320  -346515 
 -346640  -346642  -346528  -346422  -346396  -346408  -346415  -346400 
 -346334  -346210  -346091  -346064  -346162  -346316  -346412  -346454 
 -346485  -346441  -346289  -346127  -346038  -346022  -346018  -345936 
 -345805  -345772  -345898  -346127  -346416  -346662  -346708  -346534 
 -346231  -345918  -345752  -345787  -345910  -346019  -346091  -346142 
 -346185  -346195  -346179  -346207  -346279  -346341  -346361  -346308 
 -346184  -346061  -346029  -346110  -346248  -346354  -346381  -346343 
 -346299  -346281  -346291  -346307  -346296  -346230  -346134  -346099 
 -346160  -346222  -346180  -346032  -345871  -345826  -345938  -346133 
 -346296  -346346  -346279  -346158  -346044  -345972  -345957  -345991 
 -346053  -346106  -346108  -346071  -346033  -346041  -346127  -346261 
 -346356  -346383  -346410  -346466  -346500  -346497  -346516  -346558 
 -346570  -346493  -346316  -346138  -346057  -346073  -346123  -346137 
 -346063  -345924  -345803  -345775  -345818  -345894  -346019  -346219 
 -346461  -346669  -346758  -346746  -346701  -346636  -346555  -346496 
 -346426  -346272  -346049  -345870  -345802  -345805  -345810  -345822 
 -345886  -346015  -346157  -346237  -346223  -346171  -346142  -346156 
 -346214  -346306  -346388  -346437  -346450  -346415  -346334  -346239 
 -346171  -346158  -346185  -346160  -346045  -345938  -345906  -345929 
 -346007  -346127  -346254  -346351  -346369  -346277  -346121  -345986 
 -345945  -346014  -346130  -346233  -346320  -346387  -346381  -346266 
 -346108  -346010  -346000  -346054  -346133  -346194  -346246  -346331 
 -346445  -346547  -346627  -346673  -346626  -346454  -346215  -345988 
 -345825  -345740  -345753  -345860  -346000  -346127  -346257  -346389 
 -346489  -346532  -346513  -346453  -346389  -346341  -346310  -346285 
 -346235  -346161  -346118  -346134  -346194  -346257  -346235  -346106 
 -345949  -345829  -345759  -345764  -345847  -345982  -346127  -346219 
 -346222  -346177  -346142  -346160  -346242  -346320  -346323  -346260 
 -346199  -346207  -346262  -346288  -346268  -346237  -346227  -346260 
 -346322  -346407  -346505  -346569  -346554  -346469  -346357  -346254 
 -346162  -346060  -345946  -345855  -345803  -345783  -345825  -345963 
 -346129  -346252  -346315  -346312  -346250  -346180  -346134  -346121 
 -346160  -346226  -346253  -346250  -346273  -346315  -346338  -346327 
 -346293  -346262  -346256  -346268  -346293  -346314  -346316  -346314 
 -346285  -346188  -346076  -346026  -346057  -346161  -346277  -346289 
 -346153  -345951  -345787  -345716  -345755  -345874  -346025  -346167 
 -346253  -346283  -346306  -346342  -346370  -346360  -346285  -346157 
 -346042  -346009  -346057  -346172  -346303  -346374  -346366  -346335 
 -346337  -346392  -346464  -346485  -346438  -346369  -346335  -346334 
 -346322  -346273  -346202  -346152  -346152  -346188  -346235  -346297 
 -346361  -346376  -346318  -346187  -345995  -345818  -345735  -345782 
 -345926  -346061  -346121  -346125  -346098  -346052  -346007  -345978 
 -345983  -346040  -346135  -346237  -346322  -346391  -346439  -346470 
 -346503  -346530  -346512  -346443  -346358  -346287  -346242  -346225 
 -346227  -346237  -346218  -346144  -346052  -346006  -346006  -346014 
 -346006  -345988  -346003  -346084  -346204  -346310  -346380  -346422 
 -346454  -346461  -346397  -346268  -346115  -345986  -345925  -345956 
 -346056  -346188  -346306  -346369  -346373  -346330  -346261  -346214 
 -346208  -346210  -346192  -346161  -346118  -346059  -345998  -345973 
 -345996  -346040  -346080  -346108  -346117  -346129  -346188  -346280 
 -346349  -346353  -346297  -346246  -346235  -346231  -346200  -346172 
 -346184  -346210  -346216  -346212  -346204  -346188  -346179  -346204 
 -346256  -346291  -346280  -346231  -346188  -346214  -346300  -346376 
 -346395  -346354  -346277  -346216  -346179  -346129  -346069  -346037 
 -346041  -346069  -346117  -346173  -346246  -346366  -346505  -346574 
 -346530  -346418  -346303  -346223  -346183  -346149  -346091  -346018 
 -345976  -345980  -346023  -346099  -346153  -346134  -346067  -345995 
 -345913  -345816  -345747  -345749  -345834  -345973  -346148  -346345 
