Origin Time       2024/06/23 22:54:00
Lat.              35.645
Long.             140.060
Depth. (km)       72
Mag.              4.1
Station Code      CHBH16
Station Lat.      35.1384
Station Long.     139.9649
Station Height(m) 160
Record Time       2024/06/23 22:54:46
Sampling Freq(Hz) 100Hz
Duration Time(s)  120
Dir.              6
Scale Factor      7845(gal)/8223790
Max. Acc. (gal)   1.238
Last Correction   2024/06/23 22:54:46
Memo.             
[...]
   27878    27877    27880    27880    27880    27877    27874    27881 
   27882    27878    27877    27874    27876    27880    27878    27880 
   27881    27877    27877    27876    27876    27878    27880    27878 
   27878    27876    27877    27880    27877    27876    27878    27881 
   27882    27878    27876    27880    27881    27877    27878    27878 
   27878    27880    27878    27878    27878    27874    27876    27877 
   27878    27881    27880    27880    27881    27877    27877    27880 
   27877    27878    27880    27877    27877    27877    27877    27881 
   27880    27880    27881    27878    27878    27880    27877    27878 
   27878    27876    27877    27877    27877    27877    27876    27878 
   27878    27876    27880    27880    27876    27877    27877    27874 
   27878    27878    27877    27878    27876    27877    27881    27878 
   27877    27877    27874    27877    27877    27877    27878    27876 
   27876    27878    27877    27878    27878    27874    27877    27878 
   27877    27880    27880    27880    27881    27877    27876    27880 
   27878    27878    27877    27874    27878    27880    27877    27878 
   27878    27877    27877    27874    27878    27881    27878    27877 
   27877    27877    27880    27878    27876    27877    27878    27880 
   27881    27878    27876    27877    27876    27880    27880    27878 
   27882    27878    27876    27880    27880    27880    27880    27876 
   27877    27877    27877    27882    27881    27877    27876    27876 
   27877    27880    27877    27876    27877    27874    27877    27878 
   27876    27877    27874    27872    27878    27878    27874    27876 
   27876    27877    27877    27876    27878    27877    27874    27878 
   27878    27876    27878    27876    27873    27874    27876    27876 
   27876    27876    27878    27876    27876    27878    27878    27877 
   27877    27874    27880    27881    27877    27878    27878    27876 
   27880    27880    27877    27878    27877    27877    27881    27878 
   27877    27880    27877    27876    27876    27880    27886    27888 
   27885    27885    27886    27888    27884    27880    27881    27878 
   27874    27880    27881    27877    27872    27865    27864    27866 
   27866    27874    27882    27884    27885    27880    27870    27868 
   27865    27868    27874    27877    27881    27884    27877    27873 
   27869    27873    27891    27905    27915    27908    27870    27815 
   27776    27766    27801    27873    27940    27972    27953    27907 
   27857    27827    27846    27907    27967    27993    27967    27904 
   27830    27772    27753    27781    27835    27888    27926    27942 
   27946    27932    27897    27850    27803    27778    27807    27868 
   27913    27920    27888    27834    27803    27828    27904    27990 
   28054    28070    28011    27897    27783    27697    27662    27681 
   27735    27818    27918    28007    28046    28016    27969    27953 
   27951    27946    27947    27934    27876    27792    27730    27734 
   27787    27842    27897    27946    27978    27997    28000    27988 
   27954    27886    27803    27738    27702    27711    27774    27872 
   27963    28016    28050    28077    28062    27994    27901    27805 
   27742    27722    27726    27762    27823    27862    27859    27839 
   27837    27874    27945    28017    28053    28034    27977    27896 
   27804    27746    27742    27770    27814    27849    27851    27837 
   27832    27868    27936    28004    28030    27986    27895    27818 
   27776    27766    27787    27820    27853    27874    27893    27920 
   27927    27882    27815    27762    27743    27776    27832    27874 
   27901    27924    27958    28000    28020    28011    27982    27928 
   27859    27791    27731    27704    27716    27762    27827    27905 
   27993    28066    28084    28028    27927    27830    27788    27797 
   27835    27880    27897    27891    27877    27855    27851    27881 
   27913    27928    27935    27936    27927    27901    27864    27834 
   27834    27861    27900    27934    27946    27918    27857    27811 
   27814    27858    27908    27927    27912    27877    27832    27797 
   27787    27795    27811    27828    27855    27895    27940    27989 
   28012    27980    27923    27884    27861    27850    27854    27868 
   27884    27876    27837    27824    27861    27892    27877    27838 
   27814    27824    27864    27913    27950    27966    27966    27938 
   27892    27855    27834    27845    27882    27907    27903    27888 
   27859    27818    27776    27758    27776    27808    27861    27940 
   28001    27994    27936    27872    27820    27764    27722    27760 
   27872    27992    28070    28080    28021    27922    27805    27719 
   27691    27712    27776    27862    27940    27984    27981    27954 
   27923    27899    27904    27939    27959    27950    27915    27859 
   27803    27768    27772    27812    27841    27838    27835    27847 
   27868    27886    27886    27874    27868    27889    27934    27981 
   28004    27981    27903    27818    27777    27788    27823    27858 
   27882    27907    27927    27924    27892    27851    27841    27874 
   27918    27939    27935    27911    27880    27843    27816    27820 
   27839    27859    27873    27868    27859    27870    27878    27878 
   27873    27851    27824    27815    27835    27878    27904    27913 
   27940    27976    27989    27973    27932    27886    27847    27822 
   27824    27842    27859    27876    27873    27865    27872    27859 
   27807    27762    27760    27781    27812    27864    27935    27993 
   28032    28051    28034    27988    27930    27857    27796    27770 
   27768    27783    27808    27828    27832    27827    27845    27899 
   27946    27957    27945    27927    27911    27891    27874    27869 
   27868    27872    27901    27958    28009    28011    27943    27834 
   27729    27666    27669    27714    27780    27876    27981    28057 
   28080    28047    27974    27886    27804    27756    27753    27776 
   27818    27870    27911    27923    27907    27891    27907    27942 
   27958    27935    27896    27878    27864    27837    27828    27845 
   27857    27862    27865    27876    27897    27913    27923    27938 
   27949    27953    27942    27896    27826    27750    27685    27648 
   27641    27684    27795    27924    28020    28070    28080    28050 
   27985    27912    27866    27853    27877    27943    27994    27986 
   27927    27828    27711    27603    27540    27545    27610    27719 
   27868    28021    28127    28171    28181    28173    28132    28057 
   27966    27854    27729    27638    27602    27629    27726    27841 
   27930    27985    28000    27966    27886    27781    27704    27687 
   27726    27814    27953    28100    28181    28171    28128    28097 
   28051    27978    27896    27814    27734    27668    27637    27665 
   27727    27788    27846    27922    28024    28129    28200    28217 
   28179    28085    27954    27800    27646    27515    27419    27402 
   27515    27741    28000    28196    28256    28181    28007    27805 
   27652    27534    27423    27353    27382    27544    27811    28098 
   28333    28468    28497    28439    28316    28146    27930    27657 
   27392    27256    27313    27533    27822    28084    28262    28302 
   28208    28088    28005    27936    27857    27792    27765    27764 
   27747    27715    27692    27695    27735    27823    27928    27996 
   28000    27957    27884    27805    27778    27818    27904    28020 
   28113    28115    28015    27846    27657    27506    27421    27421 
   27529    27726    27965    28188    28343    28414    28406    28335 
   28229    28107    27963    27810    27652    27498    27367    27309 
   27388    27600    27872    28111    28244    28255    28183    28065 
   27907    27753    27666    27689    27800    27962    28154    28314 
   28356    28271    28108    27919    27733    27569    27454    27376 
   27315    27317    27426    27633    27884    28102    28269    28416 
   28503    28458    28258    27961    27684    27529    27504    27580 
   27704    27822    27900    27934    27936    27928    27932    27958 
   27999    28021    28021    28008    27963    27873    27773    27716 
   27714    27731    27749    27774    27792    27792    27814    27870 
   27922    27927    27912    27909    27896    27843    27781    27743 
   27750    27807    27891    27972    28030    28048    28028    27980 
   27934    27924    27916    27859    27778    27714    27679    27668 
   27677    27711    27753    27783    27838    27918    27963    27981 
   28017    28059    28075    28065    28054    28058    28053    28028 
   27997    27958    27919    27896    27911    27969    27996    27942 
   27865    27808    27758    27704    27653    27630    27648    27692 
   27754    27831    27913    27977    27989    27947    27889    27849 
   27827    27800    27751    27724    27751    27819    27899    27961 
   27986    27993    27996    28004    28017    28013    27974    27911 
   27855    27837    27869    27954    28063    28129    28115    28017 
   27854    27673    27522    27434    27438    27515    27634    27799 
   27970    28100    28194    28262    28264    28186    28038    27858 
   27699    27579    27506    27488    27538    27673    27862    28043 
   28169    28208    28179    28125    28053    27970    27907    27854 
   27797    27716    27625    27588    27635    27691    27700    27693 
   27719    27778    27835    27889    27954    28003    28023    28028 
   28039    28048    28035    28017    28034    28082    28139    28154 
   28082    27958    27854    27793    27741    27685    27676    27715 
   27729    27710    27733    27816    27915    27977    27980    27922 
   27826    27726    27641    27575    27560    27637    27792    27996 
   28229    28428    28517    28474    28312    28071    27793    27515 
   27309    27245    27348    27573    27838    28065    28192    28193 
   28100    27958    27803    27687    27654    27719    27861    28007 
   28093    28108    28073    28038    28026    28001    27936    27837 
   27737    27665    27626    27645    27746    27866    27931    27942 
   27926    27896    27847    27804    27818    27886    27984    28116 
   28246    28290    28219    28062    27882    27712    27569    27503 
   27530    27607    27692    27751    27764    27746    27738    27776 
   27855    27954    28077    28216    28308    28318    28259    28151 
   28034    27919    27784    27637    27519    27454    27426    27425 
   27492    27643    27831    28009    28140    28198    28178    28098 
   28008    27945    27896    27858    27838    27814    27772    27710 
   27637    27592    27603    27666    27764    27859    27951    28054 
   28152    28231    28279    28289    28244    28139    27988    27835 
   27714    27648    27649    27689    27739    27811    27881    27901 
   27865    27815    27801    27828    27876    27935    27997    28061 
   28107    28094    28034    27958    27862    27741    27616    27534 
   27553    27669    27832    27988    28080    28116    28132    28115 
   28034    27901    27750    27619    27544    27546    27622    27727 
   27845    27974    28086    28155    28179    28173    28136    28061 
   27950    27842    27764    27726    27735    27769    27801    27815 
   27797    27760    27715    27675    27668    27704    27754    27807 
   27874    27955    28021    28043    28034    28013    27970    27927 
   27928    27963    28004    28030    28020    27967    27878    27793 
   27756    27743    27737    27753    27788    27828    27872    27908 
   27922    27899    27853    27799    27727    27648    27602    27612 
   27697    27847    28020    28159    28219    28192    28116    28027 
   27930    27834    27761    27722    27691    27653    27633    27653 
   27708    27818    27982    28162    28316    28401    28377    28251 
   28062    27888    27791    27750    27731    27720    27683    27604 
   27522    27471    27476    27542    27672    27858    28063    28252 
   28424    28566    28649    28649    28543    28340    28053    27704 
   27371    27133    27033    27090    27270    27496    27691    27816 
   27897    27965    28020    28077    28155    28248    28312    28282 
   28154    27972    27773    27618    27564    27610    27726    27864 
   27990    28100    28182    28229    28242    28212    28121    27959 
   27733    27484    27267    27125    27099    27187    27356    27567 
   27756    27886    27974    28043    28123    28229    28331    28394 
   28416    28383    28283    28132    27949    27743    27535    27390 
   27378    27504    27741    28044    28332    28532    28609    28555 
   28417    28260    28120    28007    27905    27804    27695    27552 
   27373    27183    27005    26881    26839    26890    27027    27224 
   27453    27703    27945    28158    28337    28489    28615    28703 
   28702    28599    28414    28179    27955    27781    27658    27580 
   27534    27527    27584    27711    27895    28096    28258    28324 
   28236    28007    27720    27463    27306    27299    27426    27639 
   27884    28100    28256    28333    28331    28275    28186    28074 
   27967    27862    27754    27646    27533    27413    27278    27144 
   27075    27129    27325    27665    28092    28524    28891    29119 
   29176    29081    28877    28622    28350    28059    27766    27486 
   27244    27097    27072    27172    27373    27627    27885    28100 
   28228    28262    28231    28181    28150    28123    28070    27976 
   27826    27645    27477    27356    27303    27309    27345    27402 
   27488    27615    27788    27970    28127    28242    28296    28278 
   28189    28043    27882    27747    27672    27687    27774    27885 
   27977    28009    27978    27903    27797    27692    27621    27589 
   27606    27652    27708    27793    27904    28004    28089    28162 
   28232    28313    28394    28448    28443    28359    28220    28043 
   27857    27710    27616    27564    27544    27537    27538    27558 
   27592    27634    27679    27702    27691    27662    27641    27635 
   27646    27683    27747    27841    27958    28071    28144    28156 
   28108    28013    27904    27793    27692    27630    27626    27689 
   27816    27972    28120    28228    28273    28285    28293    28302 
   28323    28333    28302    28212    28069    27908    27761    27634 
   27544    27498    27486    27498    27522    27548    27580    27622 
   27665    27697    27723    27770    27868    28000    28121    28210 
   28237    28179    28042    27876    27731    27627    27594    27653 
   27780    27950    28136    28300    28420    28485    28493    28439 
   28310    28128    27927    27720    27527    27395    27349    27384 
   27468    27554    27634    27692    27706    27672    27611    27549 
   27503    27491    27541    27672    27861    28074    28269    28404 
   28451    28404    28275    28107    27935    27795    27706    27691 
   27770    27920    28082    28210    28279    28287    28243    28146 
   28005    27861    27724    27591    27480    27398    27346    27344 
   27396    27510    27675    27874    28080    28235    28312    28336 
   28327    28294    28242    28155    28031    27872    27681    27500 
   27373    27332    27384    27508    27656    27773    27822    27808 
   27761    27719    27712    27742    27796    27873    27951    28011 
   28048    28074    28088    28081    28036    27966    27900    27855 
   27843    27858    27889    27932    27984    28038    28089    28134 
   28177    28198    28170    28112    28058    28005    27943    27849 
   27719    27585    27473    27399    27388    27434    27527    27654 
   27793    27932    28063    28167    28231    28250    28227    28179 
   28109    28032    27961    27891    27832    27803    27805    27847 
   27916    27980    28012    28001    27957    27915    27893    27891 
   27896    27891    27886    27884    27873    27854    27823    27768 
   27691    27603    27522    27471    27444    27450    27510    27619 
   27770    27938    28085    28196    28262    28273    28229    28134 
   28000    27855    27711    27581    27490    27448    27472    27552 
   27656    27769    27884    27981    28050    28097    28129    28144 
   28136    28120    28109    28107    28117    28140    28170    28202 
   28220    28196    28123    28008    27877    27765    27683    27645 
   27661    27727    27827    27928    27999    28021    27976    27869 
   27742    27627    27558    27557    27610    27693    27780    27845 
   27874    27857    27803    27734    27652    27585    27572    27600 
   27646    27695    27718    27710    27668    27608    27569    27576 
   27633    27747    27904    28075    28236    28350    28397    28393 
   28348    28296    28267    28269    28294    28325    28320    28248 
   28102    27913    27727    27581    27515    27542    27633    27757 
   27869    27935    27947    27901    27820    27756    27730    27745 
   27777    27791    27777    27745    27708    27703    27733    27772 
   27810    27845    27868    27877    27868    27861    27873    27903 
   27969    28082    28223    28370    28493    28555    28528    28402 
   28212    28004    27807    27658    27572    27537    27550    27591 
   27623    27637    27639    27635    27635    27642    27654    27664 
   27662    27660    27677    27714    27751    27761    27729    27666 
   27595    27556    27571    27623    27711    27837    27963    28069 
   28144    28182    28188    28152    28067    27955    27850    27783 
   27764    27784    27837    27907    27978    28042    28090    28120 
   28134    28125    28100    28066    28028    27999    27993    27993 
   28003    28039    28094    28143    28166    28154    28115    28046 
   27963    27904    27865    27842    27845    27858    27859    27832 
   27788    27741    27688    27643    27633    27652    27677    27702 
   27726    27753    27770    27774    27784    27785    27764    27739 
   27730    27735    27754    27768    27765    27746    27708    27669 
   27639    27616    27610    27621    27648    27700    27780    27877 
   27978    28059    28125    28188    28240    28281    28301    28285 
   28231    28144    28042    27935    27820    27708    27621    27572 
   27581    27639    27715    27793    27861    27915    27974    28043 
   28111    28175    28229    28251    28220    28142    28051    27969 
   27923    27936    27993    28066    28134    28154    28123    28057 
   27949    27819    27700    27606    27565    27589    27669    27793 
   27927    28024    28073    28059    27996    27907    27807    27691 
   27549    27391    27260    27171    27129    27160    27264    27421 
   27610    27799    27953    28059    28113    28128    28128    28132 
   28150    28171    28189    28197    28163    28081    27969    27845 
   27730    27661    27654    27719    27845    27997    28143    28251 
   28294    28269    28185    28075    27974    27891    27835    27818 
   27830    27865    27907    27946    27973    27969    27935    27882 
   27803    27712    27648    27621    27638    27712    27828    27949 
