Origin Time       2024/06/23 22:54:00
Lat.              35.645
Long.             140.060
Depth. (km)       72
Mag.              4.1
Station Code      CHBH19
Station Lat.      35.5943
Station Long.     140.5107
Station Height(m) -1629
Record Time       2024/06/23 22:54:36
Sampling Freq(Hz) 100Hz
Duration Time(s)  120
Dir.              2
Scale Factor      2942(gal)/8224139
Max. Acc. (gal)   0.439
Last Correction   2024/06/23 22:54:36
Memo.             
[...]
  123913   123915   123915   123912   123912   123912   123913   123913 
  123912   123913   123915   123912   123911   123912   123913   123913 
  123913   123912   123911   123911   123912   123911   123911   123912 
  123913   123915   123913   123911   123911   123912   123913   123913 
  123912   123913   123913   123911   123911   123913   123915   123915 
  123915   123912   123913   123913   123911   123909   123912   123913 
  123912   123911   123912   123912   123912   123912   123913   123915 
  123913   123913   123913   123911   123909   123912   123913   123911 
  123911   123912   123911   123911   123913   123915   123912   123912 
  123912   123912   123912   123911   123911   123911   123909   123913 
  123916   123911   123909   123912   123912   123911   123911   123913 
  123913   123913   123911   123909   123912   123912   123911   123912 
  123912   123911   123912   123912   123912   123913   123912   123911 
  123912   123912   123911   123911   123911   123912   123912   123911 
  123912   123912   123911   123909   123912   123913   123909   123911 
  123913   123912   123911   123912   123913   123912   123912   123912 
  123911   123911   123913   123912   123911   123912   123915   123913 
  123912   123911   123911   123911   123913   123912   123912   123911 
  123909   123911   123912   123912   123912   123912   123911   123913 
  123915   123912   123912   123915   123912   123909   123911   123913 
  123913   123909   123909   123913   123913   123911   123911   123913 
  123915   123912   123911   123913   123912   123909   123912   123913 
  123909   123909   123913   123912   123912   123915   123913   123912 
  123913   123911   123909   123913   123913   123912   123913   123912 
  123912   123913   123909   123909   123915   123913   123909   123909 
  123909   123913   123915   123912   123911   123912   123912   123911 
  123912   123915   123912   123912   123915   123915   123912   123912 
  123913   123913   123913   123912   123911   123912   123912   123912 
  123913   123912   123911   123912   123913   123912   123912   123913 
  123913   123913   123912   123912   123912   123911   123912   123912 
  123911   123909   123909   123912   123915   123911   123909   123913 
  123913   123911   123913   123915   123911   123909   123909   123911 
  123911   123911   123915   123916   123913   123912   123913   123912 
  123909   123911   123913   123912   123913   123915   123913   123912 
  123913   123912   123913   123915   123913   123912   123911   123911 
  123913   123913   123912   123911   123912   123913   123912   123911 
  123913   123912   123911   123912   123912   123912   123913   123913 
  123912   123911   123912   123913   123911   123909   123911   123913 
  123913   123912   123912   123913   123915   123915   123913   123912 
  123913   123913   123913   123915   123917   123917   123921   123932 
  123940   123944   123948   123950   123944   123934   123919   123911 
  123908   123907   123912   123919   123923   123943   123981   124008 
  124012   123998   123974   123955   123954   123966   123979   123959 
  123893   123819   123768   123739   123755   123812   123835   123815 
  123843   123921   123955   123959   123974   123930   123836   123812 
  123846   123847   123827   123854   123885   123862   123859   123907 
  123921   123912   123904   123888   123927   123989   123951   123888 
  123871   123792   123708   123816   123993   124075   124173   124243 
  124102   123870   123790   123830   123827   123808   123880   123957 
  123935   123897   123888   123854   123788   123739   123782   123952 
  124135   124162   124075   124039   124055   124063   124020   123876 
  123720   123709   123831   123939   123971   124016   124050   123921 
  123759   123778   123842   123847   123907   123919   123824   123842 
  123970   124044   124069   124015   123885   123873   123977   123963 
  123824   123781   123877   123935   123884   123850   123928   124042 
  124069   123977   123839   123785   123862   123936   123952   123979 
  123990   123948   123842   123723   123755   123869   123896   123963 
  124067   123994   123831   123780   123834   123923   123946   123913 
  123957   123997   123892   123786   123796   123838   123888   123939 
  123952   124001   124093   124102   124036   123985   123920   123824 
  123780   123793   123809   123831   123869   123938   123961   123871 
  123799   123836   123917   123998   124044   123989   123886   123850 
  123878   123878   123844   123854   123888   123911   123969   124029 
  124021   123981   123901   123759   123715   123861   124006   124033 
  124038   124020   123931   123890   123955   123974   123912   123903 
  123967   123994   123962   123904   123839   123840   123889   123915 
  123946   123996   123993   123880   123795   123795   123769   123855 
  124017   123977   123896   123901   123844   123842   123915   123904 
  123898   123963   124005   124002   123954   123898   123862   123812 
  123781   123797   123865   123971   124027   123990   123917   123874 
  123905   123923   123880   123878   123930   123919   123853   123867 
  123948   123930   123877   123931   123993   123988   123962   123935 
  123970   124054   124047   123969   123909   123889   123916   123890 
  123776   123718   123769   123862   123939   123962   123917   123877 
  123903   123898   123824   123812   123888   123930   123851   123797 
  123897   123963   123936   123958   124016   124078   124106   124056 
  124001   123969   123942   123936   123885   123773   123714   123723 
  123754   123815   123878   123903   123917   123938   123925   123932 
  124021   124067   123975   123877   123881   123908   123878   123832 
  123796   123800   123881   123942   123970   124032   124004   123911 
  123942   123996   123996   124035   124002   123851   123757   123782 
  123865   123952   123982   123967   123959   123955   123970   123948 
  123857   123792   123811   123874   123966   124075   124098   123969 
  123844   123820   123781   123743   123812   123911   123934   123916 
  123911   123920   123900   123842   123871   123939   123911   123935 
  124033   124008   123881   123796   123803   123867   123920   123961 
  124016   124081   124070   123932   123855   123890   123855   123792 
  123832   123911   123952   123957   123967   124013   124043   124008 
  123952   123911   123861   123805   123807   123888   123909   123844 
  123886   123993   124036   124083   124040   123873   123800   123840 
  123835   123792   123840   123923   123851   123770   123878   123974 
  123957   123966   123951   123898   123897   123866   123823   123890 
  123986   124059   124152   124150   124013   123928   123961   123974 
  123859   123739   123755   123774   123715   123731   123831   123909 
  123971   123984   123900   123886   124050   124152   124082   124031 
  124029   123971   123913   123897   123853   123755   123666   123658 
  123782   123940   124011   124028   124043   124038   124006   123967 
  123947   123917   123871   123858   123843   123797   123782   123763 
  123739   123832   123977   124019   124020   124032   123988   123900 
  123869   123894   123886   123880   123932   123963   123948   123946 
  123942   123900   123846   123857   123919   123913   123888   123934 
  123944   123897   123896   123931   123940   123936   123974   124040 
  124062   123977   123803   123707   123765   123846   123907   123938 
  123861   123786   123824   123826   123782   123873   124013   124032 
  123986   123985   123979   123897   123823   123819   123840   123913 
  124012   124036   124024   124042   124059   124006   123931   123901 
  123842   123768   123800   123881   123873   123817   123828   123893 
  123989   124087   124085   124011   123952   123867   123793   123807 
  123882   123942   123938   123874   123813   123834   123894   123867 
  123827   123889   123915   123861   123877   123912   123857   123832 
  123907   123943   123955   124075   124182   124102   123958   123916 
  123930   123897   123857   123877   123903   123900   123885   123842 
  123823   123808   123707   123650   123747   123871   123982   124058 
  124028   124028   124094   124082   124039   123952   123803   123786 
  123877   123896   123905   123962   124025   124071   124075   124043 
  123975   123862   123788   123759   123668   123624   123747   123865 
  123881   123912   123989   124056   124054   123962   123901   123938 
  123946   123915   123978   124050   123966   123885   123925   123916 
  123865   123907   123946   123884   123835   123894   123962   123974 
  124021   124063   123958   123817   123811   123865   123921   123985 
  123957   123857   123799   123763   123692   123626   123682   123834 
  123985   124102   124089   123967   123908   123904   123859   123815 
  123878   124005   124058   124055   124040   123981   123923   123908 
  123900   123896   123958   124054   124028   123915   123877   123865 
  123836   123886   123942   123935   123973   124039   124031   123978 
  123930   123863   123828   123921   124062   124079   123997   123882 
  123738   123647   123689   123766   123777   123811   123911   123930 
  123873   123889   123921   123874   123824   123827   123807   123741 
  123736   123813   123870   123925   124017   124054   124013   124011 
  124032   123944   123840   123876   123935   123928   123919   123892 
  123871   123896   123900   123909   123967   124023   124062   124070 
  124001   123923   123913   123946   123970   123977   123986   124005 
  123978   123908   123843   123780   123736   123789   123919   123989 
  123978   123988   123963   123846   123763   123778   123807   123822 
  123850   123874   123873   123903   123996   124033   123969   123897 
  123839   123838   123950   124025   123985   123947   123919   123894 
  123950   123988   123915   123890   123988   124021   123915   123811 
  123819   123859   123826   123797   123861   123943   123967   123934 
  123893   123909   123961   123974   123973   124025   124086   124074 
  123990   123908   123853   123793   123778   123839   123858   123851 
  123939   124005   123927   123822   123789   123780   123766   123803 
  123853   123850   123846   123889   123942   123962   123979   124054 
  124105   124074   124044   124019   123946   123832   123753   123822 
  123954   123977   123930   123911   123900   123866   123844   123871 
  123904   123888   123880   123939   123967   123905   123861   123844 
  123813   123843   123913   123913   123874   123840   123793   123776 
  123836   123940   124021   124050   124019   123974   123977   124031 
  124078   124079   124073   124073   124021   123952   123946   123967 
  123984   123997   123961   123892   123838   123793   123795   123842 
  123897   123954   124017   124117   124222   124233   124190   124177 
  124160   124150   124151   124090   124017   123940   123743   123496 
  123325   123210   123168   123217   123325   123449   123547   123668 
  123876   124101   124225   124213   124141   124094   124062   124000 
  123917   123831   123743   123696   123693   123634   123522   123519 
  123658   123849   124035   124195   124370   124532   124546   124488 
  124479   124420   124286   124135   123958   123839   123812   123742 
  123660   123709   123781   123724   123655   123647   123585   123538 
  123662   123847   123936   123959   123957   123969   124017   124067 
  124113   124139   124140   124154   124097   123957   123880   123878 
  123859   123828   123804   123755   123699   123705   123777   123849 
  123900   123935   123970   124033   124100   124074   123934   123803 
  123746   123691   123642   123611   123545   123508   123547   123565 
  123572   123677   123816   123890   123979   124129   124274   124402 
  124452   124391   124366   124398   124363   124252   124109   123984 
  123947   123935   123853   123765   123749   123819   123932   123962 
  123915   123919   123950   123966   124020   124066   124050   124036 
  124067   124074   124033   124015   124021   124006   123969   123898 
  123785   123645   123484   123398   123480   123611   123646   123649 
  123688   123757   123840   123871   123838   123827   123843   123826 
  123813   123908   124021   123990   123940   124015   124043   123959 
  123900   123884   123912   123978   123966   123904   123896   123865 
  123800   123792   123792   123739   123685   123628   123554   123562 
  123673   123792   123886   123959   123982   124000   124047   124031 
  123971   123971   123979   123989   124046   124040   123962   123957 
  124020   124062   124114   124202   124287   124363   124432   124498 
  124582   124650   124618   124514   124468   124488   124474   124382 
  124247   124092   123957   123855   123758   123696   123672   123614 
  123579   123633   123688   123674   123580   123469   123442   123448 
  123421   123430   123502   123572   123611   123650   123693   123672 
  123593   123564   123597   123650   123751   123947   124128   124197 
  124260   124372   124449   124467   124384   124150   123824   123493 
  123237   123094   123014   122970   122982   123060   123233   123519 
  123830   124067   124236   124370   124497   124583   124524   124397 
  124376   124455   124571   124726   124822   124762   124615   124486 
  124351   124168   123992   123784   123491   123250   123097   122936 
  122852   122868   122874   122913   123048   123219   123371   123526 
  123722   123943   124190   124499   124812   125043   125140   125069 
  124866   124609   124389   124264   124166   124058   123948   123782 
  123580   123414   123259   123153   123246   123503   123709   123793 
  123886   124054   124162   124141   124092   124071   124067   124070 
  124008   123838   123688   123658   123657   123630   123638   123682 
  123735   123839   124011   124205   124410   124606   124657   124471 
  124221   124137   124168   124124   123944   123730   123691   123863 
  123950   123847   123788   123776   123650   123502   123483   123557 
  123633   123681   123699   123701   123776   123952   124125   124209 
  124218   124121   123920   123746   123634   123495   123391   123422 
  123523   123597   123606   123566   123601   123761   123934   124113 
  124356   124545   124571   124503   124378   124189   124033   123988 
  123994   123955   123888   123877   123931   123979   123963   123924 
  123938   123986   124028   124067   124127   124181   124167   124116 
  124109   124109   124004   123799   123660   123618   123493   123321 
  123322   123488   123712   123963   124144   124231   124271   124220 
  124110   124040   123951   123801   123697   123746   123881   123938 
  123905   123849   123778   123749   123813   123921   123998   124021 
  124005   123963   123916   123861   123777   123741   123762   123715 
  123643   123641   123572   123415   123412   123623   123892   124160 
  124416   124588   124640   124549   124316   124052   123878   123763 
  123718   123799   123878   123871   123911   124039   124154   124197 
  124154   124090   124104   124128   124055   123905   123768   123680 
  123624   123626   123700   123763   123784   123812   123811   123739 
  123685   123743   123871   123943   123888   123784   123720   123654 
  123560   123558   123684   123793   123854   123927   123952   123915 
  123908   124019   124237   124374   124298   124151   124058   124028 
  124031   123981   123938   124031   124235   124472   124691   124784 
  124692   124483   124263   124069   123897   123751   123637   123560 
  123466   123287   123117   123093   123172   123292   123437   123556 
  123668   123823   123952   123978   123931   123888   123874   123871 
  123905   123946   123896   123826   123865   123912   123888   123905 
  123982   124081   124217   124305   124302   124312   124313   124218 
  124104   124058   124020   123909   123770   123680   123641   123647 
  123718   123805   123881   123973   124009   123927   123867   123936 
  124023   124013   123917   123836   123846   123885   123865   123815 
  123799   123836   123946   124055   124066   124051   124067   124066 
  124090   124168   124201   124182   124185   124152   124024   123913 
  123890   123890   123903   123885   123753   123585   123500   123493 
  123541   123618   123704   123790   123846   123847   123822   123817 
  123831   123788   123711   123734   123857   123944   123954   123959 
  124011   124054   124023   123947   123867   123788   123765   123793 
  123808   123849   123959   124092   124193   124229   124231   124229 
  124214   124185   124132   124063   124033   123996   123874   123727 
  123626   123592   123649   123761   123847   123894   123908   123888 
  123901   123979   124056   124083   124078   124058   124011   123955 
  123947   123966   123959   123959   123981   123966   123916   123819 
  123653   123543   123569   123620   123655   123745   123850   123851 
  123800   123859   123967   123971   123935   123944   123955   123955 
  123978   124032   124093   124127   124139   124170   124209   124190 
  124125   124098   124078   124008   123970   123973   123963   123988 
  124011   123948   123849   123776   123716   123673   123670   123691 
  123714   123739   123749   123763   123838   123917   123935   123905 
  123847   123811   123834   123881   123911   123908   123903   123952 
  124002   123992   123975   123990   123981   123897   123777   123681 
  123628   123634   123650   123637   123661   123736   123776   123774 
  123805   123885   123947   123961   123967   123985   124019   124112 
  124227   124293   124333   124355   124295   124147   123989   123881 
  123796   123745   123793   123897   123975   124019   124008   123961 
  123942   123920   123855   123776   123707   123676   123696   123742 
  123838   124024   124228   124303   124222   124104   124029   123971 
  123915   123866   123835   123844   123870   123870   123898   123986 
  124044   124012   123932   123854   123766   123646   123543   123543 
  123642   123786   123954   124075   124100   124100   124116   124114 
  124089   124038   123970   123917   123858   123795   123754   123700 
  123651   123672   123738   123793   123830   123826   123774   123735 
  123768   123867   124019   124155   124185   124152   124152   124144 
  124096   124044   123971   123870   123816   123865   123986   124090 
  124140   124185   124209   124177   124100   123986   123890   123857 
  123789   123680   123637   123633   123615   123653   123722   123730 
  123726   123759   123790   123823   123873   123913   123930   123939 
  123965   124006   124036   124042   124042   124054   124074   124113 
  124150   124140   124096   124005   123881   123788   123711   123643 
  123653   123695   123680   123642   123665   123761   123857   123920 
  123978   124025   124019   123975   123971   124019   124036   123989 
  123959   124002   124081   124152   124191   124193   124151   124040 
  123894   123813   123819   123830   123803   123765   123736   123704 
  123655   123618   123628   123657   123697   123797   123909   123957 
  123982   124009   124021   124050   124083   124082   124063   124052 
  124048   124042   124008   123948   123877   123811   123757   123716 
  123730   123811   123888   123921   123965   124001   123985   123965 
