Origin Time       2024/06/23 22:54:00
Lat.              35.645
Long.             140.060
Depth. (km)       72
Mag.              4.1
Station Code      CHBH13
Station Lat.      35.8307
Station Long.     140.2980
Station Height(m) -1288
Record Time       2024/06/23 22:54:35
Sampling Freq(Hz) 100Hz
Duration Time(s)  120
Dir.              3
Scale Factor      2942(gal)/8224139
Max. Acc. (gal)   0.915
Last Correction   2024/06/23 22:54:36
Memo.             
[...]
  157238   157238   157235   157237   157239   157235   157235   157237 
  157238   157237   157234   157235   157238   157237   157234   157234 
  157238   157238   157235   157235   157237   157238   157238   157235 
  157234   157237   157235   157234   157235   157234   157234   157238 
  157239   157238   157238   157238   157237   157235   157234   157234 
  157237   157238   157234   157234   157238   157239   157237   157234 
  157234   157237   157235   157235   157238   157237   157234   157235 
  157237   157234   157234   157234   157234   157235   157237   157237 
  157237   157237   157237   157234   157235   157237   157234   157234 
  157238   157239   157234   157233   157237   157237   157237   157235 
  157237   157237   157234   157233   157234   157234   157234   157237 
  157237   157234   157234   157235   157235   157235   157235   157237 
  157237   157234   157235   157237   157235   157234   157235   157238 
  157237   157235   157235   157237   157235   157237   157238   157238 
  157238   157237   157235   157237   157237   157234   157234   157237 
  157237   157238   157238   157239   157239   157237   157237   157238 
  157238   157237   157235   157238   157239   157237   157235   157237 
  157239   157238   157237   157238   157241   157238   157237   157241 
  157239   157238   157239   157237   157234   157239   157239   157235 
  157237   157241   157238   157237   157238   157237   157238   157239 
  157238   157238   157238   157238   157238   157238   157238   157238 
  157238   157237   157237   157238   157237   157235   157235   157237 
  157238   157239   157239   157238   157238   157239   157238   157237 
  157239   157239   157237   157237   157238   157235   157237   157239 
  157237   157237   157238   157238   157238   157238   157237   157237 
  157237   157238   157239   157238   157237   157239   157239   157239 
  157238   157238   157239   157239   157237   157235   157237   157237 
  157237   157238   157238   157238   157238   157239   157238   157235 
  157237   157238   157238   157238   157238   157237   157238   157241 
  157239   157235   157235   157235   157234   157235   157237   157237 
  157237   157237   157237   157237   157237   157237   157234   157235 
  157235   157235   157238   157238   157235   157235   157237   157237 
  157238   157238   157237   157238   157241   157238   157235   157235 
  157237   157238   157238   157235   157235   157235   157235   157238 
  157238   157237   157238   157239   157237   157234   157235   157237 
  157237   157234   157235   157238   157237   157237   157239   157239 
  157235   157234   157235   157239   157238   157234   157235   157239 
  157237   157234   157238   157239   157237   157238   157238   157234 
  157235   157237   157234   157234   157235   157237   157238   157238 
  157237   157235   157235   157237   157238   157238   157238   157238 
  157238   157239   157238   157235   157238   157241   157239   157237 
  157237   157238   157237   157237   157237   157237   157238   157239 
  157239   157237   157235   157235   157237   157238   157237   157234 
  157235   157238   157238   157238   157237   157235   157237   157241 
  157239   157237   157237   157237   157235   157235   157237   157239 
  157238   157237   157238   157237   157235   157238   157239   157237 
  157237   157238   157237   157237   157237   157238   157238   157238 
  157238   157235   157235   157238   157238   157237   157238   157237 
  157235   157237   157237   157237   157238   157237   157234   157237 
  157237   157234   157235   157237   157235   157237   157238   157237 
  157238   157239   157237   157237   157237   157237   157239   157239 
  157237   157237   157238   157237   157238   157238   157237   157235 
  157237   157238   157238   157235   157235   157235   157237   157238 
  157238   157237   157237   157238   157235   157234   157237   157237 
  157237   157239   157238   157237   157237   157235   157237   157238 
  157238   157238   157238   157237   157235   157237   157235   157238 
  157238   157237   157237   157238   157237   157235   157237   157237 
  157235   157237   157237   157237   157237   157235   157233   157235 
  157237   157235   157235   157235   157235   157238   157239   157237 
  157235   157237   157238   157237   157234   157235   157239   157237 
  157234   157237   157238   157238   157235   157237   157238   157238 
  157237   157237   157235   157235   157237   157238   157237   157234 
  157237   157239   157237   157237   157238   157237   157237   157239 
  157239   157238   157237   157237   157237   157237   157237   157235 
  157234   157235   157237   157237   157237   157238   157237   157235 
  157235   157237   157237   157237   157237   157235   157233   157235 
  157237   157237   157239   157241   157239   157238   157235   157235 
  157239   157238   157235   157239   157239   157235   157234   157237 
  157237   157237   157239   157238   157237   157239   157238   157235 
  157237   157238   157234   157235   157239   157238   157235   157238 
  157238   157237   157237   157238   157237   157237   157238   157239 
  157235   157234   157237   157238   157237   157237   157238   157235 
  157237   157241   157238   157235   157238   157238   157237   157238 
  157238   157238   157238   157238   157239   157241   157238   157237 
  157237   157237   157237   157239   157239   157237   157237   157237 
  157237   157238   157238   157238   157238   157237   157237   157237 
  157235   157237   157238   157238   157238   157238   157237   157238 
  157239   157239   157238   157239   157239   157238   157238   157238 
  157238   157239   157239   157238   157238   157238   157237   157234 
  157235   157237   157237   157237   157239   157238   157235   157238 
  157239   157239   157238   157238   157238   157238   157239   157239 
  157238   157238   157237   157237   157238   157238   157238   157237 
  157237   157237   157237   157237   157238   157238   157238   157238 
  157237   157237   157239   157238   157237   157238   157239   157238 
  157235   157235   157237   157237   157238   157239   157235   157235 
  157237   157235   157234   157237   157239   157239   157238   157238 
  157237   157235   157237   157237   157237   157238   157238   157237 
  157235   157235   157238   157237   157235   157237   157239   157238 
  157238   157238   157237   157235   157235   157235   157234   157234 
  157238   157238   157234   157237   157239   157235   157237   157239 
  157235   157233   157235   157235   157234   157239   157241   157237 
  157238   157239   157237   157237   157238   157238   157239   157241 
  157238   157238   157239   157237   157235   157238   157235   157235 
  157238   157237   157234   157237   157238   157238   157238   157235 
  157237   157239   157237   157235   157237   157238   157235   157234 
  157237   157237   157237   157238   157239   157238   157235   157235 
  157238   157239   157241   157241   157237   157235   157238   157239 
  157238   157238   157238   157237   157234   157235   157238   157238 
  157237   157239   157239   157238   157239   157238   157237   157238 
  157237   157238   157238   157237   157237   157239   157239   157237 
  157237   157237   157235   157237   157237   157239   157239   157237 
  157235   157237   157238   157239   157239   157239   157237   157238 
  157239   157238   157235   157237   157238   157235   157235   157238 
  157239   157239   157237   157237   157239   157238   157237   157237 
  157237   157238   157237   157235   157235   157237   157239   157238 
  157234   157235   157237   157237   157238   157238   157238   157237 
  157238   157239   157237   157234   157238   157239   157238   157235 
  157234   157235   157237   157237   157237   157237   157234   157235 
  157237   157237   157233   157233   157237   157238   157238   157238 
  157237   157235   157237   157237   157237   157237   157235   157235 
  157235   157237   157238   157238   157237   157234   157237   157238 
  157234   157237   157241   157237   157234   157238   157238   157235 
  157237   157235   157234   157237   157237   157234   157237   157239 
  157239   157238   157235   157235   157237   157235   157235   157238 
  157237   157237   157238   157237   157235   157237   157237   157235 
  157235   157238   157239   157238   157237   157235   157238   157238 
  157235   157237   157238   157235   157234   157239   157238   157235 
  157237   157238   157238   157237   157235   157237   157237   157237 
  157238   157238   157238   157238   157235   157237   157238   157237 
  157235   157235   157234   157235   157237   157237   157235   157237 
  157237   157235   157234   157237   157238   157235   157234   157235 
  157238   157235   157234   157237   157238   157238   157238   157234 
  157233   157235   157238   157238   157238   157238   157238   157238 
  157238   157237   157237   157238   157237   157234   157235   157238 
  157238   157237   157237   157238   157239   157237   157233   157235 
  157238   157235   157234   157238   157239   157237   157234   157235 
  157238   157237   157235   157237   157237   157238   157238   157237 
  157237   157235   157234   157235   157235   157237   157238   157235 
  157231   157233   157237   157237   157238   157238   157235   157235 
  157237   157238   157239   157238   157238   157237   157234   157235 
  157237   157235   157234   157235   157237   157237   157235   157235 
  157237   157237   157234   157235   157239   157237   157234   157234 
  157235   157238   157237   157234   157235   157238   157237   157235 
  157237   157237   157235   157237   157235   157234   157235   157237 
  157235   157234   157235   157238   157238   157239   157239   157238 
  157239   157239   157237   157235   157237   157238   157238   157238 
  157239   157237   157233   157234   157238   157239   157239   157239 
  157238   157238   157237   157235   157238   157239   157238   157238 
  157238   157237   157237   157237   157235   157238   157239   157238 
  157238   157239   157239   157239   157239   157238   157237   157237 
  157237   157237   157235   157235   157237   157237   157235   157238 
  157238   157239   157239   157238   157237   157237   157239   157237 
  157235   157239   157239   157237   157238   157238   157237   157237 
  157238   157238   157237   157238   157238   157237   157237   157237 
  157237   157238   157238   157237   157237   157238   157238   157239 
  157241   157238   157235   157238   157239   157238   157237   157238 
  157241   157241   157239   157237   157235   157239   157241   157239 
  157239   157239   157238   157237   157237   157238   157239   157239 
  157238   157237   157235   157235   157238   157239   157239   157238 
  157238   157239   157239   157238   157235   157238   157238   157235 
  157237   157238   157237   157239   157238   157238   157239   157238 
  157237   157238   157237   157235   157238   157239   157239   157239 
  157238   157238   157238   157237   157235   157238   157238   157237 
  157235   157235   157237   157234   157235   157239   157237   157233 
  157235   157238   157237   157237   157239   157238   157235   157237 
  157237   157234   157233   157235   157238   157234   157233   157238 
  157239   157237   157235   157234   157237   157241   157238   157238 
  157235   157235   157237   157237   157235   157235   157233   157234 
  157238   157237   157235   157237   157237   157237   157235   157235 
  157235   157235   157237   157238   157238   157238   157235   157237 
  157238   157239   157238   157237   157234   157235   157235   157233 
  157233   157235   157235   157235   157237   157238   157238   157237 
  157235   157237   157237   157237   157237   157235   157235   157237 
  157237   157235   157235   157235   157235   157235   157237   157237 
  157237   157238   157237   157237   157239   157237   157234   157237 
  157237   157237   157238   157235   157235   157239   157239   157238 
  157238   157238   157237   157235   157235   157235   157238   157238 
  157237   157237   157235   157234   157239   157239   157234   157235 
  157238   157237   157237   157239   157238   157235   157235   157238 
  157239   157238   157234   157235   157237   157237   157235   157235 
  157235   157235   157237   157238   157238   157235   157235   157239 
  157238   157234   157235   157238   157239   157238   157235   157235 
  157238   157239   157238   157239   157238   157235   157235   157237 
  157237   157238   157237   157234   157234   157235   157235   157237 
  157237   157235   157238   157237   157237   157238   157237   157235 
  157238   157237   157235   157238   157238   157237   157237   157237 
  157237   157237   157235   157237   157238   157235   157235   157237 
  157235   157239   157242   157242   157248   157257   157268   157281 
  157297   157312   157326   157326   157293   157243   157208   157189 
  157149   157098   157098   157177   157280   157329   157362   157478 
  157562   157457   157366   157434   157407   157227   157073   156986 
  157027   157135   157072   157015   157250   157469   157269   156864 
  156649   156726   157161   157825   158139   157904   157557   157177 
  156546   156126   156529   157410   157885   157621   156992   156424 
  156135   156404   157331   158477   158978   158352   157314   156587 
  156074   156007   156610   157600   158619   158593   157087   155667 
  155341   155902   157434   159205   159796   159138   157747   155895 
  154766   155252   156570   157997   159167   159325   158290   156699 
  155525   155445   156197   157281   158430   158988   158479   157420 
  156575   156285   156438   156733   157184   157761   157921   157523 
  157260   157233   157102   157266   157527   157304   157216   157411 
  157103   156678   156910   157330   157395   157434   157445   157030 
  156716   157041   157461   157727   157945   157667   157015   156674 
  156694   156980   157457   157728   157626   157312   157065   157129 
  157239   157072   156922   157073   157380   157576   157532   157331 
  157060   156880   156956   157162   157378   157380   157091   156978 
  157100   157122   157210   157445   157527   157414   157260   157073 
  156901   157049   157453   157481   157133   156967   157030   157104 
  157165   157347   157655   157716   157392   156999   156797   156849 
  157017   157188   157455   157588   157358   157144   157104   157067 
  157231   157578   157724   157669   157443   156968   156500   156300 
  156458   156972   157559   157897   157951   157723   157297   157025 
  157018   157052   157157   157491   157739   157497   157096   157075 
  157135   157000   156964   156945   156955   157277   157546   157524 
  157553   157555   157297   157110   157176   157140   156980   157092 
  157434   157554   157275   156913   156888   157199   157434   157419 
  157349   157235   157065   157054   157192   157311   157453   157577 
  157547   157426   157297   157169   157123   157157   157126   157102 
  157184   157154   157076   157206   157343   157422   157536   157441 
  157195   157153   157223   157283   157354   157235   157021   156982 
  156965   156961   157200   157589   157744   157474   157134   157091 
  157126   157080   157157   157315   157353   157338   157333   157119 
  156838   156925   157168   157212   157249   157438   157609   157582 
  157330   156932   156583   156505   156832   157407   157804   157910 
  157707   157110   156586   156466   156562   157146   158028   158066 
  157454   157270   157268   157140   157233   157258   156895   156635 
  156975   157644   158055   158018   157600   157018   156756   157063 
  157445   157341   157177   157465   157751   157628   157252   156897 
  156797   156890   157084   157341   157333   157103   157060   157118 
  157117   157119   157121   157203   157242   157030   157019   157422 
  157458   156998   156998   157480   157528   157288   157410   157527 
  157310   157189   157239   157293   157361   157299   157150   157067 
  156929   156797   156832   156982   157266   157615   157835   157886 
  157603   157130   157038   157092   156882   156897   157191   157167 
  157114   157472   157642   157377   157145   156976   157059   157450 
  157405   157233   157685   157912   157334   156798   156735   156701 
  156637   156968   157405   157531   157743   157866   157306   156729 
  156789   156999   157117   157392   157670   157702   157619   157299 
  156666   156535   157133   157442   157356   157447   157311   156899 
  156901   157096   157167   157423   157547   157320   157430   157620 
  157212   156978   157343   157621   157693   157484   156879   156676 
  157088   157302   157176   157117   157248   157507   157648   157536 
  157410   157346   157196   156956   156826   156971   157134   157104 
  157057   156914   156712   156841   157211   157615   157828   157384 
  156782   156952   157492   157684   157650   157523   157342   157370 
  157442   157206   156940   156932   157068   157210   157156   156938 
  156946   157266   157545   157646   157709   157526   157130   156999 
  156988   156860   156918   157160   157225   157208   157435   157582 
  157337   157119   157100   157146   157331   157515   157576   157644 
  157609   157347   157080   156834   156528   156539   156948   157235 
  157279   157276   157223   157200   157351   157532   157512   157361 
  157284   157326   157361   157245   157064   156996   157025   157183 
  157472   157553   157392   157179   156845   156721   157108   157486 
  157465   157320   157327   157331   157177   157141   157311   157264 
  157018   156999   157103   157067   157091   157324   157555   157663 
  157653   157542   157458   157372   157164   157063   157262   157443 
  157396   157297   157138   156860   156681   156729   157003   157434 
  157630   157518   157540   157519   157091   156774   156936   157202 
  157319   157293   157307   157511   157491   157127   157021   157156 
  157135   157090   157014   156933   157215   157603   157626   157491 
  157341   157125   157025   157025   156957   156986   157168   157175 
  157002   157054   157343   157609   157798   157774   157466   157189 
  157084   157009   157061   157269   157346   157302   157316   157307 
  157264   157154   157003   157158   157465   157478   157320   157235 
  157311   157399   157233   157049   157071   157065   157022   157033 
  157021   157099   157230   157100   156872   157134   157742   157909 
  157588   157266   156999   156844   157002   157214   157218   157252 
  157407   157435   157192   156837   156737   156992   157300   157518 
  157682   157617   157383   157407   157534   157341   157146   157219 
  157268   157203   157046   156847   156832   156988   157199   157373 
  157374   157400   157578   157576   157330   157239   157441   157499 
  157219   157075   157180   157142   156948   156793   156882   157280 
  157470   157235   157177   157451   157527   157364   157303   157248 
  157086   157079   157235   157215   156996   156933   157129   157238 
  157172   157330   157605   157449   157111   157110   157265   157411 
  157555   157549   157304   156932   156784   156990   157229   157292 
  157189   157150   157326   157447   157395   157345   157410   157515 
