Origin Time       2024/06/23 22:54:00
Lat.              35.645
Long.             140.060
Depth. (km)       72
Mag.              4.1
Station Code      CHBH06
Station Lat.      35.7215
Station Long.     140.5046
Station Height(m) -145
Record Time       2024/06/23 22:54:37
Sampling Freq(Hz) 100Hz
Duration Time(s)  120
Dir.              1
Scale Factor      3923(gal)/8224838
Max. Acc. (gal)   0.677
Last Correction   2024/06/23 22:54:37
Memo.             
[...]
   -1028    -1036    -1024    -1011    -1021    -1039    -1035    -1021 
   -1016    -1019    -1016    -1020    -1039    -1046    -1019     -981 
    -980    -1009    -1017    -1009    -1023    -1030     -992     -970 
   -1001    -1032    -1042    -1053    -1059    -1051    -1038    -1017 
   -1004    -1026    -1054    -1058    -1066    -1086    -1061     -978 
    -911     -897     -927    -1011    -1112    -1116    -1005     -900 
    -886     -950    -1054    -1159    -1204    -1148    -1034     -932 
    -916    -1000    -1085    -1071    -1003     -958     -940     -947 
    -990    -1023     -986     -935     -978    -1101    -1188    -1165 
   -1053     -942     -943    -1070    -1179    -1135     -978     -855 
    -799     -811     -955    -1119    -1088     -936     -916    -1057 
   -1202    -1259    -1221    -1135    -1086    -1078    -1036     -965 
    -935     -954     -980     -985     -957     -936     -963    -1007 
   -1046    -1082    -1084    -1034     -992    -1009    -1058    -1085 
   -1075    -1028     -973     -993    -1093    -1143    -1062     -947 
    -938    -1020    -1112    -1174    -1132     -959     -812     -823 
    -949    -1090    -1165    -1121    -1038    -1071    -1194    -1155 
    -904     -714     -768    -1003    -1255    -1320    -1142     -892 
    -711     -658     -808    -1069    -1166    -1090    -1138    -1333 
   -1367    -1155     -905     -738     -633     -618     -764     -985 
   -1109    -1125    -1146    -1183    -1217    -1310    -1410    -1343 
   -1125     -970     -936     -918     -859     -800     -756     -745 
    -826     -967    -1067    -1101    -1100    -1063     -999     -984 
   -1084    -1210    -1243    -1185    -1107    -1108    -1231    -1308 
   -1155     -903     -738     -642     -689     -974    -1237    -1232 
   -1104     -972     -774     -630     -726     -954    -1085    -1085 
   -1078    -1146    -1259    -1345    -1340    -1205     -999     -862 
    -876     -947     -934     -834     -747     -743     -835     -989 
   -1144    -1216    -1148    -1048    -1085    -1188    -1148    -1003 
    -943     -980    -1005    -1032    -1085    -1074     -965     -880 
    -897     -955    -1031    -1163    -1248    -1175    -1040     -963 
    -926     -872     -781     -699     -757    -1012    -1325    -1506 
   -1489    -1318    -1146    -1147    -1279    -1251     -922     -556 
    -449     -581     -822    -1062    -1123     -989     -905    -1003 
   -1146    -1173    -1063     -946     -954    -1065    -1134    -1117 
   -1113    -1167    -1220    -1192    -1030     -864     -897    -1038 
   -1061    -1009     -969     -891     -884    -1070    -1217    -1117 
    -955     -849     -685     -612     -870    -1232    -1345    -1263 
   -1189    -1158    -1123    -1031     -870     -746     -738     -770 
    -828    -1021    -1287    -1402    -1331    -1188    -1024     -897 
    -904    -1015    -1078    -1028     -943     -961    -1104    -1194 
   -1136    -1071    -1008     -841     -762     -949    -1112    -1057 
   -1015    -1089    -1128    -1123    -1134    -1097     -980     -823 
    -673     -652     -893    -1244    -1382    -1260    -1101    -1047 
   -1066    -1073    -1053    -1048    -1004     -849     -762     -947 
   -1206    -1189     -985     -922     -989    -1028    -1051    -1053 
    -985     -981    -1117    -1193    -1117    -1074    -1096    -1035 
    -932     -884     -845     -849     -972    -1088    -1093    -1123 
   -1220    -1217    -1088     -972     -912     -897     -985    -1119 
   -1134    -1036     -963     -943     -940     -958     -992    -1007 
    -940     -845     -931    -1175    -1237    -1028     -816     -768 
    -880    -1102    -1309    -1362    -1243    -1054     -915     -903 
    -996    -1065    -1034     -978     -982    -1028    -1048    -1019 
    -945     -865     -874     -984    -1057    -1000     -931    -1007 
   -1166    -1200    -1082    -1040    -1170    -1244    -1077     -835 
    -757     -862    -1098    -1350    -1397    -1212     -996     -841 
    -799     -962    -1147    -1073     -904     -923     -986     -935 
    -892     -831     -684     -708     -951    -1051    -1026    -1186 
   -1345    -1225    -1089    -1101    -1011     -839     -899    -1104 
   -1151    -1059     -942     -796     -753     -972    -1262    -1285 
   -1075     -922     -870     -820     -850     -999    -1092    -1104 
   -1201    -1304    -1201     -981     -865     -869     -923    -1008 
   -1062    -1048    -1085    -1273    -1491    -1453    -1062     -629 
    -525     -750    -1071    -1335    -1425    -1259     -945     -666 
    -545     -707    -1113    -1350    -1162     -963    -1104    -1178 
    -869     -639     -814    -1004    -1011    -1077    -1123     -943 
    -805     -868     -868     -853    -1077    -1314    -1320    -1300 
   -1316    -1177     -993     -951     -912     -826     -865    -1001 
   -1046     -958     -820     -788     -957    -1117    -1050     -904 
    -878     -915     -970    -1104    -1250    -1279    -1197    -1053 
    -897     -861     -959    -1015     -982     -986    -1040    -1101 
   -1179    -1192    -1048     -928    -1012    -1127    -1086    -1036 
   -1121    -1188    -1082     -926     -878     -946    -1096    -1262 
   -1305    -1202    -1043     -877     -776     -870    -1123    -1263 
   -1107     -810     -724     -938    -1096     -976     -799     -784 
    -886    -1042    -1232    -1335    -1236    -1051     -958     -981 
   -1065    -1148    -1190    -1224    -1252    -1159     -939     -750 
    -675     -710     -865    -1027    -1031     -891     -737     -700 
    -893    -1224    -1371    -1239    -1115    -1185    -1320    -1343 
   -1228    -1051     -905     -820     -753     -733     -872    -1078 
   -1074     -874     -768     -824     -920    -1058    -1221    -1255 
   -1198    -1239    -1254    -1084     -965    -1031    -1047     -984 
   -1042    -1201    -1294    -1190     -865     -623     -773    -1061 
   -1108    -1023    -1001     -972     -970    -1102    -1208    -1119 
    -954     -866     -880     -955     -967     -835     -666     -596 
    -689     -954    -1225    -1277    -1143    -1059    -1155    -1320 
   -1351    -1220    -1123    -1161    -1196    -1146    -1098    -1102 
   -1138    -1200    -1221    -1100     -881     -711     -673     -772 
    -923     -985     -946     -932    -1009    -1123    -1161    -1046 
    -872     -820     -896     -966    -1004    -1021     -994     -993 
   -1047    -1043     -965     -911     -913     -977    -1081    -1169 
   -1223    -1231    -1147    -1009     -924     -905     -950    -1067 
   -1174    -1193    -1147    -1015     -812     -712     -780     -920 
   -1119    -1314    -1297    -1107    -1035    -1111    -1161    -1155 
   -1080     -928     -812     -769     -757     -862    -1066    -1129 
   -1048    -1032    -1032     -976    -1027    -1154    -1117     -966 
    -857     -784     -795     -974    -1197    -1329    -1359    -1279 
   -1134    -1030     -966     -927    -1021    -1177    -1116     -889 
    -850    -1047    -1233    -1255    -1117     -946     -857     -769 
    -639     -695     -994    -1174    -1053     -918     -940     -963 
    -924     -927    -1015    -1173    -1293    -1196     -966     -870 
    -899     -936    -1061    -1237    -1243    -1113    -1088    -1104 
   -1028    -1003    -1062    -1034     -969    -1031    -1134    -1175 
   -1179    -1070     -816     -619     -603     -679     -815    -1028 
   -1215    -1273    -1209    -1102    -1019    -1004    -1073    -1156 
   -1155    -1081    -1020     -949     -803     -749     -967    -1231 
   -1252    -1177    -1183    -1158    -1098    -1155    -1219    -1107 
    -918     -799     -724     -691     -765     -903     -984     -988 
    -989    -1038    -1144    -1301    -1390    -1270    -1027     -888 
    -855     -750     -603     -626     -810     -951    -1032    -1186 
   -1343    -1317    -1177    -1124    -1162    -1242    -1402    -1525 
   -1458    -1308    -1193    -1038     -923     -993    -1086    -1062 
   -1086    -1205    -1216    -1094    -1019     -997     -935     -911 
    -988    -1012     -926     -903     -978    -1003     -976     -962 
    -908     -819     -799     -797     -710     -633     -661     -662 
    -568     -562     -766    -1046    -1229    -1348    -1470    -1498 
   -1371    -1246    -1197    -1101     -955     -868     -824     -843 
   -1032    -1264    -1267    -1078     -982    -1077    -1216    -1282 
   -1215     -986     -711     -588     -615     -630     -595     -554 
    -488     -452     -606     -942    -1254    -1368    -1275    -1105 
   -1047    -1182    -1386    -1478    -1425    -1328    -1248    -1204 
   -1196    -1217    -1297    -1414    -1456    -1393    -1331    -1327 
   -1271    -1096     -911     -838     -799     -687     -592     -660 
    -845     -962     -909     -777     -741     -814     -854     -843 
    -888     -961     -988    -1046    -1205    -1377    -1499    -1551 
   -1390    -1009     -658     -481     -421     -459     -594     -741 
    -832     -904     -990    -1053    -1039     -943     -849     -905 
   -1171    -1495    -1647    -1567    -1426    -1372    -1325    -1152 
    -927     -778     -693     -637     -618     -572     -488     -511 
    -676     -819     -854     -800     -672     -585     -699     -920 
   -1058    -1112    -1181    -1290    -1398    -1429    -1363    -1269 
   -1220    -1273    -1480    -1705    -1665    -1366    -1089     -977 
   -1007    -1146    -1275    -1264    -1169    -1109    -1031     -862 
    -718     -695     -689     -634     -623     -714     -837     -920 
    -953     -965    -1048    -1246    -1414    -1367    -1131     -873 
    -664     -511     -491     -623     -824    -1016    -1140    -1183 
   -1274    -1532    -1821    -1907    -1779    -1576    -1332    -1047 
    -826     -714     -583     -357     -139      -31      -66     -245 
    -480     -621     -685     -872    -1219    -1491    -1549    -1548 
   -1617    -1667    -1610    -1544    -1556    -1541    -1412    -1228 
   -1003     -702     -446     -378     -471     -692    -1043    -1336 
   -1345    -1135     -916     -766     -716     -820    -1031    -1229 
   -1390    -1478    -1350    -1003     -652     -475     -527     -814 
   -1208    -1467    -1472    -1340    -1236    -1202    -1174    -1094 
   -1007     -942     -877     -796     -664     -475     -378     -480 
    -657     -842    -1121    -1412    -1557    -1642    -1775    -1873 
   -1914    -1952    -1927    -1760    -1451     -961     -348       90 
     166       22     -172     -421     -700     -951    -1192    -1453 
   -1649    -1628    -1416    -1219    -1123    -1085    -1107    -1159 
   -1128     -967     -726     -492     -415     -529     -634     -637 
    -688     -870    -1112    -1362    -1551    -1583    -1495    -1424 
   -1418    -1436    -1422    -1350    -1197     -924     -527     -171 
     -48     -128     -270     -484     -804    -1096    -1181    -1044 
    -837     -708     -718     -857    -1085    -1325    -1497    -1556 
   -1524    -1474    -1435    -1336    -1163    -1061    -1136    -1291 
   -1410    -1471    -1475    -1451    -1431    -1356    -1183     -974 
    -791     -641     -525     -415     -302     -260     -307     -384 
    -540     -791     -946     -915     -913    -1100    -1359    -1570 
   -1734    -1836    -1796    -1530    -1078     -688     -552     -589 
    -673     -843    -1101    -1286    -1344    -1395    -1445    -1412 
   -1364    -1422    -1532    -1584    -1568    -1443    -1089     -568 
    -178      -51       -9       49       17     -152     -357     -515 
    -664     -889    -1150    -1310    -1360    -1412    -1510    -1587 
   -1598    -1584    -1579    -1541    -1441    -1321    -1242    -1139 
    -885     -549     -329     -278     -351     -504     -602     -529 
    -398     -421     -653    -1032    -1441    -1668    -1632    -1566 
   -1655    -1753    -1692    -1509    -1296    -1142    -1124    -1204 
   -1285    -1340    -1348    -1231    -1003     -791     -645     -527 
    -459     -463     -487     -460     -419     -479     -700    -1040 
   -1339    -1462    -1476    -1525    -1594    -1618    -1606    -1553 
   -1464    -1359    -1202     -957     -679     -446     -298     -275 
    -440     -764    -1135    -1437    -1588    -1572    -1435    -1197 
    -932     -835     -949    -1030     -905     -702     -557     -494 
    -530     -660     -781     -816     -778     -796    -1021    -1409 
   -1756    -1977    -2100    -2115    -2039    -1914    -1703    -1378 
   -1032     -746     -513     -341     -272     -306     -369     -371 
    -279     -135      -32      -60     -251     -508     -695     -762 
    -812     -981    -1317    -1721    -1975    -1895    -1572    -1348 
   -1410    -1556    -1525    -1336    -1123     -953     -872     -878 
    -884     -832     -781     -756     -726     -687     -679     -747 
    -897    -1085    -1267    -1410    -1479    -1470    -1399    -1297 
   -1183    -1034     -816     -646     -693     -954    -1216    -1281 
   -1148     -967     -872     -859     -868     -922    -1034    -1125 
   -1252    -1557    -1926    -2101    -1991    -1633    -1140     -741 
    -598     -606     -627     -675     -683     -513     -307     -313 
    -471     -635     -858    -1175    -1482    -1715    -1896    -1976 
   -1850    -1456     -842     -190      261      398      256      -52 
    -410     -757    -1058    -1248    -1327    -1377    -1412    -1317 
   -1078     -870     -807     -812     -854     -953    -1032    -1061 
   -1161    -1350    -1467    -1462    -1412    -1350    -1279    -1235 
   -1239    -1242    -1128     -850     -533     -328     -245     -238 
    -341     -554     -781     -945    -1042    -1117    -1247    -1458 
   -1668    -1795    -1840    -1823    -1737    -1579    -1374    -1146 
    -901     -683     -579     -614     -719     -828     -924    -1024 
   -1151    -1313    -1453    -1485    -1420    -1345    -1275    -1181 
   -1070     -945     -800     -657     -546     -486     -473     -517 
    -633     -834    -1086    -1283    -1314    -1166     -928     -719 
    -614     -639     -789     -973    -1066    -1044     -978     -931 
    -919     -950    -1061    -1239    -1399    -1479    -1476    -1412 
   -1359    -1378    -1432    -1468    -1432    -1254     -958     -688 
    -535     -483     -526     -634     -685     -618     -517     -503 
    -635     -896    -1151    -1255    -1258    -1320    -1443    -1486 
   -1417    -1318    -1228    -1127    -1027     -974    -1021    -1131 
   -1152    -1026     -897     -899     -972    -1003     -992    -1013 
   -1082    -1093     -980     -857     -870     -989    -1086    -1128 
   -1151    -1171    -1166    -1097     -984     -923     -962    -1020 
   -1015     -974     -947     -916     -881     -901     -978    -1059 
   -1124    -1121    -1035     -989    -1028    -1017     -949     -969 
   -1077    -1165    -1244    -1308    -1252    -1139    -1123    -1186 
   -1229    -1237    -1200    -1090     -994     -978     -942     -816 
    -683     -595     -534     -523     -587     -683     -741     -710 
    -610     -550     -618     -783     -959    -1096    -1167    -1188 
   -1229    -1348    -1510    -1651    -1736    -1744    -1665    -1541 
   -1422    -1306    -1161    -1013     -935     -930     -931     -892 
    -854     -893     -988    -1035    -1038    -1054    -1042     -959 
    -838     -734     -697     -729     -765     -810     -926    -1084 
   -1189    -1250    -1297    -1251    -1051     -784     -561     -427 
    -396     -464     -602     -754     -880     -999    -1159    -1328 
   -1405    -1360    -1283    -1247    -1237    -1229    -1215    -1190 
   -1136    -1009     -822     -662     -592     -567     -538     -546 
    -625     -730     -851    -1021    -1213    -1331    -1354    -1395 
   -1513    -1593    -1571    -1553    -1594    -1586    -1468    -1306 
   -1115     -892     -735     -679     -639     -634     -733     -862 
    -949    -1024    -1066    -1013     -935     -908     -885     -873 
    -984    -1150    -1209    -1216    -1235    -1162    -1021     -982 
    -992     -904     -810     -831     -888     -927    -1004    -1069 
   -1019     -896     -803     -731     -652     -614     -642     -684 
    -720     -789     -908    -1096    -1358    -1610    -1759    -1822 
   -1792    -1584    -1266    -1027     -876     -704     -560     -529 
    -545     -546     -583     -657     -762     -980    -1271    -1472 
   -1568    -1582    -1420    -1131     -961     -946     -893     -785 
    -731     -715     -685     -688     -741     -799     -874     -977 
   -1047    -1084    -1193    -1398    -1611    -1786    -1908    -1910 
   -1768    -1595    -1466    -1339    -1212    -1121    -1008     -830 
    -654     -525     -430     -427     -531     -652     -749     -861 
    -982    -1077    -1162    -1258    -1317    -1291    -1210    -1140 
   -1121    -1112    -1004     -765     -527     -419     -413     -465 
    -621     -869    -1112    -1269    -1310    -1267    -1210    -1181 
   -1154    -1129    -1125    -1104    -1046    -1031    -1063    -1051 
    -999     -980     -990     -976     -918     -820     -684     -569 
    -535     -569     -660     -819    -1017    -1224    -1414    -1532 
   -1537    -1462    -1345    -1215    -1102    -1050    -1059    -1077 
   -1053     -996     -950     -928     -913     -923     -967    -1026 
   -1098    -1170    -1174    -1124    -1096    -1084    -1050    -1008 
    -986     -990    -1021    -1080    -1139    -1169    -1174    -1179 
   -1192    -1206    -1221    -1232    -1227    -1175    -1070     -963 
    -903     -865     -849     -916    -1059    -1154    -1144    -1112 
   -1051     -904     -751     -699     -660     -537     -437     -476 
    -556     -569     -588     -683     -801     -892     -969    -1058 
   -1166    -1252    -1285    -1304    -1350    -1377    -1360    -1368 
   -1431    -1486    -1509    -1502    -1429    -1291    -1158    -1062 
   -1000     -954     -885     -796     -729     -683     -626     -576 
    -585     -662     -762     -832     -857     -857     -835     -787 
    -746     -774     -857     -931    -1009    -1119    -1197    -1217 
   -1242    -1312    -1451    -1655    -1821    -1850    -1792    -1717 
   -1593    -1422    -1277    -1163    -1028     -868     -729     -653 
    -619     -533     -363     -206     -155     -187     -268     -419 
    -637     -869    -1075    -1250    -1389    -1468    -1489    -1464 
   -1406    -1355    -1355    -1364    -1301    -1178    -1080    -1000 
    -904     -841     -841     -865     -913    -1019    -1152    -1262 
   -1351    -1410    -1394    -1313    -1208    -1101    -1005     -927 
    -842     -734     -631     -575     -573     -599     -602     -573 
    -577     -668     -800     -897     -935     -951     -994    -1082 
   -1174    -1228    -1248    -1258    -1255    -1236    -1242    -1285 
   -1312    -1313    -1337    -1355    -1301    -1200    -1086     -943 
    -803     -737     -751     -811     -892     -949     -951     -970 
   -1066    -1177    -1237    -1262    -1256    -1216    -1156    -1093 
