Origin Time       2024/06/23 22:54:00
Lat.              35.645
Long.             140.060
Depth. (km)       72
Mag.              4.1
Station Code      CHBH11
Station Lat.      35.2867
Station Long.     140.1529
Station Height(m) -1920
Record Time       2024/06/23 22:54:36
Sampling Freq(Hz) 100Hz
Duration Time(s)  120
Dir.              2
Scale Factor      2942(gal)/8224139
Max. Acc. (gal)   0.822
Last Correction   2024/06/23 22:54:36
Memo.             
[...]
   38585    38589    38589    38588    38587    38587    38588    38588 
   38588    38591    38589    38585    38585    38589    38591    38589 
   38587    38587    38588    38589    38589    38589    38587    38587 
   38588    38587    38587    38591    38589    38587    38587    38588 
   38588    38588    38588    38588    38587    38587    38588    38588 
   38587    38587    38588    38589    38588    38587    38588    38589 
   38587    38584    38588    38591    38589    38585    38587    38589 
   38588    38585    38587    38587    38584    38585    38587    38587 
   38587    38588    38589    38588    38585    38587    38588    38587 
   38584    38587    38588    38587    38588    38588    38588    38587 
   38588    38591    38588    38587    38588    38587    38588    38589 
   38587    38584    38587    38588    38588    38588    38588    38587 
   38587    38588    38588    38588    38588    38587    38587    38591 
   38591    38588    38588    38587    38588    38588    38587    38587 
   38588    38589    38589    38589    38588    38588    38587    38587 
   38587    38587    38587    38587    38587    38588    38588    38585 
   38584    38587    38588    38587    38587    38587    38585    38591 
   38589    38585    38587    38588    38587    38587    38585    38585 
   38587    38587    38585    38585    38588    38589    38587    38587 
   38588    38589    38588    38587    38588    38588    38587    38588 
   38589    38591    38588    38585    38587    38588    38588    38587 
   38585    38587    38588    38585    38584    38587    38587    38587 
   38591    38589    38585    38584    38587    38589    38588    38584 
   38583    38585    38587    38584    38584    38585    38587    38588 
   38591    38585    38583    38587    38587    38588    38589    38587 
   38584    38588    38591    38588    38585    38587    38587    38585 
   38587    38588    38587    38585    38585    38587    38585    38588 
   38591    38587    38584    38588    38589    38588    38588    38585 
   38587    38587    38587    38587    38588    38588    38587    38587 
   38587    38585    38584    38587    38587    38585    38584    38587 
   38587    38585    38587    38589    38588    38585    38588    38588 
   38587    38585    38587    38587    38587    38588    38587    38585 
   38587    38588    38587    38585    38587    38588    38587    38585 
   38584    38585    38588    38584    38584    38588    38588    38587 
   38587    38585    38585    38588    38587    38587    38588    38587 
   38587    38587    38585    38587    38585    38584    38587    38588 
   38585    38583    38585    38587    38585    38585    38587    38589 
   38589    38584    38584    38588    38587    38585    38587    38587 
   38585    38587    38587    38587    38585    38587    38588    38585 
   38584    38587    38587    38585    38588    38588    38587    38587 
   38588    38587    38584    38585    38585    38583    38585    38589 
   38588    38587    38587    38587    38588    38591    38589    38585 
   38585    38587    38585    38584    38587    38589    38589    38587 
   38587    38588    38587    38587    38587    38587    38585    38585 
   38585    38587    38587    38587    38587    38588    38585    38584 
   38585    38587    38587    38588    38588    38585    38587    38589 
   38588    38588    38588    38588    38589    38588    38585    38584 
   38587    38589    38587    38585    38588    38588    38587    38587 
   38587    38588    38588    38588    38588    38588    38585    38585 
   38589    38589    38587    38587    38587    38587    38588    38587 
   38588    38588    38587    38589    38589    38585    38585    38588 
   38589    38587    38585    38588    38588    38587    38587    38589 
   38587    38584    38585    38589    38589    38588    38587    38585 
   38588    38588    38587    38588    38588    38588    38588    38588 
   38588    38588    38587    38587    38587    38585    38587    38589 
   38589    38585    38585    38588    38589    38588    38587    38588 
   38587    38584    38587    38589    38589    38589    38589    38587 
   38587    38588    38587    38585    38587    38588    38587    38587 
   38587    38588    38589    38588    38587    38588    38588    38588 
   38587    38585    38587    38587    38587    38585    38587    38589 
   38587    38584    38587    38589    38588    38585    38587    38588 
   38585    38587    38588    38585    38585    38588    38588    38587 
   38587    38585    38585    38588    38588    38585    38585    38588 
   38588    38587    38589    38589    38585    38585    38589    38589 
   38588    38587    38588    38589    38588    38587    38587    38587 
   38587    38587    38589    38591    38589    38588    38588    38587 
   38588    38589    38588    38587    38588    38588    38588    38588 
   38585    38584    38587    38588    38587    38587    38587    38587 
   38587    38587    38588    38588    38588    38587    38588    38589 
   38587    38587    38589    38589    38589    38588    38584    38583 
   38583    38580    38577    38577    38583    38589    38595    38596 
   38597    38597    38595    38591    38591    38588    38580    38573 
   38568    38564    38566    38574    38584    38595    38599    38592 
   38589    38593    38591    38578    38572    38577    38578    38578 
   38580    38584    38619    38673    38695    38666    38631    38600 
   38514    38415    38446    38560    38624    38643    38605    38534 
   38526    38587    38654    38670    38643    38607    38543    38546 
   38626    38614    38543    38488    38473    38546    38608    38646 
   38711    38735    38673    38539    38493    38569    38576    38574 
   38612    38560    38545    38635    38672    38699    38713    38576 
   38404    38402    38516    38550    38516    38569    38608    38547 
   38576    38712    38708    38566    38508    38520    38508    38526 
   38566    38610    38651    38653    38641    38635    38657    38647 
   38527    38460    38524    38574    38591    38587    38545    38518 
   38584    38711    38680    38527    38576    38749    38753    38624 
   38500    38435    38443    38441    38475    38650    38777    38678 
   38542    38549    38620    38650    38653    38682    38712    38696 
   38604    38461    38406    38493    38597    38638    38647    38601 
   38472    38425    38564    38709    38723    38638    38491    38352 
   38383    38605    38774    38720    38627    38662    38703    38639 
   38551    38560    38635    38637    38542    38466    38427    38376 
   38376    38551    38781    38804    38680    38623    38611    38573 
   38570    38622    38637    38588    38562    38557    38484    38410 
   38469    38623    38754    38782    38669    38504    38434    38500 
   38614    38669    38688    38672    38549    38443    38515    38638 
   38662    38641    38599    38523    38500    38564    38619    38624 
   38632    38697    38792    38817    38723    38554    38394    38314 
   38350    38461    38595    38720    38763    38697    38614    38561 
   38534    38516    38481    38497    38556    38464    38321    38427 
   38715    38907    38901    38745    38551    38469    38562    38703 
   38743    38715    38659    38542    38412    38371    38438    38558 
   38681    38723    38604    38403    38276    38299    38489    38776 
   38959    38952    38843    38661    38449    38388    38484    38551 
   38578    38645    38696    38642    38491    38344    38325    38445 
   38638    38789    38750    38614    38581    38587    38553    38588 
   38707    38769    38692    38622    38646    38574    38414    38375 
   38461    38558    38610    38584    38526    38538    38631    38720 
   38781    38803    38688    38468    38360    38479    38631    38614 
   38558    38601    38664    38707    38743    38753    38693    38553 
   38412    38353    38381    38518    38678    38722    38695    38649 
   38533    38449    38472    38504    38512    38503    38487    38472 
   38461    38534    38680    38788    38817    38739    38614    38558 
   38516    38472    38529    38634    38655    38573    38495    38520 
   38600    38643    38611    38545    38562    38662    38689    38600 
   38545    38603    38709    38769    38734    38622    38465    38364 
   38418    38529    38589    38630    38634    38570    38497    38477 
   38522    38595    38635    38647    38631    38535    38454    38545 
   38719    38851    38923    38867    38709    38565    38460    38434 
   38502    38541    38489    38439    38449    38484    38499    38550 
   38713    38828    38724    38573    38539    38538    38554    38650 
   38726    38665    38553    38499    38469    38396    38322    38381 
   38570    38689    38658    38605    38574    38551    38608    38711 
   38753    38759    38781    38753    38624    38500    38504    38551 
   38543    38569    38593    38531    38477    38468    38465    38502 
   38568    38604    38595    38554    38535    38603    38715    38751 
   38670    38547    38461    38452    38543    38658    38719    38769 
   38761    38632    38523    38489    38442    38461    38596    38692 
   38685    38658    38627    38558    38531    38658    38781    38700 
   38530    38460    38466    38499    38566    38604    38541    38411 
   38335    38381    38473    38572    38724    38877    38905    38794 
   38618    38453    38384    38437    38549    38677    38785    38788 
   38670    38514    38419    38468    38592    38653    38596    38461 
   38422    38533    38560    38485    38518    38612    38659    38650 
   38554    38453    38470    38565    38635    38677    38776    38855 
   38749    38568    38516    38574    38646    38653    38580    38529 
   38526    38547    38616    38677    38705    38731    38654    38483 
   38437    38580    38743    38765    38604    38406    38318    38315 
   38361    38519    38749    38819    38642    38468    38453    38448 
   38345    38264    38371    38647    38888    38954    38932    38882 
   38746    38588    38529    38533    38518    38487    38456    38464 
   38522    38558    38561    38524    38454    38534    38770    38848 
   38767    38767    38801    38755    38612    38414    38345    38394 
   38377    38384    38539    38745    38838    38745    38608    38578 
   38632    38723    38763    38619    38334    38167    38242    38415 
   38597    38772    38782    38596    38427    38427    38574    38701 
   38693    38637    38561    38438    38387    38518    38761    38908 
   38828    38657    38580    38599    38603    38564    38541    38554 
   38589    38627    38649    38651    38603    38475    38381    38430 
   38500    38469    38466    38611    38762    38780    38759    38788 
   38711    38487    38427    38620    38716    38650    38666    38734 
   38728    38695    38624    38493    38365    38325    38416    38570 
   38651    38614    38541    38523    38553    38614    38682    38620 
   38422    38352    38456    38520    38547    38614    38635    38600 
   38553    38574    38747    38873    38776    38645    38604    38592 
   38607    38583    38506    38514    38578    38566    38530    38556 
   38593    38587    38595    38664    38722    38703    38599    38462 
   38418    38487    38578    38684    38762    38732    38610    38437 
   38277    38233    38283    38327    38371    38431    38529    38728 
   38912    38839    38642    38637    38754    38770    38691    38607 
   38591    38669    38796    38894    38884    38762    38668    38686 
   38682    38558    38476    38492    38398    38186    38132    38276 
   38384    38389    38449    38596    38700    38707    38670    38674 
   38738    38770    38731    38700    38662    38607    38657    38732 
   38645    38529    38523    38499    38460    38514    38564    38516 
   38395    38245    38245    38512    38816    38871    38685    38468 
   38357    38383    38554    38736    38754    38681    38649    38665 
   38751    38827    38801    38766    38750    38661    38549    38475 
   38398    38375    38473    38569    38542    38454    38416    38458 
   38543    38715    38928    38955    38763    38583    38519    38452 
   38306    38184    38175    38238    38368    38576    38761    38805 
   38735    38664    38635    38661    38739    38769    38704    38650 
   38677    38723    38703    38616    38508    38367    38279    38421 
   38716    38938    39054    39056    38877    38719    38832    39074 
   39270    39546    39915    40095    39960    39609    39083    38449 
   37883    37511    37308    37199    37211    37476    37991    38545 
   38973    39275    39387    39171    38658    38091    37756    37802 
   38064    38213    38172    38088    38017    37990    38110    38338 
   38527    38566    38372    37997    37628    37370    37328    37678 
   38369    39046    39406    39456    39301    38916    38310    37808 
   37863    38569    39529    40217    40396    40178    39849    39645 
   39556    39371    38973    38469    37980    37544    37262    37228 
   37423    37829    38257    38286    37825    37419    37628    38412 
   39266    39889    40296    40459    40328    39957    39429    38915 
   38673    38767    38917    38857    38731    38751    38732    38439 
   37943    37473    37318    37621    38103    38288    38026    37551 
   37039    36563    36363    36587    37077    37710    38502    39415 
   40305    40883    40860    40207    39282    38659    38622    38928 
   39124    38897    38325    37886    37959    38379    38743    38990 
   39359    39961    40487    40401    39661    38882    38479    38330 
   38260    38234    38192    38030    37821    37835    38065    38203 
   38165    38159    38392    38877    39244    39085    38518    38020 
   37762    37498    37111    36882    37110    37804    38724    39553 
   40084    40267    40061    39436    38661    38227    38310    38628 
   38909    39047    38885    38337    37652    37239    37327    37875 
   38577    39085    39360    39586    39798    39879    39671    39120 
   38479    38086    37960    37943    37989    38152    38425    38680 
   38820    38917    39050    39116    38973    38666    38352    38133 
   38106    38325    38670    38958    39062    38928    38570    38078 
   37638    37513    37822    38335    38720    38904    39042    39181 
   39109    38704    38230    38005    38036    38156    38209    38140 
   38048    38071    38223    38457    38780    39199    39544    39613 
   39459    39243    38967    38631    38368    38277    38389    38682 
   38986    39098    39000    38772    38510    38381    38461    38627 
   38816    39021    39069    38813    38392    38064    38003    38252 
   38664    38925    38889    38682    38470    38373    38434    38516 
   38435    38202    37995    37902    37920    38070    38299    38502 
   38653    38823    39081    39368    39579    39687    39636    39360 
   38929    38421    37895    37507    37397    37602    38055    38545 
   38835    38861    38746    38689    38782    38936    38988    38932 
   38948    39091    39205    39186    38993    38558    37939    37343 
   36971    36925    37181    37623    38099    38443    38662    38934 
   39244    39388    39313    39154    39000    38805    38558    38381 
   38387    38572    38819    38974    38977    38911    38854    38781 
   38681    38592    38542    38593    38745    38870    38942    38928 
   38680    38248    37986    38060    38260    38371    38380    38372 
   38476    38763    39101    39285    39240    39050    38824    38620 
   38454    38323    38218    38151    38119    38141    38242    38383 
   38491    38539    38556    38584    38632    38685    38739    38788 
   38840    38890    38875    38772    38638    38568    38624    38739 
   38792    38757    38634    38446    38281    38206    38242    38317 
   38277    38180    38195    38277    38376    38603    38965    39310 
   39511    39483    39204    38750    38292    38043    38078    38279 
   38475    38566    38557    38477    38341    38203    38151    38214 
   38392    38669    38924    38988    38865    38724    38695    38754 
   38769    38662    38507    38412    38407    38481    38650    38859 
   38952    38902    38821    38750    38700    38697    38713    38661 
   38506    38349    38284    38254    38244    38334    38508    38658 
   38740    38776    38785    38796    38820    38831    38821    38782 
   38680    38561    38487    38388    38302    38402    38659    38908 
   39085    39191    39204    39097    38904    38624    38249    37943 
   37839    37810    37787    37917    38238    38566    38792    38970 
   39106    39164    39158    39097    38981    38850    38712    38518 
   38241    37948    37729    37638    37721    37995    38350    38612 
   38708    38709    38712    38727    38745    38790    38862    38919 
   38950    38944    38820    38526    38156    37863    37735    37791 
   37949    38070    38161    38290    38372    38340    38275    38271 
   38340    38479    38715    39062    39398    39552    39505    39376 
   39248    39132    39035    38979    38967    38940    38873    38805 
   38755    38677    38554    38431    38338    38253    38126    37926 
   37678    37489    37509    37764    38095    38414    38762    39087 
   39309    39475    39611    39633    39465    39160    38877    38705 
   38585    38485    38470    38551    38661    38750    38816    38882 
   38939    38909    38739    38500    38296    38146    38016    37906 
   37843    37793    37752    37798    37968    38171    38319    38439 
   38545    38557    38541    38673    38947    39205    39347    39372 
   39314    39195    39100    39114    39185    39181    39042    38789 
   38506    38241    37989    37812    37829    38020    38246    38418 
   38477    38461    38469    38506    38508    38483    38465    38453 
   38425    38403    38429    38496    38527    38466    38364    38314 
   38358    38460    38515    38485    38431    38422    38480    38574 
   38651    38695    38718    38734    38724    38681    38684    38812 
   39010    39189    39334    39401    39275    39000    38774    38680 
   38627    38569    38526    38523    38599    38707    38754    38739 
   38681    38518    38238    37982    37886    37935    38067    38244 
   38398    38483    38535    38616    38765    38917    38969    38889 
   38757    38707    38792    38938    39046    39027    38836    38549 
   38275    38052    37906    37868    37966    38202    38492    38688 
   38722    38641    38553    38537    38588    38670    38770    38862 
   38882    38776    38581    38439    38402    38327    38137    37979 
   38013    38227    38545    38924    39310    39604    39727    39683 
   39530    39340    39135    38896    38666    38512    38387    38199 
   37964    37779    37719    37816    38074    38414    38707    38862 
   38881    38835    38781    38728    38649    38522    38407    38399 
   38504    38647    38742    38713    38581    38477    38503    38634 
   38742    38750    38727    38747    38773    38778    38827    38948 
   39012    38889    38615    38275    37937    37705    37681    37866 
   38129    38325    38429    38502    38558    38560    38531    38569 
