Origin Time       2024/06/23 22:54:00
Lat.              35.645
Long.             140.060
Depth. (km)       72
Mag.              4.1
Station Code      CHBH10
Station Lat.      35.5458
Station Long.     140.2417
Station Height(m) -1935
Record Time       2024/06/23 22:54:35
Sampling Freq(Hz) 100Hz
Duration Time(s)  120
Dir.              1
Scale Factor      2942(gal)/8224139
Max. Acc. (gal)   1.611
Last Correction   2024/06/23 22:54:35
Memo.             
[...]
  135398   135400   135402   135399   135399   135402   135402   135400 
  135399   135399   135400   135400   135399   135399   135400   135400 
  135403   135402   135400   135400   135399   135400   135399   135399 
  135402   135405   135405   135402   135400   135402   135402   135403 
  135402   135398   135399   135400   135399   135400   135402   135400 
  135399   135400   135400   135400   135399   135399   135400   135402 
  135400   135402   135402   135399   135400   135402   135399   135400 
  135402   135402   135402   135400   135396   135396   135396   135396 
  135399   135402   135403   135402   135402   135402   135402   135402 
  135400   135402   135402   135402   135400   135399   135400   135402 
  135399   135399   135402   135402   135400   135399   135399   135399 
  135402   135403   135400   135398   135400   135400   135399   135399 
  135396   135396   135399   135402   135402   135400   135396   135396 
  135399   135400   135403   135402   135399   135400   135400   135398 
  135399   135400   135398   135395   135400   135405   135402   135398 
  135399   135402   135400   135400   135402   135399   135398   135398 
  135399   135400   135400   135400   135398   135396   135399   135400 
  135400   135400   135399   135400   135402   135400   135398   135398 
  135399   135399   135403   135405   135402   135399   135399   135400 
  135400   135399   135399   135402   135402   135399   135400   135400 
  135399   135400   135402   135402   135403   135400   135399   135399 
  135399   135400   135403   135400   135402   135403   135400   135399 
  135399   135399   135400   135402   135402   135402   135399   135399 
  135399   135400   135402   135402   135399   135399   135399   135400 
  135398   135398   135400   135403   135402   135399   135399   135399 
  135400   135402   135400   135399   135399   135399   135399   135402 
  135400   135395   135392   135395   135399   135398   135396   135398 
  135399   135400   135400   135400   135400   135399   135400   135402 
  135402   135400   135399   135400   135399   135399   135400   135399 
  135396   135398   135400   135399   135398   135398   135399   135399 
  135400   135402   135403   135400   135399   135399   135400   135400 
  135399   135400   135402   135400   135399   135398   135396   135400 
  135403   135403   135400   135400   135398   135398   135403   135405 
  135400   135402   135403   135399   135399   135400   135402   135403 
  135403   135402   135402   135399   135398   135396   135398   135402 
  135402   135402   135400   135402   135403   135402   135402   135402 
  135400   135402   135402   135399   135400   135403   135400   135399 
  135403   135400   135399   135403   135403   135400   135403   135405 
  135402   135400   135403   135403   135403   135403   135405   135403 
  135402   135399   135396   135400   135405   135405   135400   135402 
  135403   135403   135403   135402   135400   135403   135403   135402 
  135406   135405   135399   135400   135400   135399   135402   135405 
  135405   135403   135403   135403   135402   135402   135402   135400 
  135400   135402   135405   135403   135402   135402   135402   135400 
  135402   135403   135400   135399   135400   135403   135403   135402 
  135400   135400   135399   135399   135400   135400   135399   135399 
  135400   135400   135400   135400   135400   135400   135399   135399 
  135402   135403   135403   135400   135400   135402   135400   135399 
  135400   135400   135399   135402   135400   135399   135399   135402 
  135400   135402   135400   135398   135396   135399   135400   135398 
  135399   135400   135400   135400   135399   135396   135398   135400 
  135400   135399   135400   135400   135400   135400   135398   135399 
  135402   135399   135396   135396   135396   135400   135402   135398 
  135402   135405   135399   135398   135399   135398   135398   135400 
  135400   135399   135399   135399   135399   135402   135399   135396 
  135398   135398   135398   135402   135402   135398   135398   135398 
  135399   135399   135399   135398   135399   135399   135399   135400 
  135400   135400   135402   135400   135398   135396   135399   135402 
  135400   135398   135398   135402   135405   135403   135402   135400 
  135400   135400   135399   135399   135402   135402   135402   135400 
  135400   135399   135399   135402   135403   135402   135402   135402 
  135399   135399   135399   135399   135400   135402   135399   135399 
  135402   135405   135402   135399   135400   135403   135400   135400 
  135405   135403   135400   135402   135402   135402   135402   135400 
  135399   135398   135399   135402   135402   135402   135400   135400 
  135400   135400   135400   135400   135399   135400   135402   135400 
  135400   135399   135400   135402   135399   135398   135399   135398 
  135398   135399   135400   135400   135398   135396   135398   135399 
  135399   135399   135396   135395   135398   135400   135399   135398 
  135399   135400   135402   135402   135402   135400   135400   135400 
  135399   135396   135398   135398   135398   135398   135399   135400 
  135399   135399   135400   135400   135400   135402   135400   135398 
  135400   135405   135400   135398   135396   135398   135400   135399 
  135398   135400   135400   135398   135400   135400   135399   135400 
  135400   135400   135402   135400   135399   135400   135402   135402 
  135403   135402   135398   135398   135402   135402   135400   135399 
  135396   135398   135400   135399   135398   135399   135399   135400 
  135402   135400   135398   135396   135398   135399   135400   135400 
  135400   135400   135402   135403   135402   135400   135399   135398 
  135398   135398   135395   135395   135400   135400   135400   135402 
  135400   135400   135402   135400   135402   135402   135400   135400 
  135402   135402   135399   135399   135400   135402   135399   135398 
  135399   135399   135400   135403   135403   135398   135398   135400 
  135400   135402   135402   135399   135403   135403   135399   135399 
  135402   135399   135398   135398   135394   135390   135390   135391 
  135394   135394   135390   135386   135387   135392   135398   135399 
  135402   135409   135409   135405   135406   135406   135411   135413 
  135391   135356   135337   135359   135405   135407   135379   135386 
  135423   135450   135449   135430   135426   135430   135414   135406 
  135440   135473   135449   135375   135305   135337   135481   135556 
  135438   135249   135191   135282   135386   135463   135487   135450 
  135448   135461   135406   135356   135314   135251   135288   135405 
  135459   135464   135423   135318   135244   135311   135515   135693 
  135691   135552   135413   135267   135125   135207   135496   135652 
  135598   135533   135479   135321   135128   135027   135135   135471 
  135625   135396   135288   135513   135676   135635   135503   135303 
  135245   135418   135556   135548   135419   135236   135189   135224 
  135264   135287   135164   135184   135567   135735   135498   135423 
  135548   135475   135224   135058   135241   135742   136050   135793 
  135233   135004   135220   135252   135010   135125   135600   135747 
  135398   135178   135418   135633   135517   135473   135630   135610 
  135414   135314   135359   135433   135430   135444   135419   135217 
  135109   135176   135248   135413   135572   135530   135398   135290 
  135283   135364   135391   135415   135571   135742   135639   135288 
  135076   135126   135322   135585   135727   135643   135491   135419 
  135325   135122   135064   135261   135477   135554   135518   135483 
  135460   135352   135297   135392   135456   135479   135510   135519 
  135545   135463   135299   135278   135229   135120   135243   135490 
  135606   135540   135360   135270   135290   135288   135368   135594 
  135652   135453   135290   135197   135194   135369   135468   135446 
  135544   135619   135422   135081   134978   135270   135626   135719 
  135612   135506   135444   135388   135364   135427   135498   135432 
  135372   135511   135633   135513   135307   135209   135226   135336 
  135437   135413   135287   135156   135157   135260   135319   135402 
  135483   135440   135429   135515   135538   135502   135477   135395 
  135325   135407   135500   135540   135572   135442   135230   135225 
  135364   135332   135136   135097   135201   135306   135554   135814 
  135749   135577   135596   135494   135160   135129   135421   135488 
  135359   135318   135278   135222   135330   135496   135510   135504 
  135599   135622   135537   135450   135361   135337   135429   135419 
  135272   135276   135477   135556   135371   135302   135491   135433 
  135109   135066   135257   135309   135449   135854   135955   135492 
  135052   135035   135141   135078   135151   135606   135900   135575 
  135153   135139   135213   135166   135326   135696   135855   135789 
  135697   135461   135141   135079   135290   135530   135600   135546 
  135583   135610   135434   135124   134929   135157   135519   135498 
  135369   135437   135453   135384   135414   135495   135529   135511 
  135421   135345   135380   135386   135261   135198   135306   135438 
  135561   135656   135595   135415   135209   135113   135201   135334 
  135488   135599   135502   135353   135318   135307   135399   135575 
  135537   135355   135288   135210   135033   135056   135403   135716 
  135792   135719   135477   135309   135414   135464   135336   135263 
  135299   135348   135380   135484   135548   135319   134986   134893 
  135094   135552   135984   135945   135595   135313   135081   135052 
  135333   135514   135514   135567   135486   135247   135245   135305 
  135118   135182   135607   135754   135595   135460   135326   135229 
  135278   135386   135426   135423   135454   135549   135591   135383 
  135149   135186   135321   135461   135575   135510   135399   135448 
  135589   135688   135761   135741   135461   135125   135067   135205 
  135375   135434   135238   135059   135078   135129   135315   135558 
  135548   135477   135519   135514   135495   135436   135237   135098 
  135228   135548   135710   135588   135461   135357   135278   135513 
  135784   135619   135414   135463   135460   135442   135446   135272 
  135167   135336   135507   135569   135604   135508   135267   135083 
  135048   135147   135291   135299   135267   135425   135542   135477 
  135557   135615   135345   135058   134937   135024   135348   135598 
  135641   135715   135815   135670   135357   135201   135174   135237 
  135477   135607   135544   135615   135670   135399   135141   135303 
  135575   135541   135402   135326   135153   135056   135217   135351 
  135275   135259   135496   135673   135606   135581   135571   135386 
  135209   135201   135422   135756   135778   135475   135360   135496 
  135441   135238   135274   135415   135373   135198   135075   135093 
  135163   135292   135506   135562   135467   135488   135483   135282 
  135241   135425   135411   135334   135481   135564   135469   135459 
  135604   135743   135652   135265   134962   135176   135548   135534 
  135423   135444   135423   135472   135486   135198   134955   135090 
  135342   135444   135511   135606   135496   135244   135214   135367 
  135380   135413   135746   135935   135626   135442   135706   135826 
  135530   135217   135226   135355   135268   135126   135145   135272 
  135445   135572   135596   135508   135356   135282   135256   135195 
  135236   135483   135743   135792   135673   135405   135083   135051 
  135228   135306   135338   135373   135375   135379   135365   135303 
  135240   135334   135596   135680   135481   135342   135422   135572 
  135576   135410   135363   135502   135456   135105   134873   135089 
  135467   135589   135522   135515   135556   135576   135587   135463 
  135249   135310   135540   135426   135064   134917   135029   135340 
  135720   135769   135519   135479   135626   135518   135189   135121 
  135405   135531   135363   135240   135182   135197   135390   135518 
  135481   135476   135568   135696   135727   135581   135375   135253 
  135298   135463   135535   135372   135141   135116   135233   135340 
  135542   135737   135664   135433   135203   135037   135101   135337 
  135492   135498   135410   135394   135514   135569   135580   135681 
  135664   135429   135201   135167   135314   135410   135297   135140 
  135112   135232   135500   135707   135641   135523   135521   135506 
  135479   135415   135297   135309   135473   135645   135743   135691 
  135499   135272   135145   135268   135557   135734   135726   135487 
  135098   135020   135238   135214   134995   134979   135085   135106 
  135216   135461   135488   135248   135167   135436   135768   135864 
  135783   135642   135336   134919   134592   134231   133834   133776 
  134038   134347   134784   135427   136169   136760   136875   136566 
  136328   136383   136151   135157   134080   133675   133826   134387 
  135232   136053   137096   138568   139618   139550   138877   138171 
  137340   136493   135891   135297   134558   133729   132606   131469 
  131025   131399   132401   133920   135699   137201   137764   137286 
  136144   134584   133242   132922   133470   134217   134909   135753 
  137011   138307   138890   138624   137690   136127   134203   132331 
  131009   130897   132138   134200   136308   137592   137700   136975 
  135726   134191   132997   133073   134759   137073   138650   138920 
  138105   136968   136181   135639   135064   134832   135511   136618 
  136779   135765   134898   134874   135009   134898   134966   135288 
  135367   135016   134743   135000   135436   135571   135407   134975 
  134357   134014   134252   134700   134777   134449   134281   134690 
  135507   136291   136713   136809   136792   136653   136368   136147 
  136108   136024   135580   134897   134522   134566   134476   134090 
  133913   134053   134330   134986   135970   136741   137062   136826 
  135805   134360   133570   134056   135355   136692   137516   137602 
  137115   136350   135634   135113   134553   133929   133704   133998 
  134279   134320   134693   135596   136308   136413   136216   135882 
  135461   135233   135190   135006   134821   134997   135373   135692 
  135997   136266   136321   136119   135926   136096   136497   136540 
  135970   135229   134831   134713   134524   134266   134096   133974 
  134083   134676   135422   135892   136077   135982   135581   135128 
  134847   134663   134593   134906   135607   136240   136576   136821 
  136875   136383   135622   135232   135252   135301   135257   135247 
  135326   135321   135189   135278   135430   135054   134505   134487 
  134786   134979   135203   135681   136150   136151   135657   135106 
  134848   134748   134781   135359   136271   136613   136235   135731 
  135375   135097   134925   135020   135292   135522   135683   135629 
  135283   135059   135260   135679   135847   135429   134655   134169 
  134362   135041   135633   135804   135814   135858   135815   135862 
  136113   136043   135403   134886   135124   135602   135600   135472 
  135723   136225   136532   136138   135249   134654   134600   134914 
  135409   135797   135872   135500   134820   134357   134380   134739 
  135129   135211   135083   135116   135222   135234   135426   135760 
  135677   135306   135280   135558   135777   135865   135882   135951 
  136074   136092   135999   135838   135546   135197   134923   134678 
  134509   134601   134905   135245   135399   135259   135187   135368 
  135507   135693   136094   136221   135772   135290   135294   135521 
  135523   135382   135352   135538   135927   136285   136382   136162 
  135607   134931   134473   134261   134200   134408   134843   135157 
  135211   135124   135008   135116   135515   135738   135585   135577 
  135911   136031   135680   135322   135240   135307   135660   136374 
  136771   136236   135251   134704   134736   134867   134848   134923 
  135198   135252   134839   134424   134576   135302   136112   136663 
  136890   136665   136204   135909   135689   135340   134900   134435 
  134198   134493   135049   135334   135464   135735   135838   135638 
  135548   135588   135491   135298   135101   134993   135116   135399 
  135654   135758   135676   135494   135364   135410   135561   135565 
  135454   135507   135677   135718   135558   135298   135076   134919 
  134824   134832   134829   134789   134977   135427   135696   135487 
  135132   135093   135353   135603   135646   135552   135556   135641 
  135556   135299   135112   135140   135379   135676   135823   135832 
  135787   135596   135321   135217   135426   135846   136020   135703 
  135436   135581   135769   135696   135351   134933   134801   135070 
  135514   135873   135953   135616   135021   134665   134809   135234 
  135641   135815   135670   135391   135153   134858   134515   134397 
  134588   134946   135460   136101   136570   136517   135972   135510 
  135572   135769   135635   135302   135024   134946   135118   135365 
  135432   135251   135055   135116   135376   135585   135630   135614 
  135704   135834   135723   135376   135114   134956   134755   134677 
  134828   134940   134838   134743   134902   135216   135368   135336 
  135413   135554   135487   135386   135548   135834   136020   136119 
  136066   135737   135394   135417   135604   135472   135121   134995 
  135017   134819   134477   134341   134496   134777   135044   135346 
  135781   136192   136308   136128   135793   135386   135074   135132 
  135546   135886   135940   136055   136518   137162   137643   137748 
  137548   137228   136934   136750   136548   136119   135510   134917 
  134500   134345   134383   134468   134511   134455   134368   134373 
  134397   134369   134350   134246   133995   133803   133756   133763 
  133944   134453   135167   135924   136652   137166   137257   136844 
  136032   135109   134298   133681   133346   133317   133547   133942 
  134342   134752   135295   135842   136247   136640   137091   137417 
  137450   137238   136918   136606   136444   136368   136066   135491 
  134929   134568   134499   134715   134948   135082   135301   135560 
  135587   135392   135252   135257   135244   135125   135024   135087 
  135265   135360   135259   135085   135090   135302   135448   135402 
  135334   135473   135862   136256   136324   135963   135479   135337 
  135575   135865   136059   136123   136011   135814   135680   135729 
  135855   135814   135577   135255   134970   134894   134977   134962 
  134751   134438   134158   134034   134217   134742   135390   135869 
  136066   136039   135869   135596   135333   135244   135355   135503 
  135542   135533   135558   135514   135333   135064   134750   134507 
  134400   134481   134908   135567   136063   136244   136229   136086 
  135832   135629   135677   135855   135864   135738   135685   135672 
  135608   135522   135432   135321   135108   134703   134231   133991 
  134104   134422   134805   135072   135016   134785   134632   134532 
  134562   134913   135452   135927   136244   136382   136462   136668 
