Origin Time       2024/06/23 22:54:00
Lat.              35.645
Long.             140.060
Depth. (km)       72
Mag.              4.1
Station Code      CHBH10
Station Lat.      35.5458
Station Long.     140.2417
Station Height(m) 65
Record Time       2024/06/23 22:54:35
Sampling Freq(Hz) 100Hz
Duration Time(s)  120
Dir.              4
Scale Factor      7845(gal)/8223790
Max. Acc. (gal)   8.647
Last Correction   2024/06/23 22:54:35
Memo.             
[...]
    4194     4190     4186     4186     4187     4189     4189     4190 
    4191     4186     4182     4182     4185     4189     4189     4189 
    4191     4190     4190     4189     4187     4187     4189     4186 
    4185     4187     4191     4190     4190     4191     4191     4190 
    4185     4185     4191     4190     4186     4189     4191     4191 
    4190     4191     4193     4190     4182     4179     4183     4187 
    4194     4195     4193     4190     4185     4182     4187     4190 
    4186     4187     4186     4180     4183     4191     4191     4190 
    4186     4179     4185     4189     4183     4182     4185     4187 
    4189     4187     4187     4189     4185     4183     4189     4187 
    4186     4187     4180     4180     4190     4190     4187     4190 
    4186     4178     4179     4185     4187     4189     4190     4190 
    4185     4183     4186     4187     4189     4193     4191     4183 
    4178     4180     4189     4193     4189     4186     4185     4180 
    4179     4180     4182     4187     4193     4190     4182     4175 
    4178     4185     4186     4185     4186     4186     4183     4182 
    4186     4189     4186     4185     4182     4178     4180     4185 
    4183     4185     4185     4179     4179     4186     4189     4186 
    4183     4183     4185     4182     4179     4179     4183     4189 
    4187     4185     4185     4183     4183     4186     4185     4185 
    4186     4182     4182     4185     4183     4186     4194     4190 
    4185     4187     4186     4180     4182     4187     4186     4182 
    4182     4183     4189     4191     4186     4183     4183     4183 
    4180     4183     4190     4191     4183     4176     4182     4189 
    4183     4180     4183     4186     4187     4186     4185     4187 
    4190     4189     4185     4185     4187     4187     4186     4190 
    4193     4187     4183     4186     4187     4187     4186     4185 
    4183     4185     4186     4186     4187     4187     4187     4186 
    4187     4186     4183     4180     4178     4179     4185     4189 
    4191     4183     4182     4194     4195     4187     4185     4183 
    4183     4182     4179     4185     4191     4190     4190     4190 
    4189     4187     4186     4190     4189     4185     4189     4194 
    4187     4185     4190     4190     4186     4183     4180     4185 
    4189     4186     4185     4189     4189     4183     4185     4187 
    4183     4183     4186     4186     4189     4191     4187     4185 
    4187     4187     4185     4186     4190     4193     4190     4189 
    4189     4185     4186     4190     4187     4183     4186     4190 
    4191     4186     4185     4187     4186     4183     4185     4187 
    4189     4189     4191     4193     4189     4183     4180     4182 
    4186     4186     4185     4189     4193     4193     4193     4189 
    4186     4185     4180     4180     4182     4187     4191     4189 
    4183     4180     4185     4189     4185     4178     4180     4189 
    4190     4186     4187     4189     4183     4178     4176     4183 
    4186     4183     4183     4186     4189     4185     4180     4183 
    4187     4186     4185     4189     4190     4187     4189     4185 
    4182     4187     4191     4191     4190     4189     4189     4187 
    4187     4186     4186     4191     4193     4186     4183     4180 
    4182     4182     4179     4185     4193     4187     4179     4183 
    4193     4190     4186     4187     4186     4185     4189     4190 
    4190     4186     4185     4186     4189     4191     4190     4187 
    4187     4189     4190     4187     4183     4183     4186     4187 
    4193     4193     4187     4186     4189     4183     4185     4190 
    4187     4187     4186     4182     4185     4187     4183     4183 
    4189     4186     4179     4182     4187     4189     4190     4189 
    4191     4191     4185     4185     4186     4186     4191     4194 
    4190     4185     4183     4185     4182     4179     4187     4190 
    4183     4183     4187     4190     4191     4191     4186     4182 
    4183     4186     4186     4186     4193     4191     4183     4183 
    4189     4186     4183     4183     4186     4193     4190     4183 
    4187     4189     4187     4187     4187     4191     4191     4185 
    4185     4187     4185     4186     4186     4183     4187     4187 
    4182     4185     4189     4189     4189     4187     4185     4183 
    4183     4186     4187     4186     4186     4190     4190     4183 
    4182     4189     4189     4182     4186     4193     4189     4182 
    4180     4180     4186     4189     4185     4186     4187     4183 
    4183     4183     4182     4190     4194     4185     4179     4180 
    4179     4183     4189     4187     4186     4185     4186     4194 
    4205     4214     4210     4186     4175     4175     4158     4156 
    4175     4185     4199     4183     4131     4147     4226     4299 
    4276     4147     4117     4228     4257     4163     4132     4260 
    4348     4183     3940     3933     4105     4178     4197     4368 
    4580     4522     4137     3790     3771     3973     4294     4587 
    4561     4286     4072     4140     4279     4004     3680     3963 
    4463     4588     4342     4058     4097     4266     4153     3997 
    4056     4225     4386     4283     4066     4118     4193     4176 
    4198     4086     3973     4078     4279     4452     4395     4291 
    4627     4785     4095     3399     3461     3987     4347     4228 
    4060     4189     4374     4630     4858     4557     3979     3696 
    3643     3789     4077     4180     4252     4418     4394     4364 
    4467     4399     4267     4214     4013     3672     3532     3750 
    4027     4195     4502     4993     5192     4677     3951     3811 
    4102     4147     3757     3483     3750     4180     4448     4603 
    4626     4558     4495     4392     4083     3574     3360     3667 
    3997     4193     4419     4587     4741     4826     4685     4417 
    3989     3555     3474     3622     3842     4201     4448     4487 
    4503     4487     4461     4334     4017     3842     3839     3736 
    3794     4187     4526     4598     4517     4507     4703     4666 
    4152     3721     3685     3786     3819     3820     4045     4490 
    4718     4680     4599     4441     4203     3939     3748     3754 
    3793     3863     4160     4453     4573     4642     4529     4140 
    3785     3700     3808     3894     3807     3909     4477     4861 
    4706     4421     4197     4132     4228     4293     4380     4290 
    3824     3545     3774     4135     4398     4507     4429     4359 
    4329     4120     3829     3694     3759     4043     4293     4202 
    4113     4342     4544     4612     4768     4842     4595     4051 
    3622     3780     4225     4444     4545     4649     4544     4141 
    3615     3289     3348     3639     4075     4576     4791     4617 
    4341     4144     4062     3970     3893     4199     4644     4610 
    4253     3877     3582     3574     3808     4094     4282     4284 
    4310     4413     4359     4291     4322     4236     4143     4164 
    4159     4266     4621     4976     4893     4089     3149     3029 
    3461     3674     3912     4571     5275     5417     4815     4063 
    3805     3904     4048     4243     4461     4475     4217     4002 
    4052     4187     4133     3923     3855     3920     3978     4206 
    4434     4255     4017     4189     4492     4491     4126     3735 
    3825     4317     4540     4419     4332     4158     3982     4114 
    4217     4050     3959     4274     4730     4499     3740     3658 
    4202     4371     4125     3990     4101     4268     4455     4739 
    4766     4288     3813     3728     3858     4014     4095     4129 
    4255     4356     4394     4461     4376     4183     4097     4041 
    4036     4074     4117     4221     4218     4197     4299     4168 
    3901     4021     4341     4398     4247     4095     3858     3636 
    4020     4804     4824     4018     3662     4372     5167     4935 
    4182     3875     3813     3681     3761     4036     4205     4360 
    4749     5078     4676     3732     3304     3653     4097     4267 
    4264     4164     3955     3797     3966     4444     4804     4830 
    4637     4180     3643     3500     3851     4423     4824     4776 
    4442     4158     3910     3692     3758     4045     4175     3947 
    3584     3680     4361     4950     5049     4996     4807     4214 
    3703     3634     3636     3700     4008     4301     4369     4332 
    4425     4604     4495     4120     3963     4017     3888     3707 
    3757     4055     4592     5028     4976     4575     4099     3728 
    3684     3798     3785     3838     4055     4195     4302     4506 
    4653     4664     4530     4174     3824     3763     3937     4189 
    4302     4295     4391     4291     3894     3801     4066     4334 
    4595     4714     4498     4002     3429     3206     3631     4406 
    4938     4955     4764     4696     4506     3985     3441     3221 
    3476     4043     4545     4849     4882     4625     4475     4557 
    4502     4194     3797     3591     3658     3709     3712     3905 
    4185     4301     4302     4361     4495     4518     4226     3766 
    3653     4044     4495     4652     4509     4279     4278     4503 
    4572     4271     3831     3619     3709     3798     3654     3547 
    3763     4120     4565     5089     5287     5058     4650     4247 
    4067     4059     3975     3855     3753     3771     4017     4220 
    4241     4249     4210     4078     3956     3832     3750     3929 
    4375     4776     4753     4240     3661     3443     3701     4276 
    4696     4611     4229     4014     4153     4333     4255     4170 
    4347     4486     4283     3923     3663     3623     3888     4428 
    4965     5130     4888     4499     4144     3874     3840     4201 
    4588     4472     4105     3964     3955     3943     3996     4102 
    4259     4348     4251     4048     3770     3545     3672     4059 
    4351     4441     4330     4135     4083     4168     4317     4545 
    4587     4218     3700     3376     3557     4191     4696     4861 
    4824     4541     4229     4239     4360     4286     4247     4371 
    4295     3921     3699     3867     4141     4301     4423     4465 
    4306     4032     3778     3681     3823     3959     3890     3858 
    4126     4644     5200     5481     5197     4415     3677     3518 
    3835     4078     4001     3805     3712     3781     4023     4328 
    4522     4554     4337     3908     3649     3721     3929     4213 
    4536     4754     4932     5096     4958     4465     3981     3747 
    3711     3642     3435     3384     3757     4315     4648     4563 
    4158     3786     3753     4017     4338     4554     4612     4525 
    4438     4425     4417     4536     4752     4715     4349     3843 
    3419     3335     3565     3852     4085     4337     4687     4950 
    4942     4769     4475     4033     3620     3362     3350     3615 
    3850     3881     3983     4256     4515     4664     4531     4071 
    3782     3985     4390     4711     4822     4760     4662     4410 
    4002     3777     3878     4126     4305     4267     3993     3680 
    3505     3545     3948     4530     4819     4838     4827     4639 
    4210     3859     3815     4047     4361     4461     4360     4303 
    4225     4093     4051     4032     4037     4090     3942     3673 
    3720     4091     4544     4853     4792     4552     4367     4040 
    3746     3848     3964     3762     3638     3904     4338     4560 
    4499     4411     4369     4310     4348     4419     4324     4167 
    4166     4353     4650     4745     4334     3647     3175     3153 
    3460     3846     4229     4432     4293     4116     4090     4205 
    4642     5096     4980     4430     3819     3230     2895     3105 
    3827     4681     5244     5429     5391     5208     4947     4656 
    4224     3623     3130     2887     2693     2632     3059     3882 
    4691     5327     5707     5571     4918     4162     3707     3696 
    3989     4268     4357     4313     4311     4419     4380     4143 
    4132     4361     4314     3943     3709     3721     3743     3839 
    4178     4515     4583     4514     4504     4436     4158     3897 
    3939     4093     4062     3979     3942     3820     3858     4280 
    4704     4638     4085     3672     3913     4423     4645     4626 
    4529     4365     4170     3986     3923     3983     4054     4286 
    4702     4824     4536     4291     4328     4531     4627     4444 
    4085     3596     3202     3343     3743     3816     3674     3620 
    3801     4248     4646     4780     4749     4519     4136     3859 
    3693     3549     3507     3530     3437     3133     2683     2358 
    2440     2883     3361     3678     4009     4693     5778     6845 
    7258     6727     5621     4536     3681     2789     1798     1308 
    1792     2917     4197     5679     7497     9255    10416    10871 
   10681     9782     8276     6656     5404     4600     3997     3226 
    2127      900      -94     -572     -421      288     1391     2660 
    3684     3828     2749      831    -1155    -2471    -2542    -1308 
     743     3334     6497     9778    12293    13251    12163     9300 
    5751     2497      -41    -1590    -1890     -891     1182     3802 
    6235     7726     7846     6737     5049     3450     2353     2241 
    3584     6037     8330     9509     9620     8881     7377     5490 
    3665     2227     1514     1525     1790     1979     2158     2556 
    3460     4895     6293     6920     6631     5832     4673     3225 
    2174     1996     2299     2808     3352     3204     2103      861 
     328      966     2818     5224     7311     8391     7839     5849 
    3796     3061     3985     5609     6350     5516     3852     2631 
    2717     4207     6328     7817     7701     5813     2924      477 
    -371      434     2025     3484     4440     4882     4950     4887 
    5050     5690     6407     6415     5420     3921     2849     2817 
    3762     5152     6010     5532     4171     3111     2830     3176 
    3855     4216     3757     2816     2112     2049     2556     3345 
    4229     5035     5487     5570     5514     5390     5243     5217 
    5224     5094     4811     4324     3677     3180     3092     3281 
    3429     3667     4324     5092     5308     4756     3786     3041 
    2957     3289     3407     3088     2725     2835     3527     4571 
    5655     6423     6829     7213     7400     6714     5175     3586 
    2640     2484     2839     3265     3265     2717     2215     2353 
    3044     3886     4544     4761     4646     4680     4997     5171 
    4878     4355     4008     3917     3969     3994     3759     3385 
    3470     4290     5321     5898     5817     5239     4433     3653 
    3063     2812     3136     4027     4934     5243     4855     4079 
    3268     2751     2898     3753     4638     4897     4712     4463 
    4233     4268     4637     4896     4762     4320     3653     2990 
    2732     3028     3693     4522     5401     6165     6546     6430 
    5976     5359     4585     3753     3087     2490     1773     1254 
    1421     2338     3701     5013     5763     5715     4961     3878 
    3083     3042     3775     4938     5995     6502     6354     5783 
    5063     4189     3152     2358     2234     2785     3739     4657 
    5062     4915     4599     4388     4314     4303     4162     3831 
    3628     3789     4137     4440     4653     4884     5229     5475 
    5285     4752     4214     3761     3339     3001     2860     2933 
    3052     2968     2610     2216     2119     2384     2852     3487 
    4176     4680     5054     5391     5578     5678     5775     5760 
    5715     5884     6277     6596     6420     5645     4730     4213 
    4151     4155     3802     3082     2436     2235     2349     2565 
    2955     3545     4082     4318     4237     4004     3819     3870 
    4290     4966     5497     5544     5139     4536     3943     3472 
    3160     2997     2901     2717     2590     2906     3654     4472 
    5196     5760     5983     5751     5175     4635     4426     4382 
    4322     4407     4672     4834     4625     4055     3334     2627 
    2095     1996     2411     3019     3501     3967     4725     5837 
    7005     7680     7435     6340     4959     3896     3352     3168 
    3103     2995     2798     2593     2613     3036     3719     4284 
    4332     3676     2664     2066     2394     3504     4860     5927 
    6447     6504     6289     5957     5709     5621     5443     4947 
    4206     3468     2975     2828     3036     3497     3846     3781 
    3516     3495     3881     4434     4731     4594     4283     4121 
    4179     4394     4630     4649     4383     4058     3762     3395 
    3133     3326     3983     4780     5352     5495     5301     5017 
    4779     4563     4229     3609     2891     2566     2820     3376 
    3766     3724     3497     3520     3829     4140     4324     4484 
    4684     4878     5013     5065     5001     4789     4428     3994 
    3673     3580     3630     3738     3975     4302     4415     4125 
    3627     3342     3592     4293     4943     5053     4548     3865 
    3542     3646     3893     4185     4595     5111     5547     5670 
    5483     5134     4615     3954     3389     3121     3227     3681 
    4168     4318     4179     4099     4213     4446     4760     5073 
    5247     5235     4982     4467     3909     3559     3447     3523 
    3689     3750     3674     3634     3842     4465     5273     5618 
    5182     4309     3605     3476     3866     4345     4504     4191 
    3396     2355     1601     1478     1861     2488     3149     3655 
    3969     4264     4726     5373     6108     6791     7195     7044 
    6345     5556     5092     4870     4719     4665     4637     4395 
    3770     2940     2367     2270     2435     2535     2421     2277 
    2496     3237     4201     4972     5417     5578     5371     4742 
    3867     3148     2999     3438     4090     4715     5247     5552 
    5572     5425     5148     4669     4081     3674     3694     4051 
    4378     4477     4432     4334     4220     4067     3832     3615 
    3535     3576     3720     3974     4307     4666     4935     5012 
    4857     4468     4093     4090     4445     4855     5113     5089 
    4731     4232     3947     4043     4347     4556     4444     3964 
    3294     2724     2435     2408     2542     2748     3015     3468 
    4186     4974     5533     5745     5645     5337     4962     4666 
    4548     4587     4590     4380     4058     3848     3870     4139 
    4544     4837     4783     4348     3699     3113     2936     3310 
    3931     4332     4288     3856     3261     2779     2670     3042 
    3744     4459     4884     4874     4549     4185     4002     4043 
    4140     4153     4056     3835     3573     3426     3531     3910 
