Origin Time       2024/06/23 22:54:00
Lat.              35.645
Long.             140.060
Depth. (km)       72
Mag.              4.1
Station Code      FKSH10
Station Lat.      37.1616
Station Long.     140.0930
Station Height(m) 364.4
Record Time       2024/06/23 22:55:13
Sampling Freq(Hz) 100Hz
Duration Time(s)  120
Dir.              3
Scale Factor      2942(gal)/8224139
Max. Acc. (gal)   0.103
Last Correction   2024/06/23 22:55:14
Memo.             
[...]
  137388   137357   137317   137300   137296   137317   137349   137342 
  137305   137304   137336   137343   137316   137309   137342   137380 
  137388   137371   137355   137359   137388   137409   137389   137336 
  137301   137307   137336   137366   137361   137322   137296   137285 
  137263   137281   137349   137376   137346   137323   137316   137330 
  137366   137407   137454   137446   137357   137289   137278   137285 
  137296   137284   137258   137263   137309   137362   137388   137398 
  137415   137421   137396   137359   137322   137285   137284   137303 
  137282   137245   137251   137299   137346   137362   137359   137384 
  137420   137428   137413   137405   137415   137388   137308   137262 
  137281   137305   137328   137349   137303   137222   137209   137251 
  137290   137323   137361   137393   137413   137436   137465   137455 
  137404   137357   137331   137328   137340   137343   137330   137305 
  137265   137214   137197   137259   137357   137407   137409   137417 
  137420   137388   137354   137340   137331   137326   137307   137263 
  137235   137236   137268   137336   137400   137409   137397   137408 
  137420   137404   137376   137359   137349   137322   137280   137253 
  137258   137289   137328   137369   137398   137403   137386   137351 
  137304   137290   137316   137331   137338   137369   137392   137367 
  137326   137315   137334   137342   137326   137323   137343   137336 
  137303   137304   137343   137373   137378   137374   137385   137390 
  137343   137290   137278   137285   137331   137407   137425   137378 
  137322   137293   137299   137316   137330   137297   137234   137241 
  137311   137343   137349   137386   137411   137388   137359   137359 
  137380   137394   137384   137358   137326   137304   137313   137349 
  137376   137361   137315   137296   137299   137290   137296   137327 
  137347   137339   137328   137338   137334   137300   137307   137357 
  137376   137362   137358   137351   137326   137309   137315   137313 
  137315   137351   137401   137420   137400   137362   137317   137295 
  137309   137328   137317   137300   137282   137278   137327   137389 
  137393   137373   137373   137363   137339   137334   137344   137358 
  137361   137327   137300   137334   137377   137362   137313   137296 
  137301   137293   137296   137339   137385   137411   137416   137390 
  137342   137290   137263   137259   137258   137290   137362   137404 
  137420   137428   137408   137385   137380   137362   137339   137334 
  137327   137303   137269   137241   137239   137277   137320   137349 
  137376   137397   137405   137392   137358   137353   137380   137367 
  137320   137312   137340   137361   137376   137393   137388   137340 
  137278   137255   137249   137243   137290   137342   137338   137332 
  137358   137377   137373   137354   137332   137327   137339   137334 
  137297   137263   137270   137322   137384   137416   137409   137411 
  137442   137446   137382   137317   137315   137328   137312   137308 
  137324   137317   137305   137305   137301   137295   137280   137277 
  137304   137330   137344   137361   137358   137354   137363   137365 
  137371   137394   137405   137386   137347   137305   137276   137276 
  137304   137335   137362   137386   137400   137404   137398   137376 
  137338   137300   137284   137292   137303   137301   137280   137253 
  137251   137288   137350   137417   137459   137454   137417   137377 
  137355   137357   137336   137284   137263   137272   137257   137250 
  137278   137317   137355   137389   137390   137371   137358   137346 
  137336   137349   137367   137385   137409   137430   137415   137370 
  137332   137319   137305   137274   137249   137249   137276   137326 
  137369   137365   137344   137362   137374   137343   137320   137326 
  137342   137371   137403   137392   137342   137312   137312   137312 
  137308   137308   137315   137339   137374   137378   137355   137324 
  137284   137269   137311   137363   137376   137365   137342   137299 
  137284   137326   137362   137357   137339   137346   137370   137367 
  137332   137316   137328   137328   137305   137289   137289   137305 
  137346   137380   137381   137373   137388   137428   137436   137386 
  137331   137313   137317   137326   137338   137338   137324   137311 
  137307   137313   137322   137313   137296   137305   137359   137424 
  137430   137378   137357   137374   137355   137296   137273   137307 
  137323   137285   137249   137254   137297   137371   137420   137398 
  137357   137357   137390   137407   137367   137324   137323   137311 
  137281   137296   137346   137382   137389   137367   137322   137284 
  137297   137338   137351   137346   137347   137342   137328   137319 
  137332   137361   137355   137330   137326   137323   137317   137316 
  137312   137323   137353   137370   137380   137382   137366   137351 
  137346   137346   137349   137342   137324   137304   137277   137255 
  137277   137326   137350   137347   137340   137344   137365   137390 
  137397   137380   137351   137332   137340   137359   137380   137404 
  137403   137369   137349   137338   137315   137296   137281   137274 
  137278   137274   137269   137282   137313   137349   137378   137408 
  137415   137394   137374   137350   137309   137288   137292   137297 
  137309   137340   137374   137397   137403   137378   137354   137359 
  137358   137336   137322   137324   137323   137307   137296   137296 
  137305   137338   137384   137411   137397   137366   137351   137334 
  137304   137284   137293   137317   137324   137334   137359   137373 
  137384   137405   137411   137388   137354   137312   137276   137269 
  137277   137288   137309   137324   137328   137349   137370   137363 
  137340   137336   137346   137349   137362   137384   137361   137301 
  137285   137331   137357   137331   137315   137340   137359   137343 
  137353   137394   137405   137388   137378   137363   137327   137293 
  137305   137343   137350   137320   137304   137324   137346   137354 
  137377   137397   137369   137312   137280   137280   137305   137335 
  137340   137332   137334   137338   137326   137319   137344   137385 
  137401   137397   137373   137324   137286   137281   137274   137277 
  137311   137328   137328   137357   137369   137353   137384   137428 
  137400   137350   137344   137351   137331   137309   137312   137315 
  137295   137272   137266   137292   137326   137350   137371   137397 
  137408   137385   137363   137386   137408   137389   137357   137327 
  137304   137304   137309   137296   137299   137330   137347   137344 
  137334   137330   137358   137393   137392   137361   137316   137274 
  137277   137328   137376   137389   137376   137349   137335   137351 
  137389   137413   137385   137334   137301   137285   137293   137332 
  137361   137357   137335   137316   137305   137297   137311   137357 
  137394   137369   137297   137263   137289   137319   137327   137349 
  137401   137430   137380   137320   137317   137312   137297   137330 
  137359   137346   137339   137334   137305   137293   137319   137353 
  137361   137343   137323   137315   137324   137347   137365   137363 
  137361   137373   137380   137355   137330   137339   137371   137396 
  137398   137381   137353   137319   137286   137288   137315   137330 
  137320   137304   137315   137346   137353   137330   137315   137327 
  137357   137365   137339   137330   137331   137309   137305   137326 
  137327   137326   137343   137362   137376   137367   137361   137393 
  137419   137392   137347   137304   137269   137269   137282   137278 
  137286   137328   137355   137357   137388   137431   137411   137350 
  137303   137272   137265   137293   137327   137342   137343   137344 
  137344   137339   137346   137389   137450   137486   137477   137423 
  137335   137250   137211   137207   137219   137255   137286   137290 
  137317   137382   137439   137461   137447   137404   137366   137361 
  137359   137347   137327   137297   137273   137265   137266   137273 
  137288   137317   137338   137330   137311   137305   137319   137353 
  137390   137408   137415   137434   137458   137451   137381   137288 
  137251   137262   137269   137265   137268   137285   137320   137343 
  137338   137357   137411   137448   137450   137408   137347   137322 
  137322   137312   137301   137301   137316   137320   137307   137326 
  137370   137381   137346   137312   137308   137327   137358   137381 
  137377   137350   137324   137315   137307   137289   137289   137344 
  137424   137455   137415   137369   137355   137335   137297   137282 
  137257   137209   137220   137288   137331   137353   137371   137365 
  137346   137342   137351   137367   137374   137355   137340   137342 
  137349   137362   137366   137380   137420   137420   137351   137280 
  137253   137246   137230   137211   137222   137272   137331   137354 
  137363   137407   137446   137432   137416   137419   137373   137305 
  137282   137265   137255   137292   137328   137340   137357   137371 
  137378   137378   137378   137392   137400   137392   137381   137365 
  137339   137307   137297   137326   137343   137334   137334   137338 
  137319   137301   137339   137398   137404   137376   137359   137326 
  137277   137272   137301   137327   137361   137371   137338   137315 
  137327   137342   137346   137339   137315   137288   137285   137297 
  137326   137378   137407   137369   137303   137276   137311   137376 
  137424   137436   137412   137369   137308   137268   137303   137369 
  137377   137355   137370   137408   137376   137270   137215   137231 
  137234   137228   137273   137335   137369   137396   137420   137417 
  137381   137354   137373   137396   137384   137389   137443   137465 
  137397   137319   137297   137303   137303   137319   137342   137315 
  137241   137188   137209   137286   137359   137401   137415   137401 
  137376   137353   137326   137305   137320   137340   137323   137300 
  137308   137304   137266   137243   137274   137346   137413   137463 
  137496   137492   137457   137392   137303   137247   137245   137258 
  137285   137323   137334   137327   137324   137330   137347   137342 
  137305   137300   137334   137374   137404   137393   137363   137355 
  137351   137369   137419   137432   137412   137405   137382   137326 
  137268   137224   137193   137208   137282   137354   137362   137355 
  137389   137413   137408   137417   137424   137400   137380   137365 
  137324   137282   137290   137320   137307   137257   137223   137236 
  137299   137367   137384   137362   137366   137389   137385   137365 
  137347   137312   137278   137290   137324   137342   137367   137424 
  137488   137478   137377   137299   137320   137374   137390   137363 
  137335   137332   137299   137227   137200   137212   137222   137258 
  137319   137363   137403   137439   137439   137386   137324   137293 
  137286   137277   137269   137276   137317   137381   137409   137390 
  137367   137344   137312   137303   137343   137403   137430   137420 
  137397   137349   137270   137224   137245   137268   137265   137288 
  137343   137389   137411   137416   137403   137363   137305   137245 
  137218   137262   137330   137367   137386   137376   137347   137344 
  137365   137390   137416   137432   137421   137384   137324   137272 
  137262   137263   137239   137239   137284   137335   137377   137397 
  137397   137401   137397   137358   137285   137228   137238   137286 
  137354   137409   137407   137405   137465   137525   137525   137485 
  137427   137331   137205   137138   137172   137224   137232   137216 
  137207   137241   137317   137390   137431   137420   137389   137400 
  137417   137392   137367   137365   137346   137309   137281   137280 
  137308   137334   137346   137378   137409   137405   137388   137365 
  137331   137290   137254   137235   137251   137272   137263   137255 
  137270   137295   137355   137446   137502   137494   137421   137322 
  137249   137211   137204   137247   137320   137394   137465   137479 
  137415   137344   137334   137365   137385   137376   137361   137365 
  137370   137377   137420   137463   137446   137373   137274   137204 
  137187   137200   137249   137335   137427   137475   137448   137378 
  137303   137255   137269   137296   137297   137316   137357   137351 
  137311   137280   137259   137289   137398   137489   137463   137390 
  137357   137350   137366   137393   137367   137309   137305   137340 
  137346   137335   137328   137285   137191   137115   137088   137091 
  137142   137249   137377   137502   137597   137605   137525   137451 
  137412   137353   137278   137222   137197   137238   137319   137380 
  137419   137452   137465   137447   137400   137343   137311   137290 
  137263   137266   137324   137392   137416   137400   137388   137408 
  137435   137430   137388   137323   137255   137208   137185   137164 
  137146   137174   137236   137261   137251   137288   137370   137430 
  137436   137393   137342   137349   137389   137392   137366   137361 
  137385   137421   137447   137454   137486   137544   137565   137521 
  137421   137284   137181   137154   137169   137205   137241   137255 
  137259   137257   137246   137257   137303   137349   137361   137349 
  137347   137381   137424   137427   137412   137439   137488   137494 
  137467   137452   137448   137403   137299   137185   137101   137052 
  137058   137158   137277   137342   137396   137466   137502   137473 
  137374   137269   137235   137263   137319   137371   137378   137355 
  137351   137384   137421   137413   137367   137317   137243   137169 
  137178   137266   137361   137443   137490   137474   137421   137381 
  137359   137357   137361   137351   137327   137278   137227   137218 
  137258   137301   137304   137290   137292   137297   137307   137371 
  137489   137566   137547   137477   137393   137288   137208   137211 
  137259   137320   137374   137359   137280   137238   137296   137389 
  137434   137444   137467   137467   137411   137332   137272   137241 
  137219   137214   137262   137344   137413   137455   137432   137326 
  137222   137204   137232   137235   137234   137297   137382   137405 
  137397   137404   137407   137401   137390   137361   137315   137297 
  137338   137374   137339   137299   137353   137463   137521   137502 
  137457   137401   137319   137234   137182   137161   137169   137222 
  137301   137336   137289   137214   137203   137263   137331   137366 
  137389   137425   137450   137473   137493   137454   137384   137374 
  137389   137363   137326   137313   137319   137335   137370   137389 
  137340   137265   137246   137270   137258   137228   137253   137324 
  137413   137470   137438   137386   137384   137374   137357   137371 
  137370   137343   137338   137334   137315   137322   137349   137363 
  137350   137292   137242   137263   137317   137331   137307   137296 
  137327   137384   137415   137390   137382   137423   137416   137344 
  137308   137328   137349   137354   137357   137351   137347   137367 
  137385   137346   137276   137230   137214   137226   137251   137246 
  137245   137316   137405   137419   137378   137346   137339   137354 
  137346   137281   137231   137255   137296   137303   137300   137315 
  137339   137363   137386   137416   137439   137439   137435   137421 
  137376   137323   137300   137323   137374   137413   137430   137431 
  137378   137273   137227   137284   137358   137404   137428   137421 
  137392   137370   137354   137309   137249   137235   137261   137285 
  137317   137358   137371   137347   137309   137301   137316   137323 
  137332   137331   137290   137246   137236   137254   137281   137299 
  137303   137300   137295   137304   137355   137442   137523   137552 
  137540   137515   137455   137373   137315   137281   137266   137257 
  137236   137258   137322   137365   137398   137457   137496   137477 
  137421   137358   137282   137231   137259   137308   137290   137251 
  137263   137297   137311   137320   137340   137365   137369   137342 
  137316   137304   137288   137297   137336   137343   137297   137226 
  137172   137199   137277   137336   137381   137440   137506   137538 
  137506   137461   137455   137448   137400   137320   137234   137181 
  137204   137277   137362   137443   137470   137409   137330   137308 
  137307   137299   137316   137323   137284   137269   137315   137373 
  137403   137380   137331   137322   137340   137331   137316   137320 
  137319   137300   137277   137273   137308   137367   137421   137447 
  137431   137411   137436   137481   137474   137403   137359   137374 
  137369   137328   137295   137254   137216   137218   137241   137274 
  137330   137378   137381   137342   137280   137223   137227   137311 
  137392   137409   137405   137400   137382   137358   137316   137262 
  137228   137226   137258   137305   137326   137335   137365   137398 
  137397   137362   137332   137307   137274   137254   137259   137284 
  137322   137369   137409   137398   137353   137353   137409   137438 
  137381   137307   137308   137342   137330   137293   137288   137317 
  137334   137338   137366   137401   137405   137412   137446   137442 
  137393   137388   137415   137390   137342   137327   137335   137353 
  137367   137394   137435   137416   137346   137313   137303   137272 
  137242   137236   137247   137246   137215   137199   137226   137261 
  137293   137324   137349   137371   137407   137442   137444   137393 
  137328   137308   137308   137278   137253   137286   137350   137374 
  137362   137367   137388   137381   137353   137331   137334   137376 
  137425   137430   137384   137286   137180   137153   137215   137290 
  137322   137315   137320   137353   137390   137398   137382   137363 
  137334   137309   137324   137361   137394   137417   137411   137380 
  137361   137357   137347   137339   137347   137355   137346   137343 
  137346   137330   137327   137376   137425   137419   137398   137412 
  137412   137354   137293   137281   137280   137257   137242   137251 
  137277   137308   137358   137412   137423   137382   137353   137363 
  137366   137339   137336   137355   137344   137307   137307   137351 
  137376   137357   137339   137336   137357   137389   137388   137362 
  137370   137398   137390   137344   137315   137323   137349   137358 
  137331   137296   137301   137334   137349   137351   137367   137362 
  137313   137269   137270   137288   137309   137344   137335   137263 
  137219   137236   137261   137280   137308   137328   137335   137346 
  137362   137376   137378   137363   137336   137319   137330   137371 
  137411   137403   137359   137334   137330   137326   137313   137296 
  137286   137295   137312   137327   137343   137343   137316   137311 
  137349   137365   137340   137336   137381   137427   137416   137394 
  137401   137382   137340   137351   137401   137420   137393   137363 
  137349   137328   137313   137334   137365   137354   137308   137280 
  137282   137284   137273   137269   137273   137272   137288   137353 
  137416   137430   137419   137404   137374   137342   137317   137320 
