Origin Time       2024/06/23 22:54:00
Lat.              35.645
Long.             140.060
Depth. (km)       72
Mag.              4.1
Station Code      FKSH10
Station Lat.      37.1616
Station Long.     140.0930
Station Height(m) 564.9
Record Time       2024/06/23 22:55:13
Sampling Freq(Hz) 100Hz
Duration Time(s)  120
Dir.              5
Scale Factor      7845(gal)/8223790
Max. Acc. (gal)   2.290
Last Correction   2024/06/23 22:55:14
Memo.             
[...]
   -3349    -3310    -3300    -3341    -3404    -3458    -3485    -3472 
   -3406    -3307    -3217    -3168    -3173    -3226    -3316    -3431 
   -3535    -3603    -3634    -3616    -3541    -3408    -3269    -3180 
   -3153    -3163    -3215    -3334    -3462    -3496    -3437    -3369 
   -3326    -3299    -3280    -3280    -3314    -3383    -3469    -3554 
   -3601    -3577    -3493    -3385    -3288    -3223    -3195    -3199 
   -3238    -3298    -3345    -3387    -3441    -3472    -3460    -3434 
   -3424    -3423    -3414    -3393    -3380    -3357    -3296    -3235 
   -3231    -3269    -3299    -3329    -3372    -3412    -3443    -3474 
   -3500    -3515    -3508    -3466    -3404    -3354    -3307    -3234 
   -3177    -3203    -3311    -3427    -3478    -3441    -3349    -3262 
   -3210    -3202    -3265    -3403    -3572    -3692    -3727    -3690 
   -3572    -3346    -3079    -2903    -2889    -2991    -3169    -3403 
   -3626    -3755    -3765    -3685    -3553    -3407    -3280    -3191 
   -3168    -3203    -3241    -3253    -3275    -3345    -3446    -3522 
   -3543    -3530    -3489    -3400    -3303    -3260    -3261    -3253 
   -3240    -3235    -3249    -3298    -3389    -3493    -3573    -3604 
   -3585    -3531    -3449    -3327    -3190    -3105    -3118    -3202 
   -3298    -3381    -3464    -3528    -3527    -3476    -3438    -3442 
   -3470    -3476    -3418    -3308    -3196    -3114    -3079    -3129 
   -3295    -3524    -3712    -3788    -3727    -3551    -3327    -3121 
   -2976    -2921    -2959    -3090    -3292    -3523    -3734    -3861 
   -3832    -3685    -3520    -3370    -3217    -3099    -3056    -3091 
   -3172    -3257    -3330    -3402    -3464    -3512    -3557    -3593 
   -3603    -3568    -3469    -3326    -3206    -3145    -3117    -3091 
   -3099    -3172    -3304    -3456    -3577    -3643    -3651    -3624 
   -3595    -3565    -3503    -3389    -3267    -3169    -3082    -3015 
   -3030    -3144    -3307    -3458    -3572    -3642    -3661    -3618 
   -3531    -3424    -3302    -3181    -3094    -3056    -3111    -3277 
   -3473    -3593    -3605    -3549    -3451    -3342    -3287    -3314 
   -3380    -3426    -3422    -3383    -3346    -3321    -3281    -3253 
   -3302    -3429    -3532    -3518    -3422    -3331    -3264    -3217 
   -3226    -3312    -3435    -3532    -3558    -3504    -3420    -3346 
   -3281    -3235    -3245    -3315    -3400    -3456    -3470    -3464 
   -3439    -3402    -3364    -3308    -3217    -3121    -3091    -3156 
   -3304    -3519    -3734    -3848    -3816    -3640    -3352    -3040 
   -2840    -2826    -2953    -3173    -3474    -3780    -3946    -3892 
   -3674    -3423    -3234    -3125    -3071    -3060    -3099    -3186 
   -3300    -3430    -3559    -3655    -3658    -3568    -3454    -3353 
   -3262    -3195    -3171    -3198    -3241    -3271    -3302    -3353 
   -3427    -3528    -3635    -3689    -3642    -3492    -3296    -3129 
   -3055    -3088    -3190    -3304    -3404    -3489    -3550    -3576 
   -3549    -3472    -3375    -3298    -3246    -3226    -3244    -3276 
   -3296    -3312    -3358    -3449    -3565    -3647    -3642    -3557 
   -3424    -3275    -3153    -3080    -3056    -3105    -3230    -3396 
   -3558    -3665    -3667    -3558    -3375    -3199    -3103    -3106 
   -3192    -3315    -3442    -3570    -3673    -3689    -3615    -3499 
   -3376    -3244    -3119    -3056    -3065    -3126    -3229    -3362 
   -3501    -3622    -3682    -3654    -3564    -3453    -3339    -3227 
   -3134    -3091    -3121    -3231    -3388    -3532    -3611    -3613 
   -3553    -3443    -3318    -3234    -3207    -3215    -3252    -3307 
   -3365    -3406    -3435    -3461    -3468    -3437    -3369    -3304 
   -3298    -3330    -3357    -3383    -3406    -3388    -3342    -3334 
   -3389    -3462    -3495    -3473    -3423    -3373    -3329    -3271 
   -3219    -3231    -3304    -3368    -3407    -3451    -3483    -3460 
   -3387    -3308    -3267    -3269    -3294    -3314    -3354    -3434 
   -3503    -3519    -3497    -3464    -3410    -3322    -3231    -3180 
   -3177    -3210    -3284    -3427    -3616    -3757    -3754    -3596 
   -3357    -3134    -2995    -2968    -3034    -3142    -3258    -3379 
   -3501    -3609    -3688    -3727    -3724    -3678    -3564    -3383 
   -3187    -3026    -2928    -2909    -2975    -3117    -3296    -3489 
   -3682    -3844    -3909    -3843    -3690    -3496    -3267    -3041 
   -2886    -2840    -2907    -3069    -3304    -3568    -3766    -3816 
   -3730    -3565    -3366    -3184    -3098    -3148    -3294    -3449 
   -3537    -3530    -3458    -3356    -3258    -3225    -3277    -3362 
   -3411    -3402    -3360    -3307    -3272    -3279    -3321    -3385 
   -3474    -3581    -3654    -3634    -3510    -3337    -3179    -3064 
   -3014    -3056    -3191    -3379    -3554    -3670    -3711    -3650 
   -3484    -3296    -3187    -3157    -3177    -3258    -3372    -3460 
   -3510    -3524    -3492    -3420    -3334    -3268    -3242    -3265 
   -3319    -3396    -3480    -3526    -3497    -3407    -3288    -3177 
   -3106    -3092    -3156    -3296    -3468    -3608    -3694    -3709 
   -3640    -3524    -3404    -3268    -3121    -3026    -3033    -3137 
   -3306    -3489    -3627    -3680    -3647    -3569    -3477    -3375 
   -3264    -3159    -3076    -3060    -3130    -3260    -3379    -3443 
   -3484    -3534    -3573    -3577    -3534    -3457    -3389    -3341 
   -3302    -3283    -3272    -3238    -3211    -3226    -3267    -3327 
   -3423    -3516    -3566    -3578    -3568    -3530    -3456    -3343 
   -3235    -3171    -3145    -3142    -3171    -3235    -3303    -3361 
   -3429    -3515    -3586    -3616    -3595    -3531    -3439    -3343 
   -3272    -3233    -3214    -3206    -3225    -3276    -3339    -3388 
   -3430    -3492    -3554    -3561    -3512    -3435    -3343    -3248 
   -3172    -3159    -3208    -3284    -3354    -3427    -3505    -3557 
   -3549    -3489    -3407    -3338    -3302    -3285    -3279    -3267 
   -3254    -3268    -3319    -3408    -3500    -3554    -3547    -3487 
   -3404    -3311    -3222    -3181    -3226    -3353    -3488    -3543 
   -3520    -3442    -3323    -3208    -3159    -3213    -3343    -3453 
   -3477    -3456    -3429    -3373    -3283    -3206    -3200    -3280 
   -3406    -3532    -3635    -3662    -3585    -3449    -3307    -3191 
   -3132    -3117    -3118    -3144    -3221    -3350    -3488    -3596 
   -3680    -3720    -3673    -3549    -3411    -3294    -3195    -3123 
   -3105    -3163    -3273    -3375    -3419    -3416    -3420    -3450 
   -3464    -3449    -3430    -3412    -3379    -3331    -3302    -3302 
   -3307    -3311    -3349    -3427    -3485    -3474    -3410    -3331 
   -3258    -3208    -3208    -3262    -3331    -3379    -3412    -3469 
   -3551    -3623    -3638    -3584    -3485    -3356    -3218    -3109 
   -3048    -3052    -3133    -3265    -3404    -3511    -3559    -3566 
   -3570    -3568    -3522    -3416    -3283    -3160    -3086    -3096 
   -3196    -3345    -3481    -3561    -3568    -3507    -3411    -3306 
   -3233    -3235    -3298    -3361    -3410    -3462    -3515    -3550 
   -3558    -3532    -3464    -3350    -3218    -3115    -3082    -3127 
   -3222    -3333    -3450    -3553    -3596    -3557    -3469    -3375 
   -3294    -3241    -3238    -3299    -3393    -3462    -3481    -3481 
   -3484    -3461    -3384    -3268    -3176    -3141    -3153    -3226 
   -3379    -3576    -3726    -3755    -3661    -3487    -3272    -3064 
   -2933    -2930    -3057    -3242    -3396    -3501    -3581    -3642 
   -3669    -3654    -3593    -3483    -3333    -3188    -3090    -3052 
   -3083    -3186    -3314    -3429    -3535    -3632    -3684    -3669 
   -3609    -3514    -3362    -3169    -2994    -2902    -2907    -3005 
   -3204    -3484    -3753    -3904    -3909    -3817    -3672    -3478 
   -3261    -3073    -2970    -2957    -2991    -3055    -3180    -3369 
   -3565    -3709    -3770    -3759    -3699    -3573    -3368    -3145 
   -2999    -2970    -3030    -3138    -3283    -3446    -3564    -3600 
   -3586    -3551    -3499    -3418    -3318    -3253    -3256    -3291 
   -3303    -3310    -3357    -3434    -3504    -3558    -3564    -3487 
   -3346    -3202    -3121    -3119    -3157    -3198    -3258    -3361 
   -3477    -3574    -3630    -3642    -3626    -3580    -3503    -3406 
   -3299    -3203    -3129    -3080    -3072    -3107    -3167    -3244 
   -3342    -3456    -3564    -3661    -3731    -3743    -3684    -3573 
   -3437    -3296    -3180    -3110    -3098    -3133    -3171    -3191 
   -3213    -3253    -3304    -3345    -3376    -3437    -3545    -3676 
   -3793    -3850    -3790    -3618    -3403    -3183    -2959    -2776 
   -2714    -2799    -2999    -3271    -3559    -3784    -3901    -3925 
   -3856    -3715    -3566    -3443    -3331    -3226    -3137    -3053 
   -2963    -2890    -2909    -3065    -3302    -3507    -3628    -3677 
   -3672    -3636    -3603    -3564    -3503    -3443    -3404    -3341 
   -3225    -3105    -3022    -3009    -3084    -3227    -3391    -3524 
   -3609    -3670    -3731    -3774    -3742    -3584    -3314    -3002 
   -2744    -2636    -2729    -2991    -3346    -3728    -4052    -4206 
   -4129    -3861    -3484    -3090    -2790    -2674    -2736    -2894 
   -3083    -3296    -3553    -3801    -3939    -3936    -3825    -3630 
   -3364    -3114    -2994    -3025    -3123    -3219    -3289    -3311 
   -3294    -3294    -3354    -3495    -3689    -3842    -3850    -3681 
   -3388    -3079    -2857    -2786    -2887    -3133    -3431    -3667 
   -3767    -3732    -3607    -3437    -3280    -3210    -3265    -3400 
   -3514    -3543    -3478    -3349    -3191    -3029    -2922    -2944 
   -3103    -3348    -3616    -3831    -3892    -3748    -3478    -3218 
   -3044    -2980    -3044    -3225    -3461    -3674    -3808    -3832 
   -3743    -3578    -3381    -3179    -3032    -3009    -3083    -3175 
   -3271    -3376    -3434    -3424    -3416    -3458    -3496    -3478 
   -3423    -3356    -3285    -3223    -3198    -3244    -3357    -3491 
   -3580    -3593    -3524    -3392    -3249    -3152    -3141    -3244 
   -3416    -3559    -3609    -3582    -3516    -3419    -3321    -3283 
   -3322    -3389    -3418    -3358    -3217    -3042    -2910    -2910 
   -3096    -3427    -3773    -3971    -3940    -3736    -3470    -3229 
   -3091    -3113    -3252    -3379    -3395    -3300    -3165    -3065 
   -3052    -3160    -3350    -3537    -3682    -3775    -3789    -3719 
   -3600    -3447    -3261    -3055    -2886    -2801    -2794    -2879 
   -3069    -3357    -3730    -4126    -4395    -4418    -4217    -3881 
   -3477    -3072    -2763    -2587    -2529    -2581    -2741    -3007 
   -3349    -3699    -3971    -4108    -4099    -3962    -3704    -3375 
   -3080    -2891    -2817    -2871    -3034    -3229    -3389    -3488 
   -3520    -3495    -3438    -3384    -3366    -3419    -3510    -3557 
   -3520    -3408    -3269    -3168    -3150    -3214    -3315    -3375 
   -3330    -3215    -3129    -3138    -3265    -3480    -3708    -3861 
   -3898    -3832    -3673    -3468    -3303    -3208    -3136    -3029 
   -2891    -2779    -2739    -2808    -3052    -3500    -4051    -4503 
   -4699    -4599    -4257    -3767    -3237    -2745    -2344    -2083 
   -1980    -2034    -2274    -2718    -3306    -3915    -4425    -4780 
   -4954    -4870    -4477    -3846    -3106    -2421    -1945    -1764 
   -1922    -2403    -3059    -3684    -4158    -4436    -4477    -4298 
   -3971    -3581    -3196    -2870    -2667    -2668    -2882    -3217 
   -3545    -3778    -3881    -3828    -3627    -3338    -3067    -2922 
   -2957    -3157    -3453    -3719    -3812    -3674    -3402    -3160 
   -3022    -2976    -3014    -3164    -3406    -3632    -3758    -3746 
   -3582    -3345    -3159    -3106    -3203    -3410    -3659    -3871 
   -3951    -3851    -3584    -3164    -2682    -2331    -2276    -2525 
   -2957    -3423    -3794    -3966    -3919    -3747    -3566    -3456 
   -3449    -3505    -3542    -3538    -3515    -3465    -3368    -3241 
   -3127    -3057    -3049    -3119    -3246    -3376    -3478    -3576 
   -3682    -3750    -3727    -3611    -3419    -3183    -2960    -2825 
   -2828    -2982    -3256    -3554    -3769    -3863    -3843    -3708 
   -3508    -3354    -3314    -3353    -3385    -3360    -3289    -3199 
   -3133    -3142    -3229    -3352    -3488    -3618    -3692    -3663 
   -3538    -3335    -3094    -2895    -2799    -2806    -2898    -3049 
   -3237    -3447    -3657    -3827    -3940    -3985    -3950    -3838 
   -3659    -3445    -3249    -3117    -3025    -2952    -2918    -2944 
   -3046    -3242    -3503    -3744    -3897    -3923    -3789    -3489 
   -3107    -2813    -2731    -2887    -3237    -3686    -4097    -4315 
   -4243    -3920    -3493    -3067    -2685    -2382    -2189    -2169 
   -2377    -2770    -3250    -3742    -4167    -4438    -4496    -4330 
   -3987    -3549    -3105    -2789    -2724    -2894    -3154    -3352 
   -3408    -3348    -3253    -3198    -3241    -3430    -3697    -3893 
   -3942    -3869    -3744    -3613    -3495    -3414    -3352    -3229 
   -2984    -2658    -2385    -2290    -2394    -2662    -3068    -3546 
   -3998    -4359    -4631    -4841    -4930    -4768    -4248    -3395 
   -2392    -1502     -970     -984    -1617    -2737    -3993    -4969 
   -5410    -5290    -4726    -3928    -3136    -2570    -2355    -2438 
   -2647    -2855    -3014    -3113    -3164    -3229    -3412    -3719 
   -4020    -4194    -4214    -4132    -3996    -3798    -3522    -3190 
   -2856    -2573    -2396    -2403    -2608    -2940    -3311    -3651 
   -3873    -3912    -3817    -3704    -3651    -3672    -3703    -3655 
   -3493    -3237    -2930    -2666    -2581    -2721    -2990    -3281 
   -3555    -3796    -3966    -4044    -4041    -3989    -3877    -3692 
   -3469    -3254    -3078    -2979    -3006    -3123    -3221    -3202 
   -3057    -2840    -2666    -2697    -3011    -3505    -3990    -4294 
   -4324    -4112    -3773    -3445    -3246    -3195    -3196    -3160 
   -3041    -2844    -2647    -2563    -2673    -2997    -3439    -3831 
   -4055    -4086    -3973    -3809    -3657    -3523    -3407    -3295 
   -3168    -3055    -2991    -2983    -3038    -3186    -3414    -3628 
   -3726    -3705    -3639    -3573    -3507    -3445    -3399    -3333 
   -3181    -2974    -2849    -2889    -3049    -3265    -3500    -3708 
   -3836    -3877    -3847    -3735    -3566    -3396    -3267    -3186 
   -3105    -2965    -2791    -2689    -2756    -3019    -3418    -3852 
   -4212    -4384    -4314    -4024    -3581    -3059    -2551    -2189 
   -2068    -2204    -2592    -3194    -3847    -4329    -4530    -4487 
   -4280    -3958    -3573    -3231    -3025    -2933    -2866    -2791 
   -2766    -2825    -2940    -3098    -3346    -3663    -3944    -4104 
   -4132    -4039    -3789    -3375    -2916    -2583    -2457    -2547 
   -2841    -3245    -3604    -3819    -3892    -3882    -3828    -3720 
   -3557    -3381    -3261    -3249    -3338    -3462    -3557    -3572 
   -3451    -3188    -2887    -2721    -2816    -3167    -3654    -4113 
   -4357    -4245    -3801    -3210    -2685    -2380    -2357    -2589 
   -2976    -3402    -3775    -4031    -4151    -4133    -3946    -3597 
   -3186    -2817    -2560    -2463    -2565    -2857    -3264    -3642 
   -3889    -3977    -3927    -3804    -3677    -3547    -3402    -3245 
   -3065    -2876    -2758    -2793    -3009    -3346    -3684    -3937 
   -4099    -4145    -4009    -3697    -3326    -3022    -2847    -2801 
   -2880    -3082    -3353    -3609    -3836    -4048    -4175    -4099 
   -3770    -3264    -2744    -2363    -2226    -2366    -2732    -3210 
   -3670    -3969    -4027    -3883    -3640    -3403    -3245    -3191 
   -3210    -3248    -3267    -3265    -3262    -3285    -3346    -3422 
   -3485    -3531    -3554    -3527    -3464    -3424    -3429    -3447 
   -3462    -3461    -3446    -3403    -3325    -3257    -3231    -3218 
   -3202    -3196    -3219    -3265    -3299    -3330    -3403    -3539 
   -3712    -3842    -3874    -3771    -3528    -3225    -2975    -2833 
   -2809    -2889    -3044    -3225    -3376    -3470    -3522    -3554 
   -3593    -3638    -3669    -3669    -3631    -3553    -3423    -3258 
   -3105    -3011    -2994    -3037    -3134    -3287    -3456    -3595 
   -3680    -3707    -3658    -3503    -3262    -3021    -2866    -2852 
   -2991    -3256    -3576    -3852    -3979    -3936    -3796    -3626 
   -3437    -3264    -3196    -3248    -3321    -3362    -3375    -3349 
   -3265    -3142    -3038    -3006    -3041    -3114    -3234    -3403 
   -3573    -3690    -3716    -3615    -3415    -3200    -3032    -2976 
   -3100    -3379    -3700    -3971    -4139    -4160    -4013    -3701 
   -3276    -2847    -2523    -2380    -2469    -2795    -3272    -3732 
   -4027    -4101    -3974    -3672    -3283    -2947    -2733    -2631 
   -2640    -2794    -3091    -3458    -3794    -4037    -4162    -4121 
   -3886    -3534    -3210    -3001    -2914    -2929    -3033    -3222 
   -3464    -3670    -3781    -3815    -3815    -3759    -3613    -3397 
   -3184    -3028    -2947    -2952    -3036    -3156    -3267    -3356 
   -3433    -3514    -3589    -3619    -3582    -3500    -3402    -3285 
   -3159    -3082    -3114    -3240    -3377    -3469    -3483    -3414 
   -3295    -3165    -3079    -3090    -3210    -3400    -3604    -3773 
   -3848    -3774    -3588    -3404    -3268    -3177    -3172    -3254 
   -3337    -3375    -3402    -3419    -3392    -3312    -3226    -3234 
   -3385    -3599    -3762    -3823    -3751    -3534    -3225    -2926 
   -2733    -2720    -2902    -3249    -3654    -3944    -4017    -3906 
   -3688    -3424    -3181    -2995    -2852    -2740    -2702    -2822 
   -3144    -3608    -4064    -4340    -4347    -4098    -3684    -3222 
   -2855    -2691    -2735    -2909    -3130    -3330    -3445    -3442 
   -3377    -3362    -3457    -3615    -3747    -3798    -3748    -3582 
   -3337    -3110    -2979    -2965    -3072    -3241    -3377    -3460 
   -3519    -3534    -3454    -3310    -3177    -3086    -3041    -3076 
   -3207    -3392    -3581    -3734    -3804    -3750    -3572    -3337 
   -3142    -3071    -3150    -3337    -3531    -3655    -3667    -3573 
   -3419    -3268    -3188    -3223    -3325    -3423    -3503    -3570 
   -3586    -3501    -3321    -3103    -2933    -2884    -2980    -3196 
   -3474    -3750    -3921    -3892    -3651    -3292    -2947    -2739 
   -2733    -2913    -3208    -3510    -3730    -3844    -3873    -3856 
   -3819    -3716    -3508    -3244    -2984    -2768    -2675    -2783 
   -3065    -3412    -3707    -3883    -3906    -3775    -3570    -3395 
   -3284    -3219    -3184    -3172    -3172    -3187    -3218    -3252 
   -3291    -3348    -3396    -3403    -3381    -3385    -3439    -3511 
   -3562    -3555    -3458    -3277    -3086    -2976    -3017    -3222 
   -3515    -3766    -3888    -3874    -3746    -3527    -3269    -3059 
   -2959    -2960    -3024    -3129    -3281    -3487    -3713    -3901 
