Origin Time       2024/06/23 22:54:00
Lat.              35.645
Long.             140.060
Depth. (km)       72
Mag.              4.1
Station Code      FKSH10
Station Lat.      37.1616
Station Long.     140.0930
Station Height(m) 364.4
Record Time       2024/06/23 22:55:13
Sampling Freq(Hz) 100Hz
Duration Time(s)  120
Dir.              2
Scale Factor      2942(gal)/8224139
Max. Acc. (gal)   0.158
Last Correction   2024/06/23 22:55:14
Memo.             
[...]
  315621   315593   315553   315500   315496   315557   315597   315577 
  315547   315539   315551   315588   315616   315598   315562   315553 
  315574   315589   315569   315530   315517   315542   315570   315578 
  315571   315553   315540   315557   315586   315605   315612   315605 
  315578   315546   315538   315559   315573   315566   315574   315580 
  315554   315536   315540   315544   315554   315571   315581   315586 
  315582   315562   315558   315597   315621   315576   315507   315478 
  315488   315527   315607   315686   315677   315580   315507   315497 
  315499   315512   315563   315613   315624   315612   315596   315586 
  315574   315549   315531   315535   315550   315565   315584   315590 
  315565   315530   315522   315539   315553   315550   315570   315615 
  315630   315607   315592   315588   315577   315558   315528   315497 
  315500   315522   315534   315549   315582   315627   315651   315630 
  315596   315581   315563   315526   315503   315515   315539   315554 
  315573   315603   315609   315582   315576   315604   315611   315584 
  315553   315546   315546   315522   315499   315512   315547   315570 
  315567   315571   315598   315616   315613   315596   315563   315550 
  315557   315527   315484   315499   315557   315604   315624   315620 
  315597   315586   315601   315609   315597   315578   315549   315509 
  315490   315503   315536   315577   315589   315570   315565   315577 
  315588   315588   315559   315520   315509   315532   315567   315580 
  315563   315567   315594   315608   315609   315586   315554   315553 
  315565   315558   315554   315553   315553   315566   315589   315605 
  315597   315569   315544   315547   315569   315578   315566   315558 
  315554   315538   315535   315562   315580   315566   315561   315584 
  315608   315604   315576   315544   315534   315546   315565   315558 
  315523   315499   315512   315550   315588   315613   315625   315642 
  315655   315620   315547   315499   315508   315550   315577   315567 
  315551   315571   315615   315634   315604   315555   315519   315509 
  315532   315557   315549   315535   315557   315582   315577   315561 
  315539   315520   315546   315603   315639   315643   315635   315616 
  315589   315558   315535   315528   315527   315523   315527   315557 
  315608   315632   315612   315581   315539   315490   315478   315496 
  315504   315528   315580   315625   315652   315647   315601   315542 
  315505   315492   315505   315561   315628   315663   315663   315632 
  315581   315558   315558   315540   315528   315532   315520   315509 
  315528   315566   315593   315601   315601   315589   315557   315515 
  315501   315532   315573   315580   315577   315597   315608   315600 
  315605   315605   315582   315573   315567   315553   315558   315589 
  315607   315580   315515   315473   315492   315540   315590   315624 
  315632   315613   315566   315520   315495   315470   315476   315535 
  315601   315644   315654   315609   315539   315511   315538   315601 
  315663   315669   315613   315543   315505   315511   315549   315571 
  315559   315553   315581   315608   315588   315540   315504   315490 
  315512   315563   315594   315592   315588   315588   315571   315565 
  315593   315632   315636   315584   315507   315476   315517   315594 
  315632   315597   315543   315516   315511   315513   315535   315574 
  315586   315563   315559   315586   315604   315613   315624   315617 
  315586   315547   315538   315570   315588   315567   315546   315520 
  315490   315501   315551   315585   315582   315571   315555   315534 
  315538   315566   315598   315617   315604   315578   315570   315559 
  315538   315534   315549   315577   315611   315615   315580   315530 
  315500   315527   315578   315608   315628   315647   315620   315549 
  315501   315504   315509   315507   315519   315550   315582   315613 
  315616   315577   315540   315531   315523   315528   315570   315609 
  315612   315594   315589   315603   315607   315590   315588   315594 
  315570   315527   315497   315486   315508   315551   315580   315594 
  315603   315594   315565   315530   315516   315532   315555   315561 
  315553   315565   315615   315671   315681   315632   315580   315555 
  315547   315547   315542   315519   315493   315477   315488   315542 
  315596   315617   315621   315625   315611   315578   315561   315554 
  315538   315527   315535   315551   315543   315517   315536   315597 
  315646   315658   315634   315594   315558   315517   315490   315499 
  315530   315571   315608   315613   315582   315534   315508   315535 
  315584   315598   315566   315532   315539   315566   315589   315593 
  315562   315540   315584   315647   315661   315632   315607   315589 
  315557   315509   315478   315486   315519   315538   315516   315485 
  315489   315531   315598   315658   315686   315684   315630   315555 
  315532   315535   315515   315515   315553   315580   315577   315563 
  315563   315570   315562   315557   315577   315601   315593   315576 
  315582   315578   315562   315566   315571   315570   315554   315507 
  315490   315539   315594   315623   315627   315589   315527   315496 
  315507   315534   315555   315565   315573   315596   315617   315630 
  315630   315601   315563   315553   315542   315534   315561   315597 
  315611   315598   315551   315482   315458   315511   315574   315596 
  315594   315588   315569   315551   315546   315557   315574   315574 
  315558   315549   315557   315584   315605   315604   315603   315585 
  315531   315504   315519   315542   315578   315615   315617   315605 
  315594   315576   315563   315566   315553   315534   315544   315571 
  315588   315597   315592   315561   315526   315503   315507   315536 
  315561   315569   315581   315592   315577   315551   315544   315566 
  315585   315586   315594   315601   315586   315578   315580   315561 
  315531   315520   315527   315538   315569   315619   315644   315636 
  315600   315550   315528   315539   315544   315539   315550   315561 
  315562   315570   315580   315584   315584   315580   315569   315536 
  315504   315532   315580   315573   315539   315535   315557   315574 
  315565   315543   315549   315574   315586   315585   315584   315588 
  315586   315571   315571   315582   315565   315546   315557   315578 
  315588   315584   315584   315581   315558   315522   315481   315469 
  315536   315630   315663   315648   315620   315565   315488   315434 
  315457   315546   315617   315635   315625   315598   315573   315569 
  315578   315586   315573   315562   315589   315620   315627   315625 
  315601   315555   315526   315513   315509   315523   315549   315574 
  315581   315554   315513   315499   315528   315570   315582   315569 
  315563   315567   315567   315585   315617   315605   315565   315542 
  315522   315513   315542   315576   315590   315594   315580   315555 
  315549   315567   315609   315652   315651   315608   315576   315569 
  315553   315515   315493   315517   315535   315516   315523   315557 
  315553   315550   315601   315635   315620   315593   315557   315547 
  315582   315596   315584   315594   315600   315577   315554   315534 
  315519   315532   315555   315550   315553   315596   315630   315604 
  315558   315536   315530   315528   315550   315586   315605   315607 
  315596   315559   315524   315519   315527   315547   315584   315607 
  315598   315567   315540   315535   315536   315554   315600   315623 
  315607   315590   315576   315558   315569   315605   315623   315604 
  315562   315531   315508   315495   315523   315563   315573   315576 
  315570   315531   315504   315526   315563   315571   315555   315565 
  315601   315611   315603   315600   315576   315534   315522   315531 
  315543   315569   315598   315611   315597   315559   315524   315516 
  315532   315566   315601   315607   315592   315590   315594   315574 
  315551   315549   315565   315590   315600   315582   315574   315589 
  315597   315565   315504   315492   315547   315577   315561   315559 
  315569   315561   315553   315547   315551   315562   315582   315631 
  315670   315636   315555   315508   315503   315512   315536   315561 
  315550   315493   315439   315453   315527   315600   315635   315650 
  315654   315638   315608   315589   315589   315598   315594   315570 
  315547   315522   315488   315481   315526   315571   315571   315551 
  315558   315588   315609   315611   315604   315601   315577   315531 
  315512   315540   315577   315574   315527   315481   315481   315509 
  315544   315585   315615   315620   315608   315607   315643   315693 
  315709   315681   315613   315542   315503   315473   315435   315431 
  315466   315508   315526   315511   315500   315515   315544   315596 
  315663   315696   315686   315667   315648   315619   315559   315496 
  315490   315516   315517   315522   315551   315581   315585   315590 
  315607   315601   315573   315559   315565   315571   315563   315528 
  315472   315431   315438   315466   315473   315499   315570   315639 
  315679   315694   315689   315674   315650   315613   315576   315557 
  315561   315558   315539   315517   315486   315457   315459   315490 
  315538   315588   315624   315666   315716   315727   315686   315627 
  315555   315500   315481   315485   315511   315535   315524   315505 
  315536   315600   315623   315584   315543   315530   315513   315495 
  315504   315535   315569   315603   315615   315607   315631   315673 
  315667   315609   315546   315526   315571   315643   315671   315616 
  315523   315468   315458   315480   315546   315621   315647   315619 
  315557   315500   315478   315468   315453   315442   315446   315486 
  315542   315598   315661   315690   315661   315619   315592   315597 
  315654   315717   315701   315615   315536   315489   315470   315493 
  315538   315558   315558   315562   315577   315596   315590   315566 
  315546   315542   315562   315598   315612   315586   315547   315524 
  315531   315554   315576   315573   315535   315505   315522   315531 
  315496   315454   315451   315505   315581   315635   315669   315678 
  315636   315544   315472   315482   315577   315667   315666   315601 
  315566   315558   315561   315608   315684   315724   315705   315655 
  315592   315517   315478   315507   315544   315535   315512   315508 
  315509   315489   315457   315454   315478   315495   315528   315576 
  315582   315563   315577   315612   315636   315634   315598   315563 
  315565   315593   315600   315554   315501   315488   315492   315497 
  315539   315596   315612   315632   315708   315758   315729   315682 
  315625   315546   315497   315517   315562   315577   315549   315504 
  315477   315485   315542   315632   315705   315752   315787   315778 
  315700   315571   315446   315374   315354   315376   315419   315431 
  315387   315297   315239   315277   315378   315496   315604   315662 
  315700   315775   315831   315770   315640   315535   315478   315488 
  315574   315670   315705   315690   315673   315663   315662   315682 
  315711   315711   315686   315640   315563   315505   315493   315496 
  315485   315476   315493   315527   315573   315608   315562   315461 
  315409   315427   315466   315516   315543   315495   315396   315350 
  315411   315508   315562   315586   315588   315550   315527   315567 
  315615   315628   315634   315648   315688   315765   315808   315739 
  315608   315482   315369   315312   315373   315519   315665   315755 
  315787   315785   315748   315670   315596   315580   315605   315627 
  315607   315531   315428   315331   315306   315407   315558   315673 
  315770   315854   315866   315783   315632   315481   315407   315411 
  315404   315327   315239   315219   315280   315407   315535   315593 
  315630   315708   315754   315711   315640   315573   315490   315463 
  315544   315635   315658   315666   315696   315693   315625   315549 
  315519   315530   315549   315588   315651   315690   315701   315724 
  315740   315700   315600   315469   315330   315210   315195   315338 
  315535   315658   315715   315779   315846   315851   315755   315592 
  315466   315441   315458   315480   315539   315623   315689   315717 
  315671   315557   315484   315523   315594   315586   315522   315466 
  315418   315365   315315   315318   315428   315567   315612   315573 
  315524   315520   315574   315623   315605   315550   315516   315519 
  315566   315635   315666   315671   315689   315692   315684   315735 
  315824   315856   315810   315720   315620   315523   315432   315392 
  315435   315482   315461   315434   315463   315520   315571   315612 
  315616   315565   315480   315404   315368   315380   315436   315524 
  315623   315696   315716   315694   315630   315544   315493   315474 
  315458   315441   315408   315360   315316   315334   315468   315655 
  315747   315694   315601   315584   315658   315758   315789   315736 
  315694   315697   315665   315567   315482   315466   315495   315536 
  315566   315567   315597   315679   315732   315716   315654   315558 
  315461   315428   315469   315554   315651   315694   315644   315559 
  315488   315436   315434   315486   315528   315509   315480   315484 
  315490   315490   315517   315550   315554   315550   315563   315574 
  315554   315501   315447   315427   315449   315476   315488   315504 
  315540   315609   315708   315823   315922   315983   316008   315954 
  315798   315598   315414   315252   315153   315191   315345   315501 
  315627   315732   315797   315813   315773   315663   315544   315485 
  315481   315490   315474   315414   315389   315462   315557   315607 
  315617   315604   315609   315634   315607   315538   315523   315589 
  315670   315713   315689   315570   315423   315392   315485   315571 
  315600   315603   315585   315571   315605   315682   315747   315759 
  315712   315623   315482   315324   315258   315293   315345   315388 
  315439   315492   315547   315613   315678   315735   315775   315747 
  315635   315513   315432   315397   315430   315497   315516   315509 
  315522   315534   315547   315581   315624   315670   315692   315689 
  315679   315648   315611   315617   315638   315605   315520   315481 
  315553   315673   315739   315716   315639   315558   315477   315388 
  315355   315431   315532   315570   315573   315573   315524   315455 
  315449   315496   315559   315634   315696   315706   315670   315621 
  315574   315532   315515   315520   315532   315524   315481   315427 
  315396   315431   315539   315634   315636   315565   315482   315438 
  315463   315550   315644   315692   315690   315670   315615   315519 
  315442   315441   315493   315520   315501   315528   315627   315711 
  315755   315755   315693   315615   315550   315512   315553   315646 
  315697   315667   315576   315466   315420   315469   315562   315652 
  315729   315781   315797   315779   315728   315642   315530   315428 
  315388   315415   315431   315419   315447   315488   315493   315544 
  315657   315702   315625   315505   315438   315449   315507   315573 
  315615   315635   315646   315621   315570   315546   315551   315582 
  315658   315725   315731   315711   315671   315594   315553   315582 
  315605   315559   315470   315404   315396   315418   315431   315435 
  315446   315473   315501   315523   315520   315480   315426   315404 
  315457   315558   315625   315646   315684   315756   315789   315727 
  315665   315696   315716   315623   315501   315478   315565   315675 
  315721   315684   315625   315611   315604   315553   315515   315543 
  315580   315559   315497   315447   315423   315432   315492   315581 
  315643   315662   315651   315613   315559   315532   315524   315477 
  315397   315362   315393   315455   315524   315558   315524   315465 
  315459   315516   315589   315634   315620   315551   315484   315474 
  315517   315576   315650   315760   315863   315855   315729   315607 
  315577   315620   315659   315646   315590   315512   315447   315446 
  315504   315592   315701   315806   315847   315793   315665   315507 
  315372   315323   315376   315463   315500   315473   315461   315474 
  315468   315445   315407   315346   315310   315330   315415   315558 
  315671   315689   315679   315720   315787   315829   315816   315743 
  315615   315493   315461   315517   315592   315636   315640   315628 
  315628   315644   315652   315617   315555   315515   315505   315515 
  315551   315603   315621   315565   315481   315461   315511   315578 
  315624   315623   315578   315547   315535   315499   315459   315481 
  315551   315594   315576   315534   315496   315468   315453   315436 
  315422   315457   315555   315682   315778   315787   315727   315661 
  315608   315569   315553   315549   315542   315528   315501   315457 
  315450   315538   315639   315659   315654   315669   315640   315557 
  315482   315462   315480   315508   315542   315565   315563   315554 
  315523   315474   315461   315507   315584   315654   315682   315671 
  315652   315616   315562   315528   315515   315486   315451   315453 
  315503   315559   315578   315593   315654   315721   315748   315729 
  315675   315639   315632   315623   315628   315647   315621   315551 
  315485   315449   315454   315504   315588   315667   315682   315608 
  315497   315393   315306   315272   315333   315441   315503   315520 
  315555   315632   315713   315759   315760   315729   315678   315650 
  315662   315686   315716   315732   315696   315625   315557   315517 
  315543   315576   315555   315528   315501   315454   315441   315451 
  315443   315453   315503   315554   315565   315538   315526   315550 
  315585   315609   315609   315569   315493   315449   315480   315535 
  315571   315594   315609   315627   315655   315659   315616   315582 
  315590   315596   315585   315590   315592   315559   315513   315490 
  315503   315532   315561   315574   315551   315527   315565   315608 
  315578   315542   315549   315546   315538   315558   315582   315598 
  315627   315661   315684   315694   315671   315607   315536   315496 
  315480   315488   315531   315582   315594   315576   315547   315501 
  315453   315427   315430   315463   315516   315562   315580   315577 
  315594   315627   315604   315513   315461   315486   315532   315567 
  315609   315647   315652   315643   315631   315592   315534   315484 
  315451   315449   315474   315531   315594   315619   315613   315627 
  315651   315652   315650   315646   315613   315553   315516   315536 
  315582   315615   315619   315577   315490   315415   315412   315472 
  315522   315527   315524   315555   315621   315697   315724   315678 
  315625   315621   315651   315669   315644   315598   315559   315528 
  315511   315508   315501   315500   315551   315640   315669   315608 
  315540   315517   315503   315480   315468   315469   315492   315549 
  315604   315596   315522   315468   315490   315554   315613   315642 
  315613   315565   315547   315570   315592   315580   315559   315574 
  315616   315648   315652   315621   315582   315570   315592   315604 
  315604   315619   315643   315654   315655   315624   315549   315481 
