Origin Time       2024/06/23 22:54:00
Lat.              35.645
Long.             140.060
Depth. (km)       72
Mag.              4.1
Station Code      FKSH10
Station Lat.      37.1616
Station Long.     140.0930
Station Height(m) 364.4
Record Time       2024/06/23 22:55:13
Sampling Freq(Hz) 100Hz
Duration Time(s)  120
Dir.              1
Scale Factor      2942(gal)/8224139
Max. Acc. (gal)   0.180
Last Correction   2024/06/23 22:55:14
Memo.             
[...]
  -20267   -20240   -20202   -20217   -20283   -20340   -20358   -20336 
  -20289   -20245   -20232   -20245   -20274   -20295   -20304   -20298 
  -20275   -20245   -20216   -20186   -20186   -20214   -20235   -20256 
  -20290   -20294   -20251   -20202   -20204   -20236   -20255   -20291 
  -20345   -20352   -20305   -20268   -20266   -20268   -20252   -20224 
  -20217   -20248   -20281   -20271   -20235   -20228   -20243   -20237 
  -20237   -20252   -20251   -20251   -20251   -20228   -20212   -20243 
  -20287   -20289   -20258   -20258   -20293   -20313   -20306   -20277 
  -20228   -20197   -20205   -20239   -20283   -20308   -20304   -20310 
  -20312   -20270   -20221   -20212   -20216   -20221   -20251   -20283 
  -20278   -20244   -20227   -20241   -20256   -20243   -20231   -20256 
  -20298   -20324   -20326   -20293   -20240   -20210   -20216   -20240 
  -20271   -20301   -20316   -20286   -20233   -20233   -20266   -20258 
  -20228   -20216   -20205   -20200   -20231   -20266   -20260   -20241 
  -20263   -20301   -20294   -20270   -20290   -20321   -20312   -20264 
  -20224   -20228   -20254   -20254   -20247   -20272   -20295   -20285 
  -20259   -20235   -20216   -20209   -20212   -20214   -20218   -20229 
  -20254   -20275   -20282   -20283   -20293   -20289   -20262   -20236 
  -20231   -20243   -20262   -20274   -20279   -20301   -20331   -20353 
  -20345   -20304   -20255   -20220   -20201   -20204   -20218   -20224 
  -20223   -20225   -20212   -20196   -20213   -20240   -20244   -20258 
  -20290   -20298   -20270   -20248   -20263   -20297   -20317   -20299 
  -20264   -20245   -20245   -20248   -20262   -20274   -20248   -20213 
  -20213   -20227   -20243   -20267   -20274   -20270   -20286   -20295 
  -20263   -20225   -20239   -20274   -20286   -20289   -20286   -20260 
  -20247   -20256   -20248   -20235   -20241   -20250   -20252   -20259 
  -20248   -20213   -20201   -20237   -20258   -20233   -20231   -20245 
  -20248   -20262   -20281   -20279   -20279   -20286   -20286   -20277 
  -20258   -20260   -20297   -20304   -20259   -20232   -20254   -20290 
  -20295   -20255   -20213   -20220   -20255   -20264   -20250   -20233 
  -20208   -20200   -20244   -20294   -20301   -20281   -20250   -20223 
  -20232   -20270   -20293   -20295   -20293   -20297   -20291   -20243 
  -20177   -20156   -20197   -20254   -20283   -20294   -20310   -20326 
  -20316   -20267   -20227   -20224   -20231   -20232   -20239   -20250 
  -20248   -20248   -20282   -20317   -20312   -20290   -20258   -20217 
  -20220   -20256   -20268   -20259   -20256   -20275   -20285   -20252 
  -20225   -20232   -20221   -20206   -20251   -20322   -20349   -20316 
  -20252   -20205   -20193   -20201   -20213   -20236   -20255   -20247 
  -20235   -20231   -20237   -20268   -20304   -20302   -20275   -20268 
  -20291   -20313   -20326   -20316   -20259   -20218   -20233   -20274 
  -20313   -20320   -20289   -20262   -20244   -20197   -20127   -20097 
  -20146   -20231   -20285   -20301   -20286   -20251   -20218   -20200 
  -20210   -20283   -20355   -20352   -20312   -20297   -20309   -20308 
  -20279   -20245   -20231   -20243   -20252   -20239   -20223   -20216 
  -20225   -20250   -20271   -20281   -20281   -20277   -20266   -20244 
  -20220   -20217   -20260   -20314   -20312   -20272   -20267   -20264 
  -20236   -20224   -20241   -20260   -20275   -20283   -20283   -20266 
  -20236   -20228   -20232   -20217   -20202   -20216   -20239   -20241 
  -20241   -20263   -20281   -20268   -20278   -20320   -20325   -20285 
  -20233   -20193   -20198   -20250   -20299   -20325   -20326   -20324 
  -20314   -20283   -20251   -20233   -20201   -20181   -20205   -20228 
  -20228   -20247   -20282   -20294   -20281   -20264   -20260   -20271 
  -20293   -20299   -20266   -20218   -20205   -20205   -20208   -20240 
  -20270   -20263   -20270   -20310   -20337   -20318   -20268   -20229 
  -20218   -20237   -20264   -20248   -20205   -20205   -20232   -20231 
  -20244   -20293   -20324   -20321   -20299   -20268   -20254   -20256 
  -20244   -20228   -20237   -20272   -20313   -20322   -20291   -20250 
  -20232   -20236   -20241   -20262   -20297   -20305   -20262   -20213 
  -20201   -20193   -20181   -20204   -20240   -20254   -20274   -20318 
  -20341   -20312   -20275   -20267   -20258   -20229   -20221   -20245 
  -20270   -20275   -20270   -20282   -20314   -20325   -20305   -20285 
  -20252   -20206   -20175   -20159   -20159   -20191   -20236   -20266 
  -20279   -20281   -20282   -20289   -20277   -20247   -20232   -20229 
  -20223   -20243   -20277   -20295   -20306   -20317   -20318   -20308 
  -20285   -20254   -20217   -20190   -20200   -20243   -20289   -20308 
  -20298   -20267   -20245   -20241   -20212   -20174   -20181   -20225 
  -20263   -20260   -20248   -20263   -20255   -20224   -20248   -20297 
  -20297   -20290   -20314   -20321   -20294   -20278   -20285   -20282 
  -20252   -20220   -20206   -20202   -20221   -20264   -20297   -20312 
  -20313   -20274   -20220   -20205   -20214   -20213   -20227   -20277 
  -20301   -20272   -20260   -20289   -20301   -20282   -20251   -20212 
  -20183   -20178   -20189   -20214   -20259   -20310   -20345   -20352 
  -20317   -20251   -20205   -20209   -20243   -20267   -20271   -20272 
  -20272   -20254   -20221   -20206   -20210   -20229   -20263   -20283 
  -20305   -20341   -20347   -20301   -20241   -20206   -20213   -20248 
  -20285   -20305   -20308   -20283   -20245   -20224   -20220   -20228 
  -20247   -20259   -20264   -20259   -20243   -20225   -20218   -20241 
  -20281   -20286   -20266   -20258   -20250   -20223   -20200   -20212 
  -20248   -20270   -20287   -20306   -20289   -20244   -20218   -20223 
  -20236   -20260   -20291   -20308   -20304   -20310   -20317   -20299 
  -20272   -20247   -20235   -20244   -20259   -20277   -20282   -20251 
  -20205   -20189   -20201   -20228   -20258   -20270   -20262   -20235 
  -20193   -20182   -20233   -20289   -20297   -20294   -20299   -20279 
  -20241   -20231   -20236   -20240   -20263   -20295   -20299   -20293 
  -20316   -20322   -20274   -20225   -20228   -20256   -20278   -20286 
  -20267   -20236   -20212   -20200   -20210   -20233   -20258   -20293 
  -20305   -20278   -20274   -20297   -20282   -20244   -20244   -20282 
  -20306   -20291   -20250   -20208   -20193   -20213   -20240   -20243 
  -20243   -20264   -20277   -20271   -20287   -20310   -20299   -20281 
  -20285   -20286   -20263   -20250   -20270   -20283   -20259   -20241 
  -20240   -20208   -20171   -20173   -20198   -20243   -20301   -20325 
  -20293   -20254   -20262   -20293   -20299   -20272   -20235   -20213 
  -20218   -20233   -20243   -20252   -20272   -20305   -20302   -20270 
  -20281   -20309   -20301   -20289   -20283   -20266   -20256   -20254 
  -20247   -20231   -20193   -20166   -20182   -20210   -20231   -20264 
  -20290   -20262   -20209   -20210   -20275   -20325   -20329   -20322 
  -20304   -20254   -20201   -20186   -20209   -20259   -20305   -20305 
  -20278   -20267   -20256   -20245   -20260   -20282   -20289   -20289 
  -20277   -20251   -20236   -20236   -20232   -20209   -20189   -20197 
  -20240   -20295   -20312   -20290   -20270   -20252   -20241   -20260 
  -20289   -20291   -20271   -20254   -20237   -20201   -20174   -20209 
  -20268   -20293   -20293   -20291   -20289   -20278   -20264   -20259 
  -20251   -20228   -20213   -20228   -20252   -20256   -20248   -20258 
  -20279   -20281   -20270   -20275   -20287   -20271   -20227   -20191 
  -20186   -20209   -20248   -20271   -20260   -20251   -20255   -20258 
  -20278   -20314   -20326   -20316   -20308   -20299   -20282   -20252 
  -20210   -20174   -20170   -20191   -20220   -20252   -20282   -20299 
  -20306   -20287   -20248   -20221   -20218   -20236   -20275   -20301 
  -20291   -20279   -20281   -20258   -20231   -20250   -20278   -20270 
  -20239   -20227   -20247   -20283   -20313   -20321   -20306   -20275 
  -20235   -20208   -20216   -20235   -20241   -20243   -20262   -20293 
  -20293   -20268   -20255   -20244   -20228   -20229   -20237   -20233 
  -20236   -20248   -20248   -20239   -20236   -20243   -20270   -20316 
  -20332   -20295   -20244   -20232   -20247   -20244   -20233   -20228 
  -20223   -20244   -20282   -20291   -20281   -20275   -20267   -20247 
  -20232   -20236   -20248   -20251   -20232   -20218   -20241   -20281 
  -20294   -20291   -20305   -20329   -20322   -20275   -20251   -20263 
  -20256   -20243   -20260   -20281   -20272   -20255   -20231   -20200 
  -20179   -20177   -20175   -20178   -20189   -20210   -20248   -20279 
  -20286   -20287   -20299   -20309   -20312   -20314   -20317   -20322 
  -20332   -20309   -20244   -20200   -20225   -20283   -20298   -20267 
  -20245   -20228   -20191   -20162   -20148   -20156   -20209   -20286 
  -20326   -20325   -20324   -20320   -20283   -20235   -20220   -20237 
  -20252   -20271   -20289   -20283   -20275   -20271   -20264   -20271 
  -20275   -20245   -20225   -20245   -20256   -20252   -20271   -20278 
  -20244   -20218   -20212   -20201   -20209   -20247   -20262   -20233 
  -20220   -20263   -20314   -20333   -20333   -20331   -20312   -20281 
  -20267   -20258   -20224   -20201   -20209   -20225   -20240   -20247 
  -20244   -20254   -20274   -20270   -20239   -20229   -20250   -20263 
  -20264   -20259   -20255   -20256   -20255   -20254   -20264   -20287 
  -20308   -20312   -20282   -20232   -20205   -20214   -20239   -20267 
  -20286   -20277   -20258   -20267   -20297   -20316   -20308   -20286 
  -20266   -20244   -20223   -20218   -20233   -20248   -20256   -20259 
  -20262   -20282   -20299   -20274   -20228   -20206   -20216   -20235 
  -20235   -20229   -20236   -20244   -20255   -20264   -20263   -20260 
  -20252   -20231   -20218   -20237   -20278   -20299   -20283   -20259 
  -20250   -20263   -20297   -20306   -20274   -20254   -20259   -20244 
  -20213   -20213   -20252   -20299   -20322   -20306   -20282   -20277 
  -20267   -20239   -20212   -20204   -20224   -20267   -20308   -20310 
  -20271   -20247   -20259   -20245   -20196   -20175   -20201   -20233 
  -20248   -20251   -20250   -20248   -20260   -20282   -20297   -20310 
  -20331   -20329   -20295   -20262   -20248   -20248   -20241   -20218 
  -20198   -20208   -20224   -20240   -20270   -20302   -20316   -20326 
  -20347   -20358   -20345   -20305   -20244   -20179   -20140   -20146 
  -20183   -20206   -20202   -20201   -20225   -20252   -20262   -20277 
  -20297   -20297   -20285   -20275   -20260   -20224   -20193   -20201 
  -20229   -20255   -20297   -20329   -20298   -20247   -20248   -20279 
  -20299   -20304   -20289   -20293   -20331   -20328   -20270   -20237 
  -20250   -20251   -20221   -20187   -20193   -20218   -20216   -20228 
  -20312   -20418   -20455   -20383   -20247   -20136   -20104   -20144 
  -20202   -20214   -20194   -20201   -20229   -20244   -20258   -20285 
  -20306   -20305   -20298   -20312   -20339   -20339   -20287   -20236 
  -20218   -20213   -20220   -20279   -20376   -20437   -20413   -20324 
  -20229   -20148   -20075   -20058   -20105   -20164   -20213   -20252 
  -20277   -20305   -20337   -20340   -20314   -20309   -20317   -20281 
  -20218   -20163   -20098   -20067   -20131   -20251   -20358   -20430 
  -20443   -20382   -20314   -20285   -20260   -20229   -20206   -20208 
  -20247   -20291   -20297   -20291   -20305   -20310   -20293   -20297 
  -20312   -20279   -20217   -20177   -20143   -20100   -20082   -20110 
  -20163   -20232   -20320   -20382   -20364   -20282   -20218   -20232 
  -20294   -20352   -20383   -20380   -20360   -20324   -20241   -20135 
  -20067   -20038   -20032   -20071   -20151   -20241   -20312   -20351 
  -20376   -20380   -20332   -20287   -20309   -20363   -20395   -20386 
  -20322   -20220   -20133   -20098   -20124   -20198   -20290   -20347 
  -20339   -20289   -20248   -20224   -20212   -20243   -20314   -20382 
  -20412   -20399   -20366   -20301   -20171   -20047   -20058   -20147 
  -20191   -20227   -20290   -20316   -20281   -20208   -20136   -20139 
  -20208   -20260   -20279   -20278   -20263   -20251   -20240   -20214 
  -20198   -20235   -20294   -20312   -20309   -20333   -20353   -20343 
  -20333   -20343   -20368   -20380   -20353   -20322   -20325   -20335 
  -20337   -20335   -20309   -20270   -20227   -20182   -20159   -20148 
  -20129   -20102   -20071   -20048   -20066   -20120   -20178   -20214 
  -20213   -20162   -20092   -20061   -20073   -20120   -20198   -20286 
  -20368   -20443   -20515   -20584   -20611   -20578   -20520   -20482 
  -20451   -20399   -20349   -20337   -20336   -20295   -20233   -20185 
  -20150   -20127   -20147   -20198   -20220   -20210   -20209   -20194 
  -20127   -20040   -19989   -19988   -20061   -20212   -20356   -20436 
  -20445   -20371   -20251   -20179   -20151   -20115   -20062   -19993 
  -19908   -19886   -19992   -20169   -20317   -20410   -20474   -20536 
  -20592   -20592   -20544   -20502   -20497   -20521   -20537   -20503 
  -20428   -20331   -20210   -20106   -20070   -20106   -20190   -20283 
  -20335   -20317   -20252   -20178   -20128   -20115   -20106   -20093 
  -20085   -20048   -19998   -20016   -20086   -20127   -20162   -20247 
  -20380   -20514   -20583   -20549   -20429   -20272   -20137   -20113 
  -20216   -20333   -20386   -20401   -20391   -20370   -20347   -20299 
  -20232   -20190   -20171   -20112   -20008   -19921   -19907   -19975 
  -20102   -20279   -20499   -20690   -20760   -20706   -20560   -20375 
  -20236   -20174   -20147   -20120   -20098   -20121   -20169   -20186 
  -20190   -20202   -20193   -20189   -20277   -20445   -20563   -20538 
  -20391   -20183   -19973   -19840   -19865   -20042   -20271   -20457 
  -20571   -20595   -20530   -20433   -20366   -20328   -20281   -20201 
  -20100   -20023   -20011   -20052   -20096   -20139   -20223   -20309 
  -20345   -20344   -20304   -20231   -20179   -20174   -20193   -20191 
  -20152   -20147   -20228   -20344   -20453   -20556   -20591   -20482 
  -20282   -20115   -20043   -20066   -20150   -20233   -20275   -20281 
  -20277   -20277   -20277   -20286   -20348   -20461   -20567   -20615 
  -20584   -20493   -20380   -20243   -20078   -19947   -19892   -19908 
  -19975   -20071   -20129   -20127   -20137   -20220   -20312   -20339 
  -20312   -20270   -20190   -20073   -19988   -19978   -20040   -20143 
  -20260   -20389   -20501   -20568   -20596   -20567   -20471   -20378 
  -20347   -20337   -20317   -20332   -20379   -20382   -20317   -20237 
  -20201   -20216   -20240   -20236   -20198   -20147   -20089   -20052 
  -20100   -20183   -20221   -20241   -20291   -20347   -20364   -20326 
  -20275   -20236   -20197   -20174   -20178   -20166   -20131   -20119 
  -20171   -20270   -20349   -20363   -20313   -20240   -20189   -20166 
  -20160   -20183   -20237   -20267   -20251   -20221   -20220   -20282 
  -20389   -20460   -20455   -20418   -20409   -20429   -20445   -20412 
  -20310   -20200   -20152   -20178   -20254   -20320   -20298   -20170 
  -20001   -19913   -19986   -20140   -20256   -20324   -20364   -20372 
  -20337   -20267   -20181   -20110   -20098   -20164   -20270   -20364 
  -20445   -20493   -20455   -20321   -20163   -20089   -20136   -20255 
  -20385   -20491   -20544   -20513   -20401   -20243   -20120   -20098 
  -20133   -20139   -20119   -20117   -20135   -20181   -20279   -20390 
  -20457   -20444   -20358   -20267   -20190   -20101   -20027   -19996 
  -19989   -20001   -20059   -20160   -20254   -20326   -20382   -20360 
  -20304   -20335   -20428   -20476   -20457   -20379   -20271   -20227 
  -20282   -20358   -20402   -20436   -20456   -20430   -20351   -20221 
  -20121   -20113   -20131   -20137   -20183   -20252   -20285   -20268 
  -20216   -20155   -20121   -20135   -20194   -20268   -20312   -20310 
  -20282   -20232   -20147   -20047   -19986   -20008   -20078   -20146 
  -20231   -20366   -20524   -20657   -20729   -20686   -20536   -20352 
  -20205   -20090   -19973   -19874   -19846   -19903   -20024   -20173 
  -20291   -20371   -20430   -20448   -20453   -20497   -20544   -20536 
  -20456   -20364   -20324   -20298   -20232   -20167   -20131   -20121 
  -20133   -20120   -20066   -20032   -20071   -20146   -20189   -20178 
  -20163   -20191   -20260   -20325   -20363   -20374   -20349   -20331 
  -20370   -20436   -20440   -20358   -20224   -20079   -20002   -20074 
  -20251   -20417   -20517   -20549   -20522   -20463   -20402   -20379 
  -20394   -20374   -20291   -20231   -20239   -20223   -20125   -20020 
  -19971   -19984   -20054   -20148   -20208   -20209   -20166   -20139 
  -20177   -20229   -20241   -20235   -20223   -20187   -20151   -20143 
  -20151   -20177   -20240   -20324   -20380   -20424   -20486   -20534 
  -20537   -20507   -20460   -20403   -20331   -20236   -20169   -20174 
  -20236   -20298   -20321   -20308   -20255   -20194   -20169   -20159 
  -20129   -20108   -20140   -20205   -20254   -20285   -20312   -20322 
  -20309   -20270   -20204   -20163   -20209   -20290   -20325   -20306 
  -20239   -20144   -20113   -20163   -20186   -20160   -20160   -20166 
  -20142   -20154   -20214   -20270   -20302   -20299   -20272   -20277 
  -20324   -20367   -20376   -20367   -20360   -20362   -20353   -20302 
  -20210   -20154   -20194   -20279   -20318   -20290   -20241   -20228 
  -20266   -20332   -20378   -20372   -20329   -20293   -20286   -20297 
  -20290   -20231   -20144   -20094   -20100   -20136   -20177   -20208 
  -20205   -20181   -20205   -20279   -20332   -20366   -20397   -20393 
  -20348   -20290   -20236   -20229   -20295   -20371   -20379   -20316 
  -20237   -20205   -20221   -20250   -20264   -20274   -20275   -20260 
  -20248   -20259   -20252   -20185   -20120   -20116   -20140   -20160 
  -20178   -20183   -20160   -20139   -20163   -20241   -20345   -20414 
  -20397   -20326   -20290   -20317   -20348   -20336   -20316   -20302 
  -20277   -20247   -20228   -20206   -20186   -20191   -20206   -20210 
  -20248   -20344   -20406   -20347   -20241   -20204   -20228   -20239 
  -20213   -20197   -20228   -20287   -20362   -20444   -20475   -20432 
  -20356   -20278   -20204   -20158   -20154   -20151   -20127   -20102 
  -20119   -20183   -20266   -20328   -20358   -20345   -20312   -20287 
  -20267   -20244   -20224   -20183   -20125   -20101   -20137   -20213 
  -20271   -20272   -20251   -20260   -20321   -20412   -20456   -20421 
  -20336   -20236   -20155   -20133   -20162   -20201   -20224   -20239 
  -20266   -20312   -20367   -20412   -20433   -20436   -20402   -20344 
  -20305   -20274   -20208   -20133   -20078   -20044   -20047   -20085 
  -20116   -20105   -20081   -20100   -20151   -20200   -20229   -20216 
  -20201   -20240   -20306   -20351   -20374   -20397   -20422   -20429 
  -20429   -20430   -20424   -20399   -20339   -20247   -20150   -20100 
  -20139   -20240   -20332   -20387   -20393   -20348   -20304   -20283 
  -20250   -20159   -20044   -20008   -20109   -20266   -20341   -20320 
  -20298   -20318   -20321   -20279   -20247   -20244   -20254   -20278 
  -20317   -20348   -20325   -20232   -20156   -20182   -20231   -20205 
  -20150   -20129   -20137   -20170   -20240   -20316   -20355   -20348 
  -20340   -20353   -20333   -20255   -20198   -20208   -20252   -20290 
