Origin Time       2024/06/23 22:54:00
Lat.              35.645
Long.             140.060
Depth. (km)       72
Mag.              4.1
Station Code      FKSH10
Station Lat.      37.1616
Station Long.     140.0930
Station Height(m) 564.9
Record Time       2024/06/23 22:55:13
Sampling Freq(Hz) 100Hz
Duration Time(s)  120
Dir.              6
Scale Factor      7845(gal)/8223790
Max. Acc. (gal)   1.080
Last Correction   2024/06/23 22:55:14
Memo.             
[...]
   19360    19295    19182    19071    19045    19122    19201    19205 
   19163    19138    19156    19210    19265    19256    19153    19040 
   19018    19095    19215    19341    19425    19410    19303    19143 
   18989    18955    19094    19306    19422    19371    19219    19079 
   19029    19099    19252    19377    19379    19257    19089    18948 
   18906    19037    19294    19472    19450    19303    19152    19067 
   19064    19125    19221    19300    19313    19263    19198    19143 
   19086    19039    19043    19090    19143    19203    19269    19296 
   19255    19167    19091    19091    19182    19299    19365    19364 
   19299    19174    19057    19039    19097    19147    19187    19275 
   19388    19425    19359    19241    19117    18994    18921    18967 
   19107    19251    19341    19348    19252    19093    18968    18975 
   19113    19290    19426    19483    19434    19290    19125    19048 
   19078    19143    19191    19233    19241    19172    19090    19101 
   19188    19251    19224    19128    19026    18982    19037    19192 
   19384    19534    19558    19419    19163    18921    18833    18939 
   19165    19406    19537    19479    19261    18998    18831    18867 
   19099    19402    19619    19626    19356    18909    18546    18499 
   18816    19334    19778    19911    19674    19198    18740    18554 
   18731    19165    19626    19853    19711    19286    18831    18592 
   18693    19090    19558    19797    19688    19356    18993    18736 
   18698    18914    19253    19503    19529    19329    19040    18866 
   18918    19138    19386    19523    19473    19272    19024    18846 
   18843    19037    19300    19472    19481    19348    19152    19002 
   18972    19082    19276    19419    19400    19249    19072    18987 
   19062    19252    19418    19454    19353    19151    18936    18851 
   18954    19178    19411    19533    19450    19187    18917    18810 
   18897    19126    19400    19554    19481    19242    19010    18917 
   18990    19178    19381    19476    19402    19215    19026    18921 
   18931    19024    19171    19352    19491    19498    19369    19175 
   18981    18864    18924    19155    19404    19539    19521    19348 
   19072    18839    18804    18993    19287    19541    19611    19437 
   19114    18823    18725    18898    19233    19507    19557    19388 
   19128    18937    18916    19045    19234    19380    19421    19344 
   19197    19060    19009    19063    19190    19309    19338    19275 
   19174    19087    19043    19074    19188    19318    19372    19352 
   19283    19182    19075    19008    19017    19109    19213    19256 
   19249    19256    19278    19287    19322    19387    19381    19249 
   19032    18820    18736    18863    19165    19496    19685    19620 
   19329    18978    18743    18723    18929    19278    19584    19656 
   19446    19093    18809    18746    18954    19334    19666    19753 
   19564    19213    18848    18616    18640    18924    19318    19633 
   19720    19545    19228    18944    18808    18871    19091    19315 
   19399    19344    19217    19068    18987    19053    19224    19383 
   19454    19415    19284    19134    19030    18982    18993    19087 
   19244    19387    19442    19379    19214    19045    18981    19039 
   19163    19290    19342    19282    19133    18983    18939    19040 
   19230    19422    19531    19488    19284    19021    18844    18843 
   19008    19230    19383    19419    19357    19249    19179    19187 
   19222    19217    19170    19134    19121    19106    19109    19157 
   19232    19292    19315    19283    19201    19124    19113    19157 
   19211    19253    19268    19234    19161    19089    19057    19099 
   19197    19272    19264    19199    19132    19080    19086    19174 
   19267    19276    19209    19132    19103    19148    19256    19388 
   19498    19518    19376    19111    18889    18832    18943    19133 
   19309    19411    19418    19338    19203    19074    19024    19060 
   19124    19164    19178    19179    19190    19229    19278    19286 
   19222    19133    19078    19080    19143    19237    19296    19295 
   19256    19168    19052    18990    19037    19153    19286    19384 
   19387    19284    19138    19032    19035    19151    19310    19441 
   19503    19454    19259    18960    18725    18738    19026    19413 
   19661    19654    19411    19049    18747    18671    18879    19279 
   19665    19801    19573    19102    18678    18544    18759    19190 
   19579    19696    19526    19214    18928    18797    18877    19121 
   19399    19562    19546    19386    19171    18994    18933    19002 
   19122    19211    19278    19342    19361    19290    19138    18987 
   18945    19044    19213    19359    19413    19353    19233    19129 
   19084    19095    19134    19172    19211    19242    19237    19210 
   19206    19218    19209    19180    19145    19097    19068    19116 
   19219    19299    19295    19222    19144    19121    19164    19224 
   19249    19229    19174    19111    19098    19156    19248    19319 
   19336    19279    19170    19089    19125    19261    19372    19354 
   19211    19021    18871    18855    19035    19346    19593    19597 
   19363    19051    18835    18806    18978    19290    19588    19680 
   19485    19134    18843    18755    18893    19167    19414    19496 
   19383    19168    18994    18952    19060    19260    19419    19423 
   19282    19103    18994    18995    19078    19198    19319    19360 
   19279    19147    19071    19097    19211    19361    19461    19435 
   19267    19044    18895    18889    19003    19171    19337    19450 
   19460    19356    19188    19022    18925    18967    19136    19303 
   19375    19354    19267    19149    19063    19056    19133    19242 
   19314    19309    19215    19076    18991    19053    19229    19360 
   19349    19225    19068    18976    19018    19161    19311    19398 
   19395    19307    19180    19063    19032    19125    19260    19344 
   19372    19327    19187    19035    18987    19059    19178    19283 
   19352    19372    19302    19147    18997    18939    18982    19095 
   19244    19359    19365    19288    19205    19153    19140    19174 
   19269    19391    19430    19329    19138    18956    18862    18902 
   19040    19199    19341    19423    19388    19253    19105    19025 
   19040    19130    19237    19298    19294    19255    19209    19172 
   19153    19140    19136    19179    19265    19318    19299    19242 
   19170    19091    19059    19102    19191    19267    19276    19213 
   19145    19143    19206    19284    19314    19272    19165    19024 
   18931    18986    19180    19377    19467    19430    19291    19098 
   18943    18917    19044    19251    19427    19492    19410    19210 
   18994    18875    18906    19076    19314    19503    19533    19384 
   19143    18917    18804    18873    19105    19404    19633    19661 
   19467    19157    18904    18821    18920    19137    19359    19468 
   19422    19257    19053    18906    18895    19025    19222    19383 
   19407    19276    19094    18995    19029    19147    19279    19373 
   19360    19211    19039    19012    19170    19367    19446    19365 
   19172    18970    18895    19028    19295    19527    19577    19410 
   19117    18875    18810    18927    19159    19396    19498    19419 
   19230    19025    18900    18954    19186    19425    19491    19357 
   19124    18948    18956    19130    19344    19476    19465    19322 
   19114    18943    18897    18993    19192    19414    19516    19404 
   19149    18913    18827    18941    19190    19418    19494    19399 
   19211    19037    18978    19053    19213    19388    19476    19392 
   19179    18978    18908    18997    19190    19368    19404    19278 
   19090    18959    18949    19082    19318    19529    19561    19395 
   19156    18979    18925    18982    19101    19215    19268    19249 
   19198    19176    19218    19298    19345    19315    19224    19110 
   19026    19036    19148    19296    19384    19349    19195    19021 
   18968    19080    19257    19381    19414    19348    19195    19022 
   18924    18948    19068    19233    19373    19425    19353    19198 
   19067    19036    19080    19136    19163    19178    19211    19246 
   19248    19230    19228    19241    19252    19261    19276    19299 
   19327    19288    19148    19005    18968    19035    19121    19188 
   19265    19342    19348    19269    19168    19111    19106    19121 
   19130    19134    19141    19143    19141    19175    19242    19303 
   19334    19314    19244    19176    19148    19133    19120    19133 
   19168    19207    19249    19269    19246    19187    19117    19070 
   19060    19102    19211    19340    19408    19387    19302    19187 
   19063    18964    18958    19063    19228    19379    19456    19417 
   19264    19060    18910    18900    19044    19275    19449    19452 
   19296    19090    18941    18922    19044    19252    19467    19603 
   19565    19334    19012    18739    18654    18827    19165    19458 
   19576    19508    19294    19053    18952    19033    19214    19408 
   19522    19435    19136    18809    18692    18874    19278    19669 
   19780    19539    19110    18743    18628    18813    19192    19568 
   19758    19684    19395    19020    18731    18677    18887    19244 
   19549    19649    19502    19178    18835    18684    18801    19072 
   19359    19569    19611    19450    19188    18978    18910    19006 
   19206    19380    19425    19325    19130    18943    18871    18947 
   19118    19313    19471    19512    19415    19265    19144    19057 
   19005    19016    19093    19190    19269    19305    19282    19224 
   19176    19176    19225    19286    19307    19292    19255    19157 
   19005    18908    18968    19148    19321    19419    19415    19295 
   19117    18991    18989    19082    19186    19251    19284    19280 
   19238    19232    19307    19404    19431    19340    19136    18890 
   18739    18775    18967    19237    19499    19641    19558    19267 
   18956    18840    18974    19264    19538    19603    19383    19010 
   18731    18706    18947    19323    19611    19614    19350    19013 
   18786    18774    19006    19368    19629    19618    19350    18995 
   18770    18801    19049    19381    19645    19689    19473    19126 
   18873    18851    19030    19286    19483    19496    19292    19005 
   18819    18840    19055    19356    19593    19630    19430    19099 
   18806    18692    18828    19164    19534    19727    19593    19186 
   18751    18527    18635    19057    19608    19971    19911    19464 
   18893    18484    18434    18763    19321    19840    20038    19801 
   19280    18752    18455    18528    18937    19450    19781    19776 
   19483    19083    18779    18692    18814    19087    19441    19716 
   19739    19498    19128    18810    18701    18874    19246    19576 
   19674    19529    19214    18854    18632    18657    18866    19160 
   19433    19545    19452    19251    19062    18959    19003    19188 
   19396    19508    19483    19337    19144    19014    19039    19190 
   19348    19394    19275    19059    18891    18878    19041    19330 
   19580    19610    19371    19005    18720    18648    18836    19221 
   19602    19766    19634    19291    18910    18688    18765    19121 
   19570    19845    19727    19237    18669    18342    18408    18860 
   19508    19975    19939    19427    18781    18376    18427    18922 
   19592    20070    20125    19773    19225    18762    18598    18763 
   19111    19453    19650    19637    19440    19170    18958    18841 
   18804    18866    19049    19305    19525    19587    19418    19084 
   18766    18638    18783    19155    19568    19796    19689    19309 
   18875    18609    18650    19005    19481    19777    19707    19323 
   18886    18681    18808    19137    19453    19615    19592    19421 
   19165    18932    18802    18816    18994    19284    19527    19587 
   19457    19211    18947    18794    18844    19064    19341    19552 
   19602    19468    19210    18949    18812    18844    19005    19221 
   19434    19588    19619    19485    19222    18952    18789    18777 
   18898    19120    19350    19445    19344    19144    18966    18897 
   19001    19268    19583    19773    19714    19413    19022    18763 
   18762    18987    19323    19592    19630    19411    19045    18721 
   18652    18913    19333    19635    19668    19468    19160    18878 
   18724    18748    18947    19228    19458    19539    19460    19299 
   19148    19021    18912    18859    18922    19117    19406    19693 
   19836    19747    19442    18978    18501    18289    18504    19021 
   19572    19911    19873    19479    18963    18621    18628    18979 
   19504    19920    19992    19666    19074    18477    18202    18411 
   18999    19674    20101    20065    19612    19035    18638    18571 
   18816    19218    19558    19631    19394    19024    18766    18724 
   18870    19124    19350    19434    19381    19288    19259    19333 
   19437    19445    19282    18952    18589    18439    18657    19149 
   19691    20077    20127    19773    19160    18566    18300    18547 
   19176    19803    20047    19750    19071    18385    18067    18310 
   19020    19832    20325    20254    19683    18936    18411    18396 
   18906    19626    20102    20058    19545    18855    18345    18274 
   18643    19186    19602    19701    19471    19090    18820    18802 
   19043    19422    19710    19708    19413    18985    18642    18578 
   18846    19282    19624    19692    19464    19080    18765    18692 
   18887    19224    19512    19623    19549    19363    19159    19020 
   19001    19093    19233    19338    19369    19332    19237    19111 
   19039    19060    19151    19291    19430    19456    19319    19114 
   18947    18833    18804    18901    19071    19209    19306    19381 
   19429    19456    19448    19359    19199    19021    18882    18851 
   18940    19066    19172    19278    19390    19469    19491    19438 
   19292    19103    18979    18956    18990    19064    19186    19319 
   19418    19471    19491    19446    19298    19087    18902    18794 
   18808    18985    19276    19518    19561    19407    19168    18959 
   18882    18976    19165    19333    19403    19341    19171    18991 
   18904    18922    19029    19206    19395    19511    19529    19469 
   19350    19178    18983    18862    18917    19147    19410    19548 
   19506    19332    19118    18952    18874    18871    18902    18976 
   19156    19396    19576    19650    19607    19408    19083    18760 
   18600    18708    19055    19498    19832    19872    19553    19022 
   18570    18441    18708    19246    19769    19954    19688    19147 
   18659    18495    18724    19170    19526    19606    19426    19111 
   18829    18760    18989    19390    19718    19782    19556    19184 
   18881    18785    18897    19128    19361    19504    19530    19445 
   19260    19033    18875    18874    19049    19326    19565    19630 
   19437    19049    18721    18670    18867    19153    19377    19422 
   19271    19039    18882    18910    19126    19430    19670    19697 
   19471    19126    18867    18820    18978    19188    19279    19213 
   19094    19037    19055    19095    19163    19268    19344    19342 
   19282    19195    19106    19022    18966    19005    19191    19472 
   19732    19843    19704    19327    18901    18655    18698    19002 
   19427    19750    19761    19435    18985    18694    18689    18906 
   19199    19386    19354    19165    18990    18939    19030    19219 
   19408    19468    19348    19120    18933    18920    19072    19263 
   19375    19338    19152    18925    18827    18960    19271    19581 
   19718    19602    19311    19026    18895    18963    19180    19421 
   19534    19426    19101    18721    18559    18748    19163    19615 
   19946    19994    19695    19167    18658    18412    18542    18968 
   19457    19762    19759    19488    19106    18832    18777    18895 
   19117    19350    19465    19394    19215    19071    19045    19152 
   19325    19413    19306    19053    18806    18689    18752    18971 
   19252    19500    19651    19653    19489    19240    19052    19001 
   19030    19083    19175    19300    19398    19421    19368    19240 
   19053    18900    18893    19047    19259    19435    19516    19456 
   19272    19030    18828    18771    18900    19138    19363    19481 
   19441    19251    19053    18983    19033    19172    19369    19535 
   19589    19494    19252    18936    18698    18705    18976    19338 
   19565    19558    19384    19165    18999    18935    18964    19070 
   19232    19395    19483    19431    19260    19091    19057    19159 
   19272    19303    19259    19188    19126    19095    19093    19087 
   19083    19110    19153    19179    19175    19160    19176    19221 
   19221    19165    19140    19182    19233    19248    19249    19251 
   19219    19157    19117    19114    19121    19151    19236    19334 
   19390    19413    19394    19256    19006    18779    18723    18885 
   19213    19550    19708    19577    19234    18894    18742    18840 
   19126    19449    19650    19616    19365    19055    18866    18866 
   19025    19264    19476    19531    19369    19105    18922    18891 
   18978    19143    19315    19377    19310    19209    19153    19155 
   19202    19265    19298    19272    19222    19184    19151    19120 
   19116    19165    19269    19367    19381    19313    19214    19106 
   19005    18955    18966    19017    19086    19145    19165    19155 
   19134    19129    19165    19232    19275    19267    19211    19133 
   19089    19149    19291    19392    19391    19321    19232    19175 
   19180    19219    19251    19280    19314    19322    19273    19149 
   18985    18871    18891    19040    19249    19437    19518    19448 
   19280    19111    19008    19016    19122    19260    19365    19411 
   19354    19183    18994    18901    18927    19048    19206    19311 
   19322    19237    19098    18989    18967    19033    19156    19295 
   19376    19349    19242    19143    19110    19149    19261    19418 
   19511    19458    19295    19105    18955    18906    19008    19237 
   19491    19624    19557    19317    19020    18827    18859    19071 
   19284    19359    19290    19134    18981    18932    19037    19240 
   19446    19554    19473    19202    18885    18697    18732    18971 
   19307    19570    19612    19410    19095    18858    18832    19035 
   19340    19581    19630    19446    19159    18952    18913    19018 
   19183    19282    19249    19172    19155    19172    19149    19086 
   19049    19091    19219    19380    19479    19438    19265    19056 
   18918    18895    19001    19199    19384    19438    19337    19174 
   19078    19099    19203    19313    19365    19342    19260    19152 
   19064    19049    19138    19291    19395    19350    19151    18921 
   18804    18836    19005    19251    19444    19476    19372    19240 
