Origin Time       2024/06/23 22:54:00
Lat.              35.645
Long.             140.060
Depth. (km)       72
Mag.              4.1
Station Code      FKSH10
Station Lat.      37.1616
Station Long.     140.0930
Station Height(m) 564.9
Record Time       2024/06/23 22:55:13
Sampling Freq(Hz) 100Hz
Duration Time(s)  120
Dir.              4
Scale Factor      7845(gal)/8223790
Max. Acc. (gal)   1.476
Last Correction   2024/06/23 22:55:14
Memo.             
[...]
   11504    11465    11493    11583    11705    11813    11866    11844 
   11755    11634    11522    11442    11391    11380    11433    11537 
   11651    11758    11850    11917    11932    11875    11758    11604 
   11452    11360    11354    11399    11452    11531    11654    11784 
   11889    11973    11993    11902    11715    11497    11307    11182 
   11157    11279    11527    11799    11977    12021    11961    11850 
   11735    11651    11615    11588    11522    11433    11365    11345 
   11407    11572    11770    11924    12015    12015    11893    11677 
   11439    11269    11218    11284    11439    11622    11772    11870 
   11915    11881    11772    11615    11470    11400    11446    11597 
   11777    11898    11919    11846    11716    11581    11465    11372 
   11322    11335    11414    11560    11724    11834    11865    11840 
   11800    11774    11735    11669    11603    11543    11491    11469 
   11500    11584    11674    11707    11662    11576    11510    11514 
   11607    11757    11880    11911    11846    11722    11597    11515 
   11464    11425    11414    11425    11433    11468    11591    11792 
   11974    12059    12040    11917    11712    11503    11362    11307 
   11317    11372    11464    11580    11712    11854    11955    11962 
   11866    11696    11504    11365    11333    11415    11565    11718 
   11832    11875    11839    11763    11681    11592    11496    11430 
   11429    11462    11499    11570    11692    11800    11847    11843 
   11808    11726    11612    11530    11504    11503    11519    11565 
   11634    11689    11711    11713    11708    11677    11628    11601 
   11600    11607    11612    11627    11639    11615    11565    11534 
   11549    11605    11689    11763    11804    11821    11809    11740 
   11628    11508    11399    11338    11364    11462    11596    11738 
   11847    11902    11911    11859    11740    11585    11446    11375 
   11406    11511    11623    11700    11749    11788    11801    11763 
   11686    11603    11533    11484    11472    11515    11603    11673 
   11695    11695    11696    11676    11620    11577    11593    11655 
   11704    11693    11649    11635    11659    11678    11659    11618 
   11566    11497    11434    11450    11583    11776    11928    11979 
   11923    11784    11599    11425    11334    11358    11461    11574 
   11661    11713    11724    11689    11630    11596    11619    11673 
   11712    11722    11703    11658    11605    11564    11538    11545 
   11588    11639    11686    11728    11757    11766    11751    11712 
   11653    11580    11519    11503    11523    11546    11584    11657 
   11730    11765    11761    11711    11612    11503    11425    11410 
   11470    11572    11686    11800    11871    11870    11809    11726 
   11646    11572    11491    11421    11411    11484    11591    11685 
   11765    11793    11745    11666    11624    11624    11637    11622 
   11587    11574    11588    11614    11655    11716    11754    11736 
   11676    11607    11561    11546    11551    11566    11581    11593 
   11620    11665    11704    11730    11736    11704    11649    11614 
   11608    11612    11601    11570    11529    11492    11475    11507 
   11614    11767    11900    11950    11908    11811    11699    11592 
   11515    11481    11468    11465    11477    11488    11511    11578 
   11673    11751    11803    11838    11847    11800    11688    11554 
   11460    11426    11448    11512    11595    11658    11705    11757 
   11804    11816    11782    11711    11618    11529    11460    11402 
   11372    11425    11551    11695    11813    11898    11925    11866 
   11743    11627    11534    11457    11412    11404    11460    11589 
   11738    11854    11919    11921    11844    11700    11530    11377 
   11280    11271    11357    11507    11669    11812    11917    11962 
   11947    11893    11793    11628    11427    11267    11199    11238 
   11388    11630    11894    12091    12152    12067    11882    11661 
   11443    11264    11178    11242    11414    11580    11711    11823 
   11878    11853    11784    11701    11618    11558    11545    11565 
   11585    11585    11570    11560    11572    11635    11762    11889 
   11929    11858    11711    11527    11357    11271    11291    11387 
   11542    11736    11902    11993    12006    11951    11828    11668 
   11507    11377    11295    11267    11304    11410    11554    11701 
   11835    11944    12002    11985    11889    11730    11530    11356 
   11268    11276    11375    11542    11739    11912    12013    12023 
   11940    11769    11541    11321    11182    11175    11296    11500 
   11723    11913    12029    12051    11977    11826    11634    11442 
   11291    11219    11253    11400    11627    11847    11959    11928 
   11808    11684    11593    11553    11583    11655    11712    11711 
   11646    11553    11489    11480    11519    11587    11658    11709 
   11726    11709    11685    11674    11661    11616    11557    11534 
   11572    11653    11736    11778    11753    11651    11493    11361 
   11329    11408    11564    11734    11874    11977    12027    12004 
   11892    11696    11470    11295    11217    11252    11385    11557 
   11696    11769    11780    11759    11722    11684    11670    11662 
   11622    11566    11557    11622    11720    11794    11803    11734 
   11614    11496    11438    11470    11572    11670    11716    11719 
   11705    11681    11647    11622    11626    11642    11645    11630 
   11607    11589    11578    11580    11610    11661    11712    11740 
   11743    11734    11699    11628    11551    11492    11470    11512 
   11604    11692    11740    11750    11716    11645    11570    11515 
   11502    11539    11589    11632    11686    11742    11765    11774 
   11800    11827    11805    11700    11541    11389    11288    11271 
   11350    11479    11619    11772    11912    11974    11932    11824 
   11686    11545    11437    11410    11464    11537    11580    11599 
   11618    11643    11689    11757    11821    11848    11817    11726 
   11611    11533    11503    11497    11506    11520    11523    11512 
   11511    11543    11626    11753    11889    11983    11989    11907 
   11763    11591    11434    11348    11333    11357    11412    11508 
   11634    11753    11827    11846    11816    11758    11688    11634 
   11632    11661    11645    11564    11469    11406    11407    11491 
   11631    11770    11853    11862    11812    11715    11615    11564 
   11561    11572    11573    11576    11578    11581    11607    11661 
   11707    11709    11678    11634    11593    11592    11650    11735 
   11793    11786    11718    11626    11539    11487    11479    11493 
   11512    11539    11585    11654    11728    11778    11773    11719 
   11654    11608    11600    11634    11681    11697    11669    11619 
   11578    11565    11578    11603    11638    11668    11680    11673 
   11654    11634    11626    11641    11662    11659    11615    11553 
   11510    11503    11527    11576    11641    11711    11766    11786 
   11773    11734    11682    11628    11578    11557    11570    11597 
   11634    11680    11713    11731    11730    11708    11664    11599 
   11515    11438    11403    11441    11542    11662    11770    11847 
   11863    11816    11728    11630    11546    11487    11479    11522 
   11584    11645    11699    11720    11696    11631    11565    11547 
   11595    11666    11713    11715    11680    11631    11603    11628 
   11693    11745    11754    11713    11637    11545    11476    11470 
   11535    11624    11699    11742    11731    11658    11560    11483 
   11454    11484    11577    11696    11790    11836    11817    11754 
   11699    11659    11612    11574    11569    11574    11566    11547 
   11535    11553    11583    11614    11685    11804    11912    11947 
   11882    11735    11562    11408    11302    11277    11342    11462 
   11577    11661    11747    11840    11890    11874    11804    11696 
   11574    11504    11539    11650    11751    11774    11711    11601 
   11499    11448    11476    11572    11692    11772    11759    11689 
   11642    11634    11614    11565    11523    11512    11530    11592 
   11704    11812    11840    11770    11626    11479    11415    11442 
   11514    11610    11712    11767    11746    11689    11649    11643 
   11670    11707    11726    11711    11658    11581    11524    11519 
   11542    11568    11599    11622    11622    11619    11645    11697 
   11740    11749    11743    11736    11718    11685    11657    11632 
   11601    11546    11479    11449    11481    11565    11657    11724 
   11759    11761    11711    11624    11554    11533    11547    11569 
   11612    11686    11743    11763    11772    11761    11718    11653 
   11592    11560    11556    11558    11557    11543    11516    11514 
   11554    11630    11723    11803    11832    11815    11770    11703 
   11632    11580    11547    11527    11497    11449    11423    11462 
   11557    11668    11766    11844    11892    11904    11880    11809 
   11695    11539    11368    11244    11232    11338    11508    11676 
   11804    11878    11882    11828    11765    11723    11703    11697 
   11678    11614    11508    11418    11389    11419    11491    11599 
   11697    11739    11753    11789    11840    11851    11784    11665 
   11546    11458    11415    11443    11543    11657    11722    11726 
   11669    11583    11524    11514    11547    11641    11761    11842 
   11846    11780    11686    11612    11570    11535    11496    11484 
   11520    11592    11684    11790    11877    11881    11777    11604 
   11465    11430    11469    11519    11580    11664    11739    11763 
   11750    11743    11736    11688    11605    11523    11448    11396 
   11400    11457    11551    11670    11782    11857    11886    11866 
   11796    11689    11562    11442    11373    11395    11487    11596 
   11693    11789    11870    11896    11848    11743    11603    11458 
   11350    11329    11410    11568    11750    11889    11936    11875 
   11735    11573    11437    11357    11371    11466    11589    11682 
   11716    11709    11697    11692    11685    11684    11705    11738 
   11757    11774    11797    11778    11707    11634    11592    11550 
   11464    11360    11292    11287    11358    11515    11736    11963 
   12117    12162    12098    11917    11658    11411    11253    11202 
   11249    11376    11543    11703    11807    11830    11772    11659 
   11549    11495    11529    11637    11762    11850    11886    11866 
   11785    11643    11460    11277    11129    11072    11173    11419 
   11732    12043    12272    12344    12222    11954    11643    11380 
   11218    11188    11276    11435    11599    11699    11732    11738 
   11742    11750    11751    11722    11668    11591    11483    11388 
   11394    11514    11661    11766    11828    11832    11765    11685 
   11653    11689    11757    11767    11676    11547    11480    11497 
   11577    11697    11805    11832    11743    11570    11385    11252 
   11214    11288    11466    11711    11959    12140    12202    12143 
   11979    11696    11321    10982    10817    10891    11179    11577 
   11955    12206    12259    12121    11911    11749    11680    11678 
   11695    11703    11688    11614    11488    11381    11307    11234 
   11173    11191    11342    11603    11892    12125    12258    12275 
   12168    11979    11793    11639    11487    11313    11133    11017 
   11021    11128    11313    11581    11867    12083    12204    12220 
   12118    11928    11713    11523    11371    11271    11238    11280 
   11377    11508    11655    11789    11878    11920    11920    11871 
   11750    11558    11337    11137    11037    11119    11375    11686 
   11955    12133    12204    12189    12132    12029    11842    11600 
   11379    11221    11140    11156    11269    11431    11560    11620 
   11665    11736    11842    11979    12109    12164    12090    11843 
   11458    11078    10851    10844    11040    11360    11705    11973 
   12097    12075    11952    11786    11628    11506    11442    11456 
   11546    11695    11847    11940    11965    11947    11904    11851 
   11782    11670    11529    11408    11348    11365    11477    11657 
   11821    11894    11855    11728    11543    11346    11194    11118 
   11114    11172    11313    11545    11815    12015    12074    12004 
   11854    11670    11507    11425    11437    11507    11580    11628 
   11662    11688    11709    11743    11793    11854    11913    11967 
   12000    11971    11839    11596    11272    10971    10856    11011 
   11369    11797    12185    12434    12472    12312    12021    11659 
   11308    11055    10928    10891    10902    10956    11070    11271 
   11599    12036    12463    12757    12872    12791    12463    11896 
   11223    10627    10234    10127    10353    10854    11448    11965 
   12356    12633    12792    12806    12645    12290    11778    11250 
   10881    10750    10835    11053    11321    11550    11669    11678 
   11658    11680    11720    11716    11680    11669    11697    11763 
   11862    11951    11961    11889    11804    11777    11828    11921 
   11939    11762    11373    10883    10484    10336    10486    10921 
   11585    12310    12888    13182    13126    12711    12050    11337 
   10754    10408    10349    10605    11124    11724    12216    12478 
   12465    12217    11850    11522    11315    11200    11149    11179 
   11269    11361    11464    11647    11909    12140    12229    12159 
   12004    11823    11643    11475    11323    11232    11264    11434 
   11681    11934    12117    12152    12006    11720    11365    11029 
   10827    10875    11218    11751    12285    12664    12777    12560 
   12067    11450    10898    10592    10619    10932    11402    11846 
   12109    12136    11958    11674    11430    11340    11422    11596 
   11738    11784    11740    11632    11504    11443    11511    11688 
   11912    12105    12186    12085    11796    11398    11007    10731 
   10644    10779    11110    11587    12139    12654    13012    13105 
   12856    12298    11592    10939    10482    10258    10257    10501 
   10979    11577    12160    12619    12858    12823    12549    12143 
   11736    11408    11173    11048    11040    11126    11260    11375 
   11430    11423    11362    11296    11318    11488    11772    12087 
   12367    12537    12549    12420    12162    11781    11377    11076 
   10914    10885    10952    11041    11124    11257    11502    11865 
   12285    12649    12856    12816    12478    11882    11188    10604 
   10314    10381    10740    11263    11788    12178    12359    12332 
   12150    11874    11550    11222    10962    10829    10875    11161 
   11661    12209    12630    12780    12583    12106    11523    11026 
   10750    10728    10929    11288    11723    12162    12503    12644 
   12529    12187    11712    11222    10828    10633    10700    11007 
   11446    11871    12159    12237    12108    11851    11585    11394 
   11335    11472    11774    12100    12306    12321    12097    11624 
   11001    10455    10200    10312    10752    11394    12043    12518 
   12738    12745    12619    12441    12266    12085    11840    11495 
   11095    10748    10536    10507    10687    11029    11446    11900 
   12339    12676    12831    12761    12468    11977    11361    10787 
   10438    10426    10724    11183    11632    11965    12148    12233 
   12263    12236    12158    12033    11824    11547    11303    11175 
   11167    11229    11308    11348    11330    11337    11470    11728 
   12010    12214    12270    12124    11794    11418    11152    11070 
   11182    11426    11693    11908    12056    12145    12143    12005 
   11739    11399    11094    10928    10951    11163    11483    11769 
   11950    12039    12054    11994    11884    11773    11674    11583 
   11514    11516    11597    11718    11823    11861    11830    11774 
   11723    11681    11631    11547    11421    11250    11087    11029 
   11137    11402    11743    12024    12154    12131    12006    11843 
   11674    11524    11408    11298    11207    11223    11373    11554 
   11662    11672    11612    11539    11523    11615    11794    11963 
   12028    11985    11878    11736    11568    11410    11325    11340 
   11427    11557    11718    11889    12009    12024    11950    11842 
   11728    11635    11605    11662    11776    11834    11732    11484 
   11198    11011    11006    11188    11504    11874    12181    12328 
   12299    12127    11834    11480    11176    11003    10971    11086 
   11338    11651    11925    12090    12087    11916    11651    11408 
   11290    11340    11518    11726    11848    11851    11794    11742 
   11713    11730    11823    11942    11963    11827    11580    11288 
   11017    10860    10912    11155    11470    11763    11998    12156 
   12201    12108    11898    11646    11395    11180    11084    11179 
   11430    11739    12024    12231    12339    12336    12216    11982 
   11665    11315    11007    10836    10851    11010    11240    11492 
   11732    11916    12028    12087    12102    12075    12028    11938 
   11757    11529    11349    11240    11169    11140    11192    11348 
   11576    11830    12055    12201    12235    12143    11939    11676 
   11421    11217    11078    11016    11041    11134    11265    11434 
   11659    11923    12160    12313    12364    12289    12079    11804 
   11543    11323    11161    11097    11153    11317    11560    11831 
   12055    12167    12133    11970    11728    11472    11267    11165 
   11186    11308    11479    11650    11815    11955    12015    11967 
   11826    11632    11449    11353    11384    11488    11561    11541 
   11449    11365    11371    11493    11703    11923    12067    12083 
   11989    11815    11583    11357    11207    11171    11252    11426 
   11649    11836    11919    11909    11858    11780    11693    11642 
   11654    11713    11792    11871    11929    11902    11738    11480 
   11245    11122    11145    11291    11504    11723    11890    11974 
   11948    11823    11672    11581    11566    11595    11654    11743 
   11824    11838    11757    11604    11434    11296    11225    11252 
   11380    11556    11730    11908    12079    12187    12197    12102 
   11909    11654    11395    11200    11113    11102    11132    11221 
   11388    11599    11778    11888    11929    11905    11817    11715 
   11658    11665    11693    11703    11682    11622    11522    11429 
   11400    11457    11591    11758    11877    11869    11718    11514 
   11373    11361    11497    11726    11912    11970    11893    11699 
   11429    11183    11068    11114    11295    11583    11902    12140 
   12235    12172    11996    11777    11561    11371    11260    11291 
   11445    11631    11776    11847    11848    11804    11745    11692 
   11653    11626    11607    11588    11570    11553    11522    11500 
   11514    11561    11647    11765    11863    11913    11901    11800 
