Origin Time       2024/06/23 22:54:00
Lat.              35.645
Long.             140.060
Depth. (km)       72
Mag.              4.1
Station Code      IBRH08
Station Lat.      36.1188
Station Long.     140.5621
Station Height(m) -1160
Record Time       2024/06/23 22:54:49
Sampling Freq(Hz) 100Hz
Duration Time(s)  120
Dir.              3
Scale Factor      7845(gal)/8223790
Max. Acc. (gal)   0.145
Last Correction   2024/06/23 22:54:49
Memo.             
     824      822      818      819      819      819      820      822 
     823      822      820      822      819      819      822      820 
     819      822      820      819      819      822      823      822 
     820      820      820      820      820      820      819      819 
     818      816      818      819      820      823      823      820 
     822      820      819      820      820      820      820      820 
     823      819      816      819      822      822      820      819 
     820      823      823      820      819      822      822      819 
     820      820      820      822      822      820      822      822 
     819      819      822      822      820      820      819      818 
     819      819      818      819      822      822      818      819 
     822      822      822      823      822      820      822      822 
     822      820      820      820      820      820      820      819 
     822      822      820      822      823      820      822      824 
     824      822      820      822      822      822      820      820 
     822      820      819      822      823      819      820      820 
     819      822      823      819      819      822      822      823 
     822      822      822      820      822      820      819      822 
     823      822      819      819      820      822      820      820 
     822      822      820      820      819      820      820      820 
     820      820      819      819      819      822      820      819 
     820      820      822      823      824      822      820      820 
     820      819      819      819      819      823      823      819 
     819      822      820      820      822      822      822      822 
     820      819      820      822      820      819      820      822 
     822      819      819      822      820      820      820      820 
     820      820      823      823      820      820      822      820 
     820      822      820      823      823      819      819      820 
     820      818      818      820      822      820      819      820 
     823      820      818      820      824      823      820      820 
     822      822      819      820      823      822      818      819 
     822      820      820      820      820      820      820      820 
     820      822      822      820      820      820      819      820 
     822      820      820      819      820      822      820      819 
     820      820      823      822      820      822      822      820 
     820      820      820      820      820      818      819      820 
     822      819      819      820      820      819      822      822 
     819      820      822      820      818      819      820      823 
     823      819      819      820      822      824      822      820 
     823      822      819      820      822      822      822      822 
     820      819      819      822      823      822      822      822 
     819      819      820      822      823      824      820      818 
     819      819      819      820      822      820      820      820 
     822      820      818      820      820      818      820      824 
     822      818      819      823      823      819      819      819 
     819      819      819      818      820      822      820      820 
     822      819      820      823      823      822      819      818 
     819      820      822      822      820      822      823      822 
     819      819      819      820      820      819      819      820 
     819      818      819      820      820      819      820      822 
     822      822      819      818      820      819      819      819 
     819      818      816      816      819      820      819      818 
     820      820      819      819      818      818      819      820 
     820      820      822      822      819      820      822      819 
     816      819      820      819      820      822      820      820 
     822      822      823      823      822      822      820      820 
     822      819      816      820      823      819      823      824 
     822      824      828      824      822      823      815      810 
     818      827      826      816      814      818      823      826 
     818      815      827      828      814      808      801      804 
     835      847      832      822      810      807      816      816 
     835      851      810      766      769      795      849      884 
     861      853      837      781      787      818      796      810 
     861      868      834      791      769      778      787      807 
     850      880      888      855      796      774      778      788 
     849      896      843      789      803      796      756      789 
     857      831      804      859      861      812      805      805 
     819      853      855      847      841      805      757      757 
     843      903      834      778      812      827      808      807 
     824      850      846      804      792      837      862      823 
     795      815      826      814      800      811      822      800 
     799      823      828      837      842      834      816      805 
     822      804      765      812      881      861      819      803 
     787      788      819      853      843      783      765      816 
     866      869      835      811      814      800      785      832 
     891      869      827      811      776      780      823      814 
     799      828      831      808      801      812      828      823 
     820      847      847      823      824      814      799      810 
     800      792      824      851      854      837      810      797 
     801      808      830      868      873      814      765      778 
     811      839      845      820      805      818      816      812 
     828      816      792      832      858      805      787      823 
     834      826      822      811      792      783      808      845 
     842      831      842      826      801      812      804      770 
     803      854      827      796      827      849      847      854 
     846      841      851      838      827      849      864      857 
     831      801      777      764      777      808      818      816 
     820      791      762      780      792      800      835      865 
     880      861      818      834      880      866      835      835 
     842      816      750      711      734      765      781      801 
     828      855      861      835      822      830      843      870 
     892      877      822      766      749      762      791      827 
     846      842      841      855      847      830      854      862 
     804      750      746      784      839      864      819      774 
     796      824      834      851      859      837      799      783 
     797      805      808      816      819      838      853      826 
     815      841      851      864      891      892      861      822 
     777      760      791      832      859      876      855      788 
     733      714      710      738      822      882      850      800 
     815      868      907      900      876      850      810      795 
     826      865      857      811      791      776      761      795 
     819      808      812      785      745      788      835      832 
     866      868      778      741      799      878      899      841 
     816      834      796      768      792      781      746      761 
     845      926      918      873      876      850      768      757 
     826      823      769      791      822      787      796      868 
     866      827      877      916      842      777      776      784 
     831      865      810      762      783      807      822      814 
     796      828      842      822      849      880      876      849 
     812      797      750      691      746      851      881      886 
     893      857      797      778      811      854      885      884 
     846      807      780      770      785      804      815      808 
     784      781      805      819      851      919      913      815 
     781      824      803      762      784      788      772      787 
     832      904      913      830      757      750      792      851 
     878      866      837      772      704      726      801      853 
     895      928      891      799      746      753      764      788 
     838      869      851      832      841      828      814      838 
     857      854      864      865      822      758      737      768 
     805      823      827      820      795      772      789      831 
     846      816      780      811      857      843      835      847 
     846      846      841      843      865      854      823      796 
     751      756      855      930      904      841      770      711 
     699      745      832      923      972      947      857      773 
     735      733      789      857      837      791      811      847 
     843      800      766      776      770      793      889      911 
     820      757      745      768      835      874      861      845 
     824      792      768      765      781      830      912      950 
     880      796      785      803      805      808      835      847 
     826      831      849      822      814      832      823      832 
     839      784      750      785      822      834      835      824 
     816      808      804      847      892      847      757      729 
     770      838      884      868      824      816      830      810 
     789      822      858      839      814      815      791      742 
     754      824      861      847      850      873      868      841 
     846      859      822      769      773      823      859      850 
     811      787      792      816      832      804      762      774 
     815      847      880      865      815      792      773      768 
     793      815      820      815      804      816      832      834 
     841      837      814      824      864      881      870      846 
     818      800      800      796      772      773      815      832 
     824      823      807      796      842      901      912      878 
     832      791      780      804      797      762      785      820 
     801      804      851      886      908      888      819      780 
     778      784      805      849      859      819      805      841 
     837      787      753      750      772      818      850      862 
     882      874      816      808      851      839      777      749 
     765      801      843      857      828      805      822      853 
     874      868      816      757      735      758      805      845 
     851      841      827      818      828      847      832      793 
     784      807      849      878      847      799      793      788 
     783      830      853      814      808      831      820      814 
     827      849      850      814      812      868      889      870 
     862      838      791      765      766      788      812      803 
     793      801      804      838      886      878      838      805 
     795      816      842      843      830      804      801      835 
     835      800      796      796      769      778      812      810 
     807      834      846      850      855      828      797      795 
     783      770      787      831      878      869      827      835 
     853      838      820      803      805      847      855      843 
     854      832      795      789      784      792      808      807 
     816      841      832      799      801      830      824      811 
     820      808      795      824      845      831      837      841 
     796      760      785      835      865      853      826      824 
     824      808      814      835      831      827      851      853 
     827      832      842      803      769      776      787      807 
     846      858      849      837      830      838      841      832 
     818      803      788      781      810      859      857      814 
     819      827      776      757      795      800      785      808 
     819      803      811      819      822      841      838      820 
     816      820      849      874      850      826      835      838 
     834      857      870      827      774      774      789      784 
     803      843      850      859      889      853      768      727 
     735      773      811      830      849      841      803      791 
     804      824      846      870      881      839      778      777 
     796      811      862      889      853      826      812      787 
     796      841      835      796      810      832      785      723 
     733      784      818      838      865      892      896      882 
     893      903      876      827      795      785      774      768 
     793      818      831      859      873      843      793      768 
     772      791      823      846      861      853      803      768 
     761      749      766      788      787      804      827      842 
     870      892      912      934      904      826      768      765 
     783      805      841      841      787      731      699      714 
     783      839      857      870      880      865      851      862 
     862      834      818      824      824      811      818      850 
     857      827      803      805      815      818      816      819 
     824      826      828      834      831      819      812      822 
     858      882      855      822      808      761      718      737 
     776      814      841      834      811      789      787      820 
     878      932      928      847      765      765      810      814 
     823      881      892      827      761      746      787      823 
     834      842      820      783      778      784      784      807 
     843      866      868      835      805      814      834      838 
     842      846      834      808      799      822      838      826 
     799      788      823      873      874      830      784      743 
     723      742      788      853      927      942      896      841 
     774      739      793      858      864      830      773      708 
     684      737      834      905      931      927      909      877 
     815      774      780      805      854      895      870      823 
     791      731      677      733      853      911      905      882 
     842      785      741      747      803      837      828      832 
     866      895      886      841      787      750      756      796 
     839      874      882      854      831      839      834      796 
     754      738      747      761      781      815      845      851 
     827      800      807      841      873      868      827      826 
     865      865      851      864      854      835      827      804 
     785      789      799      803      789      784      805      839 
     889      930      920      880      845      792      729      733 
     795      807      757      720      720      751      785      777 
     778      832      874      881      888      896      889      855 
     803      776      795      820      837      857      874      872 
     862      874      897      892      846      803      791      781 
     770      776      781      807      847      828      764      737 
     781      855      895      885      865      861      865      841 
     788      742      716      711      734      787      842      866 
     847      787      724      756      872      945      927      872 
     834      827      815      800      815      849      857      824 
     792      800      805      789      778      750      724      739 
     757      769      816      866      897      905      899      905 
     901      866      841      824      816      851      884      838 
     754      718      737      761      785      834      877      893 
     901      882      846      841      837      801      778      766 
     745      745      753      754      769      800      842      892 
     913      889      849      831      838      847      849      859 
     862      814      757      747      751      749      773      816 
     830      832      845      827      805      832      865      872 
     861      828      811      820      808      787      804      818 
     792      765      776      816      843      853      864      864 
     846      835      835      827      807      807      826      842 
     858      876      868      819      770      764      776      787 
     831      864      830      807      830      838      837      843 
     810      758      760      785      793      805      820      828 
     827      810      788      799      834      850      841      838 
     847      835      811      814      828      831      842      849 
     830      823      846      864      872      857      816      804 
     826      831      824      811      765      726      730      739 
     735      733      726      734      781      855      913      936 
     949      953      913      857      820      812      824      839 
     850      857      830      768      714      707      726      746 
     789      858      904      923      924      891      845      826 
     830      830      830      820      789      778      801      783 
     739      746      785      812      834      849      823      783 
     772      764      757      801      855      865      855      855 
     870      876      862      877      893      870      862      868 
     839      797      781      808      842      841      824      812 
     777      738      753      815      851      827      793      795 
     812      824      842      838      796      770      801      845 
     864      866      850      801      750      738      751      774 
     818      837      815      803      808      811      816      832 
     869      885      847      796      793      830      859      864 
     839      814      831      847      828      818      811      800 
     820      857      858      834      810      787      777      800 
     830      854      873      868      850      842      819      781 
     772      792      805      815      838      847      835      815 
     785      765      777      810      820      789      769      785 
     795      796      837      892      907      880      834      823 
     859      873      865      853      800      743      749      795 
     841      854      834      824      834      839      841      834 
     808      792      788      769      765      796      816      814 
     808      778      731      726      751      776      808      839 
     853      861      846      822      827      832      822      850 
     885      865      843      862      872      861      861      864 
     851      841      842      845      846      843      830      801 
     768      729      710      751      803      811      822      839 
     822      795      789      800      796      774      788      815 
     819      839      874      881      872      869      874      882 
