Origin Time       2024/06/23 22:54:00
Lat.              35.645
Long.             140.060
Depth. (km)       72
Mag.              4.1
Station Code      IBRH11
Station Lat.      36.3701
Station Long.     140.1401
Station Height(m) -36
Record Time       2024/06/23 22:54:51
Sampling Freq(Hz) 100Hz
Duration Time(s)  120
Dir.              2
Scale Factor      2942(gal)/8224139
Max. Acc. (gal)   0.332
Last Correction   2024/06/23 22:54:51
Memo.             
[...]
   92982    92985    92985    92982    92985    92988    92986    92985 
   92983    92986    92985    92985    92986    92985    92983    92988 
   92986    92985    92988    92988    92986    92988    92988    92986 
   92988    92986    92983    92986    92989    92988    92986    92986 
   92988    92988    92986    92986    92988    92988    92985    92985 
   92988    92986    92983    92986    92988    92986    92985    92985 
   92985    92986    92988    92986    92986    92983    92983    92989 
   92988    92985    92988    92988    92986    92989    92989    92986 
   92983    92983    92986    92986    92986    92989    92986    92983 
   92986    92988    92986    92986    92986    92985    92985    92986 
   92985    92985    92988    92989    92988    92988    92988    92986 
   92986    92986    92986    92988    92988    92986    92986    92986 
   92986    92985    92985    92986    92985    92983    92986    92986 
   92986    92989    92988    92985    92985    92983    92983    92983 
   92986    92986    92985    92986    92986    92985    92986    92985 
   92985    92983    92983    92985    92983    92983    92988    92986 
   92985    92986    92986    92986    92988    92988    92986    92988 
   92988    92986    92988    92985    92982    92983    92985    92985 
   92985    92985    92985    92985    92988    92988    92985    92985 
   92985    92985    92986    92985    92983    92985    92985    92985 
   92986    92985    92986    92986    92985    92986    92986    92985 
   92985    92985    92986    92986    92986    92988    92986    92983 
   92985    92988    92988    92986    92985    92986    92988    92985 
   92985    92988    92988    92985    92985    92989    92989    92985 
   92986    92986    92983    92985    92988    92985    92982    92983 
   92983    92983    92985    92988    92989    92986    92986    92986 
   92986    92986    92986    92986    92988    92988    92985    92983 
   92988    92988    92986    92986    92988    92986    92986    92988 
   92986    92986    92988    92986    92983    92985    92985    92983 
   92983    92985    92988    92988    92986    92983    92983    92988 
   92989    92986    92985    92986    92986    92986    92986    92986 
   92986    92988    92986    92986    92986    92985    92983    92986 
   92989    92986    92985    92988    92986    92983    92988    92986 
   92983    92986    92988    92986    92988    92988    92986    92988 
   92986    92983    92986    92986    92982    92985    92989    92986 
   92986    92986    92985    92985    92986    92986    92983    92982 
   92985    92988    92988    92988    92985    92981    92978    92982 
   92985    92985    92989    92990    92979    92979    92996    93000 
   92986    92971    92963    92977    92998    92993    92970    92978 
   93013    93010    92975    92962    92965    92959    92962    92990 
   93028    93043    93008    92942    92928    92982    92993    92946 
   92952    93010    93032    93048    93073    92979    92839    92877 
   93023    93055    92982    92948    93016    93096    93044    92892 
   92811    92917    93106    93112    92989    92997    93017    92902 
   92848    92947    93055    93070    93000    92966    93009    93019 
   92970    92911    92907    93002    93040    92977    92962    92994 
   93051    93063    92970    92939    92993    92994    92925    92888 
   93019    93094    92947    92934    93056    93096    93083    92894 
   92727    92912    93077    93050    93078    93058    92917    92884 
   92971    92983    92948    92982    93046    93113    93089    92935 
   92827    92874    93013    93054    92990    93025    93055    92936 
   92884    93033    93136    92982    92832    92920    93032    93044 
   92992    92916    92982    93089    93024    92940    92975    93042 
   92983    92838    92867    93075    93171    93059    92882    92827 
   92958    93071    93019    92993    93024    92956    92901    92974 
   93042    93010    92966    92974    93008    93024    93009    92967 
   92921    92952    93020    93017    92986    92934    92950    93070 
   93060    92962    92948    92939    92927    92948    92993    93042 
   93043    93051    93047    92928    92878    92990    93013    92934 
   92942    93039    93087    93004    92902    92974    93070    92950 
   92836    92923    93059    93145    93086    92928    92869    92940 
   93044    93005    92908    92965    93033    93090    93125    92956 
   92811    92869    92961    93096    93143    92974    92929    93023 
   92965    92898    92944    92967    92983    93048    93039    92954 
   92970    93043    93028    92985    92967    92942    92919    92939 
   93001    93042    93046    93016    92967    92970    92978    92932 
   92946    92989    92992    93050    93064    92944    92919    93002 
   92974    92917    92978    93033    93001    92979    92979    92963 
   93010    93082    93029    92940    92956    92977    92986    93032 
   92971    92901    92988    93024    92963    92971    93013    93035 
   92994    92888    92885    93000    93054    93062    93032    92929 
   92886    92946    93036    93098    93056    93008    93004    92943 
   92916    92946    92956    93019    93004    92857    92915    93145 
   93152    93004    92892    92801    92880    93081    93127    93050 
   92983    92927    92920    92988    93066    93040    92938    92912 
   92942    92982    93039    93027    93015    93067    93002    92847 
   92907    93090    93042    92886    92905    93006    93017    92992 
   93010    93004    92942    92900    92927    93042    93150    93083 
   92909    92859    92988    93091    92994    92857    92913    93077 
   93155    93069    92924    92896    92898    92855    92947    93144 
   93166    92998    92863    92811    92857    93021    93079    92962 
   92961    93074    93062    92973    92955    93015    93025    92897 
   92840    92992    93112    93125    93160    93087    92874    92846 
   92997    92998    92931    92985    93035    93020    93017    93000 
   92877    92769    92848    93012    93136    93166    93037    92874 
   92861    92938    92967    93027    93082    92971    92892    93000 
   93081    93077    93094    93081    92917    92712    92786    93056 
   93090    92990    93054    93102    93025    92919    92859    92900 
   92967    92965    92940    93048    93181    93105    92990    92928 
   92866    92934    92990    92929    92979    93083    93085    93048 
   92997    92965    92977    92884    92776    92927    93093    93005 
   92975    93096    93086    92954    92855    92881    93033    93104 
   92998    92948    92977    92939    92973    93019    92916    92956 
   93114    93029    92907    92920    92962    93054    92998    92836 
   92956    93152    93106    93025    93005    92936    92889    92944 
   93010    93020    93052    93085    92979    92842    92858    92993 
   93074    93019    92986    93051    93047    92921    92836    92929 
   93036    93013    92997    92959    92915    93008    93058    92978 
   92944    92982    93052    93082    92993    92896    92870    92885 
   92989    93139    93183    93047    92867    92870    92961    92932 
   92954    93086    93040    92893    92928    93050    93112    93082 
   92939    92894    92994    92911    92813    93009    93089    92947 
   92967    93024    92998    93031    92990    92917    93015    93152 
   93135    92965    92792    92809    92974    93054    93062    93128 
   93116    92979    92889    92874    92880    92911    93020    93135 
   93055    92871    92855    92973    93017    93008    93044    93015 
   92977    93048    93015    92890    92867    92913    93050    93166 
   93081    92952    92897    92908    93020    93074    92981    92975 
   93071    92992    92853    92939    93064    92988    92936    93033 
   92989    92857    92934    93043    93008    93043    93140    93024 
   92812    92823    92981    93097    93104    93035    93033    93033 
   92908    92788    92842    92986    93039    93056    93055    92944 
   92900    93001    93037    93002    93037    93052    92966    92890 
   92909    93027    93135    93015    92811    92882    93063    93054 
   92998    92948    92835    92894    93167    93248    93047    92886 
   92859    92893    92971    93073    93104    92992    92934    93004 
   93027    93042    93066    93010    92935    92888    92938    93055 
   92997    92857    92940    93102    93073    92944    92874    92815 
   92794    92894    93051    93182    93177    93015    92870    92843 
   92940    93024    93035    93132    93181    93075    92983    92874 
   92846    93004    93052    92938    92928    93020    93005    92901 
   92892    93004    93066    93002    93012    93100    92979    92809 
   92913    93042    92993    92970    93012    93059    93063    92946 
   92847    92919    93031    93037    92994    92961    92948    92971 
   92988    92998    93029    93042    92965    92863    92981    93140 
   93051    92958    92963    92917    92905    92965    92952    92902 
   92961    93046    93078    93100    93085    93066    93010    92842 
   92778    92928    93013    93019    93140    93155    92920    92817 
   92958    92992    92916    93048    93197    93021    92861    92970 
   93052    92967    92911    92986    93001    92898    92875    92935 
   92962    92963    92993    93059    93131    93166    93070    92889 
   92811    92842    92913    93013    93039    93036    93131    93112 
   92873    92801    93052    93216    93077    92847    92745    92843 
   93008    93079    93114    93124    93010    92894    92927    92936 
   92843    92884    93078    93183    93113    92997    92982    93021 
   92993    92934    92932    92962    92961    92940    92920    92988 
   93129    93098    92911    92855    92942    93039    93055    92950 
   92920    93046    93058    92950    92963    93033    93002    92909 
   92909    93006    93025    93001    93036    93055    93008    92901 
   92917    93028    92955    92897    92967    92975    93071    93124 
   92952    92853    92874    92994    93137    92993    92828    92942 
   93028    93005    92983    92983    93071    93144    93082    92911 
   92727    92751    93056    93302    93202    93059    93024    92857 
   92797    92948    92934    92952    93143    93097    92983    93047 
   93004    92880    92867    92982    93152    93118    92959    92912 
   92893    92966    93081    92986    92854    92927    93005    92923 
   92929    93067    93042    92959    92994    92966    92880    92925 
   93040    93048    93015    93001    92915    92867    92958    93062 
   93118    93050    92823    92777    93043    93193    93139    93078 
   93008    92982    92979    92961    92989    92923    92839    93001 
   93168    93077    92908    92838    92929    93083    93056    92963 
   93004    93001    92912    92863    92850    93020    93253    93100 
   92855    92946    93054    93002    92978    92955    92878    92919 
   93081    93064    92977    93059    92997    92811    92869    92951 
   92907    92931    92954    92965    93060    93131    93066    92963 
   93013    93118    93040    92927    93010    93163    93123    92951 
   92909    92921    92843    92803    92881    92993    93098    93137 
   93013    92873    92894    92981    93020    92988    92932    92939 
   93013    93116    93170    93121    93006    92936    92967    92943 
   92846    92898    92979    92950    93001    93032    92920    92843 
   92844    92923    93069    93162    93175    93112    93001    92950 
   92986    92978    92871    92878    93009    93044    93021    92992 
   92940    92979    93073    93074    92913    92750    92862    93037 
   92983    92946    93039    93113    93191    93152    92917    92812 
   92911    92925    92969    93187    93243    93000    92724    92634 
   92801    93067    93181    93090    92944    92956    93064    93020 
   92954    93008    93037    93059    93016    92889    92871    92893 
   92944    93093    93125    93027    93035    93109    93086    93002 
   92936    92992    93139    93101    92969    93002    92986    92865 
   92929    93008    92827    92724    92894    93035    93006    92925 
   92939    93091    93221    93199    93114    93056    92956    92838 
   92915    93094    93118    93074    92977    92850    92913    92931 
   92761    92807    93063    93212    93220    93127    92935    92789 
   92803    92792    92611    92630    93047    93210    92896    92670 
   92630    92738    93078    93330    93351    93322    93197    92834 
   92560    92766    93051    93002    92944    93044    93108    93125 
   93120    93087    93090    93128    93067    92831    92565    92574 
   92936    93174    93108    93236    93341    92974    92718    92909 
   93187    93519    93807    93609    92974    92576    92651    92735 
   92686    92682    92599    92476    92458    92416    92510    93012 
   93579    93723    93414    93071    93064    93105    92915    92742 
   92682    92689    92766    92925    93124    93113    92889    92758 
   92952    93410    93577    93337    93306    93379    93109    92958 
   93060    92911    92686    92651    92790    93106    93132    92907 
   93081    93382    93280    92934    92685    92711    92811    92767 
   92796    93010    93187    93264    93214    92912    92716    93079 
   93629    93690    93334    92929    92407    92056    92344    92857 
   93150    93159    92732    92292    92497    93043    93341    93461 
   93479    93295    93047    92751    92520    92719    93086    93177 
   93158    93046    92662    92466    92800    93098    93043    93074 
   93258    93252    93090    93035    93055    92897    92817    93131 
   93376    93286    93090    92885    92727    92653    92646    92711 
   92923    93202    93256    93249    93316    93140    92927    93001 
   93195    93393    93405    93089    92677    92414    92400    92700 
   93206    93451    93287    93070    92749    92472    92712    93079 
   93100    93020    93023    93031    92821    92543    92804    93298 
   93453    93542    93513    93214    92981    92867    92866    92993 
   92897    92558    92518    92755    92793    92699    92759    92956 
   92990    92790    92804    93139    93422    93487    93270    92820 
   92491    92510    92749    92975    93091    93097    92905    92604 
   92639    92928    93055    93306    93614    93415    93097    93069 
   93059    93028    93005    92966    93073    93266    93182    92890 
   92884    93063    93166    93271    93271    93118    92801    92545 
   92711    92952    93064    93145    93089    92934    92699    92685 
   93013    93079    92950    93097    93267    93098    92738    92623 
   92713    92766    92947    93135    93123    93012    92888    92988 
   93209    93147    93006    93027    93044    93032    93016    92858 
   92591    92515    92630    92809    93052    93097    92958    92951 
   92970    92912    93004    93214    93247    93170    93166    93010 
   92842    93016    93151    93044    93016    93051    93079    93163 
   93159    92888    92608    92782    93077    93074    93129    93171 
   93025    93023    93036    93025    93140    93110    93006    92889 
   92677    92712    92793    92614    92759    93187    93121    92885 
   93062    93175    93078    93160    93236    93125    93094    93233 
   93168    92942    93152    93413    93097    92811    92811    92758 
   92952    93225    92924    92503    92573    92641    92427    92537 
   92882    92778    92623    92881    93087    93125    93214    93364 
   93509    93486    93348    93259    93094    92955    93110    93291 
   93241    93019    92674    92465    92415    92256    92152    92260 
   92450    92699    92935    93069    93262    93555    93594    93460 
   93631    93830    93645    93451    93409    93124    92762    92757 
   92832    92763    92886    93183    93218    92928    92649    92503 
   92391    92465    92805    93071    93078    92944    92804    92789 
   92765    92773    93197    93621    93514    93355    93274    92907 
   92666    92807    92724    92512    92734    93069    93144    93118 
   93020    93044    93330    93457    93409    93434    93237    92736 
   92437    92601    92731    92585    92800    93295    93276    93064 
   93197    93112    92755    92753    92904    92973    93069    93023 
   92924    92978    93017    92959    92944    92901    92858    93105 
   93337    93128    92955    93133    93083    92712    92616    92604 
   92403    92595    93117    93337    93297    93177    92921    92637 
   92655    92967    93220    93374    93218    92736    92727    93152 
   93243    93183    93204    93002    92836    93001    93128    93081 
   92985    92804    92765    93027    93268    93307    93147    92803 
   92722    93194    93517    93189    92835    92804    92720    92620 
   92628    92628    92877    93306    93330    93021    92952    93135 
   93110    92884    92873    93098    93171    93005    92931    93002 
   92977    92832    92573    92439    92824    93375    93553    93394 
   93062    92735    92574    92587    92836    93152    93266    93208 
   93044    92954    93032    93073    93048    92925    92766    92824 
   92934    92967    93052    93129    93151    93100    93028    93046 
   92944    92666    92707    93075    93162    93081    93275    93359 
   93025    92776    92813    92851    92844    92801    92789    92959 
   93114    93046    92834    92650    92693    92873    92889    92894 
   93118    93171    92908    92900    93302    93522    93366    93267 
   93222    93071    93060    93054    92985    93079    93028    92759 
   92642    92719    92882    93086    93307    93341    93033    92731 
   92666    92637    92653    92846    92934    92794    92727    92697 
   92703    92888    92929    92929    93266    93511    93451    93451 
   93445    93197    92939    93012    93170    92979    92726    92834 
   92978    92823    92718    92893    93083    93100    93021    93031 
   92929    92645    92676    92886    92878    92901    92985    92934 
   92880    93039    93235    93137    92952    93054    93367    93484 
   93287    93167    93105    92870    92781    92855    92828    92812 
   92894    92982    93025    93093    93170    93128    92948    92890 
   93073    93032    92657    92518    92726    92932    93031    93087 
   93029    92873    92857    92943    93017    93162    93259    93232 
   93226    93298    93266    92947    92761    92997    93020    92782 
   92862    92939    92777    92780    92909    92917    92809    92718 
   92821    92981    92971    92966    93074    93159    93190    93147 
   93033    93047    93266    93426    93339    93132    93043    92996 
   92875    92874    92846    92747    92977    93017    92488    92362 
   92816    93016    92983    93117    93243    93174    93106    93202 
   93317    93306    93210    92975    92569    92368    92599    92893 
   93016    92992    92815    92709    92808    92940    93015    93051 
   93127    93198    93121    93013    92969    92966    92962    92867 
   92901    93124    93239    93337    93406    93303    93210    93024 
