Origin Time       2024/06/23 22:54:00
Lat.              35.645
Long.             140.060
Depth. (km)       72
Mag.              4.1
Station Code      IBRH08
Station Lat.      36.1188
Station Long.     140.5621
Station Height(m) -1160
Record Time       2024/06/23 22:54:49
Sampling Freq(Hz) 100Hz
Duration Time(s)  120
Dir.              2
Scale Factor      7845(gal)/8223790
Max. Acc. (gal)   0.193
Last Correction   2024/06/23 22:54:49
Memo.             
[...]
  -12264   -12270   -12267   -12267   -12267   -12266   -12266   -12266 
  -12266   -12267   -12267   -12267   -12264   -12263   -12263   -12263 
  -12267   -12267   -12266   -12267   -12266   -12264   -12267   -12267 
  -12264   -12264   -12266   -12267   -12268   -12266   -12266   -12267 
  -12264   -12264   -12266   -12267   -12267   -12266   -12264   -12264 
  -12264   -12266   -12268   -12268   -12267   -12268   -12267   -12266 
  -12267   -12266   -12266   -12267   -12267   -12266   -12266   -12266 
  -12263   -12263   -12264   -12264   -12264   -12266   -12267   -12266 
  -12264   -12266   -12267   -12266   -12266   -12267   -12267   -12266 
  -12264   -12266   -12267   -12268   -12264   -12262   -12264   -12266 
  -12264   -12264   -12266   -12266   -12264   -12264   -12263   -12262 
  -12266   -12266   -12264   -12267   -12268   -12268   -12267   -12266 
  -12266   -12267   -12267   -12267   -12266   -12267   -12267   -12264 
  -12266   -12268   -12267   -12267   -12266   -12264   -12264   -12267 
  -12267   -12264   -12264   -12266   -12263   -12263   -12266   -12267 
  -12268   -12266   -12264   -12266   -12266   -12264   -12264   -12266 
  -12267   -12264   -12264   -12266   -12264   -12266   -12268   -12266 
  -12262   -12264   -12266   -12263   -12264   -12264   -12263   -12263 
  -12264   -12264   -12266   -12266   -12264   -12267   -12267   -12264 
  -12264   -12266   -12267   -12268   -12266   -12264   -12267   -12266 
  -12263   -12263   -12266   -12264   -12264   -12264   -12264   -12266 
  -12267   -12267   -12264   -12263   -12266   -12267   -12266   -12266 
  -12267   -12266   -12266   -12267   -12267   -12267   -12266   -12264 
  -12266   -12266   -12263   -12264   -12266   -12267   -12264   -12263 
  -12266   -12266   -12263   -12266   -12267   -12266   -12263   -12263 
  -12267   -12267   -12266   -12266   -12266   -12266   -12266   -12266 
  -12267   -12266   -12267   -12268   -12267   -12267   -12270   -12268 
  -12266   -12266   -12267   -12268   -12267   -12263   -12266   -12267 
  -12264   -12264   -12266   -12264   -12264   -12264   -12266   -12266 
  -12264   -12264   -12266   -12268   -12266   -12266   -12267   -12266 
  -12263   -12266   -12264   -12263   -12264   -12266   -12266   -12264 
  -12264   -12267   -12267   -12266   -12266   -12267   -12264   -12264 
  -12266   -12264   -12266   -12266   -12266   -12264   -12264   -12264 
  -12266   -12266   -12264   -12264   -12264   -12264   -12266   -12264 
  -12263   -12264   -12264   -12266   -12266   -12264   -12263   -12266 
  -12267   -12266   -12266   -12267   -12266   -12264   -12264   -12266 
  -12266   -12264   -12267   -12267   -12266   -12267   -12266   -12264 
  -12266   -12267   -12266   -12264   -12266   -12266   -12266   -12266 
  -12267   -12266   -12264   -12267   -12268   -12264   -12264   -12267 
  -12266   -12266   -12266   -12264   -12264   -12263   -12263   -12266 
  -12266   -12267   -12267   -12266   -12268   -12270   -12267   -12267 
  -12267   -12267   -12266   -12264   -12266   -12264   -12266   -12268 
  -12267   -12266   -12263   -12264   -12268   -12266   -12262   -12264 
  -12268   -12267   -12264   -12268   -12268   -12266   -12272   -12274 
  -12264   -12260   -12260   -12262   -12270   -12271   -12271   -12272 
  -12262   -12252   -12264   -12286   -12291   -12276   -12253   -12241 
  -12244   -12245   -12262   -12283   -12279   -12276   -12280   -12266 
  -12248   -12243   -12252   -12280   -12295   -12290   -12287   -12272 
  -12249   -12235   -12229   -12245   -12278   -12291   -12294   -12286 
  -12249   -12229   -12248   -12263   -12267   -12290   -12313   -12293 
  -12252   -12245   -12255   -12247   -12252   -12267   -12278   -12289 
  -12272   -12249   -12252   -12252   -12255   -12270   -12294   -12305 
  -12270   -12235   -12247   -12267   -12262   -12255   -12262   -12283 
  -12294   -12270   -12243   -12252   -12268   -12258   -12251   -12274 
  -12289   -12274   -12260   -12260   -12258   -12247   -12252   -12287 
  -12307   -12285   -12258   -12243   -12229   -12237   -12268   -12291 
  -12290   -12283   -12274   -12251   -12240   -12252   -12268   -12283 
  -12290   -12286   -12283   -12276   -12263   -12244   -12233   -12251 
  -12274   -12285   -12289   -12272   -12243   -12236   -12244   -12249 
  -12270   -12298   -12306   -12294   -12271   -12240   -12228   -12252 
  -12272   -12278   -12293   -12297   -12266   -12231   -12221   -12225 
  -12240   -12278   -12321   -12333   -12305   -12266   -12229   -12210 
  -12235   -12279   -12305   -12310   -12293   -12263   -12231   -12213 
  -12222   -12252   -12301   -12336   -12316   -12262   -12225   -12220 
  -12247   -12279   -12286   -12271   -12268   -12275   -12272   -12271 
  -12263   -12249   -12256   -12256   -12247   -12259   -12272   -12278 
  -12285   -12278   -12263   -12251   -12253   -12267   -12267   -12276 
  -12312   -12306   -12248   -12231   -12260   -12252   -12226   -12247 
  -12283   -12298   -12294   -12264   -12240   -12249   -12264   -12266 
  -12280   -12291   -12270   -12240   -12233   -12252   -12279   -12279 
  -12267   -12272   -12268   -12244   -12247   -12279   -12299   -12291 
  -12266   -12251   -12262   -12278   -12287   -12274   -12243   -12244 
  -12264   -12263   -12256   -12258   -12251   -12237   -12241   -12271 
  -12295   -12298   -12291   -12280   -12278   -12279   -12275   -12287 
  -12307   -12295   -12271   -12262   -12249   -12239   -12233   -12216 
  -12218   -12258   -12291   -12293   -12289   -12287   -12264   -12236 
  -12241   -12264   -12289   -12294   -12271   -12252   -12244   -12236 
  -12249   -12272   -12283   -12282   -12268   -12248   -12249   -12278 
  -12303   -12303   -12276   -12249   -12240   -12247   -12267   -12275 
  -12264   -12260   -12255   -12251   -12264   -12263   -12252   -12263 
  -12275   -12278   -12295   -12302   -12280   -12271   -12272   -12262 
  -12253   -12252   -12249   -12256   -12264   -12258   -12255   -12262 
  -12258   -12259   -12278   -12290   -12275   -12251   -12249   -12267 
  -12280   -12272   -12262   -12274   -12278   -12252   -12240   -12251 
  -12274   -12301   -12302   -12275   -12249   -12243   -12240   -12243 
  -12264   -12275   -12259   -12266   -12302   -12301   -12276   -12274 
  -12266   -12252   -12262   -12268   -12267   -12275   -12280   -12278 
  -12249   -12205   -12199   -12224   -12251   -12280   -12302   -12313 
  -12297   -12262   -12263   -12295   -12309   -12299   -12282   -12247 
  -12204   -12205   -12240   -12248   -12260   -12289   -12289   -12262 
  -12229   -12224   -12262   -12293   -12298   -12310   -12316   -12303 
  -12290   -12272   -12258   -12260   -12263   -12264   -12258   -12251 
  -12275   -12282   -12256   -12262   -12278   -12270   -12264   -12270 
  -12271   -12259   -12240   -12220   -12202   -12212   -12244   -12275 
  -12287   -12276   -12256   -12260   -12291   -12325   -12339   -12328 
  -12298   -12264   -12247   -12229   -12220   -12251   -12282   -12274 
  -12263   -12263   -12258   -12262   -12264   -12239   -12218   -12226 
  -12226   -12232   -12279   -12318   -12307   -12276   -12270   -12290 
  -12289   -12268   -12286   -12295   -12258   -12228   -12221   -12232 
  -12264   -12279   -12275   -12278   -12280   -12260   -12236   -12241 
  -12267   -12282   -12293   -12317   -12313   -12282   -12268   -12260 
  -12224   -12191   -12210   -12264   -12302   -12299   -12256   -12202 
  -12194   -12258   -12343   -12363   -12312   -12271   -12247   -12228 
  -12241   -12271   -12282   -12268   -12263   -12299   -12328   -12289 
  -12237   -12237   -12247   -12236   -12258   -12307   -12314   -12271 
  -12233   -12208   -12205   -12248   -12302   -12307   -12268   -12233 
  -12232   -12247   -12256   -12275   -12303   -12302   -12263   -12226 
  -12225   -12241   -12256   -12274   -12295   -12301   -12289   -12278 
  -12260   -12236   -12217   -12226   -12278   -12321   -12322   -12309 
  -12294   -12259   -12206   -12193   -12252   -12312   -12314   -12301 
  -12285   -12252   -12232   -12228   -12236   -12258   -12266   -12259 
  -12256   -12255   -12268   -12266   -12239   -12247   -12274   -12280 
  -12286   -12280   -12275   -12290   -12301   -12293   -12266   -12251 
  -12264   -12271   -12270   -12280   -12271   -12245   -12229   -12220 
  -12229   -12256   -12272   -12287   -12320   -12329   -12274   -12212 
  -12210   -12245   -12279   -12301   -12293   -12262   -12231   -12233 
  -12279   -12307   -12283   -12262   -12260   -12251   -12243   -12268 
  -12314   -12329   -12293   -12255   -12253   -12264   -12264   -12282 
  -12301   -12255   -12189   -12199   -12240   -12259   -12282   -12299 
  -12289   -12260   -12228   -12209   -12222   -12241   -12253   -12287 
  -12314   -12291   -12263   -12266   -12271   -12263   -12251   -12259 
  -12289   -12301   -12294   -12295   -12279   -12239   -12213   -12208 
  -12232   -12290   -12325   -12299   -12262   -12256   -12253   -12225 
  -12222   -12247   -12252   -12264   -12294   -12298   -12291   -12314 
  -12317   -12271   -12240   -12239   -12239   -12270   -12320   -12322 
  -12275   -12237   -12235   -12241   -12231   -12232   -12266   -12289 
  -12259   -12217   -12226   -12262   -12295   -12326   -12316   -12271 
  -12249   -12247   -12245   -12259   -12287   -12303   -12283   -12235 
  -12213   -12247   -12282   -12266   -12239   -12258   -12286   -12294 
  -12303   -12312   -12303   -12274   -12245   -12262   -12298   -12295 
  -12272   -12272   -12280   -12258   -12218   -12202   -12214   -12249 
  -12271   -12252   -12243   -12268   -12285   -12285   -12297   -12316 
  -12313   -12299   -12291   -12282   -12267   -12251   -12240   -12228 
  -12214   -12218   -12243   -12248   -12225   -12229   -12264   -12282 
  -12279   -12289   -12299   -12295   -12283   -12276   -12276   -12278 
  -12272   -12264   -12276   -12293   -12291   -12280   -12251   -12209 
  -12209   -12243   -12262   -12271   -12268   -12255   -12251   -12247 
  -12247   -12266   -12287   -12294   -12297   -12285   -12267   -12266 
  -12255   -12229   -12222   -12225   -12233   -12262   -12293   -12322 
  -12347   -12333   -12285   -12244   -12243   -12263   -12266   -12243 
  -12243   -12272   -12278   -12247   -12228   -12239   -12251   -12266 
  -12283   -12283   -12283   -12275   -12245   -12235   -12253   -12275 
  -12287   -12279   -12276   -12268   -12245   -12256   -12276   -12255 
  -12232   -12239   -12252   -12275   -12305   -12312   -12295   -12283 
  -12260   -12228   -12228   -12255   -12262   -12270   -12298   -12303 
  -12258   -12202   -12195   -12256   -12312   -12312   -12294   -12282 
  -12262   -12252   -12237   -12205   -12221   -12293   -12325   -12302 
  -12279   -12268   -12270   -12282   -12298   -12302   -12283   -12264 
  -12263   -12245   -12208   -12191   -12218   -12260   -12278   -12282 
  -12291   -12282   -12239   -12212   -12217   -12231   -12249   -12275 
  -12301   -12324   -12329   -12305   -12262   -12224   -12221   -12256 
  -12295   -12303   -12289   -12285   -12264   -12221   -12222   -12278 
  -12303   -12294   -12298   -12287   -12240   -12220   -12248   -12268 
  -12264   -12259   -12251   -12260   -12280   -12260   -12221   -12221 
  -12255   -12279   -12290   -12312   -12321   -12293   -12262   -12258 
  -12258   -12253   -12249   -12259   -12285   -12291   -12274   -12279 
  -12280   -12251   -12248   -12262   -12244   -12248   -12280   -12280 
  -12263   -12245   -12228   -12243   -12298   -12330   -12301   -12247 
  -12218   -12225   -12249   -12256   -12247   -12259   -12279   -12286 
  -12295   -12295   -12276   -12260   -12256   -12266   -12289   -12306 
  -12291   -12258   -12255   -12267   -12262   -12262   -12275   -12274 
  -12262   -12248   -12225   -12206   -12217   -12237   -12252   -12287 
  -12328   -12321   -12289   -12272   -12262   -12252   -12263   -12271 
  -12266   -12278   -12297   -12275   -12236   -12240   -12267   -12262 
  -12249   -12259   -12264   -12253   -12241   -12245   -12248   -12221 
  -12195   -12221   -12259   -12264   -12248   -12244   -12268   -12285 
  -12276   -12289   -12320   -12347   -12352   -12318   -12279   -12285 
  -12313   -12314   -12285   -12245   -12209   -12183   -12172   -12174 
  -12201   -12241   -12279   -12333   -12393   -12410   -12366   -12282 
  -12224   -12220   -12249   -12295   -12313   -12283   -12249   -12224 
  -12185   -12155   -12166   -12199   -12248   -12316   -12383   -12407 
  -12357   -12248   -12179   -12213   -12279   -12306   -12305   -12271 
  -12206   -12181   -12214   -12232   -12221   -12244   -12295   -12313 
  -12290   -12262   -12247   -12228   -12212   -12228   -12280   -12333 
  -12332   -12287   -12264   -12248   -12209   -12175   -12183   -12274 
  -12398   -12417   -12322   -12232   -12172   -12131   -12155   -12266 
  -12399   -12448   -12370   -12260   -12232   -12255   -12263   -12249 
  -12233   -12224   -12241   -12280   -12295   -12302   -12320   -12301 
  -12244   -12199   -12193   -12251   -12340   -12361   -12307   -12252 
  -12245   -12287   -12314   -12279   -12216   -12160   -12117   -12118 
  -12177   -12240   -12290   -12349   -12374   -12322   -12248   -12191 
  -12172   -12237   -12367   -12463   -12463   -12391   -12291   -12172 
  -12081   -12081   -12145   -12233   -12332   -12393   -12363   -12289 
  -12237   -12214   -12208   -12213   -12233   -12267   -12293   -12309 
  -12309   -12267   -12204   -12179   -12218   -12275   -12305   -12317 
  -12321   -12287   -12233   -12216   -12217   -12218   -12279   -12378 
  -12421   -12430   -12411   -12279   -12104   -12063   -12152   -12258 
  -12332   -12352   -12341   -12333   -12305   -12258   -12214   -12179 
  -12181   -12224   -12260   -12279   -12295   -12294   -12259   -12217 
  -12208   -12210   -12220   -12272   -12337   -12351   -12303   -12214 
  -12148   -12159   -12221   -12294   -12355   -12380   -12370   -12333 
  -12287   -12268   -12286   -12293   -12251   -12187   -12147   -12151 
  -12236   -12364   -12415   -12382   -12325   -12267   -12220   -12206 
  -12221   -12236   -12245   -12249   -12239   -12218   -12212   -12229 
  -12255   -12271   -12295   -12321   -12306   -12267   -12245   -12233 
  -12228   -12255   -12291   -12297   -12280   -12262   -12224   -12187 
  -12198   -12267   -12337   -12351   -12329   -12309   -12275   -12263 
  -12309   -12375   -12417   -12388   -12307   -12259   -12221   -12145 
  -12093   -12098   -12135   -12193   -12260   -12332   -12378   -12336 
  -12251   -12222   -12218   -12193   -12201   -12268   -12336   -12367 
  -12348   -12283   -12216   -12182   -12190   -12233   -12278   -12306 
  -12322   -12314   -12291   -12274   -12253   -12233   -12239   -12271 
  -12302   -12305   -12263   -12202   -12181   -12228   -12295   -12305 
  -12253   -12224   -12244   -12239   -12209   -12229   -12279   -12305 
  -12332   -12357   -12339   -12298   -12287   -12291   -12264   -12236 
  -12258   -12283   -12267   -12247   -12252   -12252   -12252   -12293 
  -12340   -12321   -12240   -12151   -12109   -12139   -12216   -12294 
  -12339   -12351   -12345   -12326   -12301   -12293   -12294   -12289 
  -12275   -12267   -12263   -12258   -12249   -12244   -12244   -12240 
  -12214   -12191   -12224   -12282   -12267   -12209   -12220   -12267 
  -12255   -12191   -12156   -12204   -12310   -12410   -12442   -12379 
  -12275   -12212   -12208   -12224   -12253   -12313   -12351   -12326 
  -12280   -12251   -12245   -12271   -12287   -12255   -12225   -12228 
  -12229   -12235   -12262   -12286   -12276   -12235   -12221   -12266 
  -12325   -12371   -12376   -12330   -12283   -12252   -12220   -12212 
  -12240   -12266   -12240   -12190   -12183   -12210   -12221   -12232 
  -12276   -12328   -12356   -12370   -12359   -12316   -12255   -12216 
  -12226   -12262   -12280   -12285   -12278   -12270   -12253   -12231 
  -12237   -12276   -12291   -12258   -12201   -12158   -12159   -12198 
  -12239   -12278   -12309   -12310   -12309   -12295   -12231   -12174 
  -12186   -12244   -12293   -12324   -12355   -12353   -12293   -12240 
  -12249   -12282   -12279   -12240   -12213   -12213   -12222   -12258 
  -12314   -12339   -12310   -12282   -12272   -12275   -12309   -12376 
  -12424   -12402   -12336   -12276   -12226   -12182   -12152   -12159 
  -12199   -12218   -12189   -12178   -12209   -12236   -12237   -12236 
  -12224   -12198   -12205   -12266   -12334   -12367   -12345   -12266 
  -12170   -12147   -12199   -12260   -12306   -12343   -12343   -12293 
  -12249   -12268   -12314   -12328   -12337   -12367   -12359   -12285 
  -12212   -12194   -12233   -12279   -12289   -12272   -12264   -12270 
  -12268   -12268   -12283   -12283   -12267   -12255   -12232   -12209 
  -12224   -12270   -12295   -12268   -12235   -12226   -12235   -12258 
  -12279   -12249   -12194   -12172   -12195   -12268   -12355   -12363 
  -12299   -12249   -12236   -12243   -12256   -12259   -12255   -12249 
  -12243   -12249   -12274   -12287   -12276   -12263   -12259   -12251 
  -12244   -12243   -12255   -12282   -12306   -12341   -12383   -12382 
  -12340   -12312   -12294   -12256   -12218   -12225   -12253   -12289 
  -12337   -12349   -12302   -12233   -12162   -12109   -12127   -12209 
  -12302   -12359   -12371   -12353   -12320   -12282   -12264   -12262 
  -12262   -12262   -12260   -12252   -12244   -12237   -12210   -12166 
  -12140   -12147   -12181   -12233   -12285   -12298   -12283   -12282 
  -12299   -12322   -12355   -12374   -12363   -12332   -12295   -12275 
  -12270   -12255   -12237   -12236   -12240   -12226   -12209   -12233 
  -12290   -12307   -12276   -12260   -12285   -12317   -12316   -12291 
  -12270   -12262   -12272   -12258   -12186   -12141   -12156   -12182 
  -12231   -12279   -12271   -12252   -12278   -12303   -12297   -12286 
  -12282   -12283   -12298   -12309   -12293   -12263   -12236   -12226 
  -12253   -12302   -12325   -12317   -12316   -12309   -12280   -12266 
  -12258   -12210   -12163   -12170   -12204   -12237   -12264   -12286 
  -12306   -12306   -12294   -12287   -12276   -12264   -12256   -12232 
  -12202   -12189   -12198   -12239   -12287   -12298   -12264   -12240 
  -12249   -12271   -12271   -12236   -12220   -12255   -12287   -12293 
  -12291   -12295   -12302   -12309   -12318   -12341   -12357   -12333 
  -12270   -12231   -12270   -12320   -12312   -12282   -12260   -12247 
  -12266   -12291   -12293   -12283   -12255   -12201   -12182   -12217 
  -12248   -12264   -12290   -12307   -12301   -12282   -12255   -12231 
  -12209   -12198   -12191   -12177   -12194   -12276   -12349   -12343 
  -12280   -12236   -12249   -12290   -12302   -12283   -12251   -12232 
  -12228   -12220   -12214   -12206   -12216   -12266   -12291   -12256 
  -12229   -12253   -12291   -12302   -12293   -12289   -12305   -12339 
  -12357   -12360   -12367   -12345   -12299   -12272   -12259   -12255 
  -12275   -12291   -12270   -12240   -12244   -12258   -12245   -12235 
  -12252   -12266   -12245   -12217   -12198   -12185   -12191   -12216 
  -12235   -12262   -12286   -12267   -12236   -12251   -12270   -12236 
  -12194   -12198   -12225   -12243   -12258   -12272   -12285   -12299 
  -12309   -12314   -12324   -12318   -12313   -12348   -12394   -12411 
  -12401   -12353   -12283   -12243   -12239   -12241   -12233   -12217 
  -12195   -12183   -12202   -12253   -12312   -12341   -12337   -12307 
