Origin Time       2024/06/23 22:54:00
Lat.              35.645
Long.             140.060
Depth. (km)       72
Mag.              4.1
Station Code      IBRH11
Station Lat.      36.3701
Station Long.     140.1401
Station Height(m) 67
Record Time       2024/06/23 22:54:51
Sampling Freq(Hz) 100Hz
Duration Time(s)  120
Dir.              5
Scale Factor      7845(gal)/8223790
Max. Acc. (gal)   3.170
Last Correction   2024/06/23 22:54:51
Memo.             
[...]
   18219    18080    18056    18212    18196    18067    18126    18230 
   18139    18041    18141    18218    18095    18056    18200    18181 
   18042    18118    18227    18133    18061    18150    18208    18125 
   18063    18144    18211    18135    18084    18150    18162    18102 
   18139    18187    18121    18092    18144    18144    18108    18129 
   18192    18165    18044    18072    18192    18119    18094    18289 
   18268    18031    18077    18215    18033    17910    18218    18495 
   18284    17936    17937    18075    18002    17990    18256    18384 
   18231    18206    18266    18067    17786    17834    18177    18414 
   18396    18353    18333    18095    17743    17724    17979    18126 
   18226    18420    18540    18397    17959    17537    17686    18293 
   18569    18353    18176    18168    18069    17867    17826    18072 
   18412    18574    18419    18145    18003    17872    17743    17864 
   18200    18463    18447    18260    18077    17929    17991    18158 
   18087    18088    18374    18362    17891    17676    17955    18215 
   18369    18613    18750    18504    17934    17496    17496    17763 
   18091    18341    18482    18458    18156    17945    18040    18057 
   18037    18245    18468    18436    18145    17886    17914    18096 
   18238    18292    18314    18276    18084    17855    17814    17965 
   18038    17998    18142    18353    18353    18206    18098    18183 
   18300    18250    18210    18199    18096    17968    17833    17761 
   17934    18341    18681    18563    18092    17860    18002    18052 
   17922    18069    18436    18501    18289    18088    17856    17690 
   17892    18338    18601    18528    18169    17725    17612    17884 
   18210    18442    18438    18156    18091    18350    18320    17988 
   17890    18011    18096    18138    18088    17969    18003    18212 
   18419    18469    18308    18114    18029    17933    17891    18079 
   18343    18468    18446    18192    17722    17577    17901    18061 
   18112    18428    18481    18189    18206    18342    18108    17842 
   17967    18218    18227    18177    18265    18269    18056    17882 
   17968    18068    17988    18048    18328    18443    18296    18156 
   18121    18092    18045    18061    18127    18179    18231    18250 
   18137    17973    17956    18075    18104    18052    18126    18192 
   18139    18227    18418    18418    18235    18073    17964    17864 
   17906    18166    18347    18218    18135    18276    18260    18033 
   17890    17945    18040    18009    18064    18300    18368    18247 
   18247    18273    18088    17918    18072    18162    17926    17968 
   18378    18517    18377    18229    18044    17963    18061    18044 
   17930    17991    18081    18092    18243    18412    18288    18063 
   18006    18069    18223    18223    17980    17976    18126    18053 
   18139    18470    18535    18368    18299    18168    17776    17423 
   17443    17855    18432    18778    18663    18296    18045    17944 
   17946    18183    18333    18115    17969    18110    18235    18148 
   17999    18095    18341    18351    18172    18096    18025    17763 
   17659    17942    18212    18366    18582    18675    18522    18121 
   17686    17693    17969    18154    18392    18542    18296    17918 
   17830    17847    17675    17722    18279    18836    18785    18119 
   17560    17605    17917    18196    18484    18655    18623    18504 
   18326    18060    17744    17517    17662    18256    18748    18698 
   18468    18280    17941    17670    17694    17745    17838    18166 
   18377    18227    18044    18031    18004    17940    18057    18272 
   18258    18000    17891    18266    18725    18736    18613    18561 
   18191    17706    17668    17902    17926    17910    18246    18480 
   18084    17620    17655    17980    18412    18729    18621    18285 
   18009    17940    18110    18212    18157    18135    18135    18096 
   18157    18370    18293    17918    17840    17817    17609    17845 
   18391    18449    18222    18373    18497    18010    17626    17909 
   18242    18247    18215    18347    18373    18130    18184    18540 
   18391    17872    17710    17898    18050    18003    18050    18334 
   18389    18254    18391    18310    17772    17774    18326    18343 
   18031    18092    18126    17923    17946    18210    18461    18520 
   18281    18050    17979    17671    17329    17555    18061    18504 
   19022    19113    18353    17639    17747    18118    18149    18065 
   18075    18141    18362    18670    18631    18110    17616    17528 
   17678    17860    18080    18284    18338    18291    18269    18177 
   17991    18010    18396    18636    18265    17905    18040    18046 
   17895    18250    18662    18396    17998    18088    18288    18203 
   17973    17914    18065    18030    17757    17699    17712    17578 
   17872    18652    19124    18937    18355    17774    17455    17509 
   17902    18323    18588    18769    18867    18819    18519    18067 
   17772    17745    17860    17936    18040    18189    18044    17752 
   17793    18036    18211    18281    18239    18196    18165    17926 
   17636    17718    18027    18269    18547    18743    18588    18219 
   17909    17782    17849    18033    18264    18454    18441    18239 
   18226    18331    18091    18067    18654    18708    18060    17959 
   18250    17945    17450    17528    17759    17815    18054    18301 
   18281    18177    18069    18046    18125    18125    18148    18331 
   18315    18036    17990    18149    18281    18366    18173    17976 
   18183    18372    18323    18219    18149    18312    18482    18396 
   18436    18566    18396    18021    17572    17248    17312    17599 
   17919    18227    18312    18100    17882    17851    17936    18239 
   18685    18808    18657    18536    18338    18046    17807    17797 
   18077    18381    18486    18374    18206    18139    18079    17991 
   17950    17909    17898    18029    18279    18489    18364    17876 
   17514    17512    17656    17925    18226    18268    18216    18230 
   18123    18150    18369    18369    18427    18779    18902    18586 
   18168    17973    17936    17879    17999    18354    18605    18416 
   17788    17204    17126    17570    18231    18708    18755    18450 
   18071    17833    17782    17865    17929    17925    17976    18027 
   17975    17899    17988    18318    18667    18739    18616    18588 
   18528    18264    18125    18261    18320    18112    17977    18196 
   18257    17913    17706    17690    17653    17802    18073    18096 
   17998    18157    18328    18237    18173    18314    18431    18284 
   18168    18418    18457    17936    17560    17652    17815    18052 
   18484    18681    18419    18233    18343    18150    17724    17914 
   18507    18590    18247    18068    17918    17577    17537    17898 
   18040    17933    18023    18206    18280    18403    18540    18562 
   18495    18327    18126    17959    17888    18065    18357    18476 
   18323    18000    17909    18175    18365    18172    17716    17544 
   17918    18179    18022    18042    18360    18513    18335    18015 
   17844    17802    17697    17811    18323    18663    18558    18372 
   18234    18135    18212    18392    18369    18038    17756    17729 
   17784    18013    18445    18724    18652    18400    18196    17930 
   17604    17682    18144    18397    18256    18067    18044    17956 
   17802    17936    18222    18279    18114    17961    17972    18049 
   18153    18393    18527    18296    18056    18103    18295    18438 
   18311    17937    17683    17761    18099    18393    18432    18419 
   18404    18145    17821    17852    18060    18119    18239    18530 
   18481    17856    17458    17818    18226    18308    18468    18578 
   18254    17847    17894    18122    18065    17971    18117    18346 
   18500    18411    18073    17848    17903    17984    17957    17952 
   17936    17805    17840    18123    18260    18358    18678    18696 
   18245    18015    18067    18015    18099    18426    18557    18385 
   18198    18075    17992    17983    17898    17768    17802    17879 
   17933    18018    18036    18210    18570    18659    18531    18399 
   18071    17771    17898    18189    18281    18242    18235    18238 
   18158    18036    17905    17771    17739    17809    17973    18207 
   18369    18519    18643    18527    18361    18362    18335    18095 
   17764    17709    17891    17864    17797    18044    18172    17952 
   17944    18166    18171    18173    18316    18234    18063    18229 
   18528    18430    17973    17834    18157    18400    18605    19005 
   18981    18233    17675    17753    17815    17836    18118    18122 
   17817    17734    17736    17770    17953    17996    17945    17976 
   17907    17887    18164    18524    18723    18702    18557    18426 
   18361    18434    18589    18489    18090    17879    17961    17921 
   17752    17761    17798    17532    17369    17806    18384    18685 
   18796    18565    18134    18022    18200    18299    18241    18239 
   18284    18098    17917    18129    18378    18215    17853    17702 
   17698    17707    17959    18320    18455    18612    18802    18620 
   18208    17894    17761    17845    17995    18211    18405    18129 
   17662    17671    17909    18073    18326    18442    18156    17793 
   17842    18319    18535    18246    18192    18468    18524    18515 
   18509    18223    17896    17871    18045    18076    18033    18256 
   18312    17910    17666    17729    17813    17941    18188    18546 
   18616    18229    18085    18373    18499    18401    18291    18080 
   17743    17591    17733    17679    17521    17886    18295    18195 
   18127    18347    18495    18516    18760    19186    19134    18507 
   17910    17637    17578    17622    17767    17868    17841    17842 
   17656    17340    17643    18308    18585    18785    19070    19128 
   19012    18625    17936    17347    17196    17505    17844    17663 
   17024    16586    16889    17706    18516    19244    19757    19643 
   18994    18373    18096    18142    18341    18474    18669    18941 
   18643    17847    17579    17896    18161    18231    17976    17374 
   17092    17496    17875    18096    18858    19560    19210    18303 
   17698    17599    17809    18050    18130    17883    17460    17270 
   17382    17491    17406    17262    17138    17041    17308    18013 
   18819    19685    20402    20628    20649    20494    19684    18241 
   16723    15799    15661    16065    16839    17501    17797    18223 
   18706    19091    19931    20830    20803    20055    19132    18285 
   17906    17805    17398    16760    16147    15711    15573    15499 
   15730    16767    18036    18990    19726    20086    20109    19780 
   18862    18134    18446    19103    19029    18191    17335    17078 
   17439    17986    18307    18343    17961    16987    16295    16950 
   18315    19199    19522    19475    19093    18790    18777    18763 
   18667    18621    18625    18430    17621    16514    16021    16114 
   16519    17668    18987    19030    17956    17108    17093    17946 
   19454    20742    20947    19904    18067    16551    16217    16715 
   17436    18129    18234    17541    17086    17570    18416    19230 
   19857    19735    19082    18958    19295    19118    18501    17907 
   17415    17467    18018    18301    18006    17136    16074    15539 
   15755    16729    18320    19489    19468    18989    18782    18670 
   18436    18324    18786    19537    19668    18978    17794    16626 
   16112    16255    16941    18227    19376    19664    19165    18187 
   17567    17841    18084    17817    17795    17937    17435    16864 
   17518    18935    19611    19522    19484    19395    18939    18465 
   18122    17595    17138    17361    17767    17548    17147    16989 
   16810    16983    17784    18400    18482    18581    18716    18860 
   19245    19367    19041    18785    18547    18183    17853    17470 
   16933    16426    16474    17540    19091    20266    20931    20711 
   19352    18056    17698    17798    18214    18867    18732    17608 
   16819    16613    15890    15088    15461    16429    17054    17664 
   18266    18480    18767    19522    20194    20251    19813    18983 
   17779    16911    17022    17622    18154    18665    18863    18484 
   18227    18655    19197    19234    19043    19064    19016    18700 
   18578    18547    18191    17847    17543    17057    16887    17069 
   17024    16854    16780    16648    16704    17246    17933    18436 
   18643    18314    17685    17500    17992    18744    19145    19102 
   19188    19429    19205    18804    19010    19191    18627    18296 
   18517    18264    17894    18142    18149    17842    18279    18850 
   18673    18499    18534    18083    17371    17008    16854    16725 
   16800    16815    16637    16912    17458    17444    17327    17836 
   18463    18839    19359    19813    19614    18940    18447    18279 
   18007    17709    17724    17763    17884    18465    18964    19029 
   19310    19716    19620    19618    19990    19589    18322    17415 
   17074    16800    16549    16271    15900    15653    15560    15633 
   16183    17000    17454    17676    18176    19125    20429    21420 
   21459    21089    20822    20120    19089    18454    17818    16846 
   16429    16887    17452    17918    18663    19446    19552    18817 
   17871    17042    16105    15642    16401    17482    17756    17532 
   17362    17145    16818    16904    17479    17763    17929    18644 
   19350    19727    20150    20405    20456    20522    20274    19716 
   19121    18376    17875    18050    18330    18342    18314    17861 
   16557    15348    15260    15572    15492    15742    16691    17748 
   18755    19556    19711    19488    19214    18681    18144    18095 
   18315    18335    18169    18227    18620    18960    18897    18509 
   18073    17478    16951    17417    18721    19792    20353    20499 
   19932    18666    17462    16850    16640    16605    16592    16387 
   16100    16097    16625    17579    18319    18142    17494    17544 
   18434    19344    19909    20433    20756    20407    19739    19125 
   18366    17568    17285    17964    19066    19562    19400    18735 
   17543    16622    16460    16424    16309    16627    17099    17030 
   16857    17088    17339    17622    18137    18304    18022    18130 
   18783    19187    19001    18871    19286    19647    19453    19009 
   18360    17525    17065    17170    17757    19020    20472    20952 
   20256    19201    18387    17946    17690    17485    17415    17251 
   16842    16538    16626    17068    17423    17192    16625    16247 
   16121    16329    16865    17347    17828    18573    19279    19826 
   20417    20653    20190    19643    19342    18860    18486    18883 
   19691    20029    19630    19028    18582    17888    16934    16368 
   16391    16698    17010    17070    16891    16983    17321    17103 
   16646    17058    17774    17834    17995    18805    19372    19260 
   19201    19415    19195    18478    17776    17397    17756    18612 
   18877    18428    18214    18630    19228    19569    19591    19199 
   18241    17077    16263    15911    16044    16606    17248    17809 
   18193    18307    18306    18181    18202    19130    20540    20969 
   20256    19400    18733    17998    17440    17215    16641    15622 
   15183    15579    16009    16475    17541    18736    19353    19653 
   19965    19990    19683    19488    19207    18450    18064    18485 
   18555    17992    17757    17813    17605    17486    17801    18223 
   18485    18659    18833    18990    19086    19130    18962    18289 
   17464    16984    16316    15361    15093    15425    15815    16741 
   18216    19174    19026    18507    18459    18709    18877    19184 
   19885    20480    20391    20042    19804    19334    18706    18338 
   18207    18048    17830    17672    17551    17513    17671    17803 
   17691    17497    17324    17162    16957    16557    16185    16096 
   16128    16425    17181    18011    18588    18883    18932    18945 
   19201    19668    19961    19930    19770    19516    19302    19356 
   19485    19395    19002    18346    17833    17890    17863    17032 
   16433    17034    17807    17995    18234    18530    18254    17529 
   16866    16552    16467    16436    16486    16283    15840    16102 
   17015    17574    18160    19337    20100    20000    19859    19872 
   19928    20398    20933    20765    20154    19570    18929    18253 
   17811    17829    17941    17493    16853    16911    17628    18277 
   18462    18283    17803    17062    16366    15920    15620    15485 
   15680    16137    16922    17988    18651    18681    18658    18705 
   18540    18404    18767    19469    20059    20359    20235    19777 
   19467    19507    19576    19387    19040    18786    18542    18094 
   17640    17352    17034    16600    16231    16276    16819    17423 
   17783    18030    18270    18283    17960    17656    17469    16923 
   16276    16544    17356    17744    18148    18663    18663    18536 
   18702    18962    19252    19530    19716    19618    19191    18962 
   19076    19068    18979    19017    18844    18274    17613    17212 
   17131    17294    17732    18115    17907    17274    16879    17022 
   17433    17801    18037    18000    17691    17491    17724    18288 
   18851    19099    18843    18238    17676    17355    17215    17238 
   17529    17934    18115    18073    18072    18327    18817    19279 
   19572    19678    19491    19028    18613    18538    18531    18385 
   18462    18520    18009    17477    17479    17506    17185    16974 
   17292    17772    17869    17882    18083    17845    17305    17382 
   17712    17656    17617    17705    17653    17566    17594    17882 
   18434    18963    19380    19749    19863    19703    19580    19383 
   18908    18555    18532    18526    18355    17879    17298    17161 
   17127    16868    17112    17761    17883    17712    17759    17770 
   17745    17903    18079    18134    18073    18060    18247    18353 
   18346    18468    18403    18099    18065    18314    18501    18499 
   18324    18161    18324    18732    18856    18615    18297    17928 
   17693    17973    18474    18527    18162    17967    18040    17932 
   17724    17764    17693    17452    17591    17925    18102    18135 
   17975    17926    18249    18588    18783    18836    18341    17423 
   17143    17841    18570    18783    18963    19201    18970    18369 
   17872    17577    17478    17451    17362    17311    17301    17216 
   16927    16515    16536    17325    18361    19062    19444    19753 
   20061    20182    19994    19808    19777    19440    18739    18239 
   18034    17938    17987    17902    17405    16989    16937    16707 
   16553    17193    17817    17730    17797    18154    18014    17552 
   17393    17493    17474    17286    17250    17497    17772    18052 
   18624    19249    19468    19462    19342    19024    19049    19526 
