Origin Time       2024/06/23 22:54:00
Lat.              35.645
Long.             140.060
Depth. (km)       72
Mag.              4.1
Station Code      IBRH15
Station Lat.      36.5566
Station Long.     140.3013
Station Height(m) -62
Record Time       2024/06/23 22:54:56
Sampling Freq(Hz) 100Hz
Duration Time(s)  120
Dir.              2
Scale Factor      2942(gal)/8224139
Max. Acc. (gal)   0.214
Last Correction   2024/06/23 22:54:56
Memo.             
[...]
    5220     5285     5343     5382     5395     5389     5358     5292 
    5259     5263     5252     5270     5324     5366     5383     5360 
    5328     5327     5293     5215     5244     5363     5375     5332 
    5362     5391     5370     5333     5263     5181     5197     5292 
    5371     5420     5394     5317     5286     5279     5282     5314 
    5336     5297     5224     5270     5421     5464     5405     5354 
    5244     5151     5202     5292     5335     5393     5441     5412 
    5333     5260     5188     5200     5333     5401     5370     5377 
    5356     5275     5250     5281     5333     5368     5324     5270 
    5298     5340     5312     5320     5409     5409     5327     5296 
    5273     5223     5246     5317     5323     5323     5363     5350 
    5310     5301     5274     5251     5283     5327     5337     5360 
    5394     5363     5296     5263     5267     5294     5335     5367 
    5352     5304     5296     5327     5332     5324     5328     5310 
    5278     5300     5367     5385     5308     5240     5277     5333 
    5327     5333     5377     5374     5323     5259     5229     5266 
    5310     5340     5348     5309     5266     5265     5300     5351 
    5398     5401     5309     5221     5238     5282     5314     5381 
    5427     5378     5309     5285     5263     5269     5333     5374 
    5358     5341     5312     5259     5240     5258     5283     5317 
    5375     5433     5417     5346     5313     5278     5235     5258 
    5285     5310     5367     5358     5300     5285     5300     5324 
    5331     5346     5408     5439     5359     5228     5185     5201 
    5206     5305     5445     5467     5412     5298     5161     5140 
    5227     5352     5445     5427     5371     5333     5265     5216 
    5251     5329     5386     5378     5343     5320     5283     5273 
    5296     5314     5332     5327     5328     5373     5382     5324 
    5286     5294     5294     5287     5347     5417     5371     5281 
    5265     5259     5227     5254     5304     5298     5287     5316 
    5370     5395     5339     5283     5305     5323     5324     5358 
    5366     5346     5335     5294     5260     5279     5313     5325 
    5297     5283     5358     5420     5374     5300     5270     5251 
    5232     5270     5366     5400     5329     5282     5279     5255 
    5258     5321     5400     5433     5402     5341     5283     5274 
    5300     5277     5275     5360     5390     5332     5289     5266 
    5267     5356     5433     5350     5287     5409     5429     5270 
    5255     5333     5282     5209     5220     5265     5320     5382 
    5431     5413     5348     5306     5277     5242     5231     5247 
    5301     5363     5360     5327     5306     5287     5287     5298 
    5289     5267     5262     5305     5366     5351     5302     5341 
    5405     5406     5383     5321     5223     5205     5286     5366 
    5417     5454     5424     5316     5233     5198     5179     5250 
    5355     5371     5356     5351     5324     5313     5314     5312 
    5344     5360     5337     5336     5297     5231     5254     5300 
    5296     5317     5374     5416     5431     5412     5355     5278 
    5211     5198     5270     5346     5340     5294     5301     5360 
    5382     5355     5312     5244     5236     5289     5278     5269 
    5341     5402     5375     5286     5205     5215     5302     5394 
    5452     5439     5329     5233     5225     5254     5286     5336 
    5404     5425     5373     5314     5254     5201     5231     5302 
    5340     5354     5375     5410     5391     5308     5235     5204 
    5224     5278     5340     5424     5460     5379     5282     5290 
    5341     5310     5256     5289     5317     5271     5273     5348 
    5373     5358     5416     5487     5427     5248     5089     5084 
    5238     5327     5293     5347     5429     5350     5266     5273 
    5262     5285     5350     5352     5324     5325     5356     5389 
    5406     5414     5358     5247     5213     5239     5246     5325 
    5454     5452     5352     5289     5236     5178     5163     5205 
    5293     5402     5479     5478     5424     5391     5312     5169 
    5162     5279     5366     5417     5386     5294     5287     5309 
    5242     5205     5300     5420     5454     5374     5266     5223 
    5217     5235     5316     5381     5362     5344     5343     5310 
    5289     5306     5313     5310     5328     5336     5339     5337 
    5290     5283     5324     5287     5289     5400     5421     5344 
    5300     5296     5290     5260     5266     5316     5302     5273 
    5343     5401     5347     5293     5321     5340     5305     5316 
    5363     5312     5244     5324     5401     5321     5242     5279 
    5333     5344     5352     5354     5329     5328     5331     5325 
    5329     5305     5281     5267     5262     5305     5317     5301 
    5317     5285     5254     5314     5386     5406     5374     5340 
    5351     5323     5223     5182     5248     5328     5373     5410 
    5433     5381     5266     5197     5196     5248     5351     5422 
    5414     5389     5367     5312     5223     5174     5258     5406 
    5432     5364     5343     5310     5232     5219     5270     5309 
    5339     5378     5385     5302     5196     5215     5344     5420 
    5413     5387     5350     5319     5281     5236     5289     5405 
    5428     5358     5259     5181     5206     5313     5387     5414 
    5400     5339     5279     5275     5314     5306     5296     5347 
    5344     5310     5340     5332     5266     5224     5235     5292 
    5340     5381     5444     5447     5371     5312     5266     5243 
    5258     5247     5247     5331     5440     5444     5351     5266 
    5197     5159     5217     5294     5331     5371     5374     5333 
    5344     5373     5341     5255     5206     5282     5366     5371 
    5393     5402     5320     5256     5283     5327     5363     5394 
    5383     5317     5236     5206     5235     5296     5377     5402 
    5351     5312     5309     5327     5333     5313     5301     5283 
    5247     5246     5273     5319     5395     5413     5333     5297 
    5364     5400     5341     5289     5292     5336     5371     5324 
    5235     5223     5255     5273     5348     5462     5485     5428 
    5366     5298     5219     5167     5181     5252     5333     5377 
    5385     5364     5313     5248     5228     5290     5363     5374 
    5343     5298     5296     5347     5374     5321     5251     5232 
    5255     5308     5351     5320     5277     5289     5306     5336 
    5387     5387     5329     5296     5332     5375     5351     5309 
    5317     5328     5346     5389     5346     5215     5173     5242 
    5305     5320     5370     5444     5401     5305     5250     5170 
    5147     5281     5417     5420     5332     5255     5221     5251 
    5339     5387     5358     5296     5265     5323     5409     5427 
    5418     5412     5341     5279     5309     5317     5286     5317 
    5352     5327     5294     5287     5314     5355     5375     5375 
    5356     5333     5348     5354     5267     5167     5167     5215 
    5275     5346     5352     5316     5313     5341     5356     5351 
    5358     5329     5270     5293     5350     5328     5297     5317 
    5308     5244     5224     5273     5293     5313     5383     5401 
    5350     5301     5262     5238     5270     5347     5370     5347 
    5358     5336     5277     5285     5336     5367     5339     5259 
    5263     5366     5397     5374     5398     5390     5309     5269 
    5271     5267     5298     5367     5451     5503     5467     5347 
    5208     5171     5252     5309     5316     5320     5274     5201 
    5182     5201     5252     5350     5378     5323     5309     5312 
    5265     5225     5260     5355     5408     5414     5413     5321 
    5211     5228     5286     5324     5401     5439     5394     5340 
    5278     5219     5255     5341     5370     5397     5445     5398 
    5287     5243     5250     5255     5269     5305     5385     5455 
    5398     5252     5200     5266     5331     5389     5429     5366 
    5277     5275     5313     5346     5358     5340     5337     5352 
    5323     5260     5231     5213     5193     5244     5310     5283 
    5275     5336     5346     5301     5300     5351     5379     5381 
    5364     5281     5223     5289     5333     5292     5316     5404 
    5406     5348     5341     5352     5324     5294     5321     5389 
    5400     5328     5274     5293     5308     5293     5336     5393 
    5362     5308     5270     5270     5336     5373     5368     5333 
    5227     5167     5219     5305     5379     5408     5387     5332 
    5263     5231     5259     5325     5360     5323     5263     5224 
    5227     5298     5381     5406     5371     5309     5282     5328 
    5366     5298     5228     5308     5401     5355     5294     5277 
    5224     5201     5279     5351     5390     5471     5517     5443 
    5329     5258     5219     5209     5256     5327     5348     5355 
    5381     5341     5233     5179     5247     5358     5383     5352 
    5344     5325     5302     5335     5387     5366     5293     5256 
    5248     5242     5293     5362     5354     5335     5355     5340 
    5287     5239     5224     5278     5348     5355     5332     5337 
    5382     5412     5352     5252     5239     5320     5387     5401 
    5395     5378     5362     5362     5360     5344     5331     5332 
    5336     5328     5296     5247     5220     5244     5274     5258 
    5244     5302     5362     5327     5262     5274     5358     5462 
    5520     5485     5395     5310     5254     5192     5136     5181 
    5251     5220     5189     5242     5271     5231     5190     5211 
    5314     5433     5482     5483     5474     5441     5358     5281 
    5320     5393     5346     5274     5283     5250     5154     5184 
    5329     5383     5354     5382     5422     5383     5364     5456 
    5517     5432     5281     5134     5034     5057     5144     5166 
    5150     5194     5259     5294     5381     5508     5485     5305 
    5216     5367     5594     5632     5503     5373     5205     4996 
    4943     5113     5297     5368     5420     5498     5553     5518 
    5382     5271     5292     5381     5448     5487     5485     5356 
    5121     4969     5007     5201     5437     5555     5524     5410 
    5286     5285     5437     5591     5625     5485     5200     5008 
    5050     5147     5189     5224     5194     5131     5197     5316 
    5344     5363     5432     5440     5343     5227     5181     5185 
    5159     5119     5175     5292     5332     5343     5494     5742 
    5814     5644     5452     5333     5281     5289     5271     5266 
    5332     5323     5228     5252     5375     5433     5436     5451 
    5416     5263     5109     5080     5119     5200     5340     5373 
    5175     4924     4857     5016     5256     5414     5518     5661 
    5761     5690     5490     5319     5208     5097     5082     5215 
    5314     5302     5300     5368     5409     5340     5282     5350 
    5433     5479     5580     5643     5483     5298     5335     5381 
    5240     5136     5223     5301     5213     5076     5090     5252 
    5363     5393     5397     5312     5227     5262     5328     5382 
    5417     5363     5317     5414     5501     5429     5308     5231 
    5144     4990     4841     4849     5103     5514     5722     5562 
    5366     5275     5146     5144     5347     5440     5391     5456 
    5518     5356     5167     5232     5428     5431     5282     5259 
    5304     5325     5455     5522     5328     5177     5262     5355 
    5381     5416     5394     5319     5263     5270     5400     5513 
    5418     5274     5224     5161     5071     5067     5158     5278 
    5412     5478     5386     5224     5103     5051     5090     5186 
    5313     5478     5553     5451     5339     5378     5494     5580 
    5641     5583     5312     5046     5035     5158     5248     5379 
    5518     5529     5458     5381     5364     5449     5522     5522 
    5521     5494     5362     5189     5112     5161     5198     5134 
    5098     5205     5298     5208     5034     4993     5130     5320 
    5433     5432     5378     5296     5204     5196     5290     5414 
    5552     5644     5530     5266     5054     4947     4941     5051 
    5248     5479     5629     5609     5445     5254     5200     5316 
    5502     5647     5606     5416     5270     5208     5223     5319 
    5395     5409     5406     5316     5078     4889     4959     5216 
    5476     5672     5751     5630     5433     5343     5292     5238 
    5236     5229     5236     5308     5286     5123     5066     5208 
    5305     5281     5347     5417     5221     4915     4811     4980 
    5310     5578     5625     5489     5305     5206     5251     5362 
    5418     5408     5366     5283     5174     5125     5240     5467 
    5633     5729     5811     5810     5682     5455     5167     4981 
    5011     5139     5277     5413     5439     5317     5200     5104 
    4928     4858     5098     5421     5544     5536     5482     5292 
    5074     5071     5244     5464     5733     5915     5838     5567 
    5310     5166     5055     4973     5059     5228     5236     5170 
    5240     5332     5301     5269     5279     5216     5074     5001 
    5057     5200     5373     5470     5475     5501     5562     5616 
    5633     5522     5337     5269     5287     5310     5339     5302 
    5228     5250     5289     5233     5204     5267     5324     5324 
    5292     5213     5125     5175     5398     5616     5648     5440 
    5144     5016     5071     5140     5171     5193     5181     5148 
    5193     5383     5656     5857     5846     5678     5535     5478 
    5455     5328     5038     4801     4777     4874     5028     5225 
    5394     5478     5543     5672     5775     5707     5501     5337 
    5310     5313     5233     5127     5038     4959     4999     5236 
    5540     5738     5695     5412     5177     5188     5329     5481 
    5549     5433     5175     4912     4785     4918     5215     5464 
    5593     5579     5471     5387     5294     5181     5173     5289 
    5440     5485     5337     5158     5134     5258     5417     5522 
    5503     5327     5162     5224     5379     5433     5460     5487 
    5416     5255     5093     5044     5096     5120     5134     5252 
    5437     5489     5381     5313     5358     5421     5439     5482 
    5630     5740     5628     5382     5224     5235     5286     5235 
    5143     5132     5158     5162     5266     5518     5703     5659 
    5435     5159     5016     5049     5074     5028     5028     5107 
    5119     5038     5071     5289     5447     5402     5320     5329 
    5350     5346     5359     5378     5402     5395     5252     5051 
    5026     5188     5379     5549     5674     5665     5501     5285 
    5181     5251     5421     5598     5659     5502     5220     5038 
    5049     5215     5451     5566     5497     5427     5422     5383 
    5259     5121     5128     5273     5401     5463     5417     5325 
    5379     5483     5439     5329     5236     5136     5116     5252 
    5451     5526     5389     5173     5098     5190     5281     5298 
    5350     5475     5541     5437     5275     5198     5181     5175 
    5155     5111     5123     5233     5355     5393     5354     5333 
    5370     5387     5340     5258     5202     5194     5197     5212 
    5289     5367     5308     5121     4980     5013     5177     5348 
    5441     5378     5238     5252     5428     5541     5512     5440 
    5424     5443     5459     5503     5526     5432     5312     5296 
    5356     5432     5528     5613     5563     5379     5278     5341 
    5422     5401     5278     5182     5223     5310     5332     5298 
    5242     5188     5152     5117     5073     5035     5027     5143 
    5375     5487     5378     5273     5279     5246     5196     5275 
    5371     5389     5439     5509     5444     5231     5067     5073 
    5134     5194     5242     5223     5294     5516     5622     5583 
    5562     5476     5289     5163     5157     5213     5260     5224 
    5242     5398     5479     5420     5332     5269     5316     5439 
    5468     5400     5320     5287     5305     5289     5229     5221 
    5336     5516     5539     5378     5302     5367     5405     5378 
    5333     5329     5393     5456     5421     5258     5104     5088 
    5134     5190     5344     5535     5587     5466     5287     5162 
    5127     5152     5202     5275     5329     5309     5297     5373 
    5458     5475     5382     5201     5113     5204     5316     5333 
    5294     5282     5290     5246     5198     5251     5352     5382 
    5377     5410     5394     5317     5301     5300     5266     5274 
    5254     5157     5084     5065     5123     5235     5251     5205 
    5275     5421     5495     5475     5432     5391     5337     5273 
    5206     5223     5358     5440     5398     5371     5398     5427 
    5460     5487     5489     5485     5417     5293     5267     5341 
    5425     5463     5351     5161     5097     5134     5158     5190 
    5260     5350     5413     5367     5267     5275     5332     5286 
    5194     5144     5152     5231     5350     5454     5514     5498 
    5397     5294     5296     5363     5421     5505     5570     5491 
    5336     5258     5285     5336     5317     5246     5223     5271 
    5281     5194     5202     5379     5478     5437     5405     5321 
    5142     5059     5111     5143     5181     5285     5344     5301 
    5244     5243     5292     5382     5466     5467     5428     5401 
    5350     5298     5274     5260     5282     5340     5381     5366 
    5314     5302     5373     5441     5445     5429     5409     5352 
    5247     5155     5159     5250     5339     5355     5360     5410 
    5400     5332     5371     5460     5387     5244     5219     5219 
    5190     5270     5416     5440     5354     5269     5206     5186 
    5227     5271     5255     5209     5243     5366     5382     5211 
    5100     5181     5255     5220     5194     5228     5283     5364 
    5429     5410     5363     5362     5378     5333     5244     5211 
    5248     5278     5316     5389     5418     5393     5402     5455 
    5439     5386     5422     5467     5417     5363     5329     5270 
    5266     5379     5454     5368     5302     5406     5505     5441 
    5327     5301     5343     5379     5367     5308     5275     5301 
    5337     5358     5340     5286     5209     5161     5247     5387 
    5379     5285     5275     5294     5244     5197     5236     5321 
    5350     5242     5100     5116     5262     5364     5371     5293 
    5204     5229     5325     5389     5428     5390     5260     5193 
    5255     5309     5246     5157     5171     5266     5363     5449 
