Origin Time       2024/06/23 22:54:00
Lat.              35.645
Long.             140.060
Depth. (km)       72
Mag.              4.1
Station Code      IBRH08
Station Lat.      36.1188
Station Long.     140.5621
Station Height(m) 40
Record Time       2024/06/23 22:54:49
Sampling Freq(Hz) 100Hz
Duration Time(s)  120
Dir.              4
Scale Factor      7845(gal)/8223790
Max. Acc. (gal)   1.513
Last Correction   2024/06/23 22:54:49
Memo.             
[...]
   -3842    -4054    -4216    -4201    -4054    -3858    -3766    -3854 
   -3994    -4072    -4110    -4108    -4035    -3931    -3861    -3878 
   -3969    -4000    -3936    -3921    -3971    -3954    -3873    -3851 
   -3939    -4067    -4099    -4032    -4004    -4047    -4071    -4032 
   -3925    -3777    -3715    -3850    -4047    -4116    -4095    -4035 
   -3881    -3762    -3863    -4045    -4072    -4014    -4050    -4110 
   -4052    -3959    -3969    -4000    -3935    -3824    -3793    -3866 
   -3915    -3850    -3866    -4128    -4383    -4321    -4020    -3751 
   -3676    -3796    -3952    -3983    -3983    -4095    -4174    -4045 
   -3862    -3850    -3996    -4124    -4104    -3939    -3777    -3728 
   -3739    -3775    -3936    -4222    -4407    -4340    -4160    -4023 
   -3836    -3566    -3460    -3661    -3959    -4180    -4326    -4291 
   -4077    -3919    -3865    -3821    -3885    -4044    -4098    -4017 
   -3925    -3856    -3825    -3877    -3958    -4000    -4059    -4133 
   -4043    -3815    -3786    -4021    -4193    -4199    -4167    -4033 
   -3771    -3632    -3717    -3823    -3897    -4068    -4244    -4293 
   -4268    -4147    -3901    -3662    -3537    -3605    -3829    -4039 
   -4190    -4266    -4128    -3870    -3836    -4089    -4303    -4221 
   -3947    -3755    -3686    -3651    -3670    -3824    -4124    -4368 
   -4322    -4091    -3946    -3943    -4005    -4070    -4039    -3919 
   -3861    -3827    -3620    -3407    -3622    -4168    -4441    -4283 
   -4097    -4099    -4129    -3933    -3611    -3628    -4009    -4232 
   -4148    -4043    -3986    -3897    -3889    -4082    -4245    -4090 
   -3821    -3763    -3792    -3784    -3813    -3874    -4024    -4229 
   -4233    -4054    -3929    -3901    -3902    -3885    -3842    -3885 
   -4077    -4236    -4143    -3886    -3855    -4109    -4140    -3773 
   -3530    -3801    -4267    -4376    -4129    -3958    -3978    -3927 
   -3703    -3553    -3726    -4095    -4297    -4247    -4122    -3987 
   -3882    -3889    -3946    -3956    -3912    -3865    -3894    -3952 
   -3982    -4099    -4249    -4105    -3711    -3532    -3690    -3931 
   -4152    -4303    -4272    -4082    -3875    -3831    -3967    -4029 
   -3933    -3920    -3958    -3888    -3910    -4068    -4029    -3819 
   -3748    -3848    -4004    -4182    -4325    -4342    -4176    -3881 
   -3669    -3628    -3661    -3824    -4132    -4295    -4189    -4010 
   -3901    -3862    -3859    -3861    -3890    -3966    -4048    -4125 
   -4170    -4077    -3866    -3742    -3798    -3948    -4090    -4117 
   -3987    -3813    -3744    -3862    -4104    -4275    -4284    -4175 
   -3959    -3678    -3528    -3651    -3900    -4028    -4023    -4054 
   -4158    -4140    -3908    -3761    -3929    -4151    -4133    -3937 
   -3805    -3940    -4228    -4274    -4012    -3784    -3771    -3897 
   -4060    -4151    -4070    -3871    -3723    -3750    -3906    -4040 
   -4083    -4056    -4000    -3929    -3846    -3865    -4093    -4272 
   -4118    -3859    -3789    -3840    -3897    -3919    -3867    -3851 
   -3986    -4131    -4090    -3960    -3963    -4101    -4172    -4039 
   -3870    -3937    -4167    -4237    -4032    -3727    -3543    -3581 
   -3721    -3774    -3815    -4028    -4270    -4324    -4260    -4195 
   -4118    -4060    -4047    -3983    -3855    -3801    -3824    -3727 
   -3542    -3591    -3904    -4189    -4267    -4186    -4141    -4221 
   -4172    -3852    -3647    -3821    -4062    -4094    -4031    -3970 
   -3939    -4027    -4112    -3983    -3825    -3870    -3936    -3866 
   -3796    -3832    -3944    -4066    -4125    -4139    -4166    -4148 
   -4023    -3871    -3829    -3902    -3920    -3816    -3766    -3846 
   -3956    -4095    -4245    -4232    -4028    -3892    -3977    -4087 
   -3986    -3767    -3731    -3881    -3979    -3997    -4024    -4062 
   -4037    -3897    -3721    -3684    -3870    -4144    -4268    -4232 
   -4167    -4116    -4086    -4010    -3813    -3658    -3709    -3867 
   -3969    -3974    -3974    -4035    -4118    -4109    -3929    -3785 
   -3956    -4207    -4147    -3933    -3893    -3973    -3952    -3834 
   -3851    -3987    -4002    -3933    -3933    -3956    -3982    -4093 
   -4236    -4213    -3994    -3789    -3728    -3765    -3836    -3923 
   -4039    -4122    -4054    -3893    -3850    -3956    -4062    -4144 
   -4244    -4224    -4036    -3879    -3785    -3643    -3564    -3677 
   -3882    -4043    -4116    -4131    -4110    -4009    -3927    -4018 
   -4155    -4158    -4078    -3990    -3867    -3717    -3626    -3655 
   -3855    -4203    -4434    -4352    -4176    -4108    -3993    -3744 
   -3562    -3642    -3924    -4171    -4249    -4197    -4062    -3916 
   -3862    -3924    -4059    -4205    -4247    -4039    -3618    -3306 
   -3370    -3713    -4062    -4302    -4437    -4390    -4093    -3731 
   -3585    -3728    -3983    -4129    -4125    -4062    -3948    -3793 
   -3801    -4113    -4464    -4529    -4311    -3915    -3439    -3176 
   -3316    -3680    -3987    -4191    -4356    -4425    -4328    -4156 
   -3989    -3855    -3819    -3811    -3750    -3742    -3834    -3927 
   -3990    -4063    -4118    -4097    -4027    -3963    -3900    -3848 
   -3901    -4054    -4174    -4210    -4201    -4114    -3933    -3781 
   -3696    -3613    -3654    -3919    -4197    -4264    -4133    -3964 
   -3874    -3863    -3948    -4095    -4091    -3875    -3740    -3838 
   -3942    -3936    -3967    -4068    -4148    -4163    -4087    -3964 
   -3890    -3882    -3963    -4093    -4060    -3865    -3780    -3879 
   -4005    -4016    -3927    -3933    -4070    -4040    -3784    -3643 
   -3785    -4016    -4162    -4217    -4240    -4263    -4182    -3892 
   -3597    -3572    -3766    -4018    -4261    -4383    -4342    -4244 
   -4090    -3866    -3728    -3747    -3794    -3784    -3750    -3753 
   -3801    -3896    -4077    -4284    -4368    -4342    -4295    -4148 
   -3859    -3618    -3573    -3623    -3608    -3611    -3835    -4213 
   -4436    -4411    -4315    -4232    -4044    -3720    -3426    -3360 
   -3600    -4056    -4487    -4638    -4442    -4099    -3861    -3731 
   -3624    -3604    -3728    -3898    -3997    -3998    -3985    -4051 
   -4141    -4160    -4149    -4136    -4016    -3748    -3483    -3404 
   -3553    -3888    -4311    -4617    -4662    -4504    -4236    -3897 
   -3573    -3437    -3535    -3736    -3956    -4175    -4295    -4230 
   -4047    -3912    -3893    -3900    -3883    -3928    -4064    -4174 
   -4108    -3921    -3862    -3952    -3974    -3917    -3960    -4078 
   -4066    -3920    -3829    -3836    -3863    -3923    -3994    -4032 
   -4106    -4199    -4137    -3943    -3816    -3823    -3881    -3850 
   -3669    -3504    -3582    -3932    -4338    -4561    -4494    -4198 
   -3873    -3670    -3630    -3788    -4067    -4260    -4264    -4121 
   -3946    -3847    -3800    -3753    -3763    -3870    -3996    -4082 
   -4109    -4027    -3850    -3743    -3835    -3989    -4035    -4064 
   -4205    -4374    -4407    -4214    -3883    -3620    -3511    -3481 
   -3497    -3645    -4001    -4446    -4689    -4504    -4008    -3642 
   -3673    -3863    -3909    -3896    -4067    -4388    -4514    -4275 
   -3990    -3928    -3923    -3819    -3746    -3782    -3825    -3873 
   -4067    -4349    -4456    -4380    -4282    -4114    -3792    -3500 
   -3453    -3527    -3524    -3519    -3626    -3835    -4071    -4158 
   -4102    -4175    -4348    -4326    -4102    -3855    -3661    -3616 
   -3765    -3859    -3699    -3515    -3647    -3942    -4001    -3802 
   -3634    -3713    -4009    -4286    -4391    -4392    -4395    -4399 
   -4364    -4305    -4263    -4225    -4179    -4197    -4305    -4345 
   -4151    -3785    -3415    -3152    -3159    -3505    -3873    -3928 
   -3763    -3609    -3568    -3769    -4271    -4776    -4954    -4861 
   -4679    -4430    -4135    -3924    -3877    -3913    -3882    -3742 
   -3570    -3397    -3218    -3165    -3365    -3708    -3985    -4099 
   -4133    -4271    -4515    -4621    -4467    -4221    -4000    -3761 
   -3499    -3298    -3289    -3541    -3908    -4148    -4139    -3975 
   -3835    -3798    -3875    -4055    -4295    -4530    -4683    -4653 
   -4379    -3929    -3512    -3325    -3395    -3600    -3766    -3794 
   -3790    -3944    -4240    -4441    -4415    -4340    -4378    -4467 
   -4504    -4415    -4102    -3638    -3246    -3072    -3125    -3321 
   -3535    -3757    -4062    -4405    -4581    -4480    -4230    -3989 
   -3800    -3713    -3770    -3916    -3985    -3865    -3726    -3792 
   -3989    -4155    -4259    -4283    -4228    -4233    -4442    -4776 
   -4866    -4374    -3483    -2802    -2700    -3121    -3746    -4136 
   -4079    -3734    -3375    -3256    -3550    -4171    -4765    -5028 
   -4924    -4676    -4502    -4353    -4082    -3704    -3331    -3130 
   -3284    -3734    -4133    -4271    -4309    -4477    -4734    -4839 
   -4545    -3838    -3087    -2702    -2783    -3233    -3917    -4600 
   -4966    -4849    -4392    -3932    -3708    -3654    -3554    -3481 
   -3759    -4357    -4730    -4467    -3871    -3545    -3595    -3692 
   -3613    -3515    -3632    -3866    -4016    -4206    -4557    -4854 
   -4896    -4772    -4572    -4198    -3611    -3010    -2647    -2670 
   -3176    -4047    -4761    -4842    -4425    -3960    -3626    -3439 
   -3507    -3735    -3817    -3720    -3740    -4098    -4644    -4961 
   -4815    -4391    -3913    -3426    -3091    -3092    -3364    -3744 
   -4081    -4234    -4245    -4288    -4464    -4664    -4665    -4410 
   -3998    -3518    -3148    -3164    -3642    -4341    -4806    -4692 
   -4091    -3395    -2961    -2928    -3211    -3680    -4162    -4467 
   -4549    -4445    -4210    -4024    -4013    -4043    -3969    -3866 
   -3862    -4025    -4356    -4594    -4461    -4174    -4106    -4174 
   -4164    -4110    -4018    -3832    -3600    -3441    -3469    -3665 
   -3778    -3663    -3527    -3597    -3820    -4032    -4144    -4097 
   -3844    -3489    -3291    -3466    -4018    -4662    -5016    -4961 
   -4618    -4131    -3734    -3653    -3770    -3828    -3881    -4109 
   -4417    -4608    -4662    -4531    -4129    -3685    -3515    -3558 
   -3624    -3693    -3739    -3658    -3553    -3721    -4162    -4455 
   -4382    -4168    -3958    -3659    -3376    -3327    -3485    -3711 
   -3936    -4110    -4187    -4153    -4102    -4179    -4305    -4291 
   -4194    -4125    -4002    -3808    -3666    -3659    -3807    -4041 
   -4268    -4495    -4683    -4677    -4442    -4089    -3734    -3480 
   -3395    -3451    -3562    -3651    -3705    -3767    -3832    -3839 
   -3785    -3734    -3728    -3777    -3905    -4158    -4509    -4754 
   -4714    -4548    -4490    -4437    -4202    -3883    -3696    -3672 
   -3720    -3840    -4043    -4168    -4091    -3932    -3807    -3696 
   -3599    -3576    -3670    -3881    -4108    -4201    -4116    -3939 
   -3794    -3755    -3769    -3789    -3920    -4183    -4268    -3901 
   -3292    -2909    -3030    -3631    -4386    -4880    -4943    -4689 
   -4295    -3915    -3701    -3750    -4005    -4311    -4503    -4510 
   -4338    -4004    -3573    -3215    -3161    -3522    -4125    -4622 
   -4745    -4530    -4249    -4028    -3758    -3422    -3210    -3198 
   -3245    -3303    -3546    -4010    -4419    -4487    -4264    -4079 
   -4071    -4010    -3735    -3487    -3581    -4000    -4477    -4756 
   -4776    -4660    -4495    -4293    -4017    -3651    -3368    -3383 
   -3623    -3831    -3925    -4043    -4237    -4345    -4186    -3828 
   -3551    -3503    -3607    -3807    -4147    -4525    -4718    -4648 
   -4324    -3753    -3051    -2492    -2394    -2859    -3649    -4436 
   -5007    -5225    -5057    -4631    -4079    -3500    -3122    -3087 
   -3250    -3446    -3708    -4078    -4438    -4702    -4901    -4962 
   -4700    -4187    -3757    -3599    -3636    -3805    -4109    -4413 
   -4499    -4355    -4143    -3982    -3944    -4048    -4244    -4450 
   -4579    -4513    -4145    -3496    -2814    -2490    -2733    -3387 
   -4085    -4498    -4499    -4256    -4018    -3852    -3719    -3665 
   -3693    -3720    -3748    -3820    -3939    -4072    -4141    -4135 
   -4151    -4193    -4160    -4112    -4163    -4255    -4310    -4301 
   -4190    -4035    -3893    -3742    -3623    -3601    -3640    -3693 
   -3784    -3897    -3956    -3940    -3888    -3862    -3937    -4137 
   -4440    -4737    -4818    -4567    -4112    -3662    -3360    -3316 
   -3516    -3804    -4028    -4067    -3923    -3794    -3827    -3917 
   -3966    -4043    -4162    -4244    -4264    -4186    -4058    -4029 
   -4029    -3856    -3570    -3407    -3427    -3523    -3655    -3850 
   -4039    -4129    -4166    -4268    -4425    -4542    -4615    -4610 
   -4450    -4207    -4024    -3905    -3819    -3719    -3522    -3296 
   -3275    -3532    -3878    -4149    -4374    -4526    -4459    -4152 
   -3786    -3561    -3549    -3686    -3796    -3743    -3611    -3472 
   -3273    -3111    -3217    -3574    -3974    -4301    -4552    -4735 
   -4835    -4783    -4540    -4170    -3763    -3496    -3573    -3971 
   -4450    -4770    -4785    -4486    -4050    -3699    -3558    -3665 
   -3986    -4418    -4718    -4598    -4060    -3427    -2945    -2586 
   -2384    -2605    -3389    -4455    -5274    -5489    -5096    -4388 
   -3762    -3420    -3262    -3180    -3261    -3535    -3843    -4054 
   -4163    -4261    -4336    -4260    -4112    -4094    -4253    -4486 
   -4621    -4515    -4255    -4040    -3855    -3605    -3376    -3284 
   -3369    -3654    -4081    -4487    -4760    -4878    -4762    -4355 
   -3855    -3519    -3406    -3537    -3946    -4414    -4558    -4287 
   -3866    -3564    -3435    -3433    -3588    -3948    -4391    -4627 
   -4490    -4120    -3743    -3438    -3181    -3025    -3109    -3496 
   -4039    -4519    -4868    -5042    -4909    -4513    -4118    -3870 
   -3726    -3693    -3726    -3639    -3406    -3141    -2910    -2833 
   -3055    -3514    -3983    -4322    -4477    -4380    -4112    -4009 
   -4274    -4679    -4930    -5001    -4887    -4561    -4174    -3859 
   -3618    -3461    -3334    -3190    -3199    -3541    -4045    -4375 
   -4399    -4226    -4025    -3851    -3654    -3549    -3715    -4028 
   -4244    -4369    -4483    -4514    -4477    -4511    -4571    -4472 
   -4109    -3539    -3028    -2833    -2949    -3315    -3954    -4677 
   -5109    -5077    -4629    -3924    -3276    -3029    -3194    -3535 
   -3971    -4434    -4618    -4378    -3991    -3707    -3457    -3218 
   -3202    -3512    -3931    -4202    -4352    -4490    -4538    -4395 
   -4109    -3754    -3383    -3132    -3140    -3438    -3946    -4487 
   -4965    -5347    -5449    -5147    -4594    -4000    -3503    -3254 
   -3300    -3499    -3632    -3584    -3435    -3391    -3561    -3866 
   -4144    -4282    -4268    -4178    -4099    -4077    -4077    -4031 
   -3948    -3897    -3902    -3950    -3987    -3956    -3928    -4014 
   -4117    -4102    -4067    -4085    -4093    -4090    -4113    -4104 
   -4009    -3851    -3681    -3541    -3485    -3530    -3674    -3940 
   -4185    -4197    -4058    -3994    -4027    -4074    -4081    -4000 
   -3856    -3704    -3568    -3518    -3615    -3869    -4243    -4580 
   -4689    -4554    -4320    -4120    -3974    -3836    -3740    -3753 
   -3782    -3700    -3616    -3676    -3815    -3959    -4064    -4051 
   -4009    -4090    -4226    -4317    -4391    -4491    -4572    -4580 
   -4563    -4506    -4270    -3879    -3526    -3308    -3252    -3373 
   -3591    -3815    -4066    -4303    -4314    -3944    -3412    -3136 
   -3264    -3604    -3959    -4244    -4359    -4206    -3842    -3503 
   -3408    -3555    -3832    -4125    -4307    -4338    -4255    -4078 
   -3890    -3889    -4199    -4648    -4869    -4729    -4390    -4029 
   -3731    -3531    -3457    -3512    -3608    -3650    -3690    -3794 
   -3910    -3993    -4082    -4145    -4108    -4037    -4041    -4098 
   -4152    -4229    -4324    -4332    -4224    -4079    -3928    -3750 
   -3564    -3437    -3445    -3682    -4114    -4442    -4407    -4094 
   -3716    -3454    -3474    -3754    -4066    -4271    -4356    -4274 
   -4041    -3829    -3778    -3859    -3983    -4058    -3985    -3751 
   -3474    -3329    -3410    -3651    -3946    -4222    -4365    -4305 
   -4097    -3883    -3893    -4216    -4519    -4432    -4126    -4009 
   -4051    -4029    -3983    -3989    -3956    -3821    -3636    -3483 
   -3399    -3439    -3736    -4306    -4834    -5019    -4920    -4649 
   -4198    -3735    -3545    -3643    -3790    -3839    -3804    -3712 
   -3628    -3689    -3919    -4170    -4324    -4374    -4352    -4352 
   -4491    -4666    -4588    -4182    -3715    -3447    -3380    -3393 
   -3420    -3478    -3568    -3596    -3546    -3578    -3801    -4071 
   -4232    -4307    -4295    -4108    -3775    -3472    -3333    -3420 
   -3712    -4050    -4247    -4267    -4187    -4051    -3921    -3913 
   -4039    -4217    -4391    -4511    -4492    -4303    -4052    -3863 
   -3792    -3812    -3867    -3994    -4236    -4459    -4452    -4217 
   -3966    -3825    -3757    -3727    -3730    -3742    -3735    -3688 
   -3612    -3535    -3527    -3677    -3929    -4094    -4104    -4070 
   -4055    -4037    -4056    -4126    -4185    -4168    -4044    -3897 
   -3921    -4137    -4353    -4441    -4388    -4217    -4002    -3782 
   -3554    -3381    -3311    -3337    -3472    -3709    -3963    -4152 
   -4329    -4548    -4635    -4421    -4045    -3739    -3577    -3576 
   -3700    -3892    -4179    -4484    -4526    -4190    -3709    -3399 
   -3358    -3476    -3680    -3998    -4398    -4738    -4861    -4703 
   -4423    -4253    -4172    -4016    -3807    -3685    -3719    -3828 
   -3902    -3921    -3909    -3819    -3631    -3483    -3537    -3798 
   -4086    -4194    -4175    -4232    -4322    -4257    -4124    -4148 
   -4248    -4155    -3847    -3510    -3287    -3214    -3289    -3546 
   -3940    -4305    -4483    -4394    -4054    -3673    -3472    -3454 
   -3551    -3712    -3898    -4139    -4437    -4692    -4738    -4499 
   -4128    -3863    -3762    -3681    -3554    -3520    -3703    -4014 
   -4261    -4363    -4365    -4344    -4283    -4078    -3802    -3747 
   -3979    -4253    -4403    -4467    -4463    -4278    -3882    -3477 
   -3196    -2986    -2937    -3188    -3616    -4039    -4384    -4615 
   -4675    -4498    -4131    -3765    -3566    -3568    -3701    -3896 
   -4095    -4199    -4210    -4290    -4455    -4496    -4288    -3935 
   -3609    -3418    -3389    -3500    -3692    -3906    -4105    -4213 
   -4163    -4017    -3894    -3855    -3924    -4062    -4189    -4363 
   -4583    -4606    -4348    -4078    -3962    -3871    -3713    -3568 
   -3478    -3489    -3696    -4032    -4252    -4263    -4174    -4037 
   -3851    -3666    -3547    -3534    -3588    -3636    -3690    -3832 
   -4056    -4229    -4293    -4298    -4274    -4252    -4256    -4198 
   -4047    -3927    -3906    -3913    -3927    -3974    -4025    -4064 
