Origin Time       2024/06/23 22:54:00
Lat.              35.645
Long.             140.060
Depth. (km)       72
Mag.              4.1
Station Code      IBRH19
Station Lat.      36.2137
Station Long.     140.0893
Station Height(m) 175
Record Time       2024/06/23 22:54:38
Sampling Freq(Hz) 100Hz
Duration Time(s)  120
Dir.              5
Scale Factor      7845(gal)/8223790
Max. Acc. (gal)   0.742
Last Correction   2024/06/23 22:54:38
Memo.             
[...]
   -6146    -6142    -6142    -6143    -6143    -6145    -6145    -6142 
   -6143    -6145    -6143    -6142    -6142    -6145    -6143    -6142 
   -6143    -6145    -6145    -6145    -6145    -6145    -6145    -6143 
   -6143    -6145    -6143    -6142    -6143    -6146    -6145    -6143 
   -6145    -6143    -6141    -6142    -6143    -6143    -6143    -6145 
   -6145    -6143    -6143    -6143    -6142    -6143    -6145    -6145 
   -6143    -6141    -6142    -6145    -6143    -6143    -6142    -6141 
   -6142    -6143    -6143    -6143    -6142    -6142    -6141    -6142 
   -6143    -6145    -6143    -6143    -6143    -6143    -6142    -6143 
   -6143    -6143    -6145    -6146    -6146    -6146    -6147    -6146 
   -6143    -6142    -6143    -6145    -6146    -6145    -6143    -6145 
   -6143    -6142    -6143    -6145    -6145    -6145    -6145    -6142 
   -6143    -6146    -6145    -6143    -6146    -6149    -6146    -6145 
   -6146    -6145    -6143    -6145    -6143    -6143    -6143    -6143 
   -6145    -6143    -6142    -6143    -6143    -6143    -6143    -6146 
   -6146    -6145    -6145    -6145    -6143    -6143    -6142    -6143 
   -6145    -6145    -6146    -6146    -6145    -6143    -6145    -6147 
   -6146    -6145    -6143    -6142    -6142    -6142    -6142    -6145 
   -6147    -6146    -6143    -6145    -6146    -6143    -6143    -6145 
   -6145    -6146    -6146    -6145    -6142    -6143    -6143    -6142 
   -6143    -6143    -6142    -6143    -6143    -6141    -6142    -6145 
   -6145    -6145    -6143    -6145    -6147    -6146    -6143    -6145 
   -6146    -6145    -6143    -6145    -6146    -6143    -6142    -6145 
   -6145    -6145    -6143    -6142    -6145    -6146    -6145    -6145 
   -6142    -6142    -6146    -6145    -6142    -6143    -6146    -6146 
   -6142    -6143    -6146    -6145    -6142    -6145    -6145    -6143 
   -6145    -6143    -6142    -6143    -6143    -6143    -6145    -6143 
   -6142    -6142    -6142    -6142    -6143    -6142    -6142    -6146 
   -6146    -6145    -6146    -6146    -6143    -6142    -6145    -6143 
   -6142    -6143    -6145    -6143    -6141    -6142    -6146    -6146 
   -6143    -6142    -6145    -6145    -6142    -6142    -6143    -6146 
   -6146    -6145    -6145    -6145    -6145    -6146    -6143    -6143 
   -6145    -6145    -6145    -6145    -6143    -6143    -6145    -6143 
   -6142    -6142    -6145    -6145    -6146    -6146    -6142    -6143 
   -6146    -6146    -6147    -6146    -6142    -6142    -6143    -6142 
   -6142    -6143    -6142    -6142    -6143    -6142    -6142    -6143 
   -6142    -6145    -6146    -6145    -6146    -6147    -6145    -6145 
   -6143    -6141    -6143    -6145    -6143    -6145    -6146    -6146 
   -6145    -6143    -6145    -6147    -6145    -6143    -6142    -6143 
   -6145    -6145    -6145    -6145    -6145    -6146    -6146    -6143 
   -6143    -6145    -6145    -6142    -6142    -6143    -6143    -6142 
   -6142    -6145    -6146    -6145    -6146    -6146    -6145    -6143 
   -6143    -6143    -6143    -6142    -6141    -6141    -6143    -6143 
   -6142    -6142    -6142    -6143    -6143    -6142    -6142    -6145 
   -6146    -6143    -6142    -6146    -6147    -6146    -6145    -6143 
   -6143    -6143    -6145    -6143    -6145    -6145    -6142    -6142 
   -6145    -6146    -6142    -6143    -6145    -6142    -6143    -6145 
   -6142    -6142    -6143    -6145    -6145    -6145    -6145    -6143 
   -6141    -6142    -6142    -6142    -6145    -6145    -6145    -6146 
   -6142    -6141    -6145    -6146    -6142    -6142    -6146    -6145 
   -6143    -6145    -6146    -6147    -6146    -6143    -6143    -6146 
   -6146    -6145    -6145    -6143    -6143    -6143    -6142    -6142 
   -6146    -6143    -6141    -6143    -6145    -6146    -6146    -6145 
   -6146    -6146    -6145    -6145    -6145    -6143    -6143    -6145 
   -6146    -6145    -6145    -6145    -6143    -6143    -6143    -6142 
   -6143    -6146    -6146    -6145    -6147    -6146    -6143    -6143 
   -6146    -6145    -6142    -6142    -6146    -6145    -6143    -6146 
   -6146    -6145    -6146    -6146    -6146    -6147    -6146    -6143 
   -6146    -6149    -6145    -6142    -6146    -6149    -6145    -6141 
   -6143    -6150    -6150    -6142    -6138    -6139    -6137    -6145 
   -6166    -6162    -6133    -6126    -6154    -6165    -6149    -6139 
   -6137    -6131    -6141    -6160    -6161    -6146    -6139    -6149 
   -6141    -6112    -6119    -6139    -6162    -6204    -6193    -6127 
   -6081    -6093    -6168    -6184    -6127    -6149    -6176    -6149 
   -6156    -6154    -6164    -6149    -6029    -6031    -6197    -6264 
   -6196    -6137    -6168    -6146    -6034    -6065    -6188    -6178 
   -6112    -6124    -6187    -6250    -6262    -6157    -6045    -6085 
   -6097    -6016    -6106    -6272    -6254    -6172    -6150    -6073 
   -6003    -6122    -6265    -6292    -6234    -6029    -5935    -6124 
   -6187    -6150    -6255    -6264    -6208    -6187    -6033    -5949 
   -6064    -6156    -6237    -6272    -6124    -6018    -6054    -6151 
   -6308    -6301    -6091    -6046    -6146    -6165    -6138    -6080 
   -6097    -6232    -6237    -6138    -6091    -6056    -6135    -6251 
   -6164    -6093    -6160    -6134    -6139    -6181    -6093    -6087 
   -6127    -6107    -6187    -6218    -6150    -6210    -6247    -6150 
   -6119    -6138    -6084    -6031    -6002    -6021    -6170    -6288 
   -6261    -6269    -6303    -6185    -6030    -6022    -6038    -6026 
   -6095    -6184    -6238    -6272    -6181    -6076    -6178    -6235 
   -6095    -6066    -6093    -6068    -6153    -6183    -6124    -6189 
   -6203    -6131    -6164    -6211    -6210    -6153    -6021    -6010 
   -6145    -6200    -6177    -6168    -6158    -6127    -6116    -6146 
   -6129    -6099    -6142    -6176    -6191    -6184    -6111    -6092 
   -6176    -6220    -6161    -6061    -6056    -6161    -6195    -6143 
   -6127    -6158    -6230    -6208    -6079    -6093    -6156    -6089 
   -6118    -6199    -6161    -6162    -6150    -6064    -6112    -6207 
   -6183    -6122    -6096    -6162    -6226    -6185    -6145    -6130 
   -6114    -6126    -6103    -6081    -6154    -6201    -6147    -6077 
   -6065    -6203    -6351    -6266    -6092    -6033    -6057    -6096 
   -6126    -6151    -6169    -6181    -6142    -6070    -6141    -6272 
   -6226    -6103    -6088    -6133    -6137    -6135    -6135    -6096 
   -6106    -6187    -6261    -6272    -6161    -6004    -6003    -6151 
   -6216    -6176    -6166    -6130    -6095    -6158    -6183    -6133 
   -6068    -6053    -6181    -6270    -6195    -6143    -6127    -6149 
   -6211    -6126    -6008    -6099    -6235    -6188    -6096    -6129 
   -6129    -6103    -6183    -6174    -6096    -6138    -6183    -6172 
   -6176    -6158    -6097    -6081    -6134    -6168    -6201    -6237 
   -6149    -6068    -6156    -6199    -6107    -6092    -6165    -6165 
   -6112    -6091    -6108    -6124    -6100    -6145    -6259    -6219 
   -6114    -6142    -6183    -6195    -6172    -6022    -5957    -6102 
   -6249    -6270    -6177    -6127    -6207    -6203    -6099    -6070 
   -6056    -6057    -6131    -6197    -6299    -6336    -6138    -6003 
   -6107    -6154    -6046    -6015    -6173    -6277    -6138    -6018 
   -6134    -6250    -6224    -6247    -6258    -6158    -6050    -5960 
   -5976    -6064    -6149    -6315    -6369    -6242    -6126    -6035 
   -6096    -6205    -6106    -6048    -6112    -6129    -6169    -6126 
   -6026    -6111    -6245    -6288    -6297    -6237    -6088    -5988 
   -6075    -6153    -6070    -6033    -6108    -6207    -6284    -6265 
   -6189    -6143    -6126    -6130    -6099    -6057    -6162    -6223 
   -6069    -6048    -6142    -6110    -6158    -6241    -6196    -6180 
   -6161    -6133    -6173    -6197    -6160    -6081    -6062    -6099 
   -6127    -6142    -6076    -6112    -6259    -6199    -6119    -6170 
   -6139    -6079    -6066    -6131    -6277    -6301    -6216    -6145 
   -6045    -6023    -6061    -6030    -6096    -6269    -6339    -6231 
   -6066    -6061    -6134    -6119    -6103    -6116    -6199    -6282 
   -6150    -5994    -6058    -6180    -6261    -6276    -6170    -6107 
   -6135    -6162    -6166    -6049    -5922    -6011    -6184    -6261 
   -6231    -6183    -6195    -6181    -6141    -6174    -6210    -6153 
   -6048    -5998    -6080    -6201    -6203    -6120    -6135    -6219 
   -6176    -6049    -6030    -6134    -6281    -6336    -6212    -6072 
   -6046    -6049    -6070    -6116    -6143    -6211    -6257    -6170 
   -6079    -6103    -6151    -6134    -6134    -6177    -6138    -6075 
   -6130    -6170    -6108    -6137    -6264    -6261    -6141    -6120 
   -6187    -6153    -6064    -6065    -6151    -6220    -6177    -6103 
   -6124    -6191    -6134    -5954    -5996    -6232    -6227    -6154 
   -6239    -6235    -6199    -6192    -6062    -5979    -6027    -6088 
   -6242    -6323    -6164    -6100    -6149    -6134    -6188    -6164 
   -6041    -6039    -6103    -6232    -6357    -6278    -6110    -6016 
   -6052    -6165    -6164    -6069    -6046    -6085    -6204    -6311 
   -6164    -5988    -6119    -6274    -6220    -6104    -6025    -6066 
   -6211    -6258    -6149    -6041    -6081    -6200    -6258    -6243 
   -6116    -5967    -6058    -6270    -6258    -6123    -6092    -6110 
   -6115    -6193    -6264    -6150    -6006    -6042    -6189    -6273 
   -6172    -5998    -6008    -6138    -6174    -6200    -6242    -6165 
   -6107    -6137    -6138    -6165    -6183    -6174    -6203    -6115 
   -6035    -6138    -6169    -6142    -6137    -6069    -6154    -6319 
   -6295    -6196    -6061    -5944    -6026    -6162    -6173    -6145 
   -6173    -6208    -6160    -6058    -6042    -6138    -6218    -6196 
   -6119    -6102    -6196    -6224    -6087    -6002    -6043    -6165 
   -6357    -6345    -6103    -6021    -6149    -6220    -6156    -6076 
   -6053    -6070    -6111    -6178    -6299    -6322    -6153    -6029 
   -6053    -6085    -6129    -6189    -6145    -6079    -6153    -6199 
   -6083    -6019    -6120    -6245    -6264    -6215    -6164    -6075 
   -6054    -6133    -6161    -6216    -6261    -6172    -6116    -6089 
   -6093    -6168    -6188    -6232    -6205    -6019    -5954    -5980 
   -6091    -6299    -6272    -6156    -6189    -6197    -6168    -6081 
   -6023    -6135    -6211    -6153    -6112    -6151    -6180    -6138 
   -6103    -6099    -6134    -6181    -6183    -6181    -6154    -6103 
   -6145    -6211    -6172    -6104    -6123    -6183    -6208    -6170 
   -6073    -5994    -6034    -6170    -6223    -6181    -6199    -6168 
   -6033    -6046    -6223    -6273    -6165    -6126    -6173    -6166 
   -6085    -6049    -6170    -6264    -6184    -6108    -6076    -6072 
   -6111    -6108    -6149    -6205    -6138    -6106    -6145    -6156 
   -6203    -6205    -6183    -6237    -6158    -6027    -6064    -6095 
   -6119    -6192    -6184    -6185    -6196    -6103    -6089    -6141 
   -6100    -6150    -6241    -6176    -6141    -6158    -6092    -6077 
   -6137    -6124    -6115    -6195    -6205    -6072    -5985    -6053 
   -6197    -6307    -6289    -6151    -5999    -6008    -6178    -6295 
   -6235    -6093    -6072    -6180    -6208    -6192    -6207    -6127 
   -6039    -6053    -6081    -6149    -6196    -6142    -6131    -6192 
   -6176    -6111    -6097    -6123    -6216    -6243    -6122    -6115 
   -6193    -6143    -6058    -6038    -6130    -6291    -6239    -5989 
   -5994    -6259    -6284    -6070    -5973    -6037    -6201    -6340 
   -6323    -6189    -6030    -5994    -6057    -6097    -6204    -6301 
   -6255    -6173    -6081    -6069    -6215    -6299    -6199    -6035 
   -5918    -5922    -6107    -6288    -6215    -6083    -6142    -6250 
   -6258    -6162    -6039    -6106    -6284    -6251    -6073    -5998 
   -6068    -6181    -6149    -6060    -6126    -6234    -6246    -6174 
   -6104    -6127    -6157    -6193    -6250    -6157    -6064    -6108 
   -6037    -5976    -6093    -6162    -6149    -6173    -6255    -6273 
   -6173    -6129    -6107    -6066    -6123    -6158    -6139    -6147 
   -6131    -6134    -6191    -6204    -6154    -6138    -6154    -6111 
   -6114    -6203    -6178    -6077    -6062    -6102    -6143    -6135 
   -6050    -6030    -6187    -6339    -6274    -6143    -6126    -6158 
   -6203    -6200    -6127    -6130    -6166    -6104    -6041    -6052 
   -6092    -6154    -6154    -6103    -6114    -6139    -6185    -6243 
   -6183    -6111    -6158    -6212    -6193    -6114    -6050    -6031 
   -5977    -5971    -6081    -6145    -6162    -6193    -6158    -6129 
   -6139    -6112    -6099    -6111    -6189    -6372    -6412    -6301 
   -6323    -6323    -6139    -5981    -5953    -6035    -6091    -6003 
   -5935    -5954    -5995    -6057    -6157    -6331    -6446    -6400 
   -6324    -6150    -5968    -6080    -6305    -6394    -6353    -6274 
   -6315    -6362    -6311    -6239    -6095    -5958    -5887    -5780 
   -5825    -6042    -6216    -6378    -6481    -6388    -6112    -5787 
   -5668    -5869    -6288    -6720    -6901    -6690    -6238    -5821 
   -5494    -5375    -5624    -5879    -5904    -5944    -5981    -5890 
   -5800    -5948    -6349    -6565    -6316    -5975    -5898    -6019 
   -6259    -6627    -6916    -6921    -6663    -6181    -5744    -5767 
   -6157    -6498    -6590    -6357    -5971    -5838    -5911    -5819 
   -5683    -5819    -6131    -6394    -6616    -6808    -6750    -6467 
   -6322    -6269    -6089    -5902    -5761    -5624    -5544    -5525 
   -5668    -6011    -6289    -6354    -6261    -6073    -5940    -5989 
   -6162    -6223    -6195    -6332    -6496    -6463    -6396    -6369 
   -6326    -6357    -6393    -6205    -5926    -5836    -5925    -6087 
   -6184    -6092    -5952    -5827    -5749    -5923    -6214    -6332 
   -6319    -6185    -5950    -5876    -6037    -6181    -6227    -6312 
   -6386    -6320    -6187    -6131    -6119    -6088    -6162    -6323 
   -6388    -6349    -6303    -6367    -6458    -6270    -5968    -5942 
   -6073    -6142    -6037    -5732    -5591    -5756    -5980    -6247 
   -6527    -6683    -6701    -6532    -6195    -5907    -5810    -5829 
   -5886    -5952    -5954    -5891    -5876    -5931    -5971    -6120 
   -6446    -6534    -6261    -6025    -5938    -5972    -6147    -6394 
   -6681    -6791    -6558    -6278    -6173    -6185    -6212    -6123 
   -5910    -5718    -5603    -5630    -5881    -6143    -6196    -6188 
   -6266    -6362    -6385    -6315    -6205    -6084    -5949    -5948 
   -6156    -6316    -6255    -6110    -5973    -5908    -6007    -6197 
   -6369    -6389    -6205    -6080    -6089    -6056    -6093    -6254 
   -6324    -6295    -6258    -6156    -6091    -6161    -6187    -6138 
   -6129    -6138    -6143    -6212    -6273    -6169    -5957    -5825 
   -5873    -6004    -6043    -6035    -6091    -6220    -6417    -6497 
   -6303    -6043    -5968    -6079    -6147    -6096    -6146    -6224 
   -6131    -6100    -6220    -6273    -6266    -6247    -6139    -6019 
   -6014    -6026    -6006    -6054    -6124    -6193    -6311    -6396 
   -6413    -6342    -6187    -6035    -5962    -6069    -6205    -6162 
   -6115    -6116    -6054    -6023    -5926    -5779    -5938    -6201 
   -6235    -6273    -6353    -6284    -6173    -6126    -6147    -6274 
   -6380    -6281    -6129    -6084    -6043    -6061    -6201    -6258 
   -6197    -6115    -6000    -5907    -5894    -5890    -5906    -6021 
   -6142    -6258    -6430    -6463    -6331    -6216    -6134    -6099 
   -6131    -6197    -6265    -6266    -6249    -6222    -6096    -6000 
   -6007    -5989    -5930    -5877    -5887    -6041    -6281    -6419 
   -6444    -6442    -6273    -6030    -6021    -6102    -6089    -6077 
   -6097    -6131    -6095    -6056    -6154    -6188    -6147    -6196 
   -6192    -6138    -6089    -6060    -6168    -6340    -6396    -6227 
   -5988    -6037    -6235    -6268    -6269    -6266    -6147    -6037 
   -5927    -5879    -6083    -6142    -5904    -5918    -6122    -6192 
   -6237    -6224    -6145    -6139    -6242    -6409    -6393    -6129 
   -6006    -6135    -6262    -6239    -6137    -6146    -6249    -6282 
   -6199    -6096    -6150    -6216    -6042    -5834    -5752    -5682 
   -5733    -5958    -6219    -6389    -6340    -6204    -6210    -6301 
   -6396    -6466    -6496    -6458    -6250    -5956    -5773    -5772 
   -5952    -6180    -6242    -6156    -6135    -6245    -6332    -6345 
   -6359    -6347    -6249    -6124    -5956    -5784    -5796    -5892 
   -5988    -6162    -6228    -6222    -6313    -6257    -6027    -5965 
   -6002    -5933    -5890    -5991    -6188    -6303    -6246    -6245 
   -6326    -6289    -6247    -6241    -6127    -6039    -6130    -6296 
   -6408    -6377    -6276    -6189    -5995    -5830    -5931    -6084 
   -6102    -6107    -6212    -6343    -6350    -6289    -6280    -6247 
   -6118    -5971    -5948    -6006    -5946    -5840    -5942    -6205 
   -6392    -6432    -6289    -6026    -5904    -6033    -6274    -6420 
   -6332    -6146    -6007    -5896    -5910    -6066    -6247    -6366 
   -6295    -6173    -6187    -6164    -6100    -6143    -6185    -6153 
   -6150    -6205    -6210    -6084    -5940    -5996    -6201    -6328 
   -6332    -6191    -5956    -5790    -5697    -5769    -6088    -6309 
   -6268    -6204    -6164    -6052    -5992    -6116    -6334    -6527 
   -6586    -6420    -6156    -6042    -6122    -6183    -6151    -6172 
   -6231    -6204    -6087    -6015    -6099    -6169    -6102    -6060 
   -6084    -6143    -6264    -6281    -6119    -5992    -6004    -6068 
   -6156    -6284    -6296    -6126    -6018    -6080    -6151    -6115 
   -5988    -5896    -5956    -6079    -6114    -6197    -6390    -6428 
   -6326    -6316    -6327    -6197    -6029    -5977    -5968    -5983 
   -6062    -6084    -6053    -6050    -6052    -6139    -6291    -6281 
   -6166    -6112    -6108    -6165    -6288    -6399    -6346    -6156 
   -6054    -6002    -5895    -5908    -6029    -6046    -6115    -6405 
   -6609    -6500    -6216    -5979    -5964    -6060    -6095    -6164 
   -6274    -6334    -6218    -5999    -6015    -6111    -6085    -6174 
   -6261    -6166    -6073    -6065    -6119    -6129    -6011    -6041 
   -6277    -6350    -6141    -5864    -5846    -6112    -6286    -6247 
   -6160    -6077    -6043    -6103    -6223    -6370    -6424    -6299 
   -6104    -5937    -5850    -5877    -5919    -5967    -6045    -6157 
   -6262    -6232    -6192    -6230    -6255    -6305    -6365    -6359 
   -6268    -6170    -6181    -6193    -6207    -6327    -6318    -6045 
   -5842    -5894    -5999    -6076    -6172    -6161    -6014    -6015 
   -6251    -6382    -6270    -6131    -6126    -6231    -6255    -6114 
   -5991    -5958    -6019    -6193    -6246    -6112    -6006    -5980 
   -6004    -6065    -6197    -6328    -6292    -6201    -6157    -6102 
   -6116    -6224    -6265    -6135    -6010    -6092    -6185    -6119 
   -6018    -6023    -6222    -6400    -6324    -6172    -6091    -6110 
