Origin Time       2024/06/23 22:54:00
Lat.              35.645
Long.             140.060
Depth. (km)       72
Mag.              4.1
Station Code      IBRH07
Station Lat.      35.9521
Station Long.     140.3301
Station Height(m) -1197
Record Time       2024/06/23 22:54:36
Sampling Freq(Hz) 100Hz
Duration Time(s)  120
Dir.              2
Scale Factor      7845(gal)/8223790
Max. Acc. (gal)   0.687
Last Correction   2024/06/23 22:54:36
Memo.             
[...]
   -6308    -6305    -6307    -6312    -6309    -6301    -6304    -6311 
   -6309    -6304    -6307    -6309    -6305    -6303    -6308    -6311 
   -6307    -6303    -6307    -6309    -6305    -6304    -6311    -6311 
   -6305    -6304    -6309    -6311    -6305    -6304    -6309    -6311 
   -6304    -6303    -6308    -6311    -6307    -6305    -6309    -6307 
   -6301    -6304    -6309    -6308    -6304    -6305    -6308    -6307 
   -6305    -6307    -6307    -6304    -6304    -6309    -6311    -6305 
   -6305    -6311    -6309    -6304    -6303    -6307    -6308    -6305 
   -6307    -6309    -6309    -6307    -6307    -6308    -6307    -6301 
   -6304    -6311    -6308    -6303    -6307    -6311    -6309    -6304 
   -6304    -6311    -6308    -6303    -6309    -6312    -6305    -6305 
   -6311    -6311    -6305    -6304    -6311    -6312    -6303    -6304 
   -6311    -6308    -6303    -6305    -6308    -6308    -6303    -6304 
   -6312    -6308    -6301    -6307    -6312    -6305    -6300    -6307 
   -6311    -6307    -6305    -6308    -6311    -6308    -6304    -6307 
   -6308    -6305    -6307    -6309    -6308    -6305    -6307    -6311 
   -6311    -6307    -6307    -6311    -6309    -6303    -6304    -6311 
   -6308    -6303    -6307    -6311    -6308    -6304    -6307    -6311 
   -6307    -6304    -6309    -6313    -6308    -6303    -6308    -6312 
   -6307    -6303    -6307    -6309    -6307    -6304    -6308    -6312 
   -6307    -6305    -6311    -6311    -6305    -6305    -6309    -6312 
   -6307    -6305    -6311    -6311    -6303    -6303    -6309    -6309 
   -6305    -6305    -6308    -6307    -6304    -6304    -6309    -6311 
   -6307    -6305    -6311    -6308    -6304    -6308    -6313    -6309 
   -6304    -6307    -6309    -6307    -6304    -6311    -6312    -6305 
   -6301    -6308    -6311    -6307    -6305    -6309    -6309    -6305 
   -6305    -6309    -6311    -6305    -6305    -6309    -6305    -6301 
   -6304    -6312    -6312    -6304    -6303    -6309    -6309    -6303 
   -6304    -6312    -6309    -6301    -6305    -6311    -6308    -6304 
   -6308    -6311    -6307    -6303    -6305    -6309    -6305    -6300 
   -6308    -6315    -6308    -6303    -6308    -6311    -6305    -6303 
   -6309    -6312    -6304    -6301    -6309    -6311    -6304    -6303 
   -6309    -6311    -6304    -6303    -6309    -6311    -6303    -6301 
   -6311    -6312    -6304    -6301    -6309    -6309    -6304    -6304 
   -6309    -6311    -6305    -6304    -6312    -6312    -6303    -6304 
   -6311    -6308    -6303    -6304    -6312    -6311    -6304    -6308 
   -6312    -6308    -6305    -6309    -6309    -6305    -6303    -6305 
   -6308    -6304    -6303    -6308    -6308    -6303    -6303    -6308 
   -6311    -6307    -6304    -6308    -6311    -6305    -6304    -6311 
   -6309    -6303    -6307    -6308    -6305    -6307    -6309    -6311 
   -6309    -6305    -6307    -6311    -6307    -6303    -6309    -6313 
   -6307    -6301    -6308    -6311    -6305    -6301    -6307    -6309 
   -6304    -6303    -6308    -6311    -6307    -6304    -6309    -6311 
   -6304    -6304    -6312    -6311    -6303    -6303    -6311    -6311 
   -6304    -6304    -6308    -6307    -6304    -6307    -6313    -6311 
   -6303    -6307    -6312    -6308    -6303    -6305    -6309    -6307 
   -6304    -6308    -6311    -6307    -6304    -6309    -6311    -6305 
   -6304    -6309    -6308    -6303    -6305    -6312    -6309    -6301 
   -6303    -6311    -6312    -6303    -6301    -6309    -6309    -6301 
   -6304    -6309    -6305    -6303    -6307    -6311    -6308    -6305 
   -6308    -6311    -6307    -6303    -6307    -6311    -6307    -6304 
   -6309    -6309    -6303    -6304    -6309    -6308    -6304    -6305 
   -6311    -6311    -6304    -6303    -6309    -6309    -6303    -6305 
   -6312    -6307    -6301    -6307    -6312    -6309    -6303    -6305 
   -6311    -6305    -6301    -6308    -6309    -6304    -6304    -6309 
   -6309    -6305    -6304    -6309    -6312    -6307    -6304    -6308 
   -6308    -6307    -6305    -6309    -6309    -6304    -6305    -6311 
   -6309    -6303    -6303    -6308    -6308    -6301    -6304    -6311 
   -6307    -6303    -6308    -6312    -6307    -6304    -6308    -6311 
   -6308    -6307    -6309    -6312    -6308    -6304    -6308    -6311 
   -6304    -6301    -6307    -6309    -6305    -6305    -6309    -6311 
   -6305    -6303    -6309    -6311    -6304    -6304    -6309    -6307 
   -6304    -6305    -6309    -6308    -6303    -6305    -6313    -6311 
   -6304    -6305    -6309    -6308    -6304    -6305    -6309    -6307 
   -6304    -6305    -6309    -6307    -6304    -6307    -6309    -6305 
   -6304    -6309    -6312    -6308    -6303    -6305    -6309    -6305 
   -6303    -6307    -6311    -6307    -6304    -6308    -6311    -6304 
   -6303    -6309    -6309    -6301    -6303    -6309    -6308    -6301 
   -6303    -6308    -6311    -6305    -6303    -6309    -6311    -6301 
   -6303    -6311    -6309    -6304    -6305    -6309    -6308    -6304 
   -6305    -6311    -6308    -6304    -6307    -6309    -6307    -6301 
   -6303    -6309    -6309    -6304    -6305    -6309    -6305    -6301 
   -6307    -6311    -6305    -6301    -6308    -6312    -6305    -6303 
   -6309    -6312    -6307    -6304    -6308    -6312    -6305    -6301 
   -6308    -6309    -6304    -6304    -6308    -6311    -6307    -6303 
   -6308    -6312    -6307    -6304    -6307    -6307    -6304    -6305 
   -6308    -6309    -6305    -6303    -6307    -6309    -6304    -6305 
   -6311    -6309    -6303    -6303    -6311    -6308    -6301    -6305 
   -6311    -6307    -6303    -6307    -6312    -6309    -6304    -6305 
   -6311    -6307    -6297    -6299    -6305    -6301    -6297    -6303 
   -6308    -6312    -6315    -6318    -6319    -6320    -6319    -6312 
   -6304    -6296    -6278    -6274    -6293    -6286    -6272    -6305 
   -6334    -6319    -6324    -6355    -6353    -6326    -6323    -6308 
   -6249    -6241    -6305    -6331    -6332    -6355    -6301    -6215 
   -6239    -6284    -6288    -6357    -6419    -6386    -6342    -6307 
   -6281    -6292    -6292    -6281    -6293    -6332    -6365    -6303 
   -6188    -6170    -6218    -6249    -6312    -6390    -6413    -6401 
   -6392    -6381    -6351    -6303    -6253    -6220    -6253    -6315 
   -6318    -6320    -6346    -6286    -6200    -6239    -6362    -6417 
   -6397    -6365    -6304    -6247    -6281    -6312    -6250    -6220 
   -6285    -6338    -6370    -6403    -6332    -6214    -6218    -6277 
   -6297    -6359    -6389    -6297    -6242    -6300    -6331    -6300 
   -6299    -6320    -6307    -6308    -6342    -6346    -6316    -6289 
   -6303    -6334    -6286    -6232    -6286    -6347    -6319    -6272 
   -6292    -6355    -6334    -6246    -6270    -6351    -6320    -6264 
   -6303    -6340    -6296    -6278    -6318    -6322    -6336    -6401 
   -6350    -6170    -6154    -6338    -6413    -6377    -6366    -6273 
   -6172    -6211    -6277    -6339    -6411    -6382    -6312    -6328 
   -6358    -6319    -6293    -6319    -6297    -6257    -6285    -6315 
   -6303    -6316    -6316    -6280    -6296    -6334    -6301    -6273 
   -6301    -6307    -6304    -6373    -6393    -6255    -6139    -6191 
   -6299    -6388    -6465    -6426    -6269    -6211    -6269    -6293 
   -6309    -6340    -6327    -6305    -6300    -6291    -6308    -6318 
   -6259    -6224    -6309    -6393    -6372    -6336    -6289    -6207 
   -6220    -6324    -6342    -6301    -6351    -6397    -6359    -6339 
   -6296    -6219    -6253    -6339    -6324    -6315    -6377    -6343 
   -6212    -6181    -6251    -6286    -6308    -6369    -6394    -6376 
   -6366    -6291    -6180    -6181    -6272    -6335    -6357    -6394 
   -6432    -6393    -6288    -6157    -6115    -6246    -6369    -6400 
   -6459    -6448    -6280    -6156    -6197    -6251    -6232    -6282 
   -6421    -6500    -6480    -6340    -6149    -6120    -6227    -6303 
   -6397    -6492    -6386    -6180    -6165    -6293    -6339    -6327 
   -6342    -6324    -6285    -6293    -6335    -6370    -6355    -6254 
   -6181    -6238    -6323    -6347    -6361    -6350    -6284    -6258 
   -6312    -6346    -6324    -6284    -6259    -6318    -6370    -6323 
   -6280    -6261    -6251    -6324    -6365    -6323    -6349    -6378 
   -6292    -6214    -6231    -6286    -6350    -6384    -6350    -6276 
   -6242    -6292    -6342    -6319    -6295    -6312    -6316    -6296 
   -6295    -6291    -6268    -6272    -6323    -6367    -6342    -6296 
   -6312    -6318    -6262    -6300    -6423    -6390    -6262    -6249 
   -6273    -6284    -6330    -6350    -6332    -6339    -6345    -6239 
   -6114    -6203    -6384    -6419    -6359    -6284    -6265    -6331 
   -6358    -6293    -6254    -6326    -6370    -6284    -6242    -6326 
   -6381    -6335    -6243    -6238    -6332    -6355    -6318    -6326 
   -6322    -6289    -6285    -6351    -6430    -6311    -6120    -6176 
   -6354    -6438    -6439    -6343    -6224    -6205    -6227    -6245 
   -6299    -6389    -6436    -6335    -6173    -6156    -6245    -6331 
   -6424    -6444    -6377    -6324    -6278    -6238    -6264    -6288 
   -6277    -6308    -6359    -6373    -6334    -6273    -6280    -6309 
   -6288    -6312    -6385    -6384    -6346    -6334    -6297    -6243 
   -6222    -6269    -6334    -6303    -6239    -6230    -6216    -6223 
   -6266    -6280    -6303    -6382    -6458    -6490    -6416    -6241 
   -6166    -6243    -6342    -6426    -6478    -6428    -6265    -6124 
   -6153    -6273    -6343    -6355    -6313    -6259    -6247    -6245 
   -6270    -6297    -6280    -6323    -6440    -6511    -6435    -6218 
   -6126    -6269    -6324    -6226    -6227    -6327    -6366    -6316 
   -6292    -6330    -6322    -6323    -6417    -6419    -6280    -6211 
   -6258    -6305    -6274    -6220    -6272    -6343    -6303    -6304 
   -6369    -6322    -6265    -6304    -6319    -6322    -6365    -6373 
   -6336    -6311    -6296    -6282    -6278    -6304    -6303    -6255 
   -6307    -6407    -6373    -6336    -6330    -6196    -6157    -6300 
   -6327    -6284    -6336    -6378    -6289    -6172    -6234    -6384 
   -6426    -6428    -6408    -6303    -6222    -6203    -6218    -6328 
   -6427    -6369    -6255    -6246    -6304    -6307    -6295    -6258 
   -6187    -6261    -6359    -6338    -6393    -6413    -6276    -6251 
   -6342    -6338    -6334    -6385    -6323    -6242    -6315    -6326 
   -6251    -6292    -6324    -6273    -6253    -6272    -6311    -6332 
   -6320    -6354    -6427    -6370    -6197    -6185    -6292    -6259 
   -6245    -6397    -6436    -6278    -6210    -6235    -6204    -6249 
   -6380    -6403    -6358    -6328    -6347    -6440    -6450    -6335 
   -6220    -6120    -6122    -6245    -6322    -6361    -6411    -6354 
   -6284    -6320    -6320    -6269    -6273    -6276    -6296    -6350 
   -6336    -6322    -6366    -6354    -6308    -6327    -6332    -6247 
   -6162    -6187    -6326    -6428    -6419    -6424    -6369    -6215 
   -6205    -6295    -6297    -6331    -6392    -6307    -6231    -6301 
   -6318    -6262    -6295    -6355    -6318    -6231    -6247    -6324 
   -6335    -6330    -6335    -6351    -6370    -6292    -6226    -6346 
   -6408    -6261    -6184    -6227    -6238    -6327    -6434    -6378 
   -6330    -6326    -6222    -6170    -6264    -6369    -6434    -6439 
   -6376    -6243    -6124    -6192    -6359    -6397    -6332    -6288 
   -6301    -6342    -6336    -6328    -6309    -6223    -6196    -6250 
   -6295    -6363    -6421    -6401    -6315    -6223    -6241    -6328 
   -6334    -6331    -6416    -6404    -6232    -6134    -6177    -6242 
   -6304    -6350    -6299    -6231    -6295    -6353    -6322    -6370 
   -6451    -6385    -6301    -6312    -6308    -6307    -6359    -6340 
   -6262    -6272    -6293    -6259    -6284    -6358    -6396    -6359 
   -6276    -6235    -6262    -6266    -6242    -6282    -6377    -6438 
   -6434    -6307    -6107    -6115    -6278    -6265    -6230    -6377 
   -6451    -6380    -6365    -6376    -6270    -6176    -6296    -6451 
   -6415    -6385    -6365    -6188    -6122    -6250    -6326    -6376 
   -6450    -6403    -6230    -6116    -6168    -6270    -6338    -6419 
   -6424    -6293    -6227    -6253    -6238    -6281    -6365    -6342 
   -6320    -6335    -6253    -6228    -6370    -6378    -6289    -6389 
   -6450    -6318    -6261    -6265    -6215    -6266    -6373    -6331 
   -6232    -6254    -6291    -6250    -6276    -6350    -6342    -6349 
   -6396    -6361    -6312    -6377    -6434    -6318    -6166    -6138 
   -6183    -6250    -6280    -6277    -6361    -6438    -6373    -6308 
   -6323    -6313    -6288    -6319    -6366    -6378    -6365    -6296 
   -6192    -6176    -6208    -6231    -6297    -6335    -6326    -6345 
   -6324    -6293    -6315    -6331    -6305    -6311    -6417    -6465 
   -6340    -6235    -6272    -6336    -6328    -6266    -6204    -6205 
   -6281    -6328    -6296    -6224    -6173    -6239    -6363    -6386 
   -6403    -6444    -6386    -6323    -6343    -6346    -6278    -6223 
   -6245    -6247    -6232    -6268    -6203    -6054    -6004    -6030 
   -6079    -6138    -6220    -6396    -6601    -6696    -6718    -6728 
   -6679    -6588    -6507    -6400    -6357    -6509    -6646    -6593 
   -6525    -6453    -6269    -6122    -6006    -5769    -5587    -5644 
   -5786    -5935    -6228    -6579    -6727    -6631    -6404    -6165 
   -6011    -5945    -6010    -6237    -6494    -6636    -6588    -6450 
   -6401    -6440    -6520    -6574    -6492    -6377    -6407    -6439 
   -6343    -6335    -6388    -6172    -5908    -5996    -6200    -6299 
   -6442    -6520    -6340    -6093    -6066    -6224    -6372    -6448 
   -6451    -6381    -6296    -6161    -6027    -6080    -6285    -6397 
   -6319    -6187    -6049    -5975    -6177    -6413    -6357    -6386 
   -6659    -6720    -6527    -6416    -6416    -6421    -6457    -6485 
   -6405    -6270    -6210    -6203    -6235    -6366    -6482    -6385 
   -6157    -6043    -6154    -6351    -6428    -6351    -6115    -5848 
   -5903    -6195    -6354    -6461    -6536    -6331    -6050    -6100 
   -6381    -6569    -6590    -6467    -6292    -6237    -6309    -6436 
   -6524    -6409    -6231    -6282    -6377    -6246    -6087    -6169 
   -6311    -6254    -6214    -6318    -6351    -6313    -6353    -6477 
   -6540    -6462    -6363    -6276    -6106    -5957    -6019    -6176 
   -6193    -6220    -6427    -6556    -6488    -6453    -6493    -6455 
   -6373    -6307    -6220    -6157    -6145    -6161    -6203    -6255 
   -6369    -6484    -6380    -6138    -6061    -6166    -6297    -6407 
   -6478    -6461    -6404    -6409    -6339    -6150    -6166    -6332 
   -6289    -6243    -6389    -6442    -6374    -6315    -6234    -6223 
   -6277    -6270    -6292    -6405    -6484    -6471    -6409    -6291 
   -6137    -6102    -6169    -6205    -6320    -6496    -6493    -6409 
   -6411    -6349    -6145    -6003    -6061    -6181    -6250    -6336 
   -6424    -6443    -6419    -6361    -6304    -6312    -6361    -6417 
   -6447    -6369    -6238    -6197    -6238    -6261    -6255    -6297 
   -6365    -6311    -6185    -6205    -6274    -6214    -6153    -6188 
   -6300    -6457    -6513    -6469    -6461    -6497    -6531    -6539 
   -6482    -6313    -6073    -5958    -6041    -6157    -6223    -6289 
   -6357    -6409    -6448    -6475    -6446    -6308    -6143    -6095 
   -6228    -6412    -6448    -6338    -6176    -6077    -6111    -6134 
   -6114    -6226    -6401    -6457    -6434    -6415    -6447    -6529 
   -6500    -6320    -6170    -6143    -6264    -6466    -6532    -6428 
   -6324    -6318    -6363    -6346    -6238    -6168    -6223    -6315 
   -6346    -6345    -6277    -6070    -5896    -5960    -6170    -6336 
   -6405    -6415    -6405    -6408    -6419    -6392    -6354    -6427 
   -6536    -6471    -6313    -6285    -6340    -6336    -6355    -6488 
   -6565    -6451    -6203    -5945    -5881    -6060    -6242    -6231 
   -6137    -6164    -6255    -6295    -6305    -6320    -6413    -6528 
   -6486    -6340    -6238    -6215    -6261    -6305    -6281    -6269 
   -6353    -6448    -6488    -6515    -6488    -6357    -6253    -6193 
   -6085    -6072    -6220    -6304    -6226    -6138    -6137    -6227 
   -6340    -6376    -6417    -6521    -6528    -6436    -6390    -6354 
   -6274    -6276    -6342    -6332    -6251    -6146    -6135    -6241 
   -6274    -6265    -6332    -6363    -6323    -6297    -6274    -6304 
   -6462    -6548    -6474    -6415    -6378    -6372    -6438    -6381 
   -6249    -6319    -6421    -6296    -6147    -6161    -6170    -6100 
   -6085    -6124    -6191    -6297    -6300    -6166    -6104    -6224 
   -6413    -6513    -6493    -6394    -6289    -6289    -6324    -6318 
   -6376    -6427    -6366    -6320    -6311    -6288    -6277    -6253 
   -6274    -6390    -6444    -6361    -6259    -6247    -6284    -6228 
   -6151    -6189    -6234    -6266    -6400    -6538    -6550    -6462 
   -6367    -6335    -6261    -6120    -6126    -6250    -6328    -6400 
   -6411    -6309    -6254    -6284    -6312    -6295    -6215    -6150 
   -6200    -6300    -6365    -6417    -6430    -6357    -6259    -6208 
   -6277    -6405    -6357    -6161    -6077    -6153    -6269    -6308 
   -6262    -6258    -6324    -6378    -6432    -6539    -6633    -6586 
   -6401    -6249    -6224    -6235    -6237    -6265    -6313    -6349 
   -6305    -6223    -6280    -6430    -6482    -6457    -6388    -6219 
   -6106    -6187    -6277    -6264    -6246    -6286    -6351    -6363 
   -6357    -6401    -6392    -6270    -6162    -6147    -6162    -6141 
   -6184    -6334    -6428    -6454    -6467    -6392    -6312    -6373 
   -6420    -6309    -6196    -6166    -6133    -6139    -6254    -6377 
   -6457    -6507    -6490    -6400    -6296    -6227    -6207    -6219 
   -6241    -6247    -6219    -6164    -6119    -6106    -6158    -6307 
   -6469    -6550    -6577    -6551    -6420    -6295    -6297    -6336 
   -6273    -6174    -6208    -6301    -6274    -6178    -6164    -6259 
   -6349    -6374    -6454    -6521    -6390    -6220    -6242    -6373 
   -6469    -6502    -6489    -6394    -6273    -6247    -6247    -6176 
   -6131    -6183    -6274    -6332    -6308    -6239    -6200    -6168 
   -6151    -6255    -6412    -6431    -6367    -6400    -6435    -6335 
   -6218    -6219    -6301    -6339    -6269    -6188    -6224    -6354 
   -6444    -6448    -6401    -6326    -6257    -6196    -6172    -6273 
   -6412    -6420    -6377    -6403    -6399    -6286    -6165    -6122 
   -6208    -6369    -6386    -6277    -6276    -6330    -6292    -6241 
   -6216    -6180    -6161    -6195    -6299    -6355    -6308    -6378 
   -6575    -6616    -6485    -6404    -6403    -6381    -6327    -6269 
   -6216    -6187    -6164    -6168    -6227    -6272    -6299    -6307 
   -6191    -6118    -6259    -6374    -6365    -6396    -6443    -6396 
   -6291    -6253    -6255    -6219    -6289    -6427    -6378    -6285 
   -6359    -6423    -6346    -6288    -6295    -6268    -6259    -6335 
