Origin Time       2024/06/23 22:54:00
Lat.              35.645
Long.             140.060
Depth. (km)       72
Mag.              4.1
Station Code      IBRH07
Station Lat.      35.9521
Station Long.     140.3301
Station Height(m) -1197
Record Time       2024/06/23 22:54:36
Sampling Freq(Hz) 100Hz
Duration Time(s)  120
Dir.              1
Scale Factor      7845(gal)/8223790
Max. Acc. (gal)   0.865
Last Correction   2024/06/23 22:54:36
Memo.             
[...]
  -26110   -26111   -26111   -26110   -26110   -26110   -26111   -26113 
  -26111   -26110   -26111   -26111   -26111   -26113   -26111   -26111 
  -26111   -26110   -26110   -26113   -26113   -26111   -26111   -26111 
  -26110   -26111   -26113   -26111   -26111   -26113   -26113   -26111 
  -26111   -26115   -26115   -26113   -26111   -26111   -26111   -26110 
  -26111   -26113   -26110   -26110   -26111   -26113   -26111   -26111 
  -26111   -26113   -26110   -26111   -26114   -26113   -26110   -26113 
  -26113   -26109   -26109   -26110   -26109   -26109   -26111   -26111 
  -26111   -26110   -26111   -26113   -26111   -26111   -26111   -26111 
  -26111   -26111   -26110   -26109   -26110   -26111   -26110   -26110 
  -26111   -26110   -26111   -26110   -26110   -26110   -26110   -26110 
  -26110   -26111   -26110   -26109   -26113   -26114   -26111   -26113 
  -26113   -26110   -26111   -26113   -26109   -26107   -26109   -26110 
  -26111   -26111   -26110   -26109   -26109   -26111   -26113   -26110 
  -26107   -26110   -26113   -26114   -26113   -26113   -26113   -26113 
  -26111   -26111   -26111   -26107   -26109   -26114   -26113   -26110 
  -26111   -26111   -26110   -26111   -26114   -26113   -26111   -26111 
  -26109   -26109   -26111   -26111   -26110   -26110   -26111   -26111 
  -26113   -26110   -26110   -26114   -26113   -26109   -26110   -26111 
  -26113   -26113   -26111   -26110   -26109   -26110   -26111   -26111 
  -26111   -26114   -26114   -26114   -26111   -26110   -26110   -26111 
  -26111   -26114   -26113   -26111   -26113   -26113   -26110   -26110 
  -26113   -26111   -26110   -26111   -26111   -26111   -26113   -26113 
  -26113   -26113   -26114   -26113   -26111   -26113   -26111   -26111 
  -26114   -26113   -26113   -26113   -26111   -26110   -26111   -26113 
  -26111   -26113   -26113   -26109   -26109   -26113   -26111   -26110 
  -26111   -26113   -26113   -26114   -26111   -26109   -26110   -26111 
  -26110   -26111   -26114   -26111   -26109   -26109   -26110   -26110 
  -26109   -26107   -26110   -26113   -26110   -26109   -26113   -26113 
  -26110   -26110   -26109   -26109   -26110   -26109   -26109   -26111 
  -26111   -26109   -26110   -26111   -26110   -26113   -26113   -26110 
  -26110   -26111   -26113   -26114   -26111   -26111   -26111   -26111 
  -26111   -26111   -26113   -26114   -26113   -26113   -26110   -26110 
  -26111   -26111   -26111   -26113   -26110   -26110   -26109   -26110 
  -26114   -26111   -26109   -26110   -26114   -26111   -26110   -26111 
  -26111   -26110   -26111   -26111   -26110   -26110   -26110   -26111 
  -26111   -26110   -26110   -26110   -26110   -26111   -26111   -26113 
  -26111   -26110   -26113   -26113   -26109   -26111   -26114   -26111 
  -26110   -26111   -26110   -26113   -26115   -26111   -26109   -26111 
  -26113   -26110   -26110   -26111   -26111   -26110   -26110   -26111 
  -26113   -26114   -26114   -26113   -26113   -26113   -26111   -26110 
  -26113   -26113   -26109   -26110   -26109   -26109   -26114   -26114 
  -26109   -26109   -26111   -26110   -26110   -26111   -26113   -26113 
  -26113   -26111   -26111   -26111   -26111   -26109   -26111   -26111 
  -26111   -26111   -26110   -26110   -26111   -26113   -26110   -26110 
  -26111   -26111   -26110   -26110   -26110   -26111   -26114   -26113 
  -26110   -26111   -26111   -26109   -26110   -26110   -26110   -26111 
  -26110   -26110   -26113   -26113   -26111   -26113   -26113   -26109 
  -26111   -26113   -26110   -26110   -26113   -26111   -26111   -26113 
  -26110   -26110   -26110   -26109   -26110   -26110   -26109   -26109 
  -26110   -26111   -26111   -26110   -26113   -26113   -26110   -26110 
  -26113   -26113   -26114   -26113   -26111   -26111   -26109   -26110 
  -26111   -26110   -26111   -26113   -26109   -26107   -26111   -26113 
  -26111   -26113   -26114   -26111   -26111   -26113   -26111   -26111 
  -26111   -26111   -26110   -26110   -26110   -26110   -26111   -26113 
  -26113   -26113   -26113   -26111   -26111   -26113   -26111   -26110 
  -26111   -26109   -26110   -26113   -26110   -26111   -26115   -26113 
  -26109   -26111   -26113   -26110   -26110   -26110   -26111   -26113 
  -26111   -26109   -26111   -26114   -26110   -26110   -26113   -26111 
  -26109   -26109   -26111   -26111   -26110   -26111   -26113   -26110 
  -26110   -26110   -26111   -26113   -26109   -26107   -26111   -26113 
  -26113   -26113   -26111   -26111   -26111   -26110   -26110   -26111 
  -26113   -26111   -26111   -26110   -26110   -26110   -26109   -26110 
  -26113   -26111   -26111   -26111   -26111   -26113   -26111   -26109 
  -26110   -26111   -26111   -26110   -26107   -26107   -26110   -26110 
  -26110   -26113   -26113   -26111   -26111   -26111   -26110   -26111 
  -26113   -26111   -26110   -26111   -26113   -26110   -26110   -26113 
  -26113   -26111   -26111   -26111   -26111   -26113   -26110   -26109 
  -26111   -26110   -26111   -26113   -26111   -26110   -26110   -26110 
  -26113   -26114   -26114   -26111   -26110   -26111   -26111   -26111 
  -26111   -26111   -26113   -26110   -26109   -26111   -26113   -26111 
  -26111   -26111   -26110   -26110   -26111   -26111   -26113   -26114 
  -26111   -26110   -26111   -26110   -26110   -26111   -26110   -26111 
  -26111   -26109   -26110   -26111   -26110   -26110   -26113   -26111 
  -26111   -26111   -26110   -26110   -26111   -26111   -26111   -26110 
  -26109   -26109   -26113   -26113   -26109   -26111   -26113   -26111 
  -26111   -26113   -26111   -26111   -26111   -26113   -26111   -26110 
  -26109   -26110   -26110   -26111   -26113   -26113   -26113   -26109 
  -26106   -26106   -26106   -26104   -26102   -26100   -26099   -26099 
  -26100   -26103   -26111   -26119   -26125   -26130   -26136   -26137 
  -26136   -26125   -26107   -26092   -26080   -26072   -26069   -26063 
  -26071   -26099   -26121   -26142   -26158   -26168   -26168   -26130 
  -26103   -26115   -26094   -26083   -26113   -26117   -26122   -26148 
  -26130   -26075   -26030   -26049   -26176   -26261   -26199   -26154 
  -26125   -26022   -26006   -26036   -25982   -26006   -26142   -26206 
  -26153   -26095   -26098   -26121   -26157   -26187   -26158   -26161 
  -26190   -26098   -25998   -26028   -26059   -26032   -26050   -26156 
  -26222   -26152   -26098   -26125   -26133   -26179   -26221   -26137 
  -26053   -26064   -26099   -26069   -26009   -26036   -26111   -26126 
  -26109   -26160   -26261   -26242   -26121   -26022   -25965   -26006 
  -26096   -26098   -26107   -26171   -26172   -26161   -26156   -26099 
  -26063   -26032   -25974   -26041   -26235   -26287   -26171   -26075 
  -25998   -25979   -26087   -26156   -26168   -26190   -26099   -26036 
  -26158   -26181   -26068   -26061   -26098   -26109   -26153   -26202 
  -26198   -26142   -26111   -26121   -26079   -26005   -25996   -26055 
  -26136   -26173   -26117   -26044   -26042   -26056   -26038   -26091 
  -26215   -26296   -26281   -26154   -26056   -26053   -26002   -26007 
  -26136   -26154   -26100   -26113   -26104   -26068   -26075   -26117 
  -26167   -26221   -26225   -26127   -26034   -26032   -26063   -26109 
  -26172   -26187   -26125   -26061   -26044   -26076   -26149   -26192 
  -26169   -26144   -26113   -26032   -25979   -26032   -26125   -26185 
  -26183   -26134   -26136   -26131   -26038   -26010   -26099   -26152 
  -26138   -26149   -26183   -26153   -26050   -25964   -25960   -26044 
  -26192   -26292   -26230   -26113   -26094   -26099   -26079   -26115 
  -26144   -26092   -26069   -26100   -26107   -26119   -26156   -26160 
  -26123   -26068   -26086   -26153   -26140   -26106   -26084   -26022 
  -26034   -26103   -26123   -26196   -26249   -26149   -26063   -26064 
  -26065   -26060   -26076   -26153   -26207   -26125   -26059   -26075 
  -26048   -26030   -26079   -26154   -26223   -26221   -26152   -26065 
  -26009   -26038   -26136   -26211   -26194   -26099   -26023   -26026 
  -26068   -26111   -26165   -26196   -26156   -26090   -26048   -26014 
  -26041   -26150   -26235   -26233   -26183   -26125   -26046   -26003 
  -26084   -26165   -26129   -26113   -26145   -26086   -26023   -26071 
  -26073   -26007   -26052   -26196   -26273   -26234   -26173   -26125 
  -26015   -25964   -26072   -26131   -26102   -26153   -26180   -26080 
  -26044   -26136   -26168   -26088   -26040   -26053   -26083   -26131 
  -26171   -26199   -26202   -26125   -26092   -26111   -26011   -25960 
  -26131   -26222   -26119   -26095   -26190   -26217   -26160   -26107 
  -26053   -26010   -26028   -26069   -26145   -26245   -26225   -26119 
  -26072   -26061   -26053   -26059   -26073   -26075   -26061   -26137 
  -26258   -26203   -26063   -26065   -26099   -26010   -25972   -26109 
  -26233   -26192   -26076   -26034   -26059   -26099   -26148   -26123 
  -26099   -26175   -26219   -26198   -26141   -26045   -26055   -26161 
  -26183   -26142   -26130   -26069   -25963   -26045   -26257   -26242 
  -26102   -26069   -26033   -26025   -26067   -25999   -25995   -26131 
  -26142   -26109   -26183   -26214   -26187   -26122   -25988   -25992 
  -26144   -26160   -26131   -26207   -26141   -25999   -26052   -26106 
  -26096   -26150   -26126   -26096   -26188   -26211   -26203   -26241 
  -26148   -25982   -25940   -25995   -26036   -26102   -26214   -26184 
  -26055   -26065   -26110   -26077   -26140   -26210   -26107   -26007 
  -26032   -26063   -26119   -26219   -26227   -26184   -26208   -26180 
  -26044   -25986   -26038   -26092   -26117   -26122   -26144   -26149 
  -26064   -25969   -25984   -26075   -26156   -26212   -26235   -26149 
  -26044   -26079   -26099   -26068   -26176   -26292   -26253   -26129 
  -25987   -25960   -26068   -26103   -26082   -26184   -26258   -26134 
  -25998   -26021   -26126   -26146   -26087   -26100   -26125   -26090 
  -26138   -26212   -26095   -25930   -26010   -26202   -26180   -26046 
  -26094   -26163   -26069   -26045   -26176   -26246   -26171   -26106 
  -26098   -26041   -26053   -26160   -26137   -26064   -26115   -26179 
  -26184   -26161   -26075   -26011   -26065   -26091   -26036   -26068 
  -26195   -26266   -26215   -26121   -26038   -25953   -25934   -26040 
  -26183   -26244   -26226   -26160   -26056   -26015   -26029   -26036 
  -26115   -26169   -26168   -26218   -26153   -26014   -26090   -26252 
  -26219   -26121   -26106   -26060   -26026   -26094   -26121   -26098 
  -26125   -26125   -26052   -26021   -26057   -26067   -26087   -26117 
  -26082   -26107   -26208   -26238   -26208   -26183   -26199   -26168 
  -26013   -25956   -26091   -26175   -26090   -26003   -26010   -26052 
  -26130   -26192   -26180   -26176   -26126   -26052   -26118   -26168 
  -26107   -26114   -26146   -26129   -26126   -26052   -25945   -26007 
  -26103   -26091   -26165   -26272   -26171   -26041   -26061   -26057 
  -26029   -26156   -26273   -26191   -26126   -26172   -26126   -25984 
  -25990   -26180   -26249   -26126   -26098   -26122   -26045   -26015 
  -26084   -26142   -26138   -26118   -26102   -26064   -26046   -26063 
  -26094   -26175   -26256   -26195   -26073   -26056   -26073   -26082 
  -26160   -26237   -26231   -26149   -26005   -25937   -26034   -26126 
  -26117   -26123   -26164   -26129   -26073   -26099   -26127   -26100 
  -26109   -26144   -26123   -26100   -26094   -26056   -26036   -26071 
  -26140   -26172   -26133   -26127   -26150   -26111   -26141   -26235 
  -26199   -26094   -26069   -26076   -26056   -26056   -26079   -26090 
  -26133   -26169   -26098   -26037   -26073   -26096   -26138   -26239 
  -26252   -26141   -26026   -26003   -26098   -26171   -26117   -26046 
  -26007   -25992   -26053   -26148   -26238   -26276   -26198   -26095 
  -26065   -26095   -26083   -26005   -26049   -26173   -26131   -26044 
  -26079   -26131   -26142   -26127   -26119   -26207   -26261   -26172 
  -26100   -26075   -26018   -26014   -26088   -26163   -26199   -26169 
  -26063   -25959   -25974   -26080   -26134   -26127   -26179   -26218 
  -26131   -26077   -26165   -26190   -26049   -25972   -26055   -26119 
  -26102   -26090   -26157   -26248   -26215   -26094   -26059   -26077 
  -26055   -26037   -26032   -26064   -26154   -26195   -26200   -26249 
  -26239   -26123   -26010   -25963   -25951   -26030   -26203   -26248 
  -26140   -26068   -26030   -26003   -26080   -26231   -26320   -26257 
  -26102   -26026   -26055   -26084   -26096   -26109   -26131   -26091 
  -25979   -25988   -26114   -26184   -26210   -26191   -26091   -26010 
  -26053   -26145   -26156   -26123   -26136   -26177   -26208   -26218 
  -26183   -26109   -26017   -25934   -25941   -26049   -26123   -26102 
  -26075   -26095   -26140   -26152   -26098   -26092   -26152   -26134 
  -26117   -26195   -26242   -26204   -26133   -26044   -25976   -26026 
  -26118   -26075   -26009   -26087   -26163   -26126   -26092   -26118 
  -26157   -26160   -26106   -26052   -26056   -26129   -26226   -26231 
  -26149   -26102   -26127   -26158   -26136   -26091   -26068   -26090 
  -26173   -26215   -26133   -26061   -26091   -26146   -26168   -26107 
  -25998   -25956   -25982   -26080   -26238   -26280   -26217   -26194 
  -26265   -26401   -26408   -26253   -26192   -26238   -26177   -26075 
  -26069   -26003   -25782   -25616   -25569   -25559   -25718   -26079 
  -26379   -26538   -26620   -26536   -26300   -26034   -25798   -25678 
  -25739   -25947   -26107   -26034   -25852   -25731   -25633   -25586 
  -25682   -25940   -26339   -26759   -27018   -27001   -26743   -26491 
  -26392   -26288   -26134   -26059   -26030   -26010   -26075   -26215 
  -26326   -26262   -25982   -25748   -25793   -25871   -25758   -25725 
  -25890   -25967   -25974   -26167   -26400   -26393   -26208   -26146 
  -26289   -26339   -26172   -25990   -25826   -25710   -25716   -25810 
  -26059   -26322   -26295   -26072   -25922   -25971   -26234   -26536 
  -26619   -26446   -26206   -26042   -26025   -26184   -26358   -26250 
  -25887   -25774   -25999   -26118   -26160   -26327   -26358   -26245 
  -26289   -26341   -26187   -26002   -25852   -25662   -25589   -25791 
  -26086   -26195   -26194   -26261   -26291   -26173   -26033   -25934 
  -25849   -25844   -25930   -26064   -26302   -26543   -26504   -26245 
  -26073   -25995   -25999   -26219   -26442   -26362   -26122   -26019 
  -26063   -26032   -25897   -25825   -25833   -25867   -25965   -26083 
  -26091   -25999   -26055   -26299   -26387   -26253   -26134   -26102 
  -26140   -26217   -26315   -26374   -26315   -26219   -26140   -26084 
  -26152   -26199   -26067   -25940   -25964   -25969   -25864   -25910 
  -26142   -26204   -26080   -26036   -26022   -25941   -25937   -26137 
  -26414   -26515   -26407   -26239   -26073   -25982   -26017   -26102 
  -26184   -26196   -26144   -26150   -26111   -25955   -25870   -25875 
  -25952   -26102   -26140   -26080   -26131   -26231   -26231   -26177 
  -26106   -26003   -26015   -26218   -26330   -26194   -26092   -26158 
  -26138   -25991   -25965   -26077   -26199   -26256   -26188   -26114 
  -26169   -26212   -26091   -25967   -26064   -26253   -26231   -26041 
  -25986   -26049   -25979   -25871   -25975   -26225   -26350   -26231 
  -26059   -26041   -26069   -25994   -25952   -26052   -26150   -26158 
  -26165   -26233   -26272   -26183   -26152   -26269   -26275   -26136 
  -26055   -26042   -26034   -26048   -26113   -26169   -26141   -26084 
  -26083   -26103   -26071   -26036   -26106   -26163   -26072   -25957 
  -25920   -25937   -26025   -26156   -26242   -26257   -26226   -26122 
  -26021   -26076   -26125   -26022   -26005   -26061   -26018   -26060 
  -26188   -26198   -26222   -26331   -26304   -26171   -26172   -26214 
  -26179   -26208   -26206   -26087   -26059   -26088   -26083   -26129 
  -26148   -26119   -26117   -26034   -25929   -25955   -26001   -26010 
  -26028   -26022   -26037   -26067   -26055   -26130   -26316   -26415 
  -26366   -26168   -25898   -25863   -26040   -26137   -26185   -26266 
  -26265   -26113   -25926   -25837   -25845   -26001   -26253   -26326 
  -26212   -26158   -26153   -26138   -26169   -26142   -25995   -25887 
  -25924   -26044   -26086   -26021   -26023   -26086   -26107   -26210 
  -26358   -26353   -26264   -26250   -26261   -26207   -26144   -26153 
  -26161   -26126   -26122   -26084   -25961   -25934   -26033   -26092 
  -26079   -26021   -26005   -26061   -26077   -26042   -26057   -26107 
  -26122   -26077   -26077   -26196   -26269   -26241   -26215   -26133 
  -26023   -26011   -26013   -25991   -26068   -26185   -26169   -26091 
  -26129   -26190   -26154   -26118   -26096   -26059   -26098   -26222 
  -26312   -26333   -26250   -26063   -25890   -25828   -25866   -25995 
  -26141   -26141   -26032   -26048   -26167   -26173   -26104   -26113 
  -26179   -26230   -26264   -26285   -26302   -26254   -26075   -25926 
  -25998   -26148   -26169   -26113   -26087   -26056   -26015   -26021 
  -26021   -26021   -26095   -26169   -26199   -26198   -26141   -26046 
  -25967   -25967   -26042   -26072   -26040   -26052   -26104   -26110 
  -26057   -26032   -26072   -26113   -26149   -26229   -26261   -26237 
  -26268   -26314   -26276   -26168   -26079   -26060   -26072   -26096 
  -26111   -26090   -26088   -26127   -26144   -26113   -26056   -26025 
  -26063   -26096   -26071   -26104   -26200   -26230   -26204   -26165 
  -26114   -26106   -26091   -26001   -25934   -25975   -26050   -26095 
  -26136   -26181   -26176   -26142   -26171   -26192   -26153   -26160 
  -26172   -26095   -26017   -25995   -25994   -26003   -26046   -26152 
  -26248   -26191   -26055   -26075   -26157   -26094   -26061   -26169 
  -26221   -26185   -26188   -26190   -26110   -25986   -25921   -25967 
  -26077   -26156   -26161   -26125   -26118   -26142   -26103   -26033 
  -26042   -26140   -26245   -26292   -26284   -26206   -26052   -25937 
  -25893   -25902   -26025   -26190   -26250   -26246   -26204   -26060 
  -25971   -26059   -26148   -26184   -26214   -26152   -26022   -25959 
  -25980   -26068   -26176   -26204   -26164   -26136   -26115   -26103 
  -26138   -26173   -26161   -26119   -26057   -26017   -26036   -26096 
  -26172   -26242   -26246   -26114   -25967   -25992   -26095   -26096 
  -26045   -26026   -26045   -26053   -26071   -26207   -26364   -26315 
  -26177   -26133   -26107   -26065   -26069   -26059   -26013   -26073 
  -26192   -26204   -26217   -26349   -26441   -26334   -26160   -26075 
  -26026   -25994   -26011   -26026   -25978   -25942   -26001   -26029 
  -25972   -25937   -25961   -26011   -26068   -26144   -26200   -26230 
  -26249   -26149   -26013   -26034   -26079   -26068   -26158   -26310 
  -26326   -26192   -26068   -26096   -26181   -26146   -26091   -26129 
  -26173   -26161   -26131   -26122   -26098   -26037   -26025   -26030 
  -25976   -25982   -26068   -26082   -26048   -26046   -26077   -26199 
  -26325   -26331   -26299   -26272   -26206   -26127   -26073   -26037 
  -25994   -25940   -25930   -25964   -26002   -26038   -26106   -26204 
  -26207   -26071   -25998   -26071   -26153   -26158   -26115   -26100 
  -26106   -26064   -26107   -26245   -26222   -26083   -26049   -26080 
  -26090   -26149   -26239   -26237   -26171   -26087   -25926   -25809 
  -25898   -26102   -26218   -26207   -26185   -26198   -26218   -26215 
