Origin Time       2024/06/23 22:54:00
Lat.              35.645
Long.             140.060
Depth. (km)       72
Mag.              4.1
Station Code      IBRH19
Station Lat.      36.2137
Station Long.     140.0893
Station Height(m) -34.5
Record Time       2024/06/23 22:54:38
Sampling Freq(Hz) 100Hz
Duration Time(s)  120
Dir.              2
Scale Factor      3923(gal)/8224838
Max. Acc. (gal)   0.546
Last Correction   2024/06/23 22:54:38
Memo.             
[...]
  -18651   -18654   -18652   -18651   -18654   -18654   -18652   -18651 
  -18651   -18654   -18652   -18648   -18651   -18654   -18652   -18652 
  -18654   -18651   -18651   -18654   -18652   -18651   -18652   -18654 
  -18652   -18654   -18654   -18650   -18648   -18651   -18654   -18652 
  -18651   -18652   -18652   -18652   -18654   -18652   -18652   -18654 
  -18652   -18652   -18655   -18654   -18654   -18652   -18650   -18651 
  -18654   -18654   -18652   -18651   -18651   -18651   -18652   -18651 
  -18651   -18655   -18655   -18651   -18651   -18654   -18655   -18655 
  -18652   -18651   -18652   -18652   -18651   -18651   -18652   -18654 
  -18652   -18650   -18651   -18652   -18654   -18651   -18651   -18652 
  -18654   -18652   -18652   -18651   -18650   -18652   -18655   -18652 
  -18651   -18651   -18652   -18654   -18652   -18652   -18651   -18651 
  -18654   -18652   -18652   -18655   -18651   -18648   -18651   -18654 
  -18651   -18648   -18651   -18655   -18652   -18651   -18651   -18652 
  -18652   -18652   -18651   -18651   -18654   -18652   -18652   -18650 
  -18651   -18652   -18655   -18654   -18654   -18654   -18655   -18654 
  -18652   -18650   -18651   -18657   -18655   -18650   -18651   -18652 
  -18652   -18652   -18651   -18651   -18654   -18654   -18652   -18650 
  -18651   -18652   -18654   -18652   -18652   -18652   -18651   -18652 
  -18651   -18652   -18655   -18652   -18651   -18654   -18651   -18651 
  -18652   -18652   -18652   -18651   -18650   -18652   -18655   -18654 
  -18652   -18651   -18652   -18651   -18651   -18651   -18654   -18652 
  -18651   -18654   -18654   -18651   -18652   -18655   -18652   -18651 
  -18654   -18654   -18651   -18651   -18651   -18651   -18651   -18651 
  -18651   -18654   -18654   -18651   -18652   -18654   -18651   -18650 
  -18652   -18654   -18652   -18654   -18654   -18654   -18655   -18655 
  -18652   -18652   -18654   -18652   -18652   -18654   -18655   -18652 
  -18652   -18654   -18652   -18650   -18651   -18655   -18654   -18654 
  -18655   -18654   -18652   -18654   -18652   -18651   -18652   -18651 
  -18651   -18654   -18652   -18654   -18655   -18654   -18655   -18654 
  -18650   -18652   -18655   -18652   -18651   -18652   -18652   -18652 
  -18652   -18650   -18651   -18654   -18654   -18652   -18652   -18654 
  -18654   -18654   -18652   -18651   -18652   -18654   -18655   -18654 
  -18650   -18652   -18652   -18652   -18654   -18652   -18652   -18654 
  -18654   -18652   -18654   -18654   -18654   -18657   -18655   -18652 
  -18651   -18651   -18652   -18654   -18655   -18652   -18651   -18652 
  -18651   -18650   -18652   -18654   -18652   -18654   -18652   -18651 
  -18654   -18655   -18651   -18650   -18651   -18651   -18652   -18652 
  -18652   -18652   -18650   -18650   -18652   -18652   -18650   -18651 
  -18652   -18655   -18652   -18650   -18650   -18651   -18651   -18652 
  -18651   -18651   -18652   -18652   -18651   -18652   -18654   -18652 
  -18654   -18655   -18652   -18654   -18655   -18654   -18651   -18651 
  -18651   -18654   -18652   -18651   -18652   -18652   -18654   -18652 
  -18652   -18652   -18651   -18650   -18652   -18654   -18654   -18652 
  -18651   -18652   -18652   -18651   -18652   -18654   -18651   -18648 
  -18652   -18655   -18654   -18652   -18652   -18651   -18652   -18651 
  -18651   -18652   -18652   -18651   -18651   -18652   -18651   -18651 
  -18652   -18651   -18651   -18652   -18654   -18652   -18651   -18652 
  -18652   -18652   -18652   -18652   -18652   -18651   -18651   -18652 
  -18652   -18651   -18651   -18651   -18652   -18654   -18654   -18654 
  -18654   -18652   -18651   -18652   -18652   -18652   -18652   -18652 
  -18652   -18652   -18650   -18651   -18652   -18652   -18654   -18652 
  -18651   -18651   -18652   -18652   -18654   -18654   -18652   -18654 
  -18657   -18654   -18651   -18652   -18652   -18651   -18651   -18654 
  -18654   -18654   -18654   -18651   -18651   -18652   -18652   -18652 
  -18654   -18652   -18652   -18652   -18652   -18654   -18654   -18652 
  -18652   -18655   -18654   -18652   -18654   -18654   -18651   -18654 
  -18654   -18651   -18652   -18655   -18652   -18650   -18651   -18652 
  -18652   -18654   -18652   -18651   -18654   -18657   -18654   -18652 
  -18654   -18654   -18651   -18650   -18652   -18654   -18652   -18654 
  -18654   -18651   -18650   -18652   -18652   -18651   -18651   -18654 
  -18654   -18655   -18655   -18654   -18652   -18654   -18652   -18654 
  -18657   -18655   -18652   -18650   -18650   -18654   -18655   -18654 
  -18651   -18651   -18646   -18644   -18654   -18665   -18663   -18652 
  -18646   -18651   -18659   -18661   -18662   -18655   -18638   -18632 
  -18644   -18651   -18651   -18663   -18678   -18661   -18620   -18608 
  -18638   -18690   -18735   -18719   -18631   -18571   -18594   -18631 
  -18648   -18675   -18697   -18688   -18655   -18631   -18632   -18651 
  -18678   -18671   -18632   -18609   -18611   -18655   -18704   -18696 
  -18663   -18621   -18608   -18677   -18721   -18681   -18630   -18590 
  -18597   -18673   -18713   -18688   -18638   -18553   -18512   -18603 
  -18754   -18885   -18921   -18733   -18396   -18242   -18428   -18752 
  -18978   -18971   -18750   -18527   -18447   -18431   -18468   -18647 
  -18874   -18948   -18820   -18582   -18392   -18411   -18646   -18856 
  -18841   -18723   -18639   -18565   -18532   -18544   -18580   -18692 
  -18775   -18740   -18711   -18647   -18551   -18597   -18658   -18646 
  -18697   -18701   -18646   -18669   -18670   -18627   -18623   -18631 
  -18659   -18681   -18634   -18609   -18650   -18681   -18678   -18652 
  -18652   -18708   -18723   -18634   -18538   -18522   -18596   -18705 
  -18755   -18733   -18670   -18597   -18593   -18663   -18731   -18758 
  -18686   -18535   -18461   -18543   -18702   -18789   -18725   -18638 
  -18655   -18697   -18670   -18598   -18566   -18651   -18763   -18700 
  -18516   -18485   -18657   -18821   -18816   -18663   -18543   -18582 
  -18704   -18751   -18651   -18528   -18553   -18652   -18685   -18678 
  -18697   -18717   -18692   -18623   -18555   -18565   -18663   -18751 
  -18724   -18632   -18601   -18632   -18665   -18666   -18632   -18615 
  -18630   -18673   -18704   -18665   -18623   -18638   -18642   -18628 
  -18657   -18716   -18735   -18677   -18589   -18538   -18588   -18731 
  -18792   -18669   -18528   -18554   -18698   -18778   -18706   -18576 
  -18553   -18665   -18739   -18692   -18594   -18550   -18632   -18740 
  -18708   -18598   -18585   -18681   -18750   -18702   -18607   -18573 
  -18644   -18740   -18712   -18601   -18554   -18601   -18706   -18729 
  -18623   -18580   -18648   -18717   -18739   -18673   -18594   -18605 
  -18634   -18636   -18657   -18669   -18643   -18644   -18689   -18697 
  -18674   -18639   -18586   -18588   -18662   -18711   -18684   -18639 
  -18632   -18642   -18655   -18679   -18666   -18620   -18632   -18678 
  -18667   -18627   -18632   -18679   -18697   -18673   -18639   -18617 
  -18628   -18647   -18627   -18623   -18677   -18724   -18698   -18616 
  -18566   -18574   -18635   -18729   -18756   -18704   -18643   -18601 
  -18590   -18613   -18662   -18712   -18704   -18663   -18632   -18612 
  -18644   -18673   -18647   -18648   -18650   -18620   -18652   -18697 
  -18651   -18604   -18638   -18713   -18727   -18634   -18549   -18555 
  -18646   -18744   -18711   -18601   -18617   -18698   -18693   -18617 
  -18551   -18598   -18713   -18751   -18736   -18670   -18570   -18558 
  -18615   -18658   -18689   -18701   -18682   -18613   -18563   -18657 
  -18763   -18720   -18615   -18569   -18648   -18756   -18711   -18585 
  -18520   -18566   -18717   -18766   -18667   -18623   -18598   -18596 
  -18708   -18743   -18659   -18646   -18671   -18674   -18666   -18612 
  -18544   -18530   -18640   -18798   -18771   -18631   -18584   -18644 
  -18750   -18742   -18557   -18436   -18543   -18742   -18814   -18713 
  -18589   -18566   -18646   -18731   -18711   -18654   -18650   -18674 
  -18663   -18574   -18534   -18627   -18704   -18716   -18721   -18666 
  -18585   -18604   -18694   -18727   -18690   -18646   -18588   -18574 
  -18657   -18712   -18655   -18586   -18620   -18716   -18733   -18674 
  -18617   -18573   -18613   -18713   -18682   -18605   -18663   -18694 
  -18642   -18642   -18654   -18670   -18685   -18594   -18535   -18621 
  -18711   -18756   -18747   -18654   -18592   -18596   -18608   -18634 
  -18640   -18646   -18717   -18735   -18609   -18540   -18636   -18717 
  -18733   -18744   -18667   -18546   -18550   -18643   -18712   -18679 
  -18605   -18635   -18686   -18686   -18693   -18682   -18678   -18698 
  -18671   -18557   -18449   -18539   -18736   -18809   -18750   -18608 
  -18512   -18566   -18673   -18781   -18820   -18705   -18563   -18505 
  -18559   -18706   -18766   -18696   -18639   -18580   -18565   -18648 
  -18658   -18593   -18616   -18724   -18786   -18728   -18625   -18566 
  -18584   -18628   -18613   -18584   -18621   -18731   -18819   -18742 
  -18576   -18526   -18617   -18721   -18740   -18669   -18594   -18625 
  -18681   -18627   -18585   -18644   -18712   -18765   -18760   -18651 
  -18567   -18582   -18612   -18638   -18661   -18662   -18658   -18631 
  -18589   -18580   -18613   -18677   -18728   -18701   -18634   -18639 
  -18679   -18705   -18716   -18651   -18594   -18652   -18696   -18677 
  -18675   -18634   -18558   -18576   -18640   -18675   -18697   -18700 
  -18715   -18729   -18694   -18613   -18522   -18507   -18592   -18727 
  -18828   -18738   -18565   -18566   -18625   -18612   -18634   -18632 
  -18584   -18632   -18735   -18744   -18671   -18630   -18654   -18693 
  -18721   -18721   -18644   -18539   -18570   -18723   -18766   -18659 
  -18550   -18466   -18476   -18658   -18835   -18851   -18744   -18585 
  -18546   -18642   -18678   -18667   -18640   -18578   -18609   -18735 
  -18774   -18646   -18482   -18490   -18657   -18821   -18905   -18825 
  -18574   -18414   -18522   -18708   -18751   -18675   -18607   -18632 
  -18738   -18756   -18592   -18459   -18567   -18783   -18862   -18701 
  -18504   -18539   -18657   -18628   -18584   -18611   -18684   -18829 
  -18835   -18569   -18438   -18619   -18729   -18631   -18523   -18550 
  -18724   -18901   -18858   -18590   -18409   -18539   -18754   -18750 
  -18625   -18625   -18747   -18778   -18644   -18507   -18485   -18601 
  -18758   -18762   -18659   -18640   -18685   -18684   -18580   -18507 
  -18621   -18787   -18804   -18679   -18547   -18492   -18536   -18635 
  -18717   -18801   -18828   -18712   -18574   -18485   -18477   -18613 
  -18762   -18806   -18789   -18702   -18605   -18588   -18592   -18612 
  -18678   -18706   -18650   -18557   -18555   -18671   -18759   -18731 
  -18630   -18577   -18603   -18627   -18647   -18681   -18711   -18708 
  -18661   -18603   -18605   -18708   -18793   -18742   -18597   -18473 
  -18495   -18663   -18763   -18704   -18646   -18670   -18678   -18640 
  -18658   -18704   -18716   -18713   -18620   -18515   -18547   -18612 
  -18658   -18697   -18690   -18671   -18640   -18592   -18598   -18678 
  -18755   -18756   -18670   -18561   -18569   -18673   -18681   -18590 
  -18584   -18721   -18843   -18782   -18593   -18465   -18535   -18720 
  -18765   -18652   -18573   -18613   -18706   -18719   -18644   -18619 
  -18684   -18765   -18736   -18561   -18442   -18551   -18720   -18756 
  -18692   -18604   -18597   -18684   -18702   -18635   -18598   -18647 
  -18725   -18692   -18577   -18563   -18669   -18786   -18800   -18655 
  -18501   -18508   -18648   -18747   -18702   -18604   -18573   -18625 
  -18686   -18655   -18563   -18588   -18739   -18828   -18754   -18598 
  -18528   -18619   -18733   -18712   -18601   -18555   -18678   -18848 
  -18804   -18554   -18434   -18598   -18798   -18767   -18603   -18566 
  -18651   -18685   -18607   -18478   -18480   -18740   -18978   -18844 
  -18562   -18472   -18523   -18617   -18652   -18601   -18674   -18837 
  -18823   -18657   -18523   -18573   -18796   -18862   -18605   -18357 
  -18439   -18769   -18962   -18770   -18427   -18366   -18634   -18874 
  -18825   -18611   -18547   -18715   -18805   -18616   -18411   -18489 
  -18731   -18816   -18686   -18524   -18534   -18731   -18817   -18651 
  -18522   -18617   -18808   -18839   -18638   -18496   -18593   -18709 
  -18681   -18580   -18520   -18593   -18732   -18748   -18621   -18581 
  -18706   -18792   -18729   -18604   -18532   -18600   -18733   -18717 
  -18590   -18608   -18709   -18684   -18609   -18563   -18534   -18631 
  -18774   -18724   -18621   -18642   -18674   -18655   -18569   -18457 
  -18535   -18792   -18898   -18760   -18623   -18617   -18671   -18744 
  -18758   -18644   -18597   -18675   -18630   -18495   -18515   -18643 
  -18702   -18655   -18578   -18601   -18738   -18835   -18760   -18580 
  -18540   -18705   -18798   -18655   -18431   -18343   -18468   -18659 
  -18693   -18604   -18604   -18697   -18742   -18702   -18604   -18549 
  -18632   -18729   -18727   -18688   -18735   -18862   -18893   -18747 
  -18524   -18357   -18343   -18443   -18512   -18523   -18590   -18729 
  -18771   -18696   -18655   -18704   -18847   -18945   -18866   -18733 
  -18632   -18570   -18592   -18667   -18751   -18813   -18806   -18762 
  -18742   -18748   -18685   -18505   -18393   -18454   -18603   -18777 
  -18908   -19006   -19109   -19045   -18715   -18266   -17944   -18025 
  -18607   -19359   -19776   -19616   -19020   -18283   -17662   -17508 
  -17965   -18603   -18954   -18943   -18671   -18316   -18171   -18396 
  -18750   -18883   -18694   -18335   -18117   -18199   -18517   -19013 
  -19400   -19303   -18839   -18315   -17973   -18081   -18532   -18936 
  -19134   -19090   -18754   -18355   -18214   -18252   -18284   -18465 
  -18906   -19388   -19654   -19568   -19126   -18661   -18601   -18835 
  -18840   -18501   -18212   -18261   -18458   -18517   -18504   -18586 
  -18765   -18986   -18960   -18507   -18156   -18357   -18801   -19013 
  -18800   -18470   -18474   -18704   -18769   -18539   -18258   -18339 
  -18779   -19039   -18783   -18353   -18299   -18644   -18889   -18725 
  -18435   -18451   -18685   -18712   -18546   -18509   -18693   -18925 
  -18882   -18542   -18414   -18693   -18920   -18824   -18596   -18458 
  -18528   -18688   -18658   -18493   -18523   -18800   -18993   -18874 
  -18677   -18721   -18891   -18847   -18557   -18337   -18504   -18948 
  -19101   -18669   -18121   -18053   -18416   -18750   -18817   -18812 
  -19014   -19311   -19279   -18813   -18372   -18360   -18569   -18563 
  -18331   -18185   -18362   -18659   -18569   -18211   -18314   -18902 
  -19222   -18918   -18361   -18061   -18303   -18889   -19240   -19145 
  -18914   -18700   -18451   -18303   -18428   -18716   -18798   -18495 
  -18168   -18291   -18802   -19205   -19105   -18675   -18540   -18860 
  -19090   -18856   -18426   -18245   -18411   -18620   -18635   -18567 
  -18655   -18883   -18854   -18396   -18038   -18269   -18827   -19114 
  -18917   -18558   -18495   -18743   -18829   -18565   -18370   -18561 
  -18908   -18975   -18635   -18326   -18515   -18918   -18972   -18679 
  -18485   -18701   -19070   -19018   -18500   -18050   -18199   -18783 
  -19037   -18723   -18365   -18423   -18859   -19160   -18964   -18566 
  -18411   -18522   -18628   -18538   -18382   -18423   -18609   -18717 
  -18708   -18662   -18742   -18925   -18890   -18607   -18377   -18349 
  -18476   -18581   -18598   -18647   -18775   -18955   -19043   -18900 
  -18727   -18661   -18643   -18654   -18617   -18520   -18476   -18553 
  -18648   -18625   -18600   -18654   -18662   -18671   -18715   -18662 
  -18616   -18682   -18724   -18716   -18663   -18559   -18589   -18752 
  -18809   -18717   -18608   -18538   -18508   -18590   -18760   -18787 
  -18628   -18512   -18469   -18454   -18576   -18702   -18655   -18625 
  -18735   -18839   -18825   -18708   -18609   -18624   -18658   -18686 
  -18773   -18782   -18689   -18630   -18558   -18486   -18527   -18604 
  -18558   -18461   -18513   -18670   -18832   -18951   -18829   -18565 
  -18497   -18596   -18631   -18596   -18607   -18646   -18738   -18914 
  -18831   -18466   -18364   -18546   -18700   -18785   -18748   -18604 
  -18573   -18671   -18706   -18721   -18735   -18628   -18574   -18648 
  -18733   -18846   -18890   -18781   -18642   -18561   -18501   -18419 
  -18455   -18669   -18724   -18540   -18463   -18561   -18655   -18720 
  -18717   -18652   -18725   -18954   -19001   -18740   -18497   -18523 
  -18673   -18742   -18675   -18558   -18580   -18674   -18601   -18469 
  -18455   -18594   -18786   -18750   -18509   -18366   -18416   -18634 
  -18819   -18773   -18665   -18638   -18685   -18808   -18879   -18866 
  -18900   -18931   -18810   -18554   -18288   -18156   -18291   -18581 
  -18743   -18766   -18744   -18658   -18689   -18909   -19056   -19041 
  -18894   -18642   -18435   -18376   -18447   -18520   -18535   -18561 
  -18615   -18713   -18837   -18856   -18694   -18485   -18478   -18570 
  -18504   -18450   -18536   -18643   -18775   -18825   -18630   -18400 
  -18470   -18731   -18770   -18558   -18503   -18733   -18960   -18985 
  -18759   -18414   -18285   -18426   -18565   -18631   -18673   -18750 
  -18909   -18960   -18829   -18755   -18808   -18886   -18833   -18563 
  -18395   -18522   -18667   -18690   -18598   -18481   -18652   -18991 
  -19039   -18738   -18353   -18289   -18588   -18816   -18771   -18528 
  -18381   -18499   -18574   -18507   -18497   -18617   -18816   -18909 
  -18789   -18619   -18623   -18775   -18885   -18777   -18493   -18443 
  -18693   -18796   -18650   -18451   -18395   -18642   -19016   -19084 
  -18712   -18342   -18312   -18388   -18423   -18489   -18584   -18801 
  -19025   -18900   -18495   -18261   -18438   -18798   -18958   -18794 
  -18504   -18423   -18644   -18817   -18669   -18449   -18540   -18883 
  -19068   -18908   -18582   -18393   -18512   -18732   -18748   -18650 
  -18679   -18810   -18851   -18729   -18546   -18458   -18543   -18750 
  -18912   -18902   -18797   -18696   -18581   -18443   -18316   -18324 
  -18532   -18760   -18855   -18831   -18717   -18631   -18655   -18731 
  -18781   -18681   -18486   -18462   -18553   -18524   -18435   -18446 
  -18573   -18727   -18821   -18794   -18721   -18721   -18688   -18517 
  -18328   -18295   -18565   -18987   -19111   -18877   -18686   -18697 
  -18704   -18630   -18527   -18423   -18462   -18652   -18723   -18675 
  -18709   -18724   -18613   -18538   -18632   -18862   -19022   -18918 
  -18648   -18488   -18593   -18801   -18781   -18578   -18493   -18524 
  -18517   -18472   -18499   -18705   -18940   -18917   -18693   -18589 
  -18713   -18786   -18604   -18422   -18481   -18659   -18727   -18589 
  -18426   -18490   -18773   -18971   -18850   -18619   -18543   -18562 
  -18512   -18397   -18424   -18655   -18781   -18617   -18409   -18424 
  -18685   -18939   -18897   -18651   -18534   -18651   -18760   -18708 
  -18661   -18731   -18858   -18874   -18705   -18500   -18384   -18426 
  -18574   -18719   -18847   -18878   -18763   -18559   -18477   -18690 
  -18902   -18890   -18814   -18760   -18727   -18681   -18546   -18358 
  -18335   -18588   -18844   -18837   -18669   -18543   -18523   -18539 
