Origin Time       2024/06/23 22:54:00
Lat.              35.645
Long.             140.060
Depth. (km)       72
Mag.              4.1
Station Code      IBRH15
Station Lat.      36.5566
Station Long.     140.3013
Station Height(m) 45
Record Time       2024/06/23 22:54:56
Sampling Freq(Hz) 100Hz
Duration Time(s)  120
Dir.              5
Scale Factor      7845(gal)/8223790
Max. Acc. (gal)   3.854
Last Correction   2024/06/23 22:54:56
Memo.             
[...]
  -10269   -10137    -9957    -9834    -9896   -10145   -10431   -10577 
  -10550   -10440   -10277   -10091    -9942    -9850    -9848   -10007 
  -10316   -10579   -10598   -10423   -10222   -10071    -9980    -9995 
  -10129   -10255   -10254   -10176   -10169   -10261   -10308   -10233 
  -10156   -10156   -10201   -10266   -10262   -10157   -10103   -10183 
  -10280   -10296   -10272   -10245   -10153   -10017    -9984   -10104 
  -10254   -10323   -10308   -10284   -10291   -10265   -10147   -10012 
  -10003   -10129   -10270   -10381   -10462   -10435   -10250   -10010 
   -9882    -9938   -10125   -10316   -10426   -10432   -10345   -10180 
  -10038   -10011   -10049   -10084   -10160   -10291   -10385   -10376 
  -10327   -10289   -10220   -10100    -9995   -10000   -10134   -10297 
  -10353   -10276   -10183   -10183   -10241   -10274   -10264   -10200 
  -10083    -9991   -10010   -10092   -10170   -10296   -10480   -10597 
  -10512   -10249    -9991    -9853    -9805    -9864   -10114   -10481 
  -10729   -10702   -10417   -10026    -9756    -9713    -9836   -10100 
  -10469   -10723   -10654   -10331   -10017    -9895    -9936   -10042 
  -10203   -10404   -10512   -10432   -10242   -10056    -9933    -9931 
  -10048   -10200   -10324   -10400   -10389   -10287   -10179   -10146 
  -10172   -10201   -10185   -10116   -10048   -10030   -10087   -10215 
  -10355   -10462   -10555   -10566   -10338    -9949    -9710    -9733 
   -9877   -10064   -10324   -10617   -10804   -10760   -10474   -10058 
   -9714    -9591    -9705    -9971   -10287   -10550   -10652   -10531 
  -10288   -10145   -10115   -10049    -9980   -10057   -10251   -10382 
  -10338   -10204   -10131   -10112   -10083   -10108   -10253   -10409 
  -10423   -10289   -10114    -9976    -9930   -10007   -10193   -10415 
  -10548   -10519   -10361   -10173   -10060   -10038   -10041   -10048 
  -10079   -10119   -10181   -10303   -10453   -10497   -10373   -10183 
  -10042    -9964    -9957   -10048   -10197   -10328   -10393   -10390 
  -10358   -10285   -10160   -10069   -10071   -10108   -10165   -10234 
  -10277   -10281   -10276   -10269   -10206   -10103   -10095   -10147 
  -10116   -10100   -10234   -10404   -10438   -10322   -10166   -10075 
  -10046   -10053   -10131   -10288   -10395   -10369   -10289   -10206 
  -10071    -9919    -9872   -10011   -10308   -10586   -10667   -10547 
  -10320   -10069    -9859    -9737    -9783   -10035   -10363   -10569 
  -10585   -10507   -10409   -10228    -9972    -9801    -9811    -9999 
  -10247   -10363   -10370   -10446   -10531   -10439   -10204   -10038 
  -10050   -10134   -10149   -10129   -10141   -10114   -10046   -10075 
  -10224   -10390   -10486   -10501   -10457   -10326   -10092    -9860 
   -9738    -9725    -9833   -10120   -10471   -10675   -10698   -10609 
  -10439   -10216    -9991    -9842    -9833    -9923   -10012   -10081 
  -10223   -10476   -10690   -10678   -10476   -10242   -10006    -9756 
   -9590    -9639    -9950   -10388   -10690   -10740   -10638   -10469 
  -10207    -9887    -9718    -9817   -10073   -10322   -10427   -10369 
  -10277   -10218   -10189   -10264   -10378   -10354   -10208   -10095 
  -10030    -9954    -9904    -9995   -10228   -10439   -10494   -10459 
  -10450   -10423   -10243    -9945    -9730    -9728    -9896   -10168 
  -10484   -10713   -10724   -10507   -10177    -9957    -9902    -9845 
   -9799    -9950   -10251   -10486   -10562   -10535   -10474   -10362 
  -10174    -9987    -9926    -9992   -10035   -10041   -10120   -10261 
  -10377   -10465   -10498   -10431   -10277   -10073    -9852    -9709 
   -9749    -9967   -10251   -10504   -10663   -10687   -10581   -10424 
  -10222    -9967    -9823    -9890    -9987    -9998   -10045   -10224 
  -10451   -10605   -10640   -10548   -10346   -10045    -9703    -9549 
   -9736   -10089   -10372   -10497   -10477   -10439   -10451   -10393 
  -10238   -10120   -10069   -10014    -9976   -10025   -10152   -10281 
  -10368   -10397   -10349   -10255   -10210   -10200   -10137   -10004 
   -9904    -9967   -10184   -10353   -10374   -10382   -10404   -10304 
  -10092    -9979   -10077   -10233   -10288   -10296   -10322   -10308 
  -10199   -10025    -9929   -10054   -10312   -10450   -10353   -10180 
  -10149   -10234   -10245   -10161   -10137   -10200   -10189   -10048 
   -9971   -10116   -10381   -10544   -10504   -10339   -10135    -9919 
   -9776    -9853   -10149   -10450   -10577   -10563   -10488   -10284 
   -9933    -9652    -9655    -9921   -10280   -10559   -10700   -10697 
  -10530   -10243    -9954    -9765    -9734    -9860   -10122   -10453 
  -10655   -10562   -10277   -10073   -10026    -9992    -9940   -10030 
  -10297   -10509   -10504   -10382   -10251   -10119   -10006    -9960 
  -10037   -10228   -10416   -10467   -10346   -10158   -10039    -9999 
   -9976   -10014   -10192   -10453   -10627   -10585   -10338   -10044 
   -9837    -9745    -9795   -10037   -10419   -10708   -10690   -10459 
  -10233   -10044    -9855    -9725    -9796   -10108   -10439   -10579 
  -10588   -10534   -10392   -10166    -9904    -9737    -9822   -10108 
  -10368   -10455   -10404   -10354   -10342   -10227   -10015    -9933 
  -10066   -10264   -10335   -10253   -10188   -10231   -10250   -10172 
  -10102   -10139   -10245   -10297   -10243   -10161   -10139   -10176 
  -10200   -10191   -10193   -10210   -10220   -10295   -10412   -10416 
  -10250   -10044    -9930    -9946   -10062   -10220   -10318   -10292 
  -10207   -10168   -10227   -10351   -10399   -10285   -10118   -10037 
  -10048   -10095   -10172   -10270   -10316   -10284   -10281   -10351 
  -10354   -10231   -10096   -10033   -10077   -10215   -10303   -10270 
  -10227   -10238   -10231   -10172   -10118   -10076   -10031   -10054 
  -10191   -10362   -10449   -10373   -10187   -10039   -10012   -10089 
  -10239   -10423   -10542   -10446   -10183   -10002    -9971    -9956 
   -9964   -10125   -10377   -10508   -10473   -10404   -10319   -10183 
  -10031    -9904    -9845    -9894   -10064   -10308   -10497   -10548 
  -10544   -10515   -10366   -10104    -9861    -9756    -9815    -9988 
  -10242   -10555   -10760   -10663   -10292    -9906    -9756    -9846 
   -9981   -10098   -10305   -10561   -10654   -10497   -10222   -10008 
   -9900    -9865    -9950   -10154   -10331   -10426   -10493   -10490 
  -10363   -10196   -10075    -9991    -9946   -10007   -10172   -10332 
  -10404   -10381   -10323   -10277   -10204   -10093   -10019   -10011 
  -10066   -10215   -10426   -10558   -10477   -10230   -10050   -10030 
  -10006    -9907    -9900   -10079   -10316   -10465   -10498   -10471 
  -10403   -10253   -10038    -9882    -9904   -10033   -10125   -10235 
  -10473   -10683   -10627   -10332   -10060    -9930    -9871    -9890 
  -10080   -10370   -10566   -10574   -10422   -10179    -9948    -9836 
   -9904   -10098   -10300   -10424   -10390   -10228   -10145   -10200 
  -10193   -10077   -10019   -10080   -10162   -10193   -10201   -10250 
  -10331   -10386   -10397   -10362   -10284   -10153   -10006    -9945 
  -10004   -10100   -10219   -10405   -10539   -10490   -10370   -10308 
  -10189    -9926    -9721    -9791   -10065   -10334   -10530   -10677 
  -10651   -10342    -9918    -9666    -9718    -9975   -10212   -10377 
  -10561   -10679   -10561   -10257    -9996    -9919    -9990   -10112 
  -10253   -10385   -10417   -10299   -10135   -10069   -10125   -10220 
  -10242   -10156   -10052   -10010   -10038   -10104   -10156   -10228 
  -10365   -10481   -10447   -10239   -10011    -9933    -9963   -10057 
  -10303   -10592   -10685   -10527   -10231    -9957    -9829    -9861 
   -9985   -10143   -10303   -10457   -10566   -10520   -10288   -10027 
   -9929   -10025   -10154   -10216   -10318   -10458   -10461   -10318 
  -10170   -10098   -10092   -10073   -10011   -10021   -10134   -10214 
  -10188   -10170   -10264   -10392   -10413   -10322   -10207   -10107 
  -10022    -9961    -9964   -10085   -10292   -10501   -10669   -10685 
  -10485   -10206    -9961    -9749    -9622    -9688    -9977   -10374 
  -10635   -10606   -10399   -10218   -10119   -10054   -10041   -10119 
  -10251   -10366   -10413   -10392   -10301   -10158   -10033    -9992 
  -10052   -10203   -10409   -10535   -10457   -10253   -10083    -9977 
   -9918    -9933   -10035   -10187   -10341   -10451   -10476   -10404 
  -10253   -10075    -9983   -10046   -10204   -10318   -10296   -10207 
  -10191   -10235   -10234   -10158   -10058   -10000   -10039   -10154 
  -10268   -10351   -10377   -10288   -10138   -10075   -10153   -10284 
  -10349   -10296   -10216   -10220   -10266   -10265   -10216   -10152 
  -10110   -10115   -10161   -10242   -10323   -10300   -10162   -10030 
   -9988   -10042   -10177   -10335   -10442   -10474   -10439   -10341 
  -10193   -10034    -9963   -10027   -10130   -10197   -10245   -10281 
  -10327   -10338   -10218   -10050   -10022   -10149   -10281   -10307 
  -10254   -10231   -10264   -10241   -10116   -10022   -10062   -10142 
  -10147   -10180   -10353   -10500   -10436   -10253   -10115   -10065 
  -10064   -10061   -10092   -10204   -10354   -10444   -10416   -10255 
  -10022    -9842    -9860   -10110   -10422   -10589   -10552   -10373 
  -10165   -10029    -9979    -9992   -10088   -10278   -10453   -10459 
  -10311   -10160   -10057    -9940    -9869    -9992   -10239   -10434 
  -10550   -10581   -10430   -10119    -9852    -9783    -9865   -10014 
  -10222   -10450   -10608   -10628   -10450   -10111    -9836    -9817 
   -9968   -10093   -10189   -10351   -10466   -10377   -10218   -10207 
  -10308   -10358   -10309   -10230   -10139   -10022    -9941    -9980 
  -10131   -10284   -10304   -10218   -10165   -10158   -10137   -10180 
  -10349   -10512   -10524   -10419   -10331   -10272   -10137    -9952 
   -9902   -10083   -10349   -10465   -10385   -10255   -10081    -9767 
   -9471    -9485    -9837   -10266   -10561   -10746   -10833   -10723 
  -10408   -10027    -9756    -9721    -9919   -10224   -10492   -10674 
  -10713   -10516   -10176    -9936    -9882    -9942   -10138   -10467 
  -10723   -10737   -10569   -10272    -9833    -9379    -9184    -9391 
   -9844   -10338   -10831   -11141   -10953   -10284    -9543    -9175 
   -9370   -10011   -10805   -11406   -11549   -11186   -10436    -9566 
   -8915    -8704    -9051    -9954   -11007   -11620   -11576   -10986 
  -10045    -9103    -8638    -8972    -9937   -10920   -11345   -11121 
  -10550    -9942    -9489    -9363    -9648   -10153   -10567   -10762 
  -10840   -10889   -10752   -10308    -9882    -9875   -10168   -10384 
  -10393   -10242    -9971    -9706    -9653    -9918   -10366   -10724 
  -10802   -10574   -10204    -9957    -9865    -9698    -9423    -9350 
   -9694   -10218   -10516   -10612   -10763   -10878   -10733   -10462 
  -10338   -10326   -10169    -9891    -9822   -10044   -10237   -10207 
  -10119   -10091   -10008    -9882    -9968   -10341   -10716   -10856 
  -10759   -10461   -10035    -9752    -9841   -10154   -10376   -10459 
  -10516   -10503   -10326    -9991    -9582    -9308    -9369    -9680 
  -10106   -10647   -11119   -11206   -10889   -10380    -9898    -9562 
   -9347    -9269    -9493   -10061   -10740   -11254   -11553   -11639 
  -11295   -10350    -9161    -8330    -8118    -8495    -9401   -10652 
  -11916   -12704   -12530   -11434    -9944    -8635    -7998    -8251 
   -9258   -10571   -11566   -11907   -11655   -10928    -9926    -9070 
   -8716    -8947    -9607   -10439   -11250   -11819   -11751   -10901 
   -9688    -8748    -8449    -8758    -9537   -10627   -11553   -11901 
  -11736   -11141   -10114    -9035    -8488    -8664    -9278    -9999 
  -10700   -11240   -11368   -11071   -10555    -9972    -9547    -9495 
   -9684    -9898   -10147   -10450   -10697   -10735   -10605   -10511 
  -10417   -10138    -9796    -9675    -9830   -10161   -10488   -10608 
  -10511   -10304   -10006    -9647    -9436    -9651   -10341   -11159 
  -11607   -11429   -10739    -9846    -9015    -8545    -8788    -9729 
  -10777   -11259   -11064   -10565   -10068    -9761    -9782   -10022 
  -10299   -10501   -10434   -10088    -9767    -9637    -9714   -10038 
  -10488   -10840   -10980   -10844   -10423    -9869    -9466    -9440 
   -9782   -10285   -10752   -11034   -11022   -10755   -10451   -10287 
  -10196   -10025    -9823    -9796    -9992   -10220   -10320   -10322 
  -10243   -10027    -9694    -9420    -9452    -9819   -10280   -10706 
  -11086   -11273   -11063   -10357    -9421    -8800    -8761    -9301 
  -10361   -11529   -12204   -12077   -11234   -10079    -9082    -8496 
   -8386    -8785    -9664   -10717   -11449   -11627   -11394   -10994 
  -10543   -10030    -9518    -9117    -8808    -8654    -8959    -9833 
  -10928   -11861   -12436   -12402   -11632   -10404    -9123    -8167 
   -7966    -8630    -9774   -11016   -12097   -12609   -12258   -11283 
  -10204    -9332    -8731    -8399    -8332    -8629    -9400   -10349 
  -10962   -11111   -11002   -10770   -10434   -10034    -9791    -9942 
  -10353   -10662   -10673   -10386    -9963    -9634    -9517    -9697 
  -10312   -11229   -11901   -11862   -11190   -10285    -9406    -8692 
   -8336    -8464    -9073   -10022   -10878   -11186   -10982   -10719 
  -10636   -10594   -10550   -10566   -10436    -9957    -9266    -8645 
   -8463    -9053   -10345   -11867   -13070   -13516   -12935   -11292 
   -9019    -7049    -6165    -6582    -8128   -10301   -12332   -13501 
  -13416   -12293   -10787    -9350    -8205    -7692    -8020    -9035 
  -10305   -11344   -11861   -11811   -11356   -10713    -9972    -9302 
   -9076    -9396    -9968   -10486   -10812   -10902   -10721   -10222 
   -9556    -9136    -9313   -10042   -10932   -11619   -11848   -11333 
  -10045    -8519    -7578    -7774    -9018   -10729   -12306   -13290 
  -13259   -12033   -10057    -8214    -7150    -7022    -7917    -9814 
  -11990   -13296   -13108   -11680    -9840    -8463    -8000    -8464 
   -9566   -10800   -11664   -11840   -11311   -10345    -9229    -8333 
   -8185    -9022   -10520   -12008   -12780   -12492   -11365    -9975 
   -8822    -8136    -7969    -8322    -9186   -10440   -11716   -12517 
  -12495   -11603   -10208    -8985    -8487    -8854    -9786   -10706 
  -11227   -11318   -11021   -10462    -9883    -9360    -8959    -9026 
   -9737   -10671   -11153   -10881   -10207    -9724    -9595    -9744 
  -10195   -10735   -10921   -10720   -10511   -10463   -10350    -9964 
   -9486    -9300    -9566   -10149   -10841   -11456   -11672   -11223 
  -10322    -9464    -8885    -8534    -8490    -9065   -10226   -11327 
  -11888   -11890   -11311   -10174    -8914    -8203    -8456    -9373 
  -10328   -11142   -11892   -12317   -11985   -10921    -9720    -8874 
   -8422    -8383    -8993   -10235   -11537   -12197   -12066   -11512 
  -10825   -10060    -9286    -8734    -8661    -9034    -9560   -10084 
  -10647   -11115   -11173   -10806   -10390   -10169   -10004    -9741 
   -9532    -9688   -10226   -10774   -10943   -10640   -10058    -9483 
   -9202    -9418   -10118   -11044   -11699   -11623   -10825    -9730 
   -8856    -8506    -8766    -9618   -10705   -11421   -11562   -11269 
  -10592    -9732    -9142    -9138    -9678   -10378   -10847   -10982 
  -10833   -10467    -9960    -9445    -9266    -9629   -10264   -10831 
  -11198   -11249   -10854   -10002    -9057    -8677    -9138   -10069 
  -10941   -11472   -11577   -11196   -10399    -9551    -9046    -8951 
   -9205    -9826   -10647   -11276   -11445   -11141   -10539    -9902 
   -9467    -9352    -9536    -9952   -10481   -10866   -10928   -10795 
  -10579   -10230    -9836    -9641    -9715    -9931   -10188   -10390 
  -10385   -10164   -10003   -10131   -10393   -10484   -10336   -10104 
   -9917    -9841    -9922   -10098   -10206   -10107    -9864    -9790 
  -10075   -10462   -10659   -10694   -10669   -10548   -10291   -10027 
   -9929    -9884    -9711    -9560    -9732   -10265   -10847   -11117 
  -11076   -10908   -10575   -10050    -9545    -9281    -9332    -9657 
  -10216   -10964   -11547   -11465   -10800   -10085    -9540    -9123 
   -9036    -9481   -10210   -10791   -11061   -11026   -10665   -10044 
   -9431    -9132    -9309    -9884   -10577   -11119   -11344   -11064 
  -10303    -9506    -9096    -9128    -9553   -10316   -11129   -11534 
  -11267   -10585   -10054    -9860    -9693    -9499    -9612   -10060 
  -10417   -10354   -10065    -9918    -9958   -10130   -10451   -10766 
  -10914   -10862   -10525    -9876    -9134    -8764    -9055    -9720 
  -10362   -10990   -11612   -11908   -11514   -10484    -9390    -8795 
   -8779    -9150    -9811   -10678   -11396   -11503   -10953   -10208 
   -9709    -9521    -9535    -9772   -10243   -10652   -10698   -10493 
  -10324   -10253   -10165    -9995    -9857    -9913   -10133   -10335 
  -10362   -10258   -10272   -10470   -10558   -10369   -10127    -9995 
   -9849    -9679    -9722   -10065   -10503   -10816   -10921   -10795 
  -10507   -10138    -9722    -9425    -9501    -9956   -10548   -10972 
  -11068   -10913   -10559   -10004    -9451    -9169    -9242    -9576 
  -10021   -10467   -10841   -11025   -10948   -10586   -10011    -9516 
   -9317    -9320    -9502   -10042   -10825   -11349   -11327   -10963 
  -10471    -9871    -9289    -8974    -9139    -9868   -10845   -11541 
  -11753   -11481   -10709    -9679    -8874    -8629    -9001    -9803 
  -10631   -11134   -11222   -10986   -10578   -10099    -9641    -9409 
   -9498    -9729    -9949   -10212   -10494   -10593   -10446   -10212 
  -10011    -9904    -9991   -10237   -10458   -10570   -10582   -10515 
  -10469   -10485   -10407   -10243   -10227   -10257    -9990    -9514 
   -9263    -9478   -10065   -10727   -11211   -11398   -11183   -10571 
   -9763    -9103    -8897    -9139    -9632   -10238   -10800   -11129 
  -11148   -10860   -10368    -9860    -9502    -9418    -9630   -10004 
  -10405   -10737   -10875   -10783   -10535   -10199    -9860    -9620 
   -9559    -9725   -10071   -10443   -10732   -10878   -10827   -10557 
  -10089    -9580    -9274    -9316    -9649   -10081   -10488   -10879 
  -11130   -11051   -10710   -10304    -9953    -9728    -9644    -9701 
   -9938   -10324   -10686   -10859   -10832   -10662   -10343    -9884 
   -9437    -9255    -9505   -10077   -10616   -10820   -10752   -10638 
  -10461   -10150    -9845    -9741    -9863   -10029   -10085   -10129 
  -10331   -10611   -10714   -10559   -10303   -10042    -9726    -9486 
   -9616   -10065   -10436   -10562   -10581   -10516   -10278    -9950 
   -9749    -9821   -10135   -10415   -10417   -10300   -10358   -10486 
  -10347    -9988    -9828   -10041   -10359   -10504   -10438   -10255 
  -10071    -9927    -9836    -9860   -10025   -10231   -10423   -10627 
  -10764   -10625   -10160    -9695    -9586    -9806   -10133   -10484 
  -10825   -10976   -10751   -10242    -9846    -9844   -10041   -10114 
  -10135   -10345   -10609   -10552   -10088    -9566    -9324    -9408 
   -9791   -10427   -11067   -11368   -11145   -10547    -9937    -9508 
   -9232    -9169    -9462   -10083   -10789   -11294   -11431   -11169 
  -10538    -9774    -9278    -9208    -9455    -9940   -10515   -10944 
