Origin Time       2024/06/23 22:54:00
Lat.              35.645
Long.             140.060
Depth. (km)       72
Mag.              4.1
Station Code      IBRH08
Station Lat.      36.1188
Station Long.     140.5621
Station Height(m) 40
Record Time       2024/06/23 22:54:49
Sampling Freq(Hz) 100Hz
Duration Time(s)  120
Dir.              5
Scale Factor      7845(gal)/8223790
Max. Acc. (gal)   1.936
Last Correction   2024/06/23 22:54:49
Memo.             
[...]
   -2070    -2035    -1979    -2014    -2143    -2214    -2191    -2096 
   -1968    -1939    -1991    -2015    -2093    -2199    -2161    -2080 
   -2101    -2066    -1949    -1946    -2031    -2116    -2251    -2324 
   -2187    -1979    -1873    -1871    -1960    -2118    -2205    -2164 
   -2091    -2033    -1983    -2025    -2155    -2176    -2074    -2041 
   -2072    -2092    -2114    -2089    -2025    -2025    -2057    -2037 
   -2034    -2099    -2111    -2047    -2093    -2222    -2188    -2022 
   -1926    -1926    -2022    -2174    -2214    -2135    -2095    -2080 
   -2031    -2015    -2029    -2007    -1999    -2074    -2168    -2169 
   -2099    -2046    -2022    -1989    -1984    -2037    -2112    -2204 
   -2281    -2230    -2084    -2015    -1991    -1863    -1802    -1995 
   -2184    -2200    -2222    -2218    -2076    -1973    -1998    -2030 
   -2081    -2146    -2110    -2061    -2103    -2030    -1848    -1906 
   -2162    -2278    -2254    -2193    -2092    -2029    -1980    -1850 
   -1794    -1968    -2199    -2268    -2226    -2220    -2235    -2141 
   -1949    -1817    -1823    -1944    -2135    -2293    -2272    -2111 
   -1980    -1949    -1992    -2066    -2118    -2126    -2126    -2122 
   -2095    -2088    -2083    -2020    -1984    -2022    -2060    -2070 
   -2047    -2039    -2137    -2226    -2154    -2045    -2007    -1942 
   -1925    -2077    -2191    -2139    -2130    -2128    -1972    -1879 
   -2025    -2174    -2168    -2133    -2119    -2023    -1908    -1944 
   -2096    -2245    -2293    -2173    -2031    -2029    -2012    -1934 
   -2034    -2220    -2158    -1958    -1896    -1927    -1999    -2137 
   -2209    -2196    -2216    -2187    -2016    -1898    -1989    -2139 
   -2201    -2196    -2099    -1956    -1941    -2029    -2084    -2147 
   -2191    -2104    -1937    -1792    -1784    -1975    -2208    -2346 
   -2377    -2255    -2038    -1902    -1895    -1968    -2079    -2181 
   -2192    -2106    -2069    -2085    -2010    -1953    -2023    -2041 
   -2018    -2124    -2184    -2039    -1957    -2115    -2303    -2313 
   -2187    -2053    -1949    -1876    -1906    -2008    -2053    -2043 
   -2002    -1939    -2022    -2246    -2374    -2339    -2200    -1975 
   -1806    -1864    -2023    -2101    -2182    -2258    -2154    -1991 
   -1918    -1850    -1873    -2058    -2219    -2297    -2342    -2332 
   -2231    -1995    -1782    -1798    -1914    -2012    -2154    -2207 
   -2124    -2120    -2170    -2122    -2083    -2126    -2080    -1908 
   -1821    -1902    -2025    -2145    -2262    -2284    -2223    -2149 
   -2027    -1903    -1958    -2177    -2281    -2177    -2070    -2019 
   -1922    -1837    -1836    -1863    -1964    -2250    -2512    -2447 
   -2228    -2114    -1972    -1772    -1707    -1780    -1944    -2216 
   -2434    -2446    -2312    -2088    -1904    -1834    -1782    -1894 
   -2232    -2373    -2141    -1891    -1894    -2070    -2215    -2276 
   -2331    -2282    -2065    -1865    -1734    -1674    -1856    -2164 
   -2277    -2187    -1988    -1833    -1949    -2131    -2161    -2303 
   -2513    -2419    -2097    -1873    -1849    -1944    -2046    -2088 
   -2042    -1988    -1979    -1907    -1856    -2029    -2303    -2509 
   -2598    -2404    -2025    -1841    -1894    -1934    -1867    -1800 
   -1863    -2004    -2103    -2145    -2139    -2128    -2176    -2196 
   -2099    -1962    -1881    -1915    -2085    -2278    -2344    -2246 
   -2087    -2030    -1981    -1826    -1849    -2145    -2300    -2192 
   -2107    -2084    -2003    -1942    -1930    -1857    -1823    -2002 
   -2231    -2295    -2277    -2339    -2473    -2451    -2120    -1779 
   -1723    -1825    -1939    -2002    -1961    -1966    -1977    -1840 
   -1877    -2227    -2486    -2552    -2513    -2247    -1927    -1776 
   -1632    -1541    -1782    -2228    -2593    -2725    -2523    -2114 
   -1760    -1543    -1561    -1876    -2212    -2354    -2377    -2301 
   -2095    -1896    -1864    -1954    -2037    -2095    -2170    -2265 
   -2316    -2215    -1984    -1803    -1741    -1738    -1780    -1910 
   -2116    -2313    -2420    -2452    -2450    -2369    -2196    -2023 
   -1854    -1679    -1661    -1834    -2045    -2219    -2253    -2151 
   -2091    -2049    -2030    -2123    -2114    -1950    -1923    -2018 
   -2076    -2150    -2268    -2327    -2232    -2062    -2006    -2065 
   -2115    -2095    -2003    -1935    -1992    -2120    -2172    -2079 
   -1976    -2015    -2123    -2155    -2097    -2015    -2006    -2147 
   -2381    -2424    -2150    -1849    -1711    -1603    -1559    -1779 
   -2184    -2525    -2659    -2496    -2101    -1809    -1790    -1838 
   -1925    -2119    -2193    -2141    -2200    -2236    -2103    -1952 
   -1887    -1929    -2033    -2083    -2137    -2312    -2423    -2220 
   -1865    -1698    -1815    -2057    -2180    -2131    -2124    -2222 
   -2151    -1883    -1737    -1818    -2031    -2331    -2471    -2304 
   -2110    -2087    -2103    -2066    -2039    -2091    -2133    -2073 
   -1998    -1941    -1898    -1950    -2002    -1900    -1834    -1930 
   -2002    -2060    -2257    -2471    -2582    -2566    -2308    -1937 
   -1759    -1771    -1846    -1946    -2008    -2054    -2120    -2099 
   -1984    -1945    -2030    -2143    -2191    -2151    -2131    -2220 
   -2315    -2311    -2243    -2150    -2115    -2203    -2188    -1944 
   -1775    -1775    -1736    -1698    -1759    -1927    -2199    -2419 
   -2462    -2396    -2259    -2088    -1906    -1752    -1765    -1964 
   -2201    -2363    -2344    -2173    -2018    -1885    -1796    -1852 
   -1933    -2025    -2249    -2382    -2253    -2053    -1939    -1949 
   -2054    -2147    -2197    -2242    -2268    -2150    -1892    -1742 
   -1810    -1935    -1992    -1984    -1987    -2062    -2214    -2366 
   -2394    -2277    -2124    -2023    -1973    -1894    -1822    -1918 
   -2116    -2266    -2389    -2386    -2155    -1861    -1645    -1648 
   -1992    -2358    -2412    -2277    -2073    -1865    -1877    -2128 
   -2323    -2317    -2200    -1968    -1713    -1696    -1880    -2061 
   -2161    -2104    -1995    -2072    -2234    -2292    -2316    -2286 
   -2074    -1809    -1710    -1802    -2015    -2269    -2451    -2519 
   -2474    -2274    -1958    -1750    -1775    -1880    -1991    -2123 
   -2142    -2016    -1927    -1983    -2149    -2288    -2305    -2299 
   -2316    -2220    -1995    -1848    -1921    -2076    -2097    -2019 
   -2007    -2042    -2042    -2011    -1985    -2004    -2054    -2092 
   -2118    -2100    -2035    -2012    -2023    -2038    -2153    -2357 
   -2512    -2527    -2311    -1941    -1695    -1599    -1528    -1574 
   -1745    -1869    -1957    -2116    -2316    -2502    -2624    -2542 
   -2255    -1993    -1880    -1838    -1788    -1726    -1767    -1969 
   -2220    -2443    -2567    -2448    -2184    -1912    -1652    -1671 
   -2057    -2350    -2347    -2236    -2003    -1653    -1468    -1557 
   -1814    -2181    -2538    -2728    -2740    -2573    -2269    -1933 
   -1597    -1460    -1687    -1931    -1984    -2149    -2438    -2512 
   -2370    -2185    -1954    -1775    -1757    -1761    -1791    -1965 
   -2155    -2316    -2521    -2531    -2203    -1827    -1667    -1748 
   -1942    -2054    -2119    -2290    -2354    -2120    -1899    -1938 
   -2130    -2353    -2423    -2222    -1921    -1679    -1568    -1686 
   -1957    -2247    -2525    -2675    -2544    -2165    -1791    -1699 
   -1868    -2034    -2053    -1981    -1919    -1915    -1946    -2006 
   -2164    -2415    -2493    -2265    -2039    -2008    -2000    -1931 
   -1912    -2038    -2177    -2056    -1803    -1833    -2079    -2215 
   -2276    -2371    -2351    -2170    -2016    -1929    -1846    -1858 
   -1956    -2000    -1980    -1931    -1852    -1875    -2068    -2204 
   -2157    -2110    -2180    -2203    -2062    -1918    -1956    -2168 
   -2386    -2434    -2342    -2230    -2058    -1842    -1768    -1881 
   -2084    -2296    -2363    -2173    -1902    -1799    -1844    -1957 
   -2168    -2315    -2224    -2074    -2002    -1950    -1996    -2189 
   -2390    -2443    -2236    -1815    -1466    -1440    -1706    -2054 
   -2365    -2573    -2604    -2452    -2205    -2023    -2004    -2053 
   -2106    -2218    -2289    -2168    -1958    -1845    -1845    -1887 
   -1914    -1883    -1844    -1875    -1908    -2004    -2344    -2713 
   -2724    -2393    -1944    -1599    -1563    -1792    -2096    -2359 
   -2462    -2326    -2047    -1765    -1597    -1688    -2034    -2396 
   -2632    -2705    -2533    -2207    -1887    -1568    -1318    -1371 
   -1702    -1993    -2147    -2326    -2469    -2450    -2385    -2272 
   -2004    -1756    -1680    -1698    -1806    -2007    -2214    -2407 
   -2508    -2349    -2095    -2103    -2249    -2204    -2089    -2124 
   -2197    -2218    -2130    -1868    -1656    -1675    -1806    -1945 
   -2045    -2142    -2319    -2417    -2288    -2049    -1856    -1849 
   -1942    -1806    -1524    -1551    -1856    -2081    -2269    -2533 
   -2701    -2752    -2794    -2733    -2558    -2342    -1979    -1516 
   -1259    -1259    -1336    -1464    -1692    -1939    -2176    -2452 
   -2637    -2614    -2531    -2440    -2311    -2295    -2369    -2289 
   -2077    -1895    -1706    -1499    -1425    -1525    -1742    -2053 
   -2299    -2342    -2309    -2358    -2465    -2538    -2506    -2350 
   -2142    -1985    -1857    -1715    -1644    -1645    -1702    -1900 
   -2149    -2216    -2138    -2077    -1993    -1850    -1809    -1948 
   -2133    -2219    -2216    -2259    -2324    -2187    -1888    -1738 
   -1809    -1976    -2224    -2470    -2543    -2478    -2311    -1979 
   -1691    -1684    -1749    -1755    -1929    -2212    -2280    -2181 
   -2165    -2222    -2223    -2147    -2069    -2052    -2015    -1894 
   -1883    -2065    -2241    -2317    -2261    -2035    -1863    -1891 
   -1948    -1991    -2120    -2226    -2230    -2241    -2273    -2273 
   -2220    -2110    -1969    -1794    -1618    -1528    -1545    -1765 
   -2193    -2575    -2793    -2832    -2606    -2284    -2052    -1788 
   -1491    -1364    -1464    -1679    -1830    -1815    -1815    -2093 
   -2596    -3025    -3165    -2990    -2613    -2142    -1645    -1343 
   -1424    -1717    -1934    -1972    -1803    -1548    -1506    -1818 
   -2373    -2926    -3105    -2766    -2205    -1656    -1146     -922 
   -1260    -1993    -2713    -3184    -3350    -3180    -2694    -2131 
   -1786    -1640    -1480    -1298    -1219    -1250    -1429    -1910 
   -2629    -3191    -3204    -2717    -2130    -1669    -1389    -1467 
   -1871    -2235    -2270    -1937    -1514    -1382    -1591    -1957 
   -2308    -2505    -2535    -2466    -2347    -2277    -2281    -2155 
   -1852    -1683    -1792    -2035    -2282    -2431    -2463    -2444 
   -2386    -2270    -1991    -1583    -1444    -1680    -1954    -2269 
   -2737    -3025    -2863    -2393    -1903    -1576    -1447    -1545 
   -1858    -2096    -1981    -1655    -1470    -1595    -1945    -2340 
   -2574    -2436    -2037    -1777    -1831    -2047    -2254    -2328 
   -2281    -2238    -2211    -2204    -2274    -2265    -1973    -1539 
   -1306    -1433    -1845    -2432    -3025    -3358    -3230    -2655 
   -2003    -1678    -1599    -1551    -1540    -1482    -1378    -1483 
   -1732    -1911    -2112    -2359    -2520    -2527    -2335    -2045 
   -1813    -1625    -1530    -1675    -2041    -2488    -2851    -2928 
   -2648    -2241    -2016    -2008    -2043    -2060    -2022    -1853 
   -1640    -1547    -1657    -1979    -2296    -2332    -2154    -1980 
   -1873    -1931    -2201    -2454    -2425    -2127    -1765    -1506 
   -1497    -1842    -2339    -2673    -2763    -2619    -2320    -2092 
   -2019    -2080    -2270    -2455    -2527    -2471    -2211    -1829 
   -1543    -1368    -1312    -1458    -1705    -1863    -1917    -1966 
   -2087    -2313    -2528    -2474    -2162    -1873    -1722    -1802 
   -2222    -2671    -2764    -2516    -2068    -1602    -1414    -1672 
   -2284    -2905    -3119    -2859    -2412    -1956    -1449    -1000 
    -834    -1053    -1603    -2199    -2581    -2797    -2797    -2448 
   -1991    -1699    -1601    -1669    -1854    -2038    -2130    -2146 
   -2166    -2141    -2050    -2096    -2370    -2727    -2960    -2874 
   -2489    -2047    -1609    -1128     -839    -1005    -1557    -2232 
   -2739    -2871    -2745    -2585    -2324    -1975    -1849    -2058 
   -2358    -2508    -2465    -2366    -2215    -1799    -1237     -915 
    -896    -1189    -1876    -2562    -2756    -2606    -2373    -2068 
   -1891    -2033    -2331    -2575    -2631    -2381    -1983    -1782 
   -1782    -1745    -1773    -2008    -2219    -2286    -2295    -2177 
   -1965    -1881    -1881    -1788    -1729    -1823    -1864    -1829 
   -2004    -2415    -2806    -2970    -2764    -2285    -1830    -1528 
   -1413    -1572    -1960    -2334    -2450    -2259    -1934    -1714 
   -1717    -1868    -2035    -2191    -2285    -2158    -1863    -1692 
   -1811    -2174    -2567    -2724    -2643    -2492    -2309    -2137 
   -2034    -1979    -2022    -2108    -1950    -1561    -1297    -1290 
   -1391    -1433    -1383    -1429    -1719    -2120    -2489    -2890 
   -3341    -3705    -3824    -3496    -2628    -1540     -687     -203 
     -43     -253     -831    -1586    -2295    -2839    -3206    -3393 
   -3373    -3164    -2812    -2358    -1979    -1818    -1741    -1676 
   -1806    -2135    -2363    -2342    -2269    -2296    -2326    -2308 
   -2269    -2241    -2281    -2232    -1937    -1656    -1620    -1707 
   -1827    -1895    -1791    -1624    -1518    -1448    -1440    -1563 
   -1822    -2124    -2369    -2547    -2659    -2656    -2519    -2307 
   -2110    -1969    -1966    -2170    -2393    -2404    -2224    -1927 
   -1590    -1414    -1491    -1755    -2100    -2343    -2343    -2153 
   -1903    -1752    -1788    -2022    -2443    -2936    -3281    -3310 
   -2995    -2424    -1737    -1177     -965    -1070    -1370    -1803 
   -2218    -2419    -2424    -2417    -2486    -2578    -2587    -2440 
   -2226    -2088    -2068    -2139    -2200    -2118    -1927    -1678 
   -1358    -1208    -1420    -1755    -2014    -2236    -2347    -2241 
   -1979    -1726    -1634    -1707    -1858    -2127    -2474    -2631 
   -2523    -2381    -2286    -2246    -2363    -2540    -2586    -2470 
   -2197    -1892    -1767    -1814    -1984    -2261    -2420    -2305 
   -2054    -1844    -1767    -1861    -2018    -2074    -1981    -1753 
   -1510    -1378    -1294    -1293    -1560    -1944    -2165    -2295 
   -2451    -2578    -2629    -2501    -2161    -1836    -1645    -1513 
   -1530    -1787    -2139    -2451    -2749    -3019    -3127    -3033 
   -2816    -2525    -2197    -1894    -1715    -1682    -1628    -1475 
   -1328    -1255    -1309    -1521    -1814    -2095    -2288    -2367 
   -2371    -2328    -2269    -2184    -1992    -1784    -1672    -1564 
   -1487    -1598    -1867    -2193    -2533    -2767    -2808    -2751 
   -2659    -2469    -2226    -2029    -1872    -1752    -1736    -1891 
   -2207    -2521    -2668    -2697    -2625    -2338    -1971    -1826 
   -1907    -2022    -2154    -2312    -2297    -2020    -1663    -1366 
   -1260    -1494    -1929    -2311    -2602    -2772    -2686    -2354 
   -1952    -1653    -1611    -1890    -2282    -2436    -2191    -1698 
   -1240    -1015    -1150    -1678    -2326    -2806    -3100    -3179 
   -2983    -2581    -2089    -1674    -1449    -1368    -1347    -1350 
   -1494    -1921    -2393    -2617    -2686    -2689    -2525    -2203 
   -1787    -1421    -1371    -1655    -1954    -2042    -2006    -2015 
   -2068    -2115    -2249    -2467    -2529    -2305    -2033    -1927 
   -1933    -1999    -2112    -2184    -2218    -2227    -2112    -1926 
   -1858    -1872    -1881    -1975    -2142    -2268    -2292    -2150 
   -1898    -1725    -1642    -1597    -1748    -2158    -2577    -2806 
   -2817    -2602    -2245    -1908    -1746    -1804    -1899    -1833 
   -1655    -1536    -1594    -1775    -2035    -2457    -2897    -3045 
   -2870    -2501    -2039    -1713    -1702    -1908    -2193    -2462 
   -2471    -2160    -1837    -1721    -1804    -2035    -2282    -2416 
   -2362    -2085    -1757    -1587    -1567    -1633    -1783    -1956 
   -2064    -2146    -2359    -2745    -3125    -3279    -3055    -2394 
   -1539     -864     -558     -707    -1302    -2047    -2575    -2775 
   -2675    -2355    -1968    -1682    -1648    -1849    -2052    -2111 
   -2056    -1880    -1678    -1687    -1942    -2231    -2416    -2497 
   -2446    -2211    -1898    -1706    -1669    -1757    -2015    -2328 
   -2485    -2552    -2598    -2458    -2178    -1979    -1869    -1804 
   -1769    -1796    -2025    -2370    -2515    -2442    -2315    -2131 
   -1966    -1962    -2065    -2212    -2369    -2388    -2215    -1906 
   -1579    -1507    -1783    -2123    -2350    -2517    -2556    -2358 
   -1961    -1501    -1146    -1036    -1170    -1383    -1572    -1783 
   -1993    -2191    -2505    -2899    -3160    -3234    -3152    -2871 
   -2427    -2004    -1776    -1745    -1830    -1958    -2020    -2012 
   -1988    -1904    -1837    -1975    -2242    -2447    -2521    -2362 
   -1900    -1345    -1016    -1009    -1275    -1740    -2216    -2497 
   -2547    -2475    -2377    -2262    -2235    -2388    -2525    -2484 
   -2386    -2312    -2188    -2006    -1826    -1705    -1721    -1918 
   -2193    -2412    -2531    -2485    -2254    -2020    -1939    -1984 
   -2099    -2215    -2172    -1864    -1440    -1112     -954    -1039 
   -1414    -1961    -2489    -2803    -2837    -2724    -2529    -2262 
   -2089    -2079    -2056    -1903    -1744    -1691    -1710    -1846 
   -2118    -2301    -2317    -2355    -2403    -2316    -2212    -2300 
   -2523    -2617    -2412    -1991    -1601    -1468    -1660    -2074 
   -2515    -2713    -2513    -2068    -1622    -1273    -1109    -1247 
   -1707    -2330    -2731    -2658    -2349    -2070    -1769    -1547 
   -1659    -2053    -2490    -2767    -2728    -2442    -2122    -1768 
   -1437    -1412    -1606    -1695    -1782    -2056    -2421    -2732 
   -2814    -2609    -2254    -1825    -1429    -1332    -1630    -2185 
   -2759    -3052    -2918    -2513    -2083    -1782    -1656    -1713 
   -1944    -2224    -2286    -2074    -1838    -1725    -1722    -1860 
   -2104    -2323    -2376    -2180    -1914    -1817    -1768    -1656 
   -1687    -1907    -2104    -2197    -2263    -2374    -2502    -2521 
   -2417    -2254    -1977    -1648    -1524    -1622    -1742    -1856 
   -1988    -2052    -1999    -1863    -1741    -1779    -2010    -2326 
   -2604    -2732    -2629    -2313    -1917    -1659    -1694    -1985 
   -2361    -2629    -2690    -2609    -2508    -2419    -2296    -2149 
   -2049    -2015    -2046    -2135    -2191    -2065    -1761    -1458 
   -1243    -1094    -1090    -1341    -1777    -2172    -2353    -2365 
   -2297    -2155    -1968    -1875    -2034    -2354    -2525    -2554 
   -2673    -2727    -2493    -2143    -1841    -1615    -1590    -1779 
