Origin Time       2024/06/23 22:54:00
Lat.              35.645
Long.             140.060
Depth. (km)       72
Mag.              4.1
Station Code      IBRH07
Station Lat.      35.9521
Station Long.     140.3301
Station Height(m) 3
Record Time       2024/06/23 22:54:36
Sampling Freq(Hz) 100Hz
Duration Time(s)  120
Dir.              6
Scale Factor      7845(gal)/8223790
Max. Acc. (gal)   4.622
Last Correction   2024/06/23 22:54:36
Memo.             
[...]
   17103    17100    17093    17091    17096    17100    17107    17111 
   17101    17095    17096    17097    17101    17103    17096    17095 
   17101    17104    17103    17100    17096    17093    17097    17103 
   17104    17103    17103    17099    17099    17095    17091    17101 
   17111    17104    17096    17091    17089    17097    17104    17105 
   17105    17101    17097    17103    17104    17099    17096    17100 
   17104    17107    17104    17100    17101    17103    17100    17103 
   17103    17100    17104    17105    17104    17104    17096    17088 
   17099    17107    17108    17109    17105    17097    17096    17097 
   17099    17104    17107    17108    17104    17095    17095    17103 
   17104    17104    17104    17100    17097    17103    17101    17097 
   17100    17100    17096    17103    17111    17107    17101    17099 
   17100    17104    17099    17095    17107    17113    17104    17097 
   17097    17101    17108    17107    17101    17100    17100    17103 
   17105    17103    17097    17099    17100    17103    17105    17097 
   17100    17107    17104    17101    17099    17093    17099    17108 
   17107    17103    17100    17096    17097    17101    17103    17105 
   17107    17101    17095    17095    17097    17101    17107    17108 
   17103    17100    17101    17101    17100    17101    17105    17104 
   17103    17107    17105    17103    17101    17095    17095    17104 
   17108    17103    17100    17100    17096    17095    17095    17096 
   17107    17112    17104    17095    17092    17095    17104    17112 
   17109    17101    17100    17096    17092    17101    17108    17107 
   17108    17101    17095    17096    17099    17103    17107    17103 
   17100    17100    17092    17093    17099    17100    17103    17104 
   17103    17101    17099    17097    17100    17103    17105    17105 
   17103    17100    17099    17099    17100    17104    17101    17101 
   17105    17100    17093    17093    17096    17101    17104    17103 
   17097    17095    17099    17103    17101    17097    17099    17104 
   17103    17096    17095    17099    17105    17112    17109    17097 
   17093    17099    17100    17105    17109    17104    17100    17099 
   17091    17096    17111    17111    17105    17103    17097    17095 
   17097    17100    17108    17113    17105    17095    17091    17097 
   17109    17107    17100    17103    17103    17097    17099    17104 
   17104    17103    17100    17099    17100    17099    17100    17108 
   17109    17101    17097    17096    17100    17103    17100    17100 
   17103    17103    17101    17104    17105    17103    17101    17101 
   17103    17103    17100    17099    17101    17101    17100    17103 
   17105    17100    17096    17096    17097    17104    17109    17103 
   17097    17100    17099    17101    17105    17101    17101    17101 
   17096    17099    17099    17101    17108    17103    17096    17099 
   17097    17097    17101    17100    17101    17107    17103    17099 
   17097    17093    17099    17108    17101    17097    17104    17100 
   17096    17097    17096    17101    17109    17101    17093    17095 
   17093    17099    17107    17105    17101    17096    17096    17103 
   17104    17103    17101    17097    17100    17103    17105    17111 
   17101    17096    17100    17096    17097    17108    17109    17107 
   17099    17091    17095    17101    17105    17109    17104    17099 
   17100    17099    17100    17107    17101    17099    17109    17107 
   17099    17100    17092    17089    17105    17112    17109    17104 
   17092    17091    17101    17104    17105    17108    17103    17096 
   17099    17101    17101    17104    17104    17100    17097    17093 
   17097    17112    17113    17103    17096    17092    17096    17105 
   17109    17107    17096    17088    17097    17105    17105    17107 
   17103    17095    17097    17104    17104    17105    17105    17100 
   17096    17095    17097    17105    17112    17105    17096    17093 
   17092    17097    17107    17107    17101    17095    17089    17093 
   17103    17105    17103    17099    17097    17099    17101    17101 
   17104    17103    17097    17099    17105    17104    17103    17101 
   17095    17095    17100    17101    17105    17109    17104    17095 
   17092    17092    17099    17105    17105    17103    17100    17093 
   17096    17105    17107    17105    17101    17099    17104    17111 
   17104    17096    17099    17101    17101    17103    17100    17099 
   17103    17107    17107    17105    17099    17092    17097    17105 
   17107    17105    17101    17101    17108    17107    17101    17101 
   17097    17100    17109    17109    17104    17097    17092    17097 
   17104    17105    17105    17103    17100    17101    17097    17095 
   17100    17104    17108    17109    17104    17095    17095    17100 
   17103    17108    17108    17101    17100    17103    17100    17100 
   17100    17096    17097    17103    17103    17100    17097    17095 
   17100    17107    17104    17100    17100    17101    17101    17103 
   17104    17103    17101    17100    17100    17099    17101    17109 
   17108    17101    17097    17095    17100    17109    17111    17105 
   17097    17091    17093    17105    17109    17107    17108    17103 
   17091    17092    17100    17105    17111    17109    17101    17095 
   17091    17095    17103    17103    17103    17104    17097    17095 
   17103    17101    17096    17103    17104    17101    17104    17103 
   17096    17095    17096    17101    17105    17105    17105    17109 
   17104    17095    17092    17096    17105    17113    17105    17093 
   17092    17092    17100    17113    17109    17101    17097    17092 
   17097    17104    17104    17103    17103    17096    17097    17104 
   17103    17104    17109    17104    17099    17099    17096    17099 
   17104    17103    17100    17100    17097    17099    17100    17097 
   17096    17099    17101    17103    17105    17100    17093    17096 
   17097    17103    17109    17104    17097    17096    17096    17101 
   17104    17101    17101    17104    17105    17103    17099    17093 
   17093    17100    17103    17103    17103    17100    17097    17099 
   17100    17105    17107    17101    17101    17104    17099    17099 
   17103    17103    17104    17103    17096    17095    17100    17105 
   17108    17104    17096    17099    17101    17100    17104    17104 
   17101    17105    17105    17099    17100    17103    17097    17101 
   17107    17104    17103    17103    17099    17101    17103    17101 
   17097    17093    17096    17104    17105    17100    17099    17099 
   17099    17103    17105    17103    17104    17108    17103    17099 
   17099    17101    17105    17104    17095    17096    17104    17107 
   17107    17105    17099    17097    17099    17101    17109    17109 
   17101    17096    17095    17099    17104    17104    17105    17105 
   17100    17097    17099    17101    17108    17109    17103    17095 
   17091    17093    17107    17116    17111    17095    17088    17091 
   17101    17112    17112    17104    17100    17095    17093    17100 
   17101    17101    17111    17109    17100    17097    17097    17099 
   17105    17101    17096    17103    17104    17100    17101    17096 
   17091    17099    17105    17107    17109    17103    17095    17099 
   17100    17100    17099    17096    17103    17109    17105    17104 
   17107    17100    17096    17100    17101    17101    17107    17105 
   17100    17097    17096    17099    17101    17100    17101    17107 
   17107    17101    17100    17097    17095    17097    17104    17109 
   17109    17101    17095    17096    17097    17104    17111    17107 
   17101    17101    17099    17099    17103    17103    17104    17107 
   17100    17095    17099    17103    17108    17113    17108    17100 
   17100    17101    17105    17107    17105    17105    17105    17101 
   17099    17100    17101    17103    17107    17107    17101    17100 
   17100    17101    17104    17103    17100    17101    17101    17100 
   17103    17104    17103    17099    17095    17099    17107    17107 
   17103    17101    17095    17095    17104    17105    17103    17101 
   17092    17093    17100    17104    17105    17103    17099    17101 
   17097    17096    17103    17107    17105    17103    17096    17092 
   17097    17101    17104    17108    17101    17092    17093    17101 
   17104    17104    17100    17095    17095    17097    17099    17104 
   17105    17101    17100    17103    17100    17101    17103    17099 
   17101    17100    17096    17096    17097    17100    17111    17109 
   17096    17093    17097    17100    17101    17099    17099    17101 
   17101    17099    17097    17096    17097    17104    17105    17104 
   17105    17104    17100    17097    17099    17101    17103    17104 
   17103    17104    17105    17101    17097    17095    17099    17105 
   17105    17103    17101    17099    17097    17099    17099    17099 
   17104    17105    17100    17099    17099    17097    17101    17107 
   17107    17105    17104    17101    17103    17100    17097    17103 
   17107    17104    17105    17104    17100    17100    17100    17101 
   17101    17099    17100    17104    17101    17100    17101    17099 
   17099    17105    17107    17101    17103    17105    17105    17107 
   17107    17100    17101    17101    17097    17099    17103    17099 
   17099    17105    17104    17097    17093    17095    17101    17107 
   17107    17104    17101    17099    17099    17099    17103    17109 
   17105    17100    17100    17095    17095    17100    17101    17100 
   17099    17095    17096    17103    17100    17096    17099    17097 
   17095    17099    17101    17103    17101    17097    17097    17097 
   17097    17100    17103    17101    17099    17100    17100    17099 
   17104    17103    17097    17099    17101    17100    17101    17101 
   17099    17099    17096    17097    17100    17097    17099    17103 
   17100    17100    17104    17100    17099    17101    17099    17099 
   17101    17099    17099    17103    17100    17096    17092    17095 
   17107    17109    17101    17096    17095    17093    17096    17104 
   17105    17105    17107    17101    17093    17095    17103    17107 
   17107    17105    17104    17100    17096    17100    17104    17104 
   17103    17099    17096    17099    17104    17107    17104    17100 
   17095    17097    17105    17107    17107    17105    17101    17103 
   17104    17100    17104    17108    17101    17101    17105    17103 
   17101    17105    17105    17105    17108    17103    17101    17104 
   17104    17104    17103    17097    17103    17109    17107    17101 
   17099    17097    17100    17104    17103    17103    17105    17107 
   17105    17097    17095    17103    17109    17109    17107    17101 
   17099    17101    17104    17103    17103    17101    17099    17103 
   17108    17108    17105    17096    17093    17099    17103    17104 
   17107    17103    17100    17101    17099    17097    17104    17107 
   17103    17100    17099    17099    17101    17108    17107    17101 
   17096    17096    17101    17107    17108    17104    17096    17093 
   17097    17103    17108    17111    17105    17099    17097    17099 
   17100    17104    17105    17104    17101    17099    17096    17101 
   17108    17108    17104    17097    17093    17096    17099    17099 
   17103    17104    17100    17096    17096    17097    17103    17107 
   17107    17105    17100    17096    17100    17103    17103    17105 
   17101    17099    17101    17100    17097    17100    17100    17099 
   17103    17103    17099    17099    17101    17104    17104    17099 
   17096    17100    17101    17103    17105    17101    17099    17104 
   17104    17103    17107    17103    17100    17104    17104    17099 
   17099    17100    17103    17107    17107    17103    17099    17096 
   17097    17104    17104    17103    17105    17105    17099    17093 
   17093    17099    17105    17107    17104    17101    17099    17099 
   17103    17107    17104    17103    17104    17105    17103    17099 
   17097    17097    17100    17103    17103    17099    17096    17099 
   17100    17100    17100    17097    17100    17101    17099    17100 
   17100    17095    17097    17108    17104    17097    17101    17101 
   17103    17108    17105    17100    17097    17095    17099    17107 
   17103    17099    17100    17099    17096    17095    17093    17100 
   17103    17099    17099    17096    17093    17103    17105    17099 
   17097    17099    17096    17100    17101    17097    17099    17100 
   17100    17100    17096    17095    17099    17101    17100    17097 
   17096    17096    17100    17100    17097    17099    17096    17097 
   17103    17103    17096    17095    17097    17100    17107    17107 
   17096    17093    17097    17099    17101    17105    17107    17113 
   17130    17151    17181    17209    17227    17247    17261    17257 
   17212    17095    16937    16818    16734    16653    16613    16649 
   16822    17118    17412    17779    18106    17992    17857    17999 
   17555    16767    16571    16330    15743    15542    15726    16291 
   17267    17999    18233    17886    17015    16438    16266    16584 
   18102    19599    19815    18825    15824    12476    12256    14816 
   18439    21505    21544    18989    16309    14358    13581    14766 
   17321    19511    20277    19375    17585    16194    15303    15086 
   16019    17378    18461    18604    17355    16152    16001    16256 
   17003    18165    18551    17722    16303    15476    16004    17208 
   18364    19057    18254    16247    15338    16224    17147    17739 
   18584    18258    16615    15701    15493    15593    16748    17960 
   18215    18036    17478    16846    16804    17051    17409    17890 
   17894    17336    16690    16159    16094    16731    17695    18157 
   17710    16978    16262    15801    16360    17566    18512    18782 
   18058    16653    15525    15619    16740    17686    18087    17838 
   16780    16024    16249    16721    17382    18135    18088    17491 
   16918    16316    16291    17135    17879    18063    17899    16983 
   15687    15334    15923    16857    17936    18708    18846    18118 
   16725    15678    15511    16058    17194    18468    18949    18187 
   16669    15383    15236    16268    17737    19033    19350    18161 
   16330    14947    14662    15919    17795    18616    18226    17481 
   16749    16467    16896    17417    17604    17513    17155    16725 
   16459    16475    16915    17552    17706    17269    16891    16798 
   16897    17284    17506    17336    17392    17481    16927    16162 
   16036    16687    17514    17983    18036    17632    16754    15859 
   15735    16634    17925    18860    18794    17447    15807    15169 
   15711    16964    18357    19059    18445    16987    15863    15545 
   15866    16807    18027    18636    18324    17604    16731    15869 
   15610    16266    17505    18463    18436    17680    16718    15936 
   15927    16715    17628    18168    18022    17309    16752    16605 
   16656    16794    16900    17130    17482    17574    17378    17059 
   16852    16969    17228    17383    17319    17068    16683    16335 
   16675    17579    17940    17558    16887    16255    16268    16864 
   17401    17886    18010    17194    16256    16387    17259    17725 
   17458    16939    16564    16474    16591    16857    17473    18230 
   18292    17451    16580    16349    16529    16865    17413    17747 
   17406    16868    16642    16692    17084    17725    18026    17713 
   17091    16483    16114    16231    16893    17504    17613    17552 
   17203    16584    16515    16916    16970    16806    17221    18044 
   18274    17686    16648    15585    15234    15954    17247    18380 
   18935    18767    17774    16502    15951    16109    16579    17290 
   17775    17702    17204    16565    16414    17113    17938    18007 
   17502    16995    16835    17037    17124    17030    17031    17064 
   17031    16807    16425    16232    16488    17050    17631    18076 
   17915    17096    16537    16557    16833    17217    17289    17118 
   17280    17219    16819    17068    17405    17093    16726    16492 
   16831    17952    18608    18301    17437    16424    16239    17034 
   17558    17369    16914    16131    15734    16505    17089    16978 
   17274    17347    16875    17244    17982    17784    17335    17101 
   16637    16671    17601    18211    18081    17583    16644    15907 
   16155    16896    17331    17248    16841    16371    16127    16645 
   17824    18465    18091    17308    16594    16313    16621    17182 
   17539    17386    16862    16474    16575    17205    17896    17884 
   17386    17091    16672    16483    17428    18172    17837    17625 
   17192    16013    15341    15623    16571    17685    18108    18034 
   17712    16973    16438    16425    16665    17167    17697    17921 
   17791    17227    16573    16432    16617    16713    17077    17778 
   17860    17450    17697    17980    17466    16866    16357    15824 
   15965    16910    17767    17860    17282    16432    15850    16089 
   17118    18084    18247    17879    17350    16731    16594    17116 
   17520    17602    17490    16741    16056    16447    17038    17167 
   17140    16960    16941    17290    17635    17949    18139    17545 
   16586    16328    16360    16492    17234    17822    17658    17057 
   16364    16348    17061    17509    17582    17570    17230    16694 
   16278    16245    16802    17442    17853    18088    17779    17199 
   16846    16619    16802    17269    17169    16783    16834    16902 
   16760    17034    17487    17423    17308    17419    17320    17319 
   17454    17186    16815    16771    16930    17126    17149    17000 
   16992    17051    16892    16730    16592    16267    16308    17018 
   17637    17807    17805    17618    17332    17346    17653    17852 
   17718    17313    16810    16349    16152    16281    16483    16707 
   16937    17103    17354    17594    17585    17405    17215    17042 
   16807    16648    16808    17061    17200    17251    17159    17143 
   17172    17135    17432    17722    17616    17543    17211    16644 
   16761    17169    17136    16974    16789    16587    16663    16961 
   17205    17278    17234    17181    17128    16949    16737    16725 
   16757    16837    17274    17928    18319    18007    17172    16417 
   15921    16112    17197    18245    18635    18330    17101    15552 
   15099    15946    17089    17941    18245    17693    16638    16205 
   16784    17478    17890    18117    17703    16833    16364    16461 
   16803    17127    17289    17217    16794    16494    16838    17204 
   17244    17408    17613    17631    17397    16904    16632    16848 
   17163    17428    17662    17520    16997    16642    16649    16784 
   16887    16915    17011    17275    17375    17282    17361    17323 
   16988    16771    16594    16509    16930    17491    17682    17518 
