Origin Time       2024/06/23 22:54:00
Lat.              35.645
Long.             140.060
Depth. (km)       72
Mag.              4.1
Station Code      IBRH19
Station Lat.      36.2137
Station Long.     140.0893
Station Height(m) -34.5
Record Time       2024/06/23 22:54:38
Sampling Freq(Hz) 100Hz
Duration Time(s)  120
Dir.              3
Scale Factor      3923(gal)/8224838
Max. Acc. (gal)   0.342
Last Correction   2024/06/23 22:54:38
Memo.             
[...]
   15618    15614    15614    15619    15620    15616    15615    15615 
   15616    15619    15618    15614    15612    15616    15618    15615 
   15618    15616    15615    15616    15615    15615    15618    15616 
   15616    15620    15618    15614    15615    15618    15616    15618 
   15620    15620    15619    15619    15619    15618    15618    15618 
   15618    15618    15618    15616    15616    15618    15616    15615 
   15618    15619    15619    15618    15618    15616    15615    15616 
   15618    15616    15618    15618    15619    15618    15615    15615 
   15619    15619    15619    15619    15618    15616    15618    15619 
   15618    15616    15615    15618    15620    15618    15615    15618 
   15618    15616    15618    15616    15618    15620    15619    15618 
   15619    15619    15616    15618    15618    15615    15615    15616 
   15619    15619    15618    15616    15618    15619    15619    15619 
   15618    15616    15618    15616    15618    15620    15619    15615 
   15616    15620    15618    15615    15616    15616    15615    15616 
   15619    15619    15616    15618    15620    15616    15612    15616 
   15619    15619    15618    15615    15616    15618    15616    15618 
   15619    15618    15619    15619    15616    15615    15618    15619 
   15618    15618    15616    15615    15616    15616    15615    15616 
   15619    15618    15615    15616    15619    15619    15616    15615 
   15618    15618    15618    15619    15619    15616    15618    15620 
   15619    15618    15619    15619    15616    15615    15616    15618 
   15618    15619    15619    15618    15619    15620    15619    15618 
   15619    15618    15616    15618    15622    15620    15618    15615 
   15614    15615    15616    15618    15618    15616    15616    15616 
   15616    15616    15616    15619    15619    15618    15618    15618 
   15615    15618    15620    15620    15620    15619    15618    15619 
   15618    15618    15620    15620    15616    15616    15616    15618 
   15618    15618    15616    15618    15620    15619    15620    15620 
   15616    15618    15619    15618    15619    15618    15616    15618 
   15618    15616    15619    15619    15616    15618    15620    15618 
   15614    15616    15620    15618    15618    15619    15618    15616 
   15618    15619    15618    15616    15618    15618    15616    15618 
   15619    15618    15618    15619    15619    15618    15618    15619 
   15619    15616    15615    15615    15616    15619    15616    15612 
   15618    15619    15614    15615    15619    15619    15618    15619 
   15619    15618    15622    15622    15616    15618    15620    15618 
   15618    15619    15618    15618    15618    15618    15618    15618 
   15616    15616    15616    15615    15616    15616    15616    15616 
   15616    15618    15619    15616    15614    15616    15619    15618 
   15616    15619    15619    15615    15618    15619    15615    15615 
   15616    15615    15616    15616    15618    15619    15618    15616 
   15616    15619    15619    15616    15616    15616    15614    15615 
   15618    15618    15618    15619    15616    15614    15616    15618 
   15615    15615    15619    15619    15618    15620    15619    15616 
   15616    15616    15618    15620    15619    15618    15618    15619 
   15619    15619    15619    15619    15619    15616    15615    15618 
   15618    15618    15619    15618    15615    15616    15618    15615 
   15614    15618    15618    15618    15620    15618    15614    15616 
   15619    15616    15616    15619    15618    15616    15622    15622 
   15618    15618    15619    15618    15618    15618    15618    15618 
   15619    15620    15622    15619    15615    15616    15619    15619 
   15616    15616    15619    15618    15616    15618    15619    15619 
   15619    15618    15619    15620    15614    15614    15618    15618 
   15616    15618    15619    15622    15618    15616    15619    15619 
   15618    15619    15619    15620    15619    15619    15619    15619 
   15618    15619    15618    15618    15619    15619    15618    15618 
   15618    15618    15618    15618    15619    15618    15616    15620 
   15620    15618    15619    15616    15616    15618    15619    15619 
   15618    15616    15616    15619    15619    15616    15616    15618 
   15616    15616    15618    15616    15618    15620    15620    15620 
   15619    15618    15616    15619    15618    15615    15614    15614 
   15614    15615    15614    15615    15618    15619    15619    15619 
   15619    15618    15616    15619    15619    15618    15616    15616 
   15619    15619    15616    15615    15619    15619    15616    15618 
   15619    15616    15616    15618    15616    15618    15619    15618 
   15616    15615    15616    15619    15619    15616    15616    15618 
   15616    15616    15619    15619    15616    15619    15619    15616 
   15619    15622    15616    15615    15618    15619    15619    15619 
   15616    15618    15616    15615    15619    15618    15615    15616 
   15616    15615    15618    15620    15618    15615    15615    15619 
   15619    15616    15618    15620    15618    15618    15619    15619 
   15618    15616    15616    15615    15615    15618    15618    15616 
   15618    15620    15619    15619    15618    15616    15619    15619 
   15615    15616    15619    15616    15616    15618    15616    15616 
   15616    15615    15614    15616    15622    15619    15618    15620 
   15620    15618    15619    15618    15618    15618    15615    15616 
   15618    15618    15618    15616    15618    15620    15618    15616 
   15616    15616    15620    15620    15618    15620    15619    15615 
   15616    15616    15616    15620    15619    15618    15619    15615 
   15615    15619    15616    15615    15615    15614    15616    15618 
   15616    15616    15616    15616    15616    15616    15619    15619 
   15615    15616    15619    15616    15616    15618    15616    15616 
   15615    15616    15618    15616    15618    15620    15619    15616 
   15615    15615    15615    15618    15619    15619    15616    15616 
   15618    15616    15614    15616    15619    15619    15618    15618 
   15620    15619    15616    15618    15616    15614    15615    15618 
   15619    15618    15618    15618    15618    15618    15618    15620 
   15619    15616    15616    15616    15618    15623    15620    15618 
   15619    15618    15615    15616    15619    15618    15618    15616 
   15614    15615    15616    15618    15619    15618    15615    15619 
   15619    15616    15616    15616    15616    15618    15618    15618 
   15618    15618    15618    15618    15616    15616    15618    15616 
   15616    15618    15618    15616    15618    15618    15616    15616 
   15618    15616    15616    15616    15619    15619    15619    15618 
   15616    15618    15618    15618    15618    15618    15616    15618 
   15618    15618    15620    15622    15619    15618    15618    15619 
   15618    15616    15618    15616    15618    15619    15616    15619 
   15620    15616    15615    15618    15618    15618    15618    15616 
   15616    15619    15620    15618    15614    15616    15620    15618 
   15615    15618    15619    15619    15620    15619    15616    15618 
   15619    15616    15616    15618    15618    15614    15615    15619 
   15622    15618    15614    15615    15618    15616    15616    15618 
   15618    15618    15619    15619    15619    15619    15616    15616 
   15619    15618    15615    15618    15616    15614    15615    15618 
   15618    15618    15616    15616    15616    15616    15616    15616 
   15615    15618    15619    15618    15618    15618    15616    15618 
   15616    15615    15618    15618    15618    15619    15619    15618 
   15618    15616    15619    15619    15616    15616    15618    15619 
   15619    15616    15616    15619    15616    15615    15616    15618 
   15618    15616    15618    15619    15616    15618    15618    15615 
   15616    15616    15616    15618    15616    15618    15618    15614 
   15614    15619    15618    15614    15616    15620    15620    15615 
   15615    15618    15616    15618    15620    15618    15615    15619 
   15619    15616    15616    15616    15615    15618    15616    15615 
   15616    15615    15616    15616    15616    15620    15619    15615 
   15615    15618    15614    15614    15619    15616    15614    15619 
   15619    15614    15616    15620    15619    15616    15618    15618 
   15618    15616    15618    15616    15616    15620    15619    15615 
   15618    15618    15615    15616    15620    15619    15615    15619 
   15619    15614    15614    15618    15616    15616    15619    15618 
   15619    15622    15619    15616    15619    15618    15616    15619 
   15619    15616    15619    15620    15618    15618    15616    15615 
   15616    15619    15618    15619    15619    15616    15619    15619 
   15615    15614    15618    15619    15616    15618    15618    15615 
   15616    15616    15615    15618    15618    15616    15618    15618 
   15615    15618    15618    15615    15615    15618    15616    15618 
   15619    15618    15616    15618    15618    15616    15618    15618 
   15616    15616    15618    15616    15616    15618    15619    15618 
   15616    15616    15619    15619    15615    15618    15620    15616 
   15618    15619    15619    15620    15616    15618    15622    15618 
   15615    15618    15619    15616    15615    15619    15620    15616 
   15614    15616    15619    15620    15618    15615    15616    15619 
   15618    15616    15619    15619    15615    15614    15616    15620 
   15618    15616    15620    15620    15616    15618    15618    15615 
   15618    15619    15619    15619    15616    15616    15618    15618 
   15618    15618    15615    15616    15619    15619    15619    15619 
   15618    15616    15618    15619    15616    15612    15615    15619 
   15616    15616    15619    15619    15618    15618    15616    15618 
   15616    15615    15618    15618    15616    15619    15620    15618 
   15619    15619    15618    15618    15616    15618    15619    15618 
   15619    15620    15618    15616    15619    15619    15618    15619 
   15618    15616    15618    15619    15615    15615    15619    15616 
   15616    15622    15622    15618    15616    15620    15619    15618 
   15620    15616    15614    15615    15615    15615    15616    15616 
   15619    15618    15615    15616    15618    15618    15615    15616 
   15618    15618    15618    15622    15620    15616    15616    15619 
   15619    15618    15615    15614    15616    15618    15618    15616 
   15618    15618    15618    15619    15618    15618    15618    15618 
   15620    15619    15616    15619    15620    15618    15616    15616 
   15615    15616    15618    15616    15618    15616    15618    15618 
   15616    15618    15619    15618    15616    15618    15619    15618 
   15618    15616    15615    15616    15616    15616    15616    15618 
   15620    15619    15616    15616    15618    15620    15619    15616 
   15616    15618    15618    15616    15615    15616    15616    15616 
   15619    15619    15615    15616    15620    15618    15615    15616 
   15619    15619    15619    15619    15618    15615    15615    15618 
   15616    15618    15619    15619    15618    15618    15619    15618 
   15616    15616    15616    15618    15618    15616    15619    15619 
   15615    15616    15619    15618    15618    15618    15616    15616 
   15616    15616    15618    15616    15616    15616    15616    15616 
   15615    15615    15618    15616    15618    15618    15615    15615 
   15616    15618    15618    15618    15615    15615    15616    15616 
   15616    15616    15615    15616    15618    15618    15618    15618 
   15616    15618    15619    15618    15616    15619    15619    15615 
   15615    15619    15619    15618    15618    15618    15616    15616 
   15619    15620    15618    15616    15616    15615    15616    15618 
   15616    15616    15620    15619    15616    15618    15618    15616 
   15616    15616    15619    15619    15619    15618    15615    15619 
   15622    15618    15615    15619    15618    15616    15616    15616 
   15615    15616    15616    15616    15615    15618    15618    15616 
   15616    15616    15618    15620    15619    15618    15619    15616 
   15616    15616    15615    15616    15618    15615    15615    15618 
   15616    15614    15616    15616    15618    15619    15616    15614 
   15616    15618    15616    15616    15618    15619    15618    15615 
   15616    15616    15616    15618    15616    15614    15618    15619 
   15616    15616    15616    15615    15614    15618    15620    15618 
   15615    15616    15615    15615    15618    15618    15618    15620 
   15622    15622    15622    15622    15622    15622    15619    15619 
   15627    15628    15618    15610    15614    15623    15620    15614 
   15606    15581    15561    15599    15669    15678    15637    15614 
   15606    15599    15622    15658    15645    15580    15565    15607 
   15612    15610    15660    15657    15570    15525    15520    15538 
   15689    15873    15889    15719    15430    15267    15338    15464 
   15703    15990    15997    15773    15522    15431    15460    15344 
   15299    15569    15888    15969    15847    15811    15614    15057 
   14955    15553    16098    16245    16073    15611    15067    14899 
   15253    15785    16163    16224    15930    15392    15016    15199 
   15616    15904    16120    15977    15446    15142    15248    15496 
   15715    15847    15951    15876    15576    15423    15372    15330 
   15608    15912    15880    15741    15503    15284    15425    15655 
   15755    15823    15693    15550    15645    15624    15458    15460 
   15547    15614    15668    15720    15801    15743    15596    15624 
   15631    15539    15591    15574    15417    15506    15692    15712 
   15719    15712    15714    15654    15407    15398    15655    15634 
   15525    15685    15826    15777    15693    15577    15429    15325 
   15376    15666    15907    15867    15784    15712    15500    15311 
   15398    15616    15691    15711    15782    15749    15614    15534 
   15493    15530    15668    15692    15673    15732    15597    15419 
   15512    15641    15719    15803    15682    15450    15392    15519 
   15707    15813    15789    15684    15508    15394    15492    15708 
   15749    15577    15600    15789    15681    15453    15429    15488 
   15643    15846    15838    15709    15633    15526    15410    15385 
   15529    15758    15831    15768    15674    15526    15430    15448 
   15589    15799    15784    15576    15535    15588    15585    15639 
   15650    15583    15637    15758    15707    15511    15476    15585 
   15616    15682    15782    15654    15495    15553    15577    15545 
   15633    15745    15801    15669    15431    15480    15655    15630 
   15651    15804    15714    15425    15379    15529    15626    15682 
   15670    15662    15736    15676    15516    15552    15639    15547 
   15523    15672    15762    15738    15641    15553    15558    15552 
   15519    15574    15670    15655    15587    15678    15773    15614 
   15437    15487    15677    15792    15672    15554    15624    15641 
   15585    15607    15647    15682    15651    15534    15538    15647 
   15601    15507    15645    15789    15649    15507    15568    15581 
   15515    15581    15705    15719    15707    15668    15537    15465 
   15500    15655    15882    15799    15466    15411    15560    15584 
   15562    15709    15896    15842    15639    15477    15372    15284 
   15299    15623    15998    15985    15745    15607    15557    15487 
   15457    15552    15614    15639    15766    15788    15619    15492 
   15419    15411    15616    15867    15927    15788    15472    15303 
   15519    15655    15529    15612    15950    15917    15446    15365 
   15724    15643    15338    15596    15915    15674    15469    15607 
   15604    15481    15533    15677    15682    15592    15677    15772 
   15677    15649    15604    15410    15371    15552    15766    15907 
   15865    15645    15411    15334    15372    15466    15697    15878 
   15911    15844    15489    15218    15425    15612    15646    15801 
   15811    15607    15498    15484    15552    15658    15695    15750 
   15685    15577    15665    15547    15412    15776    15955    15583 
   15363    15488    15580    15583    15681    15863    15930    15761 
   15489    15368    15338    15394    15684    15799    15672    15757 
   15751    15430    15298    15539    15789    15782    15678    15612 
   15487    15468    15622    15584    15503    15718    15832    15627 
   15510    15693    15832    15626    15503    15645    15577    15444 
   15537    15641    15734    15843    15808    15612    15400    15402 
   15604    15736    15766    15738    15595    15507    15595    15645 
   15604    15599    15597    15476    15452    15836    16035    15591 
   15273    15454    15607    15612    15633    15664    15700    15618 
   15464    15502    15673    15726    15603    15506    15601    15730 
   15769    15705    15553    15535    15620    15595    15654    15743 
   15603    15535    15650    15647    15645    15711    15585    15430 
   15496    15587    15628    15703    15681    15591    15628    15728 
   15746    15673    15553    15527    15553    15542    15612    15631 
   15597    15692    15728    15645    15655    15695    15492    15248 
   15403    15685    15786    15851    15754    15572    15568    15527 
   15484    15660    15692    15518    15549    15674    15731    15722 
   15566    15498    15557    15596    15739    15761    15539    15537 
   15755    15815    15735    15650    15515    15365    15417    15692 
   15799    15601    15569    15711    15556    15384    15581    15741 
   15673    15672    15745    15660    15430    15417    15660    15697 
   15597    15688    15766    15727    15592    15384    15425    15654 
   15677    15620    15693    15641    15498    15607    15753    15693 
   15581    15465    15462    15661    15724    15601    15685    15774 
   15553    15453    15569    15610    15681    15749    15720    15591 
   15429    15580    15731    15572    15592    15718    15642    15593 
   15591    15615    15681    15627    15623    15755    15658    15430 
   15508    15689    15664    15600    15653    15755    15695    15461 
   15392    15508    15633    15758    15759    15666    15634    15499 
   15361    15450    15599    15735    15803    15692    15610    15657 
   15600    15421    15466    15731    15792    15684    15658    15592 
   15496    15601    15799    15797    15719    15670    15484    15357 
   15503    15680    15678    15642    15732    15742    15568    15433 
   15417    15516    15634    15708    15819    15784    15546    15327 
   15272    15503    15807    15948    16027    15854    15437    15267 
   15398    15547    15619    15711    15884    15807    15484    15449 
   15597    15592    15570    15591    15604    15647    15669    15574 
   15537    15677    15716    15585    15552    15601    15530    15493 
