Origin Time       2024/06/23 22:54:00
Lat.              35.645
Long.             140.060
Depth. (km)       72
Mag.              4.1
Station Code      IBRH19
Station Lat.      36.2137
Station Long.     140.0893
Station Height(m) -34.5
Record Time       2024/06/23 22:54:38
Sampling Freq(Hz) 100Hz
Duration Time(s)  120
Dir.              1
Scale Factor      3923(gal)/8224838
Max. Acc. (gal)   0.490
Last Correction   2024/06/23 22:54:38
Memo.             
[...]
  -19086   -19083   -19080   -19082   -19082   -19082   -19083   -19083 
  -19082   -19082   -19084   -19084   -19082   -19082   -19083   -19082 
  -19082   -19083   -19082   -19082   -19084   -19083   -19082   -19080 
  -19080   -19080   -19082   -19080   -19078   -19080   -19083   -19082 
  -19082   -19084   -19084   -19082   -19082   -19084   -19083   -19083 
  -19082   -19079   -19082   -19083   -19083   -19083   -19083   -19082 
  -19082   -19083   -19082   -19082   -19080   -19078   -19080   -19083 
  -19080   -19082   -19083   -19082   -19082   -19082   -19080   -19080 
  -19083   -19083   -19082   -19082   -19083   -19083   -19083   -19082 
  -19080   -19082   -19084   -19083   -19082   -19082   -19082   -19080 
  -19079   -19080   -19082   -19080   -19080   -19082   -19083   -19082 
  -19080   -19080   -19080   -19080   -19082   -19082   -19083   -19083 
  -19082   -19082   -19082   -19082   -19082   -19080   -19082   -19082 
  -19080   -19082   -19082   -19079   -19083   -19082   -19078   -19080 
  -19083   -19082   -19080   -19082   -19083   -19083   -19084   -19083 
  -19079   -19078   -19079   -19080   -19082   -19082   -19080   -19082 
  -19083   -19080   -19080   -19082   -19083   -19083   -19082   -19082 
  -19082   -19082   -19082   -19082   -19082   -19082   -19082   -19083 
  -19080   -19079   -19082   -19083   -19082   -19083   -19084   -19083 
  -19084   -19084   -19080   -19079   -19082   -19083   -19083   -19084 
  -19082   -19079   -19080   -19082   -19082   -19082   -19079   -19080 
  -19084   -19084   -19080   -19079   -19080   -19082   -19082   -19083 
  -19083   -19080   -19080   -19082   -19084   -19083   -19080   -19082 
  -19084   -19082   -19082   -19083   -19083   -19082   -19080   -19080 
  -19083   -19083   -19082   -19082   -19082   -19080   -19082   -19083 
  -19082   -19082   -19084   -19083   -19080   -19082   -19083   -19080 
  -19079   -19082   -19082   -19082   -19083   -19083   -19082   -19083 
  -19083   -19082   -19079   -19078   -19079   -19083   -19083   -19079 
  -19080   -19084   -19082   -19080   -19082   -19080   -19080   -19083 
  -19084   -19084   -19082   -19082   -19083   -19080   -19082   -19084 
  -19082   -19080   -19080   -19079   -19083   -19084   -19080   -19080 
  -19083   -19082   -19079   -19080   -19079   -19080   -19084   -19083 
  -19080   -19082   -19083   -19083   -19083   -19083   -19080   -19080 
  -19080   -19080   -19082   -19080   -19082   -19084   -19083   -19080 
  -19083   -19084   -19084   -19083   -19083   -19082   -19080   -19083 
  -19084   -19084   -19082   -19079   -19080   -19080   -19080   -19082 
  -19082   -19082   -19084   -19083   -19082   -19082   -19082   -19080 
  -19080   -19082   -19082   -19082   -19082   -19082   -19082   -19082 
  -19082   -19083   -19082   -19080   -19083   -19084   -19083   -19083 
  -19084   -19083   -19080   -19083   -19084   -19082   -19080   -19080 
  -19082   -19082   -19080   -19082   -19082   -19082   -19082   -19083 
  -19082   -19082   -19082   -19082   -19080   -19080   -19083   -19082 
  -19079   -19080   -19086   -19084   -19082   -19083   -19083   -19079 
  -19082   -19084   -19084   -19083   -19082   -19080   -19082   -19083 
  -19082   -19082   -19082   -19080   -19082   -19082   -19083   -19083 
  -19082   -19082   -19084   -19086   -19084   -19082   -19083   -19083 
  -19083   -19082   -19080   -19082   -19082   -19080   -19082   -19083 
  -19080   -19080   -19080   -19078   -19082   -19084   -19082   -19080 
  -19080   -19080   -19082   -19082   -19083   -19083   -19080   -19080 
  -19083   -19083   -19082   -19079   -19082   -19083   -19082   -19083 
  -19087   -19082   -19080   -19083   -19082   -19080   -19083   -19080 
  -19080   -19084   -19083   -19079   -19080   -19082   -19080   -19080 
  -19080   -19082   -19083   -19083   -19083   -19084   -19082   -19080 
  -19083   -19086   -19084   -19083   -19082   -19083   -19083   -19080 
  -19080   -19083   -19084   -19084   -19084   -19083   -19082   -19082 
  -19086   -19086   -19083   -19083   -19084   -19082   -19082   -19084 
  -19080   -19079   -19080   -19082   -19082   -19082   -19083   -19083 
  -19083   -19083   -19082   -19082   -19082   -19080   -19079   -19080 
  -19080   -19078   -19078   -19080   -19082   -19078   -19079   -19083 
  -19083   -19080   -19080   -19083   -19084   -19079   -19075   -19076 
  -19083   -19095   -19107   -19101   -19074   -19057   -19068   -19078 
  -19060   -19040   -19041   -19071   -19116   -19138   -19128   -19109 
  -19106   -19109   -19095   -19062   -19039   -19052   -19089   -19106 
  -19071   -19017   -18990   -19009   -19083   -19152   -19152   -19152 
  -19192   -19205   -19156   -19040   -18910   -18864   -18914   -19003 
  -19138   -19306   -19352   -19213   -19063   -19006   -18993   -18985 
  -18966   -18976   -19064   -19163   -19186   -19152   -19122   -19074 
  -19020   -19059   -19145   -19178   -19209   -19149   -18924   -18793 
  -18883   -19012   -19120   -19271   -19357   -19255   -19059   -18886 
  -18864   -19105   -19321   -19221   -18966   -18797   -18882   -19147 
  -19232   -19126   -19116   -19199   -19222   -19120   -18921   -18878 
  -19106   -19264   -19174   -19016   -18883   -18913   -19130   -19261 
  -19219   -19099   -18983   -19051   -19197   -19152   -18998   -18891 
  -18904   -19086   -19207   -19129   -19128   -19221   -19221   -19175 
  -19057   -18929   -18966   -18998   -18910   -18902   -19032   -19233 
  -19394   -19346   -19174   -19048   -18936   -18879   -18927   -18997 
  -19138   -19269   -19180   -19060   -19117   -19148   -19030   -18920 
  -18952   -19113   -19226   -19160   -19029   -19030   -19149   -19152 
  -19044   -19022   -19053   -19064   -19017   -18936   -19030   -19229 
  -19267   -19199   -19094   -18981   -18987   -19033   -19040   -19086 
  -19128   -19126   -19129   -19116   -19074   -19008   -18971   -19039 
  -19157   -19249   -19210   -19017   -18908   -19012   -19138   -19152 
  -19097   -19066   -19134   -19179   -19029   -18856   -18905   -19105 
  -19242   -19225   -19140   -19116   -19137   -19102   -19001   -18970 
  -19063   -19129   -19087   -19012   -18967   -19020   -19126   -19184 
  -19205   -19182   -19114   -19045   -18976   -18966   -19045   -19110 
  -19134   -19168   -19153   -19075   -19010   -18948   -18945   -19072 
  -19190   -19206   -19157   -19080   -19047   -19048   -19009   -19016 
  -19120   -19179   -19132   -19030   -18972   -19079   -19215   -19191 
  -19083   -19001   -19006   -19099   -19120   -19035   -18976   -19020 
  -19129   -19153   -19091   -19087   -19145   -19201   -19161   -19002 
  -18935   -19056   -19157   -19126   -19052   -19005   -19048   -19148 
  -19126   -19006   -18972   -19044   -19156   -19198   -19095   -18999 
  -19018   -19116   -19214   -19180   -19036   -18981   -19059   -19125 
  -19087   -19018   -18987   -19049   -19184   -19167   -19017   -18999 
  -19111   -19206   -19171   -19018   -18944   -19048   -19153   -19059 
  -18932   -19016   -19198   -19282   -19230   -19091   -18989   -19014 
  -19074   -19051   -19014   -19049   -19087   -19078   -19068   -19113 
  -19202   -19224   -19147   -19079   -19052   -18997   -18906   -18814 
  -18863   -19128   -19386   -19404   -19237   -19066   -19025   -19078 
  -19070   -18978   -18951   -19036   -19118   -19099   -19014   -18986 
  -19049   -19129   -19195   -19248   -19241   -19155   -19041   -18976 
  -18951   -18948   -18970   -19037   -19174   -19268   -19191   -19022 
  -18970   -19101   -19225   -19178   -19039   -18989   -19049   -19043 
  -18936   -18924   -19132   -19357   -19290   -19030   -18904   -18995 
  -19203   -19264   -19026   -18802   -18951   -19278   -19314   -19087 
  -18935   -18983   -19140   -19130   -18912   -18882   -19157   -19373 
  -19269   -19001   -18936   -19148   -19249   -19067   -18941   -19035 
  -19157   -19145   -18983   -18925   -19095   -19172   -19048   -18997 
  -19117   -19269   -19272   -19097   -18935   -18947   -19036   -19005 
  -18885   -18890   -19117   -19365   -19344   -19167   -19156   -19195 
  -19076   -18868   -18721   -18860   -19230   -19360   -19163   -19025 
  -19080   -19126   -19057   -18985   -19056   -19241   -19305   -19141 
  -18979   -18976   -18974   -18929   -18971   -19102   -19211   -19240 
  -19194   -19107   -19002   -18918   -18960   -19134   -19249   -19176 
  -19002   -18889   -18929   -19080   -19217   -19226   -19078   -18976 
  -19089   -19203   -19187   -19114   -18974   -18927   -19076   -19118 
  -18991   -18985   -19107   -19182   -19178   -19144   -19143   -19156 
  -19098   -19064   -19117   -19110   -19030   -18952   -18956   -19138 
  -19234   -19016   -18852   -19035   -19275   -19246   -19010   -18921 
  -19153   -19367   -19178   -18804   -18796   -19136   -19303   -19121 
  -18901   -18981   -19249   -19288   -19045   -18898   -19022   -19178 
  -19109   -18890   -18850   -19093   -19288   -19241   -19148   -19164 
  -19252   -19256   -19049   -18800   -18808   -18993   -19062   -19037 
  -19064   -19171   -19322   -19319   -19118   -18987   -18945   -18870 
  -18875   -19040   -19264   -19390   -19256   -18968   -18878   -19099 
  -19318   -19203   -18904   -18831   -18986   -19122   -19167   -19095 
  -19012   -19067   -19163   -19165   -19101   -19041   -19037   -19097 
  -19186   -19209   -19113   -18954   -18879   -18964   -19091   -19129 
  -19078   -19064   -19133   -19141   -19051   -18997   -19090   -19251 
  -19263   -19122   -19008   -19002   -19070   -19039   -18922   -18966 
  -19192   -19361   -19284   -19053   -18889   -18854   -18910   -19025 
  -19165   -19271   -19261   -19147   -19033   -19035   -19076   -19041 
  -19043   -19130   -19192   -19149   -18964   -18810   -18940   -19230 
  -19332   -19183   -19005   -18972   -19080   -19164   -19087   -18979 
  -19044   -19180   -19140   -18975   -18945   -19072   -19183   -19192 
  -19087   -19006   -19106   -19206   -19132   -18970   -18885   -18981 
  -19174   -19255   -19187   -19095   -19032   -18966   -18981   -19101 
  -19152   -19106   -19053   -19025   -19097   -19219   -19183   -19010 
  -18917   -18971   -19120   -19241   -19219   -19133   -19091   -19056 
  -19012   -18959   -18975   -19130   -19244   -19167   -18989   -18902 
  -19010   -19183   -19211   -19102   -19032   -19047   -19067   -19075 
  -19066   -19039   -19053   -19116   -19141   -19094   -19022   -19020 
  -19129   -19233   -19224   -19121   -18998   -18968   -19006   -18998 
  -19036   -19155   -19251   -19286   -19188   -19021   -18978   -19006 
  -19009   -19028   -19035   -19024   -19070   -19143   -19130   -19078 
  -19094   -19122   -19106   -19075   -19035   -19076   -19218   -19238 
  -19059   -18886   -18936   -19128   -19147   -18995   -18960   -19133 
  -19356   -19323   -19039   -18882   -18939   -19017   -19039   -19005 
  -19030   -19157   -19206   -19147   -19089   -19056   -19076   -19116 
  -19093   -19040   -19013   -19010   -19028   -19098   -19195   -19226 
  -19174   -19093   -19030   -19024   -19057   -19082   -19091   -19118 
  -19165   -19165   -19059   -18947   -18941   -18990   -19043   -19113 
  -19153   -19113   -19033   -19078   -19236   -19298   -19209   -18972 
  -18794   -18995   -19278   -19191   -18945   -18924   -19172   -19352 
  -19116   -18748   -18829   -19265   -19444   -19160   -18833   -18904 
  -19232   -19288   -18960   -18779   -19044   -19332   -19205   -18868 
  -18802   -19117   -19333   -19083   -18819   -19002   -19369   -19430 
  -19095   -18808   -18916   -19165   -19151   -18918   -18918   -19222 
  -19387   -19207   -18931   -18908   -19172   -19307   -19114   -18928 
  -18989   -19151   -19160   -18963   -18835   -19020   -19286   -19272 
  -19083   -18997   -19068   -19199   -19170   -18971   -18917   -19091 
  -19213   -19133   -18986   -18935   -19037   -19164   -19122   -19001 
  -19030   -19157   -19192   -19091   -18986   -19044   -19206   -19260 
  -19129   -18931   -18894   -19041   -19129   -19114   -19107   -19101 
  -19113   -19160   -19137   -19022   -18958   -19030   -19113   -19089 
  -19033   -19021   -19091   -19188   -19130   -18991   -19020   -19178 
  -19233   -19083   -18894   -18920   -19126   -19218   -19090   -18948 
  -18995   -19161   -19214   -19111   -19067   -19153   -19222   -19198 
  -19099   -18967   -18924   -18993   -19075   -19151   -19221   -19197 
  -19029   -18873   -18921   -19102   -19188   -19136   -19044   -18993 
  -19051   -19134   -19101   -19053   -19122   -19157   -19091   -19033 
  -19013   -19057   -19141   -19114   -19006   -19037   -19191   -19238 
  -19137   -19033   -19016   -19025   -18979   -18937   -19013   -19209 
  -19354   -19219   -18895   -18817   -19101   -19302   -19186   -19047 
  -19090   -19161   -19091   -18922   -18890   -19080   -19183   -19060 
  -18995   -19128   -19278   -19192   -18920   -18886   -19209   -19421 
  -19219   -18933   -18985   -19256   -19329   -19151   -19045   -19176 
  -19290   -19113   -18809   -18763   -19001   -19159   -19075   -18998 
  -19133   -19309   -19215   -18936   -18871   -19106   -19290   -19164 
  -18940   -18991   -19221   -19191   -18901   -18752   -18920   -19207 
  -19221   -18877   -18634   -18712   -18814   -18777   -18720   -18897 
  -19338   -19558   -19386   -19195   -19083   -18944   -18769   -18628 
  -18866   -19549   -20008   -19692   -19003   -18782   -19167   -19449 
  -19168   -18794   -18976   -19558   -19805   -19441   -18997   -19043 
  -19298   -19067   -18508   -18466   -19097   -19650   -19546   -19103 
  -18982   -19144   -18994   -18432   -18054   -18384   -19164   -19592 
  -19426   -19179   -19187   -19201   -18898   -18504   -18500   -18944 
  -19452   -19641   -19498   -19256   -19041   -18871   -18825   -18990 
  -19175   -19175   -19103   -19106   -19242   -19415   -19340   -19049 
  -18878   -18900   -18952   -18939   -18900   -18979   -19198   -19356 
  -19326   -19134   -18927   -18850   -18831   -18783   -18798   -18964 
  -19303   -19620   -19639   -19352   -18959   -18702   -18723   -18943 
  -19164   -19284   -19388   -19434   -19242   -18949   -18810   -18831 
  -18991   -19210   -19294   -19318   -19388   -19315   -19053   -18820 
  -18700   -18659   -18736   -18856   -18979   -19224   -19446   -19375 
  -19070   -18809   -18771   -18989   -19263   -19307   -19138   -19021 
  -19029   -19003   -18952   -19043   -19248   -19390   -19314   -19079 
  -18999   -19137   -19165   -19044   -19035   -19051   -18929   -18851 
  -18922   -19163   -19506   -19541   -19191   -18933   -19033   -19319 
  -19419   -19138   -18769   -18711   -18914   -19030   -18940   -18836 
  -18986   -19373   -19518   -19149   -18751   -18743   -18866   -18820 
  -18793   -19064   -19504   -19712   -19475   -19026   -18877   -19106 
  -19199   -18868   -18558   -18728   -19097   -19210   -19141   -19171 
  -19300   -19299   -19091   -18917   -19005   -19188   -19206   -19083 
  -19043   -19249   -19465   -19323   -18991   -18900   -19114   -19303 
  -19175   -18804   -18632   -18998   -19442   -19372   -19043   -18917 
  -19074   -19276   -19161   -18821   -18700   -18913   -19225   -19319 
  -19199   -19195   -19244   -19041   -18750   -18705   -18921   -19106 
  -19075   -19002   -19071   -19255   -19303   -19032   -18769   -18868 
  -19175   -19310   -19155   -18979   -19082   -19296   -19255   -19008 
  -18848   -18960   -19228   -19233   -18987   -18944   -19194   -19442 
  -19453   -19219   -18989   -19037   -19188   -19062   -18846   -18893 
  -19097   -19241   -19182   -18983   -18972   -19147   -19167   -18967 
  -18810   -18922   -19170   -19257   -19205   -19192   -19175   -19035 
  -18881   -18847   -18954   -19165   -19170   -18882   -18806   -19028 
  -19075   -18870   -18774   -19001   -19384   -19530   -19294   -19099 
  -19263   -19407   -19110   -18625   -18554   -18994   -19396   -19307 
  -18990   -19016   -19300   -19394   -19283   -19171   -19187   -19205 
  -18964   -18740   -18932   -19283   -19311   -19006   -18823   -18982 
  -19106   -18921   -18742   -18921   -19269   -19317   -18993   -18732 
  -18920   -19338   -19461   -19210   -18929   -18922   -19099   -19141 
  -19079   -19103   -19149   -19140   -19064   -18982   -19082   -19292 
  -19303   -19075   -18881   -18921   -19083   -19144   -19056   -18945 
  -18940   -19001   -19084   -19201   -19256   -19251   -19269   -19252 
  -19187   -19126   -18997   -18882   -18963   -19134   -19143   -18979 
  -18900   -19013   -19093   -19039   -19024   -19144   -19257   -19141 
  -18835   -18682   -18848   -19114   -19180   -19134   -19263   -19411 
  -19313   -19032   -18785   -18858   -19163   -19222   -18993   -18940 
  -19245   -19483   -19298   -18932   -18796   -18976   -19206   -19219 
  -19102   -19079   -19170   -19170   -18968   -18883   -19106   -19280 
  -19225   -19078   -18958   -19025   -19157   -19114   -19037   -19039 
  -18962   -18832   -18885   -19099   -19271   -19296   -19152   -19037 
  -19084   -19095   -19001   -18985   -19175   -19398   -19377   -19129 
  -18833   -18736   -18922   -19097   -19030   -18878   -18841   -18929 
  -19071   -19172   -19206   -19287   -19431   -19376   -19021   -18785 
  -18924   -19140   -19222   -19174   -19026   -18985   -19059   -19037 
  -18990   -19066   -19188   -19188   -19055   -19005   -19084   -19121 
  -19041   -18967   -19067   -19209   -19170   -18975   -18781   -18813 
  -19018   -19176   -19321   -19430   -19504   -19522   -19224   -18812 
  -18743   -18866   -18925   -18994   -19078   -19161   -19291   -19245 
  -18952   -18794   -18940   -19179   -19284   -19130   -18867   -18871 
  -19164   -19294   -19074   -18851   -18945   -19246   -19348   -19087 
  -18804   -18895   -19241   -19317   -19057   -18883   -18990   -19279 
  -19425   -19271   -19117   -19075   -19010   -18981   -19076   -19197 
  -19205   -19111   -19024   -19099   -19279   -19229   -19002   -18917 
  -18970   -19043   -19032   -18975   -19035   -19084   -18933   -18678 
  -18651   -19043   -19423   -19338   -19041   -19044   -19377   -19503 
  -19110   -18709   -18846   -19265   -19314   -18864   -18563   -18912 
  -19458   -19483   -19041   -18827   -19207   -19595   -19256   -18596 
  -18536   -19118   -19626   -19507   -18998   -18850   -19187   -19300 
  -18855   -18457   -18698   -19269   -19433   -19106   -18819   -18944 
  -19306   -19332   -18918   -18674   -18958   -19402   -19485   -19218 
  -19052   -19151   -19284   -19224   -18982   -18866   -19056   -19232 
  -19018   -18684   -18802   -19307   -19627   -19481   -19121   -18936 
  -18989   -19039   -18912   -18819   -19003   -19168   -19009   -18779 
  -18866   -19311   -19624   -19330   -18751   -18577   -18916   -19244 
  -19128   -18778   -18740   -19240   -19785   -19693   -19144   -18804 
  -18867   -19049   -19049   -18968   -19063   -19219   -19176   -18987 
  -18931   -19090   -19203   -19013   -18800   -18960   -19226   -19199 
  -18945   -18752   -18886   -19179   -19214   -19111   -19188   -19307 
  -19230   -19059   -19030   -19202   -19392   -19367   -19113   -18868 
  -18871   -19039   -19109   -19098   -19125   -19161   -19194   -19179 
  -19090   -18916   -18771   -18931   -19234   -19283   -19130   -19041 
  -19133   -19279   -19218   -18951   -18775   -18871   -19012   -18968 
  -18843   -18847   -19114   -19388   -19352   -19194   -19067   -18978 
  -19041   -19091   -19067   -19194   -19349   -19303   -19140   -18982 
