Origin Time       2024/06/23 22:54:00
Lat.              35.645
Long.             140.060
Depth. (km)       72
Mag.              4.1
Station Code      IBRH07
Station Lat.      35.9521
Station Long.     140.3301
Station Height(m) 3
Record Time       2024/06/23 22:54:36
Sampling Freq(Hz) 100Hz
Duration Time(s)  120
Dir.              5
Scale Factor      7845(gal)/8223790
Max. Acc. (gal)   2.928
Last Correction   2024/06/23 22:54:36
Memo.             
[...]
    2475     2473     2477     2481     2481     2482     2479     2473 
    2470     2471     2474     2475     2478     2481     2479     2478 
    2478     2474     2473     2473     2477     2482     2481     2475 
    2474     2474     2477     2481     2481     2477     2474     2475 
    2477     2477     2475     2474     2475     2473     2477     2486 
    2484     2477     2475     2475     2479     2481     2482     2484 
    2479     2474     2474     2475     2477     2482     2485     2479 
    2481     2484     2475     2477     2485     2484     2482     2484 
    2484     2484     2479     2478     2482     2486     2488     2486 
    2484     2481     2481     2482     2481     2481     2484     2484 
    2484     2486     2485     2481     2482     2484     2482     2489 
    2488     2484     2484     2479     2479     2485     2484     2486 
    2492     2488     2482     2479     2475     2481     2488     2485 
    2482     2482     2481     2479     2479     2484     2488     2481 
    2475     2481     2482     2479     2482     2484     2479     2479 
    2479     2477     2477     2481     2479     2475     2478     2482 
    2481     2479     2481     2484     2484     2478     2477     2479 
    2479     2475     2474     2475     2475     2475     2477     2481 
    2484     2479     2474     2474     2474     2478     2478     2473 
    2475     2477     2471     2475     2481     2475     2474     2475 
    2475     2477     2475     2478     2478     2470     2471     2479 
    2481     2479     2481     2477     2469     2473     2479     2481 
    2481     2479     2474     2471     2474     2477     2481     2482 
    2481     2478     2478     2479     2478     2474     2475     2481 
    2478     2474     2475     2479     2482     2484     2484     2478 
    2475     2475     2478     2484     2484     2481     2481     2477 
    2478     2484     2482     2477     2477     2481     2482     2481 
    2481     2481     2481     2481     2479     2479     2482     2481 
    2482     2482     2479     2479     2478     2478     2485     2485 
    2481     2478     2475     2478     2482     2481     2479     2479 
    2478     2477     2479     2484     2488     2485     2479     2478 
    2478     2479     2481     2485     2484     2478     2479     2482 
    2482     2486     2485     2478     2477     2478     2482     2485 
    2479     2475     2477     2478     2482     2485     2481     2479 
    2478     2475     2479     2484     2479     2479     2481     2477 
    2475     2479     2481     2479     2481     2482     2479     2475 
    2473     2474     2478     2477     2477     2475     2473     2475 
    2481     2481     2478     2474     2470     2469     2470     2477 
    2481     2478     2475     2474     2471     2469     2473     2474 
    2471     2469     2469     2469     2469     2473     2477     2477 
    2474     2469     2467     2470     2471     2475     2477     2467 
    2466     2470     2469     2470     2475     2473     2469     2469 
    2470     2471     2467     2467     2471     2473     2473     2475 
    2474     2469     2470     2471     2469     2473     2477     2469 
    2470     2475     2471     2474     2477     2470     2469     2474 
    2477     2478     2474     2471     2474     2474     2473     2475 
    2477     2475     2477     2478     2475     2475     2477     2474 
    2475     2479     2481     2479     2477     2474     2475     2478 
    2479     2484     2484     2477     2479     2481     2475     2479 
    2484     2478     2478     2478     2479     2484     2482     2477 
    2481     2482     2481     2485     2482     2478     2481     2482 
    2482     2484     2484     2478     2479     2484     2484     2484 
    2484     2484     2488     2482     2475     2479     2482     2481 
    2485     2488     2481     2479     2479     2479     2484     2488 
    2489     2485     2478     2478     2482     2479     2481     2486 
    2486     2478     2477     2479     2481     2484     2484     2484 
    2482     2479     2479     2482     2482     2479     2477     2479 
    2482     2482     2478     2478     2481     2481     2481     2484 
    2484     2481     2481     2479     2477     2479     2481     2481 
    2482     2482     2481     2481     2479     2484     2486     2478 
    2475     2482     2482     2481     2484     2481     2481     2486 
    2486     2486     2484     2477     2479     2485     2481     2475 
    2467     2462     2474     2490     2489     2492     2509     2520 
    2517     2502     2493     2492     2444     2392     2436     2438 
    2355     2446     2585     2501     2454     2598     2677     2605 
    2506     2471     2435     2296     2257     2386     2481     2662 
    2830     2598     2290     2166     2054     2295     2791     2976 
    2979     2844     2415     1954     1671     1826     2546     3269 
    3400     2907     2245     1930     1991     2097     2274     2743 
    3130     3007     2583     2154     1977     2195     2447     2581 
    2808     2879     2529     2106     2050     2362     2633     2700 
    2767     2708     2376     2193     2326     2393     2407     2666 
    2806     2413     2089     2299     2579     2698     2732     2597 
    2401     2323     2370     2466     2478     2502     2600     2505 
    2292     2253     2320     2466     2702     2786     2655     2462 
    2327     2272     2251     2411     2758     2895     2705     2417 
    2187     2093     2204     2498     2732     2771     2732     2517 
    2208     2203     2415     2575     2714     2708     2512     2382 
    2362     2390     2474     2504     2454     2423     2393     2346 
    2415     2602     2736     2743     2668     2560     2378     2177 
    2245     2489     2555     2558     2614     2496     2234     2120 
    2234     2446     2631     2740     2783     2706     2444     2205 
    2219     2363     2506     2613     2570     2428     2362     2330 
    2276     2350     2571     2709     2633     2457     2369     2424 
    2542     2659     2667     2481     2266     2199     2227     2284 
    2436     2650     2751     2716     2575     2332     2228     2432 
    2686     2716     2577     2515     2520     2315     2033     2085 
    2438     2728     2806     2747     2560     2307     2189     2242 
    2377     2613     2798     2679     2344     2177     2269     2366 
    2457     2666     2778     2641     2492     2417     2301     2288 
    2474     2621     2606     2538     2516     2511     2431     2385 
    2488     2598     2574     2432     2272     2254     2423     2644 
    2803     2816     2666     2459     2277     2212     2327     2492 
    2578     2592     2575     2538     2452     2382     2382     2443 
    2552     2556     2431     2392     2413     2398     2432     2515 
    2587     2565     2365     2222     2358     2542     2551     2496 
    2501     2458     2261     2122     2278     2602     2775     2662 
    2459     2431     2531     2504     2392     2524     2812     2762 
    2440     2307     2339     2359     2473     2640     2641     2509 
    2432     2446     2492     2570     2627     2535     2424     2488 
    2552     2531     2546     2529     2425     2400     2465     2416 
    2316     2439     2620     2581     2525     2627     2690     2617 
    2484     2320     2195     2239     2392     2461     2481     2548 
    2594     2597     2597     2620     2651     2573     2394     2311 
    2370     2403     2367     2381     2490     2582     2477     2274 
    2266     2471     2698     2802     2758     2664     2574     2438 
    2253     2172     2261     2365     2459     2592     2640     2544 
    2347     2193     2334     2552     2455     2336     2484     2651 
    2644     2411     2153     2151     2241     2330     2566     2816 
    2971     2979     2639     2149     1995     2133     2335     2658 
    2853     2629     2384     2392     2347     2238     2319     2498 
    2632     2797     2906     2744     2421     2199     2165     2288 
    2506     2737     2822     2728     2597     2413     2268     2407 
    2600     2570     2559     2621     2547     2430     2440     2509 
    2465     2340     2370     2546     2656     2668     2583     2430 
    2393     2452     2475     2598     2709     2552     2427     2447 
    2305     2197     2386     2670     2802     2683     2538     2484 
    2234     2043     2288     2577     2678     2729     2656     2477 
    2303     2172     2187     2296     2389     2577     2795     2687 
    2350     2315     2478     2384     2292     2466     2573     2520 
    2504     2520     2481     2421     2393     2316     2230     2373 
    2627     2648     2527     2411     2215     2157     2409     2598 
    2542     2452     2322     2173     2280     2485     2502     2554 
    2713     2731     2556     2349     2316     2420     2401     2320 
    2403     2521     2552     2670     2789     2697     2521     2396 
    2385     2478     2528     2662     2886     2783     2366     2057 
    2060     2330     2589     2671     2732     2659     2343     2165 
    2254     2451     2708     2812     2718     2674     2606     2446 
    2434     2601     2652     2527     2427     2384     2343     2344 
    2326     2262     2270     2401     2575     2637     2614     2639 
    2592     2443     2442     2562     2586     2610     2700     2627 
    2382     2238     2231     2228     2303     2540     2739     2685 
    2465     2304     2290     2398     2554     2637     2620     2554 
    2440     2362     2408     2474     2493     2508     2520     2509 
    2520     2565     2482     2247     2172     2340     2523     2610 
    2632     2623     2527     2307     2181     2231     2296     2430 
    2579     2550     2513     2562     2497     2376     2371     2520 
    2704     2709     2554     2393     2286     2299     2413     2469 
    2450     2477     2505     2463     2400     2344     2332     2355 
    2369     2485     2651     2677     2632     2565     2408     2300 
    2358     2465     2569     2748     2853     2679     2459     2497 
    2592     2538     2542     2593     2455     2286     2330     2482 
    2586     2627     2602     2466     2297     2288     2343     2324 
    2389     2497     2438     2304     2241     2295     2439     2540 
    2585     2610     2573     2475     2390     2381     2432     2435 
    2386     2417     2515     2543     2539     2639     2689     2485 
    2230     2137     2172     2386     2737     2992     3022     2802 
    2459     2224     2189     2358     2609     2718     2625     2466 
    2382     2336     2277     2322     2457     2527     2523     2513 
    2620     2847     2934     2766     2493     2296     2295     2439 
    2575     2648     2635     2517     2322     2172     2176     2258 
    2350     2452     2528     2555     2554     2592     2627     2540 
    2377     2269     2330     2532     2648     2609     2643     2799 
    2790     2524     2326     2331     2334     2343     2506     2644 
    2579     2481     2440     2357     2262     2300     2425     2463 
    2470     2574     2609     2515     2489     2515     2478     2454 
    2444     2403     2382     2365     2308     2285     2322     2436 
    2664     2824     2754     2578     2435     2353     2305     2309 
    2439     2560     2516     2416     2343     2316     2430     2583 
    2610     2536     2431     2385     2462     2597     2700     2686 
    2602     2570     2482     2361     2435     2579     2556     2451 
    2373     2327     2362     2444     2454     2425     2481     2605 
    2647     2559     2497     2506     2478     2404     2336     2331 
    2390     2461     2505     2492     2438     2370     2339     2459 
    2614     2582     2469     2430     2452     2493     2527     2606 
    2710     2675     2515     2380     2371     2508     2623     2587 
    2474     2326     2211     2253     2451     2701     2791     2640 
    2477     2332     2072     1914     2052     2349     2627     2758 
    2732     2616     2479     2442     2502     2582     2733     2903 
    2879     2644     2432     2338     2254     2191     2208     2295 
    2459     2643     2685     2571     2440     2367     2312     2299 
    2419     2581     2640     2694     2748     2598     2336     2238 
    2269     2282     2317     2469     2647     2647     2509     2407 
    2374     2428     2524     2586     2647     2659     2500     2242 
    2126     2285     2535     2637     2658     2717     2722     2593 
    2428     2363     2459     2700     2936     2945     2651     2212 
    1854     1744     1922     2255     2582     2813     2806     2532 
    2232     2192     2417     2596     2612     2693     2844     2874 
    2740     2516     2299     2131     2027     2025     2137     2347 
    2523     2431     2106     1896     2035     2390     2713     2941 
    3125     3195     3064     2856     2818     3009     3244     3388 
    3434     3292     2897     2382     1929     1691     1803     2143 
    2305     2100     1780     1533     1391     1485     1814     2263 
    2767     3169     3298     3211     3119     2970     2551     2020 
    1684     1480     1185      947     1179     1771     2212     2350 
    2242     1921     1580     1512     1949     2913     4102     5112 
    5545     5127     4037     2855     2012     1607     1579     1810 
    2173     2458     2451     2208     2014     2064     2292     2447 
    2363     2145     2000     2019     2120     2181     2151     2137 
    2290     2585     2870     3079     3227     3318     3342     3307 
    3210     3028     2785     2481     2115     1823     1690     1742 
    2069     2533     2922     3199     3273     3175     3117     3079 
    2925     2732     2695     2713     2440     1992     1667     1335 
     939      734      842     1197     1702     2259     2678     2787 
    2704     2596     2578     2839     3272     3611     3780     3707 
    3441     3319     3516     3797     3801     3531     3254     2986 
    2656     2427     2394     2421     2338     2172     2050     1911 
    1634     1321     1132     1111     1246     1545     1992     2415 
    2648     2767     2830     2754     2583     2450     2474     2714 
    3032     3312     3503     3499     3326     3044     2644     2188 
    1705     1235      891      714      704      812      965     1236 
    1651     2046     2319     2508     2578     2459     2308     2385 
    2736     3153     3414     3442     3248     2953     2756     2740 
    2903     3165     3372     3484     3484     3334     3061     2660 
    2215     1892     1741     1795     1995     2204     2532     3045 
    3508     3678     3508     3111     2633     2187     1873     1696 
    1642     1725     1788     1745     1715     1730     1796     1976 
    2197     2392     2601     2856     3113     3256     3177     2889 
    2594     2548     2771     3136     3531     3742     3607     3179 
    2585     2020     1637     1412     1341     1404     1486     1536 
    1525     1487     1574     1819     2143     2498     2794     2959 
    3024     3021     3041     3225     3527     3689     3603     3403 
    3119     2785     2586     2565     2519     2277     1904     1633 
    1563     1642     1822     2014     2115     2166     2242     2293 
    2276     2322     2529     2760     2895     2987     3033     2918 
    2605     2293     2205     2336     2617     2999     3277     3230 
    2837     2288     1895     1819     2002     2353     2714     2907 
    2899     2760     2609     2578     2667     2824     3037     3149 
    3018     2825     2712     2597     2516     2538     2604     2664 
    2681     2663     2636     2555     2434     2339     2282     2243 
    2173     1987     1651     1262      961      885     1165     1719 
    2257     2586     2722     2693     2465     2172     2131     2407 
    2776     3086     3281     3326     3163     2824     2509     2277 
    2061     1983     2068     2173     2286     2400     2482     2593 
    2754     2978     3206     3256     3146     3056     2997     2901 
    2743     2511     2219     1942     1696     1428     1243     1290 
    1525     1850     2193     2505     2783     2957     2949     2772 
    2554     2527     2694     2848     2930     2940     2948     3009 
    2902     2578     2278     2058     1891     1904     2154     2492 
    2774     2963     2970     2748     2428     2189     2143     2299 
    2548     2756     2872     2895     2799     2628     2438     2281 
    2282     2450     2643     2758     2736     2578     2380     2232 
    2173     2222     2377     2616     2867     3057     3134     3040 
    2808     2558     2323     2066     1742     1370     1131     1129 
    1246     1471     1868     2255     2489     2690     2876     2964 
    2994     3034     3130     3284     3424     3442     3234     2840 
    2466     2258     2219     2324     2488     2515     2407     2301 
    2187     2099     2168     2386     2641     2837     2937     2916 
    2760     2602     2550     2578     2683     2841     2907     2785 
    2554     2384     2309     2250     2205     2151     2019     1892 
    1887     1999     2153     2289     2425     2535     2623     2820 
    3059     3148     3113     2953     2613     2236     1934     1678 
    1525     1497     1549     1692     1957     2303     2605     2789 
    2894     2874     2702     2524     2408     2312     2285     2419 
    2571     2516     2359     2339     2416     2473     2555     2664 
    2745     2801     2771     2682     2690     2791     2941     3136 
    3254     3226     3063     2760     2446     2246     2127     2043 
    1983     1929     1871     1798     1764     1792     1825     1877 
    2003     2172     2370     2596     2759     2828     2879     2945 
    3034     3146     3199     3137     2987     2790     2556     2299 
    2095     2010     1956     1857     1779     1761     1810     1965 
    2205     2442     2643     2853     3092     3265     3316     3316 
    3294     3217     3092     2905     2616     2245     1872     1641 
    1667     1929     2317     2682     2940     3087     3098     2945 
    2745     2633     2579     2528     2532     2651     2837     2995 
    3036     2937     2760     2523     2215     1911     1718     1657 
    1682     1821     2107     2376     2473     2463     2385     2185 
    1948     1819     1842     2008     2316     2717     3068     3233 
    3175     2971     2749     2559     2419     2394     2447     2462 
    2390     2297     2246     2200     2161     2222     2331     2436 
    2655     2974     3227     3365     3410     3346     3164     2944 
    2743     2470     2142     1908     1780     1761     1890     2018 
    2003     1938     1903     1845     1800     1888     2130     2427 
    2670     2805     2789     2625     2463     2424     2452     2465 
    2447     2401     2340     2312     2350     2447     2546     2574 
    2515     2376     2207     2092     2069     2126     2203     2277 
    2408     2577     2740     2902     2975     2937     2936     2961 
