Origin Time       2024/06/23 22:54:00
Lat.              35.645
Long.             140.060
Depth. (km)       72
Mag.              4.1
Station Code      IBRH19
Station Lat.      36.2137
Station Long.     140.0893
Station Height(m) 175
Record Time       2024/06/23 22:54:38
Sampling Freq(Hz) 100Hz
Duration Time(s)  120
Dir.              6
Scale Factor      7845(gal)/8223790
Max. Acc. (gal)   0.866
Last Correction   2024/06/23 22:54:38
Memo.             
[...]
     573      575      575      575      577      575      572      575 
     573      572      575      575      575      577      575      573 
     576      576      575      575      575      576      576      576 
     576      577      577      575      573      579      580      575 
     575      576      575      573      573      573      573      575 
     576      575      573      575      575      575      577      577 
     575      575      575      572      575      576      573      572 
     573      573      575      576      573      573      575      575 
     576      577      576      575      576      575      572      573 
     575      575      575      577      576      573      575      575 
     575      575      576      577      576      573      575      576 
     575      573      573      575      575      573      572      575 
     575      575      575      576      575      573      573      573 
     575      573      575      576      573      573      576      575 
     572      573      575      573      573      577      577      575 
     576      579      576      575      577      577      572      573 
     575      575      573      572      575      577      576      576 
     575      573      576      576      576      577      576      573 
     573      573      575      577      577      575      576      577 
     575      576      576      575      575      575      573      573 
     575      575      576      575      573      573      573      575 
     575      573      571      573      575      573      575      576 
     575      572      572      575      575      572      573      575 
     573      573      575      576      575      575      575      576 
     575      573      575      575      575      575      575      573 
     573      572      573      575      573      572      576      576 
     575      575      575      576      576      575      576      576 
     575      573      573      573      575      576      576      576 
     576      575      575      575      575      577      577      576 
     577      573      571      575      575      573      577      579 
     576      576      576      575      575      573      572      575 
     576      575      575      576      575      573      575      575 
     575      575      573      572      572      575      576      577 
     577      572      573      576      576      573      573      576 
     577      575      575      575      575      576      573      571 
     573      576      576      576      575      575      575      575 
     575      577      575      572      572      572      572      575 
     575      573      573      575      575      576      575      575 
     575      573      573      573      572      571      573      575 
     573      573      575      575      575      575      575      575 
     576      577      576      573      573      575      575      575 
     576      575      572      573      575      573      573      575 
     576      576      577      575      572      575      576      575 
     575      573      573      576      575      575      575      575 
     573      575      573      573      573      572      571      575 
     579      576      572      572      572      572      576      576 
     575      573      573      573      572      572      576      576 
     576      576      575      576      577      573      572      575 
     573      573      576      573      573      577      575      573 
     575      575      575      576      575      575      576      575 
     573      573      573      576      576      575      575      575 
     573      575      575      577      579      575      572      576 
     576      575      576      576      575      576      576      576 
     575      573      575      577      576      575      573      576 
     575      573      575      576      576      575      575      576 
     575      575      576      576      575      575      575      576 
     576      572      572      575      576      575      575      575 
     575      573      573      575      576      573      573      576 
     577      575      573      572      573      575      573      573 
     576      576      576      575      573      573      575      575 
     573      573      576      575      573      575      576      576 
     576      575      573      575      575      575      576      576 
     573      575      575      575      573      575      575      575 
     573      575      575      573      575      577      576      575 
     575      575      575      575      573      575      575      576 
     576      576      575      575      575      576      573      572 
     575      575      573      575      575      573      575      576 
     576      575      575      573      573      575      575      573 
     575      575      575      575      575      573      575      575 
     572      575      577      575      573      575      573      571 
     573      573      573      575      575      575      575      573 
     572      573      573      573      575      576      575      573 
     573      573      573      575      575      573      573      576 
     576      573      572      572      572      575      575      573 
     573      575      572      572      573      572      572      573 
     573      576      575      573      576      576      575      575 
     575      576      576      575      575      575      572      573 
     575      576      577      575      572      575      575      573 
     575      577      575      575      575      573      573      576 
     576      573      575      575      573      575      577      576 
     575      573      573      573      573      575      576      573 
     572      573      575      575      575      575      573      573 
     576      575      575      575      573      573      575      575 
     576      573      575      575      573      573      575      575 
     572      575      575      572      573      577      576      572 
     573      576      575      573      573      573      573      575 
     575      575      573      573      575      575      573      575 
     575      575      575      575      573      575      573      573 
     575      575      575      575      573      573      575      575 
     575      575      575      573      573      575      576      573 
     575      575      572      572      575      575      575      575 
     576      576      573      573      576      575      572      572 
     576      577      573      572      575      573      573      575 
     575      573      576      576      575      577      576      572 
     575      577      575      573      575      573      573      573 
     573      575      577      577      576      573      575      573 
     575      575      575      576      576      575      573      573 
     573      573      576      576      576      575      575      576 
     575      572      573      576      576      573      575      576 
     576      576      575      575      577      577      576      575 
     575      573      573      576      576      573      573      576 
     576      573      573      573      573      575      575      573 
     573      573      575      576      576      575      575      572 
     572      576      576      573      573      573      573      573 
     573      576      576      575      573      573      573      575 
     577      576      575      575      575      575      573      573 
     573      575      575      575      576      577      576      575 
     575      576      576      575      575      575      576      575 
     573      573      576      575      572      576      576      571 
     572      576      575      572      572      573      572      572 
     573      573      572      573      576      575      572      573 
     575      573      573      575      575      572      575      575 
     572      573      575      575      575      573      575      575 
     573      573      576      573      572      576      576      573 
     573      575      575      573      576      577      576      576 
     576      576      576      576      576      575      577      577 
     575      575      577      576      575      577      576      576 
     576      573      576      576      573      573      576      576 
     576      576      577      575      573      573      575      575 
     575      576      579      577      575      576      577      575 
     573      576      577      575      575      575      572      572 
     573      573      576      576      575      573      573      575 
     576      575      573      576      575      573      575      576 
     575      575      575      573      575      575      575      573 
     572      572      575      575      573      572      572      575 
     575      573      572      572      573      575      576      575 
     573      573      573      572      572      575      575      575 
     576      573      572      575      576      576      573      573 
     573      573      572      573      573      572      573      575 
     575      572      571      575      576      575      573      573 
     575      573      573      575      573      573      575      575 
     573      575      577      576      572      573      575      572 
     573      575      573      573      576      575      573      575 
     575      575      575      573      575      575      573      573 
     576      575      575      576      575      573      575      575 
     573      575      575      573      575      573      572      573 
     575      576      576      575      575      576      576      575 
     573      575      575      573      575      576      575      575 
     575      575      575      576      573      573      577      576 
     575      576      575      572      575      576      575      575 
     572      573      573      572      576      579      575      573 
     576      573      572      573      575      575      575      573 
     573      576      577      576      575      575      577      576 
     573      573      575      573      573      575      575      575 
     576      575      573      572      573      575      575      575 
     575      575      575      575      573      572      575      576 
     575      572      575      577      576      572      572      573 
     575      576      575      575      573      573      575      575 
     573      575      575      575      576      573      572      576 
     576      575      575      575      573      573      576      576 
     573      573      575      573      573      575      573      576 
     575      573      576      576      575      573      572      572 
     573      573      573      576      575      571      572      573 
     573      576      576      575      575      576      576      576 
     577      577      577      576      573      573      575      575 
     573      575      577      577      576      576      576      576 
     575      573      573      573      573      573      575      576 
     576      576      576      573      575      576      575      575 
     576      575      576      579      575      573      576      575 
     573      573      573      573      575      575      575      575 
     573      573      576      576      573      575      575      575 
     576      575      573      573      573      575      576      576 
     576      576      575      575      575      575      573      573 
     576      576      573      575      573      573      575      575 
     576      577      575      575      576      576      575      575 
     575      573      573      573      575      576      576      575 
     573      573      573      573      573      575      575      573 
     573      573      573      575      576      576      575      572 
     572      573      573      573      575      575      573      577 
     579      575      575      576      576      573      575      577 
     576      575      575      576      577      576      573      575 
     575      575      575      572      575      577      575      573 
     575      575      575      575      575      576      575      572 
     573      575      575      576      576      573      573      576 
     577      577      576      575      575      575      573      575 
     576      575      575      577      575      572      573      575 
     573      575      573      572      572      576      576      575 
     575      576      576      576      573      575      576      573 
     573      576      575      576      583      584      580      576 
     577      579      575      572      580      588      576      552 
     558      589      596      565      541      529      510      545 
     660      697      576      488      568      648      625      608 
     585      490      461      569      623      556      549      627 
     587      459      452      541      687      893      926      637 
     229       93      383      668      697      781      828      610 
     383      422      704      726      261      133      706     1098 
     784      414      491      425       62      387     1323     1482 
     670      -22     -141      124      669     1069      969      804 
     675      178      -81      540     1117      992      842      650 
      39     -187      333      885     1020      741      538      715 
     668      338      292      450      747     1071      812      253 
     183      378      529      743      807      633      463      504 
     785      812      361      149      472      827      869      565 
     380      622      708      531      595      699      662      610 
     283       36      417      837      892      827      693      589 
     469      317      450      627      522      576      822      723 
     437      414      531      533      467      583      908      930 
     442      174      483      656      508      639      864      687 
     399      359      523      719      652      407      557      834 
     626      407      475      484      585      792      789      666 
     423      122      218      658      965      955      676      414 
     386      430      495      653      750      603      491      673 
     662      322      268      526      747      905      835      535 
     436      560      515      322      413      785      876      554 
     282      341      643      776      616      646      770      521 
     351      513      558      571      654      622      630      684 
     583      402      368      575      724      673      679      665 
     472      391      486      542      660      824      793      510 
     213      318      688      773      625      611      683      573 
     342      313      542      783      751      496      461      710 
     751      496      414      552      571      619      812      726 
     356      279      592      770      567      356      522      784 
     652      488      658      627      372      477      783      849 
     611      307      356      696      795      511      317      602 
     876      541      228      603      926      560      311      668 
     788      457      378      511      510      579      741      687 
     549      595      579      441      515      722      818      737 
     384      112      410      828      719      515      727      853 
     540      275      363      441      332      560     1105      999 
     341      236      677      888      669      400      410      558 
     654      633      409      297      526      668      645      788 
     897      724      372      153      483      945      711      240 
     459      891      589      162      602     1057      610      286 
     664      704      324      387      622      562      553      741 
     770      472      409      761      804      584      423      190 
     368      880      893      625      522      494      480      454 
     438      488      681      862      688      411      332      378 
     710     1023      729      333      437      592      498      444 
     527      662      849      881      433       64      587     1059 
     581      429      912      684       63      118      557      773 
     722      751      907      818      460      229      286      433 
     641      731      508      562      845      487       43      487 
    1086      903      487      472      476      411      623      668 
     364      503      885      668      321      552      947      800 
     353      388      662      569      403      440      595      826 
     839      504      230      414      869      947      550      274 
     371      603      757      760      583      324      321      556 
     629      762      978      607       10      168      823     1039 
     661      268      318      633      720      541      546      773 
     708      346      299      676      955      815      433      276 
     534      769      623      392      414      623      823      793 
     496      314      469      661      643      531      448      486 
     681      761      569      511      757      805      471      299 
     527      660      526      441      500      635      733      653 
     550      661      646      257      234      726      854      654 
     562      418      457      756      711      475      502      537 
     602      742      604      411      452      562      687      729 
     656      533      382      491      819      827      529      363 
     457      607      561      548      685      471      256      712 
     919      399      306      749      781      515      531      681 
     635      530      515      468      494      656      687      675 
     629      326      311      776      832      417      353      579 
     607      664      831      697      395      329      417      610 
     818      669      471      619      611      407      525      727 
     672      598      681      588      202      313      916      837 
     359      471      718      635      495      518      687      675 
     503      596      668      384      318      657      796      606 
     515      665      733      495      233      324      707      903 
     703      517      503      410      399      577      558      496 
     765      868      550      414      521      468      513      835 
     884      548      405      507      518      577      747      656 
     453      573      679      437      325      580      733      565 
     500      731      793      450      164      340      716      827 
     799      761      436      101      253      706      912      778 
     795      816      369      112      483      830      792      533 
     409      546      533      419      558      715      650      498 
     473      608      638      483      498      781      865      568 
