Origin Time       2024/06/23 22:54:00
Lat.              35.645
Long.             140.060
Depth. (km)       72
Mag.              4.1
Station Code      IBRH11
Station Lat.      36.3701
Station Long.     140.1401
Station Height(m) 67
Record Time       2024/06/23 22:54:51
Sampling Freq(Hz) 100Hz
Duration Time(s)  120
Dir.              4
Scale Factor      7845(gal)/8223790
Max. Acc. (gal)   2.957
Last Correction   2024/06/23 22:54:51
Memo.             
[...]
   -7244    -7415    -7403    -7317    -7352    -7454    -7323    -7188 
   -7279    -7202    -6943    -6916    -7186    -7404    -7254    -7110 
   -7311    -7237    -6729    -6642    -7044    -7276    -7404    -7628 
   -7592    -7389    -7323    -7144    -6890    -6878    -7119    -7568 
   -7842    -7620    -7372    -7381    -7368    -7275    -7150    -6993 
   -6925    -7040    -7346    -7609    -7427    -7009    -6880    -6894 
   -6712    -6667    -7196    -7744    -7657    -7385    -7283    -7137 
   -7003    -6995    -7192    -7504    -7603    -7642    -7838    -7757 
   -7173    -6685    -6720    -6831    -6821    -7221    -7846    -7869 
   -7422    -7155    -6947    -6544    -6331    -6573    -6914    -7244 
   -7780    -8187    -8077    -7587    -6998    -6619    -6559    -6812 
   -7265    -7569    -7750    -7908    -7859    -7593    -7173    -6991 
   -7171    -7032    -6709    -6756    -6878    -7117    -7677    -7997 
   -7758    -7321    -6963    -6617    -6397    -6540    -6976    -7470 
   -7693    -7599    -7592    -7647    -7430    -7165    -7082    -6905 
   -6712    -6885    -7249    -7485    -7701    -7971    -7975    -7415 
   -6745    -6658    -6841    -6864    -7090    -7379    -7341    -7447 
   -7812    -7703    -7092    -6814    -7072    -7250    -7006    -6686 
   -6817    -7230    -7356    -7419    -7801    -7950    -7449    -6848 
   -6664    -6874    -7318    -7591    -7310    -6918    -7011    -7318 
   -7501    -7558    -7352    -7141    -7146    -6914    -6636    -6808 
   -7136    -7508    -7742    -7345    -6924    -7230    -7595    -7352 
   -7146    -7506    -7774    -7616    -7519    -7457    -7105    -6744 
   -6754    -7056    -7427    -7709    -7634    -7219    -6833    -6629 
   -6812    -7188    -7098    -6914    -7059    -7018    -6933    -7091 
   -7207    -7319    -7345    -7245    -7464    -7742    -7616    -7457 
   -7469    -7430    -7348    -7245    -7169    -7356    -7647    -7585 
   -7268    -7020    -6874    -6898    -7092    -7245    -7199    -7123 
   -7227    -7269    -7146    -7090    -7090    -6968    -6758    -6922 
   -7388    -7352    -7177    -7551    -7819    -7566    -7237    -7029 
   -6933    -6914    -6914    -7117    -7512    -7700    -7696    -7659 
   -7383    -7030    -6949    -7015    -7110    -7339    -7611    -7568 
   -7206    -7006    -7056    -7138    -7227    -7111    -6766    -6585 
   -6768    -7294    -7785    -7869    -7771    -7577    -7123    -6747 
   -6866    -7304    -7523    -7295    -7028    -7072    -7227    -7403 
   -7638    -7542    -7209    -7191    -7144    -6732    -6592    -7001 
   -7416    -7489    -7360    -7275    -7296    -7229    -6997    -6781 
   -6731    -7013    -7523    -7751    -7647    -7638    -7708    -7461 
   -7045    -7029    -7375    -7597    -7537    -7476    -7603    -7561 
   -7163    -6795    -6698    -6698    -6639    -6656    -6922    -7345 
   -7595    -7439    -7150    -7030    -6929    -6863    -7075    -7404 
   -7527    -7406    -7157    -7018    -7194    -7506    -7627    -7481 
   -7234    -7115    -7242    -7473    -7554    -7512    -7537    -7550 
   -7453    -7277    -7015    -6810    -6844    -6986    -7102    -7188 
   -7160    -7065    -7071    -7192    -7419    -7632    -7649    -7487 
   -7152    -6763    -6713    -6976    -7126    -7182    -7352    -7438 
   -7368    -7314    -7180    -7010    -7034    -7149    -7238    -7310 
   -7338    -7515    -7838    -7778    -7302    -7021    -6951    -6825 
   -6866    -7042    -7203    -7388    -7399    -7261    -7194    -7214 
   -7414    -7574    -7379    -7146    -7113    -7091    -7095    -7290 
   -7569    -7603    -7302    -7021    -6990    -7041    -7084    -7184 
   -7314    -7398    -7418    -7306    -6986    -6790    -7051    -7311 
   -7227    -7242    -7461    -7422    -7064    -6799    -6836    -6974 
   -7111    -7269    -7327    -7442    -7672    -7616    -7418    -7441 
   -7418    -7268    -7146    -6947    -6957    -7438    -7754    -7641 
   -7503    -7257    -6907    -6778    -6874    -7222    -7659    -7681 
   -7294    -7072    -7263    -7341    -7061    -6871    -6845    -6840 
   -6798    -6586    -6647    -7209    -7572    -7620    -7747    -7708 
   -7346    -6966    -6783    -6852    -7096    -7352    -7582    -7807 
   -7825    -7686    -7685    -7636    -7372    -7096    -6860    -6798 
   -7022    -7257    -7346    -7352    -7356    -7288    -6920    -6604 
   -6741    -6885    -7045    -7592    -7850    -7483    -7123    -6953 
   -6918    -7026    -7091    -7102    -7102    -7117    -7353    -7753 
   -7836    -7492    -7237    -7128    -6855    -6779    -7175    -7654 
   -7859    -7750    -7507    -7315    -7106    -6862    -6856    -6972 
   -6970    -7141    -7389    -7369    -7427    -7609    -7391    -6883 
   -6658    -6817    -7094    -7295    -7425    -7524    -7464    -7279 
   -7138    -7011    -7018    -7099    -7083    -7275    -7464    -7314 
   -7387    -7730    -7836    -7670    -7280    -6858    -6620    -6528 
   -6690    -6997    -7183    -7369    -7499    -7372    -7302    -7464 
   -7527    -7497    -7524    -7319    -6947    -6862    -7057    -7369 
   -7605    -7574    -7412    -7130    -6816    -6936    -7337    -7468 
   -7349    -7194    -7036    -6872    -6737    -6890    -7410    -7767 
   -7624    -7304    -7048    -6862    -6804    -6910    -7214    -7595 
   -7738    -7547    -7284    -7219    -7256    -7064    -6816    -6986 
   -7452    -7689    -7507    -7306    -7338    -7253    -7137    -7306 
   -7334    -7133    -7196    -7365    -7334    -7335    -7407    -7339 
   -7215    -7101    -6966    -6891    -6867    -6891    -7061    -7179 
   -7069    -7034    -7122    -7053    -7076    -7406    -7658    -7545 
   -7191    -7006    -7153    -7171    -7048    -7395    -7992    -8009 
   -7561    -7275    -7125    -7071    -7231    -7308    -7371    -7600 
   -7591    -7329    -7155    -7082    -7086    -6928    -6488    -6300 
   -6631    -7030    -7211    -7369    -7542    -7495    -7241    -6980 
   -6944    -7234    -7564    -7669    -7696    -7766    -7700    -7438 
   -7141    -6976    -7036    -7069    -6880    -6849    -7194    -7531 
   -7497    -7236    -7169    -7303    -7311    -7248    -7226    -7204 
   -7360    -7533    -7308    -6982    -6945    -7018    -7149    -7380 
   -7416    -7075    -6760    -6912    -7222    -7315    -7408    -7555 
   -7530    -7285    -6991    -6963    -7109    -6986    -6840    -7121 
   -7500    -7582    -7487    -7410    -7452    -7520    -7380    -7110 
   -7044    -7215    -7371    -7298    -6957    -6767    -7088    -7439 
   -7430    -7433    -7510    -7369    -7221    -7392    -7680    -7673 
   -7445    -7300    -7137    -6929    -6894    -6964    -7084    -7250 
   -7410    -7489    -7206    -6805    -6831    -7047    -7146    -7096 
   -6831    -6573    -6489    -6691    -7186    -7524    -7719    -7952 
   -7728    -7060    -6629    -6689    -7159    -7762    -8078    -8114 
   -7965    -7474    -6933    -6609    -6412    -6670    -7223    -7312 
   -7091    -7047    -7183    -7457    -7784    -7973    -7753    -7194 
   -6875    -6959    -7231    -7642    -7904    -7848    -7684    -7407 
   -7206    -7345    -7561    -7611    -7453    -7299    -7499    -7672 
   -7156    -6350    -5972    -5625    -5043    -5119    -6099    -7136 
   -7807    -8183    -8159    -7647    -6899    -6313    -6227    -6655 
   -7302    -7774    -7734    -7487    -7650    -7917    -7848    -7904 
   -8289    -8469    -8345    -8452    -8978    -9435    -9305    -8596 
   -7506    -6050    -4619    -4249    -5310    -6920    -8044    -8060 
   -7088    -5976    -5192    -4962    -5637    -6690    -7180    -7188 
   -7161    -6970    -6867    -7296    -7535    -7144    -6876    -6774 
   -6457    -6588    -7844    -9520   -10207    -9707    -9038    -8603 
   -7996    -7090    -6539    -7047    -7996    -8183    -7823    -7589 
   -7022    -5971    -5220    -4950    -4965    -5441    -6192    -6998 
   -8052    -8866    -8668    -7623    -6345    -5617    -5979    -6912 
   -7793    -8607    -9059    -8644    -7769    -7295    -7240    -7265 
   -7203    -6890    -6544    -6448    -6542    -6991    -7771    -8110 
   -7645    -6949    -6596    -6840    -7636    -8446    -8768    -8599 
   -8012    -6945    -5688    -4981    -5023    -5254    -5833    -7221 
   -8411    -8461    -8182    -8218    -8101    -7705    -7333    -7122 
   -7068    -6930    -6762    -6968    -7281    -7296    -7365    -7353 
   -6864    -6789    -7507    -8037    -8371    -8733    -8440    -7618 
   -6833    -6192    -6146    -6674    -7045    -7288    -7572    -7364 
   -6450    -5310    -4621    -4752    -5501    -6636    -8082    -9258 
   -9394    -8646    -7870    -7572    -7611    -7885    -8576    -9089 
   -8527    -7422    -6917    -7150    -7688    -8421    -9051    -8741 
   -7384    -6027    -5428    -5389    -5682    -6227    -6471    -6016 
   -5292    -4835    -4936    -5748    -6968    -8016    -8569    -8630 
   -8347    -7900    -7387    -6785    -6390    -6508    -6562    -6361 
   -6833    -7967    -8795    -9166    -9391    -9510    -9397    -8839 
   -8081    -7580    -7267    -7096    -7106    -7159    -7510    -8004 
   -7797    -7142    -6724    -6018    -4980    -4743    -5440    -6120 
   -6554    -7056    -7423    -7210    -6597    -6274    -6331    -6440 
   -6787    -7260    -7403    -7462    -7771    -8128    -8205    -7989 
   -7696    -7429    -7254    -7287    -7708    -8356    -8499    -8040 
   -7622    -7484    -7566    -7682    -7749    -7933    -7908    -7454 
   -7049    -6727    -6334    -6170    -6126    -5803    -5485    -5607 
   -6123    -6874    -7483    -7657    -7847    -8158    -8303    -8536 
   -8484    -7757    -7242    -7069    -6733    -6690    -6745    -6354 
   -6058    -6035    -6122    -6778    -7786    -8232    -8029    -7600 
   -7242    -7300    -7672    -8095    -8483    -8418    -7998    -7703 
   -7392    -7256    -7429    -7248    -6864    -6889    -6832    -6396 
   -6366    -6909    -7306    -7543    -7792    -7484    -6701    -6311 
   -6378    -6342    -6286    -6705    -7240    -7217    -7175    -7551 
   -7639    -7624    -8074    -8110    -7576    -7393    -7160    -6662 
   -6691    -6932    -6959    -7163    -7299    -7155    -7252    -7634 
   -7982    -8417    -8810    -8675    -8166    -7842    -7821    -7811 
   -7506    -6829    -5979    -5425    -5364    -5351    -5269    -5632 
   -6459    -6952    -6822    -6844    -7195    -7264    -7206    -7558 
   -8148    -8414    -8430    -8784    -9182    -9045    -8658    -8214 
   -7523    -6639    -5829    -5417    -5494    -6061    -6984    -7601 
   -7773    -8008    -8081    -7749    -7304    -6786    -6480    -6613 
   -6764    -6937    -7341    -7587    -7569    -7504    -7169    -6654 
   -6627    -7059    -7443    -7954    -8414    -7992    -7140    -6925 
   -6997    -6720    -6504    -6621    -6559    -6384    -6782    -7395 
   -7481    -7241    -6980    -6810    -6826    -6751    -6814    -7815 
   -9310   -10073    -9931    -9332    -8419    -7338    -6227    -5355 
   -5401    -6291    -6832    -6602    -6403    -6417    -6193    -6049 
   -6265    -6666    -7431    -8056    -7946    -8032    -8505    -8336 
   -7859    -7744    -7569    -7168    -6839    -6601    -6465    -6706 
   -7299    -7788    -7958    -7905    -7782    -7717    -7645    -7387 
   -6924    -6396    -6056    -6165    -6579    -6941    -7461    -8239 
   -8513    -7952    -7349    -7013    -6357    -5773    -6129    -6791 
   -7034    -7360    -8006    -8446    -8251    -7593    -7121    -6995 
   -6716    -6103    -5582    -5460    -5506    -5826    -6872    -8332 
   -9518   -10004    -9747    -9418    -9575    -9625    -8876    -7821 
   -7107    -6469    -5826    -5533    -5682    -6212    -6562    -6184 
   -5806    -6102    -6405    -6192    -5988    -6291    -6702    -6732 
   -6713    -7029    -7396    -7408    -7187    -7203    -7672    -8409 
   -8900    -8864    -8588    -8172    -7704    -7596    -7844    -8226 
   -8619    -8571    -8060    -7782    -7722    -7322    -6798    -6486 
   -6031    -5478    -5629    -6444    -6967    -6855    -6416    -5891 
   -5273    -4758    -5046    -6112    -7111    -7873    -8422    -8375 
   -8075    -8181    -8337    -8284    -8469    -8687    -8565    -8199 
   -7622    -7296    -7585    -7878    -7855    -7798    -7457    -6550 
   -5767    -5803    -6300    -6613    -6820    -7155    -7344    -7408 
   -7703    -7909    -7817    -7885    -7892    -7152    -6008    -5212 
   -4993    -5375    -6191    -7068    -7758    -8208    -8409    -8472 
   -8529    -8235    -7353    -6592    -6575    -6893    -6928    -6917 
   -7492    -8194    -7901    -6845    -6129    -5918    -5913    -6492 
   -7894    -9112    -9375    -9320    -9332    -8885    -7936    -7245 
   -7102    -6922    -6486    -6318    -6502    -6477    -6162    -6102 
   -6345    -6300    -5979    -6033    -6484    -6886    -7076    -7177 
   -7175    -6768    -6443    -6783    -6987    -6867    -7209    -7619 
   -7740    -8144    -8868    -9418    -9390    -8862    -8559    -8698 
   -8627    -8422    -8714    -8887    -8255    -7399    -6652    -6016 
   -5705    -5481    -5267    -5287    -5260    -4928    -4495    -4255 
   -4554    -5409    -6191    -6677    -7283    -7916    -8382    -8866 
   -9120    -8964    -8766    -8802    -8951    -8842    -8683    -9035 
   -9431    -9289    -9221    -9490    -8999    -7547    -6502    -6161 
   -5682    -5178    -5101    -5020    -4573    -4193    -4133    -4230 
   -4745    -5638    -6230    -6517    -6790    -7165    -7909    -8641 
   -8922    -9128    -9320    -9209    -8978    -8980    -9109    -8919 
   -8591    -8618    -8665    -8353    -7950    -7573    -7122    -6710 
   -6426    -6430    -6747    -6864    -6775    -6883    -6771    -6083 
   -5248    -4770    -4780    -4938    -5197    -5881    -6602    -6929 
   -7187    -7344    -7252    -7488    -8154    -8631    -8777    -8729 
   -8417    -7992    -7850    -8143    -8542    -8600    -8257    -7830 
   -7620    -7632    -7719    -7927    -8127    -7825    -7017    -6384 
   -6300    -6358    -6284    -6350    -6502    -6370    -6012    -5937 
   -6307    -6546    -6511    -6678    -6967    -7115    -7163    -7029 
   -6750    -6816    -7511    -8206    -8479    -8799    -9140    -8883 
   -8091    -7506    -7290    -6945    -6505    -6415    -6590    -6616 
   -6513    -6637    -7022    -7393    -7483    -7346    -7364    -7596 
   -7831    -7919    -7742    -7500    -7214    -6721    -6559    -6988 
   -7419    -7696    -7909    -7821    -7645    -7584    -7241    -6755 
   -6623    -6679    -6768    -6897    -6971    -7118    -7226    -6945 
   -6515    -6394    -6511    -6535    -6444    -6516    -6867    -7190 
   -7165    -7138    -7646    -8314    -8559    -8708    -8874    -8688 
   -8405    -8217    -7956    -7778    -7659    -7325    -6924    -6664 
   -6511    -6547    -6683    -6647    -6523    -6301    -5946    -5888 
   -6331    -7088    -7645    -7426    -6847    -6509    -6191    -5956 
   -6390    -7356    -8167    -8588    -8662    -8496    -8332    -8073 
   -7723    -7790    -8128    -8031    -7568    -7306    -7335    -7217 
   -6864    -6833    -7113    -7156    -6982    -6864    -6774    -6504 
   -6107    -5952    -5983    -6038    -6373    -6918    -7253    -7263 
   -7300    -7704    -8113    -8144    -8274    -8607    -8415    -7877 
   -7634    -7408    -7172    -7296    -7573    -7765    -7731    -7292 
   -6770    -6650    -6802    -6777    -6689    -6821    -6755    -6320 
   -6129    -6363    -6712    -7192    -7730    -7960    -7886    -7681 
   -7399    -7300    -7515    -7668    -7483    -7252    -7225    -7237 
   -7280    -7441    -7420    -7075    -6713    -6475    -6316    -6336 
   -6673    -7302    -8008    -8430    -8403    -8136    -7848    -7555 
   -7186    -6831    -6826    -7175    -7437    -7499    -7458    -7275 
   -7056    -6867    -6662    -6589    -6667    -6640    -6508    -6713 
   -7294    -7572    -7454    -7522    -7703    -7632    -7447    -7425 
   -7565    -7541    -7310    -7157    -6932    -6655    -6790    -7076 
   -7145    -7321    -7601    -7604    -7425    -7507    -7889    -8120 
   -7890    -7354    -7009    -6968    -6781    -6596    -6768    -6826 
   -6593    -6574    -6814    -6885    -6840    -7110    -7479    -7574 
   -7712    -7908    -7724    -7400    -7334    -7145    -6656    -6554 
   -7053    -7373    -7295    -7449    -7750    -7636    -7381    -7383 
   -7379    -7258    -7222    -7196    -7209    -7365    -7392    -7341 
   -7416    -7360    -7240    -7190    -6966    -6817    -6839    -6583 
   -6419    -6921    -7650    -8002    -8056    -8141    -8110    -7777 
   -7496    -7325    -7014    -6875    -7030    -7056    -6886    -6656 
   -6315    -6022    -6022    -6358    -6990    -7585    -7788    -7686 
   -7416    -7150    -7140    -7168    -7083    -7190    -7314    -7218 
   -7466    -8102    -8434    -8579    -8746    -8384    -7549    -7020 
   -6978    -7075    -7128    -7034    -6787    -6629    -6602    -6586 
   -6767    -7056    -7013    -6737    -6561    -6419    -6345    -6508 
   -6778    -6967    -7159    -7481    -7811    -7958    -7884    -7639 
   -7381    -7241    -7157    -7268    -7695    -7996    -8025    -8172 
   -8283    -8081    -7819    -7566    -7233    -6971    -6934    -7142 
   -7304    -7015    -6502    -6210    -6010    -5856    -6037    -6497 
   -7005    -7460    -7736    -7788    -7628    -7308    -7092    -7053 
   -6961    -6914    -7091    -7291    -7449    -7693    -7817    -7604 
   -7372    -7460    -7690    -7804    -7816    -7678    -7398    -7214 
   -7163    -7092    -6964    -6781    -6736    -7082    -7510    -7555 
   -7462    -7481    -7314    -7055    -7029    -7096    -7083    -6895 
   -6652    -6693    -6790    -6762    -7109    -7669    -7707    -7342 
   -7045    -6786    -6529    -6511    -6806    -7226    -7581    -7846 
   -8187    -8515    -8441    -8179    -8175    -8032    -7449    -6991 
   -6872    -6832    -6966    -7198    -7153    -6874    -6643    -6501 
   -6423    -6378    -6180    -5967    -6165    -6561    -6687    -6855 
   -7381    -7835    -7927    -7901    -7867    -7827    -7915    -8168 
   -8482    -8548    -8137    -7614    -7329    -7079    -6868    -7072 
   -7495    -7437    -7024    -6917    -6883    -6590    -6556    -6943 
   -7118    -6817    -6501    -6454    -6500    -6648    -7061    -7585 
   -7894    -7925    -7800    -7474    -7029    -6895    -7159    -7322 
   -7227    -7234    -7348    -7395    -7603    -7970    -8056    -7747 
   -7300    -6953    -6708    -6426    -6408    -6920    -7339    -7256 
   -7123    -7101    -7001    -7060    -7438    -7817    -7935    -7832 
   -7678    -7503    -7245    -7172    -7480    -7701    -7466    -7144 
   -7028    -6906    -6839    -7095    -7317    -7113    -6836    -6705 
   -6467    -6307    -6552    -6961    -7302    -7522    -7493    -7304 
   -7069    -6785    -6714    -7038    -7474    -7812    -8066    -8086 
   -7878    -7727    -7569    -7334    -7379    -7643    -7643    -7468 
   -7376    -7175    -6988    -7038    -7091    -7078    -6987    -6798 
   -6793    -6924    -7037    -7238    -7298    -7088    -6991    -7149 
   -7225    -7117    -7136    -7231    -7184    -7078    -6867    -6702 
