Origin Time       2024/06/23 22:54:00
Lat.              35.645
Long.             140.060
Depth. (km)       72
Mag.              4.1
Station Code      IBRH15
Station Lat.      36.5566
Station Long.     140.3013
Station Height(m) -62
Record Time       2024/06/23 22:54:56
Sampling Freq(Hz) 100Hz
Duration Time(s)  120
Dir.              3
Scale Factor      2942(gal)/8224139
Max. Acc. (gal)   0.160
Last Correction   2024/06/23 22:54:56
Memo.             
[...]
 -193594  -193619  -193563  -193467  -193330  -193286  -193406  -193469 
 -193398  -193368  -193434  -193515  -193579  -193581  -193430  -193222 
 -193183  -193322  -193483  -193526  -193476  -193445  -193434  -193450 
 -193487  -193461  -193413  -193375  -193345  -193459  -193602  -193502 
 -193347  -193360  -193426  -193475  -193479  -193392  -193311  -193353 
 -193484  -193587  -193615  -193564  -193428  -193303  -193295  -193379 
 -193453  -193429  -193380  -193365  -193306  -193267  -193345  -193445 
 -193491  -193503  -193430  -193315  -193334  -193428  -193477  -193572 
 -193595  -193411  -193313  -193442  -193573  -193612  -193591  -193450 
 -193287  -193302  -193423  -193476  -193486  -193482  -193387  -193294 
 -193333  -193411  -193407  -193340  -193290  -193322  -193399  -193468 
 -193530  -193511  -193418  -193417  -193486  -193521  -193563  -193521 
 -193353  -193276  -193334  -193401  -193471  -193515  -193477  -193436 
 -193429  -193379  -193371  -193453  -193464  -193444  -193502  -193492 
 -193411  -193463  -193580  -193580  -193482  -193341  -193225  -193239 
 -193357  -193469  -193503  -193433  -193325  -193279  -193338  -193442 
 -193514  -193576  -193576  -193469  -193450  -193527  -193473  -193391 
 -193425  -193449  -193495  -193575  -193519  -193410  -193387  -193344 
 -193302  -193372  -193429  -193407  -193468  -193557  -193441  -193206 
 -193171  -193297  -193374  -193461  -193541  -193486  -193349  -193283 
 -193351  -193387  -193352  -193445  -193618  -193688  -193629  -193446 
 -193226  -193113  -193218  -193538  -193768  -193706  -193541  -193342 
 -193143  -193191  -193428  -193592  -193700  -193714  -193507  -193263 
 -193234  -193337  -193446  -193571  -193565  -193394  -193290  -193286 
 -193271  -193321  -193483  -193596  -193533  -193364  -193267  -193341 
 -193484  -193572  -193630  -193615  -193445  -193284  -193303  -193417 
 -193526  -193579  -193500  -193402  -193413  -193452  -193430  -193371 
 -193337  -193357  -193415  -193476  -193486  -193430  -193357  -193287 
 -193241  -193270  -193383  -193494  -193544  -193550  -193471  -193391 
 -193448  -193483  -193452  -193523  -193565  -193492  -193469  -193409 
 -193275  -193305  -193375  -193342  -193438  -193577  -193500  -193371 
 -193365  -193422  -193465  -193494  -193521  -193522  -193521  -193499 
 -193403  -193276  -193203  -193256  -193394  -193449  -193449  -193511 
 -193499  -193384  -193324  -193322  -193340  -193386  -193463  -193521 
 -193476  -193426  -193463  -193471  -193433  -193465  -193494  -193442 
 -193414  -193395  -193357  -193399  -193513  -193588  -193568  -193452 
 -193357  -193375  -193441  -193494  -193480  -193403  -193413  -193488 
 -193565  -193669  -193621  -193390  -193247  -193253  -193271  -193291 
 -193391  -193459  -193402  -193398  -193463  -193434  -193360  -193330 
 -193382  -193468  -193457  -193442  -193507  -193461  -193329  -193310 
 -193395  -193522  -193611  -193548  -193438  -193415  -193344  -193237 
 -193288  -193436  -193548  -193596  -193548  -193405  -193301  -193360 
 -193452  -193452  -193452  -193387  -193247  -193315  -193510  -193545 
 -193544  -193521  -193360  -193322  -193473  -193523  -193480  -193518 
 -193515  -193418  -193464  -193542  -193450  -193423  -193442  -193325 
 -193286  -193415  -193498  -193513  -193556  -193460  -193221  -193234 
 -193428  -193457  -193455  -193473  -193363  -193324  -193432  -193417 
 -193336  -193371  -193394  -193386  -193465  -193554  -193558  -193529 
 -193475  -193401  -193352  -193334  -193390  -193506  -193611  -193623 
 -193483  -193357  -193384  -193378  -193363  -193504  -193568  -193374 
 -193214  -193284  -193351  -193349  -193514  -193702  -193610  -193419 
 -193275  -193120  -193162  -193440  -193638  -193718  -193722  -193504 
 -193210  -193151  -193326  -193540  -193680  -193658  -193428  -193243 
 -193266  -193290  -193395  -193685  -193710  -193395  -193187  -193087 
 -193039  -193293  -193677  -193810  -193699  -193469  -193226  -193121 
 -193221  -193484  -193707  -193747  -193684  -193531  -193352  -193324 
 -193359  -193336  -193359  -193429  -193473  -193476  -193438  -193434 
 -193471  -193467  -193450  -193419  -193303  -193272  -193445  -193591 
 -193599  -193542  -193387  -193236  -193283  -193432  -193521  -193531 
 -193473  -193410  -193376  -193326  -193334  -193444  -193484  -193449 
 -193459  -193368  -193217  -193305  -193494  -193515  -193511  -193519 
 -193387  -193286  -193419  -193591  -193576  -193467  -193437  -193422 
 -193318  -193266  -193341  -193423  -193510  -193600  -193563  -193386 
 -193249  -193310  -193472  -193544  -193525  -193534  -193549  -193491 
 -193413  -193348  -193321  -193376  -193414  -193382  -193355  -193330 
 -193332  -193396  -193452  -193482  -193480  -193426  -193407  -193429 
 -193448  -193491  -193530  -193561  -193590  -193515  -193386  -193333 
 -193317  -193365  -193525  -193575  -193429  -193348  -193380  -193388 
 -193390  -193410  -193446  -193499  -193500  -193446  -193387  -193341 
 -193368  -193457  -193487  -193472  -193484  -193460  -193368  -193302 
 -193348  -193461  -193510  -193468  -193406  -193364  -193340  -193332 
 -193387  -193476  -193490  -193484  -193517  -193480  -193376  -193329 
 -193382  -193509  -193633  -193623  -193467  -193274  -193151  -193170 
 -193310  -193480  -193556  -193477  -193345  -193232  -193163  -193263 
 -193510  -193711  -193800  -193729  -193487  -193320  -193347  -193450 
 -193606  -193715  -193611  -193406  -193306  -193314  -193340  -193371 
 -193418  -193395  -193332  -193347  -193359  -193351  -193407  -193392 
 -193315  -193383  -193459  -193423  -193402  -193356  -193303  -193409 
 -193600  -193692  -193653  -193503  -193322  -193270  -193406  -193576 
 -193639  -193650  -193606  -193496  -193405  -193302  -193253  -193360 
 -193436  -193401  -193371  -193348  -193311  -193271  -193251  -193338 
 -193522  -193592  -193509  -193464  -193411  -193291  -193307  -193477 
 -193600  -193645  -193644  -193536  -193376  -193298  -193342  -193513 
 -193630  -193529  -193365  -193282  -193239  -193270  -193387  -193406 
 -193314  -193288  -193317  -193369  -193441  -193436  -193403  -193441 
 -193491  -193529  -193568  -193554  -193475  -193411  -193445  -193511 
 -193513  -193471  -193401  -193325  -193357  -193426  -193378  -193356 
 -193477  -193546  -193500  -193459  -193390  -193286  -193315  -193452 
 -193545  -193629  -193615  -193423  -193295  -193315  -193303  -193303 
 -193387  -193419  -193418  -193483  -193518  -193519  -193523  -193433 
 -193326  -193361  -193445  -193506  -193571  -193544  -193450  -193394 
 -193315  -193274  -193369  -193472  -193500  -193499  -193484  -193441 
 -193363  -193326  -193351  -193387  -193473  -193525  -193452  -193415 
 -193440  -193372  -193321  -193419  -193510  -193541  -193602  -193565 
 -193426  -193376  -193378  -193387  -193432  -193415  -193378  -193372 
 -193348  -193394  -193500  -193472  -193363  -193347  -193374  -193401 
 -193461  -193522  -193548  -193502  -193391  -193363  -193422  -193391 
 -193363  -193468  -193507  -193464  -193444  -193375  -193318  -193314 
 -193291  -193359  -193523  -193591  -193544  -193471  -193426  -193444 
 -193467  -193494  -193509  -193455  -193423  -193452  -193467  -193464 
 -193410  -193302  -193244  -193255  -193275  -193324  -193411  -193476 
 -193496  -193527  -193537  -193453  -193330  -193302  -193436  -193569 
 -193560  -193538  -193527  -193441  -193378  -193371  -193418  -193521 
 -193511  -193374  -193332  -193422  -193500  -193537  -193527  -193428 
 -193303  -193259  -193321  -193464  -193583  -193584  -193484  -193337 
 -193266  -193348  -193433  -193446  -193449  -193419  -193436  -193541 
 -193526  -193369  -193330  -193361  -193332  -193368  -193468  -193509 
 -193510  -193482  -193386  -193282  -193338  -193492  -193525  -193525 
 -193561  -193465  -193318  -193344  -193477  -193568  -193619  -193602 
 -193463  -193338  -193302  -193301  -193379  -193445  -193351  -193310 
 -193413  -193375  -193282  -193355  -193384  -193357  -193442  -193487 
 -193472  -193542  -193540  -193410  -193383  -193417  -193426  -193531 
 -193635  -193592  -193494  -193388  -193263  -193228  -193337  -193449 
 -193515  -193579  -193518  -193351  -193271  -193260  -193280  -193405 
 -193530  -193542  -193531  -193513  -193403  -193293  -193332  -193429 
 -193457  -193515  -193549  -193448  -193391  -193423  -193417  -193418 
 -193442  -193422  -193402  -193433  -193477  -193511  -193469  -193356 
 -193386  -193541  -193540  -193415  -193378  -193391  -193368  -193382 
 -193452  -193500  -193500  -193401  -193251  -193270  -193402  -193453 
 -193514  -193572  -193457  -193322  -193315  -193320  -193369  -193509 
 -193531  -193446  -193437  -193444  -193433  -193471  -193518  -193536 
 -193495  -193414  -193369  -193365  -193434  -193533  -193521  -193444 
 -193372  -193298  -193324  -193422  -193487  -193538  -193496  -193356 
 -193344  -193423  -193386  -193336  -193372  -193372  -193376  -193465 
 -193546  -193553  -193488  -193399  -193361  -193380  -193432  -193469 
 -193413  -193374  -193457  -193488  -193387  -193317  -193371  -193442 
 -193445  -193437  -193432  -193380  -193341  -193433  -193583  -193622 
 -193590  -193507  -193344  -193283  -193410  -193527  -193523  -193498 
 -193492  -193422  -193301  -193280  -193406  -193507  -193494  -193492 
 -193479  -193348  -193268  -193307  -193301  -193309  -193452  -193521 
 -193436  -193419  -193440  -193368  -193334  -193422  -193561  -193630 
 -193549  -193422  -193337  -193321  -193445  -193572  -193553  -193492 
 -193405  -193268  -193213  -193293  -193429  -193517  -193509  -193422 
 -193325  -193301  -193353  -193453  -193529  -193506  -193445  -193410 
 -193413  -193473  -193529  -193510  -193414  -193326  -193353  -193438 
 -193476  -193486  -193500  -193465  -193375  -193351  -193384  -193402 
 -193429  -193445  -193423  -193419  -193426  -193428  -193487  -193548 
 -193529  -193540  -193592  -193546  -193445  -193415  -193460  -193519 
 -193530  -193475  -193391  -193299  -193240  -193261  -193337  -193390 
 -193390  -193365  -193321  -193261  -193237  -193260  -193347  -193436 
 -193442  -193423  -193379  -193299  -193329  -193446  -193484  -193480 
 -193499  -193495  -193495  -193577  -193662  -193679  -193658  -193558 
 -193406  -193363  -193409  -193422  -193463  -193575  -193623  -193557 
 -193491  -193438  -193352  -193309  -193356  -193428  -193494  -193573 
 -193602  -193504  -193345  -193213  -193189  -193314  -193455  -193495 
 -193463  -193403  -193353  -193326  -193302  -193264  -193234  -193278 
 -193413  -193553  -193596  -193515  -193398  -193371  -193429  -193492 
 -193549  -193612  -193648  -193565  -193351  -193221  -193361  -193592 
 -193645  -193550  -193496  -193491  -193390  -193257  -193305  -193410 
 -193330  -193213  -193270  -193369  -193413  -193477  -193471  -193365 
 -193322  -193318  -193298  -193329  -193360  -193334  -193326  -193402 
 -193546  -193626  -193612  -193538  -193307  -193094  -193148  -193329 
 -193510  -193699  -193750  -193599  -193445  -193398  -193386  -193490 
 -193710  -193783  -193645  -193519  -193486  -193437  -193411  -193517 
 -193631  -193571  -193387  -193268  -193203  -193089  -193081  -193256 
 -193407  -193468  -193465  -193394  -193345  -193328  -193322  -193396 
 -193488  -193500  -193518  -193599  -193619  -193531  -193425  -193272 
 -193102  -193147  -193402  -193611  -193664  -193594  -193448  -193268 
 -193164  -193257  -193437  -193523  -193538  -193538  -193545  -193606 
 -193657  -193584  -193460  -193403  -193387  -193414  -193494  -193533 
 -193506  -193419  -193282  -193217  -193237  -193251  -193351  -193518 
 -193540  -193452  -193391  -193340  -193333  -193425  -193521  -193521 
 -193502  -193575  -193621  -193492  -193329  -193268  -193228  -193236 
 -193353  -193465  -193496  -193488  -193453  -193371  -193326  -193413 
 -193536  -193573  -193564  -193530  -193475  -193472  -193531  -193557 
 -193525  -193517  -193536  -193482  -193333  -193201  -193183  -193276 
 -193467  -193638  -193615  -193445  -193270  -193143  -193109  -193198 
 -193368  -193448  -193379  -193340  -193364  -193360  -193357  -193367 
 -193372  -193401  -193449  -193436  -193341  -193311  -193360  -193378 
 -193471  -193668  -193784  -193779  -193727  -193661  -193599  -193534 
 -193496  -193531  -193565  -193554  -193522  -193415  -193280  -193220 
 -193182  -193233  -193442  -193527  -193369  -193244  -193183  -193148 
 -193317  -193494  -193455  -193419  -193401  -193321  -193379  -193536 
 -193608  -193662  -193719  -193671  -193519  -193398  -193380  -193359 
 -193348  -193441  -193459  -193411  -193534  -193641  -193565  -193491 
 -193376  -193158  -193064  -193121  -193168  -193287  -193492  -193529 
 -193421  -193413  -193456  -193444  -193430  -193417  -193422  -193463 
 -193480  -193494  -193571  -193646  -193648  -193668  -193688  -193556 
 -193395  -193347  -193284  -193236  -193290  -193311  -193294  -193329 
 -193336  -193317  -193380  -193450  -193410  -193360  -193399  -193374 
 -193256  -193283  -193457  -193587  -193692  -193785  -193692  -193436 
 -193290  -193340  -193405  -193442  -193536  -193552  -193422  -193330 
 -193336  -193360  -193378  -193351  -193256  -193205  -193301  -193428 
 -193442  -193405  -193402  -193419  -193494  -193595  -193541  -193394 
 -193371  -193432  -193482  -193561  -193644  -193635  -193573  -193538 
 -193468  -193352  -193324  -193390  -193448  -193521  -193598  -193622 
 -193641  -193594  -193360  -193091  -192982  -192991  -193083  -193306 
 -193530  -193564  -193409  -193171  -192991  -193020  -193247  -193526 
 -193723  -193780  -193726  -193646  -193615  -193604  -193610  -193683 
 -193746  -193696  -193568  -193432  -193314  -193240  -193228  -193237 
 -193239  -193298  -193409  -193437  -193414  -193475  -193526  -193461 
 -193399  -193371  -193297  -193244  -193257  -193305  -193409  -193495 
 -193482  -193487  -193541  -193534  -193496  -193438  -193357  -193352 
 -193379  -193367  -193418  -193514  -193502  -193452  -193494  -193527 
 -193529  -193548  -193465  -193291  -193220  -193294  -193364  -193344 
 -193317  -193313  -193344  -193504  -193706  -193774  -193726  -193650 
 -193568  -193556  -193617  -193573  -193448  -193364  -193270  -193249 
 -193410  -193523  -193419  -193241  -193121  -193064  -193097  -193179 
 -193207  -193214  -193288  -193437  -193592  -193629  -193525  -193402 
 -193352  -193365  -193429  -193541  -193615  -193583  -193495  -193440 
 -193444  -193491  -193561  -193596  -193606  -193626  -193581  -193467 
 -193360  -193271  -193221  -193264  -193355  -193407  -193469  -193525 
 -193483  -193483  -193573  -193584  -193530  -193437  -193276  -193222 
 -193355  -193494  -193553  -193540  -193419  -193306  -193338  -193430 
 -193463  -193494  -193548  -193507  -193419  -193398  -193376  -193329 
 -193341  -193401  -193430  -193471  -193576  -193598  -193487  -193430 
 -193410  -193338  -193317  -193307  -193214  -193140  -193164  -193291 
 -193476  -193638  -193691  -193585  -193473  -193453  -193429  -193426 
 -193456  -193432  -193410  -193467  -193517  -193482  -193417  -193344 
 -193247  -193222  -193302  -193437  -193599  -193676  -193619  -193542 
 -193460  -193375  -193432  -193583  -193623  -193540  -193456  -193405 
 -193306  -193186  -193183  -193232  -193190  -193206  -193388  -193577 
 -193689  -193679  -193492  -193313  -193267  -193217  -193185  -193284 
 -193367  -193378  -193444  -193465  -193369  -193290  -193240  -193248 
 -193423  -193626  -193645  -193560  -193541  -193565  -193572  -193561 
 -193496  -193405  -193402  -193491  -193558  -193595  -193644  -193627 
 -193519  -193448  -193453  -193450  -193415  -193409  -193442  -193455 
 -193473  -193534  -193540  -193446  -193313  -193228  -193275  -193390 
 -193471  -193541  -193592  -193590  -193549  -193463  -193322  -193183 
 -193098  -193058  -193122  -193332  -193503  -193506  -193429  -193372 
 -193332  -193256  -193236  -193394  -193565  -193540  -193468  -193519 
 -193546  -193503  -193552  -193602  -193517  -193453  -193504  -193529 
 -193472  -193449  -193450  -193403  -193392  -193386  -193309  -193341 
 -193453  -193415  -193364  -193429  -193495  -193548  -193569  -193511 
 -193414  -193320  -193283  -193357  -193495  -193581  -193552  -193464 
 -193423  -193417  -193382  -193359  -193338  -193248  -193197  -193278 
 -193394  -193515  -193569  -193402  -193207  -193264  -193380  -193391 
 -193500  -193633  -193514  -193340  -193360  -193417  -193391  -193392 
 -193507  -193598  -193538  -193487  -193536  -193526  -193469  -193515 
 -193611  -193615  -193542  -193488  -193438  -193363  -193340  -193348 
 -193295  -193249  -193284  -193363  -193463  -193550  -193545  -193438 
 -193324  -193275  -193324  -193452  -193571  -193637  -193622  -193499 
 -193392  -193365  -193371  -193421  -193463  -193423  -193336  -193248 
 -193164  -193141  -193245  -193353  -193391  -193457  -193499  -193467 
 -193476  -193563  -193665  -193684  -193617  -193594  -193560  -193433 
 -193402  -193482  -193464  -193405  -193410  -193374  -193303  -193279 
 -193241  -193183  -193174  -193221  -193321  -193392  -193392  -193429 
 -193517  -193563  -193526  -193434  -193378  -193392  -193406  -193422 
 -193491  -193552  -193568  -193587  -193594  -193588  -193594  -193564 
 -193525  -193486  -193401  -193367  -193421  -193457  -193492  -193580 
 -193604  -193476  -193345  -193315  -193301  -193313  -193333  -193298 
 -193290  -193326  -193337  -193338  -193367  -193411  -193446  -193484 
 -193484  -193419  -193421  -193503  -193529  -193530  -193564  -193536 
 -193430  -193382  -193406  -193398  -193390  -193434  -193445  -193407 
 -193378  -193371  -193365  -193326  -193252  -193199  -193234  -193325 
 -193396  -193527  -193683  -193672  -193614  -193617  -193521  -193391 
 -193392  -193403  -193376  -193407  -193436  -193441  -193540  -193649 
 -193615  -193521  -193456  -193371  -193283  -193283  -193376  -193463 
 -193477  -193442  -193387  -193372  -193433  -193449  -193398  -193407 
 -193438  -193386  -193297  -193243  -193268  -193372  -193463  -193482 
 -193487  -193502  -193442  -193352  -193374  -193415  -193374  -193361 
 -193396  -193395  -193436  -193550  -193572  -193480  -193430  -193401 
 -193338  -193359  -193453  -193522  -193569  -193565  -193502  -193490 
 -193509  -193459  -193422  -193488  -193537  -193488  -193432  -193402 
 -193371  -193361  -193374  -193336  -193282  -193361  -193484  -193495 
 -193527  -193576  -193471  -193363  -193411  -193445  -193419  -193433 
 -193433  -193409  -193455  -193552  -193569  -193467  -193369  -193307 
 -193218  -193185  -193243  -193260  -193248  -193361  -193502  -193492 
 -193469  -193531  -193504  -193388  -193340  -193357  -193409  -193513 
 -193610  -193621  -193553  -193479  -193455  -193450  -193441  -193450 
 -193446  -193414  -193410  -193469  -193531  -193502  -193459  -193484 
 -193441  -193337  -193349  -193407  -193407  -193411  -193401  -193379 
 -193376  -193360  -193394  -193455  -193433  -193407  -193410  -193365 
 -193359  -193452  -193534  -193546  -193517  -193455  -193376  -193332 
 -193390  -193482  -193500  -193506  -193494  -193386  -193332  -193419 
 -193455  -193392  -193361  -193332  -193313  -193390  -193484  -193518 
 -193518  -193480  -193422  -193375  -193355  -193372  -193430  -193511 
