Origin Time       2024/06/23 22:54:00
Lat.              35.645
Long.             140.060
Depth. (km)       72
Mag.              4.1
Station Code      IBRH15
Station Lat.      36.5566
Station Long.     140.3013
Station Height(m) 45
Record Time       2024/06/23 22:54:56
Sampling Freq(Hz) 100Hz
Duration Time(s)  120
Dir.              6
Scale Factor      7845(gal)/8223790
Max. Acc. (gal)   0.976
Last Correction   2024/06/23 22:54:56
Memo.             
[...]
  -29104   -28946   -28902   -29116   -29377   -29411   -29238   -29093 
  -29072   -29054   -29088   -29276   -29450   -29420   -29247   -29060 
  -28993   -29170   -29417   -29511   -29435   -29173   -28865   -28850 
  -29239   -29679   -29664   -29215   -28821   -28788   -29074   -29397 
  -29496   -29347   -29107   -28937   -28926   -29123   -29435   -29542 
  -29292   -28989   -28960   -29155   -29376   -29477   -29359   -29087 
  -28972   -29193   -29523   -29556   -29176   -28779   -28771   -29046 
  -29313   -29497   -29592   -29450   -29089   -28858   -28971   -29303 
  -29552   -29492   -29249   -29053   -28957   -29018   -29273   -29562 
  -29531   -29072   -28644   -28722   -29211   -29623   -29621   -29285 
  -28921   -28800   -29027   -29444   -29695   -29567   -29258   -29050 
  -29035   -29172   -29288   -29257   -29143   -29046   -29069   -29305 
  -29529   -29435   -29160   -28971   -28915   -28999   -29230   -29463 
  -29497   -29342   -29168   -28966   -28759   -28869   -29359   -29735 
  -29610   -29139   -28829   -28906   -29170   -29378   -29334   -29128 
  -29123   -29419   -29704   -29544   -28985   -28595   -28653   -29049 
  -29579   -29886   -29766   -29327   -28763   -28472   -28772   -29377 
  -29766   -29779   -29509   -29061   -28668   -28696   -29177   -29617 
  -29552   -29106   -28840   -28991   -29255   -29363   -29338   -29354 
  -29346   -29115   -28877   -28996   -29409   -29678   -29560   -29259 
  -28985   -28818   -28903   -29246   -29554   -29525   -29227   -28996 
  -29033   -29250   -29392   -29285   -29041   -28925   -29062   -29328 
  -29473   -29385   -29165   -28969   -28907   -29035   -29292   -29466 
  -29425   -29323   -29284   -29169   -29034   -29143   -29394   -29425 
  -29219   -29061   -29138   -29269   -29153   -28930   -28960   -29187 
  -29373   -29500   -29558   -29423   -29064   -28809   -29012   -29415 
  -29497   -29272   -29115   -29160   -29169   -29022   -28911   -29014 
  -29299   -29474   -29355   -29216   -29269   -29313   -29205   -29088 
  -29095   -29127   -29126   -29235   -29357   -29270   -29189   -29326 
  -29397   -29203   -29011   -29101   -29339   -29344   -29080   -28966 
  -29158   -29377   -29448   -29355   -29178   -29083   -29145   -29301 
  -29369   -29219   -29046   -29100   -29295   -29455   -29454   -29199 
  -28880   -28794   -28993   -29268   -29366   -29315   -29220   -29150 
  -29218   -29322   -29300   -29188   -29089   -29147   -29320   -29357 
  -29278   -29214   -29123   -29007   -28934   -29076   -29505   -29797 
  -29556   -29066   -28795   -28788   -28904   -29120   -29447   -29714 
  -29635   -29242   -28868   -28834   -29187   -29506   -29420   -29061 
  -28738   -28777   -29257   -29708   -29712   -29412   -29093   -28923 
  -29015   -29263   -29431   -29415   -29253   -29066   -28999   -29127 
  -29334   -29420   -29342   -29115   -28872   -28917   -29292   -29600 
  -29542   -29253   -28906   -28698   -28939   -29451   -29698   -29493 
  -29056   -28818   -29014   -29334   -29373   -29170   -29037   -29104 
  -29262   -29408   -29479   -29432   -29300   -29116   -28934   -28880 
  -29072   -29407   -29581   -29496   -29236   -28927   -28892   -29181 
  -29397   -29366   -29247   -29111   -28921   -28872   -29173   -29479 
  -29436   -29319   -29413   -29490   -29255   -28798   -28587   -28927 
  -29455   -29695   -29639   -29405   -29039   -28741   -28813   -29251 
  -29639   -29658   -29320   -28822   -28634   -28968   -29417   -29682 
  -29704   -29361   -28810   -28494   -28659   -29205   -29772   -29965 
  -29685   -29116   -28638   -28598   -28961   -29443   -29718   -29589 
  -29272   -29096   -29061   -29101   -29205   -29239   -29145   -29045 
  -29093   -29324   -29474   -29338   -29149   -29130   -29201   -29215 
  -29123   -29034   -29139   -29405   -29573   -29431   -28995   -28698 
  -28953   -29459   -29614   -29334   -29033   -29029   -29201   -29257 
  -29150   -29122   -29258   -29315   -29223   -29162   -29119   -29088 
  -29224   -29462   -29527   -29281   -28945   -28877   -29099   -29384 
  -29523   -29380   -29104   -29030   -29149   -29166   -29038   -29022 
  -29253   -29519   -29523   -29300   -29093   -29033   -29164   -29370 
  -29380   -29173   -29068   -29201   -29336   -29218   -28961   -28915 
  -29145   -29377   -29359   -29150   -29060   -29201   -29349   -29319 
  -29238   -29234   -29263   -29299   -29288   -29201   -29138   -29172 
  -29303   -29344   -29104   -28860   -28961   -29299   -29565   -29573 
  -29330   -29016   -28863   -28988   -29259   -29363   -29224   -29174 
  -29349   -29427   -29228   -29015   -29088   -29308   -29323   -29153 
  -29088   -29212   -29313   -29191   -28984   -29015   -29311   -29538 
  -29415   -29081   -28904   -29034   -29282   -29404   -29342   -29255 
  -29303   -29366   -29218   -28944   -28903   -29231   -29600   -29579 
  -29165   -28760   -28684   -28908   -29208   -29447   -29598   -29539 
  -29226   -28929   -28867   -29015   -29312   -29614   -29736   -29592 
  -29199   -28829   -28825   -29119   -29401   -29524   -29424   -29123 
  -28831   -28829   -29173   -29474   -29408   -29157   -28999   -29033 
  -29192   -29311   -29358   -29338   -29164   -29004   -29087   -29285 
  -29398   -29282   -29007   -28945   -29216   -29554   -29663   -29432 
  -29072   -28883   -28977   -29273   -29536   -29551   -29340   -29084 
  -28954   -28945   -28946   -29073   -29338   -29423   -29261   -29099 
  -29101   -29197   -29188   -29107   -29195   -29417   -29486   -29340 
  -29165   -29012   -28917   -29034   -29367   -29643   -29616   -29357 
  -29066   -28890   -28930   -29188   -29493   -29505   -29119   -28748 
  -28765   -29106   -29479   -29590   -29367   -29045   -28885   -28996 
  -29268   -29434   -29407   -29300   -29207   -29192   -29239   -29284 
  -29295   -29204   -29057   -29047   -29201   -29344   -29355   -29278 
  -29177   -29061   -28961   -28962   -29207   -29608   -29741   -29440 
  -29033   -28837   -28914   -29169   -29392   -29423   -29288   -29076 
  -28989   -29158   -29346   -29304   -29112   -29019   -29139   -29330 
  -29392   -29385   -29443   -29392   -29046   -28734   -28864   -29316 
  -29625   -29531   -29243   -29079   -29022   -28975   -29062   -29304 
  -29427   -29316   -29169   -29157   -29199   -29169   -29145   -29184 
  -29209   -29228   -29255   -29300   -29382   -29338   -29083   -28911 
  -29060   -29351   -29520   -29463   -29205   -28980   -28989   -29141 
  -29280   -29300   -29201   -29118   -29076   -29114   -29316   -29500 
  -29405   -29119   -28933   -29003   -29238   -29401   -29409   -29335 
  -29182   -29010   -28995   -29160   -29350   -29450   -29377   -29182 
  -29077   -29084   -29093   -29104   -29111   -29146   -29263   -29400 
  -29457   -29369   -29238   -29238   -29282   -29214   -29101   -29027 
  -29011   -29119   -29315   -29420   -29305   -29058   -28925   -28995 
  -29158   -29300   -29366   -29382   -29386   -29335   -29189   -29037 
  -29038   -29189   -29313   -29349   -29295   -29162   -29103   -29172 
  -29259   -29268   -29203   -29232   -29343   -29262   -29022   -28985 
  -29258   -29529   -29504   -29238   -28992   -28888   -28925   -29150 
  -29455   -29547   -29359   -29061   -28898   -29066   -29365   -29427 
  -29232   -28981   -28945   -29243   -29590   -29579   -29218   -28930 
  -28987   -29197   -29312   -29315   -29315   -29315   -29212   -28980 
  -28838   -29083   -29508   -29610   -29355   -29068   -28956   -29034 
  -29227   -29425   -29498   -29392   -29151   -28949   -28987   -29168 
  -29251   -29276   -29273   -29158   -29093   -29191   -29242   -29160 
  -29081   -29126   -29286   -29412   -29417   -29381   -29319   -29116 
  -28865   -28860   -29116   -29417   -29612   -29590   -29354   -29042 
  -28845   -28907   -29130   -29316   -29369   -29343   -29328   -29245 
  -29095   -29053   -29119   -29174   -29208   -29265   -29340   -29381 
  -29317   -29143   -28966   -28957   -29150   -29376   -29475   -29362 
  -29124   -29027   -29142   -29277   -29278   -29212   -29207   -29247 
  -29286   -29331   -29327   -29176   -28968   -29006   -29277   -29385 
  -29208   -29031   -29096   -29282   -29338   -29261   -29242   -29303 
  -29203   -28969   -28991   -29292   -29508   -29439   -29155   -28935 
  -28953   -29115   -29315   -29486   -29492   -29285   -29039   -28957 
  -29088   -29347   -29508   -29417   -29189   -29039   -29052   -29097 
  -29120   -29261   -29443   -29417   -29189   -28977   -28987   -29185 
  -29317   -29319   -29293   -29181   -29045   -29127   -29369   -29448 
  -29227   -28946   -28957   -29193   -29386   -29490   -29440   -29203 
  -28975   -28933   -29095   -29331   -29407   -29254   -29106   -29131 
  -29212   -29195   -29133   -29201   -29362   -29371   -29199   -29057 
  -29081   -29235   -29421   -29501   -29373   -29139   -28968   -28952 
  -29118   -29354   -29442   -29307   -29155   -29182   -29226   -29077 
  -28957   -29154   -29463   -29506   -29309   -29115   -29007   -28971 
  -29008   -29092   -29227   -29405   -29474   -29374   -29207   -29068 
  -29047   -29154   -29309   -29424   -29354   -29142   -29050   -29153 
  -29319   -29412   -29322   -29126   -29022   -29022   -29053   -29134 
  -29292   -29430   -29384   -29200   -29054   -29012   -29062   -29193 
  -29370   -29403   -29204   -29020   -29076   -29323   -29551   -29555 
  -29322   -29004   -28861   -29050   -29366   -29471   -29334   -29146 
  -29019   -28965   -29025   -29207   -29385   -29373   -29169   -29012 
  -29088   -29263   -29350   -29362   -29328   -29278   -29284   -29339 
  -29353   -29228   -29097   -29173   -29312   -29268   -29076   -28942 
  -28993   -29119   -29166   -29187   -29270   -29361   -29332   -29187 
  -29066   -29030   -29049   -29147   -29281   -29354   -29340   -29215 
  -29057   -29062   -29258   -29461   -29500   -29377   -29218   -29119 
  -29116   -29212   -29347   -29425   -29336   -29126   -29006   -29049 
  -29138   -29214   -29309   -29327   -29155   -28965   -29023   -29307 
  -29527   -29474   -29232   -29060   -29112   -29284   -29377   -29322 
  -29147   -29006   -29030   -29177   -29312   -29300   -29185   -29131 
  -29157   -29192   -29180   -29137   -29162   -29220   -29223   -29209 
  -29218   -29290   -29405   -29404   -29241   -29015   -28926   -29141 
  -29461   -29519   -29282   -29058   -29053   -29119   -29096   -29149 
  -29376   -29451   -29134   -28772   -28795   -29177   -29608   -29791 
  -29614   -29184   -28756   -28668   -29053   -29587   -29762   -29388 
  -28786   -28479   -28678   -29164   -29625   -29790   -29543   -29161 
  -28989   -29060   -29255   -29450   -29486   -29282   -29006   -28927 
  -29079   -29299   -29434   -29435   -29409   -29374   -29200   -28935 
  -28825   -29006   -29299   -29394   -29296   -29285   -29377   -29305 
  -29069   -28939   -29011   -29162   -29218   -29178   -29211   -29299 
  -29335   -29386   -29442   -29384   -29134   -28761   -28575   -28857 
  -29435   -29837   -29814   -29469   -29035   -28802   -28934   -29227 
  -29296   -29033   -28833   -29034   -29380   -29577   -29664   -29590 
  -29276   -28887   -28752   -29047   -29520   -29716   -29489   -29069 
  -28771   -28759   -29014   -29407   -29632   -29424   -28996   -28814 
  -28983   -29250   -29432   -29536   -29524   -29297   -28934   -28709 
  -28871   -29346   -29721   -29660   -29268   -28993   -29058   -29208 
  -29174   -29061   -29104   -29250   -29208   -28946   -28877   -29263 
  -29718   -29759   -29420   -29080   -28976   -29041   -29164   -29335 
  -29417   -29276   -29061   -29019   -29161   -29316   -29394   -29401 
  -29301   -29056   -28806   -28799   -29050   -29335   -29448   -29358 
  -29147   -28952   -28971   -29261   -29560   -29590   -29319   -28956 
  -28829   -29047   -29407   -29563   -29386   -29106   -28950   -28918 
  -28968   -29128   -29359   -29473   -29431   -29382   -29359   -29358 
  -29385   -29331   -29192   -29111   -29118   -29141   -29155   -29204 
  -29308   -29307   -29077   -28894   -28968   -29115   -29236   -29400 
  -29478   -29315   -29003   -28815   -28944   -29250   -29434   -29469 
  -29471   -29388   -29218   -29106   -29165   -29353   -29450   -29361 
  -29155   -28917   -28872   -29133   -29397   -29430   -29286   -29058 
  -28926   -29065   -29363   -29543   -29398   -28995   -28684   -28796 
  -29313   -29783   -29767   -29320   -28863   -28773   -28985   -29170 
  -29269   -29262   -29074   -28950   -29149   -29570   -29903   -29856 
  -29423   -28923   -28702   -28868   -29262   -29587   -29552   -29143 
  -28800   -28864   -29149   -29369   -29390   -29216   -29023   -28991 
  -29054   -29011   -28961   -29174   -29473   -29498   -29344   -29339 
  -29520   -29589   -29292   -28815   -28624   -28900   -29362   -29633 
  -29651   -29493   -29187   -28958   -29060   -29355   -29524   -29376 
  -28996   -28687   -28680   -28981   -29309   -29343   -29151   -29037 
  -29120   -29326   -29519   -29581   -29455   -29154   -28853   -28849 
  -29137   -29409   -29538   -29605   -29631   -29511   -29261   -29107 
  -29106   -29096   -29020   -28911   -28838   -28933   -29169   -29292 
  -29222   -29146   -29168   -29223   -29209   -29118   -29100   -29216 
  -29335   -29351   -29299   -29289   -29278   -29149   -29068   -29235 
  -29535   -29729   -29658   -29371   -29088   -28956   -28949   -28977 
  -28996   -28988   -29031   -29235   -29469   -29494   -29308   -29072 
  -28877   -28783   -28942   -29328   -29660   -29710   -29420   -29053 
  -28999   -29255   -29574   -29721   -29492   -28891   -28285   -28189 
  -28786   -29614   -30002   -29795   -29357   -29025   -28973   -29182 
  -29408   -29434   -29216   -28919   -28833   -28995   -29166   -29261 
  -29336   -29365   -29292   -29111   -29020   -29239   -29573   -29725 
  -29621   -29286   -28884   -28682   -28852   -29249   -29560   -29631 
  -29450   -29174   -29023   -29033   -29150   -29251   -29134   -28856 
  -28717   -28921   -29358   -29643   -29500   -29103   -28864   -28937 
  -29180   -29409   -29448   -29261   -29066   -29110   -29400   -29619 
  -29485   -29150   -28991   -29107   -29323   -29527   -29637   -29443 
  -28900   -28480   -28642   -29147   -29462   -29435   -29261   -29135 
  -29126   -29261   -29504   -29648   -29447   -29007   -28799   -28996 
  -29280   -29301   -29065   -28948   -29160   -29450   -29527   -29354 
  -29100   -28950   -29010   -29311   -29593   -29516   -29216   -29049 
  -29074   -29137   -29168   -29222   -29265   -29292   -29373   -29396 
  -29230   -28977   -28804   -28861   -29141   -29409   -29523   -29455 
  -29169   -28836   -28763   -29018   -29382   -29586   -29543   -29330 
  -29081   -29016   -29215   -29446   -29405   -29084   -28826   -28902 
  -29205   -29504   -29617   -29466   -29120   -28845   -28871   -29106 
  -29366   -29555   -29536   -29285   -29042   -29025   -29169   -29281 
  -29346   -29355   -29185   -28946   -28939   -29188   -29425   -29469 
  -29347   -29139   -28969   -28954   -29062   -29195   -29220   -29115 
  -29122   -29284   -29335   -29199   -29064   -29108   -29295   -29401 
  -29284   -29061   -28948   -29030   -29243   -29467   -29605   -29554 
  -29305   -29064   -29014   -29097   -29182   -29255   -29347   -29409 
  -29366   -29184   -28998   -29010   -29185   -29292   -29258   -29247 
  -29335   -29400   -29390   -29349   -29258   -29133   -29069   -29128 
  -29226   -29241   -29203   -29187   -29161   -29128   -29203   -29336 
  -29335   -29165   -28948   -28799   -28802   -29002   -29297   -29473 
  -29435   -29301   -29182   -29100   -29162   -29392   -29482   -29254 
  -29006   -29020   -29189   -29320   -29361   -29313   -29236   -29254 
  -29404   -29502   -29350   -29029   -28791   -28772   -28945   -29219 
  -29529   -29717   -29519   -29020   -28752   -28954   -29339   -29546 
  -29457   -29227   -29037   -28952   -29072   -29317   -29408   -29251 
  -29046   -29046   -29246   -29393   -29380   -29282   -29154   -29092 
  -29188   -29259   -29119   -28977   -29053   -29199   -29241   -29160 
  -29070   -29180   -29430   -29508   -29334   -29101   -29025   -29134 
  -29262   -29282   -29270   -29313   -29369   -29385   -29340   -29228 
  -29085   -29000   -29064   -29250   -29397   -29378   -29223   -29077 
  -29014   -29035   -29170   -29361   -29416   -29262   -29108   -29122 
  -29204   -29245   -29263   -29239   -29108   -28941   -28946   -29227 
  -29571   -29658   -29440   -29139   -28956   -28981   -29168   -29346 
  -29394   -29278   -29042   -28842   -28841   -29064   -29359   -29496 
  -29398   -29242   -29165   -29142   -29153   -29218   -29353   -29508 
  -29484   -29222   -28996   -29007   -29158   -29226   -29138   -29106 
  -29222   -29270   -29200   -29172   -29200   -29209   -29193   -29193 
  -29232   -29249   -29222   -29223   -29204   -29083   -28958   -28958 
  -29068   -29251   -29512   -29691   -29566   -29191   -28927   -29025 
  -29278   -29398   -29401   -29376   -29317   -29199   -29039   -28966 
  -29077   -29280   -29408   -29400   -29270   -29068   -28942   -29019 
  -29204   -29284   -29216   -29114   -29118   -29307   -29489   -29413 
  -29149   -28949   -28958   -29139   -29359   -29488   -29485   -29392 
  -29204   -28999   -28977   -29155   -29297   -29270   -29181   -29093 
  -29038   -29104   -29214   -29263   -29311   -29330   -29246   -29099 
  -28976   -28966   -29131   -29416   -29604   -29512   -29250   -29060 
  -29050   -29158   -29224   -29204   -29224   -29281   -29257   -29219 
  -29254   -29276   -29273   -29295   -29263   -29118   -28964   -28953 
  -29108   -29342   -29519   -29501   -29309   -29118   -29003   -28937 
  -28996   -29214   -29380   -29331   -29189   -29142   -29184   -29193 
  -29207   -29370   -29556   -29417   -28977   -28707   -28902   -29301 
  -29470   -29381   -29257   -29161   -29097   -29103   -29151   -29212 
  -29257   -29235   -29173   -29177   -29300   -29448   -29439   -29232 
  -29045   -29069   -29230   -29316   -29273   -29243   -29268   -29245 
  -29181   -29151   -29131   -29085   -29081   -29180   -29317   -29361 
  -29247   -29091   -29077   -29151   -29166   -29205   -29344   -29431 
  -29400   -29358   -29313   -29201   -29058   -29016   -29142   -29299 
  -29346   -29241   -29004   -28848   -28922   -29106   -29230   -29224 
  -29218   -29382   -29559   -29461   -29138   -28950   -29081   -29309 
  -29361   -29236   -29145   -29209   -29332   -29355   -29254   -29131 
  -29119   -29228   -29326   -29270   -29080   -28972   -29084   -29278 
  -29390   -29381   -29251   -29130   -29141   -29230   -29316   -29297 
  -29157   -29068   -29083   -29150   -29278   -29378   -29344   -29185 
  -28980   -28950   -29172   -29349   -29282   -29119   -29085   -29262 
  -29461   -29459   -29324   -29222   -29189   -29203   -29220   -29180 
  -29087   -28988   -28969   -29127   -29357   -29415   -29265   -29100 
  -29068   -29150   -29274   -29388   -29448   -29373   -29181   -29061 
  -29077   -29138   -29193   -29222   -29219   -29220   -29250   -29297 
  -29342   -29322   -29180   -29026   -29037   -29188   -29289   -29254 
  -29189   -29177   -29162   -29157   -29192   -29243   -29288   -29269 
  -29209   -29209   -29224   -29199   -29192   -29220   -29228   -29201 
  -29137   -29108   -29219   -29350   -29351   -29246   -29070   -28939 
  -29054   -29350   -29513   -29417   -29250   -29112   -28993   -29033 
