Origin Time       2024/06/23 22:54:00
Lat.              35.645
Long.             140.060
Depth. (km)       72
Mag.              4.1
Station Code      IBRH08
Station Lat.      36.1188
Station Long.     140.5621
Station Height(m) 40
Record Time       2024/06/23 22:54:49
Sampling Freq(Hz) 100Hz
Duration Time(s)  120
Dir.              6
Scale Factor      7845(gal)/8223790
Max. Acc. (gal)   1.031
Last Correction   2024/06/23 22:54:49
Memo.             
   -4380    -4388    -4384    -4369    -4371    -4375    -4369    -4371 
   -4392    -4414    -4406    -4368    -4340    -4347    -4378    -4396 
   -4392    -4387    -4390    -4387    -4379    -4372    -4367    -4363 
   -4363    -4374    -4394    -4399    -4388    -4384    -4376    -4353 
   -4340    -4355    -4384    -4402    -4398    -4391    -4379    -4371 
   -4365    -4342    -4340    -4398    -4426    -4375    -4348    -4388 
   -4414    -4386    -4359    -4372    -4372    -4341    -4365    -4450 
   -4473    -4398    -4314    -4299    -4357    -4410    -4409    -4398 
   -4402    -4380    -4347    -4353    -4384    -4384    -4368    -4399 
   -4432    -4371    -4290    -4325    -4440    -4475    -4392    -4310 
   -4320    -4390    -4418    -4391    -4384    -4394    -4369    -4353 
   -4384    -4406    -4372    -4353    -4405    -4434    -4371    -4310 
   -4355    -4421    -4405    -4372    -4391    -4407    -4378    -4329 
   -4332    -4390    -4428    -4423    -4403    -4369    -4326    -4314 
   -4368    -4438    -4441    -4394    -4360    -4342    -4340    -4368 
   -4405    -4414    -4401    -4378    -4359    -4360    -4371    -4375 
   -4398    -4415    -4379    -4333    -4348    -4395    -4413    -4398 
   -4386    -4374    -4357    -4363    -4376    -4371    -4371    -4407 
   -4433    -4388    -4325    -4328    -4372    -4399    -4392    -4376 
   -4384    -4403    -4388    -4349    -4334    -4367    -4414    -4421 
   -4383    -4342    -4344    -4386    -4417    -4402    -4371    -4367 
   -4376    -4371    -4371    -4382    -4387    -4407    -4414    -4364 
   -4325    -4361    -4414    -4413    -4376    -4349    -4342    -4364 
   -4395    -4405    -4394    -4372    -4341    -4344    -4406    -4433 
   -4367    -4336    -4391    -4392    -4341    -4372    -4437    -4411 
   -4338    -4314    -4351    -4410    -4438    -4415    -4375    -4338 
   -4320    -4355    -4437    -4461    -4379    -4306    -4344    -4402 
   -4394    -4372    -4380    -4395    -4405    -4376    -4338    -4357 
   -4386    -4387    -4394    -4409    -4390    -4352    -4353    -4380 
   -4379    -4361    -4376    -4425    -4428    -4352    -4298    -4347 
   -4434    -4446    -4375    -4326    -4355    -4405    -4417    -4395 
   -4375    -4375    -4375    -4368    -4374    -4398    -4417    -4415 
   -4388    -4340    -4328    -4379    -4433    -4429    -4384    -4355 
   -4353    -4376    -4395    -4383    -4372    -4398    -4405    -4364 
   -4340    -4369    -4406    -4407    -4375    -4347    -4361    -4399 
   -4405    -4376    -4365    -4378    -4386    -4380    -4369    -4365 
   -4379    -4396    -4394    -4376    -4363    -4363    -4367    -4376 
   -4394    -4395    -4378    -4363    -4355    -4365    -4388    -4395 
   -4375    -4361    -4368    -4369    -4372    -4391    -4403    -4386 
   -4361    -4352    -4367    -4391    -4407    -4395    -4365    -4351 
   -4361    -4388    -4410    -4398    -4364    -4352    -4367    -4383 
   -4390    -4395    -4394    -4378    -4357    -4353    -4375    -4406 
   -4413    -4379    -4347    -4351    -4372    -4391    -4405    -4403 
   -4386    -4369    -4364    -4367    -4380    -4392    -4391    -4386 
   -4386    -4386    -4384    -4383    -4383    -4379    -4371    -4369 
   -4380    -4394    -4399    -4392    -4384    -4372    -4356    -4359 
   -4382    -4402    -4402    -4386    -4371    -4369    -4372    -4375 
   -4384    -4391    -4384    -4375    -4376    -4376    -4375    -4379 
   -4383    -4383    -4382    -4386    -4384    -4379    -4372    -4368 
   -4371    -4375    -4382    -4394    -4396    -4380    -4365    -4371 
   -4380    -4379    -4374    -4379    -4390    -4390    -4378    -4374 
   -4382    -4387    -4379    -4372    -4376    -4386    -4394    -4398 
   -4388    -4374    -4369    -4378    -4383    -4380    -4378    -4380 
   -4382    -4382    -4379    -4375    -4374    -4383    -4387    -4379 
   -4376    -4379    -4379    -4383    -4386    -4380    -4379    -4382 
   -4378    -4371    -4376    -4384    -4384    -4383    -4378    -4374 
   -4372    -4376    -4380    -4379    -4375    -4372    -4375    -4379 
   -4383    -4387    -4383    -4369    -4367    -4375    -4378    -4378 
   -4384    -4386    -4375    -4368    -4369    -4375    -4380    -4376 
   -4371    -4369    -4378    -4387    -4384    -4374    -4368    -4368 
   -4371    -4375    -4383    -4386    -4376    -4372    -4374    -4375 
   -4375    -4372    -4372    -4365    -4356    -4361    -4371    -4382 
   -4390    -4394    -4394    -4392    -4398    -4384    -4357    -4357 
   -4371    -4359    -4330    -4330    -4361    -4384    -4407    -4441 
   -4444    -4398    -4347    -4361    -4423    -4448    -4405    -4336 
   -4301    -4301    -4332    -4421    -4479    -4425    -4379    -4423 
   -4469    -4433    -4309    -4216    -4298    -4459    -4506    -4426 
   -4315    -4280    -4379    -4565    -4692    -4592    -4291    -4025 
   -3955    -4109    -4387    -4548    -4519    -4448    -4414    -4457 
   -4550    -4553    -4442    -4291    -4248    -4468    -4695    -4519 
   -4082    -3825    -3944    -4270    -4490    -4580    -4608    -4494 
   -4407    -4540    -4646    -4483    -4194    -4108    -4333    -4571 
   -4538    -4422    -4394    -4249    -4021    -4025    -4252    -4476 
   -4591    -4584    -4492    -4369    -4317    -4419    -4519    -4391 
   -4168    -4205    -4495    -4648    -4487    -4233    -4085    -4132 
   -4419    -4706    -4631    -4329    -4148    -4141    -4310    -4542 
   -4525    -4330    -4357    -4531    -4494    -4352    -4364    -4452 
   -4459    -4394    -4321    -4185    -4050    -4159    -4430    -4584 
   -4536    -4403    -4425    -4525    -4437    -4333    -4446    -4567 
   -4433    -4216    -4167    -4255    -4438    -4599    -4498    -4248 
   -4152    -4210    -4248    -4266    -4417    -4635    -4666    -4426 
   -4098    -4025    -4294    -4625    -4795    -4689    -4321    -4037 
   -4210    -4645    -4710    -4270    -3996    -4249    -4477    -4294 
   -4155    -4394    -4646    -4644    -4521    -4329    -4198    -4369 
   -4600    -4518    -4274    -4136    -4122    -4201    -4338    -4438 
   -4455    -4479    -4553    -4600    -4491    -4225    -4105    -4349 
   -4649    -4644    -4432    -4287    -4206    -4120    -4206    -4440 
   -4465    -4310    -4324    -4496    -4510    -4356    -4367    -4541 
   -4568    -4411    -4248    -4228    -4341    -4391    -4380    -4490 
   -4541    -4251    -3977    -4179    -4536    -4588    -4487    -4469 
   -4437    -4336    -4307    -4406    -4476    -4399    -4290    -4288 
   -4272    -4139    -4078    -4166    -4226    -4279    -4438    -4518 
   -4396    -4317    -4437    -4564    -4598    -4652    -4653    -4499 
   -4384    -4407    -4390    -4329    -4405    -4553    -4536    -4344 
   -4089    -3908    -3943    -4059    -4102    -4206    -4399    -4527 
   -4644    -4853    -4961    -4792    -4584    -4511    -4432    -4384 
   -4392    -4256    -4087    -4125    -4294    -4417    -4348    -4097 
   -3935    -4079    -4463    -4801    -4926    -4893    -4711    -4449 
   -4270    -4121    -4000    -4041    -4110    -4008    -3925    -4099 
   -4379    -4598    -4819    -5042    -5061    -4720    -4301    -4202 
   -4264    -4247    -4301    -4382    -4270    -4112    -4170    -4376 
   -4422    -4297    -4368    -4606    -4619    -4369    -4114    -4047 
   -4210    -4438    -4456    -4287    -4255    -4415    -4569    -4689 
   -4742    -4564    -4241    -4008    -3963    -4185    -4549    -4723 
   -4641    -4483    -4383    -4469    -4666    -4715    -4592    -4444 
   -4232    -3839    -3456    -3484    -3886    -4274    -4557    -4819 
   -4946    -4797    -4537    -4442    -4518    -4631    -4710    -4610 
   -4290    -3993    -3955    -4093    -4186    -4244    -4357    -4523 
   -4696    -4769    -4707    -4584    -4384    -4086    -3908    -4063 
   -4310    -4330    -4264    -4325    -4468    -4633    -4941    -5246 
   -4963    -4280    -3978    -3835    -3489    -3532    -4152    -4611 
   -4588    -4507    -4568    -4615    -4712    -4965    -4972    -4391 
   -3813    -3863    -4153    -4195    -4155    -4294    -4446    -4243 
   -3981    -4417    -5240    -5460    -5001    -4291    -3717    -3757 
   -4314    -4714    -4603    -4233    -4074    -4171    -4125    -3856 
   -3759    -4198    -4961    -5242    -4761    -4266    -4278    -4433 
   -4271    -3925    -3917    -4336    -4656    -4699    -4722    -4608 
   -4256    -4135    -4503    -4774    -4490    -4217    -4402    -4419 
   -3960    -3878    -4540    -4958    -4463    -3686    -3537    -4032 
   -4483    -4656    -4803    -4849    -4739    -4733    -4788    -4548 
   -4079    -3963    -4288    -4379    -4081    -4110    -4641    -4818 
   -4234    -3778    -4163    -4762    -4833    -4617    -4486    -4374 
   -4178    -3939    -3917    -4260    -4610    -4795    -4966    -4926 
   -4510    -4086    -3996    -4118    -4143    -4044    -4121    -4349 
   -4313    -4163    -4417    -4750    -4695    -4627    -4785    -4819 
   -4557    -4189    -4004    -4085    -4210    -4241    -4201    -4168 
   -4305    -4638    -4926    -4864    -4487    -4260    -4387    -4525 
   -4428    -4197    -3975    -3856    -3917    -4151    -4423    -4584 
   -4538    -4349    -4183    -4082    -4166    -4607    -5077    -5136 
   -4792    -4299    -4036    -4054    -4077    -4139    -4243    -4286 
   -4428    -4573    -4477    -4318    -4352    -4612    -4841    -4700 
   -4315    -4058    -4060    -4264    -4415    -4244    -3927    -3986 
   -4546    -4976    -4791    -4383    -4287    -4419    -4453    -4341 
   -4275    -4407    -4688    -4860    -4715    -4392    -4109    -3905 
   -3825    -3925    -4160    -4507    -4839    -4880    -4556    -4162 
   -4040    -4202    -4434    -4561    -4517    -4460    -4491    -4348 
   -4016    -3883    -4117    -4563    -4795    -4492    -4108    -4226 
   -4581    -4681    -4571    -4411    -4284    -4376    -4560    -4509 
   -4405    -4544    -4638    -4352    -3986    -3921    -4044    -4199 
   -4342    -4391    -4460    -4642    -4770    -4761    -4699    -4665 
   -4598    -4295    -3898    -3861    -4182    -4425    -4368    -4159 
   -4043    -4160    -4477    -4743    -4675    -4392    -4363    -4627 
   -4649    -4328    -4179    -4349    -4531    -4502    -4305    -4290 
   -4567    -4652    -4355    -4128    -4133    -4144    -4205    -4432 
   -4611    -4556    -4432    -4363    -4216    -4101    -4278    -4572 
   -4573    -4284    -4175    -4364    -4441    -4314    -4288    -4521 
   -4811    -4812    -4548    -4326    -4199    -4114    -4180    -4317 
   -4245    -4094    -4133    -4228    -4218    -4141    -4209    -4573 
   -4912    -4872    -4500    -4220    -4411    -4614    -4387    -4216 
   -4321    -4438    -4442    -4298    -4143    -4104    -4187    -4429 
   -4671    -4704    -4598    -4544    -4538    -4376    -4141    -4141 
   -4298    -4348    -4260    -4178    -4333    -4722    -4853    -4399 
   -3856    -3931    -4417    -4621    -4587    -4692    -4741    -4548 
   -4333    -4244    -4248    -4257    -4307    -4411    -4270    -3924 
   -3893    -4185    -4368    -4380    -4527    -4855    -5027    -4893 
   -4607    -4364    -4244    -4153    -4087    -4117    -4099    -4045 
   -4245    -4650    -4857    -4781    -4594    -4326    -4124    -4187 
   -4353    -4437    -4527    -4635    -4577    -4260    -3881    -3727 
   -3920    -4363    -4706    -4711    -4495    -4280    -4243    -4287 
   -4217    -4270    -4615    -4816    -4627    -4467    -4594    -4669 
   -4477    -4276    -4159    -3958    -3780    -3920    -4268    -4425 
   -4417    -4523    -4627    -4523    -4384    -4414    -4492    -4418 
   -4357    -4522    -4650    -4486    -4266    -4355    -4664    -4680 
   -4309    -4089    -4178    -4248    -4278    -4388    -4476    -4463 
   -4413    -4417    -4446    -4392    -4283    -4232    -4244    -4182 
   -4079    -4207    -4514    -4680    -4622    -4444    -4349    -4434 
   -4496    -4440    -4361    -4266    -4194    -4240    -4368    -4450 
   -4390    -4267    -4291    -4425    -4405    -4283    -4371    -4622 
   -4777    -4745    -4429    -3981    -3862    -4079    -4306    -4502 
   -4641    -4611    -4515    -4540    -4530    -4288    -4176    -4531 
   -4893    -4668    -4066    -3839    -4143    -4345    -4199    -4041 
   -4027    -4190    -4540    -4804    -4793    -4715    -4687    -4525 
   -4298    -4191    -4149    -4280    -4598    -4665    -4342    -4025 
   -4048    -4325    -4433    -4267    -4195    -4332    -4472    -4557 
   -4645    -4725    -4675    -4471    -4259    -4085    -4017    -4170 
   -4415    -4554    -4517    -4355    -4210    -4178    -4334    -4654 
   -4854    -4706    -4376    -4266    -4421    -4440    -4237    -4133 
   -4101    -3973    -4016    -4369    -4596    -4530    -4607    -4873 
   -4741    -4104    -3665    -3828    -4136    -4182    -4244    -4644 
   -5074    -5069    -4792    -4626    -4504    -4336    -4241    -4174 
   -4082    -4068    -4175    -4360    -4511    -4483    -4342    -4332 
   -4392    -4247    -4072    -4239    -4510    -4487    -4347    -4376 
   -4502    -4548    -4523    -4496    -4430    -4423    -4621    -4810 
   -4658    -4213    -3904    -3962    -4063    -4059    -4206    -4392 
   -4303    -4125    -4178    -4357    -4449    -4544    -4731    -4853 
   -4812    -4626    -4348    -4152    -4070    -4016    -4114    -4387 
   -4521    -4394    -4324    -4536    -4774    -4712    -4441    -4322 
   -4491    -4658    -4612    -4502    -4313    -3973    -3719    -3674 
   -3778    -4094    -4529    -4733    -4579    -4313    -4221    -4440 
   -4833    -5027    -4946    -4819    -4706    -4626    -4533    -4236 
   -3898    -3889    -4108    -4163    -4059    -4143    -4423    -4515 
   -4275    -4024    -4047    -4338    -4772    -5054    -4916    -4510 
   -4340    -4627    -4762    -4212    -3654    -3874    -4442    -4596 
   -4342    -4152    -4174    -4295    -4444    -4482    -4387    -4325 
   -4375    -4514    -4456    -4139    -4178    -4758    -5174    -4996 
   -4577    -4314    -4087    -3751    -3626    -3933    -4318    -4411 
   -4353    -4415    -4611    -4812    -4877    -4749    -4540    -4399 
   -4360    -4297    -4024    -3611    -3551    -4126    -4743    -4725 
   -4333    -4247    -4596    -4931    -4865    -4518    -4344    -4531 
   -4779    -4746    -4423    -4000    -3809    -4124    -4560    -4482 
   -4163    -4249    -4469    -4355    -4206    -4324    -4492    -4515 
   -4419    -4243    -4039    -3946    -4031    -4206    -4403    -4591 
   -4770    -5012    -5179    -5027    -4684    -4461    -4351    -4126 
   -3824    -3686    -3785    -4020    -4248    -4380    -4425    -4384 
   -4392    -4575    -4676    -4464    -4201    -4201    -4386    -4564 
   -4692    -4688    -4525    -4378    -4317    -4237    -4112    -4020 
   -4079    -4322    -4546    -4531    -4313    -4108    -4143    -4441 
   -4631    -4509    -4398    -4422    -4359    -4318    -4534    -4807 
   -4876    -4723    -4380    -4006    -3935    -4199    -4433    -4449 
   -4383    -4396    -4473    -4471    -4434    -4421    -4294    -4159 
   -4185    -4284    -4429    -4553    -4514    -4401    -4392    -4490 
   -4529    -4374    -4174    -4113    -4106    -4128    -4284    -4456 
   -4475    -4413    -4336    -4245    -4247    -4417    -4661    -4760 
   -4575    -4230    -4058    -4290    -4725    -4870    -4585    -4178 
   -3912    -3798    -3802    -3935    -4145    -4421    -4819    -5186 
   -5220    -4919    -4648    -4684    -4866    -4725    -4172    -3727 
   -3724    -3947    -4109    -4121    -4037    -3986    -4140    -4482 
   -4695    -4683    -4684    -4762    -4770    -4646    -4503    -4446 
   -4392    -4236    -3946    -3684    -3792    -4182    -4448    -4527 
   -4526    -4542    -4637    -4648    -4517    -4441    -4561    -4746 
   -4683    -4260    -3811    -3761    -4041    -4156    -4050    -4122 
   -4475    -4837    -4938    -4822    -4769    -4810    -4785    -4507 
   -3937    -3613    -3970    -4441    -4433    -4245    -4355    -4629 
   -4622    -4315    -4143    -4180    -4143    -4139    -4355    -4468 
   -4332    -4325    -4546    -4665    -4638    -4773    -4980    -4826 
   -4376    -4025    -3847    -3836    -4060    -4428    -4718    -4660 
   -4321    -4249    -4546    -4716    -4549    -4201    -3851    -3663 
   -3775    -4228    -4819    -5198    -5082    -4541    -4099    -4106 
   -4363    -4600    -4558    -4114    -3720    -3790    -4144    -4494 
   -4747    -4977    -5166    -4959    -4324    -3859    -3905    -4194 
   -4386    -4326    -4095    -3979    -4143    -4402    -4496    -4496 
   -4617    -4791    -4812    -4618    -4324    -4168    -4213    -4298 
   -4348    -4325    -4230    -4245    -4441    -4588    -4619    -4637 
   -4496    -4194    -4112    -4310    -4425    -4336    -4251    -4259 
   -4271    -4326    -4530    -4791    -4873    -4630    -4233    -4013 
   -3960    -3983    -4197    -4471    -4519    -4342    -4120    -4036 
   -4132    -4295    -4503    -4742    -4888    -4858    -4668    -4436 
   -4212    -3966    -3871    -4045    -4299    -4464    -4542    -4604 
   -4610    -4496    -4430    -4498    -4469    -4330    -4379    -4538 
   -4415    -4101    -3973    -3955    -3940    -4190    -4689    -4984 
   -4824    -4477    -4325    -4322    -4295    -4437    -4725    -4700 
   -4290    -3982    -4102    -4383    -4425    -4359    -4469    -4576 
   -4476    -4395    -4533    -4727    -4739    -4507    -4117    -3738 
   -3596    -3821    -4244    -4573    -4741    -4774    -4575    -4197 
   -3956    -4018    -4305    -4634    -4723    -4523    -4361    -4403 
   -4476    -4441    -4329    -4252    -4307    -4465    -4657    -4816 
   -4753    -4433    -4199    -4180    -4089    -3904    -3924    -4209 
   -4491    -4502    -4311    -4176    -4170    -4297    -4561    -4874 
   -5053    -4969    -4787    -4588    -4201    -3878    -4047    -4434 
   -4517    -4313    -4158    -4171    -4267    -4314    -4315    -4437 
   -4563    -4383    -4133    -4229    -4457    -4525    -4592    -4673 
   -4523    -4264    -4205    -4276    -4314    -4436    -4695    -4760 
   -4448    -4114    -4066    -4190    -4271    -4212    -4140    -4249 
   -4464    -4531    -4351    -4126    -4217    -4639    -4851    -4571 
   -4233    -4176    -4266    -4317    -4283    -4230    -4275    -4510 
   -4835    -4858    -4445    -4116    -4320    -4749    -4837    -4527 
   -4124    -3824    -3719    -3862    -4195    -4526    -4699    -4681 
   -4534    -4402    -4360    -4295    -4201    -4255    -4473    -4672 
   -4712    -4612    -4480    -4313    -4079    -3936    -4004    -4185 
   -4315    -4359    -4421    -4560    -4720    -4783    -4666    -4460 
   -4233    -4017    -4016    -4280    -4475    -4422    -4325    -4365 
   -4495    -4506    -4340    -4247    -4313    -4340    -4317    -4353 
   -4395    -4413    -4483    -4542    -4491    -4453    -4525    -4511 
   -4345    -4243    -4213    -4149    -4207    -4476    -4737    -4747 
   -4577    -4510    -4507    -4379    -4268    -4313    -4347    -4255 
   -4259    -4459    -4567    -4486    -4406    -4336    -4145    -3871 
   -3813    -4091    -4352    -4391    -4417    -4526    -4612    -4650 
