Origin Time       2024/06/23 22:54:00
Lat.              35.645
Long.             140.060
Depth. (km)       72
Mag.              4.1
Station Code      IBRH07
Station Lat.      35.9521
Station Long.     140.3301
Station Height(m) -1197
Record Time       2024/06/23 22:54:36
Sampling Freq(Hz) 100Hz
Duration Time(s)  120
Dir.              3
Scale Factor      7845(gal)/8223790
Max. Acc. (gal)   0.432
Last Correction   2024/06/23 22:54:36
Memo.             
[...]
    2434     2434     2442     2440     2434     2436     2443     2440 
    2434     2436     2443     2440     2434     2438     2444     2438 
    2432     2440     2444     2438     2434     2439     2442     2438 
    2438     2444     2443     2435     2435     2440     2439     2435 
    2438     2442     2440     2435     2436     2443     2442     2435 
    2438     2443     2439     2435     2435     2438     2439     2436 
    2439     2444     2439     2432     2438     2443     2438     2434 
    2442     2444     2436     2432     2439     2442     2436     2434 
    2439     2442     2435     2435     2443     2442     2432     2435 
    2443     2438     2432     2438     2442     2438     2435     2440 
    2444     2440     2434     2435     2443     2440     2434     2439 
    2443     2438     2436     2442     2443     2436     2435     2439 
    2440     2434     2435     2443     2442     2435     2438     2443 
    2442     2435     2435     2440     2440     2435     2438     2443 
    2440     2435     2439     2444     2440     2434     2439     2444 
    2439     2435     2440     2442     2438     2435     2440     2444 
    2438     2435     2442     2442     2434     2434     2440     2442 
    2438     2436     2442     2442     2436     2438     2447     2446 
    2435     2436     2443     2440     2436     2439     2444     2440 
    2434     2436     2443     2439     2434     2440     2442     2435 
    2436     2444     2442     2435     2434     2440     2444     2439 
    2434     2439     2444     2439     2435     2440     2442     2438 
    2440     2444     2442     2434     2438     2447     2440     2432 
    2439     2447     2439     2432     2440     2443     2436     2434 
    2440     2444     2436     2434     2442     2443     2435     2434 
    2442     2444     2438     2434     2439     2442     2432     2434 
    2442     2442     2434     2435     2442     2442     2439     2439 
    2443     2440     2435     2439     2442     2435     2434     2439 
    2440     2438     2435     2439     2443     2438     2432     2439 
    2443     2435     2432     2440     2442     2435     2436     2444 
    2442     2436     2439     2443     2439     2434     2436     2442 
    2438     2434     2439     2443     2435     2431     2439     2442 
    2436     2434     2439     2443     2438     2435     2442     2442 
    2434     2435     2442     2443     2439     2436     2440     2440 
    2435     2435     2442     2440     2436     2438     2443     2440 
    2434     2436     2443     2439     2432     2438     2443     2436 
    2432     2440     2444     2438     2435     2440     2442     2438 
    2438     2443     2443     2435     2434     2439     2442     2436 
    2434     2439     2440     2434     2435     2444     2443     2435 
    2438     2443     2436     2432     2439     2443     2440     2435 
    2438     2444     2439     2432     2440     2444     2436     2435 
    2442     2442     2438     2436     2440     2440     2435     2438 
    2443     2439     2434     2439     2444     2440     2435     2438 
    2443     2442     2434     2438     2447     2443     2434     2436 
    2443     2439     2434     2438     2443     2439     2434     2439 
    2443     2436     2432     2439     2442     2436     2435     2440 
    2442     2436     2434     2443     2444     2436     2438     2446 
    2443     2434     2434     2443     2443     2438     2438     2442 
    2439     2435     2438     2442     2440     2434     2436     2446 
    2440     2430     2438     2444     2438     2434     2439     2443 
    2438     2434     2439     2442     2435     2432     2439     2443 
    2438     2434     2440     2442     2435     2434     2440     2442 
    2436     2435     2442     2443     2435     2438     2444     2440 
    2434     2436     2442     2439     2436     2439     2443     2440 
    2435     2438     2444     2440     2436     2440     2442     2438 
    2438     2443     2443     2438     2438     2443     2442     2435 
    2435     2440     2442     2436     2436     2442     2442     2436 
    2436     2443     2442     2436     2440     2446     2439     2431 
    2438     2448     2442     2432     2440     2446     2438     2436 
    2442     2440     2435     2435     2442     2444     2438     2436 
    2443     2443     2435     2438     2447     2442     2432     2438 
    2444     2439     2435     2440     2443     2439     2435     2439 
    2444     2438     2432     2439     2446     2439     2434     2439 
    2442     2435     2434     2440     2442     2435     2434     2442 
    2443     2435     2435     2442     2440     2434     2436     2444 
    2443     2434     2435     2444     2439     2428     2435     2444 
    2438     2432     2440     2446     2436     2432     2438     2442 
    2438     2435     2440     2443     2435     2434     2443     2443 
    2434     2434     2440     2442     2434     2434     2443     2444 
    2439     2436     2439     2440     2436     2434     2442     2440 
    2432     2438     2444     2440     2435     2439     2444     2440 
    2432     2436     2440     2438     2436     2440     2442     2439 
    2435     2435     2439     2436     2434     2440     2444     2438 
    2435     2439     2440     2436     2435     2439     2440     2438 
    2436     2439     2440     2436     2436     2442     2440     2434 
    2434     2442     2444     2438     2436     2442     2439     2432 
    2438     2444     2442     2435     2438     2442     2438     2432 
    2436     2442     2439     2436     2439     2442     2438     2435 
    2439     2442     2438     2434     2438     2442     2439     2434 
    2438     2442     2438     2436     2443     2444     2436     2434 
    2440     2443     2439     2435     2439     2442     2435     2435 
    2443     2443     2435     2434     2443     2443     2434     2436 
    2443     2440     2434     2435     2442     2442     2434     2435 
    2444     2444     2436     2436     2443     2440     2432     2439 
    2446     2440     2435     2438     2440     2439     2438     2440 
    2439     2436     2435     2439     2442     2436     2434     2442 
    2444     2436     2434     2442     2442     2434     2435     2442 
    2438     2432     2436     2442     2440     2435     2436     2442 
    2439     2434     2439     2446     2439     2432     2439     2446 
    2439     2432     2440     2443     2438     2436     2443     2442 
    2435     2435     2440     2442     2435     2435     2440     2439 
    2435     2436     2443     2442     2435     2436     2443     2440 
    2434     2436     2443     2440     2435     2436     2442     2439 
    2434     2438     2442     2439     2436     2439     2442     2439 
    2435     2439     2443     2438     2434     2439     2443     2438 
    2434     2439     2442     2434     2434     2440     2438     2435 
    2436     2440     2442     2435     2435     2444     2442     2434 
    2438     2443     2439     2434     2435     2440     2439     2436 
    2440     2443     2438     2434     2438     2440     2436     2436 
    2440     2439     2434     2435     2440     2442     2438     2438 
    2440     2440     2436     2436     2443     2442     2436     2438 
    2442     2440     2436     2438     2444     2439     2435     2440 
    2443     2436     2434     2439     2442     2435     2435     2443 
    2442     2435     2436     2442     2439     2435     2439     2444 
    2442     2436     2436     2444     2443     2435     2436     2440 
    2439     2436     2436     2440     2439     2431     2435     2444 
    2439     2434     2442     2446     2438     2432     2439     2443 
    2436     2436     2443     2444     2435     2434     2443     2444 
    2435     2434     2440     2442     2436     2436     2440     2438 
    2434     2438     2442     2439     2435     2436     2442     2439 
    2432     2436     2443     2439     2434     2439     2442     2435 
    2434     2440     2440     2435     2435     2440     2440     2434 
    2435     2442     2440     2435     2436     2440     2440     2436 
    2436     2442     2440     2435     2438     2443     2439     2434 
    2439     2443     2438     2435     2438     2440     2438     2436 
    2440     2443     2438     2434     2439     2442     2436     2435 
    2440     2444     2438     2434     2442     2440     2434     2438 
    2443     2439     2435     2438     2443     2440     2436     2440 
    2444     2439     2435     2439     2446     2440     2435     2440 
    2443     2435     2434     2439     2442     2438     2434     2440 
    2444     2436     2434     2440     2442     2436     2435     2440 
    2443     2436     2434     2443     2443     2435     2436     2444 
    2443     2434     2436     2443     2440     2434     2436     2444 
    2442     2435     2438     2442     2439     2435     2438     2442 
    2439     2436     2440     2444     2440     2436     2440     2443 
    2438     2436     2443     2443     2435     2434     2442     2443 
    2435     2435     2443     2444     2436     2435     2442     2440 
    2432     2436     2444     2440     2434     2438     2443     2439 
    2431     2438     2444     2440     2434     2438     2443     2439 
    2432     2438     2446     2440     2434     2438     2443     2440 
    2434     2435     2440     2436     2434     2442     2443     2438 
    2435     2439     2443     2439     2435     2442     2443     2435 
    2435     2444     2446     2438     2435     2439     2442     2438 
    2436     2440     2442     2438     2436     2442     2440     2434 
    2438     2446     2442     2435     2436     2443     2442     2434 
    2438     2446     2442     2435     2436     2442     2438     2430 
    2435     2446     2439     2432     2440     2446     2436     2432 
    2440     2443     2438     2435     2440     2442     2436     2434 
    2439     2440     2435     2438     2443     2442     2436     2436 
    2442     2442     2439     2438     2443     2443     2436     2436 
    2443     2442     2435     2439     2446     2440     2432     2436 
    2444     2438     2432     2442     2446     2435     2430     2438 
    2443     2436     2434     2440     2443     2436     2434     2442 
    2442     2438     2436     2439     2439     2436     2436     2444 
    2443     2432     2432     2442     2440     2435     2439     2444 
    2440     2435     2438     2442     2439     2434     2436     2443 
    2439     2434     2440     2444     2436     2432     2439     2443 
    2435     2432     2440     2444     2436     2434     2440     2440 
    2434     2435     2442     2442     2435     2436     2442     2439 
    2434     2439     2443     2438     2435     2439     2439     2436 
    2434     2438     2440     2435     2432     2438     2440     2435 
    2434     2442     2444     2438     2435     2440     2440     2436 
    2435     2442     2443     2436     2435     2443     2440     2435 
    2439     2443     2438     2434     2439     2442     2439     2435 
    2438     2442     2438     2434     2439     2444     2438     2432 
    2438     2442     2436     2435     2443     2446     2436     2432 
    2440     2442     2434     2436     2444     2440     2435     2438 
    2443     2439     2434     2436     2444     2439     2434     2439 
    2443     2440     2436     2438     2442     2438     2432     2440 
    2446     2439     2434     2439     2443     2438     2434     2440 
    2444     2438     2435     2440     2442     2435     2435     2443 
    2443     2435     2435     2444     2444     2434     2435     2443 
    2440     2434     2438     2442     2438     2434     2439     2444 
    2440     2434     2438     2443     2438     2432     2436     2443 
    2439     2434     2438     2444     2439     2432     2438     2444 
    2439     2434     2440     2444     2436     2435     2443     2442 
    2434     2435     2443     2443     2435     2434     2440     2443 
    2436     2435     2440     2440     2434     2436     2442     2442 
    2435     2434     2440     2442     2434     2436     2444     2442 
    2434     2436     2444     2439     2432     2435     2442     2439 
    2434     2438     2443     2436     2431     2439     2444     2438 
    2432     2439     2442     2436     2434     2439     2443     2436 
    2434     2439     2442     2435     2432     2440     2444     2436 
    2430     2439     2444     2435     2430     2439     2443     2435 
    2434     2440     2442     2435     2435     2442     2442     2436 
    2435     2440     2439     2434     2435     2442     2442     2436 
    2435     2443     2442     2434     2436     2444     2439     2432 
    2435     2443     2439     2434     2439     2444     2439     2435 
    2439     2444     2440     2434     2436     2439     2436     2435 
    2439     2444     2438     2432     2438     2442     2436     2435 
    2440     2440     2438     2435     2438     2442     2438     2438 
    2448     2454     2451     2458     2473     2475     2473     2475 
    2466     2436     2409     2403     2393     2359     2339     2366 
    2394     2420     2508     2565     2528     2571     2644     2554 
    2475     2486     2384     2251     2235     2231     2265     2416 
    2527     2500     2432     2396     2397     2369     2390     2575 
    2650     2600     2646     2448     2020     1985     2297     2502 
    2635     2728     2598     2467     2463     2289     2177     2367 
    2523     2560     2535     2473     2444     2416     2417     2371 
    2417     2691     2575     2112     2168     2497     2486     2446 
    2616     2679     2459     2209     2199     2324     2400     2515 
    2704     2725     2479     2270     2347     2421     2309     2385 
    2612     2531     2362     2454     2475     2335     2350     2421 
    2430     2498     2497     2397     2427     2546     2544     2452 
    2407     2390     2353     2334     2374     2477     2554     2524 
    2458     2420     2421     2482     2505     2458     2494     2555 
    2482     2380     2317     2278     2270     2263     2309     2412 
    2440     2458     2586     2619     2477     2448     2527     2457 
    2286     2276     2473     2581     2461     2369     2355     2304 
    2366     2536     2566     2502     2509     2515     2457     2409 
    2417     2452     2452     2421     2463     2525     2462     2358 
    2349     2413     2442     2432     2471     2457     2373     2384 
    2442     2443     2393     2370     2442     2467     2409     2463 
    2566     2531     2443     2435     2502     2527     2394     2277 
    2312     2358     2427     2538     2484     2340     2369     2488 
    2502     2450     2443     2481     2493     2489     2462     2396 
    2401     2434     2376     2367     2458     2504     2486     2482 
    2496     2493     2486     2430     2338     2322     2382     2465 
    2498     2442     2428     2466     2424     2380     2396     2404 
    2409     2438     2485     2516     2489     2447     2420     2407 
    2415     2466     2556     2536     2353     2254     2334     2417 
    2462     2543     2577     2467     2363     2385     2430     2452 
    2454     2436     2482     2506     2412     2335     2366     2451 
    2515     2497     2434     2420     2469     2443     2338     2389 
    2578     2539     2347     2376     2454     2398     2416     2459 
    2404     2382     2415     2455     2505     2523     2494     2374 
    2253     2313     2425     2439     2457     2524     2566     2520 
    2473     2471     2396     2374     2465     2398     2324     2462 
    2498     2359     2351     2492     2608     2625     2516     2361 
    2327     2370     2347     2394     2521     2506     2416     2354 
    2309     2423     2601     2523     2305     2295     2423     2523 
    2575     2471     2335     2388     2443     2438     2501     2493 
    2428     2443     2486     2511     2452     2369     2378     2415 
    2446     2436     2370     2376     2505     2650     2625     2461 
    2344     2346     2506     2575     2361     2278     2444     2496 
    2381     2301     2394     2473     2398     2470     2617     2497 
    2334     2347     2409     2501     2521     2343     2242     2358 
    2454     2488     2543     2520     2389     2307     2342     2473 
    2627     2616     2452     2416     2500     2482     2481     2571 
    2511     2366     2307     2285     2377     2413     2292     2349 
    2465     2446     2496     2519     2403     2339     2376     2438 
    2547     2656     2610     2492     2452     2389     2355     2501 
    2558     2366     2269     2339     2319     2324     2465     2538 
    2536     2508     2385     2324     2404     2425     2411     2432 
    2447     2494     2484     2388     2423     2524     2484     2425 
    2443     2431     2462     2563     2556     2455     2416     2471 
    2473     2315     2270     2463     2523     2421     2405     2358 
    2277     2334     2432     2516     2594     2566     2459     2373 
    2326     2317     2355     2435     2469     2436     2454     2479 
    2461     2513     2598     2571     2452     2378     2396     2452 
    2498     2463     2374     2361     2457     2520     2459     2470 
    2517     2350     2212     2324     2394     2338     2370     2511 
    2610     2586     2416     2243     2289     2489     2554     2471 
    2473     2519     2471     2458     2512     2525     2560     2521 
    2301     2215     2371     2501     2519     2447     2342     2378 
    2506     2488     2415     2458     2461     2336     2234     2259 
    2380     2477     2532     2592     2571     2474     2442     2409 
    2403     2600     2685     2420     2276     2392     2390     2328 
    2421     2506     2490     2498     2488     2398     2355     2393 
    2405     2394     2470     2536     2428     2319     2358     2411 
    2478     2528     2416     2311     2339     2362     2444     2652 
    2748     2673     2552     2374     2257     2344     2430     2384 
    2430     2527     2403     2286     2423     2479     2362     2336 
    2374     2434     2532     2479     2355     2412     2458     2369 
    2424     2528     2443     2412     2470     2423     2401     2455 
    2492     2538     2529     2439     2444     2540     2509     2432 
    2470     2424     2288     2326     2417     2427     2470     2490 
    2396     2338     2436     2509     2419     2386     2447     2417 
    2401     2435     2459     2546     2560     2457     2390     2369 
    2413     2450     2384     2461     2597     2435     2258     2377 
    2551     2581     2556     2516     2376     2246     2261     2339 
    2494     2621     2484     2317     2361     2413     2446     2535 
    2547     2473     2427     2380     2319     2328     2389     2458 
    2517     2565     2587     2501     2381     2366     2417     2515 
    2575     2473     2377     2394     2353     2292     2354     2443 
    2500     2531     2440     2319     2384     2502     2473     2451 
    2492     2415     2340     2396     2409     2428     2529     2536 
