Origin Time       2024/06/23 22:54:00
Lat.              35.645
Long.             140.060
Depth. (km)       72
Mag.              4.1
Station Code      IBRH11
Station Lat.      36.3701
Station Long.     140.1401
Station Height(m) -36
Record Time       2024/06/23 22:54:51
Sampling Freq(Hz) 100Hz
Duration Time(s)  120
Dir.              3
Scale Factor      2942(gal)/8224139
Max. Acc. (gal)   0.319
Last Correction   2024/06/23 22:54:51
Memo.             
[...]
    9288     9286     9285     9286     9286     9286     9285     9286 
    9286     9286     9286     9285     9283     9285     9286     9286 
    9286     9286     9288     9286     9283     9286     9289     9286 
    9286     9288     9285     9285     9286     9286     9288     9285 
    9283     9286     9289     9289     9286     9285     9285     9285 
    9285     9286     9286     9285     9286     9286     9286     9285 
    9286     9286     9288     9288     9286     9286     9288     9286 
    9288     9286     9283     9286     9286     9285     9288     9288 
    9286     9286     9288     9289     9288     9285     9286     9289 
    9289     9286     9286     9286     9289     9289     9285     9286 
    9289     9285     9283     9286     9286     9286     9286     9286 
    9288     9288     9288     9288     9288     9289     9290     9288 
    9288     9290     9288     9286     9289     9288     9285     9288 
    9288     9285     9286     9289     9289     9289     9288     9288 
    9286     9286     9288     9288     9286     9288     9285     9283 
    9288     9289     9286     9286     9286     9286     9286     9288 
    9285     9286     9289     9289     9285     9283     9286     9286 
    9283     9285     9288     9288     9288     9285     9283     9286 
    9288     9288     9285     9285     9286     9286     9285     9285 
    9288     9288     9285     9285     9286     9285     9285     9286 
    9286     9288     9288     9286     9283     9282     9283     9286 
    9290     9288     9285     9288     9288     9288     9288     9288 
    9288     9288     9286     9288     9285     9283     9285     9286 
    9286     9286     9286     9286     9286     9286     9286     9288 
    9286     9288     9286     9282     9282     9286     9288     9285 
    9285     9288     9286     9285     9285     9285     9285     9286 
    9288     9286     9285     9285     9285     9288     9288     9285 
    9288     9289     9288     9286     9286     9286     9285     9285 
    9285     9285     9283     9283     9286     9289     9285     9281 
    9282     9285     9286     9288     9285     9282     9285     9285 
    9285     9285     9283     9283     9282     9283     9286     9286 
    9285     9285     9286     9286     9285     9286     9286     9285 
    9285     9286     9288     9285     9283     9286     9288     9285 
    9283     9285     9286     9285     9283     9286     9285     9286 
    9288     9286     9283     9286     9285     9286     9289     9285 
    9281     9283     9285     9288     9288     9283     9283     9283 
    9282     9285     9285     9285     9285     9285     9288     9288 
    9286     9286     9286     9286     9285     9283     9286     9285 
    9285     9285     9285     9286     9288     9289     9290     9290 
    9289     9292     9292     9290     9290     9288     9283     9285 
    9286     9283     9281     9286     9294     9285     9273     9282 
    9283     9258     9267     9297     9267     9240     9300     9346 
    9293     9254     9305     9315     9255     9259     9278     9259 
    9315     9370     9293     9236     9313     9288     9101     9130 
    9401     9470     9324     9335     9424     9293     9093     9124 
    9283     9320     9279     9366     9470     9283     8974     9047 
    9414     9447     9174     9211     9475     9441     9153     9051 
    9202     9313     9359     9371     9351     9447     9440     9154 
    9031     9234     9393     9347     9219     9201     9373     9482 
    9283     9074     9292     9599     9431     9113     9070     9132 
    9266     9339     9236     9343     9576     9510     9186     9011 
    9306     9537     9290     9224     9416     9302     9089     9120 
    9181     9185     9340     9412     9261     9246     9269     9220 
    9320     9340     9189     9132     9288     9472     9354     9304 
    9539     9427     9136     9148     9254     9332     9261     9062 
    9119     9352     9387     9266     9312     9455     9371     9248 
    9286     9243     9178     9292     9396     9348     9317     9405 
    9332     9055     9089     9400     9423     9275     9273     9231 
    9198     9329     9329     9213     9364     9537     9309     9092 
    9298     9400     9128     9028     9290     9474     9347     9239 
    9269     9188     9159     9347     9433     9306     9204     9262 
    9396     9336     9184     9324     9448     9229     9120     9261 
    9296     9219     9221     9377     9566     9452     9081     9001 
    9308     9436     9306     9344     9350     9194     9317     9391 
    9063     8946     9289     9575     9417     9170     9319     9441 
    9224     9140     9297     9332     9200     9229     9431     9355 
    9162     9292     9347     9153     9185     9305     9292     9383 
    9463     9323     9207     9236     9261     9259     9244     9254 
    9282     9236     9240     9309     9316     9352     9343     9254 
    9310     9370     9298     9321     9404     9355     9239     9220 
    9275     9196     9128     9309     9363     9140     9148     9370 
    9354     9251     9371     9425     9193     9063     9163     9242 
    9294     9360     9371     9336     9316     9312     9325     9309 
    9235     9321     9435     9283     9211     9333     9278     9167 
    9266     9316     9234     9315     9451     9320     9139     9313 
    9456     9123     8999     9367     9396     9212     9448     9603 
    9275     9054     9327     9509     9247     9134     9319     9336 
    9223     9229     9201     9072     9085     9223     9344     9423 
    9310     9151     9178     9265     9386     9432     9298     9297 
    9397     9265     9061     9192     9427     9331     9242     9312 
    9308     9331     9304     9208     9248     9397     9471     9397 
    9382     9331     9139     9170     9296     9292     9421     9504 
    9244     9007     9100     9247     9138     9036     9250     9383 
    9212     9231     9516     9567     9281     9109     9304     9535 
    9517     9370     9300     9362     9386     9207     9036     9104 
    9216     9300     9420     9373     9180     9104     9190     9240 
    9161     9147     9262     9277     9175     9235     9363     9229 
    9126     9358     9460     9246     9271     9590     9672     9482 
    9431     9463     9173     8830     8922     9290     9481     9255 
    9178     9510     9327     8830     9024     9343     9163     9082 
    9431     9671     9414     9220     9387     9348     9224     9300 
    9235     9219     9389     9440     9418     9350     9301     9290 
    9162     9120     9194     9251     9293     9309     9466     9429 
    9108     9238     9535     9435     9271     9205     9097     8999 
    9198     9463     9315     9167     9234     9216     9219     9290 
    9424     9536     9396     9161     9184     9441     9485     9181 
    9115     9329     9320     9391     9589     9310     8999     9242 
    9433     9193     9067     9209     9258     9232     9240     9239 
    9228     9193     9167     9279     9439     9302     9082     9225 
    9351     9229     9393     9764     9609     9092     9082     9385 
    9236     9030     9269     9456     9437     9410     9216     9157 
    9377     9371     9204     9116     9078     9217     9359     9375 
    9431     9381     9285     9335     9390     9387     9224     9097 
    9279     9259     9059     9261     9475     9377     9286     9238 
    9224     9278     9169     8980     9182     9549     9439     9174 
    9228     9288     9198     9246     9502     9593     9302     9175 
    9351     9227     9049     9300     9493     9348     9316     9485 
    9369     8996     8964     9215     9269     9138     9162     9431 
    9572     9431     9347     9424     9420     9344     9347     9292 
    9165     9112     9061     9113     9201     9171     9316     9312 
    9063     9266     9536     9377     9243     9333     9482     9462 
    9342     9347     9383     9316     9154     9105     9242     9300 
    9232     9171     9181     9300     9373     9265     9158     9236 
    9385     9421     9389     9367     9336     9292     9161     9054 
    9189     9321     9217     9144     9325     9406     9198     9267 
    9517     9323     9202     9505     9544     9162     8986     9265 
    9396     9211     9212     9329     9370     9406     9320     9121 
    9049     9266     9548     9501     9324     9355     9448     9410 
    9281     9236     9225     9132     9229     9413     9238     9034 
    9169     9200     9034     9111     9352     9382     9283     9325 
    9391     9355     9293     9250     9273     9251     9243     9355 
    9297     9181     9205     9181     9208     9298     9355     9456 
    9486     9402     9352     9375     9371     9286     9223     9246 
    9312     9325     9239     9197     9273     9292     9258     9350 
    9347     9147     9117     9170     9148     9252     9335     9329 
    9350     9289     9286     9367     9340     9355     9360     9225 
    9261     9418     9275     8992     9090     9441     9468     9221 
    9116     9261     9475     9452     9304     9308     9262     9131 
    9178     9315     9298     9197     9217     9331     9397     9360 
    9300     9350     9373     9262     9277     9408     9343     9134 
    9070     9229     9366     9317     9256     9263     9270     9300 
    9263     9117     9126     9310     9401     9354     9238     9154 
    9274     9472     9497     9445     9405     9256     9120     9113 
    9216     9356     9337     9243     9251     9308     9333     9279 
    9250     9329     9363     9229     9119     9256     9396     9332 
    9298     9319     9252     9147     9123     9209     9273     9286 
    9387     9432     9263     9185     9352     9451     9336     9221 
    9286     9435     9343     9107     9217     9506     9478     9251 
    9120     9123     9132     9092     9182     9375     9410     9340 
    9255     9144     9229     9423     9366     9242     9316     9429 
    9413     9270     9219     9300     9281     9308     9408     9323 
    9234     9239     9239     9277     9261     9207     9273     9354 
    9305     9201     9182     9244     9324     9393     9451     9495 
    9377     9181     9186     9188     9093     9140     9250     9265 
    9251     9354     9472     9383     9273     9281     9159     9008 
    9147     9402     9456     9366     9333     9356     9244     9169 
    9369     9386     9158     9211     9379     9397     9310     9212 
    9267     9309     9261     9277     9273     9297     9363     9308 
    9315     9377     9184     9108     9363     9352     9174     9278 
    9366     9348     9306     9205     9254     9283     9227     9288 
    9270     9256     9378     9356     9232     9255     9358     9339 
    9196     9144     9282     9339     9235     9333     9535     9351 
    9055     9163     9321     9180     9161     9323     9294     9259 
    9418     9445     9235     9151     9321     9451     9386     9339 
    9389     9336     9229     9234     9279     9278     9232     9212 
    9255     9283     9251     9190     9154     9220     9378     9437 
    9331     9267     9396     9459     9282     9192     9255     9223 
    9178     9228     9293     9340     9319     9273     9242     9181 
    9234     9359     9293     9221     9321     9294     9167     9288 
    9435     9297     9282     9486     9375     9177     9300     9393 
    9416     9477     9292     9127     9273     9281     9066     9088 
    9315     9308     9127     9111     9121     9157     9352     9358 
    9188     9273     9455     9412     9379     9483     9364     9178 
    9274     9385     9378     9344     9344     9339     9227     9263 
    9305     9050     9073     9389     9343     9216     9352     9412 
    9362     9371     9286     9138     9186     9355     9309     9105 
    9157     9382     9373     9229     9193     9244     9366     9464 
    9416     9359     9398     9370     9204     9043     9089     9275 
    9275     9192     9319     9400     9286     9278     9421     9466 
    9298     9188     9279     9261     9139     9231     9401     9359 
    9205     9238     9425     9413     9219     9197     9294     9290 
    9294     9300     9207     9189     9261     9267     9202     9136 
    9193     9312     9240     9121     9278     9471     9413     9404 
    9489     9391     9375     9553     9529     9393     9420     9379 
    9143     9018     9092     9073     9009     9088     9123     9148 
    9312     9439     9390     9275     9319     9402     9274     9278 
    9454     9337     9192     9235     9124     9073     9269     9244 
    9008     9094     9390     9495     9486     9417     9385     9520 
    9532     9329     9197     9243     9325     9286     9209     9197 
    9238     9346     9316     9142     9180     9304     9313     9333 
    9262     9223     9404     9433     9300     9398     9605     9543 
    9317     9308     9329     9178     9151     9163     9020     8947 
    9022     9078     9024     9031     9192     9352     9421     9328 
    9198     9256     9406     9387     9196     9192     9412     9385 
    9128     9085     9306     9531     9518     9294     9224     9294 
    9184     9047     9062     9171     9337     9406     9412     9482 
    9413     9155     9189     9725    10176    10053     9648     9420 
    9289     9086     9034     9132     9229     9301     9204     9049 
    9045     9128     9302     9391     9197     9003     8980     8970 
    9028     9219     9325     9278     9200     9101     9124     9404 
    9520     9323     9358     9601     9540     9240     9009     8988 
    9090     9104     9196     9566     9810     9571     9386     9702 
    9844     9433     9204     9347     9297     9134     9239     9358 
    9100     8777     8839     8988     9018     9216     9506     9616 
    9475     9200     9026     9047     9296     9539     9409     9196 
    9158     9012     8897     9055     9320     9502     9431     9306 
    9443     9506     9351     9285     9188     9124     9418     9647 
    9391     9034     9034     9304     9460     9468     9479     9481 
    9512     9516     9348     9085     8984     9185     9333     9225 
    9310     9497     9288     9028     9151     9319     9329     9387 
    9383     9277     9317     9342     9089     8976     9279     9394 
    9207     9382     9647     9387     9090     9294     9456     9119 
    8900     9108     9166     9000     9050     9313     9529     9566 
    9447     9417     9471     9367     9271     9255     9138     9039 
    9082     9216     9273     9104     9086     9439     9595     9383 
    9324     9551     9622     9417     9310     9290     9228     9321 
    9451     9352     9116     8988     9054     9128     9067     9027 
    9143     9351     9493     9427     9397     9680     9795     9444 
    9235     9317     9174     8947     9158     9428     9238     8999 
    9049     9123     9089     9138     9228     9177     9216     9371 
    9412     9468     9494     9329     9269     9417     9382     9207 
    9339     9505     9308     9221     9493     9606     9386     9216 
    9190     9101     9062     9181     9234     9277     9402     9328 
    9177     9281     9351     9139     9007     9157     9215     9124 
    9197     9351     9456     9458     9327     9317     9364     9278 
    9344     9543     9497     9377     9416     9362     9174     9139 
    9207     9196     9208     9336     9463     9390     9220     9265 
    9343     9242     9231     9348     9339     9252     9193     9093 
    9144     9297     9144     9009     9278     9474     9369     9321 
    9271     9089     9136     9324     9297     9298     9458     9474 
    9346     9374     9508     9424     9212     9108     9092     9221 
    9390     9293     9169     9310     9417     9336     9301     9342 
    9309     9286     9369     9342     9144     8997     8972     8974 
    8887     8808     9007     9306     9356     9340     9491     9652 
    9585     9394     9421     9595     9691     9714     9657     9616 
    9547     9258     8997     9004     8980     8822     8938     9339 
    9409     9161     9162     9258     9169     9208     9435     9562 
    9593     9663     9725     9618     9333     9108     8991     8866 
    8814     8851     8965     9193     9320     9232     9163     9202 
    9250     9328     9371     9370     9443     9468     9482     9632 
    9636     9397     9219     9192     9138     9050     9099     9255 
    9414     9427     9246     9080     9061     9161     9117     9027 
    9347     9771     9852     9705     9470     9342     9364     9292 
    9085     8965     8981     8991     9000     9108     9256     9462 
    9733     9738     9477     9362     9346     9193     9051     9117 
    9217     9144     9111     9201     9317     9528     9558     9212 
    9024     9175     9290     9297     9274     9271     9360     9551 
    9659     9360     9020     9153     9267     9103     9121     9304 
    9315     9082     8847     8984     9354     9506     9417     9363 
    9427     9456     9316     9032     8942     9211     9377     9313 
    9418     9641     9771     9709     9417     9319     9485     9424 
    9216     9092     9100     9267     9190     8833     8769     9034 
    9220     9204     9269     9533     9582     9391     9367     9337 
    9109     9090     9309     9433     9516     9495     9335     9342 
    9387     9221     9135     9248     9281     9301     9444     9350 
    9062     9049     9124     9053     9066     9115     9155     9423 
    9713     9671     9423     9286     9321     9308     9244     9153 
    9028     9171     9354     9115     8865     9008     9340     9552 
    9516     9535     9710     9668     9533     9617     9639     9393 
    9162     9127     9097     8955     8916     9070     9277     9432 
    9406     9166     8914     8895     9119     9278     9184     9059 
    9190     9455     9543     9435     9331     9348     9385     9306 
    9209     9263     9356     9393     9474     9464     9297     9132 
    9081     9169     9219     9216     9305     9364     9360     9423 
    9494     9467     9387     9364     9328     9232     9167     9067 
    8934     8829     8765     8946     9259     9335     9289     9462 
    9805     9853     9618     9544     9571     9560     9451     9224 
    9228     9317     9227     9331     9441     9169     8931     9005 
    9142     9159     9177     9309     9382     9277     9104     9022 
    9112     9223     9201     9159     9198     9262     9339     9456 
    9499     9356     9196     9267     9467     9504     9408     9412 
    9424     9340     9339     9401     9333     9127     9007     9140 
    9247     9127     9074     9185     9234     9204     9193     9186 
    9201     9283     9414     9540     9531     9397     9437     9637 
    9595     9320     9153     9198     9275     9251     9258     9316 
    9297     9220     9205     9290     9178     8922     9112     9447 
    9327     9182     9331     9472     9468     9377     9281     9200 
