Origin Time       2024/06/23 22:54:00
Lat.              35.645
Long.             140.060
Depth. (km)       72
Mag.              4.1
Station Code      IBRH07
Station Lat.      35.9521
Station Long.     140.3301
Station Height(m) 3
Record Time       2024/06/23 22:54:36
Sampling Freq(Hz) 100Hz
Duration Time(s)  120
Dir.              4
Scale Factor      7845(gal)/8223790
Max. Acc. (gal)   4.192
Last Correction   2024/06/23 22:54:36
Memo.             
[...]
      91       90       90       91       91       90       87       87 
      90       91       90       89       90       91       91       94 
      93       87       90       93       89       86       89       89 
      90       90       90       93       95       97       94       93 
      90       85       82       85       89       86       86       93 
      95       91       89       89       86       85       87       89 
      86       87       89       87       86       86       85       85 
      87       89       87       83       83       85       83       82 
      83       85       83       86       87       86       85       83 
      83       85       82       82       82       81       81       82 
      82       82       83       83       85       83       82       82 
      82       82       81       81       83       85       85       86 
      83       81       78       76       79       81       82       85 
      87       87       89       82       75       79       85       86 
      85       85       85       83       81       81       83       83 
      83       83       83       83       85       83       81       83 
      86       87       89       87       86       87       89       87 
      85       83       85       87       86       86       90       90 
      89       89       89       89       87       85       86       87 
      87       91       90       87       90       91       90       90 
      90       89       89       90       90       89       90       89 
      87       91       94       93       93       95       93       91 
      93       90       89       90       93       93       90       89 
      93       94       91       91       90       89       89       89 
      86       87       89       90       90       90       89       89 
      90       91       89       85       87       91       89       89 
      91       91       90       89       87       90       90       89 
      89       90       93       89       85       86       90       93 
      90       87       87       87       86       89       90       89 
      89       90       90       89       85       83       83       85 
      89       91       90       90       90       89       89       89 
      87       86       87       86       83       86       90       93 
      93       93       94       91       87       85       83       82 
      85       85       86       90       90       91       95       94 
      89       86       83       83       86       89       89       90 
      91       90       91       93       90       90       91       86 
      83       86       87       87       90       91       93       91 
      89       89       87       83       83       89       91       93 
      93       90       87       89       89       90       91       89 
      87       86       86       87       87       86       90       94 
      94       90       86       86       86       86       86       86 
      86       87       89       89       87       87       89       87 
      86       83       82       85       86       85       86       85 
      83       86       87       85       82       83       85       87 
      87       86       83       85       87       87       85       85 
      85       86       86       87       85       81       82       83 
      85       85       82       82       86       87       86       86 
      87       86       83       83       83       82       81       83 
      87       89       89       89       87       86       86       83 
      85       87       87       87       89       86       83       85 
      86       86       86       87       90       90       89       86 
      83       85       86       85       85       86       87       91 
      90       86       86       87       89       90       91       89 
      89       90       91       91       90       89       90       91 
      91       89       89       89       90       91       90       87 
      89       90       89       91       95       90       85       89 
      91       89       87       87       89       91       86       83 
      85       85       87       90       87       87       90       87 
      86       86       85       85       87       87       87       87 
      87       87       87       83       82       83       83       85 
      85       82       81       81       81       86       87       85 
      82       83       95      108      102       82       70       71 
      70       56       39       29       45       70      106      178 
     163       81      156      206       41       16      116       37 
     -56      -82     -105       18      236      371      382      221 
      29     -129     -360     -311      129      560      953      872 
    -121    -1008    -1084     -594      342     1090     1121      787 
     287     -388     -951     -967     -363      467     1062     1112 
     703       56     -656     -969     -695      -43      696      965 
     683      303     -126     -527     -498      -40      442      577 
     325        0     -210     -206       97      324      156      -40 
      94      245      132      122      216       63       37      193 
      20     -178      -76       60      225      384      311      106 
     -32      -81      -60       35      205      329      240       35 
     -56       37      213      248      210      197        8     -182 
    -144       -9      193      322      201      -44     -133       66 
     265      330      375      257       54        9      -62     -187 
     -56      195      326      376      240      -45     -184     -139 
     -33      162      315      160     -105     -224     -248     -113 
     213      611      847      699      263     -270     -735     -828 
    -449      153      599      629      265     -230     -571     -604 
    -240      445     1007     1105      693      -94     -750     -870 
    -630     -256      229      658      835      751      367     -207 
    -592     -584     -279      102      371      469      446      351 
     156      -90     -232     -201        4      279      388      386 
     398      240     -121     -422     -464     -240      133      503 
     677      548      151     -376     -708     -595     -105      504 
     859      792      481       66     -324     -440     -190      189 
     405      429      298      -10     -334     -446     -333      -86 
     265      596      643      415      155        8       25      132 
     195      170       52      -35       -2       68      133      153 
      43      -70      -62      -13       60      144      205      274 
     288      228       85     -140     -240     -124      103      324 
     368      195      -98     -253      -64      218      363      387 
     229      -14     -157     -201      -56      257      373      179 
       6       72      214      202       85        9      -10      -51 
    -198     -310     -126      211      357      318      288      233 
      93       27       58      -10     -148     -207     -230     -178 
      44      292      396      418      386      187      -89     -149 
      -1       71       86       97      -35     -133      -68      -54 
    -109       13      375      642      631      438        0     -540 
    -772     -583     -155      284      588      650      436      141 
    -116     -336     -263      132      490      573      321      -83 
    -295     -230      -94       10      122      222      301      275 
      86      -99     -152      -14      238      415      452      346 
     186      112      167      221       72     -114     -113      -67 
     -82     -125     -113      195      648      749      602      456 
     183      -98     -278     -297       48      433      453      207 
    -170     -444     -398     -139      143      379      422      207 
     116      194       72       16      167      166      199      411 
     341       16     -118     -148     -184       44      402      535 
     517      333      -56     -284     -167        1       22       36 
      62      -71     -156      118      454      481      333      139 
     -64     -151     -116      -35       39       78       70       -6 
     -55       12       22      -95     -117     -110     -199        8 
     376      318      152      151      -68     -368     -469     -402 
    -109      257      546      706      537      121     -310     -619 
    -557     -125      383      776      888      652      252     -148 
    -515     -672     -436      -32      216      423      591      433 
     116     -120     -295     -247      144      599      707      434 
      28     -365     -545     -342       21      247      356      429 
     333      118       13       -2       44      260      409      270 
     163      140      -10     -108      -89      -59        4       74 
     153      245      245      125       79      108       86      211 
     464      607      580      276     -122     -272     -251     -151 
      55      214      238      118     -114     -218      -95      143 
     446      585      453      288      113      -25       31       78 
      17       98      232      128      -44      -45      -64     -110 
      41      179      160      148       47     -166     -282     -237 
     -59      190      390      440      349      198       51      -76 
    -225     -286      -94      155      233      205       86     -132 
    -245     -139       49      199      265      214       54     -101 
    -116       -1      184      348      299      109      -49     -211 
    -329     -245       -1      153      118       91      143      156 
     143      151      284      558      650      472      199      -83 
    -144      -48     -137     -240     -193     -180     -175      -87 
      51      201      275      252      172      103       89       67 
       0      -63      -36        6      -70     -135      -78       22 
      82       25      -40      -32       13      224      548      781 
     888      750      286     -224     -492     -557     -422      -43 
     340      434      298      184       60     -116      -58      168 
     213      141       95       17      -47       13      159      191 
      97      125      226      155       10      -48       29      236 
     357      315      241      149       32      -17       10       29 
      76      234      376      311       22     -292     -352     -140 
      86      248      297      149      -28     -171     -336     -278 
      72      442      676      746      668      449      191       32 
     -35       49      225      259      222      159      -70     -315 
    -405     -322      -75      128      124       44       71      221 
     313      238       76      -47      -39       20       54      113 
     128      145      205      141      -45     -247     -301     -116 
     140      337      442      488      477      252     -112     -299 
    -244     -128      -17      156      251      137       12      -68 
    -247     -346     -145      139      306      394      317       82 
    -129     -205     -103       56      180      363      538      537 
     414      253       49      -83      -91     -103     -128     -122 
    -117      -83      -48      -41       48      224      360      373 
     241       52     -117     -182      -37      118      163      280 
     430      430      253      -27     -213     -157       13      126 
     175      187      128      -62     -244     -224      -87       91 
     306      383      301      238      214      126       70      140 
     247      295      210       10     -213     -368     -303      -16 
     336      575      558      378      205      122      145      233 
     369      369      133      -35      -49      -86     -155     -256 
    -282      -94      133      255      253      108      -45      -67 
      31      180      248      182       56      -68     -126     -129 
    -113       43      302      459      515      463      229      -68 
    -325     -444     -259      180      572      616      309     -101 
    -407     -508     -349       79      631      962      899      507 
     -71     -500     -595     -504     -288        6      211      274 
     255      163       17      -54       59      225      237      183 
     210      220      180      135       48      -89     -267     -334 
    -153      102      251      226       82       51      156      207 
     168      149      218      265      189       51     -112     -224 
    -113      170      407      483      384      105     -249     -456 
    -364       -9      373      508      295     -110     -403     -446 
    -282       27      378      681      784      610      317      -52 
    -479     -753     -700     -264      364      776      684      190 
    -303     -535     -479     -143      364      804      888      494 
    -157     -727    -1026    -1031     -811     -449     -124      -39 
    -201     -481     -664     -436      220      953     1453     1522 
    1070      278     -436     -697     -625     -571     -600     -700 
    -823     -826     -702     -398      288     1451     2732     3672 
    4193     4156     3337     1930      399     -859    -1706    -2170 
   -2280    -2088    -1513     -504      554     1263     1641     1850 
    1981     2173     2488     2629     2151      899     -892    -2677 
   -3909    -4307    -3813    -2643    -1262     -108      579      807 
     719      390      -49     -375     -490     -523     -635     -747 
    -604     -140      457     1046     1553     1755     1470      881 
     342       94      157      338      324      -21     -480     -824 
    -977     -797     -387       -9      292      427      406      442 
     504      469      442      572      710      592      380      294 
     274      387      596      606      392       95     -145     -157 
      54      368      629      672      494      163      -90       63 
     569     1105     1370     1074      108    -1277    -2546    -3325 
   -3528    -3007    -1836     -568      265      521      365       29 
    -301     -471     -479     -430     -400     -419     -465     -491 
    -510     -526     -391      -31      407      756      850      708 
     625      635      564      442      433      637      924     1075 
    1150     1328     1664     2018     2147     1934     1414      756 
     163     -391     -947    -1242    -1054     -486      206      826 
    1236     1316     1034      607      345      287      380      565 
     538      102     -616    -1417    -2053    -2357    -2290    -1883 
   -1377    -1023     -849     -781     -727     -672     -592     -314 
     195      812     1483     2093     2486     2610     2511     2253 
    1863     1459     1181      947      646      309      -12     -225 
    -255     -199     -179     -234     -326     -373     -368     -369 
    -425     -515     -567     -602     -626     -531     -338      -81 
     264      607      826      804      472      -39     -510     -839 
    -993    -1011    -1040    -1125    -1158    -1000     -579        5 
     603     1112     1393     1360     1062      560      -70     -600 
    -796     -749     -650     -525     -437     -480     -577     -615 
    -599     -529     -356      -98      172      410      588      735 
     850      870      789      589      214     -182     -359     -303 
     -76      332      895     1448     1749     1736     1553     1309 
    1093      965      858      730      545      261      -62     -388 
    -699     -945    -1188    -1428    -1525    -1449    -1264     -992 
    -635     -234      152      365      237      -56     -251     -302 
    -171      189      638      980     1154     1155      936      585 
     274       76        6        6      -62     -303     -703    -1156 
   -1561    -1791    -1615     -868      288     1321     1745     1514 
     880      164     -372     -625     -515      -35      635     1302 
    1838     2189     2392     2322     1877     1309      827      407 
      76     -229     -643    -1121    -1549    -1784    -1749    -1547 
   -1293     -977     -538      -10      540     1043     1314     1270 
     972      479      -45     -471     -768     -855     -666     -283 
      85      329      508      540      417      394      484      595 
     795      989     1069     1094     1032      849      616      338 
     -32     -368     -495     -496     -422     -213      -22      -25 
    -241     -657    -1170    -1505    -1460    -1132     -703     -344 
    -148       48      349      696     1063     1350     1424     1270 
     900      351     -278     -882    -1367    -1584    -1498    -1281 
   -1063     -788     -446     -137      133      423      783     1174 
    1402     1355     1159      943      639      267        6     -156 
    -271     -243     -176     -229     -299     -233       58      654 
    1462     2176     2581     2593     2147     1383      588      -22 
    -379     -621     -885    -1159    -1462    -1822    -2119    -2160 
   -1931    -1594    -1254    -1016     -926     -796     -491     -147 
     109      341      656      990     1188     1217     1098      827 
     565      480      557      687      735      693      641      598 
     538      369       56     -234     -378     -394     -307     -141 
      75      348      594      679      621      519      390      243 
     143      128      153      214      297      288      201      163 
     174       98     -130     -378     -486     -499     -495     -382 
    -160       37      183      194       33     -110     -225     -359 
    -344     -167       43      229      299      244      139       12 
     -76      -27      174      411      576      626      508      261 
      17     -179     -275     -132      248      677     1062     1368 
    1474     1347     1084      707      244     -194     -533     -776 
    -954    -1059    -1030     -851     -561     -199      101      247 
     284      253      189      135      105      141      275      465 
     629      653      511      249      -39     -194     -133       31 
      91      -48     -322     -635     -904    -1030     -993     -858 
    -680     -469     -187       81      132      -49     -342     -615 
    -650     -344      110      510      762      812      734      643 
     530      398      382      534      699      773      846      907 
     897      947     1094     1162     1020      668      182     -322 
    -716     -940    -1054    -1086    -1065    -1024     -912     -714 
    -454     -152      147      379      473      490      507      410 
     153     -116     -356     -579     -654     -537     -371     -252 
    -162      -87      -31      116      384      606      734      823 
     773      602      549      685      823      859      814      668 
     476      309      193      184      282      425      557      602 
     526      395      311      337      502      735      886      877 
     695      361      -29     -332     -450     -403     -222       12 
     120       27     -234     -611     -990    -1273    -1401    -1318 
   -1121     -985     -872     -688     -527     -433     -260        0 
