Origin Time       2024/06/23 22:54:00
Lat.              35.645
Long.             140.060
Depth. (km)       72
Mag.              4.1
Station Code      IBRH11
Station Lat.      36.3701
Station Long.     140.1401
Station Height(m) -36
Record Time       2024/06/23 22:54:51
Sampling Freq(Hz) 100Hz
Duration Time(s)  120
Dir.              1
Scale Factor      2942(gal)/8224139
Max. Acc. (gal)   0.358
Last Correction   2024/06/23 22:54:51
Memo.             
[...]
 -121208  -121208  -121204  -121205  -121207  -121207  -121207  -121208 
 -121207  -121208  -121209  -121208  -121205  -121207  -121208  -121207 
 -121207  -121207  -121207  -121204  -121204  -121207  -121208  -121208 
 -121209  -121211  -121207  -121205  -121205  -121207  -121207  -121207 
 -121207  -121205  -121205  -121205  -121205  -121207  -121205  -121205 
 -121207  -121208  -121207  -121204  -121207  -121209  -121207  -121207 
 -121209  -121207  -121204  -121207  -121209  -121208  -121205  -121205 
 -121205  -121207  -121208  -121205  -121204  -121207  -121207  -121204 
 -121205  -121211  -121209  -121207  -121207  -121208  -121205  -121205 
 -121207  -121205  -121205  -121207  -121205  -121207  -121208  -121205 
 -121205  -121207  -121207  -121207  -121207  -121204  -121204  -121205 
 -121207  -121207  -121204  -121203  -121204  -121203  -121204  -121208 
 -121208  -121205  -121207  -121205  -121204  -121205  -121207  -121207 
 -121205  -121204  -121204  -121207  -121208  -121207  -121205  -121207 
 -121207  -121204  -121205  -121207  -121205  -121205  -121205  -121207 
 -121207  -121204  -121204  -121205  -121207  -121207  -121207  -121207 
 -121205  -121204  -121204  -121203  -121204  -121205  -121205  -121205 
 -121204  -121203  -121207  -121212  -121209  -121207  -121208  -121207 
 -121205  -121207  -121209  -121208  -121208  -121207  -121204  -121205 
 -121207  -121207  -121207  -121205  -121205  -121208  -121207  -121204 
 -121205  -121207  -121205  -121204  -121207  -121207  -121204  -121205 
 -121207  -121203  -121203  -121207  -121208  -121207  -121208  -121205 
 -121204  -121205  -121207  -121205  -121205  -121207  -121207  -121205 
 -121207  -121205  -121205  -121207  -121207  -121207  -121205  -121205 
 -121205  -121205  -121208  -121207  -121207  -121208  -121207  -121204 
 -121205  -121207  -121205  -121205  -121207  -121205  -121205  -121207 
 -121208  -121208  -121204  -121204  -121208  -121208  -121204  -121204 
 -121205  -121205  -121208  -121207  -121205  -121207  -121207  -121207 
 -121208  -121208  -121207  -121204  -121204  -121205  -121207  -121205 
 -121203  -121207  -121211  -121208  -121205  -121207  -121208  -121207 
 -121205  -121205  -121205  -121205  -121207  -121207  -121207  -121205 
 -121204  -121205  -121207  -121204  -121205  -121205  -121205  -121205 
 -121207  -121208  -121208  -121207  -121205  -121205  -121207  -121207 
 -121204  -121204  -121205  -121204  -121204  -121208  -121209  -121208 
 -121208  -121207  -121205  -121205  -121205  -121205  -121208  -121208 
 -121205  -121204  -121207  -121207  -121207  -121207  -121205  -121204 
 -121203  -121205  -121205  -121204  -121205  -121207  -121204  -121205 
 -121209  -121207  -121201  -121204  -121204  -121203  -121205  -121205 
 -121201  -121201  -121204  -121203  -121203  -121203  -121204  -121204 
 -121204  -121207  -121207  -121203  -121198  -121203  -121212  -121212 
 -121213  -121220  -121208  -121196  -121219  -121231  -121200  -121178 
 -121192  -121200  -121216  -121242  -121212  -121173  -121213  -121246 
 -121184  -121138  -121196  -121248  -121220  -121223  -121271  -121236 
 -121150  -121127  -121143  -121193  -121290  -121313  -121216  -121144 
 -121139  -121157  -121208  -121263  -121277  -121266  -121252  -121182 
 -121053  -121023  -121188  -121463  -121571  -121302  -120957  -120947 
 -121211  -121319  -121150  -121153  -121367  -121347  -121155  -121093 
 -121138  -121192  -121185  -121143  -121221  -121398  -121374  -121112 
 -121016  -121136  -121131  -121081  -121209  -121439  -121593  -121444 
 -120999  -120733  -120946  -121282  -121363  -121305  -121300  -121259 
 -121081  -120934  -121028  -121309  -121544  -121454  -121105  -120973 
 -121136  -121219  -121185  -121286  -121416  -121304  -121157  -121158 
 -121069  -121046  -121340  -121497  -121285  -121117  -121068  -120996 
 -121123  -121354  -121331  -121238  -121230  -121092  -121004  -121288 
 -121590  -121416  -121024  -120889  -121020  -121244  -121347  -121261 
 -121219  -121319  -121297  -121101  -121063  -121201  -121230  -121150 
 -121143  -121246  -121279  -121174  -121165  -121221  -121157  -121181 
 -121309  -121298  -121266  -121220  -121036  -121042  -121327  -121429 
 -121192  -121041  -121209  -121297  -121193  -121200  -121171  -121130 
 -121313  -121358  -121147  -121054  -121088  -121184  -121358  -121408 
 -121275  -121113  -121022  -121105  -121263  -121240  -121198  -121323 
 -121297  -121068  -121014  -121158  -121248  -121242  -121292  -121317 
 -121186  -121128  -121174  -121196  -121324  -121359  -121103  -120968 
 -121174  -121394  -121369  -121173  -121061  -121186  -121332  -121236 
 -121070  -121069  -121171  -121324  -121410  -121271  -121104  -121104 
 -121171  -121238  -121247  -121200  -121209  -121263  -121284  -121177 
 -121042  -121173  -121321  -121188  -121061  -121101  -121224  -121374 
 -121467  -121356  -121039  -120873  -121000  -121182  -121367  -121467 
 -121343  -121158  -121092  -121105  -121120  -121161  -121255  -121292 
 -121196  -121112  -121155  -121232  -121271  -121296  -121309  -121265 
 -121096  -120982  -121150  -121392  -121410  -121301  -121236  -121196 
 -121127  -121053  -121117  -121300  -121306  -121165  -121120  -121138 
 -121132  -121207  -121316  -121266  -121176  -121219  -121247  -121138 
 -121068  -121169  -121257  -121236  -121270  -121317  -121212  -121078 
 -121117  -121209  -121184  -121203  -121354  -121324  -121082  -121049 
 -121213  -121234  -121174  -121154  -121054  -121088  -121427  -121578 
 -121302  -121012  -120962  -121104  -121316  -121393  -121298  -121230 
 -121250  -121262  -121239  -121186  -121097  -121070  -121166  -121298 
 -121369  -121294  -121162  -121154  -121151  -121034  -121073  -121325 
 -121432  -121335  -121193  -121066  -121020  -121068  -121204  -121286 
 -121290  -121381  -121297  -120978  -120934  -121150  -121211  -121228 
 -121371  -121393  -121242  -121111  -121019  -121090  -121325  -121479 
 -121498  -121289  -120957  -120962  -121155  -121223  -121356  -121392 
 -121101  -120974  -121181  -121238  -121096  -121068  -121139  -121242 
 -121309  -121203  -121146  -121302  -121382  -121267  -121085  -120958 
 -121097  -121495  -121705  -121516  -121221  -121018  -121000  -121173 
 -121186  -121035  -121223  -121516  -121317  -120981  -120887  -120928 
 -121157  -121458  -121508  -121331  -121230  -121122  -120919  -121019 
 -121317  -121427  -121447  -121300  -120972  -121043  -121435  -121462 
 -121325  -121358  -121180  -120856  -120854  -121113  -121315  -121386 
 -121423  -121316  -120966  -120800  -121080  -121343  -121282  -121128 
 -121101  -121240  -121381  -121338  -121290  -121258  -120980  -120812 
 -121093  -121362  -121347  -121290  -121278  -121275  -121275  -121144 
 -121020  -121194  -121277  -121103  -121239  -121490  -121343  -121069 
 -120977  -121061  -121278  -121470  -121392  -121177  -121088  -121008 
 -120957  -121150  -121336  -121250  -121216  -121410  -121402  -121063 
 -120880  -121059  -121258  -121379  -121454  -121269  -121076  -121236 
 -121441  -121355  -121146  -121019  -121020  -121196  -121339  -121267 
 -121231  -121278  -121167  -121030  -121099  -121235  -121269  -121267 
 -121239  -121127  -121074  -121201  -121255  -121200  -121332  -121405 
 -121188  -121043  -121104  -121250  -121419  -121378  -121061  -120850 
 -121028  -121382  -121493  -121180  -120820  -120928  -121309  -121474 
 -121439  -121340  -121082  -120815  -120924  -121246  -121359  -121429 
 -121487  -121234  -121027  -121169  -121285  -121312  -121298  -121142 
 -121130  -121277  -121192  -121001  -121057  -121250  -121335  -121282 
 -121246  -121315  -121275  -121032  -120923  -121115  -121298  -121325 
 -121305  -121215  -121155  -121167  -121081  -121155  -121425  -121433 
 -121285  -121166  -121016  -121046  -121188  -121198  -121190  -121308 
 -121413  -121289  -121055  -120946  -121031  -121236  -121325  -121332 
 -121385  -121296  -121112  -121105  -121207  -121231  -121261  -121265 
 -121150  -121180  -121315  -121282  -121188  -121103  -121022  -121089 
 -121279  -121308  -121165  -121127  -121126  -121099  -121223  -121406 
 -121437  -121240  -120957  -121014  -121366  -121420  -121247  -121281 
 -121263  -121026  -121001  -121262  -121397  -121342  -121221  -120991 
 -120862  -121042  -121338  -121529  -121475  -121243  -121105  -121104 
 -121124  -121149  -121228  -121333  -121259  -120991  -120965  -121247 
 -121342  -121247  -121132  -121035  -121236  -121479  -121324  -121092 
 -121078  -121181  -121208  -121107  -121153  -121329  -121331  -121176 
 -121050  -121128  -121282  -121234  -121190  -121323  -121356  -121274 
 -121227  -121169  -121108  -121132  -121239  -121323  -121316  -121274 
 -121261  -121205  -121095  -121104  -121228  -121240  -121153  -121144 
 -121247  -121335  -121244  -121063  -121084  -121301  -121365  -121176 
 -121109  -121204  -121155  -121086  -121119  -121194  -121332  -121282 
 -121042  -121038  -121244  -121340  -121304  -121279  -121266  -121221 
 -121174  -121113  -121134  -121215  -121213  -121236  -121234  -121077 
 -121038  -121177  -121288  -121389  -121397  -121248  -121119  -121045 
 -121089  -121261  -121296  -121217  -121254  -121317  -121267  -121217 
 -121297  -121311  -121123  -121053  -121180  -121235  -121165  -121116 
 -121200  -121252  -121158  -121139  -121215  -121269  -121311  -121215 
 -121073  -121184  -121301  -121149  -121140  -121311  -121247  -121109 
 -121100  -121193  -121344  -121328  -121216  -121204  -121176  -121198 
 -121265  -121095  -120939  -121170  -121468  -121539  -121424  -121171 
 -120987  -120999  -121107  -121277  -121389  -121325  -121204  -121061 
 -120960  -121050  -121223  -121331  -121402  -121352  -121151  -120996 
 -120953  -121081  -121342  -121392  -121277  -121217  -121109  -121111 
 -121311  -121389  -121292  -121163  -121020  -121032  -121212  -121246 
 -121192  -121320  -121405  -121238  -121146  -121194  -121115  -121104 
 -121289  -121346  -121235  -121190  -121235  -121243  -121221  -121213 
 -121174  -121180  -121209  -121109  -121063  -121192  -121313  -121306 
 -121177  -121176  -121292  -121181  -121008  -121099  -121251  -121254 
 -121259  -121348  -121386  -121251  -121047  -121011  -121093  -121203 
 -121378  -121377  -121132  -121030  -121107  -121104  -121116  -121281 
 -121363  -121296  -121266  -121223  -121173  -121246  -121211  -121070 
 -121154  -121333  -121320  -121170  -121109  -121194  -121240  -121227 
 -121203  -121116  -121080  -121154  -121335  -121468  -121242  -120945 
 -121055  -121305  -121400  -121366  -121217  -121147  -121161  -121047 
 -120972  -121104  -121339  -121487  -121387  -121173  -121061  -121051 
 -121144  -121319  -121416  -121315  -121078  -120974  -121155  -121302 
 -121223  -121215  -121294  -121200  -121085  -121128  -121165  -121197 
 -121346  -121419  -121279  -121139  -121093  -121070  -121181  -121261 
 -121093  -121131  -121342  -121207  -121057  -121139  -121194  -121311 
 -121377  -121255  -121261  -121313  -121178  -121146  -121286  -121292 
 -121221  -121255  -121167  -120964  -121026  -121305  -121371  -121159 
 -121135  -121292  -121161  -121009  -121086  -121143  -121207  -121269 
 -121251  -121279  -121301  -121274  -121302  -121267  -121184  -121235 
 -121298  -121288  -121262  -121140  -120943  -120892  -121047  -121235 
 -121331  -121278  -121197  -121220  -121230  -121211  -121217  -121182 
 -121185  -121225  -121216  -121311  -121463  -121394  -121263  -121305 
 -121290  -121084  -120985  -121120  -121265  -121300  -121201  -120950 
 -120847  -121049  -121217  -121248  -121244  -121184  -121151  -121169 
 -121231  -121298  -121244  -121278  -121362  -121132  -121039  -121343 
 -121402  -121221  -121271  -121360  -121190  -120995  -121073  -121242 
 -121279  -121232  -121119  -121045  -121135  -121193  -121112  -121167 
 -121375  -121371  -121198  -121157  -121180  -121151  -121193  -121355 
 -121327  -121042  -120980  -121171  -121263  -121309  -121427  -121417 
 -121209  -121068  -121108  -121182  -121212  -121232  -121220  -121140 
 -121149  -121274  -121342  -121421  -121441  -121162  -120896  -120991 
 -121196  -121246  -121267  -121311  -121158  -120977  -121113  -121304 
 -121288  -121290  -121362  -121316  -121216  -121176  -121117  -121081 
 -121194  -121250  -121086  -120982  -121084  -121194  -121219  -121213 
 -121274  -121366  -121297  -121186  -121243  -121201  -121009  -121103 
 -121371  -121373  -121155  -120974  -120999  -121207  -121332  -121292 
 -121271  -121305  -121289  -121298  -121441  -121510  -121377  -121297 
 -121321  -121231  -121103  -121112  -121198  -121242  -121240  -121207 
 -121112  -121058  -121154  -121165  -121026  -121090  -121312  -121328 
 -121153  -120995  -121055  -121348  -121540  -121487  -121350  -121192 
 -121045  -121053  -121200  -121151  -120933  -120966  -121128  -121115 
 -121028  -120960  -120881  -120841  -121014  -121261  -121193  -121054 
 -121227  -121328  -121165  -121221  -121412  -121333  -121251  -121261 
 -121117  -121105  -121333  -121360  -121344  -121544  -121563  -121421 
 -121483  -121718  -121903  -121711  -121281  -121134  -121116  -120942 
 -120937  -121053  -120768  -120356  -120503  -120992  -121302  -121450 
 -121490  -121386  -121305  -121274  -121124  -120951  -120860  -120845 
 -120903  -120853  -120823  -121158  -121440  -121308  -121374  -121684 
 -121537  -121200  -121305  -121653  -121756  -121520  -121373  -121386 
 -121084  -120760  -121030  -121478  -121628  -121732  -121898  -121861 
 -121423  -120658  -120206  -120448  -120687  -120545  -120514  -120795 
 -121107  -121215  -121286  -121328  -121163  -121331  -121922  -122002 
 -121518  -121304  -121400  -121257  -120900  -120688  -120779  -121169 
 -121404  -121317  -121481  -121724  -121444  -121093  -121101  -121151 
 -121112  -120966  -120717  -120725  -121015  -121107  -121027  -121176 
 -121387  -121294  -121077  -121008  -120993  -121132  -121540  -121775 
 -121583  -121308  -121122  -120947  -120908  -121223  -121767  -121965 
 -121599  -121207  -120984  -120772  -120834  -121159  -121427  -121616 
 -121613  -121321  -120996  -120922  -121093  -121281  -121452  -121675 
 -121697  -121331  -120846  -120614  -120613  -120642  -120818  -121188 
 -121381  -121278  -121252  -121259  -121027  -120912  -121176  -121462 
 -121444  -121209  -121090  -121045  -120922  -121108  -121495  -121541 
 -121621  -121855  -121564  -121149  -121215  -121242  -121158  -121351 
 -121402  -121055  -120757  -120568  -120432  -120633  -121065  -121333 
 -121343  -121167  -121012  -121127  -121440  -121711  -121662  -121333 
 -121235  -121293  -121166  -121138  -121296  -121339  -121319  -121448 
 -121518  -121417  -121416  -121381  -121221  -121255  -121396  -121369 
 -121194  -121055  -121024  -121035  -121109  -121200  -121165  -121138 
 -121215  -121161  -120927  -120772  -120869  -121081  -121115  -121123 
 -121321  -121333  -121096  -121007  -121005  -120980  -121072  -121150 
 -121135  -121293  -121436  -121227  -121159  -121359  -121212  -120949 
 -120972  -121014  -121045  -121158  -121354  -121541  -121459  -121285 
 -121360  -121477  -121396  -121298  -121332  -121448  -121540  -121506 
 -121431  -121398  -121312  -121166  -121134  -121186  -121153  -121096 
 -121065  -120981  -120868  -120931  -121212  -121316  -121250  -121335 
 -121331  -121057  -120835  -120912  -121163  -121234  -121153  -121178 
 -121134  -120980  -120996  -121221  -121482  -121559  -121483  -121473 
 -121414  -121235  -121271  -121369  -121143  -120938  -120798  -120638 
 -120889  -121184  -121146  -121286  -121462  -121333  -121344  -121452 
 -121279  -121196  -121348  -121304  -121068  -120958  -121054  -121086 
 -120864  -120857  -121340  -121701  -121606  -121385  -121132  -120892 
 -121030  -121397  -121502  -121423  -121338  -121277  -121266  -121293 
 -121351  -121198  -120950  -121053  -121228  -121120  -120966  -120999 
 -121107  -120965  -120773  -121035  -121404  -121317  -121138  -121327 
 -121520  -121378  -121239  -121239  -121116  -121095  -121427  -121683 
 -121744  -121845  -121628  -121155  -121047  -120958  -120621  -120594 
 -120748  -120758  -120923  -121077  -120984  -121099  -121335  -121304 
 -121420  -121684  -121570  -121373  -121466  -121593  -121571  -121494 
 -121371  -121041  -120766  -120937  -121196  -121146  -120984  -121147 
 -121508  -121306  -120796  -120730  -120675  -120483  -120738  -121193 
 -121363  -121477  -121637  -121586  -121463  -121444  -121346  -121265 
 -121327  -121329  -121250  -121170  -121070  -121035  -121020  -120981 
 -121154  -121481  -121686  -121656  -121413  -121185  -120962  -120748 
 -120800  -120984  -121171  -121370  -121440  -121541  -121663  -121563 
 -121409  -121263  -121132  -121104  -120954  -120734  -120714  -120742 
 -120827  -121163  -121429  -121412  -121370  -121387  -121505  -121555 
 -121154  -120761  -120922  -121116  -121014  -120961  -121070  -121329 
 -121690  -121911  -121888  -121610  -121243  -121065  -120858  -120579 
 -120669  -120938  -120942  -120876  -120919  -120958  -121011  -121088 
 -121232  -121640  -121950  -121680  -121332  -121323  -121324  -121275 
 -121302  -121263  -121178  -121243  -121255  -121028  -120981  -121153 
 -121166  -121205  -121392  -121432  -121216  -121059  -121200  -121354 
 -121404  -121404  -121197  -120976  -120966  -121020  -121078  -121167 
 -121170  -121200  -121365  -121235  -120918  -121153  -121594  -121539 
 -121373  -121417  -121377  -121223  -121132  -121117  -121111  -121026 
 -120810  -120685  -120785  -120827  -120907  -121153  -121244  -121279 
 -121387  -121346  -121381  -121728  -121923  -121713  -121489  -121365 
 -121205  -121134  -121170  -121200  -121244  -121293  -121169  -120889 
 -120816  -120976  -120953  -120812  -121038  -121356  -121250  -121063 
 -121041  -120970  -121084  -121514  -121764  -121614  -121495  -121467 
 -121248  -121100  -121074  -120958  -121101  -121371  -121196  -120923 
 -120937  -121018  -121086  -121130  -121177  -121258  -121196  -121018 
 -120997  -121231  -121502  -121578  -121510  -121389  -121293  -121266 
 -121122  -120920  -120856  -120869  -121024  -121208  -121123  -121086 
 -121400  -121525  -121332  -121400  -121536  -121312  -121096  -121074 
 -121078  -121078  -121014  -121082  -121425  -121528  -121235  -121050 
 -121132  -121289  -121298  -121134  -121039  -121043  -121123  -121432 
 -121635  -121378  -121178  -121331  -121398  -121234  -121081  -121117 
 -121109  -120845  -120841  -121190  -121351  -121257  -121122  -121146 
 -121194  -121082  -121236  -121605  -121613  -121387  -121308  -121416 
 -121437  -121182  -120972  -120877  -120734  -120754  -120993  -121285 
 -121313  -120958  -120961  -121576  -121818  -121327  -120887  -120931 
 -121107  -121063  -121092  -121421  -121555  -121369  -121421  -121614 
 -121374  -120997  -121036  -121274  -121383  -121329  -121184  -121047 
 -120854  -120710  -120823  -120968  -121072  -121306  -121408  -121248 
 -121190  -121394  -121554  -121396  -121142  -121078  -121115  -121126 
 -121297  -121709  -121747  -121257  -121047  -121142  -121147  -121358 
 -121602  -121332  -120923  -120957  -121059  -120869  -120818  -120977 
 -121104  -121301  -121416  -121239  -120978  -120969  -121220  -121404 
 -121470  -121401  -121285  -121416  -121451  -121298  -121429  -121613 
 -121464  -121296  -121402  -121360  -120949  -120792  -121054  -121225 
