Origin Time       2024/06/23 22:54:00
Lat.              35.645
Long.             140.060
Depth. (km)       72
Mag.              4.1
Station Code      IBRH15
Station Lat.      36.5566
Station Long.     140.3013
Station Height(m) 45
Record Time       2024/06/23 22:54:56
Sampling Freq(Hz) 100Hz
Duration Time(s)  120
Dir.              4
Scale Factor      7845(gal)/8223790
Max. Acc. (gal)   2.088
Last Correction   2024/06/23 22:54:56
Memo.             
[...]
   40702    40589    40563    40556    40597    40757    40981    41083 
   40979    40817    40757    40716    40562    40444    40566    40840 
   41023    41000    40863    40737    40647    40603    40691    40894 
   41068    41080    40910    40691    40572    40566    40601    40629 
   40693    40840    40987    41050    41045    40945    40717    40516 
   40508    40606    40687    40795    40973    41069    40973    40834 
   40783    40728    40585    40451    40521    40805    41013    40972 
   40834    40753    40740    40775    40865    40956    40892    40664 
   40482    40533    40806    41071    41107    40960    40805    40682 
   40541    40464    40609    40871    40969    40911    40906    40964 
   40927    40755    40564    40439    40398    40556    40884    41092 
   41112    41118    41067    40824    40494    40312    40389    40635 
   40882    41011    40995    40900    40818    40788    40757    40682 
   40635    40698    40809    40846    40829    40825    40826    40830 
   40852    40848    40779    40707    40691    40686    40702    40809 
   40914    40915    40879    40846    40783    40660    40529    40548 
   40740    40956    41079    41067    40959    40798    40548    40317 
   40374    40706    40981    41011    40891    40810    40833    40845 
   40772    40728    40833    40963    40873    40614    40500    40641 
   40884    41030    40964    40798    40732    40743    40738    40737 
   40741    40736    40736    40736    40736    40770    40844    40880 
   40838    40765    40728    40764    40824    40832    40795    40763 
   40755    40751    40755    40801    40829    40783    40737    40774 
   40899    41027    40949    40648    40436    40518    40761    40948 
   41007    40964    40871    40752    40612    40513    40528    40640 
   40756    40824    40899    40999    41065    41058    40906    40630 
   40493    40578    40635    40594    40690    40950    41095    41067 
   41064    41068    40884    40521    40228    40263    40606    40956 
   41107    41077    40953    40829    40725    40667    40730    40807 
   40720    40501    40404    40636    41033    41242    41216    41054 
   40759    40470    40387    40494    40667    40828    40907    40894 
   40872    40902    40929    40905    40842    40741    40628    40602 
   40693    40761    40741    40749    40833    40891    40859    40786 
   40716    40639    40618    40736    40887    40945    40921    40834 
   40745    40778    40871    40871    40772    40668    40666    40752 
   40768    40664    40602    40759    41060    41202    41049    40802 
   40649    40537    40379    40327    40531    40863    41153    41301 
   41233    40977    40639    40356    40319    40522    40791    40973 
   41023    41025    41040    40940    40664    40454    40502    40675 
   40753    40747    40791    40899    41026    41138    41085    40764 
   40404    40296    40417    40613    40879    41237    41488    41353 
   40872    40371    40117    40153    40405    40755    41062    41268 
   41326    41179    40880    40581    40414    40425    40541    40693 
   40828    40934    41027    41017    40825    40621    40589    40667 
   40734    40801    40878    40879    40757    40657    40738    40903 
   40954    40848    40709    40667    40706    40760    40836    40921 
   40942    40828    40597    40464    40597    40844    40960    40923 
   40883    40886    40821    40668    40552    40576    40743    40954 
   41030    40892    40722    40714    40809    40824    40714    40626 
   40714    40890    40942    40863    40811    40840    40809    40655 
   40537    40579    40716    40859    40959    40976    40937    40876 
   40780    40657    40552    40512    40576    40683    40764    40876 
   41071    41207    41107    40824    40581    40508    40559    40649 
   40748    40895    41065    41137    41069    40872    40570    40323 
   40278    40462    40825    41175    41243    41019    40738    40562 
   40517    40578    40656    40666    40660    40784    41022    41196 
   41172    40949    40686    40517    40444    40463    40605    40834 
   41010    41023    40988    41035    41011    40763    40436    40269 
   40359    40657    40990    41175    41152    41010    40841    40678 
   40614    40686    40759    40774    40778    40779    40803    40860 
   40864    40748    40578    40506    40612    40819    41006    41069 
   40971    40826    40764    40740    40670    40609    40637    40724 
   40814    40903    40973    40969    40848    40649    40532    40595 
   40734    40784    40760    40814    40914    40896    40788    40759 
   40832    40899    40868    40771    40738    40764    40724    40647 
   40664    40760    40817    40829    40864    40882    40798    40663 
   40636    40772    40899    40873    40852    40934    40910    40679 
   40456    40452    40648    40830    40845    40805    40848    40918 
   40910    40845    40817    40824    40792    40743    40714    40687 
   40662    40659    40707    40822    40922    40949    40960    40960 
   40833    40598    40431    40467    40716    41010    41129    41068 
   40937    40760    40576    40485    40514    40612    40709    40805 
   40917    41026    41087    41021    40805    40609    40599    40695 
   40707    40666    40710    40798    40848    40907    40984    40994 
   40890    40713    40535    40466    40622    40936    41126    41004 
   40706    40514    40544    40711    40878    40921    40805    40618 
   40498    40543    40765    41073    41300    41312    41073    40676 
   40331    40211    40346    40648    40992    41269    41343    41170 
   40882    40608    40413    40338    40389    40593    40888    41095 
   41107    41004    40903    40788    40593    40409    40405    40562 
   40717    40764    40757    40879    41130    41269    41176    40936 
   40656    40441    40367    40485    40775    41060    41175    41123 
   40995    40867    40757    40614    40417    40315    40447    40711 
   40880    40887    40869    40938    40998    40914    40711    40547 
   40552    40641    40675    40743    40954    41183    41239    41094 
   40857    40635    40466    40400    40474    40657    40896    41077 
   41057    40815    40527    40421    40517    40675    40821    40946 
   41021    40973    40783    40598    40626    40848    41007    40986 
   40906    40876    40923    40969    40906    40795    40714    40633 
   40583    40595    40602    40610    40703    40817    40840    40830 
   40886    40948    40909    40744    40552    40517    40666    40821 
   40909    40984    41038    40981    40788    40551    40417    40517 
   40797    41018    41018    40842    40660    40579    40593    40680 
   40833    40960    40922    40774    40757    40909    40980    40868 
   40736    40710    40733    40730    40743    40833    40887    40747 
   40558    40603    40837    41007    41014    40911    40824    40784 
   40668    40468    40397    40567    40841    41061    41208    41268 
   41134    40776    40351    40126    40225    40524    40846    41121 
   41285    41246    40971    40599    40375    40394    40547    40710 
   40896    41121    41234    41139    40936    40705    40470    40328 
   40404    40683    40942    41011    40949    40894    40894    40898 
   40841    40732    40605    40464    40352    40424    40743    41089 
   41238    41254    41246    41096    40737    40324    40100    40227 
   40625    41004    41164    41127    40976    40751    40574    40597 
   40733    40756    40686    40726    40898    41008    40954    40859 
   40782    40632    40470    40479    40680    40944    41148    41189 
   41067    40913    40748    40477    40236    40259    40505    40809 
   41104    41343    41416    41203    40776    40443    40390    40510 
   40621    40664    40693    40718    40679    40599    40621    40811 
   41006    40999    40841    40710    40706    40825    40977    41067 
   41058    41017    40972    40857    40675    40524    40421    40354 
   40396    40628    40933    41042    40886    40659    40522    40529 
   40694    40938    41129    41180    41080    40918    40828    40825 
   40832    40861    40906    40868    40770    40732    40790    40860 
   40903    41006    41145    41103    40788    40355    40051    40068 
   40424    40953    41346    41347    40987    40529    40244    40275 
   40571    40903    41077    41088    40992    40788    40575    40514 
   40527    40444    40381    40572    40972    41296    41376    41247 
   41014    40763    40570    40513    40626    40743    40648    40427 
   40428    40842    41426    41759    41696    41323    40747    40192 
   39996    40296    40849    41230    41172    40745    40244    40003 
   40170    40543    40811    40880    40864    40891    40927    40832 
   40558    40231    40124    40439    41015    41492    41621    41310 
   40767    40454    40585    40959    41251    41292    41089    40765 
   40525    40533    40714    40757    40497    40190    40292    40867 
   41472    41720    41586    41141    40487    39934    39827    40230 
   40834    41258    41413    41389    41179    40763    40301    39974 
   39803    39838    40254    41007    41713    42066    41949    41270 
   40219    39366    39118    39487    40300    41320    42188    42538 
   42221    41380    40389    39676    39440    39683    40389    41366 
   42186    42514    42306    41708    40967    40242    39534    38986 
   38901    39374    40216    41200    42155    42727    42425    41281 
   40004    39217    39066    39484    40359    41420    42256    42526 
   42141    41381    40575    39822    39316    39307    39761    40539 
   41489    42325    42658    42159    40987    39796    39087    38992 
   39496    40452    41527    42284    42415    41998    41431    40968 
   40489    39892    39440    39467    39984    40745    41478    41860 
   41635    40992    40385    40069    40119    40460    40809    40900 
   40807    40798    40949    41165    41423    41553    41206    40524 
   40065    39951    40008    40294    40857    41517    41966    41902 
   41376    40775    40320    39962    39695    39653    39973    40597 
   41277    41797    42009    41783    41193    40560    40157    40028 
   40123    40397    40778    41154    41403    41420    41214    40883 
   40558    40406    40514    40802    41027    40946    40679    40554 
   40541    40482    40406    40321    40266    40348    40514    40671 
   40868    41115    41326    41453    41424    41138    40693    40324 
   40143    40231    40695    41447    42120    42333    41953    41141 
   40285    39865    39992    40257    40358    40393    40440    40490 
   40606    40806    41062    41299    41222    40693    40108    39881 
   40068    40528    41014    41412    41773    41976    41804    41246 
   40579    40149    40030    40074    40177    40273    40390    40670 
   41122    41598    41894    41766    41089    40070    39212    38892 
   39104    39744    40683    41604    42159    42176    41824    41500 
   41364    41265    41122    40979    40867    40818    40826    40826 
   40815    40795    40656    40339    40096    40151    40316    40390 
   40459    40587    40701    40768    40784    40676    40419    40194 
   40306    40925    41840    42421    42165    41324    40571    40235 
   40232    40450    40826    41200    41312    40981    40394    40054 
   40186    40548    40869    41031    40995    40807    40485    40032 
   39706    39830    40266    40633    40945    41446    42013    42279 
   42078    41454    40625    40026    39889    40082    40549    41283 
   41931    42093    41686    40818    39756    38962    38780    39245 
   40170    41241    42132    42574    42408    41674    40591    39563 
   39033    39150    39829    40938    42101    42678    42273    41142 
   39997    39390    39432    39951    40753    41732    42603    42849 
   42232    41044    39798    38935    38655    38913    39637    40759 
   41951    42695    42643    41867    40764    39841    39565    40018 
   40778    41432    41813    41812    41423    40855    40365    39977 
   39592    39309    39395    40041    41162    42295    42808    42372 
   41130    39642    38718    38835    39772    41004    42057    42510 
   42298    41789    41260    40729    40205    39810    39769    40139 
   40737    41353    41708    41598    41092    40416    39807    39418 
   39409    39943    40952    42086    42850    42803    41926    40622 
   39434    38843    39062    39960    41057    41764    41956    41912 
   41716    41237    40466    39618    39086    39245    40077    41141 
   41939    42133    41763    41230    40829    40551    40362    40282 
   40331    40489    40620    40636    40612    40613    40641    40751 
   41071    41540    41786    41511    40826    40147    39847    39976 
   40336    40775    41161    41296    41111    40797    40614    40649 
   40740    40824    40995    41126    41037    40783    40552    40568 
   40888    41247    41319    40972    40412    40042    40108    40593 
   41195    41463    41202    40549    39876    39592    39860    40603 
   41563    42259    42326    41727    40736    39852    39361    39231 
   39519    40304    41361    42260    42642    42348    41501    40521 
   39772    39316    39224    39648    40493    41482    42367    42850 
   42593    41593    40300    39212    38650    38794    39657    40998 
   42282    42971    42885    42087    40838    39627    38934    38985 
   39592    40331    40949    41300    41303    41110    40917    40792 
   40698    40581    40556    40756    41067    41350    41526    41400 
   40930    40371    39965    39842    40086    40632    41237    41688 
   41851    41604    41058    40579    40340    40184    40061    40184 
   40651    41268    41685    41638    41239    40849    40605    40386 
   40194    40216    40510    40869    41007    40829    40514    40348 
   40464    40805    41277    41742    41868    41384    40470    39661 
   39393    39702    40311    40911    41365    41700    41962    42030 
   41655    40811    39825    39093    38880    39328    40404    41706 
   42618    42750    42174    41261    40331    39556    39154    39317 
   40000    40936    41746    42109    41939    41315    40482    39793 
   39480    39684    40427    41393    42084    42252    42007    41550 
   40891    40073    39451    39329    39606    40074    40684    41365 
   41895    42043    41729    41030    40225    39715    39623    39829 
   40300    41008    41710    42079    41931    41370    40711    40182 
   39820    39707    39996    40581    41142    41596    41939    41982 
   41648    41057    40313    39677    39544    39954    40540    40977 
   41224    41377    41382    41175    40927    40794    40718    40617 
   40493    40387    40329    40394    40659    40960    41048    40927 
   40822    40855    40871    40662    40358    40278    40504    40853 
   41170    41431    41565    41424    41029    40544    40153    40026 
   40167    40454    40822    41162    41301    41158    40784    40346 
   40058    40054    40304    40649    40971    41254    41466    41527 
   41412    41161    40830    40477    40198    40173    40477    40925 
   41265    41370    41216    40896    40629    40574    40701    40846 
   40876    40833    40761    40598    40425    40387    40440    40483 
   40524    40624    40846    41154    41372    41315    40969    40524 
   40239    40262    40533    40923    41341    41616    41492    40945 
   40335    40043    40151    40494    40863    41126    41243    41245 
   41143    40946    40737    40603    40463    40261    40221    40516 
   40949    41311    41527    41511    41219    40730    40227    39993 
   40212    40687    41053    41138    40983    40749    40606    40570 
   40549    40460    40294    40149    40220    40609    41131    41511 
   41638    41512    41175    40729    40304    40070    40162    40474 
   40798    41068    41257    41238    41015    40807    40703    40678 
   40795    40979    41002    40891    40807    40775    40795    40876 
   40925    40828    40630    40521    40576    40743    40953    41084 
   41018    40772    40478    40325    40405    40620    40863    41084 
   41166    41015    40736    40563    40635    40818    40867    40776 
   40725    40672    40454    40217    40308    40778    41258    41364 
   41119    40779    40471    40282    40342    40683    41127    41409 
   41399    41135    40801    40621    40612    40616    40629    40729 
   40828    40794    40687    40676    40794    40942    41023    40996 
   40932    40929    40927    40814    40626    40455    40301    40234 
   40397    40778    41188    41466    41504    41280    40882    40454 
   40112    39937    40001    40311    40757    41222    41547    41539 
   41161    40656    40311    40194    40309    40639    40983    41166 
   41173    41023    40844    40845    41030    41143    40971    40597 
   40278    40193    40370    40691    40976    41112    41106    41002 
   40829    40589    40300    40095    40215    40682    41216    41561 
   41624    41423    41053    40652    40359    40232    40242    40433 
   40833    41245    41494    41543    41320    40868    40398    40080 
   40001    40185    40473    40720    40984    41296    41467    41272 
   40729    40184    39978    40105    40378    40683    40952    41127 
   41181    41135    41064    41017    40991    40940    40814    40666 
   40645    40764    40842    40780    40660    40656    40829    40971 
   40891    40729    40701    40765    40734    40539    40320    40273 
   40428    40697    41030    41374    41536    41366    40971    40563 
   40286    40235    40437    40760    41002    41061    41003    40940 
   40898    40821    40699    40679    40782    40813    40737    40687 
   40711    40792    40878    40891    40852    40826    40871    40979 
   41022    40907    40728    40590    40450    40301    40263    40414 
   40730    41061    41196    41073    40794    40498    40363    40510 
   40861    41199    41354    41314    41073    40653    40266    40157 
   40392    40832    41218    41419    41486    41358    40980    40559 
   40261    40049    39947    40108    40570    41145    41546    41573 
   41246    40770    40328    40024    39988    40286    40753    41164 
   41445    41585    41547    41316    40886    40348    39926    39804 
   40061    40624    41254    41692    41742    41362    40775    40286 
   40039    40015    40188    40505    40852    41168    41446    41543 
   41280    40790    40394    40232    40240    40383    40690    41073 
   41316    41280    41021    40713    40451    40306    40390    40655 
   40906    41015    40979    40896    40853    40824    40744    40614 
   40567    40695    40892    41104    41316    41380    41241    40964 
   40587    40258    40143    40231    40444    40732    41040    41284 
   41346    41183    40896    40625    40386    40184    40169    40393 
   40660    40860    41064    41256    41316    41212    41010    40788 
   40552    40324    40262    40448    40725    40892    40873    40747 
   40676    40733    40846    40937    40961    40869    40687    40583 
   40637    40705    40748    40871    41042    41183    41243    41156 
