Origin Time       2024/06/23 22:54:00
Lat.              35.645
Long.             140.060
Depth. (km)       72
Mag.              4.1
Station Code      IBRH11
Station Lat.      36.3701
Station Long.     140.1401
Station Height(m) 67
Record Time       2024/06/23 22:54:51
Sampling Freq(Hz) 100Hz
Duration Time(s)  120
Dir.              6
Scale Factor      7845(gal)/8223790
Max. Acc. (gal)   1.322
Last Correction   2024/06/23 22:54:51
Memo.             
[...]
   -5765    -5764    -5817    -5810    -5746    -5757    -5840    -5823 
   -5729    -5761    -5842    -5786    -5728    -5794    -5834    -5783 
   -5761    -5803    -5803    -5763    -5783    -5823    -5782    -5748 
   -5814    -5817    -5732    -5764    -5845    -5803    -5742    -5780 
   -5842    -5790    -5721    -5796    -5860    -5779    -5726    -5805 
   -5838    -5753    -5737    -5826    -5825    -5742    -5776    -5840 
   -5780    -5736    -5798    -5827    -5768    -5760    -5825    -5800 
   -5740    -5783    -5837    -5791    -5738    -5790    -5838    -5776 
   -5742    -5823    -5827    -5729    -5761    -5852    -5787    -5721 
   -5794    -5850    -5773    -5726    -5815    -5844    -5749    -5738 
   -5826    -5829    -5752    -5761    -5811    -5788    -5759    -5798 
   -5814    -5765    -5778    -5823    -5779    -5746    -5807    -5832 
   -5756    -5748    -5837    -5818    -5725    -5760    -5846    -5819 
   -5736    -5763    -5852    -5794    -5719    -5807    -5844    -5760 
   -5752    -5814    -5811    -5753    -5761    -5830    -5811    -5738 
   -5782    -5844    -5779    -5737    -5811    -5832    -5755    -5756 
   -5830    -5810    -5745    -5773    -5825    -5782    -5755    -5814 
   -5813    -5756    -5778    -5830    -5802    -5742    -5783    -5840 
   -5783    -5737    -5795    -5833    -5776    -5742    -5815    -5840 
   -5756    -5751    -5826    -5810    -5752    -5778    -5818    -5783 
   -5752    -5803    -5825    -5759    -5763    -5827    -5791    -5744 
   -5795    -5830    -5786    -5753    -5798    -5821    -5756    -5742 
   -5819    -5842    -5759    -5738    -5829    -5810    -5733    -5792 
   -5840    -5778    -5751    -5799    -5823    -5769    -5748    -5811 
   -5817    -5759    -5780    -5825    -5773    -5752    -5823    -5823 
   -5748    -5746    -5817    -5822    -5748    -5749    -5833    -5817 
   -5746    -5769    -5826    -5799    -5745    -5798    -5836    -5757 
   -5749    -5818    -5814    -5753    -5761    -5833    -5795    -5733 
   -5807    -5837    -5760    -5759    -5811    -5794    -5751    -5772 
   -5806    -5780    -5768    -5817    -5823    -5760    -5757    -5821 
   -5806    -5749    -5767    -5814    -5817    -5776    -5794    -5856 
   -5796    -5734    -5813    -5818    -5690    -5682    -5809    -5830 
   -5773    -5830    -5887    -5832    -5787    -5741    -5667    -5697 
   -5771    -5787    -5876    -6043    -6019    -5749    -5548    -5518 
   -5506    -5598    -5881    -6116    -6183    -6087    -5806    -5586 
   -5516    -5393    -5503    -6069    -6370    -5994    -5661    -5757 
   -5736    -5456    -5479    -5875    -6097    -6041    -6010    -5886 
   -5512    -5267    -5344    -5603    -6049    -6366    -6280    -6106 
   -5796    -5333    -5266    -5437    -5535    -5989    -6455    -6143 
   -5574    -5498    -5645    -5753    -6007    -6183    -6008    -5768 
   -5479    -5097    -5165    -5713    -6112    -6212    -6224    -6211 
   -5994    -5540    -5366    -5586    -5668    -5695    -5975    -6122 
   -5989    -5875    -5652    -5459    -5655    -5706    -5641    -6154 
   -6454    -5868    -5339    -5294    -5256    -5328    -5940    -6579 
   -6501    -6107    -5811    -5505    -5431    -5641    -5814    -5807 
   -5688    -5620    -5616    -5690    -5850    -5992    -6137    -6095 
   -5784    -5638    -5610    -5385    -5354    -5709    -6011    -6133 
   -6214    -6076    -5757    -5688    -5767    -5591    -5375    -5582 
   -5973    -5884    -5613    -5840    -6054    -5724    -5574    -6064 
   -6342    -5941    -5629    -5548    -5266    -5297    -5833    -6187 
   -6180    -6045    -5969    -5879    -5503    -5170    -5350    -5767 
   -6041    -6212    -6218    -5911    -5590    -5522    -5553    -5611 
   -5771    -5911    -5950    -6018    -6052    -5799    -5458    -5444 
   -5613    -5800    -6092    -6023    -5643    -5773    -6035    -5823 
   -5674    -5734    -5675    -5603    -5657    -5798    -5907    -5933 
   -6027    -6099    -5845    -5455    -5408    -5665    -5833    -5892 
   -5957    -5868    -5749    -5807    -5742    -5571    -5740    -5938 
   -5755    -5679    -5894    -5931    -5869    -5964    -5969    -5694 
   -5441    -5568    -5745    -5659    -5748    -5944    -5849    -5856 
   -5973    -5779    -5591    -5665    -5771    -5819    -5875    -5972 
   -6004    -5941    -5881    -5728    -5514    -5472    -5499    -5568 
   -5861    -6227    -6382    -6187    -5780    -5528    -5460    -5405 
   -5491    -5684    -5734    -5806    -5981    -6002    -5958    -5984 
   -5948    -5815    -5617    -5548    -5660    -5656    -5725    -5976 
   -5845    -5617    -5898    -6065    -5737    -5613    -5914    -6004 
   -5698    -5625    -5775    -5427    -5233    -5965    -6330    -5907 
   -5923    -6022    -5599    -5556    -5872    -5775    -5645    -5859 
   -6087    -6145    -5991    -5644    -5337    -5382    -5763    -6045 
   -6045    -5864    -5656    -5598    -5466    -5389    -5838    -6276 
   -6237    -6187    -6123    -5660    -5150    -5198    -5547    -5732 
   -5969    -6215    -6072    -5749    -5605    -5532    -5574    -5883 
   -6035    -5938    -5969    -5730    -5316    -5578    -5941    -5898 
   -6106    -6338    -6183    -5888    -5544    -5337    -5246    -5098 
   -5421    -6162    -6443    -6311    -6043    -5432    -5047    -5286 
   -5491    -5744    -6442    -6849    -6496    -5888    -5391    -5098 
   -5154    -5626    -6226    -6386    -6070    -5800    -5772    -5728 
   -5512    -5401    -5578    -5776    -6016    -6259    -5945    -5436 
   -5560    -5670    -5308    -5308    -5724    -6077    -6288    -6288 
   -6312    -6218    -5652    -5305    -5533    -5628    -5479    -5752 
   -6254    -6045    -5578    -5892    -6205    -5778    -5429    -5440 
   -5378    -5385    -5702    -6057    -6139    -6193    -6222    -5805 
   -5371    -5374    -5509    -5732    -5941    -5849    -5809    -6108 
   -6293    -6091    -5850    -5540    -5148    -5275    -5529    -5506 
   -5958    -6435    -6274    -6207    -6133    -5680    -5427    -5417 
   -5414    -5580    -5787    -5918    -6123    -6143    -5726    -5413 
   -5586    -5738    -5630    -5701    -6053    -6141    -5821    -5737 
   -5760    -5368    -5421    -6191    -6362    -5926    -5850    -5837 
   -5583    -5517    -5526    -5553    -5980    -6428    -6349    -6011 
   -5602    -5076    -5026    -5616    -5923    -5998    -6405    -6247 
   -5297    -5008    -5481    -5730    -6033    -6535    -6446    -5973 
   -5749    -5405    -5047    -5360    -5803    -5859    -6076    -6234 
   -5999    -6088    -6214    -5628    -5112    -5092    -5121    -5508 
   -6177    -6281    -5972    -5995    -6185    -5995    -5796    -5945 
   -5751    -5300    -5240    -5170    -5313    -6181    -6794    -6833 
   -6763    -5957    -4758    -4572    -4953    -5192    -5908    -6750 
   -6739    -6160    -5672    -5493    -5459    -5414    -5629    -5856 
   -5733    -5903    -6227    -5799    -5240    -5441    -5979    -6274 
   -6304    -6265    -6131    -5676    -5111    -4927    -5135    -5544 
   -6052    -6274    -6118    -5935    -5756    -5691    -5875    -6031 
   -6103    -6104    -5935    -5586    -5235    -5308    -5503    -5491 
   -5891    -6347    -6210    -6076    -5927    -5383    -5111    -5374 
   -5688    -6030    -6362    -6278    -5871    -5637    -5726    -5841 
   -5728    -5697    -5919    -5861    -5557    -5603    -5742    -5571 
   -5530    -5848    -6012    -5962    -6172    -6254    -5792    -5490 
   -5499    -5305    -5333    -5886    -6154    -5935    -5998    -6110 
   -5664    -5420    -5806    -6077    -6021    -5891    -5613    -5339 
   -5541    -5910    -5796    -5736    -6145    -6277    -5994    -5692 
   -5355    -5182    -5287    -5401    -5597    -6006    -6351    -6407 
   -6242    -5989    -5688    -5479    -5525    -5697    -5886    -6018 
   -5922    -5857    -5934    -5764    -5574    -5663    -5572    -5404 
   -5745    -6129    -6072    -6000    -5922    -5675    -5537    -5584 
   -5799    -5962    -5813    -5657    -5633    -5512    -5478    -5755 
   -6015    -6053    -6145    -6129    -5711    -5428    -5594    -5810 
   -5919    -5904    -5850    -5937    -5819    -5501    -5597    -5853 
   -5814    -5888    -6046    -5837    -5657    -5736    -5609    -5359 
   -5367    -5638    -6052    -6299    -6268    -6120    -5800    -5579 
   -5800    -5890    -5537    -5432    -5640    -5748    -5914    -5984 
   -5819    -5845    -5837    -5672    -5850    -5979    -5709    -5630 
   -5761    -5694    -5589    -5668    -5857    -5973    -5880    -5778 
   -5818    -5688    -5510    -5740    -5998    -5911    -5879    -5945 
   -5844    -5755    -5819    -5873    -5856    -5786    -5728    -5826 
   -5875    -5629    -5421    -5472    -5664    -5871    -5860    -5737 
   -5803    -5971    -6160    -6268    -6170    -5954    -5553    -5154 
   -5173    -5398    -5545    -5837    -6268    -6355    -5979    -5661 
   -5725    -5864    -5730    -5547    -5633    -5682    -5597    -5860 
   -6274    -6332    -6169    -5868    -5497    -5400    -5471    -5524 
   -5713    -5786    -5617    -5641    -5821    -5918    -6081    -6238 
   -6185    -5873    -5429    -5232    -5436    -5833    -6114    -6124 
   -6099    -6004    -5653    -5429    -5491    -5571    -5748    -5900 
   -5813    -5892    -6045    -5799    -5670    -5811    -5660    -5602 
   -5861    -5896    -5730    -5595    -5670    -5957    -6023    -6018 
   -6111    -5867    -5568    -5539    -5460    -5539    -5861    -5979 
   -5886    -5779    -5640    -5549    -5601    -5763    -5980    -6168 
   -6278    -6232    -5989    -5729    -5514    -5325    -5304    -5414 
   -5547    -5786    -6129    -6442    -6519    -6116    -5436    -5030 
   -5101    -5467    -5856    -6048    -6168    -6227    -6027    -5867 
   -5848    -5679    -5508    -5514    -5594    -5579    -5536    -5790 
   -6181    -6219    -5980    -5864    -5848    -5633    -5448    -5767 
   -6010    -5559    -5351    -5845    -6026    -5891    -6026    -6027 
   -5822    -5640    -5470    -5545    -5742    -5859    -6006    -5929 
   -5726    -5773    -5763    -5679    -5849    -5960    -5876    -5806 
   -5799    -5968    -5948    -5448    -5250    -5498    -5525    -5707 
   -6320    -6502    -6116    -5860    -5718    -5404    -5224    -5462 
   -5798    -5972    -6134    -6150    -5838    -5574    -5584    -5740 
   -5933    -5884    -5614    -5679    -5868    -5617    -5551    -6014 
   -6208    -6154    -6227    -5873    -5282    -5194    -5296    -5401 
   -5707    -5925    -6043    -6249    -6308    -6115    -5792    -5482 
   -5289    -5258    -5503    -5891    -6183    -6424    -6394    -5991 
   -5679    -5548    -5454    -5563    -5783    -5869    -5746    -5460 
   -5400    -5636    -5713    -5763    -6061    -5996    -5539    -5698 
   -6218    -6097    -5927    -6187    -6003    -5491    -5544    -5786 
   -5711    -5784    -5962    -5765    -5597    -5721    -5755    -5763 
   -5825    -5632    -5331    -5431    -5838    -6088    -6211    -6208 
   -5856    -5478    -5395    -5498    -5755    -6199    -6561    -6323 
   -5620    -5250    -5285    -5360    -5660    -5983    -5881    -5782 
   -5958    -6025    -5987    -6043    -6027    -5742    -5339    -5262 
   -5570    -5806    -5908    -6014    -5891    -5648    -5691    -5881 
   -5918    -5877    -5860    -5791    -5656    -5636    -5832    -5991 
   -5961    -5881    -5686    -5385    -5358    -5649    -5972    -6157 
   -6146    -6061    -5894    -5479    -5185    -5433    -5854    -5961 
   -5844    -5834    -5977    -6016    -6004    -6085    -5960    -5624 
   -5491    -5553    -5566    -5605    -5895    -6178    -6003    -5721 
   -5728    -5648    -5553    -5815    -5910    -5540    -5275    -5389 
   -5698    -6008    -6141    -6102    -6022    -6012    -5998    -5779 
   -5707    -5998    -6018    -5752    -5656    -5580    -5636    -5895 
   -5823    -5529    -5483    -5533    -5526    -5632    -5915    -6178 
   -6315    -6419    -6204    -5567    -5236    -5501    -5756    -5810 
   -5921    -5848    -5526    -5414    -5485    -5578    -5776    -5879 
   -5868    -5965    -6096    -6111    -6056    -5967    -5680    -5406 
   -5547    -5676    -5641    -5952    -6151    -5896    -5826    -5879 
   -5687    -5510    -5432    -5413    -5566    -5726    -5755    -5906 
   -6169    -6162    -6080    -6180    -6033    -5818    -6049    -6092 
   -5606    -5462    -5752    -5714    -5549    -5630    -5533    -5331 
   -5425    -5610    -5697    -5737    -5941    -6415    -6592    -6273 
   -6185    -6327    -6081    -5687    -5475    -5151    -4857    -5051 
   -5464    -5649    -5755    -5863    -5671    -5351    -5571    -6313 
   -6741    -6471    -5938    -5471    -5080    -5017    -5475    -6054 
   -6401    -6431    -5969    -5383    -5324    -5795    -6397    -6600 
   -6173    -5529    -5163    -5367    -5977    -6488    -6685    -6345 
   -5440    -4768    -4747    -5119    -5875    -6606    -6543    -5841 
   -5135    -4685    -4642    -5026    -5656    -6374    -6836    -6733 
   -6388    -6177    -6050    -5919    -5755    -5614    -5580    -5516 
   -5429    -5516    -5702    -5906    -6045    -5838    -5417    -5454 
   -6115    -6628    -6377    -5827    -5580    -5425    -5193    -5238 
   -5725    -6355    -6556    -6137    -5593    -5417    -5607    -5757 
   -5687    -5529    -5097    -4625    -4918    -5833    -6633    -7133 
   -7173    -6705    -6110    -5501    -5146    -5517    -6011    -5952 
   -5719    -5459    -5008    -4656    -4729    -5242    -5813    -6224 
   -6639    -6916    -6898    -6662    -6226    -5729    -5406    -5309 
   -5344    -5344    -5248    -5239    -5374    -5533    -5656    -5683 
   -5632    -5686    -5929    -6222    -6538    -6835    -6660    -5877 
   -5252    -5319    -5590    -5610    -5552    -5614    -5819    -6015 
   -6056    -6124    -6123    -5752    -5366    -5336    -5544    -5925 
   -6268    -6184    -5780    -5444    -5352    -5547    -5845    -6011 
   -6114    -6058    -5611    -5181    -5256    -5659    -6014    -6083 
   -5799    -5401    -5321    -5724    -6137    -6189    -6131    -6025 
   -5772    -5587    -5586    -5913    -6492    -6593    -6166    -5779 
   -5278    -4824    -4962    -5377    -5752    -5984    -5841    -5717 
   -5896    -5985    -6033    -6173    -6053    -5813    -5853    -6043 
   -6210    -6237    -6076    -5894    -5587    -5053    -4600    -4573 
   -5076    -5620    -5711    -5845    -6291    -6413    -6257    -6427 
   -6556    -6180    -5945    -6106    -5992    -5652    -5647    -5724 
   -5475    -5216    -5244    -5270    -5186    -5317    -5589    -5706 
   -5782    -5915    -6058    -6255    -6374    -6284    -6261    -6293 
   -5918    -5510    -5576    -5593    -5510    -5800    -6012    -5840 
   -5710    -5647    -5555    -5620    -5672    -5572    -5640    -5867 
   -5900    -5803    -5813    -5913    -6084    -6212    -6116    -5980 
   -5834    -5335    -4741    -4734    -5250    -5710    -6039    -6323 
   -6242    -5877    -5768    -5907    -6035    -6288    -6652    -6633 
   -6106    -5624    -5494    -5439    -5252    -5132    -5204    -5314 
   -5562    -5958    -6126    -6164    -6253    -6054    -5675    -5476 
   -5463    -5718    -6072    -6103    -5895    -5740    -5663    -5524 
   -5395    -5589    -5873    -5857    -5778    -5701    -5514    -5636 
   -6165    -6488    -6377    -6134    -5948    -5844    -5823    -5869 
   -6000    -6052    -5768    -5416    -5150    -4738    -4718    -5374 
   -5849    -6037    -6336    -6214    -5501    -5066    -5213    -5431 
   -5678    -6224    -6697    -6720    -6538    -6419    -6399    -6270 
   -5863    -5625    -5734    -5491    -4953    -4911    -5161    -5296 
   -5611    -5967    -5937    -5733    -5742    -6089    -6350    -6061 
   -5787    -5849    -5746    -5624    -5779    -5977    -6029    -5850 
   -5649    -5603    -5559    -5686    -6006    -5875    -5358    -5258 
   -5541    -5706    -5881    -6242    -6345    -6069    -5971    -5967 
   -5686    -5665    -6077    -6157    -5771    -5435    -5373    -5503 
   -5622    -5749    -5925    -5814    -5509    -5374    -5287    -5362 
   -5814    -6250    -6335    -6126    -5914    -5906    -5695    -5417 
   -5863    -6421    -6177    -5910    -6061    -5841    -5437    -5649 
   -5999    -5821    -5459    -5286    -5352    -5560    -5753    -5995 
   -6199    -6255    -6218    -6000    -5788    -5655    -5325    -5088 
   -5081    -5031    -5246    -5768    -6154    -6486    -6766    -6771 
   -6745    -6628    -6081    -5502    -5162    -4841    -4807    -5186 
   -5638    -6174    -6481    -6004    -5358    -5202    -5138    -5100 
   -5462    -5940    -6178    -6242    -6183    -6016    -5869    -5934 
   -6177    -6304    -6273    -6172    -5926    -5638    -5416    -5351 
   -5644    -5886    -5737    -5695    -5640    -5283    -5382    -5914 
   -5946    -5674    -5621    -5576    -5540    -5751    -6139    -6489 
   -6407    -5780    -5282    -5259    -5355    -5568    -5934    -6174 
   -6400    -6623    -6407    -5965    -5919    -5989    -5599    -5117 
   -5082    -5260    -5308    -5323    -5429    -5509    -5429    -5358 
   -5665    -6292    -6772    -7007    -6949    -6357    -5699    -5510 
   -5443    -5323    -5377    -5533    -5660    -5641    -5516    -5540 
   -5589    -5557    -5686    -5861    -6056    -6455    -6659    -6304 
   -5757    -5584    -5844    -6073    -6068    -6026    -6003    -5838 
   -5455    -5046    -4872    -4981    -5267    -5566    -5601    -5390 
   -5445    -5841    -6110    -6274    -6517    -6610    -6421    -6012 
   -5656    -5805    -6284    -6521    -6466    -6191    -5643    -5058 
   -4660    -4560    -4885    -5377    -5665    -5746    -5806    -6023 
   -6231    -6230    -6210    -6129    -5908    -5825    -5846    -5868 
   -5876    -5656    -5497    -5663    -5566    -5213    -5279    -5560 
   -5633    -5744    -5996    -6150    -6261    -6480    -6598    -6501 
   -6357    -6189    -5923    -5564    -5235    -5105    -5016    -4838 
   -4938    -5327    -5556    -5707    -6062    -6350    -6351    -6222 
   -6124    -6191    -6272    -6157    -6060    -6107    -6070    -5745 
   -5243    -4911    -4774    -4702    -4939    -5528    -6054    -6358 
   -6463    -6347    -6212    -6034    -5637    -5466    -5668    -5776 
   -5891    -6129    -6154    -6003    -5934    -5989    -5991    -5719 
   -5328    -5196    -5401    -5584    -5530    -5529    -5652    -5671 
   -5798    -6123    -6282    -6338    -6454    -6326    -5915    -5595 
   -5559    -5691    -5660    -5359    -5212    -5385    -5471    -5422 
   -5593    -5875    -5975    -6023    -6137    -6131    -5999    -5940 
   -6076    -6320    -6374    -6095    -5607    -5155    -5090    -5370 
   -5506    -5548    -5773    -5865    -5822    -5941    -5923    -5863 
   -6084    -6097    -5807    -5634    -5495    -5509    -5876    -6177 
   -6192    -6164    -6019    -5583    -5178    -5097    -5159    -5355 
   -5805    -6156    -6077    -5934    -6080    -6076    -5749    -5701 
   -5906    -5840    -5706    -5875    -6160    -6214    -6004    -5888 
   -5792    -5381    -5213    -5590    -5759    -5620    -5694    -5832 
   -5674    -5358    -5333    -5675    -5892    -5888    -6004    -6133 
