Origin Time       2024/06/23 22:54:00
Lat.              35.645
Long.             140.060
Depth. (km)       72
Mag.              4.1
Station Code      IBRH08
Station Lat.      36.1188
Station Long.     140.5621
Station Height(m) -1160
Record Time       2024/06/23 22:54:49
Sampling Freq(Hz) 100Hz
Duration Time(s)  120
Dir.              1
Scale Factor      7845(gal)/8223790
Max. Acc. (gal)   0.201
Last Correction   2024/06/23 22:54:49
Memo.             
[...]
  -56725   -56720   -56735   -56745   -56744   -56741   -56721   -56706 
  -56718   -56721   -56724   -56743   -56740   -56731   -56740   -56732 
  -56710   -56713   -56727   -56739   -56748   -56749   -56745   -56736 
  -56720   -56709   -56706   -56717   -56740   -56749   -56741   -56733 
  -56713   -56700   -56718   -56739   -56743   -56747   -56748   -56741 
  -56731   -56732   -56729   -56714   -56717   -56732   -56736   -56731 
  -56717   -56713   -56722   -56729   -56739   -56745   -56747   -56741 
  -56724   -56706   -56716   -56739   -56744   -56732   -56720   -56728 
  -56743   -56731   -56709   -56713   -56737   -56752   -56749   -56740 
  -56724   -56705   -56701   -56725   -56759   -56752   -56720   -56732 
  -56755   -56737   -56724   -56718   -56697   -56698   -56736   -56766 
  -56762   -56736   -56716   -56705   -56700   -56725   -56766   -56770 
  -56749   -56735   -56720   -56714   -56732   -56737   -56724   -56735 
  -56754   -56739   -56713   -56702   -56695   -56691   -56714   -56759 
  -56779   -56758   -56722   -56706   -56712   -56721   -56735   -56754 
  -56754   -56743   -56740   -56735   -56716   -56698   -56697   -56705 
  -56721   -56759   -56789   -56763   -56709   -56687   -56694   -56716 
  -56755   -56782   -56775   -56754   -56736   -56714   -56687   -56683 
  -56708   -56732   -56759   -56781   -56763   -56717   -56691   -56701 
  -56732   -56748   -56741   -56727   -56720   -56731   -56751   -56759 
  -56737   -56712   -56702   -56689   -56691   -56735   -56770   -56774 
  -56751   -56718   -56708   -56713   -56718   -56731   -56747   -56759 
  -56763   -56739   -56705   -56700   -56717   -56725   -56722   -56724 
  -56731   -56741   -56752   -56737   -56706   -56709   -56735   -56737 
  -56736   -56748   -56739   -56714   -56712   -56722   -56729   -56739 
  -56736   -56721   -56717   -56722   -56727   -56731   -56737   -56748 
  -56745   -56728   -56717   -56729   -56745   -56739   -56721   -56722 
  -56736   -56744   -56739   -56727   -56709   -56698   -56702   -56714 
  -56740   -56766   -56767   -56748   -56739   -56743   -56737   -56728 
  -56739   -56748   -56740   -56740   -56736   -56710   -56689   -56695 
  -56721   -56740   -56747   -56755   -56755   -56755   -56752   -56727 
  -56695   -56689   -56704   -56724   -56727   -56718   -56721   -56717 
  -56702   -56704   -56727   -56756   -56768   -56745   -56735   -56754 
  -56755   -56737   -56728   -56717   -56706   -56718   -56747   -56749 
  -56725   -56714   -56714   -56714   -56725   -56732   -56729   -56728 
  -56722   -56733   -56758   -56766   -56748   -56727   -56721   -56736 
  -56759   -56763   -56739   -56721   -56722   -56716   -56713   -56725 
  -56740   -56751   -56743   -56714   -56687   -56681   -56693   -56714 
  -56737   -56747   -56740   -56737   -56740   -56728   -56704   -56700 
  -56725   -56756   -56764   -56745   -56729   -56724   -56718   -56718 
  -56725   -56722   -56718   -56733   -56748   -56740   -56724   -56709 
  -56700   -56710   -56729   -56747   -56766   -56764   -56740   -56724 
  -56708   -56691   -56705   -56749   -56802   -56812   -56772   -56740 
  -56716   -56701   -56725   -56741   -56731   -56732   -56728   -56704 
  -56682   -56673   -56678   -56706   -56743   -56759   -56759   -56748 
  -56721   -56704   -56716   -56736   -56755   -56764   -56759   -56744 
  -56731   -56728   -56727   -56728   -56720   -56704   -56714   -56758 
  -56782   -56760   -56727   -56721   -56736   -56736   -56709   -56687 
  -56687   -56681   -56678   -56690   -56709   -56751   -56789   -56768 
  -56729   -56718   -56724   -56722   -56727   -56762   -56798   -56793 
  -56767   -56754   -56748   -56737   -56720   -56709   -56708   -56709 
  -56712   -56729   -56760   -56764   -56721   -56675   -56662   -56667 
  -56678   -56725   -56794   -56799   -56741   -56687   -56686   -56724 
  -56745   -56739   -56736   -56736   -56728   -56717   -56706   -56725 
  -56776   -56801   -56775   -56731   -56671   -56652   -56708   -56749 
  -56752   -56760   -56754   -56741   -56758   -56770   -56745   -56721 
  -56712   -56685   -56662   -56704   -56758   -56748   -56717   -56704 
  -56690   -56710   -56783   -56820   -56778   -56714   -56671   -56655 
  -56677   -56722   -56741   -56735   -56751   -56774   -56783   -56782 
  -56743   -56706   -56721   -56743   -56758   -56768   -56736   -56682 
  -56662   -56691   -56741   -56768   -56775   -56768   -56717   -56654 
  -56646   -56695   -56748   -56766   -56760   -56740   -56712   -56704 
  -56722   -56740   -56739   -56732   -56735   -56739   -56741   -56755 
  -56754   -56716   -56682   -56698   -56745   -56789   -56803   -56776 
  -56720   -56674   -56654   -56664   -56709   -56755   -56774   -56760 
  -56721   -56695   -56698   -56695   -56691   -56733   -56797   -56810 
  -56775   -56744   -56729   -56721   -56717   -56718   -56717   -56721 
  -56732   -56729   -56728   -56740   -56745   -56745   -56740   -56721 
  -56708   -56713   -56741   -56772   -56770   -56737   -56700   -56677 
  -56683   -56690   -56677   -56690   -56737   -56770   -56760   -56725 
  -56690   -56690   -56732   -56758   -56736   -56724   -56741   -56759 
  -56771   -56758   -56721   -56716   -56745   -56766   -56756   -56733 
  -56736   -56760   -56756   -56727   -56712   -56714   -56720   -56728 
  -56728   -56721   -56724   -56725   -56710   -56695   -56705   -56735 
  -56736   -56708   -56704   -56722   -56725   -56728   -56749   -56763 
  -56760   -56752   -56743   -56736   -56727   -56712   -56712   -56724 
  -56735   -56748   -56743   -56721   -56718   -56713   -56700   -56714 
  -56745   -56772   -56781   -56743   -56702   -56709   -56728   -56724 
  -56713   -56697   -56678   -56701   -56755   -56776   -56770   -56752 
  -56735   -56736   -56745   -56743   -56745   -56749   -56749   -56741 
  -56717   -56697   -56714   -56737   -56720   -56694   -56704   -56716 
  -56709   -56721   -56743   -56743   -56756   -56763   -56713   -56663 
  -56663   -56690   -56720   -56739   -56759   -56785   -56776   -56741 
  -56748   -56779   -56768   -56729   -56704   -56695   -56705   -56733 
  -56752   -56747   -56740   -56740   -56721   -56698   -56702   -56717 
  -56733   -56749   -56748   -56737   -56748   -56754   -56722   -56701 
  -56718   -56732   -56725   -56744   -56772   -56755   -56721   -56728 
  -56725   -56685   -56675   -56706   -56733   -56748   -56751   -56736 
  -56713   -56708   -56740   -56766   -56736   -56701   -56718   -56740 
  -56731   -56732   -56744   -56737   -56720   -56700   -56690   -56713 
  -56744   -56758   -56747   -56718   -56705   -56709   -56721   -56749 
  -56767   -56745   -56725   -56732   -56732   -56729   -56752   -56770 
  -56747   -56716   -56710   -56718   -56722   -56708   -56687   -56701 
  -56727   -56743   -56754   -56743   -56721   -56713   -56716   -56744 
  -56793   -56803   -56762   -56722   -56718   -56710   -56687   -56698 
  -56728   -56727   -56706   -56698   -56713   -56749   -56776   -56779 
  -56749   -56690   -56662   -56690   -56720   -56737   -56755   -56760 
  -56751   -56740   -56748   -56762   -56759   -56747   -56722   -56708 
  -56689   -56651   -56673   -56754   -56790   -56783   -56787   -56776 
  -56729   -56677   -56659   -56691   -56735   -56764   -56774   -56754 
  -56728   -56704   -56679   -56682   -56705   -56720   -56725   -56717 
  -56700   -56704   -56732   -56747   -56749   -56755   -56749   -56749 
  -56763   -56762   -56755   -56744   -56720   -56731   -56767   -56766 
  -56748   -56749   -56741   -56718   -56700   -56690   -56697   -56705 
  -56705   -56717   -56728   -56728   -56732   -56725   -56706   -56704 
  -56706   -56706   -56732   -56767   -56775   -56759   -56737   -56714 
  -56702   -56708   -56725   -56740   -56744   -56752   -56759   -56743 
  -56721   -56716   -56722   -56731   -56724   -56710   -56705   -56712 
  -56718   -56733   -56759   -56775   -56763   -56740   -56721   -56720 
  -56754   -56797   -56810   -56793   -56747   -56694   -56686   -56687 
  -56656   -56654   -56694   -56718   -56720   -56743   -56781   -56781 
  -56739   -56690   -56670   -56689   -56721   -56741   -56747   -56749 
  -56740   -56732   -56749   -56749   -56727   -56725   -56731   -56716 
  -56709   -56720   -56741   -56759   -56740   -56712   -56713   -56708 
  -56714   -56749   -56751   -56732   -56741   -56745   -56737   -56743 
  -56745   -56725   -56705   -56729   -56778   -56790   -56766   -56737 
  -56712   -56681   -56655   -56664   -56704   -56743   -56767   -56771 
  -56745   -56720   -56717   -56732   -56762   -56778   -56747   -56710 
  -56695   -56683   -56710   -56779   -56789   -56748   -56729   -56714 
  -56709   -56741   -56764   -56754   -56752   -56772   -56770   -56735 
  -56710   -56721   -56733   -56718   -56686   -56674   -56677   -56677 
  -56682   -56705   -56751   -56802   -56814   -56802   -56786   -56732 
  -56664   -56652   -56679   -56698   -56697   -56691   -56691   -56694 
  -56717   -56755   -56740   -56652   -56586   -56617   -56709   -56786 
  -56813   -56824   -56844   -56818   -56731   -56662   -56655   -56690 
  -56749   -56828   -56893   -56916   -56880   -56785   -56662   -56573 
  -56577   -56658   -56713   -56697   -56659   -56635   -56644   -56710 
  -56799   -56837   -56810   -56790   -56826   -56860   -56837   -56797 
  -56762   -56714   -56683   -56693   -56714   -56716   -56691   -56660 
  -56658   -56679   -56677   -56651   -56663   -56725   -56794   -56805 
  -56760   -56751   -56770   -56732   -56668   -56658   -56681   -56677 
  -56654   -56660   -56668   -56656   -56675   -56714   -56731   -56754 
  -56798   -56828   -56848   -56872   -56851   -56768   -56697   -56686 
  -56709   -56729   -56725   -56691   -56652   -56654   -56698   -56720 
  -56682   -56646   -56658   -56718   -56801   -56859   -56860   -56810 
  -56722   -56637   -56613   -56666   -56749   -56814   -56844   -56820 
  -56736   -56647   -56620   -56667   -56727   -56752   -56758   -56745 
  -56725   -56725   -56736   -56733   -56729   -56770   -56851   -56895 
  -56844   -56724   -56612   -56604   -56712   -56824   -56828   -56737 
  -56647   -56583   -56544   -56592   -56735   -56852   -56852   -56766 
  -56664   -56592   -56574   -56636   -56747   -56824   -56847   -56848 
  -56836   -56806   -56752   -56671   -56614   -56641   -56704   -56744 
  -56793   -56840   -56843   -56817   -56793   -56772   -56759   -56724 
  -56663   -56623   -56617   -56641   -56704   -56770   -56774   -56732 
  -56727   -56748   -56732   -56700   -56695   -56718   -56766   -56817 
  -56812   -56759   -56736   -56725   -56670   -56612   -56631   -56695 
  -56725   -56747   -56806   -56845   -56798   -56712   -56663   -56659 
  -56682   -56747   -56817   -56803   -56747   -56735   -56751   -56748 
  -56754   -56768   -56727   -56654   -56637   -56677   -56713   -56724 
  -56716   -56717   -56747   -56770   -56783   -56814   -56847   -56848 
  -56812   -56721   -56624   -56594   -56625   -56673   -56727   -56759 
  -56737   -56691   -56668   -56674   -56709   -56776   -56820   -56786 
  -56710   -56652   -56648   -56689   -56708   -56706   -56717   -56700 
  -56646   -56613   -56619   -56632   -56654   -56700   -56752   -56790 
  -56822   -56856   -56870   -56835   -56775   -56770   -56824   -56859 
  -56817   -56717   -56648   -56670   -56718   -56748   -56779   -56791 
  -56763   -56732   -56725   -56728   -56709   -56679   -56683   -56693 
  -56666   -56647   -56685   -56767   -56824   -56805   -56748   -56709 
  -56691   -56690   -56710   -56722   -56702   -56690   -56724   -56747 
  -56747   -56770   -56776   -56720   -56646   -56625   -56656   -56704 
  -56752   -56760   -56727   -56721   -56749   -56752   -56733   -56736 
  -56749   -56754   -56748   -56736   -56731   -56740   -56732   -56718 
  -56732   -56728   -56681   -56644   -56648   -56685   -56739   -56772 
  -56764   -56737   -56732   -56762   -56783   -56775   -56776   -56795 
  -56786   -56764   -56747   -56720   -56705   -56724   -56760   -56794 
  -56797   -56772   -56756   -56735   -56702   -56681   -56647   -56596 
  -56593   -56663   -56752   -56791   -56763   -56714   -56698   -56700 
  -56697   -56693   -56682   -56694   -56751   -56810   -56847   -56874 
  -56870   -56830   -56785   -56748   -56735   -56720   -56654   -56570 
  -56563   -56640   -56727   -56776   -56775   -56737   -56714   -56724 
  -56748   -56776   -56781   -56754   -56737   -56745   -56763   -56786 
  -56794   -56752   -56685   -56646   -56643   -56655   -56683   -56724 
  -56759   -56783   -56775   -56737   -56728   -56756   -56772   -56766 
  -56759   -56741   -56702   -56670   -56678   -56705   -56712   -56713 
  -56736   -56775   -56806   -56813   -56810   -56791   -56749   -56710 
  -56697   -56687   -56668   -56647   -56616   -56596   -56616   -56659 
  -56682   -56682   -56691   -56731   -56766   -56762   -56732   -56732 
  -56787   -56847   -56857   -56833   -56801   -56767   -56740   -56725 
  -56724   -56739   -56754   -56754   -56739   -56704   -56651   -56614 
  -56620   -56674   -56748   -56798   -56813   -56789   -56736   -56737 
  -56806   -56835   -56794   -56737   -56668   -56593   -56551   -56567 
  -56628   -56693   -56736   -56749   -56724   -56671   -56643   -56674 
  -56735   -56766   -56755   -56733   -56708   -56691   -56710   -56739 
  -56745   -56758   -56775   -56751   -56709   -56725   -56786   -56830 
  -56845   -56839   -56810   -56789   -56794   -56806   -56832   -56875 
  -56880   -56841   -56810   -56762   -56689   -56658   -56679   -56722 
  -56741   -56681   -56579   -56519   -56527   -56571   -56604   -56631 
  -56671   -56694   -56678   -56662   -56695   -56767   -56812   -56794 
  -56737   -56695   -56697   -56727   -56776   -56832   -56860   -56860 
  -56844   -56816   -56783   -56736   -56687   -56693   -56755   -56806 
  -56799   -56758   -56718   -56682   -56654   -56686   -56760   -56782 
  -56755   -56733   -56729   -56733   -56735   -56731   -56721   -56704 
  -56685   -56668   -56654   -56652   -56659   -56656   -56674   -56724 
  -56752   -56752   -56762   -56774   -56775   -56786   -56798   -56768 
  -56721   -56698   -56681   -56655   -56654   -56683   -56722   -56747 
  -56752   -56737   -56705   -56685   -56709   -56740   -56739   -56724 
  -56727   -56745   -56763   -56782   -56795   -56798   -56818   -56853 
  -56862   -56848   -56816   -56754   -56704   -56700   -56705   -56677 
  -56648   -56668   -56706   -56721   -56729   -56725   -56694   -56658 
  -56652   -56674   -56667   -56635   -56635   -56670   -56701   -56739 
  -56778   -56786   -56749   -56700   -56679   -56682   -56698   -56733 
  -56754   -56720   -56668   -56656   -56687   -56721   -56731   -56739 
  -56758   -56764   -56772   -56818   -56875   -56874   -56805   -56749 
  -56744   -56744   -56697   -56641   -56656   -56706   -56721   -56735 
  -56766   -56772   -56745   -56709   -56686   -56691   -56716   -56732 
  -56748   -56770   -56762   -56709   -56650   -56620   -56636   -56695 
  -56751   -56767   -56766   -56747   -56698   -56678   -56716   -56762 
  -56789   -56794   -56782   -56775   -56776   -56774   -56779   -56767 
  -56725   -56705   -56716   -56708   -56702   -56741   -56799   -56830 
  -56801   -56737   -56717   -56743   -56760   -56776   -56787   -56743 
  -56677   -56656   -56670   -56656   -56628   -56631   -56668   -56725 
  -56786   -56826   -56824   -56766   -56685   -56639   -56643   -56659 
  -56660   -56671   -56706   -56740   -56748   -56731   -56710   -56701 
  -56691   -56681   -56677   -56683   -56702   -56720   -56728   -56745 
  -56783   -56816   -56830   -56830   -56820   -56818   -56820   -56797 
  -56764   -56760   -56783   -56805   -56801   -56766   -56732   -56710 
  -56687   -56690   -56732   -56762   -56754   -56725   -56677   -56625 
  -56616   -56637   -56663   -56691   -56713   -56744   -56793   -56830 
  -56826   -56778   -56721   -56682   -56666   -56675   -56687   -56683 
  -56679   -56682   -56683   -56698   -56727   -56737   -56731   -56733 
  -56728   -56701   -56713   -56762   -56783   -56768   -56741   -56716 
  -56712   -56728   -56741   -56739   -56733   -56752   -56774   -56775 
  -56775   -56775   -56767   -56760   -56732   -56679   -56663   -56704 
  -56743   -56751   -56743   -56763   -56803   -56802   -56775   -56783 
  -56799   -56783   -56741   -56682   -56631   -56625   -56651   -56675 
  -56690   -56704   -56705   -56708   -56725   -56720   -56679   -56651 
  -56655   -56668   -56693   -56737   -56776   -56790   -56791   -56785 
  -56763   -56740   -56732   -56740   -56747   -56736   -56708   -56687 
  -56704   -56737   -56748   -56731   -56702   -56691   -56710   -56735 
  -56748   -56756   -56766   -56767   -56759   -56752   -56755   -56755 
  -56752   -56745   -56717   -56674   -56648   -56660   -56689   -56697 
  -56681   -56670   -56682   -56708   -56736   -56758   -56768   -56768 
  -56766   -56782   -56813   -56817   -56775   -56706   -56656   -56656 
  -56666   -56660   -56689   -56739   -56759   -56763   -56778   -56786 
  -56779   -56764   -56751   -56748   -56766   -56787   -56783   -56762 
  -56754   -56752   -56733   -56729   -56747   -56740   -56698   -56662 
  -56648   -56654   -56687   -56733   -56736   -56691   -56660   -56683 
  -56727   -56745   -56732   -56713   -56716   -56740   -56759   -56763 
  -56770   -56793   -56821   -56835   -56821   -56797   -56790   -56782 
  -56764   -56759   -56733   -56670   -56619   -56606   -56629   -56687 
  -56748   -56776   -56762   -56717   -56662   -56627   -56648   -56720 
  -56791   -56824   -56813   -56781   -56760   -56758   -56737   -56721 
  -56722   -56710   -56682   -56677   -56683   -56677   -56677   -56694 
  -56701   -56706   -56729   -56745   -56748   -56748   -56745   -56754 
  -56774   -56760   -56717   -56700   -56720   -56737   -56725   -56725 
  -56747   -56740   -56709   -56694   -56674   -56663   -56678   -56682 
  -56681   -56706   -56749   -56786   -56794   -56785   -56798   -56829 
  -56812   -56758   -56740   -56758   -56744   -56689   -56651   -56664 
  -56687   -56679   -56674   -56702   -56728   -56737   -56755   -56759 
  -56737   -56736   -56766   -56798   -56826   -56844   -56825   -56785 
  -56767   -56779   -56767   -56708   -56654   -56640   -56651   -56656 
  -56659   -56678   -56700   -56701   -56713   -56745   -56771   -56776 
  -56766   -56744   -56735   -56727   -56708   -56697   -56691   -56682 
  -56679   -56706   -56744   -56749   -56743   -56743   -56732   -56727 
  -56744   -56752   -56744   -56745   -56741   -56728   -56737   -56762 
  -56755   -56727   -56724   -56745   -56736   -56697   -56683   -56701 
  -56721   -56740   -56756   -56760   -56752   -56751   -56766   -56786 
  -56793   -56767   -56729   -56706   -56704   -56720   -56745   -56756 
  -56749   -56732   -56712   -56697   -56673   -56666   -56714   -56749 
  -56712   -56658   -56629   -56602   -56579   -56604   -56670   -56727 
  -56760   -56794   -56799   -56772   -56763   -56785   -56790   -56783 
  -56789   -56783   -56747   -56727   -56735   -56741   -56778   -56828 
  -56813   -56748   -56702   -56697   -56708   -56709   -56694   -56685 
  -56687   -56697   -56709   -56727   -56747   -56760   -56764   -56764 
  -56763   -56764   -56762   -56737   -56700   -56689   -56716   -56735 
  -56718   -56712   -56709   -56687   -56685   -56702   -56714   -56747 
  -56786   -56798   -56797   -56785   -56744   -56706   -56706   -56721 
