Origin Time       2024/06/23 22:54:00
Lat.              35.645
Long.             140.060
Depth. (km)       72
Mag.              4.1
Station Code      IBRH19
Station Lat.      36.2137
Station Long.     140.0893
Station Height(m) 175
Record Time       2024/06/23 22:54:38
Sampling Freq(Hz) 100Hz
Duration Time(s)  120
Dir.              4
Scale Factor      7845(gal)/8223790
Max. Acc. (gal)   1.203
Last Correction   2024/06/23 22:54:38
Memo.             
[...]
   15257    15256    15257    15259    15257    15257    15257    15259 
   15259    15259    15257    15256    15256    15256    15256    15256 
   15259    15260    15259    15257    15257    15257    15259    15257 
   15257    15259    15259    15257    15257    15260    15260    15257 
   15257    15259    15257    15257    15259    15260    15259    15255 
   15253    15255    15256    15257    15257    15257    15259    15259 
   15257    15257    15259    15257    15257    15259    15257    15255 
   15256    15257    15256    15257    15259    15260    15260    15257 
   15257    15259    15259    15257    15257    15257    15257    15257 
   15259    15259    15259    15257    15257    15256    15256    15257 
   15259    15260    15260    15257    15257    15257    15256    15256 
   15256    15257    15259    15259    15259    15259    15259    15257 
   15257    15260    15260    15257    15257    15259    15257    15256 
   15257    15257    15259    15257    15257    15257    15259    15259 
   15257    15257    15257    15256    15256    15259    15259    15259 
   15259    15259    15259    15257    15257    15259    15259    15257 
   15257    15259    15261    15260    15256    15256    15259    15259 
   15256    15256    15257    15256    15257    15257    15257    15259 
   15261    15259    15259    15260    15259    15259    15260    15259 
   15257    15259    15257    15257    15259    15260    15259    15259 
   15259    15259    15256    15257    15260    15259    15257    15260 
   15260    15257    15259    15259    15257    15257    15257    15257 
   15257    15257    15259    15259    15260    15260    15257    15257 
   15260    15261    15260    15257    15257    15259    15260    15260 
   15259    15259    15260    15259    15257    15257    15259    15257 
   15257    15260    15260    15259    15259    15257    15256    15257 
   15259    15259    15260    15259    15257    15257    15257    15259 
   15261    15259    15257    15260    15259    15257    15256    15256 
   15259    15260    15257    15257    15260    15260    15259    15257 
   15257    15260    15260    15259    15257    15257    15257    15259 
   15259    15259    15257    15257    15259    15260    15260    15257 
   15256    15257    15259    15257    15257    15259    15259    15259 
   15260    15259    15260    15259    15257    15260    15259    15259 
   15260    15259    15257    15257    15256    15257    15259    15257 
   15257    15259    15259    15257    15257    15260    15259    15259 
   15260    15259    15259    15259    15257    15259    15259    15257 
   15261    15261    15257    15256    15259    15259    15259    15259 
   15259    15260    15260    15256    15257    15260    15257    15256 
   15257    15257    15257    15257    15256    15256    15260    15260 
   15259    15259    15260    15259    15259    15259    15257    15256 
   15257    15257    15256    15255    15256    15257    15259    15257 
   15257    15257    15259    15257    15256    15259    15259    15259 
   15259    15257    15256    15259    15257    15256    15260    15260 
   15256    15256    15260    15259    15257    15260    15260    15257 
   15259    15260    15259    15257    15257    15257    15260    15259 
   15257    15260    15259    15256    15257    15257    15257    15257 
   15259    15259    15259    15259    15257    15253    15256    15259 
   15257    15257    15257    15256    15256    15259    15257    15257 
   15257    15259    15259    15257    15257    15259    15260    15260 
   15259    15256    15260    15261    15256    15255    15256    15257 
   15257    15257    15257    15257    15259    15259    15259    15260 
   15259    15257    15257    15257    15256    15256    15257    15259 
   15259    15259    15259    15259    15257    15256    15259    15259 
   15257    15257    15256    15257    15257    15257    15260    15259 
   15259    15260    15259    15257    15259    15257    15257    15259 
   15259    15256    15256    15260    15263    15259    15256    15257 
   15257    15256    15256    15259    15260    15257    15257    15260 
   15259    15257    15259    15257    15257    15259    15260    15261 
   15261    15261    15264    15265    15260    15257    15259    15264 
   15261    15250    15250    15260    15263    15259    15255    15240 
   15214    15218    15261    15292    15276    15256    15257    15259 
   15269    15304    15304    15252    15225    15240    15237    15223 
   15252    15286    15256    15213    15201    15187    15221    15344 
   15452    15423    15261    15125    15124    15163    15215    15311 
   15373    15334    15207    15161    15287    15336    15211    15153 
   15263    15352    15275    15232    15310    15206    14964    15032 
   15423    15673    15576    15337    15083    14916    15036    15291 
   15442    15535    15439    15057    14843    15040    15249    15372 
   15611    15662    15327    15032    15003    15117    15241    15288 
   15306    15331    15303    15223    15113    15064    15230    15534 
   15645    15427    15159    14987    14879    15007    15360    15538 
   15433    15337    15284    15144    15070    15175    15358    15529 
   15485    15182    14990    15059    15145    15213    15361    15507 
   15512    15336    15109    15028    15106    15265    15388    15353 
   15282    15237    15155    15165    15271    15309    15276    15256 
   15300    15336    15299    15260    15229    15187    15136    15133 
   15264    15390    15375    15317    15283    15223    15205    15298 
   15356    15272    15178    15175    15164    15159    15226    15290 
   15406    15507    15379    15215    15160    15071    15057    15196 
   15336    15414    15403    15287    15147    15117    15226    15342 
   15379    15358    15290    15206    15134    15117    15206    15299 
   15341    15400    15352    15169    15093    15157    15222    15315 
   15442    15396    15225    15202    15192    15105    15194    15371 
   15414    15375    15249    15083    15055    15157    15304    15460 
   15473    15299    15149    15102    15115    15228    15344    15361 
   15345    15319    15245    15159    15164    15267    15326    15310 
   15314    15310    15246    15201    15198    15196    15211    15284 
   15356    15275    15132    15171    15307    15345    15337    15348 
   15323    15237    15141    15137    15214    15282    15290    15223 
   15172    15233    15288    15292    15349    15372    15277    15241 
   15292    15277    15226    15230    15237    15222    15226    15242 
   15280    15282    15202    15176    15264    15313    15268    15264 
   15317    15315    15279    15241    15172    15195    15321    15315 
   15223    15283    15353    15248    15151    15230    15319    15250 
   15184    15260    15313    15275    15252    15207    15148    15213 
   15329    15326    15310    15369    15302    15133    15124    15253 
   15361    15383    15313    15201    15157    15176    15140    15188 
   15368    15417    15337    15325    15322    15149    14978    15118 
   15371    15411    15331    15276    15222    15157    15210    15317 
   15277    15259    15395    15372    15129    15066    15228    15269 
   15201    15257    15414    15434    15249    15118    15191    15327 
   15368    15261    15250    15368    15183    14918    15120    15367 
   15259    15241    15423    15421    15255    15203    15268    15261 
   15223    15279    15214    15053    15147    15296    15329    15456 
   15493    15303    15153    15144    15226    15334    15380    15287 
   15079    14995    15072    15148    15327    15533    15504    15403 
   15272    15030    15022    15290    15400    15319    15275    15230 
   15138    15122    15187    15252    15384    15496    15381    15250 
   15271    15161    15039    15226    15404    15327    15246    15238 
   15190    15114    15172    15361    15468    15495    15442    15210 
   14995    15026    15206    15292    15256    15280    15329    15168 
   14975    15161    15444    15414    15375    15380    15217    15169 
   15319    15306    15168    15196    15276    15207    15152    15268 
   15361    15282    15236    15314    15377    15375    15253    15106 
   15144    15261    15300    15263    15174    15184    15294    15367 
   15406    15358    15248    15256    15325    15259    15124    15094 
   15145    15097    15033    15267    15584    15516    15253    15176 
   15233    15299    15356    15356    15283    15172    15074    15026 
   15125    15375    15429    15230    15187    15314    15375    15358 
   15269    15171    15250    15392    15322    15148    15113    15180 
   15268    15368    15361    15223    15168    15226    15314    15406 
   15333    15120    15071    15164    15201    15253    15358    15395 
   15358    15340    15323    15273    15203    15121    15106    15195 
   15282    15275    15265    15342    15288    15117    15187    15342 
   15326    15304    15313    15255    15196    15242    15325    15307 
   15246    15214    15144    15122    15271    15383    15309    15253 
   15261    15238    15232    15233    15248    15310    15348    15352 
   15337    15282    15244    15214    15161    15188    15256    15195 
   15145    15250    15265    15168    15246    15431    15444    15309 
   15261    15267    15188    15179    15241    15245    15287    15299 
   15238    15271    15267    15111    15063    15240    15395    15403 
   15380    15288    15124    15093    15221    15348    15415    15407 
   15279    15140    15144    15223    15256    15309    15363    15223 
   15074    15169    15280    15318    15375    15280    15192    15306 
   15291    15167    15244    15346    15352    15321    15214    15153 
   15209    15248    15256    15267    15244    15210    15234    15325 
   15349    15209    15147    15284    15373    15327    15214    15141 
   15230    15344    15329    15267    15205    15128    15156    15282 
   15273    15187    15286    15445    15408    15277    15164    15066 
   15124    15341    15461    15383    15260    15168    15070    15098 
   15295    15431    15469    15479    15323    15086    15039    15160 
   15267    15263    15228    15275    15321    15272    15205    15168 
   15137    15199    15392    15489    15356    15147    15063    15159 
   15268    15341    15462    15441    15238    15118    15124    15192 
   15298    15363    15394    15350    15169    15014    15034    15176 
   15331    15390    15369    15371    15364    15234    15079    15140 
   15282    15275    15291    15369    15317    15210    15195    15245 
   15269    15241    15233    15288    15299    15265    15337    15346 
   15164    15125    15244    15217    15176    15306    15412    15371 
   15306    15248    15105    15045    15226    15379    15340    15313 
   15313    15179    15049    15134    15318    15421    15415    15323 
   15261    15265    15225    15159    15142    15199    15277    15256 
   15290    15379    15248    15117    15188    15282    15383    15446 
   15349    15164    15053    15083    15165    15280    15363    15284 
   15238    15350    15367    15264    15249    15268    15292    15323 
   15199    15129    15302    15342    15153    15148    15329    15303 
   15199    15304    15340    15241    15329    15426    15291    15124 
   15075    15147    15230    15205    15264    15415    15376    15268 
   15248    15206    15144    15167    15273    15372    15388    15315 
   15213    15144    15105    15130    15246    15371    15445    15411 
   15261    15167    15184    15205    15246    15327    15369    15342 
   15260    15157    15103    15159    15233    15232    15304    15435 
   15302    15083    15180    15361    15373    15371    15356    15219 
   15111    15169    15190    15129    15300    15545    15472    15226 
   15076    15071    15176    15273    15295    15291    15263    15192 
   15159    15226    15302    15321    15330    15326    15310    15326 
   15338    15282    15236    15306    15354    15267    15142    15091 
   15168    15249    15259    15338    15375    15236    15176    15252 
   15253    15237    15207    15086    15071    15201    15276    15296 
   15346    15365    15313    15338    15441    15404    15304    15302 
   15279    15229    15230    15206    15172    15198    15219    15234 
   15217    15164    15205    15249    15178    15194    15333    15358 
   15275    15222    15178    15145    15226    15414    15531    15438 
   15245    15171    15230    15311    15341    15323    15303    15245 
   15088    14989    15079    15194    15272    15425    15484    15317 
   15149    15115    15106    15144    15344    15515    15441    15342 
   15330    15186    15045    15125    15282    15377    15375    15253 
   15118    15102    15164    15182    15187    15217    15217    15184 
   15160    15137    15156    15304    15469    15508    15507    15456 
   15334    15264    15234    15209    15277    15388    15344    15209 
   15122    14948    14775    14904    15217    15473    15577    15481 
   15395    15500    15614    15643    15718    15716    15512    15395 
   15422    15241    14904    14667    14516    14524    14813    15199 
   15461    15558    15398    14970    14720    14971    15326    15373 
   15307    15398    15526    15527    15457    15318    15021    14727 
   14677    14940    15469    15984    16146    15912    15435    14870 
   14395    14256    14612    15357    16093    16505    16518    16047 
   15222    14540    14343    14542    14893    15263    15550    15603 
   15385    15083    14945    15028    15192    15267    15288    15373 
   15369    15330    15606    15866    15504    14777    14316    14285 
   14566    15095    15738    16194    16263    16042    15687    15205 
   14790    14706    14844    15160    15561    15664    15481    15299 
   15174    14986    14709    14683    15034    15340    15376    15303 
   15168    14974    14960    15210    15426    15499    15607    15736 
   15813    15861    15761    15390    14952    14754    14781    14798 
   14802    15013    15342    15452    15385    15371    15345    15249 
   15232    15327    15422    15469    15387    15121    14971    15120 
   15337    15560    15726    15564    15214    14972    14809    14837 
   15106    15206    15064    15098    15276    15225    15168    15417 
   15565    15353    15128    15095    15211    15381    15493    15589 
   15574    15213    14894    15090    15376    15372    15326    15376 
   15462    15449    15229    15086    15205    15292    15245    15261 
   15356    15353    15138    14918    14929    14958    14897    15053 
   15380    15473    15446    15658    15874    15685    15240    15028 
   15110    15110    15109    15276    15241    15022    14986    15009 
   15025    15230    15417    15340    15248    15286    15302    15317 
   15318    15287    15394    15599    15638    15398    15079    14940 
   14937    14982    15121    15341    15458    15411    15411    15444 
   15369    15233    15052    14975    15124    15263    15303    15400 
   15504    15527    15471    15310    15157    15138    15182    15225 
   15338    15356    15122    14985    15045    15060    15093    15140 
   15186    15358    15514    15483    15319    15155    15099    15138 
   15215    15363    15430    15288    15153    15145    15253    15441 
   15475    15337    15209    15161    15260    15303    15180    15190 
   15292    15288    15267    15215    15198    15263    15209    15148 
   15314    15547    15577    15421    15276    15179    15152    15205 
   15287    15427    15485    15406    15354    15165    14831    14805 
   14943    14831    14823    15130    15445    15624    15549    15309 
   15226    15345    15496    15515    15472    15390    15179    15070 
   15156    15259    15263    15176    15095    15034    15060    15206 
   15349    15522    15700    15627    15349    15250    15294    15203 
   15202    15340    15180    14841    14747    14901    15241    15511 
   15403    15244    15176    14978    15033    15429    15606    15550 
   15480    15445    15473    15475    15446    15322    15070    14883 
   14759    14816    15163    15356    15228    15161    15242    15304 
   15337    15358    15379    15385    15309    15188    15222    15396 
   15427    15367    15396    15349    15261    15217    15074    15087 
   15376    15527    15441    15311    15194    15142    15138    15061 
   14959    14945    14989    15151    15435    15545    15450    15452 
   15550    15430    15110    14994    15079    15142    15263    15410 
   15395    15246    15171    15161    15130    15157    15218    15280 
   15367    15353    15255    15313    15429    15314    15210    15221 
   15110    15141    15399    15519    15372    15120    15113    15269 
   15180    15140    15365    15384    15159    15007    15029    15186 
   15202    15228    15626    15830    15491    15283    15310    15169 
   15047    15102    15168    15174    15144    15192    15311    15372 
   15376    15341    15265    15165    15137    15268    15377    15345 
   15311    15277    15194    15223    15334    15277    15157    15129 
   15133    15242    15349    15155    14970    15153    15375    15446 
   15546    15662    15514    15043    14823    14998    15026    15061 
   15403    15604    15481    15298    15165    15147    15171    15099 
   15142    15331    15381    15352    15329    15268    15294    15431 
   15547    15415    15117    15120    15302    15237    15138    15229 
   15291    15191    15005    14874    14997    15309    15500    15523 
   15411    15195    15076    15026    15079    15395    15566    15311 
   15024    14994    15129    15261    15344    15417    15477    15471 
   15423    15471    15556    15558    15442    15178    15003    15028 
   15145    15435    15556    15202    14882    14863    14929    14987 
   14995    15066    15245    15287    15203    15313    15627    15792 
   15638    15348    15215    15264    15273    15226    15188    15178 
   15225    15222    15122    15083    15074    15080    15248    15353 
   15319    15472    15657    15504    15160    15057    15228    15265 
   15202    15318    15457    15441    15371    15280    15138    15034 
   14952    14874    14875    14917    15043    15256    15376    15391 
   15396    15589    15893    15745    15207    15001    15186    15322 
   15333    15330    15230    15003    14959    15179    15313    15377 
   15539    15531    15246    15010    14993    15087    15276    15454 
   15426    15341    15342    15252    15044    14968    15063    15175 
   15322    15475    15520    15406    15157    14997    15076    15259 
   15345    15272    15184    15236    15417    15519    15435    15449 
   15539    15388    15179    15188    15236    15122    14983    14989 
   15098    15230    15279    15144    14975    14894    14883    15122 
   15511    15630    15561    15542    15464    15373    15350    15263 
   15242    15368    15367    15241    15159    15110    15120    15179 
   15261    15295    15234    15242    15288    15215    15229    15429 
   15456    15192    15029    15070    15134    15255    15349    15356 
   15384    15327    15167    15102    15126    15126    15138    15202 
