Origin Time       2024/06/23 22:54:00
Lat.              35.645
Long.             140.060
Depth. (km)       72
Mag.              4.1
Station Code      IBRH15
Station Lat.      36.5566
Station Long.     140.3013
Station Height(m) -62
Record Time       2024/06/23 22:54:56
Sampling Freq(Hz) 100Hz
Duration Time(s)  120
Dir.              1
Scale Factor      2942(gal)/8224139
Max. Acc. (gal)   0.292
Last Correction   2024/06/23 22:54:56
Memo.             
[...]
    4401     4383     4333     4290     4318     4374     4376     4376 
    4388     4367     4334     4338     4368     4368     4330     4301 
    4297     4310     4337     4387     4460     4472     4405     4355 
    4340     4322     4332     4324     4261     4284     4375     4378 
    4353     4357     4314     4294     4340     4359     4356     4382 
    4395     4344     4283     4298     4326     4294     4301     4402 
    4457     4386     4328     4359     4351     4291     4322     4401 
    4411     4399     4401     4387     4361     4317     4298     4345 
    4344     4274     4276     4341     4345     4305     4313     4340 
    4360     4411     4406     4321     4288     4282     4260     4293 
    4379     4445     4434     4396     4379     4311     4234     4261 
    4326     4353     4375     4402     4401     4359     4341     4380 
    4394     4371     4334     4280     4261     4274     4248     4202 
    4241     4364     4429     4440     4475     4442     4356     4352 
    4365     4307     4276     4332     4380     4326     4244     4279 
    4353     4394     4503     4591     4486     4290     4230     4303 
    4318     4329     4438     4473     4396     4333     4263     4198 
    4220     4321     4383     4341     4337     4384     4334     4256 
    4255     4305     4387     4465     4486     4421     4317     4280 
    4320     4371     4374     4305     4261     4299     4330     4332 
    4356     4415     4422     4341     4332     4405     4375     4279 
    4276     4348     4360     4301     4271     4298     4330     4334 
    4324     4342     4384     4401     4382     4329     4279     4267 
    4293     4357     4421     4433     4406     4340     4283     4326 
    4383     4367     4369     4403     4390     4367     4365     4337 
    4310     4322     4336     4340     4294     4207     4225     4363 
    4441     4403     4382     4401     4376     4318     4286     4315 
    4402     4441     4375     4298     4293     4347     4379     4317 
    4234     4286     4398     4364     4337     4514     4610     4450 
    4345     4367     4283     4135     4133     4252     4297     4307 
    4448     4548     4465     4394     4402     4383     4338     4294 
    4251     4201     4190     4282     4360     4340     4352     4406 
    4396     4357     4314     4286     4307     4305     4321     4442 
    4483     4388     4341     4306     4218     4216     4344     4437 
    4390     4326     4384     4464     4453     4419     4407     4378 
    4314     4240     4225     4256     4247     4252     4328     4426 
    4495     4442     4320     4297     4307     4299     4348     4355 
    4305     4317     4353     4390     4455     4484     4436     4337 
    4241     4187     4172     4221     4330     4409     4479     4550 
    4486     4383     4371     4317     4266     4302     4314     4302 
    4301     4301     4315     4336     4341     4325     4326     4359 
    4375     4401     4407     4317     4261     4311     4286     4237 
    4361     4498     4468     4425     4442     4409     4326     4283 
    4280     4284     4336     4410     4382     4314     4320     4317 
    4275     4232     4217     4282     4378     4410     4394     4392 
    4418     4382     4309     4363     4434     4341     4230     4272 
    4347     4348     4367     4437     4484     4449     4329     4225 
    4241     4309     4328     4363     4464     4491     4384     4295 
    4310     4378     4394     4298     4189     4220     4351     4402 
    4390     4441     4415     4248     4190     4266     4291     4324 
    4430     4513     4537     4499     4388     4297     4245     4186 
    4186     4293     4391     4402     4376     4390     4405     4338 
    4243     4217     4279     4367     4411     4448     4486     4438 
    4344     4320     4305     4220     4164     4212     4307     4399 
    4452     4436     4386     4364     4369     4378     4398     4395 
    4325     4286     4321     4352     4356     4328     4293     4283 
    4282     4329     4379     4342     4338     4428     4452     4340 
    4236     4302     4429     4407     4340     4356     4338     4253 
    4229     4313     4403     4415     4409     4380     4294     4288 
    4375     4396     4369     4365     4357     4351     4359     4344 
    4317     4313     4348     4392     4372     4332     4352     4388 
    4388     4368     4357     4349     4328     4338     4387     4380 
    4268     4180     4239     4310     4340     4399     4396     4341 
    4371     4407     4380     4388     4432     4396     4290     4213 
    4201     4237     4306     4372     4395     4369     4355     4379 
    4359     4293     4310     4402     4421     4348     4325     4392 
    4405     4334     4326     4363     4338     4295     4301     4332 
    4317     4256     4249     4328     4380     4410     4503     4550 
    4457     4315     4214     4203     4252     4291     4337     4415 
    4465     4449     4401     4344     4290     4288     4336     4357 
    4372     4380     4295     4214     4243     4266     4297     4399 
    4429     4386     4395     4395     4338     4324     4368     4398 
    4353     4288     4299     4344     4387     4425     4398     4351 
    4338     4314     4299     4330     4395     4438     4407     4376 
    4360     4290     4255     4283     4302     4318     4318     4279 
    4252     4275     4330     4369     4376     4383     4365     4301 
    4284     4344     4367     4345     4376     4452     4455     4342 
    4259     4310     4364     4341     4359     4395     4355     4328 
    4371     4406     4405     4395     4356     4279     4264     4309 
    4286     4239     4259     4321     4426     4529     4500     4376 
    4301     4305     4344     4375     4401     4410     4357     4278 
    4268     4309     4309     4297     4348     4405     4407     4417 
    4392     4294     4244     4282     4317     4326     4347     4378 
    4392     4398     4415     4386     4293     4264     4310     4337 
    4344     4322     4293     4303     4326     4345     4391     4432 
    4448     4453     4421     4369     4333     4284     4264     4290 
    4279     4221     4175     4218     4344     4436     4432     4401 
    4426     4444     4388     4356     4367     4314     4230     4232 
    4288     4299     4311     4369     4368     4330     4333     4352 
    4386     4407     4399     4433     4465     4421     4363     4306 
    4232     4201     4224     4230     4253     4353     4421     4391 
    4379     4432     4479     4480     4433     4337     4253     4245 
    4283     4324     4351     4371     4406     4388     4321     4342 
    4426     4448     4437     4403     4309     4199     4155     4222 
    4345     4407     4417     4405     4321     4191     4163     4318 
    4500     4507     4437     4449     4425     4302     4220     4222 
    4278     4356     4406     4414     4386     4337     4326     4353 
    4398     4457     4471     4409     4342     4314     4275     4288 
    4396     4432     4364     4295     4224     4197     4202     4189 
    4280     4455     4510     4483     4461     4383     4279     4209 
    4167     4210     4320     4405     4482     4498     4415     4336 
    4297     4344     4430     4388     4336     4421     4452     4361 
    4287     4271     4293     4332     4375     4392     4328     4244 
    4253     4266     4266     4355     4409     4367     4341     4307 
    4268     4298     4372     4445     4449     4371     4328     4328 
    4259     4202     4260     4338     4369     4426     4495     4459 
    4320     4221     4225     4283     4311     4303     4360     4484 
    4486     4375     4355     4380     4340     4326     4357     4374 
    4395     4375     4334     4379     4441     4434     4402     4384 
    4379     4357     4325     4302     4283     4295     4317     4272 
    4239     4283     4324     4341     4360     4344     4314     4333 
    4352     4313     4284     4330     4387     4378     4336     4311 
    4293     4291     4322     4382     4434     4392     4302     4317 
    4372     4334     4283     4326     4394     4405     4391     4388 
    4395     4375     4324     4342     4394     4360     4349     4390 
    4355     4313     4364     4399     4340     4303     4355     4380 
    4337     4320     4352     4359     4341     4357     4355     4299 
    4263     4263     4297     4357     4375     4359     4365     4398 
    4414     4336     4216     4232     4347     4382     4380     4432 
    4428     4338     4287     4276     4286     4340     4380     4406 
    4445     4411     4314     4270     4284     4328     4375     4399 
    4402     4374     4307     4271     4306     4367     4378     4356 
    4337     4274     4218     4275     4365     4417     4438     4409 
    4345     4309     4322     4345     4320     4275     4280     4307 
    4294     4276     4325     4410     4459     4473     4453     4376 
    4311     4314     4313     4284     4303     4368     4410     4429 
    4419     4376     4355     4342     4321     4291     4247     4217 
    4198     4193     4263     4365     4386     4347     4317     4298 
    4284     4314     4390     4456     4490     4522     4541     4491 
    4359     4217     4116     4048     4072     4203     4330     4386 
    4395     4365     4288     4212     4251     4407     4537     4573 
    4596     4599     4457     4241     4141     4160     4193     4261 
    4396     4509     4526     4465     4403     4426     4499     4581 
    4660     4645     4546     4467     4392     4330     4320     4287 
    4193     4139     4214     4355     4449     4463     4417     4396 
    4387     4311     4252     4247     4197     4089     4033     4156 
    4351     4369     4283     4295     4394     4444     4374     4325 
    4409     4452     4321     4151     4112     4176     4234     4336 
    4521     4656     4621     4499     4440     4464     4550     4629 
    4602     4496     4364     4224     4141     4162     4226     4239 
    4182     4140     4160     4203     4253     4322     4359     4357 
    4423     4499     4411     4198     3978     3828     3843     4060 
    4388     4604     4584     4465     4348     4209     4147     4248 
    4336     4317     4395     4590     4702     4727     4715     4641 
    4525     4441     4490     4595     4591     4522     4434     4284 
    4113     3974     3944     4093     4259     4275     4293     4444 
    4549     4511     4418     4321     4245     4216     4234     4284 
    4332     4352     4275     4109     3989     3942     3947     4005 
    4079     4255     4548     4675     4569     4536     4661     4780 
    4831     4816     4720     4523     4198     3900     3874     4109 
    4415     4619     4627     4521     4418     4309     4218     4293 
    4514     4650     4607     4471     4290     4087     3906     3805 
    3821     3954     4158     4357     4472     4452     4367     4356 
    4405     4434     4476     4511     4484     4418     4351     4363 
    4479     4527     4468     4448     4456     4426     4348     4236 
    4194     4212     4187     4213     4345     4411     4330     4230 
    4217     4291     4387     4406     4395     4490     4599     4572 
    4436     4278     4178     4194     4233     4125     3967     4029 
    4247     4348     4382     4468     4464     4392     4441     4538 
    4591     4642     4580     4360     4195     4189     4224     4225 
    4272     4422     4536     4502     4391     4275     4189     4202 
    4288     4352     4396     4418     4360     4275     4291     4446 
    4650     4731     4615     4426     4271     4131     4068     4155 
    4261     4274     4245     4217     4155     4068     4048     4189 
    4407     4544     4595     4564     4419     4240     4118     4147 
    4383     4666     4730     4531     4311     4270     4326     4352 
    4345     4342     4349     4333     4309     4318     4347     4456 
    4673     4779     4661     4521     4472     4387     4221     4105 
    4132     4244     4322     4364     4421     4428     4301     4074 
    3892     3878     3978     4110     4322     4595     4776     4772 
    4645     4480     4318     4153     3979     3909     3991     4102 
    4113     4033     4033     4172     4326     4504     4711     4827 
    4864     4831     4662     4448     4329     4278     4247     4301 
    4419     4440     4345     4287     4293     4307     4378     4484 
    4515     4521     4577     4585     4515     4457     4352     4129 
    3924     3913     4099     4263     4326     4426     4486     4433 
    4446     4475     4336     4183     4225     4378     4457     4491 
    4571     4549     4347     4172     4099     4072     4152     4229 
    4148     4086     4156     4212     4256     4368     4445     4391 
    4306     4295     4371     4541     4703     4684     4500     4271 
    4068     3996     4043     4143     4355     4633     4780     4746 
    4638     4513     4382     4302     4303     4349     4434     4441 
    4233     3967     3823     3759     3771     3921     4160     4405 
    4622     4780     4862     4839     4673     4453     4334     4379 
    4519     4540     4313     4018     3854     3820     3881     4014 
    4172     4340     4575     4826     4946     4976     5047     5043 
    4808     4488     4275     4091     3846     3627     3528     3609 
    3906     4340     4712     4866     4753     4453     4225     4239 
    4423     4672     4769     4537     4206     4029     3958     3963 
    4095     4226     4228     4207     4278     4375     4475     4558 
    4510     4402     4432     4571     4660     4662     4633     4585 
    4519     4460     4438     4419     4303     4122     4017     4027 
    4099     4149     4117     4099     4195     4326     4426     4482 
    4456     4396     4409     4498     4604     4638     4537     4401 
    4398     4448     4395     4338     4328     4222     4075     4072 
    4176     4207     4077     3900     3919     4190     4519     4735 
    4772     4621     4369     4207     4253     4398     4457     4375 
    4190     3983     3865     3937     4234     4581     4703     4633 
    4627     4664     4583     4464     4475     4564     4540     4392 
    4276     4228     4178     4102     4089     4228     4384     4364 
    4218     4090     4077     4239     4509     4742     4827     4679 
    4355     4058     3919     3932     4071     4270     4434     4523 
    4495     4306     4068     4025     4243     4513     4633     4594 
    4475     4347     4321     4440     4506     4414     4328     4271 
    4156     4104     4230     4444     4634     4749     4753     4617 
    4352     4180     4305     4498     4490     4361     4230     4132 
    4098     4116     4171     4220     4234     4251     4230     4229 
    4360     4490     4509     4463     4341     4171     4028     3933 
    3917     3990     4175     4428     4546     4471     4402     4531 
    4753     4789     4645     4506     4459     4540     4649     4612 
    4473     4356     4264     4197     4186     4237     4372     4552 
    4567     4334     4101     4071     4145     4216     4399     4672 
    4764     4623     4433     4295     4220     4199     4201     4171 
    4141     4216     4361     4403     4329     4266     4205     4131 
    4101     4128     4244     4442     4542     4469     4419     4469 
    4463     4374     4348     4401     4406     4344     4320     4345 
    4363     4340     4249     4137     4077     4087     4220     4413 
    4513     4537     4577     4623     4630     4575     4423     4213 
    4062     4000     3977     4035     4210     4425     4542     4506 
    4399     4351     4364     4382     4413     4486     4556     4515 
    4326     4151     4093     4033     3998     4125     4279     4309 
    4305     4436     4675     4745     4595     4503     4522     4523 
    4522     4514     4417     4248     4135     4140     4185     4213 
    4306     4468     4554     4587     4657     4590     4364     4244 
    4271     4320     4302     4209     4182     4245     4251     4217 
    4213     4213     4253     4325     4386     4461     4507     4482 
    4437     4347     4268     4306     4307     4209     4229     4347 
    4314     4167     4112     4178     4303     4392     4334     4220 
    4212     4272     4305     4330     4380     4421     4430     4426 
    4372     4295     4299     4342     4334     4329     4317     4249 
    4243     4359     4475     4533     4610     4689     4684     4618 
    4531     4388     4205     4108     4179     4298     4333     4360 
    4415     4392     4279     4175     4149     4174     4205     4276 
    4392     4460     4410     4288     4205     4217     4334     4469 
    4487     4442     4450     4440     4353     4320     4384     4430 
    4472     4525     4473     4382     4368     4372     4376     4441 
    4522     4510     4387     4245     4185     4210     4284     4402 
    4498     4460     4369     4330     4245     4126     4108     4137 
    4163     4229     4295     4325     4336     4356     4379     4322 
    4203     4145     4176     4260     4392     4455     4290     4079 
    4062     4104     4144     4326     4550     4649     4639     4587 
    4531     4488     4477     4513     4515     4419     4293     4255 
    4310     4406     4492     4479     4410     4411     4394     4293 
    4255     4326     4417     4488     4519     4510     4475     4371 
    4244     4191     4191     4241     4341     4371     4305     4220 
    4156     4153     4202     4218     4209     4209     4243     4341 
    4419     4415     4409     4386     4293     4230     4282     4353 
    4376     4417     4482     4446     4330     4268     4224     4160 
    4209     4384     4533     4564     4540     4548     4560     4503 
    4422     4368     4307     4251     4249     4272     4294     4338 
    4379     4395     4446     4526     4541     4434     4278     4179 
    4125     4068     4091     4244     4380     4382     4328     4307 
    4305     4309     4326     4295     4247     4310     4409     4418 
    4432     4486     4445     4305     4212     4237     4314     4380 
    4399     4351     4299     4330     4394     4390     4315     4239 
    4217     4272     4415     4533     4477     4369     4371     4411 
    4403     4355     4321     4359     4394     4375     4376     4374 
    4333     4336     4361     4360     4392     4437     4401     4326 
    4336     4426     4472     4437     4402     4395     4348     4212 
    4104     4144     4245     4280     4260     4213     4144     4140 
    4260     4426     4519     4486     4407     4401     4396     4314 
    4251     4284     4368     4401     4338     4288     4334     4409 
    4452     4434     4340     4226     4203     4320     4440     4453 
    4460     4450     4347     4275     4288     4272     4236     4260 
    4303     4261     4178     4187     4270     4314     4337     4419 
    4526     4550     4500     4421     4357     4405     4525     4564 
    4529     4518     4472     4334     4232     4244     4295     4314 
