Origin Time       2024/06/23 22:54:00
Lat.              35.645
Long.             140.060
Depth. (km)       72
Mag.              4.1
Station Code      KNGH11
Station Lat.      35.4040
Station Long.     139.3539
Station Height(m) 12
Record Time       2024/06/23 22:54:39
Sampling Freq(Hz) 100Hz
Duration Time(s)  120
Dir.              6
Scale Factor      3920(gal)/6170801
Max. Acc. (gal)   0.724
Last Correction   2024/06/23 22:54:24
Memo.             
[...]
  -15317   -15315   -15316   -15315   -15313   -15313   -15309   -15301 
  -15294   -15291   -15295   -15298   -15295   -15294   -15295   -15296 
  -15300   -15305   -15310   -15312   -15312   -15315   -15313   -15307 
  -15307   -15308   -15305   -15304   -15301   -15301   -15307   -15308 
  -15309   -15306   -15298   -15300   -15304   -15303   -15305   -15302 
  -15297   -15301   -15303   -15300   -15299   -15302   -15308   -15311 
  -15308   -15309   -15311   -15311   -15314   -15313   -15308   -15309 
  -15309   -15301   -15292   -15289   -15295   -15305   -15308   -15302 
  -15299   -15300   -15303   -15301   -15301   -15303   -15303   -15310 
  -15312   -15299   -15297   -15308   -15312   -15312   -15307   -15300 
  -15299   -15293   -15290   -15297   -15298   -15300   -15303   -15302 
  -15305   -15306   -15310   -15316   -15311   -15307   -15307   -15306 
  -15307   -15298   -15291   -15297   -15300   -15300   -15305   -15306 
  -15305   -15313   -15314   -15310   -15313   -15310   -15306   -15315 
  -15317   -15310   -15306   -15307   -15306   -15297   -15296   -15300 
  -15298   -15298   -15299   -15296   -15301   -15304   -15302   -15305 
  -15306   -15302   -15304   -15303   -15300   -15305   -15305   -15306 
  -15312   -15313   -15312   -15311   -15309   -15315   -15314   -15306 
  -15306   -15306   -15304   -15304   -15299   -15299   -15296   -15294 
  -15300   -15301   -15296   -15296   -15305   -15315   -15311   -15302 
  -15307   -15315   -15313   -15315   -15315   -15310   -15307   -15301 
  -15301   -15300   -15295   -15298   -15300   -15297   -15300   -15302 
  -15311   -15320   -15314   -15308   -15308   -15305   -15308   -15310 
  -15304   -15303   -15304   -15299   -15298   -15298   -15300   -15310 
  -15309   -15299   -15300   -15304   -15307   -15309   -15300   -15294 
  -15297   -15300   -15304   -15303   -15297   -15302   -15308   -15305 
  -15301   -15302   -15304   -15306   -15306   -15299   -15296   -15307 
  -15314   -15310   -15308   -15308   -15307   -15313   -15317   -15308 
  -15306   -15313   -15312   -15304   -15297   -15295   -15296   -15293 
  -15292   -15291   -15289   -15296   -15302   -15299   -15295   -15296 
  -15303   -15309   -15313   -15319   -15322   -15319   -15321   -15318 
  -15308   -15307   -15310   -15306   -15303   -15304   -15305   -15307 
  -15309   -15312   -15311   -15305   -15304   -15300   -15292   -15286 
  -15281   -15283   -15297   -15311   -15311   -15302   -15300   -15314 
  -15319   -15309   -15306   -15315   -15325   -15330   -15327   -15321 
  -15312   -15305   -15314   -15316   -15299   -15286   -15281   -15282 
  -15283   -15278   -15281   -15298   -15311   -15317   -15319   -15314 
  -15312   -15308   -15303   -15310   -15318   -15314   -15297   -15275 
  -15270   -15286   -15306   -15321   -15314   -15300   -15307   -15316 
  -15303   -15295   -15298   -15303   -15306   -15294   -15283   -15294 
  -15305   -15302   -15298   -15298   -15299   -15299   -15302   -15303 
  -15295   -15291   -15293   -15300   -15321   -15332   -15322   -15312 
  -15302   -15293   -15293   -15290   -15285   -15289   -15299   -15308 
  -15302   -15285   -15288   -15302   -15302   -15308   -15322   -15327 
  -15322   -15318   -15316   -15306   -15302   -15310   -15306   -15295 
  -15295   -15295   -15295   -15305   -15318   -15320   -15314   -15303 
  -15290   -15272   -15259   -15275   -15308   -15325   -15325   -15321 
  -15319   -15320   -15314   -15303   -15304   -15310   -15312   -15308 
  -15295   -15286   -15289   -15296   -15307   -15321   -15322   -15309 
  -15296   -15289   -15301   -15309   -15278   -15249   -15266   -15304 
  -15323   -15324   -15330   -15334   -15332   -15336   -15344   -15356 
  -15348   -15292   -15216   -15168   -15199   -15310   -15388   -15370 
  -15316   -15276   -15286   -15351   -15406   -15400   -15329   -15252 
  -15220   -15202   -15219   -15294   -15339   -15317   -15289   -15298 
  -15346   -15385   -15370   -15312   -15266   -15284   -15321   -15304 
  -15264   -15253   -15269   -15302   -15321   -15313   -15295   -15268 
  -15255   -15276   -15322   -15381   -15408   -15376   -15313   -15257 
  -15250   -15289   -15323   -15317   -15285   -15272   -15297   -15329 
  -15347   -15352   -15343   -15317   -15266   -15222   -15238   -15303 
  -15357   -15360   -15319   -15273   -15266   -15296   -15311   -15298 
  -15290   -15292   -15291   -15291   -15312   -15347   -15360   -15348 
  -15327   -15307   -15309   -15315   -15296   -15279   -15281   -15292 
  -15305   -15295   -15271   -15258   -15274   -15330   -15378   -15367 
  -15324   -15290   -15275   -15281   -15305   -15324   -15321   -15304 
  -15291   -15300   -15327   -15342   -15333   -15305   -15278   -15270 
  -15266   -15258   -15274   -15310   -15338   -15340   -15316   -15302 
  -15309   -15310   -15307   -15301   -15301   -15322   -15332   -15310 
  -15288   -15299   -15322   -15312   -15294   -15296   -15306   -15316 
  -15310   -15280   -15270   -15293   -15311   -15318   -15324   -15316 
  -15290   -15270   -15279   -15310   -15333   -15332   -15307   -15283 
  -15292   -15307   -15303   -15310   -15327   -15317   -15296   -15288 
  -15301   -15320   -15321   -15307   -15293   -15290   -15297   -15297 
  -15303   -15322   -15331   -15329   -15326   -15315   -15296   -15276 
  -15277   -15310   -15332   -15320   -15303   -15299   -15302   -15303 
  -15299   -15299   -15306   -15307   -15307   -15307   -15306   -15297 
  -15285   -15288   -15307   -15320   -15317   -15306   -15301   -15308 
  -15315   -15314   -15321   -15329   -15322   -15310   -15299   -15291 
  -15298   -15309   -15307   -15300   -15299   -15302   -15307   -15316 
  -15318   -15303   -15284   -15273   -15276   -15293   -15309   -15319 
  -15325   -15315   -15296   -15286   -15292   -15305   -15316   -15323 
  -15324   -15322   -15318   -15320   -15325   -15324   -15315   -15300 
  -15293   -15288   -15280   -15284   -15292   -15300   -15310   -15302 
  -15289   -15295   -15312   -15325   -15323   -15307   -15298   -15298 
  -15299   -15298   -15289   -15290   -15311   -15321   -15321   -15330 
  -15336   -15333   -15331   -15317   -15299   -15292   -15296   -15309 
  -15318   -15303   -15275   -15256   -15258   -15275   -15295   -15308 
  -15306   -15286   -15287   -15319   -15344   -15351   -15339   -15310 
  -15292   -15298   -15316   -15332   -15327   -15306   -15285   -15276 
  -15297   -15324   -15318   -15292   -15272   -15270   -15287   -15306 
  -15312   -15307   -15301   -15314   -15340   -15359   -15363   -15339 
  -15299   -15269   -15261   -15280   -15309   -15307   -15289   -15278 
  -15277   -15304   -15335   -15331   -15317   -15307   -15294   -15302 
  -15314   -15300   -15290   -15288   -15280   -15285   -15297   -15301 
  -15310   -15328   -15335   -15326   -15321   -15328   -15333   -15323 
  -15304   -15288   -15289   -15295   -15292   -15294   -15296   -15290 
  -15298   -15313   -15320   -15322   -15322   -15316   -15308   -15306 
  -15309   -15313   -15306   -15291   -15293   -15298   -15278   -15264 
  -15291   -15328   -15330   -15298   -15277   -15308   -15355   -15358 
  -15330   -15311   -15301   -15308   -15329   -15327   -15298   -15266 
  -15257   -15286   -15314   -15315   -15313   -15302   -15281   -15278 
  -15279   -15281   -15313   -15357   -15391   -15395   -15344   -15283 
  -15254   -15259   -15285   -15298   -15299   -15306   -15305   -15293 
  -15265   -15245   -15268   -15308   -15349   -15380   -15369   -15339 
  -15328   -15325   -15320   -15319   -15314   -15303   -15295   -15294 
  -15282   -15257   -15249   -15275   -15307   -15314   -15306   -15305 
  -15315   -15327   -15331   -15332   -15325   -15313   -15310   -15298 
  -15277   -15275   -15293   -15311   -15317   -15310   -15303   -15296 
  -15293   -15303   -15315   -15332   -15346   -15335   -15325   -15329 
  -15316   -15305   -15310   -15303   -15289   -15284   -15284   -15282 
  -15272   -15265   -15276   -15292   -15307   -15315   -15320   -15322 
  -15323   -15337   -15349   -15340   -15345   -15356   -15329   -15288 
  -15273   -15280   -15293   -15296   -15294   -15292   -15273   -15248 
  -15263   -15307   -15331   -15327   -15334   -15350   -15339   -15316 
  -15310   -15309   -15307   -15301   -15285   -15273   -15284   -15307 
  -15324   -15320   -15302   -15300   -15314   -15320   -15310   -15289 
  -15278   -15295   -15309   -15304   -15295   -15289   -15296   -15320 
  -15334   -15340   -15341   -15326   -15314   -15330   -15340   -15304 
  -15253   -15240   -15249   -15268   -15304   -15311   -15293   -15303 
  -15333   -15354   -15356   -15339   -15329   -15327   -15309   -15292 
  -15275   -15249   -15234   -15245   -15259   -15260   -15276   -15308 
  -15317   -15317   -15328   -15353   -15387   -15392   -15355   -15330 
  -15327   -15321   -15313   -15300   -15282   -15268   -15262   -15264 
  -15276   -15292   -15292   -15281   -15290   -15318   -15332   -15330 
  -15324   -15308   -15297   -15308   -15317   -15307   -15302   -15310 
  -15318   -15318   -15294   -15260   -15248   -15264   -15297   -15315 
  -15310   -15306   -15323   -15357   -15377   -15374   -15352   -15324 
  -15315   -15319   -15325   -15322   -15282   -15230   -15212   -15242 
  -15307   -15350   -15326   -15268   -15241   -15272   -15328   -15374 
  -15370   -15308   -15263   -15282   -15321   -15335   -15295   -15233 
  -15221   -15266   -15325   -15366   -15375   -15362   -15355   -15360 
  -15360   -15359   -15355   -15319   -15254   -15207   -15222   -15280 
  -15308   -15279   -15233   -15232   -15296   -15370   -15389   -15341 
  -15292   -15306   -15345   -15365   -15372   -15333   -15268   -15235 
  -15236   -15258   -15264   -15249   -15276   -15341   -15373   -15356 
  -15337   -15353   -15376   -15355   -15295   -15243   -15248   -15296 
  -15320   -15305   -15282   -15290   -15331   -15350   -15320   -15280 
  -15277   -15305   -15312   -15286   -15271   -15295   -15325   -15312 
  -15278   -15256   -15265   -15315   -15367   -15393   -15384   -15322 
  -15261   -15286   -15353   -15355   -15274   -15189   -15197   -15271 
  -15341   -15385   -15361   -15299   -15279   -15306   -15345   -15343 
  -15287   -15250   -15280   -15333   -15346   -15315   -15280   -15276 
  -15310   -15351   -15349   -15291   -15227   -15233   -15332   -15427 
  -15417   -15343   -15282   -15256   -15270   -15296   -15277   -15242 
  -15243   -15268   -15300   -15295   -15266   -15298   -15366   -15383 
  -15341   -15317   -15348   -15378   -15363   -15315   -15273   -15261 
  -15268   -15265   -15264   -15279   -15267   -15245   -15285   -15355 
  -15392   -15377   -15340   -15332   -15336   -15307   -15263   -15257 
  -15278   -15284   -15285   -15286   -15268   -15259   -15287   -15338 
  -15377   -15379   -15339   -15306   -15306   -15297   -15289   -15310 
  -15319   -15311   -15300   -15276   -15262   -15291   -15330   -15331 
  -15321   -15316   -15310   -15319   -15327   -15314   -15308   -15309 
  -15292   -15275   -15281   -15282   -15267   -15275   -15305   -15337 
  -15363   -15344   -15304   -15309   -15334   -15326   -15296   -15272 
  -15279   -15308   -15317   -15290   -15276   -15300   -15302   -15287 
  -15310   -15325   -15317   -15330   -15332   -15310   -15298   -15299 
  -15311   -15342   -15347   -15290   -15244   -15266   -15309   -15322 
  -15314   -15309   -15295   -15281   -15274   -15276   -15318   -15378 
  -15385   -15353   -15325   -15301   -15289   -15293   -15301   -15316 
  -15313   -15271   -15231   -15233   -15279   -15321   -15328   -15298 
  -15258   -15282   -15368   -15403   -15363   -15306   -15264   -15280 
  -15327   -15342   -15350   -15347   -15313   -15277   -15246   -15241 
  -15278   -15321   -15324   -15284   -15262   -15294   -15329   -15348 
  -15352   -15316   -15286   -15297   -15312   -15338   -15353   -15320 
  -15282   -15262   -15271   -15305   -15312   -15302   -15309   -15313 
  -15321   -15325   -15303   -15294   -15285   -15271   -15301   -15327 
  -15331   -15348   -15347   -15332   -15323   -15296   -15285   -15300 
  -15301   -15299   -15299   -15286   -15280   -15280   -15283   -15298 
  -15308   -15319   -15332   -15324   -15319   -15324   -15310   -15295 
  -15301   -15315   -15337   -15357   -15365   -15374   -15374   -15361 
  -15344   -15318   -15281   -15226   -15176   -15160   -15166   -15222 
  -15337   -15430   -15465   -15465   -15438   -15424   -15454   -15452 
  -15377   -15297   -15243   -15192   -15153   -15131   -15126   -15161 
  -15244   -15327   -15370   -15434   -15578   -15705   -15707   -15581 
  -15395   -15289   -15330   -15390   -15326   -15168   -15021   -14906 
  -14809   -14753   -14769   -14872   -15062   -15298   -15484   -15506 
  -15379   -15268   -15281   -15411   -15592   -15680   -15587   -15382 
  -15168   -15025   -14991   -15010   -15017   -15037   -15093   -15192 
  -15391   -15623   -15640   -15417   -15272   -15364   -15534   -15631 
  -15594   -15400   -15190   -15105   -15022   -14932   -15092   -15379 
  -15382   -15150   -15024   -15113   -15408   -15809   -16050   -16066 
  -15974   -15686   -15330   -15360   -15681   -15673   -15179   -14644 
  -14446   -14634   -15029   -15361   -15552   -15645   -15440   -14866 
  -14432   -14581   -15154   -15813   -16187   -15870   -15071   -14579 
  -14697   -15081   -15447   -15576   -15304   -15046   -15254   -15594 
  -15791   -16138   -16383   -15888   -14996   -14619   -14949   -15531 
  -15792   -15382   -14726   -14599   -14912   -15046   -15099   -15547 
  -16212   -16438   -15906   -14980   -14394   -14528   -15050   -15463 
  -15655   -15698   -15565   -15230   -14848   -14785   -15158   -15523 
  -15492   -15224   -15063   -15150   -15302   -15210   -14968   -15006 
  -15434   -15877   -15980   -15764   -15459   -15276   -15248   -15139 
  -14873   -14764   -14956   -15196   -15283   -15276   -15291   -15374 
  -15486   -15539   -15531   -15576   -15674   -15618   -15323   -14989 
  -14807   -14806   -14962   -15220   -15445   -15532   -15565   -15643 
  -15651   -15505   -15292   -15075   -14926   -15001   -15271   -15494 
  -15546   -15492   -15395   -15292   -15261   -15276   -15224   -15137 
  -15151   -15272   -15402   -15506   -15567   -15512   -15317   -15076 
  -14912   -14881   -14980   -15143   -15264   -15316   -15346   -15344 
  -15312   -15363   -15509   -15605   -15593   -15547   -15476   -15357 
  -15292   -15313   -15262   -15104   -15006   -15054   -15210   -15388 
  -15471   -15462   -15436   -15319   -15087   -14978   -15131   -15377 
  -15558   -15617   -15524   -15405   -15367   -15306   -15227   -15251 
  -15278   -15174   -15076   -15143   -15305   -15398   -15352   -15222 
  -15163   -15287   -15492   -15564   -15494   -15397   -15273   -15166 
  -15169   -15184   -15138   -15161   -15275   -15350   -15367   -15381 
  -15397   -15416   -15398   -15296   -15206   -15247   -15356   -15400 
  -15353   -15270   -15256   -15337   -15321   -15109   -14946   -15018 
  -15202   -15385   -15564   -15649   -15549   -15359   -15221   -15155 
  -15154   -15234   -15340   -15389   -15350   -15243   -15148   -15147 
  -15220   -15330   -15445   -15464   -15356   -15251   -15250   -15314 
  -15349   -15304   -15218   -15217   -15355   -15495   -15491   -15377 
  -15235   -15107   -15068   -15191   -15412   -15625   -15765   -15687 
  -15365   -15087   -15030   -15063   -15109   -15209   -15288   -15279 
  -15273   -15333   -15352   -15252   -15129   -15061   -15069   -15211 
  -15464   -15664   -15687   -15567   -15464   -15464   -15443   -15301 
  -15165   -15172   -15260   -15268   -15135   -14983   -14986   -15138 
  -15278   -15379   -15544   -15761   -15846   -15683   -15403   -15189 
  -15092   -15073   -15088   -15143   -15252   -15344   -15340   -15279 
  -15207   -15099   -15008   -15045   -15198   -15357   -15444   -15430 
  -15375   -15366   -15351   -15242   -15088   -15002   -15056   -15267 
  -15517   -15590   -15447   -15254   -15130   -15095   -15125   -15189 
  -15292   -15412   -15479   -15498   -15475   -15352   -15208   -15191 
  -15266   -15320   -15370   -15408   -15306   -15129   -15125   -15299 
  -15423   -15413   -15394   -15472   -15571   -15505   -15234   -14981 
  -14968   -15136   -15284   -15324   -15289   -15248   -15219   -15140 
  -15021   -15053   -15305   -15540   -15596   -15552   -15470   -15372 
  -15324   -15358   -15421   -15441   -15340   -15125   -14988   -15072 
  -15275   -15446   -15506   -15430   -15304   -15243   -15270   -15380 
  -15521   -15548   -15395   -15167   -14993   -14936   -15026   -15203 
  -15322   -15324   -15279   -15272   -15342   -15428   -15422   -15324 
  -15182   -15029   -14971   -15088   -15288   -15509   -15725   -15776 
  -15591   -15380   -15300   -15241   -15133   -15064   -15046   -15045 
  -15087   -15150   -15249   -15411   -15466   -15299   -15090   -15073 
  -15283   -15534   -15579   -15390   -15180   -15154   -15310   -15443 
  -15372   -15137   -14904   -14797   -14850   -15041   -15309   -15590 
  -15798   -15809   -15639   -15513   -15493   -15364   -15077   -14836 
  -14733   -14747   -14899   -15120   -15315   -15488   -15601   -15574 
  -15444   -15333   -15295   -15228   -15028   -14848   -14942   -15310 
  -15676   -15788   -15706   -15597   -15421   -15157   -14955   -14981 
  -15241   -15503   -15523   -15338   -15202   -15252   -15306   -15196 
  -15024   -14906   -14890   -15067   -15441   -15800   -15852   -15508 
  -15047   -14855   -14995   -15193   -15239   -15184   -15152   -15184 
  -15295   -15464   -15618   -15696   -15664   -15492   -15212   -14969 
  -14902   -15005   -15125   -15155   -15179   -15346   -15629   -15804 
  -15675   -15297   -14974   -14948   -15147   -15389   -15586   -15598 
  -15370   -15126   -15038   -15006   -14950   -14945   -15018   -15159 
  -15330   -15380   -15300   -15330   -15552   -15715   -15596   -15267 
  -14966   -14861   -14925   -15018   -15107   -15264   -15460   -15575 
  -15585   -15525   -15386   -15216   -15122   -15155   -15286   -15373 
  -15287   -15155   -15142   -15109   -14940   -14853   -15023   -15296 
  -15448   -15447   -15402   -15454   -15605   -15644   -15445   -15174 
  -15026   -15008   -15054   -15125   -15180   -15230   -15353   -15524 
  -15593   -15497   -15346   -15314   -15422   -15467   -15319   -15162 
  -15174   -15247   -15283   -15363   -15471   -15432   -15213   -14979 
  -14852   -14876   -15071   -15310   -15374   -15224   -15025   -14970 
  -15131   -15393   -15583   -15610   -15483   -15351   -15389   -15527 
  -15540   -15401   -15253   -15113   -14942   -14863   -15017   -15298 
  -15495   -15546   -15490   -15373   -15251   -15152   -15067   -15002 
  -14978   -15049   -15240   -15486   -15675   -15668   -15427   -15158 
  -15069   -15111   -15211   -15414   -15631   -15667   -15549   -15400 
  -15171   -14833   -14534   -14427   -14591   -15022   -15566   -15940 
  -15932   -15650   -15383   -15260   -15191   -15057   -14923   -14962 
  -15187   -15459   -15604   -15553   -15451   -15406   -15362   -15260 
  -15123   -15084   -15241   -15410   -15360   -15176   -15089   -15156 
  -15270   -15336   -15327   -15220   -15030   -14911   -15042   -15387 
  -15669   -15677   -15484   -15251   -15008   -14789   -14735   -14954 
  -15352   -15653   -15723   -15704   -15739   -15828   -15831   -15522 
  -14944   -14484   -14452   -14865   -15475   -15912   -15889   -15408 
