Origin Time       2024/06/23 22:54:00
Lat.              35.645
Long.             140.060
Depth. (km)       72
Mag.              4.1
Station Code      KNGH19
Station Lat.      35.4173
Station Long.     139.0436
Station Height(m) 330
Record Time       2024/06/23 22:54:41
Sampling Freq(Hz) 100Hz
Duration Time(s)  120
Dir.              4
Scale Factor      7845(gal)/8223790
Max. Acc. (gal)   0.956
Last Correction   2024/06/23 22:54:42
Memo.             
[...]
    -229     -232     -225     -228     -228     -224     -228     -226 
    -225     -230     -226     -226     -230     -229     -229     -228 
    -226     -230     -228     -225     -229     -229     -228     -229 
    -229     -230     -226     -224     -230     -229     -228     -232 
    -228     -228     -230     -225     -228     -232     -224     -225 
    -230     -228     -228     -229     -229     -229     -225     -226 
    -230     -225     -228     -230     -225     -226     -226     -224 
    -229     -226     -224     -230     -226     -226     -232     -226 
    -229     -232     -225     -226     -229     -228     -232     -229 
    -226     -229     -225     -226     -233     -226     -225     -230 
    -229     -228     -228     -228     -228     -225     -226     -232 
    -225     -224     -228     -225     -228     -232     -226     -228 
    -228     -224     -229     -228     -226     -230     -226     -226 
    -229     -222     -225     -228     -224     -229     -228     -224 
    -229     -226     -222     -228     -225     -222     -225     -224 
    -226     -228     -225     -230     -228     -221     -226     -229 
    -226     -228     -225     -225     -228     -224     -226     -228 
    -226     -229     -226     -225     -228     -225     -225     -228 
    -225     -226     -229     -224     -226     -226     -225     -230 
    -228     -222     -229     -229     -228     -229     -225     -226 
    -228     -225     -230     -230     -225     -228     -228     -222 
    -228     -228     -225     -229     -226     -225     -228     -224 
    -226     -228     -225     -230     -228     -222     -228     -226 
    -224     -229     -226     -226     -230     -229     -228     -226 
    -225     -228     -226     -225     -229     -225     -226     -230 
    -224     -225     -228     -220     -220     -230     -238     -237 
    -221     -207     -216     -228     -241     -257     -237     -199 
    -198     -237     -279     -276     -226     -174     -147     -189 
    -297     -336     -263     -176     -129     -126     -170     -225 
    -238     -224     -256     -345     -415     -360     -203     -101 
    -102     -155     -248     -295     -224     -179     -260     -307 
    -225     -117      -43      -18     -137     -400     -614     -573 
    -352     -210     -156      -59      -10      -72     -125     -195 
    -400     -527     -314      -16       87       75      -62     -365 
    -634     -631     -386     -220     -260     -248      -54       78 
     -79     -318     -365     -384     -402     -189        2      -85 
    -139     -112     -284     -471     -395     -220     -149     -172 
    -163      -90      -74     -144     -164     -144     -298     -488 
    -461     -334     -226     -157      -82        9     -151     -437 
    -481     -454     -407     -122      120       16     -171     -228 
    -298     -344     -202      -85     -228     -349     -244     -166 
    -229     -301     -303     -244     -226     -313     -384     -290 
    -178     -244     -257     -109      -54      -74      -48      -89 
    -175     -190     -237     -348     -325     -252     -329     -392 
    -295     -180     -267     -449     -387     -222     -210     -205 
    -187     -186      -94       20       70       33     -106     -288 
    -442     -433     -290     -214     -198     -244     -387     -465 
    -418     -336     -268     -247     -282     -240       -6      248 
     218     -118     -437     -535     -410     -143       31       33 
    -105     -407     -626     -560     -371     -217     -137     -137 
    -166     -191     -238     -313     -324     -222     -116      -94 
    -113      -94     -102     -213     -272     -209     -222     -314 
    -325     -274     -213     -193     -243     -276     -298     -351 
    -418     -391     -143       59      -27     -148     -218     -290 
    -253     -247     -309     -248     -141      -68      -52     -166 
    -313     -477     -579     -463     -305     -147       12      -48 
    -129      -76     -157     -333     -392     -287     -116      -28 
      16      -35     -234     -400     -538     -598     -429     -248 
    -189     -164     -198     -241     -163      -71     -122     -191 
    -140      -52      -56     -183     -272     -275     -318     -321 
    -248     -255     -322     -341     -311     -306     -360     -384 
    -332     -199       24      167       25     -241     -386     -402 
    -297     -118     -110     -272     -337     -287     -226     -164 
    -170     -278     -364     -357     -341     -286     -132       -9 
     -39     -179     -268     -236     -179     -153     -155     -166 
    -190     -279     -396     -442     -373     -229      -99      -47 
    -129     -260     -264     -187     -168     -236     -314     -310 
    -301     -298     -197      -86     -129     -294     -441     -423 
    -203       -4       -1      -86     -211     -315     -287     -241 
    -232     -198     -240     -349     -380     -307     -201     -164 
    -230     -260     -217     -183     -126     -105     -180     -202 
    -166     -180     -195     -240     -302     -245     -198     -251 
    -243     -220     -280     -345     -348     -217     -102     -221 
    -328     -253     -178     -143     -120     -135     -162     -220 
    -318     -345     -276     -216     -199     -186     -201     -263 
    -333     -387     -376     -278     -148      -56      -64     -113 
    -101     -118     -193     -226     -278     -342     -313     -233 
    -180     -226     -326     -363     -375     -325     -209     -194 
    -213     -147     -120     -175     -190     -170     -210     -275 
    -270     -191      -98      -90     -238     -422     -421     -299 
    -261     -251     -249     -274     -170      -45     -141     -299 
    -283     -174     -114     -112     -164     -214     -222     -256 
    -274     -264     -279     -290     -315     -310     -218     -156 
    -172     -233     -311     -319     -265     -213     -162     -135 
    -168     -218     -238     -240     -202     -160     -193     -233 
    -268     -314     -271     -213     -237     -209     -153     -221 
    -283     -228     -170     -149     -179     -305     -445     -425 
    -198        5        2     -122     -278     -360     -330     -299 
    -267     -220     -195     -159     -109     -135     -237     -295 
    -264     -255     -319     -371     -290     -108       -5      -85 
    -288     -465     -448     -261      -94      -43      -81     -190 
    -306     -319     -274     -255     -220     -214     -249     -206 
    -163     -187     -205     -271     -338     -314     -201      -10 
      13     -211     -375     -396     -333     -217     -176     -184 
    -206     -268     -267     -249     -284     -282     -272     -220 
     -85      -17      -85     -238     -334     -297     -261     -256 
    -225     -240     -249     -145      -20      -37     -237     -486 
    -548     -392     -209      -36       45     -106     -309     -386 
    -380     -290     -261     -328     -267     -139      -51       17 
     -62     -249     -367     -411     -345     -210     -159     -160 
    -195     -237     -191     -187     -282     -255     -143     -159 
    -265     -353     -371     -291     -226     -228     -191     -144 
    -174     -224     -229     -237     -249     -199     -170     -216 
    -218     -198     -233     -256     -276     -330     -313     -180 
     -81     -130     -234     -275     -268     -252     -217     -225 
    -263     -189      -98     -136     -191     -297     -430     -398 
    -282     -176      -90     -132     -206     -240     -326     -384 
    -342     -232     -155     -198     -184     -101     -135     -174 
    -166     -237     -307     -299     -234     -136     -118     -206 
    -284     -311     -283     -193     -110     -176     -368     -444 
    -353     -220      -75      -27     -164     -315     -314     -257 
    -255     -251     -184     -118     -114     -163     -230     -311 
    -396     -399     -275     -175     -209     -191      -66     -112 
    -257     -228     -166     -261     -400     -373     -137       48 
     -43     -278     -422     -444     -363     -216     -112      -90 
    -152     -282     -355     -290     -157     -102     -225     -433 
    -454     -233      -32       32        6     -162     -392     -476 
    -359     -141        1      -49     -201     -338     -461     -465 
    -279      -94      -43     -106     -255     -356     -318     -243 
    -201     -167     -159     -160     -159     -217     -295     -310 
    -287     -253     -190     -135     -128     -125     -153     -276 
    -365     -322     -240     -209     -257     -315     -297     -244 
    -210     -178     -147     -136     -182     -278     -336     -317 
    -282     -267     -261     -220      -93       25      -31     -171 
    -236     -307     -410     -469     -426     -238     -118     -171 
    -221     -249     -247     -148      -60     -108     -255     -329 
    -292     -278     -253     -189     -143     -105     -148     -291 
    -368     -375     -384     -355     -272     -105       74        4 
    -265     -384     -291     -179     -121     -116     -175     -220 
    -228     -294     -340     -287     -225     -194     -232     -324 
    -294     -182     -207     -298     -294     -268     -249     -163 
     -85     -145     -280     -309     -237     -147      -28      -17 
    -241     -492     -496     -287     -126     -162     -275     -321 
    -276     -190     -116      -64     -114     -288     -344     -233 
    -157     -163     -232     -275     -244     -282     -344     -307 
    -255     -220     -202     -211     -213     -198     -124      -52 
    -130     -279     -356     -353     -243      -95      -78     -167 
    -257     -298     -286     -278     -256     -214     -278     -383 
    -322     -129      -10      -83     -260     -361     -355     -306 
    -268     -264     -252     -211     -148      -74      -85     -184 
    -286     -357     -345     -229     -133     -102      -93     -135 
    -259     -405     -442     -303     -109        8      -20     -270 
    -534     -452     -156      -49     -147     -270     -351     -352 
    -241      -70       -9     -175     -400     -454     -314     -137 
     -71     -144     -290     -313     -167     -116     -205     -298 
    -376     -368     -306     -252      -87       -2     -216     -364 
    -240     -116      -82      -99     -182     -260     -356     -449 
    -417     -329     -237     -101      -27      -62     -167     -326 
    -398     -299     -243     -290     -271     -226     -222     -175 
    -151     -206     -237     -220     -157      -86     -117     -240 
    -345     -344     -247     -202     -287     -379     -330     -139 
       5      -82     -284     -364     -325     -240     -120     -116 
    -252     -248     -102      -87     -180     -317     -517     -565 
    -365     -159      -79      -87     -171     -252     -214     -139 
    -145     -176     -186     -206     -228     -237     -253     -274 
    -261     -233     -241     -294     -361     -345     -229     -166 
    -145      -76     -118     -290     -372     -352     -303     -205 
    -156     -191     -168     -128     -160     -182     -217     -332 
    -386     -292     -156      -86     -128     -224     -249     -214 
    -197     -228     -310     -394     -379     -222      -78     -135 
    -237     -259     -290     -238     -126     -145     -272     -351 
    -251     -102     -102     -202     -349     -453     -387     -230 
    -117     -112     -184     -230     -203     -183     -198     -186 
    -230     -292     -210     -174     -221     -199     -255     -279 
    -202     -265     -286     -202     -272     -313     -224     -182 
    -151     -153     -248     -307     -288     -280     -282     -197 
    -121     -194     -251     -240     -216      -78      -54     -257 
    -365     -342     -265     -170     -224     -288     -207     -156 
    -183     -236     -290     -274     -257     -297     -265     -172 
    -159     -214     -216     -159     -162     -225     -302     -382 
    -348     -207     -152     -182     -167     -132     -148     -209 
    -244     -237     -256     -297     -283     -221     -210     -218 
    -179     -178     -211     -249     -314     -336     -341     -337 
    -213      -66      -41     -126     -213     -268     -373     -465 
    -418     -256      -64       -5      -85     -126     -160     -252 
    -292     -245     -211     -259     -337     -384     -395     -352 
    -256     -132      -24      -51     -199     -280     -244     -190 
    -149     -110     -122     -247     -369     -365     -290     -179 
     -59      -94     -259     -345     -342     -322     -319     -356 
    -311     -210     -175      -89       67      106      -18     -240 
    -429     -503     -562     -562     -321       10      108      -35 
    -149     -197     -367     -541     -523     -409     -234       14 
     197      260      232       17     -415     -796     -889     -746 
    -417      -54       86       64      -18     -253     -507     -492 
    -268     -105      -49      -72     -110      -22       -6     -279 
    -581     -676     -553     -221      148      255       87     -122 
    -356     -751    -1100     -909     -157      554      773      518 
     101     -172     -394     -689     -853     -857     -791     -502 
      -8      355      279     -124     -348     -159      147      230 
       8     -297     -504     -675     -706     -476     -175       -8 
     -36     -179     -228     -133     -168     -476     -675     -480 
    -152      -10      -43       33      184       -1     -403     -585 
    -567     -506     -418     -314     -157       55      140       37 
     -97     -271     -456     -556     -560     -249      307      546 
     278     -236     -700     -837     -638     -406     -367     -445 
    -390      -67      302      283     -143     -464     -409     -211 
     -86      -76     -172     -314     -419     -329      -81      -13 
    -162     -337     -499     -460     -203     -155     -348     -306 
      22      172      -59     -387     -425     -225     -201     -360 
    -382     -276     -297     -427     -387     -178      -33      -32 
     -99     -128     -160     -226     -210     -197     -248     -252 
    -164       44      190       25     -329     -604     -661     -615 
    -583     -446     -195       14       83      -12     -203     -390 
    -433     -345     -229      -47      -13     -305     -468     -278 
    -117     -147     -287     -390     -279      -97       -2       66 
     -18     -318     -511     -349       16      261      213     -130 
    -604     -797     -550     -317     -391     -442     -268     -172 
    -191      -17      132     -120     -519     -649     -465     -166 
     124      283      147     -147     -351     -395     -311     -270 
    -272     -175     -168     -364     -534     -618     -619     -402 
     -71       71       95      179      166      -49     -314     -460 
    -410     -349     -398     -295      -81      -54     -217     -426 
    -526     -483     -380     -180       40       94       14     -108 
    -278     -457     -496     -306      -43       78       44      -44 
    -160     -292     -403     -502     -531     -410     -248     -183 
    -189     -206     -155      -28      -22     -164     -280     -387 
    -476     -418     -263     -103       45      139       83     -209 
    -600     -750     -556     -251     -106     -124     -139      -99 
     -66     -160     -407     -560     -422     -101      147      113 
    -117     -337     -494     -483     -295     -149     -120     -182 
    -283     -263     -148      -87     -109     -172     -228     -302 
    -379     -407     -426     -363     -194      -83      -59      -93 
    -155     -197     -291     -394     -399     -364     -221       63 
     174      -17     -210     -209     -172     -261     -376     -349 
    -201     -113     -182     -361     -550     -583     -359      -41 
      89      -21     -174     -256     -245     -164     -195     -356 
    -409     -301     -195     -159     -184     -284     -414     -469 
    -368     -205     -139      -97      -83     -203     -221      -54 
      17      -55     -170     -302     -390     -411     -387     -247 
     -72     -210     -558     -584     -352     -232     -130      -43 
    -106     -194     -268     -283     -117      -32     -211     -356 
    -292     -125        1      -27     -133     -202     -280     -345 
    -348     -346     -319     -268     -202      -76       -2      -44 
    -114     -184     -264     -367     -460     -452     -382     -367 
    -348     -149       83      112       10     -163     -360     -461 
    -522     -494     -379     -311     -216      -70       10      -40 
    -214     -346     -355     -333     -334     -288     -145      -89 
    -143     -135     -112      -83      -86     -255     -373     -341 
    -317     -233     -151     -233     -406     -540     -433      -89 
     126       47     -174     -328     -301     -214     -166     -102 
    -117     -284     -399     -326     -214     -238     -367     -406 
    -271     -133     -108     -162     -292     -398     -388     -360 
    -288     -137      -47      -13       48      120      179      130 
     -66     -310     -576     -776     -777     -616     -315       -5 
      49      -66     -151     -247     -344     -361     -318     -275 
    -238     -184     -112      -52     -117     -240     -238     -201 
    -198     -174     -167     -174     -221     -351     -449     -453 
    -345     -120        5      -62     -114     -112     -137     -166 
    -233     -341     -425     -452     -376     -295     -282     -237 
    -199     -189     -133      -87      -95     -141     -213     -280 
    -352     -398     -365     -321     -264      -72      129      128 
     -28     -224     -351     -363     -417     -533     -544     -436 
    -342     -310     -263     -195     -152      -64       45       41 
     -39     -112     -157     -187     -356     -618     -615     -319 
     -44       56       52       18      -90     -283     -415     -469 
    -515     -515     -436     -241       32      132      -18     -220 
    -351     -338     -187      -25       56      -48     -329     -556 
    -612     -488     -249     -117      -79      -21     -108     -287 
    -256      -40       54     -160     -473     -546     -407     -213 
     -41      -37     -153     -226     -272     -255     -233     -340 
    -434     -407     -351     -263     -121       10       60      -25 
    -195     -297     -283     -221     -213     -353     -511     -449 
    -256     -133      -71      -51     -121     -243     -326     -378 
    -421     -423     -376     -268      -89       56       79       44 
     -31     -186     -336     -376     -321     -247     -209     -255 
    -348     -348     -236     -120      -78     -180     -382     -502 
    -454     -288     -129      -67      -82     -167     -280     -302 
