Origin Time       2024/06/23 22:54:00
Lat.              35.645
Long.             140.060
Depth. (km)       72
Mag.              4.1
Station Code      KNGH21
Station Lat.      35.4628
Station Long.     139.2146
Station Height(m) 455
Record Time       2024/06/23 22:54:51
Sampling Freq(Hz) 100Hz
Duration Time(s)  120
Dir.              4
Scale Factor      7845(gal)/8223790
Max. Acc. (gal)   0.959
Last Correction   2024/06/23 22:54:51
Memo.             
[...]
    1409     1408     1402     1404     1406     1406     1404     1405 
    1409     1406     1402     1408     1410     1405     1404     1404 
    1404     1409     1409     1402     1405     1409     1402     1404 
    1409     1404     1402     1406     1405     1406     1409     1408 
    1406     1406     1402     1406     1408     1402     1405     1406 
    1404     1406     1408     1404     1404     1406     1409     1408 
    1406     1406     1406     1408     1406     1408     1409     1405 
    1406     1406     1404     1406     1410     1410     1405     1404 
    1406     1405     1402     1404     1408     1409     1408     1406 
    1404     1405     1409     1408     1404     1404     1404     1408 
    1406     1401     1408     1410     1405     1404     1404     1402 
    1406     1410     1408     1401     1406     1412     1405     1404 
    1406     1406     1408     1406     1405     1408     1409     1405 
    1402     1406     1408     1405     1406     1408     1406     1406 
    1406     1405     1408     1406     1406     1409     1408     1404 
    1404     1406     1408     1405     1404     1408     1409     1406 
    1404     1405     1408     1406     1406     1408     1405     1405 
    1410     1406     1404     1406     1406     1406     1405     1404 
    1406     1408     1404     1404     1406     1408     1410     1409 
    1406     1408     1408     1406     1408     1406     1405     1405 
    1406     1405     1405     1406     1406     1402     1404     1410 
    1406     1402     1409     1409     1405     1404     1406     1409 
    1408     1406     1409     1409     1405     1402     1409     1409 
    1399     1402     1412     1408     1405     1409     1406     1401 
    1404     1406     1406     1408     1410     1408     1404     1404 
    1406     1408     1405     1406     1406     1404     1405     1406 
    1404     1404     1405     1408     1408     1402     1405     1409 
    1406     1404     1405     1406     1405     1406     1410     1406 
    1405     1410     1408     1402     1406     1408     1405     1408 
    1409     1408     1408     1409     1408     1405     1404     1406 
    1406     1404     1408     1414     1408     1401     1406     1410 
    1408     1404     1405     1408     1408     1408     1405     1405 
    1408     1405     1405     1409     1408     1404     1405     1406 
    1406     1405     1408     1410     1404     1404     1408     1404 
    1402     1406     1405     1404     1406     1406     1405     1408 
    1406     1402     1406     1409     1402     1402     1410     1412 
    1406     1404     1404     1404     1402     1401     1398     1387 
    1377     1391     1424     1448     1470     1482     1441     1378 
    1347     1341     1351     1370     1366     1367     1421     1480 
    1525     1543     1426     1267     1277     1378     1455     1522 
    1501     1405     1325     1283     1355     1431     1348     1325 
    1466     1571     1594     1507     1320     1231     1286     1359 
    1413     1467     1499     1512     1451     1287     1229     1333 
    1343     1350     1583     1744     1614     1470     1375     1159 
    1030     1192     1323     1345     1603     1819     1553     1258 
    1310     1348     1325     1529     1738     1699     1541     1339 
    1123     1055     1165     1301     1406     1475     1441     1300 
    1251     1495     1753     1640     1453     1516     1493     1271 
    1220     1364     1412     1224     1034     1254     1732     1806 
    1387     1097     1242     1452     1467     1540     1695     1568 
    1277     1194     1237     1366     1583     1661     1620     1566 
    1347     1011      940     1251     1532     1583     1630     1621 
    1406     1215     1252     1429     1564     1540     1437     1458 
    1532     1393     1134     1043     1096     1192     1359     1583 
    1676     1493     1350     1512     1665     1611     1534     1533 
    1499     1310     1008      897     1150     1480     1695     1845 
    1777     1445     1188     1189     1317     1444     1559     1648 
    1636     1460     1186     1007     1058     1258     1395     1453 
    1509     1443     1269     1208     1259     1360     1541     1669 
    1683     1691     1637     1462     1312     1285     1347     1410 
    1410     1395     1332     1138      993     1086     1335     1588 
    1750     1767     1675     1555     1451     1453     1572     1602 
    1391     1080      927     1028     1219     1345     1449     1524 
    1482     1439     1564     1741     1796     1690     1513     1439 
    1377     1148      982     1043     1190     1343     1412     1439 
    1576     1624     1455     1341     1348     1345     1328     1327 
    1351     1402     1487     1556     1521     1444     1424     1402 
    1351     1344     1329     1275     1314     1486     1652     1680 
    1529     1320     1274     1387     1416     1358     1394     1412 
    1302     1274     1398     1452     1381     1364     1435     1489 
    1495     1432     1345     1387     1502     1539     1501     1421 
    1324     1262     1264     1296     1321     1395     1464     1476 
    1528     1582     1571     1566     1517     1370     1229     1155 
    1140     1223     1339     1379     1398     1479     1582     1641 
    1626     1532     1371     1243     1227     1229     1225     1258 
    1271     1331     1489     1576     1572     1575     1517     1426 
    1406     1401     1397     1420     1440     1444     1398     1351 
    1383     1409     1386     1394     1416     1441     1468     1402 
    1290     1258     1308     1437     1591     1613     1480     1360 
    1358     1416     1447     1424     1362     1304     1287     1263 
    1177     1135     1251     1422     1555     1664     1678     1568 
    1475     1487     1528     1503     1429     1389     1377     1287 
    1140     1086     1196     1410     1576     1622     1625     1572 
    1464     1412     1395     1336     1294     1343     1468     1567 
    1512     1356     1267     1264     1283     1344     1437     1440 
    1296     1159     1250     1539     1722     1638     1506     1518 
    1516     1366     1277     1331     1351     1345     1401     1470 
    1506     1451     1320     1260     1329     1445     1497     1444 
    1366     1321     1335     1406     1494     1588     1611     1441 
    1224     1150     1161     1205     1312     1445     1582     1665 
    1559     1341     1294     1416     1485     1433     1383     1460 
    1552     1506     1378     1208     1107     1259     1518     1637 
    1613     1451     1255     1274     1385     1331     1290     1432 
    1560     1561     1524     1462     1336     1282     1395     1475 
    1404     1328     1320     1336     1350     1371     1435     1485 
    1463     1466     1509     1460     1362     1356     1424     1433 
    1374     1372     1424     1363     1263     1358     1510     1452 
    1344     1398     1499     1540     1509     1412     1318     1227 
    1188     1377     1626     1598     1416     1354     1367     1375 
    1435     1514     1502     1391     1266     1194     1263     1447 
    1540     1516     1470     1366     1306     1453     1618     1571 
    1416     1279     1139     1138     1386     1630     1607     1375 
    1183     1193     1374     1622     1699     1507     1329     1314 
    1335     1360     1371     1293     1235     1371     1566     1588 
    1536     1541     1499     1367     1302     1362     1425     1448 
    1459     1435     1363     1252     1140     1178     1426     1656 
    1665     1548     1405     1259     1283     1455     1475     1385 
    1387     1418     1366     1281     1302     1444     1539     1474 
    1324     1247     1291     1413     1560     1636     1591     1505 
    1464     1470     1466     1391     1198     1007     1051     1281 
    1472     1574     1541     1443     1475     1567     1567     1537 
    1451     1320     1318     1368     1314     1318     1440     1422 
    1250     1186     1264     1382     1499     1560     1633     1760 
    1715     1447     1225     1156     1161     1223     1302     1314 
    1323     1410     1513     1590     1634     1579     1529     1545 
    1468     1337     1306     1274     1194     1246     1436     1572 
    1536     1375     1264     1274     1321     1352     1356     1354 
    1424     1586     1719     1728     1576     1306     1078     1031 
    1156     1327     1395     1447     1568     1566     1455     1475 
    1530     1451     1296     1165     1170     1320     1475     1574 
    1617     1601     1521     1395     1350     1360     1227     1070 
    1136     1331     1518     1649     1610     1509     1567     1607 
    1460     1345     1300     1193     1189     1371     1501     1509 
    1507     1443     1354     1389     1445     1433     1424     1406 
    1383     1379     1360     1395     1502     1493     1297     1148 
    1240     1401     1458     1485     1553     1602     1564     1516 
    1524     1463     1244     1042     1061     1270     1520     1701 
    1715     1575     1420     1366     1375     1333     1260     1248 
    1260     1247     1279     1394     1483     1482     1502     1576 
    1617     1601     1487     1274     1104     1121     1317     1497 
    1543     1503     1425     1379     1443     1499     1431     1350 
    1387     1458     1478     1479     1398     1237     1204     1335 
    1447     1478     1440     1370     1393     1498     1555     1526 
    1399     1246     1212     1275     1336     1371     1375     1399 
    1489     1605     1678     1598     1418     1362     1385     1277 
    1148     1219     1368     1406     1451     1609     1686     1601 
    1503     1425     1332     1228     1144     1200     1314     1314 
    1364     1547     1605     1468     1325     1294     1368     1475 
    1516     1468     1393     1339     1360     1443     1466     1447 
    1466     1447     1387     1360     1356     1370     1377     1377 
    1433     1502     1526     1522     1485     1381     1233     1147 
    1152     1212     1336     1491     1553     1528     1530     1553 
    1549     1518     1410     1248     1192     1279     1414     1551 
    1651     1632     1480     1312     1271     1324     1302     1255 
    1324     1451     1537     1567     1502     1343     1188     1196 
    1399     1555     1522     1460     1449     1391     1266     1202 
    1254     1314     1387     1520     1618     1595     1468     1366 
    1398     1445     1413     1390     1394     1348     1310     1386 
    1505     1560     1551     1497     1420     1306     1182     1162 
    1254     1370     1453     1471     1470     1466     1445     1471 
    1517     1489     1398     1277     1216     1291     1414     1539 
    1629     1584     1445     1328     1296     1309     1229     1171 
    1355     1626     1730     1647     1463     1331     1294     1240 
    1200     1281     1448     1607     1690     1626     1414     1228 
    1201     1223     1244     1320     1356     1341     1394     1499 
    1606     1702     1722     1590     1341     1144     1113     1206 
    1279     1304     1399     1487     1463     1467     1559     1613 
    1544     1394     1294     1302     1387     1467     1459     1440 
    1420     1316     1283     1362     1375     1375     1409     1424 
    1472     1516     1495     1480     1468     1425     1377     1354 
    1354     1321     1256     1232     1258     1378     1564     1617 
    1509     1462     1486     1402     1283     1316     1408     1444 
    1487     1520     1440     1309     1273     1355     1452     1414 
    1304     1308     1343     1313     1324     1390     1483     1605 
    1726     1802     1680     1362     1144     1193     1336     1321 
    1171     1124     1212     1368     1553     1641     1587     1480 
    1433     1471     1474     1383     1287     1309     1459     1536 
    1439     1360     1381     1351     1271     1291     1412     1551 
    1617     1553     1441     1379     1332     1281     1287     1318 
    1310     1333     1428     1537     1602     1566     1448     1297 
    1183     1206     1325     1424     1470     1487     1497     1516 
    1548     1547     1445     1313     1255     1279     1354     1372 
    1335     1374     1436     1474     1533     1518     1432     1325 
    1185     1188     1370     1507     1547     1497     1378     1366 
    1472     1498     1422     1383     1393     1398     1378     1343 
    1340     1395     1474     1525     1555     1593     1563     1374 
    1146     1069     1169     1368     1537     1607     1649     1599 
    1410     1279     1277     1266     1308     1480     1621     1625 
    1497     1294     1202     1208     1159     1152     1251     1372 
    1487     1597     1687     1714     1660     1624     1636     1555 
    1321     1151     1201     1291     1302     1339     1336     1236 
    1231     1312     1333     1372     1443     1429     1389     1422 
    1532     1669     1703     1601     1526     1506     1390     1223 
    1117     1032     1013     1115     1250     1398     1532     1653 
    1821     1863     1669     1514     1571     1684     1703     1574 
    1283      912      604      492      568      768     1146     1642 
    2058     2343     2412     2192     1917     1706     1399     1090 
     955      873      846     1026     1296     1468     1529     1491 
    1418     1421     1505     1598     1625     1555     1471     1479 
    1485     1313     1007      803      873     1185     1549     1794 
    1896     1884     1728     1459     1235     1135     1116     1225 
    1475     1641     1575     1433     1389     1402     1344     1161 
     939      884     1082     1414     1699     1775     1744     1895 
    2157     2191     1887     1417      967      585      425      656 
    1047     1331     1529     1652     1769     1946     1973     1755 
    1525     1483     1593     1652     1506     1127      715      589 
     680      745      901     1208     1480     1674     1799     1787 
    1765     1944     2182     2227     2031     1620     1189      976 
     896      801      716      754      980     1267     1540     1803 
    1915     1883     1906     1933     1775     1429      978      571 
     464      706     1084     1449     1725     1871     1894     1738 
    1501     1429     1458     1395     1363     1451     1512     1453 
    1379     1440     1572     1487     1200     1069     1146     1205 
    1266     1421     1576     1663     1745     1782     1621     1323 
    1162     1291     1572     1672     1483     1286     1242     1202 
    1159     1173     1182     1273     1516     1709     1723     1636 
    1522     1503     1593     1543     1309     1105      978      946 
    1008     1081     1262     1556     1695     1661     1655     1696 
    1732     1726     1655     1544     1422     1250     1020      872 
     892     1032     1301     1644     1829     1792     1669     1534 
    1464     1467     1435     1406     1449     1428     1290     1224 
    1277     1281     1215     1161     1116     1139     1283     1453 
    1567     1667     1733     1737     1772     1792     1655     1405 
    1228     1201     1202     1183     1252     1386     1491     1536 
    1468     1298     1152     1094     1082     1132     1300     1520 
    1676     1723     1695     1669     1607     1375     1084      977 
    1104     1350     1545     1621     1637     1633     1617     1579 
    1478     1331     1175     1046      972      965     1151     1599 
    1996     2069     1931     1702     1490     1416     1328     1123 
     957      932     1094     1386     1564     1539     1483     1490 
    1498     1507     1534     1486     1389     1359     1350     1340 
    1398     1459     1414     1258     1088     1067     1250     1480 
    1598     1593     1564     1595     1657     1653     1536     1371 
    1305     1356     1385     1313     1240     1263     1277     1242 
    1309     1431     1485     1547     1578     1471     1345     1337 
    1401     1431     1424     1467     1571     1629     1533     1363 
    1306     1344     1341     1304     1282     1281     1317     1367 
    1323     1227     1225     1273     1350     1547     1767     1813 
    1665     1462     1350     1327     1316     1313     1351     1443 
    1487     1395     1314     1294     1231     1250     1398     1436 
    1367     1405     1506     1576     1653     1664     1551     1406 
    1290     1258     1347     1394     1256     1154     1308     1551 
    1645     1566     1364     1132     1046     1200     1493     1719 
    1718     1539     1381     1262     1144     1121     1189     1277 
    1366     1453     1578     1675     1625     1503     1459     1541 
    1621     1490     1279     1186     1090     1069     1308     1582 
    1705     1721     1611     1459     1381     1328     1328     1439 
    1563     1607     1580     1482     1300     1080      928      977 
    1239     1509     1601     1582     1548     1495     1466     1431 
    1305     1246     1377     1530     1566     1555     1587     1649 
    1638     1498     1371     1316     1202     1084     1055     1067 
    1205     1459     1572     1547     1578     1607     1479     1301 
    1286     1364     1354     1316     1389     1498     1520     1530 
    1603     1641     1559     1379     1205     1132     1098     1071 
    1158     1321     1439     1526     1599     1634     1645     1576 
    1404     1262     1255     1316     1393     1512     1597     1576 
    1536     1509     1416     1220      988      864      959     1236 
    1487     1598     1741     1922     1875     1629     1382     1183 
    1067     1043     1134     1355     1576     1672     1642     1552 
    1464     1358     1244     1224     1318     1444     1551     1660 
    1709     1576     1358     1216     1128     1098     1152     1205 
    1298     1479     1564     1545     1582     1628     1626     1588 
    1516     1506     1557     1528     1417     1344     1336     1320 
    1254     1166     1105     1102     1194     1377     1544     1564 
    1444     1337     1375     1507     1605     1610     1549     1429 
    1246     1134     1198     1300     1293     1258     1324     1507 
    1699     1750     1668     1556     1386     1156     1059     1161 
    1296     1437     1622     1692     1629     1609     1617     1498 
    1229      999     1011     1246     1522     1678     1656     1560 
    1498     1453     1406     1339     1258     1231     1289     1390 
    1471     1475     1397     1297     1228     1182     1186     1290 
    1429     1494     1521     1621     1701     1629     1517     1452 
    1408     1420     1472     1506     1522     1451     1246     1051 
    1004     1101     1290     1503     1659     1711     1725     1734 
    1660     1490     1281     1073      962      985     1044     1123 
    1273     1479     1698     1868     1922     1840     1649     1421 
    1225     1124     1151     1236     1277     1313     1422     1528 
