Origin Time       2024/06/23 22:54:00
Lat.              35.645
Long.             140.060
Depth. (km)       72
Mag.              4.1
Station Code      KNGH21
Station Lat.      35.4628
Station Long.     139.2146
Station Height(m) 455
Record Time       2024/06/23 22:54:51
Sampling Freq(Hz) 100Hz
Duration Time(s)  120
Dir.              6
Scale Factor      7845(gal)/8223790
Max. Acc. (gal)   1.262
Last Correction   2024/06/23 22:54:51
Memo.             
     681      680      680      679      680      679      679      680 
     680      679      681      683      680      676      677      680 
     677      679      681      681      681      680      679      680 
     679      677      679      683      683      680      677      681 
     683      679      681      685      681      677      679      680 
     680      677      680      683      681      680      679      680 
     681      677      679      679      677      680      681      679 
     680      681      677      677      680      679      679      683 
     680      677      680      680      677      679      681      681 
     680      679      679      679      684      684      677      679 
     683      681      679      676      679      685      684      677 
     677      680      680      677      677      681      684      681 
     679      679      681      683      680      679      681      680 
     680      683      681      679      680      684      681      675 
     679      683      681      681      680      679      683      685 
     683      679      675      679      685      683      679      680 
     680      679      679      679      681      683      683      681 
     677      677      681      679      680      681      679      677 
     683      683      677      679      683      683      679      679 
     683      684      681      679      677      681      684      680 
     676      677      683      683      679      680      683      679 
     675      679      683      681      683      683      677      675 
     681      685      681      677      679      680      677      679 
     681      684      683      681      680      676      676      681 
     683      683      681      677      677      680      681      680 
     683      683      680      681      680      679      680      681 
     681      683      679      675      680      684      679      677 
     684      683      677      680      681      677      679      680 
     681      684      680      676      679      681      681      680 
     681      681      681      679      679      679      680      681 
     681      681      680      676      679      681      680      679 
     679      677      680      684      681      679      677      679 
     681      680      679      681      684      680      676      677 
     681      680      681      685      683      677      681      681 
     675      677      681      679      680      684      680      680 
     685      683      677      681      684      679      679      683 
     681      676      677      683      681      680      683      681 
     677      680      683      677      676      680      683      683 
     680      679      680      679      676      681      685      683 
     679      679      677      679      681      680      679      683 
     685      679      676      683      684      679      677      683 
     684      680      677      680      681      679      677      681 
     683      681      680      680      680      680      681      680 
     679      681      677      677      684      684      679      680 
     681      679      677      679      681      681      680      679 
     677      680      685      685      677      676      683      681 
     677      676      679      685      685      679      679      681 
     681      679      679      681      683      683      685      685 
     679      675      680      683      677      676      684      685 
     677      677      679      679      683      681      680      683 
     680      679      680      679      677      676      668      654 
     643      641      645      646      646      658      704      780 
     846      881      847      707      533      422      407      540 
     741      832      819      710      534      517      596      589 
     673      814      904     1075     1094      819      506      198 
      74      306      562      774     1005     1005      849      666 
     410      252      349      726     1279     1675     1615     1065 
     372     -148     -399     -153      494     1165     1669     1625 
     900      110     -263     -160      303      972     1661     1904 
    1466      681      -97     -460     -153      388      781     1144 
    1399     1281      823      297       52      224      519      751 
    1065     1343     1297      945      400       -5      153      614 
     886      957      789      454      367      568      784      916 
     905      819      764      650      641      923     1166     1030 
     661      444      449      326       48      108      588     1063 
    1229      977      544      295      211      203      413      961 
    1597     1757     1273      429     -375     -639     -251      477 
    1341     2004     1992     1267      297     -407     -415      292 
    1024     1359     1483     1329      872      278     -197      -66 
     521      978     1183     1028      642      471      449      395 
     459      639      861     1078     1058      758      481      444 
     615      746      718      707      729      606      400      345 
     530      822      997      970      874      765      579      471 
     548      710      927     1032      846      550      373      387 
     573      765      843      807      708      668      662      600 
     580      642      657      603      602      706      791      739 
     575      449      553      814     1017     1092      930      584 
     355      314      402      650      891      955      945      847 
     639      491      395      414      645      801      843      896 
     758      550      504      504      581      718      751      808 
     918      907      788      631      525      525      548      629 
     793      847      700      518      463      587      787      839 
     733      677      706      702      681      712      741      730 
     702      627      598      672      689      683      815      936 
     822      567      395      337      409      625      823      909 
     885      747      622      611      657      691      753      835 
     804      704      581      390      368      540      675      827 
     938      866      706      540      475      610      819      934 
     885      700      488      395      508      756      949      916 
     707      490      352      402      599      766      928      994 
     835      638      488      406      533      754      919      963 
     801      558      373      322      530      835     1009     1039 
     897      642      450      409      525      719      872      931 
     886      756      557      346      280      450      770     1053 
    1066      777      472      384      453      603      801      895 
     872      819      706      589      534      553      702      859 
     909      897      811      638      465      386      422      622 
     934     1073      939      662      349      236      388      564 
     731      922      957      839      738      646      560      534 
     502      525      734      915      853      666      534      567 
     723      781      684      571      525      568      749     1011 
    1086      885      602      371      306      452      699      924 
     984      870      700      521      409      383      457      691 
     931     1036     1024      796      454      346      454      583 
     738      892      957      908      675      353      309      580 
     868      989      865      630      471      353      432      731 
     895      885      877      838      815      760      484      264 
     440      716      853      932      904      753      599      490 
     394      387      611      912     1097     1166      999      621 
     305      163      278      626      936     1088     1078      812 
     386       90      125      461      868     1167     1240      961 
     494      203      245      496      745      885      908      845 
     816      803      672      500      387      426      707      982 
    1031      909      658      413      356      529      820      989 
     954      784      545      417      436      515      733      946 
     892      731      661      638      673      683      538      409 
     529      826     1078     1081      800      437      190      253 
     648     1039     1171      981      603      355      342      480 
     650      792      911      881      693      513      436      579 
     873     1062      970      614      322      328      508      746 
     950      954      774      572      438      461      653      792 
     811      869      878      799      724      584      479      552 
     641      676      746      815      792      658      449      356 
     562      881     1013      896      641      450      464      681 
     915      911      699      468      341      445      697      822 
     774      677      604      649      745      720      718      873 
     949      849      724      550      355      376      554      702 
     855      909      770      641      572      537      637      743 
     710      702      818      870      765      607      456      419 
     583      718      727      756      727      618      607      650 
     669      741      818      885      916      751      449      221 
     234      572     1004     1173     1008      710      517      481 
     511      573      680      762      777      815      858      816 
     730      556      330      333      558      799      980      993 
     839      637      436      410      589      735      818      859 
     827      846      780      469      264      359      612      981 
    1182      950      592      372      283      500      928     1080 
     946      843      702      449      287      280      438      784 
    1048     1078     1058      893      515      236      182      387 
     826     1135     1086      826      531      306      249      438 
     820     1156     1151      823      527      425      444      490 
     488      546      768      989      996      756      438      329 
     498      724      884      934      854      738      642      592 
     608      631      672      727      722      712      747      746 
     679      581      540      600      688      747      706      568 
     537      716      927      930      710      494      452      572 
     707      680      579      619      729      828      945      922 
     747      581      495      568      679      638      619      714 
     773      778      723      573      486      565      710      797 
     764      685      714      777      737      642      575      483 
     454      657      864      849      784      697      583      589 
     635      697      869      903      761      742      800      792 
     735      587      434      433      552      670      684      595 
     553      672      818      845      804      716      598      519 
     479      533      692      832      908      859      708      587 
     502      494      599      722      808      799      688      621 
     656      750      877      908      803      706      626      515 
     445      442      496      641      826      936      882      612 
     373      461      714      928     1046      923      646      427 
     303      315      471      733     1082     1291     1138      778 
     459      282      270      400      675      935     1009      962 
     832      685      630      561      459      411      418      531 
     745      935     1075     1093      881      553      294      184 
     313      622      897     1065     1017      738      473      333 
     379      630      827      959     1048      907      685      498 
     314      340      545      831     1139     1144      845      527 
     311      348      549      699      866      978      889      699 
     449      248      286      530      851     1074     1024      783 
     579      545      594      602      634      679      727      864 
     900      774      706      637      518      475      504      619 
     793      876      801      637      519      486      538      670 
     764      822      843      751      623      571      650      753 
     751      769      769      692      660      568      480      635 
     837      965     1039      845      502      284      206      367 
     715      974     1031      935      805      626      384      290 
     419      704     1008     1077      893      654      510      445 
     403      540      793      858      789      741      676      622 
     583      561      687      854      822      703      642      633 
     718      769      662      527      496      637      819      823 
     714      648      691      772      739      623      479      400 
     548      807      950      897      727      639      643      618 
     572      535      604      784      842      747      664      622 
     631      689      699      692      788      873      820      699 
     529      387      423      556      672      810      891      842 
     768      697      623      580      557      587      702      811 
     805      687      553      492      621      895     1016      877 
     627      378      309      449      643      928     1129      996 
     758      534      369      454      573      626      822      962 
     911      799      560      313      336      546      762      954 
    1009      814      557      449      450      565      745      830 
     832      832      769      575      395      415      575      778 
     945      924      820      737      540      417      554      681 
     696      749      797      822      804      615      452      560 
     716      780      816      778      703      642      549      472 
     519      662      805      927      924      716      519      452 
     452      626      903      970      884      774      619      611 
     739      722      627      548      446      473      664      807 
     849      835      695      504      417      357      433      778 
    1100     1182     1007      607      359      427      595      776 
     884      834      703      500      283      233      423      861 
    1383     1516     1143      658      283      139      267      414 
     561      849     1001      892      750      564      382      464 
     723      919      984      885      661      484      499      630 
     751      801      754      738      765      648      465      433 
     561      738      877      907      774      589      498      461 
     449      508      626      800     1008     1080      911      650 
     472      395      473      730      946      984      845      575 
     394      360      330      417      696     1013     1204     1107 
     768      367      114      286      756     1132     1289     1094 
     567      153       94      291      650      992     1232     1367 
    1236      769      160     -155      144      764     1198     1228 
     861      405      170      133      276      666     1059     1146 
    1011      723      348      214      398      764     1140     1156 
     846      571      437      510      714      823      869      832 
     646      506      541      635      751      864      816      658 
     510      325      265      417      625      938     1229     1135 
     787      538      421      418      534      720      981     1127 
     922      523      214      121      325      761     1112     1162 
    1048      909      716      553      518      588      727      787 
     598      278       95      153      495     1040     1306     1092 
     764      469      259      337      603      891     1167     1205 
     923      602      376      287      446      693      841      942 
     918      648      338      229      399      842     1229     1201 
     904      665      546      488      418      326      395      710 
     936      845      645      530      587      770      889      965 
    1046      940      622      298      178      353      733     1117 
    1251     1017      633      334      174      213      453      751 
    1069     1274     1147      793      457      294      341      456 
     611      865     1085     1125      932      587      321      240 
     330      577      893     1089     1013      693      284       74 
     274      676      989     1112      967      700      550      499 
     510      561      627      789      992     1065      969      751 
     510      298      213      450      865     1113     1089      773 
     360      283      530      768      885      828      679      645 
     656      569      487      479      503      562      676      770 
     815      862      812      648      576      645      731      750 
     645      525      577      739      820      785      679      633 
     784      934      855      706      672      704      735      726 
     668      672      714      662      626      629      577      598 
     689      643      471      398      564      805      896      869 
     847      845      785      618      473      496      634      788 
     895      866      688      499      407      445      679      916 
     922      831      715      521      365      328      484      807 
    1048     1100      980      726      481      294      203      376 
     731     1024     1196     1151      850      483      171       36 
     240      652     1036     1240     1127      784      487      400 
     475      592      727      814      830      869      831      633 
     472      460      577      778      888      807      657      500 
     391      480      683      812      828      706      579      569 
     560      602      750      908     1102     1163      908      585 
     307      172      448      853     1005     1000      857      612 
     449      353      387      619      810      830      820      824 
     764      645      552      568      739      931      908      706 
     514      400      457      684      847      854      818      738 
     585      461      457      591      751      730      592      550 
     564      631      811      920      916      870      714      514 
     403      422      567      761      903      905      772      630 
     565      523      432      434      657      881      949      932 
     884      816      673      440      348      494      684      816 
     874      822      749      762      787      766      753      730 
     672      621      571      513      499      583      723      781 
     724      635      554      529      561      583      693      908 
     993      942      853      704      569      453      378      459 
     621      760      810      733      643      606      650      778 
     823      796      791      753      689      600      523      602 
     747      810      811      722      564      511      573      672 
     807      845      747      664      581      542      676      814 
