Origin Time       2024/06/23 22:54:00
Lat.              35.645
Long.             140.060
Depth. (km)       72
Mag.              4.1
Station Code      KNGH21
Station Lat.      35.4628
Station Long.     139.2146
Station Height(m) 245
Record Time       2024/06/23 22:54:51
Sampling Freq(Hz) 100Hz
Duration Time(s)  120
Dir.              2
Scale Factor      2942(gal)/8224139
Max. Acc. (gal)   0.195
Last Correction   2024/06/23 22:54:51
Memo.             
[...]
   93000    92997    92994    92997    92998    92996    92998    93001 
   92997    92996    92998    92998    92998    92998    92994    92997 
   93001    92997    92997    93000    92997    92996    93000    93001 
   93000    93000    93001    92998    92996    92997    92997    92996 
   92997    93000    92998    93000    93000    92997    92997    92997 
   92998    93001    93000    92994    92993    92994    92994    92997 
   93000    92997    92996    92998    92998    92997    92998    93000 
   92996    92994    92996    92996    92998    93000    92997    92996 
   92998    93000    92997    92997    92997    92996    92996    92996 
   92998    93000    92997    92994    92997    92996    92996    92998 
   92998    92996    92998    93000    92998    92998    92998    92996 
   92996    92996    92997    92997    92998    93002    93000    92997 
   92998    93001    93000    93000    92998    92998    92998    92998 
   92997    92997    92997    92998    92997    92996    92996    92996 
   92994    92994    92996    92996    92994    92993    92994    92997 
   92998    92997    92998    93001    92998    92996    92996    92997 
   92998    93000    92998    92997    92998    92998    92998    93000 
   92998    92997    92998    92998    92996    92996    92998    93000 
   92997    92996    92997    92997    92997    92997    92998    93001 
   93004    93005    93006    93009    93012    93015    93013    93010 
   92998    92971    92947    92942    92950    92970    93009    93032 
   93025    93015    93008    93012    93033    93056    93070    93066 
   93032    93009    92998    92931    92875    92889    92905    92928 
   92981    93021    93056    93078    93064    93056    93035    93017 
   93074    93135    93131    93101    93020    92880    92766    92732 
   92758    92808    92912    93059    93154    93135    93027    92935 
   92969    93081    93193    93285    93264    93128    93010    92890 
   92716    92674    92831    92948    92946    92951    92966    92942 
   92934    92990    93071    93129    93187    93218    93158    93075 
   93062    93055    92955    92803    92777    92902    92971    92917 
   92867    92867    92944    93070    93073    93025    93150    93266 
   93143    92970    92970    93035    93005    92954    92905    92754 
   92646    92740    92870    92948    93046    93100    93113    93172 
   93178    93069    93021    93123    93190    93098    92974    92934 
   92924    92862    92778    92800    92911    92994    93029    93036 
   93025    93009    93017    93097    93160    93150    93163    93137 
   93012    92939    92946    92958    92975    92981    92951    92917 
   92942    92947    92844    92816    92962    93067    93046    93036 
   93090    93144    93140    93071    93001    93005    93025    92963 
   92898    92904    92902    92878    92908    92977    93015    93025 
   93063    93108    93056    92979    93019    93091    93100    93066 
   93051    93070    93024    92921    92889    92920    92940    92946 
   92951    92969    92961    92901    92880    92951    93066    93137 
   93096    93032    93079    93164    93129    93005    92924    92884 
   92857    92847    92820    92799    92826    92882    92884    92816 
   92873    93109    93245    93198    93182    93228    93191    93091 
   93035    93000    92989    93023    92974    92882    92944    93042 
   92983    92921    92979    93035    93032    93071    93124    93047 
   92925    92952    93033    93021    92963    92958    93020    93046 
   93004    92959    92908    92921    93020    93051    93028    93059 
   93060    92985    92961    93019    93008    92921    92921    92992 
   92992    92935    92927    93002    93101    93104    93006    92947 
   92966    92969    92985    93062    93081    93028    93033    93031 
   92898    92843    93000    93086    92981    92944    93024    93012 
   92948    92992    93063    93054    93062    93131    93109    93000 
   92993    93050    92997    92907    92911    92952    92979    92996 
   92974    92943    92928    92898    92909    92963    92982    93017 
   93075    93042    92952    92943    93017    93085    93067    92978 
   92911    92894    92916    92962    92978    92962    92958    92985 
   93059    93100    93024    92969    93033    93086    93055    92986 
   92924    92928    92993    93031    93025    93012    92986    92992 
   93046    93052    93006    93000    93008    92969    92948    92969 
   92959    92954    92998    93009    92940    92907    92958    92994 
   93015    93071    93096    93073    93047    93012    92996    93013 
   93044    93083    93090    93052    93008    92966    92952    92958 
   92944    92934    92943    92947    92942    92942    92989    93063 
   93058    93015    93028    93054    93070    93056    92965    92892 
   92902    92904    92890    92948    93039    93070    93054    93029 
   93027    93032    93027    93056    93104    93093    93032    92974 
   92943    92915    92892    92927    92951    92946    93009    93032 
   92948    92943    93047    93127    93133    93125    93133    93077 
   92974    92919    92894    92898    92917    92904    92913    92985 
   93017    92967    92940    92966    92988    93035    93097    93070 
   92974    92925    92935    92944    93000    93096    93096    93046 
   93071    93091    92992    92873    92908    93015    93031    93008 
   92982    92928    92931    92978    92969    92944    92977    93015 
   93005    93016    93063    93048    93004    93040    93096    93060 
   92981    92974    93025    93028    92977    92954    92967    92952 
   92936    92989    93029    93025    93063    93058    92970    92958 
   92977    92969    93032    93046    92923    92866    92942    93012 
   92994    92955    92996    93058    93047    93020    93027    93051 
   93066    93010    92947    92974    93009    92996    92993    92998 
   92996    93008    93001    92974    93025    93093    93032    92938 
   92938    92982    92998    92970    92948    92973    92988    92969 
   92956    92955    92988    93069    93091    93012    92993    93054 
   93042    92965    92921    92936    93006    93067    93042    92993 
   93027    93031    92912    92869    93000    93102    93101    93087 
   93043    92920    92823    92847    92907    92966    93075    93106 
   93001    92923    92909    92942    93054    93125    93090    93059 
   93021    92916    92858    92936    93050    93112    93081    92961 
   92905    92951    92985    93027    93083    93089    93070    93075 
   93074    93032    92982    92971    92974    92969    92966    92940 
   92882    92873    92938    92983    93000    93016    93016    93036 
   93033    92993    93078    93222    93174    93021    92971    92970 
   92940    92929    92975    93028    93019    92969    92961    92977 
   92925    92890    92986    93086    93086    93033    92979    92985 
   93016    92985    92956    92979    92997    93008    92994    92925 
   92890    92927    92944    92958    93042    93101    93062    93042 
   93043    92973    92950    93035    93048    92982    92971    93004 
   92992    92951    92975    93017    93000    93001    93037    93021 
   92994    93021    93032    92959    92898    92983    93100    93064 
   92969    92970    93012    92986    92948    92985    93039    93044 
   93015    92997    93017    93028    92990    92967    92981    92996 
   92978    92905    92892    92966    92973    92961    93043    93078 
   92993    92948    92978    92988    93010    93056    93069    93063 
   93042    92963    92901    92936    93004    93047    93093    93055 
   92938    92943    93010    92943    92892    92952    93016    93060 
   93074    93047    93013    92988    92989    93016    93039    93033 
   92985    92936    92965    93040    93042    92988    92971    92988 
   93025    93064    93063    93004    92927    92938    93000    92965 
   92932    93015    93064    93012    92985    93017    93036    93027 
   92992    92956    92948    92943    92962    93021    93046    93029 
   93019    93004    92979    92978    93019    93032    93019    93050 
   93009    92874    92855    92939    92950    92923    92988    93074 
   93085    93093    93124    93091    93005    92961    92969    92963 
   92913    92862    92871    92944    93004    92992    92947    92952 
   93019    93093    93143    93158    93100    93021    93027    93042 
   92966    92901    92909    92924    92947    92978    92985    93006 
   93028    92992    92983    93035    93023    92992    93044    93091 
   93070    93031    93004    92983    92988    93020    93013    92951 
   92931    92958    92965    92942    92928    92954    93001    93054 
   93079    93083    93108    93083    93000    92983    93032    93044 
   93029    93000    92944    92897    92873    92873    92878    92859 
   92892    93016    93090    93027    92971    93044    93127    93120 
   93104    93102    93069    92993    92904    92854    92880    92921 
   92925    92970    93037    93015    92983    93037    93074    93070 
   93112    93148    93097    93012    92951    92913    92886    92874 
   92912    92989    93039    93036    92993    92942    92944    93006 
   93067    93062    93012    93033    93098    93058    92951    92928 
   92996    93015    92955    92947    92971    92938    92943    93044 
   93105    93047    92969    92932    92902    92925    93010    93052 
   93035    93021    93009    92971    92929    92934    92975    93016 
   93056    93066    93037    93046    93050    92981    92921    92920 
   92956    93028    93079    93044    92966    92959    93013    93019 
   92983    92988    93025    93021    92940    92880    92928    93008 
   93085    93152    93121    93035    92978    92917    92888    92917 
   92952    92993    93033    93046    93005    92948    92986    93024 
   92962    92961    93031    93039    93010    92994    93036    93105 
   93070    92982    92934    92884    92902    93027    93094    93064 
   93060    93077    93046    92955    92884    92956    93066    93010 
   92915    92929    92959    92965    92988    93017    93046    93051 
   93025    92997    92981    92975    92988    93031    93064    93040 
   93000    92966    92921    92925    92993    93021    93028    93064 
   93050    92992    92961    92940    92931    92913    92917    92981 
   93004    92979    93006    93069    93073    93013    93012    93064 
   93037    92988    92997    92996    92993    93031    93017    92952 
   92919    92939    92983    93001    92998    93029    93066    93062 
   93017    93001    93042    93036    92985    92986    92970    92939 
   93017    93105    93060    92988    92983    92992    92975    92967 
   92961    92935    92911    92929    92989    93039    93052    93044 
   93032    93010    92959    92947    93009    93021    92962    92948 
   92979    92985    93002    93054    93079    93071    93043    92985 
   92979    93020    93010    92985    92969    92947    92969    92992 
   92969    92990    93074    93097    93019    92948    92955    92970 
   92952    92963    93001    93027    93037    92982    92916    92954 
   93016    93035    93047    93031    93031    93069    93035    92975 
   92978    92971    92958    92981    93012    93040    93032    93001 
   93008    93000    92969    92977    92989    92978    92996    92996 
   92948    92909    92909    92986    93069    93036    93004    93067 
   93097    93078    93081    93062    93035    93056    93028    92911 
   92838    92851    92889    92939    93009    93062    93046    93033 
   93102    93106    93021    93020    93036    92989    92992    93005 
   92956    92928    92940    92917    92880    92888    92900    92901 
   92954    92998    92971    93010    93117    93128    93164    93326 
   93376    93226    93019    92834    92749    92773    92834    92912 
   92929    92820    92767    92882    92959    92973    93074    93162 
   93193    93270    93293    93235    93197    93069    92817    92622 
   92527    92503    92619    92897    93190    93328    93286    93171 
   93125    93163    93150    93073    93069    93113    93052    92929 
   92889    92861    92735    92664    92755    92839    92866    92973 
   93114    93151    93105    93090    93108    93052    92931    92904 
   92989    93005    92997    93128    93275    93276    93136    92970 
   92896    92869    92820    92809    92844    92904    93020    93164 
   93205    93101    92992    92965    92978    93012    93064    93089 
   93066    93051    93060    93023    92942    92859    92774    92718 
   92695    92719    92842    93008    93152    93255    93249    93151 
   93009    92831    92740    92804    92932    93105    93231    93221 
   93243    93317    93266    93127    93058    93063    93021    92898 
   92823    92875    92985    93006    92882    92799    92882    92951 
   92942    93008    93086    93085    93086    93055    92969    92908 
   92897    92978    93069    92998    92862    92831    92893    92981 
   93029    93097    93241    93302    93171    92952    92778    92747 
   92799    92792    92826    92990    93075    93024    93028    93056 
   93002    92969    92992    93054    93179    93268    93271    93271 
   93267    93178    92998    92800    92642    92570    92572    92591 
   92646    92782    92955    93135    93291    93359    93393    93476 
   93542    93464    93224    92988    92840    92707    92627    92615 
   92599    92691    92921    93075    93083    93001    92874    92846 
   92944    93059    93170    93255    93274    93235    93137    93025 
   92943    92857    92824    92912    92969    92894    92858    92908 
   92948    92988    93015    93016    93077    93175    93166    93075 
   93048    93040    92970    92965    93058    93069    92978    92938 
   92993    93050    93017    92967    92988    93002    92986    93015 
   93046    92996    92919    92908    92908    92893    92979    93066 
   92979    92905    92986    93047    93050    93060    92998    92900 
   92900    92943    92993    93104    93170    93112    93047    93024 
   92983    92952    92955    92947    92929    92936    92942    92935 
   92919    92913    92925    92908    92870    92905    93028    93154 
   93204    93177    93110    93071    93112    93140    93091    93060 
   93031    92948    92885    92870    92877    92920    92971    93008 
   93024    93000    92975    92958    92923    92944    93017    93048 
   93054    93064    93044    92974    92913    92893    92904    92950 
   92969    92913    92940    93083    93135    93097    93066    92985 
   92946    93050    93108    92998    92890    92954    93075    93031 
   92912    92920    92967    92946    92939    92959    92962    92990 
   93039    93031    92959    92884    92867    92947    93064    93083 
   93062    93132    93170    93075    92981    93001    93086    93078 
   92961    92894    92911    92955    93001    93006    93029    93098 
   93073    92962    92938    92993    92975    92919    92962    92998 
   92915    92885    92965    92981    92959    92977    92973    92992 
   93063    93069    93009    92977    92951    92962    93059    93143 
   93123    93063    93086    93132    93043    92929    92925    92907 
   92862    92885    92911    92909    92928    92966    92975    92969 
   92993    92969    92892    92911    93002    93073    93143    93182 
   93159    93140    93141    93077    92907    92835    92979    93117 
   93096    92994    92901    92861    92846    92863    92942    92992 
   92982    92992    93006    93009    93046    93052    92982    92958 
   92989    92962    92928    92961    93012    93050    93063    93048 
   93060    93067    93002    92983    93046    93029    92954    92931 
   92927    92963    93079    93156    93143    93140    93141    93097 
   93070    93043    92921    92815    92835    92865    92843    92898 
   93051    93162    93194    93195    93162    93097    93021    92959 
   92943    92932    92893    92880    92896    92908    92923    92931 
   92955    93010    93013    92996    93051    93085    93042    93037 
   93075    93042    92927    92812    92754    92778    92892    93043 
   93154    93186    93145    93089    93044    92988    92951    92965 
   92962    92917    92912    92981    93044    93037    93012    93013 
   93010    92965    92939    93037    93148    93137    93132    93163 
   93097    92973    92875    92817    92827    92840    92804    92801 
   92889    92998    93071    93081    93012    92919    92889    92951 
   93029    93006    92943    93001    93086    93070    93062    93064 
   93024    93010    93019    93024    93055    93091    93135    93144 
   93062    92943    92877    92905    92998    93079    93144    93190 
   93167    93096    93004    92912    92924    93002    92950    92869 
   92929    92955    92919    93002    93063    92967    92854    92842 
   92913    92977    92992    93017    93032    93004    92997    92998 
   92921    92870    92962    93075    93078    93005    92936    92929 
   92988    93037    93060    93082    93102    93131    93135    93074 
   93031    92998    92867    92716    92681    92755    92859    92929 
   92985    93055    93105    93129    93144    93132    93079    92997 
   92927    92907    92924    92955    92985    92977    92956    93004 
   93069    93069    93078    93136    93143    93078    93036    93040 
   93033    92982    92928    92901    92916    92966    92940    92874 
   92956    93078    93064    93031    93050    93064    93085    93069 
   92985    92934    92924    92863    92855    92958    92993    92982 
   93035    93094    93197    93299    93244    93125    93039    92932 
   92857    92858    92844    92800    92780    92794    92867    93005 
   93136    93199    93177    93105    93055    93008    92958    92948 
   92943    92923    92947    93004    93009    92969    92989    93059 
   93064    92994    92920    92904    92954    93021    93073    93089 
   93052    93010    93002    92994    92986    93009    93019    92963 
   92878    92840    92861    92882    92920    93000    93047    93031 
   93010    93023    93067    93102    93100    93105    93123    93075 
   92962    92873    92859    92871    92890    92971    93059    93071 
   93071    93118    93131    93050    92961    92956    92986    93009 
   93047    93073    93051    92983    92938    92981    93044    93027 
   92924    92836    92858    92925    92956    92993    93006    92950 
   92950    93040    93098    93090    93067    93066    93059    93015 
   92989    93032    93123    93198    93182    93064    92929    92847 
   92835    92874    92928    92958    92946    92917    92929    92985 
   93015    92996    92975    92981    93009    93055    93060    92983 
   92927    92978    93056    93067    93052    93027    92954    92901 
   92928    92946    92944    93013    93082    93056    93029    93054 
   93044    93008    93002    92973    92905    92858    92835    92904 
   93083    93189    93139    93064    93054    93050    93016    93010 
   93000    92923    92889    92917    92923    92952    93051    93150 
   93177    93097    92967    92878    92863    92900    92936    92969 
