Origin Time       2024/06/23 22:54:00
Lat.              35.645
Long.             140.060
Depth. (km)       72
Mag.              4.1
Station Code      KNGH19
Station Lat.      35.4173
Station Long.     139.0436
Station Height(m) 230
Record Time       2024/06/23 22:54:41
Sampling Freq(Hz) 100Hz
Duration Time(s)  120
Dir.              2
Scale Factor      2942(gal)/8224139
Max. Acc. (gal)   0.132
Last Correction   2024/06/23 22:54:42
Memo.             
[...]
   40601    40599    40601    40602    40593    40591    40594    40594 
   40598    40599    40593    40595    40601    40601    40599    40595 
   40594    40601    40605    40598    40594    40601    40603    40602 
   40597    40595    40601    40593    40594    40606    40593    40591 
   40601    40595    40597    40601    40595    40598    40595    40601 
   40602    40594    40594    40594    40594    40595    40597    40602 
   40603    40602    40599    40586    40586    40595    40595    40603 
   40602    40593    40597    40605    40601    40594    40601    40598 
   40589    40599    40603    40591    40593    40595    40594    40597 
   40597    40597    40595    40587    40593    40603    40599    40594 
   40595    40595    40594    40594    40594    40591    40598    40610 
   40601    40589    40599    40599    40593    40599    40599    40597 
   40599    40595    40595    40598    40597    40598    40599    40597 
   40599    40601    40593    40591    40599    40601    40593    40589 
   40595    40601    40601    40601    40597    40594    40601    40599 
   40597    40603    40601    40595    40597    40595    40594    40597 
   40601    40603    40599    40601    40610    40612    40610    40603 
   40589    40591    40609    40626    40622    40595    40572    40562 
   40554    40564    40582    40582    40587    40617    40644    40651 
   40641    40624    40587    40555    40589    40643    40622    40579 
   40589    40613    40608    40576    40549    40524    40518    40595 
   40718    40764    40711    40636    40571    40529    40548    40586 
   40554    40525    40594    40660    40598    40481    40443    40470 
   40514    40593    40701    40729    40651    40628    40645    40536 
   40444    40528    40579    40537    40590    40709    40717    40603 
   40540    40595    40653    40667    40698    40706    40656    40626 
   40601    40506    40401    40402    40481    40495    40447    40506 
   40645    40637    40563    40653    40774    40745    40651    40594 
   40636    40697    40612    40512    40564    40613    40571    40541 
   40521    40483    40525    40670    40764    40718    40643    40645 
   40666    40591    40548    40609    40549    40439    40494    40552 
   40537    40599    40662    40549    40401    40498    40725    40745 
   40666    40679    40639    40570    40632    40676    40629    40581 
   40518    40535    40637    40609    40510    40567    40644    40537 
   40439    40560    40695    40713    40775    40815    40678    40521 
   40529    40593    40591    40629    40713    40652    40513    40494 
   40487    40417    40473    40632    40659    40616    40690    40751 
   40699    40633    40520    40455    40587    40671    40620    40656 
   40675    40532    40398    40427    40558    40666    40659    40540 
   40498    40614    40672    40648    40678    40668    40616    40647 
   40640    40521    40554    40724    40718    40593    40547    40514 
   40458    40471    40547    40609    40633    40645    40633    40568 
   40541    40602    40621    40620    40686    40668    40562    40572 
   40645    40610    40548    40554    40563    40563    40605    40641 
   40616    40609    40648    40622    40547    40552    40616    40657 
   40684    40655    40536    40451    40527    40659    40655    40560 
   40558    40602    40575    40513    40498    40571    40666    40629 
   40548    40595    40662    40626    40579    40594    40617    40620 
   40644    40629    40585    40614    40636    40601    40587    40590 
   40626    40684    40671    40609    40579    40544    40486    40491 
   40548    40571    40598    40625    40586    40537    40567    40676 
   40729    40652    40583    40587    40622    40695    40740    40664 
   40541    40498    40520    40533    40554    40571    40568    40583 
   40602    40587    40582    40605    40617    40630    40668    40679 
   40651    40602    40559    40572    40601    40586    40560    40545 
   40564    40613    40617    40571    40539    40525    40514    40527 
   40594    40645    40632    40630    40632    40593    40605    40666 
   40675    40668    40664    40597    40510    40505    40609    40709 
   40687    40603    40514    40435    40473    40594    40649    40637 
   40616    40602    40556    40506    40558    40625    40609    40609 
   40624    40586    40559    40552    40555    40622    40656    40585 
   40544    40566    40597    40640    40640    40606    40628    40664 
   40651    40613    40585    40606    40672    40695    40651    40608 
   40598    40554    40501    40549    40617    40621    40633    40641 
   40575    40479    40485    40621    40705    40640    40572    40581 
   40583    40589    40609    40559    40489    40529    40632    40675 
   40625    40575    40599    40628    40598    40559    40555    40598 
   40635    40618    40586    40595    40645    40664    40608    40537 
   40543    40624    40680    40629    40558    40570    40591    40589 
   40613    40617    40568    40545    40616    40707    40686    40614 
   40586    40540    40539    40609    40609    40574    40568    40540 
   40563    40645    40622    40525    40529    40602    40645    40682 
   40671    40586    40566    40613    40576    40521    40563    40610 
   40616    40626    40601    40533    40527    40570    40574    40571 
   40581    40563    40591    40655    40610    40527    40568    40648 
   40655    40659    40660    40621    40597    40551    40514    40599 
   40689    40647    40583    40575    40555    40551    40593    40603 
   40603    40626    40593    40545    40575    40617    40594    40559 
   40593    40657    40641    40572    40574    40633    40626    40560 
   40524    40506    40528    40605    40643    40647    40647    40597 
   40559    40585    40603    40620    40659    40643    40599    40643 
   40670    40564    40500    40575    40626    40609    40616    40610 
   40560    40549    40578    40582    40591    40640    40653    40626 
   40595    40559    40568    40591    40564    40558    40594    40608 
   40608    40609    40589    40549    40545    40605    40651    40628 
   40601    40602    40616    40630    40618    40539    40464    40517 
   40614    40624    40632    40706    40703    40587    40521    40532 
   40532    40572    40660    40667    40610    40614    40630    40578 
   40543    40572    40581    40571    40609    40663    40651    40567 
   40547    40605    40571    40516    40582    40641    40633    40617 
   40562    40533    40589    40628    40639    40644    40595    40559 
   40603    40613    40574    40575    40597    40643    40663    40567 
   40500    40559    40603    40610    40647    40649    40603    40586 
   40589    40575    40556    40568    40635    40663    40594    40536 
   40554    40622    40680    40648    40567    40554    40606    40635 
   40641    40633    40586    40564    40589    40570    40532    40564 
   40621    40630    40582    40532    40571    40637    40629    40608 
   40618    40632    40647    40614    40528    40508    40582    40630 
   40579    40539    40633    40740    40689    40572    40537    40563 
   40589    40603    40601    40572    40554    40568    40576    40581 
   40630    40691    40680    40614    40556    40520    40543    40603 
   40598    40599    40668    40668    40568    40494    40514    40593 
   40641    40625    40568    40549    40578    40582    40566    40581 
   40624    40641    40591    40563    40608    40641    40632    40612 
   40598    40579    40552    40558    40585    40585    40583    40609 
   40624    40632    40636    40613    40618    40630    40590    40605 
   40659    40640    40621    40624    40572    40537    40541    40558 
   40635    40682    40629    40563    40508    40490    40576    40667 
   40653    40605    40568    40518    40489    40527    40643    40738 
   40705    40633    40603    40575    40581    40613    40624    40629 
   40629    40632    40613    40554    40531    40549    40572    40620 
   40668    40676    40620    40525    40494    40552    40616    40620 
   40591    40571    40559    40562    40616    40672    40630    40572 
   40589    40585    40539    40548    40636    40672    40598    40541 
   40571    40630    40667    40674    40659    40610    40578    40571 
   40536    40528    40586    40641    40636    40575    40520    40535 
   40579    40597    40612    40643    40648    40591    40513    40489 
   40506    40535    40610    40697    40694    40606    40533    40541 
   40591    40629    40649    40659    40635    40567    40518    40536 
   40571    40594    40617    40644    40655    40648    40641    40644 
   40622    40599    40636    40639    40591    40617    40645    40587 
   40551    40571    40589    40599    40606    40597    40582    40568 
   40587    40645    40671    40612    40520    40521    40593    40585 
   40551    40608    40629    40556    40533    40567    40566    40594 
   40668    40697    40697    40645    40527    40540    40663    40639 
   40540    40554    40571    40528    40552    40657    40707    40655 
   40585    40571    40594    40597    40575    40575    40583    40554 
   40558    40616    40626    40603    40576    40522    40512    40586 
   40672    40671    40598    40567    40598    40616    40601    40614 
   40621    40578    40606    40702    40690    40616    40589    40564 
   40549    40582    40632    40664    40621    40525    40516    40572 
   40554    40517    40575    40664    40686    40595    40455    40431 
   40556    40702    40752    40667    40551    40556    40617    40624 
   40630    40633    40545    40470    40581    40734    40687    40564 
   40562    40590    40608    40647    40639    40612    40610    40567 
   40533    40583    40617    40597    40570    40545    40559    40581 
   40575    40622    40671    40626    40595    40606    40599    40618 
   40651    40625    40575    40536    40512    40564    40641    40612 
   40575    40620    40643    40632    40637    40617    40590    40572 
   40527    40520    40579    40568    40508    40544    40628    40655 
   40667    40693    40660    40566    40516    40572    40663    40693 
   40649    40587    40556    40552    40585    40624    40597    40574 
   40613    40628    40620    40625    40576    40516    40562    40622 
   40608    40612    40614    40555    40541    40591    40598    40593 
   40624    40626    40609    40632    40601    40532    40598    40711 
   40675    40532    40446    40505    40617    40637    40602    40608 
   40614    40587    40598    40629    40609    40613    40633    40575 
   40509    40512    40576    40651    40640    40582    40544    40509 
   40536    40639    40690    40647    40612    40644    40640    40559 
   40522    40536    40554    40617    40653    40587    40512    40521 
   40572    40595    40606    40620    40630    40668    40679    40621 
   40571    40564    40591    40622    40586    40532    40556    40640 
   40659    40578    40544    40574    40576    40591    40625    40626 
   40621    40621    40622    40597    40545    40537    40586    40625 
   40633    40625    40601    40576    40587    40605    40620    40671 
   40686    40616    40590    40625    40641    40663    40656    40582 
   40543    40575    40597    40599    40618    40625    40589    40559 
   40559    40579    40608    40579    40541    40595    40645    40629 
   40613    40599    40571    40545    40535    40563    40609    40602 
   40562    40589    40640    40610    40549    40521    40544    40618 
   40655    40621    40591    40571    40529    40522    40576    40608 
   40628    40663    40633    40583    40587    40598    40583    40548 
   40552    40599    40595    40593    40625    40621    40656    40702 
   40633    40589    40640    40632    40545    40495    40563    40671 
   40698    40662    40593    40551    40560    40547    40556    40644 
   40693    40670    40656    40649    40582    40486    40471    40562 
   40666    40668    40591    40558    40594    40608    40583    40593 
   40598    40522    40459    40513    40648    40721    40670    40594 
   40582    40603    40617    40612    40591    40548    40491    40489 
   40531    40560    40591    40622    40629    40612    40589    40624 
   40694    40670    40628    40686    40687    40581    40543    40549 
   40509    40516    40590    40652    40678    40640    40582    40612 
   40694    40680    40566    40514    40554    40572    40582    40608 
   40582    40556    40632    40676    40633    40682    40730    40609 
   40501    40468    40397    40414    40568    40671    40686    40668 
   40616    40603    40660    40659    40613    40626    40590    40468 
   40463    40547    40516    40406    40336    40355    40501    40686 
   40786    40852    40921    40884    40668    40432    40374    40409 
   40444    40525    40622    40691    40720    40729    40774    40797 
   40714    40626    40652    40695    40610    40433    40302    40277 
   40325    40390    40467    40590    40732    40813    40780    40663 
   40570    40599    40689    40649    40482    40459    40593    40609 
   40559    40613    40678    40734    40802    40790    40759    40741 
   40629    40516    40509    40504    40466    40466    40454    40425 
   40501    40691    40855    40806    40551    40373    40378    40436 
   40514    40622    40701    40691    40599    40531    40548    40524 
   40400    40371    40548    40814    40963    40869    40691    40648 
   40666    40641    40590    40491    40482    40624    40656    40568 
   40540    40516    40544    40679    40724    40602    40520    40547 
   40516    40485    40633    40765    40689    40543    40474    40535 
   40652    40641    40554    40560    40606    40659    40697    40618 
   40524    40514    40541    40626    40728    40718    40620    40545 
   40528    40516    40489    40466    40467    40504    40576    40701 
   40783    40736    40676    40643    40575    40531    40531    40579 
   40625    40612    40639    40656    40544    40532    40670    40671 
   40547    40522    40558    40505    40425    40451    40537    40603 
   40647    40675    40707    40701    40605    40555    40614    40624 
   40633    40751    40745    40556    40483    40593    40635    40528 
   40493    40641    40757    40722    40666    40651    40652    40644 
   40593    40537    40543    40571    40594    40632    40667    40616 
   40455    40313    40321    40451    40568    40609    40636    40694 
   40726    40643    40528    40555    40668    40738    40728    40662 
   40624    40589    40522    40540    40575    40502    40464    40540 
   40598    40636    40693    40668    40575    40537    40564    40576 
   40543    40570    40713    40801    40725    40601    40531    40516 
   40566    40636    40605    40497    40471    40585    40736    40763 
   40664    40614    40625    40566    40466    40441    40463    40474 
   40533    40626    40641    40636    40691    40706    40606    40501 
   40521    40605    40633    40625    40622    40625    40629    40651 
   40698    40707    40652    40622    40640    40614    40537    40518 
   40587    40625    40570    40478    40458    40560    40668    40676 
   40606    40528    40539    40598    40602    40582    40598    40633 
   40589    40495    40551    40689    40682    40574    40495    40482 
   40579    40730    40779    40699    40601    40551    40552    40558 
   40539    40548    40602    40618    40614    40659    40659    40591 
   40574    40586    40551    40493    40475    40518    40594    40637 
   40628    40610    40632    40695    40753    40728    40595    40470 
   40428    40473    40610    40724    40744    40737    40674    40560 
   40502    40487    40505    40574    40617    40621    40649    40643 
   40556    40518    40583    40639    40672    40695    40625    40517 
   40512    40606    40701    40690    40586    40554    40653    40687 
   40554    40446    40485    40591    40684    40676    40599    40581 
   40591    40587    40606    40602    40552    40508    40464    40478 
   40602    40701    40705    40693    40656    40558    40473    40474 
   40512    40543    40609    40698    40760    40778    40745    40684 
   40603    40514    40486    40514    40529    40558    40618    40662 
   40691    40686    40589    40506    40521    40532    40486    40441 
   40467    40559    40629    40655    40666    40679    40670    40651 
   40682    40694    40620    40570    40571    40540    40517    40506 
   40447    40443    40528    40586    40676    40767    40674    40566 
   40616    40660    40649    40644    40614    40620    40662    40636 
   40603    40640    40666    40616    40556    40548    40563    40558 
   40517    40489    40498    40504    40535    40606    40652    40675 
   40717    40749    40709    40593    40520    40548    40571    40551 
   40570    40616    40648    40684    40691    40644    40581    40514 
   40490    40517    40470    40405    40501    40640    40674    40678 
   40717    40756    40703    40574    40541    40602    40621    40625 
   40625    40536    40455    40517    40612    40632    40621    40591 
   40576    40606    40628    40645    40683    40717    40693    40602 
   40549    40564    40563    40597    40674    40679    40652    40671 
   40651    40544    40467    40471    40479    40467    40516    40595 
   40590    40545    40548    40594    40679    40748    40711    40621 
   40579    40585    40591    40587    40554    40491    40489    40590 
   40678    40670    40632    40606    40599    40608    40560    40490 
   40516    40594    40578    40458    40414    40544    40689    40686 
   40620    40641    40659    40578    40505    40495    40529    40590 
   40644    40710    40770    40751    40676    40617    40622    40651 
   40628    40582    40554    40552    40570    40585    40617    40667 
   40659    40594    40595    40678    40717    40680    40620    40560 
   40537    40533    40468    40441    40560    40695    40748    40729 
   40625    40516    40504    40493    40419    40396    40491    40626 
   40691    40671    40639    40603    40559    40558    40587    40597 
   40591    40632    40721    40743    40687    40671    40694    40678 
   40614    40554    40540    40539    40529    40549    40572    40543 
   40532    40591    40610    40558    40529    40509    40490    40544 
   40609    40628    40645    40616    40544    40524    40527    40533 
   40591    40626    40540    40462    40536    40657    40697    40730 
   40782    40763    40705    40683    40664    40602    40562    40609 
   40648    40624    40653    40674    40582    40527    40541    40520 
   40512    40551    40571    40591    40597    40558    40552    40571 
   40560    40585    40671    40738    40745    40694    40621    40578 
   40567    40535    40470    40463    40525    40562    40564    40559 
   40564    40636    40706    40703    40674    40603    40508    40512 
   40590    40591    40536    40558    40630    40662    40652    40636 
   40625    40613    40583    40559    40551    40531    40512    40536 
   40578    40609    40641    40660    40632    40586    40567    40567 
   40571    40601    40630    40625    40589    40531    40493    40514 
