Origin Time       2024/06/23 22:54:00
Lat.              35.645
Long.             140.060
Depth. (km)       72
Mag.              4.1
Station Code      KNGH11
Station Lat.      35.4040
Station Long.     139.3539
Station Height(m) 12
Record Time       2024/06/23 22:54:39
Sampling Freq(Hz) 100Hz
Duration Time(s)  120
Dir.              4
Scale Factor      3920(gal)/6170801
Max. Acc. (gal)   1.148
Last Correction   2024/06/23 22:54:24
Memo.             
[...]
    5243     5189     5182     5245     5299     5278     5213     5161 
    5180     5247     5280     5266     5217     5181     5227     5270 
    5251     5209     5172     5190     5243     5256     5233     5176 
    5133     5190     5276     5290     5248     5208     5215     5238 
    5235     5245     5260     5249     5257     5263     5225     5200 
    5217     5231     5207     5188     5217     5236     5216     5219 
    5250     5256     5221     5202     5254     5296     5237     5163 
    5182     5245     5259     5224     5214     5233     5212     5185 
    5219     5257     5257     5246     5224     5218     5251     5272 
    5244     5206     5220     5263     5259     5218     5192     5186 
    5190     5200     5239     5281     5263     5230     5236     5227 
    5213     5224     5219     5220     5238     5222     5211     5239 
    5265     5254     5217     5186     5183     5229     5270     5244 
    5226     5262     5266     5228     5216     5204     5184     5198 
    5234     5273     5285     5237     5197     5216     5240     5227 
    5208     5219     5247     5259     5248     5212     5208     5244 
    5245     5224     5215     5211     5222     5245     5262     5255 
    5231     5201     5213     5265     5257     5193     5183     5239 
    5271     5245     5200     5186     5225     5259     5231     5173 
    5176     5257     5284     5243     5241     5262     5236     5205 
    5228     5268     5272     5238     5186     5163     5212     5277 
    5275     5217     5142     5141     5249     5311     5263     5208 
    5203     5233     5235     5197     5217     5288     5296     5246 
    5199     5185     5230     5283     5268     5196     5159     5183 
    5214     5254     5283     5255     5204     5177     5198     5261 
    5302     5263     5200     5185     5212     5239     5237     5230 
    5222     5191     5189     5241     5277     5251     5205     5200 
    5217     5211     5206     5253     5284     5246     5225     5235 
    5232     5225     5232     5233     5216     5214     5227     5224 
    5207     5208     5225     5223     5218     5230     5251     5270 
    5256     5228     5226     5240     5243     5234     5225     5224 
    5232     5228     5219     5229     5236     5210     5192     5234 
    5262     5234     5219     5230     5253     5262     5235     5207 
    5219     5247     5243     5212     5192     5192     5199     5214 
    5230     5218     5220     5254     5263     5255     5267     5280 
    5262     5230     5220     5204     5183     5191     5204     5185 
    5173     5185     5201     5226     5244     5241     5258     5292 
    5317     5345     5327     5226     5162     5195     5257     5286 
    5237     5166     5149     5175     5219     5238     5219     5204 
    5226     5260     5263     5266     5278     5241     5180     5163 
    5179     5208     5244     5226     5176     5171     5203     5239 
    5257     5262     5261     5255     5274     5309     5314     5302 
    5286     5217     5137     5130     5140     5157     5214     5230 
    5166     5113     5161     5269     5347     5389     5384     5305 
    5224     5212     5244     5286     5288     5237     5228     5222 
    5093     4965     5017     5183     5299     5311     5221     5127 
    5210     5412     5459     5317     5213     5211     5198     5157 
    5176     5261     5277     5161     5042     5042     5156     5313 
    5428     5427     5366     5351     5345     5308     5299     5282 
    5193     5159     5258     5258     5047     4886     4956     5100 
    5127     5055     5019     5132     5320     5353     5229     5184 
    5256     5280     5254     5293     5349     5317     5197     5070 
    5082     5224     5282     5195     5133     5188     5296     5378 
    5411     5406     5346     5276     5294     5356     5358     5310 
    5269     5249     5221     5176     5137     5156     5276     5424 
    5435     5304     5227     5284     5352     5341     5318     5380 
    5466     5426     5238     5038     4978     5034     5052     5006 
    4996     5017     4997     4986     5043     5140     5233     5288 
    5292     5283     5342     5439     5464     5440     5414     5353 
    5281     5232     5176     5102     5053     5044     5051     5057 
    5075     5118     5162     5192     5209     5183     5155     5197 
    5310     5415     5424     5370     5333     5300     5269     5283 
    5323     5332     5290     5260     5287     5311     5304     5283 
    5272     5288     5273     5230     5222     5245     5274     5256 
    5158     5058     5023     5026     5043     5088     5159     5222 
    5218     5156     5153     5236     5289     5279     5302     5364 
    5379     5329     5259     5229     5246     5249     5227     5216 
    5204     5173     5166     5174     5120     5066     5098     5147 
    5155     5167     5205     5254     5313     5364     5384     5361 
    5327     5330     5330     5272     5195     5203     5289     5319 
    5255     5185     5178     5221     5248     5225     5195     5217 
    5255     5256     5246     5236     5199     5156     5167     5219 
    5214     5128     5044     5015     5027     5057     5094     5127 
    5176     5263     5332     5366     5415     5472     5498     5497 
    5479     5454     5418     5364     5305     5222     5115     5068 
    5104     5132     5136     5166     5206     5203     5166     5173 
    5222     5225     5195     5189     5224     5266     5256     5189 
    5120     5104     5133     5143     5126     5149     5229     5294 
    5334     5379     5417     5451     5480     5505     5537     5542 
    5461     5333     5271     5237     5130     5026     5041     5113 
    5129     5111     5130     5193     5269     5309     5280     5218 
    5173     5169     5197     5211     5182     5139     5104     5084 
    5093     5117     5141     5185     5270     5371     5444     5477 
    5479     5487     5508     5481     5413     5398     5409     5336 
    5204     5123     5100     5031     4912     4864     4927     5012 
    5058     5074     5079     5117     5197     5264     5300     5316 
    5342     5388     5432     5458     5456     5418     5365     5333 
    5323     5314     5295     5267     5247     5254     5273     5243 
    5181     5167     5174     5158     5116     5052     5023     5053 
    5067     5041     5034     5048     5039     5039     5082     5138 
    5194     5251     5286     5285     5283     5331     5397     5422 
    5416     5415     5401     5329     5278     5331     5396     5412 
    5422     5423     5377     5304     5277     5274     5222     5159 
    5142     5121     5070     5048     5043     5027     5013     5022 
    5088     5182     5271     5373     5465     5527     5580     5622 
    5655     5671     5644     5586     5499     5394     5338     5329 
    5285     5172     5055     5032     5094     5142     5165     5193 
    5196     5197     5230     5254     5273     5291     5280     5263 
    5253     5215     5158     5126     5131     5165     5190     5155 
    5099     5135     5231     5259     5242     5265     5298     5308 
    5320     5334     5331     5303     5247     5198     5170     5148 
    5133     5116     5097     5107     5159     5230     5299     5370 
    5414     5363     5235     5176     5266     5394     5413     5333 
    5284     5299     5306     5266     5204     5170     5173     5182 
    5207     5268     5328     5378     5427     5445     5414     5379 
    5353     5320     5292     5246     5158     5098     5111     5126 
    5087     5033     4999     4981     5020     5137     5256     5328 
    5383     5453     5542     5607     5590     5519     5472     5464 
    5427     5295     5133     5079     5122     5137     5088     5032 
    5021     5058     5142     5272     5370     5387     5381     5396 
    5444     5481     5424     5293     5206     5188     5143     5063 
    5051     5130     5215     5242     5235     5254     5305     5347 
    5340     5305     5306     5332     5342     5347     5346     5298 
    5207     5136     5142     5178     5138     5053     5053     5127 
    5148     5103     5084     5129     5197     5254     5287     5283 
    5256     5273     5349     5418     5451     5455     5439     5427 
    5408     5380     5381     5404     5412     5382     5314     5254 
    5240     5277     5309     5262     5177     5148     5164     5171 
    5181     5213     5234     5201     5155     5165     5181     5138 
    5109     5143     5181     5182     5167     5186     5267     5347 
    5341     5293     5313     5400     5439     5396     5353     5337 
    5317     5295     5276     5257     5244     5238     5227     5230 
    5269     5316     5301     5219     5168     5183     5206     5237 
    5285     5316     5330     5350     5372     5350     5259     5184 
    5175     5191     5216     5231     5231     5250     5281     5299 
    5290     5252     5242     5283     5301     5279     5257     5232 
    5231     5277     5302     5234     5115     5075     5165     5281 
    5328     5327     5368     5450     5471     5415     5344     5280 
    5240     5217     5193     5196     5233     5273     5299     5292 
    5226     5101     4984     4987     5127     5277     5331     5311 
    5305     5332     5330     5307     5310     5298     5242     5224 
    5296     5384     5402     5349     5274     5178     5073     5027 
    5062     5128     5176     5176     5165     5191     5241     5280 
    5276     5261     5273     5274     5275     5359     5475     5498 
    5416     5305     5265     5308     5338     5303     5226     5162 
    5166     5206     5209     5174     5153     5195     5279     5342 
    5372     5387     5415     5446     5427     5386     5356     5276 
    5177     5172     5217     5226     5234     5264     5265     5246 
    5260     5290     5282     5223     5159     5148     5195     5233 
    5189     5080     4980     4944     4982     5050     5095     5099 
    5082     5126     5251     5353     5390     5390     5346     5295 
    5304     5339     5309     5220     5186     5217     5193     5125 
    5120     5161     5169     5162     5208     5280     5315     5330 
    5343     5343     5346     5313     5217     5160     5198     5242 
    5241     5251     5298     5332     5320     5254     5154     5086 
    5083     5109     5143     5209     5279     5271     5216     5197 
    5205     5189     5162     5197     5286     5335     5359     5392 
    5377     5332     5324     5331     5332     5345     5371     5400 
    5394     5335     5264     5207     5144     5057     4976     4955 
    4990     5062     5152     5189     5154     5109     5114     5182 
    5267     5308     5311     5323     5363     5391     5374     5338 
    5310     5306     5320     5324     5338     5376     5383     5351 
    5336     5322     5272     5215     5191     5211     5253     5273 
    5253     5196     5120     5050     5003     4981     4994     5043 
    5107     5178     5244     5281     5279     5272     5310     5365 
    5352     5268     5173     5131     5151     5152     5096     5027 
    5003     5045     5096     5100     5078     5068     5088     5143 
    5209     5272     5318     5322     5314     5328     5334     5295 
    5233     5219     5265     5311     5337     5344     5316     5274 
    5231     5199     5217     5265     5314     5385     5457     5474 
    5441     5409     5400     5378     5314     5243     5210     5226 
    5267     5262     5203     5158     5145     5146     5160     5180 
    5195     5169     5066     4957     4935     4980     5022     5061 
    5096     5092     5093     5145     5222     5293     5340     5357 
    5380     5431     5454     5424     5397     5388     5379     5368 
    5357     5353     5344     5327     5316     5288     5213     5134 
    5085     5066     5058     5023     4993     5029     5087     5122 
    5142     5160     5220     5313     5360     5365     5383     5411 
    5417     5388     5353     5345     5342     5304     5236     5175 
    5137     5076     4982     4936     4966     5005     5016     5018 
    5049     5106     5150     5171     5177     5175     5191     5240 
    5312     5373     5393     5413     5494     5591     5626     5612 
    5595     5588     5602     5644     5662     5597     5482     5380 
    5299     5229     5143     5023     4927     4898     4924     4957 
    4950     4936     4989     5096     5211     5299     5340     5352 
    5348     5313     5255     5193     5111     4997     4868     4773 
    4737     4738     4785     4900     5054     5203     5347     5529 
    5735     5885     5967     6038     6119     6184     6183     6102 
    5977     5829     5666     5483     5257     5028     4870     4769 
    4689     4641     4608     4585     4597     4641     4679     4646 
    4547     4469     4477     4559     4648     4716     4831     5016 
    5223     5444     5673     5887     6085     6259     6377     6419 
    6379     6277     6126     5918     5696     5489     5295     5133 
    4985     4833     4696     4547     4346     4138     4001     3947 
    3932     3909     3870     3855     3898     3984     4092     4227 
    4381     4539     4748     5044     5393     5761     6115     6432 
    6722     6944     7043     7016     6889     6704     6468     6166 
    5845     5552     5262     4954     4665     4460     4367     4341 
    4375     4493     4650     4797     4941     5102     5288     5492 
    5728     5994     6230     6383     6419     6332     6166     5953 
    5682     5351     4996     4697     4517     4456     4467     4500 
    4549     4640     4784     4965     5179     5399     5560     5621 
    5593     5522     5429     5282     5090     4925     4845     4853 
    4897     4953     5056     5198     5336     5475     5626     5779 
    5889     5915     5881     5813     5686     5492     5249     4987 
    4737     4504     4312     4221     4237     4332     4496     4731 
    5028     5334     5598     5830     6041     6189     6219     6127 
    5983     5856     5732     5558     5342     5153     5040     4971 
    4915     4912     4983     5073     5143     5207     5269     5279 
    5201     5098     5035     5011     5019     5030     5012     4995 
    5023     5071     5070     5000     4914     4860     4831     4832 
    4868     4914     4957     5013     5087     5150     5155     5116 
    5093     5145     5291     5453     5580     5715     5876     6041 
    6174     6220     6177     6094     5979     5815     5619     5413 
    5198     4961     4719     4508     4323     4139     3972     3866 
    3870     3995     4214     4502     4792     5018     5208     5413 
    5620     5808     5952     6032     6049     5984     5817     5581 
    5322     5102     4970     4912     4937     5072     5288     5532 
    5743     5894     5991     6023     5999     5937     5816     5636 
    5424     5204     4996     4806     4610     4393     4213     4129 
    4130     4195     4353     4595     4866     5134     5374     5584 
    5779     5910     5957     5964     5952     5923     5866     5774 
    5681     5582     5463     5346     5238     5130     5028     4952 
    4918     4917     4926     4927     4920     4932     5015     5149 
    5268     5357     5419     5463     5498     5509     5478     5373 
    5212     5073     4968     4896     4885     4905     4916     4932 
    4979     5060     5170     5295     5430     5557     5645     5715 
    5787     5828     5816     5766     5691     5577     5413     5231 
    5107     5079     5096     5063     4957     4860     4841     4860 
    4839     4800     4809     4861     4909     4956     5020     5076 
    5101     5088     5082     5119     5158     5187     5248     5320 
    5362     5364     5365     5430     5553     5660     5701     5692 
    5680     5684     5671     5611     5508     5399     5284     5122 
    4947     4846     4796     4736     4675     4623     4599     4622 
    4668     4723     4798     4875     4942     5020     5109     5180 
    5211     5244     5309     5366     5390     5430     5515     5606 
    5637     5587     5508     5440     5391     5373     5359     5334 
    5314     5302     5305     5316     5311     5310     5354     5454 
    5563     5609     5608     5630     5668     5674     5618     5517 
    5431     5383     5332     5260     5174     5081     4981     4861 
    4764     4718     4685     4664     4693     4781     4893     4993 
    5083     5182     5261     5283     5262     5247     5267     5304 
    5292     5200     5080     4996     4941     4887     4848     4853 
    4884     4899     4899     4941     5043     5145     5229     5356 
    5551     5761     5918     6002     6036     6022     5953     5873 
    5817     5775     5739     5689     5604     5513     5437     5361 
    5280     5193     5120     5072     5043     5052     5083     5084 
    5060     5036     4989     4916     4863     4841     4813     4741 
    4640     4539     4462     4442     4464     4517     4628     4765 
    4897     5053     5238     5408     5540     5638     5716     5762 
    5773     5756     5710     5631     5539     5474     5446     5421 
    5378     5333     5291     5252     5223     5183     5152     5159 
    5169     5165     5161     5145     5133     5166     5229     5275 
    5276     5269     5290     5330     5376     5428     5464     5472 
    5481     5525     5587     5622     5640     5675     5703     5696 
    5649     5554     5415     5245     5051     4862     4731     4689 
    4707     4723     4724     4748     4795     4846     4895     4941 
    5004     5080     5132     5155     5155     5138     5121     5102 
    5075     5043     4988     4942     4969     5075     5215     5346 
    5461     5588     5741     5890     5985     6025     6037     6008 
    5896     5700     5457     5207     4980     4800     4660     4548 
    4465     4413     4395     4434     4537     4638     4696     4780 
    4931     5094     5223     5310     5354     5379     5398     5403 
    5393     5358     5311     5269     5226     5203     5217     5259 
    5321     5401     5499     5587     5640     5677     5715     5727 
    5691     5608     5515     5446     5394     5339     5303     5289 
    5268     5233     5228     5304     5416     5486     5526     5570 
    5612     5632     5599     5509     5384     5254     5134     5005 
    4846     4662     4479     4348     4317     4356     4399     4452 
    4549     4693     4871     5063     5264     5459     5635     5808 
    5978     6111     6175     6155     6061     5913     5739     5552 
    5334     5107     4960     4911     4899     4896     4915     4945 
    4965     4970     4984     5026     5076     5119     5163     5230 
    5322     5375     5361     5313     5236     5136     5020     4894 
    4796     4750     4759     4822     4920     5045     5204     5374 
    5525     5671     5794     5850     5818     5732     5658     5597 
    5504     5385     5251     5116     5008     4910     4811     4726 
