Origin Time       2024/06/23 22:54:00
Lat.              35.645
Long.             140.060
Depth. (km)       72
Mag.              4.1
Station Code      KNGH11
Station Lat.      35.4040
Station Long.     139.3539
Station Height(m) -1788
Record Time       2024/06/23 22:54:39
Sampling Freq(Hz) 100Hz
Duration Time(s)  120
Dir.              2
Scale Factor      2940(gal)/6170270
Max. Acc. (gal)   0.206
Last Correction   2024/06/23 22:54:24
Memo.             
[...]
 -137945  -137943  -137943  -137944  -137944  -137943  -137945  -137947 
 -137944  -137942  -137945  -137945  -137943  -137944  -137945  -137946 
 -137947  -137945  -137943  -137944  -137944  -137945  -137946  -137946 
 -137945  -137946  -137945  -137944  -137944  -137944  -137944  -137943 
 -137943  -137945  -137946  -137944  -137943  -137944  -137945  -137945 
 -137944  -137944  -137944  -137943  -137943  -137944  -137944  -137944 
 -137944  -137944  -137944  -137945  -137945  -137945  -137946  -137943 
 -137943  -137947  -137946  -137945  -137945  -137945  -137945  -137945 
 -137944  -137943  -137944  -137945  -137945  -137945  -137944  -137944 
 -137947  -137946  -137944  -137943  -137945  -137945  -137944  -137942 
 -137943  -137944  -137944  -137944  -137945  -137945  -137943  -137941 
 -137942  -137944  -137943  -137943  -137944  -137944  -137944  -137945 
 -137945  -137946  -137944  -137943  -137945  -137945  -137945  -137945 
 -137944  -137943  -137945  -137945  -137942  -137942  -137944  -137945 
 -137944  -137943  -137943  -137945  -137946  -137944  -137943  -137943 
 -137943  -137945  -137945  -137942  -137942  -137945  -137946  -137945 
 -137944  -137943  -137943  -137944  -137943  -137942  -137943  -137944 
 -137944  -137943  -137943  -137943  -137944  -137945  -137944  -137942 
 -137942  -137943  -137944  -137943  -137941  -137942  -137943  -137943 
 -137944  -137945  -137944  -137943  -137945  -137944  -137943  -137946 
 -137947  -137943  -137943  -137944  -137944  -137945  -137945  -137943 
 -137943  -137944  -137943  -137943  -137945  -137945  -137945  -137945 
 -137943  -137943  -137943  -137942  -137943  -137944  -137943  -137945 
 -137944  -137942  -137944  -137944  -137943  -137945  -137945  -137944 
 -137945  -137945  -137944  -137945  -137946  -137944  -137943  -137943 
 -137943  -137943  -137945  -137945  -137943  -137941  -137943  -137944 
 -137943  -137942  -137944  -137943  -137942  -137943  -137943  -137942 
 -137942  -137942  -137944  -137945  -137943  -137942  -137944  -137944 
 -137944  -137943  -137942  -137943  -137944  -137943  -137942  -137943 
 -137944  -137943  -137943  -137942  -137942  -137943  -137943  -137943 
 -137943  -137943  -137945  -137945  -137944  -137944  -137945  -137945 
 -137943  -137943  -137944  -137945  -137944  -137943  -137944  -137946 
 -137945  -137945  -137944  -137944  -137945  -137943  -137943  -137946 
 -137946  -137945  -137945  -137944  -137943  -137942  -137941  -137944 
 -137944  -137942  -137942  -137944  -137944  -137945  -137946  -137944 
 -137943  -137944  -137945  -137944  -137943  -137942  -137944  -137944 
 -137944  -137944  -137944  -137944  -137945  -137944  -137944  -137944 
 -137945  -137945  -137943  -137943  -137944  -137943  -137943  -137945 
 -137944  -137943  -137945  -137946  -137945  -137944  -137944  -137945 
 -137945  -137945  -137944  -137942  -137943  -137945  -137944  -137945 
 -137945  -137943  -137944  -137945  -137943  -137944  -137945  -137943 
 -137942  -137943  -137944  -137944  -137945  -137945  -137943  -137943 
 -137945  -137945  -137944  -137943  -137944  -137944  -137943  -137943 
 -137944  -137946  -137946  -137945  -137944  -137945  -137945  -137944 
 -137944  -137943  -137942  -137943  -137943  -137942  -137944  -137945 
 -137946  -137945  -137943  -137943  -137943  -137944  -137944  -137944 
 -137943  -137943  -137944  -137944  -137944  -137944  -137944  -137944 
 -137944  -137945  -137944  -137942  -137944  -137946  -137944  -137943 
 -137944  -137944  -137944  -137945  -137944  -137943  -137945  -137946 
 -137944  -137945  -137946  -137944  -137944  -137945  -137944  -137943 
 -137944  -137944  -137943  -137943  -137945  -137945  -137944  -137943 
 -137943  -137945  -137946  -137945  -137945  -137944  -137943  -137944 
 -137944  -137943  -137944  -137944  -137943  -137944  -137946  -137943 
 -137942  -137944  -137943  -137943  -137945  -137944  -137942  -137943 
 -137944  -137944  -137944  -137944  -137944  -137944  -137945  -137945 
 -137943  -137944  -137945  -137943  -137943  -137943  -137943  -137944 
 -137943  -137941  -137942  -137944  -137944  -137944  -137944  -137943 
 -137942  -137943  -137944  -137943  -137942  -137943  -137943  -137942 
 -137943  -137943  -137944  -137944  -137943  -137944  -137944  -137943 
 -137944  -137945  -137945  -137945  -137944  -137944  -137943  -137942 
 -137942  -137944  -137942  -137943  -137945  -137944  -137942  -137943 
 -137943  -137942  -137942  -137943  -137944  -137944  -137943  -137943 
 -137942  -137941  -137943  -137945  -137944  -137943  -137943  -137944 
 -137942  -137942  -137943  -137944  -137944  -137944  -137942  -137942 
 -137944  -137942  -137942  -137943  -137943  -137943  -137945  -137945 
 -137946  -137946  -137945  -137943  -137943  -137944  -137945  -137945 
 -137944  -137942  -137942  -137943  -137943  -137943  -137945  -137946 
 -137945  -137944  -137945  -137944  -137943  -137943  -137945  -137944 
 -137944  -137944  -137943  -137944  -137944  -137944  -137943  -137943 
 -137943  -137943  -137944  -137944  -137945  -137946  -137946  -137945 
 -137944  -137943  -137943  -137944  -137945  -137944  -137943  -137944 
 -137944  -137943  -137943  -137942  -137942  -137944  -137945  -137942 
 -137942  -137945  -137943  -137942  -137944  -137945  -137942  -137941 
 -137943  -137944  -137943  -137943  -137944  -137944  -137942  -137941 
 -137941  -137942  -137942  -137943  -137944  -137943  -137944  -137945 
 -137943  -137942  -137943  -137944  -137945  -137945  -137944  -137945 
 -137943  -137942  -137944  -137944  -137943  -137944  -137944  -137944 
 -137945  -137946  -137945  -137945  -137944  -137942  -137942  -137942 
 -137942  -137943  -137943  -137943  -137945  -137945  -137944  -137945 
 -137944  -137943  -137944  -137945  -137944  -137943  -137944  -137944 
 -137944  -137944  -137945  -137944  -137943  -137944  -137945  -137944 
 -137944  -137943  -137942  -137944  -137944  -137944  -137944  -137944 
 -137943  -137943  -137944  -137945  -137943  -137943  -137944  -137945 
 -137946  -137946  -137944  -137943  -137944  -137943  -137942  -137943 
 -137944  -137943  -137943  -137943  -137945  -137945  -137943  -137943 
 -137945  -137945  -137945  -137943  -137943  -137944  -137944  -137943 
 -137945  -137945  -137943  -137945  -137945  -137943  -137943  -137943 
 -137943  -137944  -137944  -137943  -137943  -137943  -137944  -137944 
 -137946  -137946  -137944  -137943  -137944  -137944  -137941  -137942 
 -137945  -137945  -137945  -137946  -137944  -137943  -137946  -137947 
 -137944  -137942  -137944  -137945  -137945  -137943  -137945  -137946 
 -137943  -137943  -137944  -137943  -137944  -137944  -137943  -137944 
 -137945  -137943  -137942  -137943  -137944  -137943  -137942  -137942 
 -137942  -137944  -137944  -137943  -137944  -137945  -137943  -137944 
 -137946  -137944  -137942  -137944  -137944  -137944  -137944  -137942 
 -137943  -137946  -137945  -137944  -137945  -137944  -137943  -137944 
 -137944  -137944  -137944  -137944  -137945  -137946  -137946  -137944 
 -137944  -137943  -137942  -137942  -137942  -137944  -137943  -137941 
 -137943  -137945  -137944  -137944  -137945  -137944  -137944  -137945 
 -137943  -137941  -137944  -137945  -137944  -137943  -137943  -137942 
 -137942  -137944  -137945  -137945  -137944  -137943  -137944  -137944 
 -137943  -137942  -137943  -137944  -137944  -137944  -137944  -137943 
 -137941  -137942  -137943  -137943  -137944  -137944  -137943  -137944 
 -137944  -137944  -137944  -137944  -137944  -137945  -137944  -137944 
 -137944  -137945  -137945  -137943  -137942  -137944  -137943  -137942 
 -137942  -137943  -137944  -137943  -137943  -137945  -137944  -137942 
 -137943  -137944  -137943  -137944  -137944  -137944  -137944  -137943 
 -137942  -137943  -137943  -137942  -137943  -137943  -137943  -137943 
 -137943  -137942  -137943  -137943  -137943  -137944  -137944  -137944 
 -137944  -137943  -137943  -137944  -137943  -137942  -137942  -137943 
 -137943  -137943  -137945  -137946  -137943  -137943  -137944  -137943 
 -137942  -137943  -137945  -137944  -137943  -137943  -137944  -137945 
 -137945  -137942  -137941  -137943  -137942  -137943  -137945  -137943 
 -137942  -137943  -137944  -137942  -137942  -137943  -137943  -137944 
 -137946  -137944  -137944  -137944  -137942  -137943  -137943  -137943 
 -137944  -137944  -137944  -137943  -137942  -137944  -137944  -137944 
 -137943  -137942  -137944  -137946  -137944  -137942  -137942  -137943 
 -137944  -137943  -137942  -137943  -137943  -137942  -137942  -137944 
 -137944  -137944  -137944  -137945  -137944  -137944  -137945  -137945 
 -137943  -137942  -137943  -137945  -137945  -137944  -137944  -137944 
 -137944  -137944  -137942  -137942  -137945  -137944  -137941  -137943 
 -137944  -137943  -137944  -137944  -137943  -137944  -137945  -137943 
 -137942  -137944  -137946  -137944  -137942  -137942  -137944  -137943 
 -137943  -137942  -137943  -137943  -137944  -137945  -137944  -137942 
 -137943  -137944  -137942  -137943  -137945  -137945  -137943  -137942 
 -137943  -137944  -137944  -137944  -137943  -137943  -137943  -137943 
 -137943  -137945  -137944  -137942  -137942  -137944  -137942  -137941 
 -137943  -137944  -137943  -137942  -137942  -137943  -137943  -137942 
 -137942  -137944  -137946  -137944  -137941  -137941  -137944  -137945 
 -137944  -137943  -137944  -137944  -137943  -137943  -137943  -137943 
 -137945  -137945  -137942  -137942  -137945  -137945  -137943  -137944 
 -137944  -137943  -137942  -137942  -137943  -137944  -137943  -137943 
 -137944  -137944  -137943  -137944  -137945  -137943  -137941  -137943 
 -137945  -137943  -137942  -137944  -137943  -137943  -137944  -137942 
 -137940  -137943  -137944  -137943  -137944  -137945  -137944  -137942 
 -137942  -137943  -137943  -137944  -137945  -137943  -137942  -137943 
 -137943  -137944  -137944  -137944  -137944  -137944  -137944  -137943 
 -137943  -137944  -137944  -137945  -137944  -137944  -137943  -137941 
 -137940  -137942  -137943  -137942  -137943  -137945  -137945  -137943 
 -137943  -137944  -137944  -137943  -137942  -137942  -137943  -137944 
 -137944  -137942  -137942  -137943  -137944  -137945  -137944  -137942 
 -137942  -137943  -137943  -137944  -137944  -137944  -137945  -137943 
 -137942  -137944  -137945  -137943  -137943  -137943  -137943  -137944 
 -137944  -137944  -137943  -137942  -137942  -137944  -137944  -137944 
 -137943  -137942  -137942  -137943  -137943  -137943  -137943  -137943 
 -137942  -137942  -137944  -137945  -137944  -137943  -137943  -137943 
 -137945  -137945  -137944  -137944  -137944  -137942  -137942  -137943 
 -137944  -137944  -137943  -137942  -137942  -137943  -137943  -137943 
 -137944  -137945  -137943  -137943  -137944  -137944  -137945  -137945 
 -137943  -137943  -137944  -137942  -137941  -137944  -137945  -137943 
 -137943  -137945  -137944  -137943  -137945  -137944  -137943  -137944 
 -137944  -137944  -137944  -137943  -137944  -137945  -137943  -137943 
 -137944  -137944  -137943  -137943  -137944  -137944  -137944  -137945 
 -137945  -137944  -137943  -137942  -137943  -137944  -137944  -137943 
 -137945  -137945  -137944  -137942  -137943  -137945  -137942  -137943 
 -137945  -137944  -137944  -137942  -137942  -137944  -137944  -137943 
 -137944  -137944  -137943  -137943  -137942  -137943  -137943  -137943 
 -137945  -137945  -137944  -137943  -137943  -137942  -137943  -137944 
 -137944  -137944  -137943  -137944  -137944  -137944  -137945  -137944 
 -137944  -137944  -137943  -137942  -137943  -137943  -137943  -137942 
 -137942  -137943  -137944  -137943  -137942  -137943  -137943  -137942 
 -137943  -137944  -137944  -137946  -137944  -137944  -137945  -137945 
 -137943  -137944  -137944  -137944  -137944  -137944  -137943  -137944 
 -137943  -137942  -137943  -137944  -137943  -137942  -137942  -137944 
 -137944  -137943  -137944  -137944  -137943  -137943  -137943  -137942 
 -137943  -137944  -137944  -137943  -137943  -137942  -137942  -137944 
 -137945  -137943  -137942  -137942  -137942  -137942  -137943  -137943 
 -137942  -137943  -137942  -137942  -137944  -137943  -137941  -137942 
 -137942  -137942  -137943  -137944  -137943  -137942  -137942  -137944 
 -137944  -137943  -137944  -137945  -137943  -137941  -137943  -137943 
 -137942  -137944  -137944  -137942  -137943  -137943  -137943  -137945 
 -137945  -137943  -137944  -137943  -137942  -137943  -137943  -137943 
 -137943  -137941  -137936  -137932  -137930  -137933  -137936  -137939 
 -137943  -137948  -137948  -137944  -137947  -137951  -137955  -137964 
 -137969  -137960  -137943  -137926  -137917  -137918  -137922  -137923 
 -137917  -137914  -137927  -137948  -137956  -137951  -137944  -137940 
 -137950  -137969  -137972  -137954  -137924  -137904  -137904  -137904 
 -137897  -137908  -137946  -137983  -138008  -137993  -137933  -137893 
 -137903  -137924  -137948  -137992  -138050  -138068  -138004  -137941 
 -137950  -137971  -137970  -137972  -137970  -137961  -137924  -137855 
 -137797  -137769  -137797  -137886  -137930  -137905  -137945  -138035 
 -138113  -138217  -138219  -138032  -137885  -137940  -138013  -137922 
 -137842  -137960  -138055  -137949  -137787  -137689  -137771  -138021 
 -138140  -138126  -138191  -138162  -137940  -137746  -137637  -137633 
 -137749  -137843  -137953  -138098  -138019  -137755  -137660  -137788 
 -137907  -137967  -138087  -138224  -138251  -138154  -137923  -137694 
 -137725  -137927  -137973  -137898  -138006  -138273  -138377  -138180 
 -137875  -137696  -137658  -137733  -137916  -138053  -138060  -138028 
 -137966  -137853  -137734  -137678  -137736  -137899  -138128  -138253 
 -138162  -138009  -137858  -137712  -137709  -137860  -138072  -138239 
 -138211  -138000  -137744  -137593  -137634  -137734  -137773  -137889 
 -138160  -138365  -138273  -138013  -137902  -137944  -137978  -138079 
 -138208  -138123  -137893  -137753  -137654  -137574  -137670  -137895 
 -138042  -138080  -138045  -137958  -137964  -138078  -138069  -137947 
 -137955  -138060  -138030  -137884  -137831  -137904  -137955  -137910 
 -137866  -137923  -138029  -138057  -137979  -137880  -137877  -137943 
 -137937  -137857  -137829  -137877  -137951  -137979  -137886  -137787 
 -137915  -138170  -138236  -138092  -137939  -137879  -137891  -137936 
 -138019  -138078  -138013  -137886  -137791  -137747  -137755  -137828 
 -137975  -138057  -137962  -137871  -137922  -137990  -137998  -137993 
 -137992  -137973  -137934  -137947  -137993  -137926  -137853  -137951 
 -138024  -137963  -137942  -137960  -137928  -137916  -137951  -137956 
 -137939  -137955  -137964  -137960  -137952  -137925  -137953  -138005 
 -137963  -137914  -137940  -137950  -137922  -137912  -137895  -137841 
 -137827  -137888  -137950  -137994  -138055  -138047  -137927  -137880 
 -137979  -138054  -138010  -137915  -137846  -137846  -137909  -137958 
 -137932  -137886  -137911  -137997  -138043  -138001  -137948  -137937 
 -137951  -137995  -138042  -138030  -137953  -137892  -137920  -137958 
 -137898  -137817  -137839  -137924  -137947  -137899  -137875  -137920 
 -137972  -137948  -137901  -137946  -137988  -137937  -137938  -138020 
 -138035  -137962  -137904  -137930  -137975  -137973  -137995  -138041 
 -138023  -137992  -137986  -137953  -137917  -137885  -137848  -137862 
 -137897  -137904  -137914  -137928  -137921  -137917  -137945  -138001 
 -138032  -137976  -137887  -137890  -137983  -138017  -137942  -137909 
 -137963  -137947  -137889  -137922  -137972  -137960  -137922  -137896 
 -137885  -137872  -137875  -137912  -137921  -137911  -137974  -138090 
 -138135  -138048  -137917  -137871  -137894  -137909  -137910  -137914 
 -137907  -137910  -137957  -137987  -137963  -137942  -137940  -137958 
 -137969  -137952  -137974  -138025  -138014  -137955  -137909  -137874 
 -137858  -137913  -137978  -137954  -137914  -137921  -137935  -137934 
 -137937  -137944  -137917  -137879  -137899  -137933  -137904  -137884 
 -137978  -138054  -137989  -137946  -137999  -137986  -137898  -137888 
 -137935  -137945  -137960  -137989  -137987  -137971  -137933  -137902 
 -137948  -137995  -137992  -137990  -137975  -137950  -137946  -137936 
 -137944  -137980  -137961  -137929  -137972  -137964  -137874  -137887 
 -137971  -137968  -137906  -137882  -137918  -137969  -137979  -137967 
 -137955  -137918  -137881  -137875  -137879  -137900  -137960  -138028 
 -138051  -137995  -137909  -137886  -137922  -137978  -138048  -138087 
 -138043  -137943  -137880  -137882  -137888  -137913  -137960  -137923 
 -137819  -137796  -137874  -137951  -137958  -137933  -137932  -137943 
 -137940  -137937  -137949  -137947  -137936  -137983  -138018  -137961 
 -137913  -137900  -137890  -137926  -137977  -137984  -137967  -137948 
 -137926  -137905  -137894  -137880  -137899  -137994  -138054  -138004 
 -137948  -137947  -137963  -137952  -137921  -137943  -137997  -137994 
 -137968  -137997  -138023  -137967  -137902  -137884  -137867  -137869 
 -137919  -137947  -137954  -137958  -137888  -137819  -137905  -138032 
 -138041  -137990  -137934  -137873  -137834  -137827  -137864  -137938 
 -138012  -138056  -138046  -137995  -137962  -137975  -137986  -137966 
 -137977  -138030  -138025  -137934  -137848  -137834  -137884  -137926 
 -137917  -137891  -137880  -137903  -137974  -138023  -137997  -137942 
 -137921  -137990  -138095  -138066  -137930  -137913  -138014  -138030 
 -137952  -137881  -137811  -137793  -137874  -137926  -137918  -137916 
 -137882  -137846  -137917  -138012  -138026  -138033  -138027  -137916 
 -137808  -137850  -137972  -138015  -137970  -137931  -137924  -137951 
 -137988  -137977  -137947  -137928  -137941  -138028  -138064  -137962 
 -137898  -137928  -137931  -137916  -137917  -137919  -137958  -138007 
 -137980  -137889  -137862  -137934  -137966  -137953  -137991  -138014 
 -137982  -137939  -137874  -137835  -137876  -137931  -137937  -137901 
 -137873  -137909  -137989  -138005  -137935  -137874  -137820  -137778 
 -137897  -138090  -138069  -137918  -137937  -138073  -138093  -137991 
 -137917  -137910  -137908  -137902  -137942  -138026  -138082  -138043 
 -137968  -137940  -137894  -137852  -137921  -137978  -137916  -137867 
 -137861  -137837  -137860  -137936  -137998  -138047  -138062  -138026 
 -138017  -138018  -137971  -137960  -137991  -137960  -137941  -137981 
 -137952  -137869  -137844  -137844  -137847  -137901  -137944  -137950 
 -137990  -138010  -137984  -138019  -138040  -137948  -137874  -137897 
 -137922  -137906  -137880  -137912  -138016  -138015  -137880  -137836 
 -137859  -137802  -137809  -137944  -138022  -138016  -138028  -138037 
 -138009  -137996  -138016  -138031  -138025  -137962  -137837  -137789 
 -137871  -137926  -137906  -137913  -137912  -137849  -137824  -137913 
 -138068  -138136  -138063  -138004  -137975  -137896  -137875  -137954 
 -138003  -137990  -137940  -137842  -137770  -137834  -137969  -138012 
 -137960  -137928  -137964  -138030  -138066  -138057  -138012  -137928 
 -137900  -137937  -137881  -137780  -137815  -137923  -137955  -137953 
 -137975  -137977  -137970  -138012  -138039  -137926  -137791  -137835 
 -137935  -137952  -137983  -137996  -137955  -138003  -138045  -137952 
 -137886  -137876  -137867  -137926  -137951  -137890  -137924  -138012 
