Origin Time       2024/06/23 22:54:00
Lat.              35.645
Long.             140.060
Depth. (km)       72
Mag.              4.1
Station Code      KNGH19
Station Lat.      35.4173
Station Long.     139.0436
Station Height(m) 330
Record Time       2024/06/23 22:54:41
Sampling Freq(Hz) 100Hz
Duration Time(s)  120
Dir.              5
Scale Factor      7845(gal)/8223790
Max. Acc. (gal)   1.036
Last Correction   2024/06/23 22:54:42
Memo.             
[...]
     460      459      459      461      459      457      460      459 
     457      459      459      460      459      456      457      459 
     460      463      461      459      461      463      464      463 
     463      465      467      465      465      468      468      468 
     468      468      464      464      465      464      463      464 
     461      459      459      461      461      459      457      460 
     460      456      459      461      461      463      460      459 
     461      460      461      464      461      457      459      460 
     460      461      461      460      457      459      460      460 
     460      457      456      457      454      450      456      461 
     460      459      457      457      460      461      460      457 
     454      453      454      457      459      459      460      459 
     457      457      457      459      460      459      457      461 
     463      463      461      457      457      459      453      454 
     459      456      457      461      459      457      460      461 
     460      459      457      457      459      457      459      460 
     460      459      456      456      457      456      454      456 
     457      456      457      457      456      453      452      457 
     457      454      454      454      454      454      456      459 
     460      460      459      456      457      460      459      457 
     459      457      457      459      459      459      459      457 
     459      460      463      461      459      457      456      456 
     460      460      456      456      456      456      456      456 
     459      460      457      459      460      459      459      459 
     459      461      460      457      459      463      464      464 
     467      471      469      467      463      454      457      468 
     479      477      456      425      413      421      441      464 
     457      440      460      498      510      506      492      467 
     450      480      525      508      452      446      457      414 
     386      406      391      395      495      564      540      504 
     484      479      477      465      457      434      400      434 
     494      418      287      298      371      410      511      614 
     564      467      477      529      486      419      481      554 
     479      427      515      502      334      329      475      503 
     506      626      664      492      360      384      338      225 
     259      376      423      421      409      426      434      395 
     480      664      635      527      665      824      703      433 
     268      229      261      422      577      514      379      386 
     418      283      186      372      611      676      589      459 
     426      433      388      380      407      368      394      621 
     714      496      430      529      372      247      464      612 
     521      518      560      379      220      383      598      554 
     405      365      411      423      444      550      621      527 
     373      346      442      490      508      607      637      507 
     361      295      359      457      490      433      280      252 
     400      460      507      708      819      607      342      348 
     427      441      557      629      460      220      144      251 
     422      561      531      357      317      471      580      569 
     606      649      494      326      427      619      622      546 
     549      490      306      178      229      382      500      585 
     561      371      287      379      419      473      585      576 
     552      666      703      506      299      314      361      302 
     367      506      544      564      496      341      302      375 
     471      565      691      750      576      405      476      514 
     360      270      332      386      400      419      410      368 
     349      311      260      390      611      695      711      650 
     475      430      577      652      538      427      440      441 
     390      353      333      363      414      384      338      361 
     427      503      538      495      467      552      623      581 
     518      433      390      481      564      549      477      387 
     378      418      398      394      446      433      372      441 
     580      598      544      473      334      288      432      558 
     521      454      498      527      468      423      430      488 
     545      500      446      471      486      467      445      392 
     351      348      346      426      565      588      469      319 
     309      498      650      625      595      637      602      486 
     434      471      496      422      299      230      224      299 
     429      517      541      510      446      427      476      522 
     552      604      608      522      446      411      395      405 
     445      490      440      330      372      519      534      445 
     395      388      433      527      615      670      616      448 
     346      367      406      499      595      522      402      375 
     383      434      479      432      383      382      394      468 
     596      622      494      410      450      484      495      519 
     481      388      371      410      395      387      479      550 
     514      450      430      444      475      545      616      575 
     461      402      399      454      510      486      480      477 
     384      328      392      488      527      499      460      388 
     336      417      511      468      427      540      639      579 
     490      448      386      359      452      537      518      436 
     337      330      437      514      521      490      437      407 
     448      514      473      418      469      465      421      465 
     496      502      518      469      395      388      421      438 
     460      481      480      477      446      396      421      479 
     508      527      511      467      467      480      456      460 
     467      399      387      472      490      456      490      519 
     477      457      454      405      367      368      384      446 
     537      568      537      495      421      361      409      492 
     525      499      456      457      449      414      415      483 
     592      552      356      303      411      479      498      526 
     527      481      444      467      499      429      307      313 
     442      553      603      569      454      395      364      313 
     395      553      594      527      441      436      507      507 
     394      328      407      467      441      492      588      568 
     432      292      264      329      422      564      619      519 
     457      452      436      473      548      576      500      388 
     368      376      382      446      510      486      423      446 
     492      465      444      444      426      419      433      472 
     498      490      494      461      364      328      361      411 
     527      596      538      480      430      368      388      427 
     386      388      517      585      518      507      541      433 
     315      338      355      375      517      619      513      329 
     302      421      495      469      445      513      587      510 
     405      449      503      472      434      400      417      477 
     438      332      348      453      506      488      450      448 
     472      486      508      496      456      446      446      502 
     552      449      329      363      426      384      364      460 
     534      527      500      391      322      496      675      602 
     407      298      341      453      525      577      600      510 
     390      359      391      438      461      433      406      427 
     446      432      460      515      491      419      405      417 
     444      538      587      487      376      378      417      409 
     418      506      567      529      467      444      460      452 
     432      469      465      371      376      521      602      544 
     469      434      419      433      477      522      495      430 
     405      379      378      448      522      530      459      355 
     310      407      558      591      513      421      379      427 
     476      452      427      415      373      379      507      681 
     733      591      414      342      328      341      442      558 
     538      440      363      290      322      491      583      515 
     421      425      494      506      473      476      479      429 
     414      467      445      373      414      495      494      471 
     454      429      405      368      382      473      529      538 
     594      654      606      475      382      360      341      344 
     425      467      399      353      372      391      417      475 
     550      573      548      517      464      398      359      419 
     540      523      425      400      411      442      483      473 
     445      425      419      444      473      460      409      388 
     429      517      569      537      537      596      565      461 
     432      413      365      396      418      373      367      367 
     357      433      538      530      422      383      483      565 
     521      444      440      525      569      460      364      371 
     355      361      445      484      446      442      488      491 
     475      514      550      544      507      441      419      457 
     429      363      384      426      409      390      437      540 
     552      445      410      448      415      388      469      554 
     542      446      351      399      546      558      432      352 
     409      511      535      483      433      440      456      446 
     464      476      459      488      517      461      441      498 
     484      363      274      299      332      330      396      548 
     706      680      414      253      395      569      583      492 
     426      440      456      448      460      498      477      326 
     248      418      541      409      322      468      585      513 
     427      454      476      425      434      508      463      371 
     430      500      419      372      484      549      498      444 
     365      333      456      550      502      504      580      540 
     392      263      282      476      567      438      386      453 
     436      419      510      540      434      315      306      429 
     526      498      456      461      477      503      499      425 
     380      445      531      529      450      434      483      421 
     311      318      392      472      534      541      523      473 
     373      348      445      541      581      540      400      282 
     270      367      500      499      426      473      556      541 
     460      367      321      410      534      488      419      534 
     610      487      332      272      307      402      506      567 
     553      506      491      484      433      384      361      365 
     427      471      437      406      437      496      481      421 
     457      492      456      471      491      448      410      419 
     477      540      529      395      284      380      507      479 
     432      461      538      567      459      352      384      446 
     468      510      531      499      471      430      390      430 
     484      430      367      445      515      473      442      417 
     394      419      463      541      587      544      472      418 
     418      423      415      409      406      513      610      530 
     467      440      364      386      436      392      403      468 
     502      546      544      460      436      444      380      332 
     391      471      499      498      442      448      558      503 
     340      349      427      471      517      481      422      473 
     496      441      475      502      407      319      317      396 
     502      527      492      486      467      398      395      487 
     573      599      525      384      353      473      553      513 
     467      421      328      329      440      486      523      622 
     635      494      353      355      380      369      425      490 
     506      494      461      486      558      533      384      286 
     321      418      513      567      561      511      417      305 
     297      411      519      584      649      614      445      355 
     434      457      294      157      267      511      618      550 
     514      595      645      561      459      391      298      264 
     402      573      544      395      387      440      352      261 
     355      529      642      720      750      685      589      496 
     386      303      259      209      230      355      425      479 
     639      738      608      398      292      226      224      392 
     541      587      702      801      687      529      569      621 
     491      271        6     -116      118      448      599      591 
     472      430      565      676      660      606      544      529 
     625      664      449      106     -133     -210     -164       17 
     394      935     1432     1547     1178      584      197      282 
     529      459      224      145      151      187      322      452 
     472      464      552      704      796      723      467      197 
      41      -25        1      109      322      723     1053      970 
     684      622      765      851      754      388      -18       22 
     322      364      282      369      598      772      685      500 
     530      594      422      149        9      117      407      603 
     550      438      464      513      465      430      442      544 
     780      882      693      394      145       79      240      371 
     294      255      430      702      962      997      715      450 
     417      517      554      344       63       63      241      325 
     342      432      591      715      733      588      301      206 
     465      646      581      533      550      557      549      475 
     317      230      325      399      330      282      367      562 
     722      761      766      706      475      245      229      309 
     229       66      144      500      818      834      633      467 
     434      506      561      513      503      540      468      382 
     396      379      282      283      373      375      368      471 
     481      364      415      612      741      773      600      279 
     191      400      596      610      469      326      382      579 
     703      715      625      405      184      155      309      432 
     427      465      517      418      329      365      437      565 
     723      695      426      240      321      426      525      683 
     610      280       82      218      526      684      630      587 
     631      614      491      450      476      364      264      306 
     321      346      452      573      679      596      321      194 
     348      603      727      627      448      351      351      384 
     423      480      553      627      641      598      577      496 
     398      454      499      363      189      167      395      654 
     635      453      353      378      480      498      384      309 
     332      445      633      712      614      594      731      735 
     522      313      206      234      364      413      399      517 
     703      687      438      261      326      411      378      453 
     670      712      494      232      152      357      638      657 
     457      318      313      415      548      562      560      642 
     646      581      542      409      253      263      372      464 
     511      544      592      629      557      356      221      324 
     490      491      376      326      453      629      639      517 
     446      506      569      507      348      245      314      464 
     534      527      562      697      774      635      348       86 
      31      213      450      623      706      681      612      527 
     405      338      361      360      338      369      440      487 
     502      567      706      764      600      384      340      336 
     326      456      611      683      641      430      253      248 
     276      337      438      426      423      576      604      457 
     453      589      666      626      446      220      144      252 
     418      522      568      649      687      540      348      310 
     390      484      568      588      565      631      741      726 
     540      259       43      -41       36      265      476      583 
     622      622      658      688      631      510      361      241 
     176      271      542      751      776      635      396      228 
     287      527      588      376      340      521      560      464 
     367      317      372      436      454      523      604      607 
     535      465      518      657      645      457      301      234 
     270      409      538      589      533      390      303      332 
     407      486      513      436      298      226      372      681 
     862      826      680      464      341      418      463      360 
     301      363      419      423      473      577      646      638 
     521      283       54       62      348      625      639      495 
     479      643      702      581      508      464      348      271 
     290      352      398      438      508      533      508      511 
     511      494      518      579      603      595      603      569 
     463      341      283      360      472      440      290      209 
     247      365      556      676      579      375      245      232 
     338      569      773      778      658      572      553      553 
     537      500      436      318      171      118      232      395 
     492      480      392      371      484      648      718      611 
     459      432      426      317      283      479      707      727 
     538      317      236      318      446      502      442      333 
     351      568      765      742      629      580      548      526 
     494      338      237      355      394      221      133      267 
     494      634      619      548      522      565      619      580 
     471      388      356      375      449      550      623      571 
     395      234      199      314      434      380      257      267 
     398      552      716      843      793      577      388      332 
     384      544      733      733      538      367      318      352 
     375      326      271      272      302      318      378      540 
     627      533      409      345      390      548      631      579 
     504      445      440      519      569      492      352      280 
     332      449      502      450      444      519      584      638 
     668      619      530      457      372      270      265      414 
