Origin Time       2024/06/23 22:54:00
Lat.              35.645
Long.             140.060
Depth. (km)       72
Mag.              4.1
Station Code      KNGH21
Station Lat.      35.4628
Station Long.     139.2146
Station Height(m) 245
Record Time       2024/06/23 22:54:51
Sampling Freq(Hz) 100Hz
Duration Time(s)  120
Dir.              3
Scale Factor      2942(gal)/8224139
Max. Acc. (gal)   0.162
Last Correction   2024/06/23 22:54:51
Memo.             
  156074   156072   156070   156073   156076   156076   156074   156073 
  156076   156077   156076   156073   156073   156076   156073   156073 
  156076   156074   156077   156077   156074   156074   156074   156072 
  156074   156076   156073   156073   156074   156076   156077   156076 
  156073   156073   156074   156076   156077   156076   156074   156073 
  156073   156074   156076   156074   156074   156076   156076   156073 
  156070   156073   156074   156074   156076   156077   156077   156076 
  156074   156076   156076   156076   156076   156074   156074   156074 
  156074   156073   156073   156077   156077   156074   156074   156077 
  156077   156073   156073   156074   156076   156076   156076   156076 
  156074   156076   156076   156074   156076   156074   156073   156074 
  156077   156077   156076   156076   156077   156076   156073   156073 
  156074   156076   156076   156074   156074   156074   156073   156070 
  156072   156076   156076   156073   156074   156076   156076   156077 
  156077   156076   156074   156074   156073   156073   156074   156073 
  156072   156074   156077   156077   156073   156073   156076   156076 
  156073   156073   156076   156077   156077   156077   156076   156073 
  156076   156080   156078   156074   156077   156078   156074   156073 
  156076   156073   156072   156076   156077   156074   156073   156074 
  156076   156076   156077   156077   156076   156077   156077   156074 
  156073   156074   156076   156074   156073   156074   156076   156074 
  156074   156076   156076   156076   156073   156076   156080   156077 
  156074   156074   156076   156078   156076   156074   156076   156076 
  156074   156074   156073   156076   156076   156073   156074   156076 
  156074   156076   156076   156074   156076   156077   156074   156074 
  156078   156076   156073   156076   156076   156076   156077   156076 
  156076   156077   156077   156077   156077   156078   156076   156073 
  156076   156077   156076   156074   156076   156077   156074   156073 
  156077   156077   156077   156076   156074   156076   156076   156076 
  156077   156077   156078   156077   156074   156074   156076   156074 
  156074   156077   156077   156076   156076   156076   156076   156076 
  156077   156076   156076   156077   156077   156074   156074   156077 
  156076   156074   156076   156077   156074   156076   156074   156074 
  156076   156076   156076   156076   156077   156077   156076   156073 
  156074   156076   156076   156076   156077   156078   156077   156076 
  156077   156078   156077   156077   156076   156074   156076   156077 
  156074   156074   156074   156074   156076   156076   156076   156076 
  156076   156076   156074   156074   156076   156077   156076   156073 
  156073   156074   156074   156073   156077   156076   156070   156072 
  156076   156076   156076   156076   156076   156076   156074   156072 
  156072   156074   156074   156073   156074   156074   156073   156073 
  156076   156076   156074   156074   156074   156073   156074   156074 
  156074   156074   156074   156072   156072   156073   156073   156070 
  156074   156076   156073   156076   156076   156074   156077   156077 
  156074   156076   156076   156073   156073   156076   156077   156076 
  156077   156078   156074   156074   156076   156074   156074   156076 
  156076   156074   156076   156077   156076   156076   156077   156076 
  156076   156074   156073   156074   156076   156077   156077   156076 
  156074   156074   156074   156074   156076   156077   156074   156073 
  156076   156076   156073   156073   156076   156077   156070   156065 
  156058   156049   156042   156037   156031   156034   156035   156058 
  156119   156176   156199   156203   156157   156051   155973   155958 
  155983   156030   156034   156003   156028   156055   156069   156126 
  156074   155968   156068   156220   156247   156247   156184   156068 
  155976   155880   155842   155858   155858   155957   156146   156231 
  156188   156077   155942   155922   156126   156339   156354   156317 
  156297   156228   156070   155768   155621   155907   156209   156232 
  156226   156226   156131   156101   156118   156006   155972   156247 
  156390   156068   155888   156178   156215   155860   155830   156016 
  155983   156034   156232   156234   156178   156243   156188   155898 
  155690   155885   156209   156190   156016   156020   156035   156101 
  156362   156327   155922   155891   156195   156153   155907   155952 
  156173   156215   156073   155977   156042   156205   156296   156222 
  156219   156371   156307   156019   155935   156050   156050   155916 
  155861   155950   156028   156058   156066   156003   156011   156092 
  156072   156069   156119   156072   156038   156047   155903   155702 
  155730   155976   156265   156342   156066   155904   156139   156315 
  156193   155962   155858   155999   156107   156045   156049   156139 
  156251   156428   156402   156045   155914   156136   156124   155947 
  155966   156014   156008   156039   156061   156015   155987   156078 
  156141   156070   156091   156265   156284   156068   155873   155833 
  155891   155935   155950   156037   156146   156213   156228   156112 
  155964   155996   156161   156226   156145   156077   156072   156114 
  156177   156155   156074   156062   156118   156138   156030   155977 
  156154   156216   155983   155845   155908   155970   156041   156100 
  156080   156058   156099   156136   156109   156127   156259   156286 
  156108   156003   156061   156016   155911   155983   156049   156006 
  156089   156222   156196   156109   156097   156134   156116   156019 
  155983   156014   156012   156054   156108   156042   155979   156020 
  156066   156051   156045   156124   156172   156138   156100   156060 
  156108   156217   156185   156062   156016   156072   156097   156020 
  156008   156093   156107   156066   156030   156010   156061   156105 
  156119   156186   156186   156049   155962   156035   156181   156274 
  156267   156190   156111   156068   156001   155862   155844   156018 
  156119   156076   156066   156081   156054   156108   156222   156196 
  156118   156105   156068   155985   155903   155907   155991   156030 
  156077   156185   156204   156100   156039   156073   156103   156115 
  156100   156031   155993   156041   156078   156022   155961   155983 
  155973   155937   155987   156035   156043   156124   156208   156153 
  156095   156112   156095   156072   156111   156153   156145   156112 
  156080   156008   155933   155950   156011   156069   156180   156259 
  156242   156182   156076   156022   156097   156107   156012   156000 
  156077   156130   156095   156001   155957   155988   156060   156132 
  156146   156119   156082   156054   156088   156126   156055   155973 
  156014   156096   156111   156087   156069   156092   156159   156181 
  156151   156139   156128   156135   156155   156068   155962   156014 
  156107   156150   156169   156128   156107   156141   156089   155995 
  155995   156051   156043   155966   155961   156072   156162   156093 
  155945   155953   156082   156105   156028   155977   156027   156136 
  156169   156146   156159   156105   155953   155931   156072   156138 
  156155   156217   156155   156003   155942   155911   155895   156024 
  156219   156196   156026   156042   156143   156132   156078   155983 
  155999   156196   156192   155993   156014   156170   156118   155945 
  155911   155989   156115   156244   156201   156046   156001   156062 
  156101   156108   156138   156088   155931   155935   156082   156084 
  156031   156096   156126   156143   156267   156232   156037   156054 
  156158   156062   155919   155898   155962   156073   156199   156173 
  156038   156058   156138   156108   156142   156222   156207   156185 
  156197   156132   155977   155887   155979   156082   156061   156046 
  156085   156088   156010   155970   156089   156150   156027   155961 
  156023   156043   155965   155954   156062   156080   155950   155896 
  156012   156165   156247   156184   156049   156038   156064   156006 
  156015   156097   156131   156127   156095   156078   156166   156239 
  156145   156105   156213   156172   156023   156016   156050   156035 
  156072   156093   155985   155945   156150   156289   156126   155960 
  155958   156018   156134   156251   156189   155997   155956   156027 
  156020   156043   156128   156127   156089   156080   156041   155965 
  155970   156082   156150   156151   156147   156068   155935   155947 
  156166   156300   156176   156062   156061   156004   155968   156020 
  156054   156096   156162   156120   156018   156019   156078   156142 
  156201   156127   156018   156030   156027   156031   156172   156254 
  156173   156109   156064   156015   156080   156120   156034   156023 
  156092   156123   156136   156108   156038   156023   156064   156076 
  156064   156100   156089   155981   155987   156074   156050   156028 
  156033   155999   156054   156135   156074   156001   156024   156039 
  156100   156265   156253   156055   156023   156057   155953   155919 
  155991   156031   156101   156163   156143   156157   156203   156139 
  156030   156018   156024   155992   155995   156035   156099   156146 
  156115   156126   156195   156109   155956   155995   156088   156073 
  156112   156109   155931   155908   156119   156205   156114   156055 
  156037   155985   155995   156050   156055   156081   156145   156162 
  156149   156146   156134   156092   155997   155884   155927   156136 
  156242   156165   156115   156142   156093   155999   156024   156123 
  156082   155969   156022   156118   156101   156097   156062   155980 
  156042   156150   156184   156215   156142   155962   155943   156062 
  156115   156182   156209   156055   156014   156177   156172   156038 
  156105   156190   156081   156023   156035   155977   156041   156143 
  156047   155996   156138   156236   156211   156143   156060   156016 
  156051   156050   156003   156033   156095   156076   155970   155934 
  156072   156176   156149   156122   156118   156114   156092   156060 
  155989   155869   155850   155987   156082   156035   156015   156099 
  156123   156114   156170   156149   156028   155964   155964   156010 
  156114   156208   156169   156019   155984   156109   156174   156169 
  156196   156157   156031   156000   156092   156103   155991   155962 
  156049   156057   156011   156108   156208   156143   156131   156211 
  156146   156031   156006   155906   155804   155911   156072   156151 
  156174   156141   156159   156199   156146   156058   155957   155929 
  156051   156130   156068   156031   156080   156126   156118   156088 
  156096   156100   156078   156070   156108   156163   156074   155930 
  155974   156035   156007   156104   156228   156163   156060   156042 
  156039   156062   156104   156077   156039   156053   156096   156204 
  156303   156217   156062   156058   156134   156099   155997   155977 
  156004   156014   156081   156174   156157   156078   156046   155997 
  155927   155904   155920   155966   156024   156051   156089   156189 
  156219   156105   156042   156077   156093   156054   155965   155945 
  156016   156050   156074   156151   156224   156217   156127   156109 
  156139   156019   155920   156014   156100   156132   156173   156126 
  156004   155973   156097   156208   156145   156046   156092   156149 
  156058   155908   155818   155868   156030   156151   156199   156266 
  156320   156251   156151   156108   155991   155875   155937   156028 
  156049   156115   156230   156266   156204   156142   156038   155877 
  155856   155988   156134   156231   156259   156203   156089   155997 
  155958   155957   155993   156045   156100   156111   156018   155956 
  156045   156145   156162   156122   156039   156022   156087   156123 
  156080   155960   155926   156050   156131   156109   156096   156131 
  156186   156146   156078   156118   156108   156051   156115   156147 
  156062   156018   155934   155854   156010   156172   156062   155945 
  156047   156161   156168   156166   156116   156045   156058   156042 
  155977   155997   156065   156116   156151   156130   156001   155942 
  156084   156174   156139   156132   156092   156028   156006   155985 
  155992   156027   156088   156139   156138   156135   156087   156012 
  156061   156124   156115   156124   156073   156047   156150   156105 
  155956   156030   156228   156282   156182   156046   155970   156018 
  156112   156074   155962   156007   156184   156249   156116   155969 
  155988   156081   156064   155993   156027   156103   156085   156065 
  156123   156108   155981   155949   156041   156058   156012   156045 
  156064   156047   156108   156189   156226   156135   155946   155984 
  156193   156193   156030   155966   156027   156104   156120   156096 
  156089   156093   156076   156081   156134   156141   156046   155922 
  155927   156058   156123   156109   156091   156077   156131   156146 
  156051   156042   156100   156073   156026   156011   156008   156045 
  156058   156027   156072   156135   156130   156146   156195   156215 
  156151   156061   156060   156035   155969   155987   156001   155989 
  156049   156143   156190   156190   156141   156068   156039   156057 
  156074   156028   155916   155900   156066   156203   156213   156227 
  156208   156122   156011   155910   155941   156042   156132   156239 
  156159   155989   156031   156082   156027   156062   156126   156123 
  156146   156166   156120   156081   156055   155995   155995   156097 
  156146   156076   155984   155969   156064   156163   156091   155943 
  156019   156161   156055   155968   156070   156084   156012   156028 
  156097   156196   156238   156108   156012   156139   156155   155907 
  155784   155896   156070   156180   156085   155996   156111   156213 
  156209   156188   156154   156103   156084   156112   156091   156011 
  155972   156022   156119   156119   156055   156078   156054   155938 
  155992   156146   156112   156111   156244   156166   156060   156196 
  156265   156193   156145   156028   155892   155852   155845   155926 
  156101   156147   156128   156222   156209   156069   156003   155927 
  155954   156153   156199   156143   156146   156062   155968   155961 
  155934   155893   155970   156151   156195   156042   156019   156220 
  156328   156265   156204   156130   156060   156091   156099   156006 
  155992   156081   156085   156058   156047   155943   155880   155947 
  156033   156166   156305   156263   156107   156019   155972   155983 
  156068   156060   156037   156168   156273   156203   156066   155999 
  156039   156099   156074   156000   155989   156073   156130   156082 
  156018   155970   155938   155984   156062   156091   156118   156119 
  156008   155911   155958   156020   156062   156139   156174   156180 
  156165   156149   156197   156172   156100   156132   156149   156101 
  155992   155833   155835   155915   155903   155985   156154   156238 
  156273   156259   156247   156327   156336   156147   155931   155904 
  155991   155989   156011   156091   156000   155923   156091   156162 
  155999   156020   156228   156230   156088   156037   156073   156073 
  155989   156014   156085   155962   155877   155976   156043   156022 
  155976   156028   156207   156282   156190   156120   156159   156235 
  156212   156020   155838   155900   156014   155925   155902   156122 
  156285   156266   156199   156139   156107   156097   156058   155997 
  155973   156011   156077   156082   156001   155962   155976   155947 
  155979   156077   156091   156130   156298   156417   156413   156394 
  156316   156126   156006   155999   155893   155773   155810   155908 
  156041   156142   156089   156031   156066   156064   156053   156103 
  156082   156030   156093   156084   155945   155950   156051   156093 
  156143   156093   155941   155984   156143   156155   156105   156077 
  156088   156165   156165   156061   156038   156130   156182   156069 
  155898   155891   156034   156116   156070   156053   156150   156212 
  156135   156027   156022   156166   156328   156263   156076   156050 
  156077   155974   155910   155981   156031   156026   156068   156088 
  156016   156001   156080   156120   156208   156350   156304   156186 
  156224   156250   156143   156018   155976   155984   155991   156000 
  155976   155950   156004   156096   156120   156085   156114   156151 
  156078   155996   155996   156053   156104   156089   156065   156072 
  156072   156101   156145   156119   156051   156019   156066   156124 
  156065   155957   155914   155919   156003   156109   156081   156034 
  156085   156149   156212   156168   156006   156024   156131   156050 
  155942   155974   156111   156278   156278   156091   155966   156003 
  156062   156081   156097   156081   156047   156065   156019   155869 
  155842   155973   156084   156054   155938   155920   155995   155987 
  155950   156011   156077   156080   156066   156066   156154   156286 
  156332   156319   156253   156168   156158   156159   156122   156082 
  156076   156118   156114   156070   156095   156089   156039   156091 
  156155   156115   156082   156109   156084   156018   156038   156108 
  156130   156100   156049   156062   156141   156100   155968   156004 
  156128   156115   156026   155916   155849   155964   156105   156089 
  156097   156236   156328   156254   156104   156019   155991   155984 
  156020   156035   156060   156123   156112   156080   156064   155968 
  155923   156051   156128   156039   156038   156153   156123   156016 
  156006   155976   155958   156089   156182   156118   156053   156041 
  156089   156197   156209   156107   156045   156023   155999   156011 
  156033   156055   156124   156154   156069   156010   156033   155997 
  155941   155965   156003   156041   156105   156103   156049   156103 
  156212   156186   156091   156069   156069   156108   156231   156178 
  155969   155973   156099   156108   156091   156100   156123   156158 
  156136   156091   156114   156141   156118   156126   156147   156118 
  156096   156039   155912   155889   155984   156055   156111   156158 
  156168   156203   156243   156174   156061   156049   156062   155996 
  155964   156051   156116   156077   156035   156068   156065   155937 
  155880   156004   156087   156085   156123   156116   156030   155983 
  155989   155974   155945   155957   156019   156069   156072   156087 
  156131   156145   156112   156073   156080   156136   156146   156077 
  156041   156065   156053   155999   155972   155974   156008   156087 
  156174   156203   156172   156176   156231   156242   156165   156089 
  156116   156168   156124   156039   156016   156038   156026   155993 
  155987   155997   156043   156096   156101   156128   156161   156092 
  156004   156015   156081   156092   156034   156045   156116   156124 
  156122   156135   156074   155980   155966   156046   156120   156145 
  156153   156136   156118   156116   156081   156003   155922   155889 
  155947   156074   156126   156074   156104   156184   156147   156123 
  156178   156163   156115   156131   156130   156074   156034   156006 
  155997   156020   156020   156010   156035   156097   156173   156189 
