Origin Time       2024/06/23 22:54:00
Lat.              35.645
Long.             140.060
Depth. (km)       72
Mag.              4.1
Station Code      KNGH21
Station Lat.      35.4628
Station Long.     139.2146
Station Height(m) 245
Record Time       2024/06/23 22:54:51
Sampling Freq(Hz) 100Hz
Duration Time(s)  120
Dir.              1
Scale Factor      2942(gal)/8224139
Max. Acc. (gal)   0.190
Last Correction   2024/06/23 22:54:51
Memo.             
[...]
  205063   205063   205067   205067   205063   205065   205066   205065 
  205065   205065   205066   205066   205065   205065   205066   205069 
  205067   205066   205066   205065   205066   205067   205066   205065 
  205065   205066   205065   205066   205067   205066   205069   205070 
  205066   205063   205065   205065   205062   205065   205069   205069 
  205065   205062   205063   205065   205063   205065   205066   205065 
  205063   205063   205065   205065   205065   205065   205065   205065 
  205063   205063   205066   205065   205063   205065   205065   205066 
  205066   205063   205065   205065   205066   205066   205066   205065 
  205063   205063   205067   205067   205063   205062   205063   205065 
  205066   205065   205065   205066   205065   205063   205066   205067 
  205066   205065   205062   205065   205066   205066   205066   205066 
  205065   205063   205066   205069   205067   205067   205066   205067 
  205067   205066   205067   205069   205066   205063   205063   205065 
  205067   205067   205067   205067   205066   205066   205066   205063 
  205063   205067   205069   205066   205065   205066   205066   205065 
  205065   205067   205066   205066   205067   205066   205063   205063 
  205067   205067   205066   205066   205066   205066   205066   205066 
  205066   205066   205067   205067   205065   205063   205065   205065 
  205066   205067   205067   205066   205067   205069   205067   205065 
  205066   205067   205066   205065   205066   205066   205065   205065 
  205065   205065   205067   205067   205065   205065   205066   205065 
  205067   205067   205065   205063   205063   205066   205069   205069 
  205066   205065   205065   205065   205065   205065   205067   205065 
  205063   205067   205066   205063   205065   205069   205069   205067 
  205066   205065   205066   205066   205066   205066   205067   205066 
  205065   205066   205063   205063   205067   205067   205066   205069 
  205067   205065   205066   205067   205066   205065   205065   205065 
  205069   205069   205066   205065   205066   205065   205065   205066 
  205065   205065   205066   205066   205065   205065   205066   205069 
  205069   205069   205073   205070   205065   205066   205066   205059 
  205052   205051   205058   205060   205059   205062   205065   205062 
  205074   205098   205106   205096   205086   205069   205051   205050 
  205054   205047   205038   205038   205051   205058   205060   205065 
  205051   205040   205066   205096   205117   205131   205123   205098 
  205071   205059   205043   205000   204971   205005   205069   205089 
  205067   205069   205070   205047   205059   205096   205123   205170 
  205198   205147   205065   205012   204973   204969   205028   205071 
  205059   205036   205024   205028   205043   205050   205047   205052 
  205109   205182   205168   205110   205101   205094   205052   205002 
  204985   205019   205042   205042   205082   205133   205124   205042 
  204970   205036   205150   205156   205135   205124   205075   205073 
  205100   205001   204853   204863   204952   204948   204973   205089 
  205081   204973   205042   205185   205151   205113   205267   205372 
  205210   205033   205100   205116   204886   204784   204946   205079 
  205110   205086   204948   204843   204957   205155   205222   205183 
  205187   205218   205159   205058   205025   205017   204978   204985 
  205048   205067   205075   205096   205044   204963   204959   205016 
  205078   205109   205097   205119   205187   205158   205028   204967 
  205027   205140   205200   205158   205063   204939   204842   204873 
  205009   205139   205200   205182   205135   205105   205077   205047 
  205085   205179   205200   205066   204923   204917   204961   205009 
  205089   205110   205081   205116   205160   205102   205033   205069 
  205131   205109   205016   204928   204882   204888   204954   205039 
  205106   205179   205233   205183   205090   205121   205212   205174 
  205096   205116   205087   204920   204804   204828   204877   204931 
  205023   205102   205156   205189   205170   205152   205206   205268 
  205240   205171   205125   205032   204917   204919   205016   205106 
  205150   205106   205036   205029   205016   204989   205032   205087 
  205092   205056   205006   205005   205075   205141   205100   205020 
  205069   205128   205073   205047   205093   205123   205113   205048 
  204951   204905   204962   205063   205085   205050   205069   205085 
  205038   205009   205066   205198   205260   205173   205094   205075 
  205033   205013   205017   204990   204981   205021   205060   205055 
  205028   205052   205087   205086   205098   205106   205110   205155 
  205160   205127   205146   205164   205110   205039   205009   204979 
  204894   204843   204911   204992   205025   205071   205110   205136 
  205194   205229   205216   205227   205209   205100   204994   204965 
  204961   204952   204979   205013   204984   204925   204912   204943 
  204996   205063   205135   205160   205113   205062   205075   205131 
  205155   205123   205085   205067   205044   205038   205054   205055 
  205043   205044   205079   205120   205112   205075   205085   205135 
  205167   205186   205190   205135   205066   205055   205044   205019 
  205035   205048   204996   204947   204955   204969   204974   205016 
  205078   205114   205127   205112   205085   205090   205100   205094 
  205100   205097   205093   205083   205000   204930   204993   205089 
  205102   205056   205012   205009   205036   205044   205035   205052 
  205097   205133   205166   205183   205146   205096   205094   205085 
  205036   205020   205023   205009   205015   205042   205054   205056 
  205060   205073   205085   205096   205121   205124   205097   205116 
  205156   205146   205124   205116   205086   205040   204984   204959 
  204998   205050   205074   205058   205027   205020   205032   205079 
  205125   205101   205085   205109   205092   205046   205013   204986 
  204986   205029   205060   205043   205020   205023   205046   205094 
  205108   205054   205043   205102   205100   205052   205074   205110 
  205090   205067   205043   205016   205024   205028   205027   205043 
  205058   205104   205164   205160   205137   205132   205087   205011 
  204969   204996   205059   205070   204992   204950   205027   205082 
  205058   205071   205120   205117   205085   205075   205094   205124 
  205141   205109   205066   205090   205114   205081   205048   205019 
  205012   205051   205047   204989   204973   205006   205054   205071 
  205055   205083   205140   205140   205116   205116   205117   205075 
  205013   205002   205035   205062   205065   205054   205060   205071 
  205077   205093   205094   205102   205112   205077   205051   205066 
  205060   205051   205079   205083   205040   205013   205021   205070 
  205154   205166   205079   205042   205096   205120   205052   204958 
  204940   205009   205067   205071   205017   204936   204947   205078 
  205166   205144   205132   205150   205135   205119   205101   205065 
  205029   204982   204957   205005   205067   205078   205065   205058 
  205069   205101   205101   205060   205073   205135   205140   205093 
  205063   205025   204992   205038   205109   205089   205004   204977 
  205039   205086   205066   205044   205046   205048   205062   205075 
  205092   205136   205160   205119   205073   205089   205116   205071 
  205001   204992   205029   205042   205029   205063   205137   205155 
  205117   205077   205027   205015   205090   205167   205144   205070 
  205004   204943   204930   204993   205055   205094   205132   205116 
  205073   205092   205108   205063   205024   205005   204997   205048 
  205112   205086   205033   205071   205123   205092   205067   205097 
  205097   205056   205056   205101   205123   205121   205109   205100 
  205092   205039   205002   205028   205017   204962   204952   204988 
  205069   205156   205152   205113   205123   205124   205096   205067 
  205038   205025   205046   205090   205105   205046   205002   205035 
  205052   205019   205031   205100   205129   205092   205039   205029 
  205058   205079   205069   205055   205069   205060   204992   204912 
  204892   204952   205025   205054   205093   205167   205174   205075 
  205013   205044   205075   205102   205135   205119   205102   205131 
  205132   205075   205012   205002   205063   205133   205136   205069 
  205021   205044   205123   205198   205154   205021   204974   204984 
  204967   204997   205062   205069   205063   205112   205151   205131 
  205079   205051   205052   205023   204975   205005   205081   205100 
  205083   205087   205101   205104   205100   205105   205129   205135 
  205078   204994   204958   205009   205105   205154   205120   205051 
  205004   205011   205050   205059   205023   204998   205023   205082 
  205150   205173   205136   205092   205060   205046   205062   205070 
  205033   205002   205004   205019   205048   205062   205044   205055 
  205074   205042   205020   205102   205214   205201   205101   205075 
  205101   205070   204998   204954   204965   204988   205000   205051 
  205127   205117   205039   205058   205155   205154   205073   205052 
  205066   205060   205043   205017   205009   205043   205085   205093 
  205071   205075   205098   205101   205090   205074   205051   205036 
  205043   205073   205093   205082   205063   205038   205016   205024 
  205046   205079   205106   205066   205016   205059   205139   205128 
  205073   205089   205116   205082   205074   205098   205071   205028 
  205012   204990   204989   205020   205044   205083   205152   205173 
  205079   204939   204897   204986   205085   205117   205137   205160 
  205139   205086   205038   205002   204988   205012   205096   205154 
  205093   205008   205027   205105   205114   205044   205024   205087 
  205119   205065   205031   205094   205160   205128   205059   205031 
  205016   205008   205046   205093   205071   205027   205035   205066 
  205094   205110   205092   205086   205128   205158   205128   205073 
  205027   205000   204994   204982   204957   204981   205067   205117 
  205097   205078   205098   205135   205159   205117   205036   204998 
  204975   204920   204913   205012   205135   205173   205151   205135 
  205098   205071   205096   205108   205093   205085   205067   205056 
  205073   205075   205042   205025   205062   205063   205002   204988 
  205019   205013   205005   205023   205070   205164   205206   205163 
  205141   205133   205102   205075   205056   205047   205047   205039 
  205011   204962   204944   204997   205052   205074   205094   205119 
  205105   205058   205060   205101   205100   205090   205087   205048 
  205038   205071   205069   205055   205043   204990   204971   205043 
  205114   205100   205066   205096   205125   205113   205102   205081 
  205055   205060   205059   205038   205032   205006   204985   205058 
  205127   205093   205075   205121   205154   205147   205101   205044 
  205016   205028   205052   205050   205032   205028   205015   205021 
  205086   205127   205094   205047   205028   205052   205077   205081 
  205087   205083   205086   205127   205143   205113   205089   205056 
  205025   205029   205005   204948   204938   204997   205056   205055 
  205050   205081   205085   205077   205119   205159   205133   205090 
  205102   205139   205120   205074   205067   205059   205031   205005 
  204981   204973   205001   205039   205066   205096   205120   205119 
  205114   205136   205156   205139   205090   205047   205046   205079 
  205083   205036   204998   205004   205027   205052   205090   205098 
  205047   205008   205013   205027   205051   205079   205092   205094 
  205077   205040   205040   205067   205062   205033   205039   205062 
  205074   205077   205070   205096   205159   205156   205090   205044 
  205020   205021   205048   205052   205058   205082   205075   205040 
  205021   205016   205013   205024   205042   205051   205065   205075 
  205097   205125   205125   205109   205092   205032   204971   204988 
  205059   205120   205128   205100   205086   205094   205077   205025 
  205027   205083   205081   205032   205035   205063   205055   205044 
  205092   205140   205119   205074   205071   205087   205106   205131 
  205131   205090   205051   205042   205020   204961   204939   204982 
  205012   205033   205074   205102   205127   205162   205189   205204 
  205201   205181   205174   205166   205104   205028   205015   205035 
  205029   204998   204978   204958   204889   204834   204866   204908 
  204954   205089   205245   205285   205213   205156   205170   205175 
  205137   205129   205148   205116   205056   205005   204919   204801 
  204731   204750   204877   205090   205278   205357   205360   205318 
  205239   205164   205104   205002   204890   204812   204754   204739 
  204762   204793   204912   205121   205299   205383   205386   205370 
  205356   205306   205239   205158   205065   205032   205054   205011 
  204903   204849   204874   204928   205013   205112   205146   205121 
  205110   205133   205131   205043   204938   204909   204921   204901 
  204915   205042   205171   205228   205272   205286   205229   205150 
  205102   205098   205093   205036   205001   205077   205186   205197 
  205074   204867   204684   204589   204604   204712   204858   204988 
  205140   205390   205596   205541   205299   205121   205105   205147 
  205132   205075   205055   205055   205000   204927   204962   205133 
  205281   205244   205133   205124   205179   205166   205054   204943 
  204893   204873   204874   204885   204876   204819   204718   204719 
  204893   205078   205178   205245   205320   205387   205402   205386 
  205374   205293   205171   205119   205023   204836   204769   204832 
  204867   204877   204946   205048   205110   205150   205187   205159 
  205086   205056   205023   204896   204788   204854   204966   204996 
  205048   205136   205195   205247   205247   205175   205129   205140 
  205146   205141   205181   205195   205101   204978   204907   204890 
  204932   204961   204939   204958   205056   205194   205297   205283 
  205171   205059   205009   205000   204997   205020   205054   205051 
  205020   204997   204984   205016   205110   205170   205156   205131 
  205120   205123   205141   205179   205201   205158   205070   204979 
  204961   205036   205054   204962   204967   205125   205208   205148 
  205152   205249   205285   205224   205089   204927   204874   204896 
  204815   204708   204743   204832   204878   204952   205047   205075 
  205097   205201   205312   205360   205375   205347   205286   205221 
  205113   205005   204984   204965   204901   204943   205054   205066 
  205071   205104   205011   204898   204924   205009   205108   205187 
  205163   205123   205147   205163   205148   205179   205235   205210 
  205143   205101   205039   204943   204897   204931   204943   204835 
  204699   204715   204876   205017   205075   205081   205096   205168 
  205235   205229   205193   205158   205119   205077   205083   205146 
  205147   205027   204894   204854   204870   204892   204927   204943 
  204931   205001   205178   205318   205353   205336   205310   205251 
  205139   205020   204923   204898   205021   205156   205148   205070 
  205006   204958   204954   205017   205109   205182   205206   205186 
  205141   205108   205113   205098   205023   204966   205001   205078 
  205093   205058   205058   205073   205056   205052   205086   205119 
  205100   205040   205051   205158   205181   205093   205065   205081 
  205033   204979   204998   205023   205001   205020   205056   205047 
  205052   205059   205031   205001   204988   205023   205096   205132 
  205147   205186   205186   205116   205071   205074   205052   204993 
  204943   204948   204982   205015   205063   205116   205147   205131 
  205101   205117   205124   205086   205085   205083   205013   204981 
  205054   205132   205135   205038   204898   204831   204855   204930 
  205020   205078   205112   205156   205167   205136   205119   205109 
  205075   205043   205047   205113   205221   205259   205155   205031 
  205002   205020   205046   205090   205104   205051   204977   204948 
  205005   205081   205077   205042   205060   205086   205036   204946 
  204884   204857   204898   205016   205114   205143   205137   205129 
  205127   205114   205087   205062   205047   205023   205005   205055 
  205132   205144   205137   205135   205081   205056   205125   205202 
  205228   205200   205141   205096   205069   205047   205036   205029 
  205005   204992   205012   205013   204951   204858   204797   204824 
  204940   205067   205131   205141   205179   205262   205275   205194 
  205193   205299   205330   205236   205137   205100   205073   205002 
  204935   204936   205011   205105   205123   205015   204888   204846 
  204836   204877   205044   205185   205193   205218   205295   205297 
  205210   205146   205151   205140   205021   204885   204874   204927 
  204911   204858   204854   204882   204938   205060   205181   205206 
  205163   205123   205123   205112   205073   205116   205194   205163 
  205082   205039   205011   204988   204961   204930   204923   204939 
  204973   205025   205098   205178   205206   205144   205024   204923 
  204915   204961   204985   205024   205117   205183   205160   205102 
  205060   205029   205044   205101   205137   205178   205237   205222 
  205160   205186   205233   205114   204905   204820   204836   204850 
  204915   205020   205058   205048   205056   205086   205144   205179 
  205143   205133   205194   205210   205163   205156   205164   205101 
  205050   205101   205117   205023   204985   205062   205094   205047 
  204997   204944   204904   204924   204998   205087   205137   205154 
  205183   205187   205105   204989   204965   205035   205056   205012 
  204993   205006   205001   204986   205001   205011   204932   204840 
  204900   205065   205160   205200   205285   205330   205240   205129 
  205077   205025   204994   205040   205094   205083   205048   205051 
  205090   205117   205086   205058   205097   205135   205121   205105 
  205101   205090   205060   204986   204920   204943   205008   205047 
  205066   205046   205011   205029   205071   205074   205069   205104 
  205146   205128   205083   205112   205191   205232   205237   205177 
  205011   204881   204882   204932   204973   205016   205071   205146 
  205191   205178   205150   205100   205001   204959   205016   205046 
  205002   204962   204977   205046   205097   205087   205083   205114 
  205133   205119   205067   205029   205092   205200   205213   205148 
  205105   205078   205066   205071   205052   205006   204957   204920 
  204934   204992   205048   205073   205073   205062   205042   205063 
  205127   205140   205093   205073   205038   204938   204908   205011 
  205113   205132   205092   205060   205074   205094   205089   205035 
  204974   205011   205089   205083   205023   204969   204965   205042 
  205074   205032   205048   205087   205094   205096   205047   204981 
  204984   205054   205135   205155   205148   205210   205293   205321 
