Origin Time       2024/06/23 22:54:00
Lat.              35.645
Long.             140.060
Depth. (km)       72
Mag.              4.1
Station Code      KNGH11
Station Lat.      35.4040
Station Long.     139.3539
Station Height(m) -1788
Record Time       2024/06/23 22:54:39
Sampling Freq(Hz) 100Hz
Duration Time(s)  120
Dir.              1
Scale Factor      2940(gal)/6170270
Max. Acc. (gal)   0.287
Last Correction   2024/06/23 22:54:24
Memo.             
[...]
    7536     7539     7540     7540     7541     7540     7538     7539 
    7540     7540     7539     7540     7541     7540     7539     7538 
    7537     7538     7540     7539     7539     7540     7540     7538 
    7537     7538     7539     7539     7539     7539     7541     7540 
    7538     7538     7538     7538     7538     7539     7539     7538 
    7537     7537     7539     7540     7539     7539     7539     7539 
    7540     7540     7539     7540     7538     7537     7538     7539 
    7538     7537     7538     7540     7538     7538     7539     7539 
    7540     7539     7538     7538     7537     7537     7538     7539 
    7539     7538     7538     7539     7539     7538     7538     7538 
    7539     7538     7537     7538     7540     7540     7538     7538 
    7538     7538     7540     7540     7537     7538     7541     7539 
    7539     7542     7539     7537     7540     7540     7537     7539 
    7539     7536     7537     7539     7538     7537     7539     7541 
    7541     7539     7539     7540     7539     7539     7540     7540 
    7539     7540     7540     7538     7539     7541     7540     7539 
    7540     7541     7541     7541     7541     7540     7538     7538 
    7539     7538     7539     7541     7541     7539     7537     7537 
    7538     7539     7540     7540     7541     7540     7540     7539 
    7540     7540     7539     7540     7540     7539     7539     7539 
    7540     7540     7538     7539     7541     7539     7540     7542 
    7540     7539     7539     7539     7538     7539     7540     7538 
    7538     7538     7538     7541     7542     7540     7539     7539 
    7539     7539     7538     7540     7542     7541     7541     7540 
    7539     7540     7541     7540     7541     7541     7540     7539 
    7538     7539     7539     7538     7538     7539     7540     7539 
    7539     7540     7540     7539     7539     7539     7539     7539 
    7539     7538     7539     7541     7539     7538     7538     7538 
    7540     7540     7539     7539     7539     7538     7538     7539 
    7539     7538     7538     7538     7538     7538     7539     7538 
    7538     7538     7538     7540     7540     7537     7539     7539 
    7537     7539     7540     7540     7539     7537     7537     7539 
    7538     7539     7539     7539     7540     7540     7539     7539 
    7540     7539     7538     7538     7539     7539     7539     7539 
    7538     7538     7539     7540     7540     7540     7538     7537 
    7538     7537     7538     7540     7540     7537     7538     7539 
    7538     7537     7539     7539     7536     7537     7539     7541 
    7539     7536     7538     7540     7539     7539     7538     7537 
    7538     7541     7540     7537     7537     7538     7539     7540 
    7539     7541     7541     7538     7539     7541     7540     7539 
    7540     7538     7539     7539     7538     7539     7540     7538 
    7538     7539     7539     7540     7541     7539     7539     7539 
    7538     7539     7540     7538     7538     7539     7539     7539 
    7539     7540     7539     7540     7540     7539     7539     7537 
    7536     7539     7541     7542     7542     7542     7537     7533 
    7533     7537     7543     7548     7548     7541     7532     7529 
    7538     7549     7552     7551     7545     7541     7544     7549 
    7545     7533     7524     7521     7530     7545     7555     7552 
    7542     7532     7528     7531     7532     7539     7552     7566 
    7579     7574     7542     7509     7495     7506     7538     7563 
    7557     7532     7502     7489     7510     7545     7571     7589 
    7592     7589     7606     7605     7533     7474     7506     7535 
    7489     7439     7437     7461     7504     7532     7489     7463 
    7538     7607     7585     7557     7583     7594     7558     7531 
    7552     7568     7500     7418     7420     7488     7580     7630 
    7627     7631     7612     7553     7515     7509     7574     7696 
    7706     7614     7560     7494     7397     7373     7406     7452 
    7515     7541     7515     7507     7538     7493     7372     7382 
    7529     7640     7722     7787     7733     7614     7566     7534 
    7446     7371     7405     7569     7711     7684     7541     7390 
    7298     7321     7477     7668     7782     7816     7718     7456 
    7259     7318     7501     7657     7778     7823     7760     7611 
    7373     7168     7194     7404     7600     7685     7696     7647 
    7476     7326     7409     7607     7722     7764     7783     7740 
    7601     7455     7413     7441     7466     7470     7467     7519 
    7598     7542     7396     7401     7535     7591     7572     7576 
    7571     7526     7473     7429     7419     7493     7629     7685 
    7612     7570     7587     7514     7400     7424     7587     7714 
    7656     7475     7339     7300     7357     7485     7579     7584 
    7581     7595     7557     7509     7525     7574     7644     7712 
    7712     7668     7630     7577     7488     7416     7421     7476 
    7514     7491     7464     7514     7589     7603     7565     7529 
    7514     7514     7536     7587     7630     7603     7495     7408 
    7414     7466     7523     7604     7680     7677     7584     7486 
    7443     7437     7475     7551     7588     7572     7576     7607 
    7574     7490     7477     7496     7459     7471     7583     7673 
    7660     7576     7500     7476     7502     7564     7631     7651 
    7632     7603     7539     7462     7454     7510     7558     7541 
    7473     7443     7473     7525     7570     7565     7524     7503 
    7500     7504     7540     7595     7633     7642     7590     7500 
    7463     7490     7518     7545     7588     7616     7600     7548 
    7494     7470     7484     7522     7557     7585     7590     7542 
    7477     7433     7416     7446     7504     7536     7543     7569 
    7612     7606     7535     7485     7510     7560     7589     7610 
    7622     7619     7610     7566     7479     7435     7485     7554 
    7552     7523     7530     7531     7504     7481     7486     7532 
    7610     7667     7648     7581     7533     7502     7493     7504 
    7487     7481     7520     7539     7547     7565     7536     7483 
    7498     7564     7603     7595     7577     7557     7539     7543 
    7545     7529     7535     7536     7504     7507     7565     7583 
    7526     7495     7544     7582     7553     7520     7547     7577 
    7551     7519     7523     7555     7601     7600     7542     7513 
    7514     7491     7447     7436     7521     7621     7605     7543 
    7549     7552     7489     7460     7518     7566     7586     7599 
    7559     7504     7490     7500     7518     7522     7517     7537 
    7542     7531     7557     7572     7544     7539     7576     7590 
    7548     7504     7516     7558     7577     7546     7490     7475 
    7494     7519     7567     7587     7566     7582     7591     7537 
    7513     7552     7595     7607     7570     7512     7465     7425 
    7427     7489     7545     7565     7588     7558     7438     7419 
    7602     7742     7669     7551     7532     7552     7543     7504 
    7485     7538     7570     7499     7460     7512     7528     7504 
    7522     7552     7570     7605     7628     7619     7615     7604 
    7574     7558     7523     7471     7471     7502     7529     7553 
    7559     7546     7527     7494     7474     7502     7523     7507 
    7520     7565     7550     7493     7516     7575     7568     7549 
    7571     7589     7576     7549     7539     7548     7550     7523 
    7479     7464     7507     7561     7553     7510     7501     7521 
    7537     7564     7619     7643     7589     7544     7545     7520 
    7493     7501     7489     7462     7476     7528     7532     7489 
    7516     7580     7581     7581     7606     7591     7564     7577 
    7583     7532     7474     7484     7528     7545     7544     7529 
    7480     7446     7476     7503     7500     7529     7590     7633 
    7630     7586     7543     7527     7529     7546     7559     7560 
    7566     7556     7501     7472     7525     7591     7615     7586 
    7530     7520     7546     7548     7526     7505     7527     7558 
    7530     7505     7521     7530     7531     7514     7468     7457 
    7507     7571     7594     7569     7565     7588     7563     7534 
    7575     7599     7560     7529     7530     7550     7578     7594 
    7585     7558     7531     7499     7488     7552     7649     7658 
    7562     7471     7464     7487     7447     7391     7434     7555 
    7649     7638     7547     7506     7533     7521     7484     7472 
    7483     7541     7600     7577     7504     7476     7535     7596 
    7587     7599     7659     7623     7476     7377     7377     7416 
    7468     7517     7576     7614     7560     7499     7532     7573 
    7574     7591     7624     7638     7626     7590     7538     7490 
    7465     7457     7479     7525     7537     7526     7530     7532 
    7529     7542     7557     7524     7454     7460     7561     7622 
    7600     7580     7566     7542     7552     7567     7550     7517 
    7476     7448     7480     7554     7590     7588     7600     7598 
    7586     7597     7551     7474     7483     7539     7578     7589 
    7571     7579     7597     7554     7474     7432     7474     7550 
    7556     7495     7448     7480     7554     7562     7537     7573 
    7611     7609     7604     7579     7511     7438     7436     7544 
    7642     7619     7592     7608     7548     7472     7504     7563 
    7561     7516     7454     7427     7462     7527     7575     7558 
    7513     7532     7563     7533     7532     7567     7546     7516 
    7529     7532     7517     7535     7573     7574     7562     7577 
    7606     7629     7607     7533     7474     7464     7490     7509 
    7510     7540     7570     7549     7521     7507     7484     7481 
    7531     7597     7609     7582     7571     7540     7499     7514 
    7529     7518     7542     7540     7496     7497     7512     7522 
    7572     7612     7591     7559     7548     7527     7495     7507 
    7571     7643     7627     7528     7476     7469     7462     7513 
    7594     7619     7584     7556     7559     7545     7509     7500 
    7499     7494     7528     7587     7609     7600     7593     7576 
    7554     7529     7496     7464     7457     7489     7508     7489 
    7520     7590     7591     7548     7521     7485     7463     7481 
    7531     7601     7628     7592     7565     7574     7576     7550 
    7522     7526     7536     7508     7468     7481     7552     7582 
    7527     7497     7529     7533     7521     7544     7555     7527 
    7507     7509     7518     7533     7551     7569     7595     7603 
    7581     7570     7587     7597     7554     7474     7434     7450 
    7493     7544     7531     7470     7487     7546     7552     7537 
    7529     7559     7615     7602     7554     7531     7488     7463 
    7535     7639     7645     7556     7515     7562     7585     7563 
    7555     7533     7493     7489     7543     7632     7662     7589 
    7530     7542     7540     7524     7535     7534     7531     7555 
    7532     7474     7486     7514     7508     7509     7483     7449 
    7463     7476     7506     7567     7586     7587     7621     7666 
    7686     7634     7517     7433     7436     7474     7506     7533 
    7527     7496     7480     7481     7519     7592     7620     7579 
    7542     7538     7543     7556     7573     7577     7574     7573 
    7551     7509     7482     7481     7506     7532     7520     7500 
    7498     7481     7469     7529     7629     7667     7615     7529 
    7519     7589     7597     7532     7495     7482     7475     7494 
    7520     7542     7562     7558     7541     7551     7575     7581 
    7554     7516     7515     7533     7543     7552     7529     7533 
    7602     7602     7508     7457     7487     7555     7612     7602 
    7537     7491     7490     7503     7513     7530     7552     7569 
    7573     7565     7549     7529     7533     7559     7568     7541 
    7501     7486     7501     7517     7529     7549     7538     7515 
    7558     7607     7581     7555     7539     7481     7457     7477 
    7444     7402     7435     7467     7458     7481     7542     7603 
    7670     7712     7717     7743     7786     7796     7766     7726 
    7664     7534     7383     7293     7243     7190     7173     7246 
    7384     7511     7587     7642     7734     7838     7869     7839 
    7826     7823     7762     7658     7577     7469     7304     7184 
    7113     7022     6974     7018     7125     7331     7609     7846 
    8005     8051     7963     7855     7810     7794     7732     7594 
    7465     7405     7384     7425     7543     7659     7711     7707 
    7680     7666     7646     7595     7534     7487     7430     7314 
    7185     7162     7186     7148     7156     7313     7490     7604 
    7741     7906     7957     7822     7597     7410     7308     7306 
    7438     7645     7748     7713     7667     7631     7598     7646 
    7785     7958     8108     8134     7976     7701     7404     7130 
    6951     6936     7027     7108     7175     7313     7486     7519 
    7428     7422     7507     7540     7530     7523     7497     7447 
    7399     7390     7429     7460     7454     7467     7506     7564 
    7715     7950     8110     8133     8075     7931     7714     7517 
    7361     7195     7056     7048     7179     7315     7313     7218 
    7188     7283     7496     7791     8043     8121     8034     7898 
    7820     7826     7813     7698     7574     7502     7430     7413 
    7503     7564     7522     7488     7457     7359     7329     7441 
    7491     7401     7352     7414     7502     7535     7493     7419 
    7352     7327     7399     7533     7575     7521     7552     7672 
    7745     7779     7798     7761     7686     7598     7477     7381 
    7419     7575     7690     7642     7501     7438     7503     7624 
    7734     7784     7753     7643     7479     7332     7241     7212 
    7285     7478     7688     7755     7680     7602     7563     7542 
    7555     7570     7553     7554     7605     7630     7552     7440 
    7402     7460     7568     7642     7707     7805     7820     7728 
    7600     7430     7299     7305     7363     7345     7244     7159 
    7143     7169     7257     7424     7584     7674     7733     7789 
    7804     7778     7717     7581     7433     7397     7458     7545 
    7621     7668     7713     7736     7660     7523     7447     7484 
    7586     7669     7717     7727     7686     7622     7514     7333 
    7213     7263     7344     7328     7324     7425     7549     7659 
    7757     7740     7615     7560     7614     7652     7603     7525 
    7502     7524     7528     7519     7564     7626     7603     7512 
    7467     7530     7665     7782     7819     7747     7583     7425 
    7351     7364     7434     7491     7483     7450     7444     7452 
    7477     7531     7570     7558     7525     7502     7495     7500 
    7481     7441     7459     7505     7481     7446     7476     7520 
    7534     7500     7451     7458     7493     7494     7482     7505 
    7582     7660     7663     7649     7695     7736     7704     7651 
    7603     7539     7491     7486     7533     7641     7723     7707 
    7651     7594     7538     7522     7537     7551     7552     7517 
    7455     7430     7458     7507     7517     7450     7364     7339 
    7369     7418     7479     7549     7598     7607     7595     7612 
    7657     7664     7618     7560     7518     7520     7574     7594 
    7520     7426     7400     7421     7456     7534     7637     7656 
    7563     7470     7441     7453     7516     7607     7660     7652 
    7590     7486     7410     7435     7511     7544     7558     7628 
    7699     7673     7619     7617     7599     7527     7442     7394 
    7433     7536     7597     7557     7476     7451     7487     7533 
    7552     7527     7472     7428     7439     7487     7520     7554 
    7627     7711     7733     7690     7662     7651     7600     7531 
    7483     7458     7469     7507     7528     7546     7592     7607 
    7529     7429     7400     7425     7464     7511     7548     7582 
    7630     7655     7636     7588     7503     7406     7364     7381 
    7426     7479     7509     7552     7644     7704     7683     7654 
    7663     7643     7572     7574     7664     7684     7608     7534 
    7488     7447     7397     7375     7424     7499     7563     7636 
    7680     7628     7523     7449     7412     7387     7366     7382 
    7434     7463     7466     7485     7510     7520     7534     7562 
    7603     7656     7690     7687     7669     7622     7552     7546 
    7617     7647     7563     7427     7357     7396     7479     7551 
    7607     7607     7535     7467     7471     7515     7546     7566 
    7596     7627     7667     7694     7637     7549     7544     7567 
    7563     7589     7626     7632     7630     7602     7533     7466 
    7449     7517     7605     7579     7451     7357     7361     7414 
    7444     7438     7442     7484     7524     7507     7431     7354 
    7360     7449     7524     7552     7587     7655     7734     7765 
    7708     7602     7516     7491     7516     7555     7593     7635 
    7664     7662     7657     7661     7625     7533     7443     7425 
    7467     7508     7536     7546     7527     7502     7457     7404 
    7404     7449     7512     7573     7598     7626     7686     7714 
    7677     7596     7478     7360     7305     7317     7373     7470 
    7580     7648     7659     7646     7621     7594     7571     7556 
    7554     7532     7502     7517     7538     7515     7469     7422 
    7400     7435     7507     7576     7599     7569     7545     7559 
    7563     7551     7572     7611     7607     7579     7571     7569 
    7585     7654     7754     7826     7804     7689     7578     7503 
    7425     7368     7348     7330     7352     7437     7485     7456 
    7423     7418     7434     7462     7497     7557     7648     7720 
    7720     7677     7649     7601     7501     7408     7367     7362 
    7403     7485     7522     7500     7513     7555     7556     7553 
    7596     7648     7684     7696     7681     7652     7621     7607 
    7606     7562     7495     7473     7456     7433     7476     7559 
    7589     7562     7496     7402     7360     7416     7491     7518 
    7523     7542     7568     7578     7581     7587     7605     7641 
    7658     7624     7576     7540     7509     7512     7549     7542 
    7478     7436     7435     7436     7417     7401     7433     7503 
    7557     7586     7608     7594     7548     7527     7537     7539 
    7547     7600     7657     7660     7640     7631     7627     7645 
    7664     7615     7516     7452     7453     7474     7491     7526 
