Origin Time       2024/06/23 22:54:00
Lat.              35.645
Long.             140.060
Depth. (km)       72
Mag.              4.1
Station Code      KNGH21
Station Lat.      35.4628
Station Long.     139.2146
Station Height(m) 455
Record Time       2024/06/23 22:54:51
Sampling Freq(Hz) 100Hz
Duration Time(s)  120
Dir.              5
Scale Factor      7845(gal)/8223790
Max. Acc. (gal)   0.872
Last Correction   2024/06/23 22:54:51
Memo.             
[...]
    -656     -657     -658     -657     -658     -661     -656     -653 
    -660     -658     -657     -660     -657     -656     -657     -658 
    -660     -656     -653     -654     -656     -656     -658     -658 
    -657     -658     -658     -658     -660     -657     -654     -658 
    -658     -657     -660     -656     -653     -658     -658     -656 
    -657     -658     -657     -658     -658     -653     -653     -660 
    -660     -654     -656     -658     -660     -657     -658     -658 
    -656     -657     -657     -654     -657     -658     -656     -661 
    -658     -653     -660     -661     -654     -658     -661     -656 
    -654     -657     -656     -660     -664     -658     -656     -658 
    -657     -656     -656     -657     -658     -654     -654     -658 
    -661     -658     -656     -658     -661     -657     -654     -658 
    -658     -654     -656     -661     -661     -658     -657     -657 
    -656     -657     -657     -657     -658     -656     -654     -657 
    -656     -654     -658     -664     -658     -654     -658     -657 
    -657     -658     -654     -657     -658     -654     -656     -658 
    -656     -657     -657     -657     -658     -657     -657     -658 
    -657     -656     -657     -656     -654     -656     -657     -658 
    -658     -656     -657     -658     -657     -657     -658     -660 
    -657     -657     -661     -660     -654     -653     -654     -657 
    -654     -648     -648     -650     -642     -641     -648     -648 
    -661     -689     -712     -729     -727     -689     -645     -607 
    -577     -588     -615     -615     -614     -614     -621     -665 
    -723     -754     -733     -675     -660     -700     -739     -743 
    -687     -585     -514     -527     -592     -608     -564     -568 
    -629     -680     -718     -723     -730     -778     -810     -832 
    -828     -724     -607     -564     -548     -553     -579     -553 
    -503     -518     -556     -567     -608     -719     -862     -959 
    -886     -699     -656     -734     -722     -665     -654     -612 
    -562     -525     -395     -306     -479     -712     -711     -638 
    -754     -918     -899     -776     -731     -760     -747     -685 
    -648     -657     -670     -625     -410     -105      -98     -492 
    -870     -978     -928     -796     -726     -903    -1073     -970 
    -882     -924     -703     -225      -18     -229     -472     -525 
    -518     -567     -662     -761     -792     -792     -868     -955 
    -927     -787     -630     -584     -649     -594     -348     -203 
    -306     -476     -618     -762     -857     -868     -815     -691 
    -596     -689     -920     -985     -711     -440     -495     -664 
    -692     -631     -618     -693     -706     -591     -531     -580 
    -634     -675     -656     -591     -623     -746     -859     -899 
    -811     -668     -546     -423     -378     -457     -549     -625 
    -726     -762     -708     -657     -657     -692     -704     -696 
    -757     -843     -828     -711     -573     -484     -450     -446 
    -499     -662     -864     -918     -811     -697     -661     -676 
    -738     -816     -780     -646     -588     -583     -513     -459 
    -504     -572     -579     -530     -534     -681     -854     -895 
    -827     -738     -691     -699     -729     -741     -684     -552 
    -430     -380     -427     -557     -660     -650     -602     -621 
    -676     -696     -739     -838     -888     -885     -873     -777 
    -616     -526     -506     -479     -476     -537     -567     -534 
    -567     -699     -793     -791     -776     -766     -735     -735 
    -756     -746     -700     -567     -396     -411     -611     -715 
    -645     -565     -572     -629     -695     -801     -935     -967 
    -849     -676     -545     -460     -368     -330     -467     -649 
    -666     -619     -680     -774     -810     -830     -830     -774 
    -723     -672     -594     -531     -515     -526     -515     -480 
    -496     -607     -765     -865     -842     -757     -689     -715 
    -845     -962     -949     -792     -542     -317     -238     -326 
    -480     -599     -677     -756     -807     -784     -743     -781 
    -854     -812     -703     -689     -719     -672     -580     -514 
    -488     -492     -503     -492     -495     -556     -648     -761 
    -885     -926     -854     -768     -715     -688     -672     -634 
    -564     -475     -425     -472     -535     -544     -579     -680 
    -792     -901     -989     -953     -795     -672     -662     -660 
    -576     -469     -429     -476     -567     -614     -577     -523 
    -521     -591     -673     -696     -731     -855     -946     -881 
    -749     -652     -602     -639     -714     -696     -619     -568 
    -549     -565     -561     -499     -506     -676     -847     -868 
    -837     -822     -746     -629     -560     -594     -685     -664 
    -535     -460     -475     -533     -571     -562     -581     -652 
    -743     -862     -932     -854     -726     -665     -634     -611 
    -611     -612     -625     -603     -506     -487     -606     -702 
    -726     -742     -769     -816     -857     -823     -695     -538 
    -476     -541     -618     -634     -634     -670     -680     -616 
    -572     -627     -749     -837     -826     -722     -572     -494 
    -511     -527     -523     -554     -622     -693     -746     -787 
    -820     -812     -735     -657     -627     -594     -565     -594 
    -661     -699     -662     -595     -576     -634     -722     -734 
    -689     -691     -719     -687     -598     -554     -631     -696 
    -633     -572     -579     -561     -568     -672     -768     -773 
    -749     -760     -765     -727     -696     -688     -646     -575 
    -561     -614     -648     -631     -606     -573     -483     -422 
    -556     -792     -889     -842     -777     -700     -653     -696 
    -726     -706     -700     -637     -502     -432     -492     -642 
    -764     -726     -608     -577     -603     -650     -769     -854 
    -801     -646     -475     -491     -722     -886     -830     -650 
    -506     -488     -550     -616     -661     -688     -702     -689 
    -714     -791     -793     -711     -625     -554     -540     -604 
    -691     -738     -756     -735     -646     -548     -515     -584 
    -747     -874     -814     -615     -487     -535     -627     -645 
    -646     -642     -600     -562     -584     -662     -739     -796 
    -804     -707     -584     -585     -700     -768     -703     -598 
    -549     -514     -481     -583     -761     -776     -625     -515 
    -583     -754     -868     -865     -766     -634     -581     -629 
    -657     -604     -558     -569     -548     -510     -581     -691 
    -733     -776     -824     -805     -716     -608     -550     -579 
    -638     -677     -691     -650     -588     -623     -724     -714 
    -615     -612     -654     -618     -598     -665     -760     -819 
    -800     -734     -680     -634     -607     -623     -598     -507 
    -494     -558     -577     -589     -685     -803     -842     -830 
    -788     -691     -602     -576     -606     -662     -661     -572 
    -514     -579     -688     -719     -661     -587     -561     -610 
    -702     -807     -873     -843     -750     -638     -542     -535 
    -600     -616     -556     -525     -579     -668     -738     -781 
    -781     -707     -633     -666     -731     -718     -670     -619 
    -562     -584     -654     -619     -515     -517     -646     -780 
    -839     -832     -765     -652     -540     -519     -598     -635 
    -596     -607     -684     -731     -729     -735     -734     -660 
    -569     -567     -625     -689     -715     -627     -492     -488 
    -623     -749     -823     -850     -816     -741     -627     -523 
    -517     -579     -612     -594     -557     -550     -629     -727 
    -730     -704     -718     -734     -737     -719     -685     -660 
    -660     -692     -715     -672     -580     -517     -545     -612 
    -642     -665     -703     -695     -631     -591     -639     -692 
    -665     -627     -660     -766     -866     -881     -814     -665 
    -463     -356     -415     -503     -525     -538     -595     -715 
    -878     -988     -972     -885     -796     -699     -629     -592 
    -487     -379     -402     -477     -527     -579     -623     -672 
    -756     -820     -822     -781     -746     -756     -761     -693 
    -625     -619     -599     -515     -449     -469     -538     -598 
    -679     -778     -831     -827     -804     -750     -652     -561 
    -562     -654     -726     -715     -656     -577     -527     -587 
    -706     -708     -564     -461     -527     -654     -738     -799 
    -818     -778     -745     -715     -670     -649     -629     -588 
    -537     -494     -562     -739     -839     -789     -691     -606 
    -546     -548     -604     -688     -769     -795     -754     -688 
    -635     -631     -627     -560     -480     -467     -538     -658 
    -720     -712     -712     -702     -726     -827     -850     -729 
    -603     -558     -576     -592     -580     -553     -534     -594 
    -733     -797     -768     -795     -843     -773     -625     -517 
    -488     -508     -560     -641     -700     -711     -742     -778 
    -704     -598     -610     -660     -641     -625     -684     -747 
    -735     -707     -708     -683     -614     -548     -503     -496 
    -552     -630     -660     -691     -780     -816     -737     -685 
    -693     -654     -611     -615     -625     -642     -653     -629 
    -592     -540     -504     -587     -756     -865     -866     -814 
    -753     -704     -635     -525     -452     -477     -517     -530 
    -602     -716     -791     -861     -928     -899     -735     -523 
    -398     -425     -560     -697     -760     -784     -801     -757 
    -637     -514     -488     -554     -577     -534     -534     -631 
    -787     -920     -928     -787     -637     -592     -587     -561 
    -535     -519     -517     -541     -626     -751     -834     -854 
    -820     -726     -633     -587     -602     -684     -742     -683 
    -589     -580     -596     -550     -479     -481     -583     -727 
    -854     -905     -859     -768     -692     -650     -604     -562 
    -583     -648     -685     -656     -562     -508     -549     -584 
    -587     -646     -735     -784     -814     -812     -770     -719 
    -665     -614     -576     -552     -523     -459     -407     -475 
    -664     -853     -888     -783     -695     -703     -741     -747 
    -734     -719     -688     -657     -633     -592     -511     -450 
    -510     -622     -660     -658     -679     -691     -685     -693 
    -706     -696     -688     -711     -741     -741     -712     -691 
    -666     -606     -531     -498     -517     -579     -656     -677 
    -653     -702     -807     -862     -845     -780     -695     -594 
    -481     -429     -453     -471     -488     -576     -714     -842 
    -927     -931     -839     -703     -611     -580     -573     -575 
    -568     -541     -542     -622     -711     -723     -715     -714 
    -664     -618     -634     -664     -677     -664     -621     -611 
    -668     -731     -749     -720     -650     -589     -615     -677 
    -673     -623     -581     -577     -648     -764     -812     -750 
    -654     -596     -587     -599     -604     -610     -622     -619 
    -592     -564     -558     -599     -704     -846     -931     -907 
    -804     -681     -606     -568     -537     -519     -527     -598 
    -664     -642     -589     -569     -598     -683     -770     -816 
    -855     -881     -815     -696     -626     -610     -625     -641 
    -600     -515     -479     -490     -411     -248     -207     -395 
    -739    -1067    -1242    -1277    -1196    -1021     -845     -670 
    -463     -325     -365     -494     -573     -557     -414     -274 
    -324     -484     -652     -868    -1104    -1289    -1329    -1104 
    -707     -363     -157     -170     -395     -588     -650     -708 
    -742     -657     -459     -240     -179     -384     -739    -1092 
   -1335    -1355    -1216    -1070     -908     -666     -361     -135 
    -139     -337     -585     -745     -704     -508     -363     -398 
    -496     -526     -575     -766    -1017    -1165    -1173    -1105 
   -1008     -873     -650     -344      -48      112       70     -132 
    -387     -615     -822    -1067    -1301    -1341    -1162     -927 
    -743     -634     -583     -552     -554     -577     -530     -375 
    -210     -228     -459     -729     -923    -1050    -1146    -1237 
   -1197     -912     -514     -182       16       66       -6     -201 
    -531     -853    -1007    -1058    -1055     -907     -615     -324 
    -257     -500     -816    -1003    -1120    -1220    -1169     -835 
    -399     -153      -93      -86     -175     -464     -851    -1070 
   -1088    -1061     -961     -772     -650     -677     -750     -712 
    -571     -481     -469     -436     -361     -353     -513     -695 
    -719     -722     -891    -1058    -1000     -850     -791     -692 
    -490     -387     -434     -373     -152      -94     -311     -545 
    -745    -1100    -1487    -1571    -1354    -1082     -850     -598 
    -314      -55      129      202      141      -43     -355     -746 
   -1063    -1259    -1391    -1393    -1196     -888     -610     -464 
    -426     -440     -562     -791     -961     -942     -745     -461 
    -240     -151     -136     -191     -373     -635     -932    -1219 
   -1335    -1244    -1121    -1030     -869     -569     -209       40 
     109       35     -149     -425     -699     -881    -1015    -1121 
   -1098     -982     -932     -957     -909     -719     -498     -394 
    -384     -341     -271     -287     -386     -498     -635     -846 
   -1094    -1231    -1150     -915     -693     -629     -711     -747 
    -594     -388     -310     -297     -286     -361     -554     -753 
    -850     -876     -915     -955     -928     -828     -734     -685 
    -623     -531     -476     -413     -288     -251     -413     -680 
    -920    -1070    -1131    -1084     -849     -468     -203     -202 
    -360     -557     -731     -843     -874     -810     -684     -571 
    -518     -545     -645     -768     -797     -700     -643     -719 
    -801     -805     -734     -584     -475     -502     -588     -634 
    -622     -611     -681     -773     -769     -704     -668     -619 
    -534     -510     -589     -715     -805     -792     -712     -653 
    -665     -791     -904     -807     -589     -461     -446     -476 
    -527     -589     -646     -708     -787     -820     -784     -760 
    -751     -654     -481     -373     -383     -442     -483     -567 
    -761     -930     -951     -861     -753     -679     -564     -427 
    -449     -592     -685     -764     -859     -885     -847     -777 
    -627     -487     -469     -463     -417     -473     -645     -805 
    -892     -900     -858     -799     -733     -650     -572     -533 
    -527     -535     -534     -483     -429     -477     -621     -760 
    -846     -880     -850     -781     -758     -751     -664     -560 
    -550     -602     -637     -666     -720     -723     -664     -634 
    -626     -583     -513     -452     -419     -445     -558     -742 
    -949    -1143    -1197     -973     -584     -328     -321     -463 
    -610     -702     -735     -696     -623     -638     -735     -772 
    -688     -561     -530     -621     -657     -579     -533     -576 
    -643     -703     -742     -743     -657     -518     -464     -545 
    -680     -783     -854     -924     -916     -784     -635     -503 
    -363     -309     -410     -594     -730     -737     -729     -868 
   -1035     -997     -805     -660     -573     -448     -303     -253 
    -299     -345     -429     -621     -851    -1040    -1179    -1224 
   -1084     -816     -612     -522     -464     -414     -387     -409 
    -523     -654     -689     -648     -626     -646     -653     -689 
    -812     -895     -808     -653     -579     -553     -511     -518 
    -575     -621     -675     -750     -828     -861     -792     -680 
    -616     -579     -553     -596     -677     -754     -849     -878 
    -751     -552     -402     -353     -396     -441     -506     -692 
    -924    -1058    -1071     -981     -828     -656     -492     -383 
    -348     -402     -565     -734     -804     -808     -739     -595 
    -444     -337     -325     -400     -525     -729     -966    -1127 
   -1158    -1046     -846     -618     -394     -257     -267     -365 
    -460     -549     -661     -774     -823     -810     -805     -834 
    -861     -861     -835     -800     -738     -592     -421     -326 
    -307     -373     -546     -716     -774     -730     -670     -688 
    -750     -757     -753     -796     -842     -886     -884     -731 
    -495     -338     -334     -463     -603     -669     -687     -664 
    -623     -639     -702     -708     -648     -626     -707     -834 
    -934     -988     -985     -884     -631     -294      -99     -190 
    -413     -569     -645     -715     -828     -974    -1086    -1042 
    -805     -544     -392     -368     -452     -521     -500     -507 
    -611     -724     -788     -808     -776     -692     -627     -631 
    -642     -612     -622     -693     -716     -643     -575     -604 
    -695     -745     -726     -665     -580     -534     -548     -583 
    -650     -733     -750     -751     -818     -834     -703     -514 
    -399     -440     -604     -756     -803     -757     -683     -656 
    -684     -723     -751     -711     -561     -429     -427     -499 
    -585     -656     -702     -808     -949     -970     -846     -652 
    -463     -395     -456     -530     -610     -743     -881     -954 
    -940     -869     -805     -730     -550     -313     -170     -178 
    -321     -545     -727     -849     -985    -1097    -1111    -1009 
    -830     -652     -499     -378     -355     -419     -448     -403 
    -403     -546     -734     -801     -768     -726     -689     -718 
    -850     -963     -954     -819     -654     -548     -454     -346 
    -321     -433     -594     -691     -730     -765     -778     -761 
    -762     -766     -702     -580     -514     -565     -679     -772 
    -797     -738     -639     -598     -595     -544     -481     -491 
    -577     -699     -797     -849     -865     -841     -730     -533 
    -369     -365     -483     -587     -649     -737     -818     -842 
    -851     -872     -859     -762     -631     -567     -548     -531 
    -521     -495     -481     -529     -618     -727     -814     -810 
    -712     -612     -584     -668     -828     -901     -831     -746 
    -684     -611     -538     -468     -446     -529     -622     -622 
    -607     -688     -803     -830     -747     -611     -521     -550 
    -627     -645     -626     -665     -770     -832     -784     -669 
