Origin Time       2024/06/23 22:54:00
Lat.              35.645
Long.             140.060
Depth. (km)       72
Mag.              4.1
Station Code      KNGH19
Station Lat.      35.4173
Station Long.     139.0436
Station Height(m) 230
Record Time       2024/06/23 22:54:41
Sampling Freq(Hz) 100Hz
Duration Time(s)  120
Dir.              3
Scale Factor      2942(gal)/8224139
Max. Acc. (gal)   0.186
Last Correction   2024/06/23 22:54:42
Memo.             
[...]
  207293   207274   207293   207303   207319   207304   207262   207288 
  207311   207272   207285   207320   207287   207283   207314   207284 
  207264   207301   207314   207300   207295   207283   207291   207311 
  207297   207291   207299   207289   207295   207304   207296   207299 
  207301   207296   207306   207303   207292   207308   207318   207296 
  207285   207289   207285   207285   207299   207297   207285   207285 
  207284   207293   207318   207299   207265   207280   207300   207293 
  207285   207295   207299   207284   207287   207306   207307   207291 
  207280   207292   207306   207284   207269   207283   207304   207311 
  207299   207300   207308   207293   207291   207295   207284   207295 
  207304   207293   207299   207301   207287   207289   207292   207285 
  207299   207319   207297   207274   207300   207315   207288   207279 
  207295   207304   207303   207301   207296   207283   207285   207287 
  207291   207315   207300   207276   207297   207310   207297   207291 
  207287   207291   207297   207296   207295   207287   207291   207301 
  207296   207300   207312   207303   207303   207301   207281   207288 
  207296   207272   207284   207323   207306   207273   207284   207307 
  207304   207289   207303   207315   207293   207280   207295   207306 
  207291   207280   207289   207297   207304   207300   207295   207301 
  207299   207277   207277   207295   207299   207300   207293   207281 
  207295   207303   207297   207296   207291   207300   207297   207281 
  207292   207296   207297   207306   207285   207280   207304   207291 
  207265   207281   207297   207291   207299   207316   207301   207281 
  207292   207296   207284   207296   207296   207292   207300   207287 
  207289   207304   207296   207303   207304   207281   207272   207277 
  207289   207291   207287   207300   207304   207297   207292   207287 
  207287   207296   207316   207303   207272   207292   207301   207277 
  207285   207295   207304   207308   207285   207295   207308   207279 
  207279   207303   207301   207293   207293   207300   207296   207283 
  207292   207307   207303   207295   207288   207289   207306   207300 
  207281   207299   207300   207272   207285   207300   207292   207296 
  207297   207296   207293   207296   207303   207284   207274   207303 
  207303   207291   207303   207301   207283   207274   207300   207312 
  207295   207299   207297   207291   207299   207280   207270   207289 
  207283   207280   207296   207284   207274   207295   207306   207295 
  207284   207295   207287   207265   207285   207296   207288   207304 
  207300   207288   207292   207292   207311   207307   207277   207289 
  207303   207291   207300   207301   207281   207284   207301   207304 
  207293   207289   207299   207307   207297   207296   207303   207285 
  207279   207310   207311   207277   207283   207307   207307   207293 
  207287   207284   207281   207287   207307   207311   207299   207297 
  207296   207284   207283   207285   207280   207279   207296   207312 
  207306   207292   207296   207301   207297   207285   207273   207288 
  207301   207297   207301   207295   207291   207307   207300   207292 
  207301   207299   207289   207274   207280   207301   207291   207288 
  207307   207301   207293   207304   207297   207291   207304   207300 
  207279   207288   207304   207287   207280   207296   207293   207296 
  207301   207280   207279   207300   207281   207266   207297   207293 
  207276   207296   207279   207268   207293   207297   207289   207289 
  207306   207304   207284   207304   207328   207310   207299   207304 
  207307   207306   207288   207280   207297   207303   207284   207277 
  207299   207314   207297   207284   207296   207304   207295   207301 
  207314   207295   207280   207289   207288   207291   207306   207304 
  207289   207289   207303   207299   207296   207304   207310   207304 
  207293   207297   207300   207295   207303   207304   207292   207283 
  207287   207312   207316   207283   207273   207289   207295   207297 
  207300   207297   207303   207295   207274   207279   207293   207300 
  207300   207288   207284   207312   207312   207287   207297   207307 
  207295   207316   207320   207281   207281   207315   207312   207297 
  207306   207301   207297   207308   207296   207289   207311   207315 
  207310   207300   207289   207293   207293   207296   207307   207289 
  207277   207306   207304   207266   207272   207308   207319   207314 
  207320   207306   207295   207308   207292   207277   207299   207304 
  207292   207296   207301   207291   207283   207291   207304   207304 
  207296   207308   207308   207288   207301   207315   207292   207291 
  207306   207304   207297   207295   207296   207295   207280   207283 
  207312   207316   207289   207297   207323   207299   207272   207300 
  207312   207297   207300   207296   207289   207288   207289   207310 
  207319   207289   207279   207296   207287   207287   207310   207297 
  207276   207289   207301   207301   207292   207292   207307   207303 
  207299   207300   207281   207273   207283   207276   207276   207297 
  207314   207300   207288   207288   207284   207292   207308   207296 
  207276   207289   207303   207285   207287   207308   207306   207299 
  207295   207291   207295   207300   207297   207284   207296   207312 
  207289   207288   207307   207301   207300   207296   207277   207285 
  207303   207308   207306   207287   207280   207310   207307   207272 
  207284   207300   207288   207306   207323   207295   207287   207311 
  207306   207285   207289   207291   207292   207308   207301   207268 
  207277   207322   207310   207269   207285   207312   207289   207279 
  207300   207304   207307   207300   207276   207285   207311   207296 
  207279   207306   207319   207291   207291   207315   207295   207287 
  207319   207319   207277   207273   207315   207311   207283   207293 
  207301   207293   207296   207297   207291   207279   207277   207303 
  207311   207285   207289   207308   207297   207292   207299   207295 
  207288   207297   207320   207307   207277   207287   207304   207307 
  207301   207295   207292   207284   207279   207291   207301   207297 
  207297   207297   207299   207301   207295   207287   207299   207300 
  207288   207293   207289   207288   207299   207291   207292   207299 
  207296   207301   207296   207287   207288   207283   207285   207301 
  207293   207281   207289   207291   207285   207288   207301   207307 
  207288   207303   207316   207280   207288   207310   207273   207276 
  207312   207295   207283   207308   207303   207287   207292   207295 
  207303   207304   207283   207280   207291   207299   207304   207296 
  207291   207293   207285   207279   207288   207301   207304   207304 
  207306   207293   207272   207281   207300   207280   207265   207291 
  207293   207287   207306   207301   207281   207301   207318   207289 
  207281   207300   207293   207285   207304   207308   207289   207296 
  207304   207288   207292   207292   207276   207299   207318   207295 
  207281   207295   207306   207293   207285   207300   207300   207287 
  207289   207289   207287   207289   207288   207288   207293   207306 
  207306   207285   207277   207295   207300   207303   207308   207285 
  207274   207295   207285   207276   207301   207307   207291   207269 
  207269   207301   207307   207301   207307   207297   207300   207307 
  207299   207301   207307   207300   207300   207297   207287   207304 
  207320   207295   207293   207301   207274   207281   207307   207299 
  207280   207281   207292   207295   207300   207300   207287   207293 
  207310   207287   207266   207303   207316   207279   207283   207310 
  207297   207293   207301   207299   207300   207297   207296   207314 
  207306   207272   207272   207300   207312   207299   207292   207293 
  207283   207296   207311   207279   207288   207319   207291   207270 
  207285   207288   207285   207297   207306   207295   207272   207283 
  207310   207287   207276   207310   207300   207279   207293   207293 
  207277   207291   207311   207299   207287   207297   207308   207304 
  207283   207285   207300   207296   207304   207316   207314   207300 
  207265   207273   207316   207307   207288   207300   207297   207285 
  207299   207312   207293   207273   207277   207289   207299   207293 
  207291   207310   207314   207297   207299   207307   207297   207279 
  207277   207289   207295   207299   207293   207284   207303   207318 
  207307   207304   207303   207291   207296   207304   207293   207293 
  207307   207304   207308   207311   207289   207289   207316   207316 
  207299   207288   207277   207288   207299   207283   207301   207319 
  207287   207297   207322   207296   207285   207292   207287   207288 
  207296   207301   207304   207306   207303   207299   207299   207310 
  207307   207295   207301   207293   207279   207296   207293   207292 
  207312   207297   207285   207295   207292   207297   207293   207291 
  207316   207300   207287   207320   207314   207292   207306   207297 
  207291   207300   207301   207292   207280   207296   207311   207293 
  207293   207303   207293   207295   207299   207297   207308   207311 
  207293   207280   207287   207299   207293   207289   207308   207287 
  207261   207300   207306   207279   207296   207296   207284   207307 
  207311   207287   207277   207287   207312   207308   207279   207292 
  207306   207287   207295   207304   207280   207276   207293   207295 
  207299   207300   207293   207311   207311   207285   207296   207299 
  207288   207291   207276   207277   207304   207303   207285   207277 
  207280   207297   207307   207291   207277   207292   207296   207280 
  207299   207318   207285   207272   207297   207303   207289   207301 
  207310   207288   207276   207285   207291   207293   207297   207308 
  207310   207281   207264   207284   207303   207295   207281   207292 
  207299   207284   207285   207307   207306   207296   207308   207306 
  207289   207297   207292   207268   207285   207314   207304   207289 
  207287   207283   207299   207312   207299   207291   207281   207285 
  207308   207304   207299   207308   207304   207293   207284   207296 
  207306   207291   207279   207277   207295   207311   207301   207307 
  207296   207270   207297   207299   207279   207304   207296   207283 
  207312   207306   207299   207311   207288   207283   207301   207308 
  207304   207273   207269   207308   207306   207281   207284   207301 
  207312   207303   207285   207281   207297   207310   207292   207291 
  207308   207304   207301   207292   207272   207288   207308   207297 
  207287   207288   207293   207295   207292   207292   207293   207296 
  207293   207280   207269   207283   207297   207289   207300   207311 
  207285   207288   207300   207279   207281   207291   207284   207304 
  207301   207277   207289   207285   207277   207306   207311   207295 
  207293   207303   207306   207307   207300   207273   207265   207295 
  207314   207297   207272   207283   207312   207307   207280   207283 
  207315   207312   207281   207283   207296   207299   207303   207304 
  207284   207280   207306   207310   207303   207306   207297   207297 
  207289   207276   207299   207300   207280   207304   207306   207273 
  207293   207316   207285   207276   207304   207297   207284   207299 
  207284   207273   207297   207300   207289   207295   207292   207295 
  207301   207288   207287   207300   207292   207289   207306   207306 
  207288   207283   207296   207308   207306   207299   207295   207289 
  207291   207299   207300   207291   207295   207304   207301   207296 
  207289   207303   207319   207293   207280   207304   207314   207293 
  207279   207291   207297   207287   207300   207307   207285   207289 
  207301   207299   207300   207288   207296   207319   207299   207284 
  207295   207301   207314   207300   207272   207287   207300   207274 
  207273   207308   207310   207283   207285   207299   207291   207291 
  207308   207315   207296   207285   207291   207295   207293   207285 
  207281   207297   207308   207306   207300   207287   207291   207301 
  207301   207306   207283   207266   207307   207323   207295   207296 
  207310   207291   207279   207293   207295   207296   207304   207295 
  207289   207297   207303   207293   207288   207306   207304   207285 
  207291   207312   207328   207307   207291   207308   207299   207285 
  207297   207297   207292   207289   207285   207289   207304   207310 
  207292   207281   207299   207310   207299   207295   207307   207303 
  207280   207272   207292   207306   207300   207293   207287   207293 
  207316   207308   207293   207297   207304   207310   207295   207284 
  207314   207320   207301   207299   207281   207273   207303   207300 
  207274   207289   207296   207256   207223   207239   207273   207284 
  207291   207295   207262   207234   207264   207311   207331   207349 
  207385   207380   207346   207396   207434   207326   207219   207214 
  207196   207135   207150   207219   207177   207102   207202   207326 
  207273   207234   207347   207445   207490   207554   207569   207466 
  207296   207200   207192   207108   207010   207049   207067   207037 
  207169   207338   207280   207212   207468   207777   207786   207724 
  207794   207794   207617   207442   207337   207131   206891   206882 
  206952   206821   206774   207056   207183   206973   207056   207505 
  207631   207430   207512   207763   207667   207423   207449   207507 
  207293   207099   207161   207239   207162   207080   207218   207403 
  207323   207295   207415   207264   207130   207362   207500   207262 
  207040   207181   207391   207249   206995   207040   207257   207301 
  207247   207293   207360   207388   207411   207468   207492   207315 
  207172   207330   207438   207288   207230   207338   207334   207345 
  207500   207373   207026   207137   207490   207358   207091   207311 
  207542   207306   207084   207202   207284   207166   207142   207260 
  207273   207193   207164   207199   207274   207291   207245   207315 
  207493   207523   207399   207370   207424   207438   207443   207422 
  207376   207320   207246   207189   207112   207083   207144   207121 
  207104   207230   207315   207241   207164   207239   207308   207297 
  207395   207474   207396   207378   207395   207264   207169   207276 
  207424   207430   207337   207265   207193   207162   207261   207310 
  207219   207268   207442   207389   207218   207289   207426   207307 
  207246   207504   207613   207343   207152   207183   207173   207122 
  207134   207131   207102   207226   207408   207319   207188   207360 
  207528   207458   207426   207492   207397   207295   207412   207389 
  207141   207138   207297   207249   207134   207123   207131   207158 
  207277   207339   207245   207273   207431   207378   207245   207297 
  207358   207304   207295   207368   207397   207341   207241   207134 
  207092   207177   207283   207331   207366   207323   207249   207283 
  207307   207252   207266   207342   207355   207314   207335   207399 
  207360   207319   207380   207404   207345   207260   207191   207146 
  207122   207149   207218   207233   207187   207210   207306   207343 
  207347   207388   207400   207397   207435   207435   207384   207326 
  207287   207276   207216   207171   207277   207343   207160   207004 
  207123   207284   207264   207225   207322   207404   207414   207436 
  207378   207289   207333   207357   207262   207215   207261   207285 
  207272   207260   207249   207276   207346   207347   207303   207374 
  207457   207377   207268   207247   207249   207223   207222   207256 
  207249   207207   207200   207196   207180   207268   207397   207345 
  207250   207331   207404   207347   207315   207380   207426   207342 
  207260   207297   207312   207241   207208   207245   207279   207287 
  207269   207276   207360   207415   207361   207307   207323   207365 
  207362   207304   207288   207333   207318   207247   207208   207200 
  207207   207210   207204   207250   207310   207306   207273   207216 
  207180   207292   207397   207312   207231   207303   207392   207374 
  207277   207254   207346   207407   207358   207272   207256   207299 
  207300   207328   207405   207326   207161   207173   207258   207230 
  207202   207256   207314   207389   207427   207323   207237   207296 
  207389   207365   207266   207303   207382   207326   207247   207210 
  207191   207252   207316   207265   207250   207319   207291   207227 
  207239   207245   207239   207322   207422   207361   207247   207299 
  207358   207230   207169   207328   207376   207270   207303   207382 
  207299   207172   207183   207231   207235   207331   207412   207331 
  207268   207315   207384   207400   207323   207280   207339   207324 
  207265   207316   207300   207175   207207   207327   207334   207280 
  207222   207222   207296   207299   207222   207223   207299   207311 
  207249   207262   207373   207384   207273   207242   207297   207315 
  207292   207296   207334   207335   207292   207322   207378   207328 
  207252   207191   207146   207262   207415   207328   207188   207264 
  207391   207374   207279   207216   207264   207373   207396   207350 
  207347   207401   207407   207269   207152   207219   207280   207203 
  207198   207357   207427   207285   207164   207245   207397   207393 
  207292   207307   207372   207339   207280   207280   207296   207262 
  207229   207270   207353   207355   207252   207169   207220   207327 
  207334   207292   207351   207449   207438   207351   207265   207189 
  207258   207427   207399   207247   207226   207262   207245   207211 
  207203   207172   207144   207249   207355   207250   207173   207301 
  207346   207270   207253   207225   207223   207338   207459   207463 
  207337   207266   207318   207281   207192   207256   207353   207318 
  207274   207291   207301   207349   207378   207314   207301   207389 
  207442   207405   207306   207208   207206   207269   207284   207233 
  207187   207222   207310   207292   207216   207292   207385   207304 
  207260   207384   207439   207334   207265   207258   207233   207246 
  207266   207230   207247   207365   207365   207188   207188   207411 
  207408   207203   207225   207392   207387   207269   207214   207239 
  207299   207322   207323   207307   207241   207231   207307   207295 
  207245   207343   207412   207327   207342   207426   207357   207273 
  207277   207253   207245   207310   207349   207318   207261   207238 
  207261   207257   207245   207258   207214   207233   207360   207327 
  207229   207288   207323   207299   207366   207378   207297   207335 
  207407   207308   207195   207241   207301   207312   207337   207295 
  207222   207250   207300   207323   207343   207295   207291   207355 
  207293   207233   207287   207250   207169   207253   207369   207349 
  207310   207311   207257   207204   207238   207253   207242   207334 
  207396   207283   207241   207343   207335   207246   207273   207357 
  207328   207233   207270   207368   207323   207249   207320   207396 
  207289   207166   207261   207396   207324   207229   207324   207427 
