Origin Time       2024/06/23 22:54:00
Lat.              35.645
Long.             140.060
Depth. (km)       72
Mag.              4.1
Station Code      KNGH19
Station Lat.      35.4173
Station Long.     139.0436
Station Height(m) 230
Record Time       2024/06/23 22:54:41
Sampling Freq(Hz) 100Hz
Duration Time(s)  120
Dir.              1
Scale Factor      2942(gal)/8224139
Max. Acc. (gal)   0.121
Last Correction   2024/06/23 22:54:42
Memo.             
[...]
   80111    80110    80110    80110    80111    80115    80111    80107 
   80110    80113    80113    80114    80111    80111    80113    80111 
   80111    80110    80107    80111    80114    80111    80110    80109 
   80109    80113    80114    80110    80110    80113    80114    80113 
   80110    80110    80111    80114    80114    80109    80107    80110 
   80111    80110    80110    80111    80111    80111    80113    80113 
   80111    80109    80107    80107    80107    80110    80110    80109 
   80109    80109    80107    80107    80107    80107    80106    80106 
   80109    80110    80107    80106    80109    80109    80107    80110 
   80113    80109    80104    80109    80110    80107    80107    80109 
   80111    80113    80109    80109    80109    80107    80107    80109 
   80107    80109    80110    80106    80106    80110    80111    80111 
   80111    80110    80113    80111    80109    80110    80110    80110 
   80114    80115    80111    80111    80114    80113    80110    80110 
   80113    80113    80111    80111    80113    80113    80111    80113 
   80111    80109    80107    80109    80110    80110    80109    80107 
   80109    80110    80110    80107    80109    80110    80109    80110 
   80110    80107    80110    80114    80113    80111    80110    80110 
   80111    80111    80114    80115    80114    80113    80113    80110 
   80107    80109    80110    80109    80110    80113    80114    80113 
   80111    80110    80107    80109    80113    80114    80114    80113 
   80111    80113    80114    80111    80109    80110    80111    80114 
   80114    80111    80110    80113    80111    80106    80104    80109 
   80110    80109    80111    80113    80111    80111    80110    80110 
   80111    80111    80111    80113    80113    80114    80117    80113 
   80111    80111    80113    80110    80100    80100    80114    80123 
   80118    80102    80077    80069    80087    80114    80134    80136 
   80126    80129    80142    80138    80117    80099    80090    80099 
   80136    80160    80131    80087    80073    80094    80102    80077 
   80049    80040    80072    80157    80227    80208    80125    80065 
   80048    80057    80106    80163    80150    80111    80122    80137 
   80068    79972    79959    80028    80107    80164    80200    80199 
   80156    80117    80082    80069    80129    80195    80176    80119 
   80138    80225    80172    79968    79915    80040    80094    80049 
   80025    80048    80082    80106    80087    80029    80060    80172 
   80176    80127    80198    80277    80214    80118    80111    80127 
   80115    80088    80071    80092    80072    80022    80073    80161 
   80158    80118    80119    80153    80152    80127    80131    80156 
   80179    80145    80025    79969    80050    80100    80084    80084 
   80021    79959    80080    80260    80311    80277    80230    80136 
   80025    80040    80130    80102    80056    80131    80145    80009 
   79914    79922    79936    79994    80141    80249    80241    80218 
   80275    80312    80210    80088    80090    80122    80099    80096 
   80149    80137    80017    79930    79944    79961    79976    80082 
   80231    80265    80179    80126    80158    80185    80172    80156 
   80148    80165    80188    80141    80069    80061    80030    79960 
   79948    79996    80114    80200    80126    80041    80079    80165 
   80227    80177    80067    80068    80150    80204    80212    80192 
   80160    80059    79909    79909    80038    80129    80196    80241 
   80202    80138    80088    80033    80033    80094    80158    80211 
   80237    80208    80094    79948    79940    80090    80198    80169 
   80110    80113    80145    80109    80048    80115    80210    80160 
   80106    80163    80190    80130    80053    80005    80056    80126 
   80071    80026    80142    80238    80150    80028    79999    80048 
   80157    80237    80207    80158    80149    80119    80034    79971 
   80049    80184    80204    80130    80069    80094    80167    80154 
   80086    80092    80129    80126    80126    80145    80149    80110 
   80056    80060    80094    80117    80158    80169    80119    80082 
   80077    80073    80053    80065    80137    80185    80158    80111 
   80118    80146    80122    80113    80145    80130    80099    80111 
   80102    80075    80095    80110    80083    80055    80014    80005 
   80079    80161    80167    80104    80090    80145    80141    80103 
   80141    80192    80184    80121    80049    80021    80053    80129 
   80148    80071    80041    80106    80123    80090    80113    80145 
   80153    80179    80158    80094    80106    80202    80253    80187 
   80107    80115    80131    80114    80096    80055    80030    80059 
   80059    80025    80059    80140    80144    80087    80069    80107 
   80180    80233    80211    80172    80146    80098    80052    80056 
   80086    80111    80118    80086    80037    80011    80030    80080 
   80121    80133    80140    80161    80172    80138    80090    80113 
   80188    80173    80109    80130    80160    80107    80061    80083 
   80142    80164    80109    80068    80091    80119    80123    80107 
   80109    80165    80194    80141    80075    80068    80122    80149 
   80117    80104    80119    80095    80073    80098    80090    80019 
   79980    80034    80122    80154    80148    80168    80180    80150 
   80111    80102    80153    80218    80203    80157    80142    80125 
   80102    80057    79990    79982    80069    80148    80136    80069 
   80049    80129    80203    80157    80095    80138    80168    80100 
   80071    80134    80173    80149    80107    80071    80059    80076 
   80079    80052    80060    80121    80171    80157    80088    80059 
   80114    80131    80079    80107    80196    80183    80126    80119 
   80109    80099    80125    80158    80168    80141    80095    80071 
   80065    80053    80052    80073    80099    80110    80103    80102 
   80114    80114    80106    80111    80138    80173    80177    80107 
   80030    80056    80145    80180    80146    80109    80099    80069 
   80013    80032    80115    80150    80141    80107    80076    80104 
   80138    80125    80115    80134    80111    80064    80117    80212 
   80203    80149    80099    80037    80042    80069    80046    80088 
   80177    80176    80107    80068    80076    80092    80096    80099 
   80129    80161    80140    80099    80090    80082    80083    80114 
   80136    80127    80096    80056    80049    80086    80119    80136 
   80129    80115    80137    80142    80088    80059    80087    80118 
   80154    80181    80158    80121    80098    80087    80095    80087 
   80055    80072    80131    80158    80137    80100    80082    80090 
   80111    80138    80149    80115    80088    80137    80202    80198 
   80146    80084    80045    80068    80102    80104    80136    80172 
   80136    80079    80077    80102    80099    80087    80127    80172 
   80122    80048    80059    80082    80068    80075    80117    80173 
   80191    80118    80032    80036    80095    80134    80129    80113 
   80138    80167    80145    80134    80145    80107    80069    80087 
   80117    80134    80119    80073    80086    80164    80163    80045 
   79982    80073    80187    80163    80076    80073    80117    80133 
   80145    80144    80109    80083    80095    80117    80111    80080 
   80067    80092    80126    80137    80114    80091    80114    80154 
   80131    80094    80152    80231    80203    80099    80021    80037 
   80094    80087    80056    80073    80125    80165    80134    80044 
   79998    80029    80065    80075    80119    80204    80223    80130 
   80045    80069    80127    80136    80152    80195    80180    80114 
   80075    80080    80107    80125    80137    80150    80111    80025 
   80040    80156    80187    80125    80087    80082    80107    80122 
   80090    80107    80169    80152    80088    80080    80092    80092 
   80113    80141    80145    80118    80083    80096    80114    80064 
   80041    80111    80168    80131    80072    80096    80172    80176 
   80121    80083    80088    80127    80157    80146    80121    80088 
   80057    80048    80042    80049    80095    80141    80149    80114 
   80071    80080    80137    80171    80164    80133    80094    80079 
   80087    80111    80164    80195    80161    80109    80080    80068 
   80053    80061    80122    80192    80203    80136    80050    80055 
   80094    80075    80071    80118    80142    80138    80119    80077 
   80060    80103    80152    80172    80210    80208    80103    80032 
   80083    80157    80156    80102    80084    80104    80102    80082 
   80080    80100    80111    80107    80125    80113    80056    80071 
   80137    80126    80079    80069    80088    80118    80109    80094 
   80154    80195    80111    80013    80022    80111    80190    80202 
   80148    80075    80061    80117    80136    80080    80055    80127 
   80181    80099    79996    80022    80119    80172    80168    80160 
   80165    80125    80048    80015    80050    80117    80165    80156 
   80114    80113    80158    80177    80150    80118    80083    80094 
   80172    80199    80141    80129    80144    80088    80053    80079 
   80087    80107    80145    80119    80071    80063    80086    80119 
   80137    80131    80122    80106    80082    80077    80103    80113 
   80080    80061    80090    80126    80140    80123    80118    80131 
   80107    80083    80121    80171    80183    80152    80084    80034 
   80059    80092    80079    80103    80145    80077    80022    80102 
   80165    80144    80146    80172    80119    80042    80076    80160 
   80152    80098    80095    80127    80141    80131    80133    80144 
   80121    80087    80077    80102    80145    80148    80114    80117 
   80131    80103    80077    80102    80104    80063    80063    80092 
   80071    80019    80018    80084    80154    80168    80161    80154 
   80103    80056    80096    80154    80131    80099    80145    80185 
   80144    80080    80068    80106    80146    80157    80125    80076 
   80090    80144    80136    80107    80094    80063    80056    80087 
   80130    80190    80176    80080    80049    80082    80098    80107 
   80095    80090    80113    80117    80114    80114    80111    80114 
   80086    80067    80107    80130    80145    80172    80141    80104 
   80113    80107    80096    80113    80129    80126    80115    80090 
   80067    80079    80098    80126    80175    80161    80113    80121 
   80113    80052    80014    80055    80121    80119    80061    80044 
   80103    80169    80183    80183    80177    80141    80073    80023 
   80072    80150    80153    80136    80109    80046    80040    80091 
   80106    80096    80136    80210    80200    80102    80088    80156 
   80137    80080    80103    80158    80156    80077    80013    80038 
   80095    80111    80100    80129    80168    80157    80149    80140 
   80067    80042    80117    80160    80119    80073    80092    80131 
   80123    80111    80130    80161    80158    80086    80023    80065 
   80160    80194    80109    79999    80014    80088    80103    80117 
   80165    80148    80056    80036    80118    80169    80136    80098 
   80117    80153    80130    80053    80019    80086    80192    80214 
   80154    80107    80096    80094    80104    80145    80154    80121 
   80136    80169    80121    80045    80030    80049    80075    80107 
   80117    80109    80118    80136    80122    80077    80059    80091 
   80133    80146    80158    80173    80152    80103    80049    80018 
   80048    80099    80137    80136    80113    80160    80191    80127 
   80087    80100    80144    80175    80104    80030    80068    80131 
   80140    80104    80059    80055    80068    80057    80068    80118 
   80175    80206    80161    80087    80092    80138    80113    80055 
   80075    80161    80190    80137    80096    80077    80076    80107 
   80125    80126    80133    80127    80125    80117    80094    80096 
   80094    80064    80087    80146    80154    80144    80138    80091 
   80037    80060    80117    80127    80125    80125    80117    80142 
   80169    80118    80061    80071    80100    80126    80140    80131 
   80129    80149    80157    80115    80069    80050    80032    80038 
   80087    80145    80163    80142    80131    80100    80057    80052 
   80037    80068    80146    80144    80126    80148    80127    80104 
   80099    80075    80073    80113    80140    80111    80071    80060 
   80052    80065    80134    80194    80149    80083    80142    80207 
   80176    80144    80095    80032    80045    80092    80119    80169 
   80221    80202    80106    80038    80072    80109    80056    80033 
   80129    80223    80222    80196    80175    80114    80030    80017 
   80068    80061    79995    80001    80117    80227    80248    80199 
   80126    80036    79964    79978    80036    80084    80180    80293 
   80323    80275    80191    80115    80055    79934    79837    79903 
   80023    80088    80169    80241    80188    80091    80048    80050 
   80142    80248    80185    80072    80086    80115    80067    80017 
   79987    79955    79968    80087    80254    80334    80303    80218 
   80129    80050    79951    79929    80102    80277    80288    80287 
   80319    80248    80033    79814    79772    79864    79917    79987 
   80214    80441    80383    80161    80106    80196    80227    80119 
   79979    79999    80168    80291    80264    80149    80057    80072 
   80163    80109    79929    79978    80196    80184    80050    80087 
   80158    80119    80075    80083    80082    79998    79890    79920 
   80028    80038    80036    80092    80104    80133    80229    80225 
   80142    80123    80098    80056    80107    80198    80288    80364 
   80268    80028    79932    80019    80113    80152    80087    79947 
   79988    80229    80312    80125    79960    80007    80119    80123 
   80077    80073    80056    80030    80059    80114    80172    80203 
   80179    80136    80077    80065    80169    80231    80103    79996 
   80129    80288    80202    80048    80091    80185    80111    79992 
   80025    80092    79990    79866    79980    80188    80256    80212 
   80106    80009    80018    80071    80117    80145    80157    80244 
   80346    80358    80323    80242    80096    79980    79960    79948 
   79942    80050    80196    80299    80341    80198    79942    79814 
   79849    79948    80046    80175    80268    80150    79974    80023 
   80171    80167    80045    80011    80087    80082    80025    80111 
   80258    80250    80156    80187    80275    80283    80261    80199 
   80088    80064    80095    80038    80006    80111    80180    80100 
   80013    80056    80137    80084    79996    80057    80145    80114 
   80059    80056    80076    80096    80104    80136    80192    80160 
   80086    80150    80248    80158    79986    79921    79953    80005 
   80059    80152    80276    80327    80234    80084    80015    80042 
   80094    80107    80075    80082    80144    80161    80103    80060 
   80096    80129    80088    80084    80130    80079    80003    80061 
   80146    80137    80113    80110    80134    80204    80231    80163 
   80113    80144    80190    80173    80095    80040    80033    80033 
   80088    80184    80192    80136    80069    80002    80026    80073 
   80030    80053    80199    80298    80275    80190    80104    80028 
   79960    79979    80069    80107    80090    80099    80117    80114 
   80121    80060    79937    79930    80029    80118    80207    80257 
   80221    80157    80098    80076    80102    80086    80040    80060 
   80129    80177    80158    80109    80106    80152    80164    80076 
   79968    79961    80034    80129    80203    80227    80211    80146 
   80082    80076    80050    80017    80073    80113    80061    80073 
   80190    80273    80261    80215    80171    80107    80083    80152 
   80185    80087    80025    80083    80110    80076    80090    80175 
   80246    80208    80098    80052    80088    80117    80090    80049 
   80065    80084    80065    80102    80134    80044    79979    80018 
   80046    80080    80109    80088    80102    80137    80110    80109 
   80160    80131    80069    80123    80190    80138    80082    80127 
   80192    80123    79960    79944    80084    80127    80071    80104 
   80158    80102    80019    80011    80095    80172    80125    80087 
   80171    80195    80111    80083    80115    80109    80080    80123 
   80223    80261    80206    80131    80114    80175    80245    80245 
   80180    80129    80121    80145    80172    80130    80022    79976 
   80030    80129    80198    80141    80036    80033    80077    80088 
   80095    80094    80067    80025    79991    79996    80052    80150 
   80230    80217    80107    79968    79918    80003    80122    80177 
   80167    80140    80142    80158    80150    80114    80080    80083 
   80122    80163    80150    80115    80109    80057    80032    80157 
   80230    80130    80069    80106    80121    80114    80156    80222 
   80177    80036    80002    80091    80137    80103    80067    80088 
   80137    80133    80082    80053    80053    80056    80072    80057 
   80018    80056    80157    80242    80285    80284    80275    80275 
   80244    80158    80037    79987    80077    80148    80084    80055 
   80092    80065    80079    80190    80225    80141    80050    80037 
   80091    80107    80075    80082    80083    80026    80022    80102 
   80167    80229    80269    80202    80104    80042    80003    80029 
   80071    80100    80169    80238    80250    80195    80115    80111 
   80146    80118    80076    80091    80067    79991    80011    80111 
   80126    80063    80061    80129    80154    80140    80144    80131 
   80079    80029    80018    80055    80099    80161    80265    80283 
   80169    80107    80140    80136    80096    80056    79975    79910 
   79938    80018    80096    80152    80140    80096    80106    80119 
   80094    80084    80098    80107    80082    79998    79980    80122 
   80279    80295    80253    80230    80157    80071    80076    80109 
   80061    79992    80015    80126    80212    80163    80061    80057 
   80104    80129    80148    80144    80129    80109    80073    80082 
   80125    80115    80095    80122    80158    80176    80138    80065 
   80075    80167    80229    80176    80046    79988    80033    80104 
   80191    80226    80154    80102    80137    80163    80123    80046 
   80007    80055    80103    80083    80076    80144    80222    80212 
   80146    80133    80131    80065    79998    79976    79983    80026 
   80119    80207    80229    80207    80163    80061    79952    79910 
   79956    80063    80168    80241    80268    80194    80102    80123 
   80188    80184    80102    80006    80032    80127    80137    80117 
   80161    80200    80187    80152    80104    80053    80048    80104 
   80142    80100    80045    80042    80063    80067    80053    80032 
   80045    80110    80127    80083    80090    80149    80179    80183 
