Origin Time       2024/06/23 22:54:00
Lat.              35.645
Long.             140.060
Depth. (km)       72
Mag.              4.1
Station Code      KNGH11
Station Lat.      35.4040
Station Long.     139.3539
Station Height(m) -1788
Record Time       2024/06/23 22:54:39
Sampling Freq(Hz) 100Hz
Duration Time(s)  120
Dir.              3
Scale Factor      2940(gal)/6170270
Max. Acc. (gal)   0.252
Last Correction   2024/06/23 22:54:24
Memo.             
[...]
  124051   124052   124054   124052   124052   124053   124054   124054 
  124053   124053   124054   124054   124053   124054   124053   124052 
  124054   124054   124053   124053   124053   124055   124055   124052 
  124053   124054   124054   124056   124055   124055   124055   124054 
  124055   124055   124054   124053   124053   124054   124055   124054 
  124053   124055   124053   124053   124054   124052   124052   124053 
  124052   124053   124054   124053   124054   124055   124053   124053 
  124054   124053   124054   124052   124051   124055   124057   124055 
  124054   124055   124055   124052   124052   124055   124053   124051 
  124053   124054   124052   124053   124053   124053   124053   124054 
  124054   124054   124053   124053   124051   124053   124056   124055 
  124054   124053   124051   124052   124054   124053   124053   124054 
  124054   124054   124054   124054   124054   124053   124052   124054 
  124054   124054   124054   124054   124053   124053   124054   124054 
  124053   124053   124053   124053   124052   124053   124053   124053 
  124053   124053   124053   124055   124056   124054   124052   124053 
  124055   124055   124056   124053   124053   124055   124054   124053 
  124054   124053   124053   124056   124055   124054   124054   124055 
  124055   124055   124054   124054   124053   124051   124053   124056 
  124056   124053   124054   124056   124055   124054   124054   124054 
  124053   124055   124055   124054   124054   124055   124055   124055 
  124055   124055   124053   124052   124054   124055   124054   124054 
  124055   124054   124053   124051   124051   124053   124054   124055 
  124055   124054   124055   124054   124053   124055   124054   124054 
  124054   124052   124054   124055   124052   124052   124054   124052 
  124053   124055   124054   124056   124056   124053   124054   124055 
  124055   124056   124054   124054   124054   124055   124055   124054 
  124054   124054   124053   124053   124056   124054   124054   124056 
  124056   124055   124054   124054   124055   124054   124053   124054 
  124054   124055   124054   124054   124055   124055   124054   124053 
  124054   124054   124055   124054   124053   124055   124055   124054 
  124056   124055   124052   124052   124053   124055   124055   124055 
  124054   124054   124054   124056   124055   124054   124053   124052 
  124055   124055   124053   124054   124056   124054   124055   124057 
  124055   124054   124054   124055   124055   124054   124057   124057 
  124054   124056   124058   124056   124053   124051   124053   124054 
  124053   124055   124056   124052   124051   124054   124053   124055 
  124057   124055   124055   124056   124055   124055   124053   124054 
  124056   124055   124053   124054   124054   124056   124056   124055 
  124056   124056   124054   124054   124054   124055   124055   124054 
  124054   124054   124054   124054   124053   124055   124056   124053 
  124053   124055   124054   124054   124055   124055   124055   124055 
  124054   124053   124055   124056   124056   124055   124053   124054 
  124057   124056   124056   124056   124056   124056   124055   124054 
  124054   124054   124056   124054   124054   124054   124052   124054 
  124057   124054   124053   124055   124054   124055   124055   124055 
  124054   124052   124053   124056   124055   124054   124056   124055 
  124054   124055   124057   124057   124055   124055   124056   124055 
  124055   124055   124055   124055   124056   124055   124055   124055 
  124055   124054   124054   124054   124055   124055   124053   124052 
  124053   124056   124056   124054   124054   124053   124054   124057 
  124055   124053   124055   124054   124052   124053   124054   124054 
  124054   124054   124056   124055   124053   124052   124052   124053 
  124055   124053   124053   124053   124052   124054   124054   124053 
  124055   124055   124053   124053   124055   124056   124054   124052 
  124054   124054   124053   124055   124054   124051   124052   124054 
  124054   124054   124054   124054   124054   124054   124054   124055 
  124056   124054   124052   124053   124054   124054   124054   124055 
  124055   124055   124054   124053   124053   124053   124052   124053 
  124054   124054   124055   124056   124054   124053   124053   124054 
  124054   124053   124053   124054   124056   124056   124054   124054 
  124054   124051   124053   124056   124053   124053   124054   124054 
  124056   124055   124052   124055   124056   124053   124053   124054 
  124054   124055   124055   124053   124051   124052   124055   124054 
  124054   124057   124055   124053   124054   124054   124054   124055 
  124053   124054   124054   124053   124054   124056   124054   124054 
  124055   124053   124053   124053   124054   124053   124052   124053 
  124053   124053   124054   124054   124054   124054   124053   124053 
  124053   124052   124054   124054   124052   124054   124055   124053 
  124053   124054   124053   124054   124055   124054   124055   124053 
  124051   124054   124053   124052   124054   124055   124055   124054 
  124053   124053   124053   124053   124054   124052   124051   124053 
  124053   124053   124054   124052   124051   124052   124053   124052 
  124051   124053   124054   124051   124053   124053   124051   124053 
  124055   124053   124054   124053   124052   124055   124055   124054 
  124055   124054   124053   124054   124053   124053   124054   124053 
  124055   124055   124053   124054   124053   124052   124053   124055 
  124055   124052   124051   124053   124054   124054   124054   124053 
  124052   124054   124052   124053   124055   124053   124052   124052 
  124053   124054   124052   124052   124055   124053   124052   124053 
  124052   124053   124053   124052   124054   124054   124053   124057 
  124056   124052   124054   124056   124055   124052   124052   124055 
  124055   124053   124054   124055   124054   124055   124055   124055 
  124055   124053   124054   124054   124053   124054   124056   124054 
  124053   124052   124052   124054   124054   124054   124055   124056 
  124054   124053   124051   124052   124055   124055   124054   124054 
  124053   124051   124053   124055   124053   124052   124054   124055 
  124053   124054   124054   124052   124051   124053   124053   124055 
  124054   124052   124054   124055   124053   124053   124055   124054 
  124053   124055   124055   124053   124054   124056   124054   124054 
  124054   124054   124056   124055   124052   124055   124056   124053 
  124054   124056   124053   124054   124055   124054   124054   124055 
  124055   124055   124055   124056   124055   124053   124055   124055 
  124054   124055   124054   124054   124055   124054   124054   124057 
  124055   124053   124055   124056   124054   124053   124056   124056 
  124053   124054   124055   124052   124053   124055   124054   124055 
  124056   124056   124055   124053   124052   124054   124054   124053 
  124055   124056   124056   124054   124053   124053   124055   124056 
  124056   124056   124056   124053   124052   124055   124056   124053 
  124053   124054   124053   124054   124055   124054   124053   124051 
  124053   124056   124055   124053   124054   124055   124056   124055 
  124055   124056   124054   124054   124055   124054   124054   124054 
  124053   124055   124055   124054   124055   124056   124053   124054 
  124055   124054   124054   124053   124053   124053   124052   124053 
  124054   124054   124055   124055   124055   124055   124053   124052 
  124053   124052   124054   124056   124054   124053   124054   124054 
  124056   124054   124050   124053   124055   124054   124054   124054 
  124053   124054   124053   124055   124056   124052   124053   124054 
  124052   124054   124056   124054   124054   124053   124052   124052 
  124052   124053   124053   124052   124056   124055   124052   124055 
  124055   124051   124053   124055   124054   124054   124054   124054 
  124054   124053   124055   124054   124051   124053   124053   124053 
  124055   124054   124052   124052   124053   124055   124054   124052 
  124054   124055   124053   124054   124054   124053   124054   124055 
  124055   124053   124052   124054   124054   124054   124056   124054 
  124052   124053   124053   124052   124054   124054   124052   124053 
  124054   124055   124053   124053   124055   124054   124052   124054 
  124054   124053   124053   124052   124052   124054   124053   124054 
  124055   124054   124054   124053   124054   124055   124053   124052 
  124053   124054   124053   124053   124053   124053   124054   124054 
  124053   124053   124054   124052   124051   124053   124055   124053 
  124051   124052   124053   124054   124053   124053   124055   124054 
  124051   124055   124055   124051   124053   124054   124053   124053 
  124053   124052   124054   124054   124054   124054   124053   124053 
  124052   124053   124054   124052   124053   124054   124054   124055 
  124052   124050   124053   124054   124054   124057   124055   124054 
  124054   124052   124051   124053   124052   124053   124053   124052 
  124053   124054   124054   124053   124053   124054   124054   124053 
  124054   124054   124052   124054   124055   124054   124056   124054 
  124052   124054   124053   124053   124055   124054   124053   124053 
  124053   124055   124054   124052   124054   124054   124052   124053 
  124055   124055   124054   124053   124054   124054   124053   124054 
  124053   124052   124053   124053   124053   124053   124054   124055 
  124054   124051   124054   124055   124053   124053   124054   124053 
  124053   124053   124053   124054   124053   124054   124053   124053 
  124054   124054   124053   124054   124055   124053   124053   124054 
  124055   124054   124051   124053   124054   124053   124053   124055 
  124056   124053   124052   124056   124057   124055   124055   124057 
  124054   124053   124053   124053   124054   124054   124052   124052 
  124053   124054   124053   124053   124055   124055   124054   124057 
  124056   124052   124054   124054   124053   124055   124054   124053 
  124053   124051   124053   124054   124054   124054   124055   124054 
  124053   124054   124055   124055   124055   124056   124055   124053 
  124054   124056   124054   124054   124054   124054   124055   124055 
  124054   124054   124054   124055   124055   124054   124056   124055 
  124051   124055   124056   124053   124055   124055   124055   124056 
  124053   124051   124054   124053   124053   124054   124054   124055 
  124054   124054   124055   124052   124052   124055   124054   124055 
  124056   124055   124055   124053   124052   124055   124054   124052 
  124055   124055   124055   124054   124053   124054   124057   124055 
  124052   124053   124055   124054   124053   124055   124056   124053 
  124052   124054   124054   124055   124055   124053   124054   124055 
  124052   124052   124053   124053   124055   124054   124052   124055 
  124055   124054   124056   124055   124054   124056   124055   124055 
  124056   124055   124054   124054   124054   124055   124054   124052 
  124051   124052   124055   124054   124054   124056   124054   124052 
  124055   124054   124053   124054   124053   124053   124055   124054 
  124054   124054   124054   124053   124052   124054   124057   124055 
  124052   124054   124056   124056   124055   124054   124055   124056 
  124054   124054   124055   124055   124055   124055   124056   124055 
  124053   124055   124055   124053   124056   124055   124054   124055 
  124054   124055   124056   124053   124054   124056   124054   124055 
  124056   124055   124055   124055   124054   124055   124054   124054 
  124056   124054   124053   124055   124055   124054   124054   124053 
  124054   124054   124053   124054   124054   124055   124054   124053 
  124053   124054   124054   124054   124056   124055   124053   124054 
  124054   124054   124054   124053   124054   124054   124053   124053 
  124052   124053   124052   124052   124053   124052   124053   124055 
  124053   124053   124054   124054   124056   124053   124051   124055 
  124055   124053   124053   124053   124054   124055   124053   124053 
  124054   124052   124052   124054   124054   124054   124054   124054 
  124054   124053   124053   124056   124054   124052   124054   124053 
  124053   124053   124052   124053   124054   124054   124054   124054 
  124054   124055   124055   124054   124055   124054   124053   124053 
  124054   124055   124054   124053   124054   124055   124056   124054 
  124050   124045   124037   124027   124022   124024   124030   124040 
  124053   124068   124077   124079   124077   124074   124075   124089 
  124097   124078   124042   124003   123974   123976   123998   124010 
  124000   123997   124041   124104   124117   124099   124075   124043 
  124062   124116   124109   124045   123987   123976   123981   123944 
  123904   123903   123948   124091   124249   124231   124092   124041 
  124078   124104   124123   124189   124272   124281   124184   124031 
  123946   123993   124052   124058   124056   124050   124038   123984 
  123864   123775   123817   123974   124118   124157   124145   124167 
  124231   124285   124238   124123   124109   124165   124114   123941 
  123810   123879   124020   123999   123869   123832   124007   124220 
  124250   124341   124582   124533   124193   123943   123781   123700 
  123767   123766   123752   124008   124089   123685   123545   123868 
  124094   124239   124384   124395   124439   124503   124249   123871 
  123916   124153   124075   123894   123906   124042   124221   124263 
  123968   123653   123742   123960   124016   124121   124215   124166 
  124152   124171   124096   123877   123639   123724   124126   124407 
  124411   124287   124047   123803   123783   123860   123985   124299 
  124471   124225   123935   123887   123839   123609   123534   123863 
  124312   124561   124511   124222   123938   123844   123904   124059 
  124268   124372   124271   124146   124056   123883   123815   124000 
  124201   124244   124174   124104   124124   124147   124059   123930 
  123894   124013   124186   124130   123908   123854   123882   123875 
  123985   124126   124169   124231   124279   124102   123879   123945 
  124119   124110   124060   124119   124199   124140   123876   123672 
  123826   124133   124309   124298   124074   123840   123789   123832 
  123990   124195   124195   124115   124140   124077   123918   123955 
  124163   124228   124152   124140   124163   124113   124022   123968 
  123939   123887   123952   124135   124135   124000   124011   124099 
  124123   124082   124003   123973   124071   124177   124115   123987 
  123985   124011   123926   123864   123956   124084   124137   124129 
  124091   124097   124154   124146   124099   124054   123951   123911 
  123994   124026   124005   124049   124100   124054   123991   124059 
  124202   124226   124149   124124   124092   123992   123961   124012 
  124061   124097   124088   124094   124118   124001   123895   123996 
  124090   124096   124135   124115   124037   124071   124130   124024 
  123882   123975   124150   124086   123939   123933   123975   124051 
  124089   123999   124034   124224   124243   124109   124066   124145 
  124191   124086   123923   123870   123937   124022   124083   124097 
  124066   124056   124046   124021   124027   124012   124015   124092 
  124141   124172   124209   124153   124075   124045   123973   123936 
  124003   124020   124002   124099   124182   124113   124016   123949 
  123904   123988   124162   124218   124150   124112   124061   123948 
  123962   124085   124048   123941   123978   124027   124003   124039 
  124112   124056   123949   124023   124160   124162   124125   124063 
  123963   123983   124088   124101   124026   124010   124116   124162 
  124046   123995   124062   124067   124031   124022   124011   124031 
  124032   123973   123986   124088   124119   124066   124022   124024 
  124080   124113   124074   124085   124116   123986   123849   123970 
  124176   124188   124083   124034   124074   124144   124125   124023 
  123958   123968   124083   124188   124104   124006   124020   124036 
  124082   124112   124052   124061   124104   124025   123940   123967 
  124037   124059   124022   124017   124108   124193   124142   124056 
  124083   124089   123990   123975   124081   124144   124140   124138 
  124119   123998   123851   123880   124016   124039   124015   124106 
  124189   124112   123975   123925   123996   124147   124217   124137 
  124103   124117   124011   123939   124035   124138   124117   123973 
  123845   123889   124020   124062   124030   124037   124066   124104 
  124179   124176   124115   124168   124217   124096   123945   123926 
  123998   124046   124039   123991   123916   123925   124057   124113 
  124044   124018   124011   123939   123936   124090   124213   124155 
  124078   124120   124150   124091   124024   123989   124001   124073 
  124135   124093   124058   124145   124122   123924   123866   123975 
  124071   124158   124200   124089   123930   123944   124080   124165 
  124209   124187   124065   123964   123907   123877   123968   124095 
  124108   124054   124029   124071   124105   124031   124006   124109 
  124144   124133   124159   124069   123888   123825   123955   124150 
  124162   124013   124029   124177   124170   124113   124105   123977 
  123869   124038   124261   124235   124122   124148   124142   124021 
  123984   124042   124027   123896   123833   123925   123951   123858 
  123882   124042   124138   124154   124191   124201   124134   124086 
  124132   124219   124196   124023   123909   123953   124021   124060 
  124063   124011   123984   124013   124052   124071   124055   124020 
  123997   124020   124096   124084   123964   124015   124247   124268 
  124047   123958   124024   124003   123948   123969   124014   124119 
  124219   124151   124038   124006   123958   123986   124138   124100 
  123916   123973   124115   124086   124051   124022   123913   123889 
  124051   124190   124138   124080   124134   124189   124168   124049 
  123955   124017   124108   124041   123875   123865   124032   124156 
  124169   124098   124026   124064   124123   124139   124131   124043 
  123940   123955   124052   124110   124088   124074   124123   124162 
  124177   124196   124114   123955   123952   124021   123979   124012 
  124167   124187   124042   123954   124005   124035   123993   124022 
  124059   123976   123979   124203   124341   124138   123837   123805 
  123951   123984   123956   124047   124168   124120   124011   124038 
  124050   123965   124030   124225   124207   124007   123980   124092 
  124065   124019   124140   124202   124103   124022   123984   123967 
  123989   124062   124171   124158   123966   123817   123888   124058 
  124142   124149   124058   123900   123921   124095   124144   124138 
  124199   124192   124101   123972   123883   124018   124164   124029 
  123904   124020   124155   124172   124164   124159   124097   123997 
  123963   124058   124161   124115   124015   124019   124110   124143 
