Origin Time       2024/06/23 22:54:00
Lat.              35.645
Long.             140.060
Depth. (km)       72
Mag.              4.1
Station Code      KNGH19
Station Lat.      35.4173
Station Long.     139.0436
Station Height(m) 330
Record Time       2024/06/23 22:54:41
Sampling Freq(Hz) 100Hz
Duration Time(s)  120
Dir.              6
Scale Factor      7845(gal)/8223790
Max. Acc. (gal)   0.615
Last Correction   2024/06/23 22:54:42
Memo.             
[...]
    6142     6134     6141     6139     6135     6142     6134     6135 
    6145     6134     6138     6146     6133     6138     6141     6130 
    6138     6138     6134     6143     6135     6134     6143     6133 
    6138     6146     6134     6138     6141     6131     6141     6141 
    6135     6142     6135     6135     6143     6134     6137     6141 
    6134     6142     6139     6129     6141     6139     6134     6142 
    6135     6137     6142     6130     6137     6145     6134     6139 
    6142     6133     6139     6139     6137     6143     6137     6135 
    6142     6134     6138     6142     6134     6141     6138     6131 
    6142     6137     6131     6143     6135     6134     6145     6137 
    6138     6142     6137     6142     6138     6131     6142     6138 
    6134     6143     6138     6137     6139     6131     6139     6141 
    6131     6139     6139     6133     6143     6139     6135     6143 
    6138     6138     6141     6135     6139     6139     6134     6145 
    6142     6133     6142     6137     6135     6142     6134     6137 
    6142     6133     6142     6142     6130     6142     6138     6133 
    6147     6138     6131     6145     6135     6134     6142     6135 
    6138     6141     6135     6142     6138     6137     6145     6134 
    6137     6146     6134     6137     6145     6133     6137     6141 
    6133     6139     6139     6137     6141     6137     6137     6141 
    6134     6139     6141     6131     6142     6142     6133     6143 
    6139     6133     6142     6137     6137     6143     6134     6138 
    6142     6134     6143     6139     6133     6143     6137     6134 
    6146     6133     6134     6145     6133     6135     6141     6131 
    6139     6141     6133     6142     6139     6135     6142     6135 
    6137     6143     6135     6138     6142     6137     6142     6137 
    6131     6143     6135     6134     6143     6134     6137     6142 
    6133     6141     6143     6131     6141     6141     6130     6139 
    6138     6137     6142     6137     6139     6142     6135     6143 
    6138     6129     6143     6143     6134     6143     6137     6133 
    6142     6134     6137     6142     6131     6137     6142     6137 
    6143     6141     6134     6141     6134     6135     6143     6134 
    6138     6143     6133     6139     6141     6134     6143     6138 
    6134     6143     6134     6137     6143     6133     6137     6141 
    6133     6142     6141     6135     6145     6135     6134     6147 
    6134     6133     6145     6134     6138     6145     6137     6139 
    6137     6134     6145     6137     6131     6143     6135     6135 
    6143     6134     6141     6143     6130     6139     6141     6133 
    6145     6139     6134     6145     6135     6135     6142     6131 
    6138     6143     6131     6139     6141     6133     6142     6137 
    6133     6142     6137     6135     6139     6133     6141     6141 
    6133     6142     6138     6134     6145     6135     6134     6145 
    6134     6134     6145     6134     6137     6145     6135     6137 
    6139     6138     6142     6135     6133     6139     6134     6138 
    6142     6135     6141     6139     6131     6142     6139     6131 
    6142     6138     6135     6142     6133     6138     6143     6131 
    6137     6142     6133     6141     6139     6135     6142     6133 
    6135     6145     6134     6137     6141     6131     6138     6139 
    6133     6139     6138     6134     6139     6133     6137     6142 
    6129     6134     6143     6133     6141     6142     6131     6143 
    6139     6133     6142     6133     6131     6145     6137     6135 
    6139     6133     6139     6137     6133     6143     6137     6133 
    6142     6135     6137     6143     6134     6139     6142     6131 
    6141     6141     6131     6142     6141     6134     6139     6138 
    6141     6141     6131     6138     6142     6135     6141     6138 
    6135     6143     6134     6131     6142     6135     6137     6141 
    6133     6139     6141     6134     6142     6139     6134     6146 
    6138     6135     6142     6134     6139     6143     6131     6141 
    6142     6130     6142     6141     6131     6143     6137     6133 
    6143     6135     6135     6141     6131     6139     6142     6133 
    6142     6141     6131     6139     6137     6137     6142     6134 
    6139     6142     6131     6139     6141     6133     6141     6138 
    6135     6142     6134     6138     6146     6134     6139     6142 
    6133     6141     6141     6131     6142     6137     6131     6145 
    6135     6134     6145     6134     6138     6145     6134     6143 
    6142     6130     6141     6141     6133     6141     6139     6139 
    6142     6137     6141     6141     6131     6139     6138     6133 
    6142     6138     6135     6142     6137     6138     6141     6131 
    6139     6143     6131     6138     6139     6134     6139     6135 
    6137     6143     6134     6135     6141     6133     6137     6141 
    6135     6139     6137     6133     6142     6137     6135     6143 
    6135     6137     6143     6135     6142     6142     6131     6142 
    6139     6131     6145     6141     6135     6142     6135     6138 
    6143     6135     6139     6142     6134     6139     6137     6133 
    6139     6138     6139     6143     6133     6137     6142     6134 
    6138     6142     6135     6141     6137     6134     6143     6135 
    6135     6143     6134     6138     6145     6137     6138     6138 
    6135     6141     6135     6135     6143     6137     6137     6141 
    6133     6138     6141     6134     6145     6139     6130     6142 
    6138     6131     6142     6135     6135     6141     6131     6135 
    6141     6137     6141     6138     6135     6142     6135     6137 
    6143     6133     6137     6145     6133     6139     6143     6131 
    6142     6143     6133     6141     6139     6134     6139     6135 
    6138     6141     6133     6141     6141     6133     6142     6139 
    6133     6145     6141     6137     6143     6134     6137     6143 
    6133     6139     6143     6133     6139     6141     6137     6143 
    6137     6134     6143     6135     6138     6142     6133     6139 
    6142     6133     6141     6141     6135     6143     6137     6134 
    6142     6133     6137     6143     6134     6141     6141     6130 
    6141     6139     6134     6139     6137     6138     6142     6131 
    6138     6143     6134     6141     6143     6134     6141     6137 
    6134     6145     6134     6134     6143     6134     6134     6139 
    6134     6138     6138     6137     6142     6134     6134     6142 
    6133     6137     6146     6134     6141     6142     6130     6141 
    6143     6131     6138     6138     6134     6139     6133     6137 
    6142     6134     6139     6143     6135     6141     6135     6134 
    6146     6135     6135     6145     6134     6134     6143     6134 
    6139     6141     6135     6143     6138     6133     6145     6135 
    6133     6143     6134     6137     6145     6133     6138     6141 
    6130     6141     6141     6134     6143     6138     6135     6142 
    6134     6138     6142     6133     6139     6139     6131     6143 
    6138     6134     6145     6135     6134     6143     6133     6137 
    6142     6133     6142     6142     6130     6142     6141     6133 
    6141     6137     6138     6143     6135     6141     6142     6134 
    6142     6142     6135     6142     6137     6137     6145     6134 
    6135     6146     6134     6134     6139     6135     6141     6139 
    6137     6145     6135     6134     6146     6138     6137     6142 
    6134     6141     6141     6134     6145     6142     6134     6142 
    6134     6133     6143     6133     6134     6143     6135     6139 
    6138     6130     6142     6138     6134     6146     6137     6134 
    6143     6133     6134     6141     6134     6142     6142     6133 
    6145     6138     6129     6143     6141     6134     6143     6138 
    6138     6142     6133     6139     6143     6135     6142     6139 
    6133     6142     6139     6138     6143     6135     6137     6139 
    6131     6139     6141     6133     6142     6138     6135     6145 
    6135     6135     6145     6134     6139     6143     6131     6142 
    6142     6129     6142     6141     6134     6142     6138     6137 
    6141     6134     6141     6142     6133     6139     6138     6131 
    6143     6139     6134     6145     6135     6135     6145     6135 
    6137     6139     6133     6142     6139     6131     6143     6139 
    6134     6142     6134     6138     6147     6134     6138     6145 
    6133     6138     6142     6135     6141     6137     6137     6142 
    6131     6137     6145     6130     6139     6145     6130     6139 
    6141     6131     6142     6137     6133     6143     6134     6135 
    6142     6137     6141     6138     6131     6142     6138     6131 
    6145     6138     6135     6146     6134     6134     6143     6137 
    6139     6141     6134     6141     6138     6135     6143     6135 
    6135     6143     6133     6138     6142     6131     6142     6145 
    6133     6142     6139     6133     6143     6139     6135     6142 
    6137     6143     6145     6133     6141     6142     6131     6139 
    6138     6135     6143     6138     6138     6143     6134     6138 
    6141     6131     6141     6141     6134     6143     6137     6131 
    6143     6137     6134     6143     6134     6137     6141     6135 
    6142     6139     6134     6143     6134     6134     6147     6133 
    6135     6147     6133     6138     6143     6130     6141     6142 
    6135     6143     6137     6133     6141     6134     6138     6143 
    6135     6142     6143     6134     6143     6139     6133     6145 
    6139     6131     6141     6138     6138     6142     6133     6138 
    6139     6135     6143     6137     6134     6146     6135     6133 
    6143     6134     6138     6145     6131     6139     6142     6131 
    6139     6138     6130     6141     6138     6135     6145     6138 
    6135     6141     6135     6138     6139     6135     6142     6134 
    6133     6145     6135     6135     6143     6133     6135     6143 
    6134     6139     6141     6135     6143     6138     6134     6142 
    6134     6134     6143     6134     6135     6142     6133     6138 
    6142     6133     6142     6141     6133     6141     6141     6137 
    6138     6135     6139     6138     6134     6145     6139     6131 
    6146     6141     6134     6145     6135     6134     6145     6137 
    6137     6142     6134     6139     6141     6134     6142     6138 
    6135     6142     6134     6137     6143     6134     6139     6142 
    6133     6142     6139     6133     6142     6137     6137     6142 
    6134     6138     6142     6131     6141     6142     6133     6141 
    6138     6133     6143     6137     6134     6142     6134     6137 
    6141     6131     6139     6142     6133     6142     6141     6131 
    6139     6138     6134     6139     6134     6137     6141     6134 
    6138     6138     6131     6139     6138     6134     6142     6135 
    6137     6145     6133     6135     6142     6133     6139     6141 
    6131     6142     6138     6131     6146     6137     6133     6145 
    6135     6137     6143     6134     6141     6141     6129     6142 
    6141     6130     6139     6138     6134     6141     6135     6139 
    6143     6135     6139     6139     6134     6139     6135     6135 
    6146     6134     6134     6145     6133     6134     6143     6134 
    6139     6141     6133     6142     6139     6134     6142     6135 
    6137     6142     6134     6139     6141     6131     6142     6141 
    6130     6141     6138     6131     6141     6134     6133     6142 
    6137     6139     6141     6134     6143     6141     6131     6143 
    6138     6133     6146     6138     6134     6145     6134     6135 
    6141     6131     6139     6143     6134     6138     6138     6138 
    6143     6133     6138     6145     6131     6139     6143     6131 
    6141     6141     6133     6142     6137     6134     6143     6134 
    6137     6143     6133     6138     6142     6135     6142     6138 
    6134     6145     6135     6134     6146     6135     6135     6143 
    6134     6138     6143     6135     6141     6138     6134     6143 
    6135     6134     6143     6135     6141     6145     6130     6141 
    6143     6133     6143     6142     6131     6142     6141     6135 
    6142     6138     6139     6141     6133     6141     6142     6134 
    6141     6138     6135     6143     6133     6134     6143     6133 
    6138     6143     6129     6135     6137     6123     6124     6118 
    6108     6118     6126     6149     6173     6139     6084     6075 
    6131     6215     6257     6261     6227     6141     6102     6150 
    6160     6084     6004     5991     6012     6033     6111     6183 
    6096     6027     6166     6273     6208     6192     6293     6346 
    6311     6288     6246     6010     5746     5815     6027     6039 
    6023     6099     6046     5971     6188     6442     6327     6231 
    6552     6751     6467     6232     6265     6123     5798     5791 
    6010     5900     5675     5840     5977     5775     5937     6498 
    6458     5989     6199     6782     6642     6127     6230     6454 
    6025     5729     6123     6295     5883     5737     6116     6238 
    5922     6019     6504     6420     6045     6211     6366     5988 
    5873     6340     6440     5863     5634     6104     6300     5967 
    5898     6258     6385     6083     5980     6245     6291     6177 
    6376     6551     6188     5695     5790     6220     6268     6153 
    6346     6396     6010     5830     6083     6139     6003     6237 
    6463     6106     5838     6241     6447     5937     5729     6228 
    6349     5949     5996     6365     6245     5842     5922     6280 
    6169     5950     6285     6579     6289     6041     6174     6161 
    5998     6183     6428     6284     6072     6019     5927     5860 
    5995     6164     6126     6023     6069     6151     6156     6131 
    6177     6255     6183     6118     6242     6299     6223     6201 
    6161     5950     5836     6199     6563     6253     5771     5798 
    5983     6045     6313     6577     6324     5983     6093     6157 
    5946     6168     6615     6404     5998     6088     6161     5848 
    5695     6002     6245     6162     6153     6187     6018     5983 
    6214     6355     6331     6326     6350     6246     6079     6091 
    6134     6066     6089     6072     5918     6010     6286     6249 
    5906     5832     6164     6307     6153     6169     6312     6312 
    6200     6066     6012     6095     6216     6234     6139     6106 
    6154     6096     5965     5945     6045     6176     6274     6284 
    6139     6004     6111     6234     6204     6226     6234     6130 
    6064     6076     6142     6212     6272     6296     6147     5983 
    5998     6021     6002     5996     6062     6224     6228     6058 
    6033     6181     6309     6335     6301     6216     6100     6130 
    6250     6173     6010     6037     6120     6084     6025     6033 
    6099     6106     5954     5937     6285     6547     6339     6058 
    6091     6196     6174     6201     6226     6089     6011     6066 
    6049     6030     6119     6184     6156     6087     6111     6266 
    6316     6192     6130     6157     6168     6154     6119     6075 
    6046     6100     6195     6100     5946     6027     6142     6097 
    6115     6266     6308     6166     6065     6139     6245     6235 
    6203     6204     6118     5983     6003     6185     6264     6103 
    5960     6022     6130     6158     6192     6297     6320     6172 
    6083     6110     6119     6180     6218     6133     6091     6081 
    6003     6002     6085     6126     6141     6181     6212     6153 
    6080     6161     6208     6070     6068     6265     6288     6076 
    5962     6111     6259     6178     6123     6255     6247     6054 
    5985     6066     6143     6164     6211     6284     6133     5890 
    6006     6281     6253     6069     6075     6199     6207     6168 
    6189     6151     6129     6191     6133     6019     6061     6162 
    6188     6129     6060     6106     6199     6203     6141     6069 
    6033     6085     6219     6262     6149     6080     6141     6197 
    6157     6037     6025     6189     6247     6095     6072     6234 
    6214     6054     6084     6180     6127     6091     6146     6138 
    6104     6215     6332     6154     5845     5960     6373     6386 
    6100     6092     6201     6064     5995     6216     6231     5983 
    6050     6278     6201     6046     6058     6135     6150     6081 
    6081     6199     6251     6162     6079     6154     6261     6189 
    6045     6039     6151     6195     6122     6112     6200     6166 
    6066     6162     6243     6108     6029     6046     6042     6161 
    6308     6212     6015     6025     6185     6246     6197     6173 
    6142     6096     6134     6203     6239     6231     6092     5937 
    5972     6118     6195     6116     6068     6227     6285     6092 
    6029     6203     6282     6173     6158     6226     6068     5891 
    6077     6319     6251     6073     5999     6037     6162     6216 
    6142     6120     6193     6205     6154     6181     6259     6172 
    6002     6038     6116     6083     6196     6339     6218     6000 
    5927     6052     6205     6178     6062     6016     6092     6215 
    6191     6115     6161     6191     6131     6053     6060     6181 
    6211     6180     6268     6246     6061     6014     6088     6068 
    6043     6230     6403     6200     5911     5979     6224     6316 
    6289     6212     6069     6030     6188     6238     6031     5940 
    6149     6227     6029     6037     6247     6239     6081     6016 
    6095     6258     6300     6210     6185     6164     6084     6058 
    6060     6056     6106     6192     6207     6081     6011     6133 
    6158     6092     6278     6448     6170     5840     5968     6269 
    6250     6069     6126     6231     6083     5985     6146     6207 
    6050     6068     6308     6276     6023     6110     6320     6185 
    6031     6154     6257     6143     5995     6007     6133     6228 
    6249     6165     6021     5975     6033     6142     6276     6230 
    6081     6137     6199     6106     6099     6151     6139     6174 
    6242     6220     6138     6138     6178     6066     5925     6002 
    6219     6342     6239     6080     6084     6087     6038     6157 
    6288     6222     6151     6126     6014     5968     6118     6250 
    6196     6112     6133     6153     6110     6062     6062     6174 
    6286     6192     6080     6130     6080     5976     6135     6335 
    6270     6103     6054     6120     6127     6081     6203     6330 
    6115     5899     6143     6385     6129     5941     6207     6277 
    5975     6011     6385     6358     5985     5903     6104     6185 
