Origin Time       2024/06/23 22:54:00
Lat.              35.645
Long.             140.060
Depth. (km)       72
Mag.              4.1
Station Code      KNGH11
Station Lat.      35.4040
Station Long.     139.3539
Station Height(m) 12
Record Time       2024/06/23 22:54:39
Sampling Freq(Hz) 100Hz
Duration Time(s)  120
Dir.              5
Scale Factor      3920(gal)/6170801
Max. Acc. (gal)   1.045
Last Correction   2024/06/23 22:54:24
Memo.             
[...]
   -4612    -4619    -4614    -4604    -4604    -4608    -4593    -4578 
   -4593    -4598    -4589    -4602    -4621    -4608    -4588    -4599 
   -4618    -4628    -4630    -4626    -4615    -4601    -4601    -4605 
   -4603    -4595    -4585    -4600    -4624    -4618    -4602    -4607 
   -4613    -4608    -4621    -4634    -4621    -4605    -4603    -4605 
   -4605    -4609    -4607    -4593    -4575    -4570    -4586    -4604 
   -4609    -4608    -4608    -4591    -4570    -4583    -4623    -4658 
   -4656    -4613    -4582    -4589    -4618    -4649    -4648    -4596 
   -4547    -4555    -4599    -4633    -4625    -4596    -4578    -4576 
   -4597    -4631    -4643    -4619    -4592    -4597    -4608    -4613 
   -4626    -4635    -4615    -4592    -4596    -4598    -4597    -4609 
   -4617    -4606    -4594    -4601    -4610    -4607    -4596    -4590 
   -4603    -4620    -4624    -4621    -4616    -4609    -4597    -4596 
   -4607    -4615    -4607    -4593    -4585    -4581    -4593    -4610 
   -4617    -4618    -4607    -4596    -4607    -4625    -4619    -4605 
   -4601    -4599    -4602    -4600    -4592    -4594    -4604    -4611 
   -4607    -4604    -4611    -4609    -4601    -4609    -4606    -4576 
   -4566    -4599    -4638    -4649    -4626    -4597    -4588    -4609 
   -4639    -4625    -4583    -4574    -4600    -4617    -4612    -4594 
   -4577    -4584    -4622    -4642    -4606    -4582    -4633    -4696 
   -4690    -4605    -4503    -4494    -4593    -4676    -4660    -4597 
   -4569    -4579    -4569    -4543    -4565    -4604    -4611    -4643 
   -4710    -4688    -4569    -4491    -4501    -4564    -4631    -4667 
   -4664    -4602    -4528    -4531    -4580    -4609    -4621    -4621 
   -4591    -4571    -4635    -4742    -4727    -4555    -4446    -4514 
   -4600    -4609    -4609    -4598    -4549    -4522    -4498    -4479 
   -4608    -4802    -4760    -4525    -4432    -4520    -4602    -4658 
   -4734    -4772    -4690    -4479    -4329    -4498    -4852    -4930 
   -4673    -4510    -4596    -4673    -4646    -4710    -4928    -5078 
   -4899    -4479    -4251    -4407    -4700    -4914    -4981    -4780 
   -4399    -4245    -4472    -4759    -4861    -4823    -4689    -4557 
   -4584    -4643    -4623    -4779    -5028    -4790    -4175    -4012 
   -4442    -4802    -4735    -4451    -4262    -4279    -4345    -4300 
   -4319    -4653    -5065    -5032    -4562    -4222    -4276    -4439 
   -4527    -4626    -4720    -4695    -4565    -4434    -4385    -4509 
   -4715    -4712    -4519    -4469    -4608    -4721    -4719    -4626 
   -4529    -4546    -4648    -4720    -4771    -4843    -4863    -4781 
   -4671    -4568    -4473    -4483    -4635    -4766    -4741    -4646 
   -4612    -4624    -4628    -4645    -4658    -4625    -4585    -4527 
   -4389    -4254    -4244    -4316    -4387    -4446    -4452    -4362 
   -4320    -4482    -4710    -4776    -4733    -4724    -4721    -4745 
   -4873    -4989    -4974    -4913    -4872    -4790    -4679    -4609 
   -4554    -4496    -4503    -4576    -4611    -4602    -4647    -4696 
   -4641    -4541    -4500    -4526    -4585    -4631    -4614    -4530 
   -4458    -4444    -4462    -4523    -4642    -4725    -4716    -4709 
   -4733    -4700    -4656    -4694    -4700    -4572    -4467    -4502 
   -4572    -4593    -4601    -4635    -4641    -4526    -4355    -4343 
   -4499    -4613    -4613    -4577    -4541    -4511    -4493    -4492 
   -4534    -4619    -4655    -4591    -4569    -4696    -4819    -4775 
   -4669    -4655    -4686    -4677    -4660    -4656    -4650    -4648 
   -4612    -4532    -4492    -4503    -4508    -4552    -4670    -4750 
   -4715    -4671    -4722    -4790    -4744    -4626    -4584    -4624 
   -4662    -4650    -4572    -4487    -4497    -4570    -4546    -4408 
   -4343    -4415    -4491    -4540    -4667    -4827    -4831    -4692 
   -4616    -4623    -4568    -4492    -4515    -4574    -4556    -4476 
   -4419    -4425    -4456    -4490    -4555    -4617    -4610    -4605 
   -4690    -4785    -4771    -4662    -4568    -4571    -4635    -4660 
   -4619    -4578    -4536    -4440    -4345    -4357    -4473    -4618 
   -4746    -4786    -4716    -4682    -4786    -4903    -4932    -4936 
   -4928    -4826    -4707    -4715    -4760    -4670    -4528    -4477 
   -4475    -4470    -4514    -4595    -4600    -4521    -4497    -4544 
   -4536    -4470    -4494    -4621    -4674    -4566    -4422    -4396 
   -4483    -4536    -4489    -4464    -4550    -4647    -4635    -4542 
   -4491    -4505    -4501    -4473    -4488    -4554    -4616    -4631 
   -4630    -4670    -4685    -4589    -4481    -4517    -4649    -4727 
   -4726    -4715    -4748    -4821    -4847    -4775    -4672    -4615 
   -4621    -4668    -4707    -4687    -4613    -4544    -4520    -4511 
   -4460    -4407    -4441    -4509    -4527    -4547    -4576    -4506 
   -4400    -4402    -4454    -4454    -4467    -4569    -4647    -4612 
   -4619    -4738    -4774    -4682    -4681    -4831    -4936    -4873 
   -4752    -4726    -4777    -4760    -4651    -4563    -4555    -4587 
   -4601    -4558    -4485    -4484    -4577    -4626    -4574    -4533 
   -4539    -4519    -4493    -4538    -4628    -4623    -4471    -4321 
   -4315    -4410    -4503    -4555    -4597    -4643    -4636    -4574 
   -4551    -4622    -4748    -4833    -4815    -4741    -4690    -4672 
   -4680    -4703    -4671    -4559    -4462    -4459    -4533    -4601 
   -4601    -4550    -4471    -4372    -4327    -4395    -4490    -4552 
   -4621    -4635    -4539    -4464    -4505    -4543    -4517    -4544 
   -4630    -4666    -4645    -4637    -4703    -4834    -4888    -4770 
   -4619    -4595    -4663    -4715    -4686    -4584    -4474    -4421 
   -4458    -4550    -4588    -4527    -4449    -4421    -4427    -4473 
   -4566    -4669    -4735    -4689    -4549    -4486    -4545    -4550 
   -4453    -4404    -4391    -4304    -4250    -4364    -4545    -4635 
   -4639    -4662    -4740    -4828    -4898    -4902    -4751    -4587 
   -4638    -4802    -4857    -4800    -4749    -4736    -4640    -4431 
   -4308    -4389    -4556    -4625    -4549    -4450    -4443    -4506 
   -4542    -4541    -4570    -4580    -4484    -4415    -4551    -4759 
   -4740    -4473    -4254    -4301    -4491    -4596    -4614    -4659 
   -4699    -4636    -4539    -4551    -4659    -4739    -4737    -4701 
   -4656    -4604    -4597    -4647    -4652    -4551    -4436    -4437 
   -4554    -4642    -4579    -4421    -4333    -4388    -4500    -4601 
   -4697    -4700    -4568    -4499    -4609    -4696    -4625    -4566 
   -4642    -4722    -4679    -4546    -4467    -4567    -4767    -4845 
   -4728    -4572    -4527    -4537    -4486    -4414    -4421    -4487 
   -4523    -4508    -4484    -4467    -4428    -4367    -4357    -4431 
   -4510    -4479    -4369    -4372    -4511    -4535    -4384    -4362 
   -4613    -4858    -4845    -4722    -4711    -4781    -4810    -4763 
   -4666    -4595    -4594    -4596    -4567    -4558    -4567    -4566 
   -4602    -4702    -4760    -4683    -4576    -4616    -4747    -4746 
   -4591    -4504    -4546    -4543    -4455    -4459    -4569    -4589 
   -4502    -4497    -4584    -4607    -4603    -4720    -4859    -4808 
   -4645    -4613    -4729    -4817    -4805    -4736    -4626    -4512 
   -4495    -4558    -4577    -4528    -4518    -4538    -4434    -4274 
   -4302    -4468    -4526    -4470    -4436    -4450    -4458    -4469 
   -4514    -4532    -4459    -4375    -4391    -4495    -4622    -4678 
   -4598    -4488    -4470    -4463    -4413    -4452    -4586    -4642 
   -4607    -4619    -4666    -4638    -4596    -4656    -4767    -4850 
   -4934    -4989    -4882    -4664    -4559    -4606    -4622    -4530 
   -4456    -4510    -4630    -4684    -4632    -4551    -4521    -4543 
   -4558    -4514    -4435    -4428    -4535    -4604    -4494    -4317 
   -4286    -4386    -4447    -4460    -4507    -4517    -4408    -4324 
   -4434    -4623    -4650    -4554    -4573    -4691    -4679    -4532 
   -4512    -4730    -4945    -4907    -4713    -4624    -4690    -4812 
   -4904    -4873    -4704    -4532    -4493    -4595    -4738    -4798 
   -4685    -4419    -4179    -4141    -4260    -4390    -4521    -4652 
   -4651    -4501    -4396    -4453    -4534    -4466    -4333    -4336 
   -4448    -4523    -4592    -4711    -4742    -4585    -4407    -4401 
   -4538    -4709    -4844    -4853    -4729    -4613    -4597    -4608 
   -4587    -4557    -4508    -4473    -4571    -4742    -4767    -4665 
   -4623    -4630    -4613    -4649    -4762    -4846    -4861    -4859 
   -4819    -4679    -4504    -4396    -4333    -4302    -4361    -4472 
   -4552    -4597    -4589    -4532    -4515    -4521    -4457    -4410 
   -4511    -4654    -4666    -4597    -4605    -4666    -4628    -4526 
   -4532    -4604    -4544    -4379    -4345    -4512    -4675    -4688 
   -4655    -4677    -4682    -4617    -4614    -4760    -4868    -4765 
   -4581    -4506    -4538    -4586    -4599    -4571    -4541    -4567 
   -4633    -4619    -4498    -4443    -4530    -4557    -4404    -4295 
   -4400    -4535    -4557    -4579    -4632    -4622    -4572    -4570 
   -4642    -4737    -4751    -4658    -4592    -4635    -4657    -4582 
   -4547    -4607    -4662    -4688    -4710    -4698    -4658    -4667 
   -4734    -4771    -4754    -4754    -4768    -4742    -4716    -4722 
   -4693    -4638    -4654    -4689    -4622    -4516    -4472    -4462 
   -4464    -4478    -4443    -4355    -4339    -4476    -4660    -4747 
   -4743    -4713    -4689    -4690    -4701    -4689    -4639    -4585 
   -4634    -4799    -4909    -4872    -4777    -4692    -4569    -4406 
   -4309    -4326    -4362    -4351    -4311    -4257    -4218    -4228 
   -4280    -4360    -4495    -4653    -4719    -4670    -4634    -4659 
   -4661    -4631    -4624    -4637    -4665    -4724    -4747    -4658 
   -4554    -4562    -4622    -4628    -4602    -4617    -4694    -4806 
   -4901    -4911    -4817    -4690    -4616    -4606    -4631    -4675 
   -4696    -4651    -4601    -4614    -4630    -4567    -4490    -4523 
   -4637    -4706    -4714    -4705    -4654    -4555    -4468    -4436 
   -4454    -4510    -4593    -4650    -4630    -4580    -4557    -4531 
   -4494    -4481    -4498    -4530    -4592    -4687    -4739    -4677 
   -4541    -4433    -4420    -4522    -4691    -4790    -4720    -4574 
   -4532    -4628    -4720    -4677    -4567    -4518    -4511    -4505 
   -4558    -4682    -4769    -4728    -4618    -4573    -4650    -4807 
   -4932    -4934    -4818    -4665    -4564    -4572    -4672    -4749 
   -4727    -4635    -4505    -4404    -4390    -4408    -4421    -4465 
   -4535    -4568    -4542    -4519    -4564    -4644    -4681    -4704 
   -4758    -4766    -4683    -4614    -4627    -4635    -4574    -4504 
   -4486    -4483    -4439    -4387    -4378    -4397    -4400    -4374 
   -4354    -4387    -4493    -4615    -4678    -4697    -4707    -4691 
   -4671    -4689    -4736    -4780    -4790    -4771    -4774    -4804 
   -4774    -4650    -4540    -4544    -4588    -4557    -4492    -4509 
   -4619    -4700    -4670    -4582    -4487    -4367    -4289    -4350 
   -4456    -4423    -4284    -4249    -4352    -4431    -4464    -4578 
   -4748    -4849    -4899    -4957    -4934    -4806    -4745    -4838 
   -4939    -4924    -4856    -4805    -4751    -4681    -4617    -4568 
   -4517    -4493    -4534    -4601    -4649    -4720    -4826    -4879 
   -4791    -4621    -4542    -4593    -4626    -4554    -4442    -4343 
   -4235    -4127    -4117    -4238    -4363    -4394    -4399    -4448 
   -4499    -4503    -4505    -4584    -4713    -4781    -4753    -4724 
   -4787    -4915    -5001    -4994    -4924    -4851    -4836    -4894 
   -4958    -4946    -4889    -4890    -4957    -4997    -4980    -4966 
   -4971    -4946    -4871    -4778    -4710    -4636    -4487    -4281 
   -4125    -4065    -4033    -3985    -3962    -3953    -3895    -3820 
   -3850    -4012    -4222    -4411    -4570    -4704    -4830    -4963 
   -5116    -5280    -5382    -5327    -5128    -4911    -4734    -4572 
   -4415    -4258    -4078    -3915    -3856    -3851    -3763    -3616 
   -3550    -3600    -3710    -3871    -4116    -4431    -4717    -4868 
   -4912    -4996    -5166    -5325    -5428    -5517    -5585    -5588 
   -5527    -5414    -5230    -4993    -4784    -4654    -4560    -4452 
   -4340    -4266    -4232    -4226    -4275    -4363    -4444    -4540 
   -4709    -4934    -5107    -5134    -5049    -4938    -4837    -4752 
   -4684    -4598    -4452    -4279    -4175    -4159    -4154    -4132 
   -4162    -4274    -4391    -4489    -4658    -4890    -5026    -5012 
   -4964    -4917    -4810    -4665    -4583    -4598    -4647    -4642 
   -4603    -4605    -4619    -4537    -4379    -4278    -4272    -4277 
   -4248    -4256    -4366    -4519    -4636    -4717    -4800    -4893 
   -4967    -4993    -4981    -4982    -4998    -4963    -4870    -4788 
   -4726    -4653    -4589    -4551    -4516    -4486    -4471    -4433 
   -4388    -4420    -4510    -4563    -4623    -4790    -4971    -4988 
   -4853    -4670    -4453    -4195    -3981    -3896    -3886    -3818 
   -3643    -3444    -3345    -3393    -3550    -3744    -3967    -4280 
   -4666    -4997    -5219    -5448    -5761    -6025    -6117    -6139 
   -6209    -6243    -6135    -5954    -5795    -5600    -5275    -4856 
   -4468    -4172    -3909    -3601    -3287    -3099    -3061    -3079 
   -3124    -3243    -3476    -3783    -4046    -4223    -4401    -4641 
   -4852    -4909    -4892    -4975    -5117    -5177    -5194    -5265 
   -5317    -5250    -5127    -5076    -5107    -5147    -5159    -5159 
   -5144    -5110    -5057    -4983    -4881    -4748    -4582    -4394 
   -4247    -4209    -4218    -4168    -4092    -4068    -4106    -4181 
   -4258    -4284    -4243    -4156    -4079    -4078    -4162    -4272 
   -4350    -4423    -4573    -4807    -5047    -5230    -5331    -5333 
   -5260    -5183    -5147    -5145    -5157    -5147    -5060    -4895 
   -4747    -4664    -4561    -4369    -4162    -4066    -4085    -4106 
   -4097    -4153    -4290    -4389    -4372    -4313    -4325    -4393 
   -4444    -4477    -4502    -4494    -4451    -4415    -4416    -4435 
   -4431    -4412    -4404    -4395    -4409    -4502    -4646    -4762 
   -4826    -4864    -4887    -4921    -5007    -5122    -5209    -5249 
   -5224    -5100    -4894    -4706    -4609    -4546    -4468    -4402 
   -4350    -4306    -4287    -4258    -4191    -4143    -4155    -4236 
   -4435    -4736    -4976    -5018    -4948    -4919    -4898    -4792 
   -4686    -4719    -4846    -4917    -4892    -4861    -4888    -4922 
   -4886    -4785    -4663    -4497    -4301    -4177    -4152    -4126 
   -4055    -4000    -4008    -4047    -4081    -4130    -4232    -4365 
   -4475    -4568    -4691    -4853    -5003    -5106    -5152    -5132 
   -5066    -5017    -5003    -4969    -4862    -4682    -4479    -4307 
   -4173    -4071    -4035    -4053    -4051    -4018    -4014    -4064 
   -4168    -4346    -4554    -4699    -4807    -4963    -5148    -5291 
   -5369    -5386    -5361    -5330    -5293    -5200    -5029    -4848 
   -4726    -4642    -4546    -4454    -4422    -4464    -4534    -4570 
   -4563    -4573    -4644    -4736    -4795    -4807    -4779    -4747 
   -4739    -4709    -4610    -4518    -4510    -4501    -4401    -4282 
   -4240    -4249    -4254    -4275    -4329    -4368    -4363    -4348 
   -4381    -4475    -4538    -4507    -4468    -4496    -4562    -4605 
   -4587    -4535    -4504    -4486    -4441    -4393    -4419    -4526 
   -4614    -4627    -4630    -4661    -4653    -4567    -4478    -4458 
   -4477    -4504    -4564    -4658    -4721    -4706    -4638    -4587 
   -4601    -4681    -4805    -4928    -5001    -5005    -4972    -4951 
   -4937    -4882    -4793    -4721    -4654    -4545    -4390    -4250 
   -4195    -4208    -4236    -4292    -4407    -4552    -4657    -4695 
   -4682    -4627    -4550    -4509    -4533    -4564    -4536    -4480 
   -4459    -4479    -4504    -4521    -4552    -4597    -4621    -4621 
   -4660    -4760    -4841    -4863    -4898    -4965    -4981    -4944 
   -4947    -5014    -5072    -5059    -4980    -4899    -4886    -4922 
   -4937    -4917    -4889    -4829    -4740    -4695    -4684    -4622 
   -4511    -4401    -4279    -4164    -4139    -4188    -4168    -4059 
   -4005    -4046    -4092    -4124    -4210    -4338    -4423    -4445 
   -4472    -4542    -4612    -4619    -4574    -4572    -4656    -4727 
   -4723    -4712    -4744    -4775    -4782    -4772    -4740    -4711 
   -4714    -4714    -4675    -4635    -4630    -4616    -4565    -4518 
   -4487    -4441    -4386    -4364    -4388    -4445    -4517    -4573 
   -4614    -4675    -4739    -4757    -4744    -4759    -4805    -4822 
   -4782    -4731    -4705    -4677    -4642    -4640    -4671    -4694 
   -4692    -4683    -4706    -4741    -4720    -4656    -4623    -4623 
   -4592    -4519    -4444    -4379    -4309    -4255    -4249    -4277 
   -4314    -4364    -4423    -4472    -4510    -4567    -4659    -4758 
   -4858    -4976    -5079    -5107    -5047    -4945    -4875    -4838 
   -4783    -4707    -4648    -4611    -4569    -4509    -4457    -4424 
   -4362    -4285    -4293    -4397    -4481    -4489    -4477    -4479 
   -4467    -4450    -4479    -4544    -4604    -4665    -4752    -4846 
   -4904    -4910    -4878    -4853    -4859    -4857    -4840    -4864 
   -4912    -4892    -4799    -4703    -4615    -4498    -4384    -4327 
   -4308    -4268    -4194    -4118    -4074    -4082    -4127    -4184 
   -4253    -4349    -4460    -4547    -4606    -4666    -4723    -4748 
   -4735    -4716    -4726    -4749    -4754    -4756    -4791    -4857 
   -4921    -4966    -4993    -5002    -4991    -4969    -4970    -5001 
   -5018    -4984    -4891    -4752    -4593    -4449    -4337    -4262 
   -4227    -4217    -4202    -4161    -4098    -4027    -3958    -3907 
   -3907    -3970    -4063    -4161    -4279    -4416    -4532    -4601 
   -4645    -4708    -4806    -4902    -4964    -5013    -5065    -5077 
   -5025    -4988    -5072    -5236    -5348    -5381    -5375    -5322 
   -5203    -5058    -4939    -4823    -4659    -4501    -4451    -4465 
   -4411    -4280    -4156    -4092    -4089    -4138    -4212    -4280 
   -4325    -4346    -4358    -4385    -4445    -4548    -4645    -4642 
   -4544    -4453    -4446    -4496    -4519    -4495    -4486    -4520 
   -4561    -4594    -4630    -4659    -4652    -4602    -4555    -4547 
   -4550    -4524    -4459    -4377    -4309    -4264    -4239    -4241 
   -4269    -4306    -4333    -4340    -4334    -4368    -4478    -4642 
   -4831    -5025    -5201    -5338    -5435    -5522    -5592    -5599 
   -5560    -5515    -5452    -5361    -5292    -5248    -5168    -5024 
   -4852    -4680    -4501    -4346    -4256    -4203    -4116    -3992 
   -3903    -3885    -3912    -3984    -4100    -4213    -4266    -4242 
   -4223    -4288    -4375    -4406    -4412    -4421    -4408    -4393 
   -4423    -4478    -4497    -4459    -4419    -4428    -4463    -4487 
