Origin Time       2024/06/23 22:54:00
Lat.              35.645
Long.             140.060
Depth. (km)       72
Mag.              4.1
Station Code      NGNH24
Station Lat.      35.6152
Station Long.     137.8797
Station Height(m) 715
Record Time       2024/06/23 22:55:18
Sampling Freq(Hz) 100Hz
Duration Time(s)  120
Dir.              4
Scale Factor      3920(gal)/6170801
Max. Acc. (gal)   0.448
Last Correction   2024/06/23 22:55:03
Memo.             
[...]
   -3308    -3352    -3395    -3424    -3421    -3419    -3442    -3433 
   -3396    -3371    -3363    -3367    -3360    -3341    -3313    -3284 
   -3296    -3333    -3337    -3330    -3368    -3418    -3430    -3406 
   -3379    -3361    -3363    -3405    -3427    -3390    -3366    -3377 
   -3387    -3385    -3352    -3308    -3301    -3315    -3325    -3346 
   -3368    -3358    -3351    -3373    -3376    -3366    -3374    -3390 
   -3393    -3382    -3375    -3371    -3361    -3350    -3326    -3307 
   -3326    -3370    -3399    -3388    -3362    -3360    -3386    -3414 
   -3399    -3365    -3361    -3357    -3350    -3346    -3312    -3296 
   -3354    -3418    -3413    -3377    -3367    -3385    -3411    -3397 
   -3352    -3349    -3367    -3362    -3359    -3343    -3306    -3306 
   -3342    -3343    -3322    -3340    -3362    -3358    -3368    -3393 
   -3414    -3422    -3427    -3434    -3400    -3345    -3341    -3360 
   -3339    -3304    -3303    -3330    -3338    -3336    -3355    -3358 
   -3350    -3375    -3412    -3408    -3369    -3365    -3388    -3376 
   -3357    -3375    -3393    -3376    -3368    -3380    -3365    -3342 
   -3346    -3347    -3319    -3303    -3341    -3405    -3419    -3377 
   -3359    -3393    -3429    -3432    -3402    -3351    -3333    -3369 
   -3384    -3351    -3329    -3321    -3323    -3356    -3379    -3379 
   -3378    -3373    -3362    -3365    -3362    -3341    -3352    -3397 
   -3387    -3337    -3345    -3361    -3323    -3297    -3305    -3327 
   -3351    -3361    -3364    -3357    -3366    -3405    -3428    -3424 
   -3398    -3368    -3356    -3324    -3302    -3335    -3362    -3382 
   -3405    -3376    -3349    -3345    -3343    -3383    -3412    -3385 
   -3373    -3386    -3374    -3345    -3335    -3348    -3367    -3383 
   -3411    -3437    -3403    -3345    -3332    -3340    -3345    -3362 
   -3374    -3358    -3343    -3367    -3402    -3407    -3387    -3363 
   -3334    -3320    -3345    -3368    -3340    -3316    -3340    -3359 
   -3365    -3379    -3376    -3373    -3385    -3391    -3382    -3361 
   -3352    -3371    -3392    -3385    -3341    -3308    -3339    -3373 
   -3355    -3364    -3375    -3313    -3309    -3380    -3376    -3343 
   -3381    -3412    -3389    -3376    -3373    -3345    -3322    -3324 
   -3352    -3415    -3463    -3453    -3423    -3365    -3299    -3309 
   -3353    -3350    -3338    -3353    -3373    -3383    -3380    -3371 
   -3364    -3362    -3370    -3379    -3368    -3346    -3340    -3363 
   -3378    -3360    -3345    -3353    -3358    -3356    -3347    -3329 
   -3326    -3355    -3404    -3429    -3396    -3382    -3412    -3398 
   -3366    -3352    -3336    -3343    -3347    -3310    -3299    -3313 
   -3318    -3355    -3382    -3356    -3360    -3405    -3405    -3376 
   -3386    -3406    -3402    -3400    -3398    -3384    -3359    -3341 
   -3358    -3363    -3351    -3377    -3393    -3350    -3314    -3304 
   -3295    -3307    -3353    -3385    -3380    -3370    -3377    -3398 
   -3390    -3342    -3322    -3347    -3386    -3400    -3385    -3386 
   -3369    -3348    -3359    -3328    -3300    -3345    -3393    -3401 
   -3361    -3348    -3380    -3361    -3340    -3366    -3370    -3357 
   -3379    -3415    -3424    -3403    -3393    -3387    -3341    -3301 
   -3319    -3340    -3330    -3335    -3351    -3342    -3349    -3394 
   -3413    -3392    -3384    -3403    -3416    -3397    -3362    -3353 
   -3374    -3378    -3370    -3374    -3341    -3315    -3356    -3377 
   -3355    -3340    -3356    -3393    -3388    -3360    -3370    -3367 
   -3342    -3348    -3349    -3318    -3319    -3358    -3381    -3379 
   -3341    -3326    -3376    -3387    -3353    -3361    -3371    -3349 
   -3325    -3307    -3316    -3346    -3364    -3401    -3428    -3397 
   -3382    -3397    -3395    -3387    -3364    -3346    -3370    -3390 
   -3380    -3361    -3350    -3359    -3376    -3366    -3349    -3357 
   -3371    -3373    -3355    -3341    -3355    -3372    -3392    -3403 
   -3396    -3400    -3401    -3396    -3376    -3326    -3309    -3335 
   -3344    -3347    -3373    -3396    -3401    -3406    -3400    -3372 
   -3339    -3345    -3390    -3386    -3354    -3387    -3401    -3371 
   -3374    -3365    -3345    -3348    -3338    -3329    -3327    -3318 
   -3356    -3417    -3387    -3318    -3321    -3358    -3369    -3362 
   -3333    -3307    -3328    -3356    -3366    -3385    -3384    -3366 
   -3376    -3381    -3361    -3374    -3425    -3449    -3423    -3402 
   -3413    -3427    -3424    -3386    -3323    -3284    -3310    -3354 
   -3348    -3332    -3348    -3359    -3352    -3339    -3339    -3358 
   -3361    -3365    -3395    -3391    -3360    -3367    -3382    -3359 
   -3326    -3309    -3318    -3366    -3401    -3392    -3387    -3378 
   -3354    -3356    -3354    -3343    -3372    -3382    -3346    -3346 
   -3396    -3436    -3430    -3383    -3346    -3347    -3344    -3350 
   -3386    -3375    -3332    -3347    -3391    -3405    -3384    -3352 
   -3345    -3349    -3344    -3337    -3336    -3355    -3396    -3435 
   -3438    -3415    -3400    -3361    -3289    -3251    -3276    -3329 
   -3365    -3380    -3392    -3392    -3372    -3379    -3434    -3441 
   -3365    -3335    -3381    -3395    -3360    -3337    -3339    -3342 
   -3343    -3336    -3323    -3315    -3312    -3329    -3356    -3358 
   -3374    -3431    -3440    -3383    -3361    -3372    -3368    -3355 
   -3339    -3329    -3322    -3333    -3363    -3363    -3331    -3317 
   -3363    -3401    -3363    -3332    -3353    -3367    -3373    -3407 
   -3423    -3382    -3364    -3386    -3371    -3330    -3333    -3376 
   -3397    -3388    -3381    -3369    -3354    -3351    -3362    -3367 
   -3359    -3388    -3421    -3385    -3324    -3306    -3333    -3351 
   -3339    -3344    -3366    -3379    -3405    -3429    -3403    -3364 
   -3367    -3380    -3367    -3337    -3316    -3338    -3369    -3361 
   -3364    -3381    -3364    -3356    -3362    -3324    -3313    -3367 
   -3400    -3396    -3379    -3364    -3394    -3413    -3366    -3333 
   -3333    -3325    -3353    -3373    -3335    -3311    -3325    -3368 
   -3428    -3436    -3416    -3433    -3434    -3397    -3386    -3358 
   -3298    -3312    -3358    -3352    -3347    -3359    -3372    -3374 
   -3354    -3345    -3343    -3348    -3369    -3368    -3356    -3377 
   -3405    -3423    -3429    -3400    -3379    -3386    -3337    -3282 
   -3307    -3331    -3335    -3347    -3340    -3337    -3341    -3350 
   -3384    -3396    -3375    -3389    -3430    -3438    -3412    -3390 
   -3366    -3332    -3327    -3338    -3325    -3322    -3361    -3409 
   -3408    -3371    -3374    -3395    -3386    -3365    -3360    -3381 
   -3384    -3351    -3348    -3343    -3307    -3324    -3378    -3361 
   -3319    -3351    -3395    -3378    -3348    -3343    -3376    -3419 
   -3437    -3441    -3408    -3354    -3349    -3351    -3323    -3315 
   -3331    -3346    -3366    -3374    -3365    -3369    -3361    -3350 
   -3400    -3420    -3356    -3343    -3378    -3358    -3340    -3372 
   -3389    -3373    -3354    -3336    -3336    -3353    -3357    -3349 
   -3350    -3352    -3361    -3396    -3415    -3373    -3353    -3406 
   -3430    -3396    -3382    -3359    -3326    -3352    -3388    -3388 
   -3391    -3389    -3382    -3369    -3325    -3306    -3336    -3372 
   -3384    -3378    -3393    -3391    -3360    -3363    -3341    -3279 
   -3295    -3341    -3336    -3335    -3343    -3356    -3376    -3374 
   -3379    -3390    -3366    -3365    -3398    -3394    -3388    -3418 
   -3429    -3400    -3369    -3371    -3396    -3389    -3356    -3354 
   -3356    -3341    -3361    -3394    -3379    -3362    -3370    -3367 
   -3354    -3347    -3343    -3359    -3379    -3361    -3350    -3390 
   -3405    -3368    -3379    -3378    -3294    -3285    -3359    -3368 
   -3357    -3373    -3360    -3352    -3371    -3369    -3353    -3365 
   -3390    -3397    -3400    -3388    -3351    -3343    -3360    -3357 
   -3376    -3408    -3377    -3342    -3364    -3361    -3324    -3330 
   -3363    -3372    -3356    -3364    -3406    -3411    -3378    -3357 
   -3342    -3336    -3349    -3346    -3332    -3341    -3361    -3404 
   -3442    -3411    -3365    -3371    -3375    -3349    -3344    -3372 
   -3379    -3362    -3370    -3376    -3351    -3328    -3330    -3328 
   -3305    -3311    -3347    -3361    -3373    -3379    -3358    -3355 
   -3384    -3399    -3377    -3346    -3358    -3402    -3416    -3401 
   -3386    -3373    -3361    -3350    -3333    -3322    -3353    -3387 
   -3389    -3393    -3373    -3348    -3384    -3409    -3380    -3365 
   -3360    -3350    -3347    -3335    -3330    -3339    -3351    -3389 
   -3420    -3376    -3325    -3349    -3363    -3332    -3348    -3380 
   -3352    -3337    -3377    -3384    -3364    -3384    -3400    -3397 
   -3390    -3369    -3383    -3411    -3369    -3328    -3341    -3338 
   -3325    -3338    -3336    -3323    -3352    -3401    -3414    -3401 
   -3386    -3378    -3380    -3371    -3358    -3363    -3362    -3351 
   -3359    -3358    -3342    -3346    -3367    -3378    -3388    -3408 
   -3414    -3401    -3387    -3363    -3346    -3358    -3367    -3367 
   -3355    -3325    -3318    -3324    -3339    -3357    -3347    -3363 
   -3382    -3349    -3346    -3374    -3360    -3351    -3364    -3355 
   -3340    -3358    -3389    -3389    -3357    -3343    -3370    -3391 
   -3388    -3388    -3392    -3382    -3355    -3346    -3351    -3333 
   -3335    -3369    -3387    -3395    -3384    -3347    -3325    -3312 
   -3318    -3367    -3406    -3414    -3423    -3417    -3388    -3360 
   -3360    -3372    -3338    -3296    -3308    -3336    -3359    -3387 
   -3390    -3365    -3370    -3405    -3415    -3394    -3372    -3359 
   -3346    -3341    -3367    -3393    -3375    -3349    -3354    -3373 
   -3378    -3368    -3372    -3369    -3323    -3304    -3346    -3371 
   -3360    -3359    -3380    -3400    -3402    -3402    -3383    -3335 
   -3332    -3373    -3402    -3410    -3408    -3402    -3373    -3342 
   -3354    -3347    -3299    -3300    -3330    -3345    -3372    -3385 
   -3383    -3389    -3379    -3376    -3390    -3394    -3373    -3326 
   -3311    -3349    -3378    -3385    -3375    -3351    -3332    -3340 
   -3383    -3396    -3363    -3374    -3397    -3361    -3341    -3359 
   -3345    -3326    -3329    -3330    -3349    -3378    -3385    -3386 
   -3374    -3356    -3374    -3395    -3382    -3362    -3350    -3336 
   -3333    -3371    -3405    -3378    -3354    -3381    -3403    -3392 
   -3362    -3336    -3331    -3332    -3331    -3336    -3348    -3376 
   -3395    -3395    -3403    -3396    -3392    -3403    -3376    -3345 
   -3360    -3366    -3345    -3346    -3353    -3332    -3328    -3376 
   -3412    -3394    -3379    -3398    -3393    -3365    -3352    -3338 
   -3328    -3337    -3349    -3377    -3393    -3348    -3324    -3357 
   -3346    -3323    -3361    -3373    -3342    -3344    -3366    -3395 
   -3413    -3399    -3385    -3378    -3369    -3383    -3390    -3357 
   -3335    -3355    -3374    -3388    -3402    -3388    -3369    -3366 
   -3350    -3329    -3312    -3304    -3349    -3408    -3415    -3410 
   -3409    -3377    -3351    -3350    -3342    -3333    -3326    -3334 
   -3365    -3373    -3366    -3383    -3386    -3353    -3336    -3364 
   -3393    -3389    -3390    -3390    -3351    -3333    -3374    -3379 
   -3347    -3355    -3383    -3401    -3397    -3366    -3359    -3365 
   -3345    -3339    -3341    -3325    -3337    -3374    -3391    -3391 
   -3380    -3372    -3386    -3378    -3330    -3325    -3346    -3325 
   -3336    -3378    -3381    -3383    -3390    -3380    -3369    -3364 
   -3362    -3363    -3367    -3365    -3376    -3397    -3383    -3374 
   -3393    -3384    -3366    -3368    -3372    -3367    -3352    -3357 
   -3382    -3382    -3360    -3351    -3364    -3370    -3369    -3382 
   -3397    -3394    -3389    -3388    -3373    -3353    -3368    -3378 
   -3336    -3317    -3357    -3367    -3351    -3368    -3367    -3337 
   -3349    -3370    -3362    -3353    -3324    -3319    -3381    -3393 
   -3356    -3368    -3359    -3337    -3382    -3417    -3395    -3389 
   -3398    -3380    -3363    -3352    -3350    -3371    -3379    -3368 
   -3359    -3345    -3348    -3367    -3368    -3353    -3350    -3368 
   -3387    -3383    -3371    -3387    -3400    -3381    -3374    -3377 
   -3362    -3353    -3358    -3362    -3358    -3351    -3338    -3299 
   -3265    -3270    -3305    -3363    -3398    -3395    -3401    -3391 
   -3366    -3382    -3388    -3349    -3364    -3423    -3432    -3426 
   -3432    -3423    -3408    -3386    -3369    -3355    -3316    -3302 
   -3328    -3325    -3297    -3284    -3291    -3331    -3371    -3373 
   -3374    -3391    -3407    -3426    -3416    -3369    -3337    -3336 
   -3355    -3369    -3363    -3390    -3464    -3523    -3555    -3540 
   -3453    -3341    -3246    -3213    -3256    -3336    -3467    -3569 
   -3545    -3484    -3396    -3218    -3060    -3008    -3034    -3161 
   -3379    -3572    -3659    -3630    -3519    -3425    -3364    -3295 
   -3283    -3357    -3434    -3457    -3440    -3388    -3273    -3136 
   -3062    -3068    -3144    -3243    -3314    -3348    -3311    -3226 
   -3205    -3268    -3386    -3577    -3810    -3996    -4070    -3997 
   -3788    -3504    -3213    -2993    -2920    -2990    -3157    -3387 
   -3585    -3649    -3576    -3398    -3167    -2982    -2943    -3037 
   -3180    -3342    -3495    -3545    -3454    -3302    -3151    -3041 
   -3044    -3161    -3323    -3442    -3457    -3423    -3345    -3230 
   -3206    -3274    -3364    -3496    -3628    -3728    -3790    -3746 
   -3628    -3505    -3392    -3368    -3446    -3499    -3482    -3418 
   -3285    -3135    -3032    -2970    -3019    -3199    -3372    -3503 
   -3583    -3516    -3346    -3211    -3140    -3105    -3126    -3200 
   -3283    -3390    -3531    -3668    -3730    -3671    -3544    -3407 
   -3298    -3315    -3479    -3664    -3753    -3737    -3646    -3471 
   -3224    -3007    -2906    -2912    -3015    -3221    -3422    -3535 
   -3564    -3507    -3399    -3257    -3098    -2991    -2951    -2972 
   -3060    -3199    -3375    -3556    -3692    -3752    -3737    -3675 
   -3594    -3512    -3447    -3394    -3354    -3322    -3259    -3193 
   -3175    -3206    -3301    -3417    -3451    -3410    -3346    -3317 
   -3341    -3329    -3317    -3388    -3436    -3438    -3445    -3409 
   -3352    -3303    -3226    -3147    -3120    -3189    -3374    -3588 
   -3708    -3725    -3646    -3466    -3275    -3145    -3095    -3141 
   -3242    -3359    -3474    -3548    -3577    -3550    -3445    -3294 
   -3153    -3086    -3099    -3123    -3147    -3182    -3230    -3337 
   -3501    -3631    -3661    -3621    -3543    -3402    -3247    -3177 
   -3252    -3406    -3508    -3573    -3617    -3568    -3478    -3412 
   -3346    -3295    -3273    -3268    -3278    -3263    -3217    -3209 
   -3237    -3264    -3324    -3429    -3517    -3577    -3629    -3628 
   -3531    -3410    -3333    -3275    -3230    -3231    -3284    -3351 
   -3392    -3423    -3441    -3413    -3371    -3338    -3292    -3265 
   -3276    -3297    -3340    -3376    -3362    -3340    -3324    -3290 
   -3230    -3180    -3208    -3264    -3319    -3403    -3442    -3441 
   -3486    -3550    -3578    -3581    -3562    -3513    -3482    -3498 
   -3500    -3484    -3491    -3483    -3417    -3313    -3215    -3161 
   -3135    -3097    -3083    -3149    -3219    -3233    -3272    -3320 
   -3317    -3327    -3380    -3403    -3377    -3392    -3483    -3561 
   -3564    -3510    -3462    -3454    -3435    -3403    -3385    -3343 
   -3306    -3314    -3294    -3215    -3156    -3168    -3227    -3286 
   -3332    -3375    -3402    -3409    -3422    -3452    -3481    -3481 
   -3468    -3454    -3401    -3354    -3360    -3389    -3417    -3420 
   -3408    -3394    -3371    -3327    -3260    -3225    -3260    -3317 
   -3357    -3353    -3332    -3368    -3403    -3364    -3320    -3302 
   -3276    -3287    -3340    -3361    -3360    -3382    -3414    -3402 
   -3343    -3325    -3379    -3441    -3479    -3503    -3503    -3492 
   -3474    -3415    -3311    -3222    -3186    -3196    -3214    -3221 
   -3255    -3323    -3378    -3428    -3429    -3363    -3349    -3365 
   -3341    -3342    -3360    -3392    -3479    -3531    -3500    -3485 
   -3500    -3487    -3476    -3466    -3401    -3337    -3333    -3334 
   -3309    -3292    -3305    -3323    -3309    -3252    -3193    -3209 
   -3285    -3330    -3343    -3377    -3413    -3434    -3458    -3473 
   -3463    -3447    -3433    -3400    -3327    -3262    -3278    -3314 
   -3305    -3318    -3354    -3341    -3333    -3376    -3396    -3385 
   -3396    -3429    -3450    -3408    -3337    -3339    -3361    -3333 
   -3324    -3349    -3368    -3397    -3423    -3388    -3324    -3302 
   -3304    -3314    -3339    -3359    -3399    -3457    -3468    -3440 
   -3412    -3408    -3436    -3450    -3422    -3343    -3251    -3234 
   -3234    -3174    -3156    -3221    -3288    -3332    -3371    -3384 
   -3359    -3357    -3387    -3378    -3342    -3364    -3430    -3474 
   -3485    -3475    -3486    -3517    -3498    -3458    -3427    -3361 
   -3306    -3306    -3295    -3279    -3331    -3426    -3474    -3452 
   -3384    -3328    -3310    -3279    -3231    -3199    -3189    -3234 
   -3345    -3431    -3428    -3417    -3459    -3483    -3450    -3401 
   -3365    -3353    -3357    -3363    -3395    -3463    -3531    -3576 
   -3597    -3534    -3401    -3324    -3273    -3177    -3130    -3159 
   -3215    -3291    -3355    -3372    -3356    -3346    -3325    -3263 
   -3198    -3174    -3220    -3304    -3360    -3425    -3493    -3523 
   -3559    -3575    -3512    -3438    -3406    -3377    -3321    -3272 
   -3258    -3285    -3338    -3372    -3384    -3408    -3438    -3462 
   -3476    -3450    -3403    -3379    -3375    -3354    -3295    -3274 
   -3331    -3372    -3365    -3339    -3311    -3303    -3282    -3268 
   -3297    -3303    -3329    -3425    -3472    -3442    -3406    -3376 
   -3368    -3369    -3343    -3335    -3364    -3393    -3396    -3370 
   -3341    -3347    -3382    -3386    -3355    -3348    -3368    -3360 
   -3328    -3319    -3340    -3379    -3434    -3457    -3410    -3360 
   -3363    -3364    -3336    -3315    -3326    -3394    -3482    -3497 
   -3454    -3421    -3378    -3341    -3356    -3335    -3257    -3245 
   -3285    -3274    -3242    -3268    -3313    -3332    -3363    -3386 
   -3390    -3403    -3398    -3392    -3411    -3432    -3469    -3526 
   -3532    -3455    -3372    -3327    -3275    -3208    -3163    -3177 
   -3249    -3340    -3443    -3505    -3489    -3483    -3483    -3417 
   -3330    -3267    -3254    -3304    -3343    -3351    -3384    -3419 
   -3433    -3460    -3475    -3421    -3365    -3376    -3382    -3348 
   -3332    -3338    -3357    -3377    -3394    -3437    -3493    -3536 
   -3546    -3476    -3370    -3331    -3354    -3352    -3295    -3239 
