Origin Time       2024/06/23 22:54:00
Lat.              35.645
Long.             140.060
Depth. (km)       72
Mag.              4.1
Station Code      NGNH24
Station Lat.      35.6152
Station Long.     137.8797
Station Height(m) 715
Record Time       2024/06/23 22:55:18
Sampling Freq(Hz) 100Hz
Duration Time(s)  120
Dir.              6
Scale Factor      3920(gal)/6170801
Max. Acc. (gal)   0.163
Last Correction   2024/06/23 22:55:03
Memo.             
[...]
  -15065   -15079   -15063   -15053   -15082   -15110   -15123   -15139 
  -15171   -15184   -15151   -15129   -15128   -15106   -15088   -15076 
  -15067   -15094   -15115   -15081   -15048   -15045   -15075   -15125 
  -15131   -15129   -15159   -15167   -15174   -15160   -15088   -15088 
  -15123   -15070   -15054   -15093   -15060   -15042   -15101   -15128 
  -15146   -15185   -15165   -15166   -15214   -15156   -15066   -15063 
  -15035   -14986   -15017   -15078   -15107   -15102   -15104   -15138 
  -15157   -15146   -15138   -15143   -15131   -15089   -15079   -15102 
  -15100   -15101   -15125   -15138   -15142   -15126   -15069   -15041 
  -15086   -15124   -15130   -15149   -15150   -15133   -15121   -15080 
  -15055   -15069   -15087   -15128   -15140   -15102   -15099   -15104 
  -15091   -15094   -15077   -15088   -15141   -15127   -15087   -15110 
  -15119   -15072   -15043   -15051   -15073   -15096   -15116   -15153 
  -15177   -15150   -15133   -15148   -15123   -15066   -15054   -15072 
  -15080   -15103   -15147   -15142   -15100   -15090   -15090   -15085 
  -15081   -15071   -15087   -15129   -15152   -15127   -15105   -15127 
  -15120   -15091   -15110   -15129   -15144   -15169   -15163   -15130 
  -15089   -15052   -15047   -15065   -15087   -15122   -15150   -15121 
  -15081   -15088   -15082   -15070   -15094   -15106   -15095   -15091 
  -15115   -15155   -15141   -15116   -15131   -15119   -15103   -15113 
  -15093   -15081   -15101   -15123   -15140   -15111   -15076   -15103 
  -15116   -15095   -15095   -15070   -15024   -15036   -15099   -15145 
  -15137   -15135   -15178   -15172   -15113   -15093   -15085   -15064 
  -15083   -15124   -15122   -15087   -15086   -15095   -15059   -15068 
  -15107   -15068   -15060   -15122   -15150   -15183   -15221   -15207 
  -15173   -15119   -15065   -15071   -15098   -15100   -15105   -15122 
  -15135   -15119   -15078   -15064   -15086   -15084   -15083   -15126 
  -15139   -15099   -15081   -15098   -15113   -15111   -15116   -15131 
  -15108   -15070   -15066   -15079   -15101   -15124   -15121   -15107 
  -15102   -15100   -15084   -15079   -15108   -15112   -15095   -15108 
  -15112   -15107   -15122   -15118   -15111   -15133   -15133   -15115 
  -15132   -15144   -15129   -15147   -15174   -15168   -15123   -15043 
  -15005   -15043   -15080   -15095   -15131   -15152   -15104   -15080 
  -15117   -15108   -15082   -15091   -15083   -15082   -15119   -15152 
  -15148   -15117   -15105   -15099   -15063   -15054   -15088   -15133 
  -15173   -15183   -15171   -15135   -15084   -15063   -15055   -15042 
  -15065   -15127   -15161   -15148   -15154   -15160   -15133   -15123 
  -15093   -15032   -15036   -15073   -15078   -15064   -15066   -15112 
  -15144   -15131   -15128   -15116   -15070   -15066   -15115   -15124 
  -15102   -15134   -15152   -15128   -15142   -15127   -15062   -15055 
  -15085   -15096   -15126   -15160   -15154   -15118   -15081   -15065 
  -15083   -15107   -15114   -15123   -15123   -15118   -15129   -15138 
  -15143   -15101   -15011   -15006   -15079   -15103   -15107   -15121 
  -15087   -15050   -15082   -15143   -15173   -15166   -15163   -15182 
  -15183   -15153   -15133   -15132   -15123   -15101   -15097   -15119 
  -15130   -15120   -15091   -15052   -15043   -15048   -15044   -15071 
  -15091   -15078   -15109   -15159   -15168   -15167   -15138   -15097 
  -15099   -15105   -15080   -15066   -15093   -15118   -15114   -15112 
  -15114   -15090   -15064   -15073   -15109   -15148   -15155   -15124 
  -15116   -15125   -15098   -15086   -15110   -15097   -15076   -15100 
  -15122   -15117   -15088   -15061   -15083   -15128   -15146   -15137 
  -15109   -15090   -15114   -15130   -15096   -15071   -15093   -15118 
  -15124   -15112   -15098   -15111   -15107   -15086   -15115   -15148 
  -15131   -15112   -15094   -15078   -15100   -15118   -15097   -15090 
  -15118   -15147   -15150   -15106   -15063   -15066   -15061   -15054 
  -15093   -15133   -15119   -15087   -15110   -15149   -15117   -15080 
  -15111   -15144   -15139   -15124   -15112   -15088   -15057   -15057 
  -15089   -15094   -15098   -15139   -15159   -15130   -15107   -15110 
  -15110   -15102   -15116   -15143   -15137   -15109   -15113   -15143 
  -15149   -15141   -15140   -15138   -15126   -15110   -15103   -15086 
  -15069   -15081   -15095   -15092   -15075   -15061   -15070   -15070 
  -15046   -15039   -15079   -15128   -15128   -15122   -15137   -15136 
  -15141   -15141   -15113   -15091   -15084   -15097   -15100   -15057 
  -15049   -15085   -15096   -15102   -15113   -15121   -15134   -15153 
  -15176   -15165   -15127   -15118   -15118   -15108   -15119   -15122 
  -15101   -15102   -15114   -15102   -15102   -15125   -15128   -15108 
  -15092   -15081   -15089   -15111   -15111   -15084   -15077   -15112 
  -15132   -15117   -15121   -15120   -15094   -15100   -15106   -15086 
  -15085   -15092   -15099   -15113   -15101   -15088   -15096   -15088 
  -15089   -15105   -15093   -15086   -15118   -15136   -15123   -15096 
  -15059   -15043   -15065   -15101   -15134   -15133   -15113   -15136 
  -15148   -15136   -15159   -15147   -15115   -15148   -15150   -15106 
  -15094   -15096   -15102   -15114   -15105   -15090   -15087   -15080 
  -15069   -15068   -15085   -15113   -15118   -15112   -15128   -15139 
  -15143   -15140   -15106   -15088   -15098   -15086   -15085   -15116 
  -15134   -15143   -15152   -15139   -15107   -15079   -15060   -15044 
  -15038   -15052   -15066   -15064   -15085   -15138   -15136   -15075 
  -15089   -15157   -15152   -15110   -15129   -15157   -15115   -15087 
  -15129   -15148   -15139   -15152   -15150   -15114   -15076   -15053 
  -15056   -15081   -15096   -15101   -15141   -15162   -15129   -15132 
  -15152   -15133   -15107   -15065   -15026   -15048   -15102   -15119 
  -15085   -15075   -15109   -15123   -15139   -15168   -15165   -15136 
  -15106   -15105   -15130   -15123   -15101   -15106   -15124   -15138 
  -15118   -15085   -15072   -15062   -15060   -15087   -15115   -15114 
  -15115   -15138   -15129   -15107   -15111   -15085   -15067   -15094 
  -15106   -15144   -15186   -15143   -15095   -15099   -15096   -15104 
  -15128   -15110   -15070   -15062   -15087   -15114   -15107   -15100 
  -15131   -15146   -15141   -15149   -15125   -15079   -15074   -15081 
  -15069   -15075   -15089   -15105   -15126   -15125   -15122   -15117 
  -15100   -15114   -15120   -15108   -15126   -15136   -15133   -15133 
  -15111   -15092   -15094   -15104   -15089   -15054   -15058   -15084 
  -15101   -15116   -15109   -15095   -15093   -15088   -15095   -15101 
  -15098   -15120   -15136   -15126   -15131   -15131   -15115   -15113 
  -15107   -15111   -15124   -15107   -15105   -15116   -15095   -15105 
  -15139   -15139   -15124   -15106   -15111   -15130   -15109   -15087 
  -15092   -15093   -15103   -15128   -15119   -15078   -15071   -15094 
  -15094   -15102   -15135   -15140   -15133   -15159   -15156   -15099 
  -15086   -15107   -15087   -15069   -15064   -15062   -15078   -15065 
  -15061   -15099   -15105   -15122   -15162   -15134   -15087   -15088 
  -15107   -15128   -15134   -15127   -15126   -15120   -15116   -15112 
  -15096   -15084   -15086   -15086   -15079   -15080   -15089   -15087 
  -15081   -15104   -15134   -15144   -15149   -15148   -15130   -15126 
  -15122   -15094   -15104   -15130   -15107   -15098   -15114   -15111 
  -15109   -15102   -15074   -15050   -15042   -15043   -15051   -15069 
  -15106   -15151   -15176   -15156   -15117   -15112   -15117   -15118 
  -15128   -15122   -15115   -15123   -15112   -15086   -15081   -15091 
  -15088   -15087   -15087   -15052   -15044   -15098   -15139   -15154 
  -15151   -15128   -15120   -15131   -15132   -15114   -15099   -15118 
  -15132   -15112   -15103   -15116   -15114   -15109   -15125   -15143 
  -15137   -15114   -15096   -15086   -15087   -15109   -15121   -15102 
  -15096   -15097   -15079   -15081   -15096   -15084   -15075   -15090 
  -15106   -15124   -15136   -15125   -15108   -15119   -15141   -15137 
  -15128   -15147   -15156   -15114   -15072   -15068   -15079   -15090 
  -15105   -15122   -15124   -15108   -15089   -15078   -15071   -15058 
  -15062   -15098   -15131   -15156   -15176   -15142   -15096   -15105 
  -15103   -15079   -15084   -15096   -15129   -15163   -15132   -15106 
  -15124   -15123   -15114   -15115   -15101   -15092   -15103   -15128 
  -15138   -15112   -15089   -15080   -15071   -15091   -15119   -15116 
  -15093   -15063   -15070   -15115   -15125   -15131   -15156   -15112 
  -15044   -15067   -15118   -15114   -15109   -15129   -15124   -15108 
  -15125   -15120   -15077   -15076   -15092   -15085   -15098   -15108 
  -15102   -15112   -15098   -15081   -15100   -15110   -15117   -15126 
  -15109   -15111   -15131   -15129   -15135   -15125   -15079   -15065 
  -15069   -15072   -15112   -15149   -15150   -15149   -15151   -15141 
  -15121   -15121   -15151   -15167   -15130   -15077   -15074   -15088 
  -15082   -15082   -15079   -15082   -15112   -15134   -15135   -15123 
  -15117   -15129   -15130   -15116   -15097   -15081   -15086   -15093 
  -15093   -15092   -15094   -15109   -15122   -15106   -15094   -15093 
  -15092   -15123   -15148   -15103   -15085   -15117   -15091   -15062 
  -15096   -15113   -15103   -15117   -15147   -15146   -15113   -15079 
  -15050   -15056   -15103   -15125   -15136   -15155   -15142   -15113 
  -15086   -15067   -15072   -15075   -15083   -15116   -15149   -15173 
  -15173   -15144   -15116   -15100   -15074   -15048   -15064   -15090 
  -15091   -15124   -15168   -15155   -15124   -15111   -15110   -15094 
  -15072   -15089   -15103   -15085   -15089   -15098   -15096   -15104 
  -15118   -15120   -15113   -15120   -15140   -15148   -15138   -15124 
  -15107   -15074   -15065   -15094   -15110   -15104   -15097   -15100 
  -15112   -15106   -15091   -15092   -15088   -15089   -15117   -15126 
  -15094   -15095   -15133   -15131   -15098   -15088   -15098   -15124 
  -15127   -15114   -15132   -15116   -15077   -15087   -15089   -15081 
  -15116   -15143   -15144   -15132   -15095   -15079   -15097   -15098 
  -15098   -15106   -15086   -15081   -15121   -15139   -15123   -15108 
  -15102   -15112   -15111   -15093   -15103   -15114   -15115   -15134 
  -15136   -15119   -15110   -15087   -15078   -15103   -15106   -15104 
  -15126   -15113   -15074   -15076   -15089   -15083   -15087   -15100 
  -15115   -15130   -15132   -15137   -15142   -15132   -15121   -15111 
  -15099   -15094   -15117   -15147   -15118   -15075   -15090   -15103 
  -15100   -15111   -15090   -15074   -15115   -15141   -15126   -15128 
  -15131   -15107   -15098   -15114   -15119   -15110   -15102   -15112 
  -15141   -15163   -15160   -15131   -15106   -15095   -15072   -15048 
  -15056   -15086   -15088   -15072   -15087   -15099   -15094   -15111 
  -15128   -15117   -15087   -15074   -15109   -15137   -15137   -15144 
  -15135   -15119   -15124   -15123   -15117   -15124   -15138   -15148 
  -15141   -15142   -15181   -15184   -15113   -15071   -15080   -15060 
  -15053   -15100   -15111   -15090   -15112   -15134   -15118   -15111 
  -15095   -15059   -15053   -15070   -15082   -15091   -15103   -15115 
  -15108   -15089   -15071   -15061   -15091   -15154   -15184   -15172 
  -15169   -15178   -15159   -15136   -15124   -15095   -15079   -15065 
  -15039   -15060   -15084   -15090   -15130   -15137   -15101   -15095 
  -15098   -15105   -15114   -15098   -15086   -15099   -15114   -15117 
  -15106   -15091   -15087   -15093   -15097   -15107   -15135   -15164 
  -15149   -15108   -15103   -15113   -15115   -15144   -15159   -15126 
  -15108   -15113   -15111   -15109   -15090   -15074   -15075   -15070 
  -15093   -15117   -15102   -15103   -15130   -15151   -15150   -15126 
  -15100   -15072   -15050   -15067   -15077   -15065   -15078   -15104 
  -15106   -15108   -15126   -15128   -15106   -15102   -15093   -15059 
  -15063   -15092   -15077   -15056   -15078   -15116   -15147   -15166 
  -15185   -15186   -15131   -15095   -15110   -15104   -15108   -15124 
  -15096   -15086   -15126   -15135   -15117   -15108   -15068   -15035 
  -15053   -15081   -15131   -15179   -15154   -15124   -15121   -15090 
  -15079   -15103   -15123   -15156   -15173   -15158   -15156   -15140 
  -15108   -15105   -15089   -15062   -15076   -15070   -14994   -14914 
  -14918   -14995   -15055   -15104   -15187   -15248   -15252   -15233 
  -15217   -15182   -15113   -15056   -15036   -15023   -15025   -15063 
  -15115   -15168   -15213   -15227   -15199   -15156   -15138   -15138 
  -15127   -15122   -15116   -15091   -15079   -15082   -15065   -15037 
  -14998   -14945   -14946   -14993   -15035   -15117   -15206   -15233 
  -15221   -15198   -15183   -15183   -15172   -15154   -15144   -15138 
  -15146   -15137   -15083   -15055   -15095   -15122   -15135   -15188 
  -15206   -15158   -15123   -15079   -15009   -14975   -14989   -15020 
  -15041   -15068   -15106   -15123   -15110   -15075   -15022   -14974 
  -14966   -14993   -15023   -15061   -15102   -15123   -15149   -15184 
  -15192   -15203   -15251   -15300   -15323   -15331   -15346   -15354 
  -15304   -15207   -15109   -15031   -14989   -14982   -14978   -14958 
  -14934   -14936   -14957   -14983   -15024   -15059   -15063   -15042 
  -15028   -15028   -15028   -15056   -15116   -15168   -15225   -15296 
  -15336   -15363   -15365   -15296   -15225   -15189   -15143   -15078 
  -15014   -14976   -14957   -14940   -14957   -14982   -14980   -14997 
  -15025   -15045   -15094   -15148   -15152   -15152   -15170   -15159 
  -15129   -15112   -15109   -15117   -15113   -15099   -15101   -15112 
  -15127   -15140   -15154   -15165   -15148   -15119   -15115   -15100 
  -15063   -15053   -15061   -15062   -15061   -15055   -15047   -15047 
  -15054   -15072   -15073   -15080   -15134   -15195   -15221   -15228 
  -15252   -15284   -15275   -15248   -15223   -15171   -15102   -15036 
  -14978   -14936   -14926   -14964   -15028   -15079   -15112   -15130 
  -15128   -15102   -15079   -15090   -15103   -15098   -15078   -15062 
  -15072   -15071   -15065   -15082   -15087   -15076   -15078   -15083 
  -15084   -15088   -15088   -15088   -15091   -15086   -15094   -15127 
  -15142   -15129   -15136   -15155   -15167   -15197   -15215   -15172 
  -15126   -15117   -15110   -15113   -15134   -15152   -15155   -15132 
  -15098   -15076   -15055   -15050   -15076   -15108   -15136   -15146 
  -15145   -15161   -15164   -15151   -15164   -15158   -15134   -15143 
  -15138   -15109   -15109   -15119   -15106   -15092   -15082   -15051 
  -15019   -15014   -15014   -15016   -15032   -15048   -15057   -15062 
  -15067   -15058   -15059   -15098   -15136   -15161   -15171   -15148 
  -15147   -15150   -15129   -15135   -15130   -15123   -15144   -15131 
  -15104   -15101   -15102   -15100   -15089   -15080   -15075   -15069 
  -15069   -15069   -15075   -15073   -15059   -15078   -15094   -15077 
  -15094   -15119   -15107   -15118   -15143   -15150   -15167   -15173 
  -15152   -15128   -15116   -15114   -15110   -15111   -15122   -15122 
  -15119   -15122   -15105   -15091   -15117   -15136   -15128   -15128 
  -15113   -15096   -15104   -15103   -15086   -15081   -15096   -15098 
  -15080   -15070   -15059   -15069   -15112   -15129   -15126   -15142 
  -15157   -15166   -15156   -15130   -15105   -15083   -15098   -15134 
  -15142   -15149   -15160   -15163   -15171   -15174   -15147   -15100 
  -15082   -15091   -15087   -15078   -15071   -15080   -15093   -15067 
  -15054   -15061   -15051   -15065   -15085   -15086   -15103   -15111 
  -15107   -15111   -15100   -15095   -15110   -15131   -15144   -15161 
  -15186   -15185   -15175   -15176   -15140   -15085   -15065   -15066 
  -15045   -15016   -15017   -15026   -15014   -14996   -14995   -15016 
  -15048   -15074   -15081   -15076   -15076   -15082   -15104   -15131 
  -15131   -15148   -15188   -15192   -15179   -15170   -15161   -15170 
  -15195   -15210   -15198   -15188   -15202   -15190   -15152   -15128 
  -15111   -15092   -15076   -15079   -15081   -15050   -15033   -15044 
  -15030   -15032   -15063   -15064   -15068   -15079   -15054   -15042 
  -15057   -15061   -15086   -15123   -15130   -15132   -15140   -15132 
  -15116   -15107   -15114   -15128   -15136   -15143   -15141   -15135 
  -15134   -15109   -15071   -15062   -15064   -15069   -15074   -15045 
  -15025   -15044   -15056   -15062   -15088   -15122   -15155   -15178 
  -15185   -15182   -15181   -15185   -15175   -15147   -15123   -15112 
  -15112   -15119   -15121   -15113   -15109   -15116   -15117   -15132 
  -15171   -15167   -15141   -15155   -15161   -15165   -15189   -15185 
  -15179   -15187   -15149   -15090   -15062   -15035   -15006   -15013 
  -15016   -15015   -15055   -15089   -15092   -15095   -15097   -15093 
  -15082   -15060   -15047   -15052   -15057   -15062   -15079   -15101 
  -15104   -15105   -15129   -15130   -15105   -15105   -15097   -15080 
  -15086   -15081   -15092   -15140   -15163   -15174   -15186   -15168 
  -15160   -15167   -15164   -15160   -15145   -15139   -15151   -15151 
  -15152   -15145   -15111   -15094   -15098   -15078   -15061   -15060 
  -15036   -15020   -15046   -15065   -15080   -15117   -15128   -15124 
  -15147   -15163   -15164   -15165   -15153   -15138   -15133   -15130 
  -15128   -15131   -15133   -15120   -15106   -15102   -15106   -15095 
  -15070   -15068   -15066   -15047   -15050   -15056   -15051   -15046 
  -15028   -15031   -15068   -15081   -15068   -15074   -15107   -15152 
  -15180   -15195   -15197   -15167   -15146   -15160   -15145   -15108 
  -15099   -15084   -15070   -15096   -15113   -15119   -15150   -15163 
  -15161   -15166   -15138   -15104   -15110   -15108   -15088   -15108 
  -15134   -15112   -15099   -15099   -15062   -15031   -15021   -15004 
  -15008   -15036   -15061   -15067   -15058   -15066   -15083   -15095 
  -15116   -15128   -15127   -15128   -15139   -15172   -15206   -15222 
  -15228   -15242   -15258   -15250   -15217   -15177   -15143   -15108 
  -15057   -15035   -15042   -15033   -15040   -15075   -15094   -15105 
  -15115   -15107   -15085   -15065   -15056   -15055   -15059   -15068 
  -15074   -15069   -15070   -15084   -15093   -15105   -15121   -15130 
  -15153   -15182   -15195   -15195   -15183   -15166   -15144   -15114 
  -15101   -15101   -15095   -15086   -15071   -15067   -15061   -15044 
  -15053   -15067   -15070   -15096   -15119   -15117   -15094   -15069 
  -15073   -15085   -15089   -15095   -15099   -15114   -15144   -15163 
  -15161   -15157   -15165   -15178   -15181   -15178   -15170   -15146 
  -15124   -15122   -15112   -15100   -15117   -15122   -15087   -15052 
  -15031   -15019   -15019   -15021   -15031   -15038   -15051   -15095 
  -15130   -15147   -15178   -15181   -15164   -15157   -15117   -15092 
  -15116   -15104   -15083   -15098   -15079   -15057   -15067   -15057 
  -15047   -15059   -15074   -15095   -15114   -15131   -15135   -15142 
  -15184   -15206   -15185   -15167   -15162   -15143   -15116   -15105 
  -15087   -15064   -15082   -15101   -15089   -15099   -15123   -15122 
  -15126   -15137   -15125   -15128   -15155   -15155   -15138   -15135 
