Origin Time       2024/06/23 22:54:00
Lat.              35.645
Long.             140.060
Depth. (km)       72
Mag.              4.1
Station Code      NGNH24
Station Lat.      35.6152
Station Long.     137.8797
Station Height(m) 715
Record Time       2024/06/23 22:55:18
Sampling Freq(Hz) 100Hz
Duration Time(s)  120
Dir.              5
Scale Factor      3920(gal)/6170801
Max. Acc. (gal)   0.334
Last Correction   2024/06/23 22:55:03
Memo.             
[...]
    9491     9501     9509     9460     9431     9482     9480     9425 
    9442     9494     9510     9514     9545     9554     9487     9458 
    9528     9557     9506     9482     9500     9509     9486     9460 
    9476     9489     9438     9418     9460     9443     9415     9496 
    9581     9564     9545     9584     9583     9538     9538     9528 
    9468     9447     9467     9452     9422     9451     9511     9496 
    9430     9419     9460     9494     9487     9462     9486     9521 
    9509     9512     9526     9485     9472     9543     9565     9496 
    9473     9524     9535     9487     9464     9489     9500     9491 
    9510     9523     9499     9490     9525     9544     9490     9429 
    9436     9445     9427     9454     9499     9500     9497     9510 
    9497     9476     9485     9518     9538     9504     9480     9525 
    9553     9521     9494     9489     9469     9461     9509     9536 
    9476     9431     9467     9490     9468     9468     9502     9506 
    9493     9524     9546     9507     9477     9490     9493     9455 
    9433     9487     9542     9501     9449     9488     9524     9495 
    9495     9512     9458     9419     9472     9508     9466     9455 
    9501     9502     9463     9461     9503     9557     9571     9544 
    9533     9504     9457     9496     9552     9492     9449     9515 
    9542     9517     9545     9565     9515     9479     9495     9481 
    9436     9432     9454     9468     9463     9434     9459     9513 
    9485     9465     9511     9521     9514     9539     9539     9479 
    9424     9476     9540     9478     9441     9512     9548     9520 
    9519     9552     9537     9500     9509     9506     9460     9445 
    9489     9503     9457     9450     9498     9520     9483     9450 
    9488     9513     9486     9492     9486     9436     9448     9512 
    9524     9479     9458     9480     9475     9460     9481     9498 
    9519     9553     9566     9553     9516     9500     9536     9537 
    9468     9444     9491     9503     9474     9477     9483     9452 
    9450     9517     9533     9460     9454     9515     9510     9481 
    9493     9504     9484     9450     9466     9517     9492     9453 
    9496     9498     9430     9420     9475     9509     9491     9474 
    9510     9543     9540     9538     9530     9513     9522     9529 
    9503     9492     9500     9513     9516     9467     9430     9452 
    9477     9493     9504     9501     9490     9485     9525     9548 
    9477     9440     9527     9584     9535     9507     9511     9477 
    9466     9491     9478     9448     9444     9466     9491     9473 
    9462     9519     9555     9497     9442     9464     9475     9464 
    9493     9492     9457     9481     9550     9579     9530     9489 
    9514     9503     9448     9450     9498     9519     9521     9546 
    9545     9471     9417     9438     9444     9421     9447     9499 
    9522     9527     9524     9509     9485     9459     9466     9480 
    9468     9503     9569     9561     9488     9452     9516     9553 
    9489     9495     9544     9489     9458     9521     9531     9474 
    9469     9536     9575     9544     9505     9504     9493     9437 
    9428     9476     9462     9442     9494     9502     9435     9420 
    9482     9508     9467     9455     9479     9493     9510     9539 
    9551     9530     9517     9537     9528     9455     9403     9449 
    9495     9452     9441     9503     9512     9466     9465     9497 
    9498     9503     9548     9548     9490     9489     9541     9536 
    9460     9429     9478     9492     9471     9492     9499     9461 
    9445     9483     9515     9489     9487     9546     9562     9529 
    9523     9524     9497     9475     9487     9488     9458     9476 
    9539     9541     9474     9442     9483     9506     9484     9491 
    9516     9495     9473     9517     9535     9488     9480     9525 
    9541     9487     9434     9463     9480     9411     9366     9387 
    9410     9450     9517     9539     9500     9490     9540     9556 
    9515     9517     9553     9519     9476     9513     9537     9516 
    9526     9546     9505     9423     9410     9493     9530     9467 
    9436     9504     9531     9461     9442     9491     9487     9472 
    9507     9533     9507     9490     9546     9578     9514     9479 
    9501     9477     9446     9475     9493     9474     9484     9506 
    9472     9416     9416     9469     9494     9458     9446     9495 
    9515     9497     9510     9515     9462     9434     9507     9570 
    9524     9511     9590     9610     9538     9489     9505     9524 
    9506     9479     9452     9427     9427     9476     9518     9453 
    9395     9478     9538     9500     9500     9553     9564     9532 
    9536     9547     9492     9447     9469     9480     9430     9415 
    9491     9521     9475     9492     9557     9566     9525     9501 
    9479     9433     9436     9498     9502     9442     9438     9494 
    9500     9467     9493     9527     9505     9491     9500     9499 
    9494     9486     9502     9514     9465     9432     9487     9531 
    9489     9462     9482     9470     9466     9507     9514     9480 
    9494     9558     9571     9528     9529     9591     9601     9516 
    9482     9502     9454     9420     9471     9507     9478     9461 
    9523     9547     9458     9406     9454     9501     9480     9459 
    9515     9523     9474     9527     9560     9469     9428     9491 
    9524     9474     9455     9520     9530     9474     9487     9528 
    9504     9481     9510     9522     9457     9422     9502     9555 
    9501     9473     9529     9544     9477     9454     9472     9440 
    9434     9488     9489     9432     9447     9521     9532     9515 
    9523     9519     9519     9523     9516     9521     9516     9505 
    9536     9538     9463     9441     9498     9504     9465     9462 
    9491     9490     9448     9451     9500     9482     9448     9487 
    9516     9483     9458     9496     9535     9498     9484     9534 
    9532     9493     9505     9520     9474     9441     9490     9509 
    9454     9441     9497     9534     9497     9468     9489     9483 
    9460     9461     9456     9452     9474     9530     9580     9560 
    9533     9574     9575     9496     9475     9507     9476     9440 
    9470     9487     9462     9470     9515     9524     9459     9406 
    9450     9489     9440     9418     9464     9474     9466     9522 
    9556     9497     9468     9512     9508     9453     9467     9537 
    9555     9544     9552     9538     9521     9516     9502     9491 
    9449     9428     9495     9528     9476     9458     9506     9512 
    9454     9430     9447     9446     9440     9457     9481     9476 
    9483     9544     9559     9498     9473     9506     9534     9522 
    9491     9488     9496     9491     9504     9525     9493     9448 
    9468     9489     9453     9449     9508     9524     9479     9480 
    9509     9495     9499     9539     9528     9472     9465     9519 
    9542     9492     9463     9503     9527     9506     9509     9517 
    9481     9475     9527     9539     9495     9465     9477     9504 
    9490     9462     9486     9505     9461     9430     9459     9482 
    9469     9496     9546     9517     9475     9523     9543     9460 
    9416     9457     9482     9464     9467     9500     9486     9455 
    9505     9530     9453     9424     9494     9540     9495     9456 
    9498     9524     9497     9506     9527     9503     9481     9495 
    9521     9521     9489     9490     9526     9517     9500     9528 
    9524     9492     9501     9501     9459     9455     9521     9555 
    9498     9460     9498     9496     9426     9395     9430     9458 
    9469     9516     9546     9510     9505     9534     9530     9510 
    9461     9438     9494     9488     9443     9497     9530     9490 
    9501     9526     9486     9474     9537     9557     9493     9452 
    9492     9519     9463     9424     9463     9492     9482     9487 
    9497     9463     9436     9477     9497     9453     9448     9500 
    9543     9542     9520     9527     9529     9493     9508     9551 
    9507     9475     9545     9582     9520     9481     9515     9529 
    9499     9485     9486     9449     9413     9458     9492     9437 
    9419     9483     9536     9510     9454     9487     9561     9556 
    9533     9539     9511     9475     9500     9510     9455     9443 
    9499     9532     9511     9470     9473     9492     9463     9461 
    9505     9502     9486     9512     9512     9452     9405     9452 
    9505     9455     9414     9473     9532     9515     9507     9544 
    9504     9457     9506     9514     9464     9459     9479     9504 
    9500     9472     9514     9558     9512     9494     9530     9500 
    9460     9511     9545     9487     9439     9478     9533     9509 
    9469     9492     9492     9455     9477     9518     9494     9467 
    9528     9587     9549     9520     9545     9539     9490     9445 
    9434     9446     9450     9466     9491     9469     9441     9465 
    9496     9473     9437     9491     9567     9524     9487     9532 
    9515     9483     9530     9541     9483     9457     9481     9495 
    9457     9431     9483     9514     9467     9454     9506     9529 
    9523     9555     9572     9510     9459     9495     9537     9517 
    9483     9491     9501     9473     9462     9487     9473     9448 
    9471     9477     9438     9431     9484     9541     9533     9481 
    9481     9521     9517     9500     9506     9485     9435     9421 
    9452     9456     9429     9464     9522     9496     9462     9505 
    9540     9528     9519     9504     9473     9468     9502     9543 
    9531     9489     9510     9538     9504     9489     9518     9524 
    9497     9484     9500     9501     9501     9519     9520     9497 
    9476     9501     9535     9497     9463     9467     9428     9420 
    9474     9485     9462     9453     9476     9521     9522     9490 
    9511     9548     9526     9488     9504     9538     9517     9480 
    9496     9479     9421     9464     9535     9498     9451     9488 
    9537     9515     9487     9519     9519     9474     9487     9523 
    9494     9451     9464     9496     9484     9450     9462     9497 
    9477     9436     9451     9478     9473     9493     9540     9532 
    9487     9510     9569     9547     9503     9524     9548     9525 
    9496     9505     9510     9480     9472     9480     9460     9447 
    9483     9529     9506     9481     9521     9533     9506     9480 
    9465     9446     9421     9462     9508     9465     9448     9511 
    9564     9530     9457     9472     9500     9470     9474     9481 
    9471     9482     9502     9532     9520     9487     9522     9535 
    9483     9468     9498     9507     9477     9451     9456     9463 
    9447     9461     9518     9512     9475     9533     9594     9554 
    9506     9513     9523     9498     9488     9495     9456     9416 
    9451     9501     9488     9455     9492     9553     9544     9514 
    9513     9511     9474     9447     9481     9477     9434     9469 
    9529     9519     9469     9470     9519     9506     9466     9469 
    9465     9458     9483     9502     9459     9419     9481     9545 
    9513     9486     9538     9581     9544     9510     9528     9519 
    9491     9487     9479     9448     9411     9423     9479     9488 
    9455     9492     9565     9542     9486     9500     9486     9433 
    9466     9530     9498     9444     9486     9535     9503     9481 
    9510     9523     9505     9490     9509     9525     9508     9509 
    9522     9485     9443     9465     9500     9468     9428     9457 
    9495     9491     9488     9498     9493     9474     9492     9538 
    9511     9453     9490     9549     9529     9504     9532     9548 
    9505     9468     9478     9479     9470     9483     9511     9499 
    9433     9430     9496     9493     9450     9454     9466     9452 
    9471     9520     9503     9465     9517     9583     9560     9518 
    9545     9559     9505     9456     9440     9436     9444     9468 
    9500     9491     9464     9514     9566     9502     9430     9433 
    9428     9397     9391     9425     9479     9505     9528     9570 
    9541     9480     9495     9523     9481     9418     9431     9506 
    9518     9487     9507     9511     9484     9508     9520     9468 
    9453     9498     9524     9517     9514     9536     9559     9558 
    9550     9547     9533     9505     9515     9560     9532     9464 
    9474     9495     9456     9440     9482     9516     9514     9503 
    9509     9515     9502     9505     9515     9466     9379     9357 
    9391     9376     9356     9411     9447     9441     9476     9521 
    9525     9506     9507     9532     9507     9484     9561     9626 
    9631     9671     9701     9653     9576     9486     9392     9328 
    9303     9392     9568     9639     9629     9652     9617     9475 
    9332     9249     9206     9219     9332     9485     9571     9600 
    9628     9628     9547     9453     9437     9432     9360     9316 
    9363     9420     9468     9591     9746     9834     9906     9981 
    9922     9707     9465     9268     9099     8967     8969     9145 
    9351     9501     9645     9744     9683     9536     9460     9421 
    9326     9272     9341     9428     9448     9476     9548     9575 
    9533     9520     9566     9589     9576     9583     9572     9499 
    9426     9432     9515     9593     9645     9697     9683     9593 
    9522     9482     9428     9400     9464     9592     9666     9656 
    9627     9595     9504     9359     9250     9174     9110     9158 
    9303     9412     9486     9560     9591     9534     9444     9423 
    9424     9367     9317     9320     9333     9377     9497     9622 
    9646     9601     9602     9664     9702     9733     9816     9860 
    9790     9699     9648     9618     9609     9602     9549     9431 
    9321     9319     9366     9354     9318     9279     9195     9117 
    9137     9227     9319     9406     9468     9503     9539     9564 
    9613     9682     9669     9629     9681     9754     9789     9790 
    9685     9469     9255     9165     9217     9273     9328     9496 
    9652     9702     9772     9818     9740     9590     9417     9288 
    9244     9239     9310     9473     9576     9548     9481     9399 
    9263     9175     9222     9291     9328     9444     9591     9651 
    9680     9726     9700     9557     9408     9360     9373     9393 
    9474     9616     9714     9764     9823     9835     9724     9563 
    9498     9494     9432     9395     9472     9568     9589     9530 
    9448     9370     9288     9253     9279     9276     9238     9263 
    9349     9418     9490     9597     9676     9685     9637     9576 
    9550     9521     9499     9533     9532     9477     9492     9537 
    9517     9482     9471     9430     9342     9311     9371     9417 
    9459     9563     9658     9635     9560     9565     9585     9540 
    9496     9491     9498     9475     9461     9487     9475     9455 
    9503     9546     9530     9507     9551     9619     9617     9579 
    9554     9528     9508     9540     9614     9618     9580     9592 
    9572     9493     9440     9433     9435     9399     9363     9373 
    9372     9322     9285     9304     9316     9306     9375     9503 
    9567     9558     9565     9610     9605     9562     9566     9554 
    9495     9475     9494     9470     9412     9432     9496     9475 
    9447     9503     9561     9554     9504     9460     9448     9452 
    9500     9579     9600     9566     9552     9548     9472     9372 
    9376     9429     9433     9456     9509     9496     9425     9410 
    9417     9349     9320     9413     9517     9561     9566     9604 
    9651     9611     9577     9599     9569     9502     9496     9525 
    9497     9451     9482     9541     9524     9466     9483     9544 
    9534     9511     9534     9532     9494     9480     9480     9462 
    9471     9545     9627     9621     9553     9538     9533     9446 
    9375     9365     9341     9333     9389     9477     9517     9504 
    9533     9574     9538     9486     9483     9495     9473     9436 
    9439     9445     9436     9485     9560     9554     9484     9477 
    9529     9518     9488     9515     9543     9562     9605     9647 
    9646     9593     9559     9551     9481     9392     9391     9433 
    9424     9390     9403     9435     9429     9428     9463     9475 
    9449     9459     9487     9450     9400     9424     9480     9490 
    9451     9445     9484     9467     9448     9495     9478     9406 
    9440     9537     9540     9507     9593     9698     9681     9640 
    9635     9601     9548     9520     9497     9455     9439     9455 
    9454     9424     9375     9360     9397     9393     9360     9380 
    9405     9406     9451     9533     9552     9526     9579     9652 
    9630     9620     9696     9731     9698     9682     9671     9614 
    9527     9469     9456     9417     9367     9391     9409     9346 
    9311     9354     9384     9352     9324     9361     9419     9451 
    9496     9567     9595     9572     9579     9610     9565     9479 
    9469     9502     9485     9451     9476     9521     9517     9536 
    9592     9557     9465     9428     9428     9411     9362     9379 
    9482     9527     9541     9589     9565     9475     9453     9464 
    9408     9378     9470     9563     9576     9582     9621     9648 
    9629     9597     9576     9519     9450     9448     9488     9463 
    9401     9437     9494     9434     9367     9389     9436     9461 
    9486     9514     9490     9437     9460     9496     9441     9384 
    9404     9446     9465     9465     9494     9560     9573     9542 
    9545     9542     9512     9527     9566     9516     9412     9395 
    9409     9345     9292     9317     9387     9461     9527     9599 
    9628     9618     9666     9705     9644     9567     9559     9585 
    9539     9472     9484     9505     9492     9499     9518     9485 
    9420     9424     9457     9444     9462     9543     9604     9615 
    9608     9596     9557     9473     9393     9367     9364     9356 
    9392     9463     9440     9369     9423     9497     9449     9417 
    9458     9457     9443     9480     9500     9480     9469     9502 
    9564     9560     9505     9516     9570     9576     9554     9559 
    9556     9516     9522     9556     9513     9466     9491     9521 
    9497     9463     9481     9474     9411     9379     9377     9403 
    9433     9432     9470     9485     9436     9473     9543     9510 
    9489     9573     9653     9629     9555     9515     9491     9456 
    9435     9453     9472     9461     9499     9569     9560     9513 
    9508     9516     9478     9415     9411     9423     9401     9433 
    9515     9543     9521     9537     9562     9515     9471     9504 
