Origin Time       2024/06/23 22:54:00
Lat.              35.645
Long.             140.060
Depth. (km)       72
Mag.              4.1
Station Code      NGNH24
Station Lat.      35.6152
Station Long.     137.8797
Station Height(m) 608
Record Time       2024/06/23 22:55:18
Sampling Freq(Hz) 100Hz
Duration Time(s)  120
Dir.              1
Scale Factor      2940(gal)/6170270
Max. Acc. (gal)   0.183
Last Correction   2024/06/23 22:55:03
Memo.             
[...]
    5580     5579     5570     5569     5577     5588     5594     5591 
    5583     5582     5590     5601     5606     5594     5579     5575 
    5582     5597     5609     5604     5587     5575     5569     5560 
    5549     5545     5552     5572     5591     5597     5603     5611 
    5616     5621     5618     5605     5601     5601     5597     5593 
    5581     5573     5578     5573     5558     5556     5570     5585 
    5596     5599     5599     5600     5597     5588     5580     5578 
    5585     5594     5597     5592     5591     5600     5603     5593 
    5588     5585     5575     5569     5570     5574     5579     5580 
    5580     5582     5586     5591     5596     5595     5595     5596 
    5592     5588     5584     5584     5589     5590     5585     5591 
    5601     5599     5582     5561     5564     5579     5582     5586 
    5594     5594     5596     5604     5608     5608     5607     5607 
    5602     5594     5589     5589     5591     5595     5595     5589 
    5581     5575     5576     5574     5574     5584     5583     5573 
    5574     5576     5582     5597     5600     5601     5608     5611 
    5606     5591     5572     5568     5572     5569     5569     5579 
    5585     5577     5570     5575     5576     5578     5584     5583 
    5577     5579     5577     5573     5583     5605     5614     5607 
    5595     5581     5575     5577     5583     5587     5584     5585 
    5597     5613     5622     5619     5609     5598     5582     5565 
    5561     5565     5572     5591     5612     5619     5614     5599 
    5588     5584     5577     5576     5583     5589     5593     5594 
    5591     5592     5591     5585     5581     5578     5571     5568 
    5575     5580     5581     5581     5582     5585     5589     5590 
    5593     5604     5612     5601     5581     5579     5582     5573 
    5571     5582     5586     5589     5599     5603     5604     5610 
    5609     5595     5579     5568     5570     5577     5579     5583 
    5586     5581     5577     5574     5570     5566     5565     5573 
    5590     5605     5607     5600     5598     5598     5603     5615 
    5619     5610     5595     5580     5572     5566     5562     5572 
    5581     5573     5563     5564     5567     5574     5584     5593 
    5606     5621     5625     5613     5600     5595     5589     5576 
    5562     5561     5574     5589     5597     5594     5592     5597 
    5593     5588     5589     5589     5595     5603     5597     5586 
    5582     5577     5569     5570     5581     5590     5597     5604 
    5604     5596     5585     5572     5567     5578     5592     5602 
    5616     5623     5614     5591     5577     5577     5582     5589 
    5591     5581     5576     5581     5589     5596     5596     5588 
    5576     5564     5557     5557     5560     5574     5596     5611 
    5610     5606     5604     5598     5590     5590     5601     5606 
    5607     5611     5601     5585     5580     5580     5569     5555 
    5551     5557     5568     5586     5605     5605     5593     5585 
    5582     5584     5595     5612     5623     5628     5632     5619 
    5596     5588     5584     5566     5558     5571     5588     5599 
    5604     5602     5600     5597     5591     5580     5564     5554 
    5559     5578     5593     5598     5600     5591     5569     5553 
    5555     5571     5594     5612     5614     5612     5603     5579 
    5562     5557     5556     5563     5575     5587     5592     5595 
    5603     5599     5587     5583     5586     5593     5590     5579 
    5587     5603     5599     5594     5592     5580     5575     5579 
    5586     5606     5634     5643     5628     5613     5598     5573 
    5560     5568     5572     5570     5578     5582     5578     5587 
    5610     5626     5621     5602     5579     5568     5575     5591 
    5608     5610     5595     5587     5590     5585     5583     5585 
    5582     5580     5577     5568     5561     5566     5575     5580 
    5590     5593     5581     5575     5576     5576     5575     5568 
    5568     5584     5598     5602     5602     5593     5573     5564 
    5568     5570     5571     5579     5584     5582     5583     5586 
    5593     5602     5596     5577     5572     5586     5602     5605 
    5601     5604     5605     5595     5592     5602     5606     5599 
    5599     5610     5609     5597     5591     5585     5560     5535 
    5537     5553     5562     5569     5582     5588     5590     5594 
    5590     5587     5594     5600     5612     5615     5596     5587 
    5586     5577     5579     5591     5593     5593     5596     5594 
    5592     5590     5580     5571     5567     5567     5572     5582 
    5590     5601     5609     5607     5606     5611     5610     5607 
    5597     5572     5556     5564     5573     5580     5594     5603 
    5597     5588     5580     5574     5579     5590     5594     5594 
    5593     5588     5583     5586     5590     5580     5568     5568 
    5563     5555     5559     5571     5585     5599     5605     5608 
    5611     5614     5614     5607     5591     5577     5570     5571 
    5580     5588     5586     5575     5571     5577     5583     5599 
    5618     5611     5598     5591     5578     5573     5583     5594 
    5603     5609     5607     5600     5590     5586     5584     5577 
    5583     5597     5599     5596     5599     5594     5582     5584 
    5598     5600     5601     5612     5618     5611     5598     5592 
    5594     5590     5584     5573     5560     5564     5573     5577 
    5586     5591     5583     5578     5581     5585     5595     5606 
    5605     5589     5578     5578     5579     5579     5586     5599 
    5607     5611     5609     5598     5586     5575     5565     5564 
    5567     5573     5585     5599     5600     5592     5586     5588 
    5586     5580     5590     5603     5599     5596     5599     5594 
    5590     5592     5585     5575     5574     5574     5574     5577 
    5575     5579     5592     5598     5598     5597     5598     5608 
    5612     5599     5587     5585     5580     5572     5571     5580 
    5596     5607     5600     5591     5590     5584     5576     5574 
    5569     5568     5577     5589     5599     5600     5599     5605 
    5606     5596     5583     5567     5558     5568     5587     5590 
    5581     5576     5573     5574     5581     5589     5600     5619 
    5625     5613     5603     5598     5584     5566     5565     5568 
    5570     5581     5595     5605     5612     5604     5591     5585 
    5579     5578     5583     5580     5577     5585     5586     5587 
    5597     5600     5592     5587     5589     5596     5597     5595 
    5597     5597     5591     5580     5570     5570     5581     5589 
    5584     5577     5576     5579     5584     5593     5605     5612 
    5610     5604     5599     5593     5585     5578     5580     5585 
    5585     5588     5602     5612     5610     5603     5596     5580 
    5560     5552     5557     5567     5578     5589     5595     5598 
    5602     5604     5611     5621     5616     5604     5595     5586 
    5584     5587     5586     5584     5586     5583     5582     5582 
    5571     5563     5567     5573     5578     5582     5584     5583 
    5583     5586     5587     5586     5585     5585     5592     5597 
    5598     5604     5602     5593     5598     5605     5601     5594 
    5588     5588     5598     5605     5602     5598     5591     5584 
    5584     5582     5575     5571     5567     5566     5577     5591 
    5602     5609     5603     5595     5594     5587     5579     5580 
    5585     5590     5594     5594     5593     5594     5592     5579 
    5571     5571     5566     5561     5566     5576     5581     5587 
    5594     5595     5594     5597     5597     5593     5591     5593 
    5594     5596     5599     5592     5581     5581     5580     5572 
    5570     5575     5579     5585     5592     5591     5586     5586 
    5595     5604     5606     5603     5593     5584     5577     5576 
    5584     5596     5602     5602     5597     5597     5599     5589 
    5577     5576     5577     5571     5567     5573     5576     5574 
    5577     5583     5585     5590     5596     5600     5606     5608 
    5603     5599     5594     5588     5590     5596     5597     5598 
    5605     5605     5598     5595     5583     5569     5570     5573 
    5573     5576     5580     5586     5596     5603     5604     5601 
    5593     5586     5585     5583     5576     5577     5581     5580 
    5580     5583     5582     5579     5581     5587     5592     5598 
    5599     5589     5582     5582     5584     5588     5587     5582 
    5586     5597     5605     5607     5602     5594     5584     5577 
    5572     5573     5582     5589     5584     5582     5590     5600 
    5602     5597     5593     5591     5594     5597     5589     5579 
    5570     5565     5571     5582     5586     5587     5587     5587 
    5588     5592     5599     5600     5600     5603     5594     5575 
    5561     5559     5566     5572     5579     5594     5607     5608 
    5593     5580     5580     5588     5596     5598     5597     5596 
    5592     5586     5582     5593     5606     5604     5600     5596 
    5586     5587     5595     5592     5579     5574     5576     5576 
    5571     5572     5585     5594     5594     5602     5617     5617 
    5607     5604     5602     5593     5589     5595     5599     5596 
    5598     5602     5597     5590     5586     5585     5587     5584 
    5569     5562     5576     5586     5585     5590     5591     5582 
    5582     5584     5581     5581     5587     5586     5577     5578 
    5589     5594     5594     5596     5597     5592     5584     5583 
    5588     5591     5590     5586     5579     5574     5571     5575 
    5591     5604     5608     5608     5600     5582     5569     5565 
    5566     5569     5574     5578     5575     5568     5569     5581 
    5596     5605     5613     5611     5604     5601     5596     5588 
    5588     5592     5594     5591     5585     5583     5585     5585 
    5581     5571     5566     5568     5575     5583     5587     5593 
    5604     5608     5598     5589     5592     5596     5595     5596 
    5600     5611     5621     5620     5606     5587     5570     5560 
    5558     5565     5576     5589     5601     5605     5604     5596 
    5583     5574     5574     5584     5590     5591     5598     5603 
    5603     5604     5600     5595     5594     5591     5592     5599 
    5603     5599     5589     5578     5571     5564     5558     5560 
    5562     5569     5586     5601     5607     5606     5599     5596 
    5594     5579     5560     5563     5581     5586     5592     5607 
    5610     5610     5610     5604     5593     5575     5563     5567 
    5579     5586     5592     5597     5589     5581     5589     5593 
    5585     5582     5584     5584     5586     5588     5586     5584 
    5590     5599     5601     5594     5589     5589     5590     5597 
    5607     5608     5603     5603     5600     5591     5583     5577 
    5570     5565     5567     5574     5585     5596     5596     5593 
    5595     5594     5586     5578     5582     5593     5594     5592 
    5593     5589     5585     5590     5588     5581     5588     5601 
    5609     5612     5602     5583     5573     5571     5565     5561 
    5571     5591     5610     5618     5611     5598     5592     5594 
    5593     5585     5585     5585     5573     5568     5580     5595 
    5609     5612     5601     5593     5589     5583     5580     5582 
    5590     5603     5612     5614     5616     5617     5613     5604 
    5595     5588     5584     5576     5558     5550     5566     5580 
    5580     5588     5591     5579     5577     5587     5597     5602 
    5594     5575     5558     5552     5564     5575     5582     5595 
    5603     5603     5604     5599     5588     5578     5574     5581 
    5587     5586     5591     5600     5603     5603     5600     5598 
    5607     5614     5604     5591     5586     5588     5586     5579 
    5573     5575     5580     5584     5583     5585     5589     5589 
    5588     5588     5593     5599     5597     5596     5600     5601 
    5602     5596     5589     5590     5593     5589     5586     5580 
    5570     5568     5572     5575     5580     5591     5595     5595 
    5611     5628     5629     5625     5611     5594     5594     5597 
    5587     5575     5579     5595     5603     5596     5589     5579 
    5558     5540     5538     5557     5577     5583     5587     5589 
    5583     5584     5599     5624     5647     5658     5653     5637 
    5615     5594     5575     5554     5541     5543     5553     5557 
    5564     5591     5616     5611     5576     5530     5494     5478 
    5487     5526     5572     5611     5647     5661     5644     5605 
    5557     5518     5508     5540     5603     5675     5729     5741 
    5706     5639     5570     5516     5481     5474     5495     5535 
    5580     5603     5595     5561     5512     5487     5510     5565 
    5629     5682     5700     5678     5646     5624     5619     5654 
    5731     5804     5830     5792     5688     5531     5370     5251 
    5204     5240     5339     5468     5612     5721     5750     5702 
    5599     5474     5387     5389     5487     5634     5764     5841 
    5838     5764     5668     5585     5539     5541     5586     5651 
    5689     5669     5607     5533     5479     5483     5541     5624 
    5719     5801     5838     5815     5723     5584     5448     5360 
    5358     5450     5574     5667     5704     5667     5566     5443 
    5340     5309     5381     5531     5703     5827     5850     5776 
    5649     5538     5489     5503     5565     5664     5757     5802 
    5802     5754     5636     5482     5350     5284     5312     5412 
    5539     5647     5691     5663     5587     5482     5386     5346 
    5381     5500     5664     5792     5835     5798     5711     5615 
    5536     5490     5490     5546     5646     5752     5819     5838 
    5807     5730     5631     5536     5464     5422     5401     5413 
    5456     5503     5538     5548     5533     5524     5549     5616 
    5701     5755     5759     5724     5660     5587     5534     5520 
    5529     5548     5580     5617     5665     5720     5737     5687 
    5579     5452     5379     5394     5469     5555     5615     5624 
    5597     5568     5558     5572     5606     5632     5638     5642 
    5660     5681     5680     5642     5586     5522     5465     5449 
    5494     5568     5641     5705     5752     5777     5782     5757 
    5691     5613     5554     5514     5495     5510     5539     5561 
    5580     5586     5574     5557     5542     5522     5494     5461 
    5435     5430     5464     5525     5591     5665     5727     5754 
    5757     5735     5682     5614     5556     5508     5467     5442 
    5441     5475     5541     5611     5662     5690     5698     5678 
    5636     5578     5508     5455     5438     5453     5502     5565 
    5611     5644     5661     5650     5624     5617     5631     5633 
    5611     5593     5583     5576     5583     5595     5607     5631 
    5654     5656     5639     5612     5575     5539     5517     5502 
    5477     5450     5442     5452     5485     5541     5601     5645 
    5673     5694     5695     5678     5665     5648     5626     5619 
    5611     5599     5596     5593     5587     5573     5551     5526 
    5500     5489     5506     5533     5550     5556     5560     5560 
    5565     5593     5644     5687     5714     5735     5738     5716 
    5688     5668     5658     5654     5643     5614     5572     5522 
    5481     5461     5465     5481     5496     5509     5520     5530 
    5536     5541     5550     5559     5576     5605     5633     5650 
    5657     5653     5640     5627     5614     5601     5593     5586 
    5584     5593     5609     5627     5637     5641     5638     5633 
    5638     5641     5628     5605     5578     5548     5522     5505 
    5502     5517     5536     5553     5582     5615     5640     5658 
    5663     5648     5622     5596     5578     5574     5584     5599 
    5607     5602     5595     5594     5591     5575     5561     5555 
    5542     5526     5519     5520     5529     5548     5574     5598 
    5621     5651     5669     5666     5649     5630     5611     5589 
    5569     5554     5542     5545     5560     5571     5571     5555 
    5533     5524     5536     5556     5568     5575     5578     5578 
    5588     5606     5618     5622     5619     5612     5607     5611 
    5620     5622     5619     5620     5618     5615     5612     5601 
    5590     5589     5583     5568     5555     5546     5536     5532 
    5543     5561     5582     5600     5596     5581     5586     5592 
    5589     5589     5576     5550     5542     5555     5575     5601 
    5638     5672     5690     5691     5681     5664     5646     5633 
    5620     5599     5586     5586     5595     5606     5616     5614 
    5599     5578     5547     5515     5499     5493     5492     5502 
    5522     5542     5565     5591     5601     5594     5583     5572 
    5561     5561     5575     5593     5618     5646     5661     5666 
    5669     5656     5628     5599     5568     5543     5525     5507 
    5505     5527     5553     5578     5596     5599     5594     5577 
    5549     5530     5526     5533     5555     5590     5632     5666 
    5686     5700     5697     5671     5651     5637     5610     5588 
    5587     5593     5605     5621     5620     5603     5574     5542 
    5518     5503     5501     5513     5528     5544     5562     5584 
    5612     5640     5663     5673     5668     5649     5613     5567 
    5529     5505     5499     5520     5562     5600     5631     5649 
    5640     5609     5575     5549     5535     5537     5557     5581 
    5606     5627     5630     5628     5626     5619     5619     5622 
    5610     5596     5583     5563     5550     5548     5551     5560 
    5566     5565     5566     5582     5596     5598     5600     5608 
    5619     5631     5636     5633     5625     5605     5587     5579 
    5571     5570     5576     5579     5587     5596     5593     5586 
    5578     5568     5563     5569     5571     5566     5576     5593 
    5602     5614     5624     5616     5610     5608     5597     5585 
    5583     5582     5577     5571     5564     5561     5565     5570 
    5578     5582     5582     5585     5585     5590     5606     5624 
    5644     5658     5658     5647     5625     5599     5576     5559 
    5557     5568     5583     5594     5592     5575     5553     5538 
    5532     5524     5511     5509     5516     5530     5557     5586 
    5612     5634     5648     5656     5655     5636     5603     5565 
    5535     5524     5533     5556     5578     5590     5595     5603 
    5617     5623     5613     5597     5582     5564     5549     5535 
