Origin Time       2024/06/23 22:54:00
Lat.              35.645
Long.             140.060
Depth. (km)       72
Mag.              4.1
Station Code      NGNH24
Station Lat.      35.6152
Station Long.     137.8797
Station Height(m) 608
Record Time       2024/06/23 22:55:18
Sampling Freq(Hz) 100Hz
Duration Time(s)  120
Dir.              3
Scale Factor      2940(gal)/6170270
Max. Acc. (gal)   0.071
Last Correction   2024/06/23 22:55:03
Memo.             
[...]
  -30397   -30411   -30420   -30415   -30398   -30376   -30368   -30383 
  -30401   -30407   -30415   -30428   -30434   -30428   -30405   -30380 
  -30370   -30370   -30374   -30391   -30407   -30409   -30415   -30425 
  -30412   -30388   -30380   -30392   -30417   -30448   -30459   -30431 
  -30387   -30357   -30349   -30365   -30389   -30403   -30403   -30394 
  -30378   -30365   -30371   -30387   -30399   -30405   -30414   -30419 
  -30408   -30402   -30410   -30411   -30395   -30389   -30400   -30410 
  -30409   -30405   -30407   -30415   -30418   -30415   -30412   -30409 
  -30406   -30399   -30388   -30386   -30397   -30400   -30386   -30374 
  -30380   -30399   -30408   -30404   -30398   -30398   -30411   -30426 
  -30420   -30396   -30376   -30383   -30411   -30421   -30406   -30395 
  -30399   -30402   -30397   -30389   -30387   -30395   -30406   -30413 
  -30419   -30421   -30412   -30397   -30386   -30378   -30375   -30387 
  -30406   -30422   -30423   -30406   -30386   -30385   -30398   -30400 
  -30392   -30384   -30376   -30372   -30380   -30400   -30414   -30405 
  -30389   -30388   -30392   -30399   -30420   -30438   -30430   -30413 
  -30412   -30419   -30413   -30402   -30398   -30394   -30391   -30388 
  -30367   -30337   -30334   -30365   -30400   -30415   -30418   -30421 
  -30425   -30434   -30441   -30437   -30427   -30412   -30401   -30398 
  -30383   -30360   -30363   -30383   -30398   -30413   -30421   -30426 
  -30435   -30435   -30425   -30412   -30393   -30380   -30389   -30414 
  -30430   -30414   -30381   -30355   -30352   -30367   -30388   -30403 
  -30407   -30408   -30422   -30437   -30431   -30424   -30430   -30431 
  -30426   -30412   -30379   -30353   -30366   -30394   -30410   -30419 
  -30425   -30412   -30390   -30384   -30393   -30408   -30428   -30451 
  -30458   -30434   -30395   -30367   -30353   -30351   -30366   -30382 
  -30387   -30380   -30373   -30381   -30386   -30376   -30373   -30389 
  -30408   -30422   -30429   -30431   -30424   -30404   -30390   -30390 
  -30388   -30376   -30374   -30391   -30404   -30415   -30432   -30429 
  -30396   -30361   -30353   -30375   -30402   -30417   -30430   -30447 
  -30446   -30417   -30387   -30372   -30365   -30367   -30384   -30410 
  -30431   -30442   -30442   -30418   -30380   -30365   -30388   -30422 
  -30441   -30441   -30427   -30396   -30358   -30344   -30358   -30379 
  -30398   -30412   -30411   -30404   -30412   -30425   -30420   -30408 
  -30404   -30402   -30397   -30390   -30386   -30390   -30396   -30405 
  -30423   -30424   -30401   -30384   -30383   -30392   -30405   -30400 
  -30375   -30360   -30380   -30411   -30419   -30405   -30386   -30361 
  -30339   -30340   -30356   -30372   -30395   -30428   -30443   -30421 
  -30396   -30382   -30373   -30387   -30411   -30409   -30394   -30397 
  -30415   -30429   -30436   -30430   -30410   -30384   -30378   -30403 
  -30435   -30448   -30450   -30447   -30437   -30420   -30396   -30377 
  -30379   -30394   -30411   -30428   -30426   -30396   -30371   -30374 
  -30390   -30402   -30411   -30413   -30400   -30380   -30375   -30387 
  -30401   -30417   -30424   -30401   -30366   -30348   -30351   -30369 
  -30396   -30420   -30429   -30423   -30405   -30391   -30394   -30401 
  -30402   -30402   -30406   -30409   -30410   -30410   -30415   -30426 
  -30435   -30435   -30412   -30368   -30340   -30361   -30411   -30448 
  -30456   -30431   -30384   -30347   -30340   -30356   -30389   -30419 
  -30422   -30407   -30400   -30404   -30405   -30397   -30391   -30391 
  -30389   -30395   -30416   -30429   -30428   -30434   -30429   -30395 
  -30360   -30357   -30371   -30380   -30404   -30450   -30472   -30449 
  -30414   -30400   -30401   -30398   -30384   -30371   -30377   -30403 
  -30420   -30413   -30396   -30386   -30378   -30373   -30382   -30391 
  -30378   -30362   -30376   -30404   -30414   -30407   -30397   -30391 
  -30390   -30384   -30379   -30385   -30402   -30426   -30447   -30449 
  -30421   -30380   -30350   -30347   -30376   -30416   -30442   -30444 
  -30426   -30398   -30383   -30386   -30394   -30388   -30367   -30359 
  -30389   -30433   -30450   -30427   -30379   -30338   -30330   -30361 
  -30409   -30441   -30439   -30420   -30412   -30416   -30421   -30428 
  -30434   -30430   -30420   -30424   -30435   -30431   -30414   -30398 
  -30387   -30383   -30392   -30401   -30399   -30394   -30393   -30393 
  -30400   -30419   -30426   -30396   -30362   -30370   -30395   -30392 
  -30378   -30376   -30376   -30372   -30373   -30382   -30387   -30386 
  -30401   -30433   -30445   -30421   -30399   -30403   -30408   -30398 
  -30397   -30403   -30397   -30389   -30388   -30385   -30377   -30376 
  -30384   -30396   -30411   -30417   -30407   -30394   -30394   -30403 
  -30414   -30427   -30432   -30423   -30412   -30402   -30388   -30366 
  -30346   -30352   -30386   -30411   -30411   -30401   -30395   -30393 
  -30394   -30400   -30413   -30425   -30428   -30430   -30429   -30407 
  -30372   -30354   -30362   -30381   -30405   -30425   -30410   -30371 
  -30366   -30395   -30403   -30395   -30413   -30441   -30439   -30422 
  -30409   -30385   -30353   -30350   -30377   -30398   -30401   -30405 
  -30410   -30401   -30385   -30388   -30401   -30412   -30427   -30439 
  -30429   -30402   -30386   -30392   -30410   -30421   -30414   -30406 
  -30405   -30401   -30400   -30407   -30412   -30413   -30416   -30416 
  -30404   -30387   -30373   -30364   -30368   -30384   -30408   -30422 
  -30411   -30380   -30357   -30353   -30361   -30380   -30407   -30425 
  -30421   -30409   -30403   -30395   -30384   -30381   -30390   -30401 
  -30405   -30409   -30421   -30435   -30444   -30443   -30424   -30400 
  -30390   -30390   -30391   -30398   -30406   -30407   -30410   -30418 
  -30424   -30426   -30416   -30395   -30384   -30389   -30397   -30407 
  -30416   -30410   -30405   -30413   -30414   -30405   -30398   -30386 
  -30373   -30370   -30375   -30390   -30403   -30403   -30398   -30394 
  -30384   -30372   -30369   -30372   -30375   -30381   -30395   -30413 
  -30421   -30418   -30417   -30410   -30385   -30365   -30372   -30397 
  -30423   -30429   -30410   -30386   -30380   -30400   -30422   -30419 
  -30404   -30407   -30425   -30432   -30416   -30403   -30413   -30425 
  -30421   -30405   -30388   -30381   -30380   -30380   -30382   -30387 
  -30392   -30394   -30396   -30398   -30397   -30393   -30394   -30400 
  -30407   -30413   -30413   -30413   -30417   -30412   -30393   -30374 
  -30364   -30364   -30370   -30381   -30395   -30412   -30424   -30414 
  -30397   -30400   -30402   -30384   -30373   -30386   -30404   -30415 
  -30413   -30399   -30375   -30357   -30368   -30403   -30423   -30421 
  -30421   -30418   -30399   -30387   -30401   -30420   -30423   -30417 
  -30412   -30396   -30377   -30381   -30403   -30426   -30426   -30399 
  -30381   -30393   -30413   -30415   -30400   -30386   -30382   -30382 
  -30395   -30420   -30430   -30411   -30390   -30392   -30408   -30419 
  -30425   -30425   -30421   -30421   -30421   -30406   -30388   -30378 
  -30377   -30391   -30407   -30406   -30399   -30392   -30388   -30391 
  -30395   -30392   -30388   -30391   -30402   -30419   -30435   -30423 
  -30384   -30362   -30369   -30381   -30400   -30417   -30405   -30387 
  -30391   -30406   -30415   -30423   -30432   -30430   -30415   -30407 
  -30405   -30393   -30380   -30380   -30388   -30390   -30387   -30387 
  -30393   -30401   -30402   -30392   -30382   -30388   -30405   -30421 
  -30418   -30408   -30403   -30398   -30400   -30404   -30392   -30376 
  -30377   -30380   -30381   -30393   -30411   -30422   -30419   -30400 
  -30374   -30361   -30367   -30385   -30401   -30403   -30397   -30395 
  -30396   -30393   -30388   -30388   -30397   -30409   -30418   -30419 
  -30415   -30411   -30403   -30401   -30413   -30424   -30422   -30415 
  -30408   -30401   -30403   -30410   -30417   -30419   -30417   -30418 
  -30418   -30399   -30377   -30378   -30389   -30397   -30411   -30422 
  -30418   -30405   -30391   -30381   -30385   -30401   -30409   -30405 
  -30406   -30402   -30384   -30376   -30377   -30370   -30368   -30382 
  -30401   -30406   -30390   -30380   -30398   -30423   -30436   -30432 
  -30413   -30394   -30385   -30388   -30403   -30417   -30421   -30418 
  -30412   -30400   -30386   -30381   -30384   -30388   -30395   -30404 
  -30412   -30409   -30393   -30380   -30376   -30377   -30381   -30386 
  -30397   -30412   -30415   -30406   -30399   -30396   -30390   -30385 
  -30387   -30387   -30396   -30418   -30434   -30436   -30433   -30419 
  -30393   -30375   -30378   -30401   -30426   -30429   -30417   -30401 
  -30384   -30369   -30363   -30367   -30376   -30382   -30385   -30383 
  -30377   -30385   -30413   -30444   -30449   -30422   -30393   -30386 
  -30398   -30415   -30425   -30423   -30418   -30418   -30421   -30416 
  -30401   -30394   -30405   -30425   -30439   -30433   -30413   -30401 
  -30407   -30421   -30427   -30419   -30403   -30386   -30378   -30384 
  -30394   -30396   -30390   -30384   -30383   -30389   -30387   -30373 
  -30367   -30377   -30394   -30411   -30422   -30428   -30427   -30411 
  -30387   -30376   -30386   -30403   -30414   -30421   -30414   -30393 
  -30376   -30376   -30388   -30402   -30412   -30423   -30431   -30433 
  -30430   -30414   -30390   -30379   -30388   -30402   -30406   -30402 
  -30398   -30394   -30386   -30377   -30378   -30393   -30415   -30434 
  -30442   -30433   -30420   -30418   -30417   -30411   -30405   -30395 
  -30384   -30390   -30408   -30417   -30402   -30369   -30349   -30364 
  -30401   -30433   -30438   -30402   -30352   -30344   -30383   -30415 
  -30418   -30410   -30402   -30399   -30401   -30397   -30389   -30386 
  -30385   -30394   -30407   -30415   -30411   -30392   -30368   -30361 
  -30377   -30400   -30412   -30414   -30404   -30386   -30389   -30408 
  -30414   -30411   -30408   -30398   -30391   -30400   -30412   -30422 
  -30429   -30421   -30405   -30395   -30396   -30415   -30444   -30460 
  -30451   -30424   -30396   -30380   -30385   -30403   -30412   -30408 
  -30412   -30419   -30410   -30394   -30386   -30383   -30386   -30394 
  -30398   -30397   -30402   -30409   -30407   -30399   -30392   -30387 
  -30385   -30391   -30402   -30401   -30389   -30391   -30399   -30394 
  -30387   -30388   -30390   -30391   -30396   -30403   -30410   -30413 
  -30408   -30400   -30397   -30390   -30377   -30377   -30395   -30418 
  -30436   -30436   -30408   -30369   -30356   -30370   -30391   -30407 
  -30416   -30421   -30425   -30421   -30406   -30391   -30389   -30388 
  -30383   -30389   -30418   -30445   -30451   -30444   -30428   -30405 
  -30385   -30369   -30365   -30383   -30405   -30421   -30432   -30426 
  -30403   -30384   -30380   -30383   -30386   -30395   -30404   -30409 
  -30416   -30419   -30410   -30402   -30395   -30382   -30377   -30390 
  -30405   -30410   -30406   -30399   -30391   -30387   -30390   -30400 
  -30406   -30400   -30400   -30412   -30408   -30391   -30397   -30412 
  -30404   -30385   -30385   -30398   -30408   -30415   -30413   -30393 
  -30375   -30380   -30396   -30410   -30423   -30431   -30424   -30405 
  -30393   -30389   -30384   -30387   -30398   -30400   -30386   -30374 
  -30381   -30403   -30419   -30423   -30418   -30406   -30390   -30388 
  -30399   -30407   -30404   -30400   -30405   -30411   -30399   -30380 
  -30378   -30394   -30411   -30420   -30422   -30416   -30401   -30389 
  -30389   -30394   -30390   -30385   -30391   -30400   -30401   -30401 
  -30402   -30402   -30403   -30404   -30401   -30400   -30410   -30419 
  -30408   -30384   -30376   -30385   -30401   -30413   -30411   -30394 
  -30385   -30395   -30405   -30407   -30411   -30414   -30413   -30417 
  -30423   -30421   -30415   -30413   -30421   -30432   -30438   -30431 
  -30407   -30377   -30364   -30374   -30391   -30398   -30400   -30401 
  -30397   -30397   -30398   -30394   -30391   -30386   -30368   -30356 
  -30367   -30389   -30408   -30421   -30422   -30408   -30397   -30402 
  -30413   -30417   -30418   -30424   -30433   -30442   -30450   -30451 
  -30439   -30419   -30400   -30392   -30400   -30418   -30428   -30418 
  -30401   -30404   -30416   -30413   -30395   -30379   -30368   -30367 
  -30377   -30389   -30397   -30400   -30390   -30368   -30353   -30349 
  -30360   -30387   -30407   -30408   -30404   -30400   -30399   -30410 
  -30432   -30443   -30437   -30427   -30416   -30407   -30401   -30394 
  -30386   -30383   -30378   -30373   -30383   -30404   -30428   -30442 
  -30432   -30410   -30396   -30385   -30375   -30374   -30377   -30383 
  -30393   -30406   -30418   -30417   -30399   -30374   -30363   -30373 
  -30400   -30441   -30468   -30462   -30439   -30420   -30414   -30417 
  -30416   -30403   -30382   -30368   -30370   -30380   -30381   -30373 
  -30374   -30389   -30404   -30407   -30395   -30381   -30377   -30378 
  -30384   -30395   -30400   -30400   -30404   -30403   -30407   -30412 
  -30403   -30393   -30393   -30390   -30393   -30409   -30416   -30403 
  -30390   -30398   -30423   -30446   -30449   -30418   -30367   -30337 
  -30347   -30370   -30389   -30402   -30406   -30404   -30405   -30407 
  -30408   -30405   -30392   -30377   -30378   -30391   -30398   -30400 
  -30397   -30392   -30407   -30441   -30469   -30488   -30507   -30502 
  -30457   -30397   -30350   -30321   -30318   -30345   -30391   -30440 
  -30477   -30475   -30411   -30317   -30256   -30252   -30293   -30358 
  -30417   -30451   -30457   -30456   -30462   -30459   -30442   -30426 
  -30406   -30372   -30343   -30341   -30353   -30370   -30402   -30434 
  -30440   -30435   -30439   -30444   -30440   -30434   -30432   -30427 
  -30417   -30413   -30417   -30416   -30411   -30404   -30390   -30373 
  -30359   -30341   -30322   -30304   -30294   -30310   -30351   -30395 
  -30439   -30481   -30506   -30507   -30487   -30451   -30417   -30415 
  -30451   -30501   -30536   -30545   -30521   -30463   -30395   -30342 
  -30305   -30285   -30285   -30296   -30308   -30324   -30346   -30371 
  -30385   -30381   -30363   -30355   -30377   -30411   -30429   -30432 
  -30426   -30405   -30379   -30363   -30368   -30394   -30423   -30426 
  -30408   -30395   -30402   -30423   -30446   -30461   -30469   -30469 
  -30469   -30477   -30483   -30461   -30413   -30374   -30365   -30372 
  -30382   -30391   -30387   -30366   -30349   -30351   -30355   -30345 
  -30329   -30326   -30344   -30379   -30414   -30435   -30451   -30468 
  -30480   -30488   -30489   -30478   -30457   -30433   -30410   -30400 
  -30403   -30401   -30387   -30364   -30334   -30312   -30319   -30359 
  -30401   -30422   -30430   -30441   -30448   -30441   -30431   -30424 
  -30402   -30360   -30328   -30328   -30342   -30360   -30386   -30417 
  -30440   -30437   -30413   -30394   -30381   -30373   -30385   -30405 
  -30418   -30424   -30406   -30362   -30329   -30321   -30323   -30329 
  -30342   -30360   -30389   -30431   -30466   -30476   -30478   -30485 
  -30496   -30508   -30517   -30516   -30494   -30447   -30390   -30355 
  -30349   -30347   -30345   -30351   -30357   -30356   -30359   -30366 
  -30371   -30369   -30361   -30357   -30369   -30391   -30405   -30399 
  -30379   -30354   -30332   -30319   -30328   -30352   -30378   -30402 
  -30418   -30429   -30443   -30458   -30461   -30448   -30428   -30409 
  -30390   -30371   -30362   -30366   -30373   -30385   -30404   -30416 
  -30422   -30440   -30446   -30420   -30396   -30394   -30404   -30422 
  -30440   -30453   -30462   -30463   -30464   -30471   -30467   -30455 
  -30446   -30439   -30429   -30415   -30398   -30384   -30375   -30367 
  -30364   -30367   -30372   -30373   -30372   -30376   -30384   -30399 
  -30416   -30428   -30426   -30411   -30395   -30384   -30375   -30375 
  -30385   -30401   -30421   -30434   -30428   -30417   -30414   -30414 
  -30409   -30387   -30354   -30338   -30342   -30342   -30334   -30344 
  -30376   -30413   -30442   -30457   -30457   -30441   -30414   -30388 
  -30373   -30369   -30372   -30375   -30374   -30363   -30352   -30348 
  -30347   -30354   -30374   -30398   -30411   -30404   -30397   -30400 
  -30400   -30407   -30430   -30444   -30435   -30421   -30412   -30403 
  -30401   -30409   -30416   -30414   -30410   -30408   -30409   -30421 
  -30442   -30460   -30460   -30444   -30419   -30397   -30383   -30382 
  -30399   -30418   -30422   -30418   -30421   -30431   -30441   -30448 
  -30442   -30423   -30411   -30412   -30415   -30411   -30400   -30392 
  -30390   -30381   -30362   -30342   -30334   -30340   -30359   -30381 
  -30396   -30408   -30419   -30426   -30428   -30427   -30425   -30422 
  -30423   -30432   -30441   -30447   -30451   -30452   -30443   -30425 
  -30405   -30392   -30388   -30386   -30383   -30374   -30364   -30357 
  -30355   -30355   -30356   -30363   -30371   -30375   -30378   -30372 
  -30357   -30349   -30357   -30370   -30382   -30390   -30385   -30370 
  -30365   -30380   -30402   -30416   -30416   -30412   -30419   -30430 
  -30429   -30417   -30406   -30403   -30412   -30429   -30440   -30446 
  -30455   -30456   -30447   -30436   -30425   -30417   -30417   -30428 
  -30441   -30444   -30438   -30429   -30417   -30407   -30405   -30400 
  -30382   -30358   -30342   -30341   -30344   -30344   -30340   -30334 
  -30326   -30322   -30319   -30312   -30314   -30329   -30346   -30356 
  -30365   -30380   -30395   -30405   -30416   -30427   -30426   -30428 
  -30448   -30472   -30482   -30469   -30439   -30416   -30407   -30403 
  -30407   -30416   -30420   -30415   -30404   -30394   -30382   -30371 
  -30376   -30392   -30406   -30418   -30438   -30459   -30471   -30472 
  -30459   -30428   -30400   -30394   -30396   -30400   -30412   -30427 
  -30436   -30438   -30435   -30438   -30440   -30433   -30418   -30402 
  -30389   -30386   -30388   -30389   -30385   -30382   -30387   -30399 
  -30409   -30399   -30375   -30359   -30358   -30366   -30379   -30384 
  -30384   -30384   -30379   -30370   -30363   -30357   -30361   -30379 
  -30398   -30413   -30421   -30421   -30420   -30418   -30411   -30404 
  -30401   -30402   -30403   -30399   -30391   -30397   -30416   -30430 
  -30438   -30437   -30427   -30428   -30438   -30440   -30439   -30441 
  -30434   -30423   -30415   -30402   -30390   -30388   -30389   -30394 
  -30408   -30419   -30416   -30405   -30398   -30394   -30393   -30389 
  -30381   -30372   -30362   -30348   -30339   -30343   -30361   -30384 
  -30404   -30417   -30419   -30412   -30406   -30406   -30408   -30414 
  -30421   -30423   -30416   -30404   -30392   -30388   -30387   -30381 
  -30374   -30367   -30360   -30362   -30375   -30390   -30399   -30392 
  -30378   -30376   -30386   -30402   -30414   -30414   -30414   -30419 
  -30419   -30411   -30406   -30412   -30422   -30432   -30436   -30440 
  -30449   -30450   -30444   -30443   -30438   -30423   -30412   -30403 
  -30381   -30349   -30327   -30322   -30326   -30341   -30361   -30371 
  -30370   -30371   -30378   -30387   -30394   -30401   -30407   -30410 
  -30410   -30410   -30414   -30415   -30411   -30404   -30399   -30409 
  -30433   -30457   -30475   -30480   -30468   -30456   -30454   -30446 
  -30422   -30392   -30369   -30356   -30348   -30343   -30334   -30323 
