Origin Time       2024/06/23 22:54:00
Lat.              35.645
Long.             140.060
Depth. (km)       72
Mag.              4.1
Station Code      NGNH24
Station Lat.      35.6152
Station Long.     137.8797
Station Height(m) 608
Record Time       2024/06/23 22:55:18
Sampling Freq(Hz) 100Hz
Duration Time(s)  120
Dir.              2
Scale Factor      2940(gal)/6170270
Max. Acc. (gal)   0.151
Last Correction   2024/06/23 22:55:03
Memo.             
[...]
   53270    53277    53287    53283    53280    53292    53299    53289 
   53280    53287    53308    53333    53343    53334    53324    53319 
   53306    53286    53271    53271    53280    53291    53306    53331 
   53347    53331    53301    53287    53282    53277    53287    53314 
   53338    53347    53343    53330    53323    53329    53321    53300 
   53299    53307    53292    53281    53293    53296    53283    53284 
   53295    53302    53308    53305    53300    53309    53308    53286 
   53275    53277    53287    53308    53319    53312    53317    53328 
   53325    53319    53317    53308    53317    53337    53320    53296 
   53315    53325    53302    53294    53296    53294    53301    53295 
   53274    53279    53294    53285    53282    53300    53312    53321 
   53329    53319    53306    53304    53301    53300    53301    53293 
   53302    53328    53331    53322    53327    53318    53295    53295 
   53302    53294    53301    53320    53322    53319    53320    53305 
   53290    53283    53276    53278    53290    53295    53304    53315 
   53307    53301    53312    53310    53300    53305    53305    53295 
   53291    53292    53288    53279    53274    53284    53298    53296 
   53290    53298    53299    53288    53300    53325    53333    53334 
   53337    53328    53314    53301    53293    53293    53295    53295 
   53305    53319    53322    53325    53339    53344    53332    53320 
   53315    53310    53298    53273    53255    53254    53258    53271 
   53305    53335    53337    53344    53361    53346    53311    53301 
   53307    53303    53299    53301    53305    53313    53316    53309 
   53315    53329    53319    53295    53290    53298    53296    53287 
   53289    53303    53310    53293    53274    53274    53273    53274 
   53295    53319    53323    53323    53330    53329    53306    53280 
   53278    53280    53266    53270    53304    53328    53330    53328 
   53332    53338    53341    53332    53324    53332    53331    53303 
   53285    53285    53274    53263    53276    53297    53318    53334 
   53325    53310    53311    53314    53301    53285    53285    53302 
   53314    53306    53292    53293    53298    53283    53266    53276 
   53301    53308    53302    53304    53312    53311    53295    53273 
   53274    53305    53329    53332    53331    53327    53319    53310 
   53305    53301    53308    53327    53334    53328    53325    53310 
   53287    53290    53305    53300    53291    53295    53297    53295 
   53295    53293    53298    53317    53328    53332    53337    53331 
   53320    53311    53302    53297    53303    53308    53307    53316 
   53317    53294    53273    53273    53280    53283    53291    53309 
   53319    53320    53319    53314    53303    53292    53281    53272 
   53282    53312    53342    53354    53352    53351    53340    53305 
   53267    53247    53244    53262    53293    53302    53293    53301 
   53315    53301    53282    53275    53276    53293    53316    53330 
   53347    53361    53345    53318    53302    53299    53309    53326 
   53332    53325    53314    53301    53295    53296    53288    53271 
   53277    53308    53326    53319    53309    53312    53316    53305 
   53296    53308    53323    53322    53311    53294    53280    53285 
   53294    53298    53308    53303    53282    53284    53294    53278 
   53280    53318    53335    53324    53322    53320    53310    53311 
   53306    53288    53293    53321    53327    53315    53322    53334 
   53321    53289    53270    53283    53306    53318    53326    53330 
   53307    53263    53234    53230    53238    53257    53291    53326 
   53350    53361    53358    53334    53304    53287    53286    53294 
   53307    53317    53330    53347    53349    53330    53313    53308 
   53299    53281    53273    53285    53301    53306    53306    53308 
   53306    53297    53287    53281    53283    53306    53336    53341 
   53330    53329    53323    53297    53269    53249    53240    53255 
   53286    53301    53310    53326    53334    53327    53308    53289 
   53302    53329    53325    53313    53328    53336    53320    53312 
   53307    53294    53288    53293    53302    53317    53320    53306 
   53299    53292    53267    53264    53304    53325    53304    53294 
   53299    53291    53279    53289    53315    53336    53337    53337 
   53344    53334    53310    53304    53313    53312    53300    53282 
   53268    53267    53274    53280    53285    53280    53270    53273 
   53289    53301    53307    53312    53305    53294    53305    53327 
   53336    53343    53356    53352    53336    53339    53346    53327 
   53298    53275    53269    53281    53291    53282    53278    53284 
   53273    53263    53273    53290    53309    53326    53325    53322 
   53321    53300    53283    53308    53331    53313    53308    53326 
   53329    53332    53346    53350    53357    53365    53343    53314 
   53303    53286    53268    53264    53246    53230    53256    53288 
   53296    53311    53320    53304    53298    53313    53314    53315 
   53334    53346    53329    53297    53272    53264    53261    53256 
   53268    53299    53316    53318    53325    53317    53291    53297 
   53323    53320    53312    53323    53329    53328    53325    53310 
   53297    53298    53295    53295    53317    53329    53314    53309 
   53320    53313    53292    53281    53271    53270    53294    53318 
   53324    53325    53327    53330    53330    53316    53294    53291 
   53304    53309    53312    53320    53322    53314    53308    53306 
   53303    53296    53291    53294    53302    53303    53299    53304 
   53310    53308    53306    53302    53288    53288    53307    53312 
   53294    53295    53308    53301    53286    53287    53293    53298 
   53303    53299    53298    53310    53309    53302    53312    53327 
   53334    53334    53321    53304    53302    53310    53312    53315 
   53326    53322    53299    53290    53299    53300    53296    53308 
   53321    53323    53326    53324    53307    53279    53254    53257 
   53285    53300    53297    53303    53309    53296    53283    53289 
   53300    53306    53311    53312    53311    53311    53308    53304 
   53305    53299    53292    53300    53305    53292    53290    53305 
   53313    53319    53332    53337    53339    53337    53318    53294 
   53289    53294    53297    53303    53307    53300    53292    53285 
   53279    53280    53278    53279    53294    53312    53321    53328 
   53335    53336    53330    53319    53308    53316    53338    53345 
   53340    53333    53318    53296    53279    53276    53285    53288 
   53281    53280    53287    53285    53272    53265    53269    53275 
   53288    53307    53313    53300    53299    53313    53313    53305 
   53312    53320    53323    53327    53319    53306    53309    53313 
   53301    53295    53303    53308    53308    53308    53305    53299 
   53292    53284    53289    53301    53299    53286    53281    53279 
   53278    53291    53303    53309    53329    53343    53334    53324 
   53319    53311    53308    53313    53313    53313    53325    53330 
   53321    53320    53319    53304    53290    53290    53300    53313 
   53315    53311    53311    53301    53286    53291    53299    53299 
   53305    53314    53307    53297    53297    53292    53290    53308 
   53329    53328    53311    53296    53286    53278    53270    53274 
   53292    53309    53317    53320    53321    53308    53283    53269 
   53281    53299    53308    53311    53311    53308    53307    53308 
   53304    53303    53303    53298    53302    53320    53331    53333 
   53335    53321    53296    53285    53286    53293    53306    53310 
   53299    53298    53297    53277    53271    53289    53296    53297 
   53309    53323    53327    53325    53315    53305    53304    53309 
   53314    53322    53328    53320    53304    53298    53308    53324 
   53334    53339    53340    53331    53312    53297    53285    53274 
   53271    53274    53277    53280    53278    53270    53266    53275 
   53293    53298    53293    53300    53310    53315    53325    53329 
   53320    53330    53341    53323    53305    53303    53295    53293 
   53302    53300    53301    53316    53315    53304    53309    53315 
   53313    53315    53311    53301    53307    53312    53302    53297 
   53293    53282    53286    53305    53319    53329    53329    53321 
   53319    53310    53289    53283    53297    53314    53335    53340 
   53318    53303    53308    53305    53288    53285    53304    53323 
   53327    53319    53308    53298    53283    53263    53254    53264 
   53281    53299    53317    53332    53337    53330    53322    53318 
   53309    53289    53271    53271    53283    53290    53284    53281 
   53296    53315    53315    53308    53313    53319    53314    53306 
   53305    53305    53297    53285    53281    53290    53298    53294 
   53292    53295    53293    53293    53303    53311    53319    53336 
   53349    53345    53335    53325    53312    53301    53294    53288 
   53284    53286    53296    53301    53294    53288    53299    53309 
   53305    53299    53304    53306    53300    53302    53319    53338 
   53344    53335    53325    53328    53324    53306    53288    53276 
   53274    53291    53305    53300    53296    53299    53292    53283 
   53289    53312    53335    53344    53344    53338    53317    53291 
   53283    53290    53297    53300    53304    53309    53313    53318 
   53317    53305    53293    53283    53272    53269    53277    53288 
   53295    53298    53302    53306    53303    53294    53285    53283 
   53288    53299    53317    53328    53323    53321    53321    53313 
   53310    53317    53319    53310    53300    53299    53308    53313 
   53298    53281    53281    53281    53271    53271    53285    53298 
   53311    53323    53326    53321    53315    53306    53303    53309 
   53306    53296    53303    53320    53319    53302    53289    53286 
   53285    53289    53305    53324    53329    53328    53334    53335 
   53330    53325    53314    53308    53320    53328    53318    53304 
   53295    53292    53293    53292    53290    53287    53282    53285 
   53305    53323    53320    53303    53293    53295    53300    53303 
   53310    53318    53314    53298    53282    53274    53283    53300 
   53306    53304    53315    53327    53322    53317    53311    53303 
   53311    53323    53316    53316    53329    53326    53317    53317 
   53307    53293    53305    53313    53298    53295    53306    53305 
   53298    53293    53292    53298    53295    53281    53277    53289 
   53293    53291    53293    53292    53288    53295    53307    53316 
   53321    53320    53320    53329    53327    53314    53311    53308 
   53301    53302    53300    53292    53299    53309    53304    53308 
   53323    53324    53315    53309    53298    53280    53276    53281 
   53282    53288    53301    53311    53316    53324    53335    53339 
   53330    53311    53293    53283    53283    53295    53305    53302 
   53297    53297    53295    53295    53297    53295    53295    53308 
   53324    53327    53321    53313    53302    53293    53288    53286 
   53290    53301    53309    53317    53328    53325    53309    53302 
   53303    53296    53292    53294    53291    53291    53295    53295 
   53299    53301    53288    53280    53295    53315    53324    53325 
   53324    53320    53305    53280    53268    53278    53299    53320 
   53326    53319    53322    53327    53316    53310    53318    53314 
   53303    53304    53301    53295    53300    53298    53285    53284 
   53296    53304    53308    53313    53315    53321    53332    53328 
   53311    53294    53270    53254    53261    53273    53279    53289 
   53301    53305    53304    53301    53302    53308    53313    53316 
   53321    53323    53321    53322    53325    53327    53332    53332 
   53318    53303    53304    53315    53327    53330    53320    53307 
   53297    53279    53269    53277    53277    53268    53271    53287 
   53312    53335    53337    53328    53324    53319    53320    53329 
   53325    53308    53300    53301    53300    53296    53290    53277 
   53275    53287    53293    53301    53316    53317    53306    53294 
   53273    53253    53251    53253    53253    53277    53316    53339 
   53348    53355    53354    53342    53326    53303    53279    53262 
   53262    53282    53307    53318    53318    53308    53286    53260 
   53252    53264    53279    53301    53326    53335    53336    53345 
   53345    53332    53324    53324    53323    53323    53320    53312 
   53302    53290    53273    53266    53279    53300    53315    53324 
   53332    53337    53328    53314    53304    53292    53276    53263 
   53254    53260    53289    53312    53318    53334    53348    53344 
   53344    53346    53313    53262    53248    53282    53338    53390 
   53419    53427    53419    53377    53303    53236    53204    53207 
   53248    53312    53354    53356    53345    53322    53277    53233 
   53213    53205    53193    53185    53191    53217    53269    53335 
   53395    53426    53417    53383    53338    53279    53224    53204 
   53222    53266    53330    53394    53453    53526    53592    53595 
   53532    53426    53288    53146    53040    52987    53003    53083 
   53208    53350    53456    53463    53378    53256    53141    53075 
   53094    53179    53277    53348    53382    53394    53392    53370 
   53342    53339    53368    53418    53469    53484    53442    53369 
   53290    53223    53210    53247    53275    53267    53250    53230 
   53209    53203    53221    53253    53295    53349    53415    53482 
   53510    53463    53358    53243    53140    53065    53037    53057 
   53128    53237    53337    53405    53444    53435    53379    53319 
   53263    53204    53191    53258    53371    53475    53530    53508 
   53423    53321    53250    53239    53291    53351    53378    53388 
   53387    53354    53293    53224    53158    53127    53173    53278 
   53384    53444    53423    53324    53214    53152    53150    53193 
   53246    53269    53269    53275    53297    53339    53387    53402 
   53373    53330    53309    53334    53401    53469    53499    53474 
   53383    53260    53169    53132    53145    53205    53283    53343 
   53385    53398    53372    53322    53254    53173    53129    53141 
   53179    53241    53327    53386    53394    53365    53308    53252 
   53232    53238    53260    53312    53373    53409    53426    53419 
   53377    53330    53294    53251    53214    53208    53225    53255 
   53306    53365    53404    53419    53412    53375    53312    53245 
   53186    53165    53205    53280    53350    53391    53373    53303 
   53243    53229    53227    53220    53227    53235    53234    53254 
   53298    53345    53388    53408    53393    53364    53331    53296 
   53279    53284    53298    53330    53384    53439    53467    53449 
   53393    53320    53253    53209    53192    53213    53264    53309 
   53327    53317    53278    53233    53221    53243    53266    53285 
   53299    53295    53292    53313    53334    53339    53332    53305 
   53268    53253    53255    53268    53304    53330    53320    53301 
   53288    53280    53294    53334    53369    53407    53445    53449 
   53423    53399    53375    53356    53348    53339    53329    53321 
   53299    53266    53242    53228    53221    53222    53228    53248 
   53285    53323    53348    53364    53372    53363    53344    53322 
   53294    53277    53286    53297    53299    53293    53273    53259 
   53261    53256    53249    53265    53278    53280    53297    53320 
   53325    53329    53335    53318    53294    53282    53274    53273 
   53283    53283    53287    53311    53316    53284    53240    53197 
   53161    53152    53168    53191    53231    53281    53311    53339 
   53377    53392    53376    53356    53336    53317    53317    53338 
   53367    53389    53389    53373    53359    53342    53325    53317 
   53309    53301    53298    53287    53272    53273    53284    53306 
   53345    53379    53390    53395    53381    53333    53286    53253 
   53217    53200    53215    53239    53272    53310    53323    53312 
   53297    53274    53262    53288    53313    53320    53331    53325 
   53294    53291    53309    53304    53305    53322    53322    53317 
   53332    53346    53354    53366    53367    53360    53369    53370 
   53352    53338    53316    53280    53264    53273    53283    53297 
   53310    53301    53289    53284    53267    53249    53246    53243 
   53239    53251    53262    53267    53285    53302    53310    53326 
   53337    53329    53326    53332    53332    53336    53337    53323 
   53307    53307    53318    53333    53342    53336    53322    53309 
   53295    53271    53245    53234    53226    53209    53198    53201 
   53210    53214    53217    53223    53227    53234    53245    53266 
   53301    53332    53348    53363    53375    53374    53388    53419 
   53433    53439    53456    53465    53455    53438    53408    53369 
   53337    53312    53292    53278    53257    53241    53243    53247 
   53241    53230    53218    53206    53203    53211    53230    53261 
   53293    53321    53353    53376    53379    53370    53360    53345 
   53320    53297    53298    53319    53343    53369    53382    53375 
   53364    53342    53288    53237    53211    53193    53197    53237 
   53273    53292    53303    53288    53256    53247    53256    53258 
   53270    53293    53307    53330    53370    53405    53435    53453 
   53433    53395    53366    53335    53309    53310    53312    53304 
   53301    53298    53281    53262    53247    53235    53229    53229 
   53227    53229    53243    53252    53255    53261    53262    53265 
   53280    53301    53321    53337    53344    53345    53349    53355 
   53358    53362    53367    53363    53346    53329    53307    53281 
   53264    53243    53215    53203    53212    53232    53264    53304 
   53337    53365    53384    53378    53355    53334    53321    53316 
   53326    53337    53330    53320    53323    53320    53303    53285 
   53272    53264    53264    53272    53276    53285    53306    53318 
   53315    53321    53324    53304    53291    53300    53310    53313 
   53316    53314    53314    53323    53326    53324    53330    53331 
   53327    53324    53307    53279    53267    53260    53248    53252 
   53261    53251    53250    53278    53305    53336    53381    53401 
   53395    53396    53386    53355    53332    53314    53284    53257 
   53247    53249    53263    53278    53285    53299    53309    53304 
   53297    53287    53272    53265    53257    53242    53243    53272 
   53310    53353    53391    53400    53383    53354    53314    53279 
   53269    53268    53272    53296    53324    53326    53323    53327 
   53311    53279    53252    53233    53231    53254    53290    53326 
   53349    53350    53343    53342    53338    53335    53345    53348 
