Origin Time       2024/06/23 22:54:00
Lat.              35.645
Long.             140.060
Depth. (km)       72
Mag.              4.1
Station Code      SITH04
Station Lat.      35.8028
Station Long.     139.5353
Station Height(m) -1970
Record Time       2024/06/23 22:54:46
Sampling Freq(Hz) 100Hz
Duration Time(s)  120
Dir.              2
Scale Factor      2940(gal)/6170270
Max. Acc. (gal)   0.545
Last Correction   2024/06/23 22:54:31
Memo.             
[...]
  239541   239541   239543   239544   239542   239542   239543   239543 
  239542   239542   239542   239541   239543   239543   239541   239541 
  239542   239541   239541   239542   239543   239542   239541   239542 
  239542   239542   239542   239542   239543   239543   239542   239541 
  239542   239543   239543   239542   239542   239543   239543   239541 
  239542   239544   239542   239541   239542   239542   239543   239543 
  239542   239544   239544   239543   239543   239543   239542   239544 
  239543   239541   239542   239544   239542   239541   239542   239541 
  239542   239542   239542   239544   239543   239541   239543   239545 
  239544   239542   239542   239543   239544   239544   239543   239543 
  239544   239543   239542   239543   239543   239543   239544   239543 
  239543   239544   239545   239545   239544   239541   239539   239542 
  239546   239544   239541   239541   239542   239543   239544   239544 
  239544   239544   239543   239543   239545   239544   239542   239543 
  239544   239543   239543   239543   239543   239542   239541   239543 
  239544   239545   239544   239544   239544   239542   239543   239544 
  239544   239545   239545   239544   239544   239544   239543   239545 
  239544   239543   239543   239545   239545   239543   239544   239545 
  239546   239544   239544   239544   239542   239543   239544   239543 
  239544   239544   239542   239542   239542   239542   239542   239542 
  239544   239544   239543   239543   239543   239542   239542   239543 
  239542   239540   239540   239541   239542   239542   239543   239544 
  239542   239541   239543   239544   239544   239541   239540   239542 
  239543   239543   239544   239545   239545   239544   239543   239542 
  239543   239543   239542   239543   239544   239544   239542   239541 
  239545   239545   239544   239546   239545   239542   239542   239545 
  239545   239545   239545   239544   239542   239542   239542   239542 
  239542   239543   239544   239544   239543   239543   239544   239544 
  239542   239541   239542   239544   239544   239543   239543   239543 
  239541   239540   239542   239541   239539   239541   239543   239541 
  239541   239542   239542   239541   239540   239539   239539   239541 
  239543   239542   239542   239542   239543   239542   239541   239541 
  239543   239543   239543   239544   239544   239543   239543   239543 
  239543   239542   239542   239542   239543   239544   239545   239545 
  239544   239543   239543   239544   239543   239542   239543   239544 
  239544   239543   239543   239544   239544   239543   239542   239541 
  239542   239543   239543   239544   239544   239543   239542   239543 
  239544   239543   239543   239542   239541   239543   239543   239541 
  239542   239542   239541   239543   239544   239546   239546   239544 
  239542   239543   239544   239545   239545   239544   239543   239541 
  239542   239545   239543   239540   239541   239542   239540   239541 
  239544   239543   239542   239543   239544   239543   239544   239544 
  239543   239544   239543   239542   239541   239540   239540   239540 
  239539   239539   239541   239543   239542   239541   239543   239544 
  239545   239544   239541   239541   239542   239543   239545   239544 
  239543   239544   239542   239540   239540   239542   239541   239542 
  239543   239543   239543   239544   239543   239541   239542   239543 
  239541   239540   239542   239543   239542   239544   239543   239541 
  239543   239544   239541   239542   239544   239543   239543   239544 
  239546   239543   239540   239541   239542   239541   239543   239545 
  239544   239544   239545   239544   239543   239542   239542   239542 
  239542   239542   239542   239542   239543   239541   239541   239543 
  239541   239539   239540   239540   239541   239542   239541   239540 
  239542   239541   239541   239544   239543   239542   239545   239542 
  239541   239542   239541   239539   239541   239545   239546   239543 
  239543   239544   239544   239542   239543   239543   239542   239543 
  239545   239544   239543   239541   239544   239544   239540   239538 
  239541   239542   239542   239541   239543   239544   239543   239544 
  239544   239541   239541   239541   239541   239542   239542   239540 
  239541   239542   239539   239539   239541   239541   239540   239541 
  239542   239543   239542   239541   239541   239540   239541   239541 
  239539   239539   239541   239540   239541   239542   239542   239543 
  239541   239540   239540   239541   239542   239543   239541   239541 
  239541   239541   239542   239543   239542   239543   239543   239542 
  239542   239543   239541   239540   239540   239540   239541   239543 
  239543   239541   239541   239542   239542   239540   239540   239542 
  239544   239544   239543   239542   239541   239541   239542   239543 
  239543   239545   239547   239547   239551   239554   239555   239557 
  239559   239555   239543   239529   239519   239516   239518   239520 
  239528   239545   239561   239573   239584   239580   239559   239541 
  239539   239547   239556   239563   239556   239533   239523   239539 
  239533   239488   239481   239554   239624   239626   239602   239600 
  239577   239528   239548   239599   239527   239398   239390   239463 
  239494   239520   239584   239584   239543   239575   239555   239402 
  239331   239432   239541   239611   239683   239696   239637   239557 
  239468   239410   239394   239396   239460   239603   239663   239533 
  239445   239586   239704   239619   239548   239614   239633   239510 
  239480   239608   239605   239502   239527   239549   239515   239522 
  239535   239511   239408   239342   239534   239793   239810   239652 
  239510   239485   239571   239616   239482   239319   239413   239608 
  239559   239451   239544   239618   239494   239395   239488   239605 
  239613   239622   239677   239628   239507   239529   239615   239543 
  239411   239423   239510   239529   239524   239559   239619   239611 
  239510   239504   239613   239637   239570   239570   239555   239399 
  239386   239604   239646   239515   239512   239525   239466   239575 
  239752   239603   239304   239356   239665   239727   239507   239434 
  239579   239685   239678   239591   239504   239489   239481   239486 
  239542   239532   239459   239461   239501   239495   239490   239546 
  239623   239588   239490   239508   239565   239579   239647   239638 
  239450   239369   239516   239629   239549   239464   239520   239536 
  239467   239507   239650   239781   239803   239621   239396   239349 
  239403   239423   239412   239470   239634   239718   239651   239563 
  239451   239368   239423   239506   239566   239673   239744   239688 
  239553   239418   239380   239488   239611   239615   239567   239548 
  239587   239635   239579   239504   239484   239444   239490   239653 
  239666   239501   239421   239470   239504   239523   239592   239631 
  239607   239591   239561   239523   239517   239493   239445   239493 
  239640   239683   239596   239532   239487   239419   239360   239387 
  239523   239632   239628   239559   239518   239553   239593   239584 
  239557   239521   239476   239452   239516   239609   239574   239500 
  239556   239605   239536   239513   239580   239584   239538   239567 
  239635   239598   239476   239436   239512   239567   239544   239498 
  239508   239539   239501   239507   239608   239642   239591   239559 
  239531   239493   239531   239585   239492   239376   239447   239573 
  239567   239475   239445   239556   239674   239647   239538   239492 
  239536   239536   239445   239441   239580   239666   239624   239542 
  239464   239427   239500   239596   239534   239411   239446   239567 
  239594   239571   239579   239587   239609   239611   239521   239473 
  239529   239543   239473   239430   239494   239585   239575   239507 
  239517   239611   239656   239616   239571   239570   239611   239644 
  239649   239594   239472   239445   239535   239571   239529   239469 
  239466   239573   239702   239742   239654   239537   239528   239519 
  239403   239360   239518   239636   239553   239509   239559   239533 
  239502   239516   239474   239435   239480   239535   239575   239637 
  239640   239525   239395   239375   239477   239600   239614   239537 
  239484   239483   239559   239662   239639   239540   239513   239525 
  239515   239503   239530   239577   239545   239503   239566   239629 
  239628   239595   239508   239441   239489   239604   239655   239571 
  239509   239532   239472   239420   239499   239581   239577   239463 
  239381   239511   239746   239819   239663   239524   239508   239455 
  239425   239487   239498   239505   239604   239635   239527   239445 
  239494   239587   239570   239489   239528   239632   239643   239590 
  239533   239509   239545   239573   239529   239477   239514   239601 
  239626   239585   239537   239516   239526   239561   239579   239550 
  239527   239580   239670   239646   239498   239397   239389   239480 
  239623   239626   239527   239515   239589   239634   239556   239460 
  239453   239457   239508   239605   239592   239503   239458   239497 
  239569   239541   239455   239463   239582   239731   239762   239626 
  239487   239446   239402   239381   239462   239440   239302   239367 
  239567   239675   239695   239601   239542   239641   239655   239504 
  239341   239302   239476   239643   239573   239447   239437   239476 
  239537   239575   239531   239533   239607   239596   239529   239553 
  239642   239651   239598   239552   239457   239379   239415   239489 
  239522   239525   239569   239623   239590   239565   239597   239581 
  239582   239629   239534   239361   239377   239518   239582   239612 
  239648   239617   239549   239478   239417   239484   239635   239644 
  239541   239498   239517   239577   239673   239725   239672   239517 
  239388   239435   239522   239492   239462   239498   239506   239465 
  239436   239403   239417   239539   239551   239444   239477   239604 
  239676   239663   239579   239530   239546   239517   239423   239411 
  239529   239629   239611   239519   239459   239456   239495   239632 
  239734   239622   239535   239609   239640   239635   239625   239538 
  239480   239511   239562   239590   239568   239521   239564   239655 
  239568   239367   239280   239356   239577   239728   239614   239475 
  239515   239606   239624   239539   239421   239437   239549   239537 
  239442   239490   239669   239760   239642   239457   239419   239480 
  239535   239545   239452   239420   239597   239737   239599   239349 
  239287   239390   239464   239547   239669   239687   239606   239534 
  239465   239414   239478   239625   239664   239586   239574   239593 
  239537   239517   239557   239530   239478   239532   239634   239626 
  239517   239442   239435   239482   239563   239601   239612   239668 
  239661   239548   239492   239503   239498   239560   239672   239649 
  239481   239328   239317   239426   239544   239664   239717   239602 
  239533   239608   239600   239518   239451   239423   239510   239553 
  239458   239443   239524   239585   239641   239609   239463   239395 
  239520   239679   239673   239598   239575   239555   239544   239522 
  239484   239553   239674   239633   239466   239428   239505   239488 
  239418   239432   239522   239578   239573   239586   239559   239458 
  239497   239652   239609   239461   239516   239616   239549   239510 
  239593   239597   239492   239408   239356   239403   239585   239676 
  239622   239655   239725   239621   239473   239459   239487   239515 
  239575   239588   239545   239504   239455   239422   239431   239447 
  239471   239494   239507   239564   239684   239714   239590   239553 
  239675   239732   239641   239479   239377   239438   239549   239561 
  239521   239502   239493   239518   239570   239566   239523   239530 
  239567   239582   239597   239633   239621   239531   239472   239512 
  239529   239444   239437   239582   239644   239554   239495   239528 
  239614   239704   239632   239410   239331   239422   239476   239489 
  239497   239495   239634   239862   239815   239545   239409   239392 
  239398   239438   239464   239508   239593   239607   239534   239534 
  239620   239592   239461   239448   239526   239586   239673   239676 
  239544   239524   239595   239538   239484   239543   239547   239472 
  239416   239448   239557   239530   239361   239350   239497   239593 
  239671   239738   239677   239561   239513   239500   239490   239486 
  239528   239623   239603   239445   239361   239388   239455   239562 
  239648   239635   239574   239629   239768   239779   239678   239613 
  239632   239711   239739   239674   239611   239595   239522   239350 
  239241   239202   239107   239086   239260   239447   239488   239497 
  239660   239881   239844   239643   239688   239939   240048   239940 
  239774   239684   239683   239719   239653   239415   239163   239043 
  239067   239215   239406   239609   239895   240115   240053   239890 
  239835   239795   239718   239570   239273   238945   238868   239160 
  239499   239500   239255   239070   239034   239077   239166   239315 
  239468   239534   239527   239486   239451   239499   239548   239439 
  239297   239375   239662   239955   240165   240319   240293   239992 
  239597   239300   239175   239233   239259   239032   238730   238722 
  239128   239696   240131   240428   240654   240684   240375   239864 
  239579   239689   239849   239673   239221   238937   238978   239007 
  238929   238997   239155   239217   239317   239499   239629   239783 
  239963   239990   239878   239733   239642   239698   239764   239680 
  239514   239358   239364   239573   239616   239372   239240   239286 
  239254   239145   239041   239052   239339   239785   240085   240154 
  240092   240045   240035   239862   239516   239281   239208   239165 
  239114   239016   238957   239045   239192   239311   239385   239549 
  239930   240174   239977   239632   239501   239644   239931   240107 
  240012   239770   239575   239432   239365   239478   239651   239624 
  239356   239053   238957   239081   239190   239261   239517   239890 
  240084   240068   240017   239945   239752   239518   239399   239377 
  239343   239297   239368   239617   239934   240098   239962   239697 
  239575   239569   239499   239359   239281   239331   239421   239417 
  239310   239247   239348   239572   239740   239712   239546   239369 
  239270   239285   239294   239214   239185   239318   239510   239578 
  239501   239480   239639   239841   239947   239997   240044   240007 
  239816   239581   239421   239332   239247   239105   239044   239262 
  239556   239592   239431   239273   239198   239336   239668   239926 
  240002   240025   240049   239964   239679   239327   239201   239376 
  239577   239600   239522   239483   239554   239624   239585   239561 
  239569   239435   239209   239148   239318   239559   239747   239868 
  239930   239903   239747   239549   239478   239505   239441   239296 
  239289   239483   239677   239671   239490   239311   239302   239464 
  239533   239391   239342   239537   239703   239652   239531   239514 
  239540   239506   239452   239411   239356   239368   239543   239792 
  239943   239921   239797   239717   239720   239692   239563   239406 
  239311   239316   239420   239569   239681   239667   239501   239345 
  239339   239428   239570   239706   239706   239685   239791   239790 
  239543   239319   239273   239297   239378   239472   239430   239354 
  239439   239587   239654   239672   239680   239630   239524   239450 
  239455   239557   239731   239817   239728   239582   239506   239490 
  239481   239507   239549   239538   239565   239665   239706   239693 
  239693   239641   239489   239311   239160   239084   239179   239409 
  239621   239752   239770   239730   239793   239889   239770   239442 
  239201   239260   239485   239585   239529   239492   239496   239440 
  239309   239164   239143   239371   239706   239856   239751   239643 
  239736   239878   239870   239707   239492   239414   239532   239675 
  239728   239737   239719   239624   239456   239286   239235   239391 
  239622   239717   239638   239464   239345   239407   239554   239666 
  239748   239759   239675   239585   239542   239510   239451   239420 
  239487   239604   239702   239765   239712   239503   239293   239225 
  239261   239339   239460   239581   239627   239551   239381   239223 
  239204   239368   239566   239648   239668   239718   239772   239830 
  239938   240007   239924   239756   239598   239421   239187   239005 
  239045   239249   239425   239575   239711   239717   239637   239636 
  239696   239705   239654   239569   239509   239550   239645   239702 
  239690   239634   239649   239745   239791   239776   239728   239598 
  239465   239407   239325   239208   239171   239199   239232   239314 
  239441   239527   239625   239793   239866   239690   239388   239214 
  239234   239331   239447   239565   239607   239530   239420   239426 
  239563   239647   239597   239503   239403   239334   239394   239534 
  239631   239665   239606   239500   239504   239591   239641   239646 
  239591   239514   239490   239489   239519   239630   239712   239689 
  239674   239674   239592   239534   239627   239759   239790   239734 
  239652   239547   239426   239357   239364   239385   239380   239368 
  239393   239469   239532   239537   239527   239531   239535   239523 
  239528   239562   239546   239474   239449   239515   239648   239740 
  239691   239628   239634   239582   239484   239460   239497   239509 
  239482   239501   239580   239613   239568   239541   239594   239672 
  239749   239815   239796   239676   239519   239395   239329   239287 
  239253   239250   239295   239382   239462   239495   239495   239521 
  239545   239491   239430   239445   239489   239508   239511   239556 
  239655   239684   239595   239507   239478   239504   239602   239696 
  239698   239660   239696   239792   239839   239798   239696   239525 
  239341   239274   239338   239443   239525   239549   239517   239493 
  239543   239626   239688   239772   239872   239892   239809   239670 
  239530   239433   239391   239373   239348   239345   239415   239543 
  239638   239662   239664   239658   239621   239565   239479   239375 
  239289   239231   239227   239267   239293   239307   239360   239449 
  239553   239639   239655   239643   239682   239696   239620   239537 
  239484   239450   239470   239543   239626   239690   239698   239610 
  239489   239451   239486   239559   239687   239792   239803   239725 
  239584   239483   239488   239521   239468   239318   239232   239304 
  239438   239568   239673   239718   239720   239742   239781   239759 
  239692   239662   239656   239593   239440   239303   239327   239443 
  239495   239479   239444   239446   239542   239633   239624   239566 
  239503   239448   239430   239485   239569   239596   239602   239615 
  239568   239483   239437   239464   239554   239619   239598   239534 
  239489   239494   239537   239570   239560   239526   239478   239445 
  239502   239635   239734   239754   239720   239630   239512   239464 
