Origin Time       2024/06/23 22:54:00
Lat.              35.645
Long.             140.060
Depth. (km)       72
Mag.              4.1
Station Code      SITH04
Station Lat.      35.8028
Station Long.     139.5353
Station Height(m) 30
Record Time       2024/06/23 22:54:46
Sampling Freq(Hz) 100Hz
Duration Time(s)  120
Dir.              5
Scale Factor      3920(gal)/6170801
Max. Acc. (gal)   1.074
Last Correction   2024/06/23 22:54:31
Memo.             
[...]
   -4774    -4673    -4708    -4826    -4910    -4931    -4868    -4736 
   -4631    -4647    -4816    -5013    -5031    -4886    -4758    -4681 
   -4650    -4758    -4932    -4967    -4877    -4768    -4658    -4635 
   -4745    -4864    -4949    -4998    -4928    -4767    -4657    -4675 
   -4791    -4917    -5001    -4960    -4717    -4495    -4607    -4894 
   -5024    -5020    -4934    -4717    -4567    -4659    -4854    -4974 
   -4939    -4787    -4725    -4798    -4834    -4798    -4764    -4796 
   -4882    -4916    -4877    -4810    -4745    -4766    -4848    -4861 
   -4807    -4765    -4752    -4713    -4670    -4729    -4872    -4982 
   -4989    -4923    -4822    -4682    -4668    -4894    -5033    -4870 
   -4653    -4563    -4631    -4871    -5076    -5038    -4830    -4612 
   -4546    -4755    -5021    -5055    -4915    -4753    -4654    -4677 
   -4722    -4775    -4904    -4946    -4869    -4877    -4883    -4772 
   -4692    -4703    -4781    -4886    -4908    -4863    -4807    -4715 
   -4664    -4685    -4757    -4933    -5091    -5073    -4887    -4593 
   -4391    -4469    -4761    -5077    -5210    -5076    -4853    -4713 
   -4663    -4713    -4811    -4815    -4754    -4738    -4728    -4709 
   -4777    -4903    -4971    -4973    -4940    -4853    -4726    -4652 
   -4715    -4873    -4930    -4769    -4601    -4664    -4861    -4998 
   -5032    -4966    -4816    -4677    -4656    -4726    -4756    -4756 
   -4810    -4844    -4835    -4851    -4854    -4850    -4880    -4833 
   -4696    -4659    -4760    -4866    -4940    -4994    -4911    -4678 
   -4543    -4684    -4951    -5080    -4984    -4797    -4669    -4636 
   -4648    -4697    -4831    -4931    -4878    -4867    -4997    -4986 
   -4746    -4552    -4572    -4738    -4920    -5016    -4970    -4796 
   -4666    -4716    -4845    -4964    -5000    -4822    -4610    -4609 
   -4665    -4686    -4825    -4977    -4968    -4892    -4828    -4782 
   -4774    -4773    -4796    -4847    -4815    -4751    -4823    -4927 
   -4862    -4702    -4664    -4810    -4969    -4960    -4799    -4630 
   -4614    -4786    -4939    -4931    -4829    -4734    -4756    -4892 
   -4944    -4824    -4676    -4654    -4764    -4869    -4871    -4831 
   -4824    -4851    -4871    -4816    -4716    -4702    -4786    -4876 
   -4908    -4845    -4719    -4641    -4691    -4817    -4930    -5002 
   -4981    -4819    -4638    -4611    -4746    -4899    -4948    -4881 
   -4750    -4663    -4733    -4888    -4959    -4913    -4802    -4688 
   -4676    -4784    -4889    -4876    -4769    -4711    -4783    -4905 
   -4949    -4862    -4721    -4673    -4766    -4871    -4864    -4785 
   -4729    -4741    -4814    -4884    -4895    -4873    -4851    -4814 
   -4751    -4702    -4722    -4787    -4855    -4899    -4877    -4823 
   -4797    -4774    -4761    -4792    -4823    -4835    -4837    -4805 
   -4771    -4781    -4815    -4837    -4848    -4853    -4829    -4781 
   -4754    -4759    -4793    -4857    -4874    -4806    -4764    -4817 
   -4877    -4856    -4777    -4722    -4744    -4812    -4860    -4881 
   -4873    -4820    -4763    -4738    -4749    -4809    -4870    -4856 
   -4795    -4774    -4811    -4839    -4822    -4801    -4806    -4824 
   -4834    -4828    -4812    -4804    -4824    -4845    -4828    -4795 
   -4779    -4783    -4773    -4746    -4771    -4853    -4895    -4868 
   -4810    -4777    -4811    -4861    -4852    -4803    -4773    -4761 
   -4745    -4771    -4851    -4893    -4862    -4817    -4796    -4803 
   -4844    -4856    -4774    -4701    -4741    -4834    -4894    -4898 
   -4871    -4821    -4741    -4706    -4770    -4854    -4880    -4847 
   -4794    -4781    -4826    -4862    -4832    -4763    -4722    -4764 
   -4847    -4859    -4819    -4834    -4881    -4882    -4849    -4832 
   -4836    -4813    -4731    -4650    -4655    -4756    -4873    -4921 
   -4894    -4833    -4781    -4774    -4825    -4890    -4896    -4826 
   -4747    -4716    -4752    -4834    -4869    -4827    -4782    -4768 
   -4780    -4822    -4874    -4924    -4996    -5022    -4889    -4632 
   -4456    -4543    -4831    -5082    -5140    -4978    -4733    -4641 
   -4726    -4831    -4874    -4833    -4721    -4607    -4575    -4680 
   -4852    -4982    -5070    -5102    -4985    -4713    -4450    -4427 
   -4723    -5103    -5209    -4989    -4692    -4535    -4614    -4876 
   -5058    -4966    -4701    -4523    -4622    -4955    -5225    -5124 
   -4751    -4519    -4577    -4711    -4753    -4799    -4972    -5114 
   -4991    -4713    -4604    -4736    -4884    -4884    -4774    -4639 
   -4574    -4677    -4945    -5225    -5285    -5001    -4519    -4186 
   -4258    -4617    -4964    -5121    -5046    -4897    -4926    -5104 
   -5189    -5053    -4772    -4498    -4339    -4395    -4639    -4850 
   -4949    -5073    -5153    -4960    -4597    -4425    -4570    -4831 
   -4991    -4989    -4869    -4771    -4838    -4955    -4851    -4585 
   -4515    -4727    -4950    -4985    -4851    -4666    -4645    -4874 
   -5088    -5021    -4754    -4569    -4618    -4820    -5023    -5128 
   -5060    -4783    -4407    -4212    -4399    -4857    -5205    -5148 
   -4851    -4685    -4729    -4820    -4843    -4825    -4848    -4900 
   -4873    -4743    -4649    -4743    -4950    -5004    -4812    -4623 
   -4677    -4874    -5009    -5000    -4851    -4680    -4693    -4929 
   -5166    -5192    -5023    -4758    -4478    -4349    -4492    -4773 
   -5000    -5086    -4992    -4787    -4653    -4691    -4839    -4951 
   -4916    -4810    -4817    -4872    -4757    -4553    -4508    -4652 
   -4831    -4921    -4858    -4655    -4541    -4748    -5099    -5224 
   -5068    -4887    -4872    -4927    -4857    -4682    -4570    -4588 
   -4698    -4818    -4856    -4827    -4762    -4651    -4568    -4637 
   -4874    -5115    -5196    -5095    -4879    -4698    -4671    -4741 
   -4792    -4802    -4809    -4787    -4695    -4631    -4657    -4674 
   -4652    -4693    -4850    -5037    -5131    -5081    -4930    -4785 
   -4746    -4828    -4922    -4892    -4713    -4480    -4356    -4479 
   -4802    -5124    -5259    -5150    -4898    -4701    -4678    -4759 
   -4800    -4770    -4730    -4737    -4811    -4897    -4908    -4886 
   -4871    -4817    -4743    -4719    -4769    -4881    -4974    -4949 
   -4798    -4607    -4491    -4533    -4732    -4962    -5040    -4954 
   -4863    -4869    -4907    -4853    -4683    -4500    -4489    -4746 
   -5078    -5161    -4973    -4775    -4699    -4701    -4756    -4855 
   -4957    -5022    -4991    -4841    -4693    -4648    -4703    -4820 
   -4874    -4755    -4552    -4490    -4683    -4965    -5121    -5159 
   -5128    -4953    -4684    -4544    -4590    -4672    -4684    -4642 
   -4641    -4747    -4894    -4978    -4949    -4806    -4674    -4720 
   -4882    -4940    -4851    -4785    -4864    -4995    -5032    -4931 
   -4738    -4593    -4593    -4690    -4808    -4922    -5057    -5165 
   -5076    -4805    -4614    -4628    -4734    -4834    -4910    -4932 
   -4845    -4708    -4664    -4700    -4721    -4730    -4722    -4677 
   -4645    -4671    -4783    -4953    -5071    -5069    -4996    -4935 
   -4885    -4781    -4677    -4689    -4780    -4851    -4841    -4754 
   -4686    -4690    -4701    -4690    -4722    -4837    -4975    -5001 
   -4876    -4741    -4747    -4876    -4983    -4988    -4927    -4807 
   -4644    -4568    -4655    -4772    -4761    -4692    -4711    -4789 
   -4870    -4954    -4967    -4888    -4863    -4962    -5065    -5053 
   -4913    -4668    -4450    -4469    -4732    -4981    -5002    -4858 
   -4738    -4687    -4715    -4899    -5118    -5161    -5017    -4787 
   -4625    -4645    -4746    -4790    -4771    -4736    -4716    -4689 
   -4665    -4734    -4883    -4945    -4853    -4766    -4812    -4927 
   -5018    -5031    -4894    -4670    -4556    -4616    -4712    -4723 
   -4698    -4737    -4846    -4975    -5060    -4999    -4806    -4679 
   -4678    -4654    -4565    -4528    -4626    -4791    -4870    -4858 
   -4869    -4953    -5109    -5213    -5120    -4914    -4748    -4634 
   -4620    -4759    -4923    -4953    -4825    -4583    -4354    -4371 
   -4695    -5072    -5254    -5236    -5129    -5019    -4919    -4801 
   -4670    -4618    -4716    -4835    -4815    -4703    -4613    -4605 
   -4681    -4727    -4649    -4572    -4701    -5005    -5257    -5334 
   -5248    -5003    -4668    -4466    -4563    -4814    -4918    -4784 
   -4578    -4520    -4694    -4935    -5017    -4910    -4732    -4650 
   -4766    -4984    -5182    -5284    -5197    -4944    -4652    -4426 
   -4371    -4493    -4648    -4722    -4721    -4753    -4879    -4969 
   -4935    -4849    -4763    -4739    -4866    -5032    -5015    -4812 
   -4608    -4535    -4560    -4590    -4615    -4654    -4693    -4731 
   -4764    -4825    -4995    -5203    -5252    -5074    -4811    -4657 
   -4658    -4721    -4766    -4769    -4707    -4590    -4545    -4651 
   -4792    -4877    -4947    -5008    -5004    -4975    -5043    -5137 
   -5054    -4821    -4624    -4585    -4726    -4925    -4991    -4852 
   -4617    -4530    -4706    -4928    -4942    -4789    -4679    -4719 
   -4825    -4875    -4885    -4903    -4897    -4859    -4835    -4819 
   -4776    -4733    -4741    -4775    -4773    -4753    -4768    -4808 
   -4840    -4887    -4980    -5069    -5042    -4904    -4801    -4779 
   -4768    -4778    -4812    -4747    -4539    -4377    -4469    -4755 
   -4990    -5071    -5039    -4924    -4803    -4760    -4725    -4618 
   -4570    -4729    -4962    -5011    -4831    -4593    -4468    -4505 
   -4652    -4852    -5082    -5284    -5324    -5099    -4701    -4395 
   -4383    -4622    -4877    -4963    -4917    -4843    -4777    -4743 
   -4741    -4769    -4853    -4973    -5111    -5225    -5214    -5060 
   -4842    -4659    -4601    -4633    -4638    -4612    -4634    -4750 
   -4946    -5099    -5086    -4978    -4870    -4737    -4601    -4565 
   -4656    -4785    -4886    -4969    -5016    -5010    -4965    -4855 
   -4708    -4628    -4627    -4638    -4616    -4580    -4606    -4716 
   -4798    -4771    -4692    -4659    -4721    -4870    -5048    -5137 
   -5087    -4995    -4892    -4755    -4702    -4795    -4861    -4785 
   -4656    -4596    -4607    -4642    -4707    -4816    -4914    -4970 
   -4990    -4950    -4882    -4865    -4880    -4874    -4866    -4880 
   -4859    -4756    -4649    -4620    -4629    -4651    -4717    -4799 
   -4894    -5037    -5181    -5190    -4977    -4680    -4576    -4704 
   -4828    -4774    -4655    -4680    -4842    -4974    -4917    -4655 
   -4441    -4522    -4864    -5195    -5245    -5011    -4761    -4730 
   -4892    -5003    -4916    -4742    -4617    -4522    -4452    -4466 
   -4557    -4713    -4917    -5077    -5065    -4879    -4755    -4876 
   -5078    -5149    -5046    -4792    -4530    -4467    -4648    -4914 
   -5061    -5054    -4929    -4668    -4435    -4452    -4674    -4888 
   -4987    -5012    -4968    -4806    -4635    -4626    -4774    -4984 
   -5173    -5178    -4851    -4360    -4115    -4304    -4736    -5113 
   -5258    -5126    -4836    -4622    -4625    -4760    -4867    -4922 
   -5025    -5212    -5360    -5309    -5020    -4605    -4263    -4149 
   -4258    -4507    -4801    -5031    -5151    -5159    -5070    -4979 
   -4956    -4926    -4790    -4592    -4502    -4563    -4625    -4631 
   -4673    -4781    -4883    -4908    -4812    -4633    -4542    -4709 
   -5068    -5354    -5387    -5206    -4968    -4746    -4532    -4388 
   -4413    -4598    -4823    -4948    -4957    -4939    -4904    -4806 
   -4718    -4743    -4866    -4984    -4989    -4887    -4782    -4726 
   -4704    -4658    -4532    -4439    -4593    -4923    -5090    -4930 
   -4637    -4504    -4635    -4895    -5075    -5111    -5074    -5034 
   -4990    -4893    -4781    -4748    -4778    -4804    -4813    -4788 
   -4745    -4790    -4957    -5060    -4925    -4672    -4537    -4593 
   -4791    -4986    -4988    -4818    -4704    -4735    -4790    -4789 
   -4762    -4730    -4687    -4647    -4673    -4760    -4796    -4793 
   -4875    -4991    -5017    -4995    -5013    -5068    -5101    -5061 
   -4895    -4590    -4297    -4246    -4448    -4706    -4856    -4840 
   -4757    -4826    -5125    -5453    -5465    -5048    -4564    -4442 
   -4660    -4879    -4871    -4659    -4454    -4461    -4683    -4906 
   -4902    -4707    -4624    -4812    -5083    -5214    -5186    -5075 
   -4941    -4808    -4660    -4501    -4460    -4622    -4762    -4617 
   -4308    -4222    -4482    -4788    -4871    -4790    -4751    -4908 
   -5259    -5625    -5813    -5780    -5595    -5277    -4804    -4299 
   -3954    -3801    -3751    -3785    -3959    -4228    -4421    -4472 
   -4483    -4578    -4835    -5218    -5532    -5578    -5418    -5321 
   -5368    -5357    -5105    -4616    -4047    -3609    -3482    -3748 
   -4290    -4787    -4959    -4817    -4718    -5036    -5687    -6159 
   -6177    -5985    -5887    -5956    -6064    -5956    -5524    -4967 
   -4541    -4222    -3863    -3596    -3721    -4178    -4568    -4735 
   -4875    -5065    -5181    -5118    -4854    -4526    -4404    -4623 
   -4999    -5213    -5206    -5165    -5139    -5017    -4775    -4450 
   -4063    -3741    -3749    -4075    -4329    -4341    -4313    -4384 
   -4516    -4639    -4766    -5029    -5509    -6098    -6502    -6413 
   -5887    -5328    -4931    -4561    -4221    -4039    -3974    -3916 
   -3845    -3888    -4226    -4776    -5276    -5566    -5549    -5323 
   -5223    -5384    -5620    -5698    -5501    -5092    -4584    -4093 
   -3810    -3764    -3813    -3942    -4155    -4290    -4218    -4110 
   -4296    -4810    -5389    -5852    -6076    -5907    -5411    -4950 
   -4869    -5165    -5538    -5698    -5511    -5054    -4535    -4135 
   -3995    -4156    -4491    -4918    -5353    -5546    -5315    -4754 
   -4184    -3943    -4073    -4373    -4605    -4634    -4556    -4526 
   -4640    -4925    -5224    -5375    -5423    -5384    -5165    -4782 
   -4402    -4165    -4097    -4118    -4170    -4337    -4631    -4881 
   -4996    -5017    -4930    -4697    -4379    -4180    -4311    -4806 
   -5494    -5985    -5887    -5219    -4495    -4264    -4542    -4920 
   -5113    -5061    -4848    -4725    -4813    -4949    -5010    -5055 
   -5153    -5306    -5436    -5424    -5270    -5119    -5085    -5108 
   -5034    -4776    -4338    -3815    -3420    -3320    -3492    -3791 
   -4135    -4586    -5156    -5707    -6107    -6235    -6028    -5658 
   -5323    -5011    -4655    -4298    -4081    -4070    -4203    -4383 
   -4456    -4383    -4419    -4762    -5297    -5754    -5916    -5773 
   -5451    -5102    -4915    -4923    -4924    -4787    -4502    -4126 
   -3864    -3885    -4111    -4344    -4442    -4424    -4437    -4590 
   -4860    -5131    -5262    -5202    -5061    -5006    -5087    -5224 
   -5280    -5130    -4758    -4361    -4266    -4556    -4930    -5114 
   -5133    -5113    -5119    -5137    -5106    -5018    -4888    -4744 
   -4675    -4702    -4749    -4742    -4634    -4480    -4425    -4475 
   -4464    -4328    -4217    -4262    -4448    -4737    -5073    -5335 
   -5441    -5409    -5371    -5447    -5561    -5490    -5125    -4605 
   -4157    -3900    -3853    -3946    -4048    -4143    -4332    -4605 
   -4821    -4985    -5247    -5587    -5833    -5900    -5755    -5449 
   -5124    -4826    -4583    -4459    -4466    -4550    -4568    -4407 
   -4184    -4139    -4392    -4797    -5133    -5323    -5355    -5244 
   -5039    -4819    -4700    -4662    -4581    -4491    -4501    -4638 
   -4918    -5279    -5501    -5441    -5199    -4929    -4736    -4654 
   -4629    -4603    -4553    -4495    -4421    -4277    -4181    -4346 
   -4694    -4964    -5079    -5147    -5236    -5313    -5345    -5279 
   -5031    -4688    -4465    -4371    -4261    -4150    -4171    -4358 
   -4629    -4921    -5224    -5515    -5733    -5828    -5758    -5493 
   -5067    -4607    -4322    -4288    -4316    -4256    -4147    -4092 
   -4168    -4343    -4547    -4722    -4808    -4886    -5055    -5235 
   -5319    -5274    -5135    -4959    -4788    -4697    -4725    -4780 
   -4826    -4940    -5080    -5114    -4974    -4700    -4432    -4291 
   -4341    -4554    -4796    -4978    -5107    -5225    -5334    -5354 
   -5251    -5127    -5067    -5015    -4820    -4462    -4128    -3957 
   -3946    -4056    -4225    -4424    -4696    -4977    -5157    -5255 
   -5332    -5404    -5430    -5365    -5252    -5132    -4969    -4744 
   -4517    -4374    -4348    -4405    -4502    -4610    -4713    -4847 
   -4996    -5043    -4948    -4794    -4680    -4657    -4693    -4706 
   -4681    -4667    -4694    -4699    -4610    -4517    -4563    -4743 
   -4961    -5132    -5224    -5265    -5243    -5132    -4983    -4871 
   -4878    -4972    -4951    -4771    -4621    -4629    -4807    -5045 
   -5163    -5154    -5097    -5018    -4954    -4845    -4581    -4237 
   -4027    -4058    -4245    -4475    -4716    -4941    -5095    -5100 
   -4952    -4823    -4835    -4862    -4810    -4786    -4890    -5040 
   -5068    -4931    -4731    -4593    -4593    -4696    -4797    -4837 
   -4888    -5056    -5277    -5363    -5214    -4904    -4629    -4519 
   -4493    -4469    -4554    -4798    -5031    -5075    -4896    -4626 
   -4432    -4328    -4295    -4352    -4421    -4467    -4550    -4668 
   -4823    -5009    -5147    -5219    -5279    -5341    -5405    -5442 
   -5384    -5217    -4958    -4625    -4326    -4185    -4219    -4327 
   -4447    -4648    -4931    -5163    -5281    -5356    -5422    -5361 
   -5104    -4824    -4649    -4531    -4464    -4472    -4498    -4498 
   -4531    -4632    -4707    -4661    -4556    -4557    -4723    -4937 
   -5050    -5000    -4845    -4773    -4873    -4985    -4946    -4798 
   -4673    -4652    -4734    -4878    -5031    -5138    -5191    -5200 
   -5146    -5049    -4928    -4734    -4526    -4456    -4504    -4537 
   -4516    -4509    -4597    -4726    -4773    -4719    -4636    -4623 
   -4740    -4926    -5088    -5176    -5148    -5055    -5013    -5026 
   -4989    -4827    -4569    -4332    -4206    -4203    -4322    -4526 
   -4770    -5024    -5233    -5320    -5231    -5009    -4785    -4658 
   -4680    -4846    -5045    -5101    -4938    -4718    -4730    -5025 
   -5349    -5492    -5416    -5142    -4757    -4378    -4130    -4110 
   -4293    -4562    -4797    -4888    -4833    -4762    -4751    -4794 
   -4898    -5012    -5004    -4840    -4696    -4711    -4803    -4883 
   -4966    -4992    -4868    -4683    -4583    -4559    -4530    -4497 
   -4481    -4440    -4399    -4545    -4909    -5206    -5226    -5061 
   -4913    -4894    -4933    -4920    -4908    -4949    -4943    -4866 
   -4853    -4962    -5058    -4989    -4801    -4687    -4717    -4758 
   -4742    -4809    -4973    -5009    -4886    -4845    -4915    -4874 
   -4693    -4604    -4712    -4804    -4723    -4631    -4688    -4805 
   -4869    -4858    -4795    -4722    -4676    -4749    -5020    -5291 
   -5244    -4919    -4662    -4685    -4889    -5031    -5068    -5147 
