Origin Time       2024/06/23 22:54:00
Lat.              35.645
Long.             140.060
Depth. (km)       72
Mag.              4.1
Station Code      SITH11
Station Lat.      35.8637
Station Long.     139.2726
Station Height(m) 53.5
Record Time       2024/06/23 22:54:52
Sampling Freq(Hz) 100Hz
Duration Time(s)  120
Dir.              3
Scale Factor      2942(gal)/8224139
Max. Acc. (gal)   0.116
Last Correction   2024/06/23 22:54:52
Memo.             
[...]
     774      776      777      777      777      777      776      774 
     774      776      777      777      777      777      776      776 
     778      777      776      777      777      776      776      777 
     777      778      777      774      776      780      778      777 
     777      777      777      776      776      776      776      778 
     778      776      774      774      776      777      776      777 
     777      776      777      777      776      776      776      774 
     774      777      778      774      774      778      781      777 
     776      777      777      776      776      778      778      776 
     776      778      776      773      774      776      777      777 
     774      776      778      774      772      774      777      777 
     774      774      776      777      777      776      776      776 
     776      777      777      777      777      777      778      778 
     774      774      778      777      776      777      777      777 
     776      776      774      773      777      777      774      774 
     774      777      777      776      777      774      774      778 
     777      774      778      778      774      776      777      776 
     777      778      776      776      777      776      774      777 
     776      777      778      776      774      778      778      776 
     777      776      773      774      776      776      774      774 
     778      778      776      776      777      774      770      769 
     769      764      761      761      760      760      757      757 
     760      764      769      774      778      785      788      793 
     799      793      785      783      780      776      778      781 
     770      756      741      720      699      675      652      646 
     668      700      735      766      800      839      874      900 
     920      920      895      858      823      785      750      704 
     639      600      630      697      753      791      841      904 
     965     1027     1062     1031      965      904      832      739 
     648      576      517      496      534      627      751      820 
     834      915     1043     1089     1050     1013     1000     1007 
    1015      913      692      548      595      702      697      603 
     562      621      726      791      714      607      660      781 
     774      677      653      704      722      666      625      693 
     822      845      711      599      670      820      892      874 
     831      830      868      880      843      814      826      830 
     838      876      874      815      781      808      811      762 
     753      776      787      816      785      675      639      715 
     792      807      801      804      758      676      664      715 
     769      826      820      731      699      760      800      824 
     878      896      830      745      733      796      855      843 
     746      650      687      808      832      733      692      811 
     931      853      684      681      783      746      642      693 
     832      865      772      676      712      873      967      904 
     812      819      895      884      742      675      793      876 
     742      612      676      768      731      662      719      845 
     843      750      761      842      862      859      858      800 
     737      716      679      664      739      772      692      658 
     743      843      851      777      742      816      897      904 
     885      854      781      720      724      770      784      714 
     648      695      778      768      691      679      764      847 
     869      849      808      789      819      837      778      716 
     746      818      801      741      772      819      773      730 
     756      776      765      768      768      722      684      730 
     792      751      660      679      823      913      857      773 
     792      880      905      804      711      773      865      822 
     714      666      689      702      664      664      753      818 
     793      774      816      847      858      866      838      799 
     816      861      851      814      801      777      733      716 
     733      756      756      737      764      824      816      742 
     718      783      838      827      793      805      885      903 
     784      710      784      830      758      700      722      772 
     812      822      770      695      689      758      800      789 
     773      789      816      799      743      716      761      838 
     854      823      837      870      839      749      688      718 
     769      774      780      769      700      666      710      738 
     731      745      778      795      776      750      760      808 
     850      854      832      824      885      939      857      706 
     623      625      669      708      697      668      664      706 
     778      822      793      754      765      814      841      805 
     731      685      679      700      741      745      738      805 
     901      955      986     1011     1021     1007      928      834 
     814      805      722      649      631      600      596      673 
     749      769      754      742      785      872      926      918 
     859      791      781      808      791      727      676      668 
     693      719      729      741      773      803      815      830 
     859      882      868      818      770      762      792      810 
     765      696      675      684      683      675      653      634 
     664      710      730      773      834      861      853      827 
     819      818      766      724      750      769      712      656 
     699      788      808      788      820      882      892      838 
     788      793      826      828      788      722      693      750 
     818      822      811      839      846      812      815      850 
     834      765      718      703      670      618      604      645 
     700      753      787      774      778      854      924      913 
     870      841      801      757      730      729      749      777 
     795      810      819      822      822      803      799      838 
     845      811      810      805      742      697      753      819 
     780      695      684      733      769      769      735      712 
     749      812      861      903      903      835      761      742 
     777      778      696      662      734      757      712      708 
     745      769      764      764      818      861      824      801 
     835      849      826      777      697      666      766      877 
     815      649      618      753      837      756      645      679 
     820      928      957      916      862      866      886      835 
     727      631      611      677      708      648      622      708 
     842      939      949      903      895      912      853      762 
     762      787      739      666      643      687      745      777 
     822      857      815      742      726      805      938     1004 
     947      851      787      719      653      642      645      614 
     596      610      592      537      567      702      784      778 
     784      837      920      980      935      828      792      853 
     907      909      899      885      896      938      913      804 
     731      729      733      735      712      635      606      715 
     843      837      753      727      758      781      765      757 
     808      830      724      600      625      738      761      699 
     675      699      738      792      818      777      724      751 
     816      808      762      768      788      787      791      815 
     853      895      946      982      940      828      749      756 
     810      826      757      680      675      711      766      841 
     885      851      765      716      773      891      938      869 
     796      815      882      861      724      634      669      702 
     630      554      589      672      670      611      608      702 
     808      862      909      966      974      913      828      773 
     787      851      882      830      720      650      692      754 
     743      710      702      719      792      895      909      812 
     733      769      839      831      785      774      781      757 
     699      649      654      695      699      684      700      723 
     727      737      762      800      823      811      800      837 
     868      849      816      784      769      818      870      859 
     818      787      787      811      811      783      766      776 
     793      770      702      660      681      697      676      676 
     749      831      843      783      737      805      930      950 
     886      865      868      853      835      831      832      797 
     734      707      710      697      664      654      700      749 
     750      743      772      822      862      897      924      900 
     837      789      764      749      734      692      639      645 
     731      807      804      774      774      761      715      718 
     785      815      750      673      702      847      949      866 
     722      685      723      764      803      807      780      774 
     801      818      800      792      804      793      766      739 
     697      660      684      765      804      776      777      824 
     868      893      850      722      634      673      743      768 
     769      739      685      680      750      832      843      793 
     789      850      870      832      814      838      838      774 
     743      814      884      873      818      793      811      824 
     811      758      711      751      808      757      680      692 
     735      729      737      796      808      749      719      757 
     803      784      720      719      783      819      804      777 
     778      815      842      835      799      757      741      749 
     753      731      711      735      756      754      770      776 
     773      820      878      869      815      811      861      889 
     864      803      780      807      773      683      687      768 
     804      785      730      696      760      811      753      685 
     679      704      723      711      716      776      799      758 
     756      801      837      854      819      726      712      812 
     850      758      692      753      850      874      842      797 
     787      837      886      857      765      692      719      814 
     846      791      750      797      886      891      799      756 
     801      838      822      765      685      650      673      700 
     700      664      625      639      687      710      729      796 
     857      832      792      800      824      846      839      787 
     743      761      803      828      849      869      858      797 
     720      666      660      724      800      804      760      718 
     722      792      861      849      785      791      881      900 
     791      711      756      826      827      769      706      704 
     778      834      769      642      629      727      751      681 
     680      754      777      756      778      842      889      909 
     920      904      865      853      855      814      741      693 
     699      716      707      695      741      835      889      868 
     838      830      818      815      797      724      680      724 
     731      654      626      692      745      723      723      819 
     922      936      912      926      951      946      919      859 
     746      649      633      653      648      638      642      631 
     626      688      784      824      793      742      758      841 
     892      873      807      733      711      760      815      808 
     781      826      895      878      808      785      805      789 
     734      712      724      718      716      753      749      714 
     749      793      783      797      841      868      904      930 
     908      872      839      795      765      774      774      722 
     677      700      738      738      724      697      657      668 
     742      800      793      757      770      824      820      777 
     792      854      888      882      837      773      743      774 
     826      816      751      733      756      749      712      668 
     622      608      650      702      710      712      754      783 
     762      743      765      808      807      749      737      799 
     811      758      746      783      815      847      861      816 
     757      764      814      812      745      693      699      731 
     749      756      781      801      811      850      928      986 
     980      945      938      927      880      869      899      839 
     711      666      703      715      687      662      661      672 
     693      730      730      688      714      781      754      699 
     704      715      738      796      837      872      926      923 
     835      773      828      922      915      826      777      795 
     776      706      710      791      801      684      569      614 
     787      911      919      896      899      919      927      881 
     765      626      552      546      515      454      475      567 
     606      592      627      696      758      835      896      923 
     947      977      997      994      973      965      940      855 
     785      777      785      804      835      841      828      845 
     878      899      903      891      878      857      814      788 
     769      733      689      622      561      587      654      704 
     720      687      639      622      599      571      596      661 
     704      707      697      723      795      847      858      881 
     932      970      954      880      828      872      912      854 
     774      761      792      822      811      737      666      692 
     791      884      913      873      820      810      816      795 
     751      742      780      824      839      793      710      662 
     670      688      708      723      712      696      677      649 
     630      638      660      675      697      733      774      819 
     827      789      769      789      807      805      835      903 
     904      811      751      783      823      839      865      889 
     869      845      873      896      835      730      708      792 
     849      807      757      783      826      756      611      568 
     650      714      695      673      699      750      810      847 
     827      778      784      854      882      818      750      751 
     772      730      673      697      778      815      793      793 
     849      908      936      940      955      984      965      900 
     864      849      819      780      742      723      716      685 
     643      639      656      649      610      561      545      562 
     573      584      621      665      699      734      785      830 
     843      827      816      845      886      907      919      945 
     966      942      882      851      862      859      820      803 
     828      858      881      888      859      793      719      683 
     652      588      581      677      774      799      776      756 
     760      753      719      684      677      708      757      774 
     760      805      918      962      897      826      808      824 
     831      785      699      646      652      675      689      712 
     751      781      799      804      795      804      843      864 
     838      804      789      780      747      710      715      749 
     758      774      827      864      857      837      824      822 
     818      801      772      729      720      774      797      723 
     669      722      791      793      777      788      810      824 
     820      793      753      719      712      726      739      757 
     764      750      743      746      743      741      773      837 
     862      838      834      859      835      746      688      696 
     685      642      649      699      747      789      803      800 
     824      855      853      823      791      789      822      824 
     795      827      888      869      810      818      893      934 
     877      807      801      820      795      731      706      738 
     750      734      734      704      646      642      662      641 
     631      673      729      764      756      734      766      823 
     846      839      828      808      777      772      783      768 
     760      774      766      761      793      811      801      812 
     824      816      824      853      864      847      831      835 
     827      783      719      676      672      676      637      596 
     634      735      814      832      837      861      888      901 
     908      915      905      861      826      843      868      843 
     795      769      769      758      708      648      619      616 
     612      631      676      714      762      835      874      853 
     823      818      830      865      865      807      768      768 
     765      773      804      803      746      706      743      810 
     818      776      764      815      870      843      769      747 
     764      773      793      791      735      684      675      688 
     692      702      756      781      723      673      687      720 
     733      708      695      733      781      807      831      869 
     892      882      850      828      845      857      811      765 
     776      811      826      801      756      733      770      818 
     803      765      766      785      783      776      787      800 
     811      832      855      855      791      693      653      665 
     692      746      791      797      824      884      888      835 
     800      800      808      803      780      761      754      761 
     770      745      706      696      695      695      706      722 
     758      787      776      774      791      781      768      785 
     810      816      808      805      792      742      710      737 
     778      791      780      777      791      803      801      788 
     787      808      822      831      854      855      853      882 
     895      851      788      737      731      778      797      766 
     746      723      662      625      652      677      643      612 
     642      692      723      754      784      787      792      838 
     868      838      814      824      823      811      822      838 
     827      795      776      795      816      824      850      868 
     828      761      738      749      727      687      706      769 
     803      795      793      816      820      785      754      756 
     785      822      837      834      835      819      770      722 
     692      684      689      704      734      787      831      842 
     841      843      832      824      834      814      749      699 
