Origin Time       2024/06/23 22:54:00
Lat.              35.645
Long.             140.060
Depth. (km)       72
Mag.              4.1
Station Code      SITH11
Station Lat.      35.8637
Station Long.     139.2726
Station Height(m) 155
Record Time       2024/06/23 22:54:52
Sampling Freq(Hz) 100Hz
Duration Time(s)  120
Dir.              5
Scale Factor      7845(gal)/8223790
Max. Acc. (gal)   3.334
Last Correction   2024/06/23 22:54:52
Memo.             
[...]
   -6459    -6459    -6462    -6463    -6463    -6461    -6455    -6457 
   -6459    -6458    -6455    -6455    -6457    -6457    -6458    -6459 
   -6458    -6458    -6461    -6463    -6463    -6461    -6461    -6463 
   -6462    -6459    -6454    -6451    -6457    -6462    -6461    -6463 
   -6469    -6466    -6462    -6459    -6455    -6454    -6454    -6454 
   -6458    -6462    -6461    -6461    -6463    -6463    -6461    -6462 
   -6459    -6453    -6453    -6455    -6457    -6458    -6459    -6459 
   -6461    -6463    -6463    -6463    -6463    -6461    -6458    -6458 
   -6458    -6458    -6457    -6454    -6457    -6462    -6471    -6471 
   -6454    -6451    -6466    -6462    -6448    -6448    -6450    -6457 
   -6462    -6457    -6463    -6475    -6466    -6455    -6461    -6459 
   -6451    -6459    -6461    -6455    -6461    -6465    -6465    -6463 
   -6459    -6457    -6458    -6458    -6458    -6459    -6461    -6461 
   -6459    -6461    -6461    -6458    -6459    -6462    -6463    -6463 
   -6461    -6457    -6459    -6461    -6458    -6457    -6454    -6455 
   -6459    -6461    -6461    -6462    -6462    -6462    -6459    -6455 
   -6454    -6454    -6455    -6461    -6463    -6461    -6463    -6466 
   -6462    -6462    -6462    -6455    -6453    -6457    -6457    -6457 
   -6458    -6462    -6465    -6462    -6459    -6458    -6454    -6455 
   -6465    -6462    -6440    -6447    -6477    -6474    -6454    -6463 
   -6467    -6457    -6459    -6458    -6451    -6458    -6458    -6454 
   -6466    -6470    -6459    -6461    -6469    -6461    -6451    -6455 
   -6457    -6454    -6455    -6461    -6462    -6461    -6463    -6467 
   -6462    -6458    -6459    -6459    -6458    -6458    -6461    -6462 
   -6461    -6461    -6462    -6462    -6461    -6459    -6457    -6455 
   -6454    -6454    -6458    -6462    -6461    -6459    -6459    -6459 
   -6461    -6462    -6461    -6459    -6461    -6459    -6459    -6462 
   -6461    -6459    -6461    -6459    -6459    -6461    -6462    -6458 
   -6455    -6457    -6457    -6455    -6457    -6461    -6462    -6459 
   -6459    -6461    -6459    -6459    -6457    -6458    -6462    -6463 
   -6462    -6459    -6455    -6454    -6450    -6444    -6443    -6446 
   -6447    -6451    -6459    -6463    -6465    -6469    -6471    -6470 
   -6474    -6478    -6475    -6473    -6473    -6469    -6457    -6446 
   -6442    -6444    -6453    -6466    -6474    -6463    -6432    -6388 
   -6338    -6303    -6296    -6323    -6384    -6467    -6552    -6632 
   -6689    -6704    -6685    -6651    -6608    -6559    -6507    -6440 
   -6362    -6286    -6224    -6183    -6162    -6169    -6214    -6299 
   -6413    -6539    -6650    -6725    -6771    -6799    -6826    -6847 
   -6826    -6724    -6527    -6278    -6050    -5896    -5853    -5917 
   -6077    -6305    -6536    -6716    -6818    -6824    -6752    -6689 
   -6689    -6716    -6732    -6725    -6662    -6516    -6308    -6085 
   -5910    -5859    -5979    -6215    -6442    -6565    -6552    -6453 
   -6378    -6421    -6561    -6687    -6751    -6774    -6723    -6552 
   -6312    -6122    -6096    -6281    -6574    -6808    -6894    -6836 
   -6675    -6466    -6308    -6305    -6407    -6434    -6305    -6111 
   -5991    -5998    -6079    -6197    -6385    -6635    -6882    -7063 
   -7105    -7007    -6858    -6658    -6394    -6195    -6139    -6158 
   -6162    -6124    -6104    -6131    -6199    -6361    -6582    -6712 
   -6700    -6597    -6488    -6484    -6619    -6789    -6891    -6874 
   -6732    -6532    -6377    -6328    -6324    -6232    -6079    -5972 
   -5935    -6035    -6300    -6579    -6775    -6860    -6791    -6667 
   -6596    -6538    -6477    -6412    -6304    -6226    -6262    -6358 
   -6416    -6408    -6372    -6373    -6461    -6601    -6694    -6704 
   -6691    -6689    -6624    -6511    -6482    -6546    -6554    -6427 
   -6243    -6129    -6131    -6192    -6253    -6320    -6400    -6482 
   -6548    -6562    -6538    -6524    -6512    -6511    -6586    -6727 
   -6810    -6744    -6570    -6403    -6288    -6192    -6124    -6126 
   -6180    -6226    -6232    -6254    -6389    -6625    -6821    -6875 
   -6836    -6797    -6782    -6764    -6747    -6731    -6639    -6386 
   -6011    -5711    -5651    -5752    -5879    -6048    -6277    -6517 
   -6733    -6891    -6982    -7074    -7169    -7184    -7086    -6906 
   -6662    -6358    -6038    -5775    -5626    -5625    -5773    -6007 
   -6222    -6405    -6589    -6751    -6839    -6862    -6894    -6929 
   -6878    -6744    -6600    -6450    -6297    -6161    -6043    -6000 
   -6104    -6311    -6509    -6636    -6697    -6708    -6656    -6539 
   -6447    -6473    -6543    -6521    -6388    -6238    -6154    -6110 
   -6070    -6124    -6342    -6602    -6748    -6764    -6737    -6745 
   -6770    -6760    -6762    -6812    -6812    -6642    -6370    -6145 
   -5977    -5838    -5814    -5945    -6141    -6330    -6459    -6471 
   -6435    -6493    -6654    -6847    -7020    -7114    -7072    -6902 
   -6671    -6474    -6370    -6320    -6241    -6102    -5950    -5871 
   -5906    -6021    -6193    -6443    -6727    -6897    -6882    -6781 
   -6685    -6571    -6448    -6374    -6354    -6323    -6265    -6250 
   -6331    -6498    -6681    -6790    -6817    -6821    -6806    -6723 
   -6558    -6374    -6216    -6072    -5937    -5849    -5865    -5985 
   -6161    -6359    -6527    -6651    -6828    -7029    -7113    -7098 
   -7042    -6921    -6763    -6602    -6431    -6258    -6103    -5969 
   -5861    -5807    -5846    -5967    -6119    -6264    -6397    -6548 
   -6731    -6898    -6970    -6918    -6812    -6716    -6628    -6512 
   -6376    -6270    -6219    -6205    -6247    -6384    -6586    -6731 
   -6720    -6604    -6480    -6367    -6278    -6245    -6288    -6403 
   -6515    -6539    -6465    -6353    -6276    -6292    -6419    -6596 
   -6739    -6806    -6778    -6655    -6473    -6326    -6259    -6224 
   -6246    -6358    -6462    -6467    -6376    -6245    -6180    -6223 
   -6315    -6458    -6663    -6822    -6832    -6720    -6613    -6612 
   -6685    -6720    -6674    -6589    -6515    -6424    -6261    -6048 
   -5876    -5840    -5950    -6131    -6332    -6556    -6766    -6890 
   -6879    -6786    -6735    -6739    -6694    -6559    -6404    -6316 
   -6289    -6219    -6072    -5953    -5950    -6062    -6245    -6459 
   -6675    -6864    -6993    -7010    -6899    -6744    -6647    -6629 
   -6632    -6577    -6442    -6259    -6065    -5918    -5873    -5908 
   -5987    -6151    -6377    -6543    -6636    -6725    -6805    -6826 
   -6763    -6655    -6604    -6662    -6720    -6651    -6477    -6295 
   -6156    -6097    -6164    -6326    -6477    -6539    -6492    -6400 
   -6377    -6440    -6531    -6601    -6640    -6643    -6588    -6454 
   -6282    -6174    -6173    -6242    -6350    -6478    -6609    -6723 
   -6778    -6766    -6729    -6698    -6666    -6602    -6470    -6291 
   -6130    -6039    -6006    -6002    -6046    -6156    -6297    -6470 
   -6669    -6821    -6889    -6909    -6890    -6801    -6662    -6534 
   -6430    -6330    -6230    -6146    -6150    -6286    -6463    -6551 
   -6532    -6444    -6346    -6313    -6366    -6454    -6516    -6528 
   -6517    -6539    -6589    -6619    -6620    -6621    -6578    -6439 
   -6289    -6278    -6408    -6517    -6496    -6376    -6235    -6116 
   -6061    -6122    -6307    -6559    -6793    -6951    -7051    -7099 
   -6984    -6650    -6222    -5886    -5763    -5860    -6065    -6265 
   -6446    -6602    -6702    -6743    -6743    -6728    -6717    -6700 
   -6669    -6592    -6453    -6323    -6265    -6265    -6274    -6266 
   -6284    -6359    -6436    -6455    -6413    -6362    -6330    -6308 
   -6315    -6401    -6585    -6794    -6917    -6906    -6762    -6490 
   -6150    -5895    -5875    -6066    -6305    -6498    -6675    -6843 
   -6937    -6929    -6844    -6717    -6550    -6326    -6106    -6007 
   -6064    -6215    -6401    -6563    -6675    -6745    -6799    -6821 
   -6725    -6459    -6126    -5906    -5863    -5908    -5999    -6187 
   -6453    -6690    -6825    -6872    -6880    -6863    -6810    -6706 
   -6531    -6385    -6386    -6482    -6577    -6585    -6444    -6238 
   -6076    -5995    -6030    -6165    -6315    -6440    -6525    -6558 
   -6590    -6714    -6894    -6952    -6837    -6691    -6628    -6606 
   -6517    -6346    -6174    -6056    -5992    -5975    -6008    -6139 
   -6382    -6637    -6787    -6799    -6696    -6531    -6365    -6193 
   -6018    -5952    -6112    -6477    -6859    -7088    -7138    -7034 
   -6836    -6669    -6616    -6658    -6721    -6704    -6538    -6257 
   -5930    -5670    -5590    -5610    -5672    -5875    -6193    -6507 
   -6752    -6910    -7032    -7153    -7207    -7141    -7007    -6890 
   -6810    -6685    -6453    -6211    -6095    -6102    -6120    -6088 
   -6029    -5957    -5886    -5876    -5995    -6219    -6450    -6608 
   -6701    -6785    -6882    -6967    -6994    -6952    -6891    -6848 
   -6816    -6756    -6640    -6475    -6278    -6073    -5944    -5913 
   -5911    -5919    -5967    -6046    -6122    -6181    -6264    -6407 
   -6610    -6801    -6886    -6925    -6995    -7032    -7024    -7002 
   -6932    -6825    -6697    -6527    -6338    -6130    -5890    -5699 
   -5644    -5711    -5853    -6022    -6177    -6303    -6397    -6469 
   -6559    -6716    -6929    -7155    -7334    -7414    -7344    -7115 
   -6793    -6494    -6291    -6173    -6085    -5998    -5929    -5896 
   -5886    -5890    -5960    -6129    -6286    -6330    -6342    -6443 
   -6636    -6851    -7003    -7047    -6997    -6883    -6728    -6577 
   -6485    -6450    -6457    -6505    -6535    -6484    -6359    -6193 
   -6019    -5880    -5833    -5949    -6215    -6508    -6725    -6825 
   -6791    -6647    -6471    -6384    -6473    -6647    -6712    -6636 
   -6555    -6565    -6636    -6682    -6633    -6485    -6266    -6054 
   -5987    -6149    -6442    -6658    -6658    -6521    -6432    -6431 
   -6432    -6408    -6361    -6259    -6106    -6004    -6069    -6332 
   -6751    -7153    -7304    -7150    -6845    -6542    -6292    -6108 
   -6012    -6035    -6183    -6403    -6635    -6790    -6791    -6647 
   -6427    -6266    -6292    -6417    -6471    -6423    -6316    -6222 
   -6192    -6212    -6254    -6318    -6372    -6413    -6489    -6597 
   -6714    -6828    -6905    -6906    -6817    -6713    -6673    -6658 
   -6597    -6471    -6315    -6169    -6030    -5900    -5817    -5800 
   -5863    -6015    -6242    -6498    -6760    -6983    -7103    -7109 
   -7041    -6934    -6804    -6663    -6539    -6447    -6351    -6234 
   -6153    -6165    -6259    -6370    -6430    -6443    -6436    -6390 
   -6309    -6223    -6170    -6196    -6243    -6269    -6328    -6457 
   -6620    -6754    -6824    -6851    -6880    -6925    -6926    -6799 
   -6555    -6301    -6129    -6049    -6030    -6060    -6120    -6158 
   -6154    -6145    -6173    -6286    -6473    -6627    -6694    -6735 
   -6821    -6934    -6987    -6937    -6826    -6702    -6589    -6467 
   -6313    -6164    -6054    -5994    -5983    -6029    -6134    -6291 
   -6467    -6596    -6632    -6633    -6643    -6600    -6493    -6419 
   -6442    -6529    -6633    -6709    -6762    -6797    -6763    -6633 
   -6447    -6278    -6183    -6149    -6150    -6170    -6196    -6239 
   -6339    -6482    -6606    -6667    -6660    -6610    -6529    -6401 
   -6250    -6170    -6227    -6378    -6547    -6687    -6764    -6772 
   -6755    -6732    -6678    -6558    -6380    -6212    -6120    -6134 
   -6265    -6443    -6573    -6616    -6558    -6416    -6297    -6281 
   -6346    -6401    -6372    -6284    -6251    -6324    -6446    -6570 
   -6687    -6754    -6744    -6724    -6727    -6724    -6685    -6593 
   -6446    -6276    -6147    -6108    -6146    -6178    -6172    -6191 
   -6269    -6373    -6525    -6755    -6988    -7101    -7021    -6791 
   -6524    -6324    -6234    -6201    -6133    -6029    -5984    -6049 
   -6230    -6489    -6741    -6903    -6933    -6841    -6687    -6542 
   -6442    -6373    -6316    -6262    -6219    -6216    -6280    -6372 
   -6413    -6384    -6330    -6299    -6318    -6405    -6546    -6704 
   -6839    -6905    -6898    -6870    -6875    -6879    -6787    -6602 
   -6390    -6153    -5898    -5691    -5589    -5620    -5745    -5918 
   -6154    -6435    -6647    -6763    -6871    -7026    -7198    -7323 
   -7342    -7192    -6878    -6492    -6151    -5941    -5877    -5921 
   -6014    -6137    -6268    -6365    -6397    -6358    -6249    -6108 
   -6033    -6070    -6183    -6347    -6571    -6818    -7013    -7090 
   -7064    -7001    -6947    -6924    -6916    -6907    -6895    -6837 
   -6670    -6385    -6043    -5749    -5552    -5439    -5421    -5530 
   -5724    -5918    -6134    -6404    -6654    -6844    -7018    -7200 
   -7333    -7330    -7200    -7007    -6777    -6500    -6212    -5973 
   -5809    -5757    -5848    -6050    -6323    -6625    -6849    -6882 
   -6731    -6500    -6315    -6227    -6210    -6261    -6393    -6524 
   -6567    -6544    -6538    -6598    -6723    -6898    -7126    -7398 
   -7674    -7867    -7861    -7577    -7033    -6377    -5780    -5312 
   -4958    -4692    -4518    -4438    -4422    -4471    -4606    -4831 
   -5206    -5822    -6650    -7587    -8529    -9320    -9799    -9954 
   -9823    -9360    -8613    -7777    -6983    -6231    -5498    -4819 
   -4256    -3855    -3619    -3543    -3663    -3986    -4453    -5032 
   -5724    -6515    -7369    -8186    -8802    -9120    -9163    -8991 
   -8652    -8194    -7647    -7015    -6307    -5606    -5089    -4881 
   -4899    -4989    -5093    -5209    -5358    -5540    -5741    -6008 
   -6350    -6659    -6848    -6905    -6887    -6893    -6974    -7137 
   -7327    -7411    -7342    -7256    -7246    -7218    -7086    -6883 
   -6620    -6301    -6004    -5751    -5548    -5482    -5532    -5582 
   -5606    -5659    -5767    -5921    -6122    -6354    -6547    -6667 
   -6772    -6897    -6984    -6972    -6921    -6934    -7022    -7129 
   -7207    -7215    -7140    -6994    -6818    -6648    -6511    -6463 
   -6505    -6494    -6295    -5886    -5374    -4963    -4772    -4765 
   -4932    -5329    -5941    -6625    -7194    -7541    -7670    -7631 
   -7481    -7308    -7177    -7113    -7122    -7169    -7122    -6859 
   -6408    -5910    -5502    -5271    -5215    -5269    -5432    -5707 
   -6022    -6308    -6520    -6632    -6689    -6740    -6798    -6858 
   -6956    -7161    -7469    -7763    -7900    -7808    -7489    -6971 
   -6303    -5599    -5026    -4699    -4653    -4828    -5135    -5502 
   -5891    -6288    -6686    -7042    -7329    -7566    -7743    -7813 
   -7758    -7585    -7315    -6991    -6648    -6316    -6019    -5755 
   -5536    -5414    -5391    -5432    -5540    -5755    -6056    -6345 
   -6527    -6574    -6538    -6474    -6386    -6326    -6400    -6610 
   -6866    -7142    -7454    -7778    -8048    -8137    -7977    -7604 
   -7084    -6496    -5902    -5300    -4699    -4183    -3843    -3805 
   -4214    -5049    -6079    -7038    -7738    -8097    -8128    -7936 
   -7682    -7473    -7308    -7160    -7007    -6832    -6623    -6353 
   -5996    -5616    -5355    -5317    -5524    -5927    -6403    -6818 
   -7132    -7304    -7257    -6993    -6631    -6282    -5940    -5595 
   -5344    -5279    -5386    -5598    -5914    -6354    -6802    -7136 
   -7391    -7587    -7655    -7588    -7426    -7253    -7138    -7067 
   -7007    -6929    -6756    -6423    -5967    -5505    -5131    -4854 
   -4668    -4638    -4839    -5211    -5659    -6166    -6728    -7260 
   -7655    -7844    -7840    -7730    -7607    -7514    -7412    -7238 
   -6967    -6628    -6295    -6018    -5803    -5667    -5638    -5690 
   -5798    -5962    -6154    -6335    -6486    -6571    -6571    -6482 
   -6292    -6049    -5884    -5934    -6242    -6723    -7242    -7743 
   -8137    -8247    -7989    -7438    -6752    -6069    -5437    -4926 
   -4666    -4708    -4976    -5347    -5726    -6060    -6328    -6544 
   -6762    -6995    -7209    -7393    -7535    -7569    -7458    -7242 
   -6971    -6675    -6351    -6019    -5759    -5644    -5675    -5807 
   -6003    -6249    -6498    -6633    -6574    -6380    -6178    -6068 
   -6093    -6253    -6517    -6821    -7086    -7264    -7366    -7429 
   -7454    -7422    -7319    -7133    -6822    -6363    -5838    -5363 
   -4963    -4622    -4388    -4380    -4693    -5300    -6066    -6864 
   -7592    -8127    -8386    -8397    -8225    -7916    -7520    -7099 
   -6706    -6366    -6064    -5798    -5579    -5429    -5363    -5348 
   -5336    -5371    -5539    -5830    -6172    -6512    -6828    -7114 
   -7379    -7612    -7771    -7825    -7761    -7580    -7312    -6991 
   -6625    -6238    -5876    -5564    -5292    -5032    -4789    -4649 
   -4691    -4914    -5324    -5949    -6781    -7688    -8417    -8806 
   -8843    -8563    -8048    -7427    -6782    -6181    -5724    -5414 
   -5206    -5107    -5135    -5290    -5516    -5717    -5904    -6164 
   -6525    -6940    -7279    -7442    -7422    -7253    -7013    -6772 
   -6538    -6327    -6218    -6262    -6420    -6590    -6717    -6789 
   -6772    -6616    -6332    -6043    -5873    -5830    -5854    -5925 
   -6016    -6095    -6168    -6243    -6339    -6515    -6777    -7049 
   -7277    -7430    -7458    -7326    -7026    -6592    -6119    -5740 
   -5571    -5664    -5945    -6289    -6647    -6967    -7149    -7134 
   -6933    -6585    -6141    -5687    -5367    -5316    -5559    -6035 
   -6613    -7128    -7464    -7551    -7368    -6998    -6586    -6215 
   -5902    -5649    -5505    -5516    -5672    -5933    -6266    -6640 
   -6998    -7280    -7469    -7551    -7495    -7279    -6945    -6571 
   -6207    -5888    -5701    -5742    -5987    -6270    -6430    -6417 
   -6301    -6187    -6133    -6156    -6274    -6484    -6693    -6798 
   -6755    -6612    -6485    -6451    -6490    -6543    -6620    -6778 
   -6982    -7082    -6980    -6697    -6316    -5926    -5601    -5409 
   -5433    -5675    -6002    -6307    -6575    -6820    -7061    -7291 
   -7442    -7484    -7464    -7430    -7346    -7119    -6685    -6103 
   -5506    -5020    -4750    -4738    -4974    -5387    -5852    -6249 
   -6586    -6922    -7233    -7446    -7519    -7438    -7233    -6995 
   -6805    -6656    -6511    -6365    -6232    -6115    -6026    -5965 
   -5942    -6000    -6204    -6563    -6960    -7229    -7299    -7177 
   -6862    -6396    -5919    -5591    -5501    -5660    -5996    -6386 
   -6685    -6799    -6779    -6741    -6728    -6693    -6617    -6525 
   -6470    -6484    -6527    -6529    -6496    -6473    -6473    -6465 
   -6408    -6327    -6303    -6340    -6353    -6280    -6158    -6077 
   -6095    -6193    -6319    -6430    -6538    -6675    -6837    -6988 
   -7109    -7182    -7175    -7074    -6901    -6689    -6475    -6286 
   -6137    -6014    -5899    -5806    -5756    -5751    -5782    -5836 
   -5927    -6087    -6296    -6494    -6648    -6759    -6849    -6941 
