Origin Time       2024/06/23 22:54:00
Lat.              35.645
Long.             140.060
Depth. (km)       72
Mag.              4.1
Station Code      SITH11
Station Lat.      35.8637
Station Long.     139.2726
Station Height(m) 155
Record Time       2024/06/23 22:54:52
Sampling Freq(Hz) 100Hz
Duration Time(s)  120
Dir.              4
Scale Factor      7845(gal)/8223790
Max. Acc. (gal)   2.580
Last Correction   2024/06/23 22:54:52
Memo.             
[...]
    1040     1039     1042     1044     1043     1040     1040     1039 
    1038     1036     1036     1038     1039     1039     1042     1044 
    1042     1040     1042     1043     1040     1036     1038     1040 
    1043     1044     1043     1042     1043     1040     1036     1035 
    1035     1036     1038     1036     1036     1040     1043     1042 
    1038     1040     1043     1040     1036     1038     1038     1039 
    1039     1036     1036     1040     1046     1047     1048     1047 
    1044     1044     1044     1043     1046     1050     1046     1040 
    1036     1021     1004      994      989      989     1008     1036 
    1063     1090     1108     1105     1085     1048     1004      972 
     961      974     1021     1080     1123     1150     1147     1121 
    1089     1039      981      953      951      959      985     1026 
    1046     1038     1050     1085     1089     1069     1057     1034 
    1013     1032     1054     1047     1053     1069     1050     1023 
     994      915      849      874      928     1021     1194     1309 
    1306     1308     1275     1119      965      877      803      850 
    1051     1183     1159     1108     1061      950      843      788 
     716      700      874     1119     1217     1197     1229     1318 
    1354     1331     1301     1283     1266     1155      869      565 
     467      502      530      606      816     1135     1428     1552 
    1528     1495     1505     1483     1360     1136      912      754 
     633      558      515      499      616      832     1008     1175 
    1318     1375     1425     1467     1402     1267     1162     1094 
    1039      984      938      881      765      642      594      610 
     724      969     1198     1314     1413     1509     1478     1293 
    1107     1024      989      976     1019     1021      919      818 
     716      621      697      926     1127     1250     1297     1287 
    1266     1228     1163     1113     1108     1131     1104      962 
     808      816      963     1092     1115     1027      907      874 
     930     1008     1134     1300     1371     1255     1044      862 
     723      631      650      800     1012     1177     1212     1140 
    1115     1242     1413     1485     1486     1451     1267      939 
     714      687      722      751      757      688      648      739 
     885     1046     1239     1350     1313     1254     1273     1324 
    1324     1236     1097      994      959      886      731      662 
     773      943     1077     1125     1078     1051     1117     1196 
    1246     1271     1221     1121     1059     1009      888      750 
     738      820      853      843      884      989     1144     1306 
    1408     1468     1510     1455     1256     1013      868      845 
     820      734      670      683      727      793      880      958 
    1038     1143     1259     1343     1354     1333     1362     1395 
    1324     1171     1024      896      768      650      572      573 
     719      978     1170     1209     1219     1256     1229     1163 
    1179     1263     1341     1355     1223      997      838      756 
     696      697      803      942     1030     1040     1009     1001 
    1020     1019     1035     1088     1082     1030     1053     1146 
    1225     1269     1277     1232     1115      955      841      857 
     996     1127     1119     1005      907      872      882      919 
     974     1040     1098     1142     1144     1113     1115     1169 
    1201     1147     1031      949      923      904      909      943 
     949      965     1040     1132     1231     1339     1394     1343 
    1198     1008      832      722      691      718      799      907 
     985     1039     1054     1028     1081     1215     1310     1367 
    1412     1401     1337     1235     1050      789      545      403 
     382      472      662      901     1120     1271     1328     1318 
    1306     1317     1385     1518     1591     1509     1328     1077 
     778      550      433      378      472      738      984     1107 
    1167     1197     1235     1283     1259     1208     1215     1201 
    1135     1070      981      877      824      818      857      954 
    1080     1221     1356     1390     1260     1021      783      621 
     580      664      838     1035     1188     1294     1372     1425 
    1466     1482     1420     1278     1077      845      656      552 
     518      548      618      715      870     1013     1059     1094 
    1194     1308     1394     1418     1393     1416     1455     1377 
    1185      982      804      680      654      703      785      888 
     974     1021     1069     1132     1156     1134     1124     1146 
    1144     1085     1011     1009     1066     1057      992      985 
    1013      989      935      885      850      884      982     1059 
    1101     1148     1196     1212     1205     1210     1216     1182 
    1117     1062      989      850      696      639      727      885 
    1026     1121     1179     1216     1246     1233     1200     1237 
    1327     1312     1147      936      753      608      562      657 
     822     1013     1227     1366     1367     1298     1225     1173 
    1142     1089      988      895      896      949      962      961 
     997     1051     1077     1030      963      919      857      874 
    1059     1258     1366     1420     1383     1251     1096      915 
     731      633      634      696      811      965     1102     1186 
    1206     1170     1109     1061     1028     1040     1148     1300 
    1375     1347     1285     1250     1188      986      684      472 
     491      735     1028     1194     1277     1354     1352     1208 
     940      648      513      611      827     1066     1296     1436 
    1490     1489     1344     1062      835      751      754      803 
     847      899     1032     1182     1232     1209     1155     1067 
     957      827      745      815      985     1116     1212     1304 
    1337     1328     1318     1266     1173     1081      923      683 
     556      633      760      855      967     1051     1057     1044 
    1053     1116     1328     1615     1714     1545     1314     1144 
     984      824      676      526      463      504      534      567 
     737     1026     1301     1486     1555     1522     1529     1617 
    1613     1459     1212      886      600      427      311      268 
     375      637      942     1181     1387     1613     1777     1792 
    1655     1437     1251     1151     1031      765      468      351 
     398      467      527      629      811     1063     1287     1379 
    1358     1325     1366     1422     1370     1250     1178     1142 
    1129     1152     1113      976      832      758      729      681 
     621      612      695      853     1031     1192     1363     1520 
    1556     1493     1448     1394     1271     1109      931      818 
     797      762      710      716      738      707      650      648 
     764     1007     1286     1489     1614     1678     1628     1479 
    1329     1217     1151     1065      835      546      396      382 
     413      488      625      861     1201     1501     1578     1479 
    1401     1391     1379     1360     1312     1183     1017      868 
     746      688      719      801      857      892      950      999 
    1040     1108     1150     1193     1235     1148     1023      989 
     997     1070     1175     1196     1151     1069      954      876 
     857      872      931     1036     1136     1183     1175     1150 
    1143     1138     1086      992      896      822      797      837 
     881      923     1005     1058     1035     1043     1144     1287 
    1433     1533     1539     1467     1335     1119      854      654 
     583      591      607      598      564      556      633      818 
    1074     1325     1547     1763     1890     1845     1691     1487 
    1246     1016      845      733      641      558      491      422 
     410      526      706      859      972     1059     1197     1401 
    1553     1603     1583     1478     1345     1278     1229     1135 
    1007      873      787      738      639      491      414      530 
     828     1132     1282     1313     1336     1350     1310     1242 
    1161     1090     1107     1143     1058      936      942     1038 
    1151     1267     1271     1119      950      810      699      743 
     884      954      985     1008     1007      989      930      858 
     866      980     1155     1300     1366     1391     1385     1305 
    1174     1075     1059     1082     1078     1005      872      787 
     807      804      735      707      734      776      876     1035 
    1188     1336     1490     1570     1509     1371     1267     1237 
    1235     1190     1057      853      676      575      517      510 
     592      749      918     1036     1135     1275     1402     1449 
    1493     1516     1441     1347     1231     1038      838      648 
     495      456      511      630      828     1065     1262     1374 
    1378     1305     1269     1275     1229     1151     1089     1038 
    1058     1142     1139     1021      911      845      765      657 
     579      637      839     1028     1139     1235     1269     1255 
    1278     1248     1169     1208     1277     1193     1048      994 
     994      994      982      912      850      859      807      706 
     756      945     1161     1328     1350     1290     1287     1321 
    1297     1194     1094     1055     1053     1007      859      673 
     556      534      594      723      905     1117     1336     1520 
    1622     1584     1381     1127      943      816      735      723 
     768      870     1017     1147     1266     1360     1336     1194 
    1077     1071     1092     1048      993      967      918      839 
     764      688      670      753      869      996     1125     1223 
    1337     1482     1526     1408     1181      943      839      881 
     966     1073     1221     1318     1248     1019      737      534 
     531      707      869      930     1015     1165     1263     1316 
    1356     1328     1273     1259     1229     1151     1081     1048 
    1026      984      939      936      966      973      962      974 
    1008     1035     1011      920      824      785      788      834 
     955     1104     1216     1291     1293     1181     1034      954 
     938      962     1017     1028      984     1003     1066     1084 
    1113     1148     1143     1192     1247     1220     1181     1104 
     935      772      672      618      648      796      966     1088 
    1215     1352     1448     1470     1421     1339     1297     1339 
    1398     1344     1147      892      675      545      483      430 
     417      534      745      901      973     1036     1128     1256 
    1413     1564     1665     1714     1733     1647     1377     1026 
     660      238     -155     -409     -513     -452     -193      237 
     780     1325     1811     2266     2633     2839     2894     2774 
    2485     2087     1606     1128      723      357       47     -148 
    -234     -259     -252     -195      -44      194      486      838 
    1215     1543     1833     2107     2346     2531     2604     2538 
    2359     2053     1625     1185      783      417      151        2 
    -133     -283     -345     -237       14      342      692     1054 
    1431     1753     1938     1979     1863     1613     1360     1156 
     949      756      602      457      400      546      784      955 
    1170     1514     1836     2004     1964     1732     1424     1066 
     631      190     -159     -302     -194       67      390      739 
    1061     1350     1655     1900     1988     1992     1984     1904 
    1715     1475     1300     1291     1422     1555     1580     1491 
    1351     1155      814      364       -1     -190     -244     -202 
     -95       31      195      413      637      850     1092     1381 
    1691     1937     2058     2089     2031     1869     1683     1557 
    1451     1282     1112     1070     1108     1109     1021      843 
     658      515      337      122      -55     -175     -199      -76 
     163      477      897     1405     1861     2204     2466     2619 
    2639     2551     2313     1929     1524     1181      864      530 
     206      -28     -162     -261     -325     -282     -103      251 
     776     1308     1705     2000     2205     2262     2234     2245 
    2286     2222     1942     1462      866      271     -218     -600 
    -892    -1007     -895     -565       18      783     1555     2255 
    2735     2852     2752     2602     2428     2254     2043     1699 
    1192      612       79     -344     -637     -760     -675     -386 
      45      557     1065     1497     1877     2241     2509     2583 
    2451     2196     1915     1665     1422     1108      702      279 
    -105     -434     -707     -892     -838     -446      176      843 
    1468     2066     2608     3033     3252     3119     2691     2184 
    1660     1097      565      130     -222     -523     -751     -880 
    -869     -646     -207      382     1059     1750     2401     2994 
    3433     3607     3497     3142     2574     1833      996      156 
    -602    -1201    -1563    -1664    -1529    -1167     -598      122 
     939     1773     2516     3068     3372     3443     3343     3119 
    2799     2376     1850     1337      919      506        9     -546 
   -1081    -1471    -1613    -1460    -1001     -292      540     1336 
    1988     2461     2766     2894     2817     2598     2343     1995 
    1601     1371     1242     1063      893      695      369      -60 
    -453     -610     -484     -147      359      942     1534     2095 
    2466     2506     2254     1817     1291      787      399      209 
     251      500      888     1297     1579     1648     1534     1345 
    1177     1042      908      800      772      787      750      615 
     427      298      299      421      641      950     1313     1687 
    2011     2205     2200     1993     1695     1418     1131      843 
     735      783      824      873      869      724      542      433 
     426      521      706      939     1128     1212     1229     1254 
    1332     1444     1530     1534     1397     1111      765      432 
     168       54      118      329      676     1148     1669     2137 
    2446     2501     2288     1908     1475     1000      546      245 
      99       47       68       99      112      167      351      699 
    1143     1580     1949     2215     2349     2301     2069     1773 
    1548     1375     1219     1096      897      542      129     -252 
    -510     -518     -275      122      576     1017     1387     1638 
    1803     1952     2104     2241     2296     2236     2107     1926 
    1664     1287      785      214     -311     -695     -881     -823 
    -510       10      650     1296     1817     2135     2276     2301 
    2227     2042     1767     1431     1028      602      311      245 
     392      716     1070     1287     1381     1414     1404     1374 
    1343     1281     1177     1030      781      406       75       -5 
     132      380      687      977     1216     1391     1503     1615 
    1759     1887     1957     1972     1908     1711     1422     1100 
     746      414      171       22      -14       51      157      272 
     440      683      981     1313     1634     1899     2116     2249 
    2184     1926     1582     1174      708      275      -62     -267 
    -265      -82      195      564     1012     1460     1857     2153 
    2281     2263     2191     2088     1908     1648     1345     1016 
     661      325       59     -108     -121       20      180      278 
     406      607      855     1169     1514     1833     2110     2307 
    2396     2350     2101     1642     1067      511       51     -278 
    -430     -380     -139      263      738     1196     1574     1800 
    1861     1829     1732     1598     1513     1470     1372     1235 
    1123     1012      908      859      800      649      464      315 
     190      108      139      333      716     1258     1826     2286 
    2524     2427     2043     1593     1192      830      521      278 
     106       10       24      183      448      812     1344     1939 
    2371     2544     2443     2096     1622     1104      589      191 
     -49     -166     -121       67      341      716     1125     1412 
    1552     1584     1499     1386     1367     1409     1405     1316 
    1144      924      742      654      638      683      834     1086 
    1354     1541     1597     1544     1439     1283     1048      778 
     540      380      371      507      677      810      904      949 
     951      959      989     1063     1248     1539     1814     1960 
    1993     1968     1849     1636     1362     1016      664      403 
     203       24      -83      -86       12      195      399      580 
     769      994     1262     1567     1861     2100     2254     2292 
    2189     1949     1636     1328     1047      792      575      415 
     325      290      298      332      355      375      426      517 
     677      963     1345     1703     1938     2033     2023     1950 
    1837     1690     1456     1117      799      600      467      363 
     349      446      598      754      878      927      927      974 
    1105     1255     1386     1502     1537     1417     1174      873 
     569      371      373      556      830     1105     1309     1410 
    1409     1354     1306     1294     1347     1463     1555     1543 
    1399     1131      796      523      388      361      380      417 
     481      618      859     1161     1424     1602     1672     1614 
    1494     1378     1263     1170     1119     1057      957      853 
     769      737      783      847      874      864      827      841 
     978     1147     1255     1331     1328     1179      954      796 
     799      926     1078     1197     1244     1219     1165     1115 
    1102     1161     1243     1258     1173     1017      854      746 
     724      791      889      950      965      926      846      795 
     811      884     1030     1236     1429     1578     1676     1651 
    1471     1229     1019      841      681      549      475      523 
     684      843      962     1073     1148     1175     1194     1196 
    1154     1117     1125     1152     1209     1327     1437     1472 
    1452     1368     1200      972      714      469      283      184 
     213      386      658      957     1216     1385     1467     1513 
    1547     1524     1418     1277     1140     1039     1019     1077 
    1166     1250     1275     1201     1047      839      611      464 
     472      594      750      866      923      978     1055     1125 
    1188     1254     1313     1364     1389     1378     1377     1428 
    1506     1539     1462     1260      992      764      621      546 
     538      577      612      629      639      621      550      481 
