Origin Time       2024/06/23 22:54:00
Lat.              35.645
Long.             140.060
Depth. (km)       72
Mag.              4.1
Station Code      SITH04
Station Lat.      35.8028
Station Long.     139.5353
Station Height(m) 30
Record Time       2024/06/23 22:54:46
Sampling Freq(Hz) 100Hz
Duration Time(s)  120
Dir.              6
Scale Factor      3920(gal)/6170801
Max. Acc. (gal)   0.584
Last Correction   2024/06/23 22:54:31
Memo.             
  -21734   -21759   -21822   -21830   -21775   -21751   -21787   -21834 
  -21842   -21807   -21766   -21758   -21793   -21822   -21811   -21796 
  -21795   -21804   -21816   -21801   -21769   -21767   -21791   -21813 
  -21791   -21744   -21758   -21824   -21849   -21819   -21785   -21776 
  -21796   -21827   -21813   -21762   -21754   -21791   -21804   -21791 
  -21795   -21820   -21833   -21802   -21752   -21744   -21792   -21839 
  -21832   -21788   -21754   -21765   -21816   -21828   -21788   -21777 
  -21806   -21816   -21791   -21771   -21798   -21838   -21818   -21756 
  -21735   -21764   -21799   -21815   -21802   -21778   -21781   -21823 
  -21850   -21807   -21754   -21775   -21823   -21822   -21783   -21778 
  -21810   -21823   -21800   -21768   -21766   -21785   -21786   -21780 
  -21776   -21787   -21831   -21850   -21797   -21745   -21761   -21813 
  -21829   -21797   -21774   -21789   -21811   -21811   -21795   -21783 
  -21794   -21820   -21812   -21768   -21756   -21796   -21826   -21808 
  -21777   -21772   -21789   -21815   -21827   -21793   -21748   -21757 
  -21802   -21821   -21793   -21760   -21781   -21825   -21828   -21797 
  -21783   -21813   -21839   -21800   -21737   -21740   -21819   -21887 
  -21845   -21731   -21693   -21759   -21813   -21808   -21809   -21823 
  -21817   -21800   -21780   -21770   -21777   -21779   -21783   -21810 
  -21847   -21863   -21830   -21757   -21709   -21745   -21819   -21856 
  -21851   -21811   -21751   -21746   -21826   -21876   -21808   -21729 
  -21743   -21788   -21784   -21763   -21779   -21817   -21841   -21847 
  -21833   -21800   -21764   -21743   -21751   -21778   -21803   -21834 
  -21864   -21843   -21772   -21728   -21773   -21837   -21811   -21734 
  -21711   -21764   -21852   -21894   -21856   -21782   -21731   -21725 
  -21752   -21804   -21872   -21895   -21835   -21736   -21678   -21715 
  -21815   -21876   -21870   -21837   -21783   -21742   -21751   -21778 
  -21789   -21778   -21781   -21821   -21844   -21823   -21798   -21788 
  -21779   -21744   -21744   -21830   -21906   -21878   -21762   -21662 
  -21683   -21797   -21894   -21887   -21793   -21740   -21781   -21818 
  -21792   -21760   -21769   -21805   -21834   -21844   -21833   -21795 
  -21736   -21717   -21767   -21824   -21848   -21850   -21821   -21757 
  -21719   -21755   -21831   -21876   -21851   -21795   -21743   -21702 
  -21713   -21794   -21857   -21856   -21824   -21781   -21742   -21730 
  -21777   -21879   -21919   -21827   -21710   -21670   -21722   -21840 
  -21916   -21865   -21768   -21741   -21777   -21801   -21789   -21769 
  -21769   -21796   -21843   -21866   -21813   -21717   -21691   -21765 
  -21854   -21888   -21849   -21767   -21719   -21760   -21861   -21897 
  -21779   -21657   -21706   -21820   -21846   -21839   -21831   -21777 
  -21750   -21800   -21852   -21841   -21779   -21729   -21723   -21734 
  -21767   -21837   -21884   -21860   -21790   -21723   -21703   -21777 
  -21918   -21978   -21847   -21632   -21570   -21723   -21920   -22000 
  -21915   -21727   -21610   -21678   -21857   -21952   -21854   -21697 
  -21646   -21722   -21889   -21989   -21861   -21662   -21675   -21867 
  -21950   -21835   -21703   -21639   -21638   -21780   -21981   -22010 
  -21841   -21666   -21675   -21830   -21888   -21805   -21739   -21712 
  -21692   -21765   -21917   -21950   -21797   -21674   -21750   -21893 
  -21890   -21793   -21762   -21731   -21670   -21735   -21897   -21938 
  -21830   -21750   -21775   -21821   -21811   -21783   -21797   -21780 
  -21735   -21773   -21820   -21810   -21835   -21843   -21758   -21712 
  -21767   -21830   -21854   -21810   -21743   -21769   -21844   -21862 
  -21809   -21722   -21731   -21868   -21938   -21843   -21667   -21544 
  -21624   -21884   -22068   -22022   -21829   -21625   -21566   -21723 
  -21934   -22020   -21928   -21728   -21618   -21680   -21806   -21877 
  -21845   -21779   -21760   -21784   -21809   -21782   -21729   -21741 
  -21819   -21923   -21969   -21845   -21652   -21619   -21760   -21905 
  -21913   -21808   -21708   -21683   -21762   -21885   -21916   -21839 
  -21752   -21724   -21771   -21845   -21830   -21707   -21639   -21749 
  -21925   -21974   -21855   -21716   -21691   -21755   -21827   -21858 
  -21829   -21763   -21737   -21808   -21878   -21833   -21757   -21737 
  -21760   -21850   -21949   -21901   -21733   -21617   -21594   -21642 
  -21803   -21994   -22024   -21884   -21725   -21643   -21646   -21729 
  -21874   -21981   -21927   -21787   -21721   -21716   -21724   -21781 
  -21869   -21891   -21804   -21717   -21749   -21815   -21795   -21755 
  -21759   -21769   -21800   -21866   -21887   -21809   -21697   -21695 
  -21808   -21877   -21869   -21840   -21748   -21678   -21773   -21894 
  -21857   -21756   -21723   -21744   -21801   -21877   -21892   -21782 
  -21655   -21691   -21815   -21826   -21795   -21861   -21892   -21762 
  -21644   -21722   -21877   -21929   -21876   -21776   -21679   -21679 
  -21809   -21929   -21884   -21727   -21661   -21754   -21876   -21902 
  -21818   -21708   -21671   -21734   -21841   -21886   -21841   -21805 
  -21827   -21809   -21716   -21685   -21782   -21865   -21855   -21820 
  -21782   -21727   -21714   -21776   -21850   -21881   -21869   -21811 
  -21719   -21671   -21728   -21838   -21873   -21819   -21795   -21809 
  -21777   -21739   -21757   -21807   -21851   -21855   -21808   -21739 
  -21701   -21736   -21836   -21915   -21884   -21774   -21709   -21728 
  -21768   -21796   -21813   -21814   -21815   -21827   -21833   -21800 
  -21720   -21684   -21779   -21908   -21910   -21807   -21719   -21699 
  -21768   -21874   -21887   -21787   -21695   -21718   -21837   -21901 
  -21833   -21742   -21735   -21797   -21828   -21768   -21702   -21735 
  -21843   -21928   -21885   -21748   -21689   -21761   -21857   -21856 
  -21761   -21716   -21784   -21860   -21876   -21852   -21802   -21740 
  -21712   -21757   -21818   -21821   -21780   -21756   -21784   -21847 
  -21883   -21839   -21728   -21662   -21734   -21864   -21894   -21815 
  -21747   -21766   -21828   -21852   -21824   -21781   -21756   -21774 
  -21807   -21791   -21760   -21782   -21814   -21832   -21832   -21789 
  -21758   -21782   -21807   -21808   -21796   -21790   -21810   -21820 
  -21810   -21802   -21786   -21765   -21775   -21808   -21811   -21791 
  -21800   -21805   -21774   -21768   -21818   -21853   -21811   -21760 
  -21755   -21762   -21779   -21807   -21810   -21793   -21805   -21876 
  -21922   -21860   -21783   -21791   -21858   -21895   -21850   -21770 
  -21718   -21682   -21672   -21689   -21694   -21699   -21744   -21808 
  -21855   -21899   -21959   -21999   -21989   -21973   -21971   -21924 
  -21809   -21675   -21605   -21638   -21684   -21665   -21645   -21728 
  -21904   -22045   -22031   -21914   -21876   -21998   -22101   -21961 
  -21691   -21539   -21470   -21294   -21097   -21204   -21624   -21973 
  -22011   -21845   -21666   -21561   -21582   -21799   -22157   -22389 
  -22230   -21764   -21465   -21613   -21805   -21717   -21730   -21970 
  -21939   -21570   -21314   -21331   -21543   -21954   -22291   -22262 
  -22118   -21965   -21654   -21618   -22121   -22471   -22159   -21668 
  -21502   -21563   -21703   -21683   -21309   -21184   -21796   -22318 
  -22087   -21817   -21889   -21814   -21726   -21867   -21798   -21581 
  -21707   -21954   -21844   -21574   -21602   -21752   -21792   -21964 
  -22125   -21928   -21553   -21313   -21372   -21775   -22370   -22715 
  -22352   -21579   -21231   -21410   -21633   -21877   -22099   -21860 
  -21428   -21500   -21711   -21499   -21478   -22088   -22535   -22264 
  -21837   -21724   -21676   -21640   -21774   -21800   -21686   -21761 
  -21903   -21955   -22030   -21963   -21612   -21408   -21683   -22010 
  -21921   -21563   -21366   -21644   -22215   -22429   -22047   -21626 
  -21578   -21608   -21644   -21913   -22059   -21837   -21533   -21282 
  -21293   -21762   -22273   -22281   -21887   -21635   -21682   -21790 
  -21855   -21785   -21627   -21691   -21932   -21973   -21808   -21763 
  -21871   -21847   -21683   -21672   -21846   -21891   -21735   -21762 
  -21971   -21864   -21562   -21597   -21855   -21951   -21950   -21966 
  -21791   -21554   -21683   -21872   -21691   -21597   -21824   -21878 
  -21736   -21775   -21946   -22071   -22084   -21849   -21454   -21422 
  -21864   -22087   -21916   -21859   -21843   -21739   -21777   -21625 
  -21206   -21322   -21989   -22237   -21940   -21820   -21876   -21700 
  -21614   -21797   -21740   -21578   -21851   -22125   -21987   -21936 
  -22009   -21709   -21365   -21621   -22164   -22263   -21928   -21642 
  -21578   -21698   -21893   -21906   -21723   -21675   -21808   -21794 
  -21595   -21588   -21885   -22069   -21844   -21576   -21731   -22081 
  -22166   -22020   -21828   -21685   -21691   -21693   -21508   -21417 
  -21682   -21930   -21807   -21644   -21782   -21982   -22011   -21963 
  -21816   -21606   -21684   -21980   -21996   -21812   -21805   -21801 
  -21591   -21453   -21621   -21900   -22032   -22008   -21838   -21574 
  -21521   -21658   -21633   -21571   -21773   -22090   -22234   -22153 
  -22023   -21981   -21887   -21573   -21236   -21245   -21603   -21925 
  -21930   -21694   -21503   -21622   -21978   -22162   -22035   -21899 
  -21865   -21771   -21674   -21700   -21770   -21828   -21813   -21668 
  -21588   -21680   -21769   -21771   -21766   -21799   -21814   -21810 
  -21867   -21905   -21916   -22102   -22257   -21989   -21635   -21671 
  -21824   -21794   -21735   -21718   -21678   -21643   -21673   -21814 
  -21952   -21901   -21796   -21909   -22154   -22232   -22069   -21847 
  -21740   -21789   -21858   -21751   -21585   -21546   -21519   -21504 
  -21667   -21850   -21851   -21842   -21868   -21742   -21653   -21820 
  -21949   -21891   -21868   -21805   -21551   -21399   -21577   -21805 
  -21837   -21854   -21908   -21822   -21704   -21624   -21500   -21607 
  -22005   -22162   -21966   -21867   -21904   -21770   -21602   -21688 
  -21810   -21732   -21723   -21903   -22005   -21965   -21846   -21636 
  -21502   -21607   -21807   -21888   -21837   -21787   -21767   -21772 
  -21834   -21885   -21912   -21875   -21722   -21760   -22015   -21979 
  -21728   -21684   -21655   -21508   -21612   -21963   -22056   -21823 
  -21712   -21804   -21866   -21948   -22023   -21837   -21540   -21538 
  -21768   -21887   -21902   -21957   -21896   -21589   -21349   -21525 
  -21910   -22085   -22003   -21794   -21661   -21808   -22016   -21968 
  -21814   -21857   -21980   -21786   -21443   -21495   -21724   -21730 
  -21817   -22033   -22018   -21904   -21906   -21846   -21671   -21588 
  -21634   -21666   -21671   -21686   -21672   -21649   -21702   -21902 
  -22207   -22341   -22127   -21759   -21559   -21600   -21650   -21621 
  -21657   -21727   -21785   -21876   -21870   -21800   -21857   -21922 
  -21844   -21756   -21792   -21833   -21748   -21726   -21912   -22022 
  -21875   -21659   -21508   -21511   -21779   -22125   -22203   -21983 
  -21736   -21644   -21650   -21670   -21694   -21772   -21948   -21978 
  -21661   -21414   -21538   -21695   -21801   -22047   -22175   -22015 
  -21881   -21835   -21714   -21681   -21829   -21817   -21519   -21381 
  -21653   -21970   -22007   -21863   -21697   -21551   -21552   -21723 
  -21844   -21839   -21754   -21626   -21629   -21844   -22092   -22140 
  -21954   -21761   -21690   -21720   -21814   -21843   -21837   -21890 
  -21837   -21684   -21696   -21851   -21948   -21940   -21817   -21657 
  -21714   -21963   -22041   -21900   -21817   -21861   -21863   -21772 
  -21728   -21699   -21570   -21567   -21744   -21800   -21789   -21881 
  -21939   -21890   -21822   -21771   -21698   -21697   -21890   -22000 
  -21790   -21592   -21657   -21761   -21794   -21863   -21896   -21833 
  -21827   -21892   -21872   -21775   -21703   -21664   -21598   -21542 
  -21717   -22134   -22378   -22135   -21572   -21236   -21462   -21869 
  -22012   -21983   -21931   -21826   -21714   -21699   -21768   -21786 
  -21751   -21821   -21998   -22129   -22097   -21854   -21598   -21592 
  -21656   -21615   -21756   -21973   -21721   -21309   -21475   -21919 
  -21950   -21797   -21907   -22002   -21805   -21671   -21839   -21988 
  -21885   -21710   -21629   -21647   -21767   -21830   -21660   -21565 
  -21915   -22329   -22244   -21824   -21499   -21466   -21754   -21980 
  -21760   -21433   -21488   -21764   -21871   -21884   -21966   -21957 
  -21869   -21836   -21777   -21738   -21776   -21800   -21835   -21877 
  -21847   -21743   -21606   -21587   -21771   -22067   -22297   -22156 
  -21734   -21590   -21797   -21892   -21636   -21325   -21403   -21796 
  -22055   -21992   -21782   -21698   -21790   -21887   -21933   -21977 
  -21976   -21875   -21724   -21627   -21624   -21635   -21625   -21713 
  -21934   -22084   -22015   -21829   -21686   -21641   -21661   -21735 
  -21815   -21747   -21615   -21685   -21891   -22018   -22027   -21936 
  -21798   -21700   -21697   -21722   -21664   -21629   -21756   -21894 
  -21875   -21759   -21721   -21824   -21931   -21898   -21703   -21554 
  -21726   -21999   -21973   -21840   -21855   -21778   -21546   -21519 
  -21804   -22035   -21946   -21841   -21908   -21825   -21711   -21859 
  -21939   -21832   -21765   -21614   -21386   -21433   -21793   -22036 
  -21874   -21628   -21677   -21923   -22155   -22175   -21918   -21725 
  -21775   -21843   -21844   -21775   -21530   -21315   -21564   -22100 
  -22253   -21891   -21455   -21307   -21531   -21939   -22169   -22041 
  -21772   -21573   -21481   -21617   -21915   -22073   -22126   -22196 
  -22045   -21666   -21468   -21564   -21729   -21864   -21924   -21760 
  -21411   -21249   -21484   -21858   -22115   -22258   -22158   -21741 
  -21474   -21736   -22102   -22070   -21821   -21694   -21655   -21650 
  -21737   -21832   -21820   -21798   -21881   -21943   -21820   -21623 
  -21542   -21605   -21846   -22209   -22271   -21844   -21355   -21182 
  -21414   -21943   -22346   -22313   -22006   -21745   -21733   -21851 
  -21819   -21637   -21443   -21331   -21454   -21764   -21956   -21941 
  -21919   -21981   -21988   -21820   -21607   -21599   -21735   -21777 
  -21752   -21789   -21843   -21794   -21631   -21572   -21801   -22189 
  -22405   -22193   -21758   -21626   -21817   -21862   -21678   -21584 
  -21607   -21576   -21593   -21688   -21604   -21440   -21515   -21640 
  -21597   -21695   -22084   -22367   -22321   -22132   -21916   -21768 
  -21800   -21837   -21707   -21601   -21712   -21881   -21838   -21576 
  -21358   -21492   -21929   -22204   -22151   -22056   -22009   -21952 
  -22041   -22244   -22185   -21844   -21536   -21342   -21321   -21539 
  -21756   -21826   -21920   -21996   -21793   -21464   -21422   -21632 
  -21820   -21982   -22091   -21995   -21829   -21834   -21892   -21822 
  -21776   -21854   -21915   -21948   -22003   -21929   -21640   -21424 
  -21566   -21835   -21878   -21795   -21777   -21753   -21756   -21864 
  -21837   -21661   -21736   -21977   -21888   -21473   -21158   -21174 
  -21496   -22019   -22395   -22238   -21785   -21620   -21846   -22122 
  -22154   -21929   -21643   -21472   -21531   -21818   -22038   -21942 
  -21709   -21608   -21736   -22063   -22262   -21985   -21554   -21576 
  -21977   -22143   -21886   -21615   -21537   -21499   -21469   -21430 
  -21421   -21754   -22346   -22543   -22186   -21831   -21738   -21650 
  -21563   -21682   -21858   -21884   -21763   -21553   -21502   -21801 
  -22152   -22104   -21721   -21540   -21724   -21908   -21908   -21790 
  -21613   -21555   -21715   -21861   -21827   -21788   -21827   -21849 
  -21937   -22069   -21951   -21626   -21426   -21425   -21593   -21934 
  -22231   -22189   -21820   -21483   -21545   -21934   -22146   -21872 
  -21376   -21120   -21274   -21637   -21924   -22042   -22101   -22238 
  -22366   -22257   -21912   -21582   -21442   -21445   -21585   -21930 
  -22229   -22116   -21730   -21550   -21711   -21875   -21831   -21791 
  -21875   -21921   -21871   -21824   -21807   -21723   -21552   -21434 
  -21452   -21613   -21909   -22135   -22063   -21869   -21833   -21835 
  -21633   -21340   -21294   -21587   -21932   -22059   -21934   -21649 
  -21454   -21629   -22030   -22186   -21965   -21688   -21619   -21786 
  -22093   -22345   -22293   -21819   -21259   -21114   -21388   -21765 
  -22106   -22348   -22367   -22119   -21816   -21733   -21771   -21672 
  -21523   -21538   -21608   -21569   -21538   -21589   -21658   -21775 
  -21926   -22021   -22053   -22052   -21997   -21841   -21621   -21478 
  -21521   -21644   -21647   -21615   -21782   -22071   -22221   -22136 
  -21880   -21579   -21445   -21616   -21875   -21934   -21892   -21888 
  -21812   -21758   -21886   -21967   -21815   -21608   -21528   -21640 
  -21868   -21926   -21732   -21651   -21885   -22097   -21970   -21712 
  -21682   -21877   -22037   -21939   -21630   -21466   -21629   -21864 
  -21953   -21932   -21833   -21660   -21505   -21480   -21658   -21948 
  -22107   -22053   -21894   -21767   -21817   -21972   -21905   -21528 
  -21205   -21296   -21727   -22160   -22367   -22316   -22082   -21781 
  -21597   -21653   -21791   -21824   -21838   -21915   -21971   -21953 
  -21825   -21568   -21352   -21391   -21597   -21689   -21590   -21424 
  -21354   -21574   -22063   -22452   -22472   -22214   -21910   -21762 
  -21794   -21817   -21708   -21577   -21557   -21645   -21795   -21957 
  -21960   -21734   -21636   -21913   -22122   -21896   -21576   -21508 
  -21629   -21839   -22045   -21999   -21619   -21313   -21478   -21864 
  -22037   -22013   -21930   -21793   -21705   -21729   -21772   -21761 
  -21700   -21653   -21633   -21615   -21698   -21885   -21984   -21913 
  -21784   -21805   -22043   -22239   -22158   -21858   -21562   -21492 
  -21606   -21690   -21708   -21728   -21735   -21718   -21714   -21773 
  -21900   -21959   -21862   -21833   -22051   -22307   -22369   -22273 
  -22127   -21956   -21790   -21665   -21536   -21383   -21314   -21353 
  -21365   -21399   -21567   -21703   -21721   -21804   -21983   -22128 
  -22189   -22192   -22120   -21907   -21623   -21466   -21449   -21449 
  -21433   -21502   -21750   -22039   -22110   -21971   -21898   -22001 
  -22090   -22053   -21981   -21919   -21853   -21832   -21815   -21703 
  -21625   -21773   -21992   -22032   -21947   -21810   -21602   -21513 
  -21668   -21805   -21696   -21490   -21401   -21464   -21633   -21838 
  -22021   -22126   -22040   -21783   -21628   -21711   -21832   -21846 
  -21881   -21991   -22001   -21833   -21623   -21499   -21551   -21722 
  -21756   -21585   -21485   -21627   -21803   -21763   -21649   -21726 
  -21895   -21963   -22023   -22161   -22187   -21977   -21769   -21780 
  -21845   -21818   -21782   -21706   -21674   -21882   -22093   -22013 
  -21812   -21698   -21651   -21653   -21669   -21596   -21455   -21477 
  -21749   -21966   -21932   -21820   -21743   -21723   -21783   -21807 
  -21761   -21750   -21811   -21886   -21867   -21795   -21866   -22045 
  -22124   -22070   -21982   -21889   -21731   -21542   -21529   -21770 
  -22042   -22108   -21971   -21786   -21661   -21626   -21630   -21645 
  -21718   -21787   -21771   -21737   -21718   -21710   -21728   -21711 
