Origin Time       2024/06/23 22:54:00
Lat.              35.645
Long.             140.060
Depth. (km)       72
Mag.              4.1
Station Code      SITH11
Station Lat.      35.8637
Station Long.     139.2726
Station Height(m) 53.5
Record Time       2024/06/23 22:54:52
Sampling Freq(Hz) 100Hz
Duration Time(s)  120
Dir.              1
Scale Factor      2942(gal)/8224139
Max. Acc. (gal)   0.154
Last Correction   2024/06/23 22:54:52
Memo.             
[...]
 -147032  -147031  -147033  -147033  -147028  -147031  -147033  -147032 
 -147032  -147032  -147033  -147035  -147035  -147032  -147033  -147033 
 -147031  -147033  -147035  -147032  -147033  -147035  -147032  -147031 
 -147031  -147032  -147032  -147032  -147031  -147029  -147033  -147033 
 -147031  -147032  -147032  -147032  -147032  -147028  -147029  -147032 
 -147031  -147029  -147029  -147029  -147029  -147032  -147032  -147029 
 -147032  -147033  -147031  -147029  -147032  -147031  -147029  -147032 
 -147032  -147031  -147032  -147032  -147031  -147031  -147032  -147032 
 -147032  -147032  -147031  -147032  -147032  -147029  -147031  -147031 
 -147031  -147033  -147032  -147031  -147031  -147032  -147032  -147031 
 -147031  -147032  -147033  -147033  -147029  -147029  -147032  -147032 
 -147031  -147031  -147031  -147031  -147031  -147032  -147033  -147032 
 -147031  -147031  -147031  -147032  -147032  -147032  -147032  -147033 
 -147035  -147033  -147031  -147032  -147032  -147033  -147032  -147031 
 -147031  -147032  -147033  -147035  -147039  -147035  -147028  -147028 
 -147029  -147029  -147037  -147035  -147029  -147033  -147032  -147029 
 -147036  -147035  -147033  -147032  -147031  -147032  -147032  -147033 
 -147035  -147032  -147032  -147032  -147029  -147032  -147035  -147033 
 -147032  -147032  -147032  -147033  -147033  -147032  -147032  -147033 
 -147032  -147031  -147032  -147033  -147029  -147031  -147032  -147031 
 -147029  -147029  -147029  -147032  -147032  -147029  -147032  -147033 
 -147031  -147029  -147032  -147033  -147032  -147031  -147031  -147033 
 -147033  -147032  -147032  -147031  -147029  -147033  -147035  -147032 
 -147032  -147032  -147032  -147033  -147032  -147032  -147035  -147031 
 -147029  -147031  -147031  -147032  -147033  -147033  -147032  -147033 
 -147035  -147032  -147031  -147033  -147033  -147032  -147032  -147032 
 -147032  -147031  -147028  -147031  -147033  -147033  -147032  -147033 
 -147033  -147035  -147036  -147037  -147035  -147032  -147033  -147035 
 -147033  -147032  -147031  -147032  -147033  -147032  -147029  -147027 
 -147024  -147028  -147032  -147035  -147037  -147042  -147042  -147039 
 -147033  -147032  -147035  -147036  -147043  -147054  -147056  -147052 
 -147048  -147044  -147033  -147021  -147017  -147015  -147010  -147012 
 -147017  -147025  -147039  -147056  -147067  -147063  -147056  -147050 
 -147039  -147037  -147036  -147012  -146981  -146961  -146954  -146969 
 -147009  -147043  -147048  -147039  -147023  -147002  -147010  -147056 
 -147112  -147147  -147152  -147120  -147047  -146977  -146939  -146921 
 -146948  -147015  -147050  -147048  -147050  -147042  -147029  -147039 
 -147043  -147046  -147078  -147108  -147094  -147047  -147000  -146955 
 -146913  -146913  -146961  -147008  -147050  -147079  -147060  -147028 
 -147042  -147079  -147082  -147051  -147033  -147043  -147060  -147064 
 -147025  -146970  -146970  -147023  -147063  -147075  -147086  -147091 
 -147063  -147004  -146965  -146989  -147042  -147074  -147073  -147048 
 -147023  -146993  -146952  -146952  -146998  -147008  -146986  -146986 
 -146979  -146996  -147074  -147117  -147104  -147101  -147063  -146975 
 -146935  -146974  -147028  -147046  -147051  -147086  -147106  -147073 
 -147040  -147040  -147055  -147081  -147090  -147060  -147024  -147027 
 -147059  -147060  -147008  -146967  -146989  -147040  -147075  -147077 
 -147043  -147001  -146983  -146977  -146985  -147043  -147086  -147054 
 -146996  -146956  -146944  -146986  -147073  -147132  -147118  -147070 
 -147062  -147077  -147063  -147032  -146996  -146959  -146955  -146970 
 -146978  -146981  -146974  -146982  -147050  -147093  -147058  -147047 
 -147089  -147105  -147083  -147047  -147044  -147067  -147032  -146955 
 -146917  -146925  -146954  -146973  -146996  -147064  -147127  -147133 
 -147131  -147114  -147079  -147078  -147093  -147078  -147064  -147052 
 -146992  -146913  -146885  -146916  -146966  -146994  -146996  -147006 
 -147046  -147085  -147100  -147089  -147083  -147091  -147102  -147132 
 -147143  -147074  -146970  -146929  -146974  -147015  -146990  -146969 
 -146993  -147027  -147055  -147073  -147069  -147058  -147054  -147051 
 -147037  -147037  -147077  -147104  -147083  -147035  -146988  -146961 
 -146963  -146970  -146962  -146977  -147020  -147059  -147091  -147098 
 -147071  -147067  -147089  -147075  -147035  -147000  -146966  -146954 
 -146956  -146946  -146966  -147043  -147104  -147104  -147087  -147091 
 -147109  -147104  -147075  -147064  -147058  -147010  -146961  -146954 
 -146981  -147002  -146992  -146983  -147002  -147023  -147055  -147094 
 -147094  -147060  -147036  -147047  -147064  -147047  -147020  -147008 
 -146979  -146948  -146946  -146965  -146988  -146989  -146983  -147013 
 -147056  -147071  -147073  -147082  -147094  -147090  -147069  -147036 
 -147013  -146998  -146997  -147024  -147074  -147123  -147133  -147089 
 -147028  -147000  -147010  -147042  -147066  -147067  -147044  -147017 
 -147006  -147009  -147006  -146996  -146997  -147012  -147029  -147027 
 -147002  -147000  -147020  -147029  -147047  -147075  -147074  -147040 
 -147020  -147042  -147069  -147042  -146975  -146938  -146947  -146983 
 -147039  -147078  -147070  -147039  -147016  -147008  -147001  -146986 
 -146992  -147040  -147096  -147118  -147093  -147031  -146994  -147001 
 -146997  -146981  -146994  -147029  -147040  -147027  -147025  -147025 
 -147015  -147028  -147077  -147104  -147087  -147069  -147067  -147075 
 -147086  -147112  -147137  -147109  -147035  -146975  -146948  -146932 
 -146932  -146975  -147052  -147108  -147105  -147064  -147028  -147017 
 -147017  -147004  -147002  -147020  -147028  -147021  -147019  -147004 
 -146974  -146961  -146983  -147031  -147075  -147090  -147078  -147066 
 -147070  -147081  -147078  -147048  -147019  -147029  -147062  -147064 
 -147040  -147023  -147023  -147031  -147024  -147002  -146981  -146961 
 -146967  -146997  -147028  -147063  -147070  -147023  -146974  -146970 
 -146996  -147032  -147073  -147108  -147108  -147062  -147017  -147002 
 -147000  -147012  -147040  -147060  -147071  -147079  -147067  -147040 
 -147046  -147083  -147094  -147074  -147054  -147037  -147025  -147013 
 -146996  -146988  -147000  -147015  -147006  -146963  -146927  -146944 
 -146994  -147019  -147021  -147025  -147023  -147025  -147043  -147052 
 -147042  -147029  -147020  -147012  -147020  -147044  -147060  -147062 
 -147079  -147110  -147114  -147091  -147066  -147035  -147016  -147044 
 -147089  -147083  -147042  -147032  -147058  -147066  -147046  -147024 
 -147009  -147004  -147016  -147025  -147017  -147013  -147031  -147050 
 -147046  -147031  -147009  -146996  -147027  -147081  -147079  -147027 
 -146974  -146939  -146929  -146943  -146966  -147008  -147070  -147120 
 -147124  -147083  -147055  -147047  -147017  -146975  -146961  -146982 
 -147008  -147012  -147016  -147028  -147024  -147032  -147073  -147096 
 -147075  -147042  -147015  -146989  -146963  -146962  -146994  -147037 
 -147077  -147102  -147104  -147093  -147087  -147079  -147051  -147005 
 -146973  -146971  -146996  -147028  -147058  -147073  -147056  -147019 
 -146998  -147012  -147037  -147054  -147067  -147091  -147104  -147086 
 -147050  -146998  -146931  -146886  -146896  -146934  -146969  -147015 
 -147074  -147121  -147151  -147151  -147100  -147013  -146948  -146929 
 -146944  -146974  -147017  -147064  -147090  -147096  -147089  -147059 
 -147019  -147005  -147031  -147067  -147081  -147078  -147077  -147062 
 -147029  -147005  -147021  -147069  -147091  -147071  -147043  -147023 
 -147006  -146998  -146983  -146988  -147056  -147121  -147101  -147060 
 -147052  -147023  -146973  -146969  -147005  -147029  -147028  -147013 
 -147019  -147063  -147087  -147050  -147012  -147017  -147019  -146973 
 -146925  -146938  -146992  -147042  -147070  -147060  -147037  -147055 
 -147083  -147047  -146983  -146975  -147012  -147043  -147043  -147021 
 -147015  -147037  -147066  -147082  -147081  -147075  -147077  -147090 
 -147100  -147073  -147017  -146994  -147017  -147017  -146978  -146969 
 -146983  -146971  -146946  -146931  -146947  -147009  -147077  -147093 
 -147051  -147015  -147028  -147047  -147019  -146967  -146954  -146994 
 -147054  -147100  -147114  -147097  -147078  -147100  -147139  -147135 
 -147106  -147090  -147059  -147029  -147056  -147102  -147096  -147059 
 -147036  -147009  -146971  -146966  -147001  -147027  -147013  -146992 
 -146977  -146966  -146978  -147023  -147066  -147074  -147056  -147042 
 -147035  -147035  -147031  -146996  -146955  -146956  -146981  -146981 
 -146981  -147020  -147066  -147085  -147098  -147098  -147071  -147048 
 -147044  -147055  -147071  -147075  -147060  -147042  -147024  -147019 
 -147033  -147048  -147048  -147033  -147001  -146975  -146988  -147039 
 -147087  -147078  -147035  -147016  -147013  -147017  -147027  -147021 
 -147023  -147051  -147044  -146989  -146973  -147008  -147004  -146955 
 -146938  -146969  -146997  -147017  -147047  -147077  -147089  -147077 
 -147066  -147062  -147033  -147001  -147005  -147015  -147013  -147031 
 -147067  -147089  -147089  -147066  -147029  -147004  -147001  -147021 
 -147036  -147033  -147040  -147062  -147055  -147044  -147077  -147112 
 -147096  -147058  -147036  -147027  -147005  -146977  -146973  -146992 
 -147009  -146998  -146969  -146981  -147039  -147077  -147074  -147067 
 -147069  -147056  -147019  -146986  -146973  -146970  -146986  -146996 
 -147001  -147040  -147083  -147082  -147056  -147025  -146998  -147002 
 -147033  -147055  -147051  -147040  -147042  -147054  -147051  -147035 
 -147029  -147029  -147000  -146965  -146963  -146997  -147050  -147091 
 -147093  -147062  -147035  -147044  -147077  -147081  -147042  -147002 
 -147005  -147028  -147046  -147067  -147105  -147131  -147113  -147048 
 -146969  -146923  -146955  -147048  -147109  -147106  -147079  -147059 
 -147052  -147052  -147021  -146973  -146965  -147005  -147047  -147059 
 -147058  -147050  -147020  -146996  -147019  -147039  -147002  -146956 
 -146948  -146973  -147027  -147073  -147062  -147017  -147005  -147042 
 -147093  -147105  -147062  -147017  -147021  -147036  -147006  -146962 
 -146975  -147039  -147082  -147085  -147073  -147070  -147083  -147081 
 -147048  -147013  -147002  -147031  -147063  -147044  -146988  -146948 
 -146948  -146983  -147028  -147052  -147047  -147037  -147037  -147040 
 -147037  -147029  -147021  -147023  -147025  -147021  -147016  -147013 
 -147005  -146982  -146986  -147044  -147101  -147116  -147098  -147062 
 -147020  -147001  -146998  -146998  -146996  -146988  -146993  -147008 
 -147009  -147012  -147031  -147048  -147052  -147063  -147074  -147069 
 -147064  -147056  -147010  -146958  -146961  -147015  -147074  -147098 
 -147078  -147043  -147023  -147021  -147036  -147052  -147040  -147010 
 -146996  -146998  -147012  -147021  -147015  -147012  -147025  -147040 
 -147066  -147101  -147123  -147110  -147055  -147016  -147054  -147082 
 -147050  -147033  -147020  -146993  -147019  -147070  -147087  -147093 
 -147093  -147064  -147012  -146970  -146950  -146950  -146969  -146981 
 -146993  -147024  -147048  -147039  -147024  -147019  -147019  -147032 
 -147033  -147020  -147032  -147047  -147024  -146997  -146992  -146996 
 -147010  -147031  -147046  -147066  -147096  -147117  -147104  -147062 
 -147043  -147060  -147074  -147059  -147012  -146959  -146958  -147021 
 -147096  -147108  -147055  -146996  -146952  -146924  -146923  -146975 
 -147052  -147090  -147075  -147051  -147033  -147013  -147005  -147023 
 -147035  -147015  -146983  -146998  -147074  -147143  -147133  -147064 
 -147012  -146996  -146989  -146983  -147005  -147063  -147114  -147124 
 -147108  -147077  -147043  -147039  -147040  -147013  -146983  -146985 
 -146993  -146978  -146966  -146983  -146994  -146973  -146965  -146992 
 -147025  -147046  -147058  -147054  -147025  -146996  -146983  -146975 
 -146966  -146967  -146977  -146982  -146986  -146989  -147006  -147037 
 -147037  -147010  -147008  -147029  -147047  -147071  -147120  -147163 
 -147164  -147145  -147128  -147090  -147051  -147040  -147032  -147016 
 -147024  -147069  -147116  -147133  -147108  -147051  -147002  -146992 
 -147006  -147037  -147077  -147102  -147110  -147101  -147069  -147029 
 -146996  -146956  -146907  -146882  -146908  -146955  -146993  -147019 
 -147005  -146963  -146952  -146973  -146973  -146962  -146977  -147008 
 -147035  -147044  -147024  -146998  -146982  -146966  -146962  -146994 
 -147044  -147069  -147052  -147013  -146979  -146974  -147008  -147059 
 -147113  -147156  -147189  -147224  -147270  -147322  -147366  -147379 
 -147364  -147317  -147241  -147159  -147087  -147020  -146966  -146947 
 -146974  -147021  -147073  -147104  -147074  -146993  -146928  -146920 
 -146942  -146944  -146915  -146880  -146853  -146855  -146909  -146979 
 -146994  -146970  -146970  -146983  -146950  -146873  -146819  -146847 
 -146935  -146996  -147012  -147033  -147051  -147046  -147039  -147000 
 -146904  -146826  -146826  -146857  -146859  -146858  -146896  -146952 
 -146990  -147015  -147048  -147071  -147073  -147079  -147109  -147150 
 -147185  -147222  -147272  -147318  -147334  -147306  -147241  -147175 
 -147114  -147056  -146998  -146954  -146962  -147019  -147073  -147112 
 -147162  -147210  -147236  -147221  -147172  -147124  -147083  -147033 
 -146994  -146994  -147016  -147052  -147110  -147178  -147208  -147174 
 -147120  -147086  -147042  -146948  -146808  -146669  -146603  -146619 
 -146664  -146699  -146734  -146797  -146888  -146956  -146986  -147017 
 -147047  -147025  -146971  -146935  -146915  -146904  -146905  -146925 
 -146961  -146994  -147023  -147079  -147185  -147312  -147403  -147436 
 -147440  -147453  -147455  -147388  -147245  -147044  -146842  -146735 
 -146758  -146842  -146932  -147031  -147097  -147101  -147110  -147129 
 -147093  -147021  -146966  -146940  -146942  -146969  -147036  -147121 
 -147189  -147233  -147252  -147243  -147214  -147156  -147074  -146992 
 -146923  -146867  -146839  -146848  -146873  -146904  -146955  -147000 
 -147002  -146966  -146927  -146924  -146927  -146907  -146917  -146971 
 -146988  -146971  -146983  -147031  -147063  -147054  -147004  -146928 
 -146871  -146888  -146969  -147064  -147164  -147266  -147336  -147341 
 -147291  -147222  -147172  -147136  -147090  -147031  -146962  -146889 
 -146846  -146851  -146874  -146890  -146929  -146993  -147042  -147063 
 -147067  -147059  -147046  -147027  -146994  -146963  -146947  -146940 
 -146946  -146977  -147016  -147027  -147021  -147024  -147044  -147075 
 -147094  -147087  -147078  -147083  -147085  -147058  -147012  -146988 
 -146990  -146993  -146986  -146977  -146955  -146952  -147015  -147123 
 -147216  -147262  -147264  -147221  -147147  -147090  -147062  -147054 
 -147075  -147102  -147118  -147150  -147182  -147171  -147109  -147005 
 -146890  -146819  -146809  -146839  -146890  -146928  -146942  -146958 
 -147000  -147073  -147145  -147179  -147183  -147204  -147236  -147220 
 -147128  -147023  -146946  -146878  -146831  -146834  -146870  -146909 
 -146935  -146948  -146979  -147032  -147077  -147083  -147055  -147006 
 -146962  -146942  -146935  -146917  -146894  -146885  -146900  -146955 
 -147033  -147089  -147109  -147114  -147114  -147110  -147087  -147064 
 -147082  -147110  -147087  -147055  -147069  -147096  -147109  -147158 
 -147240  -147276  -147239  -147167  -147094  -147031  -146986  -146951 
 -146893  -146832  -146826  -146877  -146947  -146973  -146934  -146897 
 -146916  -146961  -146998  -147019  -147028  -147048  -147062  -147060 
 -147086  -147120  -147127  -147133  -147120  -147035  -146934  -146920 
 -147009  -147113  -147170  -147198  -147224  -147231  -147199  -147145 
 -147070  -146971  -146878  -146834  -146857  -146921  -147002  -147086 
 -147135  -147121  -147058  -146989  -146958  -146955  -146948  -146943 
 -146952  -146978  -147009  -147010  -146966  -146916  -146904  -146928 
 -146948  -146963  -146997  -147033  -147064  -147112  -147139  -147106 
 -147074  -147086  -147123  -147164  -147193  -147175  -147114  -147050 
 -147009  -147010  -147037  -147039  -147016  -147032  -147087  -147132 
 -147148  -147132  -147083  -147035  -147008  -147005  -147036  -147066 
 -147063  -147037  -147005  -146979  -146952  -146929  -146938  -146971 
 -147004  -147019  -146998  -146958  -146947  -146971  -147001  -147039 
 -147077  -147101  -147128  -147148  -147118  -147040  -146961  -146929 
 -146962  -147005  -147016  -147005  -146996  -147002  -147027  -147054 
 -147075  -147082  -147071  -147047  -147039  -147071  -147108  -147097 
 -147052  -147006  -146955  -146898  -146873  -146907  -146970  -147028 
 -147082  -147139  -147171  -147167  -147174  -147217  -147237  -147172 
 -147051  -146944  -146902  -146923  -146971  -147010  -147031  -147047 
 -147047  -147016  -146966  -146908  -146865  -146877  -146951  -147019 
 -147032  -147028  -147042  -147066  -147083  -147060  -147004  -146978 
 -147010  -147060  -147079  -147069  -147050  -147035  -147028  -147035 
 -147047  -147067  -147098  -147098  -147060  -147037  -147031  -147004 
 -146961  -146917  -146904  -146948  -147033  -147112  -147152  -147121 
 -147048  -147010  -147016  -147020  -147019  -147054  -147124  -147168 
 -147183  -147193  -147201  -147209  -147212  -147189  -147123  -147020 
 -146947  -146958  -147004  -147012  -146997  -147008  -147004  -146940 
 -146863  -146838  -146859  -146861  -146835  -146846  -146888  -146920 
 -146956  -147001  -147028  -147048  -147079  -147097  -147098  -147093 
 -147069  -147010  -146927  -146871  -146908  -147004  -147070  -147102 
 -147144  -147175  -147170  -147167  -147190  -147190  -147132  -147060 
 -147035  -147043  -147036  -147031  -147035  -147015  -146978  -146974 
 -146982  -146963  -146931  -146927  -146951  -146981  -147012  -147021 
 -146996  -147002  -147064  -147125  -147145  -147121  -147073  -147027 
 -146989  -146974  -146992  -147031  -147067  -147083  -147104  -147145 
 -147178  -147183  -147152  -147083  -147032  -147023  -147028  -147016 
 -146966  -146913  -146912  -146947  -146994  -147048  -147066  -147020 
 -146961  -146929  -146919  -146912  -146916  -146934  -146939  -146927 
 -146940  -147001  -147086  -147162  -147187  -147167  -147144  -147141 
 -147151  -147163  -147162  -147123  -147060  -147024  -147039  -147067 
 -147051  -146992  -146940  -146931  -146959  -147008  -147054  -147077 
 -147083  -147081  -147066  -147031  -146966  -146916  -146923  -146955 
 -146981  -147006  -147024  -147047  -147083  -147093  -147074  -147071 
 -147087  -147073  -147020  -146971  -146950  -146947  -146952  -146966 
 -146981  -146996  -147025  -147046  -147013  -146958  -146942  -146979 
 -147046  -147105  -147141  -147175  -147197  -147190  -147168  -147131 
 -147055  -146982  -146970  -147000  -147005  -147002  -147048  -147104 
 -147112  -147108  -147113  -147086  -147025  -146977  -146954  -146946 
 -146966  -146996  -146993  -146994  -147042  -147086  -147089  -147069 
 -147031  -146975  -146924  -146898  -146916  -146958  -146986  -147024 
 -147066  -147063  -147032  -147010  -146996  -146989  -147008  -147042 
 -147044  -147009  -146974  -146955  -146919  -146869  -146882  -146979 
 -147091  -147185  -147255  -147274  -147224  -147143  -147090  -147081 
