Origin Time       2024/06/23 22:54:00
Lat.              35.645
Long.             140.060
Depth. (km)       72
Mag.              4.1
Station Code      SITH04
Station Lat.      35.8028
Station Long.     139.5353
Station Height(m) -1970
Record Time       2024/06/23 22:54:46
Sampling Freq(Hz) 100Hz
Duration Time(s)  120
Dir.              3
Scale Factor      2940(gal)/6170270
Max. Acc. (gal)   0.341
Last Correction   2024/06/23 22:54:31
Memo.             
[...]
  -62554   -62553   -62553   -62553   -62553   -62553   -62552   -62552 
  -62552   -62554   -62554   -62553   -62554   -62554   -62554   -62556 
  -62557   -62554   -62552   -62553   -62555   -62555   -62554   -62553 
  -62553   -62553   -62553   -62553   -62554   -62554   -62554   -62553 
  -62552   -62553   -62554   -62552   -62552   -62553   -62554   -62554 
  -62554   -62553   -62551   -62552   -62552   -62552   -62554   -62555 
  -62555   -62554   -62553   -62554   -62554   -62552   -62551   -62552 
  -62553   -62553   -62553   -62552   -62552   -62554   -62553   -62552 
  -62552   -62554   -62553   -62552   -62552   -62554   -62554   -62553 
  -62551   -62551   -62553   -62554   -62552   -62552   -62552   -62552 
  -62553   -62552   -62551   -62553   -62552   -62550   -62552   -62553 
  -62551   -62550   -62550   -62551   -62552   -62552   -62552   -62552 
  -62550   -62550   -62551   -62551   -62551   -62551   -62551   -62550 
  -62549   -62551   -62552   -62553   -62553   -62550   -62550   -62552 
  -62551   -62551   -62552   -62551   -62551   -62552   -62551   -62551 
  -62552   -62552   -62551   -62551   -62550   -62552   -62553   -62551 
  -62550   -62550   -62550   -62549   -62551   -62553   -62551   -62551 
  -62554   -62553   -62551   -62552   -62552   -62550   -62550   -62552 
  -62553   -62552   -62553   -62553   -62552   -62553   -62552   -62551 
  -62553   -62554   -62553   -62552   -62551   -62552   -62552   -62551 
  -62552   -62553   -62553   -62553   -62554   -62553   -62552   -62553 
  -62552   -62552   -62554   -62554   -62551   -62553   -62555   -62552 
  -62552   -62555   -62555   -62553   -62552   -62552   -62553   -62552 
  -62552   -62553   -62553   -62553   -62554   -62551   -62551   -62553 
  -62554   -62554   -62554   -62552   -62552   -62552   -62553   -62552 
  -62552   -62552   -62552   -62553   -62553   -62552   -62552   -62553 
  -62551   -62552   -62553   -62552   -62551   -62553   -62554   -62554 
  -62553   -62552   -62552   -62552   -62553   -62554   -62552   -62552 
  -62554   -62554   -62553   -62553   -62553   -62554   -62554   -62553 
  -62552   -62554   -62557   -62554   -62551   -62553   -62556   -62556 
  -62555   -62553   -62553   -62554   -62556   -62555   -62555   -62556 
  -62555   -62554   -62556   -62557   -62555   -62554   -62554   -62554 
  -62554   -62553   -62551   -62553   -62553   -62552   -62553   -62552 
  -62551   -62554   -62555   -62552   -62553   -62554   -62552   -62552 
  -62553   -62553   -62554   -62554   -62552   -62552   -62553   -62552 
  -62550   -62550   -62552   -62552   -62552   -62554   -62556   -62555 
  -62553   -62554   -62552   -62550   -62551   -62554   -62555   -62554 
  -62553   -62555   -62555   -62553   -62554   -62556   -62554   -62554 
  -62555   -62555   -62555   -62553   -62550   -62550   -62553   -62553 
  -62551   -62553   -62554   -62553   -62552   -62552   -62551   -62552 
  -62553   -62553   -62554   -62555   -62553   -62553   -62554   -62555 
  -62553   -62551   -62551   -62550   -62550   -62551   -62551   -62551 
  -62553   -62553   -62554   -62554   -62554   -62554   -62554   -62555 
  -62555   -62554   -62554   -62555   -62555   -62554   -62554   -62553 
  -62553   -62553   -62552   -62554   -62556   -62554   -62552   -62554 
  -62553   -62550   -62552   -62553   -62552   -62552   -62554   -62553 
  -62553   -62555   -62554   -62553   -62553   -62554   -62553   -62553 
  -62554   -62553   -62552   -62553   -62553   -62552   -62554   -62554 
  -62553   -62553   -62554   -62553   -62552   -62551   -62551   -62550 
  -62553   -62554   -62552   -62553   -62555   -62554   -62553   -62551 
  -62549   -62551   -62553   -62552   -62552   -62552   -62551   -62551 
  -62552   -62553   -62552   -62552   -62553   -62552   -62554   -62555 
  -62554   -62554   -62555   -62554   -62554   -62553   -62553   -62553 
  -62551   -62553   -62555   -62553   -62549   -62550   -62553   -62553 
  -62552   -62553   -62553   -62552   -62553   -62553   -62551   -62550 
  -62550   -62551   -62550   -62551   -62553   -62553   -62550   -62552 
  -62552   -62551   -62552   -62551   -62550   -62551   -62552   -62552 
  -62552   -62552   -62552   -62552   -62551   -62551   -62554   -62552 
  -62550   -62551   -62551   -62550   -62553   -62554   -62554   -62553 
  -62553   -62554   -62554   -62554   -62554   -62555   -62554   -62553 
  -62553   -62553   -62552   -62552   -62553   -62553   -62554   -62553 
  -62552   -62551   -62551   -62553   -62555   -62554   -62553   -62554 
  -62553   -62553   -62554   -62553   -62552   -62553   -62554   -62553 
  -62553   -62555   -62554   -62552   -62555   -62555   -62552   -62552 
  -62553   -62555   -62554   -62553   -62554   -62554   -62553   -62552 
  -62552   -62553   -62554   -62553   -62554   -62554   -62553   -62554 
  -62554   -62554   -62554   -62553   -62554   -62556   -62555   -62556 
  -62557   -62559   -62563   -62570   -62575   -62581   -62587   -62596 
  -62603   -62594   -62565   -62527   -62491   -62469   -62460   -62461 
  -62479   -62518   -62561   -62605   -62652   -62677   -62657   -62626 
  -62627   -62625   -62613   -62611   -62572   -62491   -62460   -62491 
  -62470   -62371   -62387   -62591   -62734   -62699   -62681   -62754 
  -62723   -62579   -62631   -62775   -62547   -62157   -62116   -62237 
  -62231   -62323   -62563   -62642   -62595   -62653   -62636   -62402 
  -62301   -62541   -62763   -62741   -62688   -62696   -62732   -62664 
  -62426   -62362   -62483   -62400   -62290   -62513   -62751   -62527 
  -62235   -62535   -62964   -62814   -62571   -62778   -62897   -62596 
  -62491   -62704   -62559   -62248   -62408   -62609   -62467   -62397 
  -62595   -62709   -62388   -62120   -62516   -62965   -62877   -62638 
  -62524   -62451   -62454   -62524   -62497   -62420   -62547   -62741 
  -62670   -62477   -62466   -62567   -62511   -62312   -62312   -62549 
  -62744   -62852   -62827   -62618   -62484   -62530   -62597   -62630 
  -62624   -62509   -62394   -62449   -62446   -62316   -62489   -62789 
  -62648   -62400   -62504   -62634   -62640   -62704   -62669   -62489 
  -62452   -62582   -62677   -62653   -62524   -62412   -62494   -62656 
  -62589   -62334   -62244   -62486   -62784   -62826   -62761   -62685 
  -62451   -62290   -62427   -62577   -62644   -62759   -62664   -62346 
  -62272   -62431   -62529   -62615   -62725   -62752   -62705   -62642 
  -62511   -62355   -62367   -62448   -62434   -62518   -62750   -62774 
  -62558   -62509   -62589   -62534   -62511   -62597   -62639   -62576 
  -62462   -62467   -62496   -62481   -62651   -62727   -62493   -62427 
  -62579   -62591   -62540   -62629   -62724   -62634   -62514   -62569 
  -62637   -62574   -62572   -62646   -62564   -62408   -62411   -62581 
  -62682   -62525   -62423   -62607   -62750   -62667   -62521   -62433 
  -62440   -62521   -62519   -62386   -62343   -62478   -62617   -62579 
  -62423   -62395   -62463   -62487   -62518   -62557   -62611   -62701 
  -62707   -62586   -62510   -62586   -62695   -62693   -62571   -62474 
  -62470   -62455   -62505   -62650   -62628   -62449   -62435   -62608 
  -62665   -62578   -62612   -62742   -62694   -62481   -62424   -62648 
  -62784   -62598   -62488   -62628   -62593   -62420   -62497   -62587 
  -62440   -62329   -62415   -62538   -62538   -62526   -62637   -62679 
  -62589   -62569   -62624   -62665   -62633   -62521   -62440   -62396 
  -62420   -62551   -62597   -62585   -62674   -62743   -62680   -62483 
  -62331   -62472   -62749   -62794   -62566   -62347   -62321   -62411 
  -62491   -62479   -62484   -62682   -62809   -62577   -62340   -62449 
  -62629   -62607   -62539   -62547   -62546   -62576   -62675   -62672 
  -62544   -62524   -62616   -62558   -62398   -62409   -62527   -62592 
  -62637   -62639   -62565   -62511   -62530   -62553   -62526   -62521 
  -62579   -62538   -62380   -62383   -62635   -62886   -62847   -62577 
  -62463   -62553   -62534   -62428   -62481   -62625   -62640   -62590 
  -62587   -62521   -62436   -62491   -62649   -62789   -62778   -62613 
  -62546   -62592   -62573   -62559   -62560   -62479   -62451   -62505 
  -62442   -62338   -62456   -62680   -62734   -62711   -62699   -62576 
  -62455   -62434   -62387   -62368   -62386   -62360   -62508   -62800 
  -62794   -62580   -62522   -62466   -62376   -62480   -62619   -62611 
  -62575   -62609   -62660   -62609   -62506   -62486   -62464   -62399 
  -62494   -62665   -62578   -62421   -62544   -62741   -62708   -62555 
  -62543   -62608   -62531   -62460   -62505   -62459   -62397   -62512 
  -62676   -62692   -62559   -62503   -62628   -62710   -62585   -62414 
  -62455   -62668   -62741   -62598   -62478   -62539   -62680   -62597 
  -62271   -62239   -62598   -62787   -62731   -62675   -62602   -62596 
  -62701   -62669   -62465   -62354   -62459   -62642   -62616   -62395 
  -62401   -62579   -62539   -62480   -62523   -62487   -62559   -62737 
  -62735   -62629   -62581   -62562   -62546   -62546   -62535   -62495 
  -62433   -62394   -62483   -62636   -62603   -62435   -62453   -62679 
  -62766   -62556   -62394   -62537   -62742   -62738   -62544   -62340 
  -62289   -62403   -62605   -62735   -62656   -62611   -62796   -62827 
  -62560   -62427   -62391   -62206   -62237   -62565   -62754   -62760 
  -62693   -62547   -62497   -62624   -62693   -62492   -62317   -62582 
  -62903   -62749   -62400   -62259   -62329   -62516   -62724   -62766 
  -62566   -62464   -62621   -62682   -62632   -62676   -62657   -62580 
  -62651   -62660   -62413   -62256   -62399   -62554   -62555   -62529 
  -62574   -62657   -62718   -62789   -62827   -62701   -62519   -62441 
  -62415   -62450   -62526   -62498   -62494   -62659   -62693   -62457 
  -62343   -62506   -62640   -62599   -62476   -62378   -62366   -62456 
  -62651   -62779   -62608   -62388   -62431   -62515   -62493   -62535 
  -62630   -62673   -62629   -62557   -62552   -62617   -62697   -62608 
  -62400   -62444   -62567   -62515   -62591   -62681   -62622   -62690 
  -62680   -62513   -62530   -62518   -62392   -62510   -62725   -62757 
  -62677   -62513   -62405   -62488   -62550   -62516   -62472   -62354 
  -62363   -62657   -62849   -62729   -62534   -62475   -62586   -62674 
  -62531   -62339   -62419   -62645   -62718   -62669   -62597   -62508 
  -62439   -62433   -62487   -62539   -62527   -62466   -62555   -62821 
  -62829   -62519   -62364   -62489   -62644   -62623   -62518   -62572 
  -62653   -62640   -62649   -62570   -62457   -62528   -62629   -62597 
  -62532   -62551   -62589   -62549   -62492   -62437   -62444   -62586 
  -62592   -62388   -62359   -62587   -62787   -62748   -62494   -62344 
  -62517   -62714   -62613   -62469   -62583   -62723   -62686   -62547 
  -62388   -62399   -62628   -62731   -62572   -62471   -62504   -62481 
  -62492   -62587   -62578   -62499   -62503   -62535   -62523   -62573 
  -62701   -62692   -62542   -62457   -62393   -62385   -62601   -62786 
  -62680   -62551   -62622   -62627   -62472   -62529   -62716   -62635 
  -62459   -62423   -62471   -62610   -62730   -62668   -62460   -62329 
  -62439   -62609   -62649   -62587   -62481   -62497   -62624   -62637 
  -62583   -62560   -62522   -62478   -62458   -62488   -62546   -62572 
  -62622   -62667   -62589   -62521   -62571   -62626   -62578   -62358 
  -62272   -62571   -62756   -62579   -62440   -62494   -62600   -62639 
  -62593   -62566   -62597   -62634   -62633   -62571   -62491   -62484 
  -62556   -62576   -62502   -62519   -62641   -62640   -62564   -62571 
  -62535   -62412   -62411   -62573   -62687   -62676   -62686   -62707 
  -62585   -62434   -62462   -62520   -62464   -62465   -62531   -62506 
  -62469   -62542   -62698   -62778   -62602   -62371   -62435   -62652 
  -62722   -62615   -62486   -62572   -62751   -62641   -62334   -62249 
  -62436   -62639   -62706   -62606   -62448   -62412   -62453   -62529 
  -62752   -62945   -62798   -62479   -62387   -62449   -62403   -62395 
  -62519   -62547   -62479   -62492   -62561   -62616   -62679   -62714 
  -62696   -62682   -62642   -62569   -62558   -62595   -62589   -62532 
  -62555   -62620   -62428   -62158   -62288   -62582   -62590   -62505 
  -62494   -62435   -62507   -62754   -62818   -62671   -62580   -62594 
  -62580   -62451   -62343   -62422   -62603   -62666   -62613   -62628 
  -62636   -62558   -62592   -62647   -62525   -62477   -62560   -62505 
  -62380   -62402   -62534   -62618   -62622   -62648   -62642   -62578 
  -62587   -62583   -62465   -62396   -62457   -62546   -62599   -62627 
  -62633   -62579   -62477   -62482   -62613   -62699   -62700   -62604 
  -62459   -62500   -62602   -62551   -62532   -62510   -62438   -62519 
  -62576   -62436   -62370   -62525   -62686   -62678   -62614   -62592 
  -62571   -62579   -62604   -62556   -62497   -62519   -62532   -62486 
  -62479   -62518   -62533   -62565   -62646   -62642   -62489   -62394 
  -62494   -62623   -62670   -62683   -62645   -62627   -62670   -62522 
  -62183   -62077   -62269   -62420   -62460   -62558   -62710   -62802 
  -62782   -62666   -62589   -62684   -62851   -62785   -62448   -62247 
  -62302   -62402   -62604   -62849   -62832   -62606   -62432   -62417 
  -62514   -62586   -62604   -62644   -62703   -62767   -62843   -62837 
  -62651   -62428   -62342   -62318   -62376   -62632   -62852   -62788 
  -62598   -62491   -62465   -62385   -62259   -62299   -62479   -62576 
  -62568   -62470   -62357   -62474   -62744   -62854   -62865   -62886 
  -62792   -62563   -62343   -62316   -62360   -62122   -61838   -62001 
  -62394   -62569   -62590   -62637   -62703   -62826   -62952   -62960 
  -62914   -62826   -62683   -62614   -62535   -62345   -62299   -62522 
  -62732   -62735   -62589   -62372   -62198   -62160   -62286   -62600 
  -62900   -62942   -62849   -62731   -62545   -62479   -62592   -62604 
  -62466   -62344   -62315   -62452   -62672   -62728   -62626   -62572 
  -62558   -62470   -62389   -62440   -62600   -62738   -62695   -62551 
  -62614   -62853   -62948   -62813   -62581   -62422   -62346   -62196 
  -62064   -62142   -62331   -62537   -62721   -62726   -62574   -62448 
  -62446   -62543   -62552   -62435   -62411   -62479   -62527   -62612 
  -62733   -62794   -62753   -62704   -62741   -62706   -62481   -62282 
  -62286   -62437   -62608   -62674   -62644   -62624   -62631   -62607 
  -62496   -62408   -62455   -62481   -62414   -62375   -62436   -62593 
  -62702   -62661   -62573   -62535   -62567   -62661   -62768   -62799 
  -62657   -62396   -62276   -62481   -62811   -62866   -62624   -62480 
  -62530   -62555   -62584   -62596   -62501   -62508   -62564   -62467 
  -62446   -62596   -62697   -62672   -62539   -62398   -62411   -62501 
  -62480   -62408   -62474   -62621   -62635   -62627   -62786   -62873 
  -62727   -62599   -62607   -62648   -62624   -62524   -62446   -62443 
  -62433   -62341   -62222   -62189   -62238   -62344   -62543   -62752 
  -62857   -62895   -62897   -62814   -62647   -62489   -62413   -62404 
  -62402   -62355   -62299   -62341   -62489   -62654   -62722   -62722 
  -62793   -62830   -62675   -62500   -62460   -62426   -62323   -62283 
  -62404   -62607   -62722   -62672   -62546   -62436   -62409   -62555 
  -62750   -62782   -62708   -62621   -62519   -62489   -62586   -62707 
  -62710   -62616   -62539   -62499   -62466   -62414   -62365   -62402 
  -62498   -62536   -62535   -62621   -62721   -62678   -62579   -62566 
  -62571   -62489   -62398   -62472   -62587   -62511   -62435   -62552 
  -62652   -62607   -62530   -62500   -62496   -62531   -62680   -62786 
  -62635   -62404   -62331   -62388   -62495   -62578   -62601   -62657 
  -62749   -62746   -62622   -62487   -62432   -62431   -62437   -62488 
  -62551   -62505   -62398   -62395   -62485   -62550   -62615   -62724 
  -62778   -62726   -62673   -62648   -62573   -62452   -62373   -62391 
  -62452   -62486   -62522   -62608   -62712   -62760   -62752   -62693 
  -62592   -62538   -62513   -62455   -62476   -62569   -62557   -62459 
  -62453   -62566   -62641   -62556   -62395   -62327   -62386   -62473 
  -62501   -62495   -62557   -62639   -62599   -62533   -62538   -62483 
  -62376   -62358   -62412   -62453   -62487   -62622   -62801   -62773 
  -62601   -62551   -62590   -62625   -62604   -62500   -62463   -62551 
  -62624   -62667   -62729   -62707   -62585   -62504   -62493   -62520 
  -62573   -62588   -62582   -62581   -62557   -62571   -62581   -62464 
  -62361   -62473   -62674   -62698   -62590   -62562   -62555   -62500 
  -62494   -62486   -62464   -62511   -62512   -62418   -62404   -62509 
  -62613   -62643   -62641   -62703   -62778   -62699   -62501   -62386 
  -62402   -62444   -62449   -62443   -62501   -62572   -62540   -62509 
  -62640   -62818   -62850   -62761   -62670   -62596   -62519   -62468 
  -62486   -62538   -62557   -62550   -62536   -62518   -62505   -62491 
  -62490   -62506   -62519   -62515   -62477   -62484   -62577   -62603 
  -62532   -62510   -62536   -62577   -62683   -62772   -62751   -62697 
  -62654   -62559   -62436   -62348   -62321   -62410   -62542   -62592 
  -62604   -62584   -62457   -62328   -62329   -62420   -62511   -62567 
  -62619   -62664   -62634   -62552   -62515   -62541   -62611   -62696 
  -62751   -62764   -62726   -62601   -62430   -62367   -62419   -62469 
  -62550   -62678   -62730   -62645   -62492   -62418   -62500   -62609 
  -62620   -62605   -62649   -62686   -62615   -62473   -62396   -62430 
  -62499   -62547   -62548   -62491   -62451   -62456   -62492   -62608 
  -62710   -62682   -62616   -62592   -62556   -62474   -62398   -62402 
  -62482   -62554   -62571   -62560   -62539   -62519   -62539   -62598 
  -62655   -62683   -62687   -62676   -62592   -62464   -62483   -62600 
  -62582   -62519   -62563   -62611   -62572   -62493   -62480   -62538 
  -62542   -62516   -62561   -62611   -62609   -62591   -62572   -62595 
  -62637   -62612   -62609   -62691   -62689   -62571   -62501   -62492 
  -62454   -62416   -62418   -62444   -62515   -62593   -62572   -62528 
  -62569   -62607   -62572   -62529   -62526   -62541   -62534   -62494 
  -62446   -62442   -62494   -62538   -62520   -62456   -62423   -62454 
  -62499   -62559   -62624   -62633   -62638   -62696   -62741   -62733 
  -62725   -62768   -62832   -62804   -62662   -62529   -62453   -62421 
  -62489   -62577   -62574   -62572   -62607   -62596   -62575   -62580 
  -62542   -62473   -62403   -62322   -62281   -62295   -62315   -62338 
  -62399   -62489   -62540   -62546   -62555   -62613   -62702   -62735 
  -62734   -62733   -62661   -62595   -62613   -62583   -62486   -62460 
  -62514   -62548   -62518   -62502   -62562   -62625   -62652   -62671 
  -62681   -62685   -62647   -62527   -62429   -62449   -62545   -62617 
  -62590   -62485   -62408   -62423   -62465   -62498   -62555   -62597 
  -62607   -62602   -62569   -62539   -62522   -62504   -62524   -62509 
  -62368   -62232   -62272   -62432   -62565   -62680   -62831   -62909 
  -62815   -62684   -62653   -62630   -62543   -62510   -62575   -62654 
  -62674   -62625   -62560   -62527   -62523   -62513   -62473   -62433 
  -62395   -62364   -62382   -62427   -62469   -62548   -62661   -62698 
  -62612   -62526   -62526   -62550   -62556   -62562   -62570   -62596 
  -62646   -62668   -62583   -62464   -62451   -62470   -62448   -62492 
