Origin Time       2024/06/23 22:54:00
Lat.              35.645
Long.             140.060
Depth. (km)       72
Mag.              4.1
Station Code      SITH04
Station Lat.      35.8028
Station Long.     139.5353
Station Height(m) 30
Record Time       2024/06/23 22:54:46
Sampling Freq(Hz) 100Hz
Duration Time(s)  120
Dir.              4
Scale Factor      3920(gal)/6170801
Max. Acc. (gal)   1.169
Last Correction   2024/06/23 22:54:31
Memo.             
[...]
   -3602    -3487    -3405    -3366    -3436    -3559    -3528    -3364 
   -3281    -3340    -3457    -3585    -3705    -3711    -3526    -3334 
   -3352    -3483    -3530    -3516    -3512    -3484    -3459    -3507 
   -3571    -3575    -3544    -3537    -3549    -3509    -3381    -3276 
   -3314    -3432    -3530    -3640    -3689    -3556    -3421    -3459 
   -3515    -3456    -3366    -3372    -3495    -3628    -3678    -3617 
   -3460    -3356    -3429    -3549    -3539    -3448    -3399    -3384 
   -3368    -3422    -3580    -3695    -3651    -3548    -3485    -3426 
   -3369    -3386    -3465    -3537    -3565    -3527    -3475    -3492 
   -3559    -3634    -3651    -3490    -3255    -3208    -3339    -3499 
   -3626    -3644    -3547    -3451    -3432    -3523    -3627    -3601 
   -3512    -3473    -3455    -3439    -3422    -3373    -3342    -3437 
   -3613    -3714    -3650    -3459    -3328    -3359    -3471    -3587 
   -3609    -3477    -3347    -3391    -3568    -3685    -3623    -3466 
   -3352    -3363    -3521    -3690    -3696    -3548    -3354    -3175 
   -3150    -3372    -3657    -3791    -3792    -3709    -3534    -3346 
   -3264    -3309    -3437    -3584    -3641    -3536    -3344    -3237 
   -3326    -3559    -3764    -3801    -3671    -3499    -3397    -3355 
   -3361    -3436    -3496    -3526    -3569    -3526    -3413    -3394 
   -3458    -3521    -3547    -3486    -3372    -3359    -3527    -3711 
   -3693    -3506    -3353    -3366    -3549    -3747    -3764    -3582 
   -3316    -3122    -3166    -3449    -3736    -3806    -3673    -3477 
   -3332    -3304    -3357    -3410    -3476    -3581    -3643    -3578 
   -3439    -3376    -3444    -3548    -3647    -3717    -3621    -3398 
   -3297    -3333    -3373    -3470    -3632    -3684    -3587    -3478 
   -3440    -3444    -3465    -3507    -3517    -3440    -3338    -3334 
   -3444    -3585    -3694    -3677    -3516    -3392    -3443    -3570 
   -3617    -3540    -3407    -3332    -3403    -3590    -3724    -3627 
   -3365    -3234    -3373    -3590    -3637    -3511    -3388    -3351 
   -3396    -3520    -3616    -3577    -3503    -3522    -3573    -3543 
   -3466    -3457    -3514    -3542    -3524    -3483    -3415    -3373 
   -3431    -3545    -3597    -3556    -3492    -3443    -3399    -3408 
   -3485    -3553    -3567    -3538    -3481    -3422    -3426    -3526 
   -3652    -3680    -3560    -3400    -3343    -3413    -3510    -3537 
   -3497    -3447    -3440    -3486    -3525    -3506    -3462    -3450 
   -3475    -3514    -3534    -3504    -3451    -3460    -3534    -3594 
   -3587    -3516    -3432    -3419    -3477    -3519    -3517    -3498 
   -3467    -3456    -3489    -3514    -3493    -3465    -3475    -3505 
   -3513    -3502    -3475    -3439    -3438    -3478    -3519    -3527 
   -3523    -3542    -3542    -3484    -3438    -3453    -3499    -3547 
   -3553    -3492    -3431    -3440    -3488    -3491    -3464    -3456 
   -3463    -3490    -3532    -3530    -3484    -3453    -3464    -3497 
   -3523    -3540    -3543    -3510    -3475    -3496    -3537    -3516 
   -3452    -3423    -3449    -3481    -3487    -3486    -3494    -3499 
   -3502    -3515    -3511    -3466    -3424    -3442    -3504    -3550 
   -3544    -3509    -3488    -3494    -3509    -3500    -3474    -3475 
   -3483    -3454    -3442    -3489    -3528    -3503    -3465    -3457 
   -3466    -3501    -3542    -3534    -3503    -3491    -3486    -3464 
   -3443    -3457    -3489    -3511    -3525    -3513    -3466    -3435 
   -3476    -3559    -3588    -3546    -3476    -3412    -3396    -3448 
   -3522    -3545    -3502    -3475    -3497    -3504    -3482    -3474 
   -3501    -3532    -3533    -3515    -3475    -3421    -3409    -3450 
   -3474    -3456    -3449    -3487    -3546    -3581    -3573    -3551 
   -3540    -3538    -3541    -3521    -3456    -3399    -3383    -3387 
   -3424    -3484    -3513    -3493    -3472    -3514    -3591    -3605 
   -3553    -3504    -3496    -3504    -3471    -3433    -3451    -3480 
   -3452    -3364    -3290    -3322    -3443    -3545    -3609    -3668 
   -3678    -3613    -3524    -3459    -3426    -3424    -3464    -3526 
   -3562    -3537    -3435    -3333    -3380    -3572    -3705    -3653 
   -3512    -3388    -3351    -3420    -3484    -3497    -3522    -3542 
   -3539    -3568    -3602    -3505    -3321    -3276    -3440    -3673 
   -3774    -3624    -3331    -3179    -3344    -3613    -3650    -3512 
   -3450    -3483    -3516    -3508    -3473    -3472    -3534    -3578 
   -3505    -3416    -3446    -3496    -3460    -3455    -3564    -3638 
   -3560    -3423    -3348    -3402    -3558    -3663    -3598    -3422 
   -3348    -3493    -3637    -3538    -3300    -3206    -3405    -3701 
   -3745    -3572    -3432    -3355    -3365    -3495    -3595    -3562 
   -3493    -3504    -3555    -3554    -3508    -3467    -3487    -3584 
   -3636    -3526    -3364    -3340    -3421    -3455    -3412    -3358 
   -3421    -3644    -3837    -3820    -3627    -3386    -3198    -3137 
   -3249    -3474    -3639    -3600    -3401    -3304    -3476    -3733 
   -3820    -3689    -3479    -3437    -3631    -3744    -3545    -3327 
   -3416    -3611    -3579    -3377    -3254    -3286    -3375    -3439 
   -3441    -3366    -3340    -3478    -3668    -3785    -3796    -3655 
   -3407    -3235    -3254    -3379    -3417    -3317    -3215    -3212 
   -3292    -3412    -3575    -3803    -3984    -3997    -3922    -3858 
   -3810    -3756    -3659    -3534    -3444    -3407    -3350    -3168 
   -2929    -2870    -3042    -3245    -3354    -3400    -3493    -3739 
   -4018    -4084    -3958    -3802    -3646    -3467    -3290    -3200 
   -3258    -3350    -3300    -3136    -3053    -3131    -3296    -3498 
   -3738    -3947    -4011    -3934    -3819    -3784    -3899    -3972 
   -3701    -3194    -2814    -2673    -2722    -2935    -3240    -3529 
   -3741    -3807    -3685    -3546    -3598    -3788    -3912    -3916 
   -3864    -3764    -3590    -3343    -3078    -2899    -2900    -3070 
   -3283    -3442    -3572    -3694    -3741    -3679    -3615    -3647 
   -3724    -3759    -3709    -3589    -3450    -3321    -3249    -3253 
   -3278    -3311    -3342    -3323    -3311    -3411    -3575    -3677 
   -3678    -3641    -3632    -3629    -3597    -3568    -3563    -3554 
   -3502    -3376    -3238    -3230    -3371    -3502    -3498    -3402 
   -3354    -3435    -3592    -3702    -3693    -3621    -3569    -3531 
   -3492    -3459    -3442    -3462    -3479    -3420    -3341    -3368 
   -3487    -3574    -3576    -3554    -3588    -3626    -3565    -3460 
   -3455    -3533    -3554    -3481    -3398    -3344    -3304    -3335 
   -3451    -3550    -3630    -3747    -3834    -3806    -3666    -3492 
   -3393    -3380    -3373    -3358    -3372    -3397    -3426    -3443 
   -3387    -3293    -3267    -3373    -3581    -3759    -3830    -3802 
   -3658    -3437    -3250    -3173    -3237    -3376    -3477    -3523 
   -3512    -3444    -3428    -3515    -3579    -3560    -3584    -3696 
   -3760    -3672    -3467    -3305    -3316    -3407    -3435    -3421 
   -3433    -3473    -3494    -3459    -3381    -3315    -3335    -3450 
   -3596    -3730    -3824    -3836    -3736    -3575    -3460    -3434 
   -3440    -3370    -3236    -3226    -3392    -3541    -3542    -3459 
   -3398    -3380    -3401    -3478    -3592    -3696    -3742    -3663 
   -3491    -3400    -3474    -3566    -3529    -3405    -3305    -3276 
   -3325    -3420    -3513    -3599    -3656    -3651    -3610    -3585 
   -3557    -3459    -3335    -3304    -3389    -3556    -3692    -3653 
   -3504    -3402    -3346    -3324    -3384    -3476    -3503    -3490 
   -3568    -3705    -3713    -3570    -3415    -3321    -3285    -3320 
   -3456    -3647    -3720    -3572    -3332    -3216    -3263    -3380 
   -3546    -3708    -3735    -3681    -3687    -3711    -3674    -3613 
   -3550    -3461    -3392    -3374    -3335    -3270    -3292    -3388 
   -3424    -3402    -3451    -3602    -3739    -3754    -3654    -3532 
   -3486    -3535    -3550    -3432    -3318    -3345    -3374    -3267 
   -3145    -3158    -3259    -3343    -3428    -3582    -3767    -3886 
   -3880    -3748    -3586    -3540    -3607    -3624    -3509    -3382 
   -3343    -3330    -3310    -3345    -3447    -3563    -3661    -3707 
   -3645    -3504    -3366    -3271    -3299    -3466    -3702    -3931 
   -3974    -3731    -3368    -3117    -3098    -3223    -3335    -3414 
   -3467    -3485    -3517    -3571    -3592    -3561    -3502    -3453 
   -3477    -3559    -3608    -3624    -3615    -3550    -3475    -3440 
   -3454    -3501    -3500    -3444    -3412    -3425    -3497    -3615 
   -3683    -3648    -3552    -3520    -3593    -3607    -3476    -3321 
   -3210    -3137    -3149    -3290    -3492    -3631    -3638    -3540 
   -3455    -3505    -3660    -3762    -3730    -3652    -3603    -3545 
   -3491    -3510    -3530    -3455    -3331    -3275    -3311    -3333 
   -3343    -3478    -3654    -3669    -3578    -3562    -3634    -3665 
   -3535    -3263    -3043    -3075    -3334    -3567    -3587    -3479 
   -3447    -3565    -3768    -3897    -3798    -3554    -3419    -3457 
   -3554    -3649    -3684    -3545    -3255    -3026    -3026    -3186 
   -3309    -3346    -3425    -3626    -3839    -3892    -3741    -3533 
   -3422    -3395    -3399    -3436    -3476    -3450    -3350    -3253 
   -3300    -3551    -3811    -3822    -3632    -3538    -3629    -3647 
   -3477    -3341    -3396    -3562    -3648    -3537    -3354    -3258 
   -3278    -3382    -3491    -3531    -3526    -3594    -3742    -3742 
   -3515    -3336    -3355    -3422    -3437    -3444    -3469    -3464 
   -3426    -3439    -3556    -3705    -3745    -3655    -3562    -3528 
   -3510    -3451    -3328    -3245    -3304    -3425    -3501    -3574 
   -3681    -3727    -3636    -3471    -3316    -3236    -3257    -3328 
   -3407    -3475    -3526    -3604    -3699    -3710    -3598    -3449 
   -3364    -3351    -3377    -3417    -3425    -3428    -3477    -3514 
   -3509    -3544    -3657    -3742    -3699    -3609    -3585    -3616 
   -3623    -3548    -3388    -3222    -3152    -3202    -3306    -3423 
   -3540    -3633    -3701    -3739    -3694    -3523    -3322    -3263 
   -3357    -3475    -3534    -3537    -3540    -3524    -3421    -3280 
   -3203    -3238    -3400    -3585    -3643    -3612    -3635    -3711 
   -3706    -3617    -3609    -3748    -3867    -3759    -3433    -3119 
   -2998    -3103    -3346    -3515    -3478    -3348    -3330    -3443 
   -3512    -3470    -3467    -3618    -3844    -3930    -3724    -3323 
   -3000    -2956    -3164    -3431    -3583    -3590    -3541    -3531 
   -3561    -3607    -3681    -3760    -3814    -3811    -3690    -3471 
   -3294    -3269    -3385    -3556    -3635    -3546    -3376    -3224 
   -3172    -3320    -3619    -3844    -3849    -3681    -3482    -3377 
   -3361    -3347    -3366    -3508    -3669    -3682    -3584    -3462 
   -3327    -3242    -3280    -3421    -3565    -3579    -3457    -3357 
   -3368    -3466    -3575    -3599    -3561    -3603    -3745    -3818 
   -3660    -3334    -3109    -3176    -3415    -3557    -3464    -3213 
   -3070    -3211    -3507    -3754    -3859    -3834    -3743    -3631 
   -3542    -3488    -3441    -3425    -3443    -3472    -3551    -3666 
   -3656    -3419    -3143    -3121    -3375    -3689    -3841    -3755 
   -3547    -3385    -3351    -3395    -3451    -3555    -3681    -3696 
   -3557    -3336    -3178    -3194    -3323    -3416    -3436    -3463 
   -3547    -3657    -3698    -3601    -3451    -3381    -3379    -3390 
   -3472    -3678    -3872    -3836    -3567    -3268    -3145    -3243 
   -3395    -3431    -3365    -3348    -3495    -3728    -3846    -3757 
   -3554    -3376    -3315    -3372    -3454    -3490    -3513    -3560 
   -3629    -3697    -3720    -3683    -3616    -3549    -3485    -3416 
   -3385    -3450    -3547    -3548    -3446    -3321    -3247    -3273 
   -3380    -3503    -3629    -3709    -3647    -3479    -3351    -3313 
   -3318    -3369    -3489    -3638    -3753    -3730    -3511    -3260 
   -3213    -3360    -3449    -3348    -3275    -3432    -3736    -3995 
   -4038    -3780    -3393    -3173    -3194    -3323    -3432    -3464 
   -3456    -3486    -3532    -3550    -3513    -3394    -3309    -3402 
   -3604    -3773    -3806    -3704    -3594    -3544    -3511    -3442 
   -3316    -3232    -3313    -3469    -3498    -3416    -3422    -3536 
   -3587    -3471    -3262    -3181    -3339    -3608    -3807    -3836 
   -3710    -3575    -3537    -3551    -3540    -3511    -3473    -3371 
   -3206    -3127    -3229    -3366    -3356    -3293    -3404    -3699 
   -3990    -4109    -4002    -3812    -3748    -3779    -3678    -3371 
   -3023    -2834    -2860    -2986    -3099    -3175    -3182    -3149 
   -3245    -3536    -3935    -4306    -4424    -4191    -3878    -3737 
   -3650    -3409    -3006    -2587    -2349    -2400    -2672    -2982 
   -3220    -3435    -3674    -3905    -4128    -4365    -4550    -4653 
   -4763    -4844    -4721    -4404    -4065    -3781    -3498    -3162 
   -2810    -2489    -2223    -2083    -2131    -2361    -2735    -3145 
   -3421    -3487    -3450    -3439    -3457    -3458    -3406    -3275 
   -3103    -2956    -2871    -2856    -2978    -3368    -3961    -4417 
   -4495    -4300    -4167    -4364    -4838    -5276    -5332    -4852 
   -4002    -3156    -2687    -2738    -3113    -3473    -3561    -3328 
   -2982    -2830    -2970    -3210    -3336    -3318    -3233    -3151 
   -3070    -2976    -2879    -2831    -2879    -2946    -2964    -3034 
   -3277    -3675    -4078    -4328    -4379    -4267    -4098    -3921 
   -3678    -3446    -3372    -3384    -3370    -3376    -3469    -3633 
   -3777    -3785    -3670    -3587    -3628    -3740    -3792    -3683 
   -3466    -3237    -3048    -3022    -3255    -3567    -3620    -3333 
   -3015    -2941    -3039    -3171    -3345    -3536    -3661    -3712 
   -3742    -3778    -3840    -3944    -3988    -3782    -3345    -2949 
   -2770    -2768    -2846    -2947    -3064    -3162    -3180    -3220 
   -3482    -4006    -4650    -5111    -5066    -4562    -4028    -3772 
   -3713    -3599    -3302    -2887    -2497    -2331    -2559    -3078 
   -3626    -4047    -4322    -4474    -4497    -4371    -4094    -3692 
   -3245    -2861    -2556    -2281    -2106    -2214    -2653    -3210 
   -3578    -3630    -3546    -3626    -3947    -4291    -4365    -4049 
   -3474    -2928    -2664    -2742    -2965    -3061    -3025    -3132 
   -3506    -3963    -4234    -4139    -3779    -3503    -3549    -3861 
   -4121    -4059    -3731    -3312    -3021    -3066    -3357    -3622 
   -3702    -3618    -3501    -3440    -3475    -3628    -3834    -4002 
   -4053    -3956    -3779    -3600    -3405    -3195    -3089    -3149 
   -3256    -3274    -3151    -2951    -2839    -2894    -3071    -3301 
   -3501    -3612    -3654    -3715    -3849    -3987    -4010    -3851 
   -3573    -3341    -3300    -3497    -3828    -4089    -4169    -4047 
   -3762    -3436    -3183    -3050    -3066    -3221    -3420    -3523 
   -3473    -3319    -3171    -3149    -3240    -3337    -3424    -3452 
   -3349    -3207    -3155    -3206    -3256    -3209    -3148    -3214 
   -3379    -3546    -3712    -3875    -4018    -4152    -4214    -4107 
   -3886    -3701    -3591    -3487    -3349    -3182    -3028    -2999 
   -3136    -3300    -3369    -3396    -3509    -3733    -3955    -4085 
   -4130    -4113    -4029    -3852    -3643    -3498    -3376    -3197 
   -2999    -2916    -3049    -3309    -3505    -3570    -3554    -3533 
   -3531    -3483    -3389    -3340    -3324    -3271    -3194    -3180 
   -3296    -3482    -3618    -3680    -3672    -3589    -3497    -3451 
   -3430    -3402    -3331    -3251    -3262    -3348    -3381    -3334 
   -3335    -3509    -3835    -4176    -4367    -4251    -3855    -3396 
   -3067    -2939    -2968    -3034    -3070    -3113    -3198    -3326 
   -3459    -3536    -3595    -3710    -3826    -3870    -3901    -3981 
   -4007    -3859    -3616    -3404    -3242    -3146    -3142    -3193 
   -3250    -3291    -3333    -3437    -3620    -3788    -3821    -3685 
   -3450    -3238    -3178    -3296    -3487    -3665    -3778    -3777 
   -3723    -3733    -3788    -3828    -3844    -3789    -3602    -3323 
   -3095    -3063    -3218    -3396    -3514    -3629    -3757    -3822 
   -3735    -3491    -3254    -3216    -3370    -3561    -3668    -3666 
   -3591    -3475    -3316    -3135    -3000    -2960    -3011    -3114 
   -3228    -3337    -3410    -3405    -3374    -3411    -3542    -3732 
   -3863    -3832    -3719    -3677    -3714    -3766    -3818    -3841 
   -3777    -3637    -3511    -3452    -3432    -3399    -3333    -3232 
   -3107    -3053    -3169    -3359    -3469    -3505    -3545    -3614 
   -3703    -3769    -3755    -3680    -3641    -3697    -3741    -3635 
   -3427    -3234    -3120    -3149    -3287    -3433    -3582    -3749 
   -3863    -3865    -3780    -3659    -3524    -3365    -3231    -3202 
   -3230    -3210    -3124    -2993    -2870    -2890    -3145    -3546 
   -3896    -4049    -4081    -4180    -4301    -4270    -4058    -3725 
   -3370    -3078    -2843    -2677    -2681    -2898    -3236    -3553 
   -3761    -3840    -3815    -3700    -3566    -3498    -3471    -3469 
   -3497    -3490    -3449    -3437    -3475    -3549    -3607    -3620 
   -3629    -3664    -3719    -3743    -3637    -3400    -3225    -3241 
   -3315    -3359    -3411    -3438    -3405    -3363    -3338    -3325 
   -3317    -3301    -3306    -3380    -3487    -3549    -3553    -3518 
   -3446    -3372    -3339    -3347    -3388    -3475    -3624    -3836 
   -4057    -4170    -4078    -3833    -3616    -3535    -3552    -3591 
   -3577    -3448    -3255    -3109    -3102    -3281    -3542    -3702 
   -3722    -3695    -3677    -3634    -3533    -3398    -3287    -3219 
   -3183    -3203    -3241    -3229    -3197    -3149    -3064    -3062 
   -3267    -3647    -4063    -4355    -4413    -4198    -3796    -3445 
   -3294    -3279    -3305    -3345    -3362    -3335    -3337    -3463 
   -3681    -3867    -3948    -3919    -3802    -3602    -3304    -2943 
   -2665    -2620    -2808    -3113    -3406    -3571    -3545    -3377 
   -3206    -3173    -3318    -3573    -3840    -4034    -4106    -4039 
   -3844    -3587    -3391    -3377    -3532    -3678    -3661    -3516 
   -3425    -3517    -3694    -3797    -3820    -3777    -3628    -3441 
   -3314    -3215    -3111    -3039    -3008    -3012    -3078    -3191 
   -3278    -3344    -3475    -3640    -3731    -3808    -3962    -4075 
   -4022    -3871    -3721    -3566    -3392    -3323    -3445    -3618 
   -3682    -3658    -3587    -3451    -3288    -3162    -3099    -3137 
   -3288    -3477    -3583    -3553    -3490    -3478    -3509    -3644 
   -3891    -4032    -3897    -3619    -3417    -3282    -3096    -2939 
   -2930    -2973    -2953    -2963    -3156    -3490    -3800    -4034 
   -4200    -4233    -4056    -3730    -3402    -3154    -3016    -2989 
   -3038    -3156    -3310    -3430    -3531    -3640    -3749    -3864 
