Origin Time       2024/06/23 22:54:00
Lat.              35.645
Long.             140.060
Depth. (km)       72
Mag.              4.1
Station Code      SITH11
Station Lat.      35.8637
Station Long.     139.2726
Station Height(m) 53.5
Record Time       2024/06/23 22:54:52
Sampling Freq(Hz) 100Hz
Duration Time(s)  120
Dir.              2
Scale Factor      2942(gal)/8224139
Max. Acc. (gal)   0.143
Last Correction   2024/06/23 22:54:52
Memo.             
[...]
  -49131   -49130   -49129   -49133   -49131   -49127   -49129   -49133 
  -49133   -49130   -49129   -49131   -49131   -49131   -49133   -49131 
  -49130   -49134   -49135   -49133   -49133   -49131   -49130   -49133 
  -49137   -49140   -49135   -49125   -49123   -49137   -49137   -49127 
  -49135   -49133   -49121   -49129   -49137   -49129   -49127   -49133 
  -49129   -49127   -49133   -49133   -49134   -49131   -49131   -49134 
  -49130   -49130   -49134   -49129   -49130   -49133   -49129   -49129 
  -49131   -49131   -49130   -49127   -49129   -49133   -49133   -49129 
  -49130   -49133   -49130   -49130   -49133   -49133   -49130   -49129 
  -49134   -49135   -49130   -49133   -49130   -49126   -49137   -49134 
  -49127   -49130   -49129   -49129   -49131   -49127   -49130   -49133 
  -49130   -49130   -49133   -49130   -49129   -49131   -49131   -49135 
  -49141   -49133   -49123   -49134   -49140   -49122   -49122   -49140 
  -49130   -49123   -49133   -49127   -49127   -49133   -49130   -49131 
  -49134   -49138   -49131   -49121   -49127   -49135   -49129   -49126 
  -49134   -49129   -49126   -49133   -49131   -49129   -49133   -49133 
  -49129   -49130   -49129   -49129   -49134   -49133   -49130   -49135 
  -49131   -49125   -49130   -49135   -49131   -49130   -49133   -49127 
  -49127   -49134   -49134   -49127   -49125   -49133   -49133   -49127 
  -49133   -49133   -49126   -49131   -49135   -49130   -49129   -49131 
  -49130   -49133   -49133   -49129   -49131   -49134   -49131   -49129 
  -49130   -49134   -49134   -49133   -49133   -49131   -49130   -49133 
  -49133   -49129   -49129   -49129   -49127   -49130   -49130   -49129 
  -49131   -49130   -49129   -49131   -49133   -49131   -49130   -49129 
  -49131   -49131   -49131   -49130   -49129   -49129   -49130   -49130 
  -49131   -49133   -49130   -49131   -49134   -49131   -49130   -49131 
  -49130   -49133   -49134   -49129   -49130   -49137   -49133   -49129 
  -49130   -49129   -49130   -49133   -49131   -49127   -49130   -49133 
  -49131   -49129   -49134   -49135   -49127   -49127   -49135   -49134 
  -49131   -49131   -49131   -49130   -49129   -49129   -49133   -49135 
  -49133   -49126   -49122   -49129   -49134   -49130   -49126   -49127 
  -49127   -49129   -49129   -49129   -49130   -49127   -49126   -49127 
  -49129   -49126   -49123   -49127   -49129   -49131   -49134   -49134 
  -49130   -49122   -49121   -49130   -49130   -49133   -49144   -49146 
  -49145   -49142   -49130   -49107   -49075   -49069   -49092   -49096 
  -49106   -49144   -49157   -49148   -49138   -49118   -49098   -49098 
  -49110   -49130   -49144   -49152   -49158   -49158   -49153   -49144 
  -49127   -49119   -49122   -49127   -49141   -49154   -49149   -49131 
  -49118   -49114   -49125   -49142   -49161   -49160   -49134   -49125 
  -49140   -49149   -49154   -49180   -49206   -49221   -49235   -49192 
  -49072   -48992   -49014   -49063   -49099   -49157   -49233   -49287 
  -49296   -49242   -49161   -49130   -49156   -49183   -49179   -49156 
  -49135   -49121   -49077   -49021   -48998   -49013   -49060   -49113 
  -49137   -49161   -49179   -49153   -49080   -49007   -49022   -49123 
  -49196   -49185   -49121   -49048   -48998   -49037   -49173   -49284 
  -49288   -49233   -49140   -49026   -48991   -49071   -49189   -49276 
  -49307   -49234   -49064   -48976   -49064   -49167   -49173   -49152 
  -49134   -49107   -49111   -49144   -49122   -49084   -49117   -49145 
  -49108   -49063   -49080   -49135   -49115   -49050   -49056   -49121 
  -49210   -49280   -49252   -49150   -49060   -49007   -49015   -49117 
  -49241   -49260   -49196   -49144   -49133   -49148   -49154   -49171 
  -49194   -49169   -49130   -49118   -49094   -49077   -49096   -49130 
  -49171   -49172   -49096   -49023   -49025   -49054   -49083   -49111 
  -49127   -49158   -49183   -49127   -49050   -49046   -49092   -49141 
  -49184   -49216   -49226   -49188   -49142   -49162   -49218   -49211 
  -49142   -49081   -49069   -49102   -49140   -49145   -49131   -49122 
  -49118   -49131   -49161   -49183   -49199   -49187   -49118   -49042 
  -49038   -49084   -49099   -49079   -49092   -49135   -49141   -49114 
  -49103   -49110   -49126   -49167   -49208   -49202   -49152   -49141 
  -49160   -49115   -49053   -49063   -49099   -49119   -49144   -49165 
  -49179   -49176   -49131   -49079   -49100   -49187   -49229   -49189 
  -49134   -49096   -49092   -49125   -49150   -49142   -49115   -49079 
  -49052   -49072   -49133   -49189   -49206   -49160   -49086   -49054 
  -49087   -49130   -49140   -49125   -49125   -49142   -49135   -49103 
  -49102   -49117   -49106   -49090   -49102   -49153   -49196   -49184 
  -49123   -49056   -49053   -49114   -49169   -49210   -49242   -49221 
  -49145   -49067   -49033   -49049   -49103   -49165   -49177   -49121 
  -49059   -49026   -49025   -49071   -49140   -49195   -49212   -49187 
  -49160   -49150   -49148   -49175   -49202   -49176   -49146   -49148 
  -49122   -49084   -49086   -49108   -49141   -49181   -49210   -49225 
  -49195   -49099   -49017   -49038   -49140   -49219   -49226   -49162 
  -49079   -49041   -49052   -49095   -49168   -49223   -49231   -49230 
  -49218   -49175   -49114   -49046   -49006   -49025   -49091   -49168 
  -49192   -49138   -49077   -49046   -49032   -49076   -49185   -49269 
  -49269   -49218   -49175   -49141   -49100   -49056   -49033   -49063 
  -49137   -49212   -49250   -49221   -49127   -49054   -49063   -49126 
  -49187   -49202   -49164   -49121   -49108   -49110   -49108   -49125 
  -49153   -49169   -49161   -49140   -49140   -49157   -49146   -49115 
  -49080   -49068   -49114   -49175   -49195   -49179   -49118   -49025 
  -48978   -49011   -49065   -49090   -49086   -49077   -49094   -49126 
  -49144   -49137   -49125   -49138   -49175   -49189   -49161   -49118 
  -49092   -49103   -49141   -49175   -49185   -49171   -49134   -49114 
  -49148   -49214   -49268   -49285   -49239   -49146   -49071   -49027 
  -49000   -49009   -49050   -49077   -49076   -49075   -49121   -49212 
  -49273   -49265   -49225   -49156   -49081   -49080   -49125   -49121 
  -49084   -49071   -49072   -49083   -49117   -49149   -49154   -49146 
  -49152   -49175   -49198   -49189   -49137   -49095   -49113   -49168 
  -49210   -49192   -49127   -49087   -49086   -49092   -49110   -49160 
  -49225   -49239   -49176   -49095   -49053   -49045   -49052   -49063 
  -49096   -49129   -49111   -49107   -49149   -49165   -49130   -49083 
  -49064   -49108   -49179   -49200   -49180   -49168   -49148   -49088 
  -49030   -49029   -49095   -49185   -49223   -49184   -49123   -49088 
  -49072   -49076   -49133   -49199   -49207   -49164   -49103   -49061 
  -49072   -49104   -49113   -49103   -49102   -49115   -49114   -49086 
  -49077   -49108   -49144   -49162   -49161   -49140   -49119   -49113 
  -49125   -49156   -49191   -49177   -49115   -49098   -49164   -49233 
  -49249   -49231   -49181   -49099   -49053   -49103   -49180   -49198 
  -49181   -49154   -49111   -49077   -49072   -49084   -49115   -49162 
  -49179   -49142   -49111   -49131   -49149   -49110   -49064   -49061 
  -49090   -49127   -49148   -49141   -49127   -49113   -49088   -49067 
  -49091   -49154   -49202   -49218   -49211   -49176   -49123   -49080 
  -49083   -49138   -49191   -49200   -49184   -49161   -49162   -49185 
  -49175   -49119   -49092   -49106   -49104   -49099   -49135   -49184 
  -49194   -49168   -49127   -49079   -49032   -48995   -48990   -49063 
  -49204   -49314   -49314   -49218   -49080   -48964   -48928   -48976 
  -49071   -49171   -49238   -49256   -49227   -49167   -49111   -49088 
  -49088   -49096   -49090   -49076   -49099   -49168   -49216   -49198 
  -49157   -49145   -49168   -49214   -49230   -49192   -49131   -49073 
  -49065   -49103   -49108   -49100   -49100   -49094   -49125   -49167 
  -49135   -49072   -49063   -49092   -49122   -49129   -49123   -49148 
  -49210   -49222   -49133   -49022   -48978   -48998   -49050   -49092 
  -49106   -49135   -49203   -49264   -49258   -49192   -49150   -49177 
  -49226   -49242   -49196   -49114   -49092   -49133   -49123   -49071 
  -49059   -49075   -49096   -49146   -49207   -49211   -49152   -49099 
  -49077   -49067   -49067   -49068   -49063   -49065   -49088   -49140 
  -49221   -49272   -49227   -49138   -49102   -49140   -49196   -49208 
  -49177   -49137   -49113   -49119   -49114   -49071   -49048   -49088 
  -49171   -49237   -49218   -49131   -49073   -49087   -49134   -49181 
  -49198   -49194   -49214   -49199   -49113   -49059   -49063   -49068 
  -49092   -49108   -49064   -49019   -49046   -49103   -49138   -49157 
  -49176   -49171   -49108   -49033   -49044   -49138   -49212   -49202 
  -49129   -49086   -49118   -49157   -49152   -49142   -49175   -49221 
  -49214   -49157   -49110   -49107   -49135   -49164   -49156   -49114 
  -49086   -49098   -49150   -49184   -49152   -49115   -49114   -49123 
  -49153   -49199   -49238   -49231   -49142   -49041   -48999   -49010 
  -49068   -49134   -49146   -49131   -49129   -49126   -49113   -49102 
  -49119   -49167   -49206   -49199   -49164   -49134   -49121   -49107 
  -49099   -49113   -49129   -49140   -49162   -49158   -49113   -49084 
  -49086   -49110   -49145   -49149   -49121   -49086   -49056   -49057 
  -49075   -49094   -49119   -49114   -49100   -49121   -49142   -49141 
  -49123   -49122   -49156   -49184   -49184   -49161   -49134   -49131 
  -49117   -49061   -49049   -49110   -49167   -49167   -49141   -49153 
  -49189   -49185   -49129   -49060   -49042   -49111   -49215   -49291 
  -49331   -49318   -49219   -49099   -49044   -49057   -49095   -49127 
  -49146   -49156   -49157   -49146   -49122   -49096   -49087   -49088 
  -49099   -49113   -49096   -49059   -49063   -49138   -49214   -49194 
  -49123   -49076   -49052   -49073   -49141   -49192   -49196   -49185 
  -49198   -49207   -49158   -49075   -49025   -49026   -49042   -49054 
  -49088   -49161   -49215   -49188   -49152   -49181   -49212   -49172 
  -49108   -49086   -49098   -49145   -49212   -49230   -49188   -49145 
  -49119   -49090   -49067   -49083   -49125   -49157   -49171   -49133 
  -49069   -49059   -49086   -49110   -49125   -49127   -49127   -49107 
  -49077   -49087   -49104   -49104   -49115   -49154   -49218   -49260 
  -49230   -49160   -49113   -49100   -49114   -49141   -49153   -49140 
  -49125   -49126   -49119   -49102   -49094   -49092   -49102   -49114 
  -49099   -49090   -49129   -49184   -49202   -49176   -49141   -49135 
  -49160   -49161   -49125   -49107   -49114   -49117   -49125   -49152 
  -49173   -49150   -49094   -49056   -49056   -49091   -49157   -49212 
  -49211   -49179   -49157   -49123   -49081   -49083   -49121   -49160 
  -49183   -49169   -49140   -49137   -49144   -49156   -49196   -49242 
  -49243   -49188   -49104   -49063   -49084   -49115   -49114   -49077 
  -49063   -49106   -49144   -49152   -49171   -49180   -49165   -49149 
  -49129   -49088   -49063   -49079   -49095   -49099   -49117   -49138 
  -49152   -49156   -49126   -49072   -49037   -49038   -49057   -49087 
  -49115   -49126   -49137   -49145   -49130   -49107   -49103   -49121 
  -49144   -49138   -49114   -49114   -49129   -49127   -49127   -49145 
  -49171   -49192   -49180   -49144   -49146   -49195   -49200   -49126 
  -49054   -49057   -49090   -49113   -49117   -49121   -49149   -49181 
  -49206   -49227   -49204   -49150   -49133   -49130   -49108   -49088 
  -49075   -49095   -49180   -49258   -49246   -49187   -49138   -49104 
  -49092   -49091   -49076   -49054   -49042   -49064   -49121   -49172 
  -49192   -49183   -49153   -49118   -49087   -49079   -49108   -49146 
  -49162   -49162   -49169   -49176   -49173   -49173   -49164   -49129 
  -49090   -49071   -49077   -49099   -49129   -49164   -49187   -49142 
  -49048   -49006   -49068   -49150   -49181   -49180   -49157   -49122 
  -49114   -49127   -49129   -49126   -49135   -49144   -49118   -49075 
  -49091   -49164   -49196   -49179   -49168   -49167   -49168   -49179 
  -49184   -49162   -49104   -49049   -49034   -49061   -49099   -49127 
  -49158   -49185   -49191   -49184   -49180   -49192   -49210   -49195 
  -49153   -49122   -49111   -49108   -49094   -49059   -49030   -49045 
  -49092   -49106   -49054   -49011   -49034   -49107   -49202   -49256 
  -49223   -49176   -49181   -49198   -49192   -49199   -49216   -49204 
  -49172   -49135   -49079   -49010   -48979   -49014   -49087   -49141 
  -49149   -49160   -49198   -49234   -49243   -49226   -49188   -49145 
  -49102   -49060   -49038   -49034   -49018   -48992   -48987   -49025 
  -49094   -49146   -49154   -49157   -49171   -49168   -49158   -49156 
  -49129   -49080   -49034   -48995   -48976   -48998   -49059   -49129 
  -49154   -49141   -49142   -49161   -49191   -49230   -49234   -49189 
  -49157   -49162   -49185   -49208   -49212   -49223   -49250   -49250 
  -49208   -49141   -49063   -49032   -49084   -49164   -49202   -49184 
  -49140   -49094   -49030   -48976   -48990   -49059   -49125   -49149 
  -49111   -49052   -49030   -49036   -49038   -49032   -49002   -48972 
  -48964   -48969   -48990   -49018   -49044   -49084   -49152   -49238 
  -49326   -49364   -49327   -49307   -49349   -49380   -49361   -49311 
  -49265   -49261   -49300   -49351   -49364   -49329   -49304   -49322 
  -49372   -49408   -49384   -49342   -49306   -49230   -49131   -49040 
  -48921   -48794   -48730   -48737   -48775   -48816   -48856   -48917 
  -49003   -49084   -49153   -49187   -49169   -49161   -49179   -49173 
  -49153   -49153   -49168   -49164   -49129   -49098   -49096   -49111 
  -49135   -49160   -49198   -49283   -49374   -49416   -49420   -49391 
  -49304   -49172   -49059   -49013   -49007   -48975   -48918   -48891 
  -48909   -48968   -49037   -49073   -49094   -49099   -49090   -49106 
  -49129   -49113   -49072   -49044   -49018   -48976   -48933   -48913 
  -48932   -48992   -49064   -49115   -49171   -49270   -49362   -49376 
  -49322   -49241   -49180   -49168   -49145   -49071   -49002   -49014 
  -49119   -49242   -49304   -49285   -49218   -49160   -49145   -49160 
  -49173   -49177   -49199   -49229   -49204   -49140   -49099   -49061 
  -48988   -48902   -48844   -48855   -48933   -49023   -49064   -49053 
  -49080   -49195   -49326   -49387   -49349   -49270   -49245   -49256 
  -49245   -49216   -49192   -49188   -49215   -49257   -49268   -49212 
  -49118   -49057   -49063   -49100   -49106   -49065   -49009   -48944 
  -48884   -48868   -48906   -48965   -49040   -49122   -49175   -49191 
  -49195   -49191   -49177   -49141   -49067   -49013   -49018   -49044 
  -49052   -49045   -49030   -49050   -49122   -49203   -49265   -49302 
  -49295   -49279   -49285   -49273   -49226   -49198   -49206   -49204 
  -49171   -49142   -49138   -49162   -49208   -49243   -49254   -49235 
  -49175   -49115   -49106   -49129   -49148   -49150   -49140   -49133 
  -49133   -49121   -49092   -49077   -49091   -49121   -49158   -49198 
  -49200   -49165   -49131   -49098   -49042   -48975   -48919   -48913 
  -48953   -48992   -49017   -49056   -49131   -49225   -49312   -49370 
  -49368   -49308   -49227   -49146   -49091   -49052   -49023   -49015 
  -48998   -49000   -49095   -49235   -49324   -49354   -49358   -49314 
  -49195   -49068   -49013   -49025   -49067   -49094   -49088   -49081 
  -49094   -49108   -49110   -49102   -49088   -49080   -49086   -49100 
  -49146   -49227   -49276   -49254   -49180   -49100   -49046   -49007 
  -48986   -49000   -49032   -49063   -49079   -49079   -49092   -49115 
  -49141   -49161   -49160   -49165   -49196   -49223   -49210   -49168 
  -49160   -49192   -49191   -49135   -49077   -49056   -49084   -49161 
  -49253   -49300   -49303   -49293   -49246   -49157   -49094   -49061 
  -49052   -49088   -49115   -49076   -48995   -48924   -48891   -48907 
  -48961   -49017   -49050   -49067   -49057   -49022   -49022   -49087 
  -49175   -49243   -49289   -49303   -49276   -49254   -49279   -49318 
  -49304   -49231   -49150   -49098   -49092   -49144   -49225   -49299 
  -49341   -49357   -49357   -49316   -49222   -49110   -49018   -48972 
  -48969   -49014   -49081   -49122   -49130   -49118   -49077   -49027 
  -49002   -49009   -49034   -49069   -49102   -49121   -49104   -49040 
  -48990   -48987   -48991   -48998   -49032   -49087   -49131   -49134 
  -49092   -49036   -49003   -49010   -49042   -49079   -49099   -49115 
  -49140   -49169   -49210   -49254   -49280   -49276   -49261   -49270 
  -49312   -49346   -49347   -49331   -49283   -49192   -49094   -49034 
  -49037   -49075   -49106   -49113   -49091   -49076   -49106   -49169 
  -49237   -49262   -49222   -49138   -49059   -49017   -49007   -49006 
  -49023   -49063   -49091   -49102   -49102   -49091   -49098   -49127 
  -49152   -49161   -49168   -49175   -49176   -49150   -49094   -49040 
  -49014   -49034   -49104   -49176   -49206   -49227   -49241   -49221 
  -49212   -49233   -49238   -49253   -49276   -49242   -49153   -49073 
  -49041   -49048   -49060   -49064   -49076   -49130   -49219   -49287 
  -49275   -49194   -49091   -49002   -48955   -48963   -48991   -49007 
  -49030   -49077   -49126   -49148   -49140   -49117   -49092   -49084 
  -49094   -49107   -49125   -49130   -49131   -49156   -49202   -49245 
  -49249   -49215   -49173   -49138   -49133   -49173   -49208   -49180 
  -49133   -49103   -49060   -49013   -49015   -49054   -49095   -49129 
  -49150   -49144   -49115   -49094   -49088   -49121   -49189   -49243 
  -49269   -49276   -49250   -49212   -49169   -49115   -49064   -49029 
  -49007   -49010   -49046   -49098   -49137   -49183   -49242   -49256 
  -49222   -49199   -49189   -49158   -49107   -49076   -49099   -49172 
  -49261   -49330   -49339   -49297   -49233   -49134   -49023   -48946 
  -48905   -48905   -48922   -48921   -48918   -48934   -48984   -49094 
  -49214   -49250   -49227   -49198   -49149   -49113   -49115   -49104 
  -49079   -49083   -49087   -49077   -49099   -49180   -49280   -49329 
  -49302   -49243   -49215   -49207   -49185   -49160   -49148   -49131 
  -49107   -49083   -49057   -49069   -49134   -49185   -49196   -49181 
  -49172   -49180   -49157   -49091   -49034   -49002   -49000   -49032 
  -49068   -49106   -49140   -49138   -49133   -49157   -49173   -49179 
  -49212   -49237   -49208   -49171   -49172   -49192   -49192   -49185 
  -49188   -49184   -49173   -49161   -49149   -49135   -49121   -49100 
  -49075   -49049   -49019   -48996   -49003   -49036   -49071   -49091 
  -49087   -49079   -49081   -49081   -49090   -49103   -49077   -49033 
  -49010   -48982   -48965   -49033   -49172   -49296   -49334   -49314 
  -49288   -49222   -49115   -49056   -49050   -49053   -49087   -49175 
  -49270   -49315   -49276   -49200   -49173   -49187   -49185   -49161 
  -49126   -49098   -49103   -49144   -49177   -49165   -49142   -49144 
  -49137   -49094   -49040   -49037   -49102   -49150   -49134   -49102 
  -49079   -49038   -49019   -49063   -49115   -49146   -49162   -49172 
  -49181   -49198   -49225   -49233   -49199   -49164   -49141   -49119 
  -49118   -49138   -49150   -49146   -49114   -49069   -49063   -49091 
  -49133   -49192   -49218   -49173   -49113   -49075   -49052   -49048 
