Origin Time       2024/06/23 22:54:00
Lat.              35.645
Long.             140.060
Depth. (km)       72
Mag.              4.1
Station Code      SITH04
Station Lat.      35.8028
Station Long.     139.5353
Station Height(m) -1970
Record Time       2024/06/23 22:54:46
Sampling Freq(Hz) 100Hz
Duration Time(s)  120
Dir.              1
Scale Factor      2940(gal)/6170270
Max. Acc. (gal)   0.377
Last Correction   2024/06/23 22:54:31
Memo.             
[...]
 -119198  -119199  -119200  -119199  -119197  -119197  -119199  -119199 
 -119199  -119198  -119198  -119199  -119200  -119199  -119198  -119198 
 -119199  -119198  -119198  -119200  -119199  -119198  -119199  -119198 
 -119198  -119198  -119197  -119197  -119198  -119198  -119198  -119198 
 -119197  -119199  -119201  -119201  -119199  -119200  -119200  -119198 
 -119199  -119199  -119197  -119199  -119200  -119197  -119198  -119199 
 -119199  -119199  -119199  -119198  -119198  -119198  -119196  -119195 
 -119197  -119198  -119197  -119198  -119199  -119199  -119198  -119197 
 -119198  -119197  -119195  -119196  -119195  -119195  -119197  -119196 
 -119195  -119195  -119195  -119196  -119197  -119196  -119195  -119196 
 -119196  -119197  -119197  -119196  -119197  -119198  -119198  -119197 
 -119197  -119196  -119196  -119195  -119194  -119195  -119195  -119195 
 -119197  -119197  -119196  -119198  -119199  -119197  -119196  -119197 
 -119197  -119196  -119198  -119199  -119198  -119197  -119197  -119197 
 -119197  -119197  -119196  -119198  -119198  -119197  -119197  -119197 
 -119197  -119195  -119194  -119195  -119195  -119195  -119195  -119196 
 -119197  -119197  -119197  -119197  -119197  -119197  -119195  -119195 
 -119198  -119198  -119196  -119197  -119198  -119198  -119197  -119197 
 -119197  -119197  -119197  -119197  -119197  -119195  -119195  -119197 
 -119197  -119196  -119198  -119200  -119198  -119197  -119200  -119198 
 -119196  -119197  -119198  -119197  -119197  -119198  -119199  -119198 
 -119198  -119198  -119196  -119196  -119198  -119197  -119195  -119198 
 -119200  -119197  -119197  -119198  -119196  -119196  -119196  -119197 
 -119200  -119199  -119198  -119199  -119198  -119196  -119196  -119197 
 -119196  -119195  -119195  -119196  -119196  -119197  -119198  -119199 
 -119199  -119197  -119196  -119196  -119197  -119198  -119198  -119198 
 -119198  -119197  -119196  -119196  -119196  -119196  -119197  -119198 
 -119200  -119199  -119198  -119199  -119199  -119199  -119199  -119197 
 -119197  -119198  -119199  -119201  -119201  -119201  -119201  -119199 
 -119198  -119199  -119199  -119199  -119200  -119201  -119201  -119200 
 -119198  -119197  -119198  -119198  -119197  -119198  -119199  -119198 
 -119198  -119198  -119198  -119198  -119198  -119197  -119198  -119197 
 -119197  -119199  -119199  -119199  -119196  -119196  -119197  -119197 
 -119195  -119197  -119198  -119197  -119197  -119199  -119197  -119195 
 -119196  -119196  -119194  -119196  -119198  -119198  -119198  -119198 
 -119197  -119198  -119198  -119196  -119196  -119196  -119196  -119197 
 -119198  -119200  -119199  -119196  -119197  -119199  -119198  -119199 
 -119197  -119196  -119197  -119196  -119195  -119197  -119197  -119195 
 -119194  -119196  -119198  -119198  -119198  -119197  -119198  -119199 
 -119199  -119198  -119199  -119200  -119200  -119198  -119199  -119199 
 -119198  -119197  -119197  -119196  -119196  -119197  -119197  -119196 
 -119196  -119197  -119198  -119198  -119199  -119199  -119198  -119198 
 -119201  -119202  -119201  -119200  -119199  -119198  -119197  -119196 
 -119197  -119198  -119200  -119199  -119199  -119198  -119197  -119198 
 -119201  -119202  -119200  -119200  -119200  -119199  -119198  -119198 
 -119198  -119197  -119197  -119199  -119200  -119200  -119200  -119199 
 -119198  -119199  -119199  -119198  -119198  -119198  -119198  -119198 
 -119198  -119199  -119199  -119196  -119196  -119198  -119197  -119197 
 -119198  -119197  -119197  -119198  -119199  -119198  -119197  -119197 
 -119198  -119197  -119196  -119197  -119197  -119198  -119200  -119199 
 -119197  -119198  -119199  -119199  -119199  -119200  -119201  -119199 
 -119197  -119197  -119198  -119199  -119200  -119199  -119199  -119199 
 -119200  -119198  -119198  -119198  -119197  -119197  -119198  -119198 
 -119197  -119197  -119198  -119198  -119198  -119197  -119196  -119196 
 -119194  -119195  -119196  -119196  -119197  -119197  -119197  -119198 
 -119199  -119198  -119196  -119196  -119197  -119197  -119197  -119196 
 -119198  -119199  -119197  -119196  -119197  -119197  -119198  -119199 
 -119198  -119198  -119199  -119199  -119199  -119198  -119199  -119199 
 -119198  -119199  -119200  -119199  -119198  -119198  -119198  -119197 
 -119196  -119198  -119198  -119198  -119198  -119199  -119200  -119201 
 -119201  -119200  -119198  -119199  -119199  -119198  -119199  -119200 
 -119198  -119196  -119198  -119198  -119197  -119196  -119199  -119201 
 -119200  -119199  -119200  -119197  -119196  -119198  -119199  -119198 
 -119199  -119199  -119199  -119200  -119199  -119199  -119199  -119200 
 -119199  -119199  -119199  -119199  -119198  -119198  -119198  -119198 
 -119197  -119197  -119197  -119198  -119198  -119199  -119199  -119199 
 -119199  -119200  -119200  -119199  -119199  -119201  -119202  -119202 
 -119203  -119203  -119202  -119198  -119192  -119190  -119190  -119189 
 -119189  -119194  -119199  -119201  -119207  -119213  -119209  -119198 
 -119198  -119206  -119202  -119199  -119207  -119208  -119195  -119188 
 -119188  -119175  -119171  -119193  -119213  -119224  -119234  -119232 
 -119207  -119178  -119198  -119245  -119222  -119157  -119167  -119218 
 -119181  -119117  -119153  -119209  -119211  -119223  -119225  -119161 
 -119122  -119149  -119159  -119161  -119219  -119282  -119237  -119139 
 -119156  -119244  -119227  -119125  -119125  -119268  -119322  -119193 
 -119094  -119149  -119215  -119157  -119126  -119282  -119422  -119331 
 -119209  -119252  -119252  -119139  -119156  -119279  -119294  -119219 
 -119164  -119096  -119016  -119050  -119186  -119265  -119269  -119255 
 -119209  -119205  -119272  -119294  -119250  -119180  -119106  -119085 
 -119114  -119132  -119187  -119273  -119231  -119144  -119177  -119186 
 -119104  -119129  -119330  -119442  -119267  -119091  -119143  -119196 
 -119132  -119138  -119269  -119340  -119239  -119121  -119116  -119122 
 -119107  -119172  -119279  -119321  -119285  -119258  -119276  -119235 
 -119114  -119049  -119120  -119226  -119236  -119211  -119238  -119248 
 -119261  -119275  -119179  -119066  -119105  -119209  -119214  -119190 
 -119233  -119274  -119240  -119124  -119018  -119102  -119310  -119362 
 -119267  -119180  -119108  -119087  -119141  -119228  -119323  -119328 
 -119199  -119121  -119214  -119241  -119054  -118990  -119190  -119306 
 -119233  -119202  -119295  -119359  -119253  -119096  -119035  -119035 
 -119095  -119233  -119367  -119393  -119289  -119130  -119024  -119090 
 -119291  -119350  -119197  -119097  -119191  -119328  -119296  -119154 
 -119099  -119126  -119223  -119316  -119254  -119164  -119181  -119228 
 -119193  -119061  -119065  -119256  -119320  -119242  -119228  -119250 
 -119237  -119144  -119042  -119113  -119235  -119248  -119270  -119335 
 -119369  -119345  -119242  -119105  -119025  -119100  -119282  -119329 
 -119235  -119140  -119033  -119040  -119191  -119224  -119166  -119238 
 -119342  -119291  -119131  -119080  -119201  -119236  -119161  -119213 
 -119276  -119230  -119207  -119123  -119023  -119133  -119278  -119274 
 -119197  -119110  -119111  -119165  -119191  -119254  -119301  -119264 
 -119190  -119160  -119215  -119253  -119246  -119253  -119213  -119172 
 -119193  -119143  -119069  -119132  -119226  -119286  -119360  -119327 
 -119222  -119217  -119227  -119182  -119138  -119170  -119315  -119382 
 -119211  -118972  -118903  -119049  -119193  -119184  -119189  -119269 
 -119311  -119300  -119249  -119199  -119222  -119271  -119280  -119256 
 -119172  -119077  -119076  -119072  -119014  -119060  -119229  -119368 
 -119344  -119190  -119167  -119292  -119265  -119120  -119117  -119224 
 -119293  -119288  -119185  -119046  -119056  -119196  -119256  -119227 
 -119208  -119202  -119224  -119249  -119229  -119208  -119207  -119201 
 -119219  -119277  -119300  -119245  -119156  -119097  -119097  -119117 
 -119176  -119261  -119255  -119240  -119277  -119233  -119188  -119244 
 -119273  -119203  -119138  -119176  -119175  -119090  -119112  -119197 
 -119227  -119239  -119248  -119258  -119222  -119130  -119118  -119182 
 -119177  -119135  -119168  -119225  -119224  -119181  -119128  -119105 
 -119114  -119135  -119205  -119277  -119246  -119175  -119135  -119136 
 -119243  -119358  -119300  -119158  -119116  -119200  -119280  -119273 
 -119274  -119314  -119297  -119230  -119152  -119088  -119091  -119118 
 -119129  -119157  -119205  -119270  -119294  -119248  -119236  -119267 
 -119275  -119273  -119263  -119205  -119113  -119124  -119202  -119151 
 -119084  -119095  -119117  -119173  -119195  -119224  -119292  -119258 
 -119196  -119200  -119211  -119244  -119289  -119286  -119235  -119191 
 -119168  -119116  -119071  -119088  -119134  -119160  -119164  -119221 
 -119325  -119308  -119192  -119190  -119274  -119296  -119258  -119185 
 -119117  -119103  -119162  -119253  -119206  -119084  -119169  -119324 
 -119289  -119238  -119274  -119246  -119194  -119194  -119149  -119131 
 -119252  -119357  -119308  -119173  -119092  -119092  -119102  -119149 
 -119212  -119227  -119250  -119270  -119234  -119177  -119149  -119196 
 -119260  -119246  -119202  -119211  -119249  -119216  -119107  -119062 
 -119135  -119217  -119224  -119202  -119231  -119297  -119336  -119323 
 -119269  -119207  -119142  -119069  -119088  -119198  -119227  -119232 
 -119252  -119168  -119099  -119180  -119339  -119396  -119273  -119155 
 -119140  -119149  -119147  -119164  -119266  -119355  -119281  -119163 
 -119156  -119203  -119237  -119210  -119107  -119100  -119229  -119240 
 -119115  -119131  -119294  -119293  -119156  -119207  -119337  -119296 
 -119199  -119169  -119210  -119259  -119209  -119100  -119033  -119089 
 -119256  -119322  -119252  -119227  -119229  -119236  -119265  -119213 
 -119171  -119245  -119223  -119062  -119030  -119131  -119206  -119255 
 -119265  -119225  -119176  -119124  -119086  -119162  -119353  -119430 
 -119366  -119265  -119128  -119160  -119287  -119200  -119082  -119070 
 -119072  -119173  -119259  -119177  -119159  -119253  -119227  -119202 
 -119291  -119264  -119194  -119234  -119238  -119197  -119158  -119139 
 -119207  -119218  -119091  -119063  -119244  -119437  -119403  -119228 
 -119154  -119190  -119207  -119175  -119180  -119192  -119107  -119105 
 -119299  -119384  -119245  -119132  -119130  -119140  -119149  -119140 
 -119157  -119266  -119285  -119192  -119206  -119226  -119177  -119232 
 -119280  -119187  -119122  -119141  -119136  -119084  -119098  -119251 
 -119362  -119281  -119165  -119151  -119172  -119221  -119302  -119293 
 -119180  -119130  -119201  -119257  -119229  -119185  -119158  -119128 
 -119080  -119089  -119216  -119297  -119201  -119135  -119256  -119393 
 -119363  -119194  -119047  -119075  -119212  -119308  -119343  -119305 
 -119241  -119235  -119176  -119041  -119044  -119206  -119341  -119383 
 -119351  -119288  -119251  -119220  -119155  -119081  -119088  -119185 
 -119221  -119131  -119042  -119090  -119217  -119259  -119248  -119277 
 -119291  -119239  -119175  -119168  -119193  -119228  -119285  -119273 
 -119164  -119069  -119024  -119098  -119293  -119305  -119088  -119026 
 -119211  -119378  -119369  -119250  -119147  -119152  -119225  -119244 
 -119220  -119180  -119119  -119108  -119155  -119176  -119137  -119141 
 -119221  -119219  -119165  -119192  -119220  -119233  -119301  -119342 
 -119273  -119178  -119130  -119087  -119105  -119228  -119312  -119343 
 -119384  -119335  -119249  -119229  -119133  -119021  -119061  -119147 
 -119256  -119356  -119280  -119142  -119119  -119156  -119170  -119157 
 -119184  -119271  -119320  -119260  -119142  -119107  -119162  -119177 
 -119190  -119245  -119229  -119153  -119164  -119236  -119154  -118976 
 -119015  -119224  -119315  -119323  -119371  -119369  -119230  -119020 
 -118949  -119095  -119184  -119109  -119096  -119200  -119302  -119346 
 -119318  -119275  -119229  -119128  -119100  -119266  -119412  -119342 
 -119174  -119052  -119034  -119163  -119292  -119270  -119216  -119219 
 -119255  -119316  -119305  -119237  -119195  -119154  -119207  -119327 
 -119278  -119092  -119012  -119092  -119123  -119055  -119137  -119323 
 -119350  -119263  -119207  -119228  -119287  -119268  -119190  -119148 
 -119126  -119117  -119126  -119153  -119177  -119151  -119122  -119143 
 -119151  -119114  -119121  -119197  -119281  -119346  -119309  -119160 
 -119105  -119206  -119295  -119295  -119288  -119298  -119172  -118945 
 -118930  -119122  -119225  -119252  -119317  -119331  -119293  -119309 
 -119343  -119345  -119327  -119289  -119227  -119115  -119039  -119115 
 -119217  -119172  -119038  -119014  -119129  -119230  -119281  -119311 
 -119346  -119372  -119285  -119172  -119162  -119157  -119095  -119071 
 -119111  -119065  -118975  -119044  -119139  -119129  -119210  -119415 
 -119559  -119576  -119466  -119298  -119197  -119146  -119107  -119072 
 -118974  -118877  -118883  -118975  -119113  -119220  -119220  -119159 
 -119167  -119252  -119271  -119242  -119317  -119440  -119474  -119386 
 -119220  -119094  -119066  -119055  -119003  -118874  -118728  -118728 
 -118852  -119031  -119238  -119357  -119456  -119664  -119842  -119840 
 -119729  -119663  -119660  -119616  -119500  -119402  -119445  -119586 
 -119592  -119346  -118986  -118757  -118741  -118759  -118674  -118559 
 -118550  -118656  -118753  -118834  -119032  -119307  -119414  -119266 
 -119022  -118811  -118727  -118888  -119200  -119352  -119250  -119230 
 -119402  -119369  -119145  -119179  -119502  -119832  -119990  -119938 
 -119727  -119460  -119347  -119437  -119407  -119144  -118998  -119032 
 -118909  -118658  -118708  -119094  -119389  -119380  -119214  -119037 
 -118932  -119002  -119201  -119324  -119266  -119148  -119181  -119312 
 -119237  -119023  -119001  -119119  -119142  -119115  -119237  -119421 
 -119376  -119232  -119371  -119631  -119613  -119367  -119107  -118974 
 -119025  -119065  -119023  -119057  -119091  -118996  -118853  -118801 
 -118958  -119288  -119584  -119732  -119736  -119587  -119308  -118979 
 -118705  -118588  -118668  -118850  -118973  -119035  -119211  -119501 
 -119709  -119799  -119854  -119787  -119537  -119291  -119166  -119058 
 -118909  -118828  -118872  -118863  -118708  -118615  -118723  -118930 
 -119109  -119274  -119467  -119639  -119751  -119766  -119613  -119384 
 -119259  -119276  -119342  -119249  -118953  -118753  -118849  -119091 
 -119260  -119344  -119465  -119571  -119486  -119304  -119242  -119231 
 -119157  -119079  -119012  -119011  -119121  -119206  -119197  -119163 
 -119124  -119057  -118993  -119024  -119219  -119460  -119506  -119325 
 -119154  -119116  -119049  -118870  -118760  -118812  -118941  -119091 
 -119195  -119180  -119195  -119413  -119632  -119598  -119494  -119488 
 -119401  -119165  -118915  -118718  -118689  -118926  -119262  -119525 
 -119670  -119644  -119480  -119271  -119113  -119043  -118924  -118791 
 -118871  -119101  -119337  -119574  -119713  -119663  -119487  -119263 
 -119030  -118854  -118846  -118953  -119002  -119069  -119259  -119421 
 -119475  -119454  -119341  -119201  -119125  -119165  -119333  -119492 
 -119483  -119266  -118944  -118744  -118737  -118831  -118975  -119031 
 -118973  -119078  -119420  -119688  -119708  -119655  -119649  -119544 
 -119336  -119185  -119031  -118773  -118567  -118581  -118686  -118737 
 -118853  -119139  -119408  -119420  -119273  -119256  -119385  -119497 
 -119528  -119427  -119244  -119145  -119115  -119113  -119184  -119229 
 -119209  -119193  -119123  -119047  -119163  -119412  -119555  -119530 
 -119367  -119122  -118971  -118996  -119071  -119128  -119206  -119266 
 -119264  -119239  -119211  -119199  -119240  -119309  -119352  -119333 
 -119237  -119120  -119081  -119143  -119218  -119191  -119087  -119045 
 -119081  -119123  -119167  -119253  -119354  -119331  -119191  -119176 
 -119265  -119237  -119149  -119126  -119133  -119132  -119100  -119010 
 -118964  -119076  -119163  -119078  -119078  -119264  -119361  -119301 
 -119264  -119311  -119382  -119388  -119234  -118947  -118761  -118889 
 -119191  -119394  -119509  -119638  -119703  -119620  -119390  -119104 
 -118899  -118829  -118861  -118922  -118983  -119009  -118980  -119053 
 -119215  -119185  -119037  -119116  -119355  -119432  -119295  -119140 
 -119141  -119252  -119309  -119296  -119265  -119193  -119064  -118942 
 -118928  -119064  -119329  -119621  -119699  -119461  -119179  -119119 
 -119200  -119300  -119359  -119232  -119011  -118971  -119073  -119149 
 -119227  -119354  -119442  -119416  -119307  -119171  -119036  -118969 
 -119032  -119137  -119166  -119164  -119172  -119183  -119187  -119169 
 -119204  -119259  -119224  -119240  -119404  -119530  -119444  -119242 
 -119137  -119132  -119129  -119106  -119047  -118957  -118841  -118744 
 -118770  -118877  -118924  -118923  -119016  -119247  -119462  -119506 
 -119429  -119427  -119601  -119804  -119850  -119749  -119555  -119317 
 -119143  -119023  -118882  -118790  -118815  -118903  -118995  -119063 
 -119067  -119023  -119006  -119082  -119225  -119285  -119249  -119285 
 -119390  -119435  -119437  -119492  -119579  -119545  -119338  -119116 
 -119006  -118993  -119047  -119129  -119208  -119265  -119272  -119227 
 -119157  -119096  -119055  -119046  -119104  -119163  -119132  -119110 
 -119160  -119188  -119189  -119224  -119249  -119217  -119157  -119136 
 -119205  -119326  -119355  -119212  -119029  -118985  -119083  -119194 
 -119238  -119229  -119212  -119211  -119191  -119078  -118961  -119069 
 -119363  -119548  -119521  -119422  -119314  -119184  -119105  -119090 
 -119101  -119179  -119253  -119224  -119202  -119250  -119291  -119281 
 -119258  -119303  -119387  -119362  -119191  -119019  -118965  -118964 
 -118975  -119015  -119059  -119161  -119310  -119370  -119371  -119392 
 -119365  -119258  -119138  -119033  -118939  -118910  -118970  -119056 
 -119087  -119081  -119102  -119150  -119227  -119296  -119283  -119259 
 -119343  -119481  -119568  -119551  -119440  -119335  -119288  -119247 
 -119194  -119148  -119090  -119004  -118954  -119034  -119187  -119236 
 -119173  -119111  -119053  -119037  -119163  -119325  -119345  -119299 
 -119329  -119385  -119392  -119344  -119195  -118990  -118903  -118952 
 -119042  -119161  -119270  -119283  -119233  -119213  -119195  -119158 
 -119170  -119184  -119135  -119088  -119069  -119075  -119149  -119289 
 -119414  -119467  -119468  -119381  -119222  -119121  -119111  -119180 
 -119343  -119485  -119457  -119296  -119161  -119119  -119123  -119106 
 -119055  -119059  -119171  -119267  -119265  -119239  -119204  -119145 
 -119123  -119135  -119126  -119105  -119122  -119193  -119247  -119195 
 -119029  -118895  -118944  -119075  -119126  -119133  -119133  -119086 
 -119061  -119148  -119293  -119373  -119350  -119294  -119294  -119359 
 -119403  -119377  -119318  -119220  -119129  -119116  -119135  -119168 
 -119224  -119246  -119219  -119191  -119176  -119155  -119171  -119238 
 -119273  -119282  -119286  -119200  -119089  -119092  -119148  -119163 
 -119207  -119299  -119306  -119204  -119149  -119239  -119373  -119391 
 -119268  -119119  -119062  -119109  -119202  -119289  -119304  -119233 
 -119143  -119103  -119101  -119065  -119026  -119038  -119043  -119048 
 -119123  -119192  -119180  -119163  -119167  -119164  -119212  -119305 
