Origin Time       2024/06/23 22:54:00
Lat.              35.645
Long.             140.060
Depth. (km)       72
Mag.              4.1
Station Code      SITH11
Station Lat.      35.8637
Station Long.     139.2726
Station Height(m) 155
Record Time       2024/06/23 22:54:52
Sampling Freq(Hz) 100Hz
Duration Time(s)  120
Dir.              6
Scale Factor      7845(gal)/8223790
Max. Acc. (gal)   0.956
Last Correction   2024/06/23 22:54:52
Memo.             
   -6239    -6238    -6237    -6235    -6232    -6230    -6228    -6231 
   -6235    -6237    -6234    -6234    -6235    -6237    -6235    -6234 
   -6234    -6232    -6231    -6231    -6235    -6238    -6234    -6235 
   -6235    -6231    -6230    -6234    -6235    -6232    -6231    -6232 
   -6234    -6234    -6231    -6228    -6231    -6234    -6235    -6234 
   -6232    -6232    -6232    -6228    -6227    -6230    -6234    -6237 
   -6239    -6238    -6235    -6235    -6232    -6230    -6231    -6232 
   -6234    -6237    -6235    -6231    -6234    -6239    -6235    -6230 
   -6234    -6234    -6230    -6231    -6231    -6234    -6235    -6238 
   -6237    -6232    -6232    -6234    -6232    -6234    -6234    -6238 
   -6242    -6235    -6228    -6231    -6228    -6220    -6227    -6234 
   -6237    -6243    -6246    -6241    -6238    -6234    -6230    -6230 
   -6230    -6232    -6237    -6227    -6224    -6235    -6238    -6231 
   -6232    -6238    -6238    -6237    -6237    -6230    -6226    -6232 
   -6232    -6232    -6235    -6230    -6232    -6239    -6234    -6228 
   -6234    -6237    -6238    -6235    -6231    -6232    -6232    -6228 
   -6230    -6232    -6231    -6231    -6235    -6245    -6246    -6216 
   -6215    -6278    -6261    -6176    -6224    -6270    -6207    -6227 
   -6251    -6215    -6245    -6251    -6226    -6238    -6234    -6224 
   -6231    -6235    -6234    -6230    -6232    -6234    -6231    -6235 
   -6242    -6237    -6228    -6232    -6237    -6232    -6232    -6231 
   -6231    -6237    -6234    -6234    -6238    -6235    -6231    -6231 
   -6231    -6232    -6232    -6232    -6237    -6239    -6237    -6232 
   -6230    -6231    -6234    -6232    -6228    -6235    -6238    -6234 
   -6237    -6238    -6234    -6231    -6230    -6234    -6237    -6232 
   -6228    -6232    -6234    -6232    -6235    -6237    -6232    -6231 
   -6234    -6235    -6232    -6230    -6231    -6230    -6231    -6238 
   -6245    -6231    -6214    -6242    -6265    -6211    -6207    -6272 
   -6231    -6191    -6259    -6250    -6207    -6250    -6246    -6211 
   -6232    -6237    -6224    -6238    -6238    -6230    -6235    -6241 
   -6237    -6231    -6231    -6230    -6228    -6234    -6239    -6235 
   -6234    -6235    -6234    -6238    -6237    -6230    -6227    -6230 
   -6231    -6231    -6231    -6232    -6237    -6239    -6238    -6237 
   -6235    -6231    -6228    -6228    -6228    -6230    -6232    -6235 
   -6239    -6242    -6241    -6237    -6234    -6230    -6228    -6228 
   -6227    -6230    -6237    -6238    -6237    -6238    -6238    -6235 
   -6231    -6228    -6228    -6232    -6234    -6235    -6237    -6237 
   -6234    -6232    -6234    -6239    -6242    -6243    -6243    -6245 
   -6249    -6249    -6242    -6237    -6239    -6235    -6226    -6220 
   -6218    -6214    -6214    -6216    -6215    -6216    -6224    -6235 
   -6246    -6257    -6264    -6255    -6241    -6232    -6241    -6258 
   -6280    -6307    -6334    -6346    -6346    -6323    -6265    -6192 
   -6124    -6064    -6029    -6019    -6018    -6035    -6096    -6203 
   -6338    -6462    -6540    -6562    -6531    -6465    -6385    -6265 
   -6085    -5913    -5827    -5819    -5860    -5969    -6114    -6201 
   -6258    -6361    -6470    -6516    -6548    -6593    -6573    -6505 
   -6446    -6324    -6107    -5872    -5688    -5624    -5694    -5776 
   -5869    -6129    -6458    -6619    -6679    -6710    -6589    -6439 
   -6434    -6350    -6076    -5913    -5969    -6058    -6165    -6300 
   -6328    -6350    -6517    -6582    -6376    -6168    -6097    -6019 
   -5962    -6084    -6292    -6401    -6450    -6453    -6328    -6212 
   -6245    -6259    -6142    -6016    -5946    -5937    -6127    -6455 
   -6566    -6366    -6092    -5898    -5859    -6010    -6243    -6486 
   -6737    -6839    -6585    -6093    -5769    -5778    -5937    -6147 
   -6380    -6497    -6535    -6550    -6323    -5907    -5757    -5900 
   -6064    -6273    -6507    -6571    -6492    -6397    -6316    -6231 
   -6218    -6339    -6373    -6168    -5964    -5887    -5857    -5953 
   -6157    -6264    -6297    -6403    -6523    -6563    -6524    -6407 
   -6205    -6006    -5967    -6076    -6145    -6137    -6205    -6385 
   -6478    -6403    -6332    -6295    -6160    -5964    -5925    -6181 
   -6519    -6577    -6276    -5837    -5589    -5698    -6070    -6534 
   -6913    -7041    -6816    -6277    -5744    -5664    -6025    -6301 
   -6264    -6232    -6338    -6277    -6022    -5973    -6246    -6481 
   -6451    -6284    -6131    -6037    -6006    -6106    -6373    -6642 
   -6720    -6509    -6088    -5850    -5981    -6153    -6204    -6268 
   -6318    -6277    -6156    -5998    -5973    -6207    -6455    -6475 
   -6419    -6373    -6188    -5995    -6081    -6312    -6366    -6273 
   -6246    -6300    -6328    -6292    -6204    -6103    -6056    -6083 
   -6135    -6205    -6292    -6369    -6444    -6431    -6230    -6049 
   -6077    -6145    -6157    -6257    -6397    -6342    -6177    -6210 
   -6336    -6270    -6177    -6281    -6357    -6234    -6126    -6207 
   -6326    -6270    -6089    -6025    -6143    -6264    -6268    -6230 
   -6258    -6331    -6299    -6143    -6062    -6154    -6312    -6436 
   -6490    -6458    -6351    -6170    -5999    -6029    -6234    -6330 
   -6250    -6188    -6139    -6002    -5935    -6084    -6322    -6539 
   -6650    -6457    -6062    -5881    -5973    -6076    -6191    -6435 
   -6605    -6516    -6303    -6072    -5961    -6174    -6405    -6338 
   -6251    -6250    -6145    -6033    -6073    -6232    -6351    -6282 
   -6104    -6021    -6079    -6173    -6265    -6363    -6419    -6435 
   -6490    -6558    -6484    -6242    -5999    -5895    -5929    -6046 
   -6188    -6282    -6327    -6326    -6251    -6149    -6095    -6073 
   -6068    -6130    -6293    -6489    -6579    -6562    -6511    -6362 
   -6145    -6038    -6046    -6025    -5965    -6015    -6189    -6347 
   -6462    -6535    -6447    -6266    -6208    -6185    -6073    -6064 
   -6154    -6133    -6048    -6012    -6107    -6378    -6628    -6666 
   -6532    -6312    -6126    -6080    -6123    -6134    -6120    -6180 
   -6335    -6451    -6397    -6249    -6178    -6223    -6292    -6288 
   -6162    -5980    -5900    -5994    -6123    -6177    -6237    -6303 
   -6207    -6004    -5948    -6120    -6454    -6772    -6875    -6783 
   -6594    -6289    -5967    -5854    -5888    -5860    -5838    -5948 
   -6108    -6251    -6349    -6327    -6285    -6419    -6556    -6475 
   -6377    -6311    -6174    -6158    -6212    -6157    -6135    -6170 
   -6184    -6220    -6295    -6358    -6313    -6123    -5898    -5788 
   -5900    -6216    -6544    -6696    -6658    -6519    -6347    -6176 
   -6052    -6049    -6174    -6316    -6377    -6374    -6343    -6300 
   -6232    -6099    -5946    -5887    -5907    -5940    -6046    -6289 
   -6540    -6662    -6651    -6597    -6586    -6493    -6192    -5891 
   -5790    -5818    -5871    -5958    -6129    -6340    -6504    -6554 
   -6485    -6357    -6265    -6224    -6139    -6019    -5992    -6025 
   -6057    -6166    -6362    -6508    -6498    -6421    -6409    -6386 
   -6269    -6164    -6184    -6295    -6345    -6200    -5925    -5733 
   -5745    -5923    -6173    -6426    -6635    -6706    -6570    -6349 
   -6259    -6324    -6381    -6315    -6122    -5887    -5725    -5717 
   -5868    -6118    -6378    -6546    -6547    -6473    -6492    -6525 
   -6408    -6274    -6242    -6085    -5771    -5661    -5875    -6169 
   -6438    -6690    -6814    -6729    -6492    -6164    -5842    -5691 
   -5718    -5780    -5937    -6282    -6556    -6620    -6710    -6826 
   -6756    -6467    -6025    -5668    -5555    -5589    -5802    -6180 
   -6486    -6621    -6637    -6555    -6459    -6407    -6316    -6183 
   -6083    -6038    -6048    -6060    -6034    -6083    -6292    -6494 
   -6469    -6281    -6200    -6272    -6284    -6157    -6042    -6050 
   -6134    -6243    -6363    -6377    -6214    -6085    -6199    -6409 
   -6517    -6494    -6411    -6386    -6361    -6149    -5815    -5562 
   -5493    -5652    -5931    -6231    -6659    -7087    -7225    -7149 
   -6901    -6382    -5819    -5427    -5231    -5279    -5521    -5922 
   -6482    -7002    -7167    -6914    -6486    -6075    -5775    -5680 
   -5803    -6118    -6511    -6739    -6733    -6639    -6500    -6311 
   -6188    -6141    -6027    -5903    -5911    -5949    -5931    -6008 
   -6218    -6392    -6490    -6546    -6420    -6116    -5935    -5961 
   -6060    -6235    -6377    -6297    -6185    -6292    -6463    -6516 
   -6523    -6463    -6289    -6141    -6025    -5825    -5722    -5941 
   -6247    -6342    -6304    -6276    -6311    -6501    -6663    -6615 
   -6601    -6513    -6123    -5859    -5836    -5786    -5836    -6042 
   -6266    -6389    -6411    -6504    -6636    -6574    -6382    -6262 
   -6170    -6070    -6052    -6025    -5899    -5871    -6046    -6215 
   -6215    -6156    -6199    -6335    -6439    -6461    -6481    -6528 
   -6515    -6390    -6142    -5790    -5584    -5714    -6038    -6435 
   -6747    -6771    -6570    -6285    -6053    -5988    -6015    -6023 
   -6031    -6123    -6208    -6134    -6097    -6404    -6837    -6897 
   -6670    -6511    -6281    -5981    -5863    -5854    -5945    -6123 
   -6174    -6169    -6251    -6293    -6216    -6133    -6111    -6142 
   -6224    -6292    -6255    -6184    -6234    -6409    -6561    -6575 
   -6482    -6327    -6091    -5856    -5877    -6181    -6416    -6385 
   -6231    -6095    -6021    -6077    -6255    -6409    -6436    -6420 
   -6357    -6170    -6046    -6118    -6254    -6405    -6488    -6361 
   -6172    -6106    -6108    -6114    -6133    -6134    -6153    -6300 
   -6420    -6347    -6284    -6219    -6075    -6096    -6172    -6120 
   -6135    -6161    -6127    -6196    -6327    -6382    -6390    -6407 
   -6416    -6415    -6412    -6388    -6304    -6154    -6014    -5960 
   -5987    -6089    -6222    -6249    -6193    -6170    -6145    -6092 
   -6130    -6249    -6257    -6164    -6187    -6330    -6416    -6458 
   -6525    -6542    -6501    -6416    -6246    -6107    -6093    -6096 
   -6016    -5898    -5829    -5853    -5964    -6154    -6396    -6610 
   -6654    -6527    -6385    -6238    -6126    -6178    -6278    -6334 
   -6363    -6281    -6126    -6077    -6162    -6227    -6219    -6292 
   -6432    -6423    -6199    -5921    -5814    -5952    -6150    -6238 
   -6307    -6421    -6478    -6485    -6520    -6500    -6359    -6193 
   -6070    -5980    -5910    -5869    -5915    -6093    -6376    -6659 
   -6739    -6543    -6304    -6195    -6093    -5931    -5857    -5952 
   -6181    -6474    -6601    -6458    -6339    -6399    -6413    -6295 
   -6112    -5832    -5605    -5703    -6019    -6377    -6770    -6929 
   -6712    -6378    -6037    -5813    -5899    -6115    -6205    -6141 
   -6045    -6057    -6151    -6284    -6459    -6582    -6532    -6359 
   -6192    -6110    -6149    -6285    -6373    -6342    -6323    -6331 
   -6162    -5860    -5718    -5775    -5917    -6172    -6527    -6813 
   -6882    -6709    -6419    -6189    -6068    -5968    -5875    -5856 
   -5946    -6139    -6363    -6523    -6546    -6448    -6347    -6270 
   -6120    -5937    -5845    -5892    -6106    -6351    -6427    -6489 
   -6556    -6434    -6359    -6335    -6161    -6088    -6097    -6014 
   -5960    -5969    -6072    -6254    -6385    -6451    -6494    -6478 
   -6363    -6210    -6088    -6015    -6039    -6169    -6322    -6471 
   -6581    -6554    -6408    -6259    -6146    -6031    -5872    -5755 
   -5856    -6131    -6342    -6453    -6534    -6482    -6361    -6338 
   -6208    -5969    -5967    -6076    -6089    -6191    -6385    -6459 
   -6427    -6404    -6361    -6307    -6246    -6043    -5895    -6038 
   -6096    -5999    -6072    -6185    -6303    -6485    -6528    -6432 
   -6322    -6304    -6420    -6482    -6365    -6172    -6057    -6046 
   -6072    -6111    -6161    -6214    -6249    -6224    -6208    -6278 
   -6343    -6358    -6358    -6254    -6053    -5987    -6110    -6245 
   -6331    -6349    -6253    -6162    -6168    -6193    -6242    -6350 
   -6442    -6423    -6312    -6238    -6232    -6199    -6120    -6003 
   -5883    -5925    -6108    -6184    -6239    -6500    -6735    -6721 
   -6552    -6220    -5853    -5748    -5869    -6093    -6312    -6396 
   -6458    -6543    -6492    -6361    -6328    -6339    -6207    -6006 
   -5910    -5875    -5883    -6073    -6358    -6458    -6319    -6143 
   -6072    -6110    -6220    -6378    -6532    -6592    -6516    -6386 
   -6284    -6192    -6061    -5906    -5803    -5809    -5949    -6247 
   -6586    -6714    -6598    -6436    -6255    -6034    -5992    -6189 
   -6327    -6289    -6247    -6226    -6126    -6042    -6142    -6316 
   -6331    -6180    -6015    -5952    -6072    -6322    -6496    -6571 
   -6556    -6331    -6124    -6129    -6191    -6389    -6629    -6531 
   -6215    -5991    -5907    -5930    -6003    -6087    -6177    -6265 
   -6326    -6339    -6281    -6165    -6114    -6201    -6291    -6261 
   -6205    -6257    -6382    -6448    -6458    -6471    -6384    -6160 
   -6006    -6004    -5980    -5961    -6162    -6376    -6288    -6119 
   -6096    -6165    -6334    -6539    -6583    -6457    -6304    -6162 
   -6016    -5918    -5848    -5795    -5911    -6197    -6409    -6528 
   -6691    -6756    -6623    -6498    -6388    -6205    -6072    -6034 
   -6070    -6097    -6064    -6083    -6149    -6154    -6116    -6111 
   -6154    -6180    -6176    -6210    -6222    -6154    -6162    -6307 
   -6404    -6367    -6328    -6394    -6513    -6586    -6606    -6551 
   -6366    -6138    -5994    -5895    -5810    -5844    -6037    -6249 
   -6332    -6320    -6358    -6411    -6264    -5987    -5949    -6141 
   -6269    -6390    -6609    -6702    -6579    -6438    -6339    -6174 
   -5981    -5921    -5994    -6104    -6223    -6293    -6200    -6015 
   -5995    -6102    -6103    -6019    -5921    -5875    -5950    -6026 
   -6114    -6372    -6678    -6808    -6794    -6840    -6902    -6752 
   -6469    -6241    -5988    -5737    -5717    -5860    -5933    -5981 
   -6120    -6241    -6216    -6114    -6050    -6075    -6216    -6474 
   -6720    -6777    -6621    -6343    -6048    -5911    -5958    -6004 
   -6057    -6215    -6327    -6322    -6320    -6369    -6435    -6407 
   -6176    -5864    -5761    -5956    -6212    -6304    -6288    -6295 
   -6293    -6188    -6124    -6296    -6521    -6662    -6805    -6801 
   -6517    -6138    -5892    -5867    -5965    -6115    -6297    -6323 
   -6110    -5913    -5908    -6006    -6127    -6296    -6401    -6334 
   -6214    -6149    -6119    -6157    -6289    -6401    -6388    -6335 
   -6394    -6505    -6463    -6249    -6004    -5800    -5682    -5695 
   -5800    -5992    -6336    -6731    -6940    -6910    -6785    -6597 
   -6334    -6111    -6002    -5950    -5944    -5962    -5931    -5913 
   -6054    -6291    -6424    -6463    -6482    -6401    -6272    -6292 
   -6358    -6300    -6280    -6346    -6367    -6374    -6372    -6318 
   -6235    -6116    -5934    -5725    -5599    -5620    -5733    -5900 
   -6122    -6388    -6667    -6891    -6961    -6809    -6485    -6169 
   -6033    -6107    -6296    -6447    -6467    -6389    -6269    -6065 
   -5756    -5481    -5385    -5508    -5846    -6288    -6627    -6813 
   -6870    -6774    -6615    -6528    -6539    -6635    -6723    -6592 
   -6235    -5892    -5697    -5686    -5879    -6081    -6115    -6107 
   -6058    -5849    -5713    -5819    -6002    -6226    -6542    -6795 
   -6825    -6713    -6648    -6571    -6378    -6241    -6230    -6126 
   -5914    -5837    -5933    -6043    -6065    -6019    -6046    -6210 
   -6358    -6382    -6366    -6380    -6342    -6218    -6150    -6268 
   -6454    -6515    -6492    -6507    -6469    -6319    -6211    -6166 
   -5994    -5719    -5564    -5580    -5726    -5983    -6316    -6639 
   -6825    -6812    -6683    -6544    -6407    -6278    -6199    -6097 
   -5925    -5886    -6052    -6172    -6201    -6177    -5946    -5675 
   -5678    -5887    -6135    -6417    -6740    -6993    -7052    -6894 
   -6629    -6421    -6361    -6366    -6297    -6172    -6061    -5926 
   -5803    -5790    -5853    -5935    -6062    -6232    -6363    -6351 
   -6214    -6100    -6110    -6226    -6386    -6466    -6396    -6299 
   -6280    -6245    -6147    -6093    -6093    -6065    -6054    -6150 
   -6299    -6428    -6543    -6608    -6529    -6340    -6180    -6077 
   -6045    -6149    -6242    -6172    -6065    -5971    -5864    -5884 
   -6089    -6392    -6683    -6856    -6840    -6662    -6413    -6160 
   -5961    -5938    -6053    -6096    -6034    -5976    -5971    -6054 
   -6216    -6353    -6384    -6299    -6139    -6000    -5984    -6112 
   -6339    -6604    -6798    -6787    -6585    -6363    -6201    -6096 
   -6110    -6172    -6146    -6072    -5989    -5915    -5887    -5854 
   -5848    -5958    -6130    -6269    -6365    -6471    -6613    -6748 
   -6847    -6860    -6689    -6424    -6328    -6349    -6192    -5894 
   -5622    -5393    -5283    -5400    -5768    -6288    -6731    -6932 
   -6883    -6656    -6336    -6030    -5913    -6073    -6401    -6736 
   -6916    -6848    -6610    -6286    -5898    -5555    -5417    -5495 
   -5684    -5944    -6257    -6515    -6627    -6650    -6658    -6602 
   -6454    -6296    -6189    -6114    -6039    -5954    -5898    -5949 
   -6124    -6354    -6589    -6785    -6839    -6686    -6336    -5873 
   -5548    -5568    -5775    -5900    -6004    -6223    -6386    -6374 
   -6357    -6374    -6373    -6385    -6318    -6197    -6185    -6265 
   -6413    -6636    -6775    -6687    -6453    -6262    -6133    -5983 
   -5872    -5811    -5746    -5753    -5879    -6056    -6250    -6444 
   -6559    -6548    -6438    -6270    -6145    -6174    -6336    -6519 
   -6664    -6697    -6515    -6205    -5956    -5809    -5778    -5888 
   -5987    -5946    -5884    -5927    -6062    -6259    -6511    -6764 
   -6903    -6867    -6656    -6332    -6066    -5984    -6016    -6084 
   -6170    -6231    -6216    -6156    -6084    -6038    -6070    -6106 
   -6052    -6018    -6029    -6004    -6093    -6390    -6693    -6824 
   -6798    -6696    -6535    -6320    -6147    -6088    -6052    -5930 
   -5778    -5738    -5833    -6004    -6235    -6450    -6520    -6426 
   -6257    -6106    -6093    -6296    -6577    -6727    -6690    -6490 
   -6212    -6046    -6031    -6010    -5944    -5949    -6037    -6131 
   -6169    -6107    -6016    -6031    -6129    -6226    -6373    -6601 
   -6802    -6875    -6825    -6628    -6270    -5933    -5759    -5680 
   -5711    -5941    -6207    -6332    -6390    -6440    -6450    -6434 
   -6420    -6399    -6354    -6280    -6127    -5911    -5795    -5825 
   -5918    -6070    -6288    -6521    -6716    -6777    -6619    -6295 
   -5977    -5803    -5815    -5984    -6219    -6435    -6571    -6570 
   -6447    -6280    -6081    -5852    -5695    -5728    -5922    -6177 
   -6451    -6714    -6868    -6839    -6635    -6312    -5988    -5791 
