Origin Time       2024/06/23 22:54:00
Lat.              35.645
Long.             140.060
Depth. (km)       72
Mag.              4.1
Station Code      SZOH38
Station Lat.      35.0854
Station Long.     138.9779
Station Height(m) 100
Record Time       2024/06/23 22:54:57
Sampling Freq(Hz) 100Hz
Duration Time(s)  120
Dir.              5
Scale Factor      7845(gal)/8223790
Max. Acc. (gal)   0.588
Last Correction   2024/06/23 22:54:57
Memo.             
[...]
   -9069    -8924    -8914    -8947    -8954    -8996    -9051    -9061 
   -9054    -9004    -8887    -8822    -8864    -8928    -8991    -9028 
   -8985    -8954    -9018    -9058    -9023    -9008    -9016    -9036 
   -9080    -9073    -9030    -9019    -9019    -9003    -8964    -8930 
   -8935    -8938    -8930    -8968    -9026    -9032    -9042    -9076 
   -9046    -9003    -9004    -9003    -9050    -9131    -9070    -8934 
   -8883    -8849    -8851    -8959    -9030    -9035    -9085    -9105 
   -9038    -8976    -8923    -8884    -8938    -9030    -9050    -9043 
   -9082    -9078    -8985    -8938    -8978    -9015    -8997    -8946 
   -8951    -9039    -9094    -9040    -8947    -8905    -8876    -8819 
   -8851    -9030    -9185    -9186    -9088    -9015    -9013    -9008 
   -8943    -8876    -8887    -8980    -9058    -9051    -9027    -9008 
   -8942    -8903    -8985    -9092    -9115    -9135    -9177    -9073 
   -8854    -8775    -8877    -8958    -8935    -8943    -9049    -9123 
   -9050    -8920    -8891    -8935    -8955    -8982    -9034    -9054 
   -9042    -8995    -8932    -8932    -8980    -8995    -9001    -9049 
   -9135    -9181    -9104    -8980    -8939    -8942    -8924    -8931 
   -8981    -9007    -8982    -8966    -8968    -8966    -8977    -8985 
   -8958    -8939    -9000    -9093    -9126    -9082    -9001    -8939 
   -8947    -9012    -9054    -9032    -8982    -8934    -8900    -8905 
   -8935    -8946    -8978    -9069    -9117    -9092    -9070    -9050 
   -9026    -9031    -9018    -8972    -8957    -8962    -8942    -8905 
   -8901    -8946    -8989    -9004    -9005    -8995    -8999    -9023 
   -9008    -8985    -9020    -9053    -9031    -9016    -9019    -9005 
   -8985    -8939    -8870    -8857    -8911    -8996    -9058    -9065 
   -9107    -9131    -9043    -8955    -8924    -8939    -9000    -9050 
   -9066    -9051    -8980    -8883    -8856    -8928    -9018    -9077 
   -9120    -9089    -8989    -8949    -8996    -9057    -9092    -9055 
   -8957    -8914    -8951    -8977    -9000    -9067    -9050    -8927 
   -8873    -8874    -8838    -8868    -8993    -9046    -9016    -9035 
   -9073    -9057    -9043    -9049    -9009    -8988    -9043    -9053 
   -8980    -8934    -8943    -8973    -9022    -9042    -8972    -8897 
   -8911    -8962    -9065    -9184    -9163    -9047    -8974    -8934 
   -8926    -8981    -9055    -9094    -9080    -9015    -8941    -8905 
   -8896    -8876    -8901    -9001    -9070    -9034    -8954    -8930 
   -8977    -9055    -9097    -9047    -8965    -8953    -8989    -8993 
   -8974    -8989    -8996    -8930    -8887    -8943    -9031    -9123 
   -9180    -9148    -9097    -9045    -8965    -8915    -8922    -8961 
   -8980    -8976    -9019    -9045    -8977    -8934    -8951    -8932 
   -8903    -8914    -8943    -9007    -9061    -9036    -8996    -8991 
   -8992    -8999    -9012    -8995    -8966    -8978    -9004    -9005 
   -8993    -8989    -9012    -9053    -9070    -9024    -8961    -8989 
   -9065    -9030    -8954    -8999    -9082    -9062    -8961    -8873 
   -8881    -8982    -9043    -9005    -8992    -9066    -9093    -9003 
   -8939    -8958    -8958    -8932    -8953    -9003    -9034    -9030 
   -8992    -8993    -9039    -9034    -9028    -9053    -9000    -8911 
   -8877    -8889    -8955    -9036    -9032    -8993    -9034    -9093 
   -9073    -9016    -8968    -8947    -8985    -9024    -8985    -8950 
   -8997    -9005    -8955    -8942    -8910    -8881    -8972    -9085 
   -9111    -9107    -9063    -8972    -8966    -9031    -9000    -8934 
   -8964    -9032    -9059    -9046    -8986    -8930    -8930    -8927 
   -8888    -8891    -8996    -9109    -9140    -9124    -9047    -8927 
   -8876    -8915    -8999    -9051    -9026    -9004    -9008    -8945 
   -8872    -8895    -9000    -9131    -9178    -9113    -9020    -8968 
   -9005    -9069    -9016    -8919    -8924    -8974    -8980    -8977 
   -8991    -9000    -9012    -9022    -9019    -8980    -8908    -8888 
   -8949    -9018    -9076    -9105    -9026    -8891    -8838    -8873 
   -8938    -9003    -9038    -9038    -9043    -9039    -9004    -8986 
   -8986    -8969    -8984    -9051    -9121    -9171    -9175    -9084 
   -8951    -8899    -8865    -8818    -8915    -9088    -9126    -9067 
   -9022    -8958    -8884    -8881    -8951    -9028    -9073    -9077 
   -9086    -9088    -9015    -8912    -8907    -8996    -9022    -8931 
   -8877    -8916    -8926    -8897    -8951    -9076    -9139    -9117 
   -9065    -9012    -9015    -9031    -8969    -8915    -8949    -8982 
   -8973    -8969    -9004    -9076    -9099    -9036    -8981    -8968 
   -8985    -9028    -9045    -9028    -9027    -9005    -8932    -8874 
   -8873    -8903    -8965    -9042    -9088    -9103    -9074    -8989 
   -8901    -8845    -8814    -8834    -8928    -9047    -9140    -9178 
   -9116    -9015    -8982    -8985    -8961    -8946    -8986    -9074 
   -9117    -9074    -9026    -8968    -8895    -8903    -8989    -9043 
   -9013    -8954    -8980    -9043    -9024    -9008    -9011    -8957 
   -8901    -8888    -8904    -8937    -9016    -9158    -9216    -9088 
   -8951    -8959    -9000    -8962    -8911    -8901    -8947    -9051 
   -9109    -9057    -9000    -8970    -8931    -8943    -8977    -8982 
   -9026    -9040    -8953    -8910    -8992    -9082    -9094    -9019 
   -8924    -8916    -8984    -9043    -9059    -9020    -8965    -8977 
   -9040    -9073    -9066    -9043    -9003    -8974    -8976    -8965 
   -8955    -8977    -9000    -8988    -8945    -8923    -8962    -9019 
   -9001    -8935    -8945    -9013    -9039    -9050    -9069    -9036 
   -8958    -8928    -8988    -9058    -9058    -9001    -8947    -8923 
   -8931    -8962    -9001    -9028    -9001    -8955    -8981    -9059 
   -9111    -9072    -8953    -8916    -9000    -9053    -9038    -9057 
   -9103    -9093    -9005    -8897    -8847    -8868    -8930    -8992 
   -9009    -9018    -9031    -9013    -8985    -8962    -8943    -8932 
   -8930    -8999    -9132    -9143    -8999    -8914    -8949    -8976 
   -8953    -8907    -8891    -8970    -9078    -9089    -9035    -9019 
   -9050    -9082    -9089    -9042    -8953    -8937    -9003    -9030 
   -9016    -8982    -8878    -8827    -8926    -9024    -9065    -9120 
   -9123    -9012    -8920    -8901    -8901    -8942    -9018    -9040 
   -9027    -9047    -9077    -9072    -9020    -8920    -8842    -8861 
   -8982    -9124    -9159    -9080    -8989    -8923    -8884    -8903 
   -8973    -9038    -9063    -9023    -8977    -9072    -9175    -9066 
   -8914    -8899    -8911    -8907    -8950    -8989    -8973    -8980 
   -8996    -8968    -9007    -9097    -9077    -9018    -8999    -8959 
   -8999    -9113    -9074    -8891    -8814    -8881    -8938    -8985 
   -9066    -9077    -9013    -8977    -8968    -8986    -9047    -9059 
   -9040    -9057    -9019    -8930    -8923    -8970    -8958    -8896 
   -8914    -9027    -9084    -9051    -9030    -9027    -9035    -9057 
   -9034    -8965    -8916    -8930    -8981    -9003    -9000    -9028 
   -9032    -8981    -8988    -9046    -9054    -9019    -8962    -8939 
   -8982    -9016    -9028    -9005    -8915    -8880    -8947    -9011 
   -9032    -8996    -8946    -8955    -8950    -8949    -9062    -9155 
   -9101    -9027    -8997    -8973    -8974    -8980    -8974    -8985 
   -8973    -8968    -8999    -8962    -8862    -8851    -8966    -9107 
   -9174    -9131    -9050    -9022    -9000    -8950    -8958    -9026 
   -9050    -8996    -8900    -8869    -8958    -9065    -9099    -9080 
   -9026    -8997    -9004    -8927    -8861    -8943    -9009    -8972 
   -8997    -9097    -9127    -9089    -9012    -8904    -8914    -9030 
   -9053    -9027    -9070    -9055    -8919    -8811    -8796    -8831 
   -8897    -8964    -9039    -9120    -9158    -9151    -9107    -9035 
   -8950    -8841    -8776    -8843    -8972    -9086    -9178    -9174 
   -9082    -8958    -8829    -8812    -8910    -8974    -9020    -9089 
   -9139    -9130    -9053    -8997    -9049    -9148    -9158    -9018 
   -8858    -8819    -8858    -8912    -8947    -8949    -8976    -9028 
   -9030    -8999    -8989    -8976    -8945    -8928    -8955    -9040 
   -9154    -9209    -9139    -9007    -8914    -8831    -8781    -8924 
   -9134    -9143    -9024    -8947    -8947    -8969    -8954    -8942 
   -8961    -8988    -9035    -9070    -9061    -9058    -9062    -9032 
   -8986    -8935    -8919    -8966    -8980    -8950    -8981    -9032 
   -9026    -9040    -9086    -9066    -8986    -8941    -8943    -8946 
   -8938    -8939    -8946    -8961    -8986    -9036    -9131    -9193 
   -9135    -9038    -8997    -8966    -8916    -8893    -8910    -8951 
   -9019    -9028    -8930    -8876    -8968    -9039    -8993    -8950 
   -8993    -9066    -9112    -9112    -9051    -9005    -9009    -8946 
   -8818    -8811    -8946    -9073    -9119    -9078    -8991    -8974 
   -9050    -9065    -8965    -8891    -8924    -8981    -8969    -8949 
   -8982    -9035    -9061    -9028    -8984    -8993    -9015    -9020 
   -9032    -9007    -8970    -9011    -9039    -8953    -8905    -9004 
   -9063    -8997    -8968    -9034    -9081    -9054    -8978    -8942 
   -8982    -8997    -8982    -8996    -8976    -8924    -8926    -8969 
   -8995    -9016    -9045    -9051    -9038    -8976    -8901    -8934 
   -9031    -9067    -9039    -9022    -9031    -9004    -8905    -8807 
   -8822    -8950    -9026    -9024    -9067    -9103    -9053    -9016 
   -9015    -9000    -8973    -8955    -9011    -9103    -9124    -9123 
   -9136    -9061    -8887    -8766    -8803    -8915    -9004    -9084 
   -9116    -9043    -8970    -8964    -8964    -8996    -9051    -9058 
   -9038    -9012    -8953    -8904    -8892    -8900    -8945    -8997 
   -8991    -8980    -9042    -9090    -9039    -8995    -9023    -9009 
   -8958    -8982    -9032    -8996    -8928    -8922    -8937    -8945 
   -9001    -9085    -9127    -9119    -9078    -9032    -8976    -8907 
   -8907    -8946    -8945    -8954    -8980    -8980    -9013    -9050 
   -9007    -8974    -9003    -9015    -9018    -9059    -9104    -9101 
   -9016    -8889    -8839    -8893    -8974    -9050    -9086    -9058 
   -9005    -8980    -9001    -9045    -9032    -8972    -8972    -8999 
   -8919    -8814    -8806    -8883    -9030    -9144    -9140    -9085 
   -9005    -8949    -8973    -8978    -8950    -8997    -9072    -9066 
   -9007    -8992    -9023    -9000    -8949    -8968    -8996    -8986 
   -8989    -8995    -9009    -9018    -8969    -8923    -8934    -8961 
   -8996    -9078    -9184    -9170    -9043    -8985    -8981    -8932 
   -8895    -8935    -9039    -9070    -8968    -8903    -8937    -8961 
   -8972    -8974    -8974    -9032    -9027    -8914    -8877    -8923 
   -8949    -8980    -8997    -8976    -8982    -9046    -9092    -9084 
   -9111    -9175    -9130    -8962    -8835    -8831    -8924    -9000 
   -8970    -8931    -8953    -8996    -9050    -9089    -9111    -9162 
   -9228    -9240    -9131    -8918    -8734    -8710    -8838    -8972 
   -9031    -9084    -9123    -9046    -8923    -8935    -9012    -8988 
   -8973    -8977    -8862    -8812    -8904    -8939    -8947    -8922 
   -8818    -8824    -8941    -9036    -9144    -9223    -9215    -9180 
   -9105    -9013    -9004    -9036    -9040    -9053    -9126    -9220 
   -9220    -9097    -8908    -8757    -8787    -8934    -9077    -9234 
   -9306    -9166    -8888    -8642    -8580    -8679    -8754    -8792 
   -8904    -9045    -9131    -9070    -8814    -8580    -8564    -8708 
   -8938    -9162    -9294    -9367    -9450    -9510    -9485    -9386 
   -9259    -9166    -9165    -9211    -9275    -9389    -9468    -9370 
   -9085    -8797    -8692    -8675    -8577    -8492    -8483    -8444 
   -8392    -8490    -8776    -9007    -8926    -8653    -8459    -8436 
   -8603    -8880    -9113    -9235    -9296    -9416    -9522    -9455 
   -9336    -9261    -9105    -8964    -8989    -9081    -9170    -9269 
   -9270    -9139    -8964    -8802    -8745    -8837    -8932    -8911 
   -8910    -9093    -9331    -9352    -9142    -8950    -8922    -8935 
   -8896    -8877    -8873    -8791    -8749    -8926    -9153    -9159 
   -9040    -9019    -9023    -8961    -8996    -9113    -9069    -8858 
   -8644    -8537    -8672    -8955    -9094    -9088    -9107    -9117 
   -9059    -8978    -8862    -8714    -8656    -8766    -8962    -9109 
   -9173    -9207    -9274    -9348    -9308    -9119    -8938    -8939 
   -9131    -9327    -9355    -9223    -9004    -8779    -8699    -8834 
   -9072    -9252    -9256    -9101    -8923    -8733    -8586    -8703 
   -9013    -9209    -9309    -9451    -9423    -9070    -8695    -8550 
   -8495    -8413    -8471    -8758    -9073    -9202    -9147    -9000 
   -8811    -8591    -8392    -8407    -8806    -9336    -9549    -9489 
   -9436    -9362    -9192    -9092    -9165    -9252    -9213    -9080 
   -8961    -8977    -9108    -9174    -9116    -9043    -8972    -8838 
   -8704    -8700    -8857    -9117    -9346    -9358    -9144    -8961 
   -8903    -8788    -8613    -8622    -8916    -9254    -9283    -9012 
   -8762    -8640    -8542    -8557    -8752    -9023    -9243    -9258 
   -9092    -9026    -9142    -9301    -9435    -9477    -9366    -9142 
   -8831    -8500    -8379    -8607    -8977    -9192    -9188    -9061 
   -8910    -8756    -8617    -8658    -8904    -9067    -9085    -9202 
   -9420    -9441    -9171    -8878    -8795    -8880    -8999    -9066 
   -9127    -9232    -9292    -9225    -9077    -8897    -8757    -8742 
   -8822    -8857    -8795    -8803    -9016    -9243    -9259    -9148 
   -9036    -8888    -8745    -8696    -8645    -8604    -8796    -9138 
   -9323    -9313    -9306    -9371    -9320    -9094    -8941    -8965 
   -9019    -8965    -8812    -8738    -8829    -8912    -8927    -9003 
   -9119    -9134    -9028    -8924    -8918    -8974    -9051    -9132 
   -9140    -9057    -8992    -8958    -8880    -8804    -8784    -8807 
   -8841    -8842    -8845    -8927    -9047    -9135    -9173    -9120 
   -9020    -8970    -8951    -8978    -9116    -9286    -9374    -9323 
   -9189    -9128    -9121    -9058    -8943    -8784    -8646    -8637 
   -8700    -8804    -9036    -9317    -9405    -9254    -9030    -8853 
   -8761    -8733    -8733    -8831    -9036    -9171    -9158    -9112 
   -9047    -8932    -8854    -8839    -8873    -8958    -9018    -9027 
   -9069    -9138    -9142    -9057    -8970    -8935    -8947    -9018 
   -9069    -9034    -8991    -8964    -8908    -8901    -8982    -9022 
   -8988    -8984    -9008    -8977    -8920    -8950    -9046    -9063 
   -8986    -8910    -8854    -8853    -8973    -9108    -9162    -9220 
   -9238    -9113    -8964    -8889    -8874    -8901    -8928    -8877 
   -8770    -8768    -8945    -9136    -9234    -9313    -9316    -9151 
   -8988    -8955    -8982    -9035    -9080    -9018    -8856    -8746 
   -8743    -8815    -8965    -9105    -9100    -8985    -8910    -8945 
   -9003    -8977    -8941    -8968    -9001    -9024    -9032    -8970 
   -8870    -8850    -8958    -9080    -9146    -9235    -9285    -9175 
   -8999    -8873    -8830    -8860    -8930    -9009    -9065    -9094 
   -9121    -9132    -9088    -9013    -8986    -9019    -9051    -9042 
   -9004    -8980    -8931    -8802    -8729    -8850    -9012    -9004 
   -8877    -8769    -8733    -8806    -9009    -9244    -9343    -9274 
   -9142    -9049    -9065    -9111    -9061    -8976    -8972    -8988 
   -8918    -8885    -9031    -9177    -9144    -9011    -8889    -8833 
   -8878    -8989    -9026    -8893    -8708    -8688    -8834    -8961 
   -9020    -9053    -8996    -8900    -8937    -9081    -9223    -9302 
   -9234    -9051    -8900    -8861    -8970    -9148    -9223    -9186 
   -9131    -9027    -8888    -8810    -8843    -9013    -9202    -9220 
   -9151    -9135    -9054    -8860    -8692    -8631    -8721    -8995 
   -9270    -9325    -9205    -9093    -9027    -8922    -8808    -8766 
   -8760    -8729    -8685    -8656    -8699    -8876    -9090    -9228 
   -9298    -9290    -9178    -9051    -9018    -9076    -9140    -9132 
   -9066    -9045    -9090    -9143    -9169    -9138    -9040    -8942 
   -8884    -8827    -8738    -8662    -8658    -8704    -8783    -8935 
   -9113    -9197    -9134    -8946    -8760    -8700    -8765    -8922 
   -9131    -9277    -9279    -9184    -9099    -9063    -9053    -9101 
   -9193    -9244    -9242    -9138    -8949    -8876    -8964    -9042 
   -9040    -8977    -8846    -8745    -8787    -8873    -8896    -8919 
   -9009    -9126    -9138    -9001    -8865    -8838    -8888    -8962 
   -8997    -9009    -9086    -9132    -9027    -8907    -8935    -9036 
   -9049    -8988    -9001    -9069    -9058    -9038    -9151    -9308 
   -9305    -9140    -8927    -8742    -8671    -8729    -8835    -8965 
   -9126    -9207    -9148    -9067    -8962    -8791    -8710    -8769 
   -8862    -8976    -9100    -9224    -9328    -9285    -9078    -8838 
   -8667    -8685    -8891    -9057    -9070    -8972    -8842    -8900 
   -9201    -9429    -9394    -9258    -9107    -8904    -8770    -8791 
   -8843    -8851    -8872    -8945    -9019    -8995    -8907    -8911 
   -9004    -9058    -9096    -9208    -9308    -9254    -9076    -8878 
   -8731    -8679    -8735    -8847    -8918    -8900    -8907    -9077 
   -9319    -9382    -9248    -9131    -9099    -9061    -8973    -8850 
   -8733    -8706    -8816    -9018    -9186    -9219    -9134    -9024 
   -8991    -9054    -9085    -9026    -8943    -8853    -8735    -8637 
   -8673    -8847    -8997    -9034    -8989    -8947    -9028    -9169 
   -9193    -9126    -9066    -9036    -9063    -9138    -9166    -9113 
   -9040    -8991    -8951    -8912    -8881    -8881    -8934    -9004 
   -9076    -9180    -9211    -9070    -8888    -8735    -8579    -8514 
   -8614    -8806    -9038    -9242    -9331    -9321    -9261    -9209 
   -9227    -9239    -9153    -8982    -8783    -8673    -8768    -8991 
   -9201    -9324    -9279    -9055    -8808    -8721    -8788    -8901 
   -9000    -9047    -8996    -8931    -8961    -9012    -9016    -8964 
   -8834    -8757    -8896    -9131    -9216    -9144    -9058    -8980 
   -8903    -8904    -8999    -9088    -9094    -9011    -8900    -8860 
   -8937    -9034    -9042    -9034    -9090    -9099    -9026    -8985 
   -8991    -9013    -9062    -9061    -8973    -8858    -8762    -8776 
   -8900    -9038    -9143    -9148    -9040    -8938    -8904    -8958 
   -9096    -9225    -9248    -9181    -9062    -8916    -8783    -8715 
   -8772    -8931    -9061    -9112    -9142    -9163    -9130    -9018 
   -8928    -8954    -9009    -8988    -8946    -8961    -9000    -8986 
   -8937    -8945    -8986    -8980    -8964    -8981    -8992    -8976 
   -8943    -8939    -8974    -9015    -9043    -9051    -9034    -8961 
   -8820    -8737    -8793    -8899    -8943    -8946    -8973    -9013 
   -9058    -9101    -9108    -9096    -9116    -9148    -9166    -9175 
   -9154    -9100    -9039    -8934    -8818    -8806    -8888    -8991 
