Origin Time       2024/06/23 22:54:00
Lat.              35.645
Long.             140.060
Depth. (km)       72
Mag.              4.1
Station Code      SZOH38
Station Lat.      35.0854
Station Long.     138.9779
Station Height(m) 100
Record Time       2024/06/23 22:54:57
Sampling Freq(Hz) 100Hz
Duration Time(s)  120
Dir.              4
Scale Factor      7845(gal)/8223790
Max. Acc. (gal)   1.051
Last Correction   2024/06/23 22:54:57
Memo.             
[...]
    3721     3717     3708     3713     3719     3723     3727     3715 
    3707     3708     3712     3717     3713     3709     3720     3727 
    3723     3713     3699     3690     3704     3721     3734     3731 
    3716     3713     3716     3723     3732     3731     3727     3713 
    3694     3689     3689     3693     3712     3712     3704     3717 
    3717     3707     3731     3762     3762     3728     3693     3709 
    3750     3742     3694     3651     3649     3680     3721     3739 
    3713     3690     3697     3709     3735     3770     3777     3770 
    3775     3763     3721     3684     3667     3665     3651     3620 
    3618     3662     3688     3680     3693     3719     3743     3815 
    3904     3882     3773     3709     3682     3647     3657     3694 
    3658     3592     3595     3653     3716     3738     3755     3796 
    3774     3730     3750     3770     3758     3755     3777     3789 
    3765     3701     3592     3487     3538     3692     3711     3642 
    3673     3734     3762     3819     3823     3746     3716     3732 
    3744     3771     3754     3696     3717     3744     3672     3634 
    3690     3703     3669     3661     3640     3666     3820     3920 
    3807     3669     3678     3727     3717     3707     3709     3713 
    3726     3712     3685     3676     3663     3700     3777     3731 
    3630     3673     3773     3775     3746     3744     3735     3712 
    3709     3697     3642     3581     3576     3707     3885     3909 
    3823     3723     3647     3696     3753     3688     3657     3697 
    3662     3585     3607     3705     3786     3871     3917     3815 
    3647     3573     3596     3657     3721     3775     3797     3796 
    3794     3730     3612     3586     3615     3576     3578     3697 
    3784     3811     3859     3897     3878     3807     3699     3624 
    3620     3620     3631     3689     3731     3742     3750     3767 
    3782     3754     3693     3647     3646     3696     3751     3800 
    3836     3789     3651     3539     3537     3622     3711     3731 
    3700     3716     3778     3777     3726     3716     3740     3753 
    3773     3797     3782     3758     3761     3763     3709     3573 
    3500     3582     3639     3578     3611     3813     3948     3878 
    3763     3719     3692     3685     3715     3721     3723     3759 
    3788     3778     3743     3701     3638     3565     3580     3653 
    3682     3724     3801     3811     3773     3762     3751     3723 
    3688     3689     3762     3823     3754     3618     3592     3688 
    3723     3659     3650     3715     3723     3658     3654     3736 
    3777     3773     3807     3794     3720     3694     3696     3688 
    3719     3754     3748     3739     3721     3690     3697     3688 
    3619     3604     3680     3750     3769     3757     3739     3727 
    3730     3758     3782     3775     3736     3703     3697     3686 
    3649     3612     3624     3690     3742     3774     3797     3728 
    3634     3670     3765     3740     3608     3565     3651     3713 
    3786     3879     3829     3735     3758     3767     3697     3657 
    3651     3639     3635     3672     3784     3881     3877     3823 
    3744     3653     3624     3627     3599     3631     3746     3807 
    3781     3766     3759     3674     3588     3582     3581     3631 
    3804     3927     3886     3802     3771     3700     3588     3591 
    3657     3654     3658     3751     3812     3780     3758     3721 
    3615     3592     3662     3677     3700     3773     3754     3705 
    3800     3893     3780     3626     3612     3647     3685     3736 
    3721     3672     3715     3813     3808     3712     3678     3697 
    3676     3674     3709     3681     3651     3734     3846     3882 
    3847     3755     3661     3628     3635     3659     3700     3724 
    3734     3740     3742     3754     3757     3731     3692     3635 
    3601     3624     3672     3734     3778     3759     3726     3746 
    3753     3703     3696     3717     3663     3659     3775     3811 
    3740     3713     3658     3553     3578     3724     3804     3778 
    3717     3676     3707     3763     3736     3672     3713     3809 
    3800     3719     3708     3744     3743     3719     3677     3616 
    3607     3659     3703     3713     3717     3731     3769     3770 
    3716     3724     3790     3790     3770     3781     3721     3624 
    3632     3693     3649     3561     3632     3777     3771     3700 
    3713     3780     3827     3807     3739     3696     3666     3658 
    3728     3758     3667     3623     3688     3723     3690     3666 
    3673     3711     3805     3859     3789     3701     3654     3620 
    3669     3746     3734     3755     3855     3862     3774     3662 
    3524     3518     3673     3754     3762     3813     3789     3724 
    3761     3753     3658     3655     3670     3626     3646     3736 
    3802     3805     3775     3734     3642     3559     3588     3688 
    3794     3843     3805     3757     3692     3593     3593     3681 
    3721     3739     3758     3763     3785     3802     3765     3676 
    3601     3618     3720     3815     3832     3762     3665     3661 
    3708     3690     3690     3720     3694     3650     3647     3704 
    3765     3757     3774     3834     3748     3628     3712     3821 
    3740     3623     3607     3613     3634     3716     3786     3786 
    3801     3828     3777     3716     3716     3699     3642     3586 
    3593     3699     3778     3785     3793     3750     3672     3684 
    3743     3730     3688     3724     3780     3755     3703     3642 
    3568     3562     3613     3681     3792     3863     3828     3769 
    3716     3661     3646     3658     3669     3712     3770     3800 
    3825     3817     3755     3703     3627     3510     3499     3601 
    3720     3844     3917     3883     3823     3780     3734     3690 
    3620     3531     3519     3636     3765     3777     3759     3794 
    3781     3709     3709     3723     3657     3667     3765     3774 
    3740     3704     3620     3619     3692     3701     3717     3788 
    3802     3784     3792     3744     3603     3542     3661     3778 
    3781     3753     3740     3728     3713     3734     3790     3784 
    3705     3677     3685     3645     3620     3662     3690     3712 
    3769     3807     3836     3832     3732     3662     3693     3699 
    3680     3709     3699     3642     3666     3743     3777     3774 
    3744     3719     3720     3681     3613     3622     3663     3684 
    3716     3730     3700     3719     3765     3705     3591     3599 
    3705     3767     3770     3744     3727     3770     3834     3867 
    3870     3792     3653     3593     3595     3588     3626     3696 
    3742     3784     3820     3784     3709     3720     3763     3713 
    3650     3661     3677     3680     3689     3688     3716     3766 
    3747     3696     3681     3667     3674     3707     3709     3730 
    3821     3875     3784     3678     3684     3723     3742     3708 
    3639     3657     3705     3681     3672     3651     3585     3645 
    3769     3740     3673     3727     3807     3817     3775     3711 
    3676     3719     3769     3716     3657     3727     3807     3784 
    3708     3604     3570     3676     3777     3815     3838     3792 
    3701     3666     3669     3665     3663     3659     3634     3640 
    3728     3792     3766     3740     3731     3680     3643     3666 
    3681     3676     3721     3821     3881     3815     3693     3646 
    3638     3642     3701     3782     3855     3888     3805     3678 
    3628     3646     3684     3703     3678     3659     3670     3670 
    3697     3796     3815     3688     3624     3731     3813     3757 
    3665     3612     3623     3693     3747     3774     3816     3770 
    3643     3619     3635     3613     3669     3690     3639     3721 
    3854     3877     3873     3834     3721     3645     3609     3553 
    3582     3708     3765     3801     3883     3854     3715     3667 
    3699     3631     3543     3623     3762     3788     3770     3775 
    3761     3743     3716     3662     3649     3663     3663     3690 
    3732     3747     3746     3732     3750     3793     3801     3763 
    3677     3578     3545     3592     3650     3703     3775     3824 
    3874     3919     3836     3689     3632     3639     3613     3549 
    3558     3653     3717     3785     3879     3928     3940     3877 
    3719     3592     3546     3558     3611     3624     3622     3674 
    3757     3844     3888     3816     3709     3681     3639     3532 
    3524     3650     3790     3877     3888     3856     3816     3769 
    3715     3608     3530     3589     3684     3726     3742     3730 
    3708     3674     3608     3601     3715     3829     3836     3811 
    3807     3770     3721     3653     3553     3568     3677     3703 
    3726     3835     3848     3738     3724     3780     3735     3609 
    3491     3488     3635     3825     3916     3869     3858     3920 
    3863     3712     3588     3464     3402     3493     3676     3788 
    3789     3846     3942     3892     3754     3649     3596     3645 
    3748     3778     3696     3609     3623     3666     3703     3724 
    3647     3601     3758     3917     3915     3879     3831     3689 
    3586     3613     3620     3585     3651     3767     3788     3758 
    3734     3685     3663     3688     3713     3755     3789     3773 
    3747     3699     3630     3635     3701     3732     3727     3746 
    3770     3712     3673     3748     3742     3616     3618     3743 
    3784     3736     3727     3735     3693     3685     3735     3705 
    3646     3708     3774     3748     3731     3740     3761     3809 
    3793     3697     3638     3626     3642     3685     3707     3692 
    3631     3605     3731     3869     3816     3666     3636     3716 
    3727     3696     3715     3724     3758     3836     3805     3653 
    3568     3626     3708     3726     3717     3690     3651     3684 
    3763     3798     3798     3762     3677     3654     3713     3715 
    3632     3577     3627     3738     3828     3894     3906     3809 
    3697     3678     3685     3651     3620     3618     3627     3657 
    3701     3754     3821     3850     3807     3748     3690     3626 
    3635     3684     3680     3716     3797     3766     3711     3754 
    3748     3663     3634     3666     3690     3701     3744     3781 
    3747     3735     3771     3730     3632     3585     3624     3724 
    3755     3713     3726     3777     3823     3812     3704     3626 
    3636     3622     3611     3694     3770     3770     3781     3804 
    3792     3781     3746     3643     3581     3597     3630     3724 
    3831     3813     3759     3742     3662     3584     3628     3692 
    3690     3696     3701     3711     3798     3889     3869     3781 
    3686     3582     3539     3595     3662     3720     3801     3824 
    3765     3726     3732     3731     3709     3700     3717     3732 
    3716     3709     3770     3817     3736     3647     3658     3650 
    3650     3742     3757     3677     3689     3724     3663     3626 
    3699     3784     3784     3753     3757     3740     3693     3670 
    3647     3627     3659     3740     3811     3804     3767     3761 
    3711     3661     3735     3816     3782     3709     3647     3588 
    3580     3639     3734     3817     3792     3677     3645     3685 
    3709     3727     3735     3738     3705     3663     3699     3736 
    3719     3716     3715     3688     3678     3697     3685     3669 
    3747     3805     3757     3728     3713     3685     3696     3693 
    3672     3676     3684     3735     3828     3848     3789     3730 
    3666     3623     3627     3623     3645     3765     3873     3893 
    3898     3831     3650     3538     3555     3581     3616     3715 
    3802     3820     3811     3762     3672     3655     3682     3646 
    3662     3731     3709     3727     3834     3808     3705     3697 
    3701     3704     3758     3765     3690     3635     3626     3618 
    3615     3669     3751     3801     3865     3898     3781     3643 
    3600     3574     3595     3681     3738     3786     3861     3827 
    3670     3582     3624     3690     3738     3753     3732     3703 
    3692     3736     3785     3751     3693     3713     3782     3790 
    3747     3735     3697     3646     3670     3649     3564     3573 
    3623     3646     3775     3973     3994     3847     3712     3584 
    3441     3495     3843     4118     4063     3916     3762     3460 
    3210     3237     3385     3578     3888     4158     4236     4225 
    4104     3696     3206     3014     3127     3410     3807     4141 
    4198     4002     3781     3620     3476     3464     3647     3829 
    3979     4141     4074     3738     3508     3566     3724     3824 
    3859     3820     3823     3919     3827     3505     3334     3414 
    3532     3612     3680     3678     3558     3430     3387     3364 
    3360     3485     3738     3973     4144     4326     4365     4013 
    3469     3134     3048     3156     3504     3920     4213     4390 
    4353     4024     3539     3129     2986     3094     3321     3719 
    4305     4780     4816     4392     3827     3474     3321     3250 
    3303     3383     3462     3726     4101     4295     4179     3827 
    3460     3345     3443     3461     3481     3693     3828     3778 
    3827     3925     3842     3647     3477     3366     3327     3402 
    3630     3915     4143     4216     4005     3709     3615     3589 
    3524     3566     3712     3789     3712     3568     3532     3666 
    3862     3915     3727     3636     3959     4245     3981     3465 
    3149     3057     3191     3547     3889     4018     3987     3920 
    3813     3727     3777     3838     3771     3700     3689     3685 
    3703     3720     3707     3742     3825     3847     3843     3894 
    3858     3661     3554     3622     3693     3746     3757     3682 
    3576     3511     3604     3817     3924     3824     3657     3612 
    3672     3715     3712     3688     3665     3574     3399     3303 
    3316     3352     3480     3715     3962     4201     4345     4315 
    4174     3910     3564     3439     3595     3704     3731     3793 
    3763     3667     3642     3600     3478     3389     3450     3600 
    3744     3906     4083     4214     4213     4005     3708     3476 
    3341     3406     3615     3649     3527     3512     3645     3870 
    3993     3842     3685     3730     3716     3582     3624     3854 
    3983     3960     3913     3842     3735     3607     3451     3321 
    3302     3462     3708     3819     3759     3712     3734     3794 
    3923     3998     3862     3673     3649     3663     3553     3489 
    3581     3628     3623     3730     3823     3765     3754     3892 
    3932     3740     3577     3640     3734     3727     3753     3785 
    3704     3589     3539     3578     3676     3765     3867     3917 
    3785     3639     3659     3723     3770     3821     3850     3927 
    3969     3863     3774     3705     3522     3364     3402     3543 
    3611     3595     3576     3573     3628     3789     4012     4164 
    4077     3746     3423     3334     3429     3535     3611     3716 
    3827     3894     3912     3828     3719     3739     3789     3717 
    3638     3685     3730     3689     3757     3892     3874     3782 
    3724     3628     3546     3585     3667     3708     3758     3807 
    3796     3731     3672     3650     3619     3539     3496     3574 
    3790     4070     4213     4086     3792     3488     3258     3226 
    3458     3723     3807     3831     3920     4029     4121     4110 
    3919     3684     3511     3346     3258     3330     3555     3889 
    4145     4160     3982     3690     3357     3133     3200     3538 
    3862     4006     4028     3952     3835     3762     3676     3528 
    3427     3469     3609     3739     3828     3867     3793     3636 
    3555     3616     3711     3751     3788     3854     3866     3754 
    3619     3553     3511     3523     3649     3819     3929     3970 
    3960     3909     3828     3708     3574     3559     3694     3800 
    3773     3732     3817     3940     3908     3759     3639     3541 
    3503     3555     3581     3553     3558     3657     3825     3956 
    3950     3819     3643     3484     3416     3493     3615     3657 
    3662     3720     3778     3782     3819     3886     3902     3886 
    3865     3773     3624     3582     3694     3792     3767     3688 
    3626     3611     3597     3546     3546     3636     3757     3904 
    3986     3854     3654     3546     3461     3457     3599     3708 
    3727     3809     3916     3940     3942     3900     3770     3686 
    3728     3751     3696     3715     3836     3943     3974     3963 
    3950     3886     3769     3666     3518     3321     3269     3419 
    3632     3765     3740     3659     3635     3612     3591     3676 
    3835     3883     3769     3624     3520     3472     3476     3477 
    3568     3823     3982     3950     3946     3933     3767     3581 
    3473     3395     3380     3489     3661     3811     3928     3990 
    3954     3897     3892     3855     3801     3821     3836     3798 
    3809     3843     3797     3694     3619     3604     3640     3699 
    3712     3624     3522     3516     3596     3678     3703     3716 
    3754     3738     3662     3636     3682     3731     3740     3699 
    3600     3516     3566     3720     3842     3925     3952     3831 
    3639     3532     3581     3738     3869     3910     3854     3742 
    3693     3663     3564     3510     3580     3673     3719     3758 
    3839     3894     3838     3761     3750     3703     3586     3547 
    3630     3731     3825     3927     3993     3967     3831     3635 
    3477     3470     3630     3788     3823     3823     3852     3824 
    3720     3628     3554     3464     3458     3601     3734     3724 
    3632     3580     3640     3769     3900     3982     3916     3731 
    3581     3516     3555     3723     3902     3986     3998     3939 
    3789     3604     3454     3373     3366     3430     3510     3608 
    3782     3956     4013     3940     3761     3564     3470     3511 
    3655     3815     3932     4040     4108     4044     3850     3622 
    3476     3450     3555     3754     3888     3875     3805     3717 
    3634     3601     3632     3707     3726     3620     3537     3584 
    3676     3751     3819     3859     3850     3794     3734     3686 
    3599     3497     3497     3595     3680     3727     3811     3946 
    3970     3828     3673     3578     3524     3522     3595     3709 
    3788     3838     3901     3942     3929     3863     3708     3519 
    3419     3403     3456     3591     3716     3788     3863     3921 
    3888     3769     3676     3674     3693     3666     3616     3595 
    3636     3753     3883     3923     3874     3807     3726     3649 
