Origin Time       2024/06/23 22:54:00
Lat.              35.645
Long.             140.060
Depth. (km)       72
Mag.              4.1
Station Code      SZOH38
Station Lat.      35.0854
Station Long.     138.9779
Station Height(m) -100
Record Time       2024/06/23 22:54:57
Sampling Freq(Hz) 100Hz
Duration Time(s)  120
Dir.              3
Scale Factor      2942(gal)/8224139
Max. Acc. (gal)   0.219
Last Correction   2024/06/23 22:54:57
Memo.             
[...]
  -79039   -79039   -79041   -79041   -79041   -79041   -79041   -79042 
  -79041   -79041   -79042   -79039   -79038   -79039   -79041   -79045 
  -79045   -79041   -79038   -79042   -79043   -79043   -79041   -79038 
  -79039   -79043   -79043   -79042   -79041   -79041   -79042   -79042 
  -79042   -79045   -79043   -79042   -79042   -79039   -79039   -79042 
  -79043   -79043   -79042   -79041   -79042   -79042   -79041   -79043 
  -79046   -79047   -79050   -79051   -79050   -79050   -79051   -79051 
  -79049   -79047   -79046   -79045   -79047   -79049   -79042   -79035 
  -79034   -79035   -79045   -79057   -79062   -79061   -79064   -79066 
  -79064   -79057   -79051   -79046   -79046   -79045   -79037   -79020 
  -79011   -79020   -79034   -79043   -79047   -79051   -79061   -79069 
  -79066   -79065   -79066   -79054   -79037   -79024   -79012   -78997 
  -79002   -78997   -78970   -78964   -78987   -79004   -79027   -79058 
  -79062   -79050   -79053   -79027   -79007   -79053   -79057   -78992 
  -78965   -78937   -78906   -78939   -78960   -78964   -79031   -79087 
  -79084   -79104   -79138   -79141   -79131   -79111   -79101   -79111 
  -79089   -79039   -78980   -78927   -78919   -78930   -78952   -78999 
  -79010   -79018   -79045   -79038   -79108   -79211   -79165   -79091 
  -79100   -79118   -79127   -79108   -79070   -79049   -79003   -78972 
  -78964   -78925   -78948   -79006   -78981   -78989   -79039   -79045 
  -79088   -79096   -79060   -79154   -79184   -79057   -79035   -79085 
  -79074   -79042   -79019   -79014   -78985   -78976   -79010   -78962 
  -78887   -78956   -79066   -79054   -79035   -79127   -79174   -79099 
  -79031   -79016   -79037   -79085   -79091   -79030   -79002   -79062 
  -79114   -79060   -79023   -79116   -79173   -79073   -78960   -78956 
  -79041   -79092   -79042   -79003   -79020   -79026   -79037   -79058 
  -79062   -79034   -79012   -79060   -79085   -79026   -79006   -79047 
  -79070   -79061   -78995   -78935   -79018   -79138   -79112   -79022 
  -78962   -78902   -78922   -79056   -79111   -79041   -79019   -79085 
  -79097   -79024   -78996   -79047   -79118   -79154   -79066   -78899 
  -78865   -78952   -78966   -78972   -79065   -79103   -79054   -79076 
  -79118   -79077   -79064   -79077   -79050   -79027   -78993   -78923 
  -78907   -78993   -79068   -79056   -79037   -79061   -79078   -79049 
  -79043   -79076   -79035   -78997   -79072   -79092   -79030   -79031 
  -79029   -78973   -78957   -78964   -78981   -79041   -79047   -78964 
  -78914   -78933   -78979   -79087   -79211   -79208   -79119   -79088 
  -79085   -79057   -79016   -79003   -79043   -79064   -79051   -79089 
  -79069   -78975   -78950   -78941   -78921   -78997   -79104   -79157 
  -79139   -79031   -78981   -79056   -79076   -79039   -79061   -79077 
  -79043   -79041   -79037   -78962   -78887   -78903   -78992   -79085 
  -79124   -79110   -79092   -79101   -79105   -79065   -79023   -79049 
  -79088   -79062   -79037   -79058   -79074   -79077   -79088   -79070 
  -79019   -79000   -79043   -79047   -78957   -78941   -79065   -79155 
  -79158   -79137   -79065   -78999   -79024   -79003   -78934   -79007 
  -79111   -79062   -78992   -79003   -79015   -79002   -79002   -79004 
  -78987   -78975   -79015   -79061   -79070   -79091   -79078   -79016 
  -79015   -79073   -79110   -79116   -79073   -78966   -78883   -78910 
  -78987   -79019   -79054   -79114   -79099   -79041   -79027   -79056 
  -79130   -79161   -79064   -78995   -79057   -79115   -79080   -79018 
  -79007   -78997   -78976   -78999   -79016   -79012   -79060   -79107 
  -79051   -78981   -79024   -79084   -79068   -79092   -79151   -79120 
  -79054   -79020   -78958   -78933   -79030   -79095   -79057   -79033 
  -79016   -79014   -79054   -79037   -79018   -79072   -79049   -78984 
  -79049   -79123   -79072   -79019   -79020   -79012   -78992   -78968 
  -78973   -79038   -79054   -78999   -79011   -79078   -79105   -79114 
  -79103   -79061   -79026   -79022   -79046   -79047   -79034   -79080 
  -79104   -79035   -78979   -79007   -79051   -79033   -79012   -79068 
  -79104   -79104   -79145   -79134   -79050   -79038   -79053   -79002 
  -78996   -79038   -79008   -78985   -79020   -79010   -78965   -78991 
  -79039   -79027   -79020   -79047   -79042   -79027   -79049   -79058 
  -79038   -79027   -79026   -79039   -79057   -79031   -78985   -78975 
  -78999   -79027   -79053   -79087   -79091   -79053   -79027   -79016 
  -79018   -79056   -79088   -79099   -79100   -79068   -79062   -79123 
  -79126   -79076   -79050   -78977   -78899   -78925   -78987   -79012 
  -79014   -79020   -79056   -79108   -79139   -79124   -79092   -79066 
  -78997   -78929   -78965   -79045   -79054   -79027   -79029   -79047 
  -79092   -79128   -79103   -79107   -79159   -79111   -78983   -78943 
  -78977   -79002   -79049   -79088   -79045   -79007   -79049   -79064 
  -79004   -78966   -78981   -79015   -79030   -79008   -79026   -79080 
  -79068   -79065   -79124   -79103   -79042   -79091   -79115   -79022 
  -78989   -79061   -79051   -78957   -78931   -78973   -79004   -79020 
  -79031   -79058   -79099   -79100   -79105   -79159   -79154   -79056 
  -79020   -79069   -79074   -79026   -78965   -78942   -78980   -79047 
  -79081   -79034   -79020   -79070   -79033   -78968   -79018   -79061 
  -79026   -79066   -79162   -79126   -78996   -78938   -78973   -79022 
  -79003   -78977   -79020   -79045   -78992   -78941   -78957   -79043 
  -79135   -79135   -79066   -79020   -79031   -79058   -79073   -79096 
  -79097   -79043   -79010   -79019   -79023   -79033   -79024   -78989 
  -79000   -79057   -79081   -79049   -79033   -79050   -79020   -78995 
  -79053   -79068   -79050   -79114   -79132   -79097   -79091   -79047 
  -79029   -79051   -78991   -78933   -78973   -79020   -79026   -79018 
  -79043   -79089   -79064   -79012   -79041   -79089   -79076   -79056 
  -79070   -79034   -78943   -78950   -79031   -79054   -79054   -79058 
  -79014   -79020   -79112   -79116   -79033   -79043   -79124   -79146 
  -79131   -79115   -79053   -78972   -78921   -78915   -79006   -79127 
  -79115   -79029   -79003   -79016   -79045   -79089   -79110   -79103 
  -79095   -79062   -79012   -79011   -79027   -79016   -79029   -79042 
  -79016   -79029   -79061   -79049   -79046   -79023   -78956   -78992 
  -79065   -79004   -78952   -79010   -79064   -79080   -79074   -79045 
  -79041   -79074   -79084   -79047   -79038   -79078   -79084   -79046 
  -79023   -79003   -78966   -78969   -79043   -79097   -79085   -79066 
  -79034   -78960   -78910   -78933   -78996   -79051   -79081   -79077 
  -79080   -79103   -79061   -79015   -79058   -79068   -79006   -78995 
  -79047   -79087   -79050   -79018   -79064   -79072   -79020   -79038 
  -79076   -79041   -79010   -79049   -79087   -79066   -79045   -79051 
  -79049   -79011   -78956   -78961   -79045   -79076   -79037   -79054 
  -79084   -79056   -79019   -78996   -79000   -79038   -79070   -79120 
  -79139   -79047   -78992   -79061   -79078   -79018   -78980   -78973 
  -78995   -79007   -79004   -79038   -79038   -79000   -79024   -79069 
  -79081   -79087   -79084   -79077   -79070   -79076   -79074   -79016 
  -78958   -78968   -78985   -79002   -79087   -79153   -79130   -79093 
  -79043   -78980   -78975   -79004   -79033   -79080   -79120   -79107 
  -79084   -79100   -79101   -79057   -78996   -78958   -78968   -78985 
  -78965   -78949   -79026   -79141   -79147   -79093   -79112   -79159 
  -79127   -79060   -79018   -78965   -78938   -78937   -78884   -78899 
  -79003   -79030   -79029   -79050   -79035   -79068   -79112   -79064 
  -79039   -79092   -79110   -79068   -79033   -79039   -79078   -79111 
  -79093   -79041   -78996   -78980   -78976   -78957   -78966   -78989 
  -78983   -79023   -79095   -79111   -79103   -79095   -79081   -79092 
  -79078   -79008   -78997   -79087   -79124   -79060   -78981   -78938 
  -78965   -79066   -79139   -79088   -78975   -78935   -78983   -78997 
  -78983   -79051   -79124   -79076   -79024   -79058   -79108   -79142 
  -79150   -79110   -79062   -79045   -79007   -78953   -78938   -78922 
  -78894   -78950   -79035   -79012   -79018   -79104   -79089   -79056 
  -79100   -79092   -79057   -79030   -78995   -79006   -79024   -79024 
  -79037   -79027   -79023   -79027   -78995   -78981   -79016   -79039 
  -79037   -79066   -79126   -79142   -79101   -79027   -78987   -79018 
  -79043   -79054   -79069   -79056   -79045   -79058   -79053   -79051 
  -79083   -79103   -79081   -79022   -78965   -78975   -79031   -79077 
  -79088   -79084   -79066   -79027   -79029   -79058   -79053   -79046 
  -79015   -78962   -78996   -79056   -79066   -79103   -79126   -79087 
  -79056   -79038   -79029   -79039   -79035   -79002   -78960   -78946 
  -79002   -79070   -79054   -79023   -79076   -79118   -79110   -79126 
  -79088   -79007   -79003   -78980   -78918   -78969   -79064   -79089 
  -79076   -79038   -78989   -79002   -79045   -79012   -78983   -79023 
  -79030   -79045   -79120   -79146   -79135   -79146   -79142   -79078 
  -78969   -78922   -78956   -78973   -78977   -79011   -79051   -79068 
  -79066   -79083   -79088   -79056   -79031   -79046   -79050   -79007 
  -78983   -79019   -79058   -79088   -79141   -79168   -79110   -79034 
  -79041   -79053   -78981   -78930   -78965   -79007   -79012   -79023 
  -79066   -79122   -79123   -79039   -78997   -79065   -79084   -79004 
  -79006   -79112   -79142   -79084   -79035   -78979   -78964   -79023 
  -79046   -79027   -79074   -79118   -79027   -78930   -78976   -79041 
  -79072   -79101   -79074   -79031   -79041   -79092   -79141   -79128 
  -79104   -79105   -79033   -78939   -78960   -79008   -79007   -78993 
  -78993   -79022   -79068   -79084   -79058   -79006   -78980   -79004 
  -79031   -79057   -79101   -79134   -79127   -79105   -79099   -79091 
  -79030   -78964   -78961   -78980   -78996   -79006   -79024   -79091 
  -79114   -79016   -78966   -79041   -79076   -79064   -79091   -79091 
  -79053   -79016   -78993   -79042   -79095   -79068   -79046   -79047 
  -79000   -78962   -78979   -78997   -79016   -79078   -79123   -79096 
  -79062   -79053   -79033   -78991   -78933   -78911   -79011   -79128 
  -79123   -79107   -79145   -79142   -79103   -79064   -79019   -78979 
  -78945   -78979   -79073   -79105   -79068   -79076   -79127   -79068 
  -78939   -78946   -79016   -78996   -78973   -79022   -79066   -79078 
  -79085   -79093   -79088   -79064   -79011   -78941   -78916   -78979 
  -79064   -79073   -79031   -79060   -79122   -79074   -78984   -78981 
  -78999   -79022   -79099   -79127   -79073   -79038   -79053   -79093 
  -79126   -79112   -79064   -79022   -79033   -79070   -79068   -79051 
  -79042   -78984   -78942   -78999   -79041   -78995   -79002   -79069 
  -79069   -79045   -79072   -79104   -79099   -79034   -78975   -79008 
  -79058   -79083   -79112   -79091   -79046   -79038   -79026   -79016 
  -79008   -78975   -78964   -78985   -78993   -78983   -78983   -79022 
  -79062   -79093   -79119   -79105   -79088   -79080   -79038   -79027 
  -79069   -79078   -79047   -79010   -78968   -78930   -78937   -78983 
  -79008   -79037   -79096   -79115   -79095   -79092   -79065   -79011 
  -79018   -79066   -79060   -79016   -79003   -79022   -79095   -79173 
  -79142   -79078   -79077   -79035   -78979   -79029   -79124   -79157 
  -79089   -79030   -79066   -79072   -79033   -79034   -79002   -78964 
  -78960   -78903   -78919   -79064   -79119   -79092   -79103   -79060 
  -79007   -79070   -79150   -79142   -79101   -79050   -78995   -79007 
  -79058   -79012   -78923   -78930   -78943   -78896   -78927   -79058 
  -79174   -79196   -79120   -79031   -78980   -78965   -79023   -79077 
  -79051   -79011   -78985   -78991   -79045   -79088   -79107   -79100 
  -79095   -79128   -79116   -79078   -79100   -79046   -78926   -78906 
  -78933   -78957   -79018   -79073   -79122   -79141   -79070   -79030 
  -79097   -79124   -79051   -79004   -79031   -79066   -79072   -79078 
  -79123   -79132   -79039   -78938   -78941   -78989   -78985   -78980 
  -79023   -79011   -78954   -79008   -79078   -79030   -79041   -79127 
  -79077   -79014   -79066   -79068   -79064   -79139   -79131   -79062 
  -79076   -79085   -79022   -78980   -79004   -79064   -79100   -79073 
  -79033   -79014   -78993   -78997   -79016   -79002   -79002   -79061 
  -79104   -79065   -79000   -79000   -79072   -79119   -79100   -79089 
  -79108   -79078   -79027   -79069   -79143   -79092   -78964   -78942 
  -79002   -79010   -79023   -79077   -79061   -79004   -79010   -79045 
  -79041   -79010   -79003   -78989   -78938   -78949   -79049   -79095 
  -79043   -79019   -79047   -79042   -79022   -79041   -79065   -79076 
  -79066   -79020   -79024   -79101   -79137   -79076   -78976   -78941 
  -78962   -78991   -79066   -79161   -79215   -79186   -79083   -79057 
  -79096   -79074   -79066   -79085   -79072   -79007   -78869   -78795 
  -78894   -78995   -79010   -79105   -79258   -79258   -79142   -79027 
  -78916   -78861   -78865   -78888   -79007   -79211   -79293   -79226 
  -79116   -78952   -78840   -78957   -79127   -79153   -79128   -79093 
  -79026   -79018   -79085   -79147   -79166   -79130   -78995   -78875 
  -78964   -79111   -79054   -78929   -79002   -79147   -79124   -79062 
  -79091   -79026   -78894   -78910   -78985   -79014   -79107   -79205 
  -79089   -78727   -78429   -78528   -78880   -79173   -79380   -79482 
  -79347   -79068   -78956   -79064   -79143   -79155   -79242   -79351 
  -79385   -79375   -79311   -79128   -78914   -78796   -78796   -78889 
  -79065   -79209   -79111   -78838   -78664   -78602   -78613   -78734 
  -78844   -78903   -78979   -79046   -79127   -79222   -79255   -79228 
  -79205   -79230   -79195   -79056   -79018   -79093   -79114   -79126 
  -79132   -79029   -78952   -78948   -78880   -78865   -78977   -79050 
  -79027   -78943   -78937   -79103   -79259   -79259   -79122   -78956 
  -78910   -79010   -79263   -79586   -79652   -79358   -79020   -78842 
  -78783   -78817   -78826   -78729   -78745   -79002   -79199   -79127 
  -79012   -79024   -79008   -78846   -78721   -78868   -79147   -79201 
  -79056   -78975   -78979   -79007   -79037   -78995   -78945   -78999 
  -79189   -79467   -79614   -79497   -79218   -78900   -78683   -78656 
  -78822   -79095   -79259   -79226   -79058   -78846   -78757   -78815 
  -78891   -78988   -79081   -79116   -79158   -79170   -79084   -79022 
  -79073   -79170   -79239   -79238   -79157   -79042   -78958   -78948 
  -79018   -79076   -79039   -79010   -79061   -79119   -79159   -79208 
  -79166   -79004   -78933   -79066   -79204   -79166   -79061   -79069 
  -79096   -78961   -78841   -78898   -78925   -78867   -78818   -78721 
  -78690   -78868   -79080   -79245   -79332   -79200   -79061   -79142 
  -79176   -79068   -79034   -79000   -78888   -78877   -79019   -79149 
  -79142   -79049   -78950   -78846   -78765   -78804   -78976   -79149 
  -79242   -79278   -79238   -79119   -79023   -79038   -79153   -79255 
  -79220   -79026   -78907   -79039   -79157   -79060   -78954   -78983 
  -79034   -79042   -79089   -79180   -79215   -79220   -79178   -79034 
  -78997   -79060   -78926   -78791   -78898   -79010   -79031   -79072 
  -79072   -78980   -78945   -79004   -78992   -78927   -78950   -79043 
  -79115   -79131   -79196   -79340   -79347   -79195   -79088   -79027 
  -78961   -79016   -79191   -79197   -78985   -78873   -78943   -78993 
  -78979   -78885   -78705   -78611   -78671   -78761   -78875   -78988 
  -79051   -79085   -79081   -79172   -79407   -79458   -79270   -79174 
  -79193   -79151   -79069   -79018   -79008   -78935   -78772   -78748 
  -78915   -79034   -79015   -78989   -79081   -79211   -79227   -79218 
  -79246   -79135   -78953   -78937   -78981   -78985   -79058   -79118 
  -79073   -79003   -78938   -78939   -79014   -79015   -78952   -78964 
  -79054   -79141   -79172   -79161   -79130   -79012   -78881   -78906 
  -79011   -79041   -79011   -79000   -79065   -79134   -79061   -78948 
  -78991   -79062   -79035   -79066   -79145   -79123   -79077   -79029 
  -78902   -78786   -78725   -78702   -78806   -78968   -79085   -79207 
  -79240   -79138   -79073   -79095   -79164   -79300   -79413   -79362 
  -79180   -79120   -79212   -79149   -79027   -79088   -79100   -79019 
  -79011   -78956   -78902   -79046   -79249   -79292   -79181   -79089 
  -79110   -79128   -79070   -78972   -78867   -78856   -78989   -79103 
  -79056   -78903   -78765   -78692   -78660   -78649   -78752   -78992 
  -79161   -79166   -79173   -79223   -79178   -79027   -78923   -78873 
  -78799   -78800   -78962   -79132   -79181   -79151   -79127   -79088 
  -79033   -79047   -79153   -79262   -79289   -79263   -79301   -79321 
  -79180   -79024   -78981   -78926   -78856   -78892   -79015   -79118 
  -79123   -79042   -79012   -79099   -79159   -79119   -79103   -79114 
  -79030   -78937   -78966   -79023   -78976   -78822   -78665   -78655 
  -78780   -78895   -78987   -79095   -79111   -79043   -79041   -79076 
  -79081   -79074   -79030   -78988   -79010   -79068   -79135   -79174 
  -79164   -79161   -79138   -79026   -78942   -78984   -79026   -79008 
  -79037   -79073   -79050   -79081   -79153   -79124   -79043   -78984 
  -78934   -78992   -79174   -79265   -79182   -79070   -78969   -78934 
  -79070   -79201   -79185   -79173   -79188   -79166   -79145   -79074 
  -78989   -79027   -79105   -79069   -78956   -78884   -78923   -79046 
  -79147   -79204   -79169   -78991   -78838   -78818   -78848   -78930 
  -79060   -79139   -79142   -79137   -79138   -79081   -78997   -78972 
  -78996   -78995   -78941   -78912   -78952   -78988   -78999   -79015 
  -79023   -79010   -79002   -79012   -78993   -78931   -78925   -78981 
  -79056   -79169   -79249   -79230   -79236   -79255   -79178   -79118 
  -79124   -79061   -78961   -78918   -78891   -78881   -78873   -78831 
  -78840   -78945   -79026   -79041   -79100   -79182   -79174   -79134 
  -79124   -79085   -79039   -79035   -79043   -79037   -78999   -78953 
  -78976   -79068   -79142   -79142   -79093   -79054   -79002   -78912 
  -78834   -78819   -78879   -78966   -79030   -79056   -79093   -79143 
  -79122   -79026   -78976   -79024   -79116   -79201   -79232   -79173 
  -79070   -78956   -78869   -78910   -79051   -79185   -79242   -79184 
  -79115   -79123   -79099   -79008   -78931   -78906   -78979   -79088 
  -79072   -78961   -78908   -78921   -78946   -79014   -79120   -79139 
  -79045   -78968   -78939   -78957   -79085   -79209   -79185   -79128 
  -79119   -79093   -79091   -79116   -79076   -79026   -79046   -79083 
  -79077   -79004   -78892   -78837   -78880   -78957   -78989   -79003 
  -79019   -78989   -79008   -79139   -79195   -79131   -79077   -79016 
  -78956   -78969   -79069   -79222   -79305   -79226   -79115   -79107 
  -79118   -79057   -78970   -78892   -78860   -78975   -79153   -79182 
  -79069   -78965   -78933   -78948   -78980   -79034   -79100   -79097 
  -79029   -79046   -79139   -79145   -79069   -79015   -78962   -78879 
  -78837   -78900   -79046   -79178   -79242   -79261   -79262   -79209 
  -79091   -78961   -78892   -78933   -79035   -79072   -79068   -79072 
