Origin Time       2024/06/23 22:54:00
Lat.              35.645
Long.             140.060
Depth. (km)       72
Mag.              4.1
Station Code      SZOH38
Station Lat.      35.0854
Station Long.     138.9779
Station Height(m) -100
Record Time       2024/06/23 22:54:57
Sampling Freq(Hz) 100Hz
Duration Time(s)  120
Dir.              2
Scale Factor      2942(gal)/8224139
Max. Acc. (gal)   0.283
Last Correction   2024/06/23 22:54:57
Memo.             
[...]
   38445    38445    38446    38448    38450    38449    38446    38445 
   38443    38445    38442    38438    38439    38443    38442    38442 
   38445    38446    38450    38461    38468    38461    38452    38445 
   38441    38441    38438    38433    38431    38435    38438    38437 
   38441    38450    38457    38461    38462    38460    38468    38480 
   38476    38456    38430    38411    38410    38416    38418    38416 
   38416    38426    38438    38448    38454    38456    38469    38504 
   38510    38465    38429    38433    38437    38421    38395    38362 
   38357    38399    38435    38442    38454    38472    38503    38554 
   38568    38512    38456    38445    38448    38442    38418    38364 
   38338    38371    38406    38410    38389    38403    38470    38516 
   38500    38468    38481    38514    38492    38453    38449    38429 
   38411    38452    38457    38425    38426    38442    38458    38453 
   38466    38511    38446    38395    38475    38469    38381    38367 
   38389    38411    38443    38466    38456    38445    38457    38472 
   38462    38437    38422    38403    38407    38462    38483    38468 
   38476    38454    38448    38465    38419    38410    38495    38502 
   38410    38352    38356    38423    38500    38453    38379    38437 
   38522    38495    38415    38410    38479    38520    38484    38360 
   38288    38392    38473    38418    38389    38453    38533    38553 
   38511    38475    38446    38421    38443    38488    38481    38435 
   38407    38425    38480    38511    38461    38394    38414    38468 
   38426    38361    38406    38458    38441    38445    38469    38488 
   38534    38526    38423    38368    38398    38421    38415    38411 
   38437    38488    38508    38491    38492    38493    38454    38435 
   38433    38379    38375    38448    38448    38392    38376    38372 
   38398    38452    38468    38466    38496    38541    38550    38495 
   38399    38369    38439    38458    38398    38375    38358    38326 
   38354    38422    38480    38530    38533    38487    38489    38534 
   38507    38441    38431    38461    38491    38487    38435    38387 
   38348    38331    38392    38461    38485    38492    38466    38427 
   38399    38365    38349    38368    38400    38422    38448    38488 
   38507    38470    38460    38551    38583    38456    38387    38449 
   38504    38527    38487    38407    38407    38407    38345    38362 
   38438    38437    38430    38466    38460    38434    38473    38500 
   38458    38426    38430    38438    38443    38431    38395    38358 
   38385    38475    38511    38484    38448    38387    38379    38442 
   38454    38450    38488    38493    38446    38431    38481    38502 
   38468    38465    38472    38452    38446    38423    38362    38365 
   38418    38406    38380    38443    38516    38495    38448    38431 
   38398    38400    38435    38403    38375    38456    38534    38510 
   38460    38456    38445    38427    38441    38435    38392    38384 
   38445    38507    38483    38411    38380    38392    38407    38430 
   38477    38518    38522    38489    38450    38448    38479    38503 
   38475    38423    38443    38462    38392    38367    38410    38410 
   38418    38465    38468    38423    38426    38480    38453    38353 
   38377    38499    38514    38448    38427    38442    38464    38488 
   38465    38384    38341    38406    38469    38441    38430    38506 
   38537    38480    38450    38470    38460    38431    38468    38516 
   38477    38389    38350    38361    38371    38404    38472    38484 
   38437    38443    38508    38518    38461    38423    38396    38350 
   38348    38431    38526    38515    38427    38388    38404    38446 
   38522    38530    38441    38403    38414    38396    38414    38466 
   38485    38504    38535    38529    38466    38379    38335    38372 
   38431    38449    38426    38402    38429    38487    38456    38362 
   38357    38415    38458    38469    38456    38439    38403    38360 
   38391    38491    38570    38561    38458    38388    38427    38460 
   38431    38407    38395    38388    38404    38425    38437    38473 
   38537    38573    38542    38466    38421    38433    38466    38477 
   38448    38437    38439    38380    38352    38430    38476    38446 
   38431    38448    38452    38449    38473    38485    38461    38438 
   38410    38369    38358    38407    38499    38539    38484    38448 
   38468    38443    38383    38384    38404    38388    38415    38473 
   38475    38461    38469    38466    38468    38476    38492    38491 
   38450    38441    38449    38433    38457    38464    38403    38399 
   38423    38411    38461    38506    38442    38421    38473    38460 
   38407    38384    38399    38446    38489    38496    38464    38433 
   38441    38460    38460    38429    38383    38389    38423    38452 
   38491    38470    38421    38462    38522    38487    38422    38392 
   38404    38468    38496    38425    38388    38434    38429    38406 
   38456    38504    38500    38461    38430    38437    38450    38430 
   38414    38442    38464    38438    38426    38450    38483    38511 
   38497    38448    38434    38449    38415    38372    38422    38488 
   38452    38407    38415    38400    38399    38462    38492    38448 
   38425    38473    38530    38516    38437    38392    38443    38468 
   38411    38410    38443    38406    38384    38441    38448    38387 
   38399    38492    38542    38497    38425    38414    38454    38448 
   38422    38462    38510    38481    38431    38419    38437    38462 
   38457    38406    38381    38415    38454    38495    38499    38443 
   38434    38452    38403    38379    38460    38545    38506    38392 
   38379    38449    38457    38406    38383    38421    38495    38534 
   38489    38437    38442    38462    38470    38465    38439    38407 
   38380    38362    38376    38403    38429    38445    38454    38488 
   38504    38476    38445    38421    38419    38437    38387    38350 
   38426    38487    38470    38453    38452    38460    38457    38450 
   38469    38446    38389    38404    38443    38430    38433    38457 
   38458    38497    38558    38535    38502    38504    38473    38426 
   38404    38403    38406    38375    38354    38399    38441    38442 
   38466    38527    38527    38433    38369    38415    38461    38425 
   38376    38423    38529    38533    38438    38412    38457    38461 
   38461    38496    38472    38418    38456    38510    38477    38438 
   38418    38388    38398    38430    38437    38430    38383    38349 
   38379    38373    38360    38441    38516    38504    38477    38487 
   38526    38542    38492    38423    38376    38360    38410    38484 
   38489    38470    38456    38389    38345    38408    38479    38477 
   38442    38439    38472    38452    38389    38408    38477    38484 
   38445    38402    38354    38358    38429    38483    38465    38433 
   38434    38439    38453    38493    38507    38469    38443    38452 
   38458    38454    38453    38439    38398    38368    38384    38403 
   38414    38476    38539    38522    38473    38418    38365    38404 
   38466    38429    38381    38422    38469    38473    38460    38446 
   38485    38534    38468    38373    38384    38434    38460    38488 
   38484    38427    38410    38475    38541    38538    38483    38421 
   38403    38421    38407    38387    38407    38418    38402    38367 
   38338    38380    38470    38514    38477    38442    38454    38468 
   38454    38400    38354    38394    38448    38458    38512    38565 
   38522    38479    38497    38481    38426    38406    38416    38419 
   38389    38404    38516    38554    38441    38369    38415    38469 
   38468    38435    38464    38551    38523    38426    38415    38381 
   38334    38394    38443    38441    38448    38438    38442    38464 
   38434    38419    38465    38464    38396    38381    38422    38426 
   38408    38394    38403    38441    38450    38460    38522    38565 
   38529    38470    38425    38400    38438    38452    38381    38389 
   38510    38551    38492    38453    38457    38465    38450    38411 
   38425    38462    38403    38361    38426    38470    38466    38456 
   38431    38402    38388    38418    38452    38445    38475    38546 
   38541    38485    38475    38434    38357    38365    38415    38415 
   38394    38412    38469    38484    38461    38493    38526    38476 
   38421    38406    38419    38426    38408    38448    38519    38507 
   38456    38448    38443    38421    38426    38443    38408    38357 
   38352    38387    38457    38531    38547    38504    38456    38446 
   38446    38412    38377    38399    38472    38516    38485    38439 
   38425    38385    38325    38346    38434    38472    38473    38500 
   38522    38488    38426    38410    38439    38442    38408    38416 
   38477    38504    38476    38456    38460    38446    38411    38425 
   38462    38437    38388    38403    38477    38518    38480    38464 
   38491    38439    38333    38333    38403    38400    38368    38371 
   38394    38443    38519    38587    38595    38520    38434    38383 
   38361    38371    38402    38453    38484    38461    38437    38442 
   38464    38450    38416    38457    38520    38503    38464    38469 
   38476    38426    38361    38360    38415    38485    38534    38508 
   38445    38418    38398    38353    38346    38398    38429    38402 
   38400    38437    38419    38396    38472    38592    38635    38546 
   38429    38423    38468    38448    38423    38435    38433    38423 
   38454    38492    38466    38412    38402    38425    38414    38352 
   38345    38437    38481    38421    38388    38442    38481    38477 
   38485    38480    38435    38399    38426    38484    38496    38472 
   38442    38404    38395    38434    38469    38492    38500    38448 
   38377    38357    38385    38433    38449    38411    38416    38489 
   38487    38415    38415    38431    38407    38415    38435    38437 
   38445    38448    38450    38450    38427    38415    38421    38419 
   38452    38466    38422    38445    38524    38538    38522    38504 
   38449    38416    38414    38377    38346    38349    38357    38394 
   38442    38462    38473    38469    38438    38429    38464    38468 
   38449    38473    38492    38481    38484    38485    38438    38391 
   38430    38484    38454    38404    38394    38385    38380    38391 
   38421    38479    38518    38468    38398    38381    38422    38487 
   38466    38416    38473    38491    38380    38342    38422    38469 
   38452    38425    38423    38465    38491    38456    38456    38512 
   38511    38462    38446    38446    38415    38369    38380    38430 
   38429    38408    38419    38441    38483    38510    38468    38426 
   38415    38408    38441    38491    38492    38450    38423    38437 
   38457    38445    38416    38389    38388    38422    38448    38427 
   38439    38529    38547    38461    38438    38453    38438    38461 
   38464    38415    38407    38412    38415    38435    38404    38377 
   38418    38434    38419    38446    38464    38461    38515    38584 
   38568    38506    38466    38422    38341    38302    38333    38344 
   38314    38337    38423    38481    38489    38495    38512    38496 
   38438    38449    38518    38491    38425    38429    38421    38361 
   38342    38406    38473    38476    38483    38535    38541    38483 
   38407    38371    38434    38481    38399    38352    38414    38457 
   38419    38368    38412    38516    38537    38504    38483    38421 
   38368    38418    38485    38472    38453    38465    38438    38426 
   38476    38510    38485    38437    38422    38438    38448    38464 
   38454    38398    38369    38375    38377    38402    38449    38503 
   38515    38460    38426    38445    38448    38414    38396    38388 
   38357    38376    38449    38487    38499    38480    38431    38445 
   38504    38520    38458    38381    38402    38473    38439    38396 
   38448    38442    38387    38416    38488    38506    38450    38369 
   38346    38435    38551    38568    38497    38406    38376    38465 
   38537    38470    38379    38388    38441    38439    38429    38464 
   38458    38402    38414    38448    38434    38439    38437    38421 
   38445    38439    38398    38423    38491    38489    38449    38439 
   38398    38349    38380    38384    38338    38399    38543    38573 
   38480    38441    38485    38504    38503    38545    38588    38564 
   38452    38290    38225    38330    38480    38599    38685    38650 
   38527    38438    38383    38369    38391    38399    38414    38385 
   38325    38349    38381    38308    38217    38178    38183    38248 
   38323    38353    38371    38412    38469    38530    38601    38647 
   38623    38583    38543    38518    38631    38789    38782    38716 
   38765    38901    38948    38772    38553    38453    38291    38052 
   37955    38029    38129    38144    38060    37887    37702    37687 
   37840    37948    37982    38088    38298    38514    38608    38601 
   38657    38750    38704    38673    38921    39190    39201    39187 
   39195    39010    38769    38696    38726    38727    38605    38341 
   38124    38115    38194    38261    38407    38506    38298    37929 
   37700    37650    37835    38287    38649    38584    38264    38088 
   38161    38240    38192    38157    38226    38358    38469    38462 
   38406    38495    38719    38889    38934    38913    38909    38947 
   38936    38836    38758    38754    38728    38657    38605    38519 
   38410    38399    38392    38330    38335    38358    38367    38400 
   38246    37941    37920    38136    38225    38232    38269    38334 
   38431    38364    38088    37994    38198    38398    38497    38614 
   38734    38792    38846    38827    38568    38291    38295    38438 
   38549    38650    38718    38647    38458    38352    38360    38311 
   38268    38315    38346    38398    38557    38639    38476    38307 
   38342    38383    38342    38404    38589    38685    38497    38210 
   38190    38384    38578    38709    38628    38385    38364    38600 
   38797    38858    38715    38396    38165    38110    38198    38304 
   38241    38190    38291    38333    38296    38338    38400    38410 
   38510    38647    38593    38430    38326    38281    38330    38461 
   38519    38430    38334    38345    38407    38495    38576    38566 
   38533    38530    38547    38658    38807    38827    38778    38742 
   38593    38342    38190    38202    38317    38408    38357    38269 
   38292    38277    38198    38288    38434    38357    38250    38333 
   38443    38465    38430    38353    38341    38457    38568    38560 
   38479    38484    38635    38732    38657    38508    38372    38302 
   38340    38466    38585    38578    38484    38431    38407    38333 
   38233    38214    38350    38520    38510    38376    38323    38318 
   38299    38381    38535    38593    38634    38766    38774    38587 
   38480    38557    38682    38670    38445    38226    38267    38492 
   38630    38515    38268    38140    38202    38313    38341    38372 
   38479    38500    38325    38142    38156    38292    38458    38604 
   38581    38442    38416    38504    38535    38427    38379    38530 
   38581    38453    38422    38515    38642    38691    38529    38368 
   38412    38530    38597    38605    38541    38438    38375    38373 
   38384    38361    38296    38214    38213    38311    38380    38396 
   38423    38449    38416    38304    38240    38300    38371    38431 
   38470    38483    38572    38655    38632    38569    38450    38337 
   38387    38523    38588    38607    38612    38557    38497    38496 
   38488    38464    38476    38448    38302    38205    38306    38450 
   38462    38377    38304    38276    38296    38352    38327    38238 
   38219    38271    38358    38458    38472    38452    38510    38569 
   38566    38577    38612    38595    38542    38570    38668    38670 
   38529    38389    38362    38392    38427    38518    38630    38627 
   38547    38523    38510    38485    38531    38581    38533    38415 
   38284    38188    38138    38110    38144    38259    38371    38414 
   38407    38358    38269    38237    38330    38433    38461    38493 
   38553    38576    38585    38639    38712    38731    38637    38511 
   38516    38581    38541    38464    38416    38373    38381    38429 
   38442    38410    38338    38322    38415    38491    38456    38342 
   38187    38095    38199    38450    38635    38622    38485    38372 
   38365    38446    38551    38562    38429    38334    38384    38437 
   38439    38466    38539    38562    38435    38341    38469    38604 
   38577    38535    38527    38464    38335    38196    38161    38276 
   38373    38330    38268    38283    38350    38434    38512    38599 
   38677    38626    38476    38445    38553    38595    38511    38402 
   38340    38327    38337    38387    38503    38558    38479    38430 
   38499    38565    38550    38488    38460    38484    38469    38400 
   38340    38300    38299    38344    38408    38493    38557    38560 
   38543    38514    38457    38421    38438    38445    38395    38358 
   38367    38349    38331    38375    38396    38335    38299    38330 
   38341    38331    38385    38499    38610    38697    38689    38538 
   38446    38489    38456    38362    38418    38562    38600    38554 
   38480    38315    38146    38175    38350    38430    38396    38383 
   38365    38294    38281    38361    38438    38547    38704    38749 
   38666    38570    38469    38415    38483    38568    38588    38572 
   38518    38448    38437    38479    38531    38556    38481    38337 
   38265    38283    38322    38364    38350    38271    38252    38321 
   38369    38372    38349    38342    38415    38538    38618    38634 
   38599    38539    38493    38489    38535    38551    38485    38473 
   38569    38649    38639    38553    38502    38584    38593    38377 
   38179    38156    38198    38254    38331    38427    38511    38495 
   38381    38268    38214    38215    38244    38298    38367    38422 
   38475    38491    38477    38515    38558    38545    38527    38510 
   38476    38481    38551    38641    38665    38574    38464    38430 
   38411    38341    38261    38267    38388    38484    38461    38425 
   38422    38407    38418    38488    38545    38530    38522    38538 
   38477    38380    38353    38368    38354    38317    38287    38319 
   38421    38477    38442    38423    38476    38542    38541    38473 
   38426    38430    38433    38406    38371    38383    38427    38456 
   38503    38578    38635    38632    38537    38395    38303    38290 
   38345    38402    38414    38461    38549    38568    38489    38360 
   38269    38256    38236    38229    38353    38538    38631    38611 
   38545    38531    38588    38618    38599    38577    38533    38429 
   38337    38367    38472    38542    38558    38508    38392    38294 
   38272    38283    38277    38295    38375    38448    38439    38357 
