Origin Time       2024/06/23 22:54:00
Lat.              35.645
Long.             140.060
Depth. (km)       72
Mag.              4.1
Station Code      SZOH38
Station Lat.      35.0854
Station Long.     138.9779
Station Height(m) 100
Record Time       2024/06/23 22:54:57
Sampling Freq(Hz) 100Hz
Duration Time(s)  120
Dir.              6
Scale Factor      7845(gal)/8223790
Max. Acc. (gal)   0.607
Last Correction   2024/06/23 22:54:57
Memo.             
[...]
   22666    22635    22613    22616    22628    22647    22653    22615 
   22557    22516    22522    22578    22628    22623    22621    22670 
   22716    22725    22713    22661    22589    22565    22570    22561 
   22534    22497    22465    22455    22478    22503    22527    22584 
   22663    22738    22744    22682    22671    22694    22638    22561 
   22572    22654    22693    22650    22558    22430    22380    22504 
   22635    22665    22689    22701    22638    22572    22596    22680 
   22684    22586    22551    22601    22597    22527    22474    22503 
   22588    22644    22662    22603    22486    22484    22597    22688 
   22747    22746    22638    22550    22592    22716    22774    22685 
   22581    22547    22515    22493    22515    22530    22543    22573 
   22608    22640    22642    22636    22651    22607    22515    22513 
   22604    22689    22702    22621    22511    22449    22482    22584 
   22619    22582    22632    22734    22715    22604    22569    22617 
   22647    22655    22638    22528    22457    22581    22724    22716 
   22643    22601    22593    22581    22547    22520    22486    22495 
   22659    22850    22835    22658    22524    22532    22624    22638 
   22526    22430    22474    22630    22721    22671    22630    22697 
   22747    22636    22507    22524    22540    22508    22559    22593 
   22578    22634    22700    22698    22655    22585    22545    22582 
   22654    22673    22615    22589    22617    22612    22586    22554 
   22493    22472    22499    22538    22617    22701    22717    22688 
   22696    22756    22748    22648    22576    22508    22423    22441 
   22555    22659    22698    22639    22528    22470    22524    22686 
   22802    22747    22626    22563    22549    22550    22543    22524 
   22534    22603    22667    22648    22603    22612    22623    22569 
   22499    22526    22644    22711    22670    22631    22654    22674 
   22662    22636    22589    22551    22572    22611    22616    22567 
   22482    22450    22516    22620    22685    22663    22596    22581 
   22585    22531    22516    22603    22653    22628    22651    22723 
   22721    22626    22534    22503    22518    22569    22624    22630 
   22615    22653    22698    22680    22600    22500    22481    22540 
   22569    22608    22680    22680    22646    22642    22667    22727 
   22725    22624    22549    22526    22489    22454    22478    22582 
   22700    22748    22724    22666    22628    22605    22558    22534 
   22569    22617    22658    22665    22612    22546    22501    22484 
   22516    22580    22624    22611    22518    22458    22565    22738 
   22788    22689    22582    22569    22613    22663    22665    22588 
   22513    22524    22586    22621    22635    22653    22675    22707 
   22694    22581    22437    22430    22585    22727    22789    22785 
   22692    22577    22513    22485    22489    22513    22531    22535 
   22559    22627    22680    22711    22736    22689    22576    22481 
   22454    22539    22643    22636    22617    22669    22670    22592 
   22527    22511    22536    22596    22661    22707    22707    22680 
   22623    22545    22526    22550    22573    22619    22654    22626 
   22584    22603    22635    22638    22631    22570    22470    22474 
   22592    22673    22663    22631    22605    22609    22663    22688 
   22615    22549    22600    22655    22574    22478    22531    22663 
   22752    22754    22662    22542    22476    22500    22590    22651 
   22642    22586    22532    22557    22630    22674    22693    22653 
   22580    22553    22539    22523    22520    22508    22562    22682 
   22731    22701    22680    22670    22643    22574    22511    22509 
   22572    22670    22693    22576    22464    22464    22500    22554 
   22658    22729    22704    22631    22601    22661    22715    22674 
   22580    22491    22465    22516    22542    22520    22569    22693 
   22748    22688    22616    22594    22593    22612    22611    22586 
   22640    22719    22681    22557    22480    22534    22650    22688 
   22636    22596    22607    22604    22563    22512    22466    22470 
   22563    22648    22638    22620    22670    22728    22715    22603 
   22486    22486    22562    22611    22577    22509    22546    22673 
   22719    22644    22596    22653    22719    22740    22731    22643 
   22503    22477    22589    22669    22646    22592    22558    22557 
   22554    22526    22477    22462    22574    22739    22779    22709 
   22621    22550    22562    22621    22619    22592    22584    22617 
   22681    22657    22557    22523    22563    22590    22597    22599 
   22596    22634    22700    22725    22662    22531    22478    22539 
   22613    22674    22694    22650    22576    22518    22520    22582 
   22632    22615    22551    22509    22565    22701    22773    22663 
   22501    22477    22581    22709    22754    22661    22555    22538 
   22555    22535    22509    22554    22620    22615    22570    22584 
   22648    22685    22675    22644    22588    22546    22585    22646 
   22675    22715    22712    22608    22507    22480    22466    22447 
   22470    22528    22615    22739    22825    22785    22657    22562 
   22562    22565    22520    22532    22601    22613    22569    22574 
   22632    22623    22545    22531    22626    22724    22728    22674 
   22616    22559    22523    22515    22545    22634    22693    22635 
   22543    22546    22643    22732    22742    22677    22590    22511 
   22464    22462    22507    22615    22715    22688    22609    22631 
   22731    22746    22640    22511    22418    22405    22504    22647 
   22723    22720    22709    22694    22655    22631    22605    22543 
   22486    22496    22566    22627    22612    22559    22569    22628 
   22651    22620    22589    22635    22720    22688    22540    22447 
   22488    22593    22648    22607    22516    22497    22603    22728 
   22779    22771    22709    22604    22535    22524    22547    22599 
   22639    22653    22640    22612    22603    22573    22501    22454 
   22476    22570    22677    22702    22616    22540    22580    22662 
   22727    22724    22613    22527    22545    22565    22561    22561 
   22555    22573    22609    22617    22616    22621    22658    22701 
   22667    22585    22557    22624    22692    22619    22477    22459 
   22569    22655    22663    22648    22608    22523    22470    22508 
   22577    22627    22659    22643    22626    22677    22724    22692 
   22619    22578    22585    22584    22559    22549    22561    22551 
   22522    22540    22613    22667    22689    22715    22724    22675 
   22599    22567    22620    22662    22578    22473    22466    22540 
   22626    22635    22577    22558    22621    22673    22608    22519 
   22530    22617    22684    22666    22609    22580    22592    22634 
   22674    22662    22600    22566    22586    22600    22577    22553 
   22558    22576    22582    22562    22532    22592    22738    22789 
   22675    22542    22515    22559    22592    22596    22573    22518 
   22505    22601    22721    22762    22725    22624    22512    22481 
   22512    22549    22574    22565    22585    22701    22825    22829 
   22709    22577    22522    22535    22580    22597    22570    22582 
   22608    22577    22547    22551    22567    22594    22613    22624 
   22657    22700    22724    22704    22659    22605    22501    22430 
   22515    22632    22581    22437    22428    22588    22739    22755 
   22693    22651    22638    22620    22580    22531    22551    22611 
   22578    22534    22604    22685    22709    22678    22601    22542 
   22501    22468    22489    22557    22628    22675    22738    22808 
   22754    22584    22422    22366    22466    22592    22663    22717 
   22720    22670    22651    22640    22600    22572    22576    22617 
   22654    22620    22567    22524    22466    22455    22536    22665 
   22755    22734    22667    22615    22596    22655    22674    22563 
   22465    22464    22536    22662    22747    22708    22609    22550 
   22572    22623    22576    22496    22515    22593    22685    22736 
   22725    22721    22671    22545    22468    22469    22500    22539 
   22515    22485    22594    22770    22815    22704    22567    22500 
   22516    22585    22644    22680    22666    22600    22585    22631 
   22628    22590    22573    22569    22570    22570    22570    22596 
   22631    22639    22657    22689    22671    22608    22550    22535 
   22559    22585    22601    22635    22665    22662    22605    22476 
   22404    22507    22643    22677    22661    22680    22698    22693 
   22720    22694    22536    22368    22337    22472    22650    22728 
   22694    22658    22692    22692    22573    22422    22416    22578 
   22719    22761    22719    22592    22527    22596    22640    22612 
   22570    22577    22667    22713    22620    22476    22419    22563 
   22774    22789    22630    22468    22412    22500    22635    22704 
   22681    22638    22642    22639    22615    22612    22588    22527 
   22531    22628    22685    22624    22573    22617    22682    22686 
   22619    22526    22481    22495    22503    22518    22592    22690 
   22747    22720    22596    22512    22566    22648    22666    22609 
   22543    22530    22558    22615    22631    22596    22620    22696 
   22709    22658    22601    22542    22523    22581    22632    22613 
   22586    22603    22627    22624    22592    22543    22530    22605 
   22685    22644    22562    22555    22596    22673    22750    22689 
   22531    22462    22536    22631    22617    22542    22576    22734 
   22797    22654    22464    22416    22543    22689    22689    22574 
   22465    22466    22570    22646    22655    22643    22604    22593 
   22631    22646    22643    22634    22582    22561    22620    22678 
   22658    22596    22558    22569    22630    22658    22578    22485 
   22495    22596    22680    22655    22599    22592    22593    22593 
   22605    22612    22621    22648    22659    22655    22663    22662 
   22650    22635    22577    22493    22441    22443    22515    22627 
   22709    22762    22778    22728    22651    22558    22474    22438 
   22428    22499    22620    22670    22651    22621    22655    22758 
   22761    22600    22443    22412    22474    22561    22635    22684 
   22692    22685    22707    22694    22581    22434    22392    22486 
   22592    22611    22603    22634    22678    22705    22705    22650 
   22584    22565    22572    22567    22555    22589    22689    22779 
   22788    22696    22545    22428    22401    22465    22577    22658 
   22678    22690    22719    22700    22594    22489    22478    22543 
   22586    22570    22565    22582    22599    22661    22727    22711 
   22662    22648    22670    22675    22624    22549    22493    22468 
   22472    22497    22535    22599    22686    22740    22721    22690 
   22669    22630    22576    22536    22532    22536    22535    22558 
   22553    22501    22523    22623    22708    22748    22736    22658 
   22536    22454    22488    22626    22775    22831    22775    22670 
   22546    22465    22476    22524    22551    22561    22590    22640 
   22667    22635    22545    22486    22543    22632    22635    22582 
   22576    22607    22630    22667    22693    22686    22650    22581 
   22563    22594    22581    22574    22585    22603    22684    22729 
   22639    22539    22545    22573    22545    22507    22495    22531 
   22609    22647    22616    22586    22566    22553    22619    22704 
   22700    22646    22566    22500    22505    22566    22663    22752 
   22790    22783    22701    22570    22482    22459    22501    22643 
   22801    22828    22728    22613    22545    22495    22435    22428 
   22503    22603    22661    22623    22534    22499    22553    22644 
   22669    22613    22616    22688    22708    22651    22527    22411 
   22432    22570    22725    22816    22798    22742    22681    22577 
   22449    22381    22426    22508    22550    22616    22720    22740 
   22681    22675    22709    22653    22545    22477    22410    22423 
   22593    22724    22729    22712    22694    22701    22696    22561 
   22353    22268    22389    22624    22789    22842    22920    22948 
   22751    22446    22250    22261    22442    22654    22766    22742 
   22655    22584    22520    22465    22422    22384    22416    22559 
   22788    23009    23051    22896    22661    22373    22176    22261 
   22557    22889    23101    23075    22918    22739    22542    22430 
   22434    22400    22339    22455    22642    22586    22337    22118 
   22033    22114    22320    22550    22712    22794    22914    23080 
   23085    22878    22685    22643    22684    22744    22789    22816 
   22896    22950    22725    22273    21988    22091    22416    22700 
   22843    22882    22854    22767    22670    22597    22519    22410 
   22297    22222    22264    22469    22711    22842    22790    22543 
   22293    22241    22300    22373    22527    22778    23002    23074 
   23006    22859    22662    22508    22524    22674    22782    22766 
   22658    22530    22524    22636    22671    22599    22495    22430 
   22484    22605    22667    22627    22489    22356    22385    22519 
   22513    22335    22238    22381    22640    22885    23103    23240 
   23170    22891    22572    22403    22441    22523    22455    22356 
   22464    22666    22688    22545    22488    22597    22684    22670 
   22639    22611    22634    22729    22756    22640    22505    22459 
   22477    22477    22450    22446    22472    22497    22497    22473 
   22504    22651    22762    22670    22488    22457    22621    22786 
   22774    22640    22574    22657    22854    23044    23014    22800 
   22669    22627    22496    22329    22303    22458    22626    22675 
   22651    22669    22746    22748    22642    22509    22383    22389 
   22630    22869    22873    22719    22547    22412    22349    22353 
   22428    22550    22593    22586    22638    22643    22550    22482 
   22518    22626    22677    22578    22504    22639    22871    22937 
   22712    22354    22208    22364    22578    22670    22615    22493 
   22453    22518    22616    22715    22800    22870    22871    22742 
   22585    22527    22603    22786    22914    22854    22694    22589 
   22539    22488    22431    22366    22376    22507    22596    22558 
   22522    22586    22692    22667    22515    22361    22281    22393 
   22675    22823    22740    22688    22771    22832    22752    22589 
   22485    22469    22501    22605    22748    22850    22904    22901 
   22783    22576    22438    22437    22447    22437    22536    22727 
   22777    22600    22391    22345    22477    22647    22677    22593 
   22570    22609    22640    22615    22472    22322    22337    22520 
   22732    22775    22692    22698    22762    22716    22609    22588 
   22651    22694    22655    22585    22576    22611    22661    22709 
   22654    22523    22530    22711    22867    22833    22600    22400 
   22455    22573    22536    22470    22520    22670    22762    22675 
   22597    22678    22731    22592    22364    22191    22150    22304 
   22576    22782    22881    22902    22828    22654    22470    22412 
   22486    22555    22546    22561    22669    22754    22698    22547 
   22404    22342    22426    22631    22800    22856    22837    22754 
   22651    22585    22526    22477    22462    22492    22539    22570 
   22616    22701    22798    22862    22875    22813    22673    22566 
   22549    22550    22574    22613    22615    22601    22581    22534 
   22482    22423    22376    22420    22569    22744    22859    22829 
   22681    22531    22443    22420    22461    22522    22531    22491 
   22484    22567    22682    22713    22662    22627    22666    22736 
   22747    22696    22617    22557    22553    22572    22584    22604 
   22638    22697    22752    22724    22665    22684    22715    22647 
   22488    22337    22322    22492    22705    22793    22771    22707 
   22616    22593    22689    22755    22661    22480    22388    22468 
   22651    22743    22617    22441    22412    22485    22527    22512 
   22565    22701    22754    22677    22558    22435    22389    22493 
   22661    22731    22655    22559    22589    22690    22735    22674 
   22538    22478    22557    22589    22524    22519    22624    22709 
   22690    22620    22555    22581    22666    22658    22573    22509 
   22495    22557    22651    22696    22734    22777    22763    22739 
   22721    22631    22497    22420    22438    22549    22674    22696 
   22600    22461    22449    22635    22815    22806    22648    22476 
   22428    22511    22593    22607    22599    22619    22638    22623 
   22599    22609    22623    22585    22542    22573    22621    22620 
   22615    22599    22532    22469    22457    22518    22636    22747 
   22824    22833    22711    22559    22526    22565    22650    22777 
   22833    22785    22681    22538    22414    22385    22416    22461 
   22543    22636    22675    22661    22607    22543    22542    22620 
   22690    22669    22582    22532    22540    22574    22616    22647 
   22643    22608    22578    22600    22669    22719    22723    22685 
   22601    22540    22549    22523    22457    22512    22688    22792 
   22751    22627    22501    22435    22430    22468    22523    22558 
   22573    22578    22578    22628    22738    22805    22750    22640 
   22607    22632    22635    22628    22642    22650    22612    22536 
   22484    22482    22531    22635    22724    22765    22789    22735 
   22585    22466    22454    22504    22550    22569    22592    22626 
   22631    22584    22495    22415    22400    22505    22727    22889 
   22825    22620    22459    22414    22469    22596    22715    22755 
   22732    22701    22651    22565    22516    22524    22511    22509 
   22586    22654    22648    22623    22617    22634    22632    22563 
   22505    22561    22659    22669    22619    22619    22685    22766 
   22796    22711    22545    22411    22378    22454    22574    22611 
   22557    22504    22546    22709    22856    22816    22639    22508 
   22505    22572    22638    22681    22674    22617    22604    22690 
   22785    22761    22611    22439    22356    22369    22427    22493 
   22542    22599    22690    22763    22734    22605    22478    22468 
   22580    22708    22747    22663    22538    22484    22540    22685 
   22823    22850    22755    22565    22381    22353    22486    22696 
   22867    22878    22727    22550    22438    22400    22454    22565 
   22617    22592    22580    22621    22709    22800    22800    22696 
   22577    22501    22505    22573    22620    22642    22643    22590 
   22531    22528    22584    22643    22631    22539    22434    22374 
   22434    22608    22744    22742    22647    22534    22500    22594 
   22705    22704    22590    22465    22432    22524    22662    22723 
   22673    22600    22573    22581    22616    22685    22712    22642 
