Origin Time       2024/06/23 22:54:00
Lat.              35.645
Long.             140.060
Depth. (km)       72
Mag.              4.1
Station Code      SZOH38
Station Lat.      35.0854
Station Long.     138.9779
Station Height(m) -100
Record Time       2024/06/23 22:54:57
Sampling Freq(Hz) 100Hz
Duration Time(s)  120
Dir.              1
Scale Factor      2942(gal)/8224139
Max. Acc. (gal)   0.204
Last Correction   2024/06/23 22:54:57
Memo.             
[...]
  -90532   -90555   -90555   -90553   -90563   -90564   -90568   -90583 
  -90586   -90576   -90579   -90576   -90564   -90571   -90562   -90512 
  -90491   -90524   -90555   -90572   -90576   -90555   -90563   -90614 
  -90613   -90580   -90594   -90594   -90582   -90613   -90620   -90564 
  -90528   -90532   -90520   -90509   -90531   -90532   -90525   -90563 
  -90579   -90572   -90598   -90618   -90625   -90624   -90582   -90551 
  -90560   -90576   -90595   -90597   -90553   -90516   -90513   -90513 
  -90513   -90541   -90572   -90552   -90525   -90580   -90637   -90574 
  -90520   -90586   -90618   -90567   -90572   -90583   -90525   -90531 
  -90585   -90545   -90504   -90567   -90613   -90574   -90562   -90599 
  -90589   -90540   -90555   -90601   -90570   -90539   -90559   -90513 
  -90474   -90535   -90541   -90512   -90562   -90591   -90556   -90543 
  -90578   -90632   -90644   -90593   -90543   -90551   -90597   -90598 
  -90526   -90483   -90514   -90545   -90558   -90568   -90555   -90574 
  -90618   -90571   -90525   -90583   -90591   -90524   -90518   -90560 
  -90582   -90605   -90620   -90576   -90516   -90498   -90487   -90486 
  -90556   -90637   -90636   -90591   -90579   -90547   -90475   -90508 
  -90610   -90583   -90520   -90548   -90575   -90576   -90572   -90566 
  -90601   -90656   -90657   -90594   -90540   -90532   -90518   -90521 
  -90568   -90574   -90539   -90540   -90552   -90531   -90537   -90603 
  -90603   -90502   -90478   -90562   -90612   -90603   -90593   -90570 
  -90520   -90501   -90540   -90549   -90501   -90513   -90597   -90614 
  -90572   -90599   -90637   -90610   -90598   -90602   -90572   -90544 
  -90549   -90566   -90545   -90498   -90490   -90531   -90559   -90560 
  -90582   -90609   -90607   -90610   -90598   -90567   -90575   -90574 
  -90516   -90482   -90494   -90502   -90512   -90543   -90576   -90566 
  -90525   -90563   -90653   -90667   -90618   -90547   -90491   -90548 
  -90636   -90620   -90566   -90571   -90597   -90556   -90514   -90545 
  -90533   -90479   -90522   -90594   -90595   -90589   -90601   -90578 
  -90533   -90522   -90513   -90513   -90567   -90607   -90601   -90603 
  -90586   -90547   -90563   -90575   -90520   -90481   -90513   -90603 
  -90679   -90637   -90536   -90506   -90529   -90556   -90637   -90684 
  -90583   -90514   -90574   -90579   -90518   -90514   -90556   -90585 
  -90598   -90583   -90525   -90502   -90544   -90552   -90533   -90567 
  -90607   -90601   -90583   -90570   -90532   -90490   -90482   -90508 
  -90555   -90613   -90645   -90621   -90564   -90555   -90595   -90567 
  -90509   -90558   -90626   -90603   -90575   -90559   -90526   -90562 
  -90637   -90616   -90552   -90526   -90524   -90548   -90570   -90556 
  -90549   -90553   -90547   -90563   -90593   -90590   -90587   -90583 
  -90551   -90549   -90572   -90563   -90568   -90583   -90535   -90495 
  -90514   -90540   -90578   -90614   -90587   -90529   -90509   -90525 
  -90563   -90603   -90603   -90537   -90479   -90522   -90607   -90622 
  -90572   -90536   -90540   -90552   -90559   -90576   -90612   -90626 
  -90570   -90513   -90524   -90539   -90552   -90595   -90612   -90609 
  -90643   -90637   -90541   -90490   -90553   -90612   -90602   -90576 
  -90563   -90572   -90594   -90590   -90582   -90583   -90532   -90462 
  -90487   -90574   -90591   -90541   -90532   -90568   -90562   -90547 
  -90558   -90524   -90482   -90528   -90601   -90593   -90551   -90587 
  -90634   -90607   -90597   -90622   -90610   -90597   -90582   -90526 
  -90497   -90521   -90545   -90543   -90508   -90487   -90528   -90551 
  -90506   -90509   -90582   -90613   -90610   -90628   -90620   -90566 
  -90518   -90506   -90531   -90574   -90616   -90636   -90616   -90559 
  -90498   -90495   -90574   -90622   -90580   -90547   -90548   -90556 
  -90594   -90598   -90535   -90549   -90637   -90653   -90641   -90641 
  -90586   -90541   -90567   -90580   -90533   -90487   -90502   -90549 
  -90556   -90545   -90541   -90505   -90471   -90498   -90570   -90622 
  -90603   -90571   -90575   -90589   -90628   -90641   -90563   -90498 
  -90521   -90560   -90572   -90571   -90559   -90552   -90526   -90462 
  -90458   -90555   -90599   -90559   -90568   -90625   -90616   -90564 
  -90571   -90597   -90593   -90629   -90637   -90543   -90505   -90575 
  -90602   -90567   -90541   -90529   -90526   -90522   -90502   -90497 
  -90531   -90560   -90590   -90626   -90605   -90563   -90570   -90574 
  -90570   -90597   -90606   -90558   -90499   -90489   -90536   -90589 
  -90582   -90560   -90583   -90587   -90537   -90528   -90587   -90616 
  -90571   -90525   -90535   -90574   -90614   -90603   -90571   -90607 
  -90629   -90571   -90544   -90529   -90468   -90456   -90491   -90493 
  -90504   -90553   -90578   -90560   -90551   -90576   -90606   -90621 
  -90649   -90643   -90558   -90522   -90558   -90536   -90528   -90585 
  -90568   -90504   -90499   -90526   -90582   -90641   -90609   -90540 
  -90539   -90574   -90621   -90644   -90620   -90622   -90624   -90560 
  -90517   -90540   -90563   -90551   -90535   -90531   -90518   -90518 
  -90539   -90528   -90532   -90570   -90559   -90539   -90612   -90687 
  -90670   -90603   -90526   -90478   -90483   -90486   -90478   -90510 
  -90562   -90579   -90567   -90560   -90547   -90539   -90555   -90568 
  -90586   -90617   -90626   -90610   -90602   -90602   -90597   -90595 
  -90601   -90576   -90552   -90594   -90626   -90572   -90522   -90529 
  -90518   -90472   -90466   -90521   -90560   -90572   -90633   -90694 
  -90653   -90558   -90517   -90531   -90528   -90537   -90567   -90563 
  -90587   -90634   -90578   -90524   -90595   -90617   -90524   -90502 
  -90559   -90562   -90541   -90567   -90591   -90570   -90543   -90541 
  -90539   -90553   -90609   -90622   -90559   -90513   -90543   -90590 
  -90549   -90460   -90479   -90571   -90583   -90555   -90580   -90633 
  -90664   -90649   -90605   -90560   -90505   -90474   -90513   -90562 
  -90579   -90599   -90589   -90517   -90498   -90533   -90536   -90567 
  -90605   -90562   -90531   -90548   -90564   -90597   -90601   -90580 
  -90587   -90537   -90452   -90485   -90558   -90558   -90589   -90667 
  -90651   -90560   -90517   -90537   -90579   -90612   -90621   -90597 
  -90535   -90516   -90548   -90537   -90502   -90513   -90543   -90568 
  -90585   -90562   -90535   -90567   -90606   -90585   -90548   -90528 
  -90517   -90564   -90648   -90655   -90591   -90567   -90574   -90552 
  -90555   -90593   -90590   -90583   -90580   -90537   -90526   -90558 
  -90541   -90525   -90545   -90545   -90566   -90626   -90641   -90607 
  -90570   -90510   -90458   -90493   -90605   -90666   -90617   -90572 
  -90582   -90559   -90525   -90564   -90603   -90570   -90562   -90585 
  -90549   -90532   -90560   -90549   -90548   -90566   -90536   -90517 
  -90528   -90514   -90516   -90545   -90559   -90559   -90578   -90605 
  -90597   -90562   -90537   -90529   -90524   -90525   -90562   -90607 
  -90616   -90587   -90549   -90562   -90634   -90637   -90572   -90575 
  -90601   -90570   -90541   -90543   -90525   -90514   -90556   -90583 
  -90566   -90585   -90613   -90586   -90572   -90597   -90578   -90540 
  -90543   -90531   -90502   -90516   -90562   -90601   -90576   -90517 
  -90524   -90555   -90536   -90514   -90539   -90583   -90620   -90625 
  -90598   -90576   -90566   -90556   -90574   -90582   -90535   -90472 
  -90466   -90525   -90582   -90582   -90594   -90634   -90591   -90526 
  -90570   -90606   -90562   -90528   -90545   -90593   -90607   -90552 
  -90512   -90529   -90549   -90579   -90639   -90634   -90547   -90494 
  -90493   -90516   -90603   -90667   -90610   -90551   -90575   -90576 
  -90498   -90463   -90506   -90547   -90609   -90651   -90614   -90620 
  -90663   -90621   -90567   -90567   -90551   -90521   -90533   -90576 
  -90598   -90587   -90602   -90586   -90479   -90452   -90521   -90513 
  -90474   -90497   -90545   -90587   -90618   -90620   -90587   -90567 
  -90594   -90626   -90603   -90551   -90548   -90572   -90543   -90509 
  -90491   -90478   -90524   -90556   -90543   -90587   -90649   -90628 
  -90566   -90551   -90585   -90602   -90602   -90595   -90562   -90539 
  -90568   -90625   -90633   -90556   -90506   -90549   -90590   -90575 
  -90543   -90547   -90562   -90526   -90482   -90481   -90510   -90560 
  -90595   -90634   -90697   -90672   -90566   -90526   -90521   -90472 
  -90477   -90575   -90639   -90595   -90558   -90586   -90591   -90549 
  -90536   -90567   -90578   -90548   -90516   -90494   -90522   -90603 
  -90617   -90587   -90632   -90645   -90566   -90521   -90532   -90516 
  -90512   -90574   -90610   -90572   -90540   -90536   -90525   -90558 
  -90655   -90720   -90683   -90606   -90570   -90541   -90512   -90555 
  -90599   -90541   -90508   -90555   -90562   -90512   -90489   -90516 
  -90558   -90605   -90613   -90539   -90497   -90562   -90620   -90617 
  -90606   -90582   -90564   -90576   -90570   -90540   -90544   -90547 
  -90486   -90464   -90556   -90616   -90549   -90512   -90547   -90531 
  -90509   -90568   -90622   -90641   -90649   -90621   -90555   -90494 
  -90489   -90541   -90593   -90598   -90590   -90587   -90591   -90612 
  -90576   -90489   -90482   -90532   -90535   -90529   -90572   -90629 
  -90636   -90612   -90602   -90566   -90508   -90506   -90568   -90624 
  -90621   -90589   -90566   -90539   -90533   -90539   -90494   -90467 
  -90539   -90620   -90599   -90536   -90551   -90607   -90579   -90506 
  -90520   -90566   -90541   -90535   -90597   -90606   -90556   -90526 
  -90533   -90560   -90572   -90582   -90630   -90649   -90575   -90522 
  -90566   -90578   -90525   -90551   -90613   -90560   -90478   -90517 
  -90605   -90598   -90563   -90593   -90628   -90640   -90645   -90652 
  -90653   -90578   -90487   -90520   -90609   -90620   -90548   -90475 
  -90450   -90456   -90514   -90580   -90543   -90477   -90520   -90607 
  -90599   -90544   -90571   -90656   -90675   -90628   -90602   -90601 
  -90578   -90551   -90544   -90521   -90479   -90463   -90485   -90532 
  -90563   -90547   -90535   -90574   -90606   -90579   -90549   -90560 
  -90590   -90630   -90655   -90595   -90532   -90539   -90558   -90591 
  -90616   -90552   -90512   -90575   -90633   -90613   -90532   -90464 
  -90474   -90526   -90559   -90562   -90572   -90606   -90617   -90570 
  -90510   -90505   -90558   -90610   -90629   -90628   -90605   -90579 
  -90579   -90574   -90571   -90595   -90591   -90555   -90552   -90570 
  -90563   -90551   -90566   -90590   -90583   -90575   -90617   -90643 
  -90571   -90466   -90439   -90482   -90521   -90555   -90597   -90589 
  -90543   -90553   -90578   -90531   -90467   -90502   -90610   -90640 
  -90585   -90586   -90626   -90616   -90586   -90548   -90510   -90539 
  -90609   -90640   -90593   -90529   -90520   -90499   -90464   -90520 
  -90587   -90579   -90560   -90548   -90526   -90536   -90594   -90625 
  -90586   -90587   -90637   -90606   -90549   -90560   -90549   -90533 
  -90589   -90609   -90563   -90563   -90591   -90540   -90455   -90456 
  -90505   -90551   -90625   -90667   -90594   -90512   -90541   -90593 
  -90603   -90634   -90620   -90551   -90545   -90585   -90594   -90583 
  -90560   -90537   -90526   -90518   -90516   -90517   -90537   -90616 
  -90670   -90613   -90549   -90570   -90628   -90652   -90606   -90549 
  -90543   -90539   -90526   -90547   -90555   -90508   -90506   -90567 
  -90571   -90540   -90553   -90572   -90578   -90589   -90582   -90556 
  -90551   -90593   -90634   -90614   -90553   -90537   -90586   -90597 
  -90510   -90458   -90513   -90580   -90590   -90539   -90505   -90531 
  -90549   -90556   -90548   -90506   -90543   -90605   -90564   -90559 
  -90606   -90570   -90553   -90621   -90640   -90574   -90509   -90539 
  -90644   -90671   -90571   -90487   -90499   -90562   -90605   -90598 
  -90590   -90610   -90610   -90585   -90533   -90459   -90424   -90436 
  -90471   -90585   -90710   -90683   -90572   -90526   -90517   -90512 
  -90540   -90593   -90641   -90651   -90636   -90626   -90556   -90427 
  -90424   -90578   -90675   -90663   -90633   -90568   -90490   -90520 
  -90637   -90694   -90639   -90539   -90463   -90451   -90493   -90558 
  -90594   -90612   -90656   -90633   -90502   -90405   -90359   -90367 
  -90499   -90616   -90603   -90572   -90610   -90703   -90706   -90533 
  -90383   -90418   -90559   -90742   -90906   -90809   -90444   -90250 
  -90391   -90540   -90520   -90468   -90495   -90553   -90576   -90663 
  -90779   -90726   -90541   -90375   -90336   -90458   -90533   -90470 
  -90454   -90540   -90661   -90697   -90512   -90335   -90450   -90674 
  -90736   -90647   -90580   -90683   -90909   -91046   -90909   -90579 
  -90374   -90373   -90406   -90447   -90508   -90547   -90633   -90780 
  -90805   -90655   -90545   -90572   -90552   -90397   -90306   -90445 
  -90684   -90806   -90778   -90660   -90418   -90132   -90092   -90310 
  -90458   -90467   -90580   -90737   -90671   -90475   -90459   -90547 
  -90495   -90545   -90896   -91052   -90767   -90545   -90606   -90697 
  -90694   -90620   -90541   -90529   -90571   -90599   -90586   -90583 
  -90567   -90506   -90508   -90518   -90381   -90247   -90315   -90451 
  -90537   -90660   -90809   -90857   -90775   -90606   -90463   -90493 
  -90598   -90510   -90325   -90398   -90676   -90818   -90729   -90616 
  -90613   -90493   -90147   -89995   -90192   -90386   -90582   -90923 
  -91091   -90868   -90509   -90331   -90331   -90367   -90495   -90667 
  -90666   -90610   -90715   -90819   -90709   -90506   -90486   -90626 
  -90705   -90653   -90529   -90478   -90617   -90736   -90657   -90568 
  -90545   -90536   -90606   -90653   -90482   -90277   -90348   -90599 
  -90778   -90865   -90875   -90747   -90576   -90578   -90752   -90817 
  -90634   -90379   -90180   -90034   -90053   -90288   -90516   -90641 
  -90672   -90545   -90414   -90359   -90358   -90590   -90887   -90887 
  -90684   -90501   -90512   -90691   -90736   -90622   -90543   -90559 
  -90705   -90774   -90518   -90184   -90159   -90416   -90656   -90717 
  -90594   -90404   -90364   -90516   -90717   -90869   -90919   -90873 
  -90784   -90693   -90609   -90528   -90477   -90439   -90404   -90475 
  -90644   -90698   -90528   -90271   -90139   -90155   -90217   -90385 
  -90649   -90859   -90977   -90884   -90504   -90278   -90540   -90880 
  -90845   -90613   -90521   -90502   -90435   -90448   -90513   -90494 
  -90489   -90505   -90485   -90513   -90535   -90526   -90595   -90653 
  -90643   -90664   -90699   -90710   -90672   -90522   -90402   -90467 
  -90579   -90647   -90674   -90598   -90535   -90624   -90747   -90756 
  -90644   -90475   -90347   -90342   -90466   -90594   -90575   -90458 
  -90413   -90454   -90512   -90598   -90693   -90718   -90649   -90601 
  -90690   -90759   -90626   -90447   -90389   -90413   -90536   -90751 
  -90902   -90906   -90725   -90418   -90300   -90489   -90647   -90567 
  -90445   -90495   -90645   -90666   -90502   -90339   -90304   -90401 
  -90609   -90765   -90711   -90587   -90580   -90607   -90512   -90339 
  -90262   -90321   -90418   -90553   -90711   -90740   -90657   -90632 
  -90661   -90678   -90651   -90559   -90504   -90555   -90574   -90524 
  -90547   -90618   -90630   -90622   -90624   -90622   -90632   -90630 
  -90580   -90490   -90425   -90443   -90555   -90717   -90730   -90549 
  -90448   -90516   -90562   -90545   -90516   -90464   -90459   -90536 
  -90587   -90553   -90510   -90521   -90549   -90594   -90724   -90787 
  -90645   -90568   -90632   -90541   -90405   -90510   -90655   -90555 
  -90321   -90200   -90283   -90487   -90641   -90641   -90531   -90462 
  -90498   -90562   -90620   -90711   -90813   -90817   -90686   -90532 
  -90440   -90416   -90499   -90657   -90737   -90753   -90795   -90761 
  -90618   -90526   -90541   -90593   -90612   -90563   -90485   -90466 
  -90540   -90603   -90551   -90443   -90394   -90464   -90589   -90590 
  -90490   -90478   -90544   -90593   -90625   -90643   -90629   -90595 
  -90564   -90543   -90517   -90505   -90552   -90629   -90648   -90590 
  -90536   -90585   -90687   -90703   -90622   -90528   -90441   -90437 
  -90559   -90570   -90386   -90317   -90478   -90639   -90688   -90694 
  -90703   -90688   -90618   -90513   -90382   -90278   -90333   -90521 
  -90639   -90622   -90620   -90693   -90717   -90660   -90632   -90612 
  -90571   -90526   -90427   -90383   -90522   -90652   -90668   -90710 
  -90729   -90641   -90590   -90612   -90599   -90574   -90560   -90505 
  -90441   -90402   -90331   -90259   -90262   -90301   -90350   -90470 
  -90621   -90715   -90798   -90837   -90694   -90497   -90481   -90601 
  -90720   -90741   -90641   -90547   -90522   -90497   -90512   -90585 
  -90583   -90545   -90572   -90567   -90477   -90441   -90541   -90652 
  -90672   -90698   -90755   -90706   -90583   -90525   -90501   -90466 
  -90454   -90428   -90374   -90379   -90444   -90513   -90591   -90616 
  -90564   -90586   -90672   -90670   -90637   -90679   -90755   -90796 
  -90764   -90647   -90502   -90454   -90568   -90726   -90751   -90640 
  -90524   -90460   -90433   -90444   -90490   -90582   -90675   -90621 
  -90443   -90375   -90512   -90702   -90753   -90647   -90502   -90359 
  -90234   -90269   -90470   -90582   -90567   -90616   -90688   -90702 
  -90705   -90715   -90730   -90713   -90605   -90504   -90531   -90539 
  -90421   -90408   -90599   -90736   -90698   -90629   -90555   -90418 
  -90346   -90439   -90547   -90522   -90440   -90427   -90491   -90575 
  -90634   -90686   -90695   -90621   -90560   -90591   -90660   -90702 
  -90659   -90510   -90389   -90425   -90576   -90691   -90655   -90525 
  -90472   -90524   -90578   -90580   -90524   -90463   -90460   -90509 
  -90576   -90626   -90651   -90695   -90703   -90598   -90494   -90450 
  -90396   -90359   -90387   -90468   -90536   -90505   -90447   -90506 
  -90653   -90763   -90792   -90788   -90783   -90763   -90683   -90537 
  -90418   -90404   -90494   -90632   -90675   -90594   -90490   -90385 
  -90360   -90528   -90706   -90678   -90549   -90540   -90651   -90702 
  -90613   -90485   -90439   -90487   -90553   -90587   -90579   -90512 
  -90454   -90520   -90652   -90713   -90726   -90714   -90576   -90366 
  -90275   -90343   -90497   -90660   -90741   -90737   -90693   -90616 
  -90531   -90436   -90362   -90387   -90493   -90563   -90582   -90609 
  -90630   -90620   -90606   -90585   -90547   -90567   -90620   -90547 
  -90408   -90435   -90575   -90632   -90607   -90603   -90647   -90664 
  -90624   -90572   -90489   -90421   -90501   -90629   -90674   -90694 
  -90717   -90691   -90625   -90553   -90508   -90475   -90433   -90433 
  -90491   -90531   -90551   -90597   -90653   -90718   -90772   -90737 
  -90617   -90506   -90463   -90435   -90398   -90447   -90576   -90660 
  -90660   -90609   -90531   -90504   -90535   -90493   -90364   -90321 
  -90436   -90613   -90742   -90745   -90652   -90562   -90495   -90474 
  -90533   -90613   -90637   -90616   -90618   -90675   -90701   -90625 
  -90520   -90494   -90506   -90471   -90491   -90663   -90788   -90678 
  -90459   -90343   -90364   -90472   -90618   -90699   -90661   -90597 
