Origin Time       2024/06/23 22:54:00
Lat.              35.645
Long.             140.060
Depth. (km)       72
Mag.              4.1
Station Code      TCGH09
Station Lat.      36.8625
Station Long.     139.8364
Station Height(m) 461
Record Time       2024/06/23 22:55:05
Sampling Freq(Hz) 100Hz
Duration Time(s)  120
Dir.              1
Scale Factor      2942(gal)/8224139
Max. Acc. (gal)   0.229
Last Correction   2024/06/23 22:55:05
Memo.             
[...]
   53985    54013    54043    54018    53993    54014    54067    54099 
   54076    54067    54112    54129    54079    54028    54029    54072 
   54087    54051    54021    54017    53997    53963    53960    54004 
   54054    54071    54072    54103    54114    54058    54014    53998 
   53948    53948    54068    54183    54199    54145    54045    53939 
   53886    53916    53997    54047    54045    54052    54089    54122 
   54122    54105    54093    54059    54006    53981    53995    54031 
   54063    54052    54010    53975    53948    53952    54031    54109 
   54095    54040    54020    54039    54086    54121    54122    54121 
   54116    54081    54054    54040    54024    54039    54071    54060 
   54014    53973    53971    54014    54048    54056    54039    54012 
   53994    53985    54004    54049    54086    54093    54055    54005 
   53994    54048    54126    54136    54075    54025    54013    54012 
   54041    54103    54129    54098    54035    53960    53917    53927 
   53968    54031    54097    54130    54117    54074    54009    53973 
   54000    54051    54082    54076    54041    54017    54021    54027 
   54024    54049    54091    54094    54086    54091    54068    54066 
   54093    54045    53964    53968    54041    54094    54062    54001 
   54000    54012    53997    54010    54043    54051    54058    54055 
   54020    54016    54068    54109    54129    54120    54064    54020 
   54008    54000    53993    54000    54029    54062    54052    54018 
   54009    54032    54041    54021    54013    54031    54052    54083 
   54136    54167    54114    54032    53993    53981    53987    54022 
   54055    54058    54044    53997    53956    54010    54083    54078 
   54070    54090    54086    54060    54039    54028    54017    54018 
   54031    54021    54017    54058    54078    54037    54002    54040 
   54093    54089    54056    54040    54035    54029    54044    54067 
   54079    54083    54058    54000    53973    53978    53966    53947 
   53994    54089    54122    54098    54090    54118    54118    54041 
   53975    53981    53979    53989    54040    54066    54051    54048 
   54051    54035    54031    54055    54075    54070    54017    53954 
   53944    53986    54059    54143    54171    54137    54103    54078 
   54043    54022    54008    53990    53997    53995    53964    53970 
   54027    54062    54058    54043    54040    54067    54087    54071 
   54076    54141    54191    54133    53995    53939    54024    54074 
   54008    53983    54032    54040    54000    53981    54012    54037 
   54041    54075    54116    54093    54064    54103    54130    54089 
   54009    53939    53941    53989    53995    53994    54040    54083 
   54070    54039    54028    54039    54063    54071    54055    54056 
   54078    54087    54076    54048    54013    53993    54004    54014 
   54000    53989    53993    54012    54044    54070    54095    54101 
   54072    54082    54126    54122    54076    54043    54031    54013 
   53966    53935    53977    54036    54055    54062    54066    54040 
   54001    53979    53982    53997    54018    54064    54135    54163 
   54116    54081    54113    54132    54106    54074    54017    53952 
   53933    53947    53960    53948    53940    53982    54044    54112 
   54175    54205    54203    54159    54078    54021    53981    53947 
   53985    54062    54070    54040    54020    53994    53987    54008 
   54018    54032    54041    54010    53995    54039    54091    54114 
   54102    54059    54002    53997    54068    54122    54099    54047 
   54000    53993    54031    54045    54017    54001    54035    54062 
   54018    53990    54041    54071    54064    54090    54101    54041 
   53991    54010    54049    54047    54014    54014    54041    54041 
   54048    54060    54020    53977    53993    54037    54083    54122 
   54139    54143    54126    54072    54021    53997    53989    54012 
   54032    54008    53979    53983    54017    54051    54036    54018 
   54062    54098    54076    54066    54081    54076    54067    54066 
   54058    54064    54099    54093    54022    53978    53987    54004 
   54020    54052    54067    54047    54036    54064    54083    54047 
   54008    54035    54094    54095    54048    54018    54000    53985 
   53990    54009    54059    54109    54083    54028    54020    54021 
   54012    54016    54029    54047    54047    54047    54090    54105 
   54049    54016    54036    54060    54083    54091    54047    53967 
   53910    53931    53995    54027    54036    54062    54093    54095 
   54058    54024    54037    54067    54079    54081    54066    54029 
   54004    53995    53991    54016    54071    54105    54097    54093 
   54085    54047    54025    54044    54060    54056    54036    54001 
   53985    54010    54058    54076    54047    54017    54031    54054 
   54058    54056    54049    54035    54044    54079    54102    54094 
   54060    54031    54029    54051    54062    54058    54055    54048 
   54045    54055    54033    53986    53975    53997    54035    54079 
   54055    53990    53993    54029    54037    54039    54047    54081 
   54129    54135    54091    54047    54043    54063    54048    54016 
   54032    54048    54022    54000    53977    53948    53958    54013 
   54081    54110    54103    54109    54126    54116    54048    53963 
   53956    54020    54058    54063    54059    54056    54059    54036 
   54004    54024    54064    54067    54051    54045    54049    54055 
   54037    54039    54083    54090    54051    54022    53986    53962 
   53978    53994    54017    54045    54039    54031    54064    54106 
   54128    54125    54101    54090    54083    54047    53997    53960 
   53946    53948    53964    54004    54055    54095    54125    54128 
   54103    54074    54033    54001    54013    54033    54022    54009 
   54027    54052    54060    54071    54067    54043    54033    54004 
   53960    53968    54008    54059    54113    54121    54093    54070 
   54045    54035    54059    54071    54052    54048    54059    54076 
   54060    53990    53967    54009    54041    54058    54062    54043 
   54008    53982    53995    54027    54047    54064    54093    54113 
   54091    54052    54059    54076    54044    54012    54017    54021 
   54008    54009    54035    54052    54037    54025    54031    54024 
   54040    54089    54103    54067    54022    54008    54029    54051 
   54075    54122    54139    54094    54035    53971    53923    53931 
   53978    54028    54059    54059    54041    54029    54029    54045 
   54066    54075    54075    54071    54060    54055    54058    54048 
   54047    54056    54049    54044    54031    53991    53971    53982 
   53993    54025    54074    54097    54103    54103    54082    54047 
   53998    53960    53985    54048    54094    54106    54087    54067 
   54056    54013    53982    54027    54091    54103    54074    54033 
   54006    54002    53994    53979    53997    54039    54068    54074 
   54075    54094    54097    54063    54037    54027    54013    54004 
   54013    54033    54041    54041    54062    54094    54121    54121 
   54064    53998    53979    53968    53951    53981    54063    54129 
   54130    54090    54047    54020    54020    54039    54064    54072 
   54037    53986    53971    53994    54008    54010    54045    54093 
   54087    54036    53990    53986    54014    54062    54101    54109 
   54101    54097    54078    54037    54005    53983    53979    54013 
   54045    54049    54059    54059    54024    53995    53986    54002 
   54058    54121    54147    54118    54052    54000    53979    53982 
   54028    54079    54090    54097    54102    54064    54013    53975 
   53955    53986    54043    54063    54071    54089    54091    54081 
   54045    54009    54020    54044    54044    54040    54027    54020 
   54049    54076    54071    54048    54028    54028    54025    54005 
   54017    54062    54067    54048    54058    54067    54047    54045 
   54085    54108    54085    54060    54074    54089    54066    54037 
   54031    54009    53951    53913    53954    54017    54051    54089 
   54124    54112    54074    54029    53989    53982    54020    54067 
   54070    54039    54022    54029    54032    54017    54016    54055 
   54105    54130    54132    54120    54090    54052    54024    53990 
   53967    53981    53983    53971    54009    54060    54054    54032 
   54040    54035    54004    53990    54002    54040    54097    54132 
   54136    54130    54094    54037    54010    54012    54016    54039 
   54075    54099    54117    54113    54055    54001    54005    54014 
   54012    54012    54008    53998    53985    53983    54006    54049 
   54094    54102    54090    54085    54063    54036    54031    54037 
   54056    54083    54094    54076    54058    54062    54068    54062 
   54054    54044    54008    53962    53960    54010    54060    54052 
   54012    54005    54027    54031    54044    54090    54110    54075 
   54043    54041    54041    54049    54064    54052    54028    54018 
   54028    54074    54101    54037    53970    53974    53987    53971 
   53982    54047    54106    54098    54048    54029    54041    54047 
   54052    54066    54085    54097    54068    54014    53979    53975 
   53994    54020    54024    54005    53987    53997    54024    54040 
   54028    54006    54032    54112    54159    54130    54094    54085 
   54085    54075    54040    54017    54047    54081    54058    54014 
   54013    54032    53994    53928    53929    53993    54047    54076 
   54118    54167    54182    54171    54198    54259    54241    54129 
   54028    53966    53923    53908    53909    53910    53897    53843 
   53781    53820    53954    54058    54117    54182    54211    54190 
   54162    54157    54168    54157    54132    54125    54112    54048 
   53963    53908    53892    53914    53958    53990    54028    54072 
   54089    54110    54152    54163    54140    54117    54094    54054 
   53975    53892    53860    53848    53816    53806    53833    53862 
   53901    53967    54076    54240    54355    54357    54326    54290 
   54244    54224    54199    54125    54035    53968    53924    53908 
   53924    53960    53987    53970    53939    53956    54002    54021 
   54018    54014    54004    53985    53936    53881    53898    53977 
   54048    54110    54144    54114    54063    54045    54071    54157 
   54253    54275    54211    54101    53998    53941    53936    53970 
   53993    53989    53981    53955    53906    53920    54047    54182 
   54195    54122    54075    54076    54071    54048    54068    54145 
   54148    54022    53919    53932    53995    54062    54129    54162 
   54087    53925    53805    53793    53860    53991    54160    54282 
   54305    54230    54075    53924    53836    53821    53913    54066 
   54148    54135    54081    54022    53970    53951    53993    54022 
   53981    53956    54013    54062    54052    54076    54139    54139 
   54097    54113    54191    54260    54271    54225    54136    54036 
   53952    53935    54010    54108    54120    54047    53997    54006 
   54000    53954    53919    53902    53875    53856    53914    54059 
   54213    54257    54175    54056    53944    53862    53889    54014 
   54124    54163    54130    54041    53975    54012    54103    54156 
   54125    54021    53917    53885    53928    54010    54126    54243 
   54248    54144    54072    54067    54051    54012    53985    54004 
   54086    54180    54222    54206    54129    53997    53869    53806 
   53821    53916    54062    54172    54156    54014    53855    53792 
   53855    53995    54126    54197    54210    54201    54166    54062 
   53923    53848    53881    53967    54039    54075    54094    54109 
   54113    54078    53990    53898    53838    53790    53785    53886 
   54082    54257    54334    54365    54392    54346    54216    54102 
   54044    54025    54063    54137    54179    54140    54029    53875 
   53721    53657    53686    53735    53793    53862    53932    54004 
   54059    54103    54153    54211    54318    54434    54444    54372 
   54317    54251    54114    53947    53840    53842    53910    53987 
   54036    54018    53921    53831    53828    53893    53959    53994 
   54036    54140    54236    54189    54066    54059    54175    54241 
   54174    54052    53974    53960    54008    54085    54090    54004 
   53923    53865    53802    53813    53954    54108    54160    54157 
   54180    54230    54298    54344    54334    54270    54152    54014 
   53901    53815    53752    53716    53658    53601    53632    53775 
   54016    54283    54450    54484    54441    54333    54175    54039 
   53951    53900    53905    53959    54035    54143    54209    54162 
   54089    54051    54009    53968    53951    53925    53885    53865 
   53870    53887    53897    53881    53874    53906    53931    53917 
   53950    54086    54253    54345    54357    54359    54356    54326 
   54299    54268    54193    54049    53792    53518    53449    53590 
   53790    53983    54157    54301    54409    54457    54444    54383 
   54286    54175    54062    53919    53778    53719    53736    53758 
   53746    53716    53689    53689    53790    54036    54313    54427 
   54344    54179    54054    54064    54244    54503    54683    54637 
   54352    53948    53592    53414    53442    53630    53909    54186 
   54351    54369    54299    54221    54174    54109    53963    53786 
   53682    53684    53752    53828    53897    53995    54113    54193 
   54248    54341    54421    54349    54101    53829    53732    53866 
   54074    54183    54201    54180    54098    53959    53882    53947 
   54099    54240    54330    54344    54224    54000    53817    53769 
   53789    53812    53840    53894    53993    54114    54213    54280 
   54305    54274    54203    54102    53935    53730    53622    53667 
   53770    53865    53962    54070    54183    54275    54313    54265 
   54147    54020    53944    53931    53947    53950    53929    53901 
   53906    53973    54067    54132    54164    54162    54121    54087 
   54097    54133    54163    54176    54199    54267    54373    54438 
   54379    54216    54006    53824    53746    53769    53821    53846 
   53831    53840    53896    53909    53874    53885    53959    54037 
   54101    54168    54245    54310    54302    54179    54004    53869 
   53794    53743    53727    53832    54052    54251    54326    54299 
   54255    54251    54247    54189    54106    54056    54059    54074 
   54037    53974    53947    53963    53974    53940    53878    53829 
   53812    53846    53925    54025    54153    54280    54302    54206 
   54094    54022    53982    53990    54048    54110    54144    54135 
   54071    54010    54016    54049    54048    54018    53979    53936 
   53919    53928    53946    53982    54032    54066    54097    54140 
   54149    54105    54045    54012    54012    54024    54067    54148 
   54183    54129    54039    53973    53947    53936    53928    53974 
   54085    54179    54221    54241    54243    54221    54193    54166 
   54128    54044    53893    53705    53559    53554    53677    53836 
   53974    54059    54098    54121    54135    54148    54187    54234 
   54253    54233    54182    54089    53971    53908    53921    53940 
   53936    53959    54010    54001    53913    53859    53912    54006 
   54112    54251    54364    54369    54305    54233    54153    54022 
   53856    53758    53809    53958    54120    54230    54243    54167 
   54035    53908    53894    54018    54168    54224    54163    54040 
   53937    53947    54056    54176    54275    54336    54322    54187 
   53959    53781    53736    53747    53758    53823    53955    54089 
   54148    54097    54001    53971    54001    54025    54036    54027 
   53997    53973    53970    54013    54109    54186    54174    54105 
   54043    54002    53986    53990    54013    54071    54143    54199 
   54225    54189    54085    53968    53924    53963    54018    54078 
   54152    54186    54149    54089    54017    53917    53842    53875 
   53995    54099    54141    54147    54130    54074    53985    53908 
   53869    53858    53865    53917    54013    54072    54086    54083 
   54049    54021    54029    54018    53968    53923    53927    53973 
   54004    54014    54052    54108    54159    54213    54255    54270 
   54264    54211    54110    54020    53991    53998    54013    54055 
   54106    54110    54090    54091    54103    54072    53975    53875 
   53840    53851    53882    53937    54028    54178    54329    54367 
   54294    54189    54082    53959    53829    53786    53881    54022 
   54103    54114    54099    54090    54085    54087    54102    54098 
   54059    53998    53936    53913    53940    53954    53941    53964 
   54020    54032    53990    53977    53997    54010    54036    54093 
   54135    54120    54062    54021    54010    53995    53977    53983 
   54009    54033    54054    54075    54089    54083    54082    54102 
   54110    54114    54144    54167    54152    54126    54108    54078 
   54032    53989    53989    54029    54054    54022    53952    53896 
   53894    53946    54014    54081    54155    54197    54132    53987 
   53855    53789    53819    53946    54103    54217    54260    54232 
   54160    54094    54031    53960    53936    54009    54126    54170 
   54108    54018    53968    53952    53959    53986    54009    54000 
   53962    53958    54031    54136    54193    54190    54182    54189 
   54184    54160    54118    54045    53964    53920    53921    53952 
   53968    53951    53936    53936    53955    54009    54068    54102 
   54135    54167    54163    54110    54064    54079    54129    54140 
   54083    53987    53916    53916    53975    54058    54130    54147 
   54103    54041    53971    53916    53931    54013    54099    54145 
   54139    54087    54012    53962    53979    54036    54083    54110 
   54118    54103    54070    54037    54018    54004    53958    53883 
   53856    53892    53935    53973    54020    54067    54106    54110 
   54068    54033    54018    54010    54022    54048    54062    54064 
   54071    54078    54059    54008    53966    53973    54025    54079 
   54112    54174    54251    54261    54210    54147    54058    53927 
   53801    53757    53789    53839    53909    54013    54101    54144 
   54152    54132    54110    54126    54179    54198    54126    54032 
   53998    53989    53977    53978    53979    53973    53966    53959 
   53970    54006    54052    54113    54183    54213    54182    54137 
   54101    54058    54031    54066    54139    54159    54095    54008 
   53960    53952    53958    53983    54045    54101    54095    54056 
   54031    54024    54010    53979    53955    53952    53955    53951 
   53940    53946    53990    54064    54133    54187    54214    54189 
   54137    54079    54010    53975    53997    54021    54014    53982 
   53960    53985    54029    54047    54044    54033    54008    53986 
