Origin Time       2024/06/23 22:54:00
Lat.              35.645
Long.             140.060
Depth. (km)       72
Mag.              4.1
Station Code      TCGH14
Station Lat.      36.5509
Station Long.     139.6154
Station Height(m) 80
Record Time       2024/06/23 22:54:59
Sampling Freq(Hz) 100Hz
Duration Time(s)  120
Dir.              1
Scale Factor      2942(gal)/8224139
Max. Acc. (gal)   0.179
Last Correction   2024/06/23 22:54:59
Memo.             
[...]
   11043    10967    10881    10872    10916    10994    11037    10987 
   10937    10948    10945    10902    10890    10928    10972    10999 
   10999    10964    10922    10929    10962    10943    10926    10964 
   10968    10935    10918    10928    10962    10957    10929    10952 
   10984    11009    11038    11024    10952    10872    10839    10879 
   10955    11007    11007    10975    10957    10945    10930    10936 
   10943    10951    10987    10982    10916    10909    10963    10989 
   11001    10997    10944    10894    10905    10966    11024    11044 
   10999    10912    10867    10870    10889    10960    11038    11034 
   10966    10894    10874    10932    10998    11002    10991    10991 
   10975    10960    10925    10866    10876    10944    10968    10978 
   11005    11006    10960    10895    10871    10908    10975    11032 
   11009    10940    10899    10872    10898    10968    10984    10983 
   11009    10990    10921    10875    10879    10926    11001    11020 
   10975    10980    11017    11030    11033    10974    10895    10902 
   10940    10955    10966    10963    10949    10944    10917    10882 
   10872    10914    11013    11094    11076    10967    10871    10885 
   10924    10916    10932    10951    10953    10974    10984    10991 
   10967    10895    10876    10917    10943    10959    10972    10987 
   10991    10949    10902    10901    10944    10999    11013    10959 
   10885    10874    10940    10975    10972    11013    11056    11018 
   10924    10854    10860    10909    10976    11049    11025    10948 
   10948    10940    10894    10917    10982    10983    10956    10951 
   10902    10867    10951    11013    11034    11113    11095    10951 
   10871    10870    10867    10883    10930    10957    10933    10909 
   10933    10963    10976    11009    11057    11068    11007    10913 
   10897    10935    10899    10868    10945    11005    10984    10982 
   10970    10906    10863    10831    10841    10968    11075    11053 
   10974    10921    10939    10967    10957    10940    10929    10917 
   10926    10976    10998    10945    10939    11014    11014    10909 
   10854    10929    11072    11137    11038    10891    10841    10859 
   10862    10889    10976    11047    11026    10957    10899    10864 
   10856    10874    10948    11072    11117    11024    10917    10876 
   10879    10955    11086    11102    10974    10878    10859    10862 
   10893    10945    10997    11034    11020    10960    10953    10980 
   10949    10929    10947    10929    10925    10941    10901    10859 
   10913    11025    11091    11052    10936    10875    10916    10957 
   11007    11071    11055    10980    10899    10820    10818    10925 
   11043    11078    10995    10891    10872    10856    10863    10991 
   11071    11009    10941    10891    10876    10960    11040    10993 
   10887    10856    10930    11003    10994    10970    10970    10951 
   10953    10990    10962    10886    10855    10890    10940    10983 
   11021    10990    10933    10960    10974    10916    10909    10991 
   11063    11017    10885    10824    10872    10949    11045    11105 
   11053    10970    10920    10858    10837    10894    10936    10968 
   11020    11037    11016    10941    10829    10804    10917    11071 
   11118    11033    10937    10906    10932    10963    10983    11001 
   10964    10902    10909    10933    10906    10886    10908    10929 
   10937    10959    10983    11017    11071    11056    10979    10956 
   10976    10952    10893    10895    10962    10964    10891    10836 
   10808    10839    10972    11067    11032    10976    10952    10943 
   10963    10956    10926    10963    11003    10960    10916    10906 
   10937    11006    11021    10972    10949    10972    10979    10966 
   10991    11025    11016    10926    10790    10787    10914    10990 
   11025    11033    10947    10864    10858    10858    10906    11003 
   11017    10976    10999    11022    10994    11003    11030    10963 
   10883    10910    10951    10952    10960    10945    10929    10971 
   10990    10944    10917    10924    10909    10913    10982    11028 
   10997    10967    10968    10947    10879    10879    11007    11080 
   11016    10962    10935    10862    10841    10908    10963    10975 
   10980    11005    11001    10937    10910    10939    10941    10920 
   10903    10905    10910    10903    10948    11033    11044    10995 
   10979    11006    11020    10940    10839    10863    10926    10970 
   11048    11030    10894    10841    10885    10945    11014    11025 
   10930    10845    10894    10982    10999    11024    11055    11034 
   10982    10883    10785    10808    10959    11068    11047    10989 
   10941    10910    10936    10970    10947    10941    10983    10957 
   10905    10939    11009    11047    11011    10886    10814    10889 
   10970    10972    10975    10987    10956    10926    10963    11026 
   11053    11038    10994    10893    10809    10859    10947    10956 
   10943    10918    10910    10990    11033    10956    10913    10916 
   10908    10935    10917    10885    11006    11118    11034    10924 
   10924    10941    10924    10945    11021    11024    10933    10922 
   10999    11001    10948    10947    10962    10947    10921    10920 
   10921    10898    10935    11024    11024    10944    10895    10903 
   10936    10949    10940    10921    10922    10978    11041    11056 
   11021    10925    10824    10810    10899    11038    11129    11094 
   10970    10851    10824    10901    10980    10991    10967    10948 
   10966    10991    10943    10883    10935    11003    11005    11016 
   10999    10936    10943    10952    10878    10901    11036    11030 
   10918    10903    10944    10940    10917    10924    10937    10925 
   10910    10914    10944    10957    10959    10982    10967    10932 
   10956    10956    10924    10979    11021    10971    10960    10986 
   10975    10989    11003    10936    10860    10895    11018    11079 
   10999    10845    10746    10825    10971    11002    11047    11133 
   11078    10909    10775    10773    10916    11037    11038    11025 
   11037    11021    10966    10891    10887    10955    10937    10894 
   10968    11020    10955    10891    10866    10883    10959    11018 
   11014    10989    10943    10901    10918    10952    10966    10997 
   11040    11078    11057    10939    10856    10893    10943    10953 
   10974    11007    10974    10867    10808    10847    10917    10991 
   11045    11060    11045    10979    10912    10918    10917    10872 
   10860    10878    10914    10979    10991    10955    10960    10970 
   10941    10933    10951    10925    10889    10960    11038    11011 
   11011    11038    10980    10937    10953    10920    10881    10926 
   10989    11040    11083    11007    10859    10835    10903    10948 
   10991    11002    10963    10955    10972    10975    10930    10845 
   10825    10913    11016    11051    11036    11002    10922    10856 
   10908    10987    10956    10903    10941    10994    11006    10999 
   10949    10925    10980    10990    10944    10966    10983    10928 
   10906    10960    11021    11007    10928    10891    10925    10955 
   10951    10917    10889    10939    11030    11040    10940    10816 
   10797    10917    11045    11083    11032    10932    10874    10893 
   10937    10987    11032    11011    10922    10882    10941    10979 
   10948    10937    10957    10952    10951    10990    11018    11037 
   11043    10979    10917    10908    10889    10864    10890    10953 
   10972    10932    10956    11047    11028    10912    10863    10864 
   10885    10970    11028    11014    11028    11009    10878    10818 
   10891    10928    10944    11018    11033    10972    10944    10937 
   10943    10994    11040    11018    10944    10881    10878    10908 
   10910    10898    10914    10956    11001    11020    10999    10982 
   10979    10966    10970    10951    10870    10867    10962    11006 
   10997    10990    10968    10967    10983    10937    10906    10945 
   10945    10941    10991    10991    10945    10940    10963    10975 
   10962    10906    10858    10882    10955    11011    11013    10971 
   10929    10937    10998    11001    10933    10922    10925    10878 
   10925    11044    11038    10962    10926    10903    10910    10978 
   11014    10986    10997    10998    10895    10856    10941    10993 
   10994    10968    10905    10874    10909    10970    11013    11030 
   11049    11024    10926    10871    10872    10874    10914    10991 
   11018    10982    10933    10910    10909    10921    10962    11014 
   10997    10916    10922    10994    10962    10889    10899    10932 
   10986    11059    11044    10967    10909    10858    10806    10822 
   10921    11005    11032    11029    10993    10941    10922    10948 
   11010    11052    10998    10893    10848    10881    10945    11028 
   11071    11013    10917    10881    10889    10878    10879    10922 
   10967    11014    11052    11010    10939    10933    10971    10987 
   10987    11001    11016    11018    11009    10949    10870    10845 
   10897    10980    11022    11020    10998    10925    10854    10860 
   10893    10914    10952    10999    11017    11013    10983    10914 
   10863    10875    10940    11029    11045    10953    10875    10874 
   10925    10995    11010    10974    10967    10986    10972    10952 
   10959    10962    10966    10978    10930    10852    10859    10948 
   11014    11016    10986    10928    10866    10840    10859    10963 
   11044    10978    10935    10994    11021    10989    10957    10930 
   10918    10975    11043    10962    10817    10804    10860    10924 
   11003    11009    10983    11018    10998    10929    10952    11001 
   10993    10976    10966    10921    10872    10899    10972    10974 
   10921    10914    10939    10944    10957    11010    11064    11078 
   11024    10937    10879    10874    10948    11068    11075    10956 
   10909    10944    10935    10908    10878    10844    10837    10814 
   10808    10864    10937    11038    11129    11145    11119    11084 
   11045    10987    10945    10968    10978    10943    10898    10794 
   10716    10778    10895    10975    11025    11067    11118    11167 
   11130    10979    10848    10802    10762    10781    10909    10990 
   10957    10939    10960    10972    11017    11063    11026    10975 
   10951    10864    10782    10836    10903    10890    10924    10978 
   10943    10941    11052    11090    10989    10949    11041    11133 
   11132    11016    10832    10735    10835    10997    10998    10936 
   10949    10924    10890    10947    10972    10979    11074    11106 
   11002    10943    10962    10964    10979    10986    10971    11118 
   11345    11234    10841    10612    10620    10671    10752    10891 
   10957    10929    10891    10781    10663    10739    10945    11068 
   11065    11056    11082    11034    10890    10773    10771    10833 
   10895    10984    11097    11153    11167    11178    11122    11028 
   11003    11028    11026    10982    10924    10948    11084    11109 
   10881    10681    10724    10831    10847    10859    10991    11164 
   11213    11151    11041    10944    10881    10804    10831    11033 
   11148    11056    10913    10754    10635    10690    10854    10964 
   10975    10955    10967    10926    10831    10854    11005    11156 
   11241    11233    11167    11033    10837    10747    10827    10912 
   10837    10717    10743    10837    10870    10937    11083    11167 
   11113    10993    10921    10997    11115    11113    11033    11003 
   11068    11087    10955    10851    10835    10800    10848    10980 
   10941    10793    10883    11111    11144    11037    10902    10733 
   10692    10843    10976    11001    10990    10913    10863    10975 
   11063    11018    10959    10909    10937    11040    11037    11043 
   11190    11217    11041    10906    10840    10754    10755    10881 
   10995    11074    11071    10918    10787    10863    11028    11090 
   11088    11070    10972    10917    10978    11007    11009    11018 
   10953    10871    10833    10833    10903    10891    10731    10673 
   10736    10763    10832    10951    11055    11250    11452    11373 
   11079    10872    10800    10801    10890    10967    10955    10936 
   10972    11016    11007    10930    10845    10836    10856    10863 
   10929    11033    11087    11119    11109    10974    10785    10632 
   10548    10593    10756    11011    11260    11256    11014    10817 
   10786    10859    11006    11195    11318    11234    11009    10894 
   10870    10759    10696    10845    11041    11111    11101    11057 
   11032    11038    10935    10752    10764    10963    11079    11118 
   11234    11296    11106    10771    10574    10662    10899    11061 
   11136    11141    11002    10872    10937    11028    11007    10989 
   11010    10987    10901    10789    10693    10713    10879    11026 
   11072    11130    11180    11103    10972    10920    10925    10883 
   10798    10847    11007    10990    10841    10841    10925    10916 
   10902    10936    10909    10906    11059    11165    11056    10870 
   10737    10659    10654    10755    10899    10959    11011    11240 
   11454    11395    11191    11024    10886    10800    10793    10825 
   10870    10872    10787    10706    10760    10987    11227    11252 
   11111    10978    10832    10705    10735    10836    10859    10921 
   11068    11140    11190    11234    11068    10824    10824    10971 
   11021    10937    10763    10659    10771    10913    10918    10833 
   10701    10670    10805    10916    10953    11038    11113    11091 
   11070    11122    11183    11173    11101    11001    10910    10906 
   10997    11065    11087    11103    11047    10936    10912    10984 
   11149    11329    11284    11063    10948    10917    10813    10762 
   10832    10816    10712    10727    10839    10912    10889    10848 
   10941    11067    11029    10890    10782    10716    10700    10777 
   10916    10990    10997    11047    11082    11022    10967    10967 
   10972    10962    10909    10836    10829    10845    10774    10706 
   10836    11064    11151    11148    11176    11195    11248    11298 
   11178    10922    10701    10628    10689    10791    10984    11248 
   11367    11325    11227    11074    11005    11032    10881    10648 
   10687    10905    10974    10893    10867    10906    10902    10868 
   10855    10852    10881    10951    10982    10982    10989    10918 
   10794    10736    10720    10710    10758    10854    10963    11052 
   11044    10989    11036    11152    11161    11013    10843    10812 
   10953    11192    11337    11248    11075    11036    11105    11144 
   11122    11070    10940    10760    10724    10835    10920    10987 
   11065    11075    11051    11072    11076    10962    10778    10665 
   10689    10782    10794    10732    10720    10793    10903    10898 
   10708    10548    10608    10839    11024    11068    11168    11317 
   11265    11070    10980    10975    10955    10964    10975    10940 
   10918    10908    10910    10986    11026    10948    10945    11074 
   11074    10933    10894    10951    10962    10970    11007    10974 
   10910    10945    11005    11032    11080    11087    11014    10968 
   10947    10876    10825    10816    10827    10970    11165    11175 
   11110    11141    11172    11118    10966    10814    10825    10870 
   10760    10656    10736    10870    10918    10987    11160    11265 
   11195    11059    10890    10717    10665    10717    10767    10818 
   10875    10885    10895    10989    11098    11153    11190    11163 
   11057    10959    10901    10897    10910    10858    10783    10775 
   10820    10906    11001    11025    11018    11030    11007    10959 
   10957    11075    11250    11261    11109    10984    10894    10817 
   10743    10638    10567    10563    10629    10814    11029    11153 
   11190    11168    11121    11043    10906    10805    10852    10998 
   11141    11205    11163    11056    10955    10921    10976    11049 
   11016    10894    10845    10858    10862    10913    10945    10849 
   10733    10748    10897    11047    11068    10955    10810    10779 
   10936    11173    11287    11191    11021    10897    10789    10698 
   10700    10760    10825    10885    10963    11068    11160    11206 
   11209    11178    11124    10997    10798    10651    10652    10806 
   10987    11094    11188    11261    11261    11229    11137    10964 
   10820    10741    10659    10582    10640    10814    10928    10959 
   11022    11105    11148    11182    11144    10983    10883    10956 
   11037    10993    10913    10917    10963    11005    11041    11045 
   11010    10906    10781    10771    10802    10778    10845    10994 
   11025    10960    10928    10883    10820    10872    10983    10940 
   10829    10828    10825    10824    10951    11052    11047    11072 
   11107    11086    11060    11048    10987    10879    10816    10831 
   10881    10959    11013    10999    10986    10994    10993    10991 
   10963    10928    10948    10984    11029    11145    11254    11213 
   11053    10924    10883    10856    10801    10828    10909    10886 
   10854    10924    10937    10847    10852    10947    10929    10851 
   10881    10956    10976    10970    10932    10883    10916    11010 
   11068    11064    11051    11047    11021    10974    10910    10812 
   10724    10733    10841    10916    10882    10875    10974    11065 
   11094    11038    10918    10895    10983    11043    11079    11097 
   11056    10987    10951    10995    11084    11113    11068    11005 
   10952    10935    10963    10999    10978    10905    10840    10805 
   10806    10840    10854    10827    10833    10894    10898    10866 
   10945    11097    11153    11070    10933    10835    10755    10717 
   10808    10993    11146    11187    11115    11018    10982    11025 
   11068    11002    10870    10817    10858    10891    10902    10924 
   10943    10960    11002    11005    10932    10876    10901    10940 
   10925    10887    10875    10859    10854    10937    11055    11107 
   11119    11102    11032    10957    10909    10872    10876    10924 
   10957    10972    10998    11011    10994    10967    10945    10933 
   10943    10993    11060    11057    10993    10966    11005    11049 
   11026    10949    10894    10898    10924    10916    10868    10800 
   10732    10762    10909    11047    11087    11044    10967    10949 
   10998    11001    10937    10862    10831    10867    10882    10840 
   10878    11029    11138    11091    10976    10940    10947    10920 
   10940    11014    11003    10925    10913    10932    10895    10874 
   10936    11036    11087    11017    10916    10929    10998    10972 
   10903    10940    11020    11038    11053    11044    10959    10917 
   10964    10982    10899    10787    10760    10820    10875    10913 
   10957    10983    10997    11034    11052    10993    10894    10858 
