Origin Time       2024/06/23 22:54:00
Lat.              35.645
Long.             140.060
Depth. (km)       72
Mag.              4.1
Station Code      TCGH12
Station Lat.      36.6959
Station Long.     139.9842
Station Height(m) 162
Record Time       2024/06/23 22:55:00
Sampling Freq(Hz) 100Hz
Duration Time(s)  120
Dir.              4
Scale Factor      7845(gal)/8223790
Max. Acc. (gal)   1.533
Last Correction   2024/06/23 22:55:00
Memo.             
[...]
   16552    16626    16694    16733    16749    16707    16623    16573 
   16587    16657    16756    16826    16816    16696    16534    16474 
   16555    16686    16777    16792    16726    16614    16551    16583 
   16654    16725    16748    16669    16563    16557    16661    16808 
   16920    16904    16744    16514    16329    16313    16497    16765 
   16961    16981    16822    16599    16451    16434    16559    16738 
   16815    16765    16679    16641    16681    16748    16776    16726 
   16602    16479    16444    16503    16644    16803    16865    16822 
   16745    16664    16586    16549    16576    16629    16683    16735 
   16753    16735    16723    16681    16590    16536    16571    16653 
   16726    16757    16735    16657    16551    16511    16594    16733 
   16830    16842    16772    16659    16575    16559    16584    16646 
   16731    16745    16663    16590    16590    16633    16675    16698 
   16719    16730    16711    16688    16654    16599    16595    16677 
   16765    16791    16742    16629    16511    16474    16530    16636 
   16729    16777    16769    16703    16648    16676    16742    16773 
   16737    16622    16502    16474    16563    16721    16839    16846 
   16775    16650    16513    16468    16553    16698    16818    16829 
   16721    16583    16517    16564    16691    16798    16798    16704 
   16598    16565    16619    16698    16737    16699    16617    16576 
   16609    16665    16735    16802    16779    16656    16548    16533 
   16584    16676    16771    16785    16730    16665    16598    16563 
   16602    16675    16726    16727    16671    16617    16622    16640 
   16652    16688    16711    16688    16667    16677    16699    16706 
   16695    16668    16607    16573    16638    16715    16730    16723 
   16671    16569    16530    16599    16717    16802    16791    16703 
   16637    16634    16652    16683    16706    16657    16576    16544 
   16560    16634    16769    16866    16825    16680    16552    16490 
   16509    16637    16795    16849    16781    16653    16553    16567 
   16644    16707    16761    16764    16688    16610    16553    16537 
   16614    16688    16692    16713    16745    16722    16691    16687 
   16683    16668    16633    16579    16560    16619    16719    16787 
   16776    16713    16648    16602    16588    16610    16622    16622 
   16649    16706    16776    16800    16730    16644    16603    16576 
   16563    16596    16673    16752    16807    16815    16740    16619 
   16556    16551    16541    16548    16590    16659    16769    16864 
   16848    16744    16627    16548    16564    16665    16741    16744 
   16706    16636    16545    16521    16606    16718    16784    16796 
   16737    16627    16560    16580    16648    16707    16721    16698 
   16673    16663    16677    16717    16726    16668    16580    16514 
   16519    16621    16781    16900    16854    16669    16497    16440 
   16518    16676    16783    16771    16692    16615    16603    16680 
   16767    16784    16754    16695    16610    16561    16569    16586 
   16623    16671    16671    16660    16694    16748    16779    16741 
   16645    16573    16565    16605    16679    16758    16794    16741 
   16625    16556    16572    16621    16677    16717    16684    16598 
   16552    16594    16695    16811    16869    16819    16699    16583 
   16542    16578    16626    16679    16707    16656    16584    16568 
   16599    16679    16780    16816    16771    16698    16627    16560 
   16530    16590    16686    16740    16752    16727    16687    16669 
   16683    16698    16684    16623    16538    16506    16561    16671 
   16804    16887    16852    16722    16567    16468    16480    16563 
   16653    16750    16833    16848    16788    16680    16575    16532 
   16551    16606    16677    16723    16722    16700    16680    16640 
   16583    16572    16641    16741    16814    16814    16715    16573 
   16505    16560    16656    16681    16663    16661    16659    16673 
   16764    16861    16821    16649    16475    16380    16413    16576 
   16768    16879    16904    16884    16812    16696    16588    16503 
   16436    16429    16532    16714    16883    16951    16895    16726 
   16511    16368    16364    16472    16650    16843    16958    16943 
   16838    16711    16602    16518    16472    16487    16568    16673 
   16761    16829    16849    16768    16607    16465    16437    16560 
   16791    16989    16993    16816    16596    16424    16359    16453 
   16642    16783    16800    16733    16657    16630    16669    16711 
   16699    16637    16567    16557    16634    16745    16826    16812 
   16710    16596    16525    16511    16564    16671    16758    16753 
   16698    16661    16668    16756    16872    16858    16681    16499 
   16411    16417    16548    16768    16929    16960    16862    16657 
   16447    16349    16403    16564    16723    16822    16869    16845 
   16775    16715    16641    16551    16487    16487    16567    16695 
   16810    16868    16857    16764    16592    16438    16407    16492 
   16644    16808    16888    16845    16757    16683    16621    16580 
   16599    16646    16654    16618    16592    16615    16660    16684 
   16699    16718    16708    16687    16703    16730    16722    16710 
   16695    16649    16627    16657    16657    16587    16507    16480 
   16524    16636    16781    16895    16918    16826    16652    16499 
   16455    16514    16621    16730    16811    16830    16784    16726 
   16691    16660    16603    16536    16483    16465    16537    16700 
   16862    16942    16899    16744    16575    16484    16511    16649 
   16799    16854    16808    16681    16526    16445    16495    16611 
   16679    16676    16683    16738    16802    16845    16853    16781 
   16632    16491    16425    16426    16495    16640    16788    16864 
   16872    16802    16664    16564    16568    16622    16659    16677 
   16687    16677    16668    16676    16698    16714    16690    16636 
   16602    16596    16602    16615    16645    16694    16735    16775 
   16816    16806    16730    16638    16534    16456    16490    16606 
   16700    16748    16769    16776    16761    16703    16618    16569 
   16578    16609    16657    16703    16723    16740    16726    16660 
   16584    16546    16565    16638    16735    16811    16811    16726 
   16642    16609    16576    16561    16618    16706    16767    16777 
   16702    16580    16503    16498    16565    16681    16804    16906 
   16941    16857    16679    16491    16384    16402    16515    16646 
   16735    16783    16804    16804    16777    16710    16606    16521 
   16509    16573    16660    16714    16741    16742    16686    16611 
   16600    16661    16754    16821    16796    16710    16641    16607 
   16588    16580    16582    16583    16619    16702    16783    16818 
   16776    16657    16532    16491    16548    16633    16718    16798 
   16810    16737    16642    16572    16551    16564    16575    16606 
   16680    16742    16764    16794    16835    16835    16767    16656 
   16538    16445    16457    16582    16702    16767    16807    16794 
   16719    16640    16578    16552    16579    16617    16648    16669 
   16677    16710    16760    16762    16717    16661    16613    16603 
   16633    16669    16692    16676    16618    16579    16594    16652 
   16737    16822    16857    16785    16644    16526    16478    16518 
   16632    16746    16807    16799    16718    16613    16563    16587 
   16642    16657    16615    16605    16665    16730    16785    16829 
   16779    16637    16530    16530    16591    16656    16695    16706 
   16702    16691    16677    16672    16687    16699    16675    16623 
   16572    16565    16640    16746    16811    16821    16785    16700 
   16591    16522    16530    16595    16676    16741    16779    16764 
   16687    16607    16555    16486    16448    16517    16664    16830 
   16966    16984    16845    16637    16463    16383    16429    16559 
   16702    16804    16845    16846    16821    16756    16648    16513 
   16409    16405    16519    16717    16914    17003    16906    16676 
   16472    16399    16449    16592    16779    16915    16923    16819 
   16679    16537    16416    16380    16449    16546    16664    16841 
   17000    17039    16951    16752    16480    16267    16216    16344 
   16605    16872    17031    17038    16888    16649    16464    16433 
   16534    16696    16821    16829    16734    16600    16506    16524 
   16622    16706    16740    16737    16718    16714    16717    16722 
   16727    16683    16590    16507    16482    16553    16677    16752 
   16752    16711    16668    16659    16695    16746    16765    16718 
   16619    16540    16544    16602    16644    16667    16687    16691 
   16681    16679    16702    16734    16706    16627    16587    16605 
   16668    16762    16803    16742    16650    16583    16546    16571 
   16672    16767    16760    16668    16582    16540    16559    16637 
   16719    16769    16783    16753    16726    16738    16731    16679 
   16619    16548    16483    16492    16573    16671    16749    16811 
   16841    16792    16686    16591    16533    16542    16649    16802 
   16916    16922    16796    16622    16486    16407    16411    16525 
   16683    16796    16838    16821    16748    16649    16567    16514 
   16497    16524    16602    16704    16804    16876    16884    16822 
   16698    16529    16407    16397    16467    16594    16767    16899 
   16926    16873    16775    16652    16545    16483    16490    16575 
   16704    16818    16888    16880    16765    16596    16475    16438 
   16491    16618    16719    16725    16688    16663    16638    16634 
   16687    16768    16818    16804    16742    16679    16648    16654 
   16673    16679    16677    16652    16617    16633    16710    16788 
   16821    16784    16669    16507    16370    16317    16371    16522 
   16708    16843    16904    16907    16864    16791    16691    16579 
   16491    16453    16475    16551    16672    16806    16908    16950 
   16908    16791    16623    16436    16301    16308    16463    16675 
   16819    16849    16798    16717    16665    16673    16692    16675 
   16646    16633    16644    16681    16730    16760    16734    16656 
   16553    16455    16418    16529    16767    16962    16992    16864 
   16657    16471    16394    16444    16571    16707    16783    16773 
   16722    16673    16648    16667    16714    16717    16665    16621 
   16611    16633    16679    16713    16690    16623    16591    16645 
   16745    16819    16845    16815    16740    16672    16614    16538 
   16479    16471    16515    16609    16711    16765    16748    16677 
   16598    16564    16590    16629    16664    16714    16769    16794 
   16767    16717    16672    16667    16738    16838    16870    16816 
   16703    16525    16352    16303    16389    16563    16772    16924 
   16951    16853    16683    16532    16472    16526    16645    16722 
   16741    16752    16756    16768    16789    16760    16649    16499 
   16383    16368    16499    16756    16999    17055    16869    16532 
   16228    16128    16267    16571    16923    17178    17250    17172 
   16968    16671    16390    16218    16197    16321    16494    16644 
   16767    16810    16740    16619    16545    16571    16692    16845 
   16935    16899    16765    16642    16622    16683    16742    16753 
   16684    16524    16330    16205    16218    16410    16731    17024 
   17155    17103    16904    16652    16476    16478    16634    16812 
   16893    16837    16644    16390    16227    16263    16457    16673 
   16827    16945    17058    17128    17112    16984    16718    16379 
   16110    16033    16205    16555    16904    17086    17026    16777 
   16484    16287    16290    16465    16683    16862    16968    16964 
   16858    16726    16657    16659    16679    16708    16750    16769 
   16727    16630    16515    16436    16451    16572    16735    16825 
   16748    16564    16407    16337    16399    16652    16995    17234 
   17267    17097    16761    16357    16042    15934    16078    16440 
   16885    17226    17340    17239    16972    16642    16413    16355 
   16438    16626    16788    16794    16656    16445    16241    16182 
   16352    16684    17041    17302    17382    17221    16843    16353 
   15920    15746    15930    16399    16984    17443    17554    17286 
   16792    16287    15985    16013    16305    16688    17019    17157 
   17034    16730    16407    16235    16330    16679    17089    17340 
   17335    17077    16663    16263    16012    15954    16067    16340 
   16742    17153    17405    17385    17082    16625    16214    16043 
   16206    16611    17055    17336    17280    16873    16326    15892 
   15768    16040    16579    17118    17436    17456    17193    16762 
   16368    16150    16125    16263    16464    16617    16723    16795 
   16807    16772    16710    16641    16603    16627    16737    16897 
   16981    16900    16672    16405    16259    16344    16609    16873 
   16960    16811    16506    16206    16109    16303    16684    17046 
   17254    17292    17213    17099    17054    17092    17104    16966 
   16586    16000    15442    15156    15242    15704    16472    17324 
   17971    18274    18215    17806    17136    16359    15660    15221 
   15122    15361    15897    16646    17429    17999    18183    17950 
   17375    16664    16082    15772    15758    16002    16351    16649 
   16883    17030    16989    16745    16413    16120    15990    16110 
   16452    16927    17389    17631    17593    17338    16919    16447 
   16070    15884    15961    16289    16729    17108    17304    17286 
   17023    16524    16035    15832    15966    16393    16996    17532 
   17794    17664    17153    16467    15889    15608    15688    16054 
   16492    16815    16949    16916    16816    16765    16776    16818 
   16889    16992    17089    17095    16916    16524    16027    15642 
   15561    15850    16409    17034    17563    17906    17940    17639 
   17139    16545    15973    15610    15549    15757    16158    16660 
   17149    17463    17516    17351    17010    16596    16305    16240 
   16382    16599    16726    16690    16476    16160    16001    16224 
   16780    17440    17936    17963    17425    16556    15678    15120 
   15152    15745    16569    17309    17759    17802    17462    16945 
   16521    16336    16368    16518    16657    16695    16640    16561 
   16513    16488    16456    16447    16484    16587    16804    17072 
   17224    17219    17082    16822    16514    16309    16270    16313 
   16316    16204    15977    15774    15808    16177    16815    17524 
   18052    18208    17934    17374    16784    16340    16132    16156 
   16256    16281    16244    16243    16340    16537    16745    16842 
   16773    16584    16398    16349    16474    16708    16991    17297 
   17577    17675    17478    17032    16417    15736    15238    15163 
   15546    16259    17122    17826    18045    17702    17015    16275 
   15745    15608    15869    16353    16845    17217    17478    17644 
   17678    17524    17111    16465    15784    15299    15202    15577 
   16289    17066    17663    17907    17722    17190    16536    16005 
   15734    15738    15973    16333    16676    16951    17231    17479 
   17578    17506    17255    16827    16330    15925    15731    15790 
   16097    16538    16915    17142    17221    17142    16934    16688 
   16494    16403    16479    16718    16985    17145    17142    16968 
   16638    16236    15890    15722    15819    16208    16776    17317 
   17645    17651    17336    16845    16335    15957    15862    16052 
   16376    16659    16794    16794    16718    16636    16625    16681 
   16745    16815    16900    16960    16957    16912    16838    16706 
   16536    16416    16393    16452    16595    16799    17004    17149 
   17177    17053    16757    16306    15844    15612    15763    16268 
   16951    17552    17802    17602    17077    16456    15959    15739 
   15832    16177    16590    16883    17030    17080    17031    16907 
   16787    16707    16657    16660    16727    16795    16772    16641 
   16453    16266    16158    16255    16630    17177    17632    17749 
   17429    16767    16033    15541    15434    15669    16125    16675 
   17170    17483    17604    17572    17397    17086    16688    16263 
   15915    15790    15927    16237    16629    16978    17158    17130 
   16939    16665    16411    16266    16251    16380    16638    16958 
   17258    17431    17383    17093    16598    16065    15720    15672 
   15932    16416    16914    17285    17466    17405    17140    16769 
   16389    16104    15988    16083    16378    16744    17046    17205 
   17185    17007    16771    16578    16479    16474    16483    16428 
   16324    16245    16320    16652    17135    17532    17645    17373 
   16806    16194    15763    15651    15888    16374    16945    17405 
   17586    17447    17072    16623    16271    16089    16085    16213 
   16357    16468    16594    16731    16829    16879    16887    16833 
   16719    16587    16475    16414    16429    16518    16653    16779 
   16831    16792    16707    16634    16623    16711    16852    16931 
   16887    16760    16623    16546    16591    16742    16903    17000 
   17041    17014    16900    16753    16634    16579    16605    16664 
   16684    16630    16495    16332    16237    16239    16278    16355 
   16515    16718    16856    16885    16823    16691    16556    16514 
   16595    16735    16837    16857    16810    16714    16618    16578 
   16607    16684    16753    16788    16812    16837    16858    16862 
   16829    16767    16681    16578    16499    16478    16495    16528 
   16538    16491    16378    16239    16170    16262    16505    16837 
   17143    17274    17170    16912    16642    16428    16254    16152 
   16187    16359    16641    16987    17301    17497    17532    17393 
   17103    16753    16456    16272    16206    16249    16378    16502 
   16544    16534    16513    16475    16459    16495    16580    16695 
   16807    16884    16902    16848    16734    16622    16557    16555 
   16622    16718    16776    16771    16745    16752    16783    16808 
   16814    16738    16556    16340    16179    16141    16283    16595 
   16989    17328    17471    17328    16931    16428    15981    15728 
   15755    16040    16479    16954    17362    17610    17653    17509 
   17204    16750    16260    15911    15780    15877    16163    16502 
   16796    17043    17205    17223    17120    16938    16656    16301 
   15992    15867    16019    16448    17028    17509    17680    17512 
   17088    16584    16213    16065    16097    16252    16449    16579 
   16625    16629    16584    16513    16495    16579    16742    16929 
   17069    17135    17111    17027    16912    16745    16541    16382 
   16320    16355    16449    16559    16633    16652    16641    16669 
   16775    16899    16981    17014    16966    16804    16560    16326 
