Origin Time       2024/06/23 22:54:00
Lat.              35.645
Long.             140.060
Depth. (km)       72
Mag.              4.1
Station Code      TCGH15
Station Lat.      36.5595
Station Long.     139.8637
Station Height(m) 125
Record Time       2024/06/23 22:54:56
Sampling Freq(Hz) 100Hz
Duration Time(s)  120
Dir.              4
Scale Factor      7845(gal)/8223790
Max. Acc. (gal)   1.747
Last Correction   2024/06/23 22:54:56
Memo.             
[...]
    1522     1479     1410     1367     1333     1339     1391     1417 
    1418     1470     1561     1614     1614     1610     1580     1510 
    1443     1372     1301     1329     1447     1522     1536     1503 
    1420     1359     1374     1402     1418     1493     1624     1690 
    1664     1606     1498     1347     1275     1302     1332     1368 
    1476     1586     1564     1447     1347     1300     1363     1567 
    1780     1861     1776     1560     1305     1142     1139     1224 
    1321     1440     1524     1509     1487     1553     1637     1680 
    1717     1696     1584     1463     1327     1138     1028     1107 
    1318     1575     1794     1860     1734     1526     1345     1231 
    1246     1395     1564     1668     1694     1632     1487     1305 
    1163     1125     1223     1433     1660     1783     1742     1566 
    1393     1339     1355     1412     1525     1597     1556     1489 
    1433     1350     1267     1283     1418     1552     1588     1583 
    1587     1605     1632     1610     1509     1379     1279     1259 
    1285     1290     1310     1393     1502     1598     1690     1753 
    1707     1571     1445     1360     1324     1354     1402     1429 
    1471     1521     1483     1385     1370     1440     1482     1468 
    1466     1510     1580     1598     1517     1398     1350     1397 
    1502     1597     1595     1486     1341     1258     1285     1391 
    1475     1493     1539     1636     1682     1645     1570     1471 
    1385     1354     1347     1329     1327     1341     1356     1416 
    1559     1710     1755     1688     1587     1482     1397     1370 
    1367     1340     1323     1360     1440     1502     1489     1432 
    1386     1402     1516     1659     1730     1707     1591     1433 
    1310     1227     1178     1209     1324     1486     1640     1722 
    1725     1656     1512     1340     1247     1298     1440     1595 
    1744     1799     1632     1336     1124     1048     1105     1318 
    1580     1722     1728     1683     1578     1401     1297     1370 
    1522     1626     1659     1601     1425     1216     1140     1244 
    1401     1537     1640     1642     1564     1545     1593     1605 
    1549     1468     1390     1313     1273     1289     1296     1298 
    1385     1524     1636     1702     1692     1605     1525     1491 
    1462     1439     1436     1404     1323     1263     1286     1359 
    1431     1497     1552     1587     1613     1607     1536     1486 
    1561     1669     1671     1578     1397     1140     1005     1121 
    1327     1475     1590     1679     1710     1656     1489     1302 
    1258     1393     1597     1717     1730     1686     1529     1270 
    1073     1011     1080     1318     1655     1883     1911     1796 
    1605     1413     1313     1267     1213     1252     1445     1617 
    1620     1543     1476     1399     1332     1363     1485     1607 
    1678     1656     1537     1402     1331     1321     1350     1406 
    1456     1475     1489     1501     1486     1475     1509     1536 
    1510     1491     1501     1487     1449     1428     1421     1421 
    1444     1495     1524     1490     1426     1370     1339     1395 
    1525     1578     1534     1516     1507     1459     1453     1514 
    1522     1456     1401     1394     1437     1503     1509     1453 
    1414     1406     1413     1424     1409     1387     1408     1466 
    1534     1591     1613     1613     1624     1609     1503     1343 
    1244     1255     1339     1468     1579     1579     1512     1490 
    1480     1428     1432     1555     1668     1645     1517     1383 
    1297     1260     1252     1270     1366     1525     1657     1706 
    1640     1458     1286     1258     1354     1480     1578     1618 
    1609     1584     1529     1404     1285     1310     1470     1601 
    1621     1557     1424     1263     1206     1332     1540     1664 
    1669     1638     1610     1533     1398     1317     1356     1416 
    1399     1358     1372     1439     1489     1498     1494     1497 
    1512     1537     1561     1590     1591     1541     1490     1455 
    1379     1262     1173     1169     1256     1385     1516     1661 
    1782     1811     1750     1636     1525     1468     1405     1300 
    1228     1239     1310     1402     1459     1462     1466     1498 
    1541     1566     1540     1509     1529     1561     1544     1491 
    1441     1397     1372     1404     1462     1491     1487     1467 
    1468     1493     1482     1432     1390     1390     1444     1526 
    1609     1664     1632     1489     1287     1136     1138     1278 
    1463     1628     1714     1692     1602     1503     1428     1414 
    1470     1528     1530     1480     1397     1302     1259     1314 
    1439     1576     1691     1734     1669     1530     1404     1356 
    1364     1382     1405     1431     1436     1432     1443     1485 
    1533     1528     1468     1414     1389     1402     1447     1462 
    1426     1420     1459     1485     1490     1528     1576     1598 
    1624     1636     1557     1424     1304     1208     1202     1308 
    1408     1497     1629     1695     1628     1529     1468     1440 
    1444     1447     1398     1324     1305     1375     1482     1543 
    1552     1576     1590     1544     1499     1474     1440     1444 
    1476     1443     1350     1304     1348     1475     1629     1674 
    1570     1464     1428     1367     1296     1304     1360     1451 
    1614     1745     1755     1718     1633     1445     1255     1183 
    1196     1228     1274     1351     1482     1644     1742     1728 
    1659     1602     1553     1493     1398     1309     1291     1340 
    1402     1448     1425     1355     1329     1350     1413     1547 
    1678     1728     1726     1678     1549     1414     1356     1339 
    1339     1360     1366     1354     1362     1385     1425     1507 
    1586     1622     1642     1656     1645     1606     1525     1433 
    1352     1273     1246     1281     1313     1367     1475     1572 
    1605     1572     1510     1487     1522     1545     1513     1468 
    1453     1426     1371     1344     1362     1401     1460     1530 
    1572     1566     1539     1524     1521     1537     1576     1598 
    1561     1474     1356     1233     1177     1229     1339     1449 
    1568     1680     1713     1644     1521     1381     1293     1324 
    1420     1522     1599     1586     1489     1391     1350     1363 
    1414     1497     1553     1524     1468     1463     1495     1514 
    1491     1449     1428     1417     1406     1426     1472     1490 
    1476     1462     1455     1468     1479     1425     1351     1358 
    1451     1571     1649     1630     1545     1472     1432     1399 
    1385     1390     1412     1480     1553     1540     1459     1362 
    1269     1239     1300     1425     1591     1752     1848     1837 
    1694     1472     1305     1256     1270     1297     1374     1518 
    1645     1656     1526     1332     1208     1229     1381     1583 
    1715     1699     1587     1470     1387     1340     1341     1416 
    1516     1568     1566     1486     1345     1255     1291     1416 
    1540     1597     1593     1556     1502     1491     1544     1593 
    1614     1625     1556     1366     1148     1043     1104     1273 
    1449     1601     1729     1815     1837     1757     1536     1227 
    1004      989     1144     1390     1628     1749     1780     1756 
    1618     1416     1283     1263     1355     1536     1682     1684 
    1561     1385     1217     1123     1121     1232     1485     1788 
    1973     1980     1845     1633     1433     1305     1254     1252 
    1270     1294     1321     1316     1271     1259     1316     1452 
    1703     1981     2123     2039     1761     1422     1139      963 
     943     1035     1127     1220     1337     1452     1590     1726 
    1759     1725     1713     1710     1680     1633     1590     1529 
    1421     1294     1179     1102     1117     1206     1255     1228 
    1197     1250     1458     1787     2061     2155     2096     1937 
    1706     1491     1409     1456     1522     1537     1497     1385 
    1200      950      687      545      658     1028     1502     1899 
    2130     2169     2046     1903     1825     1759     1706     1707 
    1710     1653     1502     1186      761      454      402      573 
     882     1200     1464     1732     2025     2328     2570     2609 
    2401     2043     1597     1107      688      465      503      784 
    1202     1579     1760     1771     1721     1645     1610     1671 
    1771     1850     1841     1626     1232      855      672      743 
    1001     1355     1741     1992     1976     1779     1556     1426 
    1467     1624     1779     1856     1763     1462     1053      712 
     585      692      931     1243     1601     1925     2169     2317 
    2346     2290     2193     1998     1617     1100      607      279 
     247      545      967     1356     1718     1968     1998     1865 
    1705     1628     1715     1929     2092     2066     1854     1555 
    1251      984      783      634      548      643     1005     1512 
    1987     2313     2373     2139     1802     1522     1286     1119 
    1084     1139     1281     1517     1701     1676     1483     1308 
    1278     1382     1512     1590     1622     1615     1549     1453 
    1358     1273     1235     1255     1312     1379     1462     1553 
    1618     1672     1755     1804     1741     1560     1293     1011 
     866     1009     1391     1777     1983     1971     1795     1533 
    1246      981      839      974     1412     1950     2315     2317 
    1977     1543     1216     1026      954      939      970     1123 
    1316     1429     1563     1742     1765     1610     1462     1399 
    1463     1734     2124     2331     2172     1719     1107      527 
     213      256      615     1193     1807     2281     2501     2415 
    2118     1776     1458     1189     1039     1020     1121     1348 
    1594     1671     1507     1232     1055     1092     1296     1543 
    1729     1811     1792     1725     1669     1634     1629     1638 
    1595     1483     1337     1182     1078     1096     1212     1324 
    1344     1306     1296     1352     1495     1706     1873     1895 
    1761     1539     1324     1183     1166     1291     1470     1597 
    1630     1575     1517     1566     1687     1776     1799     1798 
    1780     1652     1344      972      702      587      641      869 
    1158     1381     1549     1717     1849     1946     2066     2191 
    2239     2150     1937     1672     1425     1200      947      649 
     433      511      897     1359     1699     1887     1998     2106 
    2139     1966     1586     1179      988     1058     1205     1264 
    1210     1147     1209     1359     1489     1621     1764     1844 
    1877     1927     1983     2058     2185     2224     1981     1468 
     834      280        8       72      436     1036     1694     2169 
    2355     2273     2014     1729     1540     1466     1410     1277 
    1144     1138     1209     1300     1409     1522     1651     1765 
    1771     1660     1480     1247     1054     1096     1480     2020 
    2369     2357     2047     1593     1156      753      386      297 
     594     1028     1397     1630     1683     1617     1505     1362 
    1281     1368     1621     2011     2457     2728     2651     2293 
    1803     1266      746      313       27       -8      333     1026 
    1850     2594     3086     3172     2809     2066     1092      163 
    -344     -222      418     1267     2031     2569     2833     2787 
    2469     2010     1566     1233      997      766      535      432 
     560      869     1146     1263     1371     1653     2087     2496 
    2623     2359     1892     1368      822      437      427      776 
    1308     1817     2122     2141     1907     1630     1567     1723 
    1885     1908     1836     1752     1630     1393     1042      635 
     290      222      514     1000     1493     1857     2000     1975 
    1871     1674     1389     1121     1016     1216     1732     2349 
    2759     2751     2357     1807     1274      793      452      383 
     600      978     1358     1638     1791     1800     1687     1533 
    1478     1652     1957     2147     2100     1826     1395      918 
     533      425      648     1016     1324     1510     1607     1728 
    1925     2101     2149     2015     1755     1548     1506     1513 
    1381     1050      684      535      658      912     1192     1482 
    1873     2398     2825     2859     2490     1949     1470     1124 
     808      445      141       83      403     1040     1717     2197 
    2469     2558     2443     2139     1672     1198     1015     1192 
    1506     1696     1624     1335      973      652      494      557 
     781     1138     1572     1950     2273     2594     2775     2668 
    2281     1691     1028      488      194      137      295      688 
    1266     1891     2412     2668     2555     2120     1544     1075 
     880      936     1193     1547     1784     1786     1575     1278 
    1146     1354     1831     2335     2609     2513     2011     1205 
     384     -183     -363      -18      824     1815     2548     2817 
    2627     2181     1715     1331     1088     1020     1104     1305 
    1524     1618     1549     1386     1235     1208     1297     1354 
    1267     1098     1026     1200     1601     2083     2485     2647 
    2494     2083     1509      922      514      417      626     1011 
    1350     1459     1377     1297     1321     1449     1664     1926 
    2180     2342     2301     1991     1460      923      576      480 
     669     1069     1443     1664     1765     1761     1713     1740 
    1858     1977     2033     1985     1780     1447     1080      727 
     481      446      638     1058     1649     2193     2479     2465 
    2223     1898     1652     1524     1381     1135      911      868 
     976     1090     1121     1080     1054     1161     1432     1737 
    1938     2069     2197     2288     2242     1945     1422      945 
     753      830     1034     1264     1520     1768     1842     1622 
    1210      886      912     1277     1732     2076     2201     2034 
    1651     1206      815      614      726     1155     1734     2195 
    2376     2268     1956     1583     1228      943      857      985 
    1156     1235     1188     1058      985     1089     1351     1711 
    2115     2404     2407     2122     1703     1318     1062      978 
    1035     1124     1201     1304     1389     1436     1560     1763 
    1906     1971     1999     1918     1657     1282      943      772 
     831     1077     1370     1591     1730     1825     1876     1849 
    1740     1594     1448     1321     1256     1255     1266     1275 
    1282     1248     1197     1247     1443     1687     1854     1850 
    1664     1431     1313     1374     1553     1715     1775     1718 
    1579     1412     1233     1078     1012      993      999     1121 
    1372     1660     1867     1872     1760     1775     1910     1933 
    1771     1539     1339     1201     1156     1167     1167     1217 
    1360     1517     1640     1705     1661     1544     1459     1416 
    1367     1331     1348     1406     1471     1490     1456     1487 
    1641     1794     1837     1769     1610     1420     1281     1183 
    1096     1054     1090     1186     1340     1552     1730     1773 
    1713     1628     1556     1517     1466     1360     1294     1375 
    1533     1628     1583     1431     1291     1255     1314     1409 
    1487     1572     1676     1706     1606     1433     1251     1125 
    1136     1267     1431     1590     1752     1845     1787     1613 
    1439     1347     1374     1480     1574     1607     1591     1526 
    1401     1225     1074     1039     1159     1406     1637     1710 
    1653     1578     1534     1530     1556     1593     1645     1688 
    1667     1568     1458     1394     1382     1402     1412     1351 
    1259     1217     1200     1185     1201     1259     1401     1613 
    1772     1768     1594     1350     1198     1274     1586     1979 
    2249     2250     1935     1433      976      697      649      851 
    1215     1580     1854     1969     1896     1701     1480     1313 
    1247     1297     1417     1510     1548     1582     1575     1470 
    1333     1251     1255     1344     1470     1599     1710     1755 
    1675     1425     1113      986     1131     1401     1632     1733 
    1711     1660     1607     1520     1413     1331     1285     1278 
    1297     1298     1305     1395     1583     1794     1969     2061 
    1981     1756     1549     1426     1323     1229     1158     1075 
    1008     1042     1183     1341     1425     1422     1418     1502 
    1669     1838     1919     1853     1641     1385     1244     1279 
    1428     1593     1667     1637     1574     1493     1408     1379 
    1422     1470     1464     1402     1348     1358     1398     1420 
    1413     1352     1266     1250     1337     1485     1644     1794 
    1903     1899     1721     1431     1154      955      912     1088 
    1390     1656     1817     1858     1788     1647     1472     1290 
    1131     1073     1148     1264     1378     1524     1651     1675 
    1606     1494     1377     1324     1440     1710     1975     2092 
    2027     1803     1501     1201      920      724      737      951 
    1254     1533     1701     1737     1705     1649     1602     1610 
    1668     1718     1734     1688     1549     1339     1101      896 
     788      796      947     1254     1621     1945     2142     2111 
    1892     1657     1503     1444     1464     1486     1480     1509 
    1556     1487     1270     1047      982     1116     1367     1614 
    1773     1849     1852     1742     1540     1362     1301     1347 
    1424     1486     1507     1445     1306     1171     1090     1077 
    1146     1308     1553     1827     2020     2056     1925     1674 
    1433     1308     1278     1297     1339     1351     1341     1374 
    1466     1583     1678     1732     1744     1713     1645     1566 
    1501     1493     1539     1543     1410     1190     1026      996 
    1098     1275     1443     1597     1748     1809     1710     1497 
    1290     1209     1266     1363     1439     1497     1522     1505 
    1466     1408     1340     1316     1355     1443     1566     1679 
    1722     1691     1626     1525     1408     1335     1313     1293 
    1255     1229     1273     1402     1570     1705     1775     1811 
    1877     1927     1837     1613     1377     1209     1138     1147 
    1151     1131     1178     1306     1408     1398     1294     1208 
    1254     1441     1696     1952     2135     2174     2049     1787 
    1449     1151     1008     1044     1185     1325     1416     1456 
    1463     1458     1441     1401     1393     1480     1621     1717 
