Origin Time       2024/06/23 22:54:00
Lat.              35.645
Long.             140.060
Depth. (km)       72
Mag.              4.1
Station Code      TCGH11
Station Lat.      36.7084
Station Long.     139.7694
Station Height(m) 290
Record Time       2024/06/23 22:55:02
Sampling Freq(Hz) 100Hz
Duration Time(s)  120
Dir.              4
Scale Factor      7845(gal)/8223790
Max. Acc. (gal)   3.030
Last Correction   2024/06/23 22:55:02
Memo.             
[...]
   -7830    -7971    -8349    -8652    -8787    -8824    -8768    -8654 
   -8576    -8472    -8237    -8031    -8102    -8425    -8735    -8872 
   -8816    -8598    -8341    -8229    -8264    -8279    -8268    -8370 
   -8534    -8657    -8754    -8761    -8580    -8332    -8248    -8419 
   -8611    -8495    -8221    -8182    -8371    -8552    -8650    -8635 
   -8483    -8326    -8374    -8602    -8725    -8580    -8395    -8348 
   -8293    -8249    -8382    -8552    -8618    -8652    -8673    -8654 
   -8561    -8345    -8113    -8116    -8430    -8748    -8699    -8410 
   -8298    -8413    -8503    -8510    -8502    -8409    -8275    -8386 
   -8788    -8996    -8661    -8239    -8206    -8330    -8363    -8409 
   -8509    -8580    -8571    -8471    -8364    -8343    -8387    -8417 
   -8436    -8554    -8765    -8850    -8661    -8337    -8110    -8082 
   -8216    -8328    -8352    -8514    -8901    -9162    -8970    -8506 
   -8205    -8171    -8145    -8048    -8085    -8337    -8661    -8892 
   -8912    -8695    -8356    -8118    -8122    -8262    -8378    -8563 
   -8876    -8962    -8615    -8266    -8283    -8464    -8529    -8468 
   -8375    -8333    -8363    -8436    -8496    -8464    -8422    -8525 
   -8634    -8536    -8388    -8430    -8569    -8604    -8540    -8468 
   -8361    -8245    -8320    -8548    -8595    -8446    -8422    -8541 
   -8498    -8280    -8237    -8407    -8483    -8499    -8703    -8910 
   -8793    -8415    -8108    -8151    -8461    -8646    -8590    -8529 
   -8552    -8534    -8399    -8262    -8252    -8268    -8287    -8494 
   -8735    -8684    -8507    -8483    -8498    -8475    -8525    -8546 
   -8391    -8245    -8374    -8671    -8780    -8604    -8344    -8171 
   -8171    -8310    -8419    -8513    -8687    -8737    -8550    -8445 
   -8634    -8761    -8446    -8066    -8117    -8360    -8430    -8451 
   -8542    -8575    -8549    -8635    -8766    -8646    -8299    -8160 
   -8361    -8532    -8469    -8365    -8365    -8421    -8421    -8405 
   -8491    -8565    -8519    -8491    -8542    -8629    -8698    -8635 
   -8463    -8337    -8291    -8284    -8314    -8379    -8444    -8461 
   -8452    -8515    -8642    -8664    -8527    -8368    -8310    -8388 
   -8471    -8430    -8410    -8533    -8626    -8588    -8577    -8684 
   -8668    -8365    -8132    -8214    -8318    -8334    -8490    -8675 
   -8611    -8464    -8523    -8681    -8658    -8453    -8306    -8278 
   -8233    -8220    -8344    -8509    -8672    -8823    -8810    -8599 
   -8329    -8074    -7986    -8244    -8626    -8748    -8654    -8621 
   -8652    -8592    -8473    -8449    -8505    -8471    -8357    -8336 
   -8383    -8357    -8298    -8322    -8438    -8536    -8536    -8549 
   -8638    -8637    -8490    -8383    -8403    -8432    -8433    -8444 
   -8380    -8284    -8368    -8633    -8864    -8850    -8536    -8149 
   -8024    -8229    -8533    -8677    -8626    -8542    -8565    -8649 
   -8586    -8334    -8131    -8152    -8299    -8371    -8376    -8509 
   -8773    -8918    -8791    -8532    -8356    -8336    -8398    -8403 
   -8347    -8382    -8548    -8704    -8588    -8149    -7939    -8284 
   -8608    -8541    -8467    -8576    -8708    -8814    -8819    -8623 
   -8328    -8182    -8270    -8356    -8262    -8199    -8375    -8708 
   -9009    -8966    -8472    -8020    -7966    -8101    -8353    -8752 
   -8973    -8820    -8544    -8391    -8361    -8368    -8328    -8224 
   -8228    -8422    -8568    -8534    -8511    -8649    -8833    -8834 
   -8591    -8274    -8073    -8101    -8309    -8465    -8542    -8667 
   -8652    -8415    -8290    -8344    -8379    -8494    -8743    -8804 
   -8521    -8216    -8225    -8463    -8591    -8500    -8386    -8407 
   -8496    -8521    -8522    -8626    -8695    -8536    -8340    -8324 
   -8349    -8278    -8221    -8295    -8469    -8680    -8834    -8757 
   -8471    -8232    -8185    -8290    -8479    -8668    -8749    -8711 
   -8621    -8496    -8415    -8449    -8437    -8249    -8060    -8075 
   -8274    -8565    -8910    -9113    -8920    -8424    -7979    -7789 
   -7904    -8321    -8793    -8984    -8854    -8592    -8395    -8395 
   -8552    -8644    -8488    -8270    -8302    -8483    -8550    -8525 
   -8453    -8313    -8218    -8263    -8375    -8522    -8734    -8869 
   -8758    -8492    -8272    -8166    -8185    -8368    -8645    -8776 
   -8665    -8487    -8383    -8351    -8382    -8387    -8284    -8244 
   -8442    -8745    -8905    -8846    -8621    -8332    -8128    -8066 
   -8106    -8298    -8594    -8792    -8808    -8679    -8483    -8352 
   -8352    -8411    -8387    -8280    -8283    -8430    -8603    -8799 
   -8916    -8754    -8428    -8214    -8132    -8155    -8328    -8428 
   -8340    -8422    -8793    -9009    -8757    -8336    -8221    -8390 
   -8515    -8491    -8374    -8262    -8328    -8571    -8696    -8567 
   -8371    -8248    -8248    -8430    -8615    -8568    -8456    -8567 
   -8806    -8856    -8600    -8259    -8083    -8086    -8187    -8406 
   -8691    -8856    -8753    -8448    -8216    -8222    -8316    -8326 
   -8298    -8367    -8564    -8746    -8791    -8729    -8637    -8530 
   -8415    -8383    -8486    -8532    -8316    -8077    -8205    -8571 
   -8680    -8390    -8090    -8235    -8745    -9070    -8974    -8725 
   -8530    -8344    -8160    -8083    -8090    -8124    -8311    -8691 
   -8962    -8887    -8608    -8356    -8203    -8175    -8260    -8384 
   -8503    -8618    -8715    -8749    -8723    -8707    -8600    -8243 
   -7846    -7839    -8221    -8586    -8715    -8741    -8789    -8812 
   -8752    -8613    -8405    -8201    -8117    -8176    -8262    -8303 
   -8334    -8345    -8370    -8563    -8885    -9027    -8830    -8491 
   -8286    -8314    -8472    -8527    -8357    -8197    -8307    -8564 
   -8691    -8641    -8494    -8333    -8282    -8363    -8379    -8229 
   -8136    -8321    -8627    -8818    -8896    -8885    -8743    -8514 
   -8241    -8044    -8124    -8391    -8540    -8576    -8679    -8758 
   -8660    -8449    -8311    -8297    -8309    -8316    -8314    -8311 
   -8473    -8743    -8764    -8548    -8441    -8467    -8425    -8316 
   -8235    -8199    -8268    -8525    -8835    -8920    -8754    -8554 
   -8430    -8325    -8201    -8089    -8125    -8432    -8785    -8799 
   -8538    -8465    -8676    -8770    -8594    -8429    -8417    -8380 
   -8257    -8194    -8237    -8332    -8483    -8614    -8583    -8464 
   -8451    -8537    -8571    -8527    -8467    -8374    -8272    -8257 
   -8355    -8533    -8718    -8750    -8626    -8500    -8395    -8291 
   -8293    -8401    -8533    -8642    -8658    -8587    -8465    -8282 
   -8213    -8442    -8684    -8541    -8199    -8162    -8445    -8627 
   -8545    -8467    -8575    -8719    -8734    -8652    -8499    -8255 
   -8058    -8114    -8411    -8711    -8789    -8662    -8552    -8502 
   -8347    -8147    -8131    -8279    -8436    -8496    -8442    -8445 
   -8669    -8907    -8847    -8552    -8314    -8262    -8328    -8456 
   -8580    -8596    -8523    -8432    -8289    -8164    -8198    -8352 
   -8533    -8716    -8781    -8644    -8441    -8324    -8321    -8379 
   -8460    -8642    -8872    -8827    -8453    -8162    -8233    -8459 
   -8472    -8287    -8241    -8378    -8496    -8561    -8599    -8561 
   -8414    -8263    -8284    -8448    -8580    -8626    -8621    -8648 
   -8719    -8695    -8522    -8367    -8291    -8262    -8355    -8479 
   -8421    -8320    -8347    -8351    -8340    -8500    -8691    -8654 
   -8482    -8418    -8464    -8484    -8521    -8649    -8737    -8635 
   -8429    -8318    -8382    -8526    -8611    -8565    -8432    -8275 
   -8124    -8048    -8127    -8311    -8461    -8526    -8569    -8656 
   -8776    -8783    -8611    -8482    -8560    -8671    -8610    -8422 
   -8264    -8266    -8422    -8530    -8446    -8280    -8221    -8324 
   -8506    -8656    -8657    -8510    -8438    -8522    -8523    -8364 
   -8264    -8336    -8484    -8629    -8671    -8515    -8361    -8434 
   -8575    -8608    -8603    -8564    -8432    -8316    -8306    -8318 
   -8302    -8330    -8444    -8549    -8542    -8556    -8691    -8694 
   -8498    -8402    -8452    -8449    -8422    -8455    -8441    -8352 
   -8356    -8522    -8653    -8584    -8441    -8398    -8402    -8364 
   -8349    -8379    -8387    -8445    -8604    -8684    -8554    -8325 
   -8203    -8378    -8738    -8878    -8752    -8654    -8594    -8401 
   -8127    -7962    -8005    -8151    -8309    -8473    -8549    -8550 
   -8718    -9019    -9058    -8680    -8232    -8129    -8325    -8445 
   -8390    -8357    -8419    -8533    -8695    -8819    -8731    -8433 
   -8201    -8253    -8449    -8502    -8353    -8176    -8147    -8295 
   -8490    -8610    -8669    -8696    -8694    -8673    -8596    -8438 
   -8301    -8309    -8446    -8579    -8599    -8542    -8492    -8430 
   -8343    -8334    -8409    -8394    -8235    -8105    -8193    -8499 
   -8839    -8977    -8839    -8569    -8355    -8260    -8271    -8310 
   -8276    -8271    -8480    -8787    -8905    -8766    -8496    -8284 
   -8237    -8283    -8364    -8422    -8375    -8390    -8633    -8865 
   -8865    -8723    -8604    -8564    -8506    -8328    -8090    -7975 
   -8137    -8472    -8644    -8586    -8502    -8426    -8351    -8368 
   -8419    -8392    -8347    -8367    -8475    -8626    -8764    -8874 
   -8870    -8685    -8445    -8268    -8189    -8245    -8386    -8490 
   -8521    -8490    -8433    -8438    -8488    -8473    -8419    -8372 
   -8245    -8029    -7892    -8021    -8392    -8752    -8922    -8892 
   -8711    -8560    -8606    -8741    -8746    -8603    -8425    -8310 
   -8345    -8486    -8602    -8673    -8702    -8626    -8469    -8372 
   -8409    -8465    -8374    -8208    -8208    -8320    -8283    -8109 
   -8029    -8182    -8456    -8604    -8595    -8606    -8695    -8789 
   -8845    -8831    -8773    -8783    -8787    -8534    -8058    -7716 
   -7780    -8132    -8370    -8317    -8270    -8530    -9000    -9232 
   -8878    -8212    -7855    -7973    -8264    -8472    -8556    -8708 
   -9107    -9436    -9157    -8336    -7645    -7603    -8171    -8873 
   -9196    -9031    -8665    -8349    -8102    -7916    -7857    -7970 
   -8225    -8510    -8650    -8556    -8432    -8607    -9032    -9298 
   -9153    -8637    -7946    -7510    -7703    -8210    -8341    -8118 
   -8187    -8699    -9153    -9201    -8905    -8444    -8109    -8244 
   -8734    -8995    -8804    -8515    -8329    -8102    -7916    -8101 
   -8595    -8872    -8603    -8068    -7879    -8245    -8684    -8746 
   -8526    -8290    -8183    -8299    -8607    -8932    -9148    -9266 
   -9232    -8857    -8143    -7539    -7508    -7970    -8442    -8499 
   -8104    -7830    -8271    -9112    -9456    -9034    -8482    -8367 
   -8503    -8496    -8379    -8320    -8326    -8387    -8479    -8599 
   -8773    -8835    -8633    -8361    -8191    -8055    -8043    -8370 
   -8891    -9101    -8676    -7915    -7527    -7820    -8429    -8961 
   -9261    -9157    -8685    -8260    -8164    -8217    -8137    -7989 
   -8004    -8194    -8464    -8762    -8976    -9039    -9050    -9058 
   -8950    -8621    -8128    -7770    -7831    -8199    -8496    -8494 
   -8241    -8033    -8121    -8407    -8653    -8757    -8729    -8702 
   -8804    -8914    -8792    -8399    -7970    -7852    -8120    -8495 
   -8711    -8700    -8613    -8661    -8723    -8500    -8083    -7797 
   -7827    -8182    -8700    -9153    -9394    -9405    -9231    -8816 
   -8091    -7396    -7237    -7574    -7994    -8326    -8613    -8822 
   -8881    -8730    -8429    -8283    -8542    -9042    -9296    -9074 
   -8646    -8263    -8009    -8023    -8259    -8537    -8804    -8953 
   -8881    -8606    -8122    -7686    -7793    -8330    -8598    -8355 
   -8128    -8372    -8845    -9008    -8714    -8194    -7836    -8039 
   -8711    -9144    -8970    -8595    -8457    -8584    -8729    -8638 
   -8399    -8326    -8441    -8410    -8046    -7705    -7902    -8511 
   -8896    -8681    -8041    -7662    -8137    -9119    -9701    -9529 
   -8946    -8449    -8283    -8289    -8235    -8208    -8328    -8410 
   -8240    -7921    -7776    -7986    -8418    -8787    -8926    -8824 
   -8633    -8656    -8951    -9131    -8904    -8409    -7983    -7817 
   -7820    -7877    -8043    -8394    -8954    -9574    -9807    -9375 
   -8561    -7831    -7485    -7636    -7981    -7977    -7641    -7550 
   -7986    -8654    -9093    -9142    -9096    -9269    -9455    -9211 
   -8590    -8174    -8187    -8098    -7607    -7275    -7676    -8684 
   -9687   -10006    -9482    -8764    -8446    -8322    -8020    -7668 
   -7534    -7789    -8453    -9023    -8830    -8136    -7925    -8424 
   -8862    -8779    -8548    -8561    -8694    -8688    -8527    -8384 
   -8428    -8665    -8857    -8649    -8102    -7820    -8187    -8712 
   -8613    -7882    -7275    -7371    -8129    -9078    -9655    -9536 
   -8891    -8332    -8306    -8575    -8718    -8721    -8843    -9175 
   -9401    -9224    -8765    -8248    -7753    -7418    -7410    -7642 
   -7846    -7881    -7885    -8075    -8437    -8776    -8985    -9074 
   -9093    -9042    -8862    -8576    -8299    -8221    -8480    -8861 
   -9046    -8986    -8711    -8387    -8505    -9146    -9504    -8733 
   -7007    -5476    -5292    -6589    -8299    -9247    -9325    -9211 
   -9267    -9332    -9273    -9216    -9304    -9481    -9445    -8857 
   -7832    -7211    -7788    -9121    -9836    -9274    -8090    -7240 
   -7130    -7542    -7911    -7894    -7834    -8276    -9154    -9859 
   -9976    -9560    -8916    -8239    -7551    -6961    -6808    -7366 
   -8463    -9483    -9888    -9610    -8905    -8102    -7616    -7692 
   -8135    -8615    -8989    -9186    -9159    -8912    -8471    -7973 
   -7713    -7890    -8370    -8779    -8837    -8575    -8271    -8199 
   -8370    -8603    -8745    -8637    -8311    -8164    -8428    -8738 
   -8691    -8392    -8139    -8104    -8465    -9153    -9571    -9182 
   -8097    -6987    -6586    -7061    -7997    -9040    -9984   -10466 
  -10305    -9672    -8653    -7362    -6405    -6417    -7310    -8461 
   -9309    -9560    -9236    -8667    -8303    -8291    -8387    -8529 
   -8928    -9474    -9774    -9598    -8972    -8247    -7861    -7766 
   -7619    -7438    -7512    -7884    -8297    -8571    -8718    -8667 
   -8252    -7654    -7391    -7753    -8479    -9136    -9551    -9742 
   -9697    -9459    -9127    -8679    -8128    -7622    -7223    -6980 
   -6995    -7365    -8073    -8911    -9703   -10285   -10272    -9580 
   -8785    -8337    -8075    -7789    -7566    -7596    -8012    -8684 
   -9170    -9089    -8545    -8073    -8005    -8155    -8291    -8417 
   -8577    -8833    -9155    -9296    -9058    -8615    -8248    -7966 
   -7643    -7338    -7213    -7349    -7789    -8480    -9099    -9363 
   -9397    -9313    -9019    -8704    -8673    -8768    -8669    -8432 
   -8345    -8538    -8797    -8742    -8235    -7585    -7284    -7534 
   -8063    -8467    -8650    -8784    -8946    -8972    -8703    -8340 
   -8203    -8276    -8305    -8236    -8316    -8816    -9670   -10405 
  -10555    -9963    -8768    -7423    -6546    -6463    -6955    -7469 
   -7690    -7830    -8124    -8364    -8322    -8298    -8604    -9016 
   -9200    -9193    -9243    -9467    -9698    -9610    -9080    -8349 
   -7821    -7680    -7767    -7862    -7963    -8183    -8502    -8785 
   -8833    -8502    -8020    -7931    -8422    -9043    -9242    -8837 
   -8097    -7609    -7724    -8159    -8468    -8618    -8822    -9121 
   -9333    -9256    -8847    -8338    -8037    -7979    -7946    -7794 
   -7655    -7769    -8160    -8604    -8911    -9053    -9109    -9115 
   -8974    -8646    -8255    -7913    -7701    -7735    -8039    -8471 
   -8807    -8899    -8888    -9031    -9309    -9456    -9234    -8641 
   -7940    -7522    -7608    -7940    -8077    -7955    -7865    -8028 
   -8424    -8860    -9074    -8950    -8694    -8607    -8702    -8699 
   -8448    -8145    -8059    -8216    -8432    -8536    -8577    -8793 
   -9138    -9157    -8596    -7831    -7555    -7971    -8517    -8642 
   -8428    -8329    -8660    -9243    -9539    -9258    -8704    -8387 
   -8453    -8507    -8095    -7398    -7005    -7142    -7631    -8202 
   -8573    -8702    -8853    -9220    -9648    -9813    -9595    -9085 
   -8413    -7715    -7169    -7010    -7387    -8197    -9092    -9647 
   -9668    -9354    -8974    -8626    -8286    -7920    -7589    -7456 
   -7650    -8077    -8455    -8644    -8749    -8893    -9059    -9051 
   -8662    -8082    -7817    -8091    -8626    -8978    -8912    -8598 
   -8418    -8434    -8322    -7933    -7576    -7693    -8349    -9054 
   -9278    -9062    -8856    -8888    -8953    -8757    -8299    -7884 
   -7842    -8253    -8765    -8797    -8344    -8094    -8418    -8847 
   -8770    -8127    -7385    -7105    -7427    -8016    -8430    -8561 
   -8734    -9273    -9956   -10238    -9930    -9377    -8973    -8675 
   -8237    -7742    -7484    -7546    -7820    -8199    -8567    -8703 
   -8445    -7977    -7753    -7951    -8262    -8374    -8349    -8367 
   -8452    -8594    -8803    -8978    -8989    -8880    -8721    -8482 
   -8214    -8093    -8226    -8545    -8872    -9067    -9018    -8660 
   -8197    -8002    -8167    -8403    -8424    -8253    -8194    -8446 
   -8818    -8976    -8846    -8584    -8415    -8415    -8405    -8239 
   -8056    -8040    -8185    -8356    -8461    -8499    -8541    -8677 
   -8829    -8704    -8282    -7929    -7901    -8143    -8455    -8602 
   -8568    -8583    -8746    -8904    -8896    -8731    -8476    -8191 
   -8116    -8444    -8878    -8937    -8640    -8371    -8284    -8287 
   -8293    -8294    -8430    -8853    -9335    -9308    -8615    -7875 
   -7740    -8167    -8586    -8556    -8199    -7993    -8156    -8448 
   -8509    -8255    -7952    -7917    -8189    -8552    -8770    -8799 
   -8773    -8776    -8730    -8583    -8514    -8685    -8930    -8951 
   -8688    -8286    -7897    -7674    -7798    -8236    -8673    -8881 
   -8897    -8831    -8716    -8521    -8264    -8129    -8248    -8414 
   -8352    -8185    -8226    -8487    -8746    -8893    -8893    -8707 
   -8460    -8345    -8324    -8278    -8305    -8523    -8829    -8972 
   -8779    -8318    -7939    -7946    -8197    -8367    -8444    -8583 
   -8719    -8727    -8634    -8461    -8237    -8071    -8008    -7986 
   -8019    -8268    -8810    -9379    -9583    -9305    -8838    -8560 
   -8484    -8363    -8110    -7875    -7859    -8118    -8467    -8689 
   -8752    -8757    -8766    -8688    -8407    -7990    -7712    -7840 
   -8279    -8656    -8795    -8830    -8830    -8694    -8428    -8213 
   -8145    -8171    -8208    -8241    -8302    -8374    -8449    -8579 
   -8721    -8753    -8665    -8522    -8376    -8343    -8476    -8625 
   -8667    -8691    -8791    -8885    -8814    -8563    -8336    -8276 
   -8294    -8275    -8257    -8318    -8446    -8587    -8667    -8583 
   -8324    -8024    -7851    -7925    -8262    -8671    -8908    -8918 
