Origin Time       2024/06/23 22:54:00
Lat.              35.645
Long.             140.060
Depth. (km)       72
Mag.              4.1
Station Code      TCGH12
Station Lat.      36.6959
Station Long.     139.9842
Station Height(m) 162
Record Time       2024/06/23 22:55:00
Sampling Freq(Hz) 100Hz
Duration Time(s)  120
Dir.              5
Scale Factor      7845(gal)/8223790
Max. Acc. (gal)   2.225
Last Correction   2024/06/23 22:55:00
Memo.             
[...]
   23511    23512    23515    23507    23541    23593    23620    23619 
   23583    23538    23539    23569    23598    23637    23646    23591 
   23515    23456    23463    23546    23616    23653    23679    23664 
   23604    23539    23496    23502    23527    23533    23534    23561 
   23604    23637    23643    23626    23565    23488    23465    23503 
   23569    23618    23615    23592    23591    23604    23608    23593 
   23558    23504    23450    23461    23556    23634    23630    23606 
   23630    23646    23608    23553    23523    23539    23566    23575 
   23576    23568    23557    23576    23592    23558    23515    23525 
   23562    23585    23599    23618    23635    23629    23576    23503 
   23460    23465    23538    23635    23677    23656    23606    23526 
   23449    23441    23503    23585    23642    23656    23643    23637 
   23625    23562    23476    23440    23472    23546    23633    23681 
   23670    23622    23556    23515    23515    23530    23557    23579 
   23584    23585    23583    23577    23573    23589    23627    23635 
   23568    23468    23434    23506    23626    23703    23689    23619 
   23548    23503    23475    23441    23444    23492    23554    23657 
   23766    23791    23712    23577    23469    23429    23441    23515 
   23614    23660    23660    23623    23557    23506    23464    23440 
   23481    23575    23656    23691    23693    23673    23629    23566 
   23512    23499    23507    23499    23539    23638    23670    23604 
   23511    23448    23471    23566    23665    23738    23741    23638 
   23506    23438    23445    23468    23518    23603    23633    23606 
   23610    23637    23611    23511    23446    23500    23592    23639 
   23668    23683    23620    23506    23442    23468    23523    23545 
   23571    23654    23723    23715    23664    23595    23485    23357 
   23341    23494    23658    23711    23699    23664    23585    23498 
   23485    23548    23585    23560    23541    23561    23571    23550 
   23525    23517    23550    23616    23661    23658    23638    23612 
   23572    23535    23530    23541    23548    23575    23600    23561 
   23494    23468    23506    23602    23710    23770    23734    23580 
   23415    23375    23440    23538    23622    23629    23573    23548 
   23581    23606    23565    23504    23510    23588    23679    23720 
   23696    23607    23469    23369    23382    23476    23596    23706 
   23745    23699    23629    23583    23534    23442    23367    23421 
   23565    23679    23738    23753    23706    23607    23496    23453 
   23495    23527    23535    23581    23645    23647    23566    23479 
   23445    23453    23507    23618    23712    23714    23662    23631 
   23608    23585    23575    23556    23512    23454    23417    23445 
   23539    23647    23688    23626    23562    23587    23634    23627 
   23560    23487    23467    23488    23576    23724    23801    23741 
   23581    23398    23302    23326    23450    23646    23793    23800 
   23728    23635    23522    23421    23365    23394    23515    23664 
   23785    23820    23711    23534    23392    23311    23333    23454 
   23612    23733    23741    23677    23620    23560    23499    23496 
   23564    23660    23711    23683    23595    23473    23359    23349 
   23488    23672    23780    23760    23638    23515    23448    23423 
   23438    23499    23603    23700    23701    23635    23600    23581 
   23529    23487    23508    23584    23631    23591    23530    23508 
   23483    23454    23507    23634    23724    23718    23657    23600 
   23546    23484    23468    23539    23630    23664    23647    23619 
   23575    23498    23419    23402    23471    23591    23710    23765 
   23715    23607    23515    23436    23399    23458    23542    23580 
   23602    23643    23708    23733    23664    23557    23481    23446 
   23453    23500    23581    23645    23618    23534    23500    23550 
   23633    23689    23695    23668    23606    23517    23458    23454 
   23458    23469    23549    23669    23741    23719    23618    23499 
   23417    23375    23407    23525    23664    23765    23799    23778 
   23726    23615    23450    23298    23240    23313    23469    23656 
   23814    23868    23785    23608    23450    23387    23382    23423 
   23529    23652    23741    23770    23724    23604    23442    23334 
   23353    23448    23564    23693    23754    23711    23665    23656 
   23623    23557    23503    23495    23522    23548    23562    23558 
   23530    23499    23508    23579    23661    23701    23677    23599 
   23510    23444    23434    23476    23511    23544    23614    23697 
   23739    23701    23612    23548    23514    23458    23431    23494 
   23591    23662    23679    23629    23558    23512    23512    23557 
   23587    23556    23504    23487    23510    23568    23630    23657 
   23662    23639    23579    23552    23569    23575    23556    23510 
   23461    23469    23545    23653    23731    23716    23625    23530 
   23442    23390    23449    23575    23674    23741    23782    23766 
   23662    23490    23333    23248    23255    23396    23641    23869 
   23953    23851    23641    23434    23321    23353    23469    23580 
   23681    23765    23773    23687    23535    23390    23330    23395 
   23535    23662    23737    23743    23681    23572    23467    23421 
   23436    23479    23548    23625    23691    23735    23726    23631 
   23485    23371    23369    23479    23619    23711    23731    23672 
   23556    23453    23433    23476    23525    23573    23645    23710 
   23728    23688    23616    23518    23387    23323    23406    23565 
   23707    23773    23741    23656    23546    23438    23386    23407 
   23511    23676    23816    23849    23760    23585    23407    23333 
   23386    23480    23564    23638    23680    23665    23602    23527 
   23490    23492    23521    23568    23627    23681    23688    23638 
   23558    23463    23411    23469    23571    23634    23657    23662 
   23634    23561    23488    23452    23476    23564    23656    23710 
   23737    23716    23630    23523    23442    23387    23379    23446 
   23553    23649    23716    23715    23626    23507    23431    23437 
   23521    23607    23658    23700    23704    23645    23576    23529 
   23492    23471    23471    23523    23615    23668    23649    23598 
   23560    23548    23560    23602    23642    23654    23622    23530 
   23434    23427    23521    23638    23710    23712    23669    23603 
   23494    23387    23377    23456    23562    23662    23707    23692 
   23611    23463    23348    23359    23467    23603    23714    23762 
   23761    23719    23634    23544    23484    23423    23391    23446 
   23546    23641    23704    23681    23596    23517    23464    23475 
   23580    23712    23751    23677    23584    23510    23446    23407 
   23423    23510    23587    23596    23596    23625    23662    23677 
   23638    23568    23490    23442    23477    23534    23561    23592 
   23612    23618    23641    23673    23703    23679    23548    23413 
   23395    23464    23549    23623    23665    23662    23631    23583 
   23518    23502    23537    23564    23599    23635    23634    23622 
   23589    23519    23463    23442    23454    23521    23612    23673 
   23684    23652    23587    23530    23508    23514    23522    23522 
   23526    23565    23619    23634    23598    23519    23442    23449 
   23544    23654    23751    23792    23747    23656    23542    23436 
   23388    23409    23463    23530    23604    23668    23688    23652 
   23572    23495    23458    23456    23485    23565    23658    23723 
   23742    23722    23660    23546    23422    23359    23380    23467 
   23572    23645    23685    23701    23693    23660    23622    23579 
   23500    23434    23429    23456    23502    23539    23539    23534 
   23560    23634    23727    23787    23781    23687    23564    23476 
   23399    23394    23490    23575    23614    23627    23604    23565 
   23529    23518    23542    23577    23623    23670    23669    23612 
   23530    23480    23511    23577    23627    23633    23584    23552 
   23573    23598    23595    23544    23487    23492    23531    23572 
   23625    23633    23577    23526    23539    23610    23650    23642 
   23627    23591    23553    23556    23552    23504    23449    23423 
   23464    23546    23607    23630    23629    23612    23630    23687 
   23704    23631    23515    23436    23419    23464    23580    23697 
   23718    23638    23526    23444    23434    23510    23650    23785 
   23846    23807    23688    23517    23325    23172    23137    23257 
   23471    23683    23816    23847    23781    23622    23445    23364 
   23402    23535    23719    23889    23992    23939    23710    23425 
   23228    23203    23328    23495    23616    23635    23565    23490 
   23431    23407    23450    23534    23650    23791    23874    23873 
   23801    23660    23484    23350    23301    23345    23417    23446 
   23477    23527    23557    23596    23696    23818    23874    23839 
   23730    23591    23487    23456    23481    23546    23612    23637 
   23626    23583    23507    23477    23522    23600    23674    23672 
   23537    23337    23187    23172    23314    23541    23750    23859 
   23822    23652    23448    23337    23377    23526    23715    23895 
   24012    24011    23903    23753    23596    23434    23311    23314 
   23446    23585    23602    23463    23294    23252    23367    23581 
   23792    23868    23768    23579    23433    23418    23526    23673 
   23746    23718    23656    23592    23517    23436    23346    23301 
   23373    23553    23737    23851    23846    23666    23388    23175 
   23124    23287    23635    24012    24248    24235    23965    23565 
   23195    22975    22963    23155    23491    23849    24081    24074 
   23820    23473    23205    23106    23232    23572    23976    24224 
   24174    23818    23257    22690    22397    22572    23164    23926 
   24576    24927    24875    24449    23801    23078    22495    22310 
   22574    23097    23631    23996    24111    23969    23673    23410 
   23306    23390    23598    23818    23992    24050    23909    23618 
   23301    23064    22994    23130    23449    23834    24086    24113 
   23996    23799    23530    23245    23017    22932    23087    23440 
   23824    24105    24178    24012    23716    23431    23242    23197 
   23284    23417    23545    23666    23733    23734    23673    23525 
   23386    23384    23508    23711    23934    24044    23962    23734 
   23453    23225    23086    23031    23102    23333    23657    23926 
   24008    23904    23714    23512    23329    23218    23247    23421 
   23676    23936    24132    24162    23924    23472    23031    22790 
   22817    23102    23558    23997    24251    24228    23920    23504 
   23229    23206    23406    23689    23889    23953    23865    23634 
   23360    23172    23157    23328    23584    23819    23981    24005 
   23841    23562    23274    23006    22840    22933    23298    23764 
   24116    24213    24075    23880    23766    23745    23743    23692 
   23553    23379    23257    23198    23156    23105    23059    23085 
   23210    23410    23647    23850    23978    24050    24061    23994 
   23858    23660    23421    23207    23117    23195    23402    23627 
   23776    23863    23955    24048    24106    24074    23863    23465 
   23002    22685    22711    23087    23600    24016    24170    24046 
   23762    23452    23284    23402    23720    24035    24206    24104 
   23668    23031    22424    22104    22268    22901    23797    24675 
   25200    25142    24507    23533    22624    22152    22268    22886 
   23697    24316    24521    24335    23926    23511    23284    23337 
   23592    23872    24001    23870    23485    23001    22661    22612 
   22836    23291    23893    24408    24633    24511    24085    23487 
   22873    22399    22266    22603    23323    24185    24867    25124 
   24904    24358    23737    23275    23097    23186    23407    23584 
   23571    23352    23048    22806    22786    23117    23715    24322 
   24676    24560    23961    23122    22343    21888    21948    22480 
   23279    24150    24831    25131    25037    24625    24084    23588 
   23156    22867    22815    22900    22993    23031    23055    23205 
   23561    24098    24661    24999    24925    24414    23635    22896 
   22455    22427    22785    23345    23850    24113    24058    23741 
   23380    23211    23332    23673    24035    24204    24052    23585 
   22956    22419    22198    22400    23008    23880    24777    25428 
   25591    25153    24225    23130    22221    21798    21998    22642 
   23415    24088    24460    24459    24219    23909    23685    23643 
   23689    23656    23457    23085    22653    22357    22385    22805 
   23522    24347    25023    25308    25134    24526    23623    22754 
   22204    22103    22492    23233    23982    24422    24476    24232 
   23797    23315    22972    22886    23017    23214    23390    23553 
   23696    23807    23938    24101    24206    24189    24021    23699 
   23315    23022    22920    23033    23301    23546    23618    23500 
   23226    22896    22716    22870    23396    24185    25003    25593 
   25724    25257    24259    23010    21882    21238    21288    21964 
   23036    24259    25290    25748    25454    24522    23271    22102 
   21392    21386    22072    23159    24231    24949    25166    24881 
   24233    23527    23094    23055    23272    23519    23634    23549 
   23321    23112    23063    23193    23472    23866    24271    24533 
   24518    24205    23700    23190    22890    22918    23228    23647 
   23963    24046    23877    23504    23082    22847    22905    23191 
   23572    23899    24046    23947    23653    23322    23086    23028 
   23168    23461    23842    24209    24447    24466    24223    23791 
   23325    22955    22750    22739    22950    23349    23815    24189 
   24375    24339    24104    23737    23338    23026    22843    22766 
   22852    23145    23561    23961    24219    24233    23985    23585 
   23210    22979    22958    23179    23568    23965    24224    24287 
   24163    23874    23495    23178    23062    23166    23417    23684 
   23803    23708    23476    23221    23118    23305    23703    24127 
   24399    24387    24094    23629    23141    22825    22805    23039 
   23433    23845    24082    23997    23611    23133    22801    22797 
   23197    23861    24493    24818    24713    24243    23558    22889 
   22491    22437    22684    23172    23739    24182    24359    24251 
   23938    23510    23106    22902    22978    23272    23647    23969 
   24150    24154    23974    23669    23355    23130    23049    23106 
   23272    23522    23777    23915    23924    23846    23676    23484 
   23396    23445    23608    23803    23859    23700    23426    23188 
   23093    23215    23529    23915    24233    24358    24262    23978 
   23529    23029    22688    22653    22948    23431    23865    24058 
   23934    23616    23337    23257    23426    23758    24047    24133 
   23961    23595    23213    22959    22905    23098    23498    23971 
   24312    24368    24154    23757    23325    23060    23068    23317 
   23650    23824    23738    23529    23372    23356    23517    23804 
   24038    24017    23722    23286    22848    22557    22557    22906 
   23533    24221    24694    24765    24410    23781    23121    22642 
   22507    22763    23294    23858    24219    24258    24032    23699 
   23448    23430    23633    23916    24125    24128    23900    23548 
   23213    22981    22902    23026    23303    23572    23737    23787 
   23757    23688    23603    23522    23457    23403    23382    23403 
   23431    23467    23534    23634    23749    23846    23927    23985 
   23954    23809    23591    23337    23176    23218    23436    23719 
   23899    23854    23627    23340    23107    23005    23053    23252 
   23537    23812    24003    24047    23922    23681    23461    23357 
   23391    23537    23692    23769    23761    23641    23418    23232 
   23190    23315    23587    23890    24102    24166    24069    23865 
   23657    23487    23365    23338    23384    23404    23356    23259 
   23160    23166    23350    23676    23994    24143    24084    23884 
   23620    23352    23134    22998    22956    23051    23325    23730 
   24104    24283    24228    24009    23710    23396    23151    23047 
   23083    23209    23398    23606    23776    23866    23816    23647 
   23480    23386    23371    23403    23430    23453    23512    23598 
   23701    23842    23966    24013    23957    23787    23596    23507 
   23507    23537    23592    23665    23689    23612    23446    23251 
   23122    23132    23280    23519    23770    23954    24012    23928 
   23746    23503    23238    23074    23128    23382    23673    23835 
   23823    23669    23436    23244    23217    23341    23542    23789 
   23984    24023    23928    23743    23515    23337    23291    23407 
   23630    23826    23892    23822    23643    23394    23152    23035 
   23098    23307    23611    23927    24120    24097    23868    23519 
   23174    22964    22998    23301    23789    24270    24530    24486 
   24187    23711    23163    22712    22522    22639    23010    23518 
   23990    24248    24202    23963    23680    23442    23338    23379 
   23502    23641    23707    23657    23507    23295    23120    23106 
   23274    23562    23880    24075    24051    23847    23561    23296 
   23143    23157    23352    23641    23884    24004    24007    23928 
   23770    23529    23309    23222    23261    23396    23602    23781 
   23838    23778    23672    23546    23417    23310    23245    23256 
   23373    23552    23723    23854    23912    23880    23776    23599 
   23361    23140    23053    23170    23453    23819    24136    24264 
   24152    23872    23546    23295    23190    23234    23387    23575 
   23728    23804    23793    23714    23600    23506    23464    23480 
   23541    23591    23599    23565    23483    23386    23326    23325 
   23357    23390    23437    23525    23630    23726    23815    23869 
   23818    23635    23425    23305    23291    23367    23502    23646 
   23778    23858    23815    23639    23415    23276    23296    23452 
   23677    23850    23854    23685    23423    23193    23089    23160 
   23429    23797    24104    24266    24231    23974    23560    23116 
   22812    22756    22951    23314    23685    23913    23978    23923 
   23788    23646    23564    23557    23627    23754    23892    23961 
   23897    23720    23519    23368    23299    23340    23441    23510 
   23549    23599    23641    23634    23538    23409    23334    23332 
   23400    23523    23643    23724    23733    23695    23691    23749 
   23839    23873    23780    23612    23453    23332    23234    23168 
   23190    23322    23535    23789    23998    24088    24062    23935 
   23731    23525    23352    23234    23203    23278    23430    23568 
