Origin Time       2024/06/23 22:54:00
Lat.              35.645
Long.             140.060
Depth. (km)       72
Mag.              4.1
Station Code      TCGH06
Station Lat.      36.4458
Station Long.     139.9509
Station Height(m) -1577.98
Record Time       2024/06/23 22:54:53
Sampling Freq(Hz) 100Hz
Duration Time(s)  120
Dir.              2
Scale Factor      7845(gal)/6170801
Max. Acc. (gal)   0.299
Last Correction   2024/06/23 22:54:38
Memo.             
[...]
    5808     5833     5831     5823     5836     5841     5822     5808 
    5806     5818     5846     5850     5830     5828     5836     5826 
    5823     5837     5836     5827     5835     5834     5811     5791 
    5781     5801     5843     5858     5837     5816     5811     5804 
    5799     5819     5840     5846     5844     5827     5814     5817 
    5823     5829     5828     5823     5827     5824     5817     5819 
    5820     5822     5832     5849     5856     5835     5818     5821 
    5822     5830     5837     5821     5809     5812     5815     5823 
    5832     5837     5836     5826     5816     5812     5812     5816 
    5827     5832     5837     5841     5819     5801     5815     5830 
    5830     5834     5848     5844     5817     5809     5804     5801 
    5829     5853     5848     5826     5801     5799     5813     5834 
    5855     5845     5822     5830     5838     5812     5800     5831 
    5845     5821     5806     5799     5802     5838     5860     5839 
    5829     5838     5816     5794     5813     5831     5836     5842 
    5839     5829     5812     5799     5808     5821     5836     5868 
    5863     5813     5790     5799     5808     5830     5850     5835 
    5823     5839     5826     5795     5811     5834     5820     5807 
    5819     5838     5848     5851     5833     5804     5813     5831 
    5812     5811     5841     5853     5840     5808     5794     5830 
    5839     5818     5844     5862     5824     5799     5817     5850 
    5859     5829     5808     5816     5811     5799     5813     5833 
    5838     5824     5803     5812     5830     5837     5849     5836 
    5811     5801     5791     5807     5840     5845     5839     5834 
    5823     5809     5813     5837     5845     5833     5815     5797 
    5807     5841     5854     5835     5803     5788     5809     5853 
    5877     5873     5866     5829     5774     5773     5798     5813 
    5838     5843     5826     5828     5826     5801     5805     5840 
    5843     5834     5852     5852     5825     5811     5811     5820 
    5829     5813     5794     5819     5851     5835     5813     5820 
    5829     5820     5815     5836     5851     5835     5808     5790 
    5795     5821     5827     5821     5845     5855     5814     5790 
    5817     5851     5839     5798     5806     5848     5847     5820 
    5824     5858     5859     5829     5812     5790     5784     5834 
    5869     5836     5796     5790     5804     5841     5880     5876 
    5845     5822     5812     5801     5794     5814     5842     5844 
    5812     5795     5818     5833     5826     5823     5825     5828 
    5839     5855     5865     5864     5844     5799     5781     5809 
    5824     5832     5858     5848     5790     5758     5782     5813 
    5818     5833     5861     5855     5820     5811     5837     5856 
    5856     5849     5834     5806     5775     5775     5806     5841 
    5865     5861     5830     5803     5807     5822     5809     5805 
    5840     5856     5833     5809     5794     5799     5823     5842 
    5846     5833     5826     5835     5833     5808     5802     5837 
    5862     5844     5838     5853     5825     5770     5767     5817 
    5844     5843     5855     5843     5800     5800     5828     5822 
    5802     5816     5853     5858     5824     5800     5816     5847 
    5845     5821     5818     5823     5815     5808     5813     5824 
    5834     5853     5882     5874     5818     5789     5806     5822 
    5833     5837     5830     5826     5810     5800     5802     5772 
    5757     5798     5839     5861     5861     5828     5812     5839 
    5851     5820     5801     5819     5826     5815     5833     5849 
    5818     5792     5829     5880     5871     5821     5800     5807 
    5802     5810     5846     5853     5823     5815     5834     5844 
    5846     5837     5815     5805     5803     5791     5801     5825 
    5823     5828     5840     5843     5861     5853     5814     5801 
    5812     5833     5849     5826     5806     5828     5833     5812 
    5806     5797     5782     5786     5811     5854     5877     5862 
    5854     5843     5791     5760     5804     5844     5844     5837 
    5821     5805     5813     5830     5847     5858     5854     5856 
    5835     5787     5789     5814     5810     5817     5828     5827 
    5848     5863     5845     5824     5807     5785     5794     5834 
    5850     5842     5842     5824     5796     5800     5826     5840 
    5822     5807     5836     5856     5838     5825     5817     5802 
    5798     5805     5815     5825     5829     5834     5840     5840 
    5841     5832     5812     5808     5818     5837     5844     5804 
    5783     5820     5840     5814     5805     5833     5854     5858 
    5863     5844     5815     5809     5798     5804     5838     5845 
    5826     5803     5784     5803     5828     5838     5865     5872 
    5844     5831     5812     5784     5793     5838     5890     5894 
    5827     5777     5765     5762     5798     5855     5847     5806 
    5797     5794     5804     5854     5879     5873     5865     5839 
    5808     5793     5799     5819     5825     5822     5829     5827 
    5817     5826     5831     5831     5860     5862     5819     5789 
    5782     5806     5838     5839     5843     5842     5810     5801 
    5821     5817     5803     5818     5852     5860     5834     5811 
    5807     5807     5812     5832     5854     5863     5840     5803 
    5793     5802     5812     5832     5848     5845     5849     5860 
    5826     5783     5783     5794     5818     5847     5841     5834 
    5839     5834     5827     5826     5834     5834     5822     5824 
    5821     5817     5840     5840     5799     5795     5839     5849 
    5806     5790     5819     5829     5819     5831     5843     5834 
    5835     5835     5807     5811     5828     5803     5796     5827 
    5847     5853     5838     5821     5834     5823     5799     5821 
    5844     5835     5836     5846     5826     5787     5783     5814 
    5834     5835     5848     5862     5835     5794     5801     5840 
    5849     5823     5817     5836     5840     5820     5795     5794 
    5817     5829     5831     5827     5826     5836     5847     5848 
    5827     5809     5817     5823     5817     5833     5855     5823 
    5774     5782     5810     5837     5864     5838     5801     5811 
    5815     5828     5868     5874     5844     5829     5823     5780 
    5761     5821     5852     5827     5836     5856     5843     5825 
    5827     5841     5830     5799     5803     5825     5814     5808 
    5821     5822     5827     5836     5836     5828     5813     5818 
    5843     5834     5815     5837     5844     5812     5811     5830 
    5821     5822     5842     5844     5827     5825     5834     5816 
    5817     5849     5831     5811     5842     5833     5796     5799 
    5814     5832     5850     5843     5842     5854     5834     5807 
    5818     5835     5820     5798     5794     5808     5833     5841 
    5824     5821     5837     5832     5828     5838     5826     5804 
    5805     5816     5821     5830     5831     5814     5816     5841 
    5833     5802     5793     5805     5840     5885     5890     5848 
    5803     5803     5819     5810     5820     5850     5831     5800 
    5810     5829     5828     5826     5828     5822     5823     5815 
    5803     5806     5792     5800     5849     5869     5878     5886 
    5847     5805     5788     5793     5830     5853     5832     5800 
    5800     5822     5814     5800     5818     5837     5849     5867 
    5857     5818     5805     5821     5817     5792     5783     5808 
    5855     5882     5868     5850     5848     5835     5806     5780 
    5789     5841     5863     5838     5822     5824     5830     5802 
    5747     5763     5831     5852     5848     5857     5840     5798 
    5778     5783     5793     5823     5883     5900     5848     5829 
    5847     5839     5846     5865     5840     5789     5763     5794 
    5828     5820     5822     5842     5849     5853     5854     5836 
    5820     5814     5804     5826     5857     5830     5810     5833 
    5843     5851     5836     5795     5811     5841     5829     5838 
    5835     5796     5792     5800     5779     5789     5841     5863 
    5843     5821     5817     5814     5801     5819     5867     5868 
    5821     5780     5763     5794     5837     5822     5805     5825 
    5808     5770     5773     5800     5819     5837     5848     5842 
    5856     5863     5827     5844     5904     5873     5798     5792 
    5800     5772     5781     5832     5848     5819     5785     5780 
    5823     5876     5880     5845     5818     5829     5867     5902 
    5918     5900     5835     5758     5719     5752     5825     5830 
    5775     5776     5801     5802     5859     5934     5899     5809 
    5809     5875     5895     5864     5815     5759     5770     5828 
    5823     5824     5847     5791     5752     5781     5776     5778 
    5848     5891     5867     5833     5768     5696     5745     5860 
    5904     5922     5926     5856     5816     5856     5859     5814 
    5791     5790     5787     5794     5830     5885     5924     5902 
    5824     5765     5738     5734     5800     5867     5829     5816 
    5909     5939     5857     5807     5806     5760     5698     5704 
    5784     5904     5966     5892     5781     5750     5777     5788 
    5792     5830     5859     5856     5860     5875     5868     5835 
    5814     5822     5830     5826     5805     5775     5775     5777 
    5729     5711     5799     5914     5945     5895     5837     5802 
    5817     5900     5957     5936     5904     5842     5748     5758 
    5847     5843     5805     5838     5867     5874     5885     5822 
    5711     5688     5745     5802     5816     5774     5759     5815 
    5836     5783     5772     5840     5857     5811     5847     5901 
    5834     5740     5736     5798     5870     5948     5998     5951 
    5838     5776     5783     5791     5781     5772     5789     5847 
    5894     5879     5841     5820     5808     5789     5763     5785 
    5850     5864     5854     5856     5805     5780     5840     5815 
    5715     5736     5838     5870     5872     5904     5889     5817 
    5786     5787     5806     5874     5898     5848     5835     5848 
    5813     5794     5871     5940     5904     5815     5726     5696 
    5768     5853     5865     5837     5826     5819     5775     5777 
    5887     5928     5844     5788     5750     5713     5751     5782 
    5776     5804     5838     5855     5854     5803     5773     5819 
    5852     5865     5902     5914     5913     5900     5825     5776 
    5784     5783     5807     5847     5848     5845     5818     5784 
    5814     5833     5817     5829     5817     5786     5820     5850 
    5847     5862     5870     5866     5865     5844     5816     5800 
    5800     5823     5827     5800     5794     5817     5817     5776 
    5750     5784     5800     5777     5821     5922     5931     5854 
    5833     5821     5742     5733     5802     5787     5752     5847 
    5936     5872     5822     5878     5867     5777     5742     5746 
    5724     5744     5863     5930     5886     5876     5900     5897 
    5886     5855     5833     5815     5767     5776     5828     5790 
    5719     5762     5829     5838     5894     5936     5879     5847 
    5842     5796     5748     5758     5846     5892     5849     5843 
    5838     5779     5778     5810     5783     5747     5762     5824 
    5852     5818     5799     5803     5833     5891     5904     5921 
    6003     6022     5927     5817     5743     5723     5743     5739 
    5751     5808     5799     5755     5796     5833     5838     5885 
    5857     5772     5781     5822     5861     5886     5854     5862 
    5915     5920     5855     5759     5742     5768     5738     5737 
    5794     5866     5937     5907     5773     5724     5817     5870 
    5824     5813     5854     5880     5901     5913     5856     5749 
    5723     5765     5718     5664     5788     5900     5809     5752 
    5843     5870     5815     5820     5882     5912     5865     5812 
    5812     5819     5829     5841     5833     5890     5966     5893 
    5774     5779     5820     5787     5741     5751     5807     5855 
    5863     5877     5901     5865     5791     5767     5811     5845 
    5790     5753     5816     5847     5811     5791     5812     5848 
    5845     5834     5841     5810     5830     5975     6040     5920 
    5831     5833     5784     5726     5744     5750     5723     5770 
    5859     5862     5808     5811     5847     5829     5762     5758 
    5828     5854     5853     5868     5812     5717     5711     5826 
    5960     5985     5911     5832     5808     5827     5802     5755 
    5784     5795     5743     5764     5803     5777     5774     5779 
    5793     5893     5997     6001     5926     5848     5792     5721 
    5693     5741     5781     5813     5860     5900     5945     5939 
    5855     5814     5826     5780     5724     5747     5787     5775 
    5757     5782     5773     5744     5851     5989     5947     5886 
    5982     6060     5977     5839     5774     5777     5767     5737 
    5725     5755     5821     5833     5791     5814     5869     5837 
    5783     5790     5804     5783     5755     5769     5831     5897 
    5928     5873     5768     5725     5750     5802     5865     5893 
    5873     5839     5814     5791     5769     5772     5787     5794 
    5800     5819     5870     5925     5937     5926     5870     5786 
    5782     5812     5772     5750     5779     5770     5769     5855 
    5953     5986     5978     5966     5939     5883     5794     5696 
    5656     5692     5758     5808     5799     5769     5802     5851 
    5832     5794     5817     5877     5909     5878     5821     5813 
    5829     5808     5799     5817     5821     5800     5790     5812 
    5816     5824     5885     5917     5872     5811     5783     5779 
    5768     5774     5802     5817     5827     5827     5827     5870 
    5883     5855     5866     5878     5859     5849     5826     5793 
    5815     5851     5826     5761     5717     5730     5782     5817 
    5846     5888     5897     5871     5833     5766     5727     5762 
    5791     5778     5799     5867     5880     5834     5839     5899 
    5926     5906     5879     5853     5792     5722     5743     5804 
    5767     5732     5805     5887     5923     5922     5892     5861 
    5806     5754     5788     5822     5750     5707     5804     5916 
    5934     5880     5816     5803     5817     5782     5751     5793 
    5820     5808     5842     5876     5819     5744     5745     5777 
    5787     5812     5867     5935     5992     5963     5873     5867 
    5876     5791     5776     5827     5764     5710     5730     5708 
    5759     5906     5922     5852     5877     5903     5869     5856 
    5821     5783     5798     5774     5752     5806     5833     5821 
    5807     5814     5872     5861     5776     5771     5817     5862 
    5911     5934     5931     5894     5823     5769     5764     5796 
    5821     5827     5840     5873     5890     5843     5797     5771 
    5731     5744     5774     5743     5745     5805     5855     5890 
    5875     5813     5788     5798     5794     5805     5841     5862 
    5867     5875     5874     5841     5796     5772     5744     5736 
    5811     5897     5899     5857     5847     5869     5864     5831 
    5839     5875     5856     5800     5794     5827     5843     5847 
    5845     5813     5754     5745     5828     5876     5837     5835 
    5866     5845     5804     5790     5800     5836     5856     5816 
    5786     5809     5825     5808     5772     5761     5792     5797 
    5806     5856     5894     5922     5922     5893     5907     5908 
    5861     5826     5781     5723     5699     5716     5782     5877 
    5921     5879     5822     5785     5751     5755     5795     5814 
    5815     5803     5796     5824     5850     5847     5841     5856 
    5849     5795     5774     5784     5798     5865     5900     5851 
    5839     5861     5833     5800     5793     5797     5817     5847 
    5886     5907     5872     5828     5815     5826     5849     5854 
    5852     5856     5815     5765     5752     5713     5705     5776 
    5802     5813     5862     5847     5813     5849     5885     5891 
    5888     5857     5824     5817     5802     5787     5806     5832 
    5849     5850     5809     5773     5783     5790     5792     5826 
    5864     5852     5828     5837     5829     5788     5775     5798 
    5821     5830     5856     5864     5792     5743     5791     5835 
    5843     5861     5899     5917     5881     5849     5833     5782 
    5757     5816     5859     5837     5843     5888     5901     5903 
    5884     5804     5745     5763     5802     5842     5873     5865 
    5860     5885     5858     5803     5805     5816     5832     5863 
    5835     5793     5810     5812     5790     5809     5833     5813 
    5784     5769     5760     5749     5748     5789     5826     5817 
    5824     5852     5850     5827     5802     5802     5831     5825 
    5801     5816     5807     5755     5777     5879     5902     5834 
    5816     5824     5808     5815     5802     5782     5852     5935 
    5944     5916     5839     5725     5694     5753     5810     5846 
    5865     5873     5894     5900     5855     5795     5790     5852 
    5878     5814     5762     5786     5822     5841     5856     5830 
    5792     5817     5844     5822     5823     5856     5857     5826 
    5824     5859     5877     5869     5851     5813     5793     5818 
    5814     5785     5793     5793     5788     5820     5831     5824 
    5852     5857     5809     5782     5794     5814     5830     5823 
    5800     5811     5855     5870     5846     5829     5843     5851 
    5830     5833     5849     5810     5776     5793     5783     5767 
    5782     5772     5768     5803     5828     5844     5861     5858 
    5837     5818     5818     5806     5797     5838     5876     5885 
    5892     5881     5869     5860     5830     5810     5801     5787 
    5807     5836     5826     5812     5802     5785     5797     5836 
    5845     5805     5792     5835     5845     5802     5782     5791 
    5775     5770     5823     5861     5853     5852     5853     5833 
    5814     5832     5887     5907     5870     5836     5817     5807 
    5811     5801     5804     5858     5883     5841     5808     5801 
    5809     5841     5863     5847     5800     5756     5765     5802 
    5810     5803     5806     5816     5824     5815     5799     5804 
    5825     5830     5827     5840     5849     5842     5830     5818 
    5813     5810     5821     5849     5852     5863     5895     5869 
    5834     5850     5840     5810     5825     5832     5809     5827 
