Origin Time       2024/06/23 22:54:00
Lat.              35.645
Long.             140.060
Depth. (km)       72
Mag.              4.1
Station Code      TCGH19
Station Lat.      36.9060
Station Long.     140.1119
Station Height(m) 104
Record Time       2024/06/23 22:55:07
Sampling Freq(Hz) 100Hz
Duration Time(s)  120
Dir.              3
Scale Factor      2942(gal)/8224139
Max. Acc. (gal)   0.152
Last Correction   2024/06/23 22:54:50
Memo.             
[...]
   -3900    -3859    -3839    -3852    -3851    -3879    -3950    -3935 
   -3832    -3824    -3886    -3828    -3746    -3786    -3843    -3882 
   -3937    -3935    -3889    -3839    -3771    -3754    -3793    -3828 
   -3856    -3862    -3863    -3897    -3905    -3888    -3904    -3885 
   -3774    -3708    -3784    -3896    -3932    -3936    -3942    -3886 
   -3789    -3775    -3828    -3820    -3770    -3778    -3859    -3932 
   -3910    -3821    -3774    -3790    -3786    -3766    -3796    -3828 
   -3847    -3896    -3900    -3821    -3786    -3820    -3858    -3893 
   -3921    -3912    -3866    -3821    -3797    -3781    -3782    -3843 
   -3921    -3919    -3896    -3936    -3939    -3839    -3769    -3792 
   -3820    -3816    -3821    -3855    -3905    -3946    -3964    -3931 
   -3843    -3834    -3901    -3877    -3823    -3878    -3917    -3850 
   -3773    -3736    -3720    -3767    -3859    -3889    -3859    -3842 
   -3838    -3820    -3820    -3881    -3925    -3889    -3832    -3788 
   -3780    -3835    -3897    -3937    -3962    -3964    -3943    -3848 
   -3713    -3678    -3747    -3811    -3851    -3904    -3942    -3917 
   -3875    -3873    -3842    -3767    -3742    -3793    -3855    -3846 
   -3798    -3821    -3867    -3851    -3861    -3902    -3866    -3829 
   -3873    -3893    -3866    -3856    -3844    -3801    -3798    -3861 
   -3875    -3866    -3927    -3952    -3858    -3758    -3746    -3797 
   -3844    -3847    -3811    -3773    -3770    -3792    -3815    -3843 
   -3873    -3916    -3979    -3997    -3950    -3919    -3893    -3800 
   -3754    -3862    -3955    -3921    -3890    -3886    -3835    -3778 
   -3762    -3765    -3784    -3808    -3832    -3863    -3863    -3824 
   -3788    -3770    -3781    -3815    -3848    -3874    -3869    -3847 
   -3869    -3883    -3838    -3820    -3855    -3856    -3850    -3888 
   -3920    -3943    -3977    -3955    -3858    -3777    -3774    -3846 
   -3901    -3875    -3855    -3869    -3852    -3807    -3753    -3744 
   -3798    -3839    -3888    -3952    -3940    -3844    -3780    -3778 
   -3751    -3762    -3908    -4023    -3981    -3905    -3879    -3867 
   -3820    -3767    -3743    -3730    -3757    -3832    -3877    -3888 
   -3925    -3948    -3902    -3832    -3790    -3762    -3762    -3820 
   -3874    -3850    -3797    -3827    -3912    -3937    -3944    -3969 
   -3924    -3848    -3835    -3846    -3817    -3780    -3780    -3824 
   -3870    -3881    -3885    -3908    -3921    -3874    -3775    -3708 
   -3701    -3728    -3804    -3910    -3969    -3955    -3927    -3913 
   -3893    -3824    -3726    -3711    -3792    -3847    -3865    -3897 
   -3912    -3886    -3865    -3834    -3784    -3808    -3870    -3847 
   -3829    -3862    -3821    -3753    -3755    -3805    -3870    -3910 
   -3928    -3958    -3943    -3902    -3870    -3805    -3785    -3852 
   -3878    -3850    -3858    -3873    -3856    -3855    -3863    -3847 
   -3855    -3875    -3840    -3790    -3780    -3819    -3867    -3851 
   -3836    -3875    -3885    -3855    -3828    -3804    -3792    -3802 
   -3861    -3942    -3909    -3794    -3790    -3869    -3838    -3748 
   -3763    -3829    -3867    -3909    -3917    -3889    -3932    -3970 
   -3877    -3785    -3802    -3855    -3883    -3873    -3807    -3738 
   -3738    -3773    -3809    -3888    -3966    -3950    -3855    -3809 
   -3848    -3889    -3894    -3863    -3794    -3769    -3807    -3819 
   -3819    -3889    -3963    -3920    -3846    -3867    -3906    -3896 
   -3854    -3802    -3794    -3842    -3890    -3905    -3858    -3807 
   -3832    -3831    -3769    -3770    -3819    -3855    -3902    -3913 
   -3865    -3844    -3869    -3851    -3808    -3805    -3821    -3823 
   -3808    -3811    -3865    -3894    -3883    -3898    -3905    -3894 
   -3901    -3862    -3800    -3782    -3757    -3712    -3736    -3847 
   -3954    -4002    -4012    -3975    -3892    -3811    -3754    -3709 
   -3731    -3825    -3879    -3865    -3873    -3901    -3896    -3871 
   -3825    -3758    -3719    -3740    -3800    -3815    -3796    -3862 
   -3959    -3944    -3904    -3897    -3831    -3738    -3726    -3778 
   -3852    -3924    -3973    -3993    -3974    -3906    -3819    -3757 
   -3758    -3812    -3888    -3916    -3881    -3885    -3909    -3859 
   -3817    -3842    -3842    -3819    -3838    -3874    -3874    -3844 
   -3829    -3840    -3847    -3848    -3879    -3912    -3863    -3794 
   -3815    -3852    -3829    -3794    -3805    -3850    -3896    -3929 
   -3917    -3873    -3839    -3797    -3777    -3797    -3800    -3794 
   -3807    -3792    -3777    -3815    -3893    -3982    -4013    -3935 
   -3819    -3751    -3716    -3672    -3651    -3732    -3898    -4005 
   -4032    -4040    -3960    -3798    -3701    -3704    -3740    -3763 
   -3811    -3924    -4025    -4041    -3989    -3915    -3863    -3811 
   -3755    -3757    -3793    -3819    -3856    -3881    -3885    -3865 
   -3807    -3800    -3827    -3793    -3802    -3877    -3881    -3834 
   -3804    -3808    -3854    -3889    -3920    -3952    -3919    -3881 
   -3902    -3917    -3893    -3843    -3809    -3807    -3785    -3800 
   -3875    -3912    -3919    -3898    -3821    -3819    -3898    -3915 
   -3871    -3838    -3832    -3855    -3843    -3788    -3770    -3786 
   -3824    -3867    -3834    -3778    -3825    -3894    -3875    -3844 
   -3869    -3852    -3786    -3771    -3798    -3848    -3939    -3996 
   -3964    -3855    -3761    -3765    -3774    -3761    -3831    -3888 
   -3858    -3847    -3861    -3881    -3921    -3877    -3781    -3774 
   -3815    -3840    -3838    -3797    -3796    -3850    -3902    -3936 
   -3892    -3789    -3761    -3808    -3850    -3873    -3890    -3915 
   -3928    -3908    -3873    -3836    -3802    -3798    -3834    -3850 
   -3835    -3865    -3896    -3873    -3861    -3839    -3766    -3755 
   -3842    -3916    -3942    -3975    -3998    -3937    -3840    -3781 
   -3759    -3793    -3856    -3859    -3820    -3835    -3889    -3889 
   -3847    -3839    -3839    -3815    -3794    -3802    -3839    -3866 
   -3901    -3951    -3897    -3753    -3700    -3746    -3782    -3793 
   -3813    -3870    -3912    -3906    -3889    -3840    -3780    -3796 
   -3844    -3843    -3851    -3901    -3902    -3854    -3852    -3867 
   -3859    -3886    -3909    -3859    -3784    -3765    -3816    -3875 
   -3904    -3921    -3890    -3827    -3808    -3801    -3774    -3815 
   -3912    -3920    -3844    -3821    -3855    -3874    -3908    -3931 
   -3879    -3832    -3835    -3813    -3777    -3788    -3839    -3870 
   -3862    -3842    -3793    -3738    -3738    -3763    -3812    -3901 
   -3955    -3956    -3962    -3960    -3900    -3780    -3717    -3788 
   -3889    -3967    -4020    -3989    -3916    -3861    -3769    -3692 
   -3732    -3804    -3815    -3831    -3888    -3901    -3865    -3870 
   -3882    -3813    -3738    -3755    -3831    -3905    -3959    -3969 
   -3921    -3856    -3811    -3793    -3815    -3834    -3811    -3801 
   -3838    -3865    -3854    -3825    -3798    -3781    -3765    -3770 
   -3813    -3850    -3851    -3846    -3852    -3877    -3879    -3820 
   -3786    -3829    -3870    -3927    -4002    -3975    -3877    -3842 
   -3838    -3824    -3848    -3859    -3838    -3844    -3838    -3842 
   -3893    -3894    -3850    -3847    -3852    -3817    -3780    -3796 
   -3834    -3824    -3811    -3846    -3889    -3904    -3897    -3890 
   -3897    -3889    -3871    -3890    -3890    -3820    -3742    -3717 
   -3775    -3877    -3912    -3861    -3820    -3863    -3939    -3939 
   -3882    -3858    -3863    -3869    -3861    -3812    -3755    -3771 
   -3835    -3865    -3878    -3916    -3948    -3942    -3898    -3827 
   -3761    -3754    -3820    -3905    -3939    -3908    -3858    -3847 
   -3855    -3785    -3694    -3721    -3773    -3765    -3763    -3788 
   -3873    -3971    -3946    -3881    -3865    -3838    -3832    -3842 
   -3793    -3762    -3836    -3932    -3931    -3854    -3840    -3917 
   -3950    -3900    -3867    -3888    -3904    -3870    -3804    -3788 
   -3813    -3785    -3730    -3720    -3720    -3712    -3766    -3862 
   -3924    -3983    -4043    -4027    -3962    -3904    -3862    -3871 
   -3910    -3894    -3851    -3859    -3896    -3846    -3685    -3578 
   -3603    -3646    -3678    -3773    -3885    -3960    -4013    -3996 
   -3881    -3813    -3851    -3846    -3780    -3800    -3905    -3954 
   -3908    -3852    -3824    -3817    -3850    -3870    -3846    -3846 
   -3873    -3889    -3928    -3998    -4020    -3937    -3821    -3774 
   -3775    -3750    -3730    -3778    -3862    -3904    -3873    -3789 
   -3727    -3748    -3794    -3823    -3866    -3924    -4004    -4078 
   -4045    -3939    -3874    -3834    -3786    -3738    -3674    -3689 
   -3797    -3831    -3801    -3824    -3858    -3877    -3894    -3905 
   -3952    -3986    -3936    -3866    -3804    -3796    -3869    -3877 
   -3829    -3859    -3850    -3782    -3788    -3790    -3751    -3700 
   -3653    -3716    -3871    -3942    -3900    -3832    -3786    -3767 
   -3825    -3975    -4054    -3993    -3975    -4017    -3973    -3874 
   -3793    -3730    -3681    -3659    -3697    -3780    -3839    -3848 
   -3828    -3831    -3863    -3902    -3952    -3986    -3967    -3906 
   -3821    -3755    -3750    -3767    -3802    -3908    -3994    -3954 
   -3905    -3958    -3978    -3894    -3812    -3754    -3719    -3777 
   -3879    -3915    -3894    -3861    -3823    -3809    -3819    -3851 
   -3927    -3986    -3967    -3913    -3855    -3825    -3813    -3732 
   -3620    -3609    -3685    -3770    -3847    -3909    -3942    -3943 
   -3901    -3831    -3796    -3804    -3778    -3748    -3812    -3879 
   -3867    -3894    -3981    -3970    -3862    -3781    -3728    -3685 
   -3692    -3788    -3993    -4179    -4156    -3987    -3842    -3773 
   -3770    -3781    -3778    -3811    -3866    -3894    -3885    -3871 
   -3846    -3767    -3735    -3843    -3970    -4016    -4009    -3967 
   -3897    -3802    -3694    -3653    -3697    -3754    -3846    -3991 
   -4047    -3952    -3847    -3796    -3769    -3754    -3735    -3734 
   -3809    -3906    -3901    -3824    -3789    -3805    -3827    -3834 
   -3819    -3784    -3785    -3848    -3904    -3942    -3954    -3892 
   -3850    -3879    -3889    -3888    -3912    -3943    -3987    -3991 
   -3928    -3863    -3792    -3738    -3766    -3807    -3825    -3874 
   -3915    -3886    -3827    -3811    -3825    -3805    -3742    -3699 
   -3724    -3794    -3854    -3896    -3913    -3879    -3823    -3820 
   -3862    -3912    -3966    -3964    -3917    -3928    -3906    -3767 
   -3670    -3666    -3662    -3704    -3835    -3969    -4044    -4090 
   -4072    -3932    -3797    -3788    -3765    -3639    -3592    -3703 
   -3813    -3905    -4012    -4016    -3990    -4055    -4023    -3840 
   -3724    -3658    -3562    -3553    -3624    -3724    -3921    -4085 
   -4074    -3998    -3952    -3943    -3923    -3861    -3838    -3856 
   -3862    -3896    -3943    -3950    -3955    -3917    -3781    -3627 
   -3546    -3557    -3643    -3773    -3944    -4078    -4013    -3816 
   -3762    -3859    -3912    -3954    -4059    -4070    -3928    -3804 
   -3744    -3630    -3559    -3719    -3942    -4017    -4016    -3971 
   -3846    -3704    -3623    -3620    -3689    -3828    -4020    -4166 
   -4191    -4099    -3917    -3761    -3712    -3667    -3613    -3681 
   -3820    -3928    -3990    -3982    -3943    -3893    -3770    -3667 
   -3684    -3765    -3885    -4045    -4144    -4108    -3981    -3816 
   -3703    -3727    -3781    -3784    -3844    -3942    -3904    -3719 
   -3535    -3470    -3527    -3661    -3834    -3962    -3998    -3996 
   -3948    -3823    -3732    -3742    -3797    -3890    -4009    -4067 
   -4012    -3904    -3863    -3900    -3910    -3896    -3881    -3809 
   -3721    -3736    -3821    -3900    -3989    -4060    -4050    -3969 
   -3854    -3761    -3719    -3700    -3717    -3808    -3958    -4052 
   -4036    -3983    -3870    -3696    -3607    -3605    -3623    -3670 
   -3731    -3809    -3896    -3916    -3896    -3915    -3979    -4006 
   -3932    -3832    -3781    -3763    -3789    -3829    -3855    -3925 
   -4018    -4014    -3908    -3802    -3765    -3800    -3866    -3901 
   -3901    -3883    -3807    -3701    -3678    -3720    -3757    -3785 
   -3819    -3869    -3913    -3916    -3916    -3951    -4005    -4066 
   -4097    -4018    -3858    -3747    -3740    -3781    -3800    -3789 
   -3786    -3781    -3739    -3699    -3690    -3673    -3669    -3734 
   -3793    -3800    -3832    -3890    -3893    -3892    -3954    -4004 
   -4002    -3987    -3935    -3870    -3879    -3885    -3811    -3765 
   -3765    -3731    -3746    -3881    -3991    -3973    -3910    -3886 
   -3921    -3956    -3931    -3909    -3886    -3790    -3712    -3747 
   -3828    -3865    -3847    -3850    -3904    -3962    -3981    -3940 
   -3890    -3894    -3889    -3815    -3740    -3715    -3743    -3825 
   -3927    -4002    -4009    -3948    -3883    -3786    -3628    -3554 
   -3631    -3728    -3753    -3736    -3759    -3850    -3923    -3904 
   -3850    -3851    -3897    -3919    -3892    -3836    -3784    -3774 
   -3804    -3805    -3769    -3778    -3834    -3846    -3828    -3820 
   -3812    -3813    -3861    -3962    -4045    -4105    -4218    -4274 
   -4148    -3982    -3854    -3724    -3676    -3715    -3726    -3689 
   -3639    -3584    -3574    -3646    -3743    -3809    -3835    -3870 
   -3950    -3985    -3940    -3900    -3861    -3815    -3813    -3809 
   -3767    -3754    -3832    -3963    -4037    -4016    -3959    -3931 
   -3958    -4004    -4004    -3959    -3909    -3840    -3717    -3613 
   -3657    -3793    -3871    -3912    -3963    -3951    -3865    -3798 
   -3774    -3801    -3869    -3894    -3851    -3786    -3704    -3635 
   -3662    -3809    -3959    -3979    -3917    -3886    -3859    -3808 
   -3794    -3848    -3925    -3960    -3939    -3915    -3858    -3767 
   -3766    -3815    -3813    -3850    -3904    -3878    -3859    -3859 
   -3817    -3792    -3753    -3672    -3661    -3713    -3751    -3805 
   -3870    -3888    -3863    -3846    -3846    -3840    -3844    -3904 
   -3993    -4017    -3964    -3917    -3898    -3896    -3894    -3855 
   -3823    -3866    -3923    -3927    -3904    -3862    -3798    -3774 
   -3843    -3940    -3942    -3848    -3778    -3762    -3773    -3829 
   -3904    -3948    -3973    -3942    -3835    -3724    -3672    -3673 
   -3685    -3699    -3770    -3896    -3971    -3943    -3890    -3886 
   -3902    -3909    -3937    -3973    -3937    -3877    -3885    -3923 
   -3947    -3954    -3901    -3840    -3817    -3762    -3723    -3754 
   -3708    -3589    -3603    -3697    -3707    -3690    -3763    -3852 
   -3834    -3789    -3850    -3947    -3967    -3937    -3892    -3839 
   -3844    -3937    -4028    -4025    -3979    -3944    -3902    -3883 
   -3889    -3851    -3824    -3858    -3878    -3838    -3761    -3719 
   -3743    -3793    -3850    -3894    -3881    -3835    -3813    -3817 
   -3796    -3720    -3686    -3777    -3905    -3981    -4018    -4017 
   -3952    -3842    -3739    -3685    -3685    -3716    -3771    -3832 
   -3861    -3858    -3839    -3819    -3831    -3847    -3831    -3869 
   -4016    -4124    -4082    -3996    -3942    -3870    -3819    -3832 
   -3867    -3896    -3905    -3863    -3796    -3740    -3709    -3699 
   -3720    -3789    -3843    -3843    -3850    -3877    -3892    -3896 
   -3900    -3935    -3970    -3910    -3832    -3834    -3821    -3781 
   -3782    -3781    -3766    -3789    -3819    -3827    -3823    -3836 
   -3879    -3913    -3928    -3920    -3893    -3902    -3936    -3927 
   -3893    -3861    -3817    -3778    -3784    -3829    -3861    -3869 
   -3846    -3746    -3627    -3588    -3628    -3693    -3736    -3771 
   -3813    -3820    -3835    -3904    -3951    -3954    -3951    -3946 
   -3973    -3982    -3925    -3905    -3932    -3946    -3964    -3969 
   -3963    -3974    -3943    -3866    -3775    -3677    -3640    -3690 
   -3734    -3761    -3836    -3902    -3896    -3870    -3877    -3902 
   -3879    -3829    -3821    -3839    -3866    -3882    -3871    -3874 
   -3874    -3842    -3821    -3789    -3719    -3686    -3727    -3771 
   -3782    -3823    -3901    -3912    -3881    -3909    -3947    -3952 
   -3935    -3902    -3881    -3873    -3881    -3898    -3917    -3927 
   -3881    -3811    -3780    -3765    -3740    -3743    -3801    -3892 
   -3956    -3971    -3955    -3905    -3828    -3769    -3774    -3817 
   -3856    -3893    -3894    -3838    -3785    -3740    -3686    -3704 
   -3773    -3763    -3715    -3744    -3839    -3927    -3985    -4010 
   -4004    -3998    -3983    -3935    -3871    -3848    -3908    -3985 
   -3966    -3898    -3869    -3843    -3800    -3758    -3726    -3727 
   -3753    -3769    -3790    -3827    -3852    -3875    -3883    -3847 
   -3829    -3835    -3824    -3862    -3936    -3954    -3936    -3921 
   -3889    -3877    -3878    -3823    -3721    -3632    -3615    -3700 
   -3815    -3881    -3927    -3940    -3901    -3855    -3796    -3740 
   -3759    -3813    -3840    -3870    -3882    -3859    -3852    -3846 
   -3821    -3838    -3901    -3933    -3874    -3794    -3812    -3898 
   -3977    -4047    -4058    -3982    -3920    -3910    -3879    -3825 
   -3805    -3824    -3809    -3717    -3632    -3618    -3661    -3771 
   -3875    -3859    -3790    -3785    -3798    -3780    -3769    -3797 
   -3863    -3916    -3902    -3874    -3878    -3885    -3893    -3919 
   -3928    -3927    -3933    -3919    -3904    -3913    -3909    -3877 
   -3811    -3738    -3750    -3832    -3873    -3863    -3862    -3840 
   -3780    -3770    -3825    -3871    -3931    -3979    -3932    -3870 
   -3886    -3908    -3874    -3854    -3871    -3865    -3844    -3858 
   -3856    -3798    -3747    -3738    -3721    -3717    -3775    -3827 
   -3831    -3842    -3859    -3881    -3913    -3919    -3900    -3892 
   -3902    -3908    -3869    -3832    -3856    -3890    -3881    -3846 
   -3812    -3797    -3793    -3780    -3773    -3773    -3731    -3667 
   -3670    -3717    -3758    -3836    -3929    -3924    -3875    -3909 
   -3960    -3940    -3888    -3867    -3866    -3852    -3850    -3856 
   -3858    -3888    -3932    -3951    -3978    -3994    -3955    -3904 
   -3877    -3851    -3839    -3854    -3858    -3862    -3881    -3877 
   -3851    -3819    -3784    -3744    -3700    -3730    -3836    -3867 
   -3835    -3839    -3811    -3777    -3813    -3828    -3824    -3896 
   -3974    -3954    -3877    -3817    -3796    -3797    -3766    -3704 
   -3712    -3796    -3873    -3925    -3966    -3974    -3940    -3896 
   -3850    -3828    -3871    -3932    -3937    -3897    -3846    -3792 
   -3742    -3742    -3808    -3855    -3850    -3847    -3847    -3825 
   -3812    -3812    -3832    -3886    -3902    -3856    -3840    -3867 
   -3892    -3929    -3946    -3890    -3859    -3912    -3912    -3838 
   -3824    -3848    -3811    -3770    -3797    -3823    -3771    -3715 
