Origin Time       2024/06/23 22:54:00
Lat.              35.645
Long.             140.060
Depth. (km)       72
Mag.              4.1
Station Code      TCGH08
Station Lat.      36.8828
Station Long.     139.6459
Station Height(m) 499
Record Time       2024/06/23 22:55:07
Sampling Freq(Hz) 100Hz
Duration Time(s)  120
Dir.              2
Scale Factor      2942(gal)/8224139
Max. Acc. (gal)   0.171
Last Correction   2024/06/23 22:55:07
Memo.             
[...]
   88597    88557    88523    88558    88622    88649    88628    88593 
   88565    88541    88553    88618    88643    88603    88561    88541 
   88543    88547    88531    88542    88572    88570    88565    88566 
   88568    88607    88663    88684    88669    88646    88619    88588 
   88572    88568    88560    88562    88572    88577    88574    88531 
   88481    88526    88605    88600    88572    88578    88588    88601 
   88619    88631    88639    88631    88604    88576    88551    88535 
   88516    88501    88511    88553    88600    88635    88650    88649 
   88669    88693    88636    88545    88515    88519    88519    88523 
   88535    88560    88596    88614    88609    88615    88639    88650 
   88631    88599    88553    88507    88495    88528    88578    88612 
   88603    88580    88591    88593    88574    88595    88614    88626 
   88651    88626    88568    88542    88546    88554    88555    88576 
   88603    88595    88581    88588    88597    88599    88589    88558 
   88542    88568    88562    88533    88564    88599    88562    88543 
   88591    88627    88627    88614    88578    88534    88539    88592 
   88628    88634    88604    88562    88551    88565    88569    88565 
   88589    88614    88584    88550    88570    88605    88604    88599 
   88628    88631    88573    88528    88528    88543    88551    88574 
   88622    88614    88562    88574    88604    88591    88595    88622 
   88604    88569    88565    88569    88568    88578    88591    88584 
   88576    88600    88628    88599    88542    88527    88541    88564 
   88601    88627    88626    88623    88624    88616    88585    88541 
   88518    88528    88557    88593    88619    88597    88550    88542 
   88582    88622    88622    88608    88607    88593    88572    88582 
   88595    88569    88551    88565    88568    88573    88607    88609 
   88585    88588    88609    88614    88566    88507    88518    88558 
   88573    88588    88604    88608    88608    88607    88596    88574 
   88569    88587    88597    88565    88534    88558    88570    88557 
   88588    88630    88627    88608    88589    88581    88589    88580 
   88576    88615    88639    88611    88574    88551    88531    88506 
   88516    88566    88603    88604    88589    88591    88620    88638 
   88632    88612    88588    88569    88543    88541    88574    88584 
   88554    88546    88574    88578    88554    88584    88634    88623 
   88616    88628    88600    88566    88562    88566    88562    88561 
   88587    88620    88626    88608    88568    88538    88542    88547 
   88557    88587    88603    88581    88570    88605    88623    88592 
   88568    88568    88565    88562    88568    88593    88634    88632 
   88605    88592    88560    88526    88539    88585    88605    88588 
   88589    88604    88591    88570    88566    88578    88603    88608 
   88597    88600    88604    88593    88596    88622    88619    88577 
   88554    88554    88545    88551    88588    88615    88603    88569 
   88562    88578    88577    88565    88555    88553    88584    88627 
   88627    88592    88566    88565    88569    88581    88591    88578 
   88578    88603    88616    88609    88580    88543    88557    88600 
   88611    88604    88615    88616    88587    88561    88564    88558 
   88538    88547    88581    88595    88585    88572    88562    88561 
   88573    88596    88622    88632    88624    88605    88587    88572 
   88580    88615    88628    88591    88542    88528    88531    88534 
   88557    88596    88620    88612    88601    88605    88593    88570 
   88580    88601    88600    88585    88568    88554    88549    88553 
   88569    88562    88553    88587    88638    88666    88659    88624 
   88587    88558    88547    88543    88524    88512    88541    88581 
   88605    88636    88661    88643    88605    88574    88561    88560 
   88553    88543    88547    88578    88603    88576    88538    88539 
   88564    88609    88657    88651    88619    88605    88596    88577 
   88551    88542    88562    88582    88584    88582    88573    88557 
   88554    88582    88611    88615    88620    88611    88576    88569 
   88581    88570    88562    88578    88577    88550    88543    88584 
   88608    88592    88603    88645    88659    88630    88574    88538 
   88539    88551    88578    88611    88609    88589    88601    88609 
   88569    88539    88561    88587    88582    88574    88596    88607 
   88580    88587    88622    88603    88560    88565    88597    88589 
   88555    88545    88550    88547    88531    88531    88576    88622 
   88639    88630    88599    88584    88593    88596    88600    88605 
   88589    88568    88560    88546    88534    88551    88588    88604 
   88585    88581    88597    88576    88538    88535    88555    88572 
   88584    88582    88578    88591    88600    88611    88628    88623 
   88603    88591    88584    88591    88593    88573    88569    88595 
   88612    88597    88562    88539    88553    88599    88636    88630 
   88603    88584    88578    88587    88577    88542    88534    88562 
   88572    88550    88539    88560    88595    88612    88605    88605 
   88614    88608    88588    88554    88527    88539    88589    88635 
   88639    88612    88570    88537    88537    88555    88568    88564 
   88558    88578    88601    88600    88600    88623    88635    88615 
   88614    88650    88659    88614    88566    88539    88519    88512 
   88518    88518    88534    88572    88599    88624    88653    88649 
   88622    88608    88597    88577    88551    88523    88527    88557 
   88569    88580    88604    88619    88609    88584    88580    88599 
   88596    88585    88581    88558    88541    88560    88574    88558 
   88534    88531    88566    88603    88597    88599    88624    88619 
   88603    88603    88601    88599    88596    88593    88603    88609 
   88588    88550    88537    88550    88574    88589    88576    88558 
   88557    88566    88596    88627    88619    88592    88585    88593 
   88588    88572    88566    88565    88565    88565    88570    88591 
   88600    88593    88605    88622    88614    88612    88607    88587 
   88569    88554    88550    88568    88573    88568    88576    88574 
   88557    88558    88577    88589    88592    88593    88597    88595 
   88595    88615    88635    88628    88601    88568    88545    88555 
   88576    88570    88550    88538    88551    88587    88591    88592 
   88616    88612    88585    88591    88605    88599    88587    88577 
   88557    88543    88557    88588    88604    88589    88578    88593 
   88599    88584    88578    88587    88591    88599    88612    88601 
   88581    88584    88588    88582    88595    88591    88551    88530 
   88550    88581    88603    88607    88591    88584    88612    88628 
   88611    88597    88603    88599    88574    88568    88576    88561 
   88530    88504    88514    88564    88600    88608    88623    88626 
   88603    88592    88612    88635    88623    88593    88578    88562 
   88531    88495    88484    88527    88577    88595    88600    88600 
   88591    88581    88578    88599    88634    88638    88611    88591 
   88582    88569    88555    88546    88542    88549    88577    88600 
   88604    88603    88599    88592    88599    88616    88631    88628 
   88607    88582    88560    88543    88549    88560    88572    88589 
   88603    88608    88609    88599    88578    88568    88570    88564 
   88553    88553    88547    88538    88550    88569    88570    88580 
   88609    88638    88654    88635    88609    88609    88591    88546 
   88523    88526    88554    88592    88608    88614    88609    88596 
   88599    88611    88601    88580    88555    88535    88538    88546 
   88543    88570    88623    88653    88655    88651    88638    88631 
   88622    88572    88528    88534    88541    88543    88549    88538 
   88533    88555    88581    88596    88609    88614    88588    88550 
   88553    88593    88616    88604    88580    88570    88577    88569 
   88546    88558    88592    88603    88615    88620    88588    88565 
   88581    88589    88580    88587    88599    88595    88591    88589 
   88580    88565    88560    88569    88578    88569    88569    88595 
   88620    88624    88609    88585    88560    88550    88558    88560 
   88558    88572    88576    88577    88593    88593    88578    88574 
   88578    88581    88584    88585    88587    88597    88608    88601 
   88585    88588    88618    88661    88670    88623    88570    88546 
   88534    88533    88545    88558    88564    88566    88570    88554 
   88549    88588    88616    88605    88603    88616    88623    88622 
   88611    88595    88578    88560    88550    88566    88581    88551 
   88516    88538    88581    88588    88584    88580    88570    88591 
   88627    88622    88601    88593    88588    88593    88592    88569 
   88547    88551    88569    88585    88597    88592    88592    88623 
   88634    88605    88587    88578    88564    88558    88557    88538 
   88524    88537    88560    88573    88582    88601    88623    88635 
   88638    88619    88592    88578    88572    88565    88572    88591 
   88595    88582    88582    88608    88632    88628    88614    88589 
   88560    88557    88576    88565    88527    88520    88545    88569 
   88591    88595    88578    88565    88562    88577    88600    88609 
   88618    88618    88611    88622    88624    88597    88584    88582 
   88578    88581    88585    88577    88566    88557    88545    88543 
   88554    88566    88580    88585    88573    88565    88577    88588 
   88591    88608    88643    88657    88645    88630    88631    88635 
   88627    88612    88588    88558    88558    88572    88557    88519 
   88501    88516    88531    88523    88516    88534    88557    88570 
   88580    88581    88584    88599    88605    88599    88595    88592 
   88584    88584    88591    88591    88596    88596    88565    88539 
   88547    88570    88585    88593    88604    88623    88642    88642 
   88612    88558    88507    88476    88487    88538    88581    88596 
   88597    88596    88582    88560    88573    88623    88639    88624 
   88614    88585    88553    88565    88609    88649    88670    88690 
   88715    88688    88622    88597    88607    88605    88607    88601 
   88568    88522    88480    88470    88507    88547    88566    88582 
   88599    88623    88647    88646    88612    88543    88480    88470 
   88492    88514    88531    88537    88539    88534    88516    88508 
   88520    88547    88595    88620    88605    88643    88750    88793 
   88735    88651    88593    88562    88538    88524    88533    88549 
   88581    88615    88619    88604    88591    88592    88600    88600 
   88604    88619    88630    88626    88603    88561    88485    88377 
   88326    88391    88518    88608    88630    88641    88680    88677 
   88608    88549    88550    88588    88608    88609    88632    88676 
   88724    88762    88782    88794    88788    88743    88668    88581 
   88481    88362    88268    88238    88268    88337    88418    88479 
   88528    88560    88573    88604    88639    88672    88727    88782 
   88800    88786    88739    88686    88645    88566    88473    88465 
   88527    88572    88573    88558    88538    88512    88495    88501 
   88534    88568    88577    88562    88534    88527    88572    88626 
   88651    88635    88587    88551    88553    88588    88665    88746 
   88767    88717    88645    88620    88616    88561    88531    88565 
   88576    88569    88596    88605    88566    88553    88615    88700 
   88724    88662    88561    88485    88441    88402    88398    88438 
   88485    88524    88564    88596    88592    88564    88566    88589 
   88607    88649    88695    88684    88601    88510    88489    88511 
   88520    88549    88624    88676    88647    88599    88605    88622 
   88578    88514    88503    88565    88642    88646    88589    88577 
   88628    88649    88615    88566    88554    88607    88632    88569 
   88480    88426    88415    88464    88564    88665    88697    88663 
   88623    88592    88576    88577    88546    88518    88570    88641 
   88654    88635    88591    88576    88645    88697    88662    88612 
   88562    88519    88528    88533    88499    88514    88561    88581 
   88596    88599    88572    88565    88574    88597    88657    88697 
   88668    88605    88565    88569    88597    88627    88662    88703 
   88723    88701    88642    88596    88595    88605    88584    88493 
   88381    88360    88431    88516    88561    88558    88550    88549 
   88541    88534    88553    88599    88639    88639    88609    88591 
   88597    88601    88558    88495    88491    88572    88666    88678 
   88607    88546    88519    88485    88496    88600    88715    88732 
   88650    88551    88514    88568    88673    88738    88739    88707 
   88655    88597    88542    88497    88443    88366    88303    88306 
   88389    88520    88665    88807    88885    88878    88846    88812 
   88731    88615    88492    88381    88331    88342    88377    88460 
   88596    88754    88888    88924    88834    88682    88562    88457 
   88344    88295    88344    88425    88489    88516    88481    88434 
   88437    88489    88600    88762    88908    89006    89013    88892 
   88730    88609    88512    88400    88265    88153    88105    88109 
   88163    88299    88497    88659    88759    88863    88962    89016 
   89029    88979    88878    88798    88753    88689    88557    88383 
   88283    88277    88294    88339    88456    88593    88701    88780 
   88811    88743    88569    88418    88403    88460    88491    88499 
   88539    88659    88790    88834    88815    88801    88801    88770 
   88689    88587    88477    88372    88318    88295    88268    88283 
   88354    88400    88393    88403    88435    88449    88449    88484 
   88562    88672    88821    88969    89006    88913    88781    88647 
   88527    88469    88503    88608    88696    88716    88726    88720 
   88662    88569    88466    88404    88453    88588    88693    88701 
   88632    88569    88570    88585    88572    88566    88566    88560 
   88566    88562    88499    88395    88331    88333    88342    88352 
   88423    88555    88663    88696    88697    88720    88732    88716 
   88707    88700    88689    88700    88715    88692    88650    88639 
   88650    88614    88524    88453    88445    88530    88676    88790 
   88836    88797    88659    88462    88290    88186    88169    88249 
   88346    88406    88503    88634    88704    88732    88794    88879 
   88927    88904    88821    88693    88560    88487    88465    88443 
   88419    88383    88338    88348    88408    88484    88599    88730 
   88816    88838    88755    88616    88545    88534    88516    88510 
   88520    88499    88474    88523    88601    88665    88699    88663 
   88609    88604    88649    88717    88744    88701    88646    88593 
   88523    88454    88426    88423    88410    88419    88484    88541 
   88569    88649    88740    88746    88684    88624    88584    88549 
   88519    88520    88560    88605    88634    88647    88639    88626 
   88643    88670    88661    88618    88568    88538    88526    88541 
   88597    88647    88653    88635    88604    88530    88430    88384 
   88414    88454    88470    88488    88527    88569    88603    88636 
   88655    88678    88726    88723    88631    88541    88503    88514 
   88572    88630    88636    88608    88596    88608    88592    88561 
   88578    88607    88581    88543    88526    88495    88472    88483 
   88487    88500    88576    88662    88705    88735    88747    88719 
   88688    88688    88701    88685    88614    88499    88380    88322 
   88365    88472    88564    88599    88607    88631    88681    88719 
   88704    88643    88596    88576    88569    88601    88646    88647 
   88623    88616    88622    88620    88619    88609    88561    88495 
   88464    88474    88510    88554    88573    88568    88565    88549 
   88526    88526    88549    88566    88581    88627    88696    88722 
   88681    88632    88615    88603    88589    88604    88614    88568 
   88499    88462    88439    88418    88441    88508    88577    88630 
   88662    88685    88716    88722    88681    88622    88566    88523 
   88515    88558    88596    88566    88519    88523    88554    88570 
   88595    88636    88658    88659    88665    88659    88612    88534 
   88477    88487    88545    88607    88650    88665    88669    88686 
   88690    88651    88596    88553    88535    88553    88584    88587 
   88560    88530    88489    88420    88361    88356    88398    88484 
   88596    88682    88712    88692    88643    88593    88543    88496 
   88474    88483    88515    88557    88603    88658    88701    88709 
   88696    88686    88684    88678    88653    88636    88662    88689 
   88661    88591    88516    88462    88439    88468    88549    88616 
   88634    88616    88568    88508    88477    88483    88512    88539 
   88574    88627    88638    88589    88547    88549    88592    88674 
   88730    88713    88668    88609    88543    88507    88485    88462 
   88466    88506    88557    88589    88576    88543    88533    88554 
   88578    88587    88596    88599    88580    88597    88668    88728 
   88746    88738    88701    88651    88630    88655    88711    88736 
   88695    88618    88557    88535    88535    88522    88491    88458 
   88438    88453    88473    88474    88495    88542    88591    88628 
   88631    88609    88592    88569    88551    88553    88553    88542 
   88542    88549    88555    88577    88612    88631    88624    88592 
   88545    88506    88497    88515    88535    88562    88604    88643 
   88666    88673    88682    88699    88695    88666    88626    88596 
   88609    88624    88601    88564    88533    88534    88572    88591 
   88578    88580    88605    88626    88614    88581    88551    88526 
   88507    88510    88524    88523    88520    88535    88515    88470 
   88474    88522    88561    88595    88635    88646    88628    88624 
   88622    88611    88612    88619    88607    88587    88591    88619 
   88635    88622    88599    88589    88593    88614    88632    88619 
   88592    88573    88570    88576    88570    88549    88516    88506 
   88539    88566    88550    88535    88542    88550    88574    88604 
   88593    88555    88555    88597    88616    88607    88605    88599 
   88595    88638    88677    88661    88630    88615    88605    88588 
   88558    88542    88555    88564    88534    88500    88491    88496 
   88508    88524    88523    88512    88528    88572    88628    88689 
   88720    88689    88632    88603    88628    88684    88713    88703 
   88655    88587    88528    88487    88479    88518    88560    88569 
   88565    88566    88591    88634    88649    88614    88558    88506 
   88473    88484    88518    88550    88592    88632    88646    88635 
   88632    88650    88654    88642    88641    88642    88634    88612 
   88585    88570    88564    88562    88551    88515    88484    88514 
