Origin Time       2024/06/23 22:54:00
Lat.              35.645
Long.             140.060
Depth. (km)       72
Mag.              4.1
Station Code      TCGH16
Station Lat.      36.5480
Station Long.     140.0751
Station Height(m) 105
Record Time       2024/06/23 22:54:48
Sampling Freq(Hz) 100Hz
Duration Time(s)  120
Dir.              4
Scale Factor      7845(gal)/8223790
Max. Acc. (gal)   2.844
Last Correction   2024/06/23 22:54:48
Memo.             
[...]
    4284     4217     4116     4082     4153     4230     4279     4299 
    4216     4081     4072     4198     4266     4230     4212     4199 
    4171     4187     4228     4268     4337     4361     4266     4120 
    4056     4071     4085     4148     4270     4313     4248     4193 
    4202     4209     4185     4220     4299     4286     4197     4132 
    4136     4237     4348     4332     4195     4062     4010     4014 
    4058     4203     4394     4446     4353     4236     4159     4132 
    4121     4160     4328     4480     4391     4106     3888     3896 
    4036     4144     4216     4280     4294     4256     4220     4244 
    4344     4436     4464     4406     4237     4037     3929     3954 
    4077     4185     4174     4075     4004     4045     4185     4333 
    4455     4540     4545     4433     4257     4126     4094     4174 
    4283     4237     4033     3858     3805     3896     4085     4247 
    4361     4448     4438     4336     4270     4315     4388     4372 
    4317     4286     4194     4004     3873     3933     4064     4063 
    3993     4052     4221     4357     4415     4426     4448     4467 
    4402     4280     4203     4160     4075     3991     4037     4137 
    4082     3937     3923     4050     4229     4410     4529     4552 
    4507     4438     4371     4318     4264     4132     3927     3780 
    3759     3854     4021     4187     4301     4320     4270     4268 
    4361     4484     4553     4510     4384     4268     4202     4164 
    4089     3964     3869     3874     3944     3971     3960     4055 
    4298     4510     4523     4407     4336     4359     4437     4514 
    4513     4382     4179     4021     3925     3871     3886     3951 
    4051     4140     4083     3931     3929     4201     4585     4781 
    4691     4491     4332     4263     4241     4186     4133     4097 
    4056     4040     4010     3908     3823     3900     4143     4351 
    4380     4353     4391     4438     4410     4295     4245     4382 
    4521     4437     4172     3931     3866     3924     3973     4000 
    4056     4144     4186     4162     4190     4315     4450     4544 
    4596     4541     4317     4067     4017     4149     4221     4066 
    3805     3712     3883     4183     4406     4422     4297     4186 
    4163     4247     4430     4621     4654     4482     4272     4135 
    3985     3834     3770     3794     3893     4070     4263     4379 
    4417     4433     4437     4419     4395     4363     4287     4156 
    4047     4025     4068     4140     4171     4091     3967     3931 
    4071     4345     4527     4491     4368     4283     4274     4314 
    4317     4257     4170     4075     4023     4002     3964     3964 
    4068     4244     4419     4492     4374     4163     4110     4255 
    4368     4313     4203     4166     4148     4087     4098     4214 
    4267     4214     4197     4252     4282     4232     4149     4102 
    4128     4210     4256     4212     4167     4162     4112     4079 
    4218     4445     4527     4418     4252     4124     4068     4104 
    4159     4171     4153     4074     3974     4037     4232     4321 
    4280     4279     4345     4337     4199     4081     4094     4229 
    4392     4429     4353     4311     4278     4194     4109     4033 
    3956     3897     3902     4029     4214     4340     4440     4513 
    4467     4320     4174     4139     4274     4433     4413     4197 
    3932     3811     3878     3997     4106     4233     4315     4330 
    4333     4303     4230     4210     4272     4353     4382     4321 
    4207     4099     4041     4072     4156     4228     4249     4160 
    4016     3950     3985     4125     4338     4457     4410     4283 
    4249     4403     4526     4409     4198     4081     4072     4112 
    4104     4029     3997     4086     4203     4183     4082     4093 
    4226     4371     4444     4388     4306     4334     4391     4348 
    4202     4031     3942     3964     4045     4106     4094     4110 
    4259     4440     4473     4310     4131     4139     4268     4317 
    4213     4083     4126     4325     4407     4245     4023     3981 
    4108     4216     4218     4171     4137     4162     4232     4279 
    4251     4160     4105     4166     4274     4303     4257     4229 
    4272     4372     4469     4476     4364     4197     4052     3971 
    3986     4074     4156     4183     4135     4023     3915     3923 
    4109     4355     4452     4365     4270     4330     4510     4584 
    4422     4133     3916     3844     3900     4036     4149     4175 
    4190     4249     4317     4365     4371     4329     4287     4270 
    4210     4085     3997     4025     4137     4278     4374     4365 
    4271     4187     4183     4239     4302     4351     4380     4361 
    4263     4077     3834     3662     3701     3890     4070     4218 
    4371     4496     4571     4534     4355     4175     4151     4272 
    4402     4394     4240     4102     4109     4198     4216     4132 
    4066     4070     4059     3977     3875     3877     4090     4436 
    4658     4637     4483     4365     4348     4368     4317     4166 
    4008     3936     3923     3916     3919     3963     4099     4310 
    4461     4480     4441     4407     4348     4261     4194     4121 
    4017     3952     3982     4074     4190     4320     4430     4515 
    4552     4477     4340     4236     4148     4018     3867     3755 
    3742     3856     4058     4286     4482     4602     4642     4635 
    4611     4546     4355     4060     3815     3699     3707     3790 
    3867     3909     3970     4072     4207     4361     4519     4692 
    4819     4762     4519     4309     4275     4291     4175     3940 
    3766     3728     3750     3805     3912     4051     4206     4363 
    4511     4623     4621     4541     4509     4540     4542     4437 
    4271     4140     4021     3874     3693     3497     3442     3676 
    4062     4322     4395     4450     4603     4764     4779     4611 
    4360     4178     4128     4141     4116     4025     3894     3738 
    3634     3699     3929     4212     4460     4648     4756     4741 
    4591     4399     4299     4261     4140     3950     3865     3916 
    3946     3855     3788     3944     4261     4487     4534     4498 
    4455     4442     4475     4527     4529     4402     4166     3929 
    3793     3796     3879     3948     3983     3982     3936     3950 
    4136     4433     4687     4783     4699     4541     4401     4222 
    4027     3978     4113     4232     4170     4028     3996     4072 
    4166     4224     4199     4131     4121     4191     4313     4430 
    4448     4330     4185     4122     4113     4087     4095     4164 
    4216     4191     4117     4097     4205     4365     4444     4375 
    4202     4064     4051     4139     4271     4378     4395     4325 
    4206     4066     3966     3936     3940     3973     4074     4228 
    4340     4394     4452     4475     4396     4306     4293     4305 
    4283     4209     4105     4039     4068     4171     4251     4207 
    4050     3908     3923     4109     4355     4514     4536     4455 
    4302     4139     4047     4008     3950     3885     3885     3982 
    4140     4322     4525     4712     4789     4702     4482     4224 
    4047     3982     3932     3874     3875     3924     3948     3950 
    3964     4018     4160     4419     4708     4880     4870     4737 
    4544     4334     4128     3915     3699     3551     3503     3551 
    3730     4023     4284     4384     4388     4465     4625     4747 
    4762     4653     4471     4295     4117     3915     3774     3784 
    3883     3937     3948     4036     4205     4383     4541     4656 
    4702     4665     4565     4432     4245     3996     3746     3591 
    3601     3742     3917     4117     4344     4477     4410     4260 
    4237     4363     4537     4673     4684     4571     4409     4233 
    4044     3846     3699     3670     3732     3836     3981     4155 
    4330     4460     4504     4472     4395     4355     4390     4401 
    4299     4156     4104     4170     4236     4209     4101     3964 
    3867     3877     3994     4171     4313     4356     4355     4382 
    4419     4425     4390     4321     4202     4072     4028     4072 
    4133     4185     4217     4212     4187     4145     4048     3964 
    4017     4185     4347     4437     4442     4379     4260     4149 
    4139     4226     4338     4356     4201     4017     3994     4113 
    4268     4371     4379     4340     4261     4106     3969     3963 
    4075     4191     4236     4251     4280     4272     4236     4234 
    4249     4266     4299     4328     4320     4272     4218     4186 
    4149     4098     4077     4109     4174     4226     4224     4153 
    4050     4004     4066     4158     4199     4194     4209     4286 
    4391     4483     4534     4496     4352     4151     4009     4004 
    4047     4040     3964     3840     3800     3962     4247     4494 
    4622     4629     4553     4472     4428     4391     4336     4259 
    4147     4006     3904     3848     3825     3882     4031     4183 
    4266     4295     4311     4332     4356     4391     4425     4411 
    4342     4275     4210     4122     4067     4093     4166     4201 
    4125     3975     3890     3944     4098     4260     4357     4356 
    4306     4305     4364     4401     4390     4328     4205     4077 
    3971     3913     3924     3956     4000     4095     4268     4518 
    4718     4704     4549     4438     4407     4372     4253     4045 
    3827     3708     3740     3855     3960     4048     4143     4225 
    4307     4448     4585     4558     4368     4182     4081     4050 
    4125     4306     4448     4403     4205     3998     3894     3904 
    3967     4078     4263     4425     4411     4302     4284     4333 
    4342     4322     4249     4094     3962     3931     3905     3871 
    3940     4101     4248     4376     4475     4504     4503     4509 
    4492     4425     4329     4252     4190     4095     3983     3925 
    3940     3978     3979     3955     3962     4028     4139     4290 
    4464     4571     4552     4467     4429     4490     4564     4556 
    4495     4392     4183     3912     3708     3642     3686     3754 
    3778     3798     3897     4089     4341     4598     4780     4816 
    4696     4495     4309     4159     4041     4009     4093     4209 
    4245     4159     3994     3869     3867     3944     4018     4114 
    4261     4394     4463     4506     4546     4533     4421     4278 
    4191     4124     4028     3905     3789     3809     4013     4229 
    4364     4444     4450     4398     4334     4274     4225     4197 
    4180     4148     4067     3940     3840     3865     4005     4158 
    4259     4325     4396     4465     4487     4495     4560     4650 
    4658     4502     4213     3940     3784     3721     3692     3670 
    3688     3761     3854     3952     4083     4303     4626     4942 
    5140     5205     5119     4918     4711     4492     4171     3773 
    3400     3132     3030     3129     3399     3798     4216     4504 
    4676     4841     5024     5165     5169     5017     4762     4369 
    3882     3515     3361     3319     3298     3326     3496     3805 
    4118     4333     4473     4622     4837     5080     5251     5251 
    5007     4563     4141     3962     4041     4147     4014     3676 
    3326     3088     3127     3592     4325     4924     5103     4911 
    4610     4383     4220     3997     3703     3489     3435     3493 
    3591     3672     3755     3936     4247     4600     4893     5120 
    5331     5475     5451     5255     4935     4492     3955     3458 
    3144     3019     3024     3084     3118     3187     3518     4225 
    5136     5880     6133     5900     5420     4882     4433     4125 
    3871     3655     3545     3550     3630     3723     3812     3919 
    4009     4063     4175     4391     4560     4530     4310     4029 
    3811     3705     3715     3771     3730     3608     3667     4048 
    4588     5027     5190     5134     5036     4926     4679     4234 
    3708     3319     3180     3275     3576     4032     4552     4954 
    5024     4780     4483     4414     4652     5000     5167     4957 
    4375     3678     3145     2863     2790     2871     3110     3526 
    4020     4490     4961     5471     5945     6149     5871     5190 
    4341     3415     2494     1833     1733     2342     3460     4544 
    5144     5327     5405     5512     5579     5476     5115     4531 
    3854     3213     2743     2602     2903     3500     3987     4110 
    4005     3940     4056     4330     4634     4927     5316     5799 
    6130     6043     5494     4684     3951     3528     3380     3314 
    3148     2779     2280     1911     1946     2501     3478     4610 
    5584     6222     6489     6474     6328     6050     5506     4752 
    3982     3244     2574     2145     2074     2366     3033     4012 
    5001     5648     5805     5532     5057     4637     4307     3939 
    3526     3200     3025     2961     3060     3411     3994     4664 
    5258     5665     5864     5891     5779     5440     4691     3634 
    2691     2162     2029     2141     2416     2829     3312     3817 
    4410     5170     6035     6785     7186     7101     6517     5583 
    4496     3389     2411     1717     1379     1364     1611     2131 
    2902     3723     4504     5363     6250     6874     7048     6858 
    6431     5741     4831     3946     3284     2898     2767     2818 
    2964     3130     3292     3468     3696     4009     4414     4903 
    5425     5826     5896     5540     4927     4359     3962     3678 
    3402     3026     2556     2151     1988     2141     2566     3213 
    4075     5054     5921     6482     6664     6494     6058     5548 
    5171     4919     4599     4058     3338     2693     2358     2390 
    2691     3038     3280     3504     3870     4429     5084     5616 
    5795     5510     4907     4322     3977     3854     3866     3927 
    3916     3792     3701     3785     3990     4182     4311     4455 
    4707     5042     5250     5151     4819     4403     3954     3531 
    3221     3007     2853     2841     3102     3622     4221     4753 
    5163     5402     5402     5166     4816     4476     4193     4024 
    4043     4225     4418     4432     4233     4017     3969     4043 
    4128     4259     4518     4838     5009     4857     4413     3877 
    3381     2964     2718     2733     2934     3196     3505     3929 
    4445     4903     5182     5289     5240     5103     5009     4986 
    4962     4912     4799     4581     4311     4005     3586     3086 
    2714     2673     3009     3627     4270     4634     4654     4583 
    4676     4870     4974     4981     4930     4779     4483     4113 
    3894     3925     3919     3623     3234     3053     3113     3334 
    3727     4284     4811     5044     4969     4847     4889     5003 
    4908     4440     3713     3052     2764     2930     3404     4008 
    4587     4965     5027     4835     4648     4715     5042     5414 
    5618     5475     4900     4020     3145     2601     2551     2943 
    3569     4113     4286     4120     3937     3996     4345     4869 
    5266     5265     4904     4459     4195     4259     4552     4687 
    4311     3447     2465     1846     1918     2586     3458     4236 
    4791     5042     5008     4889     4915     5125     5374     5476 
    5319     4909     4311     3646     3137     2997     3295     3882 
    4380     4504     4342     4175     4152     4270     4482     4673 
    4716     4598     4376     4122     3931     3847     3882     4032 
    4195     4266     4260     4286     4446     4761     5103     5263 
    5135     4739     4136     3499     3109     3076     3249     3411 
    3442     3376     3326     3395     3654     4110     4689     5243 
    5543     5463     5134     4774     4502     4318     4167     3987 
    3762     3550     3442     3507     3759     4120     4428     4529 
    4383     4095     3877     3904     4141     4396     4553     4590 
    4533     4513     4614     4789     4959     5027     4909     4594 
    4170     3840     3724     3748     3790     3716     3469     3194 
    3103     3276     3623     4029     4406     4634     4646     4527 
    4401     4301     4286     4457     4761     4965     4954     4820 
    4660     4504     4411     4445     4518     4413     4066     3674 
    3460     3485     3658     3774     3676     3431     3265     3334 
    3620     4013     4442     4869     5177     5270     5224     5140 
    4996     4738     4328     3789     3304     3142     3403     3931 
    4499     4931     5120     5050     4752     4294     3794     3397 
    3202     3167     3213     3412     3894     4569     5157     5414 
    5319     5043     4725     4428     4247     4206     4232     4275 
    4303     4217     3956     3632     3460     3508     3627     3689 
    3759     3951     4197     4298     4185     4009     3951     4033 
    4183     4353     4527     4737     4995     5152     5036     4698 
    4364     4101     3753     3229     2668     2303     2347     2891 
    3720     4510     5151     5641     5910     5904     5663     5328 
    5062     4849     4588     4310     4098     3925     3685     3318 
    2907     2664     2781     3235     3823     4356     4797     5198 
    5525     5629     5452     5081     4592     4017     3429     2951 
    2663     2598     2754     3117     3717     4513     5242     5664 
    5725     5456     5003     4626     4467     4374     4118     3735 
    3389     3095     2835     2701     2849     3383     4172     4892 
    5323     5493     5512     5460     5400     5343     5248     5051 
    4648     3974     3160     2494     2243     2469     2961     3449 
    3831     4159     4529     4986     5425     5680     5703     5508 
    5094     4480     3780     3207     2918     2922     3167     3549 
    3927     4251     4556     4834     5039     5120     5050     4874 
    4612     4232     3766     3365     3192     3292     3527     3701 
    3739     3753     3908     4206     4533     4820     5012     4990 
    4683     4225     3912     3927     4251     4700     4982     4889 
    4468     3969     3646     3562     3659     3869     4044     4075 
    4016     3928     3856     3928     4226     4648     4923     4882 
    4631     4337     4025     3747     3645     3766     4016     4218 
    4263     4207     4202     4310     4436     4417     4205     3889 
    3609     3527     3674     3883     3997     4045     4140     4324 
    4565     4834     5121     5348     5393     5266     5086     4900 
    4716     4553     4368     4120     3815     3472     3165     2986 
    2936     3025     3322     3759     4120     4324     4467     4623 
    4831     5121     5383     5444     5271     4961     4588     4172 
    3792     3578     3504     3393     3217     3125     3226     3514 
    3948     4480     4978     5285     5378     5310     5073     4665 
