Origin Time       2024/06/23 22:54:00
Lat.              35.645
Long.             140.060
Depth. (km)       72
Mag.              4.1
Station Code      TCGH11
Station Lat.      36.7084
Station Long.     139.7694
Station Height(m) 290
Record Time       2024/06/23 22:55:02
Sampling Freq(Hz) 100Hz
Duration Time(s)  120
Dir.              6
Scale Factor      7845(gal)/8223790
Max. Acc. (gal)   1.168
Last Correction   2024/06/23 22:55:02
Memo.             
[...]
     421      379      499      808      812      460      272      203 
      28       13      349      807      939      619      398      488 
     405      211      268      383      495      673      665      473 
     357      321      276      275      361      402      398      492 
     523      400      467      735      754      450      228      243 
     267      241      336      522      598      529      487      564 
     587      452      361      315      160      109      363      712 
     862      772      670      580      217     -210      -98      405 
     635      649      692      487      166      199      448      642 
     688      531      432      444      319      249      391      472 
     427      488      622      506      279      411      544      228 
     133      648     1017      791      355      133       47     -112 
       4      531      855      854      827      666      445      284 
     -31     -193      198      664      783      719      645      630 
     584      405      180      -55      -70      441      996      955 
     669      573      283     -263     -284      399      951      889 
     604      494      514      471      265      -17       20      530 
     885      754      589      483      216       28      275      675 
     562      166      233      530      596      592      580      549 
     554      475      328      190      105      298      660      724 
     469      197      193      552      818      712      575      364 
     -24     -121      186      638     1034      997      580      202 
     -28      -25      194      488      796      876      665      409 
     195      206      506      691      618      510      321       24 
      16      495      934      745      199       72      356      361 
     199      438      737      672      633      665      344      -14 
     148      577      737      569      391      400      415      355 
     340      303      309      499      634      706      853      637 
      32     -198      117      490      715      873      824      453 
      56      -87       67      452      761      903      966      741 
     292       -9      -93      -32       95      357      810     1092 
     972      653      349      183      159      214      236      211 
     375      648      765      778      649      384      248      206 
     124      166      434      738      847      830      684      278 
    -103     -176       44      545      978      970      703      402 
     135       82      267      465      513      475      527      544 
     346      338      571      438      305      734      737      -83 
    -417       66      668     1223     1386      859      160     -209 
    -149      202      556      677      492      387      657      753 
     400      229      410      450      311      178       14      129 
     770     1227      939      530      373       75     -156       59 
     419      738      940      768      442      292      218      232 
     349      417      430      298      194      583     1024      878 
     498      189      -64       44      494      770      700      540 
     452      376      368      442      363      187      167      213 
     360      784     1096      868      445      233      110       64 
     278      558      581      409      303      357      541      688 
     527      167       48      234      479      788     1092     1026 
     591      148     -148     -199      160      761     1012      697 
     329      230      255      367      502      445      257      220 
     375      583      754      749      518      264      198      302 
     372      399      562      672      465      228      225      348 
     567      737      561      226      233      546      654      531 
     487      383      147      103      310      588      783      765 
     521      174       31      221      457      602      639      492 
     369      407      477      589      716      664      387      118 
      16       55      368      842      922      600      365      353 
     353      171        4      114      388      764     1038      822 
     441      382      356      217      297      391      228      275 
     699      940      726      334       86       47      128      253 
     403      606      822      942      822      494      294      224 
      14      -68      207      518      708      795      700      561 
     434      298      314      442      515      495      398      338 
     287      186      311      672      884      784      367     -103 
    -102      387      832      805      476      364      454      418 
     352      426      495      406      278      340      533      550 
     322      230      530      747      526      322      423      476 
     391      442      483      280      179      356      483      573 
     780      754      341      -21       16      368      676      656 
     436      275      186      255      664     1030      828      371 
     205      283      402      500      488      346      288      442 
     525      328      216      450      710      691      494      287 
     106       95      398      760      837      603      241       81 
     355      729      726      494      346      133      -98      137 
     693      913      764      594      459      263      121      222 
     426      585      711      495       74      220      747      930 
     801      473      -17     -182       79      325      527      832 
     954      673      278      128      120      121      400      873 
     965      621      306      225      214      213      353      486 
     392      318      457      581      616      630      507      315 
     328      440      357      278      484      661      518      388 
     479      481      301      247      394      500      526      581 
     550      371      275      329      345      338      490      722 
     750      535      319      202      186      313      449      526 
     619      553      359      441      657      588      360      162 
     110      315      446      388      503      638      508      468 
     677      710      442      220      163      171      313      544 
     673      696      542      243      216      468      560      446 
     351      359      413      422      494      631      558      330 
     216      186      315      681      889      707      448      321 
     218      151      314      556      502      321      313      325 
     441      720      695      446      437      434      274      238 
     329      479      661      608      345      241      330      438 
     606      796      723      379      132      125      217      387 
     610      676      538      329      180      251      421      459 
     515      637      584      432      407      475      483      387 
     330      452      518      345      307      518      507      399 
     614      680      298      106      301      430      460      513 
     432      288      360      567      670      642      486      255 
     160      279      495      693      720      494      209      155 
     337      490      498      442      336      303      495      658 
     564      454      504      457      213      133      369      675 
     855      760      445      224      125      105      336      693 
     761      454      202      270      373      400      556      679 
     572      494      514      329       81      203      487      548 
     595      700      585      348      205      233      475      588 
     399      270      255      321      599      754      554      351 
     278      202      291      638      793      545      325      305 
     341      445      534      538      473      275      116      236 
     503      715      762      646      549      421      114       -4 
     355      697      664      604      621      427      120       58 
     302      502      492      499      452      247      287      660 
     901      714      265       99      345      494      486      598 
     637      392       71       72      436      716      778      760 
     554      234       43       21      218      602      874      801 
     476      163       52      205      483      610      522      376 
     290      361      562      726      753      580      272       99 
     209      495      720      696      468      237      213      388 
     477      440      481      486      432      490      414      163 
     214      548      751      693      418      207      228      245 
     364      697      764      475      301      342      417      437 
     429      425      429      537      643      510      361      361 
     228      137      419      677      602      469      400      328 
     378      508      521      413      291      290      432      546 
     561      540      526      438      217      147      413      669 
     679      595      405       56      -76      191      564      846 
     946      774      494      276      199      356      577      525 
     232       60      162      436      726      838      745      592 
     409      180       67      207      448      564      572      546 
     410      199      190      415      612      689      668      553 
     341       12     -147      221      791      969      747      440 
     207      183      340      465      562      643      540      319 
     221      329      577      687      506      298      240      302 
     423      413      346      510      677      546      421      472 
     345      116      207      452      575      722      807      652 
     487      429      249      -39     -116      193      692     1011 
     942      649      337       74       36      282      571      715 
     581      220      147      484      610      450      571      843 
     604      -17     -236       62      367      603      907     1023 
     812      465      141      -16      117      445      634      513 
     334      352      589      858      683       75     -259      -86 
     287      735     1082     1027      635      294      230      305 
     365      552      711      446       39       16      297      614 
     830      837      599      226       33      218      500      521 
     400      422      488      445      398      433      568      696 
     564      259      108      147      325      518      502      419 
     433      464      595      719      556      321      326      392 
     276      122      237      569      700      529      449      627 
     714      476       71     -206      -54      486      943     1053 
     849      467      229      280      365      322      307      446 
     554      454      357      433      522      584      614      486 
     314      252      221      264      469      635      638      519 
     317      405      826      811      241     -180     -198      141 
     599      776      733      673      615      554      353      137 
     186      345      486      664      688      440      118       18 
     255      554      653      595      436      333      498      727 
     735      591      330       47       45      224      349      589 
     770      523      256      387      588      553      441      444 
     450      324      275      450      594      608      606      491 
     322      353      522      646      622      351       59      137 
     490      661      553      481      535      507      392      355 
     306      122       -8       60      213      454      816     1044 
     977      712      367      148      178      299      380      322 
     114       35      133      257      606     1177     1429     1113 
     436     -224     -365       60      603      969      977      598 
     172      -47      -54      214      626      796      668      503 
     351      206      253      486      720      838      699      392 
     232      193       98      126      403      652      625      484 
     467      365      155      286      595      607      579      637 
     390      109      332      654      595      511      533      333 
     195      496      751      502      137       82      225      391 
     675     1127     1331      862       54     -467     -589     -407 
     159      866     1152     1047      966      791      284     -199 
    -236       74      406      629      747      799      751      573 
     398      270      122       58      168      459      888     1217 
    1185      807      203     -450     -756     -422      270      870 
    1258     1310      869      238     -183     -311       64      872 
    1383     1220      641       36     -230     -157       52      440 
     808      838      687      531      333      209      292      452 
     448      326      226      113      225      785     1250     1088 
     546       13     -326     -288      143      716      992      805 
     603      724      896      822      600      298     -180     -573 
    -487      -36      465      891     1088     1053      985      850 
     529      130     -179     -245       37      487      711      598 
     496      684      862      676      348      162       59      132 
     492      789      716      411       63     -205     -214       98 
     634     1246     1660     1502      753      -48     -460     -531 
    -325      109      453      634      946     1282     1237      874 
     480      102      -89       31      174      302      584      743 
     587      283      -40      -52      525     1163     1228      846 
     356     -120     -345     -141      245      587      845      888 
     757      642      471      148     -124      -12      400      486 
     174      149      486      795     1065     1192     1004      676 
     363      145       29      -56       18      264      384      367 
     534      918     1048      664      260      222      205       86 
     105      120      145      449      807      882      691      440 
     372      425      454      610      729      460       75        4 
     137      263      437      702      915      986      945      739 
     411      210      121      -99     -249       -9      432      888 
    1277     1143      442      -18       62      153      148      351 
     634      689      488      234      229      503      797      889 
     657      241      -66     -113      155      579      866      888 
     652      282       79      286      712      835      526      230 
     190      186      147      172      303      568      781      720 
     581      626      677      533      328      156       60      211 
     442      418      280      336      558      719      684      522 
     373      261      160      202      456      579      399      338 
     680     1098     1162      788      229     -182     -225       48 
     328      421      461      575      695      766      747      560 
     352      384      500      365      162      191      265      229 
     259      411      595      815      982      853      426       13 
    -171      -64      286      599      665      562      441      442 
     568      669      657      472      189       89      261      517 
     700      765      706      564      399      322      301      149 
      -1      103      382      654      853      934      764      302 
      -8      103      315      517      731      703      425      148 
      10      112      475      888     1017      735      315       91 
     109      210      275      306      410      661      853      766 
     526      261      116      301      548      504      387      403 
     471      562      614      519      359      340      479      604 
     619      514      326      125      -47      -55      205      596 
     900      923      650      317      160      213      365      492 
     533      526      548      604      669      680      558      363 
     203      109      163      418      637      579      399      328 
     309      329      445      511      496      561      612      496 
     367      351      326      278      301      372      477      589 
     580      479      392      307      302      456      588      550 
     430      326      264      238      329      594      789      768 
     715      607      332       94       87      282      522      631 
     587      487      419      407      394      326      267      294 
     392      438      360      306      432      600      603      527 
     521      491      315       78       22      232      473      587 
     681      851      951      830      569      278       22      -64 
      48      248      423      591      795      905      800      549 
     322      243      279      344      386      307      211      301 
     407      388      481      703      826      788      596      352 
     205      143      121      153      253      390      521      703 
     854      743      526      430      283       56       21      207 
     433      588      544      365      386      591      684      697 
     685      521      322      313      383      294      176      286 
     450      477      549      731      795      591      205     -126 
    -214       20      518      926      907      621      467      527 
     564      434      292      275      315      376      406      364 
     442      689      784      591      338      232      248      306 
     464      648      675      608      519      317      117      129 
     302      450      511      503      413      383      568      695 
     550      333      186      203      475      754      746      606 
     544      425      170       58      230      426      486      484 
     450      418      417      371      271      275      434      560 
     525      438      405      430      511      560      503      452 
     499      502      384      318      359      400      445      490 
     522      577      589      490      380      411      531      492 
     283      201      363      544      529      395      360      371 
     267      184      318      503      488      394      471      602 
     542      433      483      569      545      445      318      267 
     351      459      540      560      441      394      575      656 
     508      394      338      307      413      569      622      596 
     540      438      279       67      -55      137      534      754 
     764      768      660      357      128      128      221      295 
     313      295      364      504      541      507      579      727 
     742      542      248       -4     -105       64      417      685 
     756      666      537      506      577      658      675      587 
     432      303      255      329      481      537      464      376 
     342      372      427      508      568      530      464      392 
     251      198      338      441      418      425      419      361 
     405      527      557      467      344      317      430      533 
     467      310      243      292      396      476      495      546 
