Origin Time       2024/06/23 22:54:00
Lat.              35.645
Long.             140.060
Depth. (km)       72
Mag.              4.1
Station Code      TCGH14
Station Lat.      36.5509
Station Long.     139.6154
Station Height(m) 180
Record Time       2024/06/23 22:54:59
Sampling Freq(Hz) 100Hz
Duration Time(s)  120
Dir.              4
Scale Factor      7845(gal)/8223790
Max. Acc. (gal)   2.517
Last Correction   2024/06/23 22:54:59
Memo.             
   -2625    -2748    -2830    -2903    -3083    -3291    -3242    -2932 
   -2651    -2685    -2991    -3137    -3030    -2928    -2871    -2901 
   -2940    -2812    -2795    -3065    -3253    -3082    -2774    -2789 
   -3017    -2944    -2805    -3013    -3165    -2921    -2709    -2851 
   -2965    -2937    -3084    -3172    -3018    -2866    -2717    -2818 
   -3161    -3114    -2778    -2732    -2991    -3102    -2929    -3009 
   -3179    -2948    -2736    -2631    -2654    -3140    -3423    -3134 
   -2874    -2708    -2643    -2916    -3184    -3100    -2965    -3099 
   -3098    -2606    -2323    -2764    -3308    -3478    -3372    -3010 
   -2585    -2452    -2625    -2925    -3264    -3477    -3210    -2566 
   -2282    -2705    -3349    -3476    -3005    -2752    -3007    -3105 
   -2720    -2408    -2844    -3522    -3430    -2868    -2647    -2728 
   -2751    -2768    -3090    -3438    -3288    -2802    -2400    -2442 
   -2959    -3343    -3311    -3171    -2953    -2663    -2646    -2947 
   -3122    -3024    -3065    -3138    -2821    -2648    -2948    -3049 
   -2825    -2772    -2995    -3288    -3349    -2921    -2469    -2582 
   -2947    -3169    -3161    -2875    -2705    -2909    -3173    -3129 
   -2878    -2855    -2910    -2826    -2926    -3086    -3036    -2970 
   -2953    -2940    -2928    -2924    -2897    -2785    -2760    -2920 
   -3144    -3319    -3198    -2840    -2571    -2513    -2851    -3392 
   -3468    -3018    -2583    -2547    -2847    -3094    -3111    -3099 
   -3156    -3090    -2789    -2573    -2741    -3011    -3024    -2889 
   -2893    -3057    -3118    -2907    -2737    -3010    -3380    -3225 
   -2782    -2613    -2735    -2906    -2907    -2840    -3052    -3219 
   -2916    -2673    -2937    -3306    -3218    -2683    -2489    -2944 
   -3265    -3096    -2785    -2697    -3021    -3271    -3034    -2767 
   -2798    -2925    -2975    -3026    -3109    -2937    -2698    -2905 
   -3071    -2808    -2793    -3138    -3276    -3113    -2790    -2577 
   -2760    -3061    -3038    -2887    -3041    -3257    -3022    -2655 
   -2826    -3157    -2909    -2578    -2814    -3260    -3408    -3045 
   -2616    -2741    -3017    -3010    -2894    -2862    -3038    -3078 
   -2727    -2560    -2840    -3156    -3311    -3253    -2963    -2758 
   -2798    -2812    -2762    -2840    -2968    -3096    -3211    -3117 
   -2899    -2817    -2825    -2832    -2924    -3129    -3180    -2929 
   -2790    -2841    -2779    -2883    -3110    -2963    -2816    -3083 
   -3264    -2980    -2685    -2833    -3032    -2940    -2874    -2890 
   -2986    -3154    -3063    -2928    -3090    -3076    -2724    -2577 
   -2786    -2999    -3036    -2930    -2867    -3055    -3173    -2943 
   -2771    -2922    -3164    -3136    -2743    -2547    -2882    -3187 
   -3150    -3002    -2937    -3006    -2878    -2639    -2817    -3072 
   -3059    -2920    -2735    -2855    -3055    -3053    -3254    -3321 
   -2979    -2698    -2552    -2629    -2870    -2909    -2999    -3231 
   -3250    -3118    -2921    -2785    -2871    -2894    -2914    -3075 
   -2975    -2772    -2736    -2674    -2799    -3204    -3484    -3360 
   -2933    -2678    -2732    -2772    -2809    -2971    -3063    -2910 
   -2852    -3103    -3153    -2941    -2926    -2992    -2944    -2883 
   -2891    -2867    -2775    -2948    -3194    -3017    -2828    -2953 
   -3107    -3063    -2716    -2446    -2731    -3210    -3330    -3160 
   -2920    -2695    -2739    -3045    -3146    -3001    -2998    -3137 
   -3068    -2716    -2494    -2683    -3042    -3244    -3088    -2899 
   -3105    -3144    -2768    -2755    -3119    -3149    -2712    -2359 
   -2590    -3098    -3341    -3253    -3067    -3099    -3186    -2902 
   -2475    -2374    -2731    -3323    -3628    -3304    -2624    -2253 
   -2461    -2968    -3451    -3549    -3226    -2906    -2725    -2606 
   -2579    -2760    -3121    -3262    -3206    -3184    -2847    -2326 
   -2332    -2928    -3543    -3605    -3211    -2853    -2601    -2513 
   -2641    -2817    -3188    -3597    -3416    -2789    -2415    -2533 
   -2886    -3088    -3046    -3045    -3287    -3354    -2835    -2323 
   -2509    -3079    -3431    -3279    -2709    -2324    -2601    -3134 
   -3380    -3489    -3473    -3013    -2413    -2189    -2504    -3154 
   -3450    -3183    -2948    -2974    -2911    -2621    -2424    -2600 
   -3152    -3798    -3785    -2932    -2344    -2524    -2660    -2552 
   -2771    -3422    -3986    -3622    -2458    -2016    -2744    -3294 
   -3030    -2747    -2879    -2965    -2808    -2724    -2947    -3331 
   -3489    -3229    -2776    -2596    -2809    -2936    -2795    -2759 
   -2974    -3219    -3136    -2762    -2689    -2952    -3068    -3079 
   -3157    -3167    -2886    -2469    -2536    -2948    -2975    -3014 
   -3462    -3546    -2968    -2342    -2295    -2991    -3609    -3341 
   -2720    -2559    -2899    -3167    -2818    -2471    -2959    -3657 
   -3518    -2569    -2073    -2771    -3474    -3264    -2779    -2660 
   -2928    -3130    -2839    -2604    -3119    -3584    -3071    -2444 
   -2587    -3002    -3321    -3406    -2949    -2481    -2721    -3202 
   -3122    -2728    -2736    -3092    -3250    -2983    -2552    -2519 
   -3001    -3294    -3095    -2974    -3025    -2916    -2748    -2687 
   -2891    -3316    -3388    -2964    -2663    -2704    -2710    -2724 
   -3153    -3572    -3218    -2625    -2565    -2740    -2960    -3118 
   -2979    -2992    -3146    -2983    -2851    -2859    -2778    -2862 
   -3103    -3157    -2979    -2914    -3114    -2994    -2508    -2631 
   -3234    -3268    -2849    -2625    -2770    -3179    -3369    -3164 
   -2948    -2817    -2704    -2635    -2685    -2965    -3165    -3073 
   -3063    -3078    -2874    -2805    -2951    -3041    -3071    -3013 
   -3019    -3179    -3011    -2479    -2274    -2698    -3261    -3416 
   -3356    -3257    -2812    -2442    -2593    -2697    -2682    -2978 
   -3388    -3613    -3408    -2779    -2401    -2650    -2997    -2874 
   -2709    -3188    -3573    -3073    -2552    -2593    -2825    -3171 
   -3323    -2926    -2556    -2781    -3176    -3164    -2874    -2718 
   -2936    -3252    -2986    -2500    -2754    -3269    -3218    -2905 
   -2817    -2874    -2889    -3051    -3187    -2829    -2729    -3277 
   -3260    -2656    -2521    -2785    -3084    -3146    -2902    -2980 
   -3252    -3065    -2755    -2681    -2775    -2984    -3048    -2971 
   -3007    -3019    -2862    -2713    -2821    -3086    -3056    -2860 
   -3095    -3341    -2890    -2370    -2613    -3287    -3512    -3018 
   -2694    -3021    -3057    -2606    -2532    -2836    -3111    -3287 
   -3287    -3122    -2798    -2504    -2633    -2987    -3136    -3026 
   -2832    -2997    -3333    -3106    -2735    -2835    -2905    -2674 
   -2579    -2882    -3342    -3585    -3449    -2833    -2168    -2353 
   -2999    -3040    -2920    -3269    -3418    -3098    -2802    -2531 
   -2373    -2758    -3319    -3514    -3445    -3076    -2581    -2667 
   -2986    -2675    -2405    -2937    -3439    -3287    -3063    -3125 
   -3064    -2633    -2285    -2583    -3292    -3578    -3173    -2700 
   -2695    -2932    -2936    -2735    -2735    -3086    -3318    -3033 
   -2813    -3022    -3038    -2857    -2857    -2813    -2840    -3204 
   -3429    -3067    -2602    -2632    -2826    -2744    -2662    -2895 
   -3277    -3410    -3165    -2945    -2972    -2859    -2488    -2421 
   -2952    -3581    -3566    -2893    -2455    -2716    -3015    -2902 
   -2857    -3214    -3453    -3005    -2359    -2474    -3063    -3184 
   -2902    -2801    -3098    -3384    -3086    -2602    -2575    -2825 
   -3100    -3181    -2957    -2907    -3060    -2934    -2762    -2895 
   -3102    -3157    -3121    -3010    -2681    -2411    -2752    -3218 
   -3073    -2920    -3156    -3156    -2889    -2770    -2802    -2979 
   -3215    -3163    -2882    -2891    -3051    -2706    -2280    -2663 
   -3393    -3564    -3245    -2920    -2774    -2706    -2691    -2817 
   -2870    -2756    -2910    -3275    -3307    -3137    -3002    -2748 
   -2725    -3048    -2963    -2594    -2801    -3258    -3238    -2975 
   -2856    -2745    -2616    -2808    -3240    -3368    -3186    -3015 
   -2833    -2729    -2732    -2636    -2706    -3052    -3260    -3321 
   -3299    -3010    -2566    -2296    -2494    -3082    -3530    -3470 
   -2972    -2574    -2735    -3051    -2971    -2771    -2945    -3221 
   -3032    -2678    -2763    -3088    -3148    -2907    -2797    -3099 
   -3353    -2964    -2392    -2477    -3014    -3334    -3262    -2960 
   -2832    -2991    -2953    -2641    -2663    -3134    -3307    -2955 
   -2793    -2925    -2952    -3030    -3040    -2736    -2663    -2992 
   -3110    -2895    -2856    -3207    -3406    -2928    -2361    -2489 
   -3005    -3258    -3198    -3173    -3206    -2934    -2546    -2508 
   -2736    -3076    -3338    -3248    -2990    -2794    -2679    -2852 
   -3248    -3316    -2921    -2574    -2515    -2593    -2859    -3249 
   -3537    -3550    -3118    -2560    -2366    -2458    -2725    -3088 
   -3330    -3387    -3221    -2995    -2826    -2542    -2492    -2979 
   -3365    -3287    -3126    -2965    -2694    -2515    -2466    -2505 
   -2955    -3686    -3792    -3159    -2731    -2755    -2768    -2786 
   -2895    -2824    -2716    -2933    -3123    -2994    -2944    -3179 
   -3383    -3167    -2712    -2555    -2612    -2627    -2812    -3211 
   -3508    -3400    -2957    -2639    -2617    -2660    -2790    -3083 
   -3349    -3451    -3215    -2598    -2146    -2371    -3095    -3640 
   -3535    -3064    -2691    -2519    -2543    -2713    -2955    -3292 
   -3535    -3335    -2786    -2417    -2516    -2843    -3141    -3240 
   -3060    -3022    -3190    -2934    -2520    -2702    -3098    -3006 
   -2735    -2879    -3164    -3096    -2925    -3038    -3280    -3171 
   -2613    -2276    -2643    -3204    -3252    -2999    -3068    -3192 
   -2893    -2578    -2666    -3018    -3300    -3200    -2868    -2772 
   -2910    -2909    -2724    -2731    -3055    -3333    -3362    -3194 
   -2847    -2550    -2488    -2606    -2906    -3213    -3271    -3126 
   -2986    -2957    -2944    -2828    -2683    -2743    -3034    -3190 
   -3095    -3013    -2944    -2830    -2825    -2957    -3057    -3056 
   -2956    -2728    -2658    -2964    -3156    -2992    -2883    -2849 
   -2809    -2955    -3132    -3137    -3071    -2976    -2852    -2760 
   -2740    -2839    -2984    -3040    -3138    -3304    -3237    -2917 
   -2604    -2531    -2691    -2874    -3134    -3387    -3207    -2736 
   -2529    -2721    -3049    -3206    -3180    -3180    -3172    -2903 
   -2490    -2454    -2821    -2960    -2844    -3072    -3484    -3458 
   -3057    -2658    -2452    -2596    -2990    -3190    -3057    -3041 
   -3241    -3114    -2650    -2596    -3001    -3153    -3033    -2984 
   -2898    -2740    -2608    -2566    -2732    -3100    -3456    -3501 
   -3304    -3105    -2810    -2578    -2663    -2818    -2968    -3118 
   -3030    -2803    -2655    -2736    -3095    -3345    -3249    -2926 
   -2627    -2717    -2998    -3022    -2886    -2844    -3080    -3335 
   -3179    -2901    -2785    -2724    -2694    -2624    -2671    -3007 
   -3291    -3188    -2922    -3011    -3242    -3014    -2681    -2659 
   -2781    -3068    -3318    -3100    -2747    -2867    -3287    -3314 
   -2913    -2748    -2897    -2936    -2782    -2496    -2415    -2764 
   -2943    -2741    -2851    -3383    -3638    -3388    -3183    -3260 
   -3229    -2952    -2585    -2313    -2374    -2628    -2789    -2955 
   -3165    -3244    -3229    -3250    -3217    -3052    -2918    -2830 
   -2714    -2771    -2963    -2840    -2516    -2517    -2728    -2926 
   -3415    -3966    -3873    -3257    -2679    -2317    -2200    -2353 
   -2760    -3244    -3361    -3007    -2736    -2895    -3115    -3057 
   -2878    -2774    -2875    -3267    -3639    -3403    -2570    -1942 
   -1977    -2548    -3468    -4033    -3703    -3065    -2497    -2065 
   -2362    -3163    -3424    -3102    -2907    -3014    -3063    -3026 
   -3015    -2717    -2463    -3013    -3717    -3694    -3221    -2540 
   -2000    -2293    -3118    -3609    -3649    -3402    -2897    -2407 
   -2307    -2571    -2798    -2706    -2592    -2983    -3736    -4051 
   -3532    -2702    -2268    -2312    -2617    -3009    -3164    -2930 
   -2613    -2608    -3006    -3383    -3306    -2876    -2420    -2403 
   -3130    -4021    -4283    -3825    -2926    -1831     -936    -1152 
   -2629    -3831    -4052    -4185    -4159    -3318    -2083    -1258 
   -1521    -3090    -4723    -5028    -4198    -2898    -1358     -307 
    -909    -2851    -4234    -4484    -4399    -3827    -2727    -1946 
   -1709    -1849    -2400    -3285    -4234    -4575    -3844    -2674 
   -1985    -2002    -2488    -3244    -3869    -3607    -2532    -1899 
   -2235    -2797    -3187    -3480    -3429    -2947    -2452    -2474 
   -3157    -3739    -3422    -2713    -2462    -2501    -2305    -2174 
   -2965    -4351    -4812    -3982    -2752    -1614    -1013    -1705 
   -3377    -4617    -4785    -4074    -2529    -1135    -1255    -2204 
   -2808    -3460    -4220    -4199    -3383    -2608    -2130    -1607 
   -1539    -2802    -4374    -4617    -3862    -2984    -2160    -1938 
   -2606    -3226    -3133    -2880    -2821    -2673    -2697    -3114 
   -3276    -3042    -3053    -3252    -3183    -2917    -2660    -2585 
   -2799    -3119    -3341    -3358    -3152    -2752    -2205    -2145 
   -3233    -4448    -3991    -2367    -1740    -2134    -2234    -2455 
   -3279    -3825    -3746    -3514    -3210    -2668    -2386    -2813 
   -3052    -2635    -2722    -3273    -2988    -2440    -2818    -3589 
   -3855    -3407    -2548    -2089    -2361    -2799    -3146    -3596 
   -3834    -3554    -3109    -2558    -1795    -1489    -2127    -3284 
   -4359    -4673    -3735    -2160    -1071    -1069    -2297    -4032 
   -4900    -4496    -3477    -2519    -1929    -1714    -2073    -2883 
   -3277    -3415    -4048    -4176    -2940    -1649    -1449    -1980 
   -2882    -3998    -4531    -3879    -2747    -2083    -2128    -2733 
   -3086    -2678    -2601    -3275    -3478    -3102    -2949    -2901 
   -2752    -2631    -2624    -2987    -3586    -4008    -4035    -3326 
   -2149    -1395    -1279    -1722    -2794    -4085    -4926    -4843 
   -3727    -2235    -1371    -1371    -1957    -3038    -4207    -4723 
   -4268    -3014    -1660    -1044    -1464    -2717    -3932    -4260 
   -3986    -3593    -3068    -2517    -2209    -2358    -2797    -3096 
   -3068    -2772    -2565    -2740    -3071    -3269    -3225    -3029 
   -3095    -3404    -3369    -3003    -2733    -2486    -2165    -1907 
   -1923    -2671    -4068    -4924    -4440    -3269    -2421    -2122 
   -2039    -2142    -2516    -2857    -3138    -3420    -3375    -3130 
   -3211    -3481    -3387    -3010    -2961    -3071    -2668    -2243 
   -2521    -2898    -2894    -2890    -2959    -3003    -3075    -3157 
   -3264    -3122    -2524    -1937    -1929    -2639    -3630    -4168 
   -3959    -3138    -2212    -1902    -2338    -3115    -3727    -3735 
   -3098    -2250    -1989    -2347    -2461    -2702    -3720    -4437 
   -4291    -3929    -3262    -2239    -1586    -1655    -2269    -3141 
   -3789    -3871    -3615    -3250    -2651    -2091    -2081    -2528 
   -3184    -3946    -4245    -3487    -2172    -1374    -1458    -2133 
   -3094    -4117    -4801    -4720    -3835    -2531    -1533    -1367 
   -1742    -2230    -2909    -3643    -3925    -3619    -2891    -2173 
   -2095    -2797    -3979    -4926    -4747    -3527    -1944     -675 
    -433    -1093    -2257    -3892    -5027    -4768    -3855    -3034 
   -2295    -1972    -2492    -3419    -3875    -3742    -3369    -2542 
   -1289     -712    -1779    -3817    -5066    -4932    -4191    -3246 
   -2208    -1509    -1529    -2334    -3372    -3885    -3797    -3407 
   -2731    -1900    -1570    -2192    -3235    -3856    -3902    -3670 
   -3291    -2740    -2204    -2050    -2223    -2477    -2941    -3429 
   -3330    -2866    -2925    -3449    -3701    -3685    -3501    -2721 
   -1713    -1490    -1999    -2673    -3518    -4332    -4625    -4139 
   -2961    -1930    -1809    -2268    -2798    -3407    -3994    -4102 
   -3451    -2470    -1871    -1809    -2120    -2681    -3265    -3809 
   -4063    -3412    -2131    -1348    -1682    -2893    -4040    -4437 
   -4440    -4144    -3034    -1491     -765    -1486    -2839    -3653 
   -3985    -4180    -3755    -2625    -1699    -1645    -2328    -3338 
   -4185    -4359    -3815    -2870    -1837    -1224    -1564    -2620 
   -3642    -4288    -4345    -3726    -2897    -2251    -1884    -1736 
   -1803    -2574    -3863    -4409    -3832    -2943    -2527    -2855 
   -3427    -3485    -3001    -2569    -2571    -2774    -2745    -2479 
   -2315    -2447    -2924    -3723    -4388    -4314    -3530    -2528 
   -1772    -1746    -2533    -3380    -3593    -3300    -2763    -2200 
   -2143    -2725    -3315    -3372    -3256    -3512    -3504    -2731 
   -2207    -2435    -2760    -2930    -3042    -3111    -3186    -3268 
   -3295    -3098    -2743    -2529    -2471    -2558    -2893    -3377 
   -3739    -3593    -3051    -2941    -3346    -3246    -2366    -1695 
   -1823    -2400    -3103    -3731    -3970    -3659    -2988    -2389 
   -2149    -2363    -2778    -3011    -3338    -3694    -3368    -2706 
   -2442    -2398    -2547    -3154    -3924    -4221    -3724    -2897 
   -2455    -2309    -2062    -2023    -2520    -3122    -3470    -3770 
   -3838    -3186    -2188    -1659    -1939    -2898    -3851    -4141 
   -3932    -3663    -3333    -2751    -2027    -1632    -1772    -2052 
   -2366    -3073    -3850    -4023    -3696    -3338    -3253    -3362 
   -3136    -2475    -2010    -2322    -3083    -3272    -2713    -2195 
   -2219    -2731    -3416    -4012    -4342    -4122    -3291    -2317 
   -1857    -2045    -2297    -2187    -2139    -2747    -3824    -4569 
   -4395    -3383    -2255    -1818    -2242    -3045    -3472    -3179 
   -2662    -2501    -2766    -3264    -3613    -3380    -2743    -2401 
   -2662    -3292    -3673    -3257    -2524    -2199    -2394    -3122 
   -3720    -3392    -2876    -3002    -3145    -2763    -2355    -2347 
   -2477    -2702    -3226    -3593    -3407    -3030    -2705    -2544 
   -2830    -3384    -3576    -3207    -2721    -2457    -2334    -2393 
   -2749    -3169    -3466    -3755    -3785    -3179    -2312    -1809 
   -1898    -2529    -3362    -3951    -3921    -3310    -2745    -2585 
   -2623    -2744    -2941    -3083    -3036    -2974    -3175    -3272 
   -2848    -2432    -2451    -2581    -2779    -3280    -3792    -3766 
   -3164    -2547    -2336    -2397    -2513    -2628    -2901    -3572 
   -4152    -3913    -3200    -2677    -2305    -2008    -2088    -2650 
   -3264    -3497    -3350    -3028    -2748    -2606    -2593    -2771 
   -3094    -3315    -3211    -2808    -2486    -2492    -2654    -2890 
   -3303    -3684    -3611    -3191    -2964    -3019    -3072    -3019 
