Origin Time       2024/06/23 22:54:00
Lat.              35.645
Long.             140.060
Depth. (km)       72
Mag.              4.1
Station Code      TCGH16
Station Lat.      36.5480
Station Long.     140.0751
Station Height(m) -7
Record Time       2024/06/23 22:54:48
Sampling Freq(Hz) 100Hz
Duration Time(s)  120
Dir.              2
Scale Factor      2942(gal)/8224139
Max. Acc. (gal)   0.395
Last Correction   2024/06/23 22:54:48
Memo.             
[...]
 -116509  -116522  -116522  -116511  -116514  -116522  -116518  -116511 
 -116515  -116525  -116519  -116509  -116515  -116522  -116518  -116518 
 -116519  -116514  -116513  -116517  -116517  -116517  -116515  -116514 
 -116519  -116518  -116513  -116518  -116522  -116517  -116514  -116518 
 -116522  -116518  -116514  -116518  -116519  -116515  -116514  -116518 
 -116521  -116515  -116513  -116519  -116521  -116514  -116518  -116523 
 -116519  -116515  -116517  -116519  -116519  -116518  -116519  -116519 
 -116515  -116518  -116519  -116519  -116517  -116515  -116517  -116519 
 -116519  -116522  -116525  -116521  -116515  -116523  -116529  -116519 
 -116511  -116514  -116526  -116529  -116517  -116513  -116522  -116522 
 -116515  -116522  -116522  -116514  -116515  -116521  -116522  -116519 
 -116513  -116519  -116525  -116517  -116513  -116521  -116522  -116518 
 -116517  -116518  -116518  -116519  -116523  -116522  -116514  -116514 
 -116517  -116519  -116523  -116522  -116517  -116519  -116518  -116511 
 -116518  -116525  -116517  -116511  -116518  -116525  -116521  -116518 
 -116526  -116522  -116507  -116510  -116521  -116518  -116521  -116534 
 -116537  -116521  -116507  -116500  -116495  -116505  -116527  -116530 
 -116526  -116536  -116532  -116507  -116496  -116499  -116499  -116519 
 -116552  -116540  -116515  -116534  -116523  -116465  -116469  -116536 
 -116550  -116519  -116511  -116511  -116496  -116510  -116546  -116538 
 -116506  -116518  -116511  -116464  -116503  -116596  -116586  -116532 
 -116526  -116492  -116436  -116464  -116517  -116534  -116571  -116575 
 -116476  -116407  -116469  -116561  -116575  -116561  -116575  -116530 
 -116451  -116463  -116510  -116521  -116549  -116552  -116506  -116488 
 -116500  -116499  -116505  -116545  -116554  -116506  -116529  -116586 
 -116515  -116456  -116537  -116552  -116442  -116414  -116496  -116560 
 -116586  -116595  -116546  -116495  -116498  -116484  -116453  -116476 
 -116541  -116580  -116554  -116542  -116575  -116487  -116336  -116395 
 -116595  -116668  -116581  -116473  -116463  -116502  -116478  -116475 
 -116548  -116592  -116610  -116603  -116526  -116468  -116432  -116390 
 -116451  -116584  -116635  -116569  -116452  -116398  -116461  -116545 
 -116579  -116580  -116568  -116556  -116550  -116542  -116496  -116428 
 -116438  -116503  -116522  -116544  -116579  -116554  -116502  -116473 
 -116457  -116483  -116550  -116563  -116498  -116500  -116631  -116692 
 -116541  -116376  -116410  -116506  -116511  -116546  -116631  -116603 
 -116468  -116368  -116376  -116453  -116506  -116545  -116627  -116680 
 -116611  -116464  -116390  -116467  -116559  -116563  -116577  -116576 
 -116438  -116338  -116429  -116545  -116575  -116572  -116576  -116594 
 -116573  -116499  -116446  -116449  -116506  -116583  -116600  -116554 
 -116476  -116403  -116409  -116502  -116603  -116650  -116606  -116515 
 -116464  -116461  -116478  -116491  -116506  -116526  -116559  -116603 
 -116583  -116488  -116429  -116436  -116483  -116540  -116568  -116577 
 -116559  -116534  -116548  -116499  -116375  -116325  -116392  -116538 
 -116665  -116661  -116599  -116530  -116422  -116376  -116483  -116645 
 -116711  -116652  -116579  -116490  -116341  -116305  -116429  -116560 
 -116667  -116692  -116569  -116442  -116395  -116407  -116525  -116657 
 -116657  -116550  -116449  -116453  -116514  -116483  -116437  -116503 
 -116567  -116537  -116495  -116502  -116515  -116492  -116491  -116571 
 -116662  -116637  -116448  -116275  -116343  -116552  -116654  -116640 
 -116619  -116581  -116487  -116441  -116526  -116590  -116554  -116540 
 -116519  -116445  -116403  -116395  -116422  -116542  -116658  -116660 
 -116591  -116538  -116523  -116494  -116436  -116432  -116506  -116569 
 -116569  -116538  -116514  -116495  -116499  -116541  -116561  -116502 
 -116424  -116459  -116576  -116614  -116590  -116594  -116542  -116409 
 -116371  -116492  -116569  -116545  -116561  -116559  -116475  -116488 
 -116584  -116569  -116491  -116486  -116486  -116415  -116429  -116586 
 -116654  -116583  -116526  -116500  -116483  -116525  -116617  -116649 
 -116577  -116480  -116425  -116428  -116438  -116429  -116503  -116610 
 -116564  -116486  -116536  -116577  -116525  -116456  -116437  -116475 
 -116513  -116545  -116602  -116638  -116633  -116584  -116479  -116397 
 -116399  -116436  -116506  -116607  -116645  -116565  -116444  -116418 
 -116506  -116561  -116496  -116421  -116433  -116521  -116608  -116614 
 -116588  -116596  -116542  -116483  -116530  -116534  -116448  -116425 
 -116444  -116467  -116530  -116544  -116500  -116556  -116675  -116677 
 -116592  -116523  -116446  -116372  -116388  -116494  -116557  -116511 
 -116482  -116514  -116486  -116465  -116553  -116581  -116498  -116500 
 -116617  -116652  -116568  -116505  -116468  -116422  -116434  -116510 
 -116587  -116583  -116483  -116422  -116419  -116426  -116523  -116621 
 -116575  -116522  -116569  -116595  -116533  -116479  -116473  -116430 
 -116429  -116579  -116644  -116506  -116460  -116564  -116607  -116556 
 -116471  -116452  -116536  -116557  -116469  -116410  -116382  -116386 
 -116499  -116631  -116646  -116557  -116457  -116456  -116533  -116553 
 -116483  -116390  -116406  -116577  -116653  -116560  -116567  -116615 
 -116556  -116532  -116505  -116415  -116411  -116449  -116517  -116675 
 -116735  -116691  -116691  -116630  -116491  -116383  -116291  -116259 
 -116390  -116600  -116679  -116619  -116598  -116550  -116371  -116274 
 -116371  -116502  -116600  -116657  -116626  -116533  -116417  -116345 
 -116380  -116461  -116552  -116685  -116766  -116669  -116482  -116384 
 -116363  -116351  -116414  -116527  -116600  -116660  -116646  -116532 
 -116464  -116430  -116357  -116344  -116440  -116607  -116766  -116806 
 -116735  -116603  -116410  -116275  -116318  -116476  -116608  -116648 
 -116618  -116576  -116541  -116518  -116502  -116464  -116411  -116402 
 -116451  -116500  -116517  -116521  -116521  -116468  -116414  -116465 
 -116587  -116691  -116752  -116698  -116523  -116399  -116387  -116399 
 -116469  -116573  -116560  -116510  -116537  -116500  -116426  -116482 
 -116577  -116565  -116478  -116397  -116376  -116371  -116355  -116455 
 -116671  -116797  -116750  -116621  -116542  -116557  -116540  -116449 
 -116472  -116623  -116638  -116468  -116401  -116503  -116538  -116456 
 -116437  -116472  -116472  -116509  -116561  -116542  -116559  -116649 
 -116629  -116472  -116343  -116284  -116318  -116484  -116642  -116645 
 -116572  -116538  -116573  -116608  -116560  -116478  -116467  -116538 
 -116600  -116568  -116529  -116542  -116496  -116428  -116459  -116544 
 -116588  -116548  -116490  -116523  -116564  -116491  -116390  -116360 
 -116417  -116544  -116615  -116569  -116588  -116669  -116586  -116464 
 -116473  -116440  -116384  -116514  -116699  -116699  -116502  -116305 
 -116332  -116541  -116669  -116594  -116445  -116415  -116538  -116673 
 -116703  -116623  -116468  -116345  -116372  -116499  -116607  -116630 
 -116556  -116491  -116514  -116541  -116556  -116595  -116536  -116374 
 -116361  -116537  -116662  -116615  -116505  -116490  -116538  -116506 
 -116441  -116482  -116576  -116615  -116579  -116487  -116414  -116421 
 -116432  -116407  -116414  -116441  -116483  -116556  -116606  -116652 
 -116719  -116676  -116521  -116411  -116386  -116440  -116552  -116595 
 -116594  -116634  -116618  -116554  -116546  -116509  -116419  -116413 
 -116530  -116679  -116681  -116499  -116363  -116375  -116401  -116456 
 -116584  -116635  -116532  -116414  -116430  -116496  -116464  -116401 
 -116415  -116494  -116606  -116671  -116633  -116598  -116588  -116506 
 -116403  -116405  -116503  -116565  -116561  -116594  -116608  -116499 
 -116391  -116371  -116370  -116426  -116544  -116598  -116608  -116654 
 -116675  -116641  -116590  -116527  -116475  -116451  -116464  -116526 
 -116560  -116522  -116503  -116553  -116600  -116600  -116575  -116526 
 -116414  -116294  -116291  -116387  -116440  -116452  -116530  -116614 
 -116583  -116515  -116564  -116688  -116699  -116527  -116367  -116388 
 -116459  -116448  -116453  -116540  -116618  -116604  -116517  -116488 
 -116571  -116630  -116584  -116479  -116401  -116437  -116513  -116525 
 -116552  -116565  -116449  -116372  -116441  -116506  -116567  -116677 
 -116729  -116706  -116677  -116576  -116419  -116387  -116451  -116436 
 -116382  -116388  -116405  -116432  -116540  -116657  -116700  -116677 
 -116571  -116428  -116413  -116514  -116533  -116437  -116364  -116359 
 -116403  -116478  -116546  -116621  -116656  -116604  -116606  -116680 
 -116637  -116472  -116355  -116365  -116479  -116583  -116598  -116546 
 -116471  -116398  -116376  -116406  -116468  -116561  -116641  -116671 
 -116641  -116549  -116460  -116455  -116483  -116480  -116445  -116444 
 -116575  -116762  -116806  -116727  -116631  -116495  -116357  -116295 
 -116337  -116480  -116592  -116600  -116586  -116537  -116445  -116401 
 -116380  -116324  -116330  -116495  -116644  -116599  -116505  -116499 
 -116476  -116414  -116453  -116608  -116722  -116710  -116642  -116571 
 -116459  -116361  -116386  -116469  -116498  -116472  -116445  -116479 
 -116553  -116561  -116537  -116583  -116627  -116611  -116610  -116626 
 -116564  -116444  -116411  -116491  -116552  -116527  -116503  -116559 
 -116673  -116726  -116583  -116337  -116262  -116411  -116509  -116418 
 -116391  -116556  -116677  -116641  -116559  -116452  -116344  -116351 
 -116464  -116573  -116675  -116739  -116641  -116460  -116392  -116383 
 -116363  -116426  -116554  -116646  -116660  -116587  -116503  -116480 
 -116482  -116510  -116552  -116557  -116569  -116588  -116572  -116563 
 -116527  -116413  -116379  -116506  -116584  -116536  -116536  -116565 
 -116486  -116380  -116376  -116436  -116492  -116567  -116656  -116712 
 -116691  -116561  -116413  -116395  -116452  -116413  -116307  -116326 
 -116521  -116676  -116656  -116608  -116644  -116622  -116468  -116361 
 -116432  -116519  -116525  -116563  -116626  -116575  -116417  -116370 
 -116521  -116645  -116627  -116608  -116615  -116580  -116525  -116463 
 -116392  -116398  -116529  -116633  -116586  -116526  -116549  -116506 
 -116406  -116409  -116456  -116483  -116533  -116567  -116565  -116565 
 -116521  -116440  -116406  -116434  -116483  -116499  -116487  -116521 
 -116583  -116591  -116608  -116661  -116606  -116486  -116453  -116445 
 -116471  -116621  -116707  -116583  -116411  -116318  -116291  -116370 
 -116538  -116631  -116580  -116507  -116484  -116469  -116442  -116451 
 -116526  -116614  -116653  -116665  -116661  -116602  -116527  -116522 
 -116573  -116598  -116549  -116482  -116478  -116476  -116421  -116434 
 -116530  -116537  -116471  -116449  -116452  -116506  -116623  -116634 
 -116518  -116498  -116577  -116544  -116437  -116451  -116519  -116545 
 -116572  -116537  -116453  -116530  -116694  -116650  -116456  -116375 
 -116430  -116483  -116459  -116414  -116463  -116571  -116577  -116482 
 -116430  -116502  -116575  -116529  -116491  -116568  -116613  -116571 
 -116532  -116487  -116459  -116495  -116538  -116606  -116741  -116758 
 -116545  -116348  -116374  -116460  -116451  -116475  -116567  -116590 
 -116588  -116656  -116630  -116438  -116329  -116414  -116521  -116527 
 -116478  -116453  -116469  -116472  -116479  -116522  -116580  -116607 
 -116545  -116484  -116550  -116613  -116590  -116591  -116572  -116487 
 -116459  -116478  -116469  -116487  -116533  -116510  -116451  -116484 
 -116587  -116640  -116619  -116496  -116302  -116270  -116449  -116573 
 -116583  -116642  -116672  -116557  -116468  -116457  -116455  -116542 
 -116665  -116633  -116519  -116467  -116461  -116490  -116529  -116513 
 -116484  -116521  -116559  -116553  -116583  -116648  -116623  -116492 
 -116383  -116374  -116390  -116394  -116445  -116538  -116595  -116583 
 -116548  -116542  -116548  -116534  -116510  -116478  -116437  -116440 
 -116536  -116668  -116733  -116722  -116634  -116457  -116317  -116295 
 -116344  -116442  -116537  -116548  -116500  -116476  -116505  -116523 
 -116509  -116530  -116580  -116565  -116507  -116496  -116484  -116430 
 -116448  -116563  -116627  -116588  -116511  -116440  -116434  -116498 
 -116545  -116567  -116587  -116544  -116456  -116479  -116590  -116592 
 -116532  -116522  -116463  -116370  -116367  -116415  -116483  -116591 
 -116635  -116523  -116386  -116368  -116432  -116568  -116754  -116766 
 -116596  -116540  -116615  -116602  -116487  -116422  -116449  -116478 
 -116463  -116455  -116486  -116486  -116384  -116290  -116324  -116392 
 -116434  -116518  -116627  -116731  -116799  -116752  -116684  -116748 
 -116833  -116743  -116525  -116388  -116384  -116374  -116306  -116259 
 -116291  -116359  -116386  -116437  -116604  -116742  -116715  -116650 
 -116664  -116680  -116646  -116604  -116546  -116411  -116226  -116148 
 -116270  -116448  -116599  -116797  -116889  -116662  -116289  -116101 
 -116233  -116536  -116804  -117043  -117234  -117150  -116675  -116004 
 -115565  -115639  -115996  -116314  -116588  -116804  -116860  -116806 
 -116784  -116827  -116791  -116635  -116592  -116730  -116785  -116650 
 -116503  -116451  -116326  -116012  -115835  -116100  -116556  -116900 
 -117107  -117144  -117009  -116718  -116251  -115827  -115762  -115997 
 -116279  -116625  -117077  -117328  -117130  -116758  -116478  -116158 
 -115832  -115805  -116060  -116341  -116541  -116637  -116608  -116456 
 -116237  -116131  -116187  -116378  -116830  -117397  -117622  -117350 
 -116752  -116133  -115869  -116048  -116425  -116657  -116625  -116642 
 -116872  -116911  -116509  -115992  -115831  -116124  -116490  -116656 
 -116776  -116893  -116770  -116399  -116036  -115917  -116082  -116374 
 -116730  -117184  -117489  -117387  -117053  -116749  -116426  -116058 
 -115889  -116008  -116208  -116392  -116519  -116488  -116488  -116668 
 -116703  -116461  -116298  -116363  -116475  -116525  -116607  -116815 
 -116941  -116811  -116607  -116410  -116112  -115781  -115672  -115974 
 -116577  -117120  -117288  -117077  -116823  -116668  -116357  -116009 
 -116094  -116542  -116893  -116959  -116761  -116426  -116183  -116132 
 -116244  -116434  -116559  -116554  -116492  -116414  -116302  -116276 
 -116519  -116862  -117032  -117128  -117216  -117150  -117001  -116873 
 -116591  -116086  -115614  -115522  -115869  -116307  -116526  -116542 
 -116473  -116438  -116525  -116598  -116529  -116473  -116491  -116419 
 -116305  -116293  -116361  -116500  -116718  -116873  -116739  -116351 
 -116106  -116148  -116208  -116322  -116679  -117121  -117431  -117408 
 -117030  -116613  -116320  -116086  -115994  -116159  -116505  -116677 
 -116421  -116149  -116317  -116594  -116668  -116784  -116947  -116873 
 -116583  -116249  -115963  -115931  -116307  -116785  -116907  -116761 
 -116665  -116567  -116446  -116472  -116571  -116618  -116669  -116673 
 -116564  -116453  -116386  -116302  -116224  -116220  -116344  -116546 
 -116662  -116631  -116544  -116442  -116363  -116399  -116571  -116792 
 -116974  -117027  -116862  -116538  -116255  -116089  -115990  -116078 
 -116401  -116667  -116733  -116766  -116783  -116733  -116676  -116550 
 -116352  -116320  -116522  -116677  -116635  -116544  -116491  -116467 
 -116476  -116453  -116395  -116426  -116532  -116626  -116741  -116853 
 -116861  -116806  -116715  -116419  -116012  -115906  -116075  -116137 
 -116199  -116545  -116965  -117061  -116789  -116401  -116098  -116039 
 -116270  -116479  -116463  -116509  -116706  -116730  -116478  -116214 
 -116268  -116629  -116880  -116838  -116739  -116692  -116644  -116691 
 -116820  -116795  -116592  -116421  -116356  -116388  -116505  -116527 
 -116357  -116221  -116302  -116560  -116922  -117217  -117223  -116997 
 -116727  -116413  -116118  -116046  -116193  -116325  -116294  -116195 
 -116198  -116317  -116480  -116622  -116654  -116561  -116368  -116039 
 -115746  -115820  -116212  -116626  -117005  -117225  -117042  -116703 
 -116557  -116413  -116154  -116033  -116212  -116642  -117045  -117089 
 -116861  -116667  -116591  -116510  -116334  -116206  -116302  -116548 
 -116791  -116955  -116981  -116838  -116619  -116534  -116631  -116761 
 -116824  -116730  -116406  -116068  -115970  -116063  -116228  -116390 
 -116554  -116764  -116905  -116888  -116788  -116594  -116256  -115924 
 -115857  -116201  -116734  -116939  -116672  -116311  -116148  -116222 
 -116453  -116654  -116753  -116731  -116507  -116274  -116305  -116488 
 -116581  -116557  -116502  -116370  -116086  -115916  -116117  -116448 
 -116631  -116726  -116827  -116910  -116846  -116671  -116613  -116598 
 -116456  -116379  -116488  -116650  -116866  -117101  -117126  -116989 
 -116884  -116664  -116298  -116036  -115898  -115850  -116013  -116372 
 -116839  -117216  -117134  -116652  -116232  -115997  -115807  -115831 
 -116244  -116699  -116785  -116614  -116476  -116453  -116503  -116559 
 -116630  -116761  -116857  -116818  -116726  -116698  -116625  -116338 
 -116043  -116067  -116309  -116517  -116661  -116770  -116847  -116846 
 -116652  -116318  -116155  -116287  -116509  -116706  -116870  -116866 
 -116722  -116656  -116530  -116121  -115727  -115724  -116056  -116511 
 -116868  -117008  -117046  -116939  -116546  -116124  -116037  -116272 
 -116549  -116615  -116444  -116299  -116475  -116837  -116992  -116915 
 -116754  -116530  -116425  -116467  -116371  -116198  -116244  -116491 
 -116716  -116734  -116525  -116283  -116133  -116054  -116136  -116488 
 -116907  -117058  -116912  -116671  -116401  -116081  -115908  -116109 
 -116509  -116806  -116985  -117049  -116910  -116726  -116769  -116986 
 -117105  -117066  -116993  -116891  -116676  -116360  -116000  -115642 
 -115472  -115696  -116202  -116668  -116920  -116926  -116707  -116440 
 -116364  -116496  -116584  -116486  -116343  -116221  -116051  -115997 
 -116266  -116673  -116947  -117039  -116904  -116571  -116360  -116437 
 -116572  -116588  -116453  -116202  -116016  -115973  -116063  -116334 
 -116645  -116878  -117140  -117356  -117351  -117216  -117050  -116780 
 -116419  -116236  -116395  -116594  -116469  -116208  -116185  -116307 
 -116347  -116442  -116696  -116839  -116676  -116360  -116114  -116010 
 -116035  -116218  -116513  -116706  -116741  -116779  -116829  -116754 
 -116557  -116395  -116363  -116451  -116633  -116752  -116573  -116167 
 -115873  -115832  -115897  -116041  -116333  -116640  -116827  -116937 
 -116991  -117009  -117036  -117081  -117093  -116885  -116432  -116055 
 -115940  -115956  -115993  -116122  -116421  -116721  -116861  -116918 
 -116853  -116590  -116317  -116079  -115811  -115824  -116275  -116726 
 -116903  -116999  -117057  -116910  -116700  -116730  -116939  -117090 
 -117094  -116919  -116618  -116372  -116287  -116367  -116464  -116301 
 -115954  -115835  -115985  -116158  -116328  -116459  -116448  -116406 
 -116479  -116577  -116550  -116382  -116213  -116213  -116344  -116499 
 -116753  -117049  -117151  -117115  -117058  -116810  -116367  -116068 
 -116108  -116303  -116343  -116235  -116297  -116580  -116777  -116750 
 -116716  -116807  -116845  -116661  -116370  -116187  -116179  -116274 
 -116386  -116463  -116575  -116804  -117055  -117198  -117167  -116934 
 -116644  -116491  -116446  -116379  -116302  -116330  -116499  -116588 
