Origin Time       2024/06/23 22:54:00
Lat.              35.645
Long.             140.060
Depth. (km)       72
Mag.              4.1
Station Code      TCGH08
Station Lat.      36.8828
Station Long.     139.6459
Station Height(m) 702
Record Time       2024/06/23 22:55:07
Sampling Freq(Hz) 100Hz
Duration Time(s)  120
Dir.              5
Scale Factor      7845(gal)/8223790
Max. Acc. (gal)   1.133
Last Correction   2024/06/23 22:55:07
Memo.             
[...]
   -1931    -1960    -1993    -1985    -1954    -1950    -1991    -2025 
   -2029    -2064    -2119    -2101    -2025    -1979    -1962    -1952 
   -1991    -2085    -2137    -2111    -2091    -2095    -2062    -2000 
   -1958    -1944    -1964    -2038    -2097    -2081    -2038    -2035 
   -2058    -2053    -2016    -2012    -2049    -2050    -1983    -1915 
   -1922    -1981    -2018    -2015    -2019    -2060    -2106    -2101 
   -2053    -2020    -2020    -2004    -1981    -2004    -2056    -2079 
   -2060    -2029    -2006    -2002    -2023    -2057    -2066    -2029 
   -1975    -1950    -1960    -1988    -2037    -2081    -2083    -2062 
   -2041    -2016    -1998    -1992    -2003    -2022    -2034    -2056 
   -2112    -2161    -2147    -2080    -1996    -1914    -1841    -1807 
   -1848    -1957    -2073    -2146    -2176    -2177    -2139    -2065 
   -2002    -1992    -2006    -1987    -1964    -1989    -2045    -2061 
   -2022    -1975    -1960    -1969    -1972    -1975    -2018    -2097 
   -2151    -2134    -2069    -2010    -1998    -2011    -2000    -1976 
   -1980    -2016    -2068    -2103    -2095    -2062    -2039    -2015 
   -1987    -1975    -1971    -1961    -1981    -2050    -2118    -2137 
   -2108    -2049    -1998    -1977    -1953    -1910    -1911    -1985 
   -2066    -2116    -2151    -2138    -2064    -1998    -1964    -1927 
   -1892    -1915    -1999    -2068    -2096    -2143    -2197    -2177 
   -2089    -2003    -1937    -1896    -1906    -1950    -1989    -2016 
   -2053    -2088    -2081    -2041    -2006    -1983    -1984    -2030 
   -2083    -2095    -2092    -2107    -2101    -2049    -1983    -1939 
   -1917    -1922    -1966    -2020    -2030    -2004    -2007    -2046 
   -2084    -2114    -2123    -2095    -2060    -2046    -2035    -1999 
   -1953    -1941    -1942    -1915    -1904    -1979    -2097    -2181 
   -2203    -2178    -2112    -2027    -1965    -1929    -1911    -1934 
   -1989    -2019    -1993    -1976    -2025    -2080    -2091    -2095 
   -2122    -2127    -2087    -2035    -2004    -1985    -1972    -1964 
   -1975    -2012    -2043    -2026    -1995    -1989    -1989    -1973 
   -1964    -1983    -2030    -2081    -2116    -2115    -2077    -2047 
   -2052    -2050    -2019    -1989    -1971    -1952    -1938    -1948 
   -2000    -2070    -2103    -2103    -2112    -2114    -2066    -2000 
   -1973    -1981    -1987    -1996    -2018    -2029    -2022    -2015 
   -2008    -1996    -1999    -2023    -2046    -2068    -2093    -2092 
   -2046    -2000    -1992    -2006    -2029    -2052    -2056    -2029 
   -1992    -1966    -1973    -2014    -2042    -2043    -2054    -2065 
   -2041    -1995    -1973    -2002    -2046    -2058    -2047    -2035 
   -2002    -1964    -1956    -1965    -1972    -2006    -2079    -2142 
   -2166    -2160    -2120    -2065    -2018    -1984    -1965    -1958 
   -1956    -1956    -1956    -1949    -1949    -1979    -2034    -2097 
   -2138    -2124    -2085    -2070    -2065    -2029    -1969    -1925 
   -1922    -1948    -1984    -2033    -2081    -2104    -2099    -2077 
   -2047    -2035    -2042    -2026    -1979    -1973    -2029    -2083 
   -2092    -2077    -2053    -2012    -1975    -1975    -1976    -1942 
   -1908    -1915    -1968    -2047    -2122    -2158    -2153    -2112 
   -2047    -1988    -1962    -1968    -1993    -2031    -2058    -2041 
   -2006    -1999    -2012    -2027    -2056    -2092    -2104    -2096 
   -2072    -2034    -1992    -1965    -1945    -1941    -1972    -2020 
   -2039    -2018    -1992    -1995    -2014    -2025    -2054    -2116 
   -2145    -2093    -2014    -1952    -1915    -1931    -1988    -2033 
   -2049    -2066    -2074    -2047    -2016    -2023    -2053    -2087 
   -2127    -2138    -2087    -2000    -1914    -1860    -1860    -1892 
   -1949    -2022    -2074    -2088    -2087    -2101    -2141    -2176 
   -2158    -2079    -1984    -1933    -1917    -1923    -1971    -2046 
   -2087    -2065    -2011    -1962    -1953    -1998    -2047    -2064 
   -2064    -2068    -2076    -2087    -2084    -2054    -2012    -1983 
   -1979    -1999    -2025    -2025    -2000    -1992    -1999    -2003 
   -2018    -2042    -2057    -2068    -2053    -2008    -1983    -2002 
   -2041    -2065    -2076    -2096    -2118    -2099    -2038    -1972 
   -1915    -1868    -1848    -1885    -1966    -2053    -2110    -2111 
   -2061    -2015    -2023    -2073    -2110    -2106    -2099    -2108 
   -2093    -2039    -1989    -1976    -1992    -2010    -2007    -1989 
   -1972    -1954    -1942    -1957    -1996    -2049    -2108    -2149 
   -2147    -2115    -2077    -2047    -2030    -2007    -1979    -1956 
   -1939    -1933    -1925    -1911    -1922    -1976    -2043    -2093 
   -2127    -2151    -2168    -2161    -2114    -2047    -1988    -1941 
   -1903    -1891    -1929    -2002    -2069    -2100    -2087    -2053 
   -2018    -1987    -1988    -2037    -2072    -2058    -2039    -2038 
   -2034    -2018    -2000    -1998    -2023    -2054    -2060    -2042 
   -2034    -2042    -2027    -1987    -1981    -2027    -2056    -2045 
   -2041    -2047    -2045    -2046    -2053    -2039    -2015    -1993 
   -1968    -1942    -1930    -1962    -2027    -2054    -2038    -2035 
   -2050    -2058    -2062    -2064    -2062    -2066    -2069    -2058 
   -2037    -2019    -2000    -1980    -1975    -1983    -1995    -2012 
   -2029    -2042    -2053    -2049    -2035    -2043    -2077    -2095 
   -2064    -2004    -1950    -1937    -1962    -1992    -2007    -2008 
   -1999    -2000    -2029    -2074    -2127    -2180    -2189    -2126 
   -2031    -1969    -1949    -1946    -1938    -1930    -1925    -1930 
   -1956    -1995    -2033    -2072    -2108    -2123    -2118    -2096 
   -2061    -2018    -1991    -2000    -2031    -2057    -2057    -2025 
   -1976    -1950    -1961    -1995    -2039    -2084    -2104    -2092 
   -2062    -2011    -1964    -1977    -2039    -2088    -2089    -2052 
   -2003    -1964    -1939    -1946    -1987    -2035    -2081    -2092 
   -2047    -1993    -1984    -2006    -2030    -2056    -2091    -2103 
   -2053    -1983    -1957    -1962    -1960    -1972    -2022    -2068 
   -2074    -2054    -2026    -2006    -2022    -2072    -2111    -2104 
   -2069    -2046    -2031    -2008    -1975    -1938    -1912    -1917 
   -1956    -2026    -2087    -2111    -2114    -2101    -2056    -2010 
   -2012    -2045    -2066    -2070    -2080    -2088    -2056    -1996 
   -1957    -1957    -1973    -1973    -1961    -1958    -1962    -1972 
   -1996    -2043    -2100    -2139    -2141    -2118    -2087    -2047 
   -2000    -1956    -1929    -1931    -1950    -1957    -1972    -2031 
   -2093    -2100    -2072    -2052    -2033    -2010    -1996    -2002 
   -2020    -2041    -2058    -2080    -2092    -2085    -2066    -2041 
   -2020    -2015    -2006    -1987    -1985    -1988    -1968    -1953 
   -1980    -2046    -2093    -2097    -2088    -2074    -2043    -2007 
   -1988    -1999    -2023    -2023    -1995    -1971    -1975    -1996 
   -2023    -2045    -2052    -2034    -2000    -1985    -2002    -2026 
   -2045    -2058    -2061    -2058    -2056    -2046    -2039    -2049 
   -2056    -2039    -2003    -1973    -1976    -1999    -2018    -2035 
   -2062    -2076    -2062    -2027    -1995    -1993    -2019    -2047 
   -2069    -2088    -2096    -2079    -2039    -2000    -1981    -1983 
   -1993    -1996    -1981    -1965    -1961    -1975    -2011    -2060 
   -2080    -2054    -2007    -1971    -1968    -2008    -2068    -2116 
   -2150    -2153    -2106    -2025    -1954    -1918    -1918    -1950 
   -2003    -2046    -2065    -2069    -2074    -2070    -2034    -1973 
   -1944    -1971    -2012    -2054    -2097    -2111    -2070    -1993 
   -1937    -1946    -2003    -2049    -2047    -2020    -2023    -2057 
   -2076    -2077    -2085    -2089    -2066    -2030    -2002    -1985 
   -1979    -1987    -2011    -2027    -2022    -1998    -1972    -1961 
   -1971    -1976    -1975    -2000    -2062    -2110    -2106    -2072 
   -2054    -2052    -2025    -1981    -1979    -2027    -2073    -2079 
   -2054    -2039    -2043    -2038    -2011    -1975    -1956    -1977 
   -2031    -2079    -2095    -2085    -2074    -2065    -2037    -2000 
   -1992    -2004    -1999    -1980    -1975    -1989    -2007    -2012 
   -2016    -2034    -2056    -2066    -2042    -1989    -1961    -1976 
   -1996    -1993    -1989    -2006    -2037    -2064    -2096    -2149 
   -2191    -2178    -2131    -2076    -2018    -1973    -1941    -1906 
   -1887    -1917    -1976    -2022    -2034    -2019    -2002    -1995 
   -2000    -2020    -2057    -2081    -2069    -2031    -2014    -2035 
   -2064    -2062    -2034    -1999    -1987    -2006    -2034    -2057 
   -2066    -2060    -2043    -2030    -2027    -2018    -1999    -2006 
   -2053    -2097    -2092    -2039    -1981    -1942    -1929    -1949 
   -1984    -2012    -2038    -2066    -2079    -2076    -2076    -2081 
   -2069    -2041    -2026    -2030    -2020    -1980    -1931    -1906 
   -1903    -1903    -1912    -1953    -2018    -2079    -2120    -2128 
   -2116    -2107    -2101    -2092    -2083    -2069    -2058    -2050 
   -2020    -1988    -2004    -2061    -2095    -2088    -2072    -2038 
   -1980    -1935    -1934    -1954    -1972    -2000    -2041    -2074 
   -2104    -2141    -2154    -2122    -2073    -2046    -2039    -2031 
   -2007    -1985    -1973    -1931    -1854    -1800    -1803    -1848 
   -1941    -2070    -2173    -2209    -2184    -2106    -2012    -1941 
   -1902    -1904    -1953    -2022    -2066    -2057    -2007    -1965 
   -1968    -2022    -2101    -2168    -2178    -2122    -2038    -1977 
   -1979    -2053    -2162    -2241    -2246    -2180    -2058    -1917 
   -1819    -1810    -1879    -1993    -2095    -2130    -2106    -2076 
   -2066    -2050    -1981    -1873    -1819    -1871    -1973    -2038 
   -2038    -2010    -1996    -2002    -2022    -2061    -2112    -2145 
   -2135    -2101    -2065    -2042    -2038    -2025    -1969    -1903 
   -1883    -1927    -2029    -2166    -2284    -2331    -2284    -2142 
   -1964    -1849    -1822    -1823    -1815    -1818    -1849    -1902 
   -1944    -1961    -1965    -1977    -2007    -2074    -2196    -2327 
   -2386    -2335    -2204    -2060    -1949    -1903    -1933    -2014 
   -2080    -2065    -1973    -1873    -1821    -1829    -1888    -1966 
   -2023    -2046    -2058    -2079    -2104    -2100    -2060    -2019 
   -2019    -2077    -2161    -2185    -2123    -2049    -2006    -1969 
   -1944    -1945    -1958    -1987    -2049    -2126    -2157    -2106 
   -2016    -1966    -1979    -2035    -2096    -2123    -2084    -1979 
   -1853    -1771    -1783    -1912    -2104    -2238    -2235    -2137 
   -2016    -1918    -1852    -1818    -1821    -1868    -1960    -2072 
   -2154    -2188    -2199    -2184    -2108    -2019    -1991    -2004 
   -2011    -2034    -2093    -2126    -2081    -2003    -1922    -1850 
   -1846    -1948    -2091    -2197    -2242    -2212    -2120    -1996 
   -1873    -1815    -1880    -2037    -2168    -2187    -2101    -1985 
   -1906    -1895    -1945    -2015    -2096    -2174    -2195    -2138 
   -2058    -2014    -2014    -2022    -2015    -2004    -1983    -1934 
   -1888    -1903    -1977    -2054    -2107    -2131    -2103    -2035 
   -1999    -2014    -2034    -1999    -1894    -1794    -1796    -1881 
   -1988    -2099    -2178    -2193    -2170    -2145    -2124    -2107 
   -2106    -2131    -2176    -2195    -2141    -2026    -1910    -1845 
   -1850    -1895    -1939    -1968    -1998    -2039    -2085    -2099 
   -2042    -1961    -1918    -1898    -1873    -1890    -1961    -2035 
   -2070    -2080    -2093    -2112    -2110    -2070    -2026    -1996 
   -1977    -1985    -2011    -2026    -2019    -1993    -1962    -1961 
   -2012    -2111    -2204    -2234    -2209    -2154    -2052    -1925 
   -1848    -1861    -1937    -2025    -2083    -2099    -2079    -2046 
   -2026    -2019    -2025    -2042    -2052    -2022    -1980    -1983 
   -2039    -2103    -2124    -2085    -2007    -1935    -1911    -1956 
   -2054    -2170    -2243    -2204    -2045    -1861    -1746    -1721 
   -1796    -1973    -2168    -2269    -2231    -2068    -1869    -1779 
   -1868    -2065    -2227    -2243    -2107    -1903    -1740    -1692 
   -1776    -1954    -2185    -2423    -2575    -2602    -2551    -2425 
   -2185    -1888    -1641    -1462    -1343    -1331    -1444    -1607 
   -1748    -1892    -2099    -2349    -2566    -2689    -2673    -2493 
   -2203    -1887    -1620    -1483    -1539    -1765    -2089    -2412 
   -2619    -2635    -2466    -2197    -1942    -1826    -1895    -2056 
   -2176    -2196    -2118    -1971    -1810    -1680    -1632    -1680 
   -1775    -1865    -1948    -2038    -2131    -2205    -2239    -2222 
   -2174    -2122    -2072    -2033    -1995    -1888    -1668    -1398 
   -1192    -1129    -1281    -1642    -2110    -2540    -2856    -3006 
   -2949    -2725    -2463    -2258    -2119    -2046    -2033    -2034 
   -1996    -1910    -1834    -1831    -1895    -1971    -2008    -1985 
   -1919    -1856    -1830    -1871    -1980    -2099    -2162    -2158 
   -2107    -2014    -1903    -1830    -1845    -1942    -2060    -2116 
   -2083    -2018    -1999    -2053    -2184    -2378    -2546    -2551 
   -2322    -1898    -1413    -1017     -838     -953    -1358    -1948 
   -2532    -2932    -3055    -2914    -2623    -2296    -2020    -1875 
   -1884    -1987    -2096    -2130    -2050    -1888    -1706    -1559 
   -1525    -1651    -1887    -2124    -2270    -2319    -2340    -2347 
   -2289    -2165    -2057    -2031    -2053    -2047    -1993    -1919 
   -1834    -1723    -1610    -1552    -1587    -1722    -1937    -2166 
   -2327    -2380    -2330    -2187    -2000    -1875    -1887    -2037 
   -2269    -2504    -2647    -2587    -2289    -1876    -1539    -1401 
   -1507    -1813    -2160    -2385    -2444    -2382    -2243    -2062 
   -1883    -1744    -1674    -1698    -1800    -1931    -2019    -2008 
   -1890    -1722    -1625    -1696    -1933    -2208    -2385    -2434 
   -2415    -2380    -2346    -2327    -2308    -2254    -2134    -1942 
   -1734    -1598    -1580    -1678    -1848    -2018    -2111    -2108 
   -2043    -2002    -2064    -2200    -2296    -2296    -2212    -2083 
   -1965    -1894    -1849    -1817    -1796    -1795    -1833    -1931 
   -2074    -2199    -2250    -2226    -2147    -2031    -1914    -1863 
   -1902    -1985    -2057    -2091    -2070    -2014    -1964    -1945 
   -1983    -2087    -2228    -2358    -2421    -2363    -2192    -1979 
   -1775    -1629    -1586    -1645    -1780    -1966    -2135    -2215 
   -2201    -2114    -1983    -1864    -1825    -1888    -2018    -2155 
   -2263    -2344    -2401    -2390    -2273    -2079    -1879    -1728 
   -1664    -1691    -1773    -1861    -1938    -2027    -2130    -2209 
   -2249    -2254    -2222    -2158    -2096    -2057    -2022    -1979 
   -1933    -1902    -1904    -1933    -1972    -2011    -2026    -2006 
   -1973    -1944    -1925    -1929    -1956    -1984    -2018    -2070 
   -2126    -2150    -2128    -2083    -2045    -2037    -2065    -2096 
   -2093    -2053    -1998    -1962    -1961    -1969    -1958    -1948 
   -1965    -1993    -1998    -1983    -1973    -1956    -1921    -1915 
   -1985    -2110    -2232    -2311    -2312    -2232    -2131    -2049 
   -1969    -1910    -1906    -1923    -1899    -1827    -1771    -1821 
   -1993    -2178    -2269    -2266    -2231    -2200    -2192    -2214 
   -2226    -2162    -2010    -1818    -1660    -1598    -1659    -1833 
   -2052    -2226    -2304    -2293    -2220    -2116    -2002    -1887 
   -1807    -1791    -1819    -1871    -1952    -2052    -2130    -2145 
   -2077    -1945    -1814    -1761    -1833    -2003    -2203    -2362 
   -2424    -2357    -2201    -2035    -1921    -1876    -1877    -1908 
   -1977    -2047    -2057    -2014    -1991    -2033    -2110    -2170 
   -2212    -2239    -2241    -2197    -2101    -1976    -1850    -1752 
   -1715    -1753    -1861    -2029    -2197    -2278    -2253    -2157 
   -2022    -1888    -1811    -1833    -1945    -2081    -2176    -2199 
   -2153    -2066    -1966    -1880    -1840    -1849    -1881    -1896 
   -1899    -1925    -1972    -2030    -2084    -2101    -2081    -2060 
   -2042    -2030    -2042    -2088    -2150    -2191    -2174    -2119 
   -2070    -2065    -2116    -2209    -2278    -2258    -2165    -2038 
   -1895    -1798    -1803    -1885    -1992    -2097    -2155    -2115 
   -1988    -1856    -1788    -1800    -1845    -1885    -1923    -1964 
   -2006    -2038    -2031    -1987    -1942    -1929    -1979    -2100 
   -2236    -2297    -2257    -2161    -2047    -1937    -1857    -1834 
   -1876    -1975    -2077    -2137    -2154    -2139    -2091    -2033 
   -2006    -2012    -2023    -2026    -2019    -2030    -2084    -2149 
   -2169    -2158    -2151    -2147    -2116    -2058    -1995    -1941 
   -1899    -1877    -1887    -1908    -1914    -1912    -1927    -1961 
   -2004    -2041    -2057    -2050    -2031    -2016    -2019    -2030 
   -2037    -2043    -2058    -2062    -2043    -2020    -2007    -1995 
   -2000    -2029    -2065    -2095    -2108    -2092    -2052    -2011 
   -1984    -2000    -2076    -2153    -2165    -2103    -1981    -1844 
   -1757    -1763    -1846    -1976    -2111    -2216    -2277    -2288 
   -2253    -2170    -2058    -1972    -1945    -1972    -2020    -2052 
   -2046    -2026    -2008    -1968    -1898    -1849    -1865    -1925 
   -1984    -2020    -2037    -2034    -2008    -1980    -1973    -1991 
   -2011    -2023    -2029    -2026    -2018    -2025    -2074    -2146 
   -2177    -2149    -2097    -2052    -2030    -2043    -2080    -2107 
   -2107    -2091    -2074    -2073    -2088    -2100    -2083    -2023 
   -1939    -1861    -1822    -1840    -1891    -1933    -1962    -2000 
   -2030    -2033    -2020    -2012    -2010    -2007    -2008    -2031 
   -2089    -2166    -2220    -2231    -2203    -2134    -2029    -1902 
   -1787    -1734    -1772    -1891    -2046    -2168    -2205    -2169 
   -2084    -1987    -1921    -1906    -1931    -1976    -2014    -2043 
   -2081    -2126    -2157    -2168    -2157    -2114    -2047    -1996 
   -1977    -1962    -1939    -1933    -1954    -2008    -2093    -2165 
   -2173    -2112    -2012    -1923    -1891    -1910    -1952    -2004 
   -2033    -2011    -1971    -1949    -1962    -1996    -2025    -2038 
   -2022    -1961    -1871    -1815    -1848    -1960    -2093    -2189 
   -2215    -2187    -2145    -2127    -2143    -2169    -2168    -2123 
   -2066    -2034    -2031    -2037    -2035    -2038    -2047    -2056 
   -2068    -2099    -2141    -2158    -2138    -2089    -2020    -1939 
   -1863    -1810    -1807    -1846    -1910    -1971    -1995    -1971 
   -1927    -1917    -1972    -2061    -2123    -2130    -2091    -2029 
   -1977    -1960    -1971    -1980    -1984    -1988    -1980    -1971 
   -1987    -2025    -2053    -2079    -2118    -2151    -2162    -2143 
   -2097    -2042    -2010    -2004    -2011    -2020    -2030    -2030 
