Origin Time       2024/06/23 22:54:00
Lat.              35.645
Long.             140.060
Depth. (km)       72
Mag.              4.1
Station Code      TCGH11
Station Lat.      36.7084
Station Long.     139.7694
Station Height(m) 90
Record Time       2024/06/23 22:55:02
Sampling Freq(Hz) 100Hz
Duration Time(s)  120
Dir.              1
Scale Factor      2942(gal)/8224139
Max. Acc. (gal)   0.262
Last Correction   2024/06/23 22:55:02
Memo.             
[...]
  167625   167692   167752   167672   167579   167607   167634   167556 
  167535   167649   167715   167688   167715   167729   167599   167479 
  167533   167621   167603   167614   167733   167788   167674   167525 
  167514   167645   167794   167813   167688   167572   167553   167601 
  167640   167610   167580   167652   167738   167706   167602   167549 
  167556   167570   167601   167695   167800   167765   167605   167541 
  167620   167644   167595   167634   167718   167703   167651   167640 
  167614   167575   167599   167630   167599   167622   167728   167725 
  167610   167591   167694   167742   167683   167618   167590   167570 
  167582   167621   167614   167582   167634   167738   167767   167707 
  167644   167597   167553   167594   167729   167779   167655   167528 
  167532   167587   167624   167660   167667   167622   167613   167674 
  167690   167626   167622   167688   167680   167617   167606   167622 
  167628   167687   167744   167660   167548   167603   167683   167609 
  167530   167594   167628   167566   167643   167807   167729   167518 
  167526   167652   167643   167589   167641   167726   167752   167751 
  167710   167598   167536   167617   167671   167583   167530   167597 
  167626   167583   167599   167683   167701   167644   167630   167663 
  167690   167740   167752   167626   167479   167499   167599   167630 
  167692   167818   167795   167590   167485   167576   167637   167593 
  167616   167732   167775   167691   167597   167553   167564   167640 
  167713   167691   167624   167590   167582   167576   167590   167649 
  167738   167764   167688   167633   167671   167701   167640   167552 
  167539   167610   167701   167732   167682   167607   167574   167597 
  167651   167683   167698   167728   167698   167570   167513   167605 
  167638   167543   167540   167634   167649   167660   167751   167738 
  167593   167532   167593   167667   167730   167734   167633   167574 
  167656   167690   167566   167522   167641   167702   167702   167776 
  167791   167637   167494   167487   167502   167514   167611   167709 
  167692   167633   167645   167710   167717   167645   167614   167674 
  167759   167790   167694   167559   167537   167564   167549   167575 
  167632   167610   167547   167586   167699   167697   167611   167651 
  167756   167736   167652   167634   167647   167645   167679   167705 
  167614   167489   167535   167695   167711   167622   167659   167746 
  167671   167513   167499   167576   167587   167640   167776   167775 
  167630   167576   167638   167660   167661   167749   167791   167652 
  167506   167509   167597   167706   167768   167702   167601   167617 
  167636   167508   167458   167670   167798   167621   167549   167748 
  167736   167440   167400   167701   167871   167753   167641   167638 
  167610   167606   167703   167764   167697   167638   167682   167661 
  167505   167433   167524   167618   167684   167725   167657   167575 
  167640   167732   167640   167482   167510   167637   167670   167701 
  167796   167786   167622   167503   167557   167709   167819   167800 
  167649   167508   167499   167556   167567   167579   167678   167761 
  167702   167610   167656   167775   167791   167688   167539   167441 
  167501   167641   167698   167661   167634   167674   167709   167643 
  167536   167539   167645   167692   167663   167690   167779   167759 
  167568   167433   167513   167655   167724   167732   167694   167651 
  167647   167663   167660   167625   167601   167624   167651   167657 
  167679   167661   167568   167541   167617   167636   167603   167671 
  167722   167578   167467   167636   167802   167695   167589   167680 
  167702   167576   167598   167738   167667   167483   167555   167780 
  167782   167593   167516   167589   167659   167665   167632   167610 
  167641   167688   167686   167629   167575   167591   167655   167653 
  167560   167529   167657   167791   167767   167675   167641   167636 
  167626   167624   167579   167521   167564   167680   167734   167725 
  167690   167609   167563   167645   167740   167714   167624   167571 
  167556   167589   167687   167737   167655   167574   167579   167595 
  167610   167667   167713   167688   167638   167621   167616   167630 
  167692   167733   167706   167691   167682   167580   167462   167485 
  167617   167670   167568   167509   167672   167868   167806   167571 
  167512   167671   167745   167665   167647   167722   167749   167675 
  167575   167544   167576   167582   167517   167475   167570   167725 
  167753   167652   167620   167709   167761   167707   167651   167638 
  167614   167578   167607   167694   167717   167634   167567   167591 
  167644   167657   167665   167672   167633   167603   167651   167682 
  167597   167493   167535   167661   167706   167688   167701   167692 
  167591   167520   167629   167752   167674   167552   167602   167686 
  167617   167539   167657   167809   167751   167618   167626   167667 
  167617   167584   167616   167607   167582   167629   167678   167651 
  167645   167703   167678   167548   167533   167670   167737   167660 
  167548   167532   167672   167833   167780   167543   167436   167582 
  167728   167715   167663   167645   167594   167547   167582   167636 
  167633   167620   167644   167707   167761   167699   167544   167503 
  167655   167764   167667   167571   167653   167701   167572   167526 
  167691   167769   167663   167661   167768   167674   167483   167537 
  167672   167597   167514   167624   167736   167705   167645   167621 
  167578   167591   167725   167798   167671   167535   167584   167691 
  167682   167624   167651   167691   167626   167574   167648   167695 
  167609   167563   167659   167724   167672   167613   167589   167580 
  167613   167663   167632   167539   167545   167659   167726   167710 
  167671   167649   167640   167630   167644   167705   167751   167680 
  167547   167487   167510   167563   167655   167746   167713   167595 
  167584   167686   167733   167687   167651   167648   167598   167560 
  167655   167725   167606   167514   167645   167759   167656   167575 
  167661   167710   167653   167649   167694   167628   167493   167490 
  167611   167706   167726   167687   167606   167568   167665   167756 
  167656   167559   167690   167821   167718   167576   167584   167584 
  167486   167493   167676   167786   167686   167578   167618   167702 
  167736   167728   167630   167503   167529   167655   167683   167652 
  167697   167744   167652   167541   167576   167610   167552   167586 
  167722   167759   167675   167641   167692   167684   167599   167595 
  167670   167645   167556   167570   167626   167602   167582   167651 
  167710   167682   167655   167702   167732   167661   167578   167570 
  167589   167602   167618   167610   167616   167678   167699   167625 
  167607   167732   167786   167614   167455   167535   167678   167692 
  167713   167800   167755   167548   167441   167539   167663   167667 
  167614   167629   167695   167699   167628   167587   167606   167589 
  167545   167611   167737   167746   167694   167714   167705   167582 
  167545   167683   167756   167680   167641   167663   167587   167489 
  167562   167683   167655   167617   167698   167714   167594   167543 
  167624   167678   167671   167684   167641   167525   167553   167733 
  167738   167564   167571   167748   167738   167563   167557   167706 
  167732   167665   167680   167641   167494   167522   167726   167732 
  167537   167540   167756   167780   167572   167514   167657   167709 
  167632   167618   167667   167659   167629   167648   167636   167562 
  167601   167746   167718   167556   167595   167772   167753   167584 
  167589   167728   167702   167543   167494   167541   167544   167540 
  167626   167734   167740   167652   167607   167679   167763   167733 
  167638   167624   167687   167659   167525   167506   167636   167674 
  167606   167629   167715   167691   167605   167628   167710   167663 
  167499   167429   167552   167725   167776   167725   167682   167675 
  167672   167653   167656   167703   167686   167582   167549   167597 
  167594   167566   167601   167640   167622   167632   167702   167711 
  167611   167517   167525   167626   167728   167718   167638   167637 
  167722   167752   167670   167597   167625   167682   167691   167665 
  167656   167655   167578   167468   167514   167655   167653   167586 
  167682   167806   167699   167509   167513   167616   167621   167621 
  167715   167765   167714   167664   167621   167530   167502   167602 
  167680   167664   167671   167707   167684   167634   167625   167620 
  167578   167543   167606   167711   167709   167674   167719   167719 
  167586   167526   167655   167730   167632   167602   167703   167674 
  167481   167437   167634   167753   167657   167618   167717   167725 
  167621   167628   167749   167759   167644   167586   167617   167638 
  167603   167557   167589   167660   167636   167562   167579   167638 
  167670   167694   167676   167605   167570   167663   167783   167740 
  167626   167653   167706   167634   167572   167601   167609   167591 
  167632   167651   167544   167481   167628   167784   167744   167660 
  167664   167644   167575   167580   167648   167661   167663   167726 
  167726   167607   167535   167595   167652   167618   167599   167686 
  167745   167655   167586   167695   167799   167706   167562   167541 
  167559   167559   167629   167701   167653   167626   167719   167755 
  167630   167532   167593   167668   167601   167499   167552   167695 
  167711   167595   167562   167656   167683   167584   167557   167667 
  167745   167729   167709   167706   167697   167687   167652   167594 
  167578   167586   167540   167481   167525   167629   167649   167644 
  167691   167671   167568   167559   167643   167651   167603   167670 
  167795   167772   167630   167614   167741   167787   167719   167718 
  167768   167707   167599   167593   167605   167552   167572   167687 
  167698   167589   167553   167629   167671   167613   167545   167532 
  167540   167578   167632   167632   167622   167667   167672   167617 
  167637   167718   167737   167738   167763   167697   167583   167616 
  167725   167706   167602   167544   167517   167510   167545   167560 
  167555   167637   167741   167688   167593   167661   167779   167737 
  167602   167551   167620   167726   167815   167868   167794   167580 
  167456   167582   167751   167699   167535   167526   167613   167570 
  167539   167717   167803   167595   167447   167570   167682   167630 
  167599   167630   167609   167634   167833   167988   167842   167539 
  167395   167387   167329   167321   167489   167690   167821   167906 
  167888   167737   167618   167656   167705   167643   167613   167692 
  167702   167551   167462   167618   167791   167645   167329   167340 
  167718   167950   167751   167468   167532   167810   167938   167903 
  167780   167545   167382   167489   167649   167661   167765   167988 
  167857   167366   167182   167486   167668   167521   167521   167775 
  167842   167637   167551   167728   167865   167699   167393   167287 
  167468   167765   167917   167795   167551   167417   167490   167709 
  167904   167898   167721   167586   167539   167490   167466   167545 
  167699   167759   167637   167490   167435   167437   167562   167836 
  168053   167960   167617   167395   167439   167503   167576   167856 
  168049   167779   167431   167541   167827   167776   167532   167398 
  167337   167383   167628   167806   167740   167701   167786   167725 
  167568   167529   167487   167483   167772   168057   167852   167499 
  167576   167736   167520   167375   167668   167907   167733   167535 
  167638   167757   167633   167528   167625   167657   167557   167621 
  167840   167832   167617   167638   167877   167823   167464   167304 
  167404   167421   167389   167601   167907   167865   167598   167717 
  168178   168157   167505   167159   167516   167778   167529   167408 
  167701   167817   167543   167463   167738   167798   167543   167517 
  167738   167740   167587   167614   167661   167510   167360   167444 
  167606   167626   167655   167815   167864   167687   167510   167510 
  167653   167792   167827   167741   167551   167459   167602   167679 
  167508   167458   167698   167786   167501   167325   167605   167910 
  167845   167703   167678   167486   167235   167443   167938   167968 
  167575   167574   167907   167698   167125   167248   167942   168102 
  167701   167563   167663   167544   167456   167682   167826   167684 
  167668   167806   167660   167386   167501   167798   167737   167540 
  167680   167833   167676   167655   167890   167871   167589   167475 
  167417   167103   166984   167516   168056   167923   167601   167655 
  167748   167674   167853   168223   168176   167746   167485   167383 
  167178   167116   167393   167670   167775   167930   168077   167948 
  167647   167522   167559   167402   167154   167417   168058   168107 
  167490   167248   167637   167832   167616   167595   167837   167829 
  167636   167715   167898   167746   167481   167529   167665   167478 
  167244   167445   167827   167833   167563   167489   167616   167578 
  167385   167420   167703   167868   167845   167891   167998   167807 
  167359   167232   167589   167949   167992   167817   167557   167317 
  167263   167431   167688   167913   167898   167448   166908   166992 
  167686   168073   167838   167724   167962   167954   167706   167740 
  167895   167742   167447   167329   167354   167418   167611   167896 
  167896   167556   167329   167271   167119   167134   167595   168035 
  167895   167462   167421   167799   168087   168099   168084   168097 
  167935   167664   167529   167520   167537   167645   167782   167643 
  167306   167316   167679   167773   167499   167410   167576   167458 
  167124   167271   167819   168015   167846   167832   167930   167860 
  167806   167938   167895   167472   167150   167260   167459   167486 
  167593   167836   167879   167706   167593   167560   167591   167799 
  168037   167969   167637   167393   167346   167343   167354   167436 
  167547   167641   167765   167911   167983   167915   167756   167661 
  167692   167692   167587   167517   167602   167773   167861   167802 
  167613   167337   167186   167368   167670   167728   167682   167771 
  167736   167476   167413   167710   168027   168079   167859   167541 
  167340   167302   167279   167204   167278   167668   168076   168141 
  168034   167958   167752   167470   167429   167645   167811   167764 
  167682   167742   167818   167684   167394   167262   167359   167437 
  167425   167413   167410   167516   167760   167834   167649   167589 
  167674   167525   167304   167485   167902   168014   167792   167629 
  167625   167572   167537   167722   167861   167643   167381   167501 
  167790   167780   167613   167744   168002   167945   167729   167628 
  167543   167472   167559   167705   167724   167611   167491   167493 
  167643   167759   167701   167602   167606   167618   167540   167510 
  167630   167740   167734   167686   167644   167622   167620   167579 
  167470   167391   167467   167632   167749   167792   167807   167792 
  167726   167697   167752   167740   167607   167578   167694   167606 
  167255   167148   167451   167645   167548   167645   168053   168188 
  167879   167684   167798   167829   167722   167740   167738   167536 
  167449   167621   167687   167587   167647   167813   167764   167524 
  167401   167455   167439   167305   167282   167497   167823   168010 
  167890   167533   167247   167324   167625   167771   167780   167904 
  167992   167814   167582   167557   167653   167687   167691   167710 
  167617   167427   167377   167493   167599   167684   167768   167753 
  167683   167684   167629   167406   167287   167482   167672   167599 
  167579   167772   167836   167730   167763   167852   167757   167645 
  167728   167827   167730   167590   167576   167526   167394   167437 
  167649   167746   167687   167622   167586   167553   167589   167738 
  167826   167611   167258   167239   167632   167908   167759   167614 
  167746   167771   167599   167643   167886   167927   167748   167593 
  167489   167404   167498   167738   167772   167584   167509   167562 
  167544   167559   167761   167933   167821   167621   167643   167775 
  167746   167605   167584   167707   167769   167628   167363   167221 
  167386   167695   167806   167679   167602   167701   167780   167760 
  167759   167710   167518   167414   167591   167798   167726   167563 
  167616   167702   167521   167282   167368   167660   167763   167742 
  167895   168042   167875   167651   167701   167755   167506   167294 
  167447   167566   167371   167355   167749   167949   167687   167570 
  167810   167788   167398   167274   167489   167536   167432   167510 
  167645   167691   167892   168199   168147   167734   167466   167509 
  167575   167549   167609   167733   167751   167706   167726   167734 
  167613   167489   167514   167553   167481   167471   167629   167733 
  167633   167506   167506   167566   167652   167788   167838   167732 
  167651   167678   167691   167629   167560   167557   167574   167543 
  167598   167819   167949   167810   167686   167842   168029   167918 
  167653   167555   167652   167722   167618   167460   167443   167482 
  167373   167208   167246   167466   167622   167630   167626   167684 
  167734   167733   167692   167641   167628   167647   167671   167746 
  167907   167998   167880   167707   167647   167656   167643   167576 
  167491   167452   167506   167606   167644   167661   167694   167587 
  167389   167359   167478   167556   167601   167724   167857   167818 
  167694   167713   167745   167616   167549   167663   167734   167707 
  167671   167545   167352   167394   167694   167802   167574   167445 
  167644   167800   167668   167574   167760   167945   167877   167741 
  167730   167728   167618   167528   167568   167661   167713   167705 
  167607   167458   167460   167665   167757   167570   167408   167490 
  167603   167574   167548   167660   167771   167707   167526   167454 
  167637   167886   167886   167684   167575   167624   167624   167502 
  167497   167672   167725   167594   167597   167800   167877   167724 
  167636   167684   167611   167444   167463   167621   167678   167657 
  167664   167633   167540   167498   167521   167568   167713   167873 
  167760   167439   167370   167632   167832   167814   167775   167803 
  167850   167894   167879   167771   167664   167599   167475   167317 
  167350   167587   167717   167624   167535   167582   167663   167694 
  167664   167579   167520   167583   167694   167692   167630   167684 
  167799   167772   167641   167597   167648   167664   167579   167506 
  167602   167768   167760   167632   167644   167721   167603   167421 
  167470   167652   167649   167498   167528   167683   167659   167576 
  167684   167807   167736   167637   167661   167664   167603   167620 
  167686   167655   167544   167539   167682   167742   167583   167447 
  167530   167643   167601   167564   167698   167829   167764   167657 
