Origin Time       2024/06/23 22:54:00
Lat.              35.645
Long.             140.060
Depth. (km)       72
Mag.              4.1
Station Code      TCGH19
Station Lat.      36.9060
Station Long.     140.1119
Station Height(m) 204
Record Time       2024/06/23 22:55:07
Sampling Freq(Hz) 100Hz
Duration Time(s)  120
Dir.              6
Scale Factor      7845(gal)/8223790
Max. Acc. (gal)   0.743
Last Correction   2024/06/23 22:54:50
Memo.             
[...]
   -4734    -4607    -4558    -4568    -4583    -4575    -4527    -4514 
   -4618    -4760    -4801    -4731    -4623    -4502    -4391    -4374 
   -4522    -4743    -4842    -4777    -4657    -4546    -4480    -4502 
   -4550    -4565    -4623    -4743    -4827    -4819    -4739    -4618 
   -4465    -4336    -4347    -4529    -4750    -4841    -4725    -4546 
   -4527    -4581    -4552    -4563    -4681    -4764    -4769    -4696 
   -4500    -4330    -4402    -4630    -4768    -4808    -4855    -4799 
   -4531    -4260    -4271    -4507    -4623    -4557    -4648    -4896 
   -4904    -4699    -4619    -4619    -4507    -4394    -4446    -4630 
   -4791    -4803    -4718    -4644    -4495    -4272    -4256    -4525 
   -4807    -4897    -4816    -4698    -4633    -4580    -4526    -4557 
   -4621    -4623    -4650    -4710    -4629    -4444    -4390    -4525 
   -4731    -4864    -4804    -4602    -4437    -4414    -4513    -4656 
   -4752    -4761    -4710    -4635    -4583    -4557    -4533    -4523 
   -4517    -4469    -4464    -4657    -4950    -4995    -4683    -4337 
   -4228    -4320    -4569    -4900    -5076    -4930    -4568    -4270 
   -4233    -4419    -4684    -4901    -4930    -4781    -4615    -4482 
   -4379    -4405    -4564    -4683    -4648    -4585    -4649    -4758 
   -4743    -4603    -4472    -4449    -4526    -4638    -4726    -4762 
   -4758    -4700    -4615    -4584    -4545    -4407    -4348    -4514 
   -4714    -4752    -4685    -4642    -4646    -4644    -4622    -4662 
   -4754    -4716    -4536    -4446    -4480    -4479    -4517    -4711 
   -4868    -4785    -4604    -4553    -4564    -4494    -4449    -4569 
   -4758    -4839    -4764    -4618    -4506    -4452    -4449    -4511 
   -4641    -4770    -4787    -4672    -4556    -4529    -4522    -4483 
   -4504    -4668    -4860    -4903    -4765    -4526    -4286    -4197 
   -4360    -4680    -4939    -4976    -4792    -4534    -4340    -4283 
   -4419    -4714    -4955    -4912    -4639    -4402    -4322    -4432 
   -4719    -4904    -4725    -4453    -4473    -4684    -4795    -4745 
   -4602    -4453    -4398    -4453    -4577    -4742    -4862    -4815 
   -4600    -4401    -4392    -4546    -4687    -4770    -4858    -4841 
   -4583    -4290    -4266    -4480    -4729    -4896    -4901    -4739 
   -4584    -4565    -4549    -4471    -4502    -4668    -4769    -4710 
   -4569    -4484    -4482    -4449    -4426    -4553    -4741    -4819 
   -4808    -4801    -4756    -4590    -4384    -4340    -4504    -4665 
   -4662    -4629    -4710    -4801    -4757    -4619    -4504    -4442 
   -4475    -4617    -4723    -4642    -4461    -4433    -4623    -4804 
   -4776    -4629    -4531    -4468    -4422    -4507    -4669    -4739 
   -4715    -4648    -4571    -4575    -4654    -4706    -4715    -4706 
   -4619    -4483    -4438    -4537    -4664    -4671    -4587    -4569 
   -4627    -4665    -4715    -4768    -4680    -4510    -4476    -4554 
   -4585    -4576    -4621    -4715    -4765    -4706    -4573    -4477 
   -4506    -4606    -4637    -4618    -4657    -4716    -4677    -4550 
   -4448    -4417    -4475    -4664    -4881    -4873    -4612    -4374 
   -4345    -4507    -4776    -4969    -4895    -4604    -4325    -4240 
   -4425    -4752    -4976    -4996    -4857    -4599    -4307    -4186 
   -4360    -4679    -4865    -4789    -4596    -4519    -4546    -4526 
   -4518    -4587    -4588    -4496    -4490    -4644    -4804    -4800 
   -4710    -4675    -4619    -4518    -4525    -4635    -4734    -4801 
   -4785    -4606    -4372    -4309    -4457    -4685    -4851    -4820 
   -4588    -4406    -4425    -4515    -4579    -4646    -4735    -4791 
   -4720    -4531    -4414    -4476    -4572    -4630    -4716    -4768 
   -4749    -4765    -4773    -4652    -4471    -4376    -4401    -4542 
   -4785    -4974    -4908    -4627    -4374    -4293    -4352    -4461 
   -4577    -4708    -4792    -4739    -4594    -4450    -4390    -4476 
   -4677    -4846    -4864    -4743    -4588    -4496    -4492    -4546 
   -4623    -4688    -4738    -4769    -4723    -4587    -4460    -4453 
   -4567    -4706    -4769    -4707    -4580    -4496    -4536    -4653 
   -4679    -4563    -4471    -4482    -4509    -4553    -4683    -4819 
   -4800    -4638    -4515    -4523    -4558    -4571    -4634    -4672 
   -4590    -4579    -4738    -4831    -4743    -4603    -4511    -4483 
   -4502    -4549    -4592    -4568    -4495    -4494    -4594    -4702 
   -4765    -4787    -4745    -4646    -4554    -4479    -4434    -4491 
   -4622    -4715    -4765    -4780    -4692    -4577    -4580    -4665 
   -4704    -4673    -4581    -4453    -4372    -4421    -4623    -4866 
   -4916    -4715    -4500    -4434    -4445    -4461    -4484    -4504 
   -4537    -4627    -4783    -4923    -4922    -4773    -4626    -4549 
   -4476    -4411    -4456    -4606    -4703    -4638    -4511    -4477 
   -4538    -4612    -4637    -4625    -4707    -4872    -4865    -4671 
   -4541    -4469    -4355    -4342    -4511    -4699    -4765    -4754 
   -4792    -4849    -4764    -4521    -4307    -4317    -4540    -4761 
   -4808    -4702    -4556    -4455    -4460    -4585    -4742    -4820 
   -4788    -4677    -4550    -4491    -4536    -4604    -4590    -4514 
   -4492    -4568    -4639    -4592    -4498    -4509    -4600    -4706 
   -4880    -5024    -4889    -4564    -4375    -4384    -4488    -4635 
   -4746    -4745    -4627    -4440    -4334    -4469    -4698    -4738 
   -4614    -4573    -4695    -4833    -4822    -4631    -4386    -4267 
   -4348    -4572    -4839    -4990    -4873    -4549    -4302    -4365 
   -4668    -4932    -4946    -4719    -4457    -4368    -4452    -4560 
   -4617    -4614    -4513    -4395    -4471    -4756    -5013    -5011 
   -4737    -4446    -4386    -4514    -4677    -4797    -4801    -4633 
   -4363    -4174    -4263    -4608    -4903    -4914    -4739    -4557 
   -4449    -4465    -4576    -4685    -4756    -4756    -4646    -4506 
   -4468    -4554    -4664    -4687    -4648    -4629    -4634    -4642 
   -4666    -4671    -4600    -4477    -4387    -4446    -4677    -4899 
   -4935    -4828    -4639    -4394    -4243    -4305    -4487    -4702 
   -4903    -4918    -4684    -4450    -4422    -4546    -4684    -4716 
   -4584    -4407    -4396    -4572    -4738    -4754    -4715    -4718 
   -4653    -4515    -4538    -4718    -4738    -4552    -4449    -4536 
   -4645    -4693    -4729    -4745    -4650    -4440    -4324    -4460 
   -4703    -4869    -4914    -4823    -4675    -4590    -4518    -4399 
   -4372    -4486    -4594    -4610    -4573    -4554    -4602    -4679 
   -4715    -4720    -4741    -4754    -4700    -4560    -4423    -4433 
   -4569    -4654    -4625    -4607    -4658    -4656    -4596    -4607 
   -4675    -4677    -4598    -4531    -4567    -4633    -4603    -4526 
   -4472    -4428    -4473    -4673    -4893    -4955    -4791    -4486 
   -4279    -4302    -4438    -4604    -4850    -5066    -5022    -4761 
   -4541    -4417    -4302    -4282    -4459    -4684    -4700    -4571 
   -4612    -4823    -4868    -4666    -4459    -4421    -4499    -4576 
   -4664    -4779    -4814    -4733    -4617    -4504    -4418    -4429 
   -4587    -4783    -4824    -4681    -4502    -4426    -4492    -4617 
   -4695    -4702    -4649    -4592    -4594    -4607    -4618    -4675 
   -4722    -4684    -4602    -4542    -4540    -4594    -4671    -4737 
   -4738    -4657    -4529    -4405    -4407    -4602    -4810    -4819 
   -4666    -4525    -4487    -4503    -4518    -4557    -4623    -4639 
   -4580    -4511    -4560    -4756    -4895    -4792    -4569    -4428 
   -4403    -4473    -4639    -4810    -4855    -4770    -4662    -4592 
   -4502    -4392    -4396    -4537    -4668    -4714    -4683    -4553 
   -4402    -4401    -4622    -4924    -5030    -4818    -4510    -4374 
   -4414    -4510    -4615    -4718    -4726    -4604    -4476    -4421 
   -4449    -4581    -4749    -4858    -4901    -4866    -4749    -4619 
   -4500    -4382    -4297    -4283    -4407    -4712    -4978    -4958 
   -4764    -4604    -4506    -4452    -4446    -4475    -4577    -4757 
   -4897    -4874    -4704    -4519    -4445    -4513    -4630    -4666 
   -4634    -4621    -4580    -4483    -4433    -4494    -4598    -4672 
   -4707    -4730    -4696    -4569    -4486    -4548    -4610    -4606 
   -4664    -4742    -4676    -4546    -4537    -4603    -4611    -4604 
   -4676    -4737    -4673    -4581    -4546    -4503    -4449    -4457 
   -4507    -4585    -4737    -4880    -4872    -4718    -4538    -4437 
   -4490    -4672    -4796    -4715    -4518    -4409    -4467    -4610 
   -4711    -4722    -4687    -4654    -4611    -4542    -4506    -4544 
   -4579    -4577    -4641    -4784    -4847    -4762    -4598    -4410 
   -4260    -4248    -4406    -4662    -4891    -4972    -4873    -4703 
   -4575    -4480    -4428    -4484    -4612    -4731    -4815    -4784 
   -4629    -4510    -4499    -4487    -4441    -4502    -4725    -4908 
   -4892    -4756    -4607    -4482    -4415    -4387    -4409    -4580 
   -4828    -4884    -4666    -4398    -4288    -4365    -4581    -4837 
   -4926    -4739    -4467    -4388    -4564    -4808    -4912    -4855 
   -4739    -4588    -4417    -4364    -4472    -4569    -4556    -4540 
   -4606    -4704    -4757    -4719    -4608    -4469    -4375    -4440 
   -4661    -4842    -4830    -4664    -4495    -4456    -4525    -4604 
   -4692    -4772    -4777    -4746    -4707    -4590    -4429    -4336 
   -4355    -4499    -4706    -4820    -4781    -4654    -4579    -4639 
   -4729    -4726    -4658    -4585    -4515    -4453    -4461    -4577 
   -4672    -4633    -4558    -4548    -4591    -4677    -4784    -4826 
   -4714    -4525    -4477    -4611    -4704    -4635    -4521    -4490 
   -4561    -4677    -4718    -4621    -4517    -4519    -4568    -4633 
   -4738    -4773    -4660    -4504    -4396    -4391    -4569    -4851 
   -4976    -4846    -4644    -4542    -4563    -4639    -4657    -4544 
   -4413    -4409    -4529    -4677    -4731    -4619    -4446    -4407 
   -4500    -4621    -4757    -4823    -4711    -4531    -4450    -4538 
   -4760    -4893    -4793    -4579    -4392    -4336    -4475    -4679 
   -4769    -4752    -4665    -4506    -4367    -4410    -4638    -4860 
   -4912    -4810    -4673    -4619    -4602    -4522    -4482    -4534 
   -4538    -4509    -4560    -4625    -4623    -4610    -4612    -4618 
   -4633    -4635    -4629    -4648    -4642    -4591    -4633    -4772 
   -4823    -4764    -4747    -4803    -4762    -4509    -4178    -4008 
   -4039    -4212    -4519    -4869    -5076    -5055    -4833    -4503 
   -4302    -4425    -4726    -4888    -4885    -4868    -4791    -4558 
   -4301    -4239    -4388    -4587    -4729    -4816    -4862    -4835 
   -4727    -4600    -4523    -4492    -4465    -4446    -4459    -4509 
   -4577    -4569    -4484    -4519    -4715    -4827    -4752    -4653 
   -4652    -4649    -4542    -4437    -4529    -4846    -5109    -5000 
   -4594    -4279    -4261    -4414    -4567    -4716    -4923    -5024 
   -4784    -4395    -4257    -4388    -4557    -4653    -4650    -4542 
   -4372    -4240    -4293    -4541    -4766    -4814    -4761    -4749 
   -4791    -4799    -4749    -4723    -4774    -4851    -4810    -4579 
   -4349    -4341    -4484    -4542    -4463    -4398    -4418    -4464 
   -4599    -4900    -5124    -5008    -4679    -4432    -4363    -4402 
   -4476    -4565    -4650    -4649    -4538    -4492    -4652    -4849 
   -4839    -4656    -4471    -4359    -4333    -4456    -4710    -4874 
   -4791    -4638    -4635    -4711    -4730    -4710    -4661    -4580 
   -4526    -4541    -4604    -4626    -4537    -4480    -4642    -4860 
   -4874    -4750    -4662    -4581    -4419    -4224    -4168    -4380 
   -4708    -4876    -4868    -4841    -4789    -4618    -4361    -4198 
   -4283    -4568    -4843    -4946    -4850    -4630    -4417    -4367 
   -4523    -4768    -4909    -4799    -4540    -4444    -4563    -4637 
   -4633    -4689    -4703    -4572    -4442    -4403    -4448    -4567 
   -4710    -4849    -4942    -4862    -4649    -4515    -4533    -4615 
   -4671    -4634    -4518    -4414    -4394    -4467    -4580    -4621 
   -4511    -4376    -4406    -4598    -4857    -5123    -5251    -5096 
   -4683    -4234    -4099    -4329    -4549    -4592    -4648    -4703 
   -4626    -4584    -4704    -4791    -4683    -4452    -4290    -4375 
   -4631    -4788    -4762    -4662    -4558    -4521    -4592    -4696 
   -4765    -4826    -4858    -4785    -4672    -4608    -4525    -4434 
   -4487    -4614    -4633    -4571    -4558    -4638    -4693    -4572 
   -4332    -4162    -4141    -4297    -4603    -4912    -5101    -5158 
   -5038    -4752    -4455    -4310    -4406    -4689    -4922    -4901 
   -4676    -4433    -4340    -4468    -4675    -4716    -4571    -4406 
   -4334    -4407    -4619    -4814    -4876    -4838    -4735    -4603 
   -4507    -4440    -4384    -4402    -4510    -4677    -4899    -5057 
   -4949    -4629    -4410    -4413    -4479    -4533    -4642    -4747 
   -4681    -4452    -4291    -4409    -4696    -4816    -4693    -4561 
   -4513    -4469    -4495    -4662    -4839    -4870    -4752    -4569 
   -4445    -4446    -4538    -4635    -4672    -4654    -4648    -4704 
   -4792    -4878    -4999    -5065    -4887    -4491    -4109    -3870 
   -3834    -4056    -4463    -4878    -5128    -5020    -4618    -4374 
   -4486    -4666    -4752    -4862    -4965    -4878    -4685    -4603 
   -4576    -4467    -4388    -4460    -4568    -4583    -4545    -4576 
   -4681    -4714    -4653    -4641    -4664    -4621    -4549    -4510 
   -4488    -4502    -4572    -4637    -4608    -4531    -4571    -4766 
   -4953    -4968    -4796    -4526    -4270    -4133    -4213    -4502 
   -4824    -5005    -5038    -4981    -4824    -4561    -4299    -4228 
   -4388    -4588    -4711    -4885    -5062    -4897    -4352    -3877 
   -3836    -4158    -4565    -4869    -4973    -4833    -4527    -4302 
   -4332    -4568    -4892    -5166    -5238    -5082    -4812    -4523 
   -4302    -4298    -4564    -4834    -4807    -4558    -4325    -4230 
   -4372    -4711    -5008    -5082    -4905    -4588    -4329    -4199 
   -4194    -4357    -4599    -4707    -4672    -4691    -4818    -4889 
   -4776    -4519    -4261    -4176    -4357    -4738    -5076    -5105 
   -4830    -4545    -4423    -4382    -4371    -4477    -4677    -4792 
   -4774    -4753    -4785    -4816    -4777    -4612    -4401    -4302 
   -4314    -4360    -4457    -4608    -4730    -4753    -4698    -4668 
   -4731    -4787    -4720    -4644    -4653    -4608    -4445    -4334 
   -4396    -4530    -4591    -4614    -4738    -4909    -4941    -4837 
   -4710    -4530    -4293    -4187    -4379    -4774    -5093    -5094 
   -4734    -4217    -3856    -3852    -4209    -4750    -5170    -5233 
   -4989    -4672    -4483    -4495    -4633    -4729    -4683    -4561 
   -4496    -4510    -4554    -4622    -4666    -4575    -4415    -4429 
   -4650    -4911    -5089    -5058    -4747    -4361    -4175    -4279 
   -4575    -4845    -4905    -4719    -4392    -4166    -4259    -4594 
   -4874    -4932    -4814    -4653    -4549    -4519    -4531    -4560 
   -4603    -4599    -4525    -4502    -4592    -4742    -4923    -5019 
   -4884    -4598    -4409    -4464    -4661    -4757    -4637    -4388 
   -4147    -4040    -4163    -4461    -4770    -4936    -4882    -4695 
   -4560    -4550    -4607    -4665    -4699    -4676    -4607    -4588 
   -4648    -4725    -4795    -4837    -4799    -4687    -4558    -4467 
   -4433    -4445    -4495    -4534    -4556    -4672    -4880    -4958 
   -4822    -4630    -4490    -4406    -4391    -4437    -4475    -4448 
   -4379    -4374    -4518    -4739    -4858    -4800    -4639    -4534 
   -4583    -4725    -4824    -4826    -4762    -4692    -4653    -4664 
   -4707    -4725    -4691    -4622    -4523    -4441    -4446    -4510 
   -4519    -4442    -4387    -4461    -4595    -4662    -4680    -4764 
   -4888    -4882    -4704    -4509    -4368    -4260    -4270    -4488 
   -4810    -5032    -5050    -4912    -4754    -4641    -4561    -4560 
   -4638    -4629    -4460    -4311    -4321    -4418    -4519    -4606 
   -4637    -4583    -4476    -4423    -4553    -4783    -4866    -4772 
   -4673    -4625    -4615    -4652    -4685    -4699    -4708    -4673 
   -4588    -4475    -4355    -4356    -4564    -4796    -4834    -4681 
   -4475    -4356    -4450    -4731    -4957    -4963    -4827    -4626 
   -4392    -4268    -4359    -4561    -4737    -4833    -4849    -4818 
   -4725    -4561    -4409    -4342    -4349    -4402    -4531    -4753 
   -4950    -4966    -4811    -4662    -4617    -4576    -4449    -4348 
   -4398    -4531    -4603    -4594    -4581    -4581    -4573    -4567 
   -4573    -4604    -4729    -4949    -5100    -5057    -4865    -4654 
   -4476    -4342    -4291    -4301    -4328    -4426    -4592    -4696 
   -4703    -4671    -4595    -4510    -4510    -4634    -4797    -4785 
   -4553    -4396    -4456    -4526    -4527    -4577    -4660    -4656 
   -4590    -4606    -4726    -4815    -4788    -4691    -4594    -4541 
   -4594    -4766    -4941    -4966    -4835    -4644    -4488    -4402 
   -4336    -4257    -4261    -4414    -4654    -4847    -4884    -4792 
   -4698    -4644    -4553    -4428    -4387    -4471    -4598    -4673 
   -4641    -4550    -4558    -4666    -4702    -4635    -4567    -4514 
   -4465    -4449    -4491    -4575    -4661    -4753    -4907    -5058 
   -5005    -4703    -4405    -4375    -4569    -4734    -4765    -4747 
   -4687    -4513    -4328    -4294    -4371    -4453    -4554    -4692 
   -4792    -4784    -4691    -4631    -4665    -4715    -4707    -4669 
   -4650    -4615    -4525    -4473    -4519    -4576    -4563    -4514 
   -4541    -4675    -4747    -4638    -4500    -4500    -4603    -4729 
   -4850    -4908    -4828    -4625    -4422    -4367    -4502    -4706 
   -4800    -4710    -4504    -4336    -4371    -4611    -4841    -4884 
   -4723    -4459    -4283    -4363    -4592    -4699    -4629    -4521 
   -4438    -4428    -4548    -4735    -4864    -4869    -4787    -4704 
   -4606    -4463    -4432    -4567    -4660    -4621    -4615    -4696 
   -4712    -4635    -4617    -4654    -4619    -4569    -4644    -4772 
   -4792    -4699    -4626    -4639    -4635    -4554    -4487    -4464 
   -4415    -4396    -4482    -4577    -4594    -4591    -4626    -4645 
   -4610    -4585    -4631    -4727    -4819    -4855    -4814    -4703 
   -4587    -4519    -4487    -4515    -4665    -4846    -4843    -4599 
   -4351    -4338    -4449    -4476    -4498    -4602    -4629    -4500 
   -4413    -4548    -4804    -4943    -4919    -4827    -4681    -4504 
   -4459    -4580    -4693    -4720    -4715    -4650    -4536    -4490 
   -4534    -4591    -4619    -4560    -4399    -4266    -4274    -4442 
   -4743    -5005    -5024    -4853    -4712    -4665    -4660    -4660 
   -4631    -4576    -4511    -4429    -4409    -4568    -4793    -4823 
   -4665    -4536    -4506    -4553    -4654    -4766    -4834    -4750 
   -4488    -4293    -4361    -4538    -4623    -4650    -4665    -4622 
