Origin Time       2024/06/23 22:54:00
Lat.              35.645
Long.             140.060
Depth. (km)       72
Mag.              4.1
Station Code      TCGH12
Station Lat.      36.6959
Station Long.     139.9842
Station Height(m) 42
Record Time       2024/06/23 22:55:00
Sampling Freq(Hz) 100Hz
Duration Time(s)  120
Dir.              3
Scale Factor      2942(gal)/8224139
Max. Acc. (gal)   0.190
Last Correction   2024/06/23 22:55:00
Memo.             
[...]
   -3078    -3032    -2893    -2793    -2899    -3153    -3279    -3159 
   -3014    -3046    -3127    -3021    -2825    -2818    -2959    -3073 
   -3095    -2979    -2833    -2806    -2867    -2979    -3140    -3237 
   -3215    -3161    -3095    -2983    -2898    -2922    -2947    -2899 
   -2938    -2982    -2891    -2941    -3165    -3234    -3125    -3011 
   -2943    -2905    -2882    -2911    -3075    -3221    -3094    -2887 
   -2956    -3146    -3119    -2974    -2975    -3026    -2960    -2895 
   -2907    -2952    -2998    -2975    -2970    -3126    -3235    -3134 
   -3026    -2959    -2837    -2801    -2949    -3117    -3129    -3032 
   -2990    -3005    -2949    -2920    -3045    -3140    -3049    -2990 
   -3073    -3033    -2847    -2887    -3113    -3145    -3063    -3053 
   -3013    -2978    -3053    -3044    -2891    -2882    -3052    -3103 
   -3007    -2997    -3053    -3030    -2987    -2974    -2955    -2902 
   -2889    -3032    -3126    -2979    -2930    -3122    -3184    -3065 
   -2909    -2687    -2654    -2945    -3206    -3233    -3141    -3076 
   -3056    -2953    -2894    -3028    -3063    -2925    -2941    -3072 
   -3038    -2957    -3072    -3237    -3149    -2914    -2833    -2884 
   -2928    -2986    -3063    -3105    -3118    -3079    -3014    -3022 
   -3003    -2926    -2976    -3026    -2934    -2894    -2918    -2964 
   -3137    -3256    -3117    -2884    -2824    -3001    -3129    -2998 
   -2906    -3025    -3088    -2968    -2879    -2952    -3021    -2972 
   -2921    -2953    -3079    -3184    -3127    -3049    -3064    -2998 
   -2836    -2756    -2791    -2941    -3107    -3102    -3065    -3137 
   -3150    -3088    -3079    -3045    -2870    -2760    -2898    -3003 
   -2941    -2967    -3094    -3130    -3071    -3051    -3073    -2943 
   -2768    -2917    -3173    -3115    -2934    -2961    -3060    -3018 
   -3003    -3105    -3052    -2848    -2825    -2974    -3072    -3113 
   -3113    -3055    -2990    -2960    -3006    -3052    -2960    -2920 
   -3067    -3092    -2959    -2968    -3041    -3053    -3060    -2953 
   -2851    -2909    -2937    -2953    -3053    -3096    -3102    -3103 
   -3028    -2992    -3009    -2941    -2871    -2874    -2893    -2955 
   -3073    -3152    -3138    -3042    -2988    -3061    -3080    -2984 
   -2924    -2906    -2982    -3146    -3119    -2930    -2893    -3042 
   -3191    -3159    -3021    -3010    -3048    -2975    -2957    -3006 
   -2879    -2710    -2860    -3167    -3183    -3014    -3052    -3206 
   -3159    -2925    -2770    -2851    -3014    -3057    -3064    -3090 
   -2990    -2871    -2968    -3111    -3029    -2878    -2864    -2948 
   -3076    -3183    -3171    -3096    -3075    -3076    -3013    -2905 
   -2859    -2960    -3115    -3098    -2918    -2826    -2918    -3083 
   -3167    -3080    -2960    -2988    -3041    -2970    -2964    -3055 
   -3032    -2994    -2992    -2849    -2729    -2868    -3068    -3113 
   -3090    -3067    -3022    -3038    -3137    -3159    -3009    -2781 
   -2741    -2999    -3238    -3207    -3007    -2882    -2955    -3080 
   -3069    -2944    -2890    -3014    -3127    -3051    -2922    -2913 
   -2987    -3052    -3115    -3156    -3045    -2866    -2856    -2987 
   -3040    -2978    -2929    -2952    -2975    -2995    -3073    -3144 
   -3176    -3186    -3125    -3053    -3034    -2994    -2882    -2808 
   -2871    -2920    -2853    -2926    -3199    -3289    -3087    -3024 
   -3221    -3187    -2889    -2785    -2816    -2790    -2859    -3055 
   -3203    -3180    -3082    -3068    -3069    -2992    -2910    -2922 
   -2976    -2925    -2863    -2961    -3100    -3111    -3028    -3022 
   -3129    -3084    -2818    -2751    -3052    -3177    -2937    -2868 
   -3068    -3145    -3069    -3069    -3144    -3053    -2856    -2934 
   -3192    -3122    -2772    -2737    -3056    -3165    -2963    -2891 
   -3078    -3165    -3024    -2983    -3065    -2928    -2772    -2952 
   -3107    -2970    -2899    -3001    -2979    -2911    -3033    -3119 
   -2983    -2905    -3017    -3126    -3218    -3260    -3061    -2747 
   -2690    -2879    -3009    -3040    -3103    -3157    -3121    -3075 
   -3114    -3095    -2886    -2763    -2867    -2895    -2907    -3148 
   -3262    -3064    -3024    -3199    -3153    -2955    -2922    -2992 
   -3014    -2988    -2952    -2961    -2988    -2978    -2999    -3063 
   -3055    -2990    -2995    -2999    -2916    -2988    -3235    -3230 
   -2929    -2712    -2786    -2988    -3011    -2967    -3096    -3156 
   -3007    -2944    -3030    -3010    -2897    -2944    -3095    -3113 
   -2999    -2952    -3095    -3229    -3059    -2725    -2689    -2940 
   -3072    -3106    -3213    -3190    -3018    -2980    -2978    -2835 
   -2779    -2884    -2967    -3002    -3046    -3091    -3083    -3072 
   -3140    -3102    -2870    -2794    -3009    -3071    -2863    -2824 
   -3015    -3122    -3159    -3210    -3140    -3003    -2988    -3033 
   -3045    -3014    -2857    -2766    -2959    -3130    -3118    -3134 
   -3130    -3017    -2916    -2879    -2880    -2876    -2910    -3041 
   -3113    -3052    -3046    -3133    -3103    -2934    -2887    -2997 
   -2952    -2790    -2876    -3110    -3125    -3052    -3073    -3052 
   -3041    -3073    -3002    -2916    -2916    -2926    -2963    -3022 
   -3060    -3121    -3072    -2855    -2816    -2994    -3065    -3025 
   -3017    -3076    -3132    -3033    -2880    -2936    -3109    -3091 
   -2983    -3092    -3256    -3123    -2852    -2803    -2945    -2994 
   -2941    -3019    -3157    -3118    -2998    -3038    -3187    -3144 
   -2875    -2729    -2867    -3037    -3086    -3110    -3083    -2965 
   -2940    -3006    -2975    -2913    -3001    -3107    -3013    -2882 
   -2937    -3030    -2983    -2925    -2997    -3076    -3032    -2963 
   -2982    -3003    -2922    -2836    -2863    -2978    -3127    -3171 
   -3030    -2964    -3096    -3146    -3057    -3056    -3080    -2978 
   -2886    -2960    -3095    -3041    -2860    -2887    -3065    -3063 
   -2951    -2980    -3086    -3130    -3076    -2974    -2960    -3021 
   -3040    -3018    -2957    -2921    -3005    -3084    -3065    -3068 
   -2997    -2810    -2862    -3106    -3084    -2891    -2856    -2940 
   -3071    -3130    -3001    -2876    -2898    -2968    -3056    -3069 
   -2944    -2884    -2997    -3084    -3051    -3051    -3165    -3190 
   -3051    -2983    -2983    -2884    -2849    -2995    -3075    -2983 
   -2936    -3048    -3172    -3167    -3069    -3026    -3013    -2899 
   -2774    -2741    -2782    -2928    -3107    -3165    -3148    -3136 
   -3127    -3198    -3299    -3168    -2808    -2601    -2756    -3003 
   -3019    -2948    -3041    -3173    -3215    -3276    -3306    -3165 
   -2959    -2836    -2775    -2756    -2790    -2853    -2994    -3180 
   -3210    -3060    -2967    -3048    -3060    -2863    -2771    -2898 
   -2956    -2938    -3060    -3181    -3142    -3150    -3195    -3044 
   -2867    -2890    -2959    -2882    -2771    -2889    -3163    -3245 
   -3172    -3180    -3186    -3095    -3044    -3071    -2968    -2747 
   -2798    -3060    -3022    -2816    -2836    -2922    -2957    -3068 
   -3176    -3200    -3163    -3057    -2970    -2906    -2782    -2779 
   -2934    -2963    -2920    -2961    -3014    -3121    -3277    -3289 
   -3117    -2938    -2886    -2887    -2870    -2905    -2978    -3002 
   -3022    -3078    -3099    -3049    -2997    -3038    -3103    -3071 
   -3029    -3065    -3056    -2970    -2926    -2978    -3073    -3083 
   -2992    -2963    -2994    -2992    -2995    -3007    -2980    -2914 
   -2879    -3030    -3246    -3184    -2982    -2948    -2933    -2825 
   -2814    -2903    -2943    -2984    -3122    -3223    -3208    -3164 
   -3083    -2974    -2907    -2871    -2845    -2876    -2992    -3134 
   -3177    -3109    -3061    -3087    -3040    -2905    -2903    -2994 
   -2957    -2910    -2980    -2999    -2930    -2963    -3073    -3113 
   -3080    -3013    -3007    -3099    -3082    -2901    -2770    -2763 
   -2849    -3041    -3204    -3208    -3149    -3069    -2971    -2957 
   -2938    -2814    -2817    -3003    -3095    -3071    -3091    -3091 
   -3052    -3072    -3024    -2847    -2770    -2852    -3009    -3164 
   -3142    -3053    -3161    -3246    -3046    -2844    -2857    -2879 
   -2817    -2806    -2872    -2963    -3083    -3202    -3261    -3256 
   -3215    -3142    -2983    -2775    -2695    -2791    -2916    -2999 
   -3091    -3198    -3254    -3159    -2944    -2916    -3078    -3034 
   -2843    -2855    -3019    -3114    -3071    -2999    -3011    -2988 
   -2894    -2924    -3091    -3183    -3125    -3055    -3061    -3045 
   -2936    -2844    -2859    -2926    -2980    -2964    -2936    -3065 
   -3237    -3176    -2984    -2898    -2903    -2889    -2847    -2929 
   -3114    -3091    -2897    -2909    -3094    -3127    -3059    -3071 
   -3046    -2951    -2943    -3006    -3067    -3076    -3010    -3014 
   -3055    -2951    -2899    -3049    -3083    -2925    -2889    -2988 
   -3037    -3024    -2963    -2903    -2929    -2983    -3017    -3075 
   -3096    -3048    -3015    -2986    -2918    -2890    -2932    -3044 
   -3165    -3137    -2994    -2987    -3114    -3129    -3009    -2898 
   -2835    -2871    -3015    -3106    -3076    -3018    -3003    -3013 
   -2990    -2961    -2974    -2968    -2949    -3018    -3096    -3072 
   -3040    -3046    -3067    -3105    -3091    -2999    -2943    -2968 
   -2983    -2963    -2965    -2992    -3028    -3040    -2991    -3005 
   -3134    -3184    -3040    -2899    -2924    -2968    -2920    -2914 
   -3021    -3091    -3051    -2990    -3002    -3087    -3084    -2968 
   -2936    -2953    -2901    -2918    -3046    -3141    -3145    -3080 
   -3029    -3030    -2957    -2802    -2789    -2934    -2982    -2916 
   -2934    -3006    -2992    -2945    -2968    -2997    -2953    -2901 
   -2913    -2986    -3033    -3032    -3090    -3157    -3114    -3013 
   -2925    -2914    -2995    -3030    -3022    -3095    -3180    -3198 
   -3159    -3063    -2965    -2884    -2817    -2848    -2976    -3078 
   -3129    -3125    -3038    -3006    -3105    -3132    -2998    -2911 
   -2928    -2894    -2937    -3199    -3311    -3068    -2879    -2909 
   -2932    -2913    -2914    -2943    -2975    -3006    -3145    -3272 
   -3103    -2898    -2956    -3029    -2955    -2897    -2889    -2862 
   -2884    -3010    -3122    -3091    -2932    -2862    -2992    -3068 
   -2979    -2960    -3045    -3040    -2960    -2972    -3041    -3006 
   -2934    -3002    -3117    -3079    -2956    -2951    -3028    -3038 
   -2997    -2982    -3051    -3117    -3052    -2959    -2925    -2890 
   -2857    -2890    -3030    -3171    -3127    -3014    -3049    -3153 
   -3123    -2997    -2945    -2965    -2971    -3009    -3078    -3065 
   -2994    -2980    -3024    -3068    -3083    -3040    -3015    -3094 
   -3169    -3079    -2891    -2849    -2948    -2986    -2975    -3025 
   -3055    -3013    -3061    -3208    -3191    -2951    -2783    -2871 
   -3026    -3068    -3065    -3105    -3100    -2979    -2866    -2878 
   -2862    -2772    -2860    -3098    -3215    -3168    -3086    -3067 
   -3064    -2961    -2820    -2756    -2805    -2997    -3222    -3211 
   -2986    -2882    -2994    -3090    -3025    -2875    -2833    -2988 
   -3156    -3200    -3177    -3065    -2870    -2856    -3083    -3195 
   -3036    -2863    -2895    -3013    -3021    -2964    -2987    -3096 
   -3142    -3036    -2909    -2882    -2944    -3073    -3171    -3113 
   -2979    -2922    -2951    -3019    -3071    -3052    -2988    -2905 
   -2830    -2843    -2999    -3246    -3377    -3285    -3109    -2930 
   -2756    -2732    -2895    -2971    -2847    -2783    -2870    -2961 
   -3060    -3161    -3190    -3125    -2963    -2851    -2937    -3061 
   -3111    -3094    -2955    -2879    -3028    -3107    -2998    -3003 
   -3138    -3159    -3105    -3119    -3152    -3071    -2867    -2775 
   -2918    -3017    -2914    -2851    -2943    -3003    -2982    -3068 
   -3242    -3192    -2938    -2847    -2956    -3006    -2980    -3061 
   -3188    -3171    -3048    -2987    -2986    -2933    -2897    -2997 
   -3098    -3078    -3032    -3033    -2967    -2783    -2706    -2825 
   -2975    -3100    -3192    -3144    -3024    -2986    -2974    -2926 
   -2924    -2925    -2860    -2825    -2921    -3110    -3241    -3199 
   -3095    -3086    -3067    -2998    -3033    -3078    -2947    -2810 
   -2857    -2953    -2995    -3076    -3176    -3173    -3132    -3132 
   -3032    -2789    -2643    -2764    -3041    -3165    -3026    -2967 
   -3161    -3310    -3265    -3130    -2949    -2837    -2876    -2914 
   -2918    -3049    -3187    -3127    -3005    -2980    -2959    -2874 
   -2878    -3065    -3233    -3161    -2984    -2918    -2898    -2849 
   -2926    -3087    -3086    -3014    -3055    -3022    -2857    -2766 
   -2781    -2870    -2960    -2932    -2937    -3127    -3299    -3292 
   -3194    -3068    -2884    -2677    -2646    -2874    -3080    -3111 
   -3159    -3273    -3262    -3083    -2938    -2880    -2787    -2744 
   -2817    -2948    -3177    -3430    -3480    -3319    -3096    -2913 
   -2833    -2836    -2789    -2714    -2743    -2845    -2968    -3103 
   -3172    -3210    -3267    -3277    -3291    -3219    -2889    -2546 
   -2474    -2581    -2721    -2879    -3102    -3385    -3514    -3388 
   -3248    -3168    -3028    -2841    -2706    -2687    -2781    -2860 
   -2880    -2968    -3053    -2990    -2930    -2928    -2914    -3032 
   -3225    -3245    -3127    -3002    -2893    -2887    -2998    -3083 
   -3117    -3148    -3121    -3051    -3002    -2938    -2868    -2875 
   -2964    -3110    -3222    -3225    -3192    -3171    -3136    -3079 
   -2990    -2897    -2775    -2627    -2667    -2932    -3157    -3248 
   -3269    -3211    -3126    -3065    -3006    -2983    -2964    -2860 
   -2762    -2779    -2884    -3040    -3206    -3281    -3148    -2913 
   -2806    -2841    -2922    -2967    -2947    -3010    -3194    -3299 
   -3241    -3038    -2717    -2485    -2527    -2727    -2930    -3105 
   -3269    -3406    -3406    -3272    -3102    -2907    -2732    -2710 
   -2848    -3032    -3098    -2963    -2872    -2953    -2951    -2897 
   -3022    -3277    -3508    -3493    -3214    -3003    -2940    -2848 
   -2759    -2771    -2901    -3079    -3176    -3171    -3096    -2951 
   -2848    -2902    -3013    -3083    -3153    -3192    -3114    -2957 
   -2841    -2843    -2909    -2947    -3014    -3110    -3127    -3137 
   -3154    -3073    -2971    -2916    -2836    -2782    -2876    -3011 
   -2974    -2801    -2648    -2582    -2682    -2933    -3164    -3316 
   -3451    -3489    -3311    -3063    -2944    -2862    -2732    -2704 
   -2778    -2829    -2933    -3165    -3404    -3489    -3350    -3087 
   -2871    -2722    -2644    -2691    -2797    -2910    -3038    -3099 
   -3140    -3250    -3244    -3034    -2891    -2965    -3071    -3055 
   -2968    -2963    -3057    -3100    -3065    -3036    -3015    -3033 
   -3052    -2968    -2880    -2875    -2891    -2965    -3075    -3122 
   -3150    -3221    -3260    -3179    -3026    -2936    -2988    -3137 
   -3167    -2974    -2772    -2728    -2728    -2744    -2880    -3090 
   -3245    -3262    -3103    -2875    -2712    -2660    -2716    -2893 
   -3130    -3253    -3198    -3088    -2991    -2878    -2771    -2722 
   -2720    -2812    -3036    -3235    -3304    -3252    -3095    -2964 
   -2934    -2910    -2886    -2937    -3049    -3153    -3176    -3099 
   -2961    -2809    -2741    -2855    -3059    -3191    -3272    -3357 
   -3319    -3145    -3009    -2907    -2776    -2760    -2907    -3018 
   -3028    -3061    -3122    -3092    -2986    -2974    -3017    -2960 
   -2901    -2920    -3024    -3207    -3250    -3072    -2918    -2866 
   -2832    -2862    -2934    -2972    -3019    -3078    -3069    -3052 
   -3119    -3168    -3122    -3078    -3061    -2998    -2874    -2794 
   -2849    -2913    -2841    -2817    -3034    -3269    -3281    -3184 
   -3100    -3022    -2963    -2930    -2879    -2809    -2801    -2895 
   -2986    -3010    -3082    -3229    -3298    -3262    -3221    -3134 
   -2926    -2713    -2686    -2816    -2951    -3071    -3192    -3260 
   -3221    -3106    -3015    -2997    -2984    -2918    -2878    -2929 
   -2953    -2947    -3009    -3060    -3040    -3019    -2971    -2876 
   -2876    -3001    -3079    -3063    -3079    -3100    -2995    -2924 
   -3032    -3134    -3053    -2893    -2843    -2936    -3044    -3098 
   -3098    -3051    -3014    -3041    -3075    -3026    -2953    -2997 
   -3117    -3103    -2949    -2879    -2928    -2979    -3014    -3038 
   -3018    -2982    -2980    -2987    -2959    -2961    -2998    -2965 
   -2859    -2783    -2898    -3172    -3298    -3229    -3176    -3111 
   -2992    -2926    -2922    -2949    -3014    -3086    -3140    -3136 
   -3028    -2909    -2880    -2893    -2909    -2971    -3065    -3117 
   -3078    -3002    -2967    -2940    -2917    -2964    -2983    -2895 
   -2848    -2953    -3098    -3111    -3013    -2948    -2913    -2851 
   -2853    -2949    -3060    -3141    -3157    -3138    -3113    -3036 
   -2994    -3036    -3029    -2970    -2952    -2963    -2965    -2955 
   -2926    -2941    -3076    -3213    -3191    -3076    -2992    -2968 
   -2949    -2905    -2924    -3017    -3019    -2883    -2841    -2994 
   -3086    -3017    -3017    -3132    -3160    -3088    -3029    -2972 
   -2921    -2965    -3092    -3149    -3040    -2909    -2937    -3040 
   -3094    -3150    -3198    -3175    -3076    -2911    -2779    -2774 
   -2801    -2833    -2956    -3110    -3148    -3048    -2938    -2932 
   -2968    -2978    -2975    -2965    -2953    -2968    -3030    -3103 
   -3092    -3040    -3011    -2930    -2855    -2938    -3080    -3167 
   -3304    -3403    -3292    -3125    -3025    -2952    -2937    -2952 
   -2910    -2895    -2971    -3053    -3103    -3122    -3096    -3041 
   -2992    -2963    -2960    -2986    -3003    -2968    -2913    -2917 
   -2964    -2984    -3002    -3006    -2928    -2805    -2743    -2775 
   -2825    -2855    -2951    -3113    -3226    -3244    -3172    -2992 
   -2778    -2724    -2863    -2998    -2971    -2867    -2878    -3005 
   -3100    -3106    -3067    -3024    -2978    -2930    -2965    -3091 
   -3148    -3092    -3044    -3044    -3053    -3071    -3113    -3125 
   -3046    -2932    -2914    -3014    -3090    -3110    -3133    -3115 
   -3063    -3056    -3064    -3024    -2983    -2998    -3030    -3013 
   -2959    -2940    -2953    -2955    -2952    -2920    -2848    -2816 
   -2851    -2905    -2961    -3003    -3013    -3001    -2974    -2957 
   -3006    -3130    -3249    -3256    -3152    -3018    -2959    -2992 
   -3014    -3014    -3048    -3052    -3036    -3072    -3094    -3051 
   -2997    -2945    -2910    -2918    -2924    -2917    -2921    -2937 
   -2986    -3068    -3105    -3060    -3046    -3109    -3141    -3125 
   -3091    -3014    -2940    -2914    -2868    -2803    -2805    -2820 
   -2809    -2860    -2961    -3042    -3123    -3199    -3248    -3234 
