Origin Time       2024/06/23 22:54:00
Lat.              35.645
Long.             140.060
Depth. (km)       72
Mag.              4.1
Station Code      TCGH06
Station Lat.      36.4458
Station Long.     139.9509
Station Height(m) -1577.98
Record Time       2024/06/23 22:54:53
Sampling Freq(Hz) 100Hz
Duration Time(s)  120
Dir.              3
Scale Factor      7845(gal)/6170801
Max. Acc. (gal)   0.234
Last Correction   2024/06/23 22:54:38
Memo.             
[...]
   -9836    -9818    -9800    -9832    -9854    -9799    -9785    -9856 
   -9837    -9746    -9764    -9838    -9857    -9851    -9828    -9775 
   -9761    -9830    -9890    -9852    -9774    -9778    -9821    -9812 
   -9817    -9842    -9806    -9765    -9791    -9821    -9804    -9807 
   -9828    -9796    -9789    -9853    -9853    -9785    -9780    -9822 
   -9859    -9870    -9817    -9769    -9780    -9801    -9827    -9859 
   -9844    -9783    -9756    -9772    -9792    -9839    -9880    -9848 
   -9803    -9805    -9805    -9806    -9833    -9819    -9770    -9791 
   -9852    -9837    -9777    -9779    -9820    -9829    -9835    -9848 
   -9832    -9795    -9771    -9780    -9798    -9827    -9872    -9867 
   -9819    -9782    -9758    -9782    -9829    -9818    -9795    -9823 
   -9851    -9840    -9838    -9849    -9804    -9734    -9756    -9830 
   -9844    -9822    -9810    -9804    -9804    -9811    -9832    -9850 
   -9831    -9780    -9772    -9830    -9852    -9820    -9813    -9807 
   -9772    -9761    -9793    -9833    -9865    -9852    -9777    -9746 
   -9825    -9898    -9866    -9773    -9739    -9796    -9841    -9855 
   -9872    -9823    -9779    -9820    -9798    -9741    -9771    -9805 
   -9837    -9894    -9883    -9827    -9780    -9744    -9765    -9816 
   -9825    -9823    -9837    -9842    -9843    -9834    -9777    -9708 
   -9742    -9845    -9851    -9809    -9829    -9836    -9818    -9840 
   -9833    -9778    -9753    -9791    -9865    -9879    -9827    -9830 
   -9878    -9857    -9783    -9747    -9768    -9790    -9799    -9816 
   -9839    -9863    -9861    -9812    -9766    -9766    -9771    -9786 
   -9841    -9858    -9823    -9822    -9822    -9806    -9832    -9831 
   -9769    -9751    -9809    -9855    -9840    -9822    -9827    -9820 
   -9820    -9830    -9803    -9774    -9789    -9830    -9865    -9819 
   -9735    -9757    -9813    -9816    -9839    -9859    -9825    -9799 
   -9813    -9830    -9834    -9804    -9760    -9797    -9854    -9804 
   -9762    -9799    -9814    -9830    -9858    -9813    -9776    -9842 
   -9900    -9880    -9842    -9782    -9744    -9797    -9854    -9816 
   -9739    -9756    -9852    -9865    -9786    -9774    -9819    -9813 
   -9810    -9842    -9838    -9838    -9873    -9858    -9784    -9721 
   -9689    -9722    -9845    -9911    -9866    -9844    -9820    -9749 
   -9751    -9834    -9883    -9864    -9807    -9761    -9776    -9800 
   -9799    -9858    -9898    -9822    -9764    -9756    -9754    -9814 
   -9855    -9831    -9837    -9832    -9811    -9865    -9910    -9854 
   -9800    -9794    -9752    -9736    -9811    -9802    -9717    -9795 
   -9908    -9829    -9755    -9816    -9848    -9799    -9771    -9813 
   -9854    -9820    -9783    -9830    -9886    -9867    -9812    -9774 
   -9761    -9765    -9758    -9770    -9842    -9882    -9844    -9806 
   -9795    -9810    -9800    -9738    -9771    -9896    -9929    -9874 
   -9848    -9839    -9802    -9753    -9721    -9717    -9772    -9884 
   -9935    -9877    -9785    -9727    -9768    -9877    -9909    -9835 
   -9778    -9793    -9791    -9738    -9735    -9823    -9872    -9809 
   -9767    -9811    -9845    -9847    -9843    -9851    -9888    -9864 
   -9766    -9755    -9802    -9785    -9772    -9780    -9789    -9837 
   -9849    -9799    -9822    -9883    -9812    -9724    -9790    -9857 
   -9816    -9785    -9794    -9768    -9743    -9802    -9897    -9925 
   -9859    -9775    -9783    -9832    -9814    -9798    -9806    -9786 
   -9823    -9905    -9898    -9845    -9813    -9749    -9676    -9711 
   -9803    -9839    -9870    -9890    -9804    -9730    -9771    -9805 
   -9829    -9896    -9897    -9839    -9835    -9835    -9804    -9783 
   -9765    -9769    -9805    -9821    -9791    -9733    -9752    -9866 
   -9883    -9817    -9817    -9783    -9727    -9779    -9836    -9838 
   -9841    -9838    -9837    -9832    -9816    -9804    -9792    -9790 
   -9812    -9844    -9831    -9786    -9805    -9851    -9844    -9834 
   -9835    -9794    -9750    -9765    -9806    -9838    -9872    -9893 
   -9869    -9812    -9757    -9771    -9832    -9825    -9777    -9794 
   -9850    -9863    -9814    -9779    -9776    -9775    -9833    -9880 
   -9829    -9769    -9734    -9737    -9802    -9844    -9861    -9863 
   -9789    -9760    -9844    -9857    -9767    -9751    -9839    -9883 
   -9837    -9805    -9822    -9815    -9772    -9781    -9836    -9833 
   -9794    -9789    -9781    -9790    -9837    -9840    -9825    -9863 
   -9849    -9784    -9818    -9853    -9795    -9806    -9833    -9780 
   -9799    -9811    -9728    -9763    -9878    -9879    -9870    -9907 
   -9870    -9781    -9731    -9744    -9794    -9822    -9840    -9862 
   -9831    -9767    -9749    -9786    -9840    -9861    -9852    -9842 
   -9811    -9766    -9781    -9849    -9876    -9837    -9789    -9771 
   -9760    -9767    -9814    -9819    -9797    -9821    -9809    -9767 
   -9806    -9865    -9854    -9814    -9784    -9785    -9818    -9855 
   -9874    -9852    -9798    -9776    -9803    -9800    -9758    -9764 
   -9818    -9847    -9846    -9841    -9854    -9881    -9859    -9793 
   -9783    -9795    -9744    -9735    -9821    -9869    -9855    -9852 
   -9827    -9778    -9750    -9742    -9788    -9860    -9863    -9820 
   -9811    -9817    -9803    -9805    -9830    -9822    -9793    -9808 
   -9841    -9820    -9775    -9774    -9805    -9816    -9798    -9814 
   -9862    -9876    -9855    -9822    -9816    -9817    -9758    -9751 
   -9841    -9835    -9749    -9762    -9816    -9827    -9854    -9873 
   -9856    -9853    -9836    -9813    -9837    -9838    -9791    -9762 
   -9755    -9771    -9804    -9821    -9809    -9802    -9823    -9816 
   -9803    -9825    -9805    -9776    -9807    -9849    -9862    -9852 
   -9821    -9782    -9774    -9800    -9820    -9858    -9886    -9833 
   -9778    -9776    -9792    -9830    -9856    -9838    -9810    -9780 
   -9771    -9786    -9778    -9780    -9824    -9853    -9848    -9849 
   -9852    -9821    -9796    -9821    -9823    -9774    -9749    -9774 
   -9814    -9837    -9842    -9846    -9836    -9810    -9814    -9826 
   -9787    -9759    -9806    -9833    -9811    -9817    -9804    -9775 
   -9823    -9850    -9785    -9767    -9820    -9850    -9853    -9839 
   -9827    -9826    -9801    -9807    -9847    -9826    -9780    -9784 
   -9811    -9809    -9786    -9810    -9861    -9826    -9744    -9757 
   -9820    -9809    -9789    -9823    -9823    -9775    -9787    -9867 
   -9895    -9854    -9831    -9808    -9779    -9811    -9857    -9845 
   -9830    -9858    -9863    -9802    -9727    -9690    -9724    -9801 
   -9847    -9870    -9889    -9846    -9786    -9795    -9805    -9791 
   -9851    -9909    -9858    -9809    -9800    -9754    -9725    -9763 
   -9800    -9825    -9840    -9808    -9768    -9782    -9823    -9825 
   -9816    -9841    -9860    -9849    -9832    -9819    -9787    -9767 
   -9822    -9864    -9831    -9836    -9852    -9762    -9693    -9741 
   -9796    -9842    -9895    -9903    -9853    -9757    -9694    -9742 
   -9840    -9886    -9850    -9799    -9809    -9829    -9799    -9808 
   -9870    -9887    -9858    -9814    -9766    -9754    -9772    -9781 
   -9791    -9815    -9830    -9850    -9877    -9857    -9830    -9820 
   -9773    -9761    -9813    -9828    -9842    -9866    -9809    -9762 
   -9785    -9789    -9782    -9806    -9835    -9827    -9789    -9803 
   -9835    -9816    -9823    -9843    -9807    -9766    -9750    -9769 
   -9812    -9821    -9827    -9836    -9804    -9813    -9862    -9857 
   -9839    -9814    -9741    -9724    -9810    -9896    -9923    -9880 
   -9798    -9792    -9834    -9811    -9777    -9762    -9740    -9790 
   -9855    -9821    -9799    -9857    -9893    -9880    -9851    -9788 
   -9707    -9689    -9752    -9825    -9846    -9833    -9825    -9816 
   -9808    -9816    -9815    -9792    -9770    -9784    -9818    -9829 
   -9840    -9863    -9860    -9836    -9835    -9845    -9827    -9805 
   -9796    -9777    -9762    -9787    -9814    -9814    -9841    -9867 
   -9819    -9782    -9789    -9796    -9841    -9859    -9799    -9781 
   -9809    -9801    -9802    -9825    -9823    -9826    -9831    -9805 
   -9806    -9824    -9810    -9814    -9832    -9818    -9819    -9827 
   -9787    -9760    -9790    -9815    -9817    -9828    -9836    -9834 
   -9798    -9730    -9748    -9848    -9859    -9809    -9822    -9836 
   -9812    -9806    -9826    -9843    -9837    -9817    -9796    -9775 
   -9768    -9795    -9849    -9884    -9867    -9829    -9811    -9789 
   -9763    -9784    -9829    -9836    -9807    -9798    -9815    -9809 
   -9785    -9800    -9838    -9830    -9810    -9814    -9799    -9797 
   -9846    -9870    -9859    -9853    -9824    -9794    -9782    -9771 
   -9803    -9825    -9781    -9760    -9783    -9802    -9814    -9792 
   -9783    -9821    -9842    -9875    -9892    -9810    -9769    -9823 
   -9834    -9804    -9806    -9811    -9772    -9742    -9783    -9825 
   -9810    -9803    -9842    -9869    -9838    -9785    -9790    -9846 
   -9856    -9852    -9878    -9815    -9727    -9782    -9855    -9833 
   -9828    -9853    -9833    -9792    -9742    -9717    -9784    -9821 
   -9790    -9845    -9894    -9840    -9821    -9829    -9810    -9838 
   -9867    -9828    -9798    -9820    -9839    -9835    -9795    -9731 
   -9726    -9791    -9840    -9849    -9876    -9887    -9788    -9692 
   -9712    -9766    -9831    -9874    -9854    -9866    -9875    -9802 
   -9759    -9770    -9761    -9755    -9777    -9839    -9895    -9853 
   -9759    -9740    -9784    -9826    -9866    -9890    -9867    -9825 
   -9822    -9850    -9849    -9809    -9772    -9751    -9745    -9773 
   -9814    -9853    -9910    -9930    -9866    -9811    -9792    -9741 
   -9713    -9777    -9864    -9899    -9889    -9852    -9781    -9716 
   -9715    -9741    -9764    -9803    -9846    -9871    -9856    -9797 
   -9741    -9734    -9770    -9842    -9926    -9939    -9894    -9894 
   -9854    -9713    -9674    -9765    -9792    -9785    -9829    -9828 
   -9817    -9873    -9878    -9790    -9727    -9727    -9764    -9847 
   -9934    -9936    -9823    -9723    -9750    -9770    -9721    -9753 
   -9861    -9923    -9934    -9935    -9899    -9780    -9695    -9772 
   -9864    -9861    -9861    -9864    -9792    -9672    -9637    -9721 
   -9757    -9759    -9857    -9904    -9832    -9830    -9882    -9835 
   -9786    -9863    -9931    -9891    -9832    -9790    -9767    -9782 
   -9805    -9805    -9791    -9764    -9727    -9723    -9778    -9829 
   -9830    -9808    -9821    -9908    -9945    -9845    -9785    -9797 
   -9754    -9746    -9837    -9907    -9883    -9796    -9762    -9817 
   -9849    -9807    -9756    -9742    -9758    -9819    -9879    -9834 
   -9770    -9783    -9800    -9844    -9898    -9839    -9755    -9763 
   -9807    -9834    -9853    -9874    -9869    -9833    -9812    -9787 
   -9763    -9790    -9805    -9777    -9795    -9822    -9823    -9870 
   -9886    -9825    -9796    -9801    -9791    -9784    -9791    -9811 
   -9822    -9791    -9750    -9744    -9766    -9800    -9837    -9844 
   -9825    -9832    -9839    -9809    -9810    -9876    -9929    -9908 
   -9840    -9778    -9768    -9800    -9807    -9799    -9833    -9847 
   -9797    -9766    -9771    -9765    -9771    -9813    -9827    -9799 
   -9806    -9838    -9825    -9796    -9793    -9778    -9773    -9829 
   -9882    -9885    -9841    -9777    -9780    -9813    -9785    -9775 
   -9817    -9802    -9760    -9809    -9863    -9835    -9826    -9843 
   -9821    -9825    -9875    -9887    -9848    -9813    -9805    -9791 
   -9789    -9832    -9858    -9817    -9768    -9788    -9835    -9814 
   -9746    -9724    -9765    -9807    -9850    -9887    -9859    -9807 
   -9779    -9757    -9794    -9885    -9902    -9854    -9838    -9830 
   -9776    -9722    -9762    -9854    -9880    -9851    -9821    -9811 
   -9787    -9718    -9703    -9771    -9807    -9838    -9901    -9876 
   -9813    -9838    -9848    -9804    -9804    -9809    -9788    -9802 
   -9836    -9839    -9795    -9749    -9754    -9764    -9780    -9841 
   -9862    -9820    -9795    -9771    -9773    -9834    -9835    -9769 
   -9775    -9858    -9884    -9815    -9778    -9826    -9851    -9822 
   -9815    -9819    -9799    -9819    -9849    -9831    -9834    -9808 
   -9744    -9800    -9885    -9858    -9858    -9877    -9795    -9753 
   -9785    -9748    -9740    -9821    -9854    -9859    -9899    -9896 
   -9823    -9751    -9719    -9728    -9778    -9834    -9857    -9851 
   -9817    -9813    -9834    -9798    -9790    -9833    -9794    -9740 
   -9796    -9878    -9880    -9863    -9872    -9830    -9751    -9729 
   -9773    -9836    -9866    -9845    -9831    -9846    -9829    -9783 
   -9777    -9840    -9877    -9823    -9803    -9856    -9861    -9815 
   -9748    -9693    -9756    -9847    -9829    -9797    -9790    -9749 
   -9744    -9791    -9781    -9730    -9776    -9894    -9927    -9893 
   -9867    -9820    -9777    -9798    -9826    -9799    -9781    -9807 
   -9826    -9817    -9814    -9839    -9840    -9786    -9751    -9788 
   -9812    -9802    -9851    -9887    -9844    -9845    -9840    -9743 
   -9703    -9763    -9814    -9829    -9808    -9780    -9792    -9822 
   -9879    -9976    -9997    -9904    -9812    -9770    -9742    -9726 
   -9730    -9753    -9781    -9787    -9778    -9782    -9807    -9825 
   -9831    -9869    -9920    -9917    -9840    -9741    -9719    -9762 
   -9790    -9821    -9856    -9856    -9826    -9792    -9780    -9781 
   -9810    -9861    -9855    -9835    -9854    -9839    -9783    -9754 
   -9783    -9852    -9867    -9796    -9728    -9728    -9796    -9828 
   -9792    -9828    -9899    -9880    -9834    -9822    -9809    -9779 
   -9767    -9786    -9802    -9848    -9924    -9912    -9803    -9737 
   -9744    -9731    -9715    -9769    -9833    -9871    -9908    -9887 
   -9837    -9856    -9853    -9770    -9742    -9795    -9808    -9802 
   -9830    -9808    -9753    -9779    -9841    -9870    -9857    -9792 
   -9777    -9854    -9882    -9830    -9786    -9779    -9780    -9773 
   -9790    -9827    -9828    -9832    -9855    -9832    -9800    -9825 
   -9830    -9784    -9800    -9875    -9858    -9779    -9761    -9795 
   -9864    -9882    -9773    -9701    -9741    -9748    -9713    -9748 
   -9841    -9870    -9805    -9783    -9832    -9831    -9813    -9868 
   -9930    -9918    -9843    -9780    -9783    -9802    -9829    -9847 
   -9776    -9719    -9768    -9803    -9799    -9824    -9827    -9808 
   -9805    -9785    -9777    -9802    -9803    -9828    -9888    -9897 
   -9856    -9796    -9769    -9810    -9823    -9831    -9921    -9928 
   -9812    -9781    -9812    -9795    -9790    -9823    -9830    -9791 
   -9765    -9773    -9756    -9739    -9781    -9824    -9820    -9813 
   -9803    -9794    -9827    -9854    -9830    -9802    -9807    -9820 
   -9804    -9791    -9815    -9821    -9788    -9780    -9813    -9876 
   -9915    -9851    -9767    -9749    -9741    -9776    -9884    -9927 
   -9856    -9796    -9788    -9791    -9825    -9851    -9844    -9837 
   -9782    -9725    -9753    -9789    -9809    -9838    -9840    -9842 
   -9860    -9839    -9787    -9760    -9757    -9798    -9882    -9885 
   -9797    -9719    -9706    -9769    -9837    -9861    -9881    -9873 
   -9806    -9759    -9779    -9786    -9781    -9827    -9834    -9784 
   -9805    -9846    -9809    -9790    -9844    -9855    -9805    -9830 
   -9902    -9853    -9759    -9760    -9768    -9779    -9845    -9849 
   -9812    -9811    -9789    -9804    -9865    -9848    -9802    -9804 
   -9813    -9808    -9787    -9780    -9811    -9826    -9804    -9778 
   -9782    -9825    -9843    -9809    -9795    -9797    -9799    -9860 
   -9898    -9833    -9804    -9840    -9846    -9868    -9894    -9846 
   -9784    -9742    -9738    -9808    -9848    -9794    -9757    -9769 
   -9788    -9829    -9880    -9889    -9860    -9833    -9811    -9759 
   -9715    -9752    -9797    -9762    -9767    -9849    -9852    -9788 
   -9773    -9801    -9814    -9798    -9803    -9818    -9815    -9822 
   -9829    -9839    -9854    -9830    -9796    -9783    -9781    -9796 
   -9813    -9833    -9858    -9850    -9809    -9770    -9769    -9830 
   -9896    -9884    -9839    -9851    -9871    -9840    -9815    -9812 
   -9797    -9777    -9751    -9734    -9767    -9813    -9821    -9806 
   -9782    -9766    -9788    -9853    -9892    -9846    -9793    -9806 
   -9827    -9798    -9779    -9818    -9854    -9852    -9863    -9865 
   -9823    -9777    -9771    -9824    -9856    -9825    -9822    -9821 
   -9753    -9729    -9803    -9850    -9824    -9804    -9794    -9769 
   -9789    -9836    -9834    -9832    -9838    -9796    -9791    -9838 
   -9819    -9778    -9803    -9825    -9814    -9809    -9802    -9813 
   -9844    -9834    -9803    -9794    -9796    -9812    -9850    -9882 
   -9858    -9797    -9802    -9841    -9817    -9766    -9749    -9790 
   -9844    -9849    -9841    -9846    -9820    -9769    -9757    -9802 
   -9840    -9846    -9838    -9809    -9774    -9749    -9740    -9760 
   -9784    -9802    -9825    -9827    -9839    -9884    -9881    -9833 
   -9822    -9811    -9783    -9794    -9823    -9833    -9818    -9797 
   -9816    -9860    -9879    -9856    -9804    -9791    -9822    -9811 
   -9783    -9802    -9804    -9770    -9772    -9822    -9860    -9856 
   -9829    -9797    -9766    -9770    -9788    -9785    -9809    -9834 
   -9812    -9806    -9841    -9847    -9790    -9751    -9780    -9799 
   -9783    -9789    -9798    -9805    -9853    -9909    -9925    -9893 
   -9844    -9822    -9811    -9815    -9829    -9800    -9766    -9783 
   -9816    -9794    -9730    -9722    -9769    -9797    -9801    -9787 
   -9772    -9799    -9846    -9869    -9879    -9898    -9889    -9834 
   -9783    -9786    -9822    -9818    -9789    -9791    -9768    -9739 
   -9792    -9842    -9830    -9821    -9820    -9809    -9799    -9781 
   -9760    -9778    -9831    -9857    -9857    -9863    -9838    -9804 
   -9814    -9822    -9829    -9858    -9872    -9871    -9878    -9860 
   -9817    -9792    -9780    -9766    -9775    -9784    -9784    -9792 
   -9794    -9791    -9802    -9810    -9792    -9789    -9810    -9798 
   -9778    -9797    -9813    -9807    -9798    -9796    -9818    -9846 
   -9848    -9824    -9819    -9854    -9862    -9822    -9800    -9813 
   -9832    -9833    -9813    -9806    -9811    -9799    -9791    -9801 
   -9791    -9779    -9803    -9820    -9804    -9793    -9776    -9779 
   -9831    -9849    -9808    -9788    -9787    -9780    -9801    -9826 
   -9803    -9785    -9815    -9833    -9805    -9788    -9820    -9841 
   -9833    -9832    -9839    -9854    -9868    -9859    -9829    -9792 
   -9788    -9812    -9822    -9845    -9867    -9831    -9796    -9821 
   -9840    -9819    -9798    -9777    -9786    -9836    -9842    -9813 
   -9807    -9807    -9823    -9835    -9804    -9789    -9810    -9818 
   -9824    -9838    -9836    -9823    -9815    -9793    -9755    -9743 
