Origin Time       2024/06/23 22:54:00
Lat.              35.645
Long.             140.060
Depth. (km)       72
Mag.              4.1
Station Code      TCGH15
Station Lat.      36.5595
Station Long.     139.8637
Station Height(m) -175
Record Time       2024/06/23 22:54:56
Sampling Freq(Hz) 100Hz
Duration Time(s)  120
Dir.              2
Scale Factor      3923(gal)/8224838
Max. Acc. (gal)   0.341
Last Correction   2024/06/23 22:54:56
Memo.             
[...]
   -3717    -3724    -3693    -3696    -3740    -3770    -3784    -3753 
   -3690    -3647    -3622    -3654    -3739    -3763    -3697    -3658 
   -3701    -3750    -3757    -3731    -3681    -3640    -3665    -3728 
   -3755    -3727    -3658    -3646    -3723    -3757    -3734    -3738 
   -3746    -3731    -3708    -3708    -3746    -3739    -3654    -3635 
   -3704    -3723    -3717    -3720    -3674    -3653    -3697    -3736 
   -3723    -3692    -3696    -3686    -3666    -3703    -3751    -3771 
   -3762    -3728    -3696    -3688    -3693    -3669    -3646    -3692 
   -3742    -3743    -3727    -3701    -3694    -3717    -3723    -3715 
   -3713    -3732    -3747    -3716    -3699    -3713    -3682    -3663 
   -3705    -3720    -3711    -3709    -3670    -3655    -3682    -3667 
   -3694    -3750    -3727    -3739    -3781    -3727    -3678    -3684 
   -3673    -3662    -3680    -3711    -3754    -3778    -3742    -3690 
   -3680    -3719    -3775    -3740    -3642    -3634    -3670    -3692 
   -3734    -3744    -3728    -3721    -3678    -3663    -3723    -3731 
   -3690    -3704    -3716    -3731    -3785    -3751    -3643    -3655 
   -3716    -3690    -3688    -3727    -3680    -3619    -3666    -3740 
   -3759    -3766    -3780    -3754    -3684    -3647    -3669    -3680 
   -3672    -3676    -3690    -3704    -3723    -3773    -3807    -3792 
   -3792    -3766    -3693    -3661    -3636    -3622    -3678    -3712 
   -3696    -3723    -3732    -3700    -3700    -3701    -3686    -3689 
   -3697    -3721    -3735    -3717    -3724    -3736    -3723    -3703 
   -3667    -3634    -3661    -3721    -3730    -3723    -3726    -3700 
   -3693    -3693    -3693    -3731    -3750    -3777    -3796    -3712 
   -3672    -3738    -3731    -3669    -3667    -3713    -3728    -3646 
   -3589    -3669    -3726    -3743    -3780    -3726    -3692    -3761 
   -3740    -3635    -3595    -3639    -3713    -3744    -3758    -3781 
   -3747    -3682    -3678    -3721    -3740    -3712    -3681    -3700 
   -3728    -3726    -3732    -3732    -3699    -3685    -3692    -3685 
   -3704    -3750    -3744    -3682    -3665    -3689    -3700    -3726 
   -3728    -3693    -3690    -3686    -3681    -3704    -3728    -3746 
   -3697    -3659    -3744    -3797    -3739    -3705    -3699    -3654 
   -3618    -3634    -3665    -3712    -3784    -3785    -3703    -3658 
   -3701    -3751    -3736    -3708    -3727    -3763    -3757    -3719 
   -3707    -3709    -3688    -3678    -3701    -3689    -3626    -3630 
   -3730    -3773    -3739    -3721    -3692    -3696    -3712    -3658 
   -3666    -3723    -3715    -3719    -3738    -3742    -3751    -3726 
   -3701    -3703    -3680    -3646    -3647    -3684    -3707    -3730 
   -3780    -3761    -3689    -3689    -3728    -3748    -3717    -3663 
   -3704    -3738    -3643    -3628    -3738    -3777    -3748    -3750 
   -3742    -3673    -3612    -3669    -3759    -3732    -3673    -3685 
   -3693    -3686    -3717    -3715    -3662    -3650    -3717    -3793 
   -3784    -3754    -3758    -3726    -3712    -3751    -3740    -3681 
   -3647    -3645    -3657    -3694    -3732    -3721    -3690    -3680 
   -3677    -3681    -3692    -3704    -3738    -3782    -3758    -3693 
   -3680    -3666    -3661    -3719    -3742    -3707    -3696    -3678 
   -3667    -3709    -3717    -3690    -3692    -3707    -3748    -3785 
   -3766    -3757    -3767    -3740    -3678    -3634    -3646    -3694 
   -3719    -3699    -3670    -3690    -3731    -3721    -3708    -3719 
   -3699    -3670    -3704    -3743    -3719    -3689    -3689    -3692 
   -3678    -3669    -3721    -3769    -3730    -3713    -3759    -3762 
   -3696    -3642    -3669    -3727    -3750    -3711    -3657    -3693 
   -3739    -3699    -3697    -3754    -3761    -3721    -3672    -3642 
   -3653    -3677    -3700    -3740    -3777    -3751    -3696    -3689 
   -3676    -3616    -3613    -3662    -3709    -3780    -3807    -3777 
   -3775    -3759    -3700    -3678    -3677    -3662    -3709    -3782 
   -3734    -3650    -3685    -3735    -3705    -3699    -3740    -3721 
   -3647    -3608    -3654    -3765    -3820    -3771    -3697    -3638 
   -3642    -3705    -3726    -3717    -3715    -3696    -3708    -3717 
   -3666    -3662    -3721    -3734    -3712    -3723    -3747    -3743 
   -3727    -3719    -3715    -3727    -3731    -3690    -3658    -3686 
   -3727    -3746    -3773    -3754    -3658    -3626    -3703    -3782 
   -3782    -3697    -3618    -3657    -3765    -3774    -3678    -3603 
   -3607    -3672    -3717    -3721    -3742    -3747    -3724    -3717 
   -3720    -3716    -3723    -3705    -3657    -3689    -3757    -3716 
   -3663    -3696    -3755    -3823    -3843    -3793    -3726    -3620 
   -3542    -3577    -3639    -3693    -3736    -3748    -3773    -3755 
   -3701    -3716    -3709    -3661    -3699    -3734    -3684    -3677 
   -3711    -3735    -3780    -3765    -3696    -3667    -3619    -3574 
   -3627    -3708    -3743    -3754    -3780    -3807    -3782    -3719 
   -3717    -3769    -3732    -3666    -3680    -3650    -3600    -3635 
   -3697    -3747    -3761    -3715    -3663    -3657    -3678    -3673 
   -3690    -3753    -3754    -3727    -3751    -3759    -3751    -3777 
   -3774    -3731    -3716    -3684    -3601    -3582    -3662    -3736 
   -3753    -3753    -3742    -3685    -3642    -3667    -3720    -3758 
   -3761    -3743    -3739    -3747    -3739    -3699    -3651    -3649 
   -3684    -3677    -3626    -3634    -3690    -3704    -3713    -3757 
   -3780    -3753    -3724    -3723    -3678    -3624    -3693    -3801 
   -3807    -3744    -3690    -3673    -3647    -3634    -3701    -3759 
   -3767    -3769    -3738    -3701    -3686    -3684    -3726    -3730 
   -3636    -3626    -3738    -3798    -3785    -3777    -3755    -3704 
   -3624    -3561    -3601    -3689    -3742    -3765    -3712    -3624 
   -3615    -3666    -3715    -3758    -3798    -3813    -3781    -3690 
   -3604    -3662    -3786    -3766    -3690    -3709    -3731    -3701 
   -3638    -3612    -3686    -3748    -3699    -3623    -3618    -3696 
   -3802    -3847    -3801    -3713    -3654    -3634    -3626    -3651 
   -3711    -3774    -3811    -3774    -3716    -3701    -3697    -3681 
   -3685    -3723    -3759    -3734    -3666    -3653    -3712    -3742 
   -3696    -3672    -3692    -3680    -3686    -3735    -3742    -3726 
   -3734    -3727    -3686    -3646    -3634    -3646    -3655    -3681 
   -3719    -3721    -3713    -3743    -3774    -3785    -3786    -3730 
   -3658    -3670    -3678    -3673    -3735    -3747    -3713    -3757 
   -3782    -3730    -3677    -3654    -3680    -3715    -3703    -3682 
   -3678    -3677    -3686    -3688    -3705    -3748    -3736    -3709 
   -3719    -3703    -3713    -3797    -3819    -3736    -3651    -3628 
   -3672    -3721    -3681    -3607    -3663    -3769    -3753    -3717 
   -3719    -3682    -3667    -3692    -3689    -3673    -3665    -3704 
   -3805    -3838    -3770    -3724    -3720    -3699    -3635    -3576 
   -3603    -3684    -3750    -3778    -3758    -3731    -3712    -3696 
   -3721    -3740    -3696    -3663    -3688    -3690    -3666    -3699 
   -3757    -3735    -3703    -3743    -3782    -3766    -3717    -3653 
   -3628    -3676    -3736    -3743    -3694    -3666    -3694    -3720 
   -3731    -3754    -3747    -3684    -3631    -3646    -3692    -3727 
   -3735    -3708    -3680    -3716    -3788    -3790    -3719    -3616 
   -3546    -3608    -3704    -3713    -3735    -3786    -3802    -3802 
   -3792    -3743    -3663    -3607    -3616    -3669    -3723    -3744 
   -3738    -3715    -3703    -3730    -3762    -3746    -3705    -3667 
   -3647    -3672    -3676    -3643    -3686    -3753    -3750    -3724 
   -3685    -3655    -3670    -3693    -3711    -3730    -3747    -3751 
   -3739    -3740    -3738    -3716    -3724    -3731    -3685    -3665 
   -3700    -3696    -3655    -3665    -3701    -3704    -3731    -3792 
   -3811    -3763    -3667    -3618    -3650    -3654    -3651    -3728 
   -3801    -3781    -3704    -3649    -3651    -3690    -3734    -3738 
   -3724    -3723    -3684    -3666    -3708    -3708    -3723    -3758 
   -3690    -3630    -3682    -3720    -3692    -3667    -3692    -3727 
   -3740    -3785    -3812    -3743    -3694    -3717    -3717    -3670 
   -3619    -3591    -3616    -3670    -3699    -3711    -3713    -3705 
   -3724    -3759    -3774    -3746    -3677    -3658    -3688    -3684 
   -3699    -3755    -3761    -3684    -3612    -3646    -3712    -3682 
   -3657    -3730    -3788    -3804    -3840    -3812    -3686    -3597 
   -3613    -3680    -3715    -3708    -3701    -3673    -3651    -3703 
   -3780    -3798    -3753    -3705    -3688    -3673    -3676    -3699 
   -3694    -3674    -3686    -3717    -3739    -3715    -3654    -3667 
   -3757    -3788    -3750    -3724    -3727    -3731    -3716    -3715 
   -3735    -3734    -3720    -3724    -3735    -3755    -3774    -3793 
   -3789    -3719    -3672    -3724    -3751    -3682    -3604    -3572 
   -3608    -3696    -3731    -3686    -3649    -3661    -3680    -3677 
   -3700    -3789    -3873    -3874    -3781    -3649    -3576    -3597 
   -3657    -3685    -3674    -3677    -3689    -3692    -3681    -3618 
   -3541    -3568    -3674    -3750    -3781    -3805    -3784    -3719 
   -3700    -3748    -3831    -3875    -3851    -3820    -3750    -3636 
   -3615    -3658    -3662    -3639    -3558    -3487    -3591    -3735 
   -3778    -3827    -3886    -3935    -4001    -3950    -3796    -3708 
   -3674    -3689    -3765    -3750    -3573    -3408    -3426    -3553 
   -3591    -3558    -3612    -3700    -3721    -3789    -3921    -3986 
   -3993    -4005    -3970    -3831    -3662    -3516    -3360    -3254 
   -3350    -3612    -3839    -3954    -3974    -3886    -3743    -3593 
   -3495    -3538    -3632    -3642    -3605    -3623    -3699    -3697 
   -3649    -3667    -3700    -3747    -3777    -3747    -3808    -3890 
   -3801    -3700    -3715    -3754    -3778    -3759    -3681    -3653 
   -3680    -3659    -3663    -3765    -3844    -3788    -3670    -3666 
   -3761    -3782    -3743    -3753    -3770    -3688    -3516    -3462 
   -3582    -3674    -3705    -3767    -3763    -3646    -3564    -3561 
   -3559    -3597    -3692    -3738    -3778    -3906    -4024    -3983 
   -3728    -3423    -3376    -3576    -3728    -3755    -3784    -3781 
   -3678    -3622    -3665    -3692    -3692    -3662    -3631    -3708 
   -3823    -3863    -3862    -3821    -3761    -3746    -3773    -3770 
   -3715    -3700    -3730    -3701    -3662    -3705    -3763    -3801 
   -3879    -3909    -3802    -3709    -3672    -3572    -3483    -3522 
   -3642    -3750    -3802    -3769    -3659    -3572    -3541    -3528 
   -3597    -3723    -3763    -3723    -3667    -3624    -3630    -3699 
   -3782    -3796    -3759    -3712    -3624    -3573    -3640    -3754 
   -3861    -3959    -3924    -3748    -3646    -3642    -3611    -3550 
   -3499    -3526    -3666    -3800    -3913    -4099    -4198    -4075 
   -3871    -3659    -3435    -3277    -3244    -3353    -3547    -3707 
   -3789    -3807    -3766    -3705    -3694    -3751    -3811    -3829 
   -3840    -3866    -3883    -3882    -3871    -3816    -3750    -3719 
   -3672    -3626    -3630    -3624    -3600    -3593    -3565    -3489 
   -3426    -3477    -3626    -3754    -3847    -3897    -3855    -3828 
   -3882    -3886    -3797    -3711    -3632    -3532    -3495    -3580 
   -3678    -3678    -3589    -3511    -3532    -3577    -3623    -3802 
   -4016    -4058    -3990    -3909    -3809    -3754    -3798    -3819 
   -3746    -3716    -3777    -3838    -3859    -3816    -3689    -3523 
   -3430    -3469    -3527    -3496    -3427    -3379    -3357    -3348 
   -3389    -3549    -3767    -3997    -4168    -4166    -4077    -3981 
   -3854    -3744    -3682    -3696    -3824    -3901    -3743    -3514 
   -3458    -3576    -3705    -3750    -3766    -3759    -3721    -3727 
   -3769    -3804    -3892    -3990    -3959    -3817    -3651    -3453 
   -3294    -3310    -3464    -3608    -3704    -3804    -3869    -3869 
   -3901    -3842    -3545    -3279    -3196    -3163    -3265    -3547 
   -3865    -4182    -4392    -4365    -4248    -4131    -3985    -3825 
   -3608    -3381    -3362    -3570    -3739    -3654    -3441    -3362 
   -3343    -3223    -3204    -3399    -3623    -3736    -3739    -3808 
   -3973    -4010    -3983    -4070    -4116    -3983    -3875    -3871 
   -3796    -3738    -3827    -3848    -3711    -3553    -3423    -3372 
   -3450    -3601    -3711    -3699    -3623    -3591    -3586    -3643 
   -3829    -4039    -4131    -4124    -4045    -3817    -3528    -3414 
   -3461    -3468    -3399    -3395    -3489    -3539    -3526    -3585 
   -3692    -3719    -3715    -3767    -3847    -3888    -3885    -3897 
   -3913    -3878    -3858    -3854    -3825    -3854    -3904    -3858 
   -3766    -3726    -3743    -3744    -3659    -3518    -3366    -3230 
   -3142    -3186    -3399    -3692    -3952    -4095    -4052    -3886 
   -3705    -3599    -3720    -4035    -4266    -4233    -3905    -3424 
   -3099    -3061    -3248    -3562    -3817    -3936    -4025    -4104 
   -4071    -3854    -3555    -3397    -3418    -3620    -3962    -4164 
   -4156    -4102    -3975    -3748    -3574    -3546    -3496    -3264 
   -3041    -2992    -3029    -3121    -3335    -3597    -3778    -3921 
   -4067    -4160    -4182    -4086    -3933    -3867    -3862    -3883 
   -3890    -3808    -3709    -3692    -3700    -3628    -3485    -3418 
   -3510    -3669    -3743    -3685    -3589    -3624    -3829    -3991 
   -3985    -3893    -3790    -3750    -3755    -3723    -3684    -3684 
   -3662    -3588    -3514    -3442    -3333    -3261    -3364    -3630 
   -3900    -4048    -4045    -3881    -3653    -3510    -3466    -3569 
   -3800    -3978    -4066    -4117    -4043    -3862    -3770    -3825 
   -3890    -3844    -3670    -3480    -3439    -3523    -3599    -3601 
   -3547    -3538    -3619    -3727    -3777    -3707    -3634    -3711 
   -3794    -3730    -3642    -3639    -3684    -3717    -3693    -3658 
   -3730    -3835    -3808    -3736    -3740    -3744    -3699    -3623 
   -3549    -3543    -3576    -3603    -3723    -3925    -4055    -4056 
   -3956    -3792    -3605    -3470    -3443    -3454    -3449    -3496 
   -3604    -3670    -3616    -3487    -3393    -3392    -3457    -3515 
   -3632    -3900    -4145    -4182    -4078    -3979    -3923    -3858 
   -3797    -3812    -3931    -4051    -4021    -3871    -3730    -3630 
   -3580    -3564    -3586    -3681    -3802    -3854    -3751    -3589 
   -3549    -3569    -3565    -3585    -3636    -3719    -3778    -3775 
   -3809    -3885    -3920    -3874    -3696    -3472    -3381    -3385 
   -3396    -3480    -3662    -3834    -3882    -3842    -3763    -3645 
   -3551    -3516    -3528    -3623    -3767    -3843    -3821    -3726 
   -3553    -3451    -3558    -3659    -3640    -3667    -3721    -3762 
   -3866    -3935    -3883    -3793    -3727    -3696    -3676    -3667 
   -3678    -3676    -3677    -3740    -3854    -3928    -3915    -3838 
   -3761    -3738    -3721    -3677    -3678    -3771    -3915    -4001 
   -3936    -3773    -3650    -3622    -3608    -3568    -3545    -3546 
   -3578    -3654    -3727    -3717    -3601    -3535    -3676    -3850 
   -3871    -3843    -3815    -3721    -3612    -3593    -3712    -3838 
   -3844    -3811    -3780    -3651    -3435    -3306    -3362    -3519 
   -3649    -3682    -3670    -3684    -3700    -3693    -3682    -3674 
   -3700    -3769    -3817    -3820    -3848    -3881    -3825    -3736 
   -3665    -3591    -3600    -3713    -3801    -3832    -3851    -3855 
   -3851    -3805    -3674    -3528    -3439    -3457    -3589    -3692 
   -3674    -3650    -3689    -3770    -3851    -3848    -3817    -3892 
   -3943    -3847    -3744    -3688    -3638    -3661    -3726    -3744 
   -3732    -3667    -3576    -3596    -3682    -3672    -3638    -3708 
   -3825    -3855    -3759    -3673    -3676    -3670    -3620    -3550 
   -3470    -3493    -3657    -3784    -3790    -3746    -3685    -3638 
   -3630    -3632    -3666    -3781    -3905    -3952    -3943    -3862 
   -3721    -3676    -3743    -3773    -3759    -3736    -3673    -3634 
   -3650    -3638    -3570    -3523    -3512    -3477    -3481    -3593 
   -3724    -3846    -3958    -3947    -3807    -3694    -3676    -3720 
   -3840    -3966    -3951    -3821    -3699    -3631    -3638    -3705 
   -3766    -3773    -3748    -3731    -3701    -3662    -3634    -3582 
   -3527    -3499    -3473    -3480    -3512    -3530    -3592    -3707 
   -3802    -3856    -3843    -3786    -3747    -3670    -3584    -3582 
   -3640    -3727    -3780    -3773    -3802    -3879    -3929    -3920 
   -3855    -3777    -3739    -3769    -3842    -3897    -3862    -3759 
   -3701    -3720    -3738    -3750    -3789    -3742    -3539    -3395 
   -3477    -3609    -3584    -3510    -3524    -3531    -3491    -3508 
   -3589    -3661    -3738    -3865    -3955    -3935    -3848    -3728 
   -3632    -3658    -3763    -3807    -3808    -3855    -3863    -3794 
   -3746    -3705    -3636    -3612    -3669    -3758    -3827    -3854 
   -3788    -3647    -3568    -3585    -3636    -3686    -3701    -3705 
   -3713    -3666    -3601    -3613    -3680    -3719    -3673    -3559 
   -3481    -3489    -3570    -3712    -3844    -3871    -3821    -3789 
   -3789    -3801    -3821    -3843    -3881    -3931    -3901    -3759 
   -3630    -3574    -3545    -3537    -3555    -3623    -3732    -3765 
   -3700    -3642    -3616    -3578    -3539    -3549    -3600    -3636 
   -3677    -3728    -3759    -3807    -3855    -3831    -3775    -3778 
   -3800    -3792    -3767    -3688    -3569    -3550    -3666    -3809 
   -3894    -3900    -3852    -3773    -3703    -3734    -3825    -3836 
   -3773    -3708    -3673    -3713    -3786    -3793    -3780    -3798 
   -3731    -3559    -3445    -3446    -3520    -3613    -3654    -3647 
   -3657    -3711    -3801    -3844    -3804    -3750    -3708    -3642 
   -3592    -3619    -3703    -3788    -3869    -3924    -3901    -3792 
   -3630    -3505    -3468    -3496    -3564    -3596    -3589    -3642 
   -3728    -3774    -3804    -3855    -3893    -3850    -3739    -3665 
   -3677    -3736    -3757    -3715    -3684    -3662    -3597    -3557 
   -3572    -3585    -3613    -3665    -3699    -3748    -3839    -3886 
   -3835    -3739    -3676    -3680    -3721    -3709    -3657    -3709 
   -3832    -3854    -3812    -3809    -3809    -3761    -3701    -3667 
   -3626    -3604    -3673    -3736    -3713    -3694    -3712    -3686 
   -3626    -3616    -3657    -3696    -3701    -3688    -3705    -3734 
   -3743    -3740    -3727    -3762    -3847    -3844    -3732    -3607 
   -3500    -3469    -3532    -3595    -3636    -3715    -3794    -3820 
   -3804    -3770    -3757    -3771    -3773    -3754    -3730    -3713 
   -3720    -3681    -3580    -3545    -3591    -3628    -3658    -3699 
   -3735    -3753    -3724    -3667    -3672    -3767    -3852    -3831 
   -3734    -3676    -3716    -3781    -3786    -3755    -3705    -3649 
