Origin Time       2024/06/23 22:54:00
Lat.              35.645
Long.             140.060
Depth. (km)       72
Mag.              4.1
Station Code      TCGH19
Station Lat.      36.9060
Station Long.     140.1119
Station Height(m) 104
Record Time       2024/06/23 22:55:07
Sampling Freq(Hz) 100Hz
Duration Time(s)  120
Dir.              2
Scale Factor      2942(gal)/8224139
Max. Acc. (gal)   0.184
Last Correction   2024/06/23 22:54:50
Memo.             
[...]
  -72227   -72281   -72358   -72373   -72346   -72345   -72355   -72316 
  -72247   -72219   -72250   -72306   -72342   -72339   -72291   -72212 
  -72199   -72306   -72422   -72407   -72295   -72246   -72297   -72328 
  -72287   -72283   -72365   -72393   -72280   -72168   -72211   -72349 
  -72411   -72358   -72319   -72351   -72350   -72281   -72257   -72330 
  -72387   -72327   -72225   -72215   -72281   -72283   -72192   -72166 
  -72281   -72411   -72454   -72431   -72370   -72320   -72291   -72239 
  -72207   -72253   -72345   -72411   -72395   -72324   -72311   -72354 
  -72328   -72223   -72168   -72216   -72283   -72314   -72326   -72330 
  -72322   -72297   -72297   -72354   -72382   -72324   -72252   -72258 
  -72314   -72316   -72277   -72284   -72347   -72393   -72381   -72354 
  -72339   -72297   -72233   -72211   -72243   -72268   -72260   -72283 
  -72373   -72441   -72392   -72281   -72223   -72234   -72264   -72274 
  -72293   -72351   -72397   -72376   -72330   -72326   -72335   -72296 
  -72239   -72237   -72291   -72351   -72351   -72300   -72287   -72315 
  -72307   -72265   -72237   -72234   -72253   -72274   -72287   -72314 
  -72347   -72368   -72364   -72327   -72287   -72296   -72347   -72377 
  -72368   -72346   -72318   -72287   -72270   -72265   -72274   -72297 
  -72342   -72376   -72328   -72212   -72145   -72196   -72319   -72396 
  -72397   -72395   -72381   -72310   -72212   -72175   -72256   -72392 
  -72447   -72382   -72303   -72296   -72301   -72257   -72211   -72237 
  -72327   -72376   -72314   -72253   -72281   -72316   -72300   -72284 
  -72306   -72328   -72303   -72272   -72307   -72355   -72337   -72300 
  -72322   -72334   -72296   -72285   -72333   -72370   -72342   -72280 
  -72262   -72283   -72276   -72268   -72308   -72343   -72306   -72254 
  -72285   -72335   -72306   -72281   -72370   -72457   -72380   -72227 
  -72212   -72338   -72385   -72301   -72253   -72311   -72355   -72322 
  -72296   -72345   -72403   -72387   -72312   -72239   -72179   -72149 
  -72191   -72276   -72330   -72341   -72384   -72441   -72397   -72306 
  -72293   -72323   -72292   -72211   -72203   -72318   -72395   -72327 
  -72235   -72245   -72311   -72330   -72316   -72343   -72369   -72327 
  -72262   -72249   -72285   -72296   -72257   -72254   -72316   -72353 
  -72335   -72324   -72334   -72310   -72243   -72208   -72249   -72320 
  -72347   -72330   -72335   -72365   -72366   -72357   -72369   -72368 
  -72324   -72277   -72272   -72279   -72246   -72211   -72229   -72297 
  -72370   -72412   -72420   -72361   -72211   -72083   -72111   -72252 
  -72353   -72381   -72431   -72496   -72459   -72301   -72187   -72246 
  -72362   -72366   -72320   -72324   -72327   -72257   -72166   -72195 
  -72315   -72350   -72292   -72277   -72337   -72388   -72368   -72319 
  -72295   -72285   -72273   -72274   -72347   -72432   -72391   -72273 
  -72223   -72258   -72301   -72299   -72262   -72254   -72280   -72300 
  -72306   -72303   -72299   -72308   -72328   -72327   -72299   -72300 
  -72353   -72382   -72341   -72284   -72277   -72280   -72245   -72237 
  -72308   -72388   -72384   -72303   -72253   -72285   -72337   -72370 
  -72399   -72392   -72307   -72193   -72150   -72216   -72311   -72339 
  -72335   -72366   -72381   -72320   -72242   -72231   -72285   -72324 
  -72308   -72289   -72323   -72362   -72343   -72287   -72243   -72253 
  -72327   -72412   -72423   -72355   -72291   -72269   -72249   -72215 
  -72231   -72334   -72434   -72424   -72318   -72237   -72270   -72328 
  -72306   -72256   -72260   -72304   -72311   -72256   -72231   -72293 
  -72370   -72387   -72360   -72345   -72338   -72293   -72253   -72296 
  -72368   -72365   -72300   -72254   -72250   -72258   -72264   -72285 
  -72341   -72366   -72322   -72299   -72341   -72347   -72276   -72212 
  -72235   -72311   -72335   -72301   -72292   -72322   -72331   -72297 
  -72270   -72297   -72338   -72349   -72364   -72412   -72420   -72333 
  -72230   -72195   -72229   -72279   -72304   -72326   -72322   -72257 
  -72199   -72211   -72273   -72322   -72337   -72354   -72380   -72351 
  -72297   -72320   -72384   -72365   -72293   -72265   -72276   -72291 
  -72299   -72322   -72357   -72330   -72250   -72257   -72381   -72468 
  -72418   -72299   -72192   -72133   -72118   -72152   -72265   -72428 
  -72527   -72490   -72347   -72210   -72184   -72257   -72331   -72311 
  -72191   -72121   -72210   -72372   -72473   -72501   -72496   -72443 
  -72311   -72154   -72119   -72241   -72343   -72301   -72226   -72268 
  -72368   -72345   -72193   -72154   -72331   -72508   -72482   -72318 
  -72202   -72215   -72272   -72311   -72366   -72416   -72392   -72315 
  -72283   -72310   -72306   -72231   -72198   -72253   -72310   -72311 
  -72314   -72351   -72351   -72288   -72258   -72310   -72365   -72374 
  -72368   -72343   -72256   -72168   -72204   -72335   -72391   -72303 
  -72200   -72225   -72355   -72450   -72434   -72362   -72326   -72328 
  -72291   -72233   -72223   -72249   -72258   -72234   -72218   -72257 
  -72327   -72360   -72343   -72346   -72399   -72428   -72368   -72279 
  -72264   -72296   -72288   -72268   -72308   -72355   -72319   -72229 
  -72216   -72314   -72378   -72330   -72284   -72323   -72343   -72262 
  -72200   -72258   -72343   -72357   -72343   -72349   -72343   -72312 
  -72300   -72345   -72373   -72308   -72239   -72254   -72289   -72285 
  -72292   -72328   -72318   -72246   -72220   -72279   -72333   -72316 
  -72284   -72323   -72365   -72280   -72164   -72210   -72368   -72430 
  -72372   -72361   -72408   -72362   -72241   -72225   -72342   -72416 
  -72353   -72289   -72328   -72338   -72223   -72139   -72222   -72358 
  -72385   -72311   -72253   -72264   -72293   -72306   -72326   -72341 
  -72320   -72293   -72299   -72310   -72291   -72285   -72335   -72376 
  -72338   -72279   -72273   -72295   -72280   -72247   -72272   -72339 
  -72358   -72316   -72287   -72327   -72372   -72322   -72243   -72257 
  -72320   -72360   -72361   -72338   -72311   -72283   -72254   -72238 
  -72238   -72265   -72342   -72420   -72399   -72319   -72322   -72382 
  -72350   -72229   -72185   -72303   -72427   -72372   -72237   -72231 
  -72289   -72246   -72179   -72247   -72405   -72465   -72384   -72292 
  -72287   -72308   -72272   -72218   -72231   -72296   -72341   -72331 
  -72307   -72324   -72346   -72318   -72265   -72253   -72308   -72374 
  -72376   -72335   -72324   -72341   -72315   -72243   -72223   -72301 
  -72384   -72351   -72246   -72234   -72315   -72323   -72241   -72234 
  -72358   -72451   -72360   -72193   -72192   -72330   -72373   -72281 
  -72222   -72277   -72353   -72353   -72323   -72337   -72358   -72346 
  -72327   -72322   -72311   -72303   -72324   -72327   -72283   -72254 
  -72285   -72326   -72311   -72265   -72262   -72288   -72283   -72268 
  -72296   -72343   -72355   -72337   -72353   -72399   -72380   -72292 
  -72241   -72256   -72269   -72246   -72249   -72301   -72349   -72366 
  -72361   -72320   -72265   -72253   -72312   -72382   -72366   -72288 
  -72260   -72297   -72303   -72249   -72238   -72318   -72364   -72301 
  -72239   -72274   -72327   -72310   -72276   -72306   -72357   -72338 
  -72272   -72273   -72364   -72408   -72311   -72207   -72233   -72299 
  -72295   -72270   -72276   -72288   -72288   -72301   -72345   -72365 
  -72310   -72226   -72214   -72289   -72354   -72350   -72349   -72389 
  -72404   -72364   -72314   -72304   -72331   -72345   -72316   -72256 
  -72192   -72188   -72264   -72345   -72347   -72283   -72237   -72241 
  -72268   -72333   -72438   -72501   -72446   -72293   -72173   -72171 
  -72207   -72226   -72303   -72447   -72527   -72442   -72268   -72171 
  -72196   -72247   -72274   -72315   -72366   -72355   -72274   -72222 
  -72276   -72358   -72355   -72289   -72269   -72328   -72392   -72374 
  -72301   -72237   -72208   -72229   -72284   -72326   -72347   -72372 
  -72395   -72384   -72333   -72273   -72239   -72233   -72216   -72225 
  -72322   -72439   -72470   -72412   -72310   -72229   -72216   -72239 
  -72247   -72258   -72307   -72366   -72380   -72337   -72284   -72281 
  -72323   -72334   -72285   -72243   -72245   -72245   -72233   -72243 
  -72277   -72303   -72322   -72347   -72366   -72360   -72328   -72289 
  -72287   -72324   -72360   -72368   -72354   -72324   -72291   -72280 
  -72318   -72354   -72333   -72260   -72202   -72208   -72264   -72312 
  -72357   -72434   -72474   -72380   -72208   -72138   -72241   -72387 
  -72404   -72306   -72238   -72258   -72297   -72291   -72252   -72264 
  -72365   -72450   -72414   -72326   -72318   -72384   -72392   -72284 
  -72179   -72149   -72135   -72121   -72166   -72287   -72397   -72388 
  -72289   -72250   -72310   -72360   -72327   -72281   -72316   -72407 
  -72431   -72346   -72258   -72274   -72338   -72312   -72219   -72206 
  -72288   -72343   -72311   -72273   -72320   -72389   -72389   -72355 
  -72316   -72254   -72216   -72243   -72301   -72326   -72310   -72330 
  -72376   -72326   -72211   -72207   -72338   -72435   -72401   -72357 
  -72395   -72422   -72351   -72268   -72257   -72277   -72262   -72237 
  -72257   -72304   -72306   -72280   -72291   -72320   -72330   -72330 
  -72334   -72345   -72354   -72365   -72360   -72311   -72234   -72202 
  -72264   -72358   -72378   -72328   -72291   -72299   -72319   -72316 
  -72277   -72206   -72142   -72157   -72276   -72409   -72455   -72424 
  -72387   -72342   -72252   -72180   -72247   -72416   -72486   -72391 
  -72291   -72314   -72364   -72318   -72253   -72283   -72368   -72393 
  -72331   -72262   -72241   -72229   -72226   -72257   -72288   -72270 
  -72218   -72210   -72281   -72331   -72283   -72230   -72291   -72389 
  -72362   -72234   -72166   -72241   -72369   -72392   -72328   -72349 
  -72447   -72465   -72342   -72189   -72187   -72350   -72466   -72397 
  -72247   -72199   -72270   -72319   -72272   -72215   -72223   -72265 
  -72281   -72260   -72254   -72287   -72297   -72299   -72354   -72447 
  -72527   -72547   -72458   -72296   -72191   -72199   -72279   -72335 
  -72327   -72319   -72361   -72387   -72337   -72253   -72211   -72257 
  -72360   -72420   -72401   -72388   -72408   -72343   -72148   -71995 
  -72049   -72242   -72392   -72442   -72453   -72453   -72381   -72230 
  -72158   -72258   -72382   -72378   -72257   -72115   -72033   -72040 
  -72122   -72237   -72331   -72423   -72522   -72528   -72391   -72230 
  -72220   -72314   -72281   -72104   -72030   -72203   -72457   -72535 
  -72439   -72372   -72385   -72384   -72341   -72310   -72366   -72476 
  -72492   -72395   -72301   -72258   -72246   -72229   -72204   -72229 
  -72265   -72188   -72041   -72023   -72166   -72322   -72397   -72399 
  -72357   -72274   -72188   -72264   -72544   -72762   -72671   -72405 
  -72270   -72307   -72326   -72272   -72272   -72368   -72414   -72335 
  -72246   -72238   -72272   -72276   -72257   -72264   -72289   -72307 
  -72287   -72196   -72096   -72110   -72238   -72347   -72364   -72370 
  -72423   -72426   -72354   -72319   -72364   -72392   -72322   -72212 
  -72181   -72223   -72258   -72300   -72385   -72430   -72337   -72184 
  -72161   -72264   -72287   -72158   -72065   -72141   -72299   -72427 
  -72528   -72569   -72449   -72218   -72095   -72222   -72450   -72526 
  -72418   -72297   -72268   -72273   -72258   -72241   -72214   -72137 
  -72065   -72117   -72279   -72378   -72330   -72253   -72260   -72300 
  -72316   -72381   -72540   -72661   -72608   -72423   -72262   -72204 
  -72203   -72245   -72349   -72427   -72396   -72310   -72254   -72220 
  -72171   -72126   -72180   -72345   -72496   -72481   -72285   -72083 
  -72056   -72218   -72432   -72532   -72451   -72293   -72172   -72108 
  -72121   -72284   -72536   -72617   -72430   -72235   -72274   -72424 
  -72408   -72198   -72036   -72064   -72164   -72242   -72355   -72490 
  -72508   -72333   -72110   -72077   -72288   -72574   -72729   -72640 
  -72338   -72030   -71941   -72087   -72326   -72517   -72596   -72590 
  -72542   -72436   -72338   -72310   -72258   -72107   -71972   -72003 
  -72198   -72407   -72472   -72424   -72426   -72450   -72333   -72077 
  -71915   -72050   -72377   -72578   -72513   -72314   -72171   -72156 
  -72203   -72247   -72269   -72307   -72422   -72528   -72492   -72382 
  -72333   -72318   -72253   -72166   -72191   -72365   -72551   -72612 
  -72543   -72385   -72183   -72083   -72169   -72246   -72172   -72083 
  -72126   -72246   -72322   -72370   -72469   -72535   -72422   -72168 
  -72013   -72107   -72303   -72400   -72382   -72301   -72204   -72154 
  -72180   -72230   -72241   -72254   -72339   -72459   -72539   -72538 
  -72477   -72407   -72314   -72204   -72179   -72280   -72365   -72296 
  -72164   -72118   -72161   -72249   -72396   -72590   -72709   -72643 
  -72450   -72273   -72160   -72084   -72048   -72061   -72103   -72162 
  -72273   -72466   -72657   -72675   -72489   -72253   -72069   -71952 
  -71960   -72145   -72435   -72634   -72573   -72330   -72126   -72050 
  -72029   -72018   -72102   -72334   -72585   -72704   -72704   -72611 
  -72416   -72296   -72389   -72512   -72476   -72351   -72287   -72256 
  -72135   -71976   -71986   -72168   -72293   -72299   -72377   -72549 
  -72578   -72405   -72231   -72177   -72189   -72188   -72199   -72242 
  -72241   -72239   -72377   -72543   -72478   -72210   -72061   -72237 
  -72555   -72705   -72624   -72451   -72247   -71996   -71791   -71828 
  -72141   -72459   -72489   -72320   -72273   -72323   -72191   -71933 
  -71891   -72175   -72501   -72571   -72459   -72408   -72422   -72357 
  -72247   -72256   -72382   -72414   -72256   -72099   -72095   -72235 
  -72480   -72690   -72692   -72481   -72242   -72133   -72133   -72110 
  -72049   -72071   -72239   -72505   -72711   -72670   -72430   -72218 
  -72146   -72154   -72180   -72239   -72389   -72563   -72558   -72360 
  -72242   -72346   -72465   -72360   -72145   -72123   -72264   -72307 
  -72250   -72337   -72590   -72652   -72326   -71999   -72052   -72283 
  -72320   -72179   -72161   -72362   -72523   -72449   -72301   -72304 
  -72392   -72400   -72341   -72272   -72171   -72044   -71994   -72107 
  -72328   -72485   -72457   -72307   -72204   -72220   -72273   -72283 
  -72276   -72328   -72436   -72492   -72461   -72436   -72453   -72455 
  -72384   -72237   -72085   -72021   -72076   -72210   -72323   -72347 
  -72353   -72431   -72516   -72472   -72270   -72073   -72057   -72107 
  -72021   -71890   -71982   -72311   -72539   -72450   -72301   -72395 
  -72598   -72592   -72349   -72215   -72416   -72709   -72706   -72412 
  -72179   -72179   -72269   -72315   -72319   -72314   -72273   -72154 
  -72045   -72103   -72316   -72486   -72508   -72430   -72297   -72187 
  -72204   -72369   -72550   -72562   -72370   -72188   -72171   -72192 
  -72112   -72029   -72141   -72434   -72598   -72458   -72231   -72187 
  -72295   -72341   -72252   -72175   -72202   -72269   -72328   -72422 
  -72569   -72657   -72536   -72269   -72044   -71945   -71956   -72058 
  -72216   -72357   -72393   -72380   -72468   -72594   -72558   -72366 
  -72202   -72162   -72160   -72115   -72106   -72176   -72237   -72238 
  -72237   -72301   -72423   -72526   -72586   -72613   -72561   -72423 
  -72292   -72269   -72327   -72353   -72347   -72364   -72369   -72304 
  -72193   -72138   -72193   -72254   -72225   -72183   -72215   -72265 
  -72246   -72208   -72246   -72308   -72319   -72349   -72465   -72547 
  -72470   -72310   -72223   -72220   -72196   -72137   -72148   -72256 
  -72330   -72320   -72361   -72469   -72488   -72382   -72284   -72307 
  -72388   -72396   -72388   -72484   -72589   -72516   -72307   -72171 
  -72189   -72260   -72280   -72268   -72266   -72266   -72249   -72181 
  -72073   -72041   -72160   -72362   -72482   -72397   -72226   -72153 
  -72099   -71967   -71926   -72153   -72522   -72719   -72623   -72484 
  -72520   -72596   -72554   -72504   -72566   -72600   -72404   -72111 
  -72036   -72193   -72327   -72314   -72261   -72245   -72180   -72017 
  -71909   -71972   -72068   -72057   -72041   -72139   -72268   -72323 
  -72376   -72461   -72451   -72308   -72204   -72274   -72381   -72334 
  -72229   -72289   -72485   -72605   -72605   -72586   -72542   -72393 
  -72208   -72153   -72266   -72422   -72509   -72522   -72455   -72338 
  -72274   -72287   -72246   -72123   -72083   -72169   -72192   -72057 
  -71944   -72072   -72354   -72505   -72453   -72337   -72257   -72220 
  -72273   -72418   -72480   -72374   -72274   -72283   -72319   -72319 
  -72284   -72297   -72408   -72465   -72401   -72378   -72457   -72505 
  -72418   -72247   -72177   -72246   -72279   -72198   -72148   -72252 
  -72399   -72388   -72246   -72181   -72233   -72262   -72208   -72154 
  -72200   -72343   -72481   -72522   -72442   -72319   -72315   -72447 
  -72512   -72391   -72181   -72067   -72112   -72212   -72270   -72264 
  -72214   -72204   -72281   -72381   -72415   -72381   -72338   -72270 
  -72181   -72160   -72241   -72365   -72454   -72465   -72428   -72415 
  -72418   -72365   -72274   -72249   -72269   -72226   -72148   -72192 
  -72395   -72544   -72468   -72301   -72281   -72392   -72424   -72300 
  -72185   -72181   -72202   -72203   -72258   -72380   -72458   -72414 
  -72300   -72219   -72199   -72220   -72279   -72387   -72484   -72453 
  -72299   -72177   -72206   -72319   -72373   -72315   -72241   -72252 
  -72306   -72322   -72307   -72303   -72320   -72374   -72476   -72550 
  -72489   -72304   -72145   -72114   -72161   -72165   -72090   -72076 
  -72216   -72365   -72393   -72355   -72335   -72330   -72273   -72192 
  -72189   -72272   -72311   -72252   -72261   -72443   -72585   -72488 
  -72268   -72152   -72208   -72279   -72252   -72283   -72446   -72501 
  -72320   -72112   -72121   -72331   -72501   -72438   -72226   -72076 
  -72085   -72179   -72199   -72137   -72158   -72300   -72403   -72395 
  -72369   -72432   -72513   -72441   -72288   -72288   -72389   -72369 
  -72262   -72297   -72513   -72648   -72476   -72177   -72087   -72195 
  -72295   -72323   -72350   -72389   -72366   -72285   -72284   -72381 
  -72438   -72404   -72361   -72355   -72310   -72171   -72056   -72095 
  -72208   -72241   -72218   -72265   -72374   -72400   -72312   -72252 
  -72269   -72316   -72414   -72536   -72581   -72486   -72306   -72196 
  -72219   -72254   -72237   -72241   -72262   -72216   -72119   -72117 
  -72280   -72454   -72455   -72328   -72238   -72238   -72254   -72266 
  -72339   -72465   -72535   -72474   -72346   -72270   -72239   -72158 
  -72079   -72157   -72347   -72393   -72227   -72103   -72203   -72393 
  -72449   -72358   -72289   -72326   -72387   -72347   -72253   -72300 
  -72486   -72576   -72469   -72319   -72303   -72364   -72292   -72108 
  -72067   -72218   -72347   -72331   -72306   -72414   -72535   -72480 
  -72324   -72270   -72355   -72430   -72358   -72226   -72160   -72114 
  -72045   -72053   -72177   -72299   -72333   -72365   -72478   -72559 
  -72465   -72269   -72176   -72249   -72358   -72369   -72301   -72231 
  -72131   -72000   -72003   -72226   -72461   -72481   -72360   -72297 
  -72327   -72339   -72307   -72337   -72466   -72543   -72463   -72310 
