Origin Time       2024/06/23 22:54:00
Lat.              35.645
Long.             140.060
Depth. (km)       72
Mag.              4.1
Station Code      TCGH14
Station Lat.      36.5509
Station Long.     139.6154
Station Height(m) 180
Record Time       2024/06/23 22:54:59
Sampling Freq(Hz) 100Hz
Duration Time(s)  120
Dir.              6
Scale Factor      7845(gal)/8223790
Max. Acc. (gal)   0.756
Last Correction   2024/06/23 22:54:59
Memo.             
[...]
    1825     1782     1660     1401     1364     1672     1926     1960 
    1838     1644     1537     1593     1744     1733     1513     1580 
    1911     1806     1453     1532     1817     1921     1829     1539 
    1393     1663     1894     1768     1587     1561     1634     1771 
    1826     1663     1576     1703     1661     1445     1607     2095 
    2069     1440     1216     1723     2142     1829     1216     1321 
    2035     2207     1692     1324     1431     1715     1787     1671 
    1772     1923     1651     1385     1572     1765     1788     1803 
    1626     1476     1777     2018     1717     1432     1499     1621 
    1767     1921     1922     1777     1502     1248     1312     1741 
    2141     2043     1617     1387     1425     1661     1999     1972 
    1545     1348     1611     1954     1950     1617     1410     1541 
    1768     1813     1711     1657     1630     1641     1782     1879 
    1757     1583     1549     1574     1606     1715     1799     1802 
    1749     1548     1375     1590     1981     2037     1733     1448 
    1476     1749     1790     1497     1458     1776     1953     1890 
    1684     1471     1543     1741     1726     1674     1803     1857 
    1624     1386     1483     1810     1945     1763     1644     1750 
    1759     1564     1468     1649     1834     1683     1418     1502 
    1864     1973     1676     1507     1773     1991     1748     1355 
    1412     1873     2027     1699     1444     1479     1620     1767 
    1877     1868     1725     1609     1659     1742     1640     1458 
    1532     1842     1942     1637     1366     1543     1848     1826 
    1601     1525     1744     1941     1784     1588     1628     1634 
    1518     1591     1939     2069     1667     1297     1421     1728 
    1880     1795     1564     1516     1705     1765     1622     1642 
    1891     1914     1543     1343     1687     2074     2057     1771 
    1456     1362     1553     1736     1772     1804     1755     1555 
    1541     1761     1782     1588     1555     1696     1804     1848 
    1794     1547     1341     1470     1698     1806     1873     1773 
    1630     1752     1777     1552     1575     1773     1736     1653 
    1748     1794     1756     1744     1553     1370     1606     1804 
    1660     1660     1746     1609     1510     1572     1711     1962 
    2077     1750     1367     1526     1910     1829     1521     1543 
    1707     1699     1692     1728     1682     1648     1560     1497 
    1737     1930     1788     1706     1779     1717     1640     1788 
    1917     1761     1468     1242     1302     1729     2042     1834 
    1493     1498     1710     1891     1930     1761     1610     1603 
    1615     1653     1760     1836     1707     1471     1453     1648 
    1813     1860     1761     1568     1471     1536     1663     1786 
    1833     1768     1669     1597     1601     1707     1799     1721 
    1626     1713     1718     1522     1533     1864     2035     1748 
    1389     1406     1661     1907     2011     1748     1414     1545 
    1818     1740     1534     1533     1726     1852     1715     1583 
    1714     1849     1725     1475     1418     1676     1946     1918 
    1730     1622     1602     1560     1506     1682     1999     1895 
    1431     1313     1678     2026     1972     1617     1397     1570 
    1941     2025     1757     1501     1291     1275     1702     2022 
    1807     1517     1548     1841     2054     1868     1528     1468 
    1622     1783     1915     1875     1625     1428     1451     1629 
    1752     1676     1628     1765     1818     1636     1466     1540 
    1803     1958     1773     1476     1564     1952     1998     1632 
    1416     1582     1844     1803     1453     1317     1686     2120 
    1979     1394     1198     1574     1845     1799     1799     1817 
    1713     1709     1776     1740     1676     1532     1363     1513 
    1884     2007     1771     1399     1267     1652     2137     2084 
    1676     1513     1776     1944     1530     1155     1517     2058 
    1949     1394     1233     1683     2110     2018     1586     1332 
    1516     1788     1791     1759     1880     1898     1630     1341 
    1452     1818     1944     1765     1566     1651     1822     1574 
    1282     1520     1844     1840     1773     1818     1925     1873 
    1539     1420     1655     1668     1498     1624     1942     1966 
    1499     1092     1459     2176     2199     1606     1360     1798 
    2160     1661      963     1259     2127     2282     1636     1165 
    1475     2112     2104     1422     1217     1792     2151     1883 
    1458     1285     1460     1815     2003     1883     1709     1568 
    1350     1347     1706     2027     2072     1846     1372     1119 
    1533     2079     2047     1657     1451     1521     1722     1895 
    1822     1593     1626     1736     1548     1574     1898     1821 
    1636     1763     1709     1520     1630     1796     1795     1694 
    1482     1441     1773     1975     1767     1533     1432     1540 
    1968     2143     1668     1235     1382     1775     1939     1814 
    1696     1711     1609     1443     1601     1946     1969     1552 
    1219     1502     1921     1902     1786     1779     1737     1664 
    1591     1663     1864     1802     1470     1405     1651     1723 
    1606     1617     1740     1746     1669     1744     1871     1773 
    1626     1645     1717     1726     1645     1601     1640     1507 
    1389     1737     2157     1939     1455     1486     1737     1692 
    1659     1818     1915     1834     1575     1368     1536     1857 
    1861     1541     1340     1615     2046     2085     1750     1347 
    1212     1544     1946     1894     1678     1817     1906     1590 
    1382     1441     1611     1972     2089     1637     1337     1629 
    1888     1750     1564     1552     1680     1871     1892     1605 
    1435     1647     1675     1439     1575     1977     2073     1817 
    1530     1493     1593     1560     1624     1919     1895     1460 
    1304     1705     2114     1911     1449     1549     1898     1759 
    1522     1687     1863     1717     1401     1323     1755     2139 
    1931     1530     1404     1570     1840     1867     1603     1474 
    1624     1782     1895     1900     1610     1331     1448     1777 
    2033     2008     1628     1435     1713     1746     1422     1544 
    1991     1966     1540     1308     1513     1938     2030     1591 
    1337     1683     1941     1776     1710     1746     1487     1354 
    1768     2000     1645     1497     1798     1941     1756     1443 
    1310     1645     1999     1804     1529     1622     1683     1571 
    1618     1807     1826     1568     1394     1663     2080     2097 
    1729     1412     1414     1684     1903     1787     1599     1705 
    1827     1587     1305     1451     1840     1995     1765     1449 
    1537     1923     1904     1521     1502     1761     1726     1568 
    1717     1948     1802     1444     1355     1613     1971     1984 
    1547     1378     1794     2042     1698     1389     1590     1853 
    1787     1611     1582     1737     1826     1590     1366     1553 
    1937     2066     1786     1456     1530     1777     1744     1625 
    1683     1711     1634     1586     1622     1830     2006     1742 
    1367     1462     1740     1795     1779     1703     1490     1466 
    1765     1925     1725     1575     1628     1649     1629     1659 
    1714     1787     1783     1644     1583     1709     1765     1578 
    1408     1609     2039     2166     1875     1556     1401     1351 
    1507     1842     1969     1737     1599     1742     1746     1586 
    1505     1463     1649     2020     1988     1668     1602     1609 
    1516     1617     1780     1625     1471     1768     2066     1858 
    1553     1557     1602     1648     1863     1892     1651     1516 
    1451     1471     1744     1937     1831     1621     1471     1656 
    2039     1880     1364     1375     1749     1891     1779     1555 
    1472     1644     1759     1733     1787     1802     1625     1441 
    1453     1764     2096     1888     1395     1458     1973     2127 
    1755     1393     1399     1641     1822     1773     1610     1564 
    1574     1491     1571     1957     2165     1837     1312     1220 
    1742     2192     1954     1551     1591     1726     1599     1486 
    1595     1732     1707     1636     1679     1756     1749     1660 
    1590     1629     1649     1634     1802     2008     1910     1599 
    1378     1444     1707     1730     1514     1571     1844     1933 
    1871     1705     1458     1440     1668     1830     1875     1845 
    1729     1582     1409     1354     1598     1933     2020     1822 
    1610     1630     1680     1566     1560     1711     1760     1764 
    1696     1475     1486     1865     2081     1857     1530     1462 
    1705     1914     1736     1470     1543     1698     1613     1536 
    1668     1790     1788     1750     1730     1733     1671     1588 
    1652     1767     1732     1644     1615     1594     1669     1764 
    1629     1498     1694     2018     2041     1679     1363     1440 
    1711     1831     1736     1626     1665     1767     1799     1663 
    1371     1351     1829     2173     1912     1474     1413     1644 
    1703     1571     1620     1875     1984     1802     1556     1475 
    1534     1591     1706     1971     2027     1640     1341     1568 
    1861     1707     1389     1452     1898     2135     1741     1278 
    1485     1960     1995     1729     1505     1493     1690     1675 
    1443     1578     1933     1900     1636     1551     1624     1722 
    1765     1796     1854     1696     1362     1374     1810     2065 
    1842     1514     1443     1674     1929     1759     1341     1386 
    1848     1992     1782     1733     1788     1637     1493     1571 
    1711     1818     1825     1620     1466     1615     1738     1636 
    1626     1759     1834     1868     1771     1579     1602     1674 
    1559     1649     1949     1885     1512     1328     1476     1734 
    1800     1694     1688     1733     1605     1506     1710     1914 
    1817     1653     1684     1861     1899     1622     1372     1468 
    1692     1815     1844     1825     1782     1579     1262     1306 
    1760     2079     1980     1660     1501     1634     1730     1587 
    1499     1679     1864     1776     1651     1761     1821     1582 
    1425     1605     1783     1791     1795     1715     1534     1547 
    1665     1679     1819     1981     1836     1668     1660     1533 
    1389     1510     1755     1917     1875     1590     1479     1703 
    1711     1443     1428     1756     2042     1930     1555     1441 
    1657     1806     1749     1624     1610     1756     1772     1607 
    1651     1869     1868     1684     1567     1576     1694     1765 
    1618     1471     1634     1965     2022     1628     1294     1534 
    1921     1815     1466     1555     1930     1888     1606     1587 
    1636     1567     1485     1486     1696     1925     1857     1656 
    1599     1644     1656     1691     1807     1860     1786     1640 
    1460     1476     1723     1794     1620     1601     1802     1890 
    1752     1593     1610     1744     1752     1647     1660     1721 
    1607     1439     1525     1821     1939     1810     1721     1729 
    1707     1640     1572     1611     1734     1703     1566     1644 
    1864     1896     1696     1445     1432     1750     1958     1744 
    1468     1439     1390     1345     1717     2124     2019     1848 
    1868     1680     1460     1520     1611     1702     1890     1853 
    1594     1645     1899     1679     1244     1375     1806     1906 
    1827     1769     1582     1395     1467     1660     1813     1942 
    1941     1761     1629     1584     1428     1337     1620     2014 
    2087     1880     1682     1539     1491     1638     1775     1826 
    1925     1784     1367     1302     1636     1738     1624     1671 
    1726     1760     1939     1819     1406     1501     1821     1630 
    1485     1842     2058     1771     1377     1237     1452     1902 
    2169     2007     1740     1660     1591     1445     1436     1567 
    1660     1725     1856     1962     1799     1475     1398     1591 
    1854     2014     1803     1432     1451     1730     1783     1678 
    1764     1956     1857     1507     1410     1641     1784     1746 
    1730     1722     1560     1248     1178     1656     2137     1985 
    1593     1642     1877     1657     1325     1510     1885     2049 
    2065     1806     1420     1395     1514     1486     1732     2150 
    2061     1655     1501     1475     1462     1633     1792     1819 
    1931     1921     1578     1354     1466     1629     1813     1987 
    1884     1524     1229     1285     1632     1945     2042     1865 
    1509     1412     1691     1904     1871     1744     1590     1498 
    1610     1772     1605     1414     1771     2038     1683     1493 
    1729     1818     1674     1478     1409     1734     2232     2219 
    1584     1167     1437     1737     1682     1707     1853     1799 
    1707     1711     1582     1441     1566     1742     1829     1950 
    2056     1898     1296      891     1417     1993     1790     1679 
    1971     1877     1458     1269     1383     1691     1972     2004 
    1867     1698     1529     1455     1621     1948     2046     1790 
    1571     1485     1390     1551     1838     1769     1590     1634 
    1705     1749     1752     1621     1617     1825     1848     1678 
    1699     1777     1541     1318     1601     1965     1891     1668 
    1495     1363     1620     2087     2142     1823     1456     1159 
    1173     1632     2122     2101     1669     1462     1745     1985 
    1640     1140     1341     2031     2226     1722     1252     1441 
    1962     2022     1688     1553     1566     1567     1726     1788 
    1572     1547     1760     1776     1672     1702     1690     1560 
    1570     1780     1942     1854     1632     1503     1559     1780 
    1945     1803     1599     1678     1887     1864     1552     1297 
    1435     1842     2043     1783     1449     1483     1614     1472 
    1367     1694     2149     2176     1737     1194      994     1335 
    1823     1985     1883     1838     1868     1748     1568     1570 
    1682     1815     2019     2080     1746     1332     1389     1791 
    1917     1706     1598     1578     1487     1599     1864     1861 
    1736     1761     1679     1379     1240     1475     1819     1952 
    1888     1750     1588     1549     1669     1709     1637     1791 
    2062     1911     1514     1429     1520     1541     1688     1915 
    1912     1711     1489     1377     1514     1676     1601     1568 
    1796     2026     2046     1857     1503     1270     1356     1482 
    1637     2020     2224     1977     1607     1355     1352     1584 
    1759     1818     1939     2095     2025     1525      940      953 
    1564     2112     2249     2149     1906     1553     1398     1525 
    1634     1701     1869     1910     1638     1435     1483     1528 
    1613     1734     1674     1691     1956     2058     1830     1466 
    1148     1198     1711     2151     2060     1664     1406     1414 
    1512     1458     1371     1652     2168     2228     1771     1518 
    1665     1755     1656     1584     1647     1790     1881     1879 
    1792     1584     1348     1363     1707     2056     2093     1872 
    1630     1502     1393     1305     1464     1854     2214     2276 
    1934     1479     1163     1030     1294     1807     2008     1972 
    1953     1690     1297     1235     1435     1721     2095     2212 
    1803     1374     1489     1891     1922     1510     1382     1842 
    2170     1880     1405     1270     1486     1730     1815     1865 
    1933     1842     1560     1339     1418     1734     2007     2004 
    1736     1599     1732     1602     1132     1027     1494     1998 
    2154     1961     1638     1478     1428     1414     1687     2104 
    2184     1953     1733     1494     1228     1277     1633     1871 
    1948     2006     1899     1682     1586     1595     1687     1737 
    1510     1359     1723     2099     1894     1460     1297     1433 
    1729     1884     1792     1725     1741     1733     1717     1656 
    1607     1767     2010     1960     1625     1413     1474     1632 
    1702     1597     1439     1476     1722     1892     1784     1634 
    1723     1834     1729     1607     1652     1733     1692     1587 
    1536     1561     1657     1753     1737     1699     1810     1867 
    1674     1632     1804     1634     1336     1528     1876     1872 
    1792     1868     1821     1591     1463     1497     1552     1675 
    1904     1991     1764     1453     1398     1691     2004     1914 
    1571     1385     1383     1552     1906     2088     1903     1636 
    1490     1482     1588     1714     1733     1632     1551     1601 
    1733     1848     1813     1624     1540     1665     1705     1571 
    1601     1848     1917     1750     1715     1799     1664     1474 
    1656     1969     1884     1514     1269     1336     1672     1939 
    1944     1869     1767     1597     1460     1436     1576     1840 
    2006     1956     1777     1568     1433     1487     1618     1625 
    1626     1772     1868     1746     1566     1598     1782     1725 
    1437     1390     1752     2162     2199     1779     1267     1183 
    1524     1794     1842     1934     2010     1715     1255     1235 
    1653     2054     2188     1954     1507     1308     1485     1695 
    1745     1698     1625     1591     1593     1644     1775     1798 
    1686     1675     1711     1682     1679     1638     1530     1576 
    1836     2020     1917     1632     1440     1540     1725     1794 
    1894     1880     1563     1370     1534     1688     1676     1675 
    1656     1621     1745     1829     1647     1563     1725     1829 
    1841     1796     1621     1470     1494     1647     1792     1779 
    1669     1622     1659     1732     1736     1671     1686     1742 
    1736     1674     1641     1777     1933     1745     1418     1435 
    1659     1745     1715     1686     1659     1636     1709     1833 
    1755     1552     1506     1521     1583     1838     1976     1786 
    1516     1387     1544     1863     1915     1702     1652     1815 
    1873     1703     1476     1510     1822     1931     1713     1584 
    1644     1638     1540     1552     1742     1896     1790     1526 
    1447     1601     1748     1787     1783     1815     1854     1721 
    1448     1379     1597     1756     1729     1779     1925     1865 
    1617     1459     1460     1602     1829     1917     1746     1539 
    1503     1561     1576     1529     1521     1732     2031     2022 
    1715     1547     1638     1667     1641     1821     1933     1729 
    1502     1459     1568     1783     1958     1965     1752     1410 
