Origin Time       2024/06/23 22:54:00
Lat.              35.645
Long.             140.060
Depth. (km)       72
Mag.              4.1
Station Code      TCGH06
Station Lat.      36.4458
Station Long.     139.9509
Station Height(m) 70
Record Time       2024/06/23 22:54:53
Sampling Freq(Hz) 100Hz
Duration Time(s)  120
Dir.              5
Scale Factor      3920(gal)/6170801
Max. Acc. (gal)   0.903
Last Correction   2024/06/23 22:54:38
Memo.             
[...]
    2684     2657     2791     2737     2539     2630     2810     2688 
    2568     2761     2883     2711     2656     2794     2725     2528 
    2553     2662     2637     2585     2607     2665     2669     2643 
    2734     2831     2797     2764     2703     2618     2681     2717 
    2633     2650     2732     2807     2821     2616     2437     2551 
    2695     2675     2660     2738     2776     2727     2721     2734 
    2690     2730     2791     2689     2570     2574     2635     2656 
    2629     2707     2808     2707     2600     2633     2634     2639 
    2719     2766     2767     2747     2694     2689     2702     2639 
    2632     2708     2682     2614     2615     2625     2717     2866 
    2817     2606     2558     2695     2760     2728     2731     2730 
    2684     2647     2623     2589     2564     2629     2757     2761 
    2702     2782     2815     2622     2468     2546     2699     2751 
    2719     2757     2828     2694     2502     2612     2771     2646 
    2586     2775     2863     2743     2623     2636     2679     2619 
    2591     2624     2664     2815     2867     2674     2537     2525 
    2627     2865     2866     2672     2749     2798     2531     2415 
    2533     2616     2708     2787     2796     2780     2696     2647 
    2738     2783     2727     2681     2638     2631     2678     2642 
    2576     2689     2827     2722     2544     2581     2715     2745 
    2744     2757     2761     2785     2729     2586     2532     2613 
    2724     2674     2520     2591     2748     2726     2721     2753 
    2716     2730     2700     2566     2571     2743     2819     2701 
    2640     2791     2807     2551     2479     2643     2639     2591 
    2753     2831     2712     2715     2815     2774     2645     2578 
    2615     2695     2691     2616     2620     2714     2772     2791 
    2804     2705     2481     2380     2512     2667     2761     2888 
    2946     2858     2805     2731     2508     2445     2627     2677 
    2609     2719     2845     2727     2567     2620     2716     2639 
    2621     2821     2848     2623     2638     2805     2703     2531 
    2547     2675     2748     2623     2530     2644     2698     2685 
    2762     2775     2728     2774     2808     2708     2611     2637 
    2684     2708     2762     2767     2676     2600     2612     2585 
    2468     2530     2739     2767     2758     2842     2781     2646 
    2638     2692     2727     2686     2618     2646     2691     2650 
    2605     2647     2744     2766     2703     2743     2818     2661 
    2478     2581     2689     2608     2625     2703     2652     2737 
    2977     2942     2674     2598     2744     2758     2583     2590 
    2723     2602     2459     2498     2487     2564     2811     2954 
    2987     2939     2847     2831     2676     2421     2424     2570 
    2621     2560     2507     2650     2785     2711     2743     2863 
    2731     2572     2645     2714     2687     2743     2827     2766 
    2708     2755     2674     2522     2605     2729     2644     2628 
    2740     2735     2690     2679     2615     2577     2608     2633 
    2624     2628     2729     2775     2644     2672     2898     2888 
    2681     2597     2676     2792     2792     2735     2718     2613 
    2546     2613     2539     2451     2620     2787     2761     2705 
    2721     2818     2925     2918     2878     2881     2740     2475 
    2359     2376     2359     2356     2520     2799     2906     2865 
    2924     2917     2746     2659     2673     2674     2678     2689 
    2682     2670     2705     2701     2579     2572     2699     2671 
    2635     2703     2597     2439     2525     2722     2878     2971 
    2914     2791     2741     2646     2499     2474     2555     2663 
    2765     2798     2786     2751     2710     2730     2706     2559 
    2461     2485     2580     2695     2751     2795     2871     2894 
    2854     2754     2627     2570     2544     2533     2541     2539 
    2656     2767     2674     2716     2949     2927     2747     2713 
    2680     2608     2657     2737     2683     2587     2591     2646 
    2674     2669     2667     2721     2774     2702     2538     2504 
    2678     2849     2901     2893     2861     2801     2631     2400 
    2349     2455     2566     2698     2750     2687     2740     2857 
    2784     2665     2725     2824     2744     2569     2548     2647 
    2678     2676     2721     2772     2739     2611     2529     2572 
    2643     2686     2748     2863     2933     2818     2641     2628 
    2659     2573     2574     2720     2741     2638     2617     2623 
    2561     2567     2732     2849     2781     2754     2840     2759 
    2586     2681     2815     2649     2501     2537     2522     2565 
    2729     2802     2909     3076     2997     2784     2669     2521 
    2398     2455     2500     2465     2515     2628     2718     2787 
    2897     3026     2942     2709     2614     2578     2541     2571 
    2560     2605     2787     2792     2623     2557     2562     2635 
    2785     2776     2665     2699     2733     2662     2596     2609 
    2787     2942     2801     2669     2738     2710     2646     2643 
    2572     2613     2708     2572     2507     2707     2803     2704 
    2680     2748     2704     2616     2681     2727     2618     2560 
    2605     2685     2795     2843     2810     2763     2708     2617 
    2542     2621     2765     2785     2750     2697     2594     2532 
    2516     2564     2732     2857     2824     2777     2783     2751 
    2665     2632     2666     2614     2537     2606     2676     2673 
    2733     2775     2798     2854     2719     2514     2590     2718 
    2696     2748     2799     2648     2541     2691     2821     2753 
    2736     2813     2718     2506     2410     2449     2576     2721 
    2829     2898     2864     2747     2613     2507     2512     2540 
    2568     2718     2786     2711     2814     2944     2841     2719 
    2644     2511     2418     2469     2649     2772     2756     2793 
    2878     2862     2799     2737     2705     2727     2669     2519 
    2469     2548     2630     2664     2670     2706     2767     2733 
    2610     2547     2587     2679     2760     2828     2888     2805 
    2662     2710     2733     2574     2552     2649     2646     2684 
    2723     2615     2617     2788     2797     2687     2682     2706 
    2721     2732     2641     2547     2607     2692     2667     2634 
    2680     2735     2691     2571     2526     2598     2705     2843 
    2972     2953     2794     2623     2533     2569     2653     2719 
    2818     2862     2716     2561     2587     2645     2650     2681 
    2663     2568     2536     2597     2690     2765     2795     2860 
    2928     2797     2575     2520     2541     2537     2619     2718 
    2731     2751     2780     2743     2683     2635     2603     2563 
    2514     2564     2711     2854     2978     2989     2850     2724 
    2624     2480     2423     2505     2571     2588     2682     2815 
    2830     2805     2842     2814     2665     2559     2594     2663 
    2680     2708     2739     2725     2707     2664     2568     2489 
    2474     2533     2644     2763     2865     2921     2903     2817 
    2680     2576     2560     2600     2742     2911     2833     2647 
    2674     2660     2398     2283     2487     2708     2836     2939 
    2939     2860     2859     2830     2653     2569     2650     2688 
    2694     2677     2551     2519     2681     2729     2580     2539 
    2694     2757     2653     2687     2882     2925     2894     2966 
    2849     2551     2506     2598     2520     2520     2749     2869 
    2752     2665     2656     2571     2480     2518     2632     2719 
    2787     2885     2930     2889     2865     2801     2693     2722 
    2760     2610     2491     2481     2416     2435     2586     2664 
    2758     2917     2888     2693     2554     2551     2668     2809 
    2937     2987     2796     2486     2299     2186     2158     2321 
    2484     2528     2600     2686     2739     2771     2676     2546 
    2633     2847     2961     2996     3014     3015     2964     2797 
    2615     2511     2346     2229     2407     2589     2557     2586 
    2693     2767     2893     2935     2874     2897     2871     2811 
    2985     3166     3093     3001     2931     2697     2386     2143 
    2066     2131     2183     2389     2756     2805     2646     2709 
    2800     2895     3206     3430     3354     3145     2953     2864 
    2732     2469     2329     2332     2311     2293     2272     2279 
    2356     2394     2470     2656     2806     2900     2961     2984 
    3003     2954     2880     2892     2859     2800     2847     2770 
    2573     2526     2477     2368     2423     2518     2533     2613 
    2745     2814     2784     2773     2893     2909     2678     2492 
    2464     2591     2963     3202     3032     2842     2639     2180 
    1892     2021     2231     2445     2761     3064     3189     3043 
    2759     2655     2691     2555     2387     2535     2869     3139 
    3354     3494     3343     2802     2181     1799     1666     1854 
    2278     2467     2333     2224     2251     2393     2661     3001 
    3372     3613     3564     3458     3521     3574     3469     3233 
    2890     2521     2173     1850     1758     2033     2423     2641 
    2662     2608     2526     2423     2449     2644     2768     2725 
    2578     2387     2407     2796     3258     3483     3467     3246 
    2753     2104     1701     1691     1846     2165     2637     2995 
    3273     3545     3518     3231     3046     2937     2755     2626 
    2719     2973     3057     2908     2796     2520     1962     1609 
    1535     1602     2005     2506     2793     3020     3132     3036 
    2922     2833     2798     2911     3120     3320     3317     3081 
    2881     2771     2552     2234     2049     2066     2093     2068 
    2174     2469     2816     3122     3406     3575     3464     3178 
    2836     2460     2316     2444     2506     2500     2568     2610 
    2599     2627     2709     2720     2542     2326     2201     2143 
    2262     2567     2888     3129     3183     3078     2993     2812 
    2481     2369     2584     2848     3036     3201     3307     3202 
    2934     2672     2312     1853     1640     1793     2144     2622 
    3062     3240     3257     3148     2785     2503     2542     2557 
    2536     2702     2891     3033     3091     2899     2661     2519 
    2300     2109     2063     2127     2389     2734     3050     3374 
    3482     3373     3251     2955     2590     2444     2342     2295 
    2495     2748     2877     2853     2667     2415     2168     2123 
    2398     2666     2852     3162     3320     3126     2840     2556 
    2317     2325     2539     2795     3076     3243     3105     2808 
    2591     2413     2305     2406     2550     2605     2662     2646 
    2566     2608     2691     2661     2618     2619     2605     2625 
    2752     2936     3089     3167     3150     2999     2748     2551 
    2463     2416     2402     2353     2250     2218     2278     2431 
    2658     2805     2838     2778     2620     2576     2754     2943 
    3065     3169     3137     2833     2342     1977     1916     2024 
    2276     2694     3021     3161     3221     3172     3081     3046 
    2988     2869     2693     2444     2195     2025     1989     2119 
    2363     2680     3005     3197     3195     3038     2823     2733 
    2827     2916     2891     2821     2727     2573     2399     2253 
    2171     2169     2256     2521     2917     3171     3209     3158 
    3046     2873     2699     2600     2666     2841     2937     2908 
    2810     2616     2376     2238     2232     2290     2389     2539 
    2654     2636     2628     2777     2933     3023     3131     3189 
    3170     3046     2734     2483     2464     2463     2501     2658 
    2677     2478     2255     2144     2250     2531     2844     3108 
    3156     2939     2636     2334     2237     2506     2807     2994 
    3244     3351     3134     2830     2558     2227     1928     1956 
    2347     2651     2673     2811     3094     3104     2875     2706 
    2652     2687     2763     2826     2918     2965     2829     2685 
    2670     2543     2321     2339     2536     2605     2556     2610 
    2762     2793     2749     2778     2765     2729     2817     2957 
    3009     2870     2589     2333     2152     2121     2247     2394 
    2652     3060     3380     3533     3480     3064     2404     1863 
    1613     1666     1999     2419     2774     3125     3374     3323 
    3062     2801     2645     2614     2645     2666     2608     2492 
    2543     2766     2827     2730     2696     2650     2550     2467 
    2393     2469     2749     2937     2949     2988     3036     2989 
    2895     2790     2623     2402     2325     2527     2822     2987 
    3045     3087     3082     2989     2863     2743     2599     2427 
    2227     2015     1898     1888     1930     2154     2616     3097 
    3398     3515     3538     3430     3154     2940     2844     2577 
    2117     1674     1381     1384     1755     2425     3227     3860 
    4109     3938     3394     2760     2372     2232     2181     2235 
    2525     2971     3244     3244     3165     3038     2740     2288 
    1861     1705     1926     2372     2834     3191     3330     3178 
    2803     2387     2130     2211     2651     3186     3475     3434 
    3152     2688     2155     1772     1728     2017     2382     2631 
    2806     2837     2678     2653     2866     3014     3102     3258 
    3242     2962     2669     2483     2357     2318     2432     2547 
    2428     2241     2249     2405     2721     3180     3479     3481 
    3257     2863     2468     2224     2190     2411     2742     2919 
    2871     2746     2751     2891     2904     2687     2364     1982 
    1711     1823     2285     2959     3700     4108     3945     3435 
    2828     2313     2079     2054     2148     2437     2675     2583 
    2499     2717     2905     2853     2802     2796     2604     2310 
    2249     2449     2682     2837     2898     2876     2829     2781 
    2781     2924     3031     2912     2798     2755     2515     2158 
    1995     2098     2368     2669     2925     3078     3064     2912 
    2683     2466     2361     2368     2482     2711     2986     3144 
    3098     3026     3033     2885     2525     2241     2218     2383 
    2600     2809     2987     3085     3023     2821     2611     2443 
    2315     2307     2477     2730     2905     3005     3116     3143 
    2986     2741     2555     2479     2434     2393     2436     2556 
    2655     2681     2643     2576     2478     2398     2462     2649 
    2840     3058     3289     3436     3518     3494     3255     2909 
    2582     2224     1919     1874     2060     2270     2382     2433 
    2491     2450     2266     2140     2148     2267     2614     3107 
    3453     3555     3460     3289     3197     3075     2702     2207 
    1875     1810     2005     2355     2677     2872     2918     2832 
    2677     2553     2585     2805     3072     3238     3250     3129 
    2968     2824     2676     2526     2344     2138     2011     1972 
    2090     2485     2944     3201     3293     3264     3115     2934 
    2783     2738     2842     2936     2846     2605     2330     2079 
    1901     1834     1889     2144     2636     3201     3561     3682 
    3753     3666     3235     2773     2591     2542     2431     2295 
    2249     2288     2332     2405     2518     2553     2471     2376 
    2364     2432     2533     2708     2967     3149     3181     3133 
    3017     2882     2843     2872     2863     2777     2651     2522 
    2396     2310     2267     2204     2198     2349     2547     2722 
    2956     3242     3463     3479     3265     2972     2673     2409 
    2311     2356     2365     2236     2037     1949     2000     2076 
    2208     2475     2800     3079     3316     3492     3530     3442 
    3302     3134     2954     2758     2523     2301     2145     2089 
    2220     2494     2756     2987     3162     3143     2951     2748 
    2621     2569     2526     2499     2498     2431     2358     2353 
    2333     2373     2470     2429     2311     2251     2276     2453 
    2770     3156     3494     3642     3690     3643     3325     2926 
    2678     2505     2447     2522     2581     2690     2873     2956 
    2903     2748     2534     2371     2274     2255     2405     2669 
    2925     3166     3374     3436     3280     3026     2854     2710 
    2453     2188     2047     1979     2001     2174     2384     2555 
    2668     2646     2585     2594     2553     2496     2588     2730 
    2782     2791     2801     2784     2711     2597     2473     2359 
    2314     2378     2513     2682     2910     3146     3237     3154 
    2997     2791     2601     2456     2278     2184     2262     2372 
    2517     2731     2864     2895     2923     2927     2876     2786 
    2648     2537     2532     2560     2614     2800     3055     3189 
    3133     3010     2910     2739     2520     2498     2685     2853 
    2916     2892     2838     2804     2703     2524     2408     2371 
    2404     2582     2859     3094     3200     3148     2929     2539 
    2095     1834     1874     2158     2534     2862     3111     3245 
    3196     3017     2863     2801     2748     2629     2470     2311 
    2215     2261     2467     2749     2973     3025     2869     2631 
    2473     2356     2250     2313     2555     2763     2848     2901 
    2988     3071     3115     3076     2864     2573     2387     2253 
    2093     2031     2119     2282     2526     2828     3044     3146 
    3210     3162     2939     2665     2480     2451     2586     2811 
    3010     3113     3109     2928     2516     2057     1804     1830 
    2119     2582     3011     3209     3143     2934     2693     2519 
    2532     2701     2852     2923     2981     3004     2915     2755 
    2632     2608     2624     2567     2517     2556     2589     2656 
    2810     2918     2944     2897     2742     2594     2538     2544 
    2639     2824     3026     3208     3325     3299     3107     2800 
    2425     2048     1829     1887     2106     2327     2591     2891 
    3031     2987     2900     2782     2657     2596     2564     2564 
    2587     2577     2618     2709     2709     2706     2775     2759 
    2666     2667     2756     2820     2831     2857     2918     2930 
    2860     2743     2586     2455     2400     2323     2221     2244 
    2353     2452     2633     2892     3061     3073     2958     2791 
    2670     2579     2515     2601     2792     2905     2923     2873 
    2740     2624     2598     2591     2541     2500     2553     2687 
    2801     2826     2793     2786     2838     2854     2747     2551 
    2332     2158     2150     2309     2526     2814     3134     3260 
