Origin Time       2024/06/23 22:54:00
Lat.              35.645
Long.             140.060
Depth. (km)       72
Mag.              4.1
Station Code      TCGH14
Station Lat.      36.5509
Station Long.     139.6154
Station Height(m) 180
Record Time       2024/06/23 22:54:59
Sampling Freq(Hz) 100Hz
Duration Time(s)  120
Dir.              5
Scale Factor      7845(gal)/8223790
Max. Acc. (gal)   2.505
Last Correction   2024/06/23 22:54:59
Memo.             
[...]
    4309     4374     4329     4239     4170     4121     4108     4077 
    4021     4085     4247     4291     4218     4185     4117     4010 
    4132     4402     4438     4245     4036     3936     4000     4141 
    4320     4502     4407     4012     3808     3986     4214     4252 
    4212     4297     4368     4245     4156     4113     3996     4093 
    4310     4214     4035     4144     4324     4266     4106     4148 
    4239     4077     3850     3942     4332     4577     4495     4365 
    4216     3924     3778     3932     4190     4457     4580     4352 
    3954     3794     3935     4159     4353     4417     4259     4027 
    3925     4089     4353     4355     4141     4043     4162     4361 
    4405     4210     3929     3780     3942     4276     4468     4473 
    4336     4135     4031     4008     4047     4152     4230     4320 
    4334     4182     4113     4105     3967     3956     4176     4386 
    4479     4391     4151     3947     3904     4048     4321     4560 
    4550     4239     3874     3626     3608     4044     4644     4792 
    4490     4139     3874     3724     3942     4457     4656     4371 
    4052     3925     3973     4158     4361     4461     4294     3902 
    3792     4124     4349     4199     4036     4098     4236     4348 
    4417     4272     3996     3986     4284     4503     4391     4077 
    3769     3584     3823     4553     5007     4654     4028     3711 
    3659     3735     4037     4569     4927     4685     4116     3836 
    3855     3940     4156     4376     4313     4102     4052     4140 
    4152     4087     4071     4163     4387     4604     4554     4203 
    3796     3624     3855     4372     4684     4386     3796     3646 
    4078     4522     4521     4228     4051     4136     4325     4320 
    4085     3974     4067     4216     4414     4394     4031     3781 
    3873     4121     4440     4703     4563     3952     3466     3630 
    4234     4769     4872     4549     4158     3854     3609     3645 
    3966     4342     4695     4747     4317     3852     3757     3921 
    4114     4243     4367     4453     4341     4135     4126     4221 
    4075     3759     3761     4301     4904     4888     4186     3461 
    3412     3937     4437     4683     4614     4201     3847     3866 
    4072     4349     4580     4376     3916     3886     4197     4236 
    4094     4203     4409     4320     3997     3782     3844     4140 
    4553     4804     4521     3924     3665     3782     4033     4395 
    4635     4558     4226     3789     3688     4081     4353     4210 
    4185     4386     4247     3906     4010     4342     4401     4278 
    4274     4444     4374     3900     3626     3796     4082     4309 
    4407     4387     4364     4299     4056     3805     3920     4275 
    4417     4342     4302     4249     4023     3859     4035     4221 
    4230     4365     4465     4318     4143     3925     3807     4104 
    4422     4436     4403     4213     3724     3546     4121     4819 
    4761     4137     3816     3963     4101     4143     4325     4446 
    4216     3867     3819     4182     4511     4359     4063     4047 
    4201     4353     4318     4004     3846     4125     4332     4185 
    4160     4328     4259     4113     4180     4218     4182     4264 
    4237     4043     4099     4243     4121     4108     4230     4071 
    3940     4145     4311     4375     4521     4311     3611     3420 
    4198     4927     4880     4473     4033     3569     3445     3904 
    4534     4780     4556     4160     3809     3682     3925     4275 
    4364     4309     4367     4476     4367     4000     3879     4118 
    4083     3974     4311     4464     4175     4156     4383     4309 
    4006     3848     3874     3975     4236     4590     4741     4531 
    3959     3465     3572     3974     4311     4772     5070     4676 
    3978     3565     3439     3613     4064     4491     4720     4714 
    4500     4197     3886     3639     3553     3780     4365     4943 
    5055     4639     3942     3342     3333     3886     4349     4581 
    4800     4654     4159     3882     3801     3770     4018     4392 
    4499     4390     4440     4541     4089     3410     3458     4075 
    4471     4499     4531     4610     4267     3704     3677     3989 
    4147     4344     4525     4440     4382     4330     3936     3554 
    3607     4016     4569     4915     4858     4445     3744     3264 
    3566     4229     4510     4577     4706     4413     3719     3519 
    3943     4255     4322     4430     4480     4407     4301     4085 
    3835     3800     3929     4054     4294     4676     4768     4380 
    3946     3758     3697     3734     4029     4538     4888     4780 
    4294     3771     3546     3651     3931     4407     4878     4851 
    4452     4118     3820     3631     3780     4059     4295     4598 
    4693     4272     3794     3731     3785     3824     4240     4873 
    4992     4472     3889     3622     3701     4025     4349     4509 
    4450     4183     3963     3983     4082     4155     4230     4207 
    4167     4345     4475     4256     3973     3763     3709     4180 
    4811     4811     4391     4133     3925     3550     3426     4012 
    4796     4912     4490     4168     4071     3948     3720     3727 
    4186     4598     4464     4117     4005     4032     4105     4244 
    4345     4413     4425     4282     4089     4013     4013     3916 
    3865     4153     4533     4617     4472     4162     3700     3458 
    3798     4450     4754     4588     4386     4240     3967     3757 
    3867     4193     4492     4541     4279     4070     4135     4105 
    3854     3885     4270     4384     4179     4228     4401     4202 
    3900     3954     4195     4334     4428     4411     4182     4033 
    4045     3936     3831     4048     4387     4504     4529     4565 
    4293     3766     3537     3716     4044     4402     4672     4719 
    4507     4066     3649     3608     3890     4186     4398     4567 
    4600     4364     4048     4016     4158     4051     3782     3863 
    4291     4581     4600     4434     4136     3920     3809     3649 
    3767     4322     4677     4569     4461     4418     4179     3878 
    3788     3932     4216     4437     4411     4334     4388     4236 
    3786     3626     3951     4280     4364     4378     4438     4405 
    4112     3720     3623     3989     4537     4812     4606     4062 
    3635     3808     4295     4387     4202     4216     4256     4106 
    4040     4199     4268     4045     3852     4044     4471     4712 
    4492     3952     3604     3743     4189     4534     4541     4423 
    4340     4126     3942     4000     4045     3936     4000     4368 
    4581     4341     4052     4020     4067     4122     4283     4359 
    4087     3843     4136     4531     4464     4221     4112     4008 
    3908     4005     4266     4378     4280     4153     4058     4056 
    4126     4117     4180     4418     4491     4278     4062     3998 
    4048     4148     4245     4210     3979     3865     4122     4372 
    4367     4463     4540     4190     3809     3834     4017     4137 
    4284     4432     4432     4325     4133     3881     3819     3983 
    4212     4423     4480     4392     4255     3990     3766     3877 
    4191     4406     4433     4349     4295     4324     4309     4106 
    3747     3520     3699     4198     4702     4834     4484     4074 
    3916     3890     3960     4153     4387     4515     4314     3996 
    4020     4163     4148     4212     4311     4168     3915     3902 
    4168     4413     4453     4340     4129     4004     4075     4168 
    4291     4522     4515     4036     3460     3385     3978     4687 
    4882     4675     4438     4078     3581     3461     3929     4432 
    4553     4571     4603     4311     3815     3607     3704     3967 
    4411     4733     4635     4353     4199     4045     3724     3591 
    3832     4120     4450     4806     4720     4286     4004     3816 
    3678     3951     4507     4698     4398     4091     3970     3867 
    3859     4050     4206     4315     4568     4675     4405     4055 
    3796     3677     3835     4186     4444     4434     4333     4297 
    4152     4013     4158     4286     4128     3981     4054     4201 
    4228     4037     3933     4279     4726     4760     4402     3915 
    3576     3589     3932     4414     4693     4541     4178     3910 
    3800     3944     4297     4483     4426     4349     4252     4067 
    3928     3991     4148     4166     4145     4311     4421     4125 
    3743     3750     3964     4174     4479     4691     4602     4409 
    4247     4064     3937     4020     4267     4376     4257     4178 
    4106     3890     3850     4201     4523     4471     4307     4202 
    3991     3855     3964     4068     4133     4224     4199     4206 
    4294     4201     4028     3966     4012     4148     4206     4183 
    4222     4179     4083     4156     4307     4409     4498     4448 
    4145     3827     3693     3699     3951     4490     4878     4891 
    4773     4430     3809     3568     3925     4218     4224     4239 
    4145     3867     3788     3801     3622     3711     4221     4673 
    4923     4911     4606     4263     4014     3950     4083     4198 
    4167     4064     4163     4480     4444     3874     3438     3524 
    3735     3859     4160     4513     4587     4534     4573     4617 
    4494     4221     4091     4240     4360     4194     4018     4006 
    3750     3445     3781     4278     4287     4334     4627     4633 
    4390     4226     3920     3466     3507     4060     4405     4490 
    4618     4602     4438     4307     4028     3693     3798     4267 
    4607     4739     4623     4037     3322     3156     3615     4322 
    5034     5362     4907     4117     3578     3179     3053     3510 
    4182     4745     5135     5078     4588     4000     3523     3549 
    4294     5054     5042     4464     3794     3198     3099     3700 
    4322     4523     4522     4391     4253     4325     4220     3700 
    3510     4113     4905     5344     5279     4522     3426     2732 
    2767     3713     5246     6004     5358     4233     3311     2544 
    2289     3003     4369     5614     6095     5616     4615     3557 
    2745     2743     3654     4695     5113     4981     4797     4556 
    3955     3172     2741     3078     3966     4708     5174     5611 
    5525     4476     3276     2936     3438     4124     4488     4415 
    4143     4207     4661     4734     4210     3649     3196     3073 
    3900     5290     6000     5625     4634     3391     2486     2652 
    3593     4486     5055     5269     4999     4190     3200     2844 
    3300     3993     4904     5949     5989     4696     3338     2718 
    2778     3508     4494     4892     4549     4112     4024     4113 
    4225     4337     4198     3975     4197     4565     4479     4163 
    3978     3777     3626     4028     4783     4927     4450     4195 
    4098     3759     3646     3962     4141     4132     4267     4313 
    4099     4094     4440     4510     4125     3971     4131     4105 
    4221     4773     4992     4369     3474     3036     3323     4090 
    4801     5085     4900     4464     4027     3582     3285     3670 
    4525     4872     4708     4548     4120     3442     3149     3546 
    4409     4996     4783     4086     3500     3546     4224     4788 
    4888     4738     4203     3550     3557     3915     4021     4382 
    5028     5086     4598     4097     3331     2527     2803     4284 
    5822     6324     5512     4101     2909     2235     2430     3523 
    4726     5375     5418     5054     4656     4463     4186     3493 
    2781     2851     3750     4784     5489     5545     4722     3526 
    2786     2756     3256     4020     4776     5256     5260     4903 
    4482     3952     3354     3145     3430     4207     5401     6003 
    5475     4567     3573     2629     2565     3454     4438     5081 
    5366     5171     4581     3894     3246     2936     3326     4014 
    4455     4774     4955     4557     3654     2905     2782     3349 
    4542     5903     6313     5292     3761     2678     2223     2398 
    3342     4807     5927     6226     5837     4769     3555     2995 
    2999     3431     4472     5671     6061     5162     3604     2330 
    1786     2226     3574     5155     6089     5980     5256     4606 
    4149     3578     2953     2747     3109     3902     5001     5876 
    5850     4981     3747     2619     2222     2783     4000     5479 
    6413     6061     4745     3289     2370     2353     3013     3967 
    4922     5424     5367     4896     3863     2849     3036     4255 
    5352     5741     5316     4206     2949     2273     2411     2963 
    3865     5159     5969     5718     5035     4369     3662     3240 
    3669     4749     5464     5309     4554     3345     2100     1912 
    3087     4491     5256     5599     5564     4831     3798     3373 
    3769     4476     5128     5390     4752     3508     2666     2540 
    2868     3605     4654     5518     5567     4672     3457     2808 
    3194     4263     5182     5444     5049     4210     3354     3018 
    3333     3939     4507     4897     5290     5741     5408     3970 
    2504     1764     1880     3114     5096     6662     6801     5333 
    3333     2268     2538     3743     5217     6002     5728     4807 
    3701     2924     2814     3227     3844     4391     4776     4935 
    4708     4267     3844     3476     3415     3812     4472     5167 
    5518     5158     4163     3127     2808     3353     4255     4919 
    4905     4260     3619     3480     3681     3963     4471     4946 
    4731     4144     3912     3912     3932     4098     4405     4700 
    4615     3929     3137     2909     3420     4476     5683     6232 
    5468     3939     2835     2790     3541     4378     5065     5602 
    5553     4693     3443     2439     2245     2959     4070     5065 
    5678     5605     4710     3403     2425     2384     3349     4773 
    5980     6423     5756     4237     2624     1830     2407     3875 
    5320     6097     5826     4735     3553     2855     2913     3447 
    3909     4360     4961     5287     5088     4658     4251     3936 
    3915     4140     3998     3346     2926     3140     3765     4560 
    5181     5256     4803     4233     3863     3635     3539     3754 
    4191     4708     5293     5593     5188     4089     2748     2222 
    3018     4062     4461     4490     4355     4213     4422     4735 
    4638     4325     4179     4027     3789     3846     4206     4402 
    4336     4303     4345     4239     3974     3865     4104     4496 
    4777     4831     4611     4141     3572     3173     3067     3227 
    3869     4887     5509     5359     4687     3777     3109     3215 
    3973     4603     4623     4291     3927     3804     4291     5022 
    5078     4367     3501     3028     3392     4506     5402     5158 
    4027     3068     2906     3574     4693     5383     5166     4396 
    3562     3176     3531     4171     4456     4414     4407     4452 
    4453     4426     4293     4079     3978     4060     4220     4330 
    4450     4649     4614     4005     3258     3057     3345     3964 
    4891     5409     5053     4391     3802     3294     3229     3819 
    4646     5152     5116     4774     4356     3688     2841     2543 
    3177     4101     4629     4851     5073     5258     5200     4753 
    3912     2959     2543     3107     4344     5447     5684     4820 
    3279     2327     2986     4396     5147     5094     4610     4071 
    4016     4545     5059     4806     3790     2894     2884     3846 
    5212     6006     5553     4171     2961     2698     3092     3628 
    4252     4770     4904     4750     4372     3802     3414     3546 
    4105     4725     5040     4812     4120     3476     3402     3867 
    4391     4774     5092     5050     4473     3672     2925     2716 
    3523     4850     5670     5425     4266     3109     2890     3469 
    4164     4623     4698     4510     4413     4407     4256     4047 
    3927     3757     3778     4433     5115     5003     4476     4029 
    3591     3407     3680     3991     4137     4341     4495     4295 
    3950     3905     4048     4151     4531     5012     4857     4222 
    3790     3692     3708     3735     3888     4166     4383     4571 
    4788     4754     4299     3811     3742     3951     4064     4143 
    4234     4141     4131     4376     4394     4239     4310     4189 
    3732     3609     3959     4287     4410     4537     4635     4421 
    3948     3624     3720     4135     4542     4695     4563     4328 
    4067     3651     3312     3483     4072     4722     5215     5294 
    4770     3986     3489     3289     3253     3539     4063     4515 
    4853     5050     4839     4197     3586     3354     3538     4233 
    5157     5433     4692     3605     3005     3191     3990     4823 
    5012     4534     3969     3697     3747     4014     4332     4482 
    4317     4055     4075     4317     4519     4546     4206     3638 
    3441     3827     4414     4773     4671     4229     3855     3762 
    3982     4387     4425     3927     3667     4066     4598     4845 
    4800     4477     4018     3744     3793     3960     4108     4345 
    4591     4519     4113     3666     3329     3257     3689     4510 
    5223     5366     4861     4112     3582     3441     3542     3601 
    3724     4314     5100     5339     4936     4267     3661     3496 
    3788     4089     4213     4310     4448     4546     4563     4472 
    4168     3780     3669     3832     4020     4082     3990     3964 
    4194     4464     4457     4185     3935     3908     4199     4720 
    4947     4544     3866     3403     3372     3724     4205     4622 
    4885     4860     4550     4239     4075     3827     3537     3584 
    3866     4081     4276     4477     4569     4540     4423     4189 
    3931     3898     4064     4268     4413     4293     3967     3794 
    3910     4253     4653     4873     4761     4313     3762     3415 
    3360     3541     3933     4486     4914     4901     4541     4068 
    3623     3576     4090     4572     4480     4136     4050     4125 
    4174     4252     4276     4256     4349     4395     4306     4226 
    4074     3854     3904     4326     4698     4498     3804     3288 
    3434     4218     5138     5410     4818     3913     3204     2936 
    3276     4040     4681     4932     4989     4918     4519     3831 
    3244     3090     3442     4221     5062     5317     4708     3775 
    3279     3435     4005     4684     5219     5312     4708     3672 
    2922     2870     3404     4159     4720     4997     5005     4603 
    4023     3734     3685     3647     3765     4207     4777     5074 
    4914     4384     3708     3283     3393     3944     4576     4789 
    4507     4178     4006     3939     3987     4070     4163     4330 
    4477     4502     4453     4379     4170     3820     3654     3816 
