Origin Time       2024/06/23 22:54:00
Lat.              35.645
Long.             140.060
Depth. (km)       72
Mag.              4.1
Station Code      TCGH06
Station Lat.      36.4458
Station Long.     139.9509
Station Height(m) -1577.98
Record Time       2024/06/23 22:54:53
Sampling Freq(Hz) 100Hz
Duration Time(s)  120
Dir.              1
Scale Factor      7845(gal)/6170801
Max. Acc. (gal)   0.262
Last Correction   2024/06/23 22:54:38
Memo.             
[...]
   -6109    -6110    -6109    -6109    -6111    -6109    -6107    -6108 
   -6109    -6111    -6112    -6109    -6108    -6111    -6111    -6110 
   -6110    -6108    -6108    -6110    -6109    -6108    -6109    -6108 
   -6109    -6110    -6109    -6110    -6110    -6108    -6109    -6111 
   -6108    -6108    -6110    -6109    -6106    -6107    -6109    -6109 
   -6109    -6110    -6110    -6108    -6108    -6109    -6110    -6111 
   -6110    -6109    -6108    -6109    -6110    -6110    -6109    -6110 
   -6110    -6108    -6107    -6108    -6109    -6109    -6108    -6107 
   -6109    -6110    -6110    -6109    -6108    -6109    -6110    -6110 
   -6109    -6109    -6110    -6109    -6109    -6108    -6106    -6107 
   -6109    -6110    -6110    -6109    -6109    -6109    -6110    -6109 
   -6107    -6107    -6110    -6109    -6107    -6109    -6112    -6110 
   -6107    -6107    -6107    -6108    -6110    -6110    -6108    -6109 
   -6111    -6109    -6109    -6110    -6108    -6108    -6108    -6107 
   -6107    -6107    -6108    -6109    -6107    -6107    -6109    -6107 
   -6106    -6109    -6108    -6106    -6107    -6109    -6108    -6107 
   -6108    -6109    -6107    -6108    -6109    -6107    -6106    -6108 
   -6108    -6109    -6109    -6109    -6108    -6107    -6107    -6108 
   -6108    -6108    -6108    -6108    -6110    -6110    -6109    -6108 
   -6108    -6109    -6108    -6108    -6109    -6108    -6107    -6108 
   -6108    -6108    -6109    -6109    -6110    -6109    -6108    -6108 
   -6108    -6108    -6108    -6108    -6109    -6110    -6109    -6109 
   -6110    -6109    -6108    -6109    -6109    -6107    -6109    -6109 
   -6108    -6110    -6111    -6107    -6108    -6109    -6107    -6110 
   -6110    -6108    -6108    -6109    -6109    -6110    -6110    -6109 
   -6110    -6110    -6110    -6110    -6109    -6108    -6108    -6107 
   -6106    -6107    -6110    -6113    -6113    -6109    -6106    -6106 
   -6106    -6107    -6111    -6114    -6114    -6111    -6107    -6105 
   -6109    -6111    -6108    -6108    -6109    -6106    -6097    -6096 
   -6113    -6130    -6129    -6109    -6093    -6100    -6105    -6098 
   -6109    -6133    -6127    -6100    -6087    -6090    -6107    -6130 
   -6124    -6098    -6097    -6106    -6098    -6103    -6129    -6125 
   -6104    -6105    -6104    -6099    -6102    -6098    -6101    -6120 
   -6134    -6124    -6096    -6092    -6113    -6130    -6127    -6102 
   -6078    -6082    -6106    -6120    -6109    -6113    -6137    -6121 
   -6087    -6093    -6113    -6124    -6123    -6107    -6093    -6088 
   -6105    -6125    -6110    -6109    -6134    -6115    -6077    -6079 
   -6103    -6121    -6127    -6116    -6112    -6121    -6105    -6081 
   -6091    -6113    -6124    -6129    -6116    -6097    -6100    -6110 
   -6097    -6083    -6106    -6136    -6124    -6097    -6098    -6113 
   -6113    -6100    -6105    -6124    -6128    -6114    -6094    -6091 
   -6112    -6124    -6112    -6089    -6089    -6116    -6127    -6113 
   -6110    -6113    -6089    -6079    -6116    -6143    -6124    -6095 
   -6092    -6112    -6122    -6112    -6101    -6103    -6111    -6109 
   -6102    -6104    -6114    -6125    -6104    -6076    -6114    -6161 
   -6123    -6067    -6072    -6114    -6133    -6119    -6106    -6102 
   -6104    -6113    -6122    -6124    -6111    -6095    -6093    -6100 
   -6106    -6105    -6101    -6102    -6108    -6113    -6117    -6120 
   -6115    -6091    -6088    -6126    -6135    -6111    -6106    -6091 
   -6084    -6112    -6118    -6108    -6122    -6129    -6114    -6100 
   -6102    -6104    -6100    -6112    -6118    -6111    -6117    -6106 
   -6073    -6065    -6095    -6136    -6148    -6126    -6102    -6091 
   -6098    -6110    -6109    -6115    -6130    -6120    -6106    -6111 
   -6102    -6094    -6097    -6088    -6095    -6119    -6117    -6119 
   -6140    -6128    -6099    -6103    -6118    -6118    -6118    -6113 
   -6090    -6086    -6108    -6123    -6115    -6094    -6080    -6079 
   -6091    -6105    -6110    -6124    -6140    -6129    -6113    -6117 
   -6121    -6099    -6074    -6092    -6126    -6124    -6106    -6102 
   -6097    -6083    -6092    -6131    -6144    -6117    -6094    -6104 
   -6126    -6125    -6113    -6108    -6099    -6107    -6119    -6106 
   -6104    -6099    -6084    -6104    -6108    -6087    -6107    -6128 
   -6120    -6113    -6111    -6104    -6085    -6079    -6107    -6124 
   -6119    -6128    -6134    -6114    -6097    -6084    -6067    -6082 
   -6124    -6143    -6136    -6114    -6095    -6093    -6097    -6114 
   -6141    -6141    -6112    -6098    -6115    -6107    -6059    -6064 
   -6122    -6137    -6123    -6112    -6088    -6077    -6097    -6110 
   -6114    -6135    -6139    -6109    -6095    -6097    -6092    -6106 
   -6131    -6132    -6123    -6130    -6124    -6089    -6082    -6099 
   -6084    -6072    -6094    -6106    -6112    -6127    -6109    -6091 
   -6124    -6163    -6147    -6091    -6064    -6092    -6118    -6113 
   -6104    -6097    -6097    -6114    -6129    -6121    -6101    -6085 
   -6080    -6104    -6147    -6150    -6119    -6110    -6115    -6097 
   -6072    -6082    -6116    -6121    -6103    -6100    -6109    -6127 
   -6143    -6142    -6127    -6102    -6088    -6093    -6091    -6088 
   -6101    -6106    -6092    -6089    -6102    -6128    -6132    -6103 
   -6103    -6122    -6116    -6108    -6101    -6093    -6101    -6104 
   -6090    -6086    -6114    -6141    -6133    -6124    -6116    -6096 
   -6092    -6110    -6146    -6175    -6131    -6050    -6049    -6096 
   -6095    -6098    -6153    -6167    -6105    -6052    -6063    -6108 
   -6124    -6113    -6116    -6119    -6113    -6120    -6122    -6116 
   -6116    -6105    -6075    -6078    -6120    -6117    -6077    -6089 
   -6127    -6120    -6093    -6091    -6109    -6119    -6133    -6149 
   -6136    -6098    -6079    -6083    -6094    -6112    -6116    -6095 
   -6083    -6088    -6092    -6098    -6124    -6142    -6129    -6128 
   -6141    -6132    -6093    -6050    -6064    -6128    -6155    -6113 
   -6076    -6102    -6130    -6122    -6111    -6093    -6105    -6150 
   -6145    -6116    -6093    -6050    -6039    -6109    -6177    -6151 
   -6102    -6112    -6125    -6099    -6079    -6105    -6149    -6133 
   -6090    -6094    -6097    -6087    -6103    -6102    -6080    -6082 
   -6079    -6094    -6162    -6194    -6128    -6071    -6105    -6125 
   -6087    -6099    -6156    -6153    -6093    -6056    -6058    -6057 
   -6072    -6127    -6161    -6140    -6114    -6106    -6104    -6108 
   -6102    -6094    -6125    -6148    -6106    -6070    -6082    -6082 
   -6075    -6107    -6147    -6166    -6157    -6113    -6074    -6069 
   -6082    -6110    -6133    -6125    -6107    -6096    -6085    -6078 
   -6097    -6130    -6123    -6101    -6119    -6128    -6110    -6119 
   -6125    -6097    -6097    -6129    -6115    -6073    -6080    -6114 
   -6126    -6138    -6142    -6120    -6101    -6089    -6092    -6115 
   -6112    -6087    -6102    -6131    -6115    -6087    -6094    -6120 
   -6104    -6071    -6099    -6137    -6122    -6108    -6119    -6120 
   -6104    -6099    -6126    -6157    -6143    -6102    -6080    -6078 
   -6074    -6077    -6105    -6137    -6141    -6109    -6070    -6062 
   -6082    -6092    -6089    -6117    -6138    -6111    -6104    -6135 
   -6142    -6109    -6080    -6102    -6128    -6118    -6119    -6110 
   -6063    -6067    -6139    -6164    -6119    -6098    -6111    -6107 
   -6105    -6120    -6125    -6111    -6085    -6080    -6102    -6106 
   -6106    -6127    -6119    -6092    -6099    -6099    -6074    -6092 
   -6131    -6139    -6134    -6129    -6118    -6088    -6063    -6087 
   -6125    -6133    -6122    -6101    -6083    -6080    -6095    -6131 
   -6145    -6114    -6086    -6075    -6070    -6082    -6119    -6162 
   -6173    -6147    -6103    -6064    -6067    -6089    -6107    -6123 
   -6108    -6101    -6106    -6085    -6083    -6108    -6120    -6128 
   -6127    -6111    -6102    -6099    -6104    -6124    -6141    -6129 
   -6111    -6120    -6132    -6130    -6115    -6092    -6072    -6067 
   -6079    -6102    -6122    -6128    -6118    -6113    -6105    -6090 
   -6090    -6094    -6105    -6124    -6120    -6115    -6133    -6123 
   -6103    -6101    -6074    -6062    -6100    -6110    -6112    -6138 
   -6129    -6102    -6101    -6106    -6122    -6137    -6111    -6075 
   -6082    -6111    -6107    -6074    -6075    -6110    -6127    -6132 
   -6133    -6121    -6099    -6069    -6080    -6130    -6139    -6132 
   -6137    -6111    -6084    -6091    -6100    -6104    -6090    -6075 
   -6112    -6139    -6112    -6096    -6117    -6132    -6130    -6135 
   -6137    -6114    -6096    -6103    -6107    -6089    -6076    -6071 
   -6072    -6096    -6121    -6133    -6135    -6126    -6121    -6118 
   -6102    -6081    -6092    -6124    -6117    -6105    -6119    -6109 
   -6095    -6101    -6096    -6097    -6115    -6119    -6100    -6093 
   -6113    -6131    -6132    -6123    -6113    -6114    -6100    -6069 
   -6083    -6110    -6096    -6095    -6121    -6132    -6123    -6108 
   -6104    -6111    -6099    -6099    -6132    -6144    -6123    -6087 
   -6057    -6079    -6123    -6121    -6104    -6122    -6129    -6101 
   -6096    -6106    -6098    -6100    -6110    -6116    -6118    -6114 
   -6110    -6102    -6113    -6136    -6106    -6078    -6102    -6098 
   -6092    -6137    -6143    -6111    -6106    -6094    -6083    -6097 
   -6107    -6115    -6110    -6094    -6103    -6105    -6089    -6111 
   -6154    -6152    -6113    -6104    -6127    -6119    -6085    -6075 
   -6093    -6101    -6080    -6081    -6108    -6124    -6141    -6130 
   -6092    -6096    -6123    -6126    -6121    -6114    -6107    -6104 
   -6110    -6119    -6107    -6078    -6074    -6094    -6108    -6117 
   -6136    -6131    -6089    -6091    -6136    -6126    -6090    -6099 
   -6110    -6088    -6074    -6090    -6106    -6127    -6168    -6167 
   -6116    -6093    -6108    -6116    -6091    -6077    -6102    -6109 
   -6073    -6045    -6066    -6118    -6155    -6149    -6126    -6122 
   -6113    -6095    -6107    -6128    -6120    -6109    -6117    -6112 
   -6099    -6100    -6086    -6074    -6104    -6123    -6107    -6097 
   -6104    -6125    -6137    -6125    -6110    -6091    -6087    -6105 
   -6106    -6111    -6125    -6107    -6087    -6098    -6113    -6119 
   -6114    -6110    -6129    -6139    -6116    -6099    -6106    -6088 
   -6067    -6099    -6123    -6111    -6111    -6114    -6112    -6114 
   -6111    -6118    -6121    -6113    -6103    -6077    -6071    -6100 
   -6109    -6108    -6130    -6128    -6117    -6142    -6151    -6125 
   -6111    -6113    -6096    -6059    -6056    -6099    -6131    -6112 
   -6079    -6086    -6116    -6120    -6110    -6108    -6104    -6099 
   -6117    -6138    -6134    -6120    -6100    -6094    -6100    -6084 
   -6087    -6111    -6119    -6133    -6145    -6124    -6099    -6087 
   -6081    -6103    -6131    -6127    -6122    -6127    -6094    -6048 
   -6067    -6133    -6167    -6154    -6124    -6098    -6093    -6091 
   -6068    -6071    -6105    -6126    -6143    -6136    -6100    -6112 
   -6142    -6116    -6093    -6100    -6104    -6097    -6073    -6068 
   -6102    -6114    -6103    -6109    -6116    -6119    -6105    -6093 
   -6114    -6130    -6125    -6122    -6114    -6095    -6092    -6107 
   -6121    -6127    -6113    -6096    -6112    -6124    -6106    -6092 
   -6082    -6084    -6119    -6132    -6124    -6141    -6133    -6088 
   -6068    -6060    -6050    -6078    -6119    -6129    -6130    -6127 
   -6117    -6118    -6112    -6102    -6115    -6122    -6111    -6106 
   -6112    -6111    -6118    -6134    -6116    -6097    -6107    -6115 
   -6099    -6085    -6106    -6119    -6096    -6093    -6116    -6132 
   -6118    -6074    -6077    -6136    -6145    -6121    -6136    -6129 
   -6074    -6054    -6095    -6132    -6135    -6136    -6147    -6140 
   -6105    -6063    -6045    -6040    -6032    -6075    -6167    -6195 
   -6143    -6115    -6112    -6074    -6055    -6117    -6196    -6223 
   -6182    -6088    -6027    -6039    -6067    -6099    -6147    -6160 
   -6112    -6068    -6082    -6099    -6090    -6098    -6104    -6088 
   -6078    -6076    -6074    -6106    -6166    -6182    -6131    -6092 
   -6097    -6114    -6122    -6118    -6115    -6115    -6090    -6052 
   -6062    -6114    -6123    -6096    -6070    -6049    -6102    -6188 
   -6176    -6124    -6119    -6092    -6021    -6021    -6117    -6195 
   -6213    -6209    -6159    -6044    -5947    -5958    -6050    -6128 
   -6179    -6225    -6205    -6112    -6073    -6118    -6154    -6124 
   -6074    -6086    -6109    -6088    -6091    -6119    -6111    -6089 
   -6088    -6077    -6074    -6107    -6124    -6153    -6223    -6204 
   -6101    -6065    -6067    -6032    -6028    -6084    -6130    -6118 
   -6083    -6086    -6118    -6133    -6118    -6093    -6108    -6181 
   -6224    -6196    -6134    -6020    -5955    -6029    -6096    -6116 
   -6161    -6172    -6144    -6124    -6094    -6055    -6016    -5992 
   -6035    -6130    -6187    -6200    -6194    -6142    -6116    -6119 
   -6054    -6040    -6146    -6202    -6197    -6203    -6145    -6000 
   -5902    -5957    -6075    -6109    -6094    -6140    -6189    -6164 
   -6135    -6123    -6099    -6109    -6146    -6151    -6124    -6100 
   -6084    -6044    -6024    -6090    -6142    -6125    -6152    -6200 
   -6144    -6061    -6060    -6080    -6121    -6195    -6167    -6075 
   -6058    -6032    -5993    -6066    -6127    -6076    -6090    -6192 
   -6189    -6094    -6087    -6146    -6143    -6104    -6130    -6184 
   -6170    -6104    -6044    -6025    -6062    -6107    -6088    -6057 
   -6111    -6146    -6086    -6065    -6087    -6080    -6098    -6128 
   -6159    -6197    -6184    -6155    -6142    -6119    -6115    -6125 
   -6121    -6106    -6092    -6066    -6044    -6084    -6113    -6082 
   -6105    -6128    -6088    -6106    -6161    -6118    -6028    -6035 
   -6077    -6069    -6140    -6242    -6202    -6118    -6091    -6095 
   -6133    -6142    -6101    -6093    -6093    -6046    -6049    -6139 
   -6183    -6141    -6118    -6115    -6087    -6067    -6049    -6053 
   -6114    -6141    -6112    -6115    -6113    -6068    -6051    -6056 
   -6054    -6081    -6104    -6092    -6118    -6192    -6219    -6163 
   -6116    -6112    -6086    -6088    -6183    -6245    -6192    -6118 
   -6060    -6019    -6088    -6213    -6223    -6159    -6103    -6055 
   -6052    -6065    -6071    -6093    -6075    -6059    -6100    -6063 
   -5996    -6071    -6139    -6123    -6164    -6185    -6120    -6117 
   -6134    -6047    -5980    -6023    -6085    -6137    -6148    -6087 
   -6060    -6098    -6122    -6123    -6093    -6084    -6163    -6227 
   -6190    -6113    -6083    -6141    -6175    -6110    -6065    -6097 
   -6125    -6111    -6075    -6069    -6116    -6142    -6114    -6086 
   -6070    -6086    -6140    -6122    -6063    -6117    -6178    -6126 
   -6094    -6150    -6203    -6196    -6157    -6109    -6040    -6010 
   -6060    -6095    -6086    -6106    -6117    -6070    -6054    -6102 
   -6102    -6070    -6088    -6115    -6119    -6133    -6132    -6097 
   -6056    -6042    -6084    -6159    -6153    -6084    -6122    -6200 
   -6165    -6153    -6199    -6103    -5978    -6047    -6170    -6181 
   -6199    -6270    -6226    -6034    -5928    -6024    -6119    -6108 
   -6120    -6136    -6066    -6023    -6073    -6124    -6157    -6193 
   -6189    -6153    -6106    -6060    -6033    -5986    -5944    -5987 
   -6074    -6123    -6140    -6136    -6108    -6116    -6153    -6103 
   -6033    -6119    -6234    -6188    -6093    -6081    -6126    -6161 
   -6134    -6075    -6057    -6092    -6159    -6206    -6193    -6154 
   -6103    -6023    -5995    -6063    -6115    -6117    -6135    -6114 
   -6051    -6032    -6055    -6110    -6156    -6122    -6077    -6078 
   -6123    -6202    -6215    -6159    -6129    -6119    -6076    -5971 
   -5945    -6098    -6235    -6230    -6179    -6169    -6193    -6177 
   -6135    -6158    -6171    -6070    -5949    -5922    -5974    -6035 
   -6067    -6098    -6124    -6129    -6149    -6153    -6137    -6160 
   -6190    -6161    -6080    -6021    -6007    -5989    -6015    -6095 
   -6112    -6104    -6159    -6199    -6193    -6194    -6205    -6178 
   -6093    -6007    -5957    -5923    -5954    -6054    -6080    -6082 
   -6176    -6200    -6157    -6225    -6283    -6264    -6280    -6237 
   -6103    -6012    -5959    -5948    -6038    -6134    -6156    -6159 
   -6172    -6122    -5987    -5947    -6041    -6089    -6126    -6232 
   -6253    -6172    -6148    -6146    -6061    -5974    -5975    -6062 
   -6178    -6211    -6185    -6187    -6169    -6147    -6146    -6086 
   -6029    -6038    -6030    -6045    -6124    -6136    -6097    -6121 
   -6099    -6016    -6035    -6098    -6125    -6173    -6181    -6132 
   -6096    -6029    -6006    -6121    -6212    -6187    -6114    -6035 
   -5995    -6005    -6060    -6150    -6183    -6133    -6082    -6061 
   -6073    -6109    -6117    -6144    -6220    -6212    -6190    -6270 
   -6244    -6095    -6052    -6069    -6063    -6071    -6085    -6092 
   -6072    -6037    -6032    -6036    -6055    -6099    -6127    -6123 
   -6062    -6000    -6065    -6159    -6152    -6131    -6135    -6090 
   -6042    -6068    -6128    -6179    -6209    -6178    -6103    -6082 
   -6161    -6225    -6177    -6119    -6125    -6114    -6090    -6087 
   -6073    -6073    -6080    -6071    -6114    -6186    -6178    -6105 
   -6079    -6127    -6155    -6128    -6072    -6009    -6001    -6058 
   -6117    -6139    -6140    -6164    -6163    -6079    -5997    -5993 
   -6025    -6055    -6088    -6151    -6183    -6105    -6058    -6143 
   -6179    -6119    -6086    -6074    -6062    -6079    -6107    -6118 
   -6107    -6090    -6097    -6120    -6136    -6128    -6096    -6083 
   -6092    -6097    -6121    -6147    -6123    -6104    -6113    -6098 
   -6103    -6153    -6203    -6256    -6258    -6196    -6137    -6045 
   -5962    -5991    -6030    -6044    -6120    -6165    -6103    -6090 
   -6132    -6087    -6058    -6123    -6156    -6155    -6162    -6160 
   -6169    -6174    -6150    -6105    -6049    -6019    -6025    -6021 
   -6008    -6049    -6129    -6183    -6190    -6130    -6072    -6096 
   -6091    -6044    -6103    -6187    -6176    -6151    -6136    -6106 
   -6105    -6121    -6119    -6101    -6068    -6043    -6052    -6065 
   -6065    -6092    -6133    -6135    -6121    -6135    -6139    -6109 
   -6058    -6042    -6077    -6097    -6083    -6062    -6031    -6038 
   -6123    -6218    -6244    -6193    -6100    -6061    -6141    -6204 
   -6180    -6189    -6190    -6122    -6084    -6075    -6072    -6093 
   -6090    -6079    -6106    -6082    -6002    -6008    -6075    -6058 
   -6032    -6123    -6187    -6144    -6146    -6180    -6133    -6065 
   -6041    -6069    -6124    -6157    -6183    -6219    -6200    -6108 
