Origin Time       2024/06/23 22:54:00
Lat.              35.645
Long.             140.060
Depth. (km)       72
Mag.              4.1
Station Code      TCGH08
Station Lat.      36.8828
Station Long.     139.6459
Station Height(m) 702
Record Time       2024/06/23 22:55:07
Sampling Freq(Hz) 100Hz
Duration Time(s)  120
Dir.              4
Scale Factor      7845(gal)/8223790
Max. Acc. (gal)   0.831
Last Correction   2024/06/23 22:55:07
Memo.             
[...]
    2350     2338     2313     2330     2370     2390     2397     2390 
    2353     2332     2366     2380     2353     2357     2381     2359 
    2315     2286     2257     2236     2265     2319     2350     2371 
    2390     2377     2326     2270     2231     2220     2241     2288 
    2353     2420     2461     2447     2373     2272     2192     2166 
    2214     2317     2404     2420     2421     2454     2470     2451 
    2443     2431     2381     2335     2312     2274     2218     2180 
    2182     2207     2231     2290     2382     2440     2444     2438 
    2417     2363     2304     2278     2273     2265     2270     2317 
    2370     2373     2342     2335     2350     2353     2347     2349 
    2327     2274     2239     2235     2253     2312     2398     2443 
    2427     2355     2265     2243     2296     2342     2350     2354 
    2354     2338     2340     2389     2419     2378     2336     2334 
    2312     2277     2288     2322     2327     2320     2332     2350 
    2357     2371     2388     2370     2339     2331     2326     2305 
    2293     2296     2293     2296     2313     2315     2276     2247 
    2278     2346     2404     2440     2442     2377     2273     2214 
    2228     2284     2351     2427     2478     2463     2403     2327 
    2268     2245     2251     2286     2346     2390     2393     2369 
    2332     2268     2203     2207     2266     2332     2398     2444 
    2444     2417     2394     2365     2316     2274     2263     2274 
    2282     2289     2307     2317     2313     2319     2335     2340 
    2338     2340     2340     2340     2355     2370     2366     2361 
    2354     2322     2286     2289     2323     2358     2376     2366 
    2332     2286     2259     2282     2335     2358     2339     2301 
    2273     2289     2349     2408     2427     2397     2331     2293 
    2307     2312     2290     2290     2308     2327     2349     2353 
    2342     2346     2367     2381     2380     2392     2401     2371 
    2334     2316     2274     2219     2218     2257     2280     2293 
    2316     2309     2296     2340     2409     2421     2405     2416 
    2431     2404     2353     2324     2316     2301     2300     2320 
    2308     2253     2227     2265     2312     2354     2380     2351 
    2292     2272     2304     2363     2439     2493     2473     2386 
    2299     2241     2204     2188     2199     2230     2281     2344 
    2404     2442     2452     2443     2431     2409     2350     2281 
    2261     2266     2259     2261     2282     2290     2293     2334 
    2376     2367     2362     2385     2390     2370     2347     2323 
    2311     2315     2332     2350     2350     2340     2330     2305 
    2284     2292     2316     2323     2316     2332     2363     2371 
    2361     2359     2363     2377     2388     2362     2311     2274 
    2261     2265     2295     2322     2299     2245     2212     2226 
    2281     2370     2458     2489     2461     2416     2376     2339 
    2323     2332     2349     2354     2335     2286     2242     2241 
    2259     2277     2322     2374     2380     2355     2351     2366 
    2389     2407     2396     2350     2299     2280     2293     2297 
    2265     2230     2230     2273     2350     2412     2431     2425 
    2388     2324     2297     2320     2343     2340     2326     2312 
    2308     2320     2339     2344     2346     2359     2361     2332 
    2300     2259     2203     2191     2253     2340     2423     2496 
    2519     2470     2388     2312     2268     2265     2285     2311 
    2336     2334     2300     2266     2250     2242     2253     2300 
    2384     2459     2474     2436     2385     2326     2273     2265 
    2293     2327     2359     2392     2393     2357     2308     2262 
    2227     2232     2276     2334     2408     2471     2457     2381 
    2317     2288     2278     2288     2307     2313     2303     2295 
    2285     2262     2254     2288     2354     2421     2454     2432 
    2384     2349     2335     2335     2355     2380     2373     2351 
    2331     2293     2254     2253     2280     2313     2349     2376 
    2370     2334     2300     2285     2288     2300     2303     2286 
    2281     2322     2378     2415     2434     2430     2389     2343 
    2319     2309     2296     2282     2297     2332     2349     2331 
    2299     2277     2273     2292     2340     2392     2404     2398 
    2397     2389     2369     2339     2292     2247     2230     2230 
    2250     2295     2347     2386     2393     2369     2350     2344 
    2343     2357     2362     2347     2347     2358     2344     2316 
    2297     2299     2312     2308     2284     2263     2258     2272 
    2319     2386     2428     2440     2427     2378     2317     2286 
    2307     2365     2408     2394     2363     2349     2335     2315 
    2300     2285     2273     2258     2232     2207     2200     2224 
    2282     2366     2459     2525     2539     2498     2409     2296 
    2231     2250     2309     2363     2393     2369     2292     2212 
    2188     2222     2288     2357     2405     2424     2412     2382 
    2363     2355     2334     2305     2309     2334     2339     2340 
    2349     2347     2331     2319     2307     2295     2286     2278 
    2280     2308     2343     2359     2367     2378     2386     2394 
    2396     2376     2323     2265     2242     2261     2292     2320 
    2342     2340     2316     2300     2300     2304     2317     2340 
    2354     2353     2359     2371     2370     2362     2355     2344 
    2334     2327     2311     2292     2290     2309     2328     2340 
    2359     2370     2362     2357     2359     2357     2370     2400 
    2400     2358     2305     2266     2224     2177     2168     2220 
    2308     2401     2474     2501     2474     2412     2353     2311 
    2272     2255     2284     2313     2307     2296     2297     2292 
    2290     2311     2335     2347     2353     2357     2354     2357 
    2365     2366     2344     2315     2296     2289     2290     2308 
    2334     2353     2363     2357     2336     2339     2366     2382 
    2385     2388     2373     2346     2326     2307     2276     2250 
    2246     2266     2308     2355     2381     2367     2332     2322 
    2344     2382     2423     2430     2385     2313     2246     2212 
    2226     2265     2304     2335     2351     2351     2324     2277 
    2246     2251     2295     2370     2442     2470     2465     2442 
    2398     2359     2340     2328     2323     2315     2289     2258 
    2232     2224     2250     2299     2344     2392     2423     2411 
    2378     2373     2380     2357     2317     2290     2274     2272 
    2289     2304     2300     2299     2313     2335     2342     2343 
    2350     2359     2369     2382     2381     2351     2308     2276 
    2268     2270     2284     2320     2354     2362     2363     2363 
    2354     2340     2327     2319     2326     2344     2367     2390 
    2394     2373     2335     2286     2241     2223     2243     2278 
    2309     2334     2358     2388     2419     2440     2461     2484 
    2473     2408     2322     2236     2158     2110     2116     2155 
    2208     2284     2371     2435     2466     2473     2451     2401 
    2354     2331     2326     2324     2301     2255     2243     2289 
    2344     2369     2359     2336     2319     2322     2332     2332 
    2323     2316     2311     2317     2351     2400     2431     2448 
    2459     2438     2385     2331     2272     2203     2165     2181 
    2218     2253     2305     2355     2358     2336     2342     2365 
    2381     2397     2412     2409     2393     2373     2338     2301 
    2293     2299     2284     2263     2251     2243     2254     2284 
    2296     2295     2322     2380     2431     2455     2446     2411 
    2378     2365     2344     2322     2312     2300     2290     2292 
    2300     2309     2317     2316     2304     2303     2326     2355 
    2366     2346     2312     2303     2323     2358     2397     2442 
    2478     2467     2405     2332     2266     2211     2180     2176 
    2182     2195     2220     2261     2312     2371     2430     2482 
    2516     2512     2458     2381     2312     2259     2218     2193 
    2188     2214     2282     2370     2425     2439     2435     2397 
    2330     2290     2300     2320     2338     2354     2366     2384 
    2393     2371     2330     2293     2261     2235     2230     2242 
    2261     2292     2334     2361     2377     2400     2419     2427 
    2439     2440     2420     2397     2376     2343     2307     2286 
    2272     2251     2242     2242     2231     2231     2263     2304 
    2332     2358     2386     2405     2398     2369     2339     2319 
    2313     2309     2299     2300     2312     2312     2312     2324 
    2338     2351     2376     2388     2378     2376     2404     2439 
    2439     2396     2328     2258     2208     2189     2212     2259 
    2300     2317     2331     2355     2374     2388     2400     2396 
    2371     2347     2326     2317     2320     2327     2332     2322 
    2303     2301     2292     2263     2254     2278     2320     2365 
    2392     2394     2396     2413     2428     2409     2363     2307 
    2246     2200     2187     2205     2255     2328     2385     2390 
    2376     2377     2381     2378     2388     2397     2382     2343 
    2290     2243     2232     2263     2317     2363     2389     2404 
    2417     2428     2425     2393     2323     2262     2234     2209 
    2182     2191     2245     2319     2398     2469     2509     2505 
    2463     2401     2338     2292     2273     2278     2292     2289 
    2276     2282     2307     2332     2365     2369     2332     2300 
    2278     2255     2254     2273     2300     2347     2407     2446 
    2462     2470     2458     2423     2381     2339     2289     2241 
    2204     2177     2169     2196     2234     2250     2249     2247 
    2251     2263     2290     2326     2357     2385     2412     2435 
    2448     2436     2417     2427     2447     2428     2380     2347 
    2349     2373     2407     2434     2438     2404     2339     2268 
    2216     2218     2276     2330     2336     2301     2257     2234 
    2239     2253     2259     2255     2261     2292     2331     2382 
    2465     2546     2563     2506     2415     2304     2193     2114 
    2070     2079     2160     2273     2349     2382     2412     2436 
    2450     2444     2404     2328     2251     2208     2208     2255 
    2351     2458     2521     2531     2489     2396     2290     2209 
    2165     2170     2227     2311     2409     2498     2520     2455 
    2343     2257     2258     2336     2411     2416     2355     2289 
    2247     2218     2214     2255     2320     2361     2350     2305 
    2263     2261     2309     2384     2452     2497     2485     2412 
    2317     2227     2168     2181     2268     2371     2447     2471 
    2415     2280     2131     2047     2072     2204     2394     2573 
    2675     2670     2569     2407     2253     2176     2188     2257 
    2340     2386     2359     2296     2247     2209     2174     2181 
    2227     2270     2312     2382     2485     2592     2652     2612 
    2465     2273     2123     2064     2106     2216     2303     2328 
    2343     2392     2477     2570     2617     2583     2481     2340 
    2201     2104     2061     2066     2108     2158     2173     2174 
    2228     2349     2486     2590     2610     2516     2335     2155 
    2095     2212     2423     2592     2655     2597     2439     2270 
    2162     2104     2081     2112     2197     2297     2381     2454 
    2508     2516     2481     2428     2354     2261     2199     2205 
    2259     2331     2397     2430     2403     2359     2339     2315 
    2284     2263     2241     2235     2277     2340     2390     2419 
    2425     2404     2366     2331     2320     2343     2369     2353 
    2292     2230     2201     2231     2303     2365     2390     2382 
    2353     2331     2334     2358     2407     2446     2420     2347 
    2304     2316     2320     2293     2273     2261     2238     2246 
    2328     2417     2428     2359     2257     2162     2114     2134 
    2215     2312     2394     2458     2484     2462     2421     2408 
    2430     2447     2448     2432     2397     2353     2309     2272 
    2258     2280     2319     2361     2374     2347     2311     2292 
    2303     2350     2393     2374     2295     2197     2127     2123 
    2181     2284     2408     2501     2528     2498     2430     2346 
    2274     2230     2219     2231     2238     2242     2262     2295 
    2330     2365     2386     2409     2461     2520     2540     2501 
    2413     2313     2253     2262     2320     2369     2340     2230 
    2108     2015     1964     1998     2120     2265     2388     2470 
    2501     2497     2481     2465     2444     2417     2388     2366 
    2361     2400     2475     2535     2563     2577     2566     2532 
    2486     2401     2254     2093     1998     1975     1988     2035 
    2138     2297     2484     2612     2610     2473     2249     2019 
    1849     1755     1759     1903     2168     2489     2812     3073 
    3203     3169     2999     2718     2384     2091     1890     1769 
    1725     1757     1863     2022     2203     2365     2486     2550 
    2550     2497     2403     2300     2270     2350     2489     2619 
    2689     2667     2551     2384     2230     2138     2128     2201 
    2324     2469     2604     2668     2612     2419     2111     1798 
    1633     1675     1903     2274     2687     2994     3068     2889 
    2544     2161     1850     1680     1640     1672     1755     1914 
    2162     2479     2813     3076     3194     3148     2963     2687 
    2394     2154     1987     1895     1911     2053     2266     2458 
    2574     2600     2560     2502     2457     2440     2439     2415 
    2307     2089     1829     1640     1597     1737     2038     2403 
    2732     2933     2925     2729     2467     2245     2093     2012 
    2006     2083     2224     2367     2448     2455     2428     2411 
    2430     2505     2616     2698     2697     2612     2494     2380 
    2278     2181     2070     1957     1907     1960     2092     2242 
    2376     2497     2593     2643     2650     2623     2548     2413 
    2231     2064     1971     1945     1956     1973     2004     2097 
    2251     2393     2485     2531     2558     2592     2619     2625 
    2616     2575     2498     2413     2344     2307     2308     2335 
    2340     2278     2182     2104     2038     1991     2010     2111 
    2272     2440     2555     2577     2513     2408     2301     2234 
    2245     2335     2444     2516     2520     2458     2365     2289 
    2251     2265     2328     2420     2509     2548     2496     2351 
    2161     1992     1906     1907     1954     2031     2133     2254 
    2390     2531     2648     2710     2709     2651     2550     2432 
    2326     2231     2154     2124     2164     2255     2358     2435 
    2490     2538     2565     2548     2481     2380     2277     2173 
    2089     2085     2180     2300     2376     2382     2331     2269 
    2236     2239     2249     2251     2276     2339     2409     2461 
    2481     2461     2425     2409     2397     2365     2312     2259 
    2230     2241     2282     2307     2295     2251     2182     2149 
    2208     2330     2447     2517     2531     2506     2462     2404 
    2354     2327     2307     2281     2249     2207     2164     2150 
    2185     2242     2296     2367     2465     2559     2614     2583 
    2463     2309     2185     2120     2101     2120     2193     2317 
    2431     2479     2473     2450     2427     2397     2359     2316 
    2262     2207     2180     2209     2299     2409     2489     2517 
    2492     2420     2338     2272     2228     2224     2255     2307 
    2354     2367     2334     2280     2258     2296     2369     2434 
    2477     2477     2403     2273     2150     2068     2043     2080 
    2160     2261     2355     2420     2474     2536     2602     2654 
    2655     2585     2465     2347     2274     2261     2290     2317 
    2292     2199     2060     1939     1919     2022     2196     2380 
    2529     2623     2658     2629     2525     2370     2223     2131 
    2100     2114     2161     2258     2389     2506     2578     2592 
    2556     2506     2463     2411     2335     2242     2138     2049 
    2031     2122     2307     2533     2710     2756     2655     2440 
    2184     1966     1849     1868     1993     2150     2300     2425 
    2496     2520     2505     2444     2374     2349     2382     2446 
    2496     2527     2533     2473     2353     2227     2119     2043 
    2018     2034     2091     2193     2320     2434     2513     2559 
    2574     2562     2538     2516     2494     2461     2403     2313 
    2203     2107     2068     2106     2216     2365     2506     2598 
    2601     2511     2376     2247     2154     2108     2092     2099 
    2134     2176     2195     2205     2243     2311     2396     2485 
    2548     2573     2578     2569     2521     2417     2266     2112 
    2004     1969     2020     2150     2315     2469     2574     2609 
    2575     2496     2403     2308     2236     2211     2207     2220 
    2278     2354     2409     2452     2481     2479     2470     2459 
    2425     2378     2336     2308     2307     2326     2335     2319 
    2285     2242     2197     2177     2195     2242     2286     2301 
    2300     2319     2357     2371     2350     2309     2273     2273 
    2313     2354     2362     2346     2322     2316     2351     2411 
    2438     2394     2300     2204     2160     2184     2249     2336 
    2424     2473     2471     2446     2405     2355     2320     2312 
    2319     2344     2384     2431     2463     2440     2362     2277 
    2205     2138     2101     2138     2251     2401     2529     2582 
    2556     2479     2373     2263     2192     2174     2200     2249 
    2308     2359     2381     2385     2377     2338     2278     2247 
    2265     2317     2380     2436     2477     2481     2432     2359 
    2284     2211     2169     2181     2223     2269     2324     2389 
    2455     2509     2521     2486     2430     2371     2313     2251 
    2193     2151     2135     2154     2199     2241     2265     2272 
    2262     2263     2307     2389     2488     2573     2610     2587 
    2511     2398     2285     2197     2149     2164     2230     2293 
    2331     2366     2401     2407     2373     2315     2262     2245 
    2266     2316     2374     2430     2477     2500     2471     2393 
    2312     2266     2259     2272     2281     2276     2258     2234 
    2227     2268     2350     2428     2457     2427     2347     2238 
    2153     2145     2211     2319     2424     2494     2506     2469 
    2405     2328     2243     2177     2161     2184     2223     2273 
