Origin Time       2024/06/23 22:54:00
Lat.              35.645
Long.             140.060
Depth. (km)       72
Mag.              4.1
Station Code      TCGH12
Station Lat.      36.6959
Station Long.     139.9842
Station Height(m) 42
Record Time       2024/06/23 22:55:00
Sampling Freq(Hz) 100Hz
Duration Time(s)  120
Dir.              2
Scale Factor      2942(gal)/8224139
Max. Acc. (gal)   0.354
Last Correction   2024/06/23 22:55:00
Memo.             
[...]
   39750    39779    39780    39773    39780    39793    39780    39741 
   39718    39729    39749    39762    39779    39799    39808    39804 
   39802    39800    39784    39762    39761    39764    39750    39748 
   39768    39785    39804    39812    39772    39718    39710    39744 
   39789    39812    39804    39800    39807    39803    39765    39735 
   39752    39776    39795    39806    39784    39758    39744    39737 
   39752    39781    39793    39788    39781    39772    39760    39761 
   39754    39750    39765    39757    39746    39764    39772    39766 
   39764    39781    39819    39811    39765    39773    39800    39787 
   39779    39792    39791    39762    39717    39706    39754    39802 
   39815    39804    39781    39779    39783    39760    39757    39798 
   39816    39776    39722    39710    39725    39718    39715    39761 
   39816    39839    39846    39833    39765    39685    39677    39723 
   39762    39779    39783    39784    39798    39808    39799    39777 
   39771    39772    39775    39788    39803    39784    39737    39744 
   39807    39823    39804    39792    39749    39714    39741    39779 
   39777    39776    39791    39773    39739    39746    39771    39776 
   39779    39780    39762    39744    39761    39777    39757    39750 
   39762    39757    39753    39769    39787    39802    39854    39888 
   39820    39748    39739    39717    39690    39730    39791    39803 
   39784    39752    39731    39762    39793    39779    39788    39854 
   39897    39856    39779    39726    39702    39729    39784    39802 
   39795    39781    39754    39744    39758    39788    39803    39783 
   39752    39733    39723    39714    39717    39744    39791    39843 
   39839    39785    39769    39779    39783    39811    39838    39837 
   39831    39800    39735    39702    39738    39781    39785    39781 
   39779    39768    39765    39781    39789    39773    39771    39785 
   39781    39762    39757    39762    39765    39779    39792    39793 
   39827    39854    39799    39752    39757    39727    39698    39729 
   39761    39775    39796    39807    39798    39795    39793    39781 
   39784    39814    39818    39784    39752    39722    39711    39758 
   39791    39752    39730    39780    39806    39784    39803    39831 
   39811    39811    39827    39788    39739    39730    39727    39734 
   39757    39780    39823    39846    39785    39714    39718    39758 
   39776    39761    39739    39746    39771    39771    39772    39806 
   39818    39776    39777    39842    39827    39754    39769    39808 
   39793    39789    39806    39804    39803    39792    39748    39719 
   39735    39752    39775    39826    39838    39789    39727    39673 
   39663    39715    39784    39810    39815    39829    39808    39769 
   39791    39852    39866    39812    39746    39729    39742    39781 
   39822    39789    39711    39695    39730    39754    39787    39829 
   39814    39769    39777    39793    39771    39781    39818    39815 
   39825    39854    39820    39744    39702    39707    39741    39780 
   39806    39819    39788    39722    39706    39758    39810    39819 
   39802    39780    39780    39791    39775    39779    39827    39826 
   39750    39719    39744    39730    39727    39795    39810    39742 
   39730    39795    39842    39849    39834    39800    39771    39750 
   39723    39749    39820    39806    39730    39711    39727    39739 
   39766    39784    39788    39810    39807    39776    39789    39811 
   39807    39822    39806    39764    39768    39753    39688    39688 
   39765    39815    39812    39793    39760    39726    39725    39738 
   39756    39796    39808    39789    39827    39880    39845    39792 
   39776    39756    39749    39760    39776    39804    39791    39717 
   39665    39673    39718    39776    39780    39737    39739    39780 
   39811    39847    39870    39861    39837    39780    39730    39752 
   39791    39795    39777    39727    39676    39677    39704    39742 
   39788    39818    39847    39877    39865    39815    39768    39742 
   39750    39766    39768    39771    39771    39744    39723    39749 
   39792    39804    39738    39665    39731    39852    39858    39838 
   39852    39825    39772    39718    39668    39661    39695    39738 
   39772    39789    39811    39839    39833    39792    39776    39789 
   39780    39754    39761    39771    39769    39787    39785    39756 
   39758    39777    39765    39768    39800    39796    39748    39707 
   39719    39784    39826    39792    39776    39819    39815    39764 
   39762    39787    39780    39752    39738    39757    39788    39814 
   39815    39777    39723    39688    39722    39799    39839    39838 
   39802    39735    39717    39745    39758    39775    39795    39781 
   39741    39711    39710    39731    39772    39810    39795    39752 
   39758    39772    39761    39798    39852    39854    39831    39803 
   39777    39756    39734    39754    39806    39820    39781    39730 
   39714    39734    39752    39752    39758    39787    39810    39780 
   39739    39748    39768    39781    39793    39803    39835    39866 
   39825    39738    39683    39658    39675    39718    39742    39764 
   39807    39854    39877    39857    39818    39781    39721    39675 
   39725    39802    39814    39804    39806    39799    39791    39785 
   39781    39792    39802    39783    39750    39734    39739    39739 
   39710    39691    39744    39820    39850    39842    39819    39789 
   39768    39789    39835    39839    39822    39822    39785    39717 
   39699    39714    39733    39780    39812    39796    39773    39752 
   39719    39712    39749    39783    39771    39742    39753    39783 
   39812    39857    39904    39903    39834    39733    39644    39629 
   39730    39856    39900    39883    39837    39775    39730    39717 
   39727    39758    39791    39792    39764    39725    39687    39683 
   39730    39792    39827    39838    39833    39808    39772    39769 
   39827    39877    39854    39802    39771    39762    39752    39708 
   39668    39677    39707    39739    39788    39847    39885    39881 
   39834    39761    39717    39737    39775    39777    39768    39787 
   39831    39870    39881    39852    39788    39729    39694    39679 
   39680    39699    39726    39741    39750    39757    39777    39814 
   39818    39779    39783    39849    39888    39870    39835    39775 
   39703    39694    39737    39762    39783    39830    39856    39815 
   39750    39717    39733    39791    39856    39881    39835    39742 
   39660    39640    39692    39775    39826    39829    39789    39737 
   39715    39733    39753    39749    39744    39753    39752    39762 
   39820    39895    39918    39887    39841    39781    39722    39707 
   39726    39754    39804    39820    39785    39769    39771    39748 
   39735    39753    39764    39779    39804    39803    39785    39784 
   39779    39771    39775    39762    39739    39735    39723    39727 
   39785    39820    39792    39758    39741    39719    39715    39742 
   39781    39807    39799    39783    39785    39783    39775    39784 
   39789    39784    39784    39769    39734    39730    39780    39823 
   39843    39854    39816    39765    39762    39772    39784    39819 
   39845    39846    39819    39760    39683    39627    39644    39694 
   39719    39738    39745    39735    39739    39744    39766    39834 
   39866    39839    39796    39746    39734    39773    39792    39798 
   39846    39874    39846    39820    39798    39745    39710    39723 
   39746    39765    39766    39737    39738    39780    39785    39776 
   39783    39771    39758    39793    39834    39839    39835    39827 
   39775    39700    39671    39677    39669    39669    39725    39795 
   39815    39808    39793    39776    39799    39839    39820    39754 
   39708    39707    39714    39706    39708    39742    39785    39811 
   39830    39857    39869    39885    39927    39914    39810    39721 
   39695    39690    39692    39704    39734    39785    39812    39776 
   39726    39717    39727    39738    39772    39810    39826    39820 
   39788    39756    39773    39829    39883    39888    39811    39726 
   39730    39765    39762    39766    39792    39792    39775    39766 
   39745    39725    39739    39762    39757    39742    39757    39798 
   39830    39847    39860    39837    39766    39708    39706    39735 
   39754    39757    39768    39771    39744    39742    39800    39858 
   39874    39842    39787    39758    39783    39826    39838    39807 
   39768    39738    39698    39687    39754    39827    39833    39808 
   39803    39803    39781    39749    39721    39688    39649    39631 
   39660    39733    39822    39879    39881    39837    39769    39729 
   39748    39818    39893    39922    39897    39856    39814    39769 
   39730    39718    39735    39741    39679    39595    39588    39623 
   39636    39700    39829    39891    39854    39787    39749    39791 
   39889    39935    39923    39933    39926    39815    39672    39610 
   39611    39633    39681    39741    39777    39792    39776    39733 
   39692    39704    39783    39884    39961    39973    39931    39880 
   39818    39753    39773    39880    39947    39893    39784    39687 
   39565    39441    39417    39494    39606    39734    39815    39772 
   39668    39640    39717    39815    39880    39927    39960    39955 
   39961    40008    40053    40061    39984    39793    39629    39627 
   39679    39652    39594    39530    39502    39617    39827    39999 
   40084    40036    39870    39749    39776    39854    39873    39818 
   39700    39584    39595    39748    39906    39915    39757    39587 
   39553    39630    39719    39764    39750    39685    39565    39440 
   39456    39673    39973    40194    40263    40211    40065    39874 
   39798    39870    39910    39823    39706    39633    39614    39676 
   39772    39776    39708    39677    39703    39798    39933    39974 
   39858    39627    39410    39366    39501    39695    39856    39939 
   39976    40019    40063    40090    40059    39887    39600    39371 
   39325    39451    39649    39839    39919    39812    39630    39542 
   39582    39756    40004    40138    40084    39969    39897    39843 
   39769    39703    39648    39603    39614    39700    39803    39865 
   39881    39834    39700    39592    39629    39748    39853    39924 
   39918    39787    39618    39567    39646    39765    39865    39953 
   40015    39949    39773    39675    39707    39742    39741    39726 
   39695    39704    39764    39780    39754    39745    39719    39671 
   39698    39815    39901    39922    39908    39819    39696    39668 
   39695    39676    39649    39676    39739    39783    39776    39765 
   39804    39880    39953    39961    39876    39758    39658    39602 
   39577    39564    39640    39820    39949    39955    39908    39857 
   39852    39899    39915    39834    39710    39607    39552    39560 
   39631    39803    40036    40155    40068    39892    39780    39723 
   39657    39629    39638    39606    39544    39523    39576    39696 
   39841    39935    39945    39954    40061    40180    40151    40003 
   39862    39760    39677    39600    39486    39318    39148    39066 
   39143    39357    39633    39912    40119    40176    40099    40012 
   40031    40139    40196    40140    40011    39793    39521    39343 
   39329    39491    39858    40263    40427    40302    40016    39669 
   39368    39231    39299    39496    39680    39761    39773    39808 
   39903    40049    40169    40213    40252    40261    40070    39690 
   39332    39128    39075    39197    39457    39675    39739    39754 
   39800    39760    39602    39505    39529    39614    39764    39989 
   40255    40417    40340    40142    39960    39825    39856    40014 
   40014    39807    39588    39461    39444    39502    39576    39649 
   39702    39702    39704    39791    39914    39978    39966    39854 
   39629    39420    39352    39444    39694    40031    40317    40450 
   40343    40009    39677    39606    39771    39912    39912    39846 
   39717    39522    39374    39380    39573    39834    40023    40109 
   40077    39903    39622    39329    39140    39096    39201    39440 
   39696    39888    40027    40120    40231    40408    40481    40269 
   39861    39434    39141    39112    39256    39451    39688    39839 
   39823    39802    39874    40042    40327    40540    40451    40146 
   39823    39592    39515    39594    39822    40080    40140    39993 
   39764    39496    39295    39279    39442    39680    39803    39719 
   39515    39290    39136    39181    39414    39684    39951    40224 
   40412    40444    40370    40227    39984    39718    39546    39415 
   39336    39482    39808    40073    40157    40105    39985    39827 
   39711    39679    39663    39610    39519    39437    39469    39663 
   39938    40166    40250    40220    40147    40043    39919    39791 
   39673    39579    39498    39460    39491    39549    39610    39683 
   39715    39656    39614    39722    39870    39900    39899    39981 
   40053    40023    39939    39835    39756    39787    39908    39999 
   39997    39942    39891    39835    39717    39517    39247    38944 
   38785    38888    39163    39560    40035    40398    40585    40703 
   40711    40508    40217    39999    39776    39498    39321    39318 
   39397    39538    39795    40077    40170    39985    39604    39168 
   38855    38838    39123    39534    39868    40043    40138    40246 
   40339    40354    40313    40200    39942    39636    39441    39330 
   39270    39345    39521    39627    39621    39621    39712    39847 
   39955    40014    40030    40053    40135    40281    40402    40371 
   40170    39879    39586    39425    39433    39447    39379    39313 
   39298    39372    39591    39831    39874    39731    39575    39503 
   39545    39735    40023    40247    40297    40215    40057    39845 
   39667    39621    39637    39583    39519    39572    39687    39808 
   39949    40045    40055    40011    39888    39715    39595    39533 
   39519    39631    39841    40003    40076    40080    39982    39760 
   39495    39334    39318    39372    39499    39715    39893    39942 
   39930    39899    39833    39795    39800    39792    39806    39856 
   39861    39834    39847    39831    39694    39575    39638    39783 
   39883    39987    40096    40100    39985    39907    39908    39808 
   39587    39430    39361    39283    39240    39325    39460    39552 
   39700    39982    40248    40317    40203    40031    39876    39765 
   39725    39731    39742    39776    39815    39780    39699    39696 
   39738    39729    39700    39676    39668    39738    39883    40023 
   40093    40065    39943    39765    39595    39506    39533    39625 
   39680    39727    39846    39938    39908    39858    39816    39684 
   39488    39390    39471    39614    39680    39679    39684    39742 
   39897    40117    40289    40354    40289    40103    39916    39849 
   39811    39684    39525    39430    39420    39478    39565    39610 
   39610    39654    39798    39984    40140    40230    40196    39997 
   39712    39468    39317    39322    39533    39825    39991    40018 
   39993    39896    39769    39788    39901    39901    39803    39731 
   39688    39663    39714    39812    39869    39892    39903    39872 
   39800    39702    39602    39564    39583    39599    39615    39681 
   39783    39838    39839    39822    39789    39753    39711    39625 
   39538    39567    39702    39864    40003    40035    39950    39891 
   39918    39961    39976    39978    39968    39908    39793    39672 
   39604    39638    39757    39877    39933    39899    39810    39719 
   39684    39704    39695    39626    39552    39472    39424    39484 
   39615    39708    39748    39807    39928    40038    40041    39946 
   39838    39748    39679    39664    39725    39823    39891    39891 
   39818    39698    39652    39733    39833    39883    39908    39908 
   39862    39804    39791    39808    39780    39738    39746    39756 
   39753    39745    39669    39576    39583    39623    39631    39699 
   39823    39892    39885    39862    39853    39864    39907    39970 
   39991    39934    39808    39677    39653    39723    39777    39798 
   39841    39903    39920    39857    39761    39707    39690    39667 
   39671    39723    39749    39707    39618    39541    39555    39665 
   39815    39918    39924    39887    39829    39721    39587    39474 
   39409    39448    39594    39706    39718    39788    39985    40169 
   40265    40255    40081    39842    39687    39602    39571    39625 
   39726    39864    40036    40142    40105    39989    39876    39800 
   39756    39710    39707    39750    39667    39444    39360    39498 
   39648    39714    39699    39617    39573    39615    39698    39830 
   39978    40030    39974    39883    39777    39672    39615    39614 
   39618    39611    39602    39614    39681    39780    39864    39949 
   40032    40023    39901    39783    39727    39704    39696    39719 
   39812    39947    40042    40078    40076    40000    39853    39710 
   39642    39630    39638    39660    39650    39602    39580    39618 
   39665    39680    39683    39721    39812    39937    40042    40103 
   40116    40063    39943    39795    39679    39614    39544    39483 
   39510    39586    39637    39694    39812    39955    40016    39978 
   39923    39858    39765    39727    39802    39901    39904    39818 
   39746    39715    39658    39580    39569    39614    39633    39644 
   39690    39746    39792    39810    39772    39723    39749    39833 
   39879    39852    39803    39833    39964    40072    40061    39958 
   39810    39650    39552    39573    39672    39757    39811    39834 
   39807    39784    39838    39923    39935    39869    39803    39745 
   39645    39526    39464    39492    39602    39766    39901    39916 
   39839    39781    39781    39807    39857    39912    39899    39746 
   39555    39538    39703    39865    39955    39997    39993    39947 
   39904    39854    39772    39710    39715    39741    39733    39694 
   39648    39607    39582    39606    39723    39895    40022    40043 
   39943    39781    39685    39683    39699    39706    39719    39726 
   39711    39691    39696    39769    39893    39993    40038    40028 
   39949    39800    39645    39567    39568    39603    39667    39749 
   39839    39938    39985    39945    39856    39738    39604    39501 
   39468    39513    39580    39592    39583    39636    39731    39806 
   39846    39850    39825    39820    39872    39962    40049    40072 
   39996    39899    39870    39873    39833    39706    39509    39359 
   39340    39445    39664    39866    39899    39846    39846    39857 
   39854    39897    39926    39852    39760    39781    39914    40036 
   40053    39988    39908    39810    39710    39642    39584    39525 
   39515    39595    39726    39827    39843    39795    39777    39856 
