Origin Time       2024/06/23 22:54:00
Lat.              35.645
Long.             140.060
Depth. (km)       72
Mag.              4.1
Station Code      TCGH16
Station Lat.      36.5480
Station Long.     140.0751
Station Height(m) -7
Record Time       2024/06/23 22:54:48
Sampling Freq(Hz) 100Hz
Duration Time(s)  120
Dir.              3
Scale Factor      2942(gal)/8224139
Max. Acc. (gal)   0.207
Last Correction   2024/06/23 22:54:48
Memo.             
[...]
 -217466  -217462  -217463  -217466  -217466  -217466  -217464  -217466 
 -217467  -217466  -217464  -217464  -217464  -217466  -217464  -217463 
 -217463  -217464  -217467  -217466  -217463  -217463  -217463  -217463 
 -217464  -217463  -217462  -217463  -217462  -217462  -217463  -217463 
 -217466  -217466  -217460  -217458  -217463  -217468  -217468  -217464 
 -217463  -217462  -217460  -217462  -217464  -217464  -217463  -217464 
 -217464  -217462  -217463  -217464  -217464  -217464  -217463  -217466 
 -217468  -217463  -217460  -217464  -217464  -217464  -217463  -217462 
 -217463  -217464  -217464  -217464  -217464  -217466  -217464  -217463 
 -217462  -217463  -217464  -217464  -217462  -217462  -217466  -217466 
 -217460  -217462  -217464  -217464  -217463  -217463  -217466  -217466 
 -217463  -217462  -217464  -217466  -217464  -217462  -217463  -217466 
 -217466  -217467  -217467  -217460  -217462  -217464  -217464  -217467 
 -217466  -217463  -217463  -217464  -217463  -217464  -217463  -217463 
 -217464  -217466  -217464  -217467  -217468  -217466  -217464  -217464 
 -217464  -217464  -217464  -217464  -217466  -217467  -217464  -217463 
 -217464  -217464  -217464  -217467  -217468  -217464  -217463  -217466 
 -217466  -217464  -217466  -217467  -217466  -217463  -217463  -217464 
 -217466  -217464  -217464  -217467  -217468  -217466  -217463  -217464 
 -217466  -217466  -217467  -217470  -217470  -217470  -217466  -217464 
 -217464  -217464  -217466  -217467  -217466  -217463  -217462  -217462 
 -217466  -217467  -217468  -217470  -217467  -217462  -217463  -217468 
 -217470  -217467  -217467  -217464  -217462  -217462  -217467  -217471 
 -217468  -217463  -217463  -217464  -217464  -217464  -217466  -217468 
 -217468  -217466  -217464  -217463  -217463  -217468  -217472  -217467 
 -217462  -217460  -217464  -217466  -217462  -217463  -217467  -217466 
 -217463  -217463  -217463  -217466  -217464  -217463  -217463  -217463 
 -217464  -217466  -217464  -217463  -217467  -217468  -217466  -217466 
 -217466  -217463  -217466  -217466  -217464  -217466  -217467  -217463 
 -217464  -217467  -217462  -217459  -217464  -217466  -217464  -217463 
 -217463  -217467  -217467  -217463  -217463  -217466  -217467  -217466 
 -217464  -217463  -217464  -217466  -217466  -217464  -217464  -217467 
 -217470  -217466  -217467  -217468  -217464  -217462  -217464  -217464 
 -217460  -217462  -217466  -217467  -217464  -217466  -217467  -217464 
 -217464  -217464  -217462  -217460  -217462  -217463  -217462  -217462 
 -217463  -217466  -217466  -217464  -217463  -217462  -217460  -217462 
 -217466  -217467  -217466  -217463  -217462  -217462  -217463  -217463 
 -217464  -217466  -217464  -217460  -217460  -217460  -217460  -217460 
 -217462  -217464  -217463  -217460  -217462  -217462  -217459  -217459 
 -217462  -217463  -217462  -217459  -217460  -217464  -217463  -217460 
 -217459  -217462  -217463  -217462  -217462  -217463  -217463  -217460 
 -217460  -217463  -217464  -217464  -217464  -217462  -217460  -217462 
 -217463  -217463  -217463  -217463  -217463  -217462  -217460  -217462 
 -217466  -217463  -217459  -217462  -217464  -217460  -217462  -217464 
 -217464  -217464  -217466  -217464  -217464  -217462  -217459  -217460 
 -217460  -217460  -217463  -217464  -217463  -217460  -217462  -217464 
 -217464  -217462  -217462  -217463  -217462  -217459  -217462  -217466 
 -217463  -217463  -217464  -217464  -217464  -217463  -217463  -217463 
 -217463  -217460  -217462  -217462  -217460  -217466  -217466  -217458 
 -217456  -217463  -217466  -217466  -217464  -217463  -217462  -217460 
 -217460  -217464  -217468  -217464  -217459  -217459  -217462  -217466 
 -217464  -217459  -217460  -217463  -217460  -217466  -217467  -217462 
 -217462  -217466  -217462  -217460  -217464  -217466  -217463  -217463 
 -217464  -217464  -217462  -217462  -217466  -217467  -217463  -217463 
 -217463  -217460  -217463  -217467  -217464  -217464  -217466  -217462 
 -217460  -217462  -217462  -217464  -217464  -217463  -217464  -217462 
 -217462  -217462  -217462  -217463  -217466  -217466  -217463  -217463 
 -217463  -217464  -217464  -217467  -217466  -217462  -217462  -217463 
 -217463  -217464  -217466  -217464  -217463  -217466  -217464  -217462 
 -217464  -217466  -217464  -217466  -217466  -217464  -217466  -217464 
 -217466  -217468  -217467  -217466  -217463  -217462  -217464  -217467 
 -217464  -217464  -217463  -217462  -217466  -217467  -217466  -217464 
 -217464  -217464  -217464  -217463  -217464  -217467  -217467  -217464 
 -217464  -217467  -217464  -217460  -217464  -217468  -217466  -217460 
 -217464  -217468  -217468  -217466  -217466  -217467  -217464  -217462 
 -217466  -217466  -217464  -217466  -217464  -217464  -217466  -217464 
 -217466  -217468  -217467  -217464  -217463  -217463  -217466  -217468 
 -217466  -217466  -217464  -217462  -217464  -217467  -217464  -217466 
 -217466  -217466  -217466  -217464  -217464  -217467  -217466  -217462 
 -217464  -217467  -217464  -217468  -217471  -217464  -217463  -217467 
 -217467  -217463  -217462  -217464  -217463  -217463  -217466  -217466 
 -217463  -217463  -217464  -217464  -217463  -217463  -217468  -217467 
 -217462  -217462  -217464  -217466  -217467  -217468  -217466  -217460 
 -217460  -217462  -217463  -217463  -217464  -217466  -217464  -217459 
 -217459  -217466  -217467  -217467  -217466  -217463  -217462  -217463 
 -217464  -217466  -217466  -217460  -217459  -217462  -217463  -217466 
 -217468  -217467  -217463  -217460  -217462  -217466  -217467  -217464 
 -217463  -217463  -217463  -217462  -217464  -217466  -217464  -217463 
 -217463  -217466  -217464  -217463  -217464  -217466  -217463  -217462 
 -217464  -217466  -217463  -217463  -217463  -217462  -217462  -217466 
 -217467  -217466  -217464  -217463  -217464  -217464  -217462  -217464 
 -217466  -217463  -217462  -217463  -217464  -217464  -217464  -217464 
 -217466  -217466  -217466  -217463  -217464  -217463  -217460  -217462 
 -217464  -217466  -217464  -217462  -217462  -217460  -217462  -217464 
 -217462  -217460  -217464  -217463  -217459  -217464  -217467  -217463 
 -217460  -217462  -217462  -217463  -217464  -217466  -217463  -217462 
 -217463  -217463  -217466  -217467  -217462  -217460  -217464  -217466 
 -217466  -217467  -217466  -217464  -217464  -217466  -217466  -217467 
 -217466  -217462  -217462  -217464  -217464  -217466  -217464  -217462 
 -217460  -217464  -217466  -217466  -217466  -217466  -217466  -217464 
 -217463  -217463  -217463  -217466  -217467  -217464  -217462  -217464 
 -217466  -217464  -217464  -217464  -217464  -217463  -217459  -217460 
 -217464  -217464  -217463  -217464  -217466  -217467  -217467  -217467 
 -217464  -217463  -217462  -217460  -217464  -217468  -217466  -217463 
 -217463  -217463  -217463  -217466  -217468  -217467  -217466  -217463 
 -217463  -217463  -217466  -217466  -217464  -217464  -217464  -217464 
 -217466  -217464  -217462  -217460  -217459  -217463  -217468  -217467 
 -217464  -217467  -217467  -217464  -217462  -217464  -217464  -217464 
 -217467  -217464  -217463  -217463  -217463  -217464  -217466  -217463 
 -217462  -217464  -217466  -217463  -217463  -217468  -217467  -217460 
 -217462  -217466  -217466  -217463  -217463  -217463  -217463  -217467 
 -217470  -217466  -217463  -217463  -217460  -217460  -217464  -217464 
 -217464  -217467  -217464  -217463  -217464  -217464  -217463  -217463 
 -217464  -217467  -217464  -217459  -217463  -217468  -217466  -217462 
 -217463  -217464  -217463  -217463  -217466  -217467  -217464  -217462 
 -217464  -217466  -217466  -217464  -217466  -217464  -217463  -217462 
 -217463  -217464  -217467  -217466  -217460  -217462  -217464  -217464 
 -217468  -217472  -217470  -217467  -217466  -217464  -217466  -217466 
 -217463  -217463  -217466  -217466  -217467  -217467  -217463  -217462 
 -217464  -217467  -217464  -217460  -217459  -217460  -217466  -217468 
 -217466  -217464  -217463  -217463  -217470  -217470  -217467  -217471 
 -217470  -217455  -217441  -217452  -217471  -217472  -217459  -217453 
 -217458  -217468  -217483  -217486  -217478  -217478  -217472  -217449 
 -217451  -217495  -217506  -217440  -217393  -217425  -217455  -217459 
 -217491  -217516  -217474  -217422  -217401  -217399  -217455  -217552 
 -217586  -217551  -217520  -217452  -217329  -217296  -217402  -217466 
 -217412  -217408  -217522  -217626  -217615  -217522  -217464  -217449 
 -217405  -217331  -217296  -217409  -217621  -217641  -217490  -217466 
 -217485  -217413  -217449  -217568  -217548  -217414  -217314  -217325 
 -217426  -217524  -217530  -217505  -217467  -217323  -217271  -217503 
 -217753  -217752  -217528  -217351  -217391  -217402  -217282  -217291 
 -217429  -217455  -217443  -217553  -217580  -217474  -217507  -217582 
 -217560  -217578  -217474  -217215  -217196  -217458  -217614  -217555 
 -217486  -217482  -217463  -217456  -217491  -217497  -217444  -217406 
 -217409  -217440  -217525  -217572  -217458  -217314  -217351  -217555 
 -217660  -217503  -217333  -217404  -217536  -217456  -217344  -217467 
 -217532  -217327  -217239  -217445  -217701  -217719  -217474  -217402 
 -217594  -217493  -217163  -217213  -217509  -217618  -217572  -217478 
 -217401  -217420  -217485  -217480  -217432  -217563  -217767  -217629 
 -217304  -217254  -217420  -217456  -217300  -217267  -217493  -217640 
 -217566  -217506  -217576  -217649  -217509  -217290  -217362  -217505 
 -217351  -217219  -217372  -217468  -217453  -217651  -217794  -217559 
 -217332  -217360  -217425  -217393  -217302  -217371  -217663  -217717 
 -217344  -217151  -217421  -217657  -217599  -217517  -217594  -217574 
 -217287  -217107  -217277  -217548  -217640  -217534  -217482  -217591 
 -217602  -217435  -217364  -217425  -217455  -217448  -217420  -217466 
 -217629  -217661  -217464  -217310  -217341  -217356  -217344  -217518 
 -217669  -217568  -217503  -217572  -217560  -217539  -217518  -217314 
 -217132  -217233  -217412  -217495  -217549  -217571  -217530  -217528 
 -217586  -217534  -217381  -217301  -217309  -217381  -217482  -217536 
 -217543  -217501  -217381  -217275  -217335  -217505  -217575  -217514 
 -217460  -217474  -217510  -217544  -217572  -217541  -217436  -217310 
 -217273  -217424  -217603  -217621  -217571  -217486  -217374  -217410 
 -217575  -217618  -217529  -217471  -217391  -217285  -217335  -217412 
 -217408  -217540  -217701  -217655  -217501  -217354  -217328  -217436 
 -217476  -217433  -217447  -217513  -217482  -217350  -217374  -217517 
 -217503  -217433  -217498  -217572  -217506  -217389  -217385  -217455 
 -217520  -217575  -217505  -217314  -217313  -217512  -217537  -217417 
 -217402  -217444  -217468  -217409  -217340  -217432  -217543  -217548 
 -217479  -217418  -217493  -217485  -217297  -217339  -217598  -217614 
 -217432  -217399  -217468  -217529  -217590  -217499  -217378  -217441 
 -217472  -217368  -217344  -217443  -217522  -217516  -217506  -217572 
 -217671  -217628  -217394  -217297  -217398  -217313  -217206  -217474 
 -217736  -217590  -217425  -217510  -217555  -217456  -217386  -217383 
 -217390  -217435  -217601  -217745  -217651  -217394  -217248  -217329 
 -217468  -217487  -217436  -217425  -217418  -217408  -217566  -217742 
 -217647  -217490  -217390  -217279  -217397  -217590  -217497  -217345 
 -217331  -217308  -217358  -217537  -217614  -217571  -217578  -217660 
 -217686  -217412  -217040  -217105  -217404  -217458  -217405  -217490 
 -217671  -217710  -217479  -217386  -217580  -217514  -217152  -217013 
 -217198  -217526  -217755  -217710  -217570  -217485  -217422  -217347 
 -217279  -217372  -217641  -217783  -217572  -217354  -217524  -217701 
 -217495  -217256  -217286  -217397  -217418  -217432  -217528  -217675 
 -217718  -217582  -217590  -217782  -217652  -217297  -217205  -217266 
 -217266  -217327  -217429  -217440  -217491  -217637  -217617  -217498 
 -217572  -217649  -217452  -217163  -217081  -217223  -217352  -217377 
 -217510  -217740  -217721  -217487  -217345  -217375  -217480  -217435 
 -217275  -217387  -217597  -217470  -217351  -217517  -217566  -217431 
 -217359  -217333  -217367  -217428  -217397  -217393  -217413  -217329 
 -217359  -217593  -217684  -217560  -217472  -217466  -217429  -217416 
 -217489  -217479  -217379  -217428  -217543  -217547  -217520  -217445 
 -217440  -217640  -217686  -217524  -217547  -217584  -217525  -217649 
 -217711  -217517  -217435  -217395  -217182  -217128  -217379  -217649 
 -217748  -217629  -217431  -217391  -217487  -217520  -217453  -217420 
 -217416  -217347  -217246  -217206  -217258  -217336  -217464  -217705 
 -217800  -217520  -217233  -217318  -217507  -217487  -217391  -217386 
 -217350  -217194  -217236  -217618  -217875  -217713  -217401  -217283 
 -217421  -217571  -217528  -217478  -217586  -217563  -217336  -217313 
 -217540  -217726  -217779  -217633  -217301  -217116  -217283  -217476 
 -217520  -217625  -217675  -217552  -217459  -217422  -217471  -217574 
 -217449  -217246  -217355  -217579  -217594  -217567  -217539  -217297 
 -217035  -217050  -217254  -217472  -217641  -217792  -217900  -217771 
 -217440  -217260  -217320  -217404  -217402  -217363  -217320  -217273 
 -217285  -217413  -217594  -217692  -217609  -217429  -217324  -217332 
 -217459  -217552  -217471  -217459  -217629  -217664  -217505  -217447 
 -217510  -217452  -217275  -217167  -217225  -217421  -217621  -217745 
 -217831  -217836  -217659  -217437  -217331  -217148  -216886  -216939 
 -217248  -217444  -217563  -217736  -217876  -217865  -217715  -217602 
 -217509  -217291  -217158  -217267  -217358  -217306  -217262  -217362 
 -217611  -217771  -217767  -217748  -217590  -217340  -217335  -217476 
 -217520  -217498  -217378  -217240  -217341  -217545  -217583  -217578 
 -217549  -217332  -217224  -217485  -217674  -217505  -217343  -217367 
 -217410  -217472  -217526  -217494  -217517  -217547  -217417  -217356 
 -217543  -217651  -217479  -217343  -217377  -217363  -217325  -217375 
 -217432  -217493  -217579  -217584  -217598  -217695  -217571  -217271 
 -217306  -217537  -217445  -217231  -217291  -217463  -217548  -217624 
 -217676  -217607  -217478  -217394  -217398  -217514  -217591  -217439 
 -217333  -217543  -217684  -217545  -217480  -217491  -217345  -217200 
 -217240  -217372  -217451  -217470  -217555  -217711  -217698  -217417 
 -217267  -217445  -217495  -217240  -217115  -217313  -217534  -217571 
 -217539  -217503  -217452  -217491  -217560  -217480  -217389  -217398 
 -217391  -217372  -217413  -217528  -217651  -217555  -217316  -217304 
 -217499  -217574  -217420  -217308  -217458  -217590  -217521  -217503 
 -217509  -217393  -217393  -217539  -217556  -217485  -217518  -217594 
 -217563  -217474  -217491  -217567  -217480  -217293  -217291  -217475 
 -217617  -217568  -217370  -217266  -217354  -217437  -217431  -217494 
 -217629  -217593  -217393  -217313  -217429  -217552  -217525  -217390 
 -217364  -217543  -217668  -217521  -217309  -217290  -217385  -217406 
 -217378  -217483  -217672  -217699  -217555  -217445  -217479  -217480 
 -217259  -217108  -217329  -217561  -217516  -217498  -217602  -217598 
 -217494  -217378  -217343  -217451  -217532  -217518  -217605  -217728 
 -217628  -217409  -217333  -217436  -217563  -217520  -217408  -217382 
 -217352  -217381  -217543  -217624  -217570  -217501  -217325  -217124 
 -217269  -217582  -217580  -217402  -217308  -217306  -217432  -217564 
 -217610  -217692  -217711  -217509  -217318  -217371  -217510  -217561 
 -217564  -217451  -217266  -217323  -217528  -217566  -217532  -217575 
 -217588  -217478  -217390  -217489  -217614  -217514  -217278  -217225 
 -217367  -217431  -217387  -217383  -217412  -217472  -217593  -217622 
 -217482  -217336  -217278  -217273  -217304  -217390  -217548  -217613 
 -217497  -217437  -217513  -217575  -217583  -217502  -217424  -217459 
 -217459  -217431  -217482  -217470  -217421  -217514  -217601  -217566 
 -217528  -217493  -217459  -217437  -217354  -217344  -217471  -217486 
 -217375  -217370  -217426  -217381  -217335  -217447  -217602  -217598 
 -217491  -217460  -217502  -217489  -217432  -217387  -217358  -217385 
 -217486  -217590  -217676  -217688  -217498  -217262  -217225  -217358 
 -217547  -217634  -217495  -217327  -217377  -217544  -217602  -217525 
 -217452  -217414  -217356  -217372  -217476  -217472  -217341  -217247 
 -217286  -217512  -217810  -217871  -217686  -217544  -217468  -217390 
 -217425  -217445  -217274  -217146  -217256  -217448  -217624  -217746 
 -217667  -217476  -217363  -217283  -217323  -217572  -217749  -217668 
 -217503  -217371  -217317  -217368  -217336  -217201  -217270  -217532 
 -217667  -217615  -217567  -217614  -217590  -217435  -217341  -217408 
 -217543  -217526  -217324  -217293  -217498  -217532  -217394  -217436 
 -217587  -217574  -217486  -217479  -217487  -217482  -217462  -217370 
 -217258  -217252  -217348  -217472  -217593  -217633  -217571  -217513 
 -217506  -217517  -217471  -217390  -217401  -217410  -217340  -217367 
 -217422  -217347  -217302  -217359  -217428  -217528  -217603  -217575 
 -217572  -217626  -217575  -217503  -217545  -217524  -217352  -217269 
 -217348  -217409  -217449  -217537  -217587  -217590  -217521  -217341 
 -217287  -217467  -217525  -217421  -217475  -217583  -217525  -217441 
 -217503  -217618  -217601  -217493  -217439  -217416  -217425  -217529 
 -217601  -217512  -217397  -217337  -217313  -217390  -217521  -217609 
 -217568  -217418  -217379  -217463  -217499  -217433  -217337  -217320 
 -217345  -217364  -217371  -217385  -217436  -217471  -217464  -217406 
 -217340  -217459  -217614  -217529  -217445  -217513  -217520  -217518 
 -217559  -217499  -217431  -217395  -217297  -217325  -217513  -217494 
 -217327  -217414  -217649  -217738  -217698  -217595  -217426  -217273 
 -217243  -217289  -217318  -217408  -217521  -217521  -217512  -217583 
 -217705  -217823  -217775  -217579  -217456  -217428  -217435  -217467 
 -217462  -217412  -217379  -217371  -217393  -217459  -217505  -217470 
 -217391  -217332  -217390  -217529  -217571  -217528  -217494  -217381 
 -217227  -217239  -217350  -217390  -217453  -217537  -217547  -217571 
 -217601  -217588  -217588  -217472  -217259  -217256  -217433  -217528 
 -217572  -217617  -217553  -217441  -217444  -217510  -217495  -217372 
 -217282  -217391  -217524  -217476  -217443  -217482  -217436  -217397 
 -217422  -217421  -217455  -217513  -217462  -217408  -217521  -217653 
 -217570  -217410  -217413  -217451  -217451  -217483  -217418  -217291 
 -217350  -217487  -217478  -217449  -217513  -217537  -217505  -217513 
 -217536  -217545  -217501  -217339  -217250  -217404  -217532  -217437 
 -217398  -217520  -217530  -217463  -217521  -217553  -217486  -217476 
 -217524  -217534  -217509  -217453  -217383  -217348  -217377  -217426 
 -217503  -217657  -217721  -217514  -217344  -217425  -217428  -217313 
 -217343  -217414  -217474  -217557  -217490  -217405  -217532  -217610 
 -217482  -217345  -217355  -217471  -217501  -217399  -217395  -217539 
 -217580  -217501  -217489  -217483  -217466  -217513  -217487  -217381 
 -217329  -217318  -217371  -217489  -217567  -217655  -217738  -217625 
 -217437  -217436  -217493  -217456  -217414  -217436  -217478  -217466 
