Origin Time       2024/06/23 22:54:00
Lat.              35.645
Long.             140.060
Depth. (km)       72
Mag.              4.1
Station Code      TCGH14
Station Lat.      36.5509
Station Long.     139.6154
Station Height(m) 80
Record Time       2024/06/23 22:54:59
Sampling Freq(Hz) 100Hz
Duration Time(s)  120
Dir.              2
Scale Factor      2942(gal)/8224139
Max. Acc. (gal)   0.198
Last Correction   2024/06/23 22:54:59
Memo.             
[...]
  -86613   -86630   -86653   -86624   -86583   -86586   -86547   -86522 
  -86621   -86697   -86694   -86734   -86732   -86603   -86536   -86557 
  -86525   -86543   -86630   -86640   -86659   -86701   -86624   -86559 
  -86582   -86578   -86606   -86671   -86657   -86613   -86609   -86643 
  -86640   -86590   -86582   -86584   -86567   -86590   -86621   -86629 
  -86607   -86586   -86620   -86620   -86570   -86591   -86610   -86574 
  -86593   -86621   -86626   -86703   -86752   -86679   -86589   -86518 
  -86491   -86521   -86541   -86589   -86674   -86687   -86645   -86613 
  -86584   -86575   -86555   -86541   -86572   -86586   -86626   -86719 
  -86707   -86632   -86648   -86643   -86563   -86576   -86676   -86684 
  -86597   -86526   -86517   -86576   -86674   -86709   -86672   -86644 
  -86636   -86589   -86508   -86501   -86570   -86601   -86610   -86636 
  -86620   -86607   -86667   -86651   -86568   -86605   -86680   -86686 
  -86652   -86594   -86548   -86514   -86489   -86545   -86645   -86701 
  -86682   -86574   -86479   -86517   -86593   -86641   -86667   -86616 
  -86590   -86661   -86684   -86660   -86674   -86651   -86603   -86587 
  -86537   -86508   -86570   -86626   -86628   -86583   -86514   -86517 
  -86617   -86691   -86676   -86620   -86582   -86595   -86640   -86661 
  -86597   -86479   -86529   -86722   -86738   -86624   -86591   -86559 
  -86493   -86533   -86643   -86660   -86614   -86603   -86595   -86576 
  -86598   -86645   -86664   -86660   -86659   -86626   -86568   -86557 
  -86578   -86601   -86621   -86582   -86547   -86611   -86667   -86656 
  -86610   -86578   -86616   -86624   -86552   -86540   -86580   -86571 
  -86584   -86649   -86661   -86640   -86659   -86687   -86679   -86643 
  -86605   -86589   -86594   -86591   -86597   -86641   -86663   -86617 
  -86582   -86562   -86540   -86557   -86586   -86591   -86597   -86655 
  -86678   -86575   -86539   -86613   -86638   -86661   -86674   -86620 
  -86609   -86614   -86590   -86609   -86595   -86548   -86578   -86599 
  -86580   -86584   -86591   -86580   -86571   -86599   -86644   -86630 
  -86625   -86695   -86706   -86645   -86622   -86574   -86512   -86535 
  -86574   -86622   -86676   -86611   -86505   -86498   -86556   -86657 
  -86734   -86742   -86729   -86637   -86521   -86517   -86524   -86525 
  -86629   -86683   -86634   -86670   -86683   -86526   -86435   -86536 
  -86668   -86698   -86620   -86560   -86593   -86629   -86630   -86652 
  -86707   -86725   -86632   -86502   -86476   -86580   -86683   -86647 
  -86545   -86530   -86595   -86664   -86679   -86636   -86633   -86672 
  -86645   -86568   -86556   -86638   -86676   -86589   -86493   -86518 
  -86622   -86636   -86547   -86584   -86721   -86679   -86517   -86489 
  -86606   -86697   -86663   -86599   -86597   -86603   -86606   -86614 
  -86645   -86709   -86715   -86656   -86601   -86557   -86562   -86567 
  -86548   -86610   -86680   -86648   -86605   -86574   -86553   -86557 
  -86563   -86637   -86714   -86659   -86598   -86598   -86575   -86552 
  -86576   -86621   -86618   -86571   -86578   -86629   -86652   -86678 
  -86663   -86589   -86578   -86620   -86601   -86583   -86640   -86672 
  -86625   -86580   -86587   -86603   -86603   -86630   -86652   -86603 
  -86560   -86593   -86649   -86665   -86634   -86599   -86549   -86518 
  -86570   -86610   -86591   -86632   -86676   -86617   -86540   -86548 
  -86614   -86656   -86657   -86629   -86589   -86614   -86670   -86678 
  -86672   -86641   -86584   -86547   -86514   -86502   -86595   -86703 
  -86670   -86614   -86626   -86595   -86553   -86575   -86587   -86589 
  -86624   -86618   -86593   -86628   -86648   -86633   -86664   -86680 
  -86637   -86629   -86622   -86540   -86502   -86553   -86595   -86593 
  -86541   -86525   -86609   -86657   -86611   -86613   -86701   -86719 
  -86643   -86606   -86610   -86584   -86589   -86655   -86675   -86624 
  -86587   -86574   -86578   -86595   -86611   -86633   -86598   -86539 
  -86584   -86667   -86655   -86594   -86606   -86660   -86664   -86653 
  -86651   -86636   -86587   -86532   -86576   -86634   -86602   -86589 
  -86637   -86675   -86644   -86571   -86567   -86595   -86560   -86540 
  -86589   -86652   -86659   -86578   -86517   -86580   -86656   -86629 
  -86611   -86665   -86659   -86590   -86586   -86628   -86605   -86571 
  -86620   -86663   -86637   -86621   -86643   -86634   -86574   -86570 
  -86657   -86679   -86613   -86602   -86613   -86580   -86579   -86591 
  -86582   -86579   -86575   -86582   -86607   -86617   -86606   -86652 
  -86736   -86709   -86602   -86537   -86548   -86645   -86676   -86580 
  -86551   -86566   -86553   -86595   -86640   -86659   -86680   -86656 
  -86605   -86549   -86536   -86621   -86683   -86634   -86536   -86467 
  -86552   -86719   -86763   -86705   -86625   -86529   -86483   -86532 
  -86621   -86659   -86590   -86529   -86575   -86621   -86583   -86536 
  -86557   -86595   -86574   -86572   -86614   -86649   -86703   -86718 
  -86665   -86630   -86611   -86603   -86617   -86598   -86574   -86583 
  -86583   -86602   -86595   -86537   -86571   -86620   -86562   -86570 
  -86632   -86613   -86638   -86698   -86651   -86613   -86638   -86659 
  -86656   -86563   -86489   -86513   -86497   -86530   -86667   -86702 
  -86644   -86580   -86489   -86455   -86560   -86637   -86610   -86624 
  -86656   -86661   -86671   -86629   -86583   -86610   -86625   -86620 
  -86660   -86661   -86589   -86547   -86564   -86594   -86589   -86593 
  -86609   -86528   -86463   -86539   -86611   -86611   -86620   -86655 
  -86668   -86621   -86571   -86594   -86633   -86641   -86659   -86628 
  -86535   -86529   -86597   -86595   -86548   -86529   -86535   -86566 
  -86601   -86583   -86574   -86620   -86668   -86687   -86622   -86543 
  -86602   -86656   -86590   -86583   -86641   -86651   -86630   -86562 
  -86516   -86605   -86670   -86611   -86580   -86601   -86575   -86540 
  -86559   -86559   -86540   -86611   -86683   -86652   -86655   -86679 
  -86618   -86559   -86562   -86603   -86644   -86665   -86670   -86625 
  -86622   -86674   -86593   -86467   -86491   -86582   -86656   -86703 
  -86628   -86490   -86471   -86564   -86618   -86587   -86603   -86713 
  -86765   -86686   -86560   -86520   -86583   -86636   -86632   -86579 
  -86524   -86567   -86628   -86630   -86637   -86607   -86568   -86559 
  -86503   -86508   -86613   -86644   -86620   -86625   -86607   -86572 
  -86578   -86633   -86674   -86655   -86661   -86692   -86663   -86617 
  -86564   -86524   -86571   -86597   -86562   -86595   -86634   -86587 
  -86579   -86645   -86643   -86599   -86621   -86641   -86661   -86678 
  -86633   -86609   -86610   -86594   -86613   -86626   -86599   -86574 
  -86549   -86547   -86574   -86587   -86599   -86611   -86618   -86621 
  -86607   -86601   -86611   -86616   -86591   -86564   -86576   -86597 
  -86607   -86638   -86652   -86621   -86624   -86637   -86595   -86533 
  -86514   -86606   -86692   -86641   -86616   -86640   -86607   -86606 
  -86634   -86598   -86535   -86544   -86614   -86641   -86626   -86625 
  -86640   -86663   -86603   -86503   -86551   -86630   -86595   -86620 
  -86682   -86626   -86580   -86579   -86567   -86643   -86730   -86703 
  -86657   -86590   -86463   -86440   -86536   -86613   -86645   -86645 
  -86651   -86649   -86610   -86595   -86590   -86562   -86621   -86721 
  -86690   -86582   -86545   -86539   -86522   -86560   -86613   -86613 
  -86594   -86597   -86645   -86671   -86637   -86598   -86597   -86626 
  -86630   -86611   -86613   -86637   -86648   -86575   -86545   -86645 
  -86665   -86594   -86576   -86567   -86556   -86575   -86587   -86617 
  -86660   -86657   -86633   -86622   -86603   -86589   -86620   -86633 
  -86571   -86521   -86566   -86643   -86676   -86674   -86661   -86621 
  -86532   -86485   -86533   -86594   -86621   -86641   -86668   -86690 
  -86661   -86621   -86598   -86574   -86593   -86630   -86599   -86532 
  -86510   -86533   -86563   -86621   -86680   -86690   -86676   -86644 
  -86594   -86567   -86566   -86590   -86606   -86602   -86653   -86683 
  -86601   -86545   -86591   -86626   -86597   -86589   -86624   -86607 
  -86590   -86603   -86552   -86536   -86622   -86663   -86652   -86638 
  -86613   -86621   -86628   -86601   -86584   -86595   -86602   -86576 
  -86566   -86583   -86584   -86574   -86616   -86698   -86697   -86641 
  -86632   -86590   -86540   -86560   -86557   -86537   -86560   -86594 
  -86625   -86645   -86628   -86602   -86621   -86633   -86613   -86621 
  -86643   -86599   -86533   -86562   -86643   -86659   -86643   -86644 
  -86649   -86609   -86525   -86501   -86548   -86610   -86676   -86697 
  -86671   -86663   -86667   -86670   -86648   -86587   -86556   -86551 
  -86540   -86537   -86535   -86557   -86584   -86545   -86495   -86520 
  -86571   -86548   -86456   -86429   -86479   -86522   -86597   -86706 
  -86746   -86718   -86687   -86633   -86571   -86603   -86665   -86667 
  -86656   -86621   -86605   -86672   -86719   -86730   -86773   -86778 
  -86737   -86701   -86637   -86582   -86545   -86491   -86528   -86663 
  -86701   -86680   -86728   -86698   -86553   -86466   -86408   -86360 
  -86412   -86440   -86424   -86501   -86587   -86589   -86598   -86678 
  -86769   -86795   -86741   -86665   -86622   -86611   -86618   -86609 
  -86609   -86682   -86721   -86625   -86553   -86599   -86625   -86594 
  -86571   -86478   -86359   -86406   -86520   -86567   -86664   -86734 
  -86703   -86752   -86834   -86806   -86749   -86670   -86559   -86506 
  -86514   -86574   -86606   -86544   -86541   -86634   -86626   -86530 
  -86533   -86580   -86568   -86553   -86548   -86551   -86548   -86530 
  -86618   -86788   -86822   -86744   -86756   -86809   -86767   -86672 
  -86564   -86493   -86540   -86574   -86460   -86409   -86564   -86630 
  -86520   -86520   -86618   -86660   -86671   -86572   -86378   -86355 
  -86532   -86651   -86655   -86640   -86661   -86771   -86894   -86853 
  -86668   -86584   -86683   -86730   -86644   -86540   -86456   -86441 
  -86472   -86513   -86607   -86687   -86611   -86460   -86441   -86587 
  -86741   -86721   -86576   -86587   -86729   -86751   -86690   -86668 
  -86676   -86715   -86733   -86603   -86400   -86378   -86559   -86641 
  -86555   -86505   -86493   -86462   -86512   -86603   -86549   -86470 
  -86624   -86826   -86779   -86594   -86548   -86701   -86844   -86814 
  -86695   -86593   -86518   -86517   -86630   -86768   -86802   -86719 
  -86606   -86530   -86505   -86556   -86645   -86655   -86578   -86520 
  -86530   -86618   -86728   -86733   -86626   -86541   -86548   -86579 
  -86589   -86567   -86481   -86410   -86444   -86549   -86645   -86676 
  -86688   -86659   -86543   -86501   -86583   -86598   -86544   -86587 
  -86706   -86772   -86728   -86606   -86524   -86556   -86663   -86664 
  -86514   -86427   -86418   -86497   -86773   -86942   -86761   -86562 
  -86584   -86617   -86520   -86493   -86601   -86634   -86607   -86703 
  -86742   -86580   -86543   -86707   -86730   -86645   -86726   -86859 
  -86784   -86595   -86541   -86532   -86432   -86381   -86420   -86427 
  -86439   -86594   -86792   -86832   -86776   -86782   -86782   -86679 
  -86580   -86575   -86580   -86576   -86614   -86638   -86602   -86583 
  -86598   -86578   -86591   -86624   -86551   -86528   -86647   -86610 
  -86379   -86355   -86562   -86636   -86603   -86678   -86692   -86518 
  -86467   -86613   -86632   -86598   -86676   -86659   -86617   -86701 
  -86686   -86661   -86873   -86999   -86800   -86567   -86424   -86350 
  -86451   -86653   -86765   -86733   -86621   -86601   -86695   -86664 
  -86463   -86362   -86418   -86509   -86637   -86732   -86688   -86597 
  -86548   -86556   -86595   -86549   -86508   -86647   -86765   -86717 
  -86694   -86722   -86645   -86493   -86393   -86375   -86421   -86528 
  -86664   -86742   -86802   -86876   -86805   -86656   -86633   -86645 
  -86566   -86463   -86508   -86751   -86891   -86771   -86688   -86740 
  -86715   -86602   -86463   -86420   -86597   -86714   -86541   -86383 
  -86424   -86454   -86390   -86354   -86409   -86478   -86478   -86447 
  -86455   -86454   -86394   -86390   -86512   -86621   -86671   -86771 
  -86907   -86911   -86811   -86844   -86937   -86865   -86698   -86610 
  -86664   -86721   -86724   -86853   -87026   -86984   -86842   -86778 
  -86683   -86518   -86432   -86490   -86551   -86483   -86382   -86354 
  -86323   -86313   -86432   -86540   -86482   -86472   -86643   -86737 
  -86682   -86630   -86613   -86630   -86597   -86428   -86308   -86391 
  -86563   -86678   -86794   -86941   -86919   -86748   -86644   -86529 
  -86389   -86379   -86427   -86468   -86562   -86667   -86742   -86699 
  -86533   -86482   -86568   -86597   -86645   -86813   -86904   -86838 
  -86701   -86544   -86498   -86568   -86613   -86602   -86545   -86486 
  -86530   -86657   -86782   -86921   -87048   -87057   -86907   -86659 
  -86471   -86425   -86373   -86350   -86525   -86699   -86690   -86629 
  -86533   -86366   -86351   -86580   -86738   -86691   -86633   -86574 
  -86456   -86432   -86490   -86452   -86346   -86327   -86476   -86622 
  -86559   -86486   -86580   -86664   -86714   -86794   -86792   -86660 
  -86478   -86404   -86532   -86725   -86815   -86819   -86833   -86857 
  -86784   -86657   -86682   -86790   -86825   -86864   -86864   -86744 
  -86649   -86555   -86328   -86151   -86124   -86109   -86259   -86638 
  -86907   -87031   -87162   -87138   -86954   -86776   -86513   -86242 
  -86198   -86273   -86305   -86358   -86470   -86602   -86717   -86706 
  -86524   -86441   -86586   -86678   -86609   -86517   -86467   -86495 
  -86555   -86516   -86429   -86460   -86547   -86568   -86607   -86729 
  -86895   -87034   -86995   -86783   -86555   -86333   -86209   -86309 
  -86483   -86630   -86795   -86863   -86838   -86819   -86736   -86664 
  -86714   -86795   -86803   -86626   -86390   -86393   -86570   -86675 
  -86665   -86657   -86755   -86856   -86810   -86674   -86568   -86512 
  -86497   -86521   -86566   -86555   -86394   -86205   -86142   -86178 
  -86317   -86605   -86840   -86803   -86640   -86564   -86493   -86394 
  -86436   -86605   -86803   -86989   -87069   -87035   -86890   -86668 
  -86562   -86636   -86725   -86676   -86578   -86549   -86503   -86449 
  -86476   -86528   -86598   -86709   -86706   -86567   -86503   -86474 
  -86437   -86575   -86686   -86595   -86574   -86571   -86468   -86431 
  -86452   -86510   -86671   -86822   -86814   -86659   -86545   -86601 
  -86749   -86823   -86780   -86778   -86818   -86752   -86637   -86506 
  -86387   -86435   -86559   -86583   -86514   -86406   -86391   -86548 
  -86721   -86756   -86734   -86736   -86617   -86402   -86329   -86437 
  -86613   -86768   -86868   -86964   -87021   -86879   -86629   -86525 
  -86562   -86536   -86404   -86296   -86278   -86302   -86360   -86471 
  -86582   -86653   -86711   -86711   -86622   -86593   -86672   -86714 
  -86609   -86429   -86429   -86614   -86710   -86660   -86610   -86667 
  -86792   -86857   -86864   -86852   -86701   -86431   -86300   -86363 
  -86491   -86644   -86729   -86671   -86602   -86663   -86688   -86568 
  -86543   -86632   -86667   -86688   -86672   -86607   -86636   -86698 
  -86652   -86576   -86535   -86506   -86580   -86726   -86771   -86719 
  -86633   -86549   -86493   -86425   -86383   -86408   -86429   -86437 
  -86487   -86528   -86505   -86505   -86575   -86655   -86718   -86682 
  -86553   -86514   -86549   -86566   -86589   -86597   -86641   -86737 
  -86713   -86590   -86605   -86771   -86871   -86815   -86698   -86576 
  -86502   -86557   -86691   -86761   -86707   -86607   -86547   -86570 
  -86699   -86769   -86671   -86595   -86633   -86661   -86616   -86536 
  -86483   -86476   -86520   -86580   -86572   -86532   -86576   -86629 
  -86614   -86634   -86661   -86636   -86610   -86551   -86451   -86359 
  -86312   -86298   -86317   -86486   -86713   -86802   -86837   -86792 
  -86606   -86478   -86505   -86638   -86767   -86737   -86683   -86741 
  -86759   -86715   -86679   -86618   -86628   -86691   -86653   -86575 
  -86529   -86472   -86424   -86428   -86525   -86621   -86618   -86616 
  -86599   -86512   -86547   -86691   -86707   -86625   -86591   -86622 
  -86672   -86711   -86773   -86827   -86811   -86711   -86574   -86533 
  -86535   -86448   -86412   -86476   -86548   -86633   -86626   -86522 
  -86536   -86602   -86574   -86611   -86728   -86690   -86536   -86524 
  -86684   -86749   -86630   -86560   -86621   -86649   -86579   -86541 
  -86603   -86675   -86736   -86776   -86718   -86568   -86422   -86417 
  -86493   -86485   -86490   -86553   -86564   -86583   -86656   -86732 
  -86779   -86755   -86634   -86459   -86367   -86428   -86516   -86556 
  -86624   -86697   -86737   -86764   -86725   -86653   -86624   -86564 
  -86516   -86564   -86648   -86705   -86675   -86616   -86634   -86622 
  -86559   -86560   -86551   -86508   -86493   -86505   -86560   -86605 
  -86572   -86521   -86528   -86621   -86718   -86761   -86809   -86819 
  -86751   -86664   -86587   -86567   -86620   -86630   -86594   -86589 
  -86582   -86572   -86616   -86657   -86597   -86464   -86424   -86533 
  -86640   -86633   -86594   -86595   -86620   -86661   -86659   -86516 
  -86374   -86440   -86603   -86737   -86861   -86860   -86726   -86621 
  -86551   -86481   -86489   -86593   -86663   -86653   -86660   -86679 
  -86674   -86663   -86645   -86678   -86736   -86670   -86557   -86539 
  -86491   -86394   -86437   -86559   -86584   -86586   -86599   -86602 
  -86648   -86667   -86668   -86706   -86661   -86579   -86529   -86454 
  -86459   -86587   -86703   -86776   -86849   -86852   -86748   -86668 
  -86663   -86674   -86656   -86601   -86598   -86613   -86518   -86375 
  -86354   -86491   -86622   -86641   -86586   -86526   -86505   -86467 
  -86456   -86560   -86667   -86699   -86710   -86713   -86733   -86792 
  -86759   -86571   -86482   -86541   -86562   -86616   -86691   -86695 
  -86742   -86776   -86703   -86616   -86580   -86571   -86540   -86543 
  -86580   -86526   -86485   -86601   -86679   -86661   -86686   -86680 
  -86603   -86555   -86556   -86574   -86599   -86643   -86670   -86664 
  -86668   -86656   -86641   -86648   -86610   -86544   -86547   -86584 
  -86572   -86562   -86590   -86575   -86551   -86599   -86671   -86721 
  -86722   -86671   -86624   -86599   -86628   -86663   -86587   -86541 
  -86617   -86665   -86710   -86763   -86717   -86652   -86653   -86641 
  -86566   -86506   -86513   -86513   -86506   -86571   -86660   -86640 
  -86518   -86436   -86472   -86528   -86517   -86528   -86582   -86570 
  -86564   -86656   -86671   -86553   -86512   -86574   -86605   -86620 
  -86670   -86692   -86697   -86737   -86745   -86656   -86587   -86630 
  -86678   -86648   -86638   -86663   -86634   -86620   -86675   -86711 
  -86717   -86691   -86603   -86514   -86501   -86544   -86576   -86620 
  -86744   -86813   -86707   -86644   -86705   -86676   -86567   -86530 
  -86564   -86587   -86564   -86547   -86583   -86626   -86643   -86671 
  -86683   -86625   -86555   -86513   -86533   -86611   -86628   -86607 
  -86691   -86768   -86679   -86579   -86607   -86617   -86556   -86524 
  -86510   -86512   -86594   -86659   -86653   -86680   -86692   -86632 
