Origin Time       2024/06/23 22:54:00
Lat.              35.645
Long.             140.060
Depth. (km)       72
Mag.              4.1
Station Code      TCGH14
Station Lat.      36.5509
Station Long.     139.6154
Station Height(m) 80
Record Time       2024/06/23 22:54:59
Sampling Freq(Hz) 100Hz
Duration Time(s)  120
Dir.              3
Scale Factor      2942(gal)/8224139
Max. Acc. (gal)   0.146
Last Correction   2024/06/23 22:54:59
Memo.             
[...]
 -211993  -211950  -211990  -212043  -212045  -211972  -211986  -212143 
 -212195  -212086  -212026  -212076  -212121  -212094  -212041  -212041 
 -212058  -211990  -211936  -212043  -212132  -212037  -211943  -211956 
 -212017  -212086  -212109  -212052  -211997  -212032  -212075  -212032 
 -212047  -212149  -212167  -212090  -211981  -211909  -211998  -212117 
 -212051  -211916  -211870  -211867  -211904  -212008  -212072  -212058 
 -212059  -212035  -211986  -212039  -212094  -212058  -212067  -212116 
 -212070  -212012  -212049  -212055  -211947  -211952  -212133  -212171 
 -212060  -212078  -212122  -212066  -212051  -212066  -212039  -212009 
 -211978  -211979  -212022  -212018  -212002  -212012  -211967  -211927 
 -211979  -212078  -212086  -212012  -212064  -212129  -212045  -212071 
 -212230  -212237  -212097  -211987  -211951  -211972  -212039  -212051 
 -211967  -211940  -212014  -212008  -211940  -211999  -212076  -212049 
 -212070  -212132  -212120  -212059  -211995  -212013  -212066  -212025 
 -211978  -212005  -211983  -211825  -211724  -211870  -212056  -212099 
 -212136  -212174  -212107  -212086  -212190  -212221  -212149  -212089 
 -212010  -211924  -211920  -211975  -212004  -211987  -211966  -211955 
 -211989  -212056  -212075  -212064  -212091  -212078  -211994  -212037 
 -212171  -212141  -212098  -212148  -212056  -211939  -212044  -212178 
 -212105  -211936  -211933  -212035  -211995  -211944  -212055  -212143 
 -212056  -211935  -211913  -211985  -212083  -212145  -212130  -212037 
 -211941  -211952  -212043  -212035  -211943  -211963  -212076  -212113 
 -212053  -212025  -212049  -212010  -211975  -212064  -212130  -212083 
 -212053  -212048  -211987  -211935  -211989  -212066  -212058  -212052 
 -212082  -212060  -211970  -211921  -212053  -212197  -212126  -212006 
 -211982  -211975  -211998  -212068  -212049  -211916  -211852  -211923 
 -212074  -212202  -212128  -212005  -212109  -212241  -212187  -212062 
 -211993  -211985  -211941  -211908  -211998  -212058  -211944  -211847 
 -211916  -212014  -212031  -212044  -212106  -212153  -212128  -212037 
 -211989  -212062  -212137  -212129  -212112  -212082  -212005  -211954 
 -211962  -211955  -211963  -212067  -212110  -211972  -211839  -211860 
 -212016  -212182  -212182  -212060  -212060  -212180  -212211  -212125 
 -212039  -212002  -211993  -211999  -212045  -212056  -211960  -211881 
 -211906  -211958  -212041  -212174  -212171  -212022  -211999  -212110 
 -212147  -212093  -212016  -212008  -212070  -212016  -211825  -211752 
 -211932  -212163  -212163  -211995  -211966  -212059  -212083  -212082 
 -212099  -212107  -212102  -212058  -211999  -211987  -212033  -212059 
 -212002  -211951  -212017  -212118  -212066  -211913  -211889  -211994 
 -212063  -212062  -212090  -212140  -212091  -211998  -212020  -212112 
 -212159  -212106  -211981  -211918  -211935  -211914  -211931  -212026 
 -212062  -212039  -212008  -212010  -212140  -212267  -212191  -211993 
 -211918  -212074  -212193  -211981  -211731  -211886  -212166  -212103 
 -211921  -211972  -212122  -212157  -212105  -211991  -211886  -211991 
 -212164  -212099  -211936  -211902  -211982  -212080  -212132  -212086 
 -211975  -211956  -212018  -212035  -212066  -212160  -212178  -212026 
 -211902  -212006  -212168  -212182  -212089  -211985  -211983  -212072 
 -212116  -212095  -212024  -211947  -211954  -211982  -211972  -212006 
 -212097  -212086  -211966  -211981  -212079  -211990  -211901  -212031 
 -212093  -211966  -211944  -212037  -212052  -212052  -212066  -211995 
 -211951  -212021  -212128  -212194  -212105  -211955  -211994  -212091 
 -212045  -211987  -212047  -212102  -212010  -211932  -212041  -212164 
 -212098  -211985  -212009  -212055  -212039  -212018  -212049  -212110 
 -212075  -211959  -211933  -211990  -211986  -211904  -211859  -211931 
 -212072  -212140  -212082  -212097  -212210  -212141  -212012  -212134 
 -212222  -212039  -211935  -212049  -212059  -211897  -211867  -211990 
 -212021  -212004  -212076  -212149  -212107  -212021  -211997  -212052 
 -212149  -212126  -211966  -211944  -212052  -211971  -211823  -211924 
 -212107  -212122  -212062  -211985  -211874  -211905  -212126  -212222 
 -212093  -211999  -212031  -212094  -212098  -212053  -212066  -212097 
 -212090  -212033  -211974  -212022  -212070  -212055  -212045  -211950 
 -211863  -211998  -212168  -212095  -211927  -211966  -212124  -212107 
 -211991  -211991  -212039  -212056  -212067  -212028  -212005  -212080 
 -212157  -212120  -211990  -211939  -211993  -211977  -211990  -212144 
 -212144  -211925  -211905  -212164  -212251  -212055  -211948  -212058 
 -212089  -211920  -211866  -212064  -212130  -211936  -211904  -212089 
 -212116  -212016  -212017  -212020  -211979  -212041  -212137  -212091 
 -211979  -211945  -211982  -212048  -212089  -212055  -211985  -211944 
 -212021  -212145  -212126  -212026  -211986  -211979  -212002  -212006 
 -211956  -211991  -212086  -212022  -211878  -211927  -212117  -212193 
 -212140  -212075  -212004  -211959  -212004  -212053  -212041  -212035 
 -212017  -211979  -212055  -212143  -211987  -211842  -212035  -212182 
 -212010  -211951  -212133  -212166  -212029  -211981  -212013  -212047 
 -212063  -212072  -212132  -212155  -212068  -212005  -212013  -212060 
 -212132  -212095  -211937  -211891  -211982  -211982  -211948  -212014 
 -212006  -211951  -212053  -212076  -211900  -211948  -212210  -212206 
 -212006  -211983  -212098  -212120  -212072  -212055  -212035  -212002 
 -211985  -212009  -212062  -212060  -212017  -211977  -211943  -212010 
 -212164  -212186  -212049  -211989  -212072  -212098  -212013  -211958 
 -212009  -212063  -211970  -211873  -211983  -212093  -212035  -211977 
 -211971  -212008  -212113  -212187  -212134  -212035  -211999  -212009 
 -211981  -211967  -212048  -212095  -212032  -212008  -212029  -212005 
 -211995  -212033  -212010  -211950  -212010  -212124  -212107  -212026 
 -211983  -211990  -212087  -212190  -212122  -211993  -212006  -212064 
 -212058  -212058  -212094  -212101  -212028  -211971  -212024  -212098 
 -212112  -212064  -212006  -212029  -212106  -212118  -212025  -211887 
 -211833  -211897  -211975  -212047  -212093  -212018  -211948  -212075 
 -212184  -212059  -211962  -212039  -212056  -211997  -212017  -212048 
 -212035  -212033  -212028  -212021  -212032  -212025  -212031  -212103 
 -212164  -212101  -212008  -212014  -212031  -211959  -211912  -211974 
 -212018  -212002  -211999  -212014  -212032  -212060  -212082  -212060 
 -212039  -212079  -212118  -212063  -211947  -211939  -212076  -212128 
 -212035  -211975  -212002  -212080  -212134  -212124  -212134  -212149 
 -212067  -211978  -211986  -212048  -212110  -212072  -211956  -212001 
 -212128  -212041  -211850  -211809  -211898  -211977  -212020  -212043 
 -211989  -211948  -212039  -212103  -212109  -212221  -212280  -212076 
 -211870  -211952  -212147  -212153  -212016  -211951  -211931  -211856 
 -211858  -211979  -212068  -212087  -212109  -212128  -212083  -212008 
 -212022  -212110  -212122  -212091  -212078  -212033  -212014  -212039 
 -211997  -211923  -211921  -211975  -212035  -212071  -212063  -212064 
 -212102  -212120  -212133  -212136  -212063  -212012  -212060  -212068 
 -211990  -211970  -212025  -212036  -212004  -211995  -212022  -212082 
 -212134  -212068  -211948  -211995  -212090  -211991  -211914  -212032 
 -212087  -212006  -212026  -212116  -212091  -212040  -212068  -212044 
 -211913  -211905  -212051  -212079  -211972  -211936  -211983  -212024 
 -212021  -212028  -212118  -212194  -212130  -212072  -212082  -212024 
 -211977  -212018  -212039  -212029  -212020  -211977  -211955  -212025 
 -212090  -212075  -212048  -212024  -212029  -212106  -212134  -212031 
 -211929  -211941  -212002  -212025  -212004  -211985  -212016  -212068 
 -212062  -212017  -212008  -212017  -212072  -212152  -212064  -211918 
 -212013  -212172  -212087  -211954  -212043  -212121  -211983  -211902 
 -212045  -212151  -212067  -211982  -212013  -212058  -212018  -211931 
 -211943  -212066  -212101  -211986  -211925  -212028  -212153  -212168 
 -212091  -212004  -211997  -212064  -212058  -211967  -211960  -212017 
 -212009  -212001  -212037  -212098  -212174  -212166  -212083  -212080 
 -212085  -211994  -212002  -212103  -212055  -211933  -211921  -211982 
 -212048  -212067  -212017  -211999  -212040  -212058  -212047  -212024 
 -211974  -211998  -212140  -212184  -212078  -212020  -212022  -211975 
 -211943  -212004  -212074  -212022  -211906  -211909  -211982  -212020 
 -212101  -212143  -212070  -212078  -212130  -212062  -212013  -212056 
 -212049  -211979  -211923  -211918  -211981  -212001  -211974  -212024 
 -212090  -212085  -212070  -212068  -212117  -212167  -212117  -212083 
 -212151  -212151  -212024  -211975  -212049  -212051  -211972  -211936 
 -211909  -211896  -211947  -212013  -212026  -212014  -212020  -212008 
 -211947  -211951  -212120  -212249  -212141  -212006  -212036  -212079 
 -212031  -212004  -212037  -212058  -212063  -212067  -212055  -212058 
 -212071  -212044  -212016  -212025  -212029  -212028  -212041  -212040 
 -212031  -212039  -212062  -212070  -212047  -212029  -211995  -211939 
 -211925  -211920  -211902  -211955  -212043  -212052  -212014  -212022 
 -212062  -212109  -212149  -212117  -212089  -212168  -212221  -212143 
 -212056  -212060  -212114  -212110  -212006  -211977  -212039  -212004 
 -211966  -212031  -212044  -211986  -211963  -211962  -211935  -211937 
 -212039  -212121  -212045  -211947  -211995  -212085  -212041  -211929 
 -211894  -211963  -212051  -212016  -211928  -211999  -212103  -212055 
 -212024  -212091  -212113  -212097  -212137  -212197  -212172  -212140 
 -212190  -212160  -212017  -211962  -212016  -212031  -211987  -211951 
 -211928  -211920  -211921  -211918  -211993  -212109  -212112  -212098 
 -212183  -212209  -212105  -212016  -212005  -211958  -211883  -211977 
 -212117  -212045  -211944  -211995  -212020  -211974  -212001  -212074 
 -212093  -212043  -211931  -211875  -211991  -212093  -212051  -212010 
 -211966  -211939  -212087  -212210  -212099  -212001  -212020  -212009 
 -211983  -212008  -212002  -211975  -212070  -212221  -212264  -212255 
 -212220  -212120  -212047  -212016  -211933  -211889  -211985  -212053 
 -211962  -211916  -211991  -211993  -211967  -212029  -212058  -212029 
 -212078  -212141  -212055  -211931  -211936  -211963  -211944  -212063 
 -212291  -212288  -212083  -212004  -211971  -211885  -211993  -212174 
 -212110  -211995  -212024  -212025  -211960  -211983  -212067  -212026 
 -211914  -211898  -211933  -211920  -211869  -211890  -212056  -212197 
 -212164  -212112  -212107  -212067  -212047  -212071  -212089  -212141 
 -212174  -212079  -211968  -211967  -212005  -211977  -211963  -212103 
 -212302  -212313  -212101  -211878  -211843  -211932  -211985  -212018 
 -212066  -212009  -211863  -211843  -211978  -212086  -212106  -212101 
 -212118  -212134  -212083  -212010  -211986  -211977  -212005  -212101 
 -212145  -212078  -211994  -211931  -211855  -211809  -211874  -212017 
 -212048  -211940  -211933  -212029  -212008  -211993  -212187  -212375 
 -212345  -212247  -212209  -212222  -212255  -212225  -212112  -212031 
 -212032  -211990  -211890  -211889  -211936  -211883  -211832  -211858 
 -211893  -211939  -211989  -212008  -212058  -212132  -212087  -211963 
 -211939  -211986  -212001  -212055  -212152  -212147  -212048  -211985 
 -211989  -212010  -211967  -211923  -212026  -212187  -212233  -212201 
 -212140  -212049  -211986  -211943  -211905  -211944  -211994  -212018 
 -212105  -212153  -212097  -212037  -212002  -212009  -212083  -212153 
 -212126  -212070  -212116  -212140  -211981  -211855  -211924  -212032 
 -212083  -212028  -211881  -211856  -211998  -212106  -212078  -211987 
 -211962  -211998  -212041  -212082  -212094  -212120  -212149  -212047 
 -211908  -211939  -212005  -211921  -211828  -211886  -212018  -212095 
 -212091  -212071  -212145  -212215  -212122  -212064  -212164  -212172 
 -212095  -212160  -212215  -212129  -212083  -212056  -211943  -211855 
 -211844  -211858  -211886  -211933  -211993  -212055  -212078  -212001 
 -211921  -212002  -212128  -212149  -212163  -212241  -212203  -211975 
 -211840  -211904  -211948  -211967  -212044  -212074  -212043  -212087 
 -212144  -212068  -212009  -212071  -212079  -212040  -212106  -212159 
 -212049  -211923  -211927  -211970  -211975  -211997  -212063  -212149 
 -212202  -212143  -212002  -211916  -211981  -212095  -212032  -211932 
 -212029  -212086  -211981  -211948  -212017  -212002  -211958  -212080 
 -212193  -212055  -211914  -211986  -212067  -212074  -212129  -212174 
 -212093  -211986  -211999  -212109  -212164  -212078  -211959  -211959 
 -212031  -212045  -212008  -211951  -211882  -211856  -211897  -211909 
 -211860  -211836  -211879  -211958  -212010  -212026  -212068  -212139 
 -212207  -212259  -212255  -212188  -212120  -212080  -212066  -212067 
 -212099  -212194  -212284  -212213  -212063  -212080  -212174  -212113 
 -211977  -211910  -211891  -211906  -211954  -212001  -212001  -211928 
 -211858  -211852  -211839  -211805  -211852  -211936  -211966  -212033 
 -212160  -212170  -212060  -212024  -212041  -212010  -211997  -212039 
 -212110  -212207  -212244  -212209  -212206  -212215  -212201  -212159 
 -212060  -211979  -211983  -211978  -211940  -211951  -211945  -211851 
 -211777  -211816  -211875  -211852  -211863  -211975  -212094  -212255 
 -212421  -212442  -212363  -212260  -212152  -212102  -212089  -212029 
 -211920  -211815  -211815  -211941  -212044  -211994  -211923  -211971 
 -212039  -212076  -212149  -212143  -212017  -211987  -212070  -212079 
 -212052  -212097  -212140  -212082  -211968  -211878  -211837  -211866 
 -211929  -211966  -211990  -212004  -211978  -211890  -211792  -211802 
 -211931  -212098  -212247  -212294  -212224  -212136  -212103  -212101 
 -212091  -212041  -211971  -211964  -212028  -212075  -212082  -212071 
 -212064  -212048  -212031  -212079  -212199  -212290  -212306  -212274 
 -212214  -212176  -212182  -212132  -211999  -211904  -211828  -211739 
 -211739  -211823  -211891  -211943  -211998  -212017  -211991  -211950 
 -211901  -211913  -212022  -212114  -212107  -212049  -212014  -212013 
 -211989  -211958  -211974  -212017  -212062  -212063  -212006  -211991 
 -212039  -212058  -212090  -212174  -212191  -212156  -212190  -212249 
 -212278  -212247  -212103  -211952  -211902  -211889  -211864  -211851 
 -211896  -211997  -212035  -211987  -211970  -211974  -211963  -211994 
 -212052  -212103  -212132  -212120  -212102  -212085  -212041  -211968 
 -211864  -211781  -211763  -211835  -212020  -212175  -212191  -212210 
 -212290  -212271  -212136  -212094  -212187  -212236  -212202  -212195 
 -212221  -212174  -212031  -211898  -211866  -211886  -211874  -211862 
 -211917  -211999  -212072  -212124  -212076  -211979  -211968  -211979 
 -211916  -211873  -211912  -211993  -212097  -212186  -212130  -211939 
 -211877  -211997  -212067  -212075  -212093  -212047  -211997  -212072 
 -212175  -212197  -212176  -212112  -211963  -211810  -211734  -211738 
 -211839  -211967  -212016  -212012  -212013  -212039  -212129  -212242 
 -212268  -212225  -212240  -212271  -212191  -212072  -212014  -211975 
 -211935  -211909  -211896  -211914  -212008  -212124  -212156  -212109 
 -212049  -212035  -212076  -212099  -212098  -212099  -212029  -211939 
 -211947  -212006  -212064  -212090  -212005  -211871  -211860  -211955 
 -211977  -211950  -212037  -212157  -212156  -212095  -212044  -211979 
 -211914  -211894  -211902  -211948  -212071  -212168  -212145  -212102 
 -212098  -212026  -211917  -211944  -212045  -212048  -212058  -212122 
 -212107  -212074  -212124  -212137  -212055  -212010  -212041  -212033 
 -212009  -212070  -212113  -212051  -212028  -212087  -212109  -212072 
 -211989  -211890  -211890  -211990  -212095  -212103  -211982  -211893 
 -211962  -212070  -212107  -212105  -212087  -212048  -212006  -211948 
 -211921  -212005  -212078  -211999  -211913  -211941  -211979  -211987 
 -212026  -212062  -212114  -212210  -212226  -212148  -212093  -212094 
 -212113  -212094  -212026  -211972  -211964  -211975  -211982  -211983 
 -211979  -212010  -212075  -212067  -212014  -212043  -212118  -212121 
 -212024  -211951  -211997  -212047  -212022  -211972  -211923  -211894 
 -211925  -212009  -212051  -212018  -212001  -212045  -212125  -212202 
 -212215  -212188  -212172  -212106  -211993  -211960  -212021  -212037 
 -211989  -212018  -212097  -212060  -211983  -211993  -212002  -211963 
 -211952  -211955  -211939  -211975  -212001  -211932  -211940  -212078 
 -212148  -212134  -212156  -212190  -212187  -212141  -212079  -212053 
 -212032  -211966  -211927  -211945  -211948  -211968  -212039  -212067 
 -212025  -211978  -211974  -212014  -212085  -212176  -212220  -212179 
 -212106  -212024  -211948  -211914  -211923  -211966  -212008  -212004 
 -211977  -211966  -211970  -212012  -212080  -212079  -212008  -211986 
 -212029  -212062  -212076  -212117  -212152  -212134  -212082  -212062 
 -212107  -212110  -212029  -212025  -212102  -212090  -212010  -211977 
 -211970  -211977  -212008  -211991  -211948  -211968  -211999  -211989 
 -211968  -211964  -211986  -212009  -212026  -212045  -212060  -212085 
 -212103  -212052  -212001  -212051  -212076  -212013  -212008  -212072 
 -212078  -212055  -212095  -212113  -212049  -211986  -211956  -211967 
 -212036  -212122  -212136  -212043  -211963  -211972  -212005  -212016 
 -212012  -212010  -212049  -212125  -212144  -212059  -212006  -212083 
 -212184  -212194  -212160  -212152  -212120  -212037  -211968  -211951 
 -211968  -211958  -211898  -211889  -211940  -211952  -211952  -211997 
 -212001  -211947  -211931  -211975  -212033  -212062  -212032  -212004 
 -212039  -212067  -212055  -212079  -212112  -212085  -212047  -212058 
 -212109  -212137  -212110  -212090  -212090  -212075  -212035  -211997 
 -212016  -212093  -212145  -212139  -212129  -212113  -212072  -212074 
 -212113  -212121  -212093  -211999  -211869  -211835  -211923  -212006 
 -212006  -211971  -211952  -211925  -211901  -211935  -211977  -211964 
 -211968  -212032  -212095  -212113  -212079  -212017  -211979  -212009 
 -212067  -212083  -212087  -212101  -212090  -212080  -212097  -212085 
 -212029  -211999  -212032  -212083  -212107  -212093  -212037  -211955 
 -211891  -211918  -212002  -212005  -211978  -212028  -212039  -211954 
 -211939  -212048  -212144  -212148  -212109  -212089  -212091  -212097 
 -212083  -212078  -212112  -212140  -212159  -212180  -212136  -212035 
 -211982  -211998  -211997  -211963  -211994  -212056  -212026  -211960 
 -211963  -212016  -212026  -211982  -211963  -211999  -212036  -212045 
 -212058  -212049  -212006  -212009  -212056  -212044  -211999  -212013 
 -212032  -212013  -212018  -212029  -212005  -212005  -212010  -211971 
 -211924  -211916  -211940  -211981  -212047  -212090  -212048  -212005 
 -212039  -212074  -212068  -212098  -212164  -212168  -212090  -212036 
 -212048  -212074  -212075  -212060  -212048  -212045  -212051  -212063 
 -212074  -212089  -212097  -212068  -212026  -212004  -212001  -212022 
 -212037  -212013  -211956  -211925  -211967  -212014  -211995  -211944 
 -211923  -211977  -212064  -212089  -212063  -212066  -212093  -212075 
