Origin Time       2024/06/23 22:54:00
Lat.              35.645
Long.             140.060
Depth. (km)       72
Mag.              4.1
Station Code      TCGH08
Station Lat.      36.8828
Station Long.     139.6459
Station Height(m) 499
Record Time       2024/06/23 22:55:07
Sampling Freq(Hz) 100Hz
Duration Time(s)  120
Dir.              1
Scale Factor      2942(gal)/8224139
Max. Acc. (gal)   0.165
Last Correction   2024/06/23 22:55:07
Memo.             
[...]
   24054    24063    24028    24016    24030    24013    24012    24043 
   24067    24089    24073    23998    23938    23939    23980    24035 
   24079    24085    24048    24011    23998    24015    24061    24098 
   24077    24013    23962    23969    24023    24027    23981    23988 
   24020    24028    24071    24123    24106    24057    24011    24004 
   24035    24019    23980    23992    24009    24011    24024    24036 
   24038    24043    24059    24071    24063    24039    24016    24011 
   24040    24078    24075    24054    24054    24055    24028    23990 
   23967    23966    24004    24048    24044    24020    24034    24058 
   24044    24031    24043    24035    23992    23970    23992    23992 
   23969    23990    24024    24021    24017    24036    24051    24038 
   24038    24061    24062    24052    24069    24077    24031    23980 
   23998    24038    24030    24034    24071    24071    24020    23986 
   23986    23981    23981    24001    24027    24071    24106    24102 
   24090    24075    24048    24025    24009    23992    23998    24023 
   24016    23981    23982    24025    24034    23992    23984    24032 
   24075    24082    24073    24050    24019    24004    24008    24020 
   24040    24051    24042    24035    24047    24039    24008    24004 
   24015    24008    24012    24030    24039    24052    24047    24007 
   24004    24050    24057    24038    24046    24048    24036    24040 
   24039    24021    24019    24027    24016    24004    24008    24011 
   23993    23978    23982    23992    24030    24098    24111    24058 
   24019    24015    24012    24003    24005    24016    24028    24040 
   24039    24025    24015    24016    24031    24047    24042    24016 
   24011    24025    24032    24036    24043    24042    24038    24034 
   24032    24050    24066    24055    24035    24003    23974    23985 
   24017    24039    24047    24052    24061    24043    24013    24020 
   24021    23998    24023    24058    24024    23984    24007    24043 
   24047    24043    24050    24055    24055    24048    24046    24052 
   24047    24057    24093    24084    24024    23986    23951    23901 
   23904    23973    24031    24032    24031    24052    24063    24065 
   24067    24065    24077    24104    24098    24054    24008    23977 
   23966    23969    23965    23990    24059    24096    24088    24077 
   24046    24003    23982    23978    23970    23973    24005    24028 
   24025    24040    24063    24057    24038    24016    23981    23970 
   24005    24048    24066    24065    24055    24048    24067    24070 
   24017    23989    24019    24046    24062    24073    24058    24023 
   23996    23990    23998    24009    24016    24019    24034    24063 
   24086    24079    24035    23996    24001    24031    24065    24077 
   24059    24036    24008    23971    23976    24000    24005    24005 
   24005    24012    24024    24020    24009    24016    24042    24065 
   24074    24067    24039    24004    24003    24042    24067    24054 
   24035    24028    24025    24021    24021    24024    24024    24031 
   24039    24042    24052    24052    24027    24003    23982    23976 
   24012    24058    24067    24057    24020    23969    23953    23980 
   24019    24039    24059    24092    24085    24042    24031    24040 
   24032    24021    24024    24044    24065    24040    23994    23981 
   23978    23977    24021    24085    24104    24085    24052    24000 
   23963    23992    24036    24048    24042    24046    24073    24092 
   24055    23993    23978    23998    24003    24012    24046    24054 
   24019    23988    23998    24023    24046    24078    24085    24059 
   24040    24038    24032    24023    24004    23970    23973    24039 
   24088    24059    24016    24011    24007    24003    24030    24054 
   24028    24003    24027    24061    24061    24036    24021    24025 
   24034    24043    24048    24040    24012    23976    23982    24044 
   24086    24063    24034    24039    24031    24005    24024    24051 
   24024    23990    24008    24040    24043    24038    24039    24023 
   24011    24025    24042    24047    24036    24023    24021    24017 
   24020    24030    24011    24005    24040    24058    24040    24013 
   24001    24015    24040    24057    24058    24047    24028    24012 
   24007    24015    24035    24048    24055    24058    24046    24027 
   24008    23978    23962    23981    24020    24047    24043    24031 
   24039    24050    24048    24043    24012    23973    23963    23992 
   24046    24092    24090    24065    24050    24040    24032    24034 
   24032    24017    24017    24032    24013    23984    23990    24003 
   24011    24031    24042    24040    24034    24020    24027    24054 
   24066    24055    24054    24061    24050    24035    24031    24013 
   24000    24015    24023    24013    24013    24008    23985    23984 
   24005    24032    24065    24075    24058    24063    24092    24092 
   24057    24028    24024    24023    23998    23974    23966    23971 
   23998    24032    24034    24019    24015    24009    24012    24036 
   24063    24082    24102    24109    24075    24038    24027    24015 
   24007    24020    24025    24012    24012    24017    24000    23977 
   23982    24013    24052    24089    24086    24054    24040    24038 
   24009    23980    23986    24013    24034    24046    24047    24039 
   24020    23978    23944    23965    24032    24079    24094    24104 
   24096    24063    24020    23989    23982    23976    23988    24031 
   24040    24013    24004    24009    24023    24047    24071    24089 
   24077    24044    24032    24036    24035    24038    24028    24003 
   23981    23974    23984    24004    24027    24058    24073    24062 
   24069    24085    24069    24054    24067    24074    24057    24043 
   24035    24015    23988    23965    23940    23938    23971    24011 
   24039    24054    24046    24034    24030    24027    24034    24047 
   24063    24075    24062    24039    24036    24036    24020    24000 
   23989    23994    24017    24039    24038    24017    24005    24019 
   24035    24035    24032    24042    24062    24069    24061    24050 
   24027    24007    24005    24005    24011    24024    24027    24030 
   24040    24042    24052    24071    24057    24015    23997    24007 
   23993    23970    23988    24003    23981    23988    24035    24065 
   24081    24086    24071    24059    24051    24044    24050    24058 
   24061    24048    24023    23994    23959    23944    23969    24000 
   24025    24043    24038    24038    24059    24058    24047    24058 
   24061    24052    24046    24031    24027    24039    24032    24013 
   24016    24032    24043    24047    24030    23993    23977    23993 
   24015    24036    24052    24046    24030    24025    24021    24013 
   24005    23998    24004    24024    24035    24019    24016    24031 
   24031    24044    24077    24092    24085    24066    24043    24023 
   23993    23962    23944    23935    23949    23990    24040    24074 
   24081    24082    24075    24046    24019    24024    24036    24034 
   24036    24057    24074    24057    24017    24009    24036    24055 
   24036    24004    23994    24000    23993    23984    24003    24040 
   24061    24063    24065    24052    24032    24024    24015    24016 
   24028    24027    24027    24038    24030    24005    23989    23982 
   23988    24023    24078    24094    24065    24043    24036    24009 
   23993    24034    24082    24081    24058    24047    24036    24015 
   23997    23994    23998    24001    23998    24008    24027    24038 
   24035    24030    24034    24039    24034    24034    24052    24071 
   24059    24028    24015    24024    24034    24032    24024    24004 
   23992    23996    23996    24001    24015    24011    24003    24005 
   24001    24028    24084    24105    24089    24066    24039    24013 
   23998    23996    24011    24028    24023    23992    23985    24016 
   24035    24034    24051    24088    24112    24113    24111    24106 
   24077    24020    23978    23976    23978    23984    23998    24007 
   24004    24007    24015    24008    24008    24042    24071    24063 
   24046    24048    24063    24061    24042    24036    24044    24021 
   23985    23981    23976    23953    23957    23985    24012    24036 
   24051    24058    24059    24048    24044    24061    24079    24065 
   24035    24031    24028    24019    24031    24047    24058    24066 
   24063    24051    24030    24009    24007    24009    24013    24016 
   24012    24008    24001    23996    24013    24035    24039    24058 
   24088    24090    24070    24046    24023    24012    24024    24036 
   24020    24008    24025    24028    24005    24003    24025    24047 
   24054    24046    24034    24015    24012    24032    24027    24005 
   24001    24000    23992    23990    24000    24025    24048    24042 
   24024    24027    24042    24040    24039    24059    24074    24062 
   24055    24057    24039    24013    24009    24034    24054    24063 
   24069    24048    23998    23976    23985    23986    23984    24007 
   24035    24046    24048    24051    24040    24023    24021    24025 
   24020    24017    24015    24021    24035    24038    24032    24028 
   24024    24015    24008    24027    24055    24059    24050    24038 
   23996    23953    23961    23986    24007    24048    24077    24071 
   24067    24079    24089    24063    24031    24031    24043    24052 
   24055    24038    24017    24012    24008    24012    24030    24042 
   24039    24034    24028    24025    24034    24039    24032    24035 
   24050    24062    24070    24079    24085    24070    24051    24036 
   24003    23974    23982    24005    24012    24008    24011    24024 
   24043    24059    24057    24048    24067    24069    24023    23996 
   24003    23997    23990    23998    23988    23951    23923    23928 
   23944    23950    23978    24034    24058    24051    24069    24084 
   24057    24038    24054    24077    24092    24097    24100    24079 
   24039    24017    24020    24024    24008    23973    23955    23965 
   23967    23969    23993    24015    24009    23996    24008    24039 
   24054    24054    24058    24058    24047    24059    24106    24136 
   24139    24142    24119    24074    24067    24084    24073    24048 
   24043    24035    23994    23950    23926    23907    23893    23897 
   23915    23927    23928    23962    23998    24008    24058    24133 
   24129    24071    24039    24030    24023    24025    24032    24027 
   24025    24035    24027    24020    24034    24019    23973    23966 
   24017    24085    24131    24123    24062    24019    24016    24012 
   24023    24055    24088    24106    24092    24051    24016    23984 
   23950    23947    23978    24000    23985    23967    24003    24070 
   24102    24086    24069    24089    24115    24089    24042    24021 
   23992    23931    23896    23924    24007    24097    24140    24170 
   24202    24163    24082    24044    24015    23982    23994    24020 
   23989    23928    23911    23935    23959    23970    23977    23965 
   23946    23953    23974    23988    24013    24059    24088    24074 
   24052    24071    24131    24197    24255    24282    24229    24104 
   23993    23939    23924    23954    24005    24017    23982    23953 
   23958    23977    23998    24025    24042    24035    24016    24005 
   24008    24034    24069    24071    24032    23970    23920    23934 
   24005    24079    24132    24162    24147    24079    24023    24024 
   24039    24031    24027    24011    23959    23916    23907    23917 
   23940    23982    24036    24061    24054    24066    24085    24066 
   24028    24005    23990    23990    24027    24067    24088    24100 
   24111    24112    24079    24023    24008    24050    24094    24101 
   24069    24024    23985    23949    23926    23927    23951    23990 
   24028    24061    24074    24055    24032    24038    24066    24088 
   24084    24073    24088    24105    24066    23996    23954    23917 
   23888    23919    23985    24005    23990    24016    24063    24082 
   24113    24159    24162    24129    24079    24019    23963    23916 
   23901    23944    24019    24074    24071    24013    23984    24019 
   24057    24051    23998    23938    23928    23966    24009    24044 
   24079    24109    24117    24075    23993    23957    23993    24013 
   24005    24019    24039    24039    24048    24100    24166    24179 
   24146    24123    24112    24081    24040    24043    24073    24057 
   23981    23903    23859    23854    23886    23939    23982    24020 
   24047    24061    24079    24098    24096    24094    24094    24062 
   24016    23984    23954    23931    23942    23976    23996    24019 
   24039    24025    23998    23969    23938    23944    23958    23938 
   23939    23986    24039    24109    24158    24131    24108    24152 
   24208    24206    24166    24113    24044    23992    24007    24077 
   24143    24169    24158    24140    24092    23989    23862    23764 
   23735    23776    23835    23874    23880    23866    23881    23940 
   23994    24046    24116    24182    24260    24352    24406    24406 
   24349    24285    24258    24204    24090    23978    23876    23765 
   23664    23608    23623    23680    23723    23733    23750    23812 
   23896    24007    24150    24290    24410    24489    24471    24378 
   24267    24140    23993    23881    23841    23854    23922    24027 
   24138    24244    24310    24275    24154    23997    23834    23711 
   23661    23674    23734    23827    23928    23998    24025    24067 
   24155    24232    24270    24283    24258    24194    24129    24106 
   24106    24057    23973    23950    23974    23982    23970    23955 
   23953    23958    23944    23936    23955    23982    24019    24059 
   24074    24062    24034    24025    24074    24115    24096    24059 
   24020    23969    23920    23904    23939    24009    24078    24109 
   24100    24074    24024    23965    23944    23971    24028    24085 
   24092    24069    24062    24067    24048    24001    23969    23988 
   24035    24102    24185    24229    24212    24150    24063    23990 
   23930    23853    23787    23793    23886    23984    24024    24042 
   24066    24081    24065    24054    24069    24071    24038    23990 
   23955    23955    24007    24088    24124    24100    24086    24096 
   24081    24063    24081    24119    24156    24173    24138    24082 
   24048    24008    23931    23863    23838    23842    23865    23857 
   23812    23815    23882    23939    23974    24039    24104    24123 
   24138    24166    24182    24192    24190    24151    24108    24085 
   24054    24023    24031    24061    24077    24088    24082    24052 
   24016    23989    23992    24015    24013    24000    24007    23986 
   23913    23861    23853    23847    23818    23769    23758    23839 
   23992    24170    24325    24416    24418    24341    24232    24132 
   24047    23962    23878    23847    23882    23935    23982    24057 
   24148    24209    24210    24178    24129    24055    23988    23946 
   23923    23930    23944    23931    23909    23916    23961    24030 
   24101    24142    24121    24065    24000    23954    23966    23998 
   24023    24057    24070    24036    24012    24043    24078    24078 
   24085    24108    24081    24025    24003    24003    24025    24089 
   24140    24127    24067    24017    23989    23958    23951    23986 
   24019    24031    24034    24038    24043    24031    24004    23982 
   23951    23928    23954    24009    24032    24015    24005    24020 
   24013    23977    23950    23943    23946    23973    24030    24093 
   24138    24152    24121    24050    24012    24038    24073    24081 
   24059    24039    24050    24075    24093    24085    24024    23947 
   23924    23953    23981    24001    24030    24061    24077    24094 
   24105    24089    24063    24051    24050    24027    23986    23959 
   23936    23935    23986    24047    24071    24051    24017    24011 
   24012    23986    23962    23959    23963    23966    23981    24015 
   24063    24115    24146    24159    24165    24155    24135    24104 
   24054    23992    23940    23904    23881    23889    23932    24000 
   24071    24139    24193    24185    24093    23981    23905    23886 
   23917    23973    24042    24108    24127    24088    24044    24027 
   24023    24028    24036    24038    24035    24008    23943    23890 
   23881    23903    23953    24019    24098    24171    24209    24206 
   24175    24136    24090    24032    23993    23973    23943    23938 
   23989    24046    24067    24069    24059    24039    24008    23984 
   23977    23982    24001    24027    24031    24025    24048    24078 
   24082    24067    24036    23998    23984    23988    23993    23993 
   23971    23936    23924    23953    24004    24044    24047    24036 
   24039    24039    24042    24069    24106    24127    24131    24124 
   24104    24088    24096    24104    24089    24062    24023    24008 
   24030    24038    24024    24016    24013    24012    23998    23974 
   23966    23988    24020    24027    23998    23970    23947    23917 
   23911    23953    24013    24061    24088    24078    24055    24058 
   24063    24042    24008    23984    23951    23919    23927    23980 
   24039    24081    24096    24081    24043    24004    23990    24001 
   24012    24032    24073    24106    24128    24158    24181    24175 
   24133    24070    24027    24025    24039    24042    24052    24065 
   24051    24015    23967    23935    23939    23947    23961    24016 
   24054    24027    24007    24015    24009    24005    24039    24081 
   24081    24036    23974    23928    23909    23916    23958    24027 
   24088    24100    24055    24000    23974    23973    23990    24017 
   24034    24032    24019    24016    24051    24106    24127    24104 
   24061    24019    23994    23993    24005    24019    24025    24031 
   24034    24036    24042    24050    24057    24055    24048    24052 
   24062    24070    24073    24058    24027    24017    24044    24088 
   24108    24093    24078    24066    24031    23986    23958    23942 
   23915    23900    23946    24016    24062    24094    24105    24092 
   24093    24116    24120    24094    24069    24043    24008    23981 
   23965    23949    23951    23988    24016    24016    24012    24011 
   24007    23994    23993    24012    24040    24059    24070    24078 
   24061    24016    23978    23980    24019    24048    24054    24059 
   24051    24019    23993    23989    23988    23977    23974    23981 
   23992    24016    24027    24016    24008    24007    24005    24015 
   24043    24081    24104    24112    24117    24105    24082    24079 
   24090    24088    24085    24079    24067    24065    24047    23990 
   23938    23915    23913    23946    23992    24005    23996    24003 
   24019    24030    24034    24023    24000    23977    23954    23943 
   23953    23978    24012    24051    24082    24101    24116    24128 
   24129    24115    24092    24079    24082    24085    24077    24055 
