Origin Time       2024/06/23 22:54:00
Lat.              35.645
Long.             140.060
Depth. (km)       72
Mag.              4.1
Station Code      TCGH16
Station Lat.      36.5480
Station Long.     140.0751
Station Height(m) -7
Record Time       2024/06/23 22:54:48
Sampling Freq(Hz) 100Hz
Duration Time(s)  120
Dir.              1
Scale Factor      2942(gal)/8224139
Max. Acc. (gal)   0.286
Last Correction   2024/06/23 22:54:48
Memo.             
[...]
  -42404   -42276   -42084   -42078   -42110   -42109   -42250   -42422 
  -42390   -42255   -42248   -42279   -42184   -42163   -42271   -42259 
  -42157   -42171   -42217   -42186   -42205   -42307   -42326   -42252 
  -42175   -42114   -42148   -42263   -42348   -42357   -42273   -42205 
  -42250   -42283   -42246   -42194   -42129   -42141   -42241   -42303 
  -42294   -42233   -42164   -42142   -42171   -42257   -42321   -42273 
  -42253   -42277   -42218   -42155   -42155   -42176   -42219   -42260 
  -42257   -42263   -42354   -42419   -42261   -42083   -42176   -42307 
  -42205   -42078   -42144   -42244   -42219   -42211   -42287   -42317 
  -42286   -42275   -42276   -42263   -42223   -42207   -42237   -42249 
  -42242   -42219   -42160   -42174   -42248   -42249   -42223   -42255 
  -42294   -42259   -42178   -42187   -42230   -42171   -42109   -42133 
  -42168   -42219   -42307   -42334   -42309   -42338   -42364   -42265 
  -42155   -42180   -42230   -42210   -42209   -42210   -42176   -42215 
  -42277   -42238   -42195   -42256   -42323   -42319   -42304   -42276 
  -42213   -42149   -42114   -42140   -42188   -42188   -42201   -42269 
  -42323   -42304   -42228   -42160   -42176   -42261   -42318   -42307 
  -42313   -42340   -42283   -42175   -42129   -42153   -42211   -42252 
  -42221   -42184   -42228   -42260   -42236   -42229   -42230   -42230 
  -42228   -42194   -42180   -42196   -42221   -42269   -42277   -42252 
  -42241   -42187   -42138   -42201   -42302   -42350   -42322   -42269 
  -42223   -42160   -42128   -42167   -42211   -42242   -42340   -42466 
  -42385   -42103   -41976   -42079   -42178   -42249   -42330   -42337 
  -42294   -42275   -42248   -42196   -42153   -42160   -42242   -42348 
  -42410   -42363   -42218   -42103   -42091   -42182   -42304   -42323 
  -42303   -42346   -42306   -42184   -42136   -42125   -42144   -42213 
  -42225   -42161   -42136   -42171   -42211   -42267   -42338   -42340 
  -42263   -42179   -42109   -42117   -42214   -42294   -42338   -42323 
  -42244   -42236   -42292   -42273   -42256   -42329   -42361   -42269 
  -42163   -42115   -42128   -42186   -42223   -42218   -42196   -42205 
  -42263   -42286   -42229   -42195   -42246   -42342   -42363   -42260 
  -42168   -42169   -42214   -42294   -42385   -42417   -42361   -42253 
  -42148   -42045   -41937   -41943   -42134   -42345   -42400   -42333 
  -42221   -42094   -42053   -42152   -42260   -42286   -42315   -42415 
  -42479   -42387   -42236   -42157   -42137   -42165   -42230   -42275 
  -42276   -42249   -42273   -42376   -42398   -42283   -42168   -42145 
  -42201   -42230   -42165   -42099   -42111   -42183   -42269   -42300 
  -42267   -42252   -42253   -42202   -42160   -42202   -42257   -42304 
  -42356   -42275   -42061   -42002   -42171   -42331   -42407   -42449 
  -42406   -42279   -42155   -42083   -42097   -42161   -42206   -42215 
  -42237   -42295   -42309   -42241   -42222   -42261   -42261   -42242 
  -42228   -42230   -42263   -42267   -42267   -42292   -42232   -42093 
  -42061   -42188   -42288   -42259   -42233   -42256   -42248   -42219 
  -42163   -42109   -42188   -42336   -42356   -42311   -42307   -42250 
  -42164   -42187   -42232   -42230   -42280   -42353   -42350   -42287 
  -42218   -42147   -42080   -42063   -42101   -42195   -42307   -42300 
  -42226   -42295   -42430   -42417   -42279   -42171   -42115   -42086 
  -42114   -42182   -42232   -42275   -42253   -42125   -42060   -42182 
  -42326   -42346   -42309   -42273   -42242   -42207   -42140   -42118 
  -42201   -42244   -42241   -42331   -42452   -42425   -42264   -42107 
  -41985   -41976   -42205   -42423   -42396   -42342   -42354   -42290 
  -42226   -42282   -42315   -42249   -42214   -42198   -42129   -42126 
  -42195   -42223   -42217   -42180   -42128   -42121   -42182   -42290 
  -42367   -42338   -42245   -42195   -42226   -42286   -42307   -42269 
  -42207   -42198   -42217   -42178   -42118   -42117   -42203   -42311 
  -42291   -42186   -42202   -42288   -42315   -42302   -42232   -42151 
  -42165   -42221   -42276   -42357   -42399   -42352   -42253   -42168 
  -42142   -42176   -42221   -42226   -42229   -42290   -42340   -42319 
  -42256   -42159   -42080   -42068   -42109   -42188   -42253   -42303 
  -42313   -42180   -42045   -42109   -42256   -42350   -42342   -42229 
  -42186   -42260   -42276   -42225   -42250   -42357   -42379   -42276 
  -42201   -42155   -42103   -42140   -42228   -42286   -42321   -42299 
  -42241   -42230   -42252   -42269   -42296   -42280   -42205   -42175 
  -42196   -42175   -42144   -42171   -42180   -42165   -42237   -42349 
  -42385   -42345   -42282   -42190   -42072   -42029   -42072   -42121 
  -42199   -42311   -42361   -42337   -42277   -42199   -42138   -42103 
  -42144   -42303   -42403   -42334   -42283   -42334   -42354   -42306 
  -42260   -42264   -42294   -42263   -42153   -42080   -42128   -42182 
  -42142   -42134   -42225   -42257   -42194   -42222   -42360   -42404 
  -42311   -42199   -42128   -42111   -42182   -42291   -42318   -42248 
  -42182   -42176   -42223   -42244   -42226   -42265   -42326   -42303 
  -42268   -42268   -42223   -42159   -42140   -42138   -42164   -42253 
  -42338   -42315   -42222   -42206   -42221   -42163   -42180   -42318 
  -42388   -42349   -42314   -42333   -42344   -42264   -42124   -42009 
  -42001   -42132   -42259   -42255   -42207   -42196   -42161   -42107 
  -42167   -42326   -42391   -42350   -42338   -42306   -42196   -42148 
  -42171   -42171   -42209   -42309   -42364   -42326   -42218   -42120 
  -42111   -42151   -42194   -42269   -42341   -42325   -42236   -42174 
  -42164   -42153   -42165   -42236   -42268   -42232   -42232   -42267 
  -42255   -42218   -42245   -42348   -42381   -42217   -42026   -42032 
  -42172   -42263   -42259   -42268   -42333   -42323   -42245   -42241 
  -42286   -42310   -42269   -42110   -41959   -41974   -42097   -42229 
  -42338   -42391   -42367   -42280   -42241   -42333   -42412   -42319 
  -42152   -42090   -42149   -42225   -42242   -42234   -42272   -42299 
  -42218   -42136   -42174   -42236   -42232   -42206   -42199   -42182 
  -42180   -42246   -42269   -42187   -42159   -42203   -42195   -42156 
  -42169   -42264   -42352   -42350   -42375   -42444   -42368   -42199 
  -42106   -42066   -42084   -42199   -42280   -42233   -42174   -42176 
  -42179   -42164   -42169   -42206   -42249   -42279   -42306   -42286 
  -42219   -42199   -42196   -42152   -42138   -42157   -42174   -42233 
  -42290   -42304   -42318   -42267   -42174   -42191   -42249   -42249 
  -42264   -42296   -42268   -42211   -42199   -42219   -42249   -42299 
  -42307   -42217   -42138   -42167   -42201   -42167   -42118   -42099 
  -42114   -42145   -42206   -42288   -42349   -42379   -42341   -42282 
  -42304   -42287   -42137   -42028   -42074   -42175   -42221   -42210 
  -42206   -42244   -42295   -42276   -42221   -42244   -42291   -42250 
  -42195   -42192   -42171   -42157   -42236   -42287   -42209   -42147 
  -42160   -42179   -42265   -42361   -42317   -42253   -42265   -42255 
  -42229   -42206   -42164   -42187   -42259   -42265   -42253   -42284 
  -42306   -42250   -42137   -42066   -42071   -42109   -42163   -42240 
  -42336   -42376   -42295   -42183   -42113   -42067   -42078   -42155 
  -42230   -42244   -42240   -42300   -42336   -42256   -42188   -42223 
  -42256   -42221   -42209   -42228   -42182   -42157   -42263   -42357 
  -42317   -42225   -42205   -42269   -42311   -42268   -42215   -42230 
  -42265   -42234   -42145   -42088   -42114   -42192   -42298   -42414 
  -42438   -42325   -42222   -42192   -42161   -42186   -42240   -42172 
  -42083   -42132   -42186   -42141   -42145   -42272   -42368   -42326 
  -42229   -42182   -42179   -42198   -42257   -42318   -42326   -42338 
  -42368   -42334   -42244   -42129   -42025   -42013   -42057   -42074 
  -42109   -42196   -42264   -42255   -42207   -42175   -42172   -42213 
  -42265   -42306   -42337   -42342   -42342   -42322   -42214   -42148 
  -42249   -42350   -42329   -42298   -42303   -42277   -42256   -42283 
  -42245   -42125   -42086   -42141   -42183   -42190   -42176   -42182 
  -42221   -42232   -42163   -42052   -42052   -42219   -42364   -42368 
  -42346   -42337   -42280   -42198   -42148   -42144   -42180   -42249 
  -42295   -42268   -42180   -42071   -42056   -42172   -42250   -42222 
  -42176   -42171   -42225   -42295   -42368   -42473   -42535   -42527 
  -42446   -42249   -42071   -42061   -42140   -42229   -42279   -42226 
  -42124   -42082   -42082   -42087   -42183   -42334   -42394   -42430 
  -42512   -42519   -42375   -42174   -42070   -42074   -42075   -42045 
  -42003   -41971   -42025   -42142   -42186   -42172   -42250   -42383 
  -42395   -42287   -42199   -42201   -42228   -42249   -42302   -42321 
  -42230   -42118   -42072   -42074   -42133   -42245   -42294   -42221 
  -42161   -42198   -42244   -42319   -42491   -42604   -42534   -42395 
  -42264   -42122   -41995   -41947   -42032   -42217   -42341   -42306 
  -42172   -42080   -42103   -42149   -42186   -42313   -42449   -42358 
  -42041   -41848   -41971   -42122   -42117   -42105   -42138   -42106 
  -42016   -42024   -42222   -42533   -42745   -42722   -42633   -42653 
  -42622   -42385   -42094   -41985   -42064   -42097   -42037   -42045 
  -42090   -42126   -42268   -42481   -42579   -42510   -42368   -42207 
  -42111   -42125   -42013   -41817   -41936   -42253   -42329   -42211 
  -42223   -42358   -42356   -42180   -42044   -42076   -42199   -42269 
  -42269   -42222   -42114   -42016   -42033   -42091   -41985   -41758 
  -41708   -41866   -42053   -42260   -42476   -42642   -42762   -42812 
  -42773   -42722   -42701   -42666   -42601   -42456   -42130   -41832 
  -41886   -42168   -42310   -42229   -42121   -42175   -42383   -42562 
  -42506   -42219   -41956   -41827   -41759   -41818   -42043   -42228 
  -42202   -42060   -42014   -42142   -42340   -42475   -42520   -42472 
  -42263   -41967   -41823   -41814   -41805   -41905   -42083   -42169 
  -42314   -42545   -42585   -42442   -42263   -42115   -42053   -42021 
  -42013   -42152   -42422   -42610   -42589   -42547   -42568   -42483 
  -42341   -42276   -42253   -42322   -42529   -42666   -42597   -42379 
  -42045   -41739   -41694   -41924   -42330   -42714   -42769   -42493 
  -42060   -41625   -41467   -41636   -41854   -42026   -42229   -42395 
  -42437   -42350   -42182   -42064   -42140   -42326   -42476   -42550 
  -42489   -42318   -42159   -41987   -41883   -42070   -42365   -42454 
  -42422   -42348   -42156   -41982   -42014   -42234   -42535   -42776 
  -42796   -42538   -42210   -42066   -42009   -41889   -41832   -41913 
  -42055   -42211   -42295   -42265   -42217   -42232   -42322   -42481 
  -42669   -42738   -42650   -42519   -42263   -41843   -41613   -41735 
  -41944   -42109   -42248   -42292   -42250   -42271   -42354   -42315 
  -42115   -42010   -42152   -42327   -42325   -42275   -42306   -42354 
  -42441   -42624   -42743   -42570   -42229   -42079   -42133   -42155 
  -42120   -42086   -42040   -42098   -42322   -42477   -42383   -42196 
  -42126   -42087   -41886   -41663   -41781   -42300   -42788   -42808 
  -42471   -42134   -41928   -41882   -42039   -42257   -42375   -42399 
  -42391   -42411   -42448   -42356   -42120   -41862   -41747   -41966 
  -42283   -42236   -41993   -41960   -42003   -41978   -42060   -42240 
  -42350   -42466   -42635   -42715   -42709   -42655   -42472   -42236 
  -42122   -42230   -42515   -42718   -42622   -42325   -42072   -41989 
  -42043   -42192   -42290   -42120   -41875   -41964   -42296   -42483 
  -42437   -42276   -42001   -41701   -41661   -41912   -42167   -42263 
  -42244   -42157   -42075   -42122   -42202   -42133   -42075   -42182 
  -42302   -42394   -42481   -42457   -42326   -42205   -42144   -42144 
  -42190   -42192   -42152   -42250   -42427   -42495   -42572   -42645 
  -42576   -42485   -42338   -42055   -41906   -42103   -42500   -42780 
  -42828   -42785   -42512   -41910   -41494   -41632   -41990   -42245 
  -42394   -42406   -42292   -42117   -41801   -41507   -41642   -42066 
  -42309   -42376   -42430   -42417   -42369   -42348   -42214   -41975 
  -41877   -41936   -42021   -42250   -42638   -42792   -42556   -42276 
  -42148   -42098   -42176   -42307   -42315   -42380   -42573   -42589 
  -42323   -41949   -41708   -41721   -41824   -41859   -41979   -42309 
  -42646   -42782   -42780   -42612   -42179   -41801   -41790   -41945 
  -42079   -42252   -42411   -42481   -42519   -42499   -42326   -42072 
  -41932   -42010   -42234   -42373   -42267   -42057   -41990   -42053 
  -42055   -41978   -41940   -41980   -42178   -42531   -42831   -42954 
  -42827   -42404   -42043   -42072   -42306   -42538   -42715   -42611 
  -42187   -41906   -42079   -42309   -42195   -41925   -41725   -41661 
  -41868   -42232   -42406   -42358   -42272   -42188   -42087   -42022 
  -41980   -41858   -41754   -41906   -42276   -42543   -42545   -42465 
  -42404   -42225   -42021   -42074   -42353   -42592   -42596   -42430 
  -42215   -41920   -41735   -41978   -42477   -42834   -42874   -42631 
  -42304   -42132   -42203   -42325   -42309   -42348   -42587   -42762 
  -42665   -42358   -42001   -41775   -41816   -42009   -42122   -42176 
  -42250   -42222   -42103   -42041   -41960   -41848   -41874   -41986 
  -42043   -42097   -42148   -42130   -42134   -42219   -42269   -42260 
  -42248   -42156   -42053   -42218   -42653   -43019   -43031   -42700 
  -42287   -42007   -41885   -41810   -41801   -41975   -42163   -42140 
  -42040   -42047   -42199   -42450   -42596   -42538   -42469   -42495 
  -42499   -42434   -42376   -42334   -42337   -42444   -42473   -42206 
  -41866   -41839   -42147   -42461   -42512   -42315   -42106   -42068 
  -42072   -41983   -41974   -42045   -41998   -41955   -42120   -42354 
  -42503   -42622   -42674   -42498   -42210   -42063   -42066   -42137 
  -42249   -42314   -42214   -41953   -41697   -41632   -41783   -42007 
  -42137   -42129   -42133   -42309   -42587   -42763   -42701   -42475 
  -42346   -42387   -42399   -42390   -42504   -42604   -42437   -42102 
  -41887   -41825   -41871   -42090   -42377   -42508   -42368   -42040 
  -41875   -42036   -42265   -42387   -42394   -42298   -42217   -42233 
  -42273   -42287   -42282   -42198   -42099   -42206   -42331   -42151 
  -41974   -42140   -42348   -42323   -42201   -42078   -42032   -42196 
  -42434   -42519   -42564   -42670   -42689   -42588   -42430   -42256 
  -42137   -42061   -42016   -42041   -42053   -41975   -41877   -41813 
  -41729   -41612   -41712   -42153   -42585   -42718   -42623   -42438 
  -42283   -42147   -41964   -41821   -41817   -41980   -42298   -42616 
  -42711   -42545   -42376   -42357   -42329   -42210   -42149   -42163 
  -42149   -42132   -42125   -42086   -42090   -42186   -42302   -42442 
  -42612   -42703   -42680   -42595   -42464   -42398   -42499   -42592 
  -42534   -42415   -42250   -42006   -41783   -41689   -41728   -41883 
  -42165   -42412   -42380   -42221   -42238   -42334   -42295   -42099 
  -41871   -41850   -42043   -42174   -42165   -42099   -41963   -41831 
  -41841   -42003   -42186   -42319   -42491   -42696   -42774   -42666 
  -42457   -42313   -42321   -42419   -42550   -42557   -42295   -42025 
  -41982   -42040   -42151   -42348   -42522   -42628   -42660   -42557 
  -42392   -42302   -42242   -42110   -42013   -42114   -42264   -42249 
  -42175   -42129   -42030   -41963   -42048   -42174   -42217   -42202 
  -42126   -42009   -41972   -42006   -41993   -41991   -42121   -42304 
  -42344   -42196   -42040   -42021   -42106   -42244   -42396   -42488 
  -42498   -42457   -42365   -42226   -42080   -41975   -41960   -42034 
  -42134   -42182   -42161   -42132   -42174   -42222   -42178   -42176 
  -42307   -42434   -42499   -42475   -42379   -42394   -42537   -42624 
  -42539   -42310   -42172   -42261   -42368   -42344   -42263   -42175 
  -42030   -41881   -41901   -42107   -42292   -42360   -42375   -42345 
  -42244   -42141   -42130   -42140   -42078   -42049   -42122   -42187 
  -42202   -42205   -42168   -42138   -42228   -42396   -42500   -42480 
  -42408   -42350   -42273   -42190   -42180   -42183   -42134   -42159 
  -42306   -42444   -42460   -42365   -42260   -42191   -42147   -42138 
  -42187   -42319   -42480   -42554   -42564   -42546   -42448   -42286 
  -42144   -42078   -42080   -42126   -42232   -42348   -42354   -42261 
  -42178   -42155   -42178   -42161   -42063   -41998   -42055   -42151 
  -42203   -42213   -42192   -42136   -42079   -42055   -41999   -41959 
  -42044   -42221   -42425   -42564   -42553   -42430   -42288   -42237 
  -42306   -42380   -42417   -42390   -42249   -42086   -41980   -41905 
  -41859   -41854   -41914   -42021   -42101   -42178   -42248   -42252 
  -42194   -42155   -42209   -42257   -42240   -42261   -42277   -42244 
  -42275   -42277   -42163   -42126   -42202   -42246   -42309   -42412 
  -42408   -42303   -42283   -42358   -42395   -42377   -42341   -42326 
  -42371   -42392   -42327   -42240   -42155   -42087   -42076   -42087 
  -42082   -42068   -42117   -42221   -42205   -42129   -42214   -42298 
  -42260   -42321   -42453   -42400   -42192   -42061   -42093   -42148 
  -42137   -42172   -42261   -42287   -42298   -42354   -42363   -42329 
  -42364   -42435   -42437   -42410   -42448   -42456   -42357   -42310 
  -42383   -42353   -42120   -41902   -41843   -41894   -42071   -42330 
  -42499   -42539   -42471   -42306   -42202   -42233   -42344   -42489 
  -42566   -42533   -42462   -42380   -42255   -42109   -42007   -41956 
  -41958   -42060   -42228   -42357   -42385   -42287   -42129   -41994 
  -41916   -41933   -42032   -42163   -42296   -42385   -42388   -42287 
  -42117   -41987   -41993   -42142   -42309   -42327   -42275   -42280 
  -42246   -42145   -42080   -42051   -42051   -42133   -42275   -42388 
  -42400   -42298   -42105   -41944   -41937   -42006   -42084   -42225 
  -42369   -42408   -42350   -42255   -42194   -42198   -42240   -42336 
  -42504   -42618   -42558   -42438   -42369   -42311   -42292   -42319 
  -42309   -42286   -42277   -42240   -42188   -42122   -42016   -41956 
  -42040   -42206   -42307   -42302   -42252   -42179   -42048   -41889 
  -41832   -41935   -42055   -42126   -42248   -42390   -42473   -42483 
  -42375   -42219   -42148   -42152   -42196   -42276   -42377   -42449 
  -42446   -42423   -42399   -42356   -42345   -42336   -42295   -42280 
  -42269   -42267   -42336   -42433   -42491   -42483   -42371   -42178 
  -42030   -42020   -42094   -42186   -42272   -42298   -42256   -42211 
  -42183   -42148   -42130   -42140   -42117   -42022   -41935   -41952 
  -42078   -42180   -42168   -42169   -42257   -42267   -42171   -42102 
  -42103   -42236   -42493   -42628   -42512   -42321   -42192   -42114 
  -42080   -42105   -42172   -42283   -42430   -42498   -42431   -42354 
  -42290   -42179   -42130   -42184   -42213   -42214   -42303   -42453 
  -42547   -42508   -42344   -42171   -42105   -42114   -42148   -42195 
  -42183   -42128   -42140   -42187   -42190   -42180   -42205   -42280 
  -42400   -42444   -42329   -42221   -42233   -42257   -42209   -42093 
  -41970   -41936   -42021   -42207   -42364   -42315   -42152   -42099 
