Origin Time       2024/06/23 22:54:00
Lat.              35.645
Long.             140.060
Depth. (km)       72
Mag.              4.1
Station Code      TCGH08
Station Lat.      36.8828
Station Long.     139.6459
Station Height(m) 702
Record Time       2024/06/23 22:55:07
Sampling Freq(Hz) 100Hz
Duration Time(s)  120
Dir.              6
Scale Factor      7845(gal)/8223790
Max. Acc. (gal)   0.548
Last Correction   2024/06/23 22:55:07
Memo.             
[...]
  -16551   -16460   -16518   -16544   -16467   -16459   -16565   -16627 
  -16598   -16552   -16524   -16526   -16565   -16607   -16599   -16529 
  -16499   -16580   -16661   -16634   -16553   -16507   -16510   -16526 
  -16507   -16487   -16525   -16561   -16552   -16586   -16664   -16653 
  -16559   -16519   -16541   -16525   -16478   -16509   -16590   -16569 
  -16483   -16518   -16602   -16572   -16533   -16559   -16534   -16538 
  -16695   -16752   -16568   -16470   -16572   -16580   -16451   -16429 
  -16514   -16541   -16530   -16546   -16603   -16699   -16729   -16614 
  -16470   -16428   -16480   -16540   -16542   -16488   -16474   -16533 
  -16555   -16542   -16602   -16641   -16579   -16557   -16619   -16611 
  -16537   -16541   -16569   -16534   -16537   -16583   -16586   -16575 
  -16536   -16445   -16410   -16475   -16571   -16677   -16749   -16699 
  -16606   -16596   -16590   -16530   -16519   -16532   -16474   -16407 
  -16422   -16486   -16506   -16497   -16533   -16596   -16657   -16698 
  -16683   -16642   -16609   -16561   -16521   -16529   -16532   -16467 
  -16411   -16465   -16561   -16587   -16545   -16514   -16564   -16656 
  -16671   -16587   -16510   -16532   -16605   -16623   -16584   -16549 
  -16533   -16530   -16544   -16546   -16521   -16492   -16498   -16526 
  -16567   -16603   -16605   -16580   -16573   -16596   -16598   -16521 
  -16434   -16456   -16548   -16605   -16606   -16587   -16584   -16630 
  -16665   -16575   -16416   -16364   -16406   -16448   -16542   -16660 
  -16627   -16522   -16590   -16731   -16717   -16656   -16669   -16599 
  -16434   -16379   -16433   -16459   -16465   -16509   -16552   -16559 
  -16559   -16583   -16573   -16505   -16495   -16618   -16744   -16762 
  -16721   -16642   -16530   -16475   -16509   -16511   -16443   -16420 
  -16453   -16465   -16488   -16557   -16588   -16565   -16591   -16680 
  -16704   -16626   -16569   -16617   -16676   -16622   -16509   -16453 
  -16417   -16384   -16463   -16556   -16506   -16487   -16626   -16688 
  -16596   -16563   -16614   -16614   -16573   -16567   -16559   -16537 
  -16563   -16590   -16545   -16498   -16522   -16555   -16492   -16366 
  -16351   -16488   -16611   -16650   -16696   -16742   -16706   -16645 
  -16640   -16614   -16514   -16409   -16364   -16437   -16583   -16621 
  -16534   -16507   -16569   -16606   -16617   -16615   -16551   -16484 
  -16530   -16626   -16645   -16617   -16586   -16501   -16393   -16384 
  -16478   -16583   -16652   -16652   -16613   -16607   -16590   -16498 
  -16440   -16507   -16575   -16565   -16588   -16645   -16610   -16545 
  -16571   -16598   -16551   -16503   -16480   -16459   -16492   -16582 
  -16627   -16611   -16580   -16522   -16452   -16467   -16583   -16654 
  -16611   -16560   -16555   -16549   -16545   -16565   -16579   -16587 
  -16615   -16606   -16542   -16514   -16545   -16567   -16564   -16563 
  -16525   -16440   -16401   -16460   -16537   -16583   -16652   -16714 
  -16668   -16582   -16595   -16626   -16573   -16518   -16502   -16472 
  -16459   -16491   -16514   -16514   -16525   -16549   -16579   -16613 
  -16618   -16599   -16638   -16717   -16718   -16621   -16494   -16402 
  -16413   -16505   -16553   -16524   -16506   -16509   -16484   -16482 
  -16525   -16551   -16551   -16578   -16619   -16650   -16673   -16667 
  -16595   -16511   -16509   -16549   -16536   -16518   -16559   -16560 
  -16491   -16484   -16557   -16578   -16551   -16580   -16636   -16630 
  -16580   -16525   -16459   -16436   -16514   -16606   -16633   -16630 
  -16595   -16529   -16519   -16568   -16564   -16546   -16594   -16587 
  -16507   -16510   -16549   -16524   -16537   -16598   -16583   -16542 
  -16568   -16576   -16541   -16565   -16625   -16611   -16560   -16561 
  -16561   -16497   -16440   -16470   -16549   -16587   -16567   -16561 
  -16572   -16537   -16511   -16552   -16588   -16603   -16653   -16677 
  -16613   -16528   -16503   -16513   -16522   -16540   -16528   -16445 
  -16390   -16448   -16564   -16649   -16668   -16640   -16606   -16580 
  -16556   -16556   -16582   -16603   -16599   -16548   -16486   -16497 
  -16556   -16565   -16528   -16507   -16532   -16560   -16557   -16538 
  -16528   -16529   -16564   -16622   -16642   -16617   -16594   -16560 
  -16505   -16498   -16553   -16595   -16598   -16595   -16580   -16513 
  -16421   -16401   -16484   -16588   -16615   -16590   -16556   -16507 
  -16498   -16573   -16650   -16698   -16742   -16704   -16586   -16538 
  -16564   -16533   -16464   -16437   -16425   -16410   -16437   -16490 
  -16518   -16561   -16654   -16710   -16683   -16629   -16584   -16578 
  -16598   -16563   -16494   -16524   -16599   -16567   -16507   -16534 
  -16532   -16449   -16413   -16432   -16449   -16515   -16606   -16622 
  -16623   -16660   -16667   -16664   -16675   -16615   -16529   -16525 
  -16560   -16556   -16528   -16488   -16434   -16421   -16482   -16548 
  -16559   -16580   -16657   -16690   -16614   -16561   -16600   -16619 
  -16590   -16580   -16561   -16522   -16537   -16560   -16529   -16509 
  -16513   -16476   -16457   -16507   -16541   -16524   -16545   -16618 
  -16638   -16596   -16575   -16584   -16590   -16586   -16567   -16519 
  -16479   -16503   -16534   -16497   -16467   -16522   -16580   -16579 
  -16596   -16661   -16676   -16632   -16599   -16587   -16545   -16476 
  -16470   -16526   -16530   -16518   -16576   -16588   -16497   -16470 
  -16565   -16626   -16607   -16605   -16621   -16596   -16559   -16567 
  -16587   -16573   -16560   -16563   -16537   -16476   -16437   -16447 
  -16484   -16546   -16614   -16629   -16587   -16560   -16564   -16572 
  -16592   -16605   -16609   -16615   -16560   -16441   -16395   -16460 
  -16545   -16603   -16617   -16587   -16569   -16590   -16606   -16591 
  -16584   -16623   -16661   -16619   -16507   -16416   -16386   -16402 
  -16453   -16530   -16591   -16599   -16571   -16578   -16623   -16633 
  -16602   -16587   -16600   -16619   -16615   -16568   -16503   -16467 
  -16472   -16519   -16568   -16575   -16555   -16528   -16502   -16499 
  -16522   -16549   -16553   -16552   -16605   -16676   -16664   -16602 
  -16603   -16626   -16588   -16548   -16533   -16471   -16402   -16402 
  -16432   -16476   -16568   -16653   -16669   -16659   -16657   -16641 
  -16590   -16549   -16572   -16611   -16572   -16478   -16456   -16514 
  -16538   -16525   -16546   -16572   -16552   -16551   -16576   -16549 
  -16517   -16571   -16629   -16607   -16556   -16525   -16518   -16524 
  -16533   -16551   -16575   -16565   -16530   -16517   -16501   -16478 
  -16514   -16580   -16588   -16576   -16617   -16671   -16679   -16629 
  -16557   -16507   -16471   -16424   -16414   -16484   -16546   -16534 
  -16521   -16561   -16598   -16617   -16661   -16699   -16671   -16600 
  -16525   -16475   -16509   -16614   -16656   -16578   -16486   -16468 
  -16507   -16551   -16563   -16552   -16551   -16540   -16506   -16524 
  -16595   -16603   -16552   -16551   -16568   -16556   -16584   -16630 
  -16591   -16522   -16498   -16463   -16441   -16507   -16557   -16515 
  -16499   -16559   -16584   -16588   -16650   -16708   -16680   -16610 
  -16563   -16538   -16518   -16519   -16561   -16595   -16568   -16513 
  -16463   -16438   -16483   -16563   -16572   -16532   -16545   -16586 
  -16592   -16596   -16606   -16584   -16563   -16582   -16598   -16605 
  -16611   -16578   -16518   -16515   -16541   -16515   -16471   -16464 
  -16482   -16503   -16522   -16518   -16529   -16580   -16636   -16661 
  -16649   -16594   -16524   -16498   -16534   -16587   -16617   -16605 
  -16544   -16480   -16494   -16553   -16563   -16537   -16519   -16494 
  -16494   -16545   -16590   -16602   -16615   -16634   -16648   -16659 
  -16668   -16660   -16613   -16526   -16434   -16405   -16449   -16479 
  -16455   -16452   -16478   -16499   -16560   -16654   -16681   -16648 
  -16642   -16646   -16594   -16541   -16563   -16606   -16609   -16573 
  -16525   -16502   -16507   -16472   -16420   -16447   -16530   -16586 
  -16619   -16634   -16602   -16578   -16582   -16560   -16552   -16592 
  -16582   -16522   -16529   -16563   -16530   -16502   -16542   -16557 
  -16507   -16486   -16515   -16551   -16591   -16613   -16569   -16536 
  -16598   -16677   -16664   -16587   -16549   -16580   -16621   -16600 
  -16534   -16499   -16506   -16495   -16460   -16455   -16488   -16524 
  -16559   -16580   -16567   -16546   -16560   -16579   -16560   -16522 
  -16528   -16567   -16569   -16537   -16533   -16564   -16603   -16640 
  -16653   -16640   -16606   -16553   -16519   -16532   -16546   -16526 
  -16503   -16499   -16507   -16546   -16606   -16606   -16541   -16518 
  -16545   -16542   -16528   -16561   -16607   -16598   -16582   -16609 
  -16606   -16534   -16486   -16486   -16474   -16480   -16552   -16611 
  -16590   -16565   -16586   -16595   -16591   -16600   -16584   -16552 
  -16548   -16544   -16534   -16552   -16564   -16545   -16537   -16538 
  -16514   -16511   -16552   -16580   -16592   -16611   -16578   -16510 
  -16518   -16568   -16552   -16501   -16503   -16537   -16538   -16524 
  -16540   -16576   -16598   -16613   -16627   -16603   -16556   -16565 
  -16633   -16661   -16627   -16594   -16538   -16440   -16395   -16443 
  -16499   -16515   -16513   -16545   -16592   -16603   -16598   -16595 
  -16583   -16587   -16596   -16573   -16545   -16552   -16571   -16572 
  -16556   -16515   -16479   -16510   -16560   -16536   -16507   -16563 
  -16606   -16584   -16603   -16653   -16627   -16584   -16603   -16607 
  -16545   -16498   -16518   -16529   -16498   -16497   -16533   -16534 
  -16498   -16505   -16563   -16582   -16528   -16483   -16498   -16530 
  -16571   -16638   -16677   -16645   -16586   -16548   -16545   -16542 
  -16515   -16492   -16501   -16538   -16583   -16603   -16599   -16590 
  -16571   -16540   -16518   -16530   -16568   -16605   -16634   -16657 
  -16648   -16607   -16573   -16560   -16540   -16510   -16499   -16487 
  -16444   -16414   -16444   -16491   -16517   -16537   -16534   -16518 
  -16563   -16636   -16641   -16638   -16684   -16711   -16684   -16602 
  -16486   -16461   -16579   -16676   -16645   -16571   -16507   -16445 
  -16447   -16525   -16569   -16534   -16474   -16425   -16417   -16476 
  -16563   -16626   -16667   -16652   -16579   -16540   -16541   -16511 
  -16482   -16509   -16588   -16672   -16695   -16665   -16630   -16579 
  -16498   -16440   -16445   -16482   -16506   -16532   -16578   -16622 
  -16637   -16600   -16561   -16582   -16592   -16519   -16447   -16464 
  -16538   -16602   -16622   -16605   -16571   -16540   -16524   -16537 
  -16565   -16567   -16529   -16509   -16551   -16606   -16627   -16621 
  -16578   -16534   -16551   -16568   -16501   -16447   -16510   -16610 
  -16660   -16680   -16636   -16494   -16378   -16403   -16484   -16514 
  -16549   -16642   -16679   -16602   -16546   -16582   -16619   -16609 
  -16572   -16534   -16506   -16507   -16540   -16561   -16549   -16538 
  -16568   -16595   -16553   -16478   -16434   -16444   -16529   -16659 
  -16707   -16648   -16591   -16568   -16528   -16483   -16471   -16475 
  -16472   -16499   -16600   -16719   -16752   -16692   -16649   -16630 
  -16544   -16453   -16433   -16398   -16360   -16448   -16611   -16698 
  -16698   -16664   -16611   -16580   -16584   -16582   -16590   -16641 
  -16664   -16600   -16505   -16418   -16356   -16363   -16402   -16397 
  -16414   -16511   -16590   -16594   -16588   -16615   -16667   -16718 
  -16726   -16684   -16636   -16583   -16519   -16476   -16470   -16453 
  -16420   -16441   -16511   -16559   -16588   -16632   -16652   -16632 
  -16606   -16568   -16498   -16470   -16518   -16563   -16599   -16659 
  -16663   -16592   -16563   -16575   -16530   -16476   -16505   -16542 
  -16530   -16525   -16555   -16569   -16555   -16548   -16557   -16541 
  -16494   -16486   -16545   -16595   -16587   -16571   -16598   -16649 
  -16661   -16619   -16588   -16592   -16560   -16498   -16476   -16484 
  -16495   -16528   -16537   -16494   -16499   -16582   -16629   -16609 
  -16586   -16560   -16514   -16488   -16495   -16511   -16540   -16568 
  -16579   -16588   -16603   -16606   -16623   -16686   -16740   -16699 
  -16598   -16506   -16418   -16368   -16407   -16490   -16553   -16602 
  -16646   -16659   -16610   -16549   -16528   -16521   -16498   -16470 
  -16475   -16497   -16497   -16521   -16594   -16637   -16613   -16575 
  -16540   -16501   -16518   -16584   -16596   -16563   -16555   -16557 
  -16540   -16548   -16571   -16545   -16510   -16522   -16555   -16590 
  -16622   -16605   -16565   -16598   -16679   -16722   -16723   -16692 
  -16592   -16457   -16387   -16416   -16468   -16488   -16525   -16583 
  -16553   -16472   -16497   -16568   -16542   -16495   -16522   -16561 
  -16588   -16648   -16700   -16700   -16673   -16653   -16614   -16526 
  -16452   -16461   -16490   -16460   -16394   -16332   -16318   -16398 
  -16524   -16603   -16615   -16606   -16591   -16545   -16517   -16594 
  -16730   -16807   -16787   -16704   -16610   -16538   -16491   -16491 
  -16568   -16654   -16706   -16749   -16738   -16638   -16521   -16424 
  -16317   -16220   -16210   -16301   -16395   -16434   -16456   -16524 
  -16633   -16699   -16711   -16727   -16710   -16600   -16511   -16529 
  -16575   -16606   -16675   -16756   -16788   -16781   -16742   -16668 
  -16594   -16513   -16406   -16325   -16299   -16259   -16177   -16117 
  -16146   -16259   -16416   -16610   -16849   -17055   -17130   -17077 
  -16958   -16807   -16646   -16513   -16410   -16339   -16303   -16301 
  -16362   -16495   -16609   -16636   -16621   -16600   -16563   -16501 
  -16449   -16463   -16532   -16627   -16723   -16772   -16744   -16645 
  -16522   -16403   -16293   -16239   -16267   -16322   -16403   -16521 
  -16619   -16683   -16730   -16734   -16699   -16677   -16671   -16656 
  -16632   -16584   -16502   -16453   -16490   -16532   -16532   -16575 
  -16649   -16649   -16588   -16544   -16532   -16551   -16591   -16613 
  -16582   -16513   -16480   -16549   -16673   -16754   -16784   -16798 
  -16738   -16576   -16417   -16326   -16272   -16266   -16308   -16317 
  -16276   -16289   -16417   -16594   -16710   -16762   -16792   -16753 
  -16637   -16571   -16603   -16636   -16645   -16680   -16700   -16681 
  -16692   -16700   -16618   -16491   -16399   -16308   -16197   -16158 
  -16237   -16389   -16541   -16634   -16665   -16688   -16722   -16719 
  -16676   -16638   -16605   -16568   -16568   -16599   -16607   -16580 
  -16538   -16478   -16432   -16457   -16530   -16579   -16591   -16595 
  -16594   -16571   -16541   -16533   -16534   -16551   -16609   -16669 
  -16669   -16633   -16613   -16587   -16540   -16494   -16455   -16428 
  -16460   -16556   -16659   -16726   -16735   -16672   -16565   -16465 
  -16387   -16364   -16405   -16475   -16572   -16676   -16715   -16696 
  -16671   -16623   -16540   -16463   -16407   -16357   -16322   -16313 
  -16320   -16378   -16502   -16609   -16650   -16694   -16726   -16672 
  -16607   -16623   -16672   -16722   -16745   -16677   -16586   -16573 
  -16576   -16540   -16530   -16533   -16472   -16414   -16443   -16506 
  -16545   -16590   -16629   -16617   -16602   -16610   -16598   -16563 
  -16530   -16501   -16479   -16465   -16471   -16509   -16529   -16501 
  -16457   -16436   -16444   -16487   -16561   -16649   -16707   -16698 
  -16649   -16617   -16580   -16525   -16525   -16590   -16648   -16692 
  -16727   -16699   -16607   -16530   -16476   -16399   -16345   -16384 
  -16468   -16528   -16571   -16584   -16580   -16602   -16609   -16572 
  -16568   -16595   -16613   -16644   -16660   -16611   -16548   -16515 
  -16490   -16455   -16430   -16447   -16484   -16514   -16560   -16630 
  -16644   -16588   -16556   -16583   -16650   -16713   -16688   -16600 
  -16557   -16555   -16530   -16490   -16453   -16414   -16386   -16413 
  -16501   -16607   -16686   -16708   -16690   -16648   -16572   -16482 
  -16433   -16461   -16540   -16592   -16594   -16583   -16559   -16486 
  -16407   -16380   -16395   -16436   -16510   -16587   -16642   -16691 
  -16734   -16746   -16717   -16663   -16599   -16510   -16406   -16374 
  -16444   -16533   -16596   -16636   -16657   -16696   -16725   -16669 
  -16582   -16559   -16563   -16536   -16509   -16513   -16517   -16517 
  -16548   -16615   -16654   -16640   -16595   -16522   -16447   -16421 
  -16432   -16436   -16411   -16398   -16445   -16501   -16519   -16568 
  -16652   -16673   -16629   -16591   -16571   -16560   -16579   -16598 
  -16588   -16580   -16588   -16578   -16536   -16515   -16551   -16582 
  -16575   -16556   -16530   -16519   -16568   -16640   -16660   -16627 
  -16579   -16560   -16588   -16603   -16556   -16488   -16456   -16476 
  -16526   -16557   -16546   -16529   -16526   -16537   -16571   -16592 
  -16540   -16470   -16490   -16561   -16582   -16561   -16553   -16564 
  -16591   -16610   -16602   -16605   -16633   -16618   -16537   -16467 
  -16464   -16490   -16498   -16534   -16614   -16657   -16650   -16646 
  -16625   -16563   -16529   -16553   -16583   -16602   -16617   -16578 
  -16501   -16470   -16479   -16465   -16449   -16491   -16563   -16591 
  -16572   -16540   -16522   -16528   -16542   -16572   -16625   -16660 
  -16636   -16584   -16559   -16553   -16541   -16525   -16510   -16503 
  -16495   -16470   -16471   -16528   -16579   -16594   -16605   -16606 
  -16603   -16641   -16686   -16672   -16618   -16557   -16513   -16522 
  -16541   -16519   -16510   -16533   -16534   -16522   -16530   -16515 
  -16471   -16467   -16506   -16537   -16545   -16545   -16555   -16595 
  -16638   -16656   -16646   -16609   -16560   -16537   -16526   -16515 
  -16521   -16519   -16497   -16494   -16524   -16565   -16622   -16673 
  -16671   -16632   -16615   -16606   -16559   -16502   -16490   -16519 
  -16538   -16533   -16551   -16582   -16569   -16532   -16524   -16532 
  -16510   -16497   -16529   -16556   -16553   -16544   -16541   -16559 
  -16576   -16564   -16541   -16544   -16549   -16537   -16540   -16559 
  -16553   -16546   -16563   -16575   -16573   -16580   -16609   -16633 
  -16640   -16644   -16633   -16594   -16557   -16534   -16510   -16503 
  -16525   -16530   -16503   -16499   -16538   -16573   -16588   -16609 
  -16625   -16599   -16537   -16487   -16468   -16494   -16571   -16619 
  -16596   -16565   -16549   -16517   -16490   -16491   -16497   -16497 
  -16514   -16544   -16548   -16552   -16598   -16665   -16717   -16719 
  -16669   -16591   -16513   -16467   -16464   -16491   -16526   -16546 
  -16564   -16591   -16575   -16525   -16521   -16551   -16571   -16595 
  -16609   -16580   -16526   -16494   -16505   -16530   -16549   -16560 
  -16549   -16526   -16530   -16557   -16573   -16573   -16557   -16542 
  -16553   -16579   -16595   -16609   -16622   -16623   -16598   -16559 
  -16546   -16568   -16565   -16518   -16495   -16510   -16530   -16556 
  -16580   -16583   -16559   -16525   -16514   -16544   -16582   -16586 
  -16569   -16578   -16598   -16594   -16580   -16569   -16542   -16511 
  -16509   -16514   -16511   -16513   -16503   -16487   -16507   -16537 
  -16518   -16479   -16492   -16546   -16582   -16618   -16687   -16729 
  -16704   -16652   -16598   -16542   -16515   -16533   -16540   -16519 
