Origin Time       2024/06/23 22:54:00
Lat.              35.645
Long.             140.060
Depth. (km)       72
Mag.              4.1
Station Code      TCGH11
Station Lat.      36.7084
Station Long.     139.7694
Station Height(m) 90
Record Time       2024/06/23 22:55:02
Sampling Freq(Hz) 100Hz
Duration Time(s)  120
Dir.              2
Scale Factor      2942(gal)/8224139
Max. Acc. (gal)   0.286
Last Correction   2024/06/23 22:55:02
Memo.             
[...]
   96330    96419    96361    96230    96218    96292    96284    96240 
   96296    96373    96353    96276    96229    96260    96357    96396 
   96307    96242    96304    96313    96179    96153    96315    96404 
   96365    96349    96331    96257    96219    96267    96327    96350 
   96344    96306    96260    96234    96244    96288    96348    96357 
   96286    96215    96245    96306    96313    96325    96360    96350 
   96287    96236    96248    96296    96345    96381    96368    96302 
   96263    96277    96290    96236    96156    96194    96353    96427 
   96327    96242    96331    96431    96329    96167    96186    96334 
   96408    96357    96269    96234    96299    96381    96346    96255 
   96260    96310    96310    96309    96323    96298    96273    96280 
   96241    96192    96272    96391    96361    96234    96205    96294 
   96357    96354    96342    96318    96275    96250    96245    96241 
   96292    96369    96334    96246    96315    96453    96388    96217 
   96232    96323    96267    96223    96349    96431    96344    96263 
   96264    96230    96196    96267    96329    96279    96257    96322 
   96313    96245    96286    96363    96338    96302    96360    96381 
   96268    96192    96264    96317    96273    96291    96407    96400 
   96209    96110    96242    96357    96300    96261    96337    96353 
   96265    96221    96241    96284    96365    96422    96396    96367 
   96353    96261    96159    96223    96367    96344    96248    96282 
   96298    96180    96184    96361    96375    96245    96295    96400 
   96265    96109    96259    96479    96427    96298    96354    96387 
   96240    96171    96276    96314    96252    96294    96367    96280 
   96192    96273    96337    96302    96349    96439    96353    96157 
   96121    96275    96418    96446    96385    96271    96210    96257 
   96290    96233    96214    96302    96354    96292    96260    96329 
   96354    96268    96210    96286    96390    96377    96317    96327 
   96292    96161    96192    96404    96417    96190    96149    96372 
   96462    96329    96300    96373    96268    96129    96222    96352 
   96291    96233    96329    96340    96199    96222    96422    96411 
   96218    96268    96456    96367    96202    96295    96357    96188 
   96141    96292    96315    96228    96282    96352    96287    96302 
   96417    96384    96300    96341    96354    96286    96286    96317 
   96272    96238    96272    96260    96214    96255    96300    96242 
   96209    96302    96367    96318    96318    96399    96375    96256 
   96252    96365    96375    96260    96225    96298    96346    96358 
   96361    96325    96241    96182    96214    96267    96284    96333 
   96387    96350    96282    96284    96302    96250    96234    96300 
   96336    96346    96364    96299    96192    96202    96321    96392 
   96375    96349    96307    96238    96226    96279    96304    96276 
   96248    96257    96287    96299    96299    96311    96337    96369 
   96352    96253    96210    96298    96373    96363    96356    96365 
   96295    96206    96252    96329    96273    96210    96256    96286 
   96241    96238    96288    96290    96298    96388    96426    96311 
   96260    96396    96446    96286    96184    96264    96300    96198 
   96186    96352    96433    96309    96201    96244    96298    96264 
   96241    96283    96331    96372    96353    96253    96245    96330 
   96291    96217    96325    96452    96368    96252    96306    96352 
   96249    96188    96260    96311    96317    96353    96341    96250 
   96249    96338    96329    96230    96234    96353    96411    96358 
   96257    96152    96164    96333    96435    96368    96292    96296 
   96306    96269    96241    96272    96313    96311    96287    96275 
   96292    96330    96358    96352    96296    96240    96263    96317 
   96309    96304    96357    96350    96275    96273    96282    96194 
   96164    96280    96353    96315    96319    96371    96329    96242 
   96250    96327    96330    96272    96298    96375    96315    96145 
   96153    96371    96441    96311    96337    96514    96454    96182 
   96093    96217    96268    96240    96288    96348    96303    96246 
   96256    96250    96268    96383    96454    96365    96255    96261 
   96307    96313    96304    96292    96280    96276    96263    96263 
   96276    96272    96265    96300    96352    96337    96302    96338 
   96336    96246    96245    96306    96269    96267    96418    96457 
   96269    96164    96244    96268    96240    96344    96429    96309 
   96223    96318    96334    96198    96165    96323    96433    96358 
   96267    96279    96294    96260    96267    96298    96271    96264 
   96373    96472    96385    96236    96259    96329    96228    96145 
   96264    96372    96326    96294    96326    96292    96223    96250 
   96325    96330    96310    96346    96365    96323    96304    96286 
   96202    96161    96249    96326    96288    96282    96388    96439 
   96338    96234    96257    96317    96314    96318    96341    96302 
   96223    96196    96250    96314    96291    96268    96356    96437 
   96385    96275    96222    96242    96255    96260    96329    96360 
   96267    96213    96292    96344    96292    96279    96377    96423 
   96317    96201    96207    96306    96372    96304    96203    96248 
   96338    96275    96169    96228    96398    96476    96421    96344 
   96296    96245    96234    96292    96287    96217    96283    96418 
   96327    96124    96165    96379    96423    96340    96377    96419 
   96273    96163    96272    96381    96337    96245    96215    96246 
   96300    96329    96286    96226    96253    96318    96302    96248 
   96268    96329    96385    96448    96414    96279    96219    96233 
   96180    96169    96350    96507    96395    96233    96252    96252 
   96168    96256    96422    96346    96203    96310    96408    96210 
   96064    96287    96519    96437    96292    96286    96248    96160 
   96180    96273    96286    96265    96361    96503    96472    96299 
   96230    96300    96331    96288    96284    96303    96279    96291 
   96356    96330    96233    96203    96225    96223    96240    96298 
   96314    96296    96325    96340    96291    96288    96373    96414 
   96354    96313    96273    96176    96180    96331    96394    96329 
   96327    96372    96304    96187    96186    96271    96292    96263 
   96303    96372    96350    96275    96256    96300    96315    96284 
   96294    96344    96346    96286    96242    96277    96318    96290 
   96287    96358    96373    96287    96252    96323    96319    96198 
   96184    96326    96373    96296    96342    96448    96327    96138 
   96198    96334    96290    96249    96395    96491    96345    96184 
   96199    96248    96234    96264    96334    96325    96277    96306 
   96331    96279    96246    96279    96298    96331    96418    96417 
   96299    96246    96253    96195    96182    96291    96369    96337 
   96311    96329    96286    96237    96300    96349    96273    96242 
   96338    96375    96259    96167    96223    96306    96310    96307 
   96361    96394    96330    96255    96277    96350    96336    96259 
   96267    96314    96277    96248    96307    96313    96232    96267 
   96415    96415    96271    96273    96407    96375    96241    96260 
   96315    96233    96167    96252    96334    96302    96284    96336 
   96350    96307    96264    96264    96313    96365    96352    96280 
   96259    96302    96298    96283    96349    96367    96259    96206 
   96265    96268    96219    96287    96412    96412    96342    96327 
   96288    96196    96210    96307    96290    96238    96336    96394 
   96260    96187    96288    96309    96211    96244    96369    96369 
   96340    96407    96381    96232    96218    96327    96276    96148 
   96260    96449    96385    96241    96294    96381    96300    96210 
   96284    96364    96302    96241    96288    96319    96269    96277 
   96354    96352    96299    96288    96244    96167    96228    96402 
   96433    96288    96230    96284    96265    96244    96334    96392 
   96313    96241    96302    96357    96268    96198    96299    96402 
   96363    96302    96318    96329    96265    96196    96207    96282 
   96375    96433    96383    96284    96249    96263    96269    96277 
   96304    96315    96303    96286    96240    96207    96290    96426 
   96453    96338    96223    96217    96263    96300    96323    96306 
   96267    96259    96261    96232    96218    96283    96363    96372 
   96358    96360    96280    96194    96288    96441    96408    96264 
   96234    96319    96341    96294    96291    96288    96233    96215 
   96277    96302    96271    96292    96296    96201    96202    96394 
   96476    96298    96175    96286    96365    96299    96303    96381 
   96342    96263    96315    96379    96326    96295    96323    96238 
   96137    96273    96437    96300    96129    96238    96373    96303 
   96260    96346    96345    96233    96217    96307    96354    96323 
   96295    96298    96306    96302    96294    96286    96317    96388 
   96375    96248    96188    96290    96373    96296    96228    96321 
   96400    96315    96226    96269    96321    96269    96225    96250 
   96245    96228    96314    96407    96376    96303    96284    96277 
   96264    96275    96317    96354    96333    96272    96265    96334 
   96380    96345    96292    96303    96313    96234    96179    96263 
   96349    96313    96259    96283    96304    96249    96226    96296 
   96336    96300    96302    96383    96423    96333    96222    96234 
   96315    96330    96283    96267    96306    96334    96298    96228 
   96213    96279    96380    96439    96399    96325    96309    96268 
   96144    96109    96250    96354    96299    96276    96384    96471 
   96417    96283    96218    96242    96264    96245    96240    96311 
   96412    96421    96323    96214    96184    96283    96388    96353 
   96287    96322    96354    96318    96310    96327    96294    96252 
   96245    96221    96202    96282    96379    96348    96292    96336 
   96334    96257    96283    96353    96318    96294    96340    96326 
   96280    96288    96287    96250    96276    96357    96363    96267 
   96223    96310    96395    96358    96263    96230    96263    96284 
   96282    96307    96350    96341    96279    96226    96205    96211 
   96245    96267    96252    96250    96276    96268    96228    96232 
   96302    96395    96448    96379    96194    96095    96242    96400 
   96306    96172    96236    96264    96133    96114    96292    96475 
   96557    96515    96411    96384    96371    96233    96148    96291 
   96404    96283    96183    96277    96307    96187    96219    96450 
   96583    96552    96472    96299    96052    95980    96148    96280 
   96275    96326    96419    96430    96444    96461    96323    96160 
   96252    96465    96479    96357    96269    96163    96055    96076 
   96178    96236    96311    96396    96284    96051    96034    96280 
   96531    96628    96628    96631    96595    96383    96024    95831 
   96003    96294    96407    96421    96487    96495    96322    96088 
   95975    95998    96147    96373    96450    96318    96257    96349 
   96345    96248    96295    96403    96287    96048    96093    96450 
   96680    96596    96466    96396    96287    96184    96136    96132 
   96242    96395    96346    96161    96183    96368    96390    96257 
   96201    96280    96396    96417    96306    96217    96300    96357 
   96182    96066    96242    96414    96367    96310    96342    96248 
   96009    95991    96375    96699    96515    96213    96322    96543 
   96407    96138    96175    96400    96414    96214    96097    96152 
   96306    96504    96587    96380    96066    96018    96194    96259 
   96218    96296    96431    96456    96375    96260    96194    96277 
   96423    96387    96246    96307    96430    96288    96115    96286 
   96539    96448    96228    96257    96333    96218    96133    96205 
   96253    96244    96350    96553    96566    96338    96178    96250 
   96342    96261    96128    96103    96184    96277    96299    96300 
   96410    96564    96523    96284    96137    96240    96394    96380 
   96299    96336    96349    96125    95872    95980    96349    96508 
   96326    96164    96275    96360    96153    96059    96417    96766 
   96657    96346    96182    96107    96126    96408    96657    96450 
   96188    96364    96433    95931    95621    96030    96360    96151 
   96155    96614    96687    96225    96086    96394    96454    96228 
   96215    96431    96566    96572    96433    96064    95766    95947 
   96322    96338    96201    96425    96691    96450    96132    96279 
   96480    96349    96264    96383    96317    96113    96246    96565 
   96588    96484    96522    96429    96111    95970    96105    96184 
   96196    96406    96623    96479    96175    96110    96215    96219 
   96145    96236    96508    96616    96408    96215    96218    96175 
   96078    96179    96337    96228    96021    96030    96088    96080 
   96371    96836    96788    96364    96344    96604    96430    95964 
   95906    96202    96336    96282    96263    96287    96342    96496 
   96647    96623    96566    96596    96439    96012    95629    95499 
   95612    95952    96438    96765    96650    96319    96222    96400 
   96468    96275    96175    96321    96414    96371    96417    96480 
   96350    96230    96263    96149    95928    96071    96491    96633 
   96560    96688    96770    96430    96057    96037    96053    95939 
   96094    96593    96831    96429    95852    95652    95825    96172 
   96480    96610    96672    96720    96519    96045    95877    96264 
   96462    96082    95897    96330    96642    96408    96249    96507 
   96719    96666    96591    96491    96245    96098    96240    96334 
   96164    95978    95868    95758    95781    96070    96458    96646 
   96552    96396    96375    96414    96330    96120    96024    96198 
   96419    96377    96144    96060    96226    96426    96496    96503 
   96500    96418    96237    95994    95791    95914    96415    96859 
   96973    96878    96635    96260    95948    95864    95936    96066 
   96327    96620    96572    96288    96238    96260    95953    95670 
   95926    96380    96471    96429    96588    96603    96271    96053 
   96257    96589    96735    96720    96599    96336    96047    95913 
   95897    95898    96032    96331    96510    96425    96385    96508 
   96462    96217    96192    96434    96552    96465    96462    96539 
   96417    96151    96079    96221    96283    96169    96066    96126 
   96307    96462    96418    96163    95929    95881    96016    96264 
   96418    96348    96242    96354    96642    96759    96577    96404 
   96437    96435    96211    96034    96088    96094    96002    96190 
   96600    96701    96439    96283    96291    96086    95735    95729 
   96151    96458    96367    96391    96817    96985    96585    96256 
   96271    96295    96291    96350    96292    96114    96075    96156 
   96126    96003    95993    96118    96244    96283    96229    96149 
   96205    96381    96414    96280    96304    96553    96714    96681 
   96755    97002    96985    96529    96040    95836    95827    95839 
   95809    95810    96036    96433    96543    96253    96101    96315 
   96480    96423    96425    96431    96217    96107    96357    96458 
   96128    95904    96120    96356    96318    96346    96600    96665 
   96379    96230    96495    96692    96476    96250    96271    96223 
   96078    96167    96368    96323    96141    96055    95959    95895 
   96121    96484    96630    96630    96587    96257    95794    95789 
   96147    96290    96296    96512    96677    96485    96284    96433 
   96658    96596    96394    96337    96304    96106    95936    96006 
   96152    96201    96338    96681    96885    96654    96230    95997 
   95958    95997    96152    96265    96084    95859    96030    96423 
   96554    96473    96473    96445    96321    96403    96693    96693 
   96272    95953    96048    96190    96066    95937    96087    96341 
   96444    96441    96456    96453    96321    96117    96066    96167 
   96190    96155    96299    96600    96769    96736    96685    96650 
   96496    96241    96025    95962    96099    96329    96435    96388 
   96337    96276    96087    95916    95976    96156    96282    96379 
   96469    96480    96391    96284    96242    96223    96091    95916 
   95985    96275    96426    96356    96292    96317    96346    96422 
   96610    96704    96541    96311    96191    96118    96090    96199 
   96404    96527    96508    96468    96398    96215    96048    96041 
   96111    96155    96213    96326    96392    96313    96194    96232 
   96391    96454    96402    96344    96280    96215    96237    96392 
   96558    96541    96344    96155    96097    96152    96237    96284 
   96240    96152    96196    96372    96438    96338    96282    96288 
   96130    95856    95843    96196    96570    96715    96765    96801 
   96672    96426    96282    96198    96099    96151    96307    96264 
   96113    96211    96423    96369    96187    96187    96276    96299 
   96319    96321    96260    96290    96429    96392    96145    96061 
   96240    96331    96233    96257    96423    96394    96187    96176 
   96417    96612    96601    96456    96291    96153    96078    96105 
   96159    96168    96242    96415    96511    96395    96198    96136 
   96153    96095    96080    96296    96581    96550    96236    96161 
   96487    96735    96568    96214    96012    95999    96086    96196 
   96269    96280    96282    96323    96379    96446    96558    96601 
   96466    96279    96159    96056    95979    96044    96257    96469 
   96550    96515    96461    96412    96317    96234    96260    96269 
   96148    96041    96060    96099    96115    96217    96344    96340 
   96330    96449    96462    96257    96133    96244    96392    96421 
   96400    96448    96546    96570    96471    96354    96337    96315 
   96121    95894    95956    96259    96442    96439    96431    96391 
   96226    96088    96124    96209    96238    96314    96438    96433 
   96294    96188    96172    96209    96268    96345    96431    96487 
   96487    96449    96399    96322    96229    96182    96194    96217 
   96221    96223    96292    96412    96442    96286    96095    96134 
   96348    96399    96245    96161    96236    96346    96427    96430 
   96319    96241    96313    96349    96219    96174    96334    96423 
   96333    96303    96364    96311    96137    96079    96255    96446 
   96438    96403    96469    96376    96045    95878    96125    96464 
   96498    96333    96259    96248    96226    96309    96421    96361 
   96309    96460    96537    96344    96174    96219    96284    96242 
   96223    96302    96358    96291    96148    96094    96255    96485 
   96510    96369    96303    96299    96248    96232    96314    96403 
