Origin Time       2024/06/23 22:54:00
Lat.              35.645
Long.             140.060
Depth. (km)       72
Mag.              4.1
Station Code      TCGH09
Station Lat.      36.8625
Station Long.     139.8364
Station Height(m) 461
Record Time       2024/06/23 22:55:05
Sampling Freq(Hz) 100Hz
Duration Time(s)  120
Dir.              2
Scale Factor      2942(gal)/8224139
Max. Acc. (gal)   0.228
Last Correction   2024/06/23 22:55:05
Memo.             
[...]
 -221097  -221124  -221125  -221132  -221135  -221104  -221069  -221077 
 -221107  -221080  -221024  -221062  -221147  -221140  -221071  -221053 
 -221090  -221115  -221108  -221105  -221107  -221115  -221130  -221124 
 -221119  -221130  -221125  -221094  -221059  -221062  -221082  -221080 
 -221098  -221146  -221140  -221101  -221100  -221105  -221089  -221090 
 -221092  -221063  -221044  -221051  -221093  -221163  -221179  -221139 
 -221104  -221077  -221089  -221143  -221142  -221096  -221097  -221104 
 -221076  -221063  -221066  -221071  -221096  -221107  -221123  -221155 
 -221155  -221128  -221096  -221062  -221065  -221098  -221103  -221077 
 -221066  -221090  -221107  -221082  -221069  -221086  -221088  -221073 
 -221093  -221135  -221150  -221144  -221139  -221136  -221121  -221097 
 -221092  -221098  -221097  -221086  -221061  -221050  -221066  -221096 
 -221140  -221148  -221089  -221027  -221028  -221086  -221142  -221147 
 -221113  -221113  -221175  -221201  -221131  -221055  -221038  -221069 
 -221136  -221163  -221093  -221034  -221038  -221032  -221061  -221146 
 -221170  -221140  -221128  -221104  -221098  -221125  -221119  -221100 
 -221096  -221070  -221053  -221080  -221123  -221139  -221098  -221035 
 -221017  -221051  -221098  -221125  -221117  -221130  -221174  -221163 
 -221093  -221067  -221085  -221084  -221086  -221119  -221125  -221100 
 -221120  -221166  -221142  -221066  -221027  -221051  -221096  -221100 
 -221089  -221112  -221130  -221131  -221138  -221130  -221108  -221092 
 -221093  -221111  -221105  -221071  -221057  -221067  -221082  -221096 
 -221104  -221094  -221076  -221086  -221127  -221124  -221067  -221061 
 -221131  -221193  -221194  -221147  -221101  -221066  -221030  -221024 
 -221065  -221117  -221148  -221151  -221120  -221055  -220999  -221005 
 -221066  -221115  -221120  -221121  -221150  -221165  -221142  -221127 
 -221132  -221115  -221085  -221093  -221107  -221094  -221062  -221030 
 -221046  -221096  -221100  -221073  -221093  -221155  -221192  -221165 
 -221108  -221092  -221111  -221124  -221121  -221092  -221058  -221065 
 -221090  -221101  -221096  -221080  -221073  -221085  -221109  -221155 
 -221197  -221178  -221112  -221076  -221066  -221042  -221065  -221127 
 -221111  -221051  -221063  -221104  -221112  -221119  -221128  -221111 
 -221067  -221034  -221051  -221109  -221140  -221128  -221117  -221130 
 -221143  -221136  -221112  -221097  -221090  -221063  -221027  -221032 
 -221063  -221080  -221107  -221134  -221142  -221143  -221119  -221090 
 -221104  -221116  -221093  -221065  -221061  -221073  -221089  -221103 
 -221111  -221136  -221157  -221125  -221084  -221088  -221119  -221135 
 -221121  -221088  -221063  -221081  -221113  -221104  -221066  -221063 
 -221103  -221142  -221150  -221105  -221035  -221028  -221082  -221108 
 -221120  -221147  -221139  -221112  -221098  -221088  -221071  -221065 
 -221090  -221125  -221135  -221117  -221088  -221086  -221121  -221132 
 -221111  -221089  -221073  -221094  -221144  -221151  -221092  -221005 
 -220968  -221028  -221128  -221174  -221177  -221182  -221177  -221130 
 -221062  -221016  -221038  -221136  -221211  -221175  -221088  -221038 
 -221050  -221094  -221127  -221127  -221085  -221031  -221050  -221127 
 -221159  -221139  -221115  -221105  -221100  -221074  -221042  -221053 
 -221090  -221112  -221123  -221116  -221090  -221070  -221066  -221077 
 -221100  -221135  -221159  -221135  -221073  -221038  -221059  -221121 
 -221177  -221166  -221115  -221088  -221080  -221085  -221090  -221063 
 -221039  -221063  -221104  -221108  -221084  -221071  -221073  -221085 
 -221127  -221167  -221173  -221179  -221179  -221157  -221124  -221076 
 -221039  -221066  -221115  -221124  -221098  -221046  -220996  -221007 
 -221090  -221144  -221105  -221066  -221111  -221154  -221125  -221093 
 -221098  -221115  -221144  -221182  -221173  -221134  -221117  -221086 
 -221043  -221032  -221026  -221013  -221053  -221112  -221125  -221120 
 -221128  -221115  -221088  -221080  -221090  -221109  -221121  -221124 
 -221128  -221127  -221108  -221093  -221107  -221139  -221147  -221111 
 -221067  -221058  -221059  -221049  -221059  -221101  -221136  -221148 
 -221146  -221144  -221143  -221112  -221061  -221038  -221051  -221073 
 -221108  -221140  -221119  -221081  -221080  -221085  -221100  -221132 
 -221152  -221147  -221107  -221058  -221062  -221089  -221073  -221049 
 -221080  -221143  -221169  -221135  -221090  -221070  -221059  -221059 
 -221090  -221135  -221143  -221131  -221125  -221103  -221073  -221088 
 -221123  -221105  -221078  -221123  -221181  -221152  -221094  -221086 
 -221101  -221093  -221084  -221084  -221070  -221062  -221094  -221130 
 -221117  -221088  -221088  -221119  -221134  -221120  -221119  -221130 
 -221116  -221082  -221047  -221032  -221071  -221132  -221138  -221119 
 -221112  -221104  -221113  -221121  -221107  -221100  -221088  -221073 
 -221096  -221112  -221103  -221105  -221113  -221117  -221120  -221092 
 -221051  -221051  -221065  -221073  -221098  -221128  -221139  -221150 
 -221152  -221117  -221081  -221085  -221093  -221085  -221078  -221077 
 -221070  -221059  -221082  -221142  -221161  -221113  -221090  -221121 
 -221130  -221108  -221107  -221116  -221096  -221074  -221103  -221131 
 -221115  -221107  -221105  -221081  -221074  -221090  -221080  -221074 
 -221112  -221147  -221134  -221082  -221035  -221035  -221071  -221105 
 -221125  -221142  -221148  -221143  -221127  -221116  -221107  -221081 
 -221081  -221117  -221130  -221117  -221105  -221088  -221057  -221028 
 -221057  -221132  -221151  -221131  -221143  -221143  -221105  -221078 
 -221057  -221034  -221046  -221081  -221101  -221120  -221144  -221139 
 -221107  -221073  -221058  -221081  -221120  -221123  -221089  -221071 
 -221107  -221148  -221132  -221097  -221097  -221128  -221155  -221148 
 -221107  -221071  -221077  -221094  -221082  -221078  -221107  -221124 
 -221134  -221146  -221109  -221066  -221094  -221135  -221135  -221108 
 -221071  -221043  -221028  -221034  -221085  -221159  -221189  -221161 
 -221113  -221093  -221100  -221088  -221076  -221108  -221123  -221088 
 -221070  -221080  -221076  -221076  -221098  -221130  -221144  -221138 
 -221135  -221125  -221089  -221063  -221058  -221050  -221069  -221127 
 -221175  -221182  -221146  -221092  -221047  -221022  -221008  -221011 
 -221032  -221077  -221161  -221248  -221265  -221198  -221115  -221051 
 -221015  -221008  -221012  -221031  -221084  -221136  -221151  -221131 
 -221113  -221108  -221084  -221063  -221096  -221152  -221184  -221182 
 -221162  -221136  -221097  -221054  -221046  -221074  -221101  -221089 
 -221043  -221013  -221042  -221093  -221104  -221097  -221124  -221166 
 -221165  -221128  -221109  -221123  -221119  -221089  -221076  -221069 
 -221055  -221065  -221111  -221150  -221140  -221101  -221081  -221081 
 -221077  -221071  -221077  -221088  -221109  -221134  -221142  -221139 
 -221146  -221169  -221161  -221098  -221063  -221082  -221067  -221009 
 -220996  -221044  -221092  -221117  -221148  -221165  -221132  -221103 
 -221124  -221128  -221078  -221059  -221103  -221136  -221117  -221085 
 -221073  -221082  -221112  -221128  -221108  -221092  -221108  -221130 
 -221134  -221124  -221116  -221109  -221088  -221066  -221082  -221111 
 -221108  -221097  -221100  -221096  -221081  -221063  -221044  -221053 
 -221108  -221173  -221194  -221171  -221135  -221107  -221098  -221100 
 -221094  -221094  -221100  -221089  -221063  -221051  -221065  -221089 
 -221109  -221121  -221113  -221089  -221082  -221097  -221104  -221116 
 -221140  -221138  -221111  -221105  -221112  -221115  -221124  -221135 
 -221115  -221071  -221047  -221049  -221065  -221097  -221104  -221089 
 -221119  -221166  -221154  -221103  -221062  -221047  -221071  -221130 
 -221158  -221109  -221044  -221038  -221069  -221092  -221104  -221089 
 -221076  -221120  -221173  -221166  -221147  -221162  -221151  -221092 
 -221020  -220990  -221038  -221117  -221152  -221151  -221142  -221120 
 -221103  -221103  -221098  -221098  -221128  -221146  -221121  -221088 
 -221063  -221043  -221034  -221042  -221071  -221104  -221108  -221103 
 -221132  -221159  -221132  -221093  -221088  -221112  -221131  -221132 
 -221127  -221101  -221071  -221077  -221078  -221067  -221094  -221123 
 -221116  -221100  -221085  -221066  -221050  -221066  -221107  -221117 
 -221092  -221080  -221103  -221121  -221096  -221055  -221071  -221125 
 -221139  -221116  -221100  -221123  -221166  -221155  -221109  -221098 
 -221109  -221109  -221103  -221105  -221128  -221143  -221135  -221113 
 -221078  -221053  -221059  -221069  -221076  -221108  -221140  -221130 
 -221080  -221042  -221067  -221117  -221134  -221142  -221163  -221162 
 -221107  -221022  -220970  -220995  -221073  -221152  -221186  -221166 
 -221128  -221103  -221078  -221063  -221070  -221080  -221094  -221135 
 -221170  -221151  -221113  -221093  -221074  -221066  -221088  -221124 
 -221152  -221154  -221111  -221050  -221032  -221061  -221088  -221094 
 -221080  -221058  -221070  -221109  -221135  -221143  -221124  -221090 
 -221092  -221112  -221104  -221065  -221035  -221061  -221105  -221117 
 -221130  -221142  -221119  -221115  -221140  -221132  -221098  -221071 
 -221055  -221077  -221112  -221107  -221070  -221039  -221055  -221120 
 -221152  -221120  -221089  -221093  -221113  -221136  -221144  -221109 
 -221071  -221092  -221115  -221103  -221105  -221109  -221101  -221125 
 -221166  -221167  -221136  -221109  -221105  -221100  -221062  -221022 
 -221022  -221038  -221051  -221093  -221146  -221165  -221154  -221113 
 -221049  -221004  -221011  -221062  -221109  -221121  -221112  -221104 
 -221101  -221107  -221109  -221119  -221150  -221185  -221184  -221142 
 -221117  -221134  -221128  -221082  -221053  -221062  -221071  -221063 
 -221050  -221044  -221027  -220989  -220962  -220968  -221011  -221080 
 -221130  -221130  -221112  -221146  -221228  -221269  -221224  -221167 
 -221151  -221162  -221192  -221217  -221178  -221090  -221030  -221000 
 -220974  -220966  -221005  -221067  -221094  -221081  -221094  -221147 
 -221205  -221254  -221251  -221197  -221177  -221197  -221175  -221096 
 -221011  -220973  -220973  -220981  -221005  -221026  -221036  -221074 
 -221123  -221161  -221188  -221211  -221233  -221228  -221182  -221144 
 -221151  -221175  -221152  -221084  -221011  -220963  -220970  -221019 
 -221090  -221154  -221162  -221144  -221158  -221182  -221205  -221236 
 -221248  -221224  -221161  -221086  -221057  -221050  -220993  -220920 
 -220908  -220955  -221017  -221076  -221111  -221062  -220936  -220847 
 -220881  -221019  -221175  -221250  -221232  -221190  -221147  -221096 
 -221080  -221107  -221132  -221142  -221140  -221128  -221123  -221134 
 -221132  -221100  -221058  -221023  -221012  -221044  -221104  -221162 
 -221201  -221188  -221108  -221020  -220997  -221046  -221105  -221121 
 -221113  -221093  -221046  -221017  -221062  -221154  -221239  -221286 
 -221270  -221188  -221063  -220931  -220830  -220834  -220968  -221128 
 -221242  -221312  -221324  -221271  -221194  -221128  -221113  -221171 
 -221208  -221142  -221049  -220995  -220968  -220976  -221020  -221059 
 -221092  -221115  -221085  -221020  -220970  -220932  -220932  -221013 
 -221138  -221260  -221367  -221409  -221360  -221273  -221178  -221062 
 -220938  -220862  -220885  -220997  -221162  -221324  -221406  -221375 
 -221275  -221140  -220993  -220882  -220846  -220899  -221030  -221144 
 -221158  -221128  -221107  -221054  -220989  -220985  -221039  -221093 
 -221128  -221119  -221057  -220997  -220977  -220997  -221053  -221134 
 -221227  -221297  -221294  -221227  -221174  -221178  -221205  -221236 
 -221248  -221188  -221080  -221026  -221042  -221057  -221038  -221019 
 -221020  -221019  -221003  -220996  -221026  -221066  -221059  -221015 
 -220997  -221034  -221103  -221171  -221194  -221152  -221101  -221112 
 -221177  -221225  -221220  -221213  -221211  -221135  -220997  -220909 
 -220901  -220927  -220978  -221085  -221216  -221275  -221238  -221166 
 -221127  -221140  -221200  -221271  -221262  -221115  -220980  -221004 
 -221098  -221132  -221104  -221050  -221003  -220966  -220926  -220930 
 -221005  -221074  -221081  -221067  -221070  -221070  -221071  -221085 
 -221103  -221123  -221179  -221293  -221398  -221385  -221239  -221097 
 -221054  -221062  -221053  -221032  -221040  -221097  -221146  -221124 
 -221062  -221023  -221034  -221104  -221178  -221175  -221113  -221053 
 -221008  -220972  -220941  -220932  -220985  -221105  -221227  -221266 
 -221255  -221259  -221243  -221181  -221101  -220990  -220872  -220855 
 -220982  -221144  -221239  -221277  -221252  -221148  -221031  -220957 
 -220916  -220919  -220959  -221050  -221209  -221351  -221358  -221252 
 -221170  -221140  -221050  -220895  -220830  -220912  -221050  -221179 
 -221297  -221347  -221266  -221150  -221135  -221161  -221132  -221089 
 -221042  -220972  -220891  -220822  -220847  -220996  -221136  -221163 
 -221144  -221196  -221317  -221395  -221336  -221147  -220945  -220855 
 -220912  -221061  -221198  -221256  -221255  -221188  -221032  -220866 
 -220785  -220837  -221022  -221247  -221413  -221470  -221391  -221231 
 -221104  -221084  -221169  -221260  -221232  -221067  -220866  -220776 
 -220866  -221061  -221228  -221306  -221250  -221085  -220957  -220957 
 -221028  -221116  -221178  -221204  -221163  -221008  -220816  -220765 
 -220930  -221258  -221586  -221738  -221667  -221449  -221224  -221081 
 -220973  -220868  -220823  -220828  -220831  -220869  -221001  -221165 
 -221216  -221094  -220900  -220785  -220811  -220930  -221042  -221094 
 -221086  -221026  -220950  -220932  -221003  -221124  -221236  -221273 
 -221256  -221275  -221340  -221385  -221414  -221447  -221405  -221208 
 -220908  -220656  -220545  -220583  -220749  -220988  -221181  -221266 
 -221279  -221260  -221220  -221159  -221090  -221030  -220997  -221032 
 -221151  -221289  -221362  -221328  -221206  -221049  -220911  -220824 
 -220811  -220904  -221093  -221260  -221305  -221252  -221194  -221188 
 -221196  -221182  -221161  -221151  -221161  -221185  -221173  -221089 
 -220980  -220928  -220993  -221096  -221092  -220993  -220953  -220988 
 -220985  -220947  -220995  -221162  -221355  -221464  -221472  -221422 
 -221343  -221251  -221189  -221188  -221228  -221239  -221152  -221008 
 -220918  -220909  -220907  -220877  -220862  -220918  -221073  -221259 
 -221319  -221217  -221082  -221011  -221003  -221001  -220949  -220868 
 -220816  -220818  -220896  -221061  -221219  -221305  -221350  -221360 
 -221309  -221204  -221097  -221030  -220992  -220976  -220984  -221003 
 -221044  -221108  -221150  -221154  -221108  -221036  -221032  -221136 
 -221247  -221260  -221161  -220969  -220789  -220743  -220824  -220977 
 -221200  -221444  -221567  -221512  -221358  -221197  -221093  -221043 
 -220976  -220892  -220897  -221024  -221169  -221211  -221151  -221089 
 -221062  -221036  -221013  -221042  -221154  -221274  -221259  -221128 
 -221007  -220905  -220828  -220858  -220986  -221135  -221266  -221354 
 -221367  -221320  -221224  -221112  -221065  -221120  -221224  -221300 
 -221301  -221233  -221134  -221050  -221016  -221000  -220963  -220915 
 -220874  -220892  -220976  -221039  -221038  -221012  -220996  -221008 
 -221020  -221017  -221067  -221165  -221201  -221181  -221215  -221316 
 -221381  -221336  -221216  -221071  -220938  -220854  -220839  -220885 
 -220959  -221027  -221094  -221178  -221263  -221328  -221346  -221301 
 -221220  -221140  -221078  -221054  -221069  -221089  -221119  -221171 
 -221175  -221074  -220927  -220847  -220908  -221074  -221232  -221296 
 -221270  -221227  -221220  -221251  -221258  -221166  -221027  -220959 
 -220957  -220955  -220966  -220999  -221016  -221019  -221036  -221070 
 -221094  -221100  -221100  -221094  -221054  -220974  -220909  -220909 
 -220957  -221028  -221131  -221213  -221228  -221221  -221232  -221229 
 -221173  -221081  -221000  -220981  -221065  -221225  -221387  -221462 
 -221385  -221228  -221127  -221107  -221111  -221112  -221116  -221128 
 -221139  -221113  -221026  -220909  -220824  -220799  -220822  -220874 
 -220946  -221043  -221169  -221274  -221298  -221279  -221242  -221159 
 -221063  -221001  -220973  -220995  -221069  -221170  -221267  -221316 
 -221281  -221196  -221128  -221107  -221108  -221097  -221071  -221050 
 -221039  -221040  -221081  -221147  -221190  -221200  -221165  -221069 
 -220919  -220761  -220696  -220781  -220968  -221177  -221368  -221499 
 -221503  -221367  -221165  -220996  -220931  -220968  -221026  -221076 
 -221134  -221181  -221193  -221170  -221115  -221044  -221005  -221007 
 -221016  -221008  -220981  -220947  -220918  -220931  -221020  -221158 
 -221274  -221331  -221336  -221313  -221260  -221165  -221053  -220957 
 -220909  -220928  -221015  -221152  -221271  -221297  -221225  -221136 
 -221105  -221120  -221105  -221031  -220943  -220901  -220938  -221062 
 -221209  -221302  -221352  -221363  -221296  -221177  -221077  -221017 
 -220954  -220862  -220808  -220857  -220965  -221070  -221155  -221213 
 -221244  -221233  -221177  -221101  -221028  -220962  -220935  -220969 
 -221054  -221169  -221259  -221275  -221247  -221212  -221170  -221136 
 -221107  -221049  -221009  -221008  -221001  -221001  -221047  -221105 
 -221128  -221108  -221086  -221108  -221174  -221223  -221208  -221181 
 -221173  -221135  -221076  -221055  -221069  -221097  -221135  -221169 
 -221198  -221201  -221169  -221158  -221189  -221190  -221136  -221065 
 -220984  -220919  -220916  -220974  -221071  -221175  -221217  -221152 
 -221039  -220955  -220927  -220928  -220931  -220961  -221044  -221139 
 -221174  -221161  -221157  -221200  -221255  -221262  -221198  -221112 
 -221061  -221053  -221042  -221030  -221066  -221144  -221208  -221243 
 -221238  -221174  -221093  -221039  -220986  -220930  -220907  -220927 
 -220990  -221074  -221147  -221206  -221247  -221254  -221231  -221178 
 -221127  -221135  -221181  -221197  -221186  -221154  -221082  -220985 
 -220896  -220842  -220835  -220860  -220897  -220949  -220996  -221008 
 -220990  -220995  -221039  -221086  -221132  -221192  -221266  -221336 
 -221354  -221306  -221246  -221215  -221204  -221193  -221190  -221200 
 -221224  -221239  -221201  -221132  -221105  -221131  -221148  -221124 
 -221070  -221026  -221013  -221005  -220993  -221012  -221053  -221073 
 -221078  -221089  -221092  -221081  -221082  -221098  -221082  -221020 
 -220958  -220938  -220977  -221080  -221190  -221235  -221200  -221125 
 -221066  -221066  -221108  -221135  -221121  -221089  -221070  -221070 
 -221069  -221080  -221107  -221131  -221173  -221243  -221269  -221200 
 -221107  -221085  -221132  -221174  -221161  -221112  -221062  -221039 
 -221043  -221024  -220962  -220911  -220911  -220969  -221051  -221107 
 -221131  -221155  -221178  -221178  -221184  -221221  -221252  -221240 
 -221186  -221112  -221044  -221003  -220981  -220978  -220995  -221022 
 -221057  -221094  -221131  -221157  -221165  -221154  -221121  -221096 
 -221108  -221132  -221143  -221127  -221070  -221003  -220977  -221003 
 -221071  -221163  -221233  -221244  -221194  -221128  -221098  -221111 
 -221139  -221167  -221184  -221179  -221150  -221100  -221042  -220995 
