Origin Time       2024/06/23 22:54:00
Lat.              35.645
Long.             140.060
Depth. (km)       72
Mag.              4.1
Station Code      TCGH09
Station Lat.      36.8625
Station Long.     139.8364
Station Height(m) 564
Record Time       2024/06/23 22:55:05
Sampling Freq(Hz) 100Hz
Duration Time(s)  120
Dir.              5
Scale Factor      7845(gal)/8223790
Max. Acc. (gal)   1.109
Last Correction   2024/06/23 22:55:05
Memo.             
[...]
   -6095    -6251    -6305    -6226    -6093    -5973    -5904    -5968 
   -6160    -6330    -6349    -6230    -6045    -5879    -5845    -5957 
   -6115    -6245    -6300    -6251    -6150    -6084    -6087    -6126 
   -6134    -6069    -6019    -6075    -6133    -6111    -6081    -6070 
   -6073    -6115    -6188    -6258    -6269    -6215    -6158    -6058 
   -5891    -5829    -5965    -6153    -6237    -6216    -6177    -6143 
   -6093    -6065    -6097    -6150    -6153    -6087    -6010    -6014 
   -6139    -6303    -6322    -6170    -6033    -6006    -6015    -6023 
   -6050    -6110    -6173    -6199    -6204    -6226    -6227    -6151 
   -5996    -5829    -5769    -5903    -6172    -6423    -6500    -6324 
   -6004    -5779    -5799    -6050    -6369    -6519    -6384    -6081 
   -5833    -5782    -5934    -6187    -6385    -6411    -6255    -6034 
   -5880    -5863    -5964    -6112    -6226    -6234    -6160    -6112 
   -6102    -6069    -6038    -6041    -6060    -6102    -6173    -6235 
   -6251    -6226    -6183    -6088    -5934    -5898    -6043    -6180 
   -6205    -6173    -6112    -6050    -6046    -6141    -6254    -6239 
   -6141    -6111    -6087    -5972    -5915    -6027    -6154    -6173 
   -6146    -6124    -6103    -6127    -6210    -6243    -6149    -6029 
   -6012    -6087    -6169    -6220    -6203    -6083    -5933    -5888 
   -5998    -6177    -6301    -6288    -6160    -6026    -5940    -5923 
   -6034    -6219    -6308    -6254    -6158    -6097    -6068    -6064 
   -6122    -6196    -6165    -6054    -5996    -6025    -6073    -6108 
   -6150    -6191    -6191    -6135    -6052    -6015    -6048    -6087 
   -6119    -6177    -6204    -6161    -6120    -6115    -6095    -6072 
   -6103    -6141    -6095    -6008    -6019    -6129    -6220    -6255 
   -6224    -6097    -5946    -5925    -6057    -6207    -6277    -6246 
   -6116    -5977    -5954    -6062    -6191    -6242    -6199    -6093 
   -5995    -5994    -6080    -6170    -6239    -6246    -6154    -6060 
   -6054    -6107    -6153    -6146    -6102    -6019    -5910    -5913 
   -6084    -6249    -6300    -6311    -6277    -6133    -5964    -5911 
   -5944    -5999    -6102    -6212    -6242    -6216    -6168    -6075 
   -5972    -5973    -6100    -6222    -6253    -6234    -6158    -6039 
   -5975    -6000    -6077    -6173    -6243    -6232    -6131    -6019 
   -6012    -6107    -6177    -6176    -6119    -6014    -5934    -6000 
   -6153    -6231    -6227    -6200    -6130    -6033    -5987    -6030 
   -6123    -6223    -6291    -6262    -6151    -6062    -6015    -5972 
   -5965    -6012    -6054    -6080    -6161    -6285    -6328    -6224 
   -6064    -5945    -5915    -5983    -6099    -6227    -6328    -6315 
   -6180    -6038    -5971    -5965    -6016    -6122    -6208    -6189 
   -6120    -6104    -6142    -6183    -6165    -6068    -6008    -6079 
   -6161    -6157    -6120    -6107    -6096    -6069    -6079    -6141 
   -6180    -6151    -6085    -6010    -5968    -6023    -6151    -6237 
   -6243    -6204    -6124    -6034    -6014    -6080    -6165    -6207 
   -6185    -6104    -5987    -5881    -5873    -6033    -6274    -6408 
   -6388    -6291    -6133    -5953    -5850    -5869    -5998    -6173 
   -6297    -6309    -6219    -6085    -5989    -5981    -6043    -6146 
   -6232    -6243    -6195    -6135    -6083    -6027    -5969    -5977 
   -6079    -6158    -6157    -6124    -6127    -6183    -6205    -6160 
   -6124    -6096    -6048    -6034    -6043    -6052    -6096    -6147 
   -6157    -6141    -6114    -6091    -6116    -6219    -6345    -6373 
   -6220    -5948    -5730    -5680    -5806    -6054    -6288    -6378 
   -6332    -6251    -6177    -6119    -6110    -6119    -6064    -5973 
   -5967    -6050    -6142    -6204    -6238    -6226    -6150    -6065 
   -6037    -6053    -6092    -6145    -6142    -6060    -6007    -6076 
   -6200    -6264    -6235    -6131    -6007    -5938    -5960    -6035 
   -6110    -6174    -6243    -6289    -6257    -6157    -6056    -5985 
   -5958    -5981    -6041    -6131    -6230    -6269    -6201    -6065 
   -5972    -5994    -6114    -6255    -6319    -6243    -6077    -5914 
   -5810    -5838    -6031    -6282    -6430    -6388    -6205    -6018 
   -5945    -5998    -6087    -6145    -6165    -6134    -6091    -6085 
   -6093    -6093    -6115    -6166    -6193    -6153    -6096    -6069 
   -6052    -6049    -6091    -6156    -6199    -6203    -6176    -6126 
   -6037    -5965    -5980    -6039    -6108    -6188    -6227    -6218 
   -6189    -6130    -6065    -6068    -6124    -6150    -6133    -6089 
   -6003    -5937    -5998    -6133    -6223    -6255    -6234    -6157 
   -6072    -6031    -6031    -6033    -6043    -6104    -6172    -6174 
   -6138    -6130    -6149    -6162    -6138    -6062    -5992    -6021 
   -6133    -6215    -6228    -6228    -6224    -6157    -6043    -5989 
   -5985    -5972    -6011    -6129    -6205    -6208    -6199    -6174 
   -6116    -6073    -6080    -6092    -6077    -6068    -6080    -6097 
   -6114    -6115    -6104    -6115    -6141    -6183    -6212    -6149 
   -6050    -6043    -6097    -6116    -6095    -6085    -6118    -6153 
   -6164    -6151    -6095    -6019    -6011    -6089    -6174    -6211 
   -6204    -6176    -6124    -6075    -6085    -6147    -6170    -6122 
   -6035    -5945    -5904    -5973    -6106    -6215    -6257    -6201 
   -6085    -6016    -6039    -6134    -6246    -6322    -6304    -6157 
   -5989    -5934    -5973    -6046    -6129    -6178    -6176    -6162 
   -6170    -6174    -6139    -6072    -5991    -5930    -5968    -6118 
   -6270    -6342    -6295    -6137    -5980    -5913    -5945    -6060 
   -6212    -6340    -6358    -6222    -6041    -5948    -5950    -6011 
   -6079    -6102    -6092    -6076    -6080    -6161    -6264    -6262 
   -6173    -6096    -6057    -6035    -6035    -6052    -6060    -6084 
   -6127    -6153    -6176    -6234    -6289    -6234    -6065    -5923 
   -5890    -5929    -6041    -6208    -6327    -6342    -6276    -6154 
   -6026    -5950    -5945    -5988    -6061    -6145    -6197    -6197 
   -6145    -6077    -6049    -6037    -6033    -6092    -6183    -6243 
   -6276    -6258    -6180    -6069    -5975    -5958    -6011    -6041 
   -6048    -6079    -6120    -6177    -6243    -6295    -6299    -6214 
   -6076    -5953    -5884    -5910    -6026    -6153    -6239    -6258 
   -6196    -6102    -6039    -6049    -6103    -6139    -6137    -6126 
   -6124    -6118    -6100    -6099    -6084    -6060    -6104    -6192 
   -6226    -6193    -6131    -6061    -6026    -6035    -6053    -6064 
   -6087    -6115    -6142    -6178    -6212    -6247    -6246    -6146 
   -6002    -5917    -5902    -5972    -6131    -6265    -6288    -6218 
   -6127    -6080    -6076    -6093    -6120    -6119    -6088    -6066 
   -6062    -6075    -6106    -6126    -6116    -6097    -6100    -6137 
   -6181    -6204    -6183    -6135    -6108    -6092    -6057    -6046 
   -6065    -6066    -6065    -6104    -6160    -6189    -6178    -6150 
   -6139    -6143    -6131    -6107    -6093    -6069    -6012    -5967 
   -5996    -6092    -6197    -6255    -6262    -6230    -6154    -6077 
   -6053    -6054    -6038    -6029    -6076    -6161    -6212    -6203 
   -6149    -6069    -6004    -6000    -6079    -6187    -6238    -6207 
   -6120    -6011    -5957    -6019    -6130    -6218    -6268    -6239 
   -6119    -5994    -5953    -5998    -6092    -6211    -6272    -6203 
   -6088    -6026    -6022    -6058    -6106    -6135    -6157    -6169 
   -6157    -6110    -6050    -6033    -6058    -6080    -6093    -6123 
   -6166    -6210    -6235    -6227    -6181    -6119    -6075    -6046 
   -6014    -6000    -6037    -6097    -6133    -6135    -6130    -6122 
   -6123    -6142    -6173    -6183    -6158    -6141    -6147    -6115 
   -6039    -5999    -6012    -6046    -6095    -6160    -6203    -6187 
   -6146    -6122    -6080    -6022    -6014    -6052    -6091    -6137 
   -6172    -6187    -6204    -6222    -6181    -6072    -5985    -5995 
   -6048    -6085    -6138    -6204    -6211    -6126    -6026    -5991 
   -6014    -6072    -6149    -6203    -6203    -6158    -6111    -6095 
   -6097    -6097    -6102    -6110    -6114    -6126    -6130    -6115 
   -6119    -6161    -6234    -6284    -6227    -6089    -5994    -5984 
   -6010    -6058    -6123    -6143    -6110    -6073    -6056    -6066 
   -6120    -6191    -6216    -6169    -6085    -6012    -5984    -6046 
   -6165    -6208    -6162    -6120    -6110    -6110    -6115    -6120 
   -6103    -6073    -6096    -6162    -6192    -6161    -6087    -6008 
   -5979    -6021    -6127    -6253    -6315    -6254    -6088    -5935 
   -5910    -5991    -6108    -6212    -6242    -6195    -6127    -6070 
   -6043    -6058    -6120    -6196    -6218    -6169    -6093    -6027 
   -6012    -6066    -6139    -6162    -6120    -6068    -6058    -6085 
   -6118    -6123    -6097    -6077    -6081    -6110    -6158    -6204 
   -6220    -6181    -6114    -6080    -6077    -6084    -6112    -6157 
   -6164    -6075    -5946    -5915    -5998    -6119    -6228    -6280 
   -6270    -6234    -6180    -6116    -6061    -6011    -5988    -5992 
   -6012    -6091    -6191    -6228    -6220    -6191    -6137    -6116 
   -6151    -6173    -6129    -6027    -5938    -5931    -6006    -6108 
   -6192    -6228    -6199    -6122    -6087    -6118    -6130    -6097 
   -6057    -5998    -5919    -5908    -6034    -6219    -6343    -6355 
   -6265    -6147    -6088    -6108    -6166    -6203    -6191    -6130 
   -6041    -5980    -5988    -6035    -6081    -6092    -6053    -6035 
   -6085    -6115    -6076    -6033    -6053    -6112    -6160    -6196 
   -6238    -6268    -6270    -6230    -6161    -6088    -6026    -6007 
   -6072    -6183    -6250    -6224    -6126    -6025    -5938    -5879 
   -5923    -6053    -6153    -6173    -6154    -6165    -6220    -6268 
   -6281    -6273    -6234    -6164    -6061    -5969    -5958    -6002 
   -6016    -5985    -5956    -5992    -6100    -6230    -6326    -6335 
   -6250    -6135    -6052    -6023    -6052    -6107    -6151    -6180 
   -6170    -6096    -6000    -5952    -5979    -6083    -6208    -6266 
   -6235    -6164    -6112    -6111    -6160    -6245    -6313    -6276 
   -6137    -5992    -5894    -5863    -5925    -6039    -6133    -6173 
   -6177    -6151    -6053    -5902    -5790    -5749    -5799    -5981 
   -6249    -6463    -6525    -6419    -6192    -5965    -5850    -5883 
   -6022    -6187    -6291    -6319    -6297    -6203    -6068    -5988 
   -5996    -6084    -6203    -6285    -6324    -6335    -6258    -6066 
   -5899    -5900    -6041    -6192    -6242    -6177    -6060    -5935 
   -5860    -5902    -6034    -6203    -6376    -6474    -6424    -6247 
   -6030    -5849    -5711    -5667    -5791    -6041    -6309    -6497 
   -6527    -6455    -6357    -6220    -6058    -5922    -5810    -5719 
   -5707    -5838    -6092    -6353    -6488    -6435    -6227    -5984 
   -5836    -5834    -5946    -6066    -6100    -6083    -6102    -6177 
   -6286    -6436    -6620    -6744    -6689    -6396    -5933    -5487 
   -5283    -5404    -5764    -6207    -6544    -6637    -6474    -6130 
   -5800    -5695    -5813    -5999    -6160    -6270    -6320    -6322 
   -6281    -6197    -6076    -5935    -5853    -5913    -6081    -6249 
   -6308    -6197    -5981    -5849    -5942    -6211    -6455    -6497 
   -6315    -6008    -5753    -5741    -5995    -6331    -6490    -6340 
   -6035    -5845    -5857    -5999    -6203    -6359    -6328    -6127 
   -5944    -5915    -6016    -6173    -6301    -6277    -6083    -5913 
   -5971    -6219    -6413    -6378    -6123    -5768    -5540    -5653 
   -6089    -6585    -6840    -6660    -6115    -5563    -5327    -5478 
   -5896    -6366    -6656    -6644    -6411    -6158    -6068    -6172 
   -6336    -6388    -6230    -5933    -5697    -5682    -5903    -6195 
   -6320    -6253    -6099    -5948    -5894    -5948    -6023    -6070 
   -6089    -6079    -6061    -6081    -6177    -6274    -6243    -6111 
   -6019    -6064    -6223    -6380    -6434    -6376    -6238    -6072 
   -5935    -5886    -5930    -6016    -6103    -6149    -6142    -6139 
   -6188    -6250    -6259    -6181    -6068    -6007    -5999    -5996 
   -5996    -6018    -6069    -6147    -6247    -6332    -6349    -6284 
   -6162    -5968    -5703    -5486    -5481    -5742    -6156    -6531 
   -6725    -6702    -6529    -6281    -6012    -5751    -5535    -5467 
   -5628    -5975    -6401    -6763    -6890    -6667    -6157    -5636 
   -5371    -5432    -5791    -6322    -6752    -6901    -6795    -6582 
   -6389    -6222    -6026    -5822    -5664    -5616    -5706    -5827 
   -5875    -5896    -5983    -6133    -6284    -6399    -6494    -6577 
   -6597    -6436    -6022    -5512    -5194    -5231    -5564    -6004 
   -6362    -6540    -6538    -6428    -6315    -6270    -6291    -6303 
   -6237    -6110    -6022    -6025    -6058    -6041    -5975    -5930 
   -5971    -6131    -6326    -6374    -6237    -6108    -6168    -6369 
   -6575    -6658    -6467    -6019    -5572    -5370    -5483    -5852 
   -6266    -6450    -6284    -5937    -5707    -5783    -6141    -6575 
   -6829    -6723    -6278    -5753    -5433    -5374    -5468    -5625 
   -5806    -6034    -6346    -6713    -7048    -7177    -6940    -6353 
   -5621    -5063    -4949    -5285    -5848    -6345    -6538    -6386 
   -6083    -5891    -6022    -6471    -6951    -7090    -6771    -6210 
   -5726    -5528    -5645    -5914    -6057    -5899    -5563    -5355 
   -5475    -5896    -6438    -6868    -7017    -6841    -6466    -6150 
   -6072    -6180    -6266    -6134    -5782    -5432    -5336    -5609 
   -6176    -6724    -6893    -6548    -5938    -5517    -5543    -5956 
   -6505    -6867    -6804    -6327    -5703    -5327    -5427    -5877 
   -6372    -6682    -6751    -6613    -6301    -5930    -5682    -5660 
   -5837    -6065    -6192    -6222    -6232    -6227    -6158    -6030 
   -5944    -5971    -6038    -6069    -6102    -6162    -6219    -6281 
   -6385    -6504    -6535    -6357    -5950    -5466    -5166    -5262 
   -5717    -6265    -6677    -6889    -6898    -6706    -6378    -6062 
   -5876    -5791    -5698    -5549    -5390    -5360    -5595    -6035 
   -6493    -6822    -6933    -6802    -6517    -6184    -5918    -5800 
   -5806    -5871    -5934    -5973    -6037    -6096    -6092    -6060 
   -6092    -6227    -6382    -6420    -6308    -6116    -5935    -5826 
   -5813    -5873    -5985    -6118    -6218    -6254    -6277    -6349 
   -6435    -6459    -6390    -6215    -5994    -5849    -5842    -5957 
   -6142    -6304    -6305    -6111    -5875    -5764    -5802    -5934 
   -6147    -6413    -6615    -6623    -6426    -6111    -5809    -5621 
   -5553    -5575    -5715    -5992    -6334    -6604    -6745    -6790 
   -6689    -6388    -5961    -5549    -5327    -5433    -5809    -6246 
   -6540    -6586    -6420    -6110    -5728    -5483    -5589    -6027 
   -6577    -6924    -6883    -6517    -6006    -5553    -5317    -5377 
   -5714    -6160    -6488    -6605    -6548    -6424    -6359    -6365 
   -6288    -6006    -5601    -5300    -5283    -5568    -6062    -6609 
   -6970    -6986    -6727    -6384    -6095    -5921    -5853    -5848 
   -5868    -5900    -5996    -6192    -6411    -6546    -6508    -6250 
   -5853    -5508    -5393    -5557    -5898    -6251    -6511    -6613 
   -6561    -6424    -6274    -6129    -5977    -5800    -5626    -5549 
   -5663    -5946    -6247    -6409    -6399    -6288    -6199    -6205 
   -6259    -6265    -6183    -6035    -5898    -5861    -5965    -6161 
   -6347    -6447    -6443    -6342    -6173    -5949    -5724    -5605 
   -5637    -5783    -5999    -6226    -6427    -6594    -6686    -6681 
   -6585    -6389    -6131    -5894    -5728    -5649    -5686    -5849 
   -6058    -6164    -6093    -5906    -5734    -5714    -5915    -6272 
   -6589    -6723    -6656    -6419    -6077    -5772    -5656    -5764 
   -5956    -6114    -6250    -6366    -6419    -6409    -6372    -6322 
   -6247    -6151    -6058    -5937    -5796    -5738    -5792    -5907 
   -6052    -6216    -6365    -6408    -6269    -6002    -5733    -5563 
   -5584    -5830    -6207    -6547    -6740    -6762    -6615    -6331 
   -5999    -5705    -5536    -5583    -5845    -6216    -6547    -6704 
   -6652    -6440    -6147    -5880    -5736    -5738    -5818    -5883 
   -5911    -5954    -6037    -6139    -6254    -6390    -6507    -6532 
   -6446    -6282    -6079    -5845    -5629    -5543    -5628    -5814 
   -6062    -6353    -6609    -6729    -6636    -6365    -6083    -5918 
   -5867    -5837    -5773    -5757    -5884    -6124    -6386    -6567 
   -6624    -6552    -6336    -6034    -5773    -5621    -5617    -5772 
   -5992    -6170    -6253    -6226    -6134    -6058    -6037    -6068 
   -6141    -6235    -6292    -6276    -6211    -6126    -6079    -6122 
   -6218    -6269    -6245    -6178    -6114    -6068    -6041    -6043 
   -6092    -6135    -6089    -5964    -5871    -5875    -5945    -6021 
   -6081    -6161    -6264    -6351    -6405    -6373    -6238    -6112 
   -6072    -6080    -6084    -6075    -6084    -6111    -6114    -6096 
   -6112    -6174    -6237    -6243    -6176    -6072    -5971    -5872 
   -5780    -5772    -5921    -6161    -6345    -6386    -6281    -6099 
   -5937    -5868    -5927    -6084    -6239    -6316    -6292    -6210 
   -6162    -6178    -6215    -6228    -6170    -6057    -5981    -5981 
   -6029    -6087    -6103    -6069    -6033    -6026    -6066    -6147 
   -6204    -6164    -6015    -5830    -5748    -5841    -6060    -6307 
   -6482    -6521    -6467    -6401    -6324    -6205    -6068    -5976 
   -5957    -5961    -5965    -5996    -6031    -6056    -6084    -6092 
   -6060    -6023    -6031    -6088    -6115    -6049    -5935    -5859 
   -5891    -6050    -6262    -6450    -6566    -6551    -6401    -6176 
   -5977    -5915    -6008    -6169    -6299    -6353    -6340    -6254 
   -6100    -5961    -5896    -5914    -5965    -5962    -5904    -5899 
   -6018    -6235    -6432    -6470    -6311    -6043    -5795    -5671 
   -5746    -6007    -6303    -6457    -6407    -6197    -5923    -5722 
   -5726    -5942    -6215    -6404    -6444    -6319    -6133    -6039 
   -6111    -6297    -6415    -6328    -6095    -5833    -5672    -5741 
   -6018    -6340    -6546    -6538    -6328    -6014    -5744    -5710 
   -5923    -6187    -6328    -6303    -6158    -6007    -5922    -5907 
   -5913    -5931    -6014    -6143    -6241    -6308    -6378    -6434 
   -6431    -6343    -6183    -6003    -5877    -5861    -5945    -6076 
   -6187    -6237    -6231    -6172    -6068    -5992    -5980    -5995 
   -6014    -6022    -5985    -5931    -5942    -6062    -6250    -6393 
   -6390    -6246    -6072    -5952    -5925    -6025    -6210    -6366 
   -6415    -6324    -6131    -5953    -5888    -5948    -6073    -6185 
   -6251    -6262    -6207    -6111    -6021    -6002    -6072    -6157 
   -6200    -6211    -6193    -6162    -6160    -6193    -6218    -6170 
   -6056    -5925    -5829    -5827    -5952    -6156    -6343    -6421 
