Origin Time       2024/06/23 22:54:00
Lat.              35.645
Long.             140.060
Depth. (km)       72
Mag.              4.1
Station Code      TCGH09
Station Lat.      36.8625
Station Long.     139.8364
Station Height(m) 564
Record Time       2024/06/23 22:55:05
Sampling Freq(Hz) 100Hz
Duration Time(s)  120
Dir.              4
Scale Factor      7845(gal)/8223790
Max. Acc. (gal)   1.309
Last Correction   2024/06/23 22:55:05
Memo.             
[...]
   -4131    -4097    -4077    -4104    -4133    -4172    -4239    -4280 
   -4243    -4148    -4067    -4021    -3990    -4008    -4082    -4125 
   -4121    -4172    -4267    -4274    -4207    -4187    -4205    -4162 
   -4064    -4014    -4032    -4031    -4018    -4097    -4205    -4233 
   -4233    -4237    -4159    -4000    -3913    -3977    -4095    -4160 
   -4194    -4237    -4251    -4206    -4121    -4037    -4037    -4117 
   -4170    -4187    -4226    -4222    -4136    -4060    -4025    -3983 
   -3973    -4055    -4168    -4197    -4155    -4143    -4185    -4229 
   -4234    -4178    -4085    -3991    -3959    -4051    -4212    -4298 
   -4266    -4187    -4139    -4118    -4098    -4104    -4156    -4176 
   -4093    -3982    -3963    -4029    -4120    -4233    -4299    -4213 
   -4054    -4010    -4105    -4191    -4216    -4236    -4202    -4072 
   -3978    -3994    -4039    -4094    -4207    -4297    -4244    -4112 
   -4081    -4151    -4149    -4060    -4048    -4114    -4136    -4121 
   -4144    -4180    -4197    -4214    -4195    -4093    -3978    -3948 
   -4010    -4129    -4244    -4276    -4201    -4089    -4035    -4068 
   -4162    -4256    -4271    -4189    -4108    -4072    -4039    -4027 
   -4074    -4129    -4135    -4120    -4132    -4132    -4078    -4050 
   -4117    -4222    -4264    -4218    -4162    -4137    -4102    -4070 
   -4097    -4156    -4171    -4132    -4087    -4059    -4051    -4087 
   -4160    -4191    -4149    -4120    -4147    -4148    -4089    -4062 
   -4120    -4185    -4178    -4128    -4104    -4118    -4149    -4176 
   -4153    -4105    -4091    -4075    -4048    -4071    -4124    -4152 
   -4159    -4170    -4185    -4170    -4137    -4140    -4172    -4199 
   -4209    -4171    -4070    -3969    -3967    -4054    -4126    -4176 
   -4221    -4183    -4099    -4114    -4193    -4189    -4117    -4086 
   -4095    -4085    -4078    -4135    -4217    -4248    -4221    -4183 
   -4125    -4050    -4017    -4008    -3982    -4014    -4116    -4194 
   -4251    -4302    -4282    -4190    -4099    -4033    -3986    -4025 
   -4167    -4267    -4236    -4160    -4102    -4043    -3997    -3996 
   -4048    -4141    -4240    -4290    -4244    -4158    -4122    -4112 
   -4087    -4091    -4137    -4174    -4147    -4082    -4054    -4054 
   -4047    -4048    -4051    -4078    -4176    -4283    -4291    -4205 
   -4099    -4044    -4056    -4108    -4176    -4232    -4209    -4097 
   -4004    -4013    -4066    -4118    -4198    -4263    -4257    -4199 
   -4121    -4044    -4006    -4036    -4093    -4145    -4206    -4233 
   -4183    -4125    -4120    -4139    -4128    -4079    -4035    -4031 
   -4044    -4071    -4140    -4218    -4266    -4276    -4232    -4168 
   -4140    -4132    -4085    -3982    -3920    -3990    -4118    -4210 
   -4252    -4259    -4236    -4166    -4068    -4043    -4081    -4090 
   -4083    -4109    -4129    -4093    -4063    -4135    -4243    -4288 
   -4299    -4267    -4140    -3983    -3905    -3927    -4021    -4140 
   -4234    -4260    -4206    -4143    -4139    -4167    -4153    -4087 
   -4048    -4058    -4063    -4087    -4176    -4263    -4263    -4182 
   -4067    -3967    -3935    -3993    -4117    -4220    -4214    -4136 
   -4072    -4077    -4163    -4270    -4305    -4261    -4183    -4091 
   -4029    -4032    -4098    -4182    -4226    -4253    -4256    -4137 
   -3947    -3855    -3893    -4005    -4148    -4260    -4279    -4233 
   -4213    -4210    -4162    -4082    -4014    -3985    -4028    -4139 
   -4261    -4334    -4313    -4214    -4074    -3933    -3898    -3987 
   -4094    -4163    -4201    -4224    -4229    -4180    -4106    -4089 
   -4145    -4213    -4201    -4078    -3948    -3923    -4002    -4140 
   -4290    -4372    -4326    -4190    -4054    -3950    -3901    -3975 
   -4163    -4317    -4301    -4180    -4098    -4074    -4099    -4179 
   -4212    -4136    -4045    -4024    -4051    -4071    -4093    -4160 
   -4221    -4199    -4118    -4055    -4052    -4071    -4095    -4198 
   -4310    -4275    -4122    -3979    -3923    -3985    -4105    -4207 
   -4275    -4301    -4274    -4187    -4074    -3993    -3969    -4013 
   -4131    -4244    -4276    -4224    -4159    -4147    -4170    -4190 
   -4162    -4062    -3978    -3981    -4040    -4118    -4180    -4185 
   -4139    -4105    -4135    -4164    -4139    -4137    -4166    -4136 
   -4082    -4098    -4151    -4155    -4121    -4137    -4194    -4210 
   -4163    -4086    -4035    -4059    -4145    -4217    -4229    -4207 
   -4139    -4004    -3915    -3975    -4082    -4129    -4180    -4283 
   -4333    -4253    -4139    -4099    -4083    -4023    -3985    -4028 
   -4109    -4172    -4193    -4186    -4179    -4189    -4189    -4129 
   -4023    -3954    -3962    -4040    -4164    -4257    -4284    -4275 
   -4237    -4185    -4133    -4050    -3982    -4031    -4125    -4152 
   -4155    -4182    -4179    -4121    -4083    -4087    -4071    -4058 
   -4112    -4183    -4207    -4221    -4234    -4191    -4108    -4036 
   -3982    -3967    -3993    -4041    -4143    -4291    -4382    -4352 
   -4233    -4087    -3996    -3979    -4014    -4077    -4114    -4129 
   -4175    -4217    -4207    -4176    -4159    -4128    -4062    -4006 
   -3996    -4016    -4081    -4187    -4264    -4268    -4226    -4183 
   -4159    -4135    -4095    -4048    -4039    -4091    -4147    -4156 
   -4143    -4120    -4091    -4091    -4109    -4101    -4081    -4094 
   -4143    -4202    -4249    -4245    -4191    -4110    -4032    -3983 
   -4000    -4101    -4233    -4314    -4325    -4256    -4094    -3927 
   -3877    -3943    -4058    -4183    -4255    -4207    -4113    -4114 
   -4198    -4247    -4248    -4233    -4175    -4071    -3985    -3977 
   -4037    -4113    -4176    -4207    -4168    -4091    -4087    -4141 
   -4159    -4162    -4190    -4178    -4108    -4063    -4059    -4036 
   -4012    -4044    -4112    -4166    -4213    -4271    -4318    -4288 
   -4168    -4035    -3966    -3964    -4005    -4104    -4243    -4315 
   -4288    -4221    -4114    -3997    -3955    -4014    -4125    -4197 
   -4191    -4164    -4137    -4095    -4048    -4016    -4044    -4144 
   -4239    -4260    -4225    -4183    -4162    -4152    -4151    -4147 
   -4117    -4071    -4027    -3983    -3994    -4072    -4145    -4175 
   -4187    -4206    -4209    -4156    -4081    -4048    -4058    -4087 
   -4149    -4240    -4302    -4286    -4230    -4168    -4074    -3991 
   -3981    -4006    -4044    -4124    -4222    -4252    -4199    -4133 
   -4086    -4063    -4059    -4048    -4058    -4106    -4159    -4224 
   -4272    -4226    -4114    -4044    -4044    -4072    -4106    -4159 
   -4225    -4239    -4182    -4129    -4097    -4041    -3997    -4039 
   -4144    -4217    -4218    -4175    -4132    -4112    -4098    -4086 
   -4105    -4131    -4121    -4095    -4074    -4047    -4045    -4110 
   -4229    -4326    -4338    -4268    -4158    -4044    -3952    -3932 
   -4028    -4140    -4163    -4147    -4151    -4163    -4163    -4158 
   -4164    -4149    -4091    -4029    -3989    -4013    -4132    -4257 
   -4302    -4303    -4266    -4147    -4016    -3974    -4020    -4090 
   -4148    -4197    -4224    -4191    -4116    -4072    -4087    -4099 
   -4093    -4091    -4094    -4093    -4098    -4149    -4244    -4309 
   -4284    -4171    -4040    -3982    -3991    -4023    -4098    -4185 
   -4198    -4164    -4152    -4158    -4132    -4079    -4071    -4104 
   -4120    -4137    -4167    -4172    -4164    -4151    -4118    -4098 
   -4124    -4174    -4199    -4191    -4185    -4156    -4064    -3966 
   -3956    -4043    -4144    -4194    -4203    -4189    -4149    -4116 
   -4113    -4114    -4091    -4081    -4124    -4178    -4209    -4233 
   -4216    -4144    -4083    -4071    -4068    -4052    -4033    -4067 
   -4158    -4230    -4249    -4239    -4194    -4095    -3985    -3935 
   -3954    -4024    -4141    -4260    -4306    -4272    -4201    -4118 
   -4031    -3985    -4016    -4067    -4116    -4195    -4264    -4261 
   -4212    -4178    -4166    -4112    -4020    -3994    -4055    -4140 
   -4212    -4217    -4159    -4125    -4155    -4189    -4145    -4060 
   -4035    -4045    -4058    -4120    -4198    -4206    -4168    -4132 
   -4067    -3974    -3942    -4036    -4203    -4325    -4332    -4259 
   -4170    -4091    -4052    -4062    -4067    -4047    -4054    -4114 
   -4214    -4299    -4309    -4225    -4081    -3948    -3896    -3931 
   -4040    -4174    -4255    -4287    -4295    -4249    -4164    -4071 
   -3982    -3954    -4012    -4098    -4158    -4183    -4199    -4225 
   -4221    -4166    -4090    -4056    -4060    -4056    -4082    -4170 
   -4228    -4209    -4172    -4139    -4102    -4071    -4037    -4029 
   -4070    -4129    -4167    -4167    -4149    -4124    -4098    -4129 
   -4190    -4190    -4145    -4120    -4125    -4144    -4156    -4174 
   -4207    -4209    -4137    -4037    -3983    -4012    -4079    -4121 
   -4155    -4197    -4202    -4176    -4168    -4163    -4095    -3993 
   -3983    -4075    -4131    -4162    -4278    -4382    -4306    -4116 
   -3993    -3985    -4043    -4102    -4128    -4152    -4178    -4137 
   -4074    -4093    -4158    -4195    -4222    -4241    -4201    -4117 
   -4063    -4068    -4101    -4128    -4135    -4110    -4087    -4121 
   -4170    -4160    -4085    -4013    -4016    -4075    -4118    -4148 
   -4178    -4159    -4085    -4035    -4051    -4095    -4128    -4178 
   -4268    -4322    -4266    -4136    -4014    -3936    -3920    -3985 
   -4105    -4183    -4159    -4085    -4055    -4098    -4163    -4233 
   -4314    -4359    -4333    -4287    -4274    -4294    -4286    -4187 
   -4059    -3967    -3886    -3842    -3905    -4024    -4087    -4090 
   -4097    -4099    -4083    -4089    -4116    -4159    -4243    -4303 
   -4257    -4141    -4020    -3923    -3905    -4001    -4149    -4207 
   -4148    -4136    -4237    -4314    -4332    -4386    -4444    -4388 
   -4244    -4145    -4131    -4129    -4121    -4110    -4059    -3954 
   -3839    -3777    -3788    -3831    -3892    -3966    -4037    -4126 
   -4234    -4314    -4324    -4295    -4294    -4298    -4257    -4202 
   -4191    -4221    -4225    -4160    -4081    -4077    -4145    -4224 
   -4255    -4217    -4144    -4060    -3970    -3924    -3946    -3981 
   -4018    -4086    -4128    -4082    -4047    -4108    -4172    -4178 
   -4175    -4191    -4205    -4180    -4139    -4164    -4272    -4417 
   -4541    -4526    -4297    -3933    -3624    -3545    -3724    -4021 
   -4232    -4261    -4166    -4004    -3850    -3875    -4105    -4348 
   -4472    -4475    -4359    -4156    -3959    -3881    -3997    -4255 
   -4477    -4542    -4453    -4217    -3869    -3588    -3572    -3836 
   -4233    -4563    -4703    -4603    -4278    -3902    -3657    -3537 
   -3519    -3665    -3974    -4310    -4518    -4584    -4594    -4568 
   -4486    -4337    -4102    -3807    -3599    -3627    -3836    -4043 
   -4176    -4275    -4333    -4287    -4152    -4029    -3974    -3955 
   -3975    -4086    -4253    -4372    -4387    -4311    -4209    -4151 
   -4171    -4224    -4199    -4055    -3897    -3855    -3946    -4112 
   -4309    -4455    -4417    -4202    -4009    -3947    -3933    -3920 
   -3991    -4162    -4282    -4249    -4140    -4043    -3994    -4047 
   -4203    -4352    -4378    -4267    -4068    -3869    -3788    -3890 
   -4114    -4310    -4353    -4245    -4104    -4016    -3986    -3993 
   -4040    -4141    -4237    -4261    -4230    -4176    -4136    -4168 
   -4252    -4322    -4357    -4307    -4155    -4002    -3915    -3882 
   -3919    -4000    -4051    -4052    -4070    -4167    -4301    -4398 
   -4413    -4337    -4217    -4098    -3996    -3889    -3774    -3746 
   -3936    -4325    -4723    -4919    -4815    -4434    -3874    -3337 
   -3083    -3215    -3628    -4136    -4507    -4594    -4430    -4159 
   -3919    -3824    -3940    -4209    -4488    -4693    -4779    -4745 
   -4639    -4414    -4045    -3697    -3562    -3678    -3928    -4152 
   -4257    -4220    -4081    -3915    -3746    -3604    -3566    -3696 
   -3993    -4315    -4521    -4612    -4615    -4527    -4388    -4241 
   -4110    -4008    -3963    -4047    -4244    -4433    -4514    -4455 
   -4284    -4043    -3739    -3466    -3406    -3608    -3925    -4199 
   -4371    -4405    -4301    -4179    -4145    -4144    -4112    -4105 
   -4155    -4195    -4195    -4222    -4306    -4383    -4379    -4279 
   -4135    -4000    -3897    -3885    -3956    -4033    -4097    -4198 
   -4355    -4506    -4534    -4390    -4114    -3781    -3500    -3379 
   -3474    -3798    -4255    -4644    -4787    -4652    -4351    -4005 
   -3739    -3690    -3846    -4058    -4221    -4268    -4190    -4128 
   -4239    -4498    -4687    -4614    -4321    -4025    -3909    -4016 
   -4247    -4464    -4563    -4456    -4155    -3743    -3368    -3252 
   -3476    -3846    -4108    -4144    -4029    -3964    -4077    -4298 
   -4496    -4596    -4567    -4364    -4055    -3858    -3912    -4153 
   -4428    -4584    -4513    -4224    -3863    -3609    -3542    -3645 
   -3855    -4106    -4357    -4579    -4725    -4741    -4588    -4307 
   -3979    -3651    -3420    -3438    -3746    -4222    -4645    -4806 
   -4607    -4094    -3493    -3137    -3213    -3705    -4433    -5109 
   -5501    -5474    -5003    -4247    -3488    -2987    -2884    -3154 
   -3678    -4288    -4739    -4897    -4816    -4579    -4234    -3834 
   -3443    -3222    -3352    -3852    -4544    -5144    -5390    -5139 
   -4460    -3632    -3015    -2860    -3180    -3788    -4430    -4872 
   -5005    -4905    -4637    -4159    -3584    -3196    -3175    -3484 
   -3979    -4507    -4936    -5193    -5220    -4955    -4407    -3709 
   -3098    -2802    -2906    -3339    -3923    -4461    -4842    -5039 
   -5030    -4835    -4542    -4266    -4097    -4018    -3987    -3997 
   -3978    -3900    -3847    -3851    -3865    -3875    -3936    -4078 
   -4233    -4344    -4418    -4429    -4361    -4237    -4037    -3765 
   -3582    -3657    -3935    -4205    -4311    -4259    -4143    -4041 
   -4016    -4070    -4129    -4136    -4155    -4241    -4355    -4457 
   -4515    -4434    -4171    -3855    -3676    -3717    -3944    -4274 
   -4608    -4831    -4820    -4550    -4141    -3770    -3531    -3438 
   -3483    -3676    -4001    -4330    -4550    -4699    -4770    -4683 
   -4387    -3935    -3501    -3287    -3361    -3658    -4027    -4336 
   -4545    -4631    -4563    -4338    -4012    -3713    -3626    -3836 
   -4241    -4585    -4733    -4718    -4534    -4185    -3811    -3573 
   -3530    -3628    -3802    -4052    -4356    -4622    -4761    -4730 
   -4519    -4175    -3815    -3588    -3600    -3832    -4174    -4482 
   -4622    -4541    -4271    -3923    -3670    -3663    -3898    -4225 
   -4471    -4523    -4364    -4075    -3788    -3624    -3655    -3815 
   -3964    -4040    -4083    -4172    -4329    -4492    -4619    -4649 
   -4482    -4124    -3744    -3557    -3654    -3947    -4280    -4530 
   -4575    -4375    -4048    -3800    -3773    -3969    -4294    -4603 
   -4741    -4679    -4514    -4325    -4139    -3974    -3863    -3840 
   -3852    -3825    -3813    -3916    -4110    -4282    -4348    -4284 
   -4105    -3885    -3734    -3720    -3839    -4028    -4201    -4321 
   -4403    -4464    -4472    -4382    -4218    -4045    -3877    -3739 
   -3688    -3723    -3824    -4002    -4268    -4564    -4745    -4718 
   -4529    -4276    -4024    -3825    -3769    -3897    -4125    -4333 
   -4410    -4295    -4072    -3888    -3793    -3771    -3798    -3886 
   -4060    -4267    -4419    -4477    -4407    -4280    -4237    -4267 
   -4271    -4189    -4013    -3843    -3796    -3902    -4117    -4311 
   -4380    -4334    -4253    -4191    -4163    -4180    -4234    -4228 
   -4101    -3932    -3834    -3839    -3936    -4078    -4183    -4209 
   -4172    -4087    -3978    -3904    -3908    -4012    -4203    -4411 
   -4567    -4594    -4429    -4133    -3862    -3728    -3754    -3894 
   -4079    -4247    -4387    -4506    -4542    -4429    -4176    -3878 
   -3693    -3721    -3901    -4109    -4284    -4411    -4484    -4479 
   -4374    -4197    -4018    -3896    -3840    -3858    -3958    -4106 
   -4266    -4414    -4480    -4399    -4228    -4075    -3983    -3958 
   -3986    -4037    -4048    -3962    -3811    -3697    -3669    -3751 
   -3956    -4213    -4409    -4494    -4465    -4341    -4175    -4043 
   -3982    -3996    -4090    -4247    -4399    -4483    -4484    -4414 
   -4301    -4174    -4017    -3834    -3693    -3662    -3781    -4048 
   -4384    -4669    -4777    -4612    -4237    -3838    -3569    -3507 
   -3639    -3882    -4158    -4369    -4457    -4440    -4349    -4217 
   -4095    -4020    -3993    -4001    -4045    -4149    -4301    -4436 
   -4479    -4379    -4180    -3989    -3858    -3794    -3815    -3944 
   -4155    -4341    -4442    -4457    -4379    -4210    -4016    -3858 
   -3759    -3759    -3882    -4081    -4263    -4371    -4380    -4295 
   -4152    -3981    -3821    -3742    -3786    -3942    -4144    -4336 
   -4467    -4490    -4438    -4392    -4365    -4301    -4152    -3946 
   -3788    -3767    -3894    -4124    -4365    -4510    -4486    -4298 
   -4028    -3761    -3542    -3491    -3699    -4063    -4399    -4579 
   -4580    -4444    -4233    -4074    -4037    -4055    -4085    -4140 
   -4199    -4274    -4384    -4472    -4472    -4347    -4085    -3793 
   -3618    -3624    -3778    -3989    -4164    -4284    -4357    -4330 
   -4167    -3958    -3811    -3758    -3798    -3921    -4090    -4253 
   -4387    -4502    -4563    -4491    -4279    -4036    -3886    -3878 
   -3978    -4125    -4253    -4298    -4272    -4233    -4205    -4179 
   -4122    -4027    -3919    -3836    -3883    -4108    -4376    -4533 
   -4525    -4382    -4147    -3874    -3678    -3667    -3838    -4105 
   -4360    -4517    -4521    -4348    -4101    -3917    -3815    -3817 
   -3955    -4128    -4252    -4341    -4419    -4464    -4399    -4207 
   -3977    -3796    -3732    -3809    -3958    -4104    -4225    -4322 
   -4376    -4349    -4232    -4072    -3960    -3967    -4082    -4245 
   -4382    -4410    -4299    -4091    -3894    -3815    -3848    -3929 
   -4025    -4125    -4252    -4414    -4544    -4560    -4433    -4230 
   -4064    -3952    -3850    -3767    -3770    -3923    -4162    -4324 
   -4359    -4282    -4110    -3935    -3844    -3856    -3964    -4112 
   -4217    -4259    -4274    -4274    -4213    -4116    -4075    -4078 
   -4068    -4047    -4066    -4166    -4286    -4325    -4293    -4218 
   -4086    -3928    -3840    -3896    -4050    -4214    -4361    -4452 
   -4434    -4305    -4108    -3937    -3896    -4002    -4182    -4317 
   -4337    -4252    -4124    -4033    -4001    -3998    -4005    -4005 
   -4002    -4023    -4036    -4039    -4090    -4185    -4255    -4259 
   -4198    -4102    -4013    -4008    -4110    -4222    -4271    -4297 
   -4328    -4352    -4325    -4225    -4128    -4063    -3983    -3916 
   -3910    -3990    -4135    -4248    -4267    -4218    -4148    -4114 
