Origin Time       2024/06/23 22:54:00
Lat.              35.645
Long.             140.060
Depth. (km)       72
Mag.              4.1
Station Code      TCGH19
Station Lat.      36.9060
Station Long.     140.1119
Station Height(m) 204
Record Time       2024/06/23 22:55:07
Sampling Freq(Hz) 100Hz
Duration Time(s)  120
Dir.              5
Scale Factor      7845(gal)/8223790
Max. Acc. (gal)   2.104
Last Correction   2024/06/23 22:54:50
Memo.             
[...]
   14234    14185    14108    14087    14108    14149    14238    14280 
   14160    14031    14076    14157    14106    14011    13996    14003 
   13961    13956    14081    14272    14374    14361    14315    14237 
   14091    13938    13861    13878    13930    13979    14057    14158 
   14229    14283    14319    14314    14287    14234    14141    14060 
   14002    13917    13830    13817    13894    14023    14154    14246 
   14295    14322    14315    14260    14200    14168    14112    14033 
   14023    14054    14022    13998    14072    14121    14081    14076 
   14126    14157    14185    14208    14164    14099    14096    14116 
   14121    14108    14068    14015    13976    13987    14094    14227 
   14272    14246    14211    14160    14116    14121    14130    14072 
   13973    13941    14004    14107    14220    14330    14384    14345 
   14220    14052    13899    13822    13855    13975    14056    14027 
   14034    14164    14253    14256    14320    14396    14330    14183 
   14061    13965    13887    13840    13873    14008    14157    14265 
   14343    14331    14200    14057    13999    13996    13975    13934 
   13969    14102    14214    14249    14288    14342    14272    14084 
   14015    14092    14072    13973    14014    14123    14127    14068 
   14048    14091    14180    14253    14278    14262    14183    14073 
   14017    14010    14038    14104    14135    14110    14099    14088 
   14021    13975    14022    14094    14160    14241    14296    14266 
   14158    14041    14002    14034    14065    14084    14123    14160 
   14152    14126    14126    14116    14050    13965    13975    14096 
   14212    14224    14160    14094    14062    14084    14168    14264 
   14288    14200    14065    14000    14027    14060    14080    14122 
   14125    14077    14069    14112    14149    14184    14216    14195 
   14122    14052    14003    13977    13995    14029    14044    14089 
   14196    14281    14285    14260    14250    14202    14053    13929 
   13949    13990    13954    13960    14058    14166    14251    14314 
   14324    14283    14173    14021    13940    13952    13964    13971 
   14011    14076    14180    14310    14380    14365    14293    14145 
   13973    13914    13952    13965    13965    14017    14080    14123 
   14172    14207    14200    14203    14233    14237    14191    14123 
   14088    14095    14073    13998    13967    14025    14065    14050 
   14054    14088    14107    14114    14149    14223    14289    14303 
   14283    14247    14160    14034    13941    13894    13887    13938 
   14013    14067    14123    14202    14273    14310    14308    14272 
   14180    14062    14011    14021    13999    13961    13949    13932 
   13946    14067    14235    14353    14411    14450    14457    14366 
   14160    13940    13782    13659    13640    13828    14108    14322 
   14453    14523    14488    14328    14103    13911    13783    13683 
   13660    13792    14002    14188    14368    14516    14561    14504 
   14380    14204    14023    13883    13801    13786    13805    13830 
   13932    14129    14320    14461    14550    14523    14357    14129 
   13933    13817    13784    13797    13837    13948    14126    14281 
   14377    14446    14451    14323    14165    14114    14104    14003 
   13836    13760    13826    13946    14085    14257    14401    14424 
   14322    14188    14087    14003    13929    13892    13913    13992 
   14104    14188    14257    14373    14435    14296    14080    13950 
   13860    13788    13815    13954    14175    14386    14459    14412 
   14334    14199    14050    13986    13936    13838    13799    13903 
   14084    14231    14322    14391    14401    14328    14242    14162 
   14026    13845    13706    13672    13783    14013    14230    14335 
   14377    14408    14404    14388    14386    14299    14065    13821 
   13699    13684    13729    13837    13977    14114    14251    14405 
   14542    14586    14500    14372    14268    14116    13925    13802 
   13743    13689    13693    13792    13953    14150    14343    14454 
   14443    14361    14287    14241    14189    14102    13959    13799 
   13718    13784    13960    14165    14334    14399    14359    14331 
   14341    14316    14265    14200    14048    13819    13659    13666 
   13832    14046    14202    14299    14347    14345    14349    14347 
   14239    14041    13867    13768    13776    13895    14064    14238 
   14364    14369    14316    14303    14285    14215    14103    13948 
   13799    13738    13771    13903    14139    14337    14368    14323 
   14310    14292    14218    14121    14049    13980    13902    13880 
   13956    14068    14142    14203    14264    14274    14257    14247 
   14197    14108    14022    13938    13876    13872    13944    14080 
   14208    14261    14293    14346    14331    14264    14204    14079 
   13899    13809    13817    13860    13959    14133    14296    14338 
   14246    14170    14218    14268    14222    14179    14157    14072 
   13973    13972    14044    14087    14069    14026    14010    14056 
   14139    14222    14300    14355    14338    14242    14114    13984 
   13892    13842    13821    13868    13986    14107    14222    14331 
   14361    14307    14246    14187    14088    13957    13869    13890 
   13980    14053    14104    14192    14270    14273    14249    14235 
   14187    14106    14042    14027    14075    14131    14134    14126 
   14112    14048    14010    14087    14189    14197    14121    14072 
   14084    14069    14021    14058    14183    14235    14189    14164 
   14161    14106    14064    14111    14152    14084    13988    13988 
   14056    14088    14107    14185    14250    14219    14146    14100 
   14065    14011    13972    13979    14011    14044    14114    14249 
   14349    14319    14261    14273    14257    14142    14010    13933 
   13910    13911    13923    13976    14061    14106    14114    14156 
   14235    14295    14307    14288    14258    14200    14102    14018 
   13986    13976    13963    13961    14008    14104    14189    14238 
   14260    14219    14099    13977    13945    14030    14152    14203 
   14220    14268    14273    14184    14054    13954    13917    13891 
   13863    13934    14087    14179    14215    14300    14412    14442 
   14351    14216    14108    13983    13849    13848    13954    13971 
   13919    13969    14104    14227    14339    14443    14482    14427 
   14304    14153    13988    13829    13720    13698    13768    13883 
   14021    14203    14378    14490    14565    14580    14473    14262 
   14000    13743    13587    13591    13718    13921    14133    14296 
   14427    14484    14393    14242    14150    14092    14030    13995 
   13976    13949    13946    14013    14131    14214    14224    14247 
   14295    14254    14125    14044    14041    14006    13918    13884 
   13948    14038    14115    14206    14297    14347    14362    14369 
   14335    14183    13946    13798    13822    13922    14011    14106 
   14189    14202    14166    14173    14202    14188    14162    14133 
   14061    14026    14088    14142    14085    13977    13910    13909 
   13998    14172    14326    14391    14393    14357    14265    14134 
   14026    13964    13890    13830    13880    14007    14131    14261 
   14343    14316    14269    14260    14208    14102    14003    13896 
   13792    13798    13927    14062    14164    14305    14466    14548 
   14534    14438    14254    14040    13848    13667    13525    13509 
   13648    13899    14197    14480    14656    14669    14565    14404 
   14203    14018    13909    13833    13763    13752    13834    13998 
   14210    14372    14420    14405    14327    14153    13984    13915 
   13871    13802    13817    13936    14048    14152    14307    14451 
   14497    14481    14462    14388    14188    13929    13732    13625 
   13602    13710    13933    14142    14269    14338    14396    14449 
   14424    14289    14148    14033    13892    13790    13802    13882 
   13990    14133    14304    14450    14469    14335    14169    14027 
   13871    13763    13772    13842    13953    14133    14328    14443 
   14480    14517    14517    14359    14111    13953    13891    13810 
   13705    13701    13842    14033    14207    14393    14554    14584 
   14454    14230    13998    13805    13629    13513    13591    13849 
   14119    14357    14608    14817    14879    14758    14476    14118 
   13801    13574    13455    13487    13662    13876    14052    14177 
   14261    14341    14431    14472    14439    14373    14253    14033 
   13798    13671    13663    13728    13876    14129    14409    14580 
   14594    14546    14486    14323    14041    13786    13601    13460 
   13456    13629    13886    14138    14330    14476    14658    14802 
   14748    14551    14316    14010    13747    13713    13811    13848 
   13837    13873    13977    14133    14284    14388    14416    14311 
   14088    13937    13976    14087    14145    14196    14250    14183 
   14010    13910    13945    14013    14029    14046    14154    14289 
   14337    14364    14459    14532    14507    14423    14278    14044 
   13745    13467    13346    13429    13626    13852    14095    14353 
   14594    14787    14860    14766    14558    14256    13815    13367 
   13161    13240    13467    13768    14092    14300    14376    14496 
   14683    14759    14652    14435    14193    13972    13788    13701 
   13792    13975    14096    14160    14250    14403    14532    14496 
   14327    14154    13936    13606    13346    13375    13624    13848 
   14030    14274    14493    14565    14561    14609    14697    14656 
   14384    14026    13763    13576    13486    13617    13914    14161 
   14293    14385    14446    14428    14278    13999    13674    13421 
   13346    13482    13776    14197    14725    15178    15352    15284 
   15090    14755    14245    13680    13274    13097    13034    13039 
   13265    13770    14324    14709    14920    14979    14827    14466 
   14062    13798    13674    13567    13464    13500    13717    14014 
   14347    14737    15076    15180    14982    14561    14033    13525 
   13205    13221    13489    13759    13963    14157    14269    14251 
   14199    14143    14085    14103    14197    14274    14307    14308 
   14238    14080    13903    13851    13980    14170    14322    14409 
   14385    14260    14126    14018    13972    14069    14241    14295 
   14193    14038    13906    13845    13892    13971    14015    14143 
   14357    14430    14342    14318    14361    14296    14102    13922 
   13896    13980    13992    13981    14094    14161    13991    13768 
   13726    13838    13938    13960    13991    14107    14250    14373 
   14504    14598    14523    14253    13944    13782    13740    13630 
   13513    13637    13965    14245    14476    14764    14972    14914 
   14656    14426    14314    14180    13899    13585    13401    13350 
   13432    13770    14327    14824    15049    14976    14621    14111 
   13670    13421    13400    13583    13864    14135    14365    14507 
   14497    14362    14173    13964    13761    13613    13590    13724 
   13913    14067    14207    14324    14355    14349    14389    14442 
   14449    14391    14233    14019    13845    13724    13690    13807 
   13994    14143    14289    14469    14621    14682    14624    14465 
   14284    14137    13967    13736    13532    13482    13618    13822 
   13980    14204    14554    14771    14648    14349    14129    14054 
   14071    14114    14103    13956    13664    13405    13460    13884 
   14384    14696    14794    14693    14351    13919    13675    13613 
   13520    13379    13329    13456    13768    14172    14571    14970 
   15290    15368    15192    14879    14532    14189    13747    13161 
   12685    12587    12842    13351    14052    14778    15322    15557 
   15391    14863    14223    13675    13275    13169    13517    14122 
   14608    14872    14947    14748    14319    13898    13632    13446 
   13234    13073    13157    13522    13990    14384    14686    14912 
   14975    14813    14534    14254    13965    13695    13575    13641 
   13846    14202    14648    14953    14953    14733    14370    13864 
   13392    13207    13306    13497    13663    13824    14046    14330 
   14573    14688    14689    14651    14598    14512    14430    14376 
   14231    13860    13356    12964    12811    12970    13517    14307 
   14986    15361    15495    15453    15198    14701    14007    13223 
   12552    12237    12339    12731    13386    14269    15097    15561 
   15612    15357    14922    14430    13996    13726    13617    13579 
   13591    13689    13838    13957    14067    14249    14457    14553 
   14517    14370    14073    13721    13527    13543    13672    13875 
   14208    14608    14833    14847    14828    14743    14436    14029 
   13784    13732    13728    13749    13867    14071    14293    14455 
   14504    14443    14312    14138    13941    13767    13648    13599 
   13636    13740    13887    14073    14246    14304    14239    14179 
   14187    14183    14116    14053    14033    14031    14052    14126 
   14214    14218    14123    14006    13902    13878    14094    14524 
   14899    15068    14991    14578    13880    13169    12702    12591 
   12800    13273    13991    14847    15615    16125    16318    16096 
   15330    14121    12889    12101    11915    12163    12711    13543 
   14415    14993    15217    15207    15061    14864    14612    14260 
   13883    13575    13312    13144    13217    13466    13691    13910 
   14262    14727    15118    15255    15122    14823    14393    13882 
   13452    13228    13181    13223    13335    13635    14207    14848 
   15246    15352    15223    14833    14234    13637    13220    13059 
   13134    13340    13590    13849    14115    14434    14827    15153 
   15236    15078    14773    14385    13959    13563    13325    13266 
   13227    13196    13402    13937    14562    15014    15234    15226 
   14955    14445    13830    13297    12980    12919    13108    13522 
   14064    14547    14809    14854    14814    14716    14484    14199 
   13980    13761    13497    13332    13402    13674    14041    14401 
   14671    14805    14828    14802    14756    14644    14380    13990 
   13610    13343    13215    13238    13454    13842    14231    14466 
   14578    14642    14635    14515    14285    14017    13784    13590 
   13428    13417    13687    14156    14567    14797    14908    14893 
   14638    14254    13981    13819    13662    13560    13606    13795 
   14095    14443    14755    14926    14818    14408    13900    13482 
   13154    12973    13084    13460    13906    14296    14640    14959 
   15191    15229    15039    14682    14195    13630    13201    13074 
   13176    13419    13801    14222    14540    14729    14847    14932 
   14879    14571    14161    13846    13567    13344    13397    13713 
   14058    14318    14474    14496    14381    14206    14075    14025 
   13991    13945    13918    13895    13837    13841    14008    14223 
   14331    14376    14415    14334    14049    13722    13595    13699 
   13867    14007    14200    14469    14666    14683    14589    14462 
   14264    13995    13792    13730    13752    13771    13795    13911 
   14121    14323    14461    14534    14535    14486    14386    14214 
   14031    13933    13894    13836    13767    13779    13925    14131 
   14288    14381    14392    14241    13957    13709    13597    13647 
   13878    14183    14380    14473    14592    14681    14594    14369 
   14135    13925    13724    13602    13664    13864    14035    14149 
   14269    14346    14330    14291    14277    14223    14112    14049 
   14076    14088    14022    13975    14017    14057    14048    14046 
   14052    14062    14098    14079    13960    13898    13983    14085 
   14122    14181    14311    14393    14335    14250    14249    14237 
   14114    13981    13979    14060    14080    14038    14065    14165 
   14188    14112    14072    14115    14187    14258    14345    14418 
   14440    14395    14233    13934    13641    13545    13652    13802 
   13911    14018    14168    14312    14351    14280    14215    14197 
   14156    14079    14049    14079    14118    14157    14203    14235 
   14253    14288    14347    14376    14274    14026    13749    13583 
   13587    13730    13945    14202    14446    14584    14607    14593 
   14566    14438    14206    13986    13763    13512    13396    13514 
   13753    13992    14188    14322    14415    14520    14646    14713 
   14639    14435    14145    13791    13428    13170    13116    13263 
   13575    14041    14532    14825    14901    14867    14669    14273 
   13886    13706    13705    13755    13860    14110    14469    14742 
   14801    14713    14505    14084    13531    13128    13024    13153 
   13448    13899    14404    14787    14999    15122    15153    14972 
   14565    14085    13666    13327    13124    13139    13327    13608 
   13975    14378    14700    14891    14970    14912    14702    14419 
   14141    13865    13594    13437    13470    13612    13759    13929 
   14149    14330    14411    14470    14511    14372    14068    13821 
   13694    13598    13576    13752    14060    14330    14521    14690 
   14813    14777    14551    14295    14118    13915    13649    13489 
   13521    13657    13784    13842    13914    14104    14316    14462 
   14643    14818    14751    14412    14044    13836    13779    13779 
   13845    14042    14269    14331    14256    14233    14253    14130 
   13868    13648    13555    13614    13848    14202    14570    14835 
   14882    14710    14401    14057    13782    13606    13504    13485 
   13579    13737    13932    14200    14505    14733    14833    14809 
   14654    14368    14023    13728    13545    13510    13636    13906 
   14265    14578    14698    14612    14403    14139    13896    13717 
   13571    13459    13458    13614    13902    14223    14451    14581 
   14682    14729    14669    14517    14303    14052    13806    13617 
   13540    13608    13798    14033    14241    14405    14535    14612 
   14571    14380    14112    13868    13657    13489    13433    13544 
   13797    14123    14442    14678    14777    14747    14662    14563 
   14428    14241    14040    13829    13608    13487    13579    13792 
   13987    14161    14323    14388    14303    14148    14029    13936 
   13837    13819    13961    14175    14327    14386    14377    14322 
   14233    14133    14049    13977    13880    13802    13841    13961 
   14080    14239    14462    14613    14573    14396    14204    14026 
   13857    13775    13819    13910    13975    14056    14173    14233 
   14189    14161    14234    14328    14370    14386    14362    14212 
   13952    13721    13606    13599    13716    13980    14300    14519 
   14584    14550    14442    14235    13954    13703    13560    13533 
   13624    13834    14115    14388    14628    14825    14905    14839 
   14655    14338    13900    13481    13263    13306    13505    13740 
