Origin Time       2024/06/23 22:54:00
Lat.              35.645
Long.             140.060
Depth. (km)       72
Mag.              4.1
Station Code      TCGH16
Station Lat.      36.5480
Station Long.     140.0751
Station Height(m) 105
Record Time       2024/06/23 22:54:48
Sampling Freq(Hz) 100Hz
Duration Time(s)  120
Dir.              5
Scale Factor      7845(gal)/8223790
Max. Acc. (gal)   3.155
Last Correction   2024/06/23 22:54:48
Memo.             
[...]
    4688     4784     4935     4965     4819     4675     4692     4837 
    5000     5096     5067     4939     4815     4783     4823     4842 
    4839     4905     4997     4965     4814     4676     4657     4803 
    4997     5034     4888     4707     4634     4742     4982     5232 
    5350     5217     4922     4687     4631     4722     4831     4893 
    4916     4837     4657     4534     4564     4726     4943     5131 
    5221     5166     5007     4892     4935     5057     5065     4957 
    4891     4815     4611     4402     4374     4575     4885     5039 
    4938     4819     4880     5067     5236     5283     5238     5136 
    4914     4629     4511     4615     4746     4808     4882     4935 
    4851     4706     4680     4762     4853     4963     5057     5050 
    4982     4919     4899     4970     5113     5208     5086     4730 
    4445     4496     4756     4928     4885     4726     4626     4672 
    4839     5023     5088     5028     4961     4938     4969     5063 
    5132     5085     4965     4823     4698     4646     4637     4650 
    4684     4676     4695     4841     4992     5094     5198     5213 
    5063     4799     4590     4615     4792     4932     5035     5074 
    4985     4884     4880     4943     4996     4922     4723     4579 
    4591     4734     4928     5040     5066     5059     4909     4671 
    4658     4896     5040     4942     4799     4830     4973     5030 
    4976     4900     4822     4743     4699     4743     4851     4918 
    4938     4978     5011     4977     4855     4691     4627     4745 
    4900     4911     4803     4780     4927     5081     5147     5212 
    5220     5039     4746     4550     4531     4618     4770     4938 
    4988     4924     4843     4754     4722     4803     4927     5030 
    5058     5028     5043     5058     5005     4936     4826     4703 
    4702     4753     4718     4610     4540     4652     4935     5155 
    5202     5162     5089     5004     4873     4715     4700     4850 
    4962     4949     4870     4815     4823     4808     4760     4792 
    4904     5030     5090     4968     4750     4641     4687     4891 
    5146     5229     5121     4936     4764     4723     4800     4846 
    4806     4675     4549     4591     4739     4865     4996     5109 
    5113     5022     4895     4785     4741     4799     4938     5020 
    4947     4826     4810     4918     5046     5092     5039     4888 
    4653     4480     4552     4842     5108     5167     5070     4945 
    4847     4777     4727     4727     4789     4869     4919     4935 
    4984     5066     5061     4949     4837     4756     4719     4773 
    4896     4993     4943     4760     4654     4773     4974     5044 
    4962     4866     4896     5017     5059     4962     4837     4781 
    4812     4806     4611     4342     4313     4623     5047     5296 
    5240     5001     4833     4884     5084     5225     5167     4958 
    4770     4714     4788     4884     4892     4839     4800     4768 
    4693     4627     4676     4831     4942     4950     4985     5092 
    5116     4993     4850     4800     4833     4874     4907     4980 
    5098     5174     5111     4892     4650     4519     4459     4403 
    4434     4633     4908     5119     5242     5289     5235     5113 
    4972     4791     4630     4623     4765     4970     5139     5104 
    4896     4766     4764     4757     4735     4752     4860     4993 
    4949     4733     4596     4673     4918     5196     5281     5044 
    4664     4461     4607     4968     5254     5271     5016     4680 
    4484     4499     4668     4878     5007     5043     5061     5080 
    5116     5171     5177     5101     4970     4791     4596     4460 
    4399     4395     4502     4760     5034     5134     5034     4907 
    4928     5061     5155     5159     5073     4887     4695     4668 
    4837     5003     4992     4850     4720     4652     4625     4656 
    4770     4931     5020     4950     4823     4801     4880     4968 
    5001     4963     4950     5023     5061     4990     4896     4838 
    4815     4806     4768     4716     4716     4777     4842     4841 
    4804     4846     4949     4958     4889     4892     5022     5177 
    5202     5111     5049     4982     4791     4569     4504     4622 
    4762     4760     4683     4680     4715     4716     4737     4834 
    4978     5092     5155     5171     5101     4990     4928     4899 
    4943     5085     5143     4993     4750     4595     4612     4723 
    4811     4847     4799     4649     4533     4596     4842     5142 
    5287     5181     4965     4870     4965     5078     5055     4989 
    4992     4981     4878     4745     4665     4610     4536     4506 
    4633     4880     5023     4959     4905     5022     5132     5062 
    4905     4843     4909     4958     4872     4747     4702     4683 
    4623     4575     4644     4853     5067     5179     5228     5219 
    5108     4950     4831     4816     4905     4922     4766     4635 
    4692     4847     4992     5074     5036     4865     4671     4619 
    4730     4849     4901     4935     4966     4989     5015     5081 
    5170     5152     4953     4666     4448     4407     4548     4757 
    4907     4957     4932     4876     4828     4819     4869     4977 
    5069     5093     5116     5143     5053     4869     4747     4715 
    4657     4538     4459     4504     4700     5013     5292     5351 
    5202     5003     4833     4723     4746     4905     5066     5076 
    4941     4820     4801     4820     4826     4799     4723     4653 
    4645     4698     4804     4955     5111     5228     5265     5212 
    5127     4997     4780     4633     4714     4854     4806     4602 
    4488     4577     4708     4729     4704     4720     4764     4827 
    4941     5150     5412     5529     5374     5073     4824     4714 
    4714     4752     4776     4774     4757     4756     4811     4914 
    4980     4920     4785     4729     4787     4857     4878     4861 
    4820     4814     4908     5078     5182     5077     4853     4746 
    4842     5035     5178     5130     4864     4561     4421     4459 
    4572     4684     4761     4835     4995     5215     5332     5273 
    5081     4827     4602     4480     4495     4630     4828     5013 
    5117     5143     5134     5089     4996     4897     4855     4868 
    4866     4849     4839     4820     4787     4776     4800     4804 
    4726     4622     4637     4788     4951     5040     5069     5067 
    5059     5086     5155     5175     5055     4826     4634     4588 
    4638     4680     4680     4675     4726     4815     4833     4762 
    4722     4810     4999     5189     5320     5368     5269     5009 
    4739     4606     4599     4661     4766     4891     4980     4999 
    4982     4969     4958     4935     4843     4660     4490     4460 
    4591     4803     5009     5224     5410     5402     5173     4891 
    4708     4675     4710     4691     4631     4592     4594     4700 
    4882     5028     5109     5125     5101     5081     5023     4927 
    4877     4864     4827     4742     4637     4642     4750     4770 
    4700     4714     4861     5062     5178     5120     4972     4830 
    4758     4858     5061     5150     5063     4854     4618     4537 
    4672     4860     4951     4934     4853     4774     4720     4738 
    4923     5179     5290     5242     5136     5024     4926     4845 
    4796     4783     4765     4716     4622     4494     4465     4604 
    4783     4904     4974     4963     4876     4812     4872     5049 
    5211     5235     5111     4915     4772     4766     4847     4935 
    4977     4911     4745     4599     4592     4688     4739     4741 
    4814     4951     5040     5059     5076     5120     5117     4973 
    4752     4645     4741     4942     5051     4976     4862     4900 
    4995     4924     4752     4708     4833     4949     4907     4742 
    4637     4657     4742     4895     5081     5171     5143     5032 
    4866     4770     4804     4858     4861     4830     4739     4572 
    4461     4560     4816     5017     5053     5038     5107     5219 
    5235     5120     5004     4976     4935     4797     4658     4634 
    4716     4793     4780     4765     4828     4865     4779     4675 
    4679     4762     4815     4855     4984     5136     5166     5111 
    5093     5107     5084     5009     4839     4602     4465     4557 
    4820     5065     5094     4882     4603     4457     4545     4822 
    5108     5282     5327     5194     4931     4750     4752     4872 
    5013     5043     4904     4712     4575     4558     4679     4827 
    4912     4947     4943     4919     4931     4959     4996     5065 
    5085     4988     4841     4688     4588     4606     4673     4710 
    4742     4818     4999     5267     5427     5300     4961     4618 
    4438     4471     4639     4839     4996     5040     4988     4950 
    4996     5073     5092     4990     4812     4680     4649     4708 
    4853     4997     5039     4970     4826     4710     4772     4959 
    5074     5067     4978     4845     4761     4746     4749     4819 
    4943     4992     4954     4895     4837     4842     4951     5066 
    5049     4865     4631     4504     4580     4849     5173     5375 
    5374     5175     4868     4635     4588     4604     4546     4472 
    4498     4625     4734     4772     4827     4949     5077     5155 
    5128     5023     5004     5125     5275     5386     5439     5378 
    5157     4791     4414     4156     3996     3924     3996     4114 
    4206     4395     4764     5194     5502     5603     5655     5800 
    5881     5746     5498     5277     5113     4909     4554     4156 
    3877     3721     3736     4004     4428     4783     4878     4774 
    4776     5096     5667     6204     6411     6242     5837     5277 
    4708     4360     4287     4352     4380     4245     3990     3781 
    3792     4144     4723     5228     5522     5665     5679     5553 
    5375     5310     5432     5599     5522     5020     4283     3736 
    3596     3743     3997     4256     4461     4607     4766     5061 
    5551     6184     6768     6988     6602     5718     4733     3942 
    3397     3099     3065     3257     3591     4036     4639     5386 
    6046     6359     6335     6130     5845     5574     5366     5209 
    5094     4895     4527     4172     4010     4027     4048     3867 
    3554     3423     3613     4010     4461     4911     5458     6146 
    6767     7096     7122     6944     6679     6320     5707     4824 
    3898     3123     2520     2016     1729     1985     2876     4029 
    5032     5771     6320     6736     7028     7177     7049     6505 
    5637     4738     4060     3693     3634     3821     4136     4467 
    4745     4873     4838     4726     4603     4579     4785     5221 
    5810     6367     6569     6291     5667     4841     3977     3287 
    2918     2933     3288     3865     4546     5140     5493     5734 
    6060     6365     6404     6026     5273     4486     4098     4175 
    4403     4553     4680     4841     4862     4639     4395     4382 
    4590     4858     5012     4996     4945     4997     5121     5184 
    5043     4723     4477     4569     5019     5547     5773     5598 
    5231     4878     4645     4580     4689     4939     5157     5152 
    4942     4658     4410     4282     4282     4405     4669     4909 
    4861     4561     4325     4450     4989     5670     6103     6049 
    5513     4698     3967     3739     4149     4842     5306     5368 
    5193     5022     5020     5192     5371     5402     5254     4909 
    4329     3643     3221     3361     3942     4657     5364     5957 
    6253     6166     5787     5350     5107     5059     4977     4710 
    4338     4083     4077     4206     4287     4329     4448     4695 
    5013     5316     5549     5680     5684     5610     5560     5555 
    5503     5363     5147     4795     4298     3815     3592     3732 
    4041     4284     4426     4498     4548     4707     5069     5547 
    5958     6143     6041     5680     5171     4708     4452     4334 
    4226     4152     4163     4228     4228     4083     3951     4056 
    4419     4973     5616     6196     6589     6660     6415     6107 
    5931     5860     5740     5352     4664     3981     3570     3373 
    3153     2814     2593     2828     3487     4259     5039     5926 
    6852     7543     7726     7356     6718     6058     5328     4480 
    3667     3154     3055     3136     3207     3424     3870     4286 
    4402     4255     4144     4365     5032     6095     7204     7763 
    7456     6589     5792     5444     5341     5011     4318     3508 
    2876     2579     2648     3075     3801     4619     5238     5464 
    5409     5432     5741     6247     6760     7095     7036     6397 
    5232     3958     3044     2660     2663     2767     2886     3237 
    3964     4923     5834     6434     6615     6488     6208     5907 
    5691     5513     5282     5097     5081     5116     4931     4369 
    3528     2743     2361     2523     3167     4108     5084     5946 
    6705     7290     7527     7354     6751     5687     4344     3163 
    2585     2778     3462     4081     4270     4131     4033     4284 
    5017     6192     7449     8183     8028     7134     6000     5090 
    4476     3998     3659     3441     3096     2578     2272     2583 
    3500     4573     5304     5556     5464     5212     5054     5185 
    5543     5914     6130     6122     5948     5732     5520     5277 
    5009     4727     4340     3817     3327     3076     3208     3746 
    4482     5173     5748     6176     6390     6407     6272     5964 
    5414     4644     3892     3491     3539     3820     4072     4224 
    4329     4433     4560     4711     4899     5169     5564     6018 
    6335     6335     5961     5371     4899     4866     5285     5734 
    5719     5161     4369     3670     3245     3173     3395     3699 
    3966     4248     4608     5031     5422     5633     5586     5414 
    5346     5350     5209     4943     4834     5103     5706     6345 
    6617     6285     5441     4455     3704     3342     3316     3496 
    3662     3646     3559     3645     4032     4741     5649     6501 
    7084     7325     7246     6789     5865     4733     3939     3743 
    3919     4060     3942     3704     3645     3881     4284     4615 
    4687     4479     4094     3777     3919     4644     5597     6404 
    6988     7383     7495     7140     6285     5100     3800     2662 
    1981     1872     2296     3163     4267     5310     6022     6322 
    6407     6459     6492     6490     6343     5864     5111     4433 
    4141     4228     4467     4630     4536     4201     3940     3991 
    4260     4549     4757     4838     4735     4479     4236     4199 
    4499     5147     5952     6592     6853     6724     6303     5717 
    5071     4418     3773     3213     2941     3129     3711     4483 
    5324     6093     6523     6386     5678     4611     3593     3037 
    3030     3307     3624     4013     4645     5540     6415     6913 
    6898     6467     5849     5302     4928     4664     4495     4498 
    4623     4719     4753     4762     4750     4738     4747     4723 
    4598     4411     4315     4406     4611     4806     4892     4815 
    4587     4348     4355     4772     5466     6172     6682     6820 
    6509     5846     5027     4299     3862     3672     3530     3384 
    3396     3757     4398     4986     5282     5331     5275     5175 
    5015     4842     4845     5113     5479     5721     5734     5540 
    5219     4843     4487     4221     4067     4058     4225     4513 
    4807     5009     5044     4950     4787     4541     4330     4423 
    4874     5475     5977     6187     6083     5803     5435     5022 
    4629     4248     3916     3843     4158     4685     5142     5375 
    5404     5292     4980     4422     3820     3473     3481     3736 
    4122     4619     5252     5976     6597     6932     6988     6832 
    6439     5802     5028     4283     3728     3468     3476     3553 
    3535     3497     3574     3796     4140     4579     5131     5773 
    6237     6234     5902     5629     5602     5728     5815     5719 
    5406     4939     4441     4070     3966     4145     4419     4552 
    4455     4226     4070     4158     4533     5053     5475     5601 
    5381     4943     4542     4386     4518     4791     4976     4973 
    4892     4877     4999     5219     5370     5348     5208     4995 
    4703     4372     4118     4087     4301     4590     4801     4915 
    4969     5008     5077     5215     5425     5667     5863     5896 
    5684     5279     4907     4837     5074     5277     5128     4610 
    3925     3325     2978     2976     3281     3732     4260     4853 
    5400     5923     6567     7268     7763     7774     7177     6168 
    5080     4155     3557     3277     3110     2903     2697     2659 
    2922     3451     4067     4583     4959     5325     5772     6201 
    6446     6405     6177     6054     6176     6338     6261     5832 
    5155     4480     3982     3699     3580     3519     3442     3403 
    3481     3650     3896     4279     4789     5313     5665     5763 
    5738     5728     5717     5659     5521     5273     4941     4654 
    4568     4702     4954     5205     5362     5325     5057     4706 
    4490     4413     4355     4336     4413     4536     4685     4893 
    5161     5445     5640     5632     5379     4935     4518     4398 
    4595     4873     5065     5190     5266     5232     5097     4992 
    4980     4947     4796     4596     4480     4499     4577     4619 
    4622     4631     4684     4765     4811     4788     4760     4781 
    4824     4914     5136     5422     5551     5425     5212     5100 
    5016     4784     4465     4282     4287     4345     4365     4367 
    4349     4307     4291     4347     4517     4820     5181     5522 
    5829     6054     6110     5927     5575     5254     5036     4765 
    4365     4051     4062     4355     4642     4746     4762     4819 
    4853     4814     4766     4726     4685     4714     4872     5123 
    5371     5449     5247     4851     4460     4222     4198     4390 
    4739     5081     5240     5224     5188     5259     5401     5416 
    5163     4754     4450     4414     4544     4614     4571     4577 
    4739     4923     4965     4924     4977     5198     5501     5687 
    5676     5574     5474     5343     5121     4826     4517     4240 
    4036     3962     4017     4110     4170     4228     4337     4498 
    4708     4931     5085     5179     5290     5443     5618     5778 
    5875     5860     5698     5414     5088     4819     4683     4671 
    4698     4641     4423     4149     4075     4329     4735     4974 
    4904     4638     4344     4098     3937     3940     4170     4540 
    4842     5005     5200     5591     6106     6512     6681     6627 
    6370     5896     5294     4761     4409     4155     3944     3852 
