Origin Time       2024/06/23 22:54:00
Lat.              35.645
Long.             140.060
Depth. (km)       72
Mag.              4.1
Station Code      TCGH19
Station Lat.      36.9060
Station Long.     140.1119
Station Height(m) 204
Record Time       2024/06/23 22:55:07
Sampling Freq(Hz) 100Hz
Duration Time(s)  120
Dir.              4
Scale Factor      7845(gal)/8223790
Max. Acc. (gal)   2.004
Last Correction   2024/06/23 22:54:50
Memo.             
[...]
   -7551    -7489    -7473    -7466    -7353    -7241    -7261    -7311 
   -7298    -7275    -7261    -7275    -7349    -7429    -7488    -7550 
   -7553    -7464    -7353    -7260    -7179    -7121    -7082    -7072 
   -7161    -7353    -7507    -7547    -7566    -7607    -7564    -7406 
   -7229    -7109    -7096    -7210    -7329    -7329    -7273    -7287 
   -7427    -7603    -7647    -7539    -7395    -7233    -7078    -7057 
   -7167    -7280    -7375    -7450    -7446    -7422    -7456    -7461 
   -7388    -7339    -7376    -7398    -7323    -7241    -7244    -7277 
   -7285    -7294    -7330    -7384    -7422    -7453    -7466    -7406 
   -7300    -7261    -7298    -7344    -7365    -7356    -7354    -7395 
   -7381    -7304    -7296    -7346    -7358    -7365    -7411    -7447 
   -7420    -7338    -7258    -7217    -7179    -7148    -7238    -7425 
   -7523    -7511    -7512    -7531    -7493    -7404    -7296    -7164 
   -7056    -7045    -7113    -7209    -7346    -7499    -7584    -7599 
   -7576    -7518    -7435    -7366    -7310    -7246    -7183    -7159 
   -7192    -7234    -7244    -7267    -7341    -7423    -7468    -7489 
   -7497    -7491    -7458    -7376    -7272    -7227    -7272    -7326 
   -7306    -7295    -7373    -7434    -7414    -7404    -7416    -7371 
   -7291    -7261    -7257    -7264    -7318    -7365    -7342    -7312 
   -7315    -7291    -7254    -7302    -7414    -7484    -7508    -7510 
   -7456    -7362    -7280    -7234    -7249    -7312    -7360    -7334 
   -7261    -7242    -7307    -7346    -7325    -7346    -7450    -7533 
   -7518    -7449    -7404    -7334    -7188    -7088    -7098    -7115 
   -7164    -7365    -7651    -7803    -7743    -7570    -7361    -7177 
   -7063    -6994    -7020    -7182    -7362    -7449    -7515    -7630 
   -7682    -7591    -7449    -7337    -7249    -7132    -6986    -6967 
   -7148    -7356    -7450    -7485    -7497    -7460    -7423    -7425 
   -7391    -7325    -7310    -7317    -7279    -7252    -7299    -7373 
   -7389    -7345    -7303    -7280    -7285    -7350    -7429    -7460 
   -7437    -7395    -7371    -7364    -7346    -7329    -7341    -7358 
   -7371    -7388    -7352    -7257    -7223    -7267    -7306    -7330 
   -7375    -7398    -7372    -7361    -7392    -7415    -7392    -7358 
   -7366    -7361    -7311    -7300    -7338    -7356    -7331    -7318 
   -7335    -7329    -7287    -7265    -7284    -7315    -7346    -7420 
   -7503    -7500    -7462    -7447    -7371    -7231    -7152    -7160 
   -7191    -7221    -7268    -7342    -7438    -7508    -7520    -7501 
   -7466    -7419    -7352    -7253    -7171    -7190    -7269    -7304 
   -7335    -7439    -7527    -7507    -7458    -7435    -7373    -7265 
   -7191    -7171    -7175    -7231    -7327    -7399    -7450    -7497 
   -7516    -7483    -7408    -7307    -7184    -7088    -7080    -7184 
   -7334    -7441    -7526    -7631    -7655    -7528    -7356    -7241 
   -7161    -7105    -7115    -7203    -7329    -7422    -7435    -7423 
   -7447    -7461    -7406    -7342    -7337    -7375    -7425    -7415 
   -7323    -7277    -7317    -7291    -7169    -7123    -7204    -7269 
   -7294    -7396    -7523    -7527    -7473    -7489    -7528    -7481 
   -7362    -7265    -7230    -7230    -7213    -7184    -7215    -7290 
   -7352    -7402    -7454    -7503    -7530    -7515    -7460    -7373 
   -7269    -7168    -7102    -7117    -7194    -7265    -7346    -7461 
   -7539    -7535    -7508    -7485    -7456    -7427    -7344    -7172 
   -7030    -7026    -7119    -7240    -7369    -7507    -7647    -7734 
   -7680    -7503    -7329    -7218    -7114    -7010    -7011    -7144 
   -7271    -7300    -7338    -7501    -7701    -7793    -7730    -7557 
   -7377    -7231    -7086    -6975    -6971    -7042    -7126    -7253 
   -7437    -7605    -7680    -7634    -7554    -7514    -7445    -7307 
   -7198    -7168    -7191    -7233    -7261    -7279    -7314    -7368 
   -7425    -7450    -7427    -7379    -7333    -7300    -7292    -7295 
   -7290    -7306    -7373    -7458    -7499    -7488    -7457    -7411 
   -7329    -7240    -7199    -7164    -7087    -7076    -7222    -7423 
   -7531    -7526    -7495    -7489    -7473    -7410    -7323    -7273 
   -7240    -7163    -7125    -7229    -7402    -7503    -7516    -7492 
   -7456    -7422    -7395    -7358    -7360    -7392    -7349    -7206 
   -7096    -7111    -7198    -7284    -7373    -7476    -7566    -7597 
   -7592    -7553    -7422    -7227    -7075    -7005    -7013    -7114 
   -7302    -7493    -7615    -7657    -7642    -7595    -7500    -7345 
   -7179    -7047    -6955    -6947    -7044    -7209    -7412    -7624 
   -7743    -7720    -7649    -7580    -7456    -7292    -7176    -7101 
   -7044    -7037    -7103    -7241    -7408    -7515    -7515    -7462 
   -7429    -7416    -7396    -7350    -7298    -7269    -7265    -7287 
   -7371    -7515    -7680    -7774    -7701    -7487    -7256    -7071 
   -6949    -6874    -6824    -6863    -7034    -7287    -7531    -7709 
   -7809    -7823    -7734    -7572    -7388    -7222    -7115    -7084 
   -7113    -7188    -7287    -7352    -7391    -7441    -7447    -7360 
   -7240    -7199    -7253    -7299    -7304    -7330    -7387    -7435 
   -7466    -7519    -7588    -7585    -7495    -7408    -7380    -7348 
   -7246    -7114    -7015    -6967    -6988    -7090    -7237    -7400 
   -7568    -7701    -7765    -7747    -7662    -7516    -7318    -7134 
   -7032    -6991    -6990    -7056    -7219    -7446    -7599    -7624 
   -7619    -7601    -7527    -7415    -7276    -7157    -7132    -7171 
   -7206    -7265    -7388    -7538    -7622    -7580    -7473    -7375 
   -7253    -7121    -7075    -7113    -7184    -7271    -7330    -7383 
   -7479    -7543    -7512    -7462    -7458    -7476    -7477    -7433 
   -7329    -7175    -7005    -6924    -6995    -7115    -7253    -7503 
   -7767    -7838    -7732    -7611    -7510    -7365    -7175    -7006 
   -6918    -6930    -7009    -7117    -7280    -7497    -7680    -7773 
   -7765    -7643    -7454    -7279    -7138    -7051    -7040    -7094 
   -7209    -7396    -7585    -7684    -7716    -7689    -7577    -7414 
   -7192    -6940    -6804    -6841    -6994    -7203    -7415    -7582 
   -7681    -7713    -7704    -7662    -7591    -7466    -7242    -6984 
   -6875    -6998    -7248    -7453    -7562    -7605    -7595    -7504 
   -7326    -7152    -7076    -7102    -7186    -7268    -7314    -7349 
   -7398    -7462    -7524    -7537    -7487    -7437    -7406    -7330 
   -7227    -7206    -7260    -7284    -7284    -7329    -7388    -7418 
   -7437    -7426    -7362    -7312    -7334    -7345    -7298    -7292 
   -7366    -7443    -7456    -7412    -7337    -7237    -7161    -7161 
   -7192    -7231    -7348    -7519    -7628    -7650    -7616    -7528 
   -7406    -7271    -7103    -6947    -6895    -6947    -7059    -7264 
   -7507    -7636    -7645    -7622    -7566    -7449    -7353    -7356 
   -7395    -7412    -7393    -7296    -7169    -7118    -7148    -7218 
   -7315    -7419    -7500    -7518    -7454    -7350    -7275    -7257 
   -7263    -7271    -7322    -7431    -7546    -7623    -7643    -7547 
   -7354    -7221    -7192    -7130    -7048    -7110    -7273    -7345 
   -7341    -7396    -7493    -7538    -7528    -7493    -7408    -7276 
   -7176    -7168    -7203    -7227    -7288    -7418    -7542    -7577 
   -7523    -7420    -7317    -7236    -7164    -7132    -7175    -7279 
   -7396    -7466    -7492    -7524    -7547    -7501    -7408    -7290 
   -7133    -6993    -6936    -6972    -7118    -7360    -7584    -7715 
   -7755    -7685    -7516    -7346    -7257    -7244    -7237    -7182 
   -7121    -7107    -7157    -7290    -7493    -7690    -7774    -7720 
   -7597    -7446    -7252    -7052    -6909    -6847    -6882    -7018 
   -7203    -7372    -7507    -7636    -7724    -7728    -7665    -7592 
   -7554    -7504    -7380    -7227    -7123    -7052    -6979    -6925 
   -6933    -7061    -7303    -7546    -7705    -7793    -7824    -7784 
   -7684    -7566    -7466    -7416    -7407    -7364    -7246    -7082 
   -6913    -6798    -6787    -6852    -6921    -7009    -7159    -7348 
   -7514    -7618    -7689    -7812    -7967    -8023    -7948    -7793 
   -7582    -7353    -7117    -6898    -6804    -6866    -6957    -7018 
   -7118    -7267    -7372    -7399    -7354    -7258    -7195    -7249 
   -7366    -7485    -7659    -7870    -7990    -7950    -7746    -7473 
   -7268    -7123    -6979    -6875    -6847    -6833    -6835    -6924 
   -7071    -7233    -7476    -7797    -8035    -8064    -7938    -7774 
   -7564    -7236    -6920    -6832    -6937    -7030    -7065    -7168 
   -7383    -7562    -7554    -7408    -7311    -7326    -7349    -7362 
   -7437    -7518    -7500    -7377    -7246    -7242    -7422    -7659 
   -7754    -7704    -7643    -7511    -7182    -6809    -6616    -6620 
   -6771    -7059    -7426    -7758    -7946    -7955    -7830    -7624 
   -7371    -7133    -7009    -7033    -7183    -7357    -7416    -7356 
   -7281    -7263    -7241    -7168    -7155    -7268    -7415    -7507 
   -7518    -7483    -7497    -7553    -7538    -7466    -7429    -7388 
   -7284    -7128    -6943    -6786    -6736    -6799    -6966    -7226 
   -7500    -7735    -7973    -8191    -8270    -8104    -7732    -7314 
   -6968    -6745    -6675    -6774    -7036    -7387    -7690    -7854 
   -7892    -7871    -7780    -7543    -7238    -7048    -7002    -6971 
   -6868    -6760    -6766    -6889    -7114    -7479    -7921    -8240 
   -8257    -7993    -7570    -7075    -6598    -6268    -6181    -6373 
   -6747    -7167    -7597    -8035    -8361    -8410    -8179    -7866 
   -7635    -7431    -7207    -7074    -7052    -7017    -6960    -6957 
   -7014    -7125    -7285    -7474    -7669    -7817    -7855    -7771 
   -7614    -7453    -7349    -7284    -7250    -7277    -7307    -7256 
   -7165    -7096    -7049    -7041    -7113    -7245    -7379    -7468 
   -7492    -7422    -7218    -6941    -6743    -6786    -7121    -7565 
   -7911    -8105    -8114    -7892    -7515    -7092    -6701    -6477 
   -6529    -6841    -7388    -8013    -8406    -8465    -8321    -8013 
   -7542    -7063    -6762    -6666    -6678    -6741    -6883    -7107 
   -7392    -7738    -8054    -8168    -8001    -7616    -7167    -6793 
   -6532    -6361    -6312    -6466    -6820    -7334    -7958    -8523 
   -8811    -8722    -8297    -7676    -6960    -6200    -5616    -5545 
   -6034    -6777    -7565    -8374    -9023    -9239    -8993    -8433 
   -7670    -6837    -6138    -5760    -5803    -6195    -6743    -7310 
   -7854    -8282    -8451    -8313    -7971    -7635    -7435    -7233 
   -6887    -6569    -6511    -6689    -6982    -7384    -7904    -8365 
   -8525    -8338    -7909    -7238    -6401    -5760    -5611    -5902 
   -6473    -7249    -8097    -8780    -9103    -8992    -8521    -7843 
   -7084    -6378    -5922    -5830    -6060    -6543    -7192    -7844 
   -8293    -8391    -8208    -7960    -7762    -7562    -7339    -7159 
   -7040    -6982    -6990    -7040    -7148    -7362    -7608    -7728 
   -7697    -7581    -7308    -6878    -6554    -6482    -6608    -6994 
   -7616    -8171    -8471    -8522    -8297    -7830    -7252    -6679 
   -6307    -6305    -6578    -6907    -7222    -7520    -7727    -7732 
   -7516    -7233    -7091    -7145    -7287    -7449    -7612    -7682 
   -7605    -7456    -7321    -7250    -7302    -7466    -7634    -7738 
   -7796    -7723    -7450    -7123    -6855    -6656    -6637    -6840 
   -7121    -7364    -7560    -7736    -7904    -8027    -8052    -8013 
   -7973    -7862    -7576    -7183    -6824    -6523    -6247    -6083 
   -6184    -6559    -7055    -7554    -8000    -8264    -8217    -7866 
   -7371    -6970    -6841    -6976    -7226    -7460    -7651    -7796 
   -7830    -7735    -7616    -7547    -7518    -7469    -7338    -7128 
   -6922    -6783    -6731    -6802    -7020    -7306    -7584    -7874 
   -8172    -8305    -8050    -7452    -6826    -6394    -6156    -6124 
   -6390    -6961    -7659    -8228    -8513    -8533    -8368    -8032 
   -7541    -7013    -6610    -6419    -6451    -6712    -7150    -7650 
   -8058    -8216    -8071    -7744    -7393    -7088    -6912    -6933 
   -7080    -7217    -7295    -7314    -7295    -7248    -7192    -7206 
   -7321    -7470    -7584    -7605    -7484    -7211    -6890    -6709 
   -6759    -7010    -7358    -7643    -7840    -8070    -8282    -8280 
   -8052    -7755    -7465    -7136    -6755    -6442    -6340    -6427 
   -6551    -6687    -6925    -7284    -7669    -7997    -8275    -8468 
   -8456    -8164    -7624    -6991    -6501    -6295    -6365    -6704 
   -7307    -8001    -8429    -8363    -7940    -7429    -6917    -6473 
   -6278    -6407    -6718    -7071    -7454    -7863    -8179    -8299 
   -8272    -8140    -7858    -7419    -6956    -6610    -6400    -6297 
   -6326    -6516    -6845    -7207    -7539    -7915    -8341    -8679 
   -8787    -8630    -8216    -7570    -6790    -6065    -5671    -5784 
   -6291    -6948    -7647    -8325    -8804    -8885    -8517    -7809 
   -6956    -6178    -5674    -5599    -5972    -6623    -7380    -8124 
   -8684    -8926    -8874    -8660    -8356    -7938    -7404    -6844 
   -6323    -5833    -5478    -5494    -5980    -6781    -7681    -8529 
   -9170    -9447    -9252    -8588    -7604    -6571    -5756    -5323 
   -5320    -5761    -6610    -7631    -8496    -9013    -9128    -8845 
   -8203    -7376    -6659    -6247    -6142    -6284    -6621    -7094 
   -7630    -8110    -8378    -8380    -8186    -7844    -7398    -6928 
   -6546    -6345    -6366    -6616    -7057    -7558    -7960    -8171 
   -8189    -8071    -7839    -7492    -7094    -6766    -6585    -6554 
   -6702    -7059    -7515    -7884    -8063    -8047    -7881    -7589 
   -7187    -6794    -6588    -6605    -6741    -6940    -7233    -7585 
   -7881    -8051    -8054    -7852    -7465    -6986    -6562    -6308 
   -6254    -6415    -6810    -7393    -8019    -8500    -8770    -8874 
   -8793    -8437    -7848    -7265    -6852    -6552    -6332    -6277 
   -6423    -6702    -6990    -7213    -7402    -7592    -7681    -7588 
   -7453    -7433    -7499    -7578    -7686    -7805    -7828    -7676 
   -7383    -7079    -6853    -6690    -6575    -6597    -6793    -7095 
   -7437    -7724    -7870    -7873    -7707    -7381    -7072    -6916 
   -6885    -7001    -7337    -7823    -8257    -8449    -8341    -8014 
   -7535    -6925    -6312    -5900    -5809    -6079    -6698    -7522 
   -8298    -8830    -9038    -8930    -8572    -8040    -7391    -6741 
   -6270    -6042    -6042    -6286    -6710    -7177    -7668    -8154 
   -8432    -8338    -7911    -7322    -6778    -6404    -6220    -6257 
   -6542    -6990    -7491    -8001    -8438    -8660    -8542    -8070 
   -7419    -6839    -6455    -6262    -6308    -6689    -7308    -7873 
   -8201    -8320    -8247    -7947    -7510    -7132    -6894    -6793 
   -6840    -6987    -7140    -7329    -7600    -7801    -7777    -7603 
   -7456    -7368    -7277    -7163    -7060    -7010    -7002    -7007 
   -7038    -7129    -7312    -7547    -7696    -7659    -7481    -7296 
   -7206    -7218    -7315    -7456    -7555    -7592    -7597    -7511 
   -7248    -6885    -6582    -6420    -6482    -6863    -7507    -8221 
   -8823    -9159    -9121    -8699    -7997    -7188    -6423    -5809 
   -5475    -5545    -6031    -6787    -7589    -8252    -8665    -8731 
   -8418    -7869    -7294    -6806    -6448    -6269    -6309    -6570 
   -6979    -7418    -7835    -8228    -8503    -8513    -8235    -7790 
   -7296    -6814    -6417    -6189    -6168    -6350    -6728    -7230 
   -7717    -8089    -8291    -8306    -8151    -7862    -7477    -7132 
   -6959    -6966    -7098    -7299    -7465    -7501    -7403    -7231 
   -7021    -6797    -6620    -6608    -6867    -7331    -7789    -8091 
   -8233    -8248    -8106    -7767    -7318    -6913    -6658    -6573 
   -6656    -6926    -7321    -7663    -7879    -8019    -8054    -7904 
   -7600    -7226    -6853    -6566    -6439    -6521    -6835    -7318 
   -7817    -8186    -8364    -8332    -8071    -7636    -7111    -6597 
   -6241    -6114    -6210    -6579    -7172    -7734    -8094    -8307 
   -8402    -8240    -7770    -7207    -6802    -6632    -6628    -6766 
   -7096    -7537    -7893    -8121    -8241    -8154    -7836    -7452 
   -7087    -6729    -6448    -6378    -6583    -6971    -7369    -7666 
   -7839    -7870    -7809    -7746    -7654    -7441    -7146    -6920 
   -6818    -6809    -6898    -7068    -7264    -7496    -7738    -7870 
   -7830    -7685    -7510    -7304    -7107    -7021    -7107    -7306 
   -7503    -7658    -7763    -7719    -7460    -7132    -6885    -6713 
   -6667    -6853    -7199    -7542    -7865    -8149    -8237    -8048 
   -7674    -7264    -6930    -6690    -6562    -6642    -6916    -7256 
   -7591    -7862    -7965    -7902    -7743    -7465    -7101    -6779 
   -6569    -6496    -6609    -6907    -7337    -7797    -8108    -8167 
   -8082    -7960    -7759    -7439    -7072    -6756    -6567    -6569 
   -6741    -7041    -7435    -7797    -8005    -8078    -8064    -7933 
   -7646    -7273    -6976    -6855    -6886    -6980    -7113    -7303 
   -7465    -7515    -7489    -7415    -7272    -7092    -6951    -6902 
   -6997    -7238    -7485    -7653    -7813    -7974    -8044    -7996 
   -7855    -7630    -7304    -6945    -6683    -6585    -6610    -6712 
   -6914    -7230    -7564    -7834    -8023    -8091    -7977    -7676 
   -7281    -6940    -6752    -6735    -6858    -7099    -7416    -7700 
   -7854    -7874    -7804    -7669    -7480    -7261    -7048    -6880 
   -6783    -6760    -6829    -7001    -7277    -7603    -7857    -7959 
   -7893    -7685    -7395    -7096    -6928    -6968    -7094    -7172 
   -7234    -7330    -7408    -7429    -7441    -7497    -7570    -7612 
   -7624    -7614    -7581    -7527    -7433    -7254    -7014    -6816 
   -6741    -6798    -6955    -7198    -7520    -7842    -8031    -8036 
   -7878    -7574    -7202    -6885    -6748    -6883    -7223    -7564 
   -7759    -7800    -7716    -7541    -7319    -7088    -6890    -6775 
   -6777    -6895    -7105    -7366    -7670    -7929    -8017    -7942 
   -7808    -7620    -7345    -7083    -6945    -6890    -6864    -6913 
   -7048    -7200    -7314    -7406    -7503    -7569    -7580    -7573 
   -7580    -7542    -7446    -7396    -7464    -7558    -7551    -7411 
   -7187    -6974    -6871    -6902    -7017    -7179    -7398    -7628 
   -7727    -7632    -7439    -7254    -7110    -7041    -7090    -7246 
   -7484    -7757    -7975    -8060    -7938    -7561    -7028    -6567 
   -6338    -6336    -6519    -6849    -7268    -7672    -7955    -8086 
   -8122    -8098    -7943    -7704    -7550    -7473    -7326    -7082 
   -6845    -6705    -6669    -6733    -6893    -7132    -7453    -7789 
   -8028    -8121    -8071    -7859    -7504    -7125    -6837    -6655 
   -6597    -6705    -6961    -7287    -7588    -7800    -7884    -7830 
   -7696    -7549    -7376    -7159    -6983    -6955    -7045    -7188 
