Origin Time       2024/06/23 22:54:00
Lat.              35.645
Long.             140.060
Depth. (km)       72
Mag.              4.1
Station Code      TCGH16
Station Lat.      36.5480
Station Long.     140.0751
Station Height(m) 105
Record Time       2024/06/23 22:54:48
Sampling Freq(Hz) 100Hz
Duration Time(s)  120
Dir.              6
Scale Factor      7845(gal)/8223790
Max. Acc. (gal)   0.891
Last Correction   2024/06/23 22:54:48
Memo.             
[...]
   12901    12881    12819    12803    12781    12683    12579    12595 
   12746    12923    12955    12899    12862    12654    12425    12598 
   12846    12793    12823    13081    13139    12908    12733    12692 
   12506    12258    12406    12853    13130    13150    12966    12667 
   12591    12826    12947    12773    12637    12710    12865    12922 
   12772    12664    12725    12769    12850    12827    12552    12530 
   12866    13039    12950    12764    12638    12699    12783    12858 
   13042    13061    12826    12717    12777    12726    12532    12406 
   12536    12834    13004    12992    12960    12892    12833    12854 
   12679    12372    12445    12849    13130    13108    12969    12903 
   12741    12451    12397    12594    12690    12688    12831    12972 
   12908    12895    12947    12756    12565    12680    12723    12568 
   12596    12742    12834    13012    13109    12976    12839    12776 
   12722    12665    12658    12738    12803    12884    12991    12856 
   12582    12598    12880    13038    12860    12636    12653    12648 
   12556    12663    12819    12896    13011    13011    12856    12698 
   12576    12667    12865    12829    12804    12970    12988    12873 
   12799    12710    12708    12800    12868    12915    12830    12615 
   12542    12656    12742    12685    12637    12773    12911    12845 
   12768    12735    12675    12780    12938    12854    12776    12793 
   12718    12718    12738    12654    12723    12787    12679    12688 
   12729    12714    12847    12966    12957    12926    12777    12645 
   12749    12852    12731    12600    12777    13105    13149    12945 
   12722    12517    12555    12838    12887    12576    12428    12829 
   13321    13194    12683    12468    12627    12943    13116    12918 
   12622    12503    12580    12756    12727    12567    12636    12862 
   13016    12987    12756    12537    12587    12849    12930    12702 
   12533    12640    12992    13370    13255    12610    12174    12314 
   12687    12969    13042    13001    13011    12938    12717    12564 
   12517    12542    12733    12920    12883    12868    13031    13020 
   12765    12615    12630    12625    12598    12717    12982    13076 
   12856    12667    12695    12799    12919    12939    12737    12517 
   12546    12745    12870    12954    13058    13038    12877    12690 
   12533    12472    12479    12523    12707    12949    12962    12823 
   12889    13088    13076    12854    12592    12434    12533    12792 
   12910    12803    12695    12804    13036    13068    12833    12637 
   12657    12762    12762    12615    12519    12669    12914    13045 
   12985    12721    12503    12600    12854    12949    12779    12613 
   12787    13055    13068    12945    12723    12453    12482    12695 
   12715    12712    12883    13054    13085    12885    12560    12502 
   12744    12862    12735    12615    12642    12779    12958    13016 
   12829    12676    12792    12933    12953    12924    12785    12594 
   12556    12660    12685    12653    12793    13018    13038    12885 
   12735    12673    12731    12793    12756    12737    12726    12645 
   12700    12933    12968    12727    12522    12514    12654    12874 
   13080    13116    12943    12769    12741    12771    12731    12571 
   12453    12615    12838    12776    12681    12842    13042    13108 
   13058    12892    12661    12495    12533    12769    12912    12791 
   12691    12866    13089    13023    12711    12472    12506    12764 
   13046    13063    12750    12580    12816    12962    12731    12530 
   12627    12827    12856    12749    12719    12733    12776    12922 
   12945    12750    12600    12634    12780    12888    12907    12912 
   12856    12735    12710    12734    12661    12529    12505    12733 
   13027    12995    12748    12749    12939    12920    12757    12731 
   12873    13046    13069    12880    12634    12498    12496    12542 
   12572    12663    12842    12943    12864    12780    12820    12802 
   12634    12606    12870    13122    13080    12914    12879    12860 
   12684    12494    12455    12621    12920    13020    12853    12773 
   12811    12777    12756    12749    12721    12822    12926    12829 
   12698    12654    12642    12638    12577    12542    12702    12912 
   12953    12845    12737    12829    13082    13155    12993    12791 
   12560    12483    12691    12841    12820    12879    12935    12746 
   12501    12502    12619    12754    13015    13144    12949    12739 
   12664    12630    12623    12658    12722    12719    12653    12769 
   13074    13157    12838    12514    12540    12761    12893    12906 
   12876    12837    12815    12806    12796    12822    12884    12931 
   12870    12640    12475    12591    12742    12749    12819    12996 
   13005    12779    12631    12710    12791    12814    12866    12854 
   12779    12766    12738    12617    12555    12661    12826    12864 
   12733    12652    12760    12846    12819    12868    12954    12931 
   12860    12792    12766    12776    12696    12637    12750    12830 
   12795    12849    12934    12831    12611    12532    12683    12868 
   12955    13023    12978    12764    12676    12738    12606    12367 
   12424    12744    13009    13126    13100    12918    12711    12656 
   12733    12818    12862    12847    12750    12660    12652    12650 
   12633    12648    12676    12788    13015    13158    13070    12834 
   12638    12587    12633    12733    12839    12885    12834    12721 
   12700    12726    12630    12621    12784    12856    12865    12953 
   13000    12992    12970    12810    12523    12401    12577    12829 
   12910    12816    12673    12665    12825    12900    12780    12657 
   12694    12799    12811    12838    12992    13073    12965    12760 
   12583    12534    12568    12664    12798    12775    12658    12721 
   12907    12947    12807    12719    12771    12843    12962    13066 
   12958    12746    12649    12683    12718    12664    12614    12665 
   12765    12883    12923    12826    12771    12795    12765    12761 
   12806    12802    12847    12928    12846    12683    12614    12609 
   12658    12783    12868    12833    12811    12924    12939    12707 
   12568    12642    12695    12744    12819    12879    12960    12933 
   12779    12677    12591    12577    12758    12881    12852    12792 
   12733    12792    12888    12825    12711    12646    12656    12806 
   12942    12931    12900    12874    12773    12648    12557    12610 
   12847    13059    13085    12920    12675    12606    12718    12756 
   12731    12822    12927    12895    12812    12766    12731    12687 
   12613    12615    12749    12803    12775    12772    12691    12685 
   12877    12955    12908    12927    12891    12802    12835    12879 
   12777    12637    12577    12573    12646    12804    12846    12739 
   12746    12862    12870    12807    12775    12750    12742    12738 
   12721    12737    12764    12762    12727    12646    12645    12798 
   12926    12942    12937    12889    12807    12814    12885    12901 
   12846    12737    12614    12572    12648    12804    12977    13031 
   12870    12648    12548    12492    12519    12735    12904    12906 
   12873    12876    12955    12915    12677    12607    12706    12741 
   12818    12874    12791    12741    12783    12834    12873    12891 
   12858    12773    12696    12708    12785    12826    12833    12874 
   12885    12772    12626    12533    12448    12465    12683    12901 
   12955    12968    13009    12919    12752    12791    12892    12779 
   12729    12895    12911    12766    12746    12739    12638    12609 
   12665    12734    12834    12880    12807    12776    12853    12868 
   12789    12761    12761    12726    12722    12723    12668    12654 
   12789    12943    12885    12727    12717    12775    12820    12843 
   12752    12717    12856    12896    12806    12787    12776    12737 
   12731    12676    12667    12820    12883    12789    12789    12842 
   12868    12888    12810    12730    12760    12758    12699    12661 
   12631    12675    12803    12822    12725    12727    12846    12941 
   12899    12719    12630    12762    12881    12873    12889    12892 
   12789    12762    12819    12735    12592    12622    12769    12784 
   12633    12583    12752    12900    12923    12941    12899    12814 
   12900    12999    12895    12829    12857    12812    12796    12799 
   12762    12742    12627    12502    12596    12723    12707    12704 
   12761    12864    13009    13003    12760    12596    12731    12906 
   12879    12735    12603    12565    12622    12699    12772    12780 
   12729    12737    12749    12715    12776    12980    13127    13031 
   12784    12576    12463    12563    12854    12973    12885    12900 
   12970    12962    12899    12749    12630    12644    12677    12748 
   12881    12918    12869    12884    12914    12866    12788    12731 
   12679    12568    12407    12442    12730    12955    12976    12884 
   12764    12711    12663    12563    12596    12808    13031    13116 
   12995    12866    12883    12835    12671    12550    12556    12754 
   12989    12989    12838    12718    12640    12669    12725    12683 
   12746    12883    12834    12750    12793    12865    12914    12897 
   12785    12618    12522    12541    12536    12528    12695    12999 
   13220    13176    12919    12704    12690    12904    13203    13201 
   12846    12513    12341    12213    12168    12329    12623    12912 
   13167    13292    13176    12989    12941    12938    12870    12856 
   12980    13050    12761    12272    12082    12182    12339    12629 
   12977    13167    13188    13124    13088    13065    13001    13020 
   12999    12660    12232    12108    12271    12530    12733    12773 
   12696    12602    12611    12879    13247    13402    13414    13358 
   13073    12734    12627    12618    12482    12291    12278    12430 
   12460    12387    12496    12800    13134    13316    13274    13177 
   13107    13016    12864    12584    12317    12270    12420    12598 
   12622    12627    12845    13076    13138    13159    13274    13373 
   13093    12511    12172    12086    12043    12271    12714    12964 
   13034    13149    13223    13096    12854    12733    12791    12889 
   12933    12877    12665    12415    12340    12418    12522    12633 
   12754    12907    13116    13173    12946    12753    12834    13061 
   13243    13197    12825    12309    12069    12343    12775    12933 
   12904    12856    12719    12586    12637    12862    13147    13252 
   13023    12664    12421    12429    12700    12950    12978    12941 
   12837    12557    12317    12289    12402    12648    12926    13082 
   13207    13324    13263    12982    12742    12808    12992    13023 
   12969    12804    12479    12197    12021    11952    12177    12644 
   13020    13161    13215    13279    13262    13130    12985    12926 
   12964    12968    12802    12479    12181    12172    12394    12571 
   12762    13062    13267    13238    12996    12722    12644    12737 
   12876    12904    12679    12397    12325    12420    12556    12731 
   13005    13320    13467    13278    12888    12663    12687    12787 
   12928    12977    12727    12305    11970    11901    12145    12580 
   13096    13481    13432    13155    13039    12915    12690    12699 
   12976    13147    12992    12636    12340    12174    12109    12259 
   12626    12935    13085    13197    13198    13076    13050    13169 
   13251    13130    12839    12583    12361    12144    12100    12283 
   12637    13018    13127    12895    12519    12239    12214    12398 
   12758    13273    13635    13636    13455    13189    12779    12421 
   12448    12761    12976    12943    12725    12460    12313    12236 
   12168    12167    12260    12583    13104    13435    13482    13463 
   13383    13178    12889    12631    12598    12752    12874    12881 
   12688    12372    12267    12339    12314    12294    12448    12745 
   13120    13427    13482    13266    12966    12775    12676    12669 
   12762    12777    12657    12537    12452    12424    12502    12680 
   12926    13123    13155    13149    13177    13078    12866    12738 
   12753    12781    12712    12576    12420    12298    12293    12364 
   12465    12718    13100    13298    13176    12916    12681    12567 
   12683    12926    13022    12919    12750    12586    12536    12650 
   12776    12914    13116    13128    12837    12557    12540    12714 
   12901    13023    13089    13042    12847    12663    12587    12536 
   12625    12962    13185    13030    12696    12413    12305    12380 
   12476    12530    12588    12660    12806    13045    13228    13230 
   13103    13020    12995    12893    12768    12711    12607    12486 
   12541    12691    12749    12742    12776    12880    12995    13069 
   13105    13063    12893    12610    12321    12209    12318    12610 
   13009    13170    12888    12556    12501    12595    12795    13116 
   13370    13398    13185    12842    12567    12429    12328    12232 
   12270    12507    12811    13020    13062    12926    12819    12951 
   13041    12834    12633    12623    12671    12754    12843    12877 
   12950    13080    13047    12791    12530    12349    12283    12410 
   12519    12518    12706    13085    13409    13647    13714    13512 
   13201    12881    12487    12159    12127    12326    12560    12715 
   12687    12540    12479    12483    12541    12791    13111    13252 
   13243    13174    12954    12636    12440    12345    12312    12517 
   12887    13134    13144    12933    12669    12548    12513    12546 
   12756    13007    13076    12974    12885    12891    12853    12764 
   12748    12684    12544    12576    12789    12984    13105    13158 
   13101    12904    12695    12595    12523    12461    12495    12545 
   12550    12648    12799    12826    12806    12789    12694    12673 
   12816    12985    13078    13018    12931    12976    12938    12717 
   12517    12453    12532    12706    12942    13215    13381    13336 
   13089    12761    12556    12511    12529    12592    12609    12463 
   12259    12168    12232    12475    12938    13447    13644    13464 
   13163    12891    12636    12386    12210    12233    12467    12725 
   12884    13028    13117    13019    12895    12964    13146    13224 
   13059    12688    12266    12016    12167    12611    12968    13074 
   12976    12731    12513    12487    12640    12907    13223    13359 
   13142    12742    12472    12498    12727    12923    12977    12887 
   12710    12658    12830    13023    13054    12954    12827    12726 
   12567    12282    12056    12133    12482    12837    13024    13084 
   13045    12907    12783    12737    12768    12870    12955    12935 
   12833    12700    12598    12623    12822    13082    13275    13315 
   13128    12764    12413    12221    12185    12253    12456    12783 
   13053    13147    13122    13012    12906    12895    12877    12852 
   12949    13011    12845    12583    12394    12351    12429    12515 
   12603    12726    12888    13055    13100    13024    12951    12900 
   12896    12884    12756    12654    12684    12688    12573    12433 
   12438    12629    12852    12970    13019    13085    13163    13188 
   13107    12901    12737    12804    12888    12734    12529    12463 
   12472    12509    12515    12391    12243    12313    12561    12806 
   13063    13277    13311    13278    13238    13051    12789    12692 
   12752    12683    12415    12248    12328    12495    12703    12941 
   13061    13066    13093    13100    12993    12893    12933    12992 
   12912    12726    12549    12456    12414    12328    12245    12340 
   12672    13055    13205    13122    13069    13073    12964    12785 
   12695    12729    12815    12881    12907    12839    12688    12575 
   12513    12498    12650    12938    13167    13217    13014    12729 
   12660    12677    12604    12592    12675    12741    12729    12607 
   12490    12538    12811    13139    13193    12933    12602    12432 
   12510    12677    12833    13046    13146    13036    12880    12715 
   12579    12586    12715    12879    12926    12849    12785    12690 
   12599    12640    12677    12677    12802    12962    12977    12883 
   12849    12931    12924    12760    12669    12677    12683    12795 
   12941    12937    12873    12838    12798    12727    12588    12546 
   12756    12954    12949    12883    12753    12528    12417    12465 
   12548    12758    13077    13236    13181    12981    12729    12645 
   12744    12845    12903    12934    12910    12789    12614    12514 
   12530    12621    12748    12839    12766    12556    12457    12560 
   12706    12846    12973    12969    12856    12748    12673    12673 
   12721    12773    12904    12985    12869    12780    12799    12717 
   12617    12722    12927    13058    13124    13135    13054    12900 
   12741    12629    12499    12322    12282    12428    12611    12799 
   12958    12951    12820    12780    12873    12980    13054    13116 
   13136    13077    12930    12679    12379    12233    12302    12407 
   12484    12631    12765    12744    12700    12799    12916    12955 
   13041    13194    13235    13072    12825    12625    12513    12530 
   12672    12761    12730    12793    12965    12953    12771    12762 
   12949    13049    13015    12958    12873    12779    12727    12698 
   12640    12546    12519    12638    12768    12727    12603    12556 
   12571    12650    12807    12883    12853    12847    12860    12852 
   12830    12808    12831    12910    12949    12853    12679    12569 
   12557    12599    12702    12860    12965    12926    12800    12781 
   12907    12987    12993    13032    13005    12861    12717    12610 
   12541    12579    12739    12897    12881    12775    12792    12870 
   12858    12811    12792    12810    12872    12906    12833    12683 
   12538    12475    12532    12598    12542    12482    12565    12699 
   12766    12847    13069    13332    13394    13166    12804    12544 
   12503    12627    12753    12663    12420    12349    12484    12645 
   12802    12972    13142    13225    13120    12951    12847    12781 
   12781    12806    12725    12569    12451    12437    12482    12491 
   12557    12758    12954    13059    13078    12972    12772    12606 
   12610    12754    12895    13035    13147    13136    13038    12850 
   12615    12533    12652    12849    12955    12850    12622    12464 
   12449    12599    12853    13015    13035    13032    12970    12800 
   12669    12673    12756    12847    12865    12783    12694    12672 
   12749    12864    12930    12965    12907    12730    12631    12617 
   12576    12573    12568    12498    12513    12696    12914    12985 
   12880    12762    12725    12700    12680    12698    12722    12762 
   12849    12876    12752    12681    12820    12947    12914    12826 
   12734    12714    12854    13043    13124    13030    12808    12636 
   12559    12517    12573    12731    12922    13053    12995    12847 
