Origin Time       2024/06/23 22:54:00
Lat.              35.645
Long.             140.060
Depth. (km)       72
Mag.              4.1
Station Code      TCGH15
Station Lat.      36.5595
Station Long.     139.8637
Station Height(m) 125
Record Time       2024/06/23 22:54:56
Sampling Freq(Hz) 100Hz
Duration Time(s)  120
Dir.              5
Scale Factor      7845(gal)/8223790
Max. Acc. (gal)   1.905
Last Correction   2024/06/23 22:54:56
Memo.             
[...]
    7888     7890     7983     8064     8121     8193     8190     8071 
    7928     7798     7712     7738     7862     8021     8159     8206 
    8132     8010     7917     7877     7920     8029     8131     8193 
    8187     8073     7909     7781     7717     7761     7909     8074 
    8168     8154     8044     7921     7854     7888     8032     8193 
    8249     8183     8047     7889     7757     7719     7808     7971 
    8128     8174     8098     8005     7936     7881     7909     8031 
    8139     8144     8050     7925     7838     7808     7867     8009 
    8160     8264     8272     8131     7900     7744     7730     7796 
    7897     8025     8121     8128     8090     8021     7915     7850 
    7905     8023     8118     8181     8187     8063     7854     7755 
    7847     7989     8063     8064     8001     7938     7954     7993 
    7992     7997     8047     8112     8136     8118     8052     7904 
    7767     7793     7948     8095     8156     8105     7973     7852 
    7786     7792     7873     7977     8078     8183     8226     8171 
    8087     8012     7924     7905     7992     8056     8035     7958 
    7847     7773     7782     7878     8047     8179     8226     8212 
    8108     7977     7905     7905     7967     8025     8006     7924 
    7801     7715     7751     7911     8156     8372     8403     8274 
    8095     7919     7790     7736     7750     7854     8005     8128 
    8163     8068     7925     7869     7908     8005     8102     8144 
    8156     8137     8025     7847     7707     7707     7852     8017 
    8136     8236     8256     8128     7925     7789     7784     7902 
    8066     8139     8095     8043     8013     7963     7898     7871 
    7927     8017     8071     8093     8058     7923     7776     7751 
    7874     8067     8224     8276     8232     8125     8014     7919 
    7840     7840     7913     7959     8000     8062     8025     7894 
    7816     7844     7982     8168     8280     8282     8171     7989 
    7866     7831     7813     7816     7840     7888     7960     7990 
    7993     8014     8027     8101     8260     8334     8244     8073 
    7886     7735     7650     7654     7763     7938     8139     8291 
    8279     8127     7975     7898     7917     7997     8055     8090 
    8095     8014     7863     7731     7708     7808     7965     8122 
    8236     8253     8187     8078     7962     7881     7893     7997 
    8100     8106     8010     7839     7676     7643     7769     7966 
    8141     8229     8222     8159     8104     8085     8058     8012 
    8002     8041     8082     8043     7873     7651     7534     7628 
    7879     8131     8272     8298     8283     8226     8060     7862 
    7786     7877     8043     8152     8156     8064     7913     7790 
    7754     7789     7870     7962     8031     8077     8132     8197 
    8197     8112     8009     7919     7867     7879     7935     8014 
    8037     7952     7870     7888     7983     8117     8186     8113 
    7993     7956     8017     8079     8044     7935     7817     7763 
    7854     8019     8117     8132     8064     7954     7901     7939 
    8041     8116     8075     7979     7932     7969     8019     7951 
    7816     7788     7877     8027     8198     8321     8363     8321 
    8176     7959     7767     7666     7605     7551     7589     7781 
    8067     8325     8425     8341     8174     8036     7977     7969 
    7983     8010     8008     7954     7908     7894     7885     7896 
    7967     8056     8073     8037     7977     7866     7800     7862 
    7971     8081     8195     8243     8190     8124     8055     7936 
    7796     7734     7823     7992     8091     8094     8013     7886 
    7839     7913     8025     8120     8182     8217     8206     8093 
    7901     7724     7638     7681     7851     8078     8247     8279 
    8176     8027     7925     7935     8017     8043     8004     7990 
    7992     7983     7983     7956     7870     7796     7865     8064 
    8167     8098     8008     7947     7900     7915     7978     8029 
    8046     8083     8166     8166     8066     7997     7960     7912 
    7878     7828     7765     7793     7928     8063     8124     8144 
    8167     8121     8025     8010     8037     8010     7960     7909 
    7904     7997     8070     7993     7824     7727     7817     8033 
    8224     8303     8245     8095     7938     7788     7689     7747 
    7940     8135     8216     8176     8093     7966     7809     7769 
    7889     8085     8263     8307     8152     7881     7670     7647 
    7782     7963     8112     8199     8248     8278     8179     7908 
    7670     7645     7789     8009     8194     8232     8104     7905 
    7774     7767     7875     8095     8305     8363     8295     8132 
    7898     7717     7649     7704     7862     8019     8105     8122 
    8097     8056     8016     7997     7990     7948     7921     7967 
    8017     8019     7985     7955     7981     8039     8087     8097 
    8036     7965     7951     7975     8004     8012     7970     7886 
    7819     7830     7920     8058     8194     8229     8149     8046 
    7923     7784     7717     7784     7963     8176     8314     8313 
    8175     7974     7834     7811     7848     7906     7979     8016 
    7975     7913     7890     7935     8019     8079     8105     8121 
    8109     8046     7966     7904     7852     7839     7925     8071 
    8176     8183     8087     7978     7940     7965     8017     8014 
    7925     7869     7929     8027     8054     8004     7936     7900 
    7913     7979     8029     8027     8024     8051     8062     8020 
    7951     7912     7904     7915     7983     8100     8176     8164 
    8060     7933     7896     7917     7919     7925     7932     7932 
    7990     8063     8046     7977     7952     7992     8087     8212 
    8253     8122     7933     7861     7886     7901     7892     7913 
    7944     7935     7959     8056     8098     8024     7932     7894 
    7919     7971     7987     7990     8056     8131     8108     8055 
    8071     8121     8106     8012     7908     7815     7734     7723 
    7792     7866     7909     7939     8028     8197     8332     8375 
    8361     8275     8118     7933     7769     7700     7765     7893 
    7985     7959     7852     7811     7869     7974     8085     8120 
    8070     8014     8014     8101     8220     8247     8158     8009 
    7867     7794     7780     7755     7746     7828     7983     8116 
    8154     8113     8052     7982     7905     7894     8004     8168 
    8236     8172     8086     8002     7897     7805     7759     7790 
    7902     8025     8091     8093     8067     8046     8052     8081 
    8074     8040     8035     8008     7946     7921     7909     7881 
    7888     7931     7983     8032     8063     8089     8106     8094 
    8051     7981     7904     7848     7823     7830     7851     7878 
    7952     8095     8251     8317     8244     8098     7977     7925 
    7942     7970     7932     7852     7798     7812     7923     8075 
    8158     8163     8154     8171     8205     8175     8032     7824 
    7662     7632     7726     7842     7917     7939     7931     8001 
    8171     8275     8256     8222     8181     8079     7970     7915 
    7915     7929     7919     7873     7823     7828     7924     8037 
    8052     8020     8056     8110     8116     8122     8105     8009 
    7890     7805     7786     7830     7879     7923     7986     8082 
    8193     8240     8213     8179     8095     7897     7685     7587 
    7649     7848     8046     8140     8193     8237     8224     8139 
    8033     7986     8009     8028     7973     7832     7712     7712 
    7796     7909     8024     8090     8132     8214     8291     8264 
    8135     8000     7901     7825     7832     7938     8010     7967 
    7857     7749     7749     7897     8068     8137     8128     8149 
    8232     8282     8230     8085     7897     7755     7703     7701 
    7754     7869     8001     8094     8140     8182     8226     8191 
    8073     7947     7842     7813     7898     8032     8132     8129 
    8044     8001     8004     7965     7920     7909     7901     7884 
    7873     7904     7966     8016     8052     8083     8113     8135 
    8102     7989     7828     7707     7735     7902     8068     8151 
    8156     8105     8078     8113     8133     8085     8013     7946 
    7886     7869     7906     7920     7874     7852     7901     8019 
    8166     8213     8122     7992     7897     7886     7960     8033 
    8051     8024     7994     8017     8054     8019     7920     7862 
    7913     8000     8025     8036     8062     8073     8067     8005 
    7882     7809     7839     7924     8036     8141     8159     8058 
    7925     7874     7940     8047     8074     8008     7952     7969 
    8039     8105     8085     7985     7927     7967     8062     8110 
    7992     7758     7608     7620     7785     8051     8276     8380 
    8376     8263     8082     7909     7786     7765     7857     8005 
    8137     8160     8039     7838     7704     7794     8044     8212 
    8236     8197     8101     7975     7850     7728     7672     7720 
    7874     8127     8332     8336     8175     7974     7871     7932 
    8083     8186     8154     8050     7948     7811     7682     7676 
    7771     7927     8144     8322     8338     8222     8087     7987 
    7898     7816     7815     7905     7978     7973     7928     7904 
    7925     7993     8082     8151     8221     8314     8321     8181 
    7959     7709     7524     7518     7659     7840     8001     8124 
    8229     8321     8333     8214     8021     7873     7815     7819 
    7820     7794     7778     7794     7871     8050     8235     8301 
    8262     8156     8019     7935     7906     7879     7858     7820 
    7778     7797     7850     7889     7901     7882     7906     8028 
    8182     8320     8438     8465     8351     8147     7939     7811 
    7786     7797     7771     7723     7738     7834     7888     7840 
    7793     7847     8052     8338     8542     8606     8534     8325 
    8056     7807     7612     7566     7708     7929     8093     8117 
    8025     7904     7812     7847     8068     8321     8397     8230 
    7912     7668     7663     7778     7812     7778     7820     8023 
    8332     8581     8606     8317     7846     7515     7500     7655 
    7732     7641     7519     7604     7985     8463     8742     8715 
    8529     8411     8456     8540     8437     8055     7593     7308 
    7222     7234     7254     7260     7396     7765     8224     8588 
    8796     8835     8715     8490     8255     8066     7859     7564 
    7231     7037     7160     7565     8001     8272     8351     8411 
    8658     8912     8807     8370     7940     7723     7676     7616 
    7465     7327     7302     7403     7626     7932     8256     8510 
    8584     8480     8355     8263     8089     7824     7634     7622 
    7728     7909     8166     8387     8480     8463     8321     8044 
    7693     7388     7300     7464     7717     7920     8012     7997 
    8000     8114     8264     8324     8284     8230     8245     8352 
    8465     8407     8131     7842     7723     7724     7695     7572 
    7462     7572     7943     8347     8510     8387     8136     7928 
    7846     7861     7840     7704     7574     7647     7956     8302 
    8473     8446     8309     8158     8075     8056     7973     7724 
    7396     7192     7279     7641     8059     8298     8333     8318 
    8360     8386     8263     7994     7727     7631     7792     8074 
    8203     8116     7986     7978     8128     8306     8330     8187 
    7996     7900     7967     8077     8078     7969     7812     7693 
    7680     7693     7643     7553     7493     7582     7886     8321 
    8772     9055     8968     8602     8239     7981     7697     7253 
    6778     6617     6971     7709     8418     8727     8671     8518 
    8428     8401     8359     8247     8133     8131     8244     8329 
    8202     7875     7555     7381     7349     7403     7449     7456 
    7519     7758     8116     8368     8433     8449     8527     8668 
    8777     8679     8333     7897     7558     7425     7487     7616 
    7684     7670     7684     7750     7784     7793     7875     8068 
    8353     8668     8897     8918     8652     8176     7712     7445 
    7383     7407     7457     7601     7873     8222     8515     8532 
    8221     7819     7558     7496     7584     7732     7831     7771 
    7597     7538     7736     8141     8565     8803     8841     8831 
    8862     8876     8749     8464     8145     7825     7491     7242 
    7142     7152     7223     7307     7392     7522     7807     8230 
    8482     8334     7987     7785     7919     8307     8631     8669 
    8522     8391     8260     7963     7468     7013     6885     7163 
    7727     8328     8706     8795     8676     8418     8098     7778 
    7456     7141     6970     7145     7692     8406     9036     9398 
    9472     9385     9188     8793     8143     7364     6710     6330 
    6278     6583     7096     7589     7983     8247     8328     8278 
    8190     8156     8310     8702     9238     9655     9629     9117 
    8347     7493     6723     6207     5996     6095     6570     7392 
    8297     8922     9066     8797     8426     8298     8394     8407 
    8209     7915     7722     7803     8071     8271     8341     8337 
    8226     8001     7699     7368     7149     7195     7510     7962 
    8391     8688     8860     8918     8815     8564     8182     7653 
    7142     6933     7083     7423     7736     7861     7881     8046 
    8432     8860     9065     8873     8291     7554     6999     6804 
    6961     7345     7693     7884     8098     8438     8714     8723 
    8473     8218     8248     8515     8681     8538     8151     7740 
    7507     7410     7329     7349     7585     7928     8186     8264 
    8154     7955     7834     7885     8091     8338     8428     8268 
    7979     7715     7520     7403     7379     7460     7681     8087 
    8526     8648     8353     7890     7539     7507     7858     8357 
    8649     8559     8213     7952     7996     8256     8561     8802 
    8923     8916     8706     8182     7439     6755     6378     6417 
    6817     7387     7898     8198     8255     8194     8212     8403 
    8646     8756     8733     8660     8482     8102     7576     7134 
    6970     7067     7381     7865     8309     8564     8629     8432 
    7958     7449     7213     7368     7754     8091     8287     8478 
    8795     9162     9312     9070     8553     7990     7531     7231 
    7059     6970     6975     7088     7319     7681     8075     8338 
    8448     8473     8432     8329     8176     7948     7666     7473 
    7479     7628     7817     8040     8333     8608     8702     8586 
    8338     8075     7900     7788     7711     7736     7836     7927 
    7978     7951     7879     7839     7785     7695     7681     7847 
    8190     8607     8916     8988     8793     8446     8118     7854 
    7636     7469     7287     7082     7005     7179     7519     7838 
    8106     8429     8856     9312     9567     9391     8812     8055 
    7345     6848     6674     6880     7369     7875     8171     8213 
    8116     8029     7965     7808     7589     7550     7882     8448 
    8785     8586     8056     7591     7408     7557     7840     7948 
    7885     7913     8125     8390     8546     8500     8316     8182 
    8162     8133     7969     7662     7364     7302     7555     7987 
    8322     8284     7873     7425     7307     7572     7965     8280 
    8563     8883     9146     9162     8816     8176     7457     6939 
    6862     7227     7754     8182     8440     8546     8560     8511 
    8322     7931     7466     7172     7171     7384     7678     7960 
    8194     8403     8604     8745     8756     8557     8194     7861 
    7654     7531     7449     7381     7339     7371     7497     7713 
    7986     8244     8380     8372     8363     8476     8618     8591 
    8334     7996     7796     7797     7862     7809     7588     7345 
    7325     7607     8036     8368     8455     8380     8313     8306 
    8306     8216     7993     7742     7596     7608     7734     7838 
    7824     7742     7765     8019     8414     8685     8685     8500 
    8286     8114     7989     7882     7780     7708     7719     7759 
    7690     7526     7420     7476     7697     8002     8245     8383 
    8478     8525     8455     8232     7935     7742     7759     7919 
    8090     8194     8203     8131     8010     7885     7800     7759 
    7739     7771     7875     7986     8024     7924     7703     7555 
    7646     7877     8098     8289     8457     8615     8758     8804 
    8652     8289     7835     7452     7168     6997     7045     7310 
    7678     8101     8533     8845     8953     8885     8673     8344 
    7997     7723     7519     7366     7308     7416     7686     7996 
    8213     8270     8185     8073     8039     8024     7905     7662 
    7402     7341     7627     8067     8352     8421     8407     8432 
    8480     8418     8228     8043     7925     7835     7761     7724 
    7719     7719     7723     7750     7788     7830     7885     7946 
    8052     8226     8349     8365     8371     8391     8357     8236 
    8055     7836     7589     7412     7408     7565     7824     8117 
    8365     8530     8584     8522     8383     8212     8013     7785 
    7547     7398     7435     7587     7668     7616     7549     7646 
    7954     8336     8615     8730     8758     8750     8635     8349 
    7936     7511     7207     7103     7171     7348     7591     7869 
    8135     8309     8407     8499     8560     8567     8544     8488 
    8383     8208     8002     7834     7715     7677     7709     7681 
    7569     7504     7546     7696     7931     8144     8236     8245 
    8255     8264     8198     8017     7765     7537     7464     7551 
    7676     7801     7951     8136     8337     8463     8459     8382 
    8305     8244     8170     8070     7971     7867     7739     7630 
    7599     7689     7888     8108     8276     8387     8467     8534 
    8513     8293     7906     7534     7325     7284     7342     7460 
    7634     7869     8122     8291     8343     8368     8432     8480 
    8410     8174     7879     7678     7588     7557     7616     7812 
    8109     8397     8526     8405     8089     7780     7668     7757 
    7909     8013     8028     8021     8059     8100     8093     8029 
    7931     7906     8008     8120     8120     8005     7882     7850 
    7857     7820     7766     7769     7884     8082     8224     8198 
    8020     7815     7736     7808     7939     8046     8047     7943 
    7884     7963     8101     8190     8187     8081     7939     7902 
    8023     8212     8334     8344     8301     8232     8098     7923 
    7778     7708     7686     7635     7537     7492     7608     7854 
