Origin Time       2024/06/23 22:54:00
Lat.              35.645
Long.             140.060
Depth. (km)       72
Mag.              4.1
Station Code      TCGH06
Station Lat.      36.4458
Station Long.     139.9509
Station Height(m) 70
Record Time       2024/06/23 22:54:53
Sampling Freq(Hz) 100Hz
Duration Time(s)  120
Dir.              4
Scale Factor      3920(gal)/6170801
Max. Acc. (gal)   0.971
Last Correction   2024/06/23 22:54:38
Memo.             
[...]
    8364     8340     8245     8334     8461     8419     8295     8283 
    8354     8301     8225     8331     8436     8382     8309     8305 
    8316     8314     8342     8399     8406     8393     8411     8332 
    8183     8220     8358     8364     8356     8426     8428     8323 
    8255     8310     8362     8347     8387     8413     8334     8291 
    8289     8269     8320     8394     8383     8371     8400     8349 
    8217     8232     8428     8494     8364     8318     8373     8281 
    8177     8294     8381     8335     8390     8431     8363     8352 
    8351     8313     8308     8341     8411     8382     8244     8239 
    8332     8373     8368     8354     8370     8344     8283     8312 
    8353     8386     8476     8478     8381     8304     8219     8192 
    8294     8370     8323     8294     8374     8406     8331     8303 
    8337     8375     8433     8443     8361     8301     8298     8275 
    8293     8393     8382     8250     8261     8356     8341     8362 
    8426     8380     8340     8353     8342     8350     8366     8374 
    8404     8357     8255     8316     8417     8295     8198     8334 
    8397     8327     8342     8363     8322     8327     8357     8330 
    8304     8375     8412     8300     8283     8407     8398     8317 
    8340     8363     8340     8342     8347     8338     8372     8426 
    8424     8358     8276     8211     8202     8287     8397     8425 
    8401     8342     8275     8301     8347     8330     8355     8407 
    8416     8384     8297     8252     8296     8316     8326     8359 
    8356     8342     8347     8360     8341     8280     8326     8434 
    8345     8230     8364     8478     8359     8300     8396     8369 
    8279     8359     8439     8367     8302     8315     8307     8233 
    8233     8381     8436     8353     8373     8409     8282     8189 
    8283     8345     8277     8332     8461     8358     8231     8368 
    8520     8484     8406     8366     8286     8181     8239     8426 
    8410     8282     8381     8425     8157     8067     8330     8458 
    8422     8497     8539     8446     8374     8301     8166     8120 
    8212     8308     8360     8346     8310     8348     8367     8349 
    8416     8444     8384     8391     8396     8329     8288     8302 
    8356     8373     8278     8214     8275     8299     8303     8426 
    8506     8473     8529     8524     8287     8144     8228     8265 
    8195     8179     8260     8313     8252     8228     8370     8509 
    8487     8454     8525     8541     8432     8312     8232     8154 
    8084     8146     8304     8342     8337     8418     8418     8341 
    8363     8409     8399     8410     8439     8436     8375     8234 
    8184     8308     8314     8203     8297     8413     8349     8366 
    8431     8350     8312     8372     8376     8333     8321     8348 
    8300     8190     8236     8350     8328     8319     8401     8413 
    8339     8304     8356     8431     8446     8376     8315     8320 
    8308     8298     8355     8380     8354     8329     8230     8148 
    8262     8438     8478     8446     8441     8374     8210     8125 
    8187     8302     8421     8448     8366     8335     8371     8347 
    8275     8264     8305     8335     8427     8527     8487     8424 
    8390     8288     8176     8095     8093     8236     8355     8382 
    8478     8556     8432     8306     8368     8391     8298     8311 
    8375     8350     8313     8323     8355     8317     8213     8220 
    8291     8272     8277     8386     8461     8446     8442     8443 
    8356     8289     8351     8393     8336     8295     8275     8184 
    8125     8247     8385     8382     8409     8565     8678     8579 
    8370     8280     8193     7966     7954     8220     8306     8285 
    8467     8571     8425     8363     8464     8495     8387     8310 
    8399     8432     8285     8263     8324     8184     8093     8233 
    8286     8213     8349     8586     8501     8306     8444     8593 
    8381     8224     8404     8461     8208     8126     8285     8292 
    8198     8209     8275     8332     8345     8393     8514     8513 
    8414     8380     8342     8310     8336     8310     8231     8244 
    8380     8488     8465     8385     8351     8321     8199     8131 
    8247     8325     8340     8476     8545     8405     8284     8305 
    8345     8303     8318     8443     8406     8235     8246     8375 
    8442     8433     8334     8266     8225     8110     8155     8342 
    8320     8333     8580     8614     8412     8409     8500     8386 
    8291     8371     8292     8062     8079     8260     8323     8324 
    8405     8526     8485     8320     8295     8320     8251     8285 
    8445     8497     8402     8361     8368     8256     8220     8377 
    8372     8210     8247     8378     8357     8330     8428     8453 
    8383     8403     8377     8212     8149     8211     8295     8377 
    8406     8509     8609     8438     8280     8338     8304     8238 
    8336     8382     8290     8239     8253     8222     8173     8203 
    8282     8354     8420     8486     8484     8396     8433     8524 
    8385     8283     8374     8348     8257     8251     8249     8272 
    8335     8406     8415     8343     8319     8342     8356     8359 
    8365     8446     8475     8386     8400     8402     8225     8122 
    8152     8182     8261     8340     8345     8387     8516     8568 
    8456     8344     8330     8331     8290     8228     8198     8243 
    8323     8395     8428     8426     8404     8348     8302     8273 
    8240     8274     8302     8302     8443     8563     8462     8343 
    8331     8293     8171     8156     8316     8348     8313     8508 
    8630     8494     8373     8296     8221     8181     8148     8191 
    8269     8295     8337     8372     8362     8397     8473     8479 
    8448     8521     8548     8361     8217     8252     8265     8207 
    8156     8155     8163     8165     8277     8462     8554     8553 
    8530     8535     8490     8346     8310     8354     8301     8304 
    8317     8133     8008     8144     8313     8394     8519     8645 
    8569     8393     8313     8232     8168     8248     8353     8395 
    8351     8227     8208     8278     8250     8290     8493     8545 
    8416     8387     8398     8323     8313     8366     8388     8417 
    8366     8234     8168     8148     8238     8478     8553     8420 
    8391     8414     8322     8287     8382     8434     8393     8319 
    8249     8199     8138     8150     8325     8479     8527     8596 
    8533     8282     8190     8290     8336     8299     8204     8130 
    8103     8073     8156     8307     8412     8584     8691     8596 
    8528     8501     8382     8314     8311     8225     8162     8201 
    8195     8202     8313     8385     8441     8504     8452     8412 
    8388     8297     8343     8383     8254     8278     8385     8313 
    8267     8344     8366     8278     8214     8242     8255     8297 
    8406     8434     8433     8449     8402     8386     8392     8344 
    8313     8320     8365     8372     8265     8194     8196     8244 
    8362     8432     8469     8491     8413     8382     8389     8299 
    8250     8253     8262     8330     8360     8358     8389     8347 
    8248     8219     8287     8368     8348     8295     8357     8465 
    8452     8370     8377     8412     8376     8359     8374     8303 
    8206     8224     8263     8230     8287     8460     8461     8304 
    8371     8566     8489     8305     8297     8305     8252     8267 
    8301     8257     8227     8309     8401     8353     8284     8371 
    8435     8350     8367     8444     8339     8273     8410     8470 
    8351     8282     8351     8355     8214     8156     8244     8319 
    8404     8513     8495     8349     8259     8273     8262     8246 
    8322     8387     8362     8318     8293     8281     8306     8395 
    8470     8482     8488     8446     8340     8253     8202     8215 
    8262     8276     8367     8480     8406     8328     8415     8437 
    8338     8294     8299     8313     8329     8295     8306     8374 
    8324     8264     8349     8337     8195     8212     8310     8314 
    8350     8435     8486     8548     8561     8481     8425     8361 
    8256     8235     8224     8173     8243     8320     8241     8211 
    8308     8337     8335     8432     8492     8431     8385     8379 
    8331     8265     8240     8251     8268     8280     8355     8489 
    8523     8442     8411     8426     8343     8246     8298     8353 
    8286     8277     8331     8241     8148     8258     8371     8398 
    8488     8526     8410     8330     8319     8290     8301     8354 
    8372     8349     8291     8284     8417     8506     8420     8363 
    8346     8213     8139     8209     8230     8284     8462     8528 
    8442     8393     8401     8381     8340     8312     8280     8231 
    8211     8257     8329     8363     8427     8521     8455     8317 
    8345     8362     8227     8210     8356     8406     8390     8469 
    8506     8382     8298     8370     8386     8248     8126     8094 
    8099     8151     8275     8417     8487     8503     8526     8468 
    8285     8174     8199     8194     8164     8244     8419     8593 
    8703     8756     8786     8691     8417     8167     8049     7951 
    7899     8008     8177     8237     8230     8286     8384     8463 
    8536     8592     8600     8579     8554     8507     8385     8225 
    8129     8106     8168     8290     8328     8307     8366     8482 
    8535     8464     8375     8368     8333     8245     8200     8142 
    8023     8028     8203     8319     8375     8514     8595     8591 
    8622     8603     8514     8406     8275     8222     8219     8142 
    8080     8099     8154     8257     8305     8253     8332     8526 
    8571     8609     8765     8719     8477     8325     8221     8129 
    8144     8259     8408     8414     8263     8222     8230     8114 
    8167     8455     8557     8455     8422     8382     8276     8306 
    8452     8508     8479     8496     8565     8535     8383     8302 
    8251     8102     8084     8195     8190     8224     8369     8436 
    8394     8264     8208     8333     8419     8498     8625     8493 
    8335     8530     8644     8413     8227     8190     8083     8003 
    8164     8375     8336     8203     8210     8197     8061     8043 
    8285     8587     8744     8747     8617     8402     8231     8159 
    8167     8277     8433     8416     8184     7981     7921     7975 
    8202     8546     8832     8914     8744     8500     8325     8160 
    8065     8067     8060     8187     8506     8707     8709     8620 
    8333     7935     7735     7739     7927     8383     8853     9091 
    9153     8960     8466     8004     7855     8014     8380     8727 
    8850     8803     8679     8460     8135     7774     7511     7431 
    7498     7606     7797     8234     8748     9103     9453     9760 
    9690     9286     8788     8174     7540     7227     7288     7496 
    7769     8099     8357     8423     8353     8399     8639     8770 
    8694     8624     8482     8145     7893     7904     7962     7994 
    8165     8357     8393     8474     8654     8742     8831     9006 
    9103     9136     9129     8856     8319     7793     7405     7220 
    7302     7593     7965     8271     8468     8623     8722     8790 
    8870     8826     8637     8485     8374     8320     8345     8284 
    8173     8091     7945     7895     7992     8068     8284     8602 
    8662     8542     8461     8325     8115     7990     8038     8194 
    8403     8642     8776     8720     8570     8415     8279     8192 
    8199     8264     8315     8350     8293     8191     8222     8284 
    8341     8520     8623     8560     8443     8163     7895     7966 
    8191     8354     8469     8513     8476     8329     8104     7945 
    7909     7955     8071     8351     8765     9019     9038     8957 
    8755     8510     8409     8398     8390     8497     8710     8751 
    8514     8188     7931     7821     7832     7864     7961     8100 
    8154     8217     8295     8261     8250     8320     8352     8384 
    8414     8344     8196     8082     8153     8404     8680     8935 
    9073     8961     8706     8447     8200     7998     7846     7789 
    7922     8091     8133     8187     8319     8530     8889     9149 
    9048     8769     8503     8301     8246     8251     8181     8060 
    7840     7578     7541     7729     8001     8400     8806     8962 
    8902     8800     8678     8533     8445     8447     8392     8150 
    7883     7738     7653     7752     8124     8460     8646     8821 
    8843     8669     8520     8402     8256     8140     8012     7892 
    7904     8031     8187     8341     8476     8631     8729     8602 
    8434     8453     8470     8375     8344     8458     8655     8762 
    8682     8535     8352     8166     8151     8267     8285     8214 
    8202     8182     8075     8053     8182     8262     8173     8020 
    8023     8193     8319     8409     8608     8814     8860     8728 
    8460     8192     8122     8236     8329     8329     8353     8477 
    8676     8897     9063     9083     8892     8496     7948     7352 
    6905     6814     7133     7786     8565     9166     9476     9606 
    9556     9258     8829     8477     8278     8205     8212     8175 
    7985     7749     7562     7444     7470     7554     7697     8114 
    8657     9049     9282     9290     9053     8763     8517     8300 
    8149     8075     7984     7836     7688     7619     7776     8139 
    8512     8936     9380     9493     9245     8851     8275     7646 
    7304     7268     7416     7797     8298     8614     8674     8645 
    8611     8498     8290     8159     8269     8491     8576     8490 
    8295     7988     7705     7752     8169     8672     9142     9515 
    9542     9227     8820     8425     8130     7974     7801     7568 
    7383     7287     7361     7730     8281     8805     9275     9559 
    9459     9126     8750     8312     7910     7633     7455     7503 
    7876     8373     8739     8872     8802     8646     8520     8436 
    8413     8503     8525     8282     7935     7680     7560     7644 
    7928     8325     8723     8985     9079     9049     8908     8709 
    8532     8379     8246     8185     8085     7805     7601     7670 
    7820     8036     8385     8645     8654     8480     8254     8079 
    7951     7891     7981     8183     8364     8476     8567     8656 
    8671     8627     8679     8803     8783     8597     8433     8353 
    8294     8246     8175     8032     7907     7962     8261     8630 
    8816     8904     9025     8957     8644     8364     8189     8058 
    8030     8071     8094     8175     8338     8492     8651     8754 
    8653     8412     8108     7810     7711     7765     7793     7820 
    7895     8021     8141     8192     8340     8680     8991     9141 
    9159     8987     8666     8382     8200     8090     8059     8078 
    8076     8084     8109     8050     8034     8269     8591     8796 
    8944     8959     8696     8312     8003     7817     7829     8028 
    8223     8305     8334     8320     8257     8226     8238     8299 
    8451     8530     8443     8408     8480     8456     8333     8247 
    8126     7950     7930     8076     8275     8602     9003     9240 
    9223     8966     8531     8074     7803     7849     8128     8413 
    8556     8563     8433     8173     8024     8179     8406     8540 
    8728     8829     8558     8135     7893     7843     7912     7993 
    8004     8048     8148     8176     8188     8318     8521     8698 
    8787     8817     8912     9049     9080     9010     8907     8725 
    8424     8030     7591     7289     7320     7593     7865     8075 
    8267     8391     8422     8458     8499     8440     8337     8343 
    8450     8523     8560     8628     8593     8365     8040     7670 
    7398     7459     7830     8357     8940     9415     9565     9309 
    8797     8269     7890     7699     7678     7884     8257     8517 
    8548     8424     8258     8203     8232     8199     8138     8151 
    8266     8390     8449     8527     8612     8654     8707     8692 
    8579     8517     8521     8567     8677     8744     8687     8545 
    8361     8153     7936     7817     7882     7987     7955     7868 
    7858     7896     8011     8318     8732     9003     9014     8806 
    8446     8083     7887     7877     8066     8430     8784     9017 
    9082     8846     8369     7974     7852     7952     8211     8554 
    8804     8853     8741     8536     8284     8029     7814     7685 
    7670     7793     8022     8222     8329     8390     8452     8529 
    8558     8507     8495     8550     8587     8650     8760     8818 
    8780     8656     8464     8255     8086     7940     7746     7593 
    7644     7839     8098     8498     8932     9079     8915     8659 
    8316     7895     7625     7570     7667     7890     8120     8285 
    8391     8370     8263     8260     8393     8499     8556     8676 
    8848     9022     9196     9287     9182     8890     8483     8065 
    7769     7657     7660     7723     7862     7977     7940     7857 
    7888     8062     8345     8634     8855     8990     8989     8880 
    8732     8570     8421     8312     8230     8082     7812     7591 
    7568     7692     7930     8262     8587     8811     8915     8941 
    8904     8860     8894     8893     8740     8540     8331     8072 
    7887     7870     7937     8016     8099     8181     8241     8235 
    8221     8315     8492     8647     8735     8730     8591     8367 
    8193     8149     8209     8365     8572     8656     8557     8411 
    8311     8246     8196     8152     8161     8272     8404     8420 
    8324     8234     8195     8214     8297     8369     8409     8439 
    8343     8133     7985     7905     7879     7986     8172     8363 
    8536     8613     8558     8446     8428     8559     8674     8689 
    8638     8463     8260     8166     8078     8042     8165     8289 
    8317     8261     8148     8099     8127     8175     8282     8433 
    8554     8596     8591     8653     8749     8752     8691     8616 
    8505     8387     8325     8294     8235     8165     8110     8075 
    8077     8094     8122     8179     8248     8350     8456     8449 
    8415     8481     8538     8571     8651     8659     8511     8286 
    8066     7865     7681     7576     7594     7677     7802     8005 
    8289     8633     8996     9304     9453     9359     9034     8622 
    8289     8106     8079     8192     8357     8476     8511     8449 
    8332     8219     8094     7983     7983     8073     8175     8275 
    8335     8325     8272     8210     8189     8221     8260     8319 
    8455     8637     8768     8789     8707     8580     8467     8318 
    8114     7970     7928     7986     8191     8469     8692     8821 
    8821     8667     8462     8320     8208     8081     7993     7985 
