Origin Time       2024/06/23 22:54:00
Lat.              35.645
Long.             140.060
Depth. (km)       72
Mag.              4.1
Station Code      TCGH09
Station Lat.      36.8625
Station Long.     139.8364
Station Height(m) 564
Record Time       2024/06/23 22:55:05
Sampling Freq(Hz) 100Hz
Duration Time(s)  120
Dir.              6
Scale Factor      7845(gal)/8223790
Max. Acc. (gal)   0.524
Last Correction   2024/06/23 22:55:05
Memo.             
[...]
  -26127   -26272   -26204   -26079   -25999   -25909   -25848   -25917 
  -26045   -26055   -26007   -26076   -26164   -26103   -25957   -25942 
  -26098   -26126   -25980   -25975   -26023   -25901   -25864   -26045 
  -26129   -26009   -25971   -26099   -26122   -26019   -26025   -26063 
  -25955   -25878   -26019   -26195   -26168   -26068   -26069   -26028 
  -25926   -25944   -25996   -25979   -26023   -26118   -26092   -25949 
  -25879   -25952   -26042   -26099   -26113   -26041   -25998   -26055 
  -26072   -26019   -26029   -26095   -26069   -25955   -25932   -25986 
  -25990   -26010   -26067   -26069   -26009   -25913   -25922   -26075 
  -26149   -26087   -26041   -26036   -26033   -26037   -26069   -26086 
  -26001   -25929   -25982   -26009   -25941   -25940   -26088   -26219 
  -26122   -25959   -25996   -26080   -26034   -26015   -26060   -26010 
  -25909   -25956   -26080   -26094   -26084   -26082   -25953   -25866 
  -25948   -25996   -25984   -26042   -26104   -26077   -26036   -26053 
  -26049   -26015   -26082   -26150   -26068   -25971   -25957   -25917 
  -25816   -25826   -26045   -26234   -26249   -26264   -26258   -26064 
  -25843   -25832   -25960   -26045   -26094   -26148   -26057   -25840 
  -25802   -25959   -26102   -26196   -26254   -26183   -25907   -25650 
  -25693   -25867   -25986   -26181   -26341   -26258   -26119   -26049 
  -25947   -25875   -25975   -26086   -26029   -25988   -26079   -26099 
  -26034   -26010   -25978   -25937   -25967   -26023   -26019   -25984 
  -26053   -26169   -26125   -25975   -25910   -25936   -25991   -26090 
  -26229   -26272   -26122   -25920   -25805   -25778   -25861   -26001 
  -26075   -26103   -26168   -26245   -26176   -25948   -25821   -25891 
  -26002   -26053   -26045   -26065   -26106   -26053   -25988   -25990 
  -25961   -25945   -26001   -26030   -26001   -25951   -25938   -26018 
  -26134   -26207   -26212   -26156   -26106   -26050   -25960   -25928 
  -25991   -26063   -26053   -26003   -25992   -25937   -25852   -25903 
  -26026   -26099   -26161   -26203   -26192   -26114   -25984   -25926 
  -25929   -25883   -25887   -26037   -26173   -26134   -26019   -25975 
  -25974   -25983   -26015   -26014   -25999   -26011   -26006   -26021 
  -26059   -26038   -26023   -26061   -26090   -26131   -26198   -26176 
  -26029   -25910   -25918   -25907   -25830   -25845   -25942   -26053 
  -26163   -26169   -26059   -25922   -25822   -25859   -26053   -26265 
  -26322   -26180   -26019   -25971   -25967   -25994   -26053   -26076 
  -26059   -26042   -26025   -25988   -25947   -25979   -26053   -26080 
  -26076   -25986   -25833   -25868   -26087   -26198   -26114   -26010 
  -25999   -25971   -25918   -26017   -26150   -26129   -26056   -26014 
  -25956   -25921   -25987   -26125   -26183   -26133   -26091   -26002 
  -25845   -25834   -26009   -26145   -26150   -26111   -26040   -25899 
  -25857   -25982   -26040   -26014   -26079   -26154   -26104   -25957 
  -25836   -25855   -25975   -26106   -26204   -26200   -26110   -26042 
  -26001   -25944   -25930   -26017   -26083   -26028   -25996   -26050 
  -26040   -26007   -26044   -26069   -26060   -26049   -26042   -26018 
  -25957   -25951   -26029   -26071   -26073   -26083   -26034   -25922 
  -25857   -25929   -26059   -26075   -26005   -25992   -26055   -26099 
  -26044   -25974   -26025   -26138   -26190   -26150   -26042   -25938 
  -25886   -25922   -26023   -26080   -26107   -26138   -26084   -25999 
  -25998   -25995   -25933   -25897   -25928   -25983   -26059   -26140 
  -26127   -26052   -26029   -26010   -25996   -26065   -26100   -26036 
  -25957   -25895   -25925   -26067   -26160   -26113   -25986   -25937 
  -26034   -26096   -26068   -26082   -26103   -26045   -25961   -25948 
  -25987   -25969   -25945   -26023   -26076   -26036   -26015   -26018 
  -25986   -26001   -26104   -26103   -25940   -25926   -26075   -26049 
  -25969   -26091   -26181   -26077   -26009   -26084   -26087   -25949 
  -25936   -26075   -26130   -26103   -26068   -25982   -25914   -25955 
  -26040   -26015   -25876   -25841   -25967   -26083   -26126   -26136 
  -26119   -26037   -25886   -25829   -25922   -26013   -26094   -26227 
  -26302   -26188   -25991   -25952   -26003   -25937   -25932   -26082 
  -26094   -25972   -25987   -26059   -25992   -25920   -26002   -26096 
  -26114   -26165   -26172   -26050   -25942   -25870   -25807   -25857 
  -25992   -26113   -26177   -26185   -26138   -26019   -25920   -25920 
  -25934   -25963   -26061   -26140   -26100   -25967   -25868   -25890 
  -25969   -26091   -26222   -26219   -26096   -25992   -25945   -25945 
  -25974   -26032   -26096   -26096   -26077   -26084   -26072   -26080 
  -26073   -25978   -25907   -25907   -25899   -25918   -26006   -26079 
  -26075   -26048   -26040   -26034   -26114   -26250   -26229   -26083 
  -25959   -25814   -25741   -25855   -26022   -26138   -26184   -26141 
  -26026   -25926   -25949   -26030   -26029   -26029   -26069   -26025 
  -25936   -25951   -26045   -26077   -26036   -26030   -26034   -26009 
  -26052   -26131   -26136   -26094   -26060   -26028   -25955   -25883 
  -25937   -26036   -26052   -26064   -26080   -26038   -25979   -26001 
  -26096   -26095   -25995   -26006   -26055   -26026   -26061   -26127 
  -26069   -25937   -25868   -25899   -25964   -26029   -26106   -26138 
  -26107   -26056   -25979   -25945   -25978   -25995   -26038   -26125 
  -26125   -26041   -26005   -26019   -26002   -25975   -26006   -26011 
  -25960   -25992   -26036   -25971   -25938   -26006   -26063   -26068 
  -26095   -26173   -26171   -26065   -26015   -26003   -25948   -25933 
  -25995   -26036   -26034   -26092   -26149   -26038   -25913   -25968 
  -26026   -25994   -25999   -26050   -26068   -26046   -26033   -26029 
  -25991   -25983   -26065   -26144   -26150   -26086   -25974   -25866 
  -25791   -25822   -25980   -26127   -26183   -26171   -26145   -26140 
  -26048   -25906   -25940   -26050   -26061   -26092   -26126   -26001 
  -25851   -25884   -26017   -26063   -26060   -26117   -26158   -26094 
  -25974   -25925   -25963   -25952   -25929   -26037   -26131   -26088 
  -26026   -26002   -26015   -26060   -26080   -26067   -26042   -26005 
  -25968   -25953   -25992   -26030   -25990   -25982   -26065   -26125 
  -26102   -26042   -26010   -26001   -25971   -25982   -26048   -26049 
  -25988   -25980   -26023   -26053   -26082   -26136   -26133   -26061 
  -26053   -26079   -26023   -25974   -25991   -25990   -25922   -25855 
  -25899   -26001   -26041   -26087   -26115   -26033   -25963   -26021 
  -26094   -26067   -26014   -26061   -26100   -26036   -26001   -26017 
  -26028   -26079   -26100   -26022   -25959   -25984   -26005   -25964 
  -25990   -26119   -26133   -26019   -25992   -26017   -25963   -25911 
  -25982   -26110   -26156   -26123   -26086   -26029   -25987   -25974 
  -25924   -25897   -25949   -26048   -26137   -26125   -26071   -26096 
  -26090   -25992   -25949   -25996   -26030   -26002   -25999   -26050 
  -26052   -26018   -26034   -26049   -26038   -26059   -26122   -26138 
  -26044   -25972   -25956   -25880   -25863   -25978   -26040   -26006 
  -25982   -26018   -26072   -26049   -26002   -26019   -26053   -26087 
  -26125   -26104   -26019   -25930   -25926   -26017   -26068   -26072 
  -26106   -26119   -26069   -26005   -25961   -25921   -25899   -26001 
  -26153   -26150   -26042   -25986   -25972   -25965   -25978   -26049 
  -26152   -26158   -26073   -26001   -25951   -25940   -25987   -26034 
  -26038   -26046   -26111   -26104   -25986   -26013   -26150   -26099 
  -25961   -25959   -25972   -25882   -25818   -25911   -26021   -26033 
  -26077   -26146   -26125   -26079   -26038   -25980   -25949   -25949 
  -26013   -26146   -26212   -26152   -26044   -25990   -25999   -26002 
  -26021   -26061   -26032   -25990   -26006   -26006   -25967   -25955 
  -26022   -26125   -26145   -26082   -26003   -25960   -25969   -26003 
  -26064   -26113   -26044   -25936   -25914   -25944   -25986   -26022 
  -26045   -26090   -26109   -26059   -25994   -25975   -26033   -26088 
  -26059   -26003   -25972   -25961   -25990   -26045   -26094   -26084 
  -26038   -26048   -26046   -25978   -25969   -26046   -26104   -26100 
  -26050   -26018   -26003   -25998   -26037   -26037   -26011   -26086 
  -26123   -26018   -25926   -25910   -25901   -25907   -26011   -26154 
  -26133   -25998   -25991   -26061   -26049   -25998   -26036   -26137 
  -26133   -26041   -26028   -26037   -25992   -25956   -25961   -26019 
  -26060   -26021   -25983   -26002   -26048   -26083   -26049   -25992 
  -25982   -26026   -26110   -26127   -26042   -25980   -25986   -26005 
  -25996   -25990   -26072   -26144   -26079   -26028   -26042   -25988 
  -25880   -25856   -25998   -26168   -26176   -26111   -26080   -26009 
  -25925   -25928   -26017   -26092   -26060   -26001   -25995   -25972 
  -25911   -25874   -25915   -26021   -26075   -26083   -26113   -26121 
  -26102   -26083   -26065   -26077   -26069   -25995   -25928   -25936 
  -26023   -26099   -26095   -26082   -26059   -25972   -25906   -25901 
  -25890   -25915   -26048   -26184   -26196   -26144   -26115   -26064 
  -26019   -26036   -26038   -26030   -26056   -26032   -25932   -25856 
  -25880   -25933   -25959   -26075   -26229   -26212   -26086   -26022 
  -26013   -25996   -25972   -26021   -26119   -26090   -25965   -25893 
  -25855   -25871   -25976   -26091   -26167   -26206   -26202   -26127 
  -25999   -25910   -25918   -26019   -26153   -26204   -26191   -26164 
  -26059   -25925   -25852   -25810   -25826   -25895   -25932   -25955 
  -26001   -26028   -26021   -26003   -26011   -26010   -25968   -25961 
  -26032   -26154   -26272   -26292   -26185   -25978   -25813   -25845 
  -25960   -26018   -26145   -26338   -26368   -26219   -26071   -25963 
  -25840   -25807   -25906   -25944   -25906   -25933   -25965   -25937 
  -25921   -25956   -26052   -26173   -26262   -26268   -26142   -25953 
  -25807   -25751   -25870   -26110   -26273   -26327   -26295   -26149 
  -25975   -25874   -25867   -25934   -26049   -26154   -26130   -25996 
  -25910   -25868   -25832   -25903   -26096   -26258   -26210   -25990 
  -25851   -25832   -25799   -25849   -26073   -26252   -26206   -26100 
  -26109   -26094   -25978   -25932   -25988   -26038   -26060   -26100 
  -26192   -26229   -26117   -25991   -25915   -25820   -25762   -25845 
  -26036   -26171   -26160   -26090   -26001   -25929   -25991   -26096 
  -26091   -26069   -26113   -26154   -26134   -26073   -26033   -25995 
  -25930   -25847   -25807   -25910   -26059   -26061   -26025   -26042 
  -25961   -25795   -25758   -25915   -26113   -26211   -26254   -26235 
  -26110   -26021   -26032   -26033   -25994   -25965   -26021   -26161 
  -26254   -26254   -26180   -26002   -25805   -25714   -25744   -25860 
  -26015   -26163   -26229   -26180   -26087   -25996   -25941   -25961 
  -25975   -25972   -26030   -26073   -26073   -26125   -26180   -26129 
  -25990   -25871   -25844   -25926   -26106   -26217   -26157   -26063 
  -25961   -25837   -25866   -26028   -26118   -26126   -26146   -26160 
  -26079   -25988   -26032   -26055   -25934   -25853   -25905   -25983 
  -25995   -25963   -25998   -26077   -26095   -26057   -25978   -25909 
  -25934   -25991   -26018   -26034   -26071   -26145   -26185   -26141 
  -26109   -26131   -26152   -26107   -25968   -25828   -25793   -25867 
  -25998   -26107   -26150   -26138   -26071   -25971   -25875   -25841 
  -25905   -26005   -26094   -26167   -26181   -26168   -26145   -26036 
  -25883   -25812   -25872   -26026   -26157   -26246   -26300   -26214 
  -26036   -25918   -25849   -25795   -25789   -25851   -25952   -26028 
  -26095   -26148   -26136   -26109   -26110   -26118   -26137   -26114 
  -26029   -25957   -25918   -25918   -25948   -25980   -26048   -26109 
  -26113   -26115   -26117   -26110   -26106   -26042   -25961   -25960 
  -25969   -25951   -25933   -25905   -25878   -25882   -25948   -26090 
  -26215   -26225   -26103   -25914   -25759   -25726   -25851   -26040 
  -26163   -26249   -26284   -26184   -26056   -26010   -26044   -26163 
  -26245   -26184   -26076   -25999   -25894   -25745   -25713   -25868 
  -26007   -26065   -26154   -26180   -26049   -25906   -25898   -25980 
  -25987   -25913   -25879   -25886   -25978   -26192   -26383   -26464 
  -26408   -26187   -25930   -25768   -25735   -25860   -26026   -26083 
  -26037   -25983   -26001   -26086   -26150   -26104   -25959   -25870 
  -25870   -25876   -25961   -26118   -26211   -26239   -26207   -26103 
  -26048   -26090   -26136   -26103   -26015   -25947   -25879   -25794 
  -25745   -25756   -25852   -25983   -26052   -26102   -26168   -26191 
  -26184   -26215   -26271   -26217   -25986   -25736   -25617   -25701 
  -26026   -26385   -26524   -26435   -26141   -25759   -25551   -25623 
  -25845   -26029   -26104   -26111   -26040   -25944   -25932   -26014 
  -26198   -26379   -26354   -26163   -25952   -25814   -25826   -25951 
  -26104   -26234   -26239   -26110   -25911   -25737   -25744   -25933 
  -26130   -26253   -26316   -26311   -26150   -25868   -25704   -25725 
  -25793   -25851   -25925   -26026   -26107   -26100   -26086   -26121 
  -26113   -26050   -26005   -25971   -25928   -25920   -26002   -26091 
  -26100   -26126   -26190   -26195   -26145   -26075   -25980   -25866 
  -25785   -25807   -25899   -25992   -26092   -26156   -26172   -26210 
  -26244   -26268   -26304   -26287   -26161   -25893   -25587   -25478 
  -25586   -25809   -26061   -26206   -26219   -26179   -26126   -26107 
  -26103   -26100   -26148   -26188   -26131   -25990   -25822   -25705 
  -25690   -25820   -26040   -26134   -26079   -26029   -25996   -25986 
  -26019   -26038   -26055   -26087   -26129   -26154   -26096   -26013 
  -25984   -25938   -25909   -25968   -26030   -26053   -26080   -26131 
  -26172   -26157   -26134   -26115   -26038   -25944   -25891   -25890 
  -25971   -26111   -26238   -26262   -26140   -25959   -25790   -25667 
  -25693   -25874   -26077   -26204   -26231   -26203   -26100   -25930 
  -25853   -25887   -25926   -26013   -26114   -26118   -26056   -26023 
  -26086   -26188   -26222   -26179   -26044   -25895   -25907   -26029 
  -26125   -26195   -26203   -26092   -25907   -25778   -25778   -25840 
  -25925   -26001   -25960   -25864   -25886   -26022   -26131   -26111 
  -26040   -26049   -26086   -26115   -26169   -26179   -26115   -26038 
  -26014   -26065   -26079   -25998   -25920   -25876   -25848   -25891 
  -26048   -26239   -26318   -26271   -26153   -25934   -25725   -25697 
  -25834   -26090   -26326   -26338   -26168   -25974   -25822   -25772 
  -25860   -26029   -26158   -26199   -26199   -26131   -26011   -25956 
  -25955   -25963   -26005   -26003   -25911   -25824   -25826   -25914 
  -26010   -26084   -26160   -26192   -26158   -26080   -26006   -26007 
  -26059   -26114   -26211   -26283   -26245   -26111   -25929   -25795 
  -25753   -25806   -25940   -26033   -26044   -26073   -26099   -26053 
  -25976   -25961   -26061   -26175   -26191   -26148   -26087   -26038 
  -25999   -25925   -25852   -25818   -25843   -25941   -25998   -25991 
  -26037   -26087   -26075   -26055   -26063   -26118   -26133   -26080 
  -26069   -26037   -25932   -25909   -25984   -26034   -26041   -26083 
  -26179   -26179   -26042   -25914   -25841   -25840   -25941   -26084 
  -26206   -26248   -26183   -26084   -25953   -25817   -25786   -25820 
  -25840   -25903   -26068   -26260   -26329   -26264   -26177   -26052 
  -25897   -25828   -25853   -25947   -26098   -26225   -26246   -26152 
  -25998   -25852   -25766   -25828   -25999   -26117   -26153   -26156 
  -26114   -26056   -26033   -26075   -26099   -26009   -25934   -25978 
  -26034   -26053   -26067   -26080   -26053   -25969   -25944   -25961 
  -25890   -25857   -25988   -26113   -26138   -26168   -26237   -26208 
  -26041   -25909   -25861   -25813   -25826   -25924   -26044   -26168 
  -26199   -26102   -25998   -25936   -25925   -25968   -26030   -26099 
  -26149   -26137   -26061   -25938   -25832   -25801   -25867   -26033 
  -26181   -26225   -26212   -26148   -26055   -26029   -26046   -26040 
  -26032   -26063   -26110   -26073   -25955   -25857   -25851   -25948 
  -26041   -26053   -26063   -26032   -25926   -25894   -25953   -26002 
  -26038   -26082   -26094   -26033   -25949   -25942   -25980   -26036 
  -26153   -26250   -26252   -26207   -26140   -26042   -25910   -25826 
  -25905   -26061   -26177   -26221   -26137   -25987   -25867   -25787 
  -25795   -25894   -26014   -26141   -26231   -26234   -26140   -25967 
  -25817   -25751   -25802   -25994   -26152   -26137   -26065   -26026 
  -26001   -25986   -25988   -26022   -26068   -26130   -26219   -26230 
  -26102   -25933   -25847   -25887   -25986   -26065   -26098   -26059 
  -26013   -26023   -26022   -26017   -26076   -26144   -26137   -26044 
  -25948   -25922   -25928   -25961   -26037   -26059   -26006   -25968 
  -26002   -26056   -26029   -25995   -26048   -26071   -26046   -26069 
  -26106   -26126   -26142   -26144   -26121   -26037   -25941   -25905 
  -25914   -25979   -26057   -26068   -26059   -26049   -26005   -25953 
  -25902   -25878   -25924   -26014   -26092   -26098   -26025   -25975 
  -25979   -25984   -25990   -26034   -26083   -26037   -25942   -25945 
  -26013   -26082   -26157   -26171   -26079   -25972   -25942   -25988 
  -26029   -26056   -26125   -26157   -26083   -25975   -25925   -25947 
  -25967   -25991   -26077   -26117   -26037   -25968   -25965   -26003 
  -26072   -26137   -26175   -26126   -26007   -25949   -25944   -25941 
  -25975   -26010   -26013   -25998   -25953   -25917   -25911   -25933 
  -26015   -26114   -26165   -26194   -26188   -26126   -26038   -26005 
  -26061   -26087   -26067   -26104   -26125   -26033   -25909   -25825 
  -25810   -25868   -25980   -26110   -26184   -26173   -26127   -26087 
  -26075   -26068   -26040   -26028   -26029   -26025   -26018   -25972 
  -25918   -25909   -25888   -25872   -25936   -26046   -26113   -26094 
  -26068   -26092   -26106   -26103   -26094   -26053   -26018   -26007 
  -26001   -25994   -25960   -25914   -25930   -25998   -26049   -26015 
  -25949   -25971   -26050   -26130   -26191   -26137   -26003   -25920 
  -25902   -25963   -26090   -26194   -26231   -26183   -26073   -25972 
  -25868   -25806   -25882   -26050   -26180   -26195   -26123   -26033 
  -25929   -25844   -25848   -25941   -26061   -26106   -26083   -26068 
  -25996   -25872   -25853   -25944   -26037   -26067   -26042   -26030 
  -26032   -26026   -26041   -26064   -26083   -26092   -26091   -26109 
  -26107   -26084   -26111   -26134   -26118   -26129   -26104   -26013 
  -25926   -25879   -25871   -25890   -25968   -26090   -26118   -26075 
  -26063   -26034   -25983   -25965   -25972   -25996   -25992   -25957 
  -25963   -25999   -26036   -26057   -26057   -26080   -26080   -26011 
  -25968   -25982   -26040   -26125   -26150   -26104   -26053   -26023 
  -26013   -25982   -25937   -25922   -25926   -25971   -26060   -26126 
  -26157   -26137   -26046   -25945   -25891   -25921   -26014   -26102 
  -26188   -26234   -26199   -26141   -26052   -25933   -25866   -25861 
  -25926   -26030   -26087   -26099   -26069   -25976   -25880   -25852 
