Origin Time       2024/06/23 22:54:00
Lat.              35.645
Long.             140.060
Depth. (km)       72
Mag.              4.1
Station Code      TCGH11
Station Lat.      36.7084
Station Long.     139.7694
Station Height(m) 90
Record Time       2024/06/23 22:55:02
Sampling Freq(Hz) 100Hz
Duration Time(s)  120
Dir.              3
Scale Factor      2942(gal)/8224139
Max. Acc. (gal)   0.185
Last Correction   2024/06/23 22:55:02
Memo.             
[...]
   21663    21597    21664    21776    21779    21689    21624    21613 
   21551    21485    21548    21660    21682    21643    21651    21702 
   21666    21558    21528    21540    21554    21636    21667    21568 
   21547    21671    21752    21710    21643    21608    21574    21558 
   21595    21631    21617    21593    21604    21687    21757    21691 
   21613    21654    21644    21563    21609    21662    21602    21598 
   21668    21741    21768    21664    21567    21582    21574    21546 
   21551    21582    21660    21683    21643    21639    21600    21523 
   21487    21532    21683    21782    21745    21725    21659    21486 
   21424    21465    21509    21631    21687    21620    21648    21728 
   21728    21713    21672    21601    21610    21647    21585    21566 
   21693    21740    21622    21575    21600    21532    21524    21629 
   21628    21587    21686    21799    21756    21643    21610    21618 
   21606    21624    21606    21505    21462    21527    21633    21735 
   21737    21694    21709    21668    21559    21547    21608    21654 
   21695    21716    21686    21639    21571    21563    21659    21645 
   21520    21521    21568    21558    21595    21674    21737    21771 
   21743    21701    21647    21563    21558    21586    21531    21467 
   21490    21613    21708    21685    21735    21813    21683    21558 
   21624    21720    21740    21651    21550    21555    21556    21537 
   21547    21525    21573    21668    21639    21681    21829    21730 
   21535    21564    21591    21513    21506    21555    21674    21789 
   21730    21656    21621    21514    21520    21666    21712    21664 
   21679    21691    21585    21490    21548    21663    21690    21602 
   21558    21675    21789    21770    21643    21501    21513    21589 
   21566    21612    21744    21736    21614    21595    21690    21663 
   21508    21482    21567    21610    21629    21660    21740    21794 
   21713    21622    21612    21568    21532    21567    21578    21581 
   21587    21514    21552    21760    21814    21760    21759    21645 
   21504    21471    21519    21682    21741    21618    21586    21598 
   21575    21605    21594    21598    21706    21743    21655    21586 
   21645    21757    21756    21674    21622    21550    21485    21558 
   21678    21689    21624    21527    21496    21635    21708    21600 
   21593    21697    21662    21589    21639    21636    21533    21552 
   21668    21695    21647    21598    21539    21541    21656    21678 
   21527    21519    21694    21712    21658    21786    21829    21639 
   21516    21536    21567    21614    21655    21620    21593    21622 
   21578    21529    21643    21729    21695    21724    21770    21757 
   21699    21550    21448    21482    21496    21497    21574    21664 
   21710    21709    21709    21779    21837    21708    21487    21444 
   21490    21483    21552    21644    21676    21717    21708    21649 
   21648    21667    21641    21614    21672    21720    21655    21628 
   21621    21537    21566    21664    21618    21581    21627    21609 
   21597    21662    21681    21632    21622    21658    21648    21589 
   21589    21655    21583    21490    21693    21838    21574    21378 
   21482    21589    21695    21797    21766    21691    21647    21570 
   21475    21536    21702    21622    21452    21586    21751    21663 
   21627    21745    21780    21701    21548    21388    21401    21591 
   21725    21694    21672    21730    21695    21614    21604    21566 
   21583    21647    21577    21532    21617    21689    21726    21739 
   21714    21659    21494    21357    21493    21725    21768    21732 
   21710    21640    21609    21660    21672    21617    21533    21473 
   21536    21686    21745    21701    21631    21563    21539    21568 
   21652    21740    21737    21698    21686    21631    21568    21605 
   21664    21635    21575    21547    21512    21523    21597    21649 
   21678    21659    21589    21570    21600    21681    21817    21852 
   21725    21570    21473    21482    21559    21578    21595    21675 
   21712    21693    21678    21690    21683    21613    21546    21543 
   21608    21690    21676    21613    21582    21543    21581    21660 
   21629    21620    21648    21608    21614    21635    21574    21583 
   21671    21670    21590    21573    21676    21744    21685    21651 
   21614    21514    21508    21573    21598    21645    21713    21708 
   21620    21574    21628    21649    21608    21579    21535    21528 
   21601    21635    21663    21756    21799    21735    21648    21589 
   21543    21552    21648    21690    21613    21554    21582    21664 
   21712    21637    21509    21465    21570    21674    21610    21606 
   21783    21841    21702    21621    21612    21509    21433    21531 
   21656    21652    21614    21674    21737    21716    21641    21528 
   21496    21602    21691    21691    21695    21745    21735    21608 
   21506    21519    21510    21446    21459    21567    21699    21810 
   21799    21708    21699    21748    21741    21681    21602    21528 
   21479    21483    21506    21559    21697    21755    21681    21663 
   21713    21730    21666    21546    21505    21563    21604    21618 
   21652    21664    21639    21598    21581    21620    21678    21643 
   21562    21624    21760    21756    21652    21609    21604    21535 
   21509    21587    21597    21574    21602    21556    21550    21706 
   21799    21713    21601    21587    21620    21612    21582    21550 
   21554    21575    21552    21621    21762    21724    21597    21590 
   21648    21699    21749    21740    21636    21560    21600    21624 
   21568    21548    21604    21675    21708    21693    21639    21550 
   21517    21628    21724    21705    21676    21620    21510    21497 
   21610    21705    21701    21655    21586    21487    21505    21655 
   21726    21678    21624    21644    21664    21609    21598    21645 
   21660    21674    21600    21450    21516    21733    21820    21793 
   21714    21577    21513    21555    21531    21501    21600    21676 
   21663    21694    21744    21682    21582    21570    21622    21662 
   21635    21573    21583    21651    21659    21617    21601    21595 
   21546    21473    21483    21614    21736    21716    21668    21713 
   21720    21629    21590    21656    21693    21598    21524    21573 
   21581    21541    21600    21658    21628    21625    21670    21693 
   21689    21663    21655    21652    21591    21556    21636    21693 
   21624    21579    21624    21645    21635    21635    21636    21633 
   21595    21537    21590    21739    21798    21737    21625    21537 
   21537    21539    21483    21508    21601    21612    21624    21749 
   21832    21762    21683    21640    21564    21555    21595    21537 
   21532    21641    21620    21577    21712    21813    21748    21633 
   21579    21614    21618    21591    21639    21648    21585    21548 
   21519    21523    21635    21741    21720    21683    21708    21675 
   21595    21605    21652    21616    21547    21519    21516    21587 
   21695    21682    21666    21752    21728    21585    21531    21548 
   21605    21670    21610    21524    21550    21600    21604    21632 
   21747    21828    21760    21648    21578    21531    21535    21563 
   21537    21568    21670    21647    21600    21656    21663    21660 
   21697    21633    21560    21600    21636    21647    21674    21629 
   21556    21573    21581    21541    21594    21683    21682    21702 
   21767    21722    21614    21593    21612    21632    21652    21583 
   21478    21475    21535    21613    21714    21736    21685    21682 
   21667    21601    21627    21697    21644    21548    21539    21590 
   21616    21612    21618    21605    21577    21600    21649    21670 
   21659    21644    21636    21606    21539    21510    21616    21755 
   21737    21659    21652    21614    21593    21659    21693    21679 
   21633    21550    21546    21612    21635    21660    21701    21686 
   21675    21676    21601    21533    21562    21566    21559    21629 
   21671    21628    21602    21639    21693    21732    21708    21643 
   21586    21494    21456    21567    21656    21659    21655    21636 
   21625    21668    21730    21690    21571    21555    21586    21573 
   21602    21622    21612    21620    21578    21548    21598    21644 
   21685    21720    21728    21756    21744    21620    21493    21512 
   21620    21635    21593    21614    21644    21635    21633    21672 
   21705    21658    21587    21539    21483    21527    21659    21733 
   21774    21716    21564    21562    21641    21620    21597    21636 
   21643    21544    21478    21598    21732    21748    21755    21753 
   21695    21609    21525    21481    21536    21644    21672    21635 
   21621    21622    21629    21675    21703    21652    21551    21452 
   21425    21508    21618    21675    21712    21721    21644    21582 
   21652    21716    21683    21654    21627    21608    21660    21675 
   21605    21610    21668    21674    21690    21648    21504    21496 
   21613    21641    21637    21641    21620    21643    21660    21656 
   21693    21662    21586    21571    21568    21606    21656    21618 
   21587    21601    21637    21702    21691    21652    21659    21583 
   21489    21541    21608    21612    21655    21702    21712    21718 
   21703    21670    21616    21532    21505    21544    21587    21610 
   21587    21589    21652    21651    21578    21578    21662    21712 
   21685    21606    21529    21528    21582    21620    21658    21701 
   21683    21656    21683    21697    21698    21764    21780    21625 
   21479    21465    21482    21537    21643    21744    21849    21891 
   21787    21670    21629    21567    21509    21509    21508    21498 
   21471    21455    21539    21675    21766    21786    21763    21722 
   21613    21502    21532    21593    21551    21502    21521    21552 
   21597    21652    21639    21612    21668    21694    21658    21676 
   21699    21705    21768    21799    21694    21558    21520    21568 
   21575    21510    21525    21606    21570    21543    21710    21790 
   21681    21687    21726    21563    21439    21510    21562    21551 
   21644    21799    21822    21703    21582    21558    21636    21695 
   21617    21487    21474    21582    21652    21662    21709    21698 
   21546    21483    21636    21752    21695    21627    21612    21597 
   21598    21631    21671    21656    21597    21632    21720    21675 
   21568    21513    21481    21556    21745    21793    21635    21506 
   21473    21485    21622    21791    21774    21676    21643    21564 
   21460    21528    21674    21644    21590    21747    21836    21666 
   21609    21751    21717    21543    21506    21543    21548    21590 
   21695    21778    21784    21768    21733    21635    21520    21471 
   21540    21694    21732    21571    21454    21520    21602    21635 
   21729    21784    21681    21621    21660    21612    21539    21513 
   21458    21463    21585    21643    21608    21656    21774    21745 
   21551    21385    21397    21554    21654    21636    21681    21747 
   21720    21716    21720    21643    21574    21537    21509    21532 
   21628    21706    21702    21701    21701    21651    21628    21582 
   21508    21547    21666    21756    21791    21747    21676    21614 
   21527    21465    21460    21533    21679    21778    21759    21683 
   21709    21816    21741    21582    21593    21573    21432    21388 
   21465    21568    21632    21685    21768    21780    21733    21649 
   21529    21578    21733    21687    21536    21467    21469    21556 
   21631    21606    21644    21724    21672    21621    21685    21705 
   21616    21520    21514    21614    21685    21631    21608    21640 
   21578    21525    21594    21637    21578    21527    21585    21721 
   21805    21776    21712    21690    21678    21648    21593    21520 
   21555    21681    21726    21721    21710    21670    21679    21764 
   21782    21635    21474    21525    21658    21618    21555    21648 
   21687    21554    21494    21562    21587    21635    21722    21714 
   21658    21614    21552    21509    21497    21523    21582    21605 
   21591    21523    21406    21438    21583    21695    21834    21903 
   21763    21616    21618    21614    21552    21590    21643    21529 
   21424    21465    21493    21563    21759    21861    21879    21948 
   21911    21748    21608    21508    21470    21451    21431    21551 
   21709    21694    21629    21652    21693    21675    21633    21648 
   21682    21622    21574    21640    21621    21504    21535    21600 
   21520    21528    21671    21720    21716    21710    21583    21485 
   21575    21672    21671    21668    21699    21748    21793    21810 
   21791    21659    21433    21358    21505    21593    21533    21506 
   21519    21456    21436    21644    21913    21976    21841    21610 
   21458    21519    21618    21655    21744    21794    21728    21698 
   21693    21644    21578    21465    21335    21231    21211    21409 
   21695    21826    21860    21865    21795    21726    21710    21687 
   21716    21848    21897    21698    21375    21168    21232    21506 
   21733    21798    21829    21870    21845    21749    21564    21294 
   21108    21149    21344    21598    21820    21897    21910    21917 
   21816    21686    21631    21632    21732    21756    21601    21560 
   21571    21411    21354    21514    21664    21685    21613    21613 
   21702    21745    21766    21803    21775    21709    21713    21720 
   21627    21575    21643    21659    21566    21487    21450    21366 
   21308    21398    21552    21656    21753    21864    21867    21751 
   21651    21587    21508    21433    21455    21531    21546    21627 
   21825    21925    21909    21833    21622    21350    21235    21307 
   21438    21562    21647    21720    21794    21772    21689    21617 
   21492    21358    21359    21512    21708    21882    22040    22056 
   21820    21544    21439    21385    21373    21551    21770    21840 
   21811    21740    21671    21672    21708    21732    21748    21726 
   21633    21519    21459    21459    21475    21525    21602    21633 
   21618    21656    21709    21590    21411    21443    21541    21535 
   21586    21663    21624    21559    21610    21772    21888    21814 
   21616    21478    21459    21466    21440    21469    21578    21662 
   21778    21978    21988    21767    21640    21594    21494    21487 
   21558    21543    21501    21537    21655    21786    21825    21770 
   21682    21595    21527    21496    21544    21582    21494    21466 
   21624    21743    21726    21687    21685    21724    21686    21571 
   21649    21868    21840    21628    21546    21487    21348    21389 
   21613    21703    21681    21757    21837    21798    21735    21690 
   21664    21652    21546    21433    21459    21519    21532    21524 
   21541    21612    21656    21678    21689    21618    21578    21674 
   21728    21675    21691    21745    21660    21516    21536    21698 
   21771    21737    21735    21694    21581    21523    21527    21531 
   21533    21525    21533    21594    21668    21694    21643    21566 
   21494    21389    21339    21465    21659    21741    21685    21640 
   21679    21658    21618    21710    21780    21685    21523    21443 
   21536    21751    21887    21853    21756    21691    21608    21506 
   21497    21597    21694    21737    21763    21724    21571    21439 
   21481    21622    21705    21717    21726    21699    21636    21633 
   21645    21555    21451    21447    21500    21556    21647    21756 
   21795    21739    21682    21662    21573    21452    21485    21616 
   21644    21581    21527    21498    21514    21617    21721    21748 
   21718    21632    21533    21521    21585    21645    21691    21741 
   21763    21766    21766    21672    21558    21586    21631    21637 
   21682    21644    21577    21620    21648    21622    21622    21641 
   21651    21616    21560    21516    21471    21505    21629    21712 
   21733    21776    21770    21648    21597    21683    21698    21598 
   21509    21471    21498    21512    21460    21502    21620    21601 
   21563    21689    21782    21693    21616    21648    21640    21605 
   21674    21764    21766    21730    21725    21733    21745    21764 
   21767    21698    21512    21350    21359    21451    21523    21532 
   21474    21502    21628    21703    21744    21783    21783    21721 
   21598    21490    21471    21513    21571    21643    21713    21767 
   21776    21725    21689    21712    21724    21717    21694    21608 
   21524    21501    21497    21506    21509    21543    21654    21709 
   21664    21602    21552    21574    21639    21666    21691    21656 
   21525    21465    21506    21566    21636    21679    21701    21751 
   21756    21685    21618    21629    21714    21763    21716    21679 
   21663    21598    21564    21631    21710    21728    21697    21666 
   21654    21597    21473    21389    21432    21490    21462    21489 
   21609    21635    21574    21577    21655    21716    21663    21556 
   21558    21635    21643    21605    21593    21571    21587    21662 
   21682    21648    21640    21656    21706    21751    21725    21671 
   21639    21628    21633    21629    21608    21631    21717    21787 
   21789    21744    21694    21659    21656    21662    21598    21517 
   21531    21604    21635    21629    21656    21678    21655    21631 
   21582    21502    21482    21492    21498    21582    21679    21679 
   21651    21594    21500    21524    21636    21656    21618    21621 
   21648    21663    21678    21716    21724    21682    21643    21591 
   21546    21567    21586    21560    21559    21590    21636    21640 
   21548    21510    21582    21621    21628    21668    21718    21737 
   21674    21566    21512    21546    21649    21725    21712    21716 
   21756    21743    21710    21717    21699    21622    21554    21555 
   21575    21532    21502    21595    21708    21745    21747    21709 
   21641    21614    21620    21593    21560    21595    21640    21614 
   21570    21548    21555    21632    21736    21760    21713    21667 
   21633    21629    21639    21585    21505    21496    21513    21550 
   21631    21664    21616    21609    21663    21675    21631    21562 
   21508    21520    21560    21558    21556    21600    21649    21689 
   21699    21687    21717    21714    21602    21504    21481    21512 
   21605    21694    21725    21726    21722    21739    21751    21745 
   21749    21722    21614    21519    21510    21528    21548    21587 
   21616    21628    21664    21702    21652    21544    21501    21500 
   21465    21487    21600    21672    21686    21637    21508    21455 
   21544    21632    21671    21699    21735    21782    21806    21778 
   21747    21730    21678    21625    21648    21656    21571    21532 
   21631    21749    21801    21759    21655    21593    21573    21577 
   21659    21744    21735    21651    21541    21465    21432    21425 
