Origin Time       2024/06/23 22:54:00
Lat.              35.645
Long.             140.060
Depth. (km)       72
Mag.              4.1
Station Code      TCGH15
Station Lat.      36.5595
Station Long.     139.8637
Station Height(m) 125
Record Time       2024/06/23 22:54:56
Sampling Freq(Hz) 100Hz
Duration Time(s)  120
Dir.              6
Scale Factor      7845(gal)/8223790
Max. Acc. (gal)   0.942
Last Correction   2024/06/23 22:54:56
Memo.             
[...]
    3948     3650     3258     2964     2968     3244     3586     3869 
    3928     3635     3238     3036     3064     3331     3697     3846 
    3762     3619     3441     3275     3208     3229     3331     3530 
    3734     3815     3724     3518     3299     3164     3199     3397 
    3623     3708     3595     3387     3208     3148     3294     3604 
    3879     3919     3659     3269     3036     3049     3196     3411 
    3670     3902     3958     3742     3441     3241     3094     3078 
    3302     3565     3688     3715     3674     3528     3303     3144 
    3167     3377     3717     3948     3823     3501     3294     3219 
    3217     3353     3577     3639     3510     3435     3412     3271 
    3199     3372     3568     3678     3797     3827     3665     3402 
    3167     3053     3113     3372     3717     3854     3673     3384 
    3196     3192     3354     3569     3712     3704     3534     3354 
    3322     3357     3338     3335     3446     3636     3805     3817 
    3585     3271     3088     3103     3365     3726     3858     3678 
    3330     3065     3067     3267     3585     3921     4021     3775 
    3330     2955     2894     3129     3496     3843     3983     3883 
    3667     3385     3118     3014     3115     3377     3669     3827 
    3842     3723     3466     3208     3096     3159     3322     3499 
    3663     3744     3667     3562     3501     3325     3041     2972 
    3273     3719     4002     4010     3755     3314     2952     2980 
    3298     3582     3786     3889     3711     3362     3142     3115 
    3230     3437     3623     3696     3624     3505     3478     3504 
    3495     3504     3562     3564     3443     3287     3211     3254 
    3377     3510     3551     3514     3546     3619     3574     3487 
    3429     3300     3227     3387     3597     3678     3653     3527 
    3383     3311     3283     3337     3474     3595     3674     3654 
    3484     3275     3130     3163     3419     3716     3910     3912 
    3626     3235     2982     2926     3169     3689     4122     4118 
    3736     3308     3041     2964     3088     3327     3576     3828 
    3955     3834     3604     3321     2983     2880     3136     3461 
    3736     4012     4075     3727     3210     2890     2817     2940 
    3349     3905     4186     4044     3690     3321     3046     3033 
    3329     3653     3735     3653     3518     3361     3281     3335 
    3461     3543     3501     3376     3267     3249     3339     3441 
    3550     3712     3808     3773     3717     3609     3326     3046 
    3034     3229     3466     3642     3682     3642     3599     3518 
    3389     3321     3358     3369     3325     3412     3632     3774 
    3727     3537     3327     3203     3261     3473     3574     3465 
    3395     3487     3585     3592     3574     3519     3308     3090 
    3176     3476     3663     3724     3736     3645     3430     3180 
    3075     3222     3501     3721     3727     3557     3445     3416 
    3385     3423     3539     3618     3570     3408     3298     3341 
    3454     3545     3520     3369     3250     3316     3542     3736 
    3778     3720     3527     3168     2947     3127     3469     3669 
    3792     3924     3901     3639     3285     3014     2943     3055 
    3283     3616     3901     3867     3582     3366     3302     3273 
    3304     3454     3616     3642     3539     3458     3503     3531 
    3420     3369     3461     3497     3457     3488     3542     3456 
    3287     3210     3258     3439     3738     4018     4048     3688 
    3125     2739     2743     3087     3550     3939     4163     4090 
    3670     3137     2843     2947     3295     3619     3786     3804 
    3704     3553     3434     3364     3310     3257     3210     3213 
    3358     3684     3990     3967     3607     3175     2871     2859 
    3238     3777     4055     3942     3697     3505     3269     3106 
    3188     3280     3277     3402     3576     3569     3508     3623 
    3758     3630     3346     3202     3214     3316     3569     3875 
    3956     3724     3406     3175     2979     2925     3233     3697 
    3967     3997     3808     3462     3144     2940     2886     3057 
    3472     4000     4315     4171     3667     3044     2609     2646 
    3095     3661     4086     4171     3912     3519     3180     2987 
    2995     3248     3659     3937     3924     3696     3318     2972 
    2899     3067     3357     3754     4110     4141     3793     3326 
    2952     2745     2891     3447     4006     4179     4023     3703 
    3325     3030     2921     3057     3353     3605     3773     3827 
    3699     3519     3383     3325     3424     3507     3414     3304 
    3276     3315     3476     3723     3823     3666     3484     3372 
    3175     3055     3225     3508     3703     3770     3693     3551 
    3447     3361     3229     3146     3326     3688     3854     3685 
    3396     3194     3136     3222     3447     3742     3950     3906 
    3593     3250     3090     3046     3103     3357     3635     3712 
    3669     3640     3609     3492     3325     3281     3365     3393 
    3388     3462     3546     3647     3805     3775     3496     3289 
    3242     3188     3132     3199     3451     3775     3919     3766 
    3465     3261     3215     3230     3345     3592     3824     3823 
    3516     3207     3161     3253     3389     3564     3618     3487 
    3316     3261     3356     3577     3852     3927     3658     3356 
    3294     3361     3451     3542     3493     3262     3111     3295 
    3676     3879     3774     3518     3281     3163     3202     3416 
    3720     3785     3476     3149     3080     3195     3469     3816 
    3931     3738     3461     3242     3150     3254     3456     3559 
    3554     3547     3523     3437     3392     3466     3551     3519 
    3414     3404     3500     3537     3519     3546     3570     3555 
    3484     3335     3204     3168     3250     3485     3727     3802 
    3742     3611     3447     3276     3138     3133     3306     3566 
    3758     3750     3577     3341     3146     3213     3545     3778 
    3716     3491     3265     3167     3268     3555     3885     3937 
    3586     3154     2947     3042     3356     3667     3871     3924 
    3719     3369     3121     3042     3132     3348     3592     3811 
    3962     3921     3639     3287     3044     2952     3056     3372 
    3721     3915     3935     3792     3518     3223     2976     2895 
    3117     3496     3801     3954     3928     3738     3439     3127 
    2941     2980     3233     3535     3755     3870     3827     3685 
    3576     3400     3129     2986     3048     3225     3492     3794 
    3983     3925     3705     3512     3279     2987     2911     3159 
    3532     3800     3862     3792     3639     3383     3146     3114 
    3264     3470     3677     3792     3721     3572     3523     3507 
    3379     3269     3306     3377     3418     3441     3453     3477 
    3462     3392     3400     3520     3654     3703     3595     3453 
    3410     3389     3422     3508     3407     3167     3117     3257 
    3443     3692     3858     3715     3393     3245     3331     3442 
    3527     3654     3703     3528     3303     3310     3477     3570 
    3595     3570     3464     3383     3364     3373     3431     3465 
    3408     3356     3422     3569     3661     3663     3558     3265 
    2992     3099     3488     3836     4013     3902     3551     3272 
    3181     3188     3300     3451     3511     3534     3580     3578 
    3524     3497     3499     3460     3380     3277     3208     3335 
    3615     3753     3640     3445     3331     3333     3369     3411 
    3468     3505     3537     3573     3549     3504     3512     3491 
    3430     3434     3485     3464     3389     3418     3515     3496 
    3396     3354     3380     3462     3572     3650     3688     3630 
    3457     3315     3280     3298     3331     3396     3534     3654 
    3561     3360     3276     3288     3366     3520     3635     3654 
    3593     3438     3265     3204     3292     3437     3573     3715 
    3762     3654     3534     3460     3362     3277     3292     3389 
    3480     3530     3569     3569     3480     3399     3422     3465 
    3464     3465     3462     3429     3427     3480     3522     3596 
    3705     3666     3477     3316     3172     3111     3308     3592 
    3719     3758     3734     3554     3331     3283     3391     3443 
    3357     3292     3333     3429     3584     3774     3844     3638 
    3231     2913     2847     3071     3547     3958     3998     3753 
    3446     3219     3152     3268     3508     3734     3819     3753 
    3608     3443     3256     3125     3194     3392     3572     3730 
    3796     3674     3415     3111     2930     3075     3470     3839 
    3967     3798     3491     3225     3048     3033     3279     3708 
    4090     4178     3912     3446     2976     2725     2863     3288 
    3743     3991     3908     3613     3300     3051     3025     3295 
    3603     3730     3726     3680     3572     3316     3017     2933 
    3087     3399     3809     4082     4035     3790     3573     3403 
    3206     3126     3254     3396     3476     3573     3627     3593 
    3519     3376     3203     3141     3234     3433     3622     3726 
    3778     3736     3518     3256     3161     3262     3447     3600 
    3631     3534     3468     3507     3489     3395     3375     3392 
    3400     3476     3542     3508     3470     3480     3491     3500 
    3483     3404     3352     3404     3524     3654     3704     3604 
    3453     3338     3233     3187     3276     3465     3635     3627 
    3480     3457     3593     3669     3588     3391     3156     3061 
    3231     3591     3881     3858     3595     3323     3140     3111 
    3291     3541     3707     3765     3701     3592     3518     3406 
    3267     3223     3277     3410     3634     3892     3973     3708 
    3250     2871     2712     2866     3299     3827     4194     4158 
    3794     3411     3068     2812     2871     3237     3699     4040 
    4048     3794     3520     3229     2988     3040     3338     3645 
    3829     3834     3655     3407     3231     3192     3267     3427 
    3568     3547     3457     3446     3514     3642     3747     3635 
    3319     3071     3055     3276     3701     4091     4075     3645 
    3175     2960     2991     3110     3289     3530     3665     3685 
    3792     3935     3865     3549     3142     2843     2835     3141 
    3541     3774     3809     3751     3608     3415     3295     3258 
    3327     3524     3730     3851     3838     3636     3353     3105 
    2992     3165     3474     3592     3519     3483     3534     3561 
    3527     3496     3487     3485     3565     3697     3713     3581 
    3323     3018     2986     3300     3595     3693     3696     3589 
    3391     3280     3346     3468     3522     3530     3508     3462 
    3472     3514     3532     3550     3478     3310     3213     3207 
    3256     3380     3523     3643     3731     3717     3547     3311 
    3190     3280     3497     3707     3828     3809     3578     3194 
    2968     3086     3325     3504     3662     3765     3746     3669 
    3576     3422     3227     3149     3284     3491     3635     3697 
    3604     3385     3311     3477     3608     3541     3404     3310 
    3299     3414     3581     3659     3597     3470     3420     3453 
    3449     3364     3258     3207     3322     3605     3827     3782 
    3557     3322     3173     3214     3478     3723     3623     3277 
    3111     3262     3568     3882     4006     3792     3380     3044 
    2984     3190     3466     3734     3908     3839     3635     3395 
    3044     2782     2876     3253     3694     4037     4151     3981 
    3670     3429     3253     3123     3159     3334     3484     3572 
    3605     3534     3360     3161     3063     3169     3403     3597 
    3708     3734     3673     3608     3619     3658     3580     3372 
    3207     3196     3322     3496     3601     3580     3450     3372 
    3473     3634     3707     3667     3510     3277     3102     3105 
    3281     3445     3476     3510     3628     3719     3711     3592 
    3354     3126     3100     3268     3472     3661     3793     3740 
    3558     3447     3362     3258     3333     3538     3632     3604 
    3501     3327     3196     3179     3241     3349     3497     3689 
    3839     3854     3761     3615     3446     3319     3333     3447 
    3503     3480     3446     3335     3154     3126     3326     3568 
    3716     3767     3699     3478     3245     3238     3449     3661 
    3707     3516     3203     3029     3109     3384     3734     3948 
    3896     3678     3457     3312     3235     3221     3422     3821 
    4040     3851     3358     2795     2538     2810     3368     3808 
    3997     3964     3736     3472     3392     3442     3408     3262 
    3126     3133     3341     3680     3993     4066     3777     3271 
    2802     2614     2884     3397     3804     4056     4148     4002 
    3673     3254     2894     2803     3010     3388     3828     4160 
    4185     3832     3254     2754     2594     2905     3534     4094 
    4360     4202     3546     2786     2478     2728     3341     3996 
    4329     4228     3863     3481     3280     3252     3213     3148 
    3187     3265     3308     3442     3626     3649     3570     3549 
    3522     3447     3427     3458     3424     3308     3267     3412 
    3566     3537     3429     3389     3373     3318     3296     3407 
    3559     3615     3608     3650     3726     3697     3527     3389 
    3364     3318     3296     3493     3794     3927     3816     3572 
    3318     3067     2889     3028     3414     3662     3705     3703 
    3632     3450     3289     3261     3342     3485     3658     3819 
    3812     3496     3102     2909     2882     3026     3419     3865 
    4087     4062     3881     3553     3137     2891     2995     3314 
    3653     3905     3940     3699     3299     2937     2905     3346 
    3942     4241     4129     3726     3213     2794     2658     2911 
    3426     3869     4001     3846     3532     3210     3048     3113 
    3289     3470     3661     3798     3751     3547     3271     3001 
    2949     3177     3492     3780     3989     4039     3937     3717 
    3461     3306     3221     3126     3098     3211     3410     3576 
    3674     3742     3699     3495     3323     3292     3292     3302 
    3350     3456     3628     3762     3766     3672     3464     3144 
    2922     2998     3300     3608     3788     3846     3796     3640 
    3454     3342     3337     3399     3465     3464     3403     3441 
    3570     3615     3597     3608     3608     3596     3526     3345 
    3172     3109     3249     3577     3782     3726     3542     3280 
    3079     3141     3341     3497     3608     3613     3477     3322 
    3245     3288     3441     3611     3735     3771     3693     3546 
    3365     3180     3102     3200     3424     3681     3894     3939 
    3724     3376     3096     2998     3117     3423     3769     3963 
    3932     3747     3484     3168     2957     3040     3311     3573 
    3744     3721     3499     3272     3173     3223     3423     3640 
    3703     3566     3304     3092     3072     3256     3603     3970 
    4141     4045     3775     3395     3026     2874     2972     3237 
    3592     3869     3896     3708     3473     3334     3315     3379 
    3500     3559     3451     3337     3318     3304     3335     3443 
    3514     3497     3469     3491     3523     3549     3630     3704 
    3661     3591     3545     3418     3257     3230     3366     3591 
    3748     3712     3538     3352     3210     3126     3119     3231 
    3420     3626     3862     3981     3796     3434     3092     2886 
    2934     3207     3577     3929     4020     3696     3221     2944 
    2902     3017     3311     3739     4118     4302     4221     3846 
    3272     2783     2635     2870     3325     3759     3989     3920 
    3631     3333     3156     3148     3289     3519     3771     3875 
    3720     3474     3318     3265     3277     3352     3497     3607 
    3538     3352     3222     3217     3337     3549     3738     3812 
    3778     3653     3443     3258     3208     3256     3335     3472 
    3630     3672     3565     3393     3264     3261     3311     3316 
    3353     3484     3651     3769     3759     3580     3304     3127 
    3152     3277     3443     3669     3838     3798     3632     3508 
    3429     3360     3375     3464     3476     3411     3406     3420 
    3402     3466     3603     3655     3584     3478     3458     3504 
    3501     3461     3445     3412     3323     3235     3219     3265 
    3327     3400     3541     3738     3835     3743     3601     3554 
    3554     3485     3373     3308     3279     3260     3291     3384 
    3469     3491     3468     3429     3407     3429     3426     3391 
    3439     3543     3597     3604     3550     3456     3460     3597 
    3738     3763     3615     3356     3168     3149     3264     3395 
    3430     3331     3194     3199     3354     3508     3647     3750 
    3711     3596     3532     3520     3528     3507     3430     3365 
    3385     3481     3549     3520     3473     3476     3504     3568 
    3613     3541     3411     3308     3214     3171     3244     3400 
    3520     3532     3491     3460     3469     3551     3645     3666 
    3597     3435     3329     3410     3520     3581     3681     3690 
    3528     3362     3273     3245     3280     3368     3469     3500 
    3483     3504     3515     3466     3453     3514     3573     3559 
    3504     3442     3346     3262     3295     3423     3581     3720 
    3717     3520     3276     3179     3298     3519     3665     3663 
    3522     3339     3256     3268     3310     3376     3466     3597 
    3728     3740     3654     3585     3541     3477     3422     3418 
    3438     3454     3469     3416     3273     3203     3318     3519 
    3640     3574     3387     3265     3269     3362     3527     3693 
    3788     3744     3535     3299     3210     3298     3485     3616 
    3615     3574     3559     3528     3430     3267     3154     3180 
    3299     3489     3716     3807     3673     3447     3277     3207 
    3258     3411     3534     3538     3519     3541     3555     3574 
    3570     3465     3291     3144     3152     3380     3670     3832 
    3809     3638     3416     3231     3163     3254     3411     3519 
    3589     3605     3558     3510     3464     3403     3376     3435 
    3549     3623     3647     3663     3601     3422     3262     3240 
    3306     3446     3684     3867     3843     3667     3433     3176 
    2999     3007     3199     3457     3647     3720     3688     3530 
    3302     3223     3354     3518     3654     3766     3757     3611 
    3397     3168     3021     3064     3264     3491     3676     3761 
