Origin Time       2024/06/23 22:54:00
Lat.              35.645
Long.             140.060
Depth. (km)       72
Mag.              4.1
Station Code      TCGH11
Station Lat.      36.7084
Station Long.     139.7694
Station Height(m) 290
Record Time       2024/06/23 22:55:02
Sampling Freq(Hz) 100Hz
Duration Time(s)  120
Dir.              5
Scale Factor      7845(gal)/8223790
Max. Acc. (gal)   3.147
Last Correction   2024/06/23 22:55:02
Memo.             
[...]
    2214     2238     2347     2415     2328     2177     2107     2191 
    2354     2430     2377     2274     2137     2047     2192     2467 
    2600     2552     2371     2131     2016     2045     2106     2216 
    2320     2316     2311     2370     2385     2362     2398     2354 
    2124     1988     2074     2130     2164     2353     2497     2440 
    2361     2343     2313     2230     2165     2224     2245     2130 
    2153     2299     2308     2317     2373     2236     2047     2062 
    2215     2455     2689     2671     2415     2169     2079     2116 
    2120     2047     2079     2209     2255     2339     2554     2592 
    2328     2052     1941     2029     2367     2722     2713     2420 
    2236     2178     1988     1790     1888     2192     2484     2705 
    2701     2343     1945     1926     2158     2305     2392     2455 
    2344     2170     2178     2250     2187     2143     2323     2548 
    2475     2161     1980     2065     2315     2555     2531     2297 
    2134     2066     2089     2253     2411     2463     2447     2322 
    2153     2112     2219     2358     2373     2204     1999     1922 
    2015     2243     2562     2874     2933     2596     2081     1703 
    1634     1954     2431     2625     2465     2204     2058     2162 
    2392     2439     2301     2193     2168     2207     2246     2155 
    2128     2457     2797     2674     2293     2007     1884     2004 
    2295     2425     2280     2131     2207     2358     2385     2366 
    2331     2201     2135     2228     2300     2323     2361     2284 
    2089     2027     2208     2477     2606     2427     2053     1875 
    2014     2317     2659     2783     2570     2323     2214     2081 
    1902     1840     1941     2141     2382     2562     2604     2546 
    2413     2274     2266     2289     2146     1957     1989     2284 
    2589     2593     2281     1925     1725     1764     2054     2438 
    2722     2852     2795     2550     2288     2141     2004     1910 
    2041     2297     2482     2569     2471     2195     2016     2023 
    2043     2037     2104     2254     2355     2407     2525     2508 
    2235     2133     2323     2436     2501     2542     2227     1849 
    1931     2245     2443     2506     2363     2095     1993     2118 
    2313     2451     2471     2403     2265     2088     1968     1944 
    2061     2380     2687     2666     2400     2203     2181     2303 
    2467     2427     2214     2093     1998     1858     1925     2253 
    2658     2886     2637     2072     1744     1821     2200     2702 
    2816     2421     2072     2012     2118     2320     2392     2168 
    1949     2027     2301     2543     2621     2523     2365     2257 
    2165     2083     2103     2192     2220     2216     2254     2293 
    2312     2350     2382     2367     2290     2161     2091     2188 
    2355     2462     2493     2405     2200     2042     2035     2151 
    2319     2431     2416     2285     2131     2101     2234     2349 
    2276     2135     2128     2212     2344     2552     2655     2511 
    2235     1980     1868     1969     2196     2405     2484     2408 
    2336     2363     2346     2269     2247     2205     2110     2103 
    2157     2199     2343     2506     2452     2323     2330     2358 
    2322     2293     2234     2118     2091     2143     2118     2077 
    2124     2170     2192     2290     2500     2718     2808     2682 
    2365     2046     1930     2007     2173     2293     2230     2049 
    1954     1995     2149     2439     2678     2583     2265     2089 
    2166     2374     2565     2578     2394     2185     2079     2069 
    2104     2199     2403     2556     2431     2147     1917     1791 
    1960     2397     2631     2493     2289     2258     2446     2694 
    2720     2435     2046     1790     1742     1837     1975     2203 
    2535     2667     2457     2203     2088     2092     2278     2519 
    2539     2436     2412     2404     2334     2199     2050     1976 
    1999     2112     2263     2377     2447     2458     2390     2259 
    2088     2066     2334     2596     2513     2182     1937     1980 
    2216     2401     2439     2390     2315     2227     2131     2085 
    2184     2389     2497     2436     2344     2276     2187     2114 
    2087     2127     2278     2423     2405     2365     2447     2470 
    2351     2265     2145     1833     1599     1755     2209     2693 
    2874     2616     2273     2212     2398     2623     2586     2153 
    1744     1757     2023     2304     2515     2484     2249     2177 
    2350     2467     2424     2347     2300     2255     2147     1961 
    1829     1933     2307     2763     2968     2710     2193     1815 
    1707     1865     2236     2501     2434     2284     2262     2282 
    2370     2539     2544     2354     2231     2197     2182     2266 
    2374     2323     2155     2033     1950     1860     1971     2389 
    2786     2893     2690     2226     1850     1902     2127     2242 
    2312     2274     2119     2096     2207     2322     2513     2713 
    2641     2284     1937     1869     2141     2532     2689     2527 
    2223     1917     1799     2000     2266     2385     2486     2519 
    2303     2079     2131     2276     2344     2417     2412     2265 
    2205     2305     2344     2273     2218     2178     2130     2162 
    2308     2401     2316     2230     2324     2430     2350     2238 
    2243     2232     2155     2157     2209     2211     2254     2319 
    2243     2173     2273     2376     2396     2396     2297     2126 
    2066     2151     2336     2496     2440     2290     2242     2216 
    2245     2358     2296     2074     2043     2153     2200     2342 
    2558     2529     2346     2266     2222     2211     2327     2366 
    2236     2124     2019     1923     2020     2239     2386     2488 
    2571     2600     2558     2415     2207     2053     1966     1950 
    2061     2223     2313     2396     2481     2398     2191     2095 
    2110     2160     2343     2546     2539     2470     2444     2319 
    2205     2234     2265     2281     2285     2138     1962     1933 
    1979     2123     2340     2367     2262     2332     2484     2528 
    2563     2529     2269     2034     2073     2197     2277     2326 
    2204     2025     2060     2161     2214     2380     2547     2527 
    2448     2382     2293     2297     2350     2295     2228     2184 
    2058     1992     2047     2083     2226     2524     2592     2344 
    2139     2045     2018     2242     2597     2694     2566     2430 
    2250     2074     2052     2130     2209     2203     2033     1896 
    2000     2245     2508     2685     2600     2346     2205     2209 
    2231     2292     2435     2504     2393     2207     2029     1954 
    2114     2378     2471     2330     2153     2157     2351     2551 
    2555     2331     2042     1871     1869     2026     2266     2435 
    2417     2277     2188     2228     2312     2409     2551     2597 
    2393     2112     1996     2054     2234     2467     2566     2493 
    2366     2181     1976     1865     1891     2149     2467     2462 
    2262     2168     2124     2201     2506     2698     2539     2355 
    2366     2392     2369     2282     2039     1823     1830     1965 
    2177     2419     2531     2555     2550     2413     2230     2126 
    2108     2243     2443     2439     2242     2039     1890     1914 
    2208     2547     2637     2473     2234     2039     1981     2207 
    2590     2694     2394     2026     1903     2079     2317     2378 
    2312     2255     2253     2335     2404     2392     2440     2546 
    2505     2265     2004     1930     2073     2285     2390     2317 
    2157     2045     2002     2037     2200     2443     2594     2547 
    2362     2188     2128     2201     2358     2508     2527     2346 
    2104     2034     2130     2182     2074     1922     1968     2292 
    2697     2886     2729     2427     2231     2145     2104     2089 
    2057     2133     2392     2570     2492     2266     2002     1849 
    1911     2080     2255     2359     2358     2408     2512     2494 
    2427     2420     2367     2266     2273     2377     2359     2170 
    2007     1961     2031     2263     2459     2354     2104     1981 
    2011     2227     2569     2733     2627     2431     2270     2223 
    2282     2307     2250     2170     2065     1965     1984     2123 
    2257     2370     2517     2582     2412     2177     2154     2273 
    2346     2322     2130     1888     1880     2106     2392     2633 
    2683     2482     2216     2064     2056     2174     2273     2196 
    2046     1999     2058     2211     2470     2725     2781     2554 
    2139     1796     1807     2158     2506     2604     2504     2317 
    2085     1927     2010     2394     2941     3227     2929     2265 
    1688     1467     1691     2192     2550     2592     2443     2165 
    1908     1930     2211     2586     2953     3096     2871     2400 
    1838     1309      997     1059     1533     2258     2889     3211 
    3241     2990     2536     2173     2089     2185     2295     2243 
    1965     1711     1687     1775     1906     2187     2620     3049 
    3187     2760     1991     1522     1730     2450     3211     3523 
    3234     2540     1648      886      716     1177     1937     2779 
    3364     3307     2766     2143     1634     1440     1709     2191 
    2489     2562     2635     2759     2754     2571     2343     2108 
    1804     1551     1640     2128     2697     2952     2787     2469 
    2317     2374     2428     2251     1873     1532     1409     1552 
    1927     2436     2955     3267     3114     2667     2425     2443 
    2428     2300     2030     1625     1359     1399     1626     1998 
    2515     2941     2972     2604     2160     1999     2200     2532 
    2768     2768     2469     2070     1898     1992     2142     2177 
    2118     2124     2258     2471     2650     2590     2315     2134 
    2097     2039     2006     2029     1993     1987     2241     2702 
    2997     2829     2313     1898     1933     2339     2729     2802 
    2566     2278     2124     2014     1871     1852     1996     2126 
    2173     2162     2053     1935     2038     2373     2768     3059 
    3025     2621     2184     2020     2135     2251     1934     1252 
     947     1458     2474     3399     3646     3130     2505     2218 
    2134     2205     2367     2378     2339     2419     2330     1842 
    1262     1077     1447     2072     2481     2475     2344     2493 
    2910     3338     3612     3531     2917     1925     1027      795 
    1363     2147     2525     2404     2049     1818     1896     2162 
    2408     2546     2648     2820     2895     2644     2308     2191 
    2123     1988     1971     2069     2155     2246     2288     2226 
    2161     2073     1891     1887     2311     2855     3082     3083 
    3123     3048     2619     1952     1372     1142     1198     1314 
    1537     2035     2639     3042     3186     3198     3167     3084 
    2848     2361     1744     1294     1171     1336     1661     2025 
    2293     2342     2242     2184     2277     2679     3306     3500 
    2964     2199     1602     1339     1629     2222     2502     2285 
    1787     1367     1428     2035     2832     3389     3458     3069 
    2547     2173     1952     1880     2079     2513     2879     2851 
    2397     1871     1667     1846     2208     2513     2625     2597 
    2440     2027     1391      788      575     1034     2030     3090 
    3794     3871     3326     2592     2068     1791     1795     2139 
    2542     2683     2629     2528     2382     2270     2201     1966 
    1610     1563     1987     2529     2870     3046     3079     2717 
    1971     1354     1255     1636     2400     3264     3549     2928 
    1950     1281     1096     1381     2006     2531     2590     2344 
    2149     2065     2061     2231     2497     2593     2473     2253 
    1973     1759     1872     2440     3287     4036     4341     4002 
    3080     2033     1289      815      542      603      853     1003 
    1146     1489     2134     3063     3888     4237     4155     3694 
    2909     2073     1358      855      708      880     1318     2052 
    2814     3262     3422     3396     3138     2747     2377     1892 
    1221      754      938     1869     3219     4166     3944     2821 
    1798     1529     1995     2710     3132     3032     2438     1526 
     791      681      988     1300     1660     2173     2706     3168 
    3402     3202     2700     2255     2087     2219     2527     2820 
    3010     3157     3258     3095     2446     1410      378     -225 
    -130      607     1656     2700     3582     4198     4465     4413 
    4122     3624     2849     1745      533     -279     -253      604 
    1790     2640     2851     2623     2403     2520     2875     3034 
    2748     2157     1509     1097     1223     1837     2589     3260 
    3690     3659     3194     2682     2560     2875     3076     2590 
    1539      573      325     1090     2467     3501     3649     3083 
    2070      903       13     -295      214     1575     3196     4336 
    4671     4317     3873     3844     3948     3630     2660     1129 
    -355    -1030     -773       48     1096     2056     2716     3149 
    3557     3923     4027     3797     3346     2812     2295     1787 
    1375     1345     1750     2442     3299     3921     3861     3172 
    2182     1212      487       22      -97      294     1151     2243 
    3163     3535     3466     3368     3389     3329     2990     2417 
    1811     1437     1482     1741     1771     1557     1545     1949 
    2583     3226     3688     3808     3568     3010     2196     1395 
     973     1008     1325     1783     2231     2555     2856     3118 
    3044     2494     1717     1204     1422     2324     3264     3588 
    3095     2050     1102      774      992     1418     1850     2195 
    2489     2801     3069     3312     3643     3871     3732     3279 
    2606     1803     1101      629      437      716     1449     2295 
    3064     3640     3622     2872     1956     1475     1495     1694 
    1737     1647     1746     2182     2781     3268     3360     3033 
    2735     2763     2835     2567     1869      961      418      706 
    1520     2182     2481     2704     3136     3682     3944     3670 
    3029     2381     1915     1567     1256     1120     1379     1998 
    2663     3059     3049     2718     2280     1908     1620     1408 
    1428     1813     2442     2978     3055     2574     1863     1440 
    1640     2330     2974     3118     2729     2135     1740     1701 
    1868     2029     2099     2092     2106     2299     2706     3106 
    3227     3028     2646     2317     2349     2710     2913     2690 
    2182     1544      997      835     1159     1818     2416     2598 
    2455     2280     2234     2389     2640     2774     2771     2700 
    2496     2184     1956     1900     1957     2081     2255     2342 
    2181     2029     2326     2963     3370     3157     2377     1549 
    1225     1399     1749     2079     2228     2176     2185     2335 
    2371     2301     2354     2505     2594     2573     2461     2461 
    2786     3207     3294     2933     2303     1719     1489     1572 
    1610     1413     1166     1202     1725     2583     3294     3485 
    3200     2701     2214     1838     1597     1561     1800     2226 
    2643     2857     2840     2774     2779     2774     2616     2236 
    1742     1383     1333     1597     2068     2556     2855     2860 
    2589     2150     1713     1456     1478     1757     2174     2555 
    2805     2933     2878     2640     2444     2448     2589     2733 
    2714     2444     2091     1922     2058     2359     2488     2247 
    1777     1385     1297     1489     1798     2143     2452     2668 
    2891     3148     3272     3184     2928     2486     1888     1301 
     965     1090     1630     2281     2760     2955     2922     2810 
    2729     2701     2621     2342     1885     1449     1125      915 
     957     1381     2033     2658     3105     3323     3369     3330 
    3208     3006     2793     2520     2120     1804     1810     2108 
    2539     2857     2790     2340     1752     1246     1020     1138 
    1422     1741     2069     2346     2516     2612     2741     2940 
    3113     3171     3032     2671     2243     1861     1559     1448 
    1574     1834     2151     2425     2589     2747     2902     2851 
    2524     2047     1587     1387     1590     2045     2536     2898 
    2871     2386     1871     1775     2091     2544     2829     2767 
    2471     2268     2320     2488     2525     2339     2106     2079 
    2215     2273     2176     2003     1779     1514     1370     1513 
    1935     2535     3138     3465     3410     3129     2729     2258 
    1836     1525     1341     1420     1830     2358     2693     2749 
    2698     2690     2633     2419     2164     2010     2000     2164 
    2353     2288     1977     1692     1645     1917     2344     2574 
    2524     2450     2559     2826     3038     2979     2628     2162 
    1794     1649     1755     2029     2309     2477     2462     2246 
    1989     1887     1946     2077     2182     2173     2049     1856 
    1692     1741     2110     2643     3013     3001     2694     2417 
    2421     2666     2907     2971     2879     2744     2610     2451 
    2259     1996     1638     1341     1260     1323     1439     1706 
    2169     2668     2974     2916     2540     2161     2058     2208 
    2420     2558     2596     2585     2515     2322     2014     1684 
    1524     1703     2106     2451     2668     2808     2812     2671 
    2489     2322     2170     1996     1767     1586     1555     1651 
    1911     2355     2816     3148     3316     3252     2982     2650 
    2266     1810     1414     1210     1228     1470     1840     2178 
    2478     2801     3090     3231     3171     2906     2558     2362 
    2371     2351     2101     1668     1294     1228     1522     1999 
    2412     2656     2789     2841     2722     2417     2097     1880 
    1752     1711     1783     1950     2200     2509     2813     3053 
    3218     3211     2905     2401     1931     1628     1553     1696 
    1919     2092     2235     2398     2508     2489     2423     2381 
    2350     2316     2195     1923     1710     1761     2000     2290 
    2539     2601     2509     2462     2505     2579     2663     2666 
    2516     2261     1935     1647     1561     1656     1833     2062 
    2274     2439     2623     2781     2816     2775     2705     2558 
    2246     1728     1264     1267     1788     2525     3100     3191 
    2844     2493     2417     2532     2617     2417     1879     1368 
    1269     1462     1642     1823     2135     2535     2845     2824 
    2452     2124     2207     2614     2986     3049     2801     2452 
    2215     2114     2056     1965     1811     1696     1788     2054 
