Origin Time       2024/06/23 22:54:00
Lat.              35.645
Long.             140.060
Depth. (km)       72
Mag.              4.1
Station Code      TCGH19
Station Lat.      36.9060
Station Long.     140.1119
Station Height(m) 104
Record Time       2024/06/23 22:55:07
Sampling Freq(Hz) 100Hz
Duration Time(s)  120
Dir.              1
Scale Factor      2942(gal)/8224139
Max. Acc. (gal)   0.270
Last Correction   2024/06/23 22:54:50
Memo.             
[...]
  196515   196584   196689   196676   196549   196476   196549   196654 
  196668   196626   196601   196587   196555   196550   196612   196680 
  196662   196588   196553   196588   196642   196638   196584   196581 
  196657   196740   196759   196690   196589   196531   196533   196565 
  196596   196616   196643   196662   196661   196642   196577   196519 
  196543   196601   196636   196627   196581   196569   196585   196580 
  196578   196612   196655   196673   196655   196641   196662   196670 
  196630   196588   196601   196662   196688   196636   196587   196597 
  196630   196608   196550   196550   196605   196636   196632   196616 
  196605   196604   196600   196600   196627   196642   196608   196581 
  196608   196631   196618   196628   196672   196684   196642   196573 
  196543   196595   196653   196641   196581   196539   196585   196697 
  196727   196626   196553   196595   196655   196616   196507   196468 
  196546   196614   196612   196651   196743   196757   196650   196533 
  196499   196566   196653   196670   196639   196608   196585   196581 
  196608   196655   196682   196653   196612   196585   196551   196553 
  196608   196647   196634   196591   196574   196614   196646   196642 
  196662   196681   196639   196568   196519   196524   196564   196604 
  196646   196672   196636   196566   196545   196603   196682   196707 
  196661   196604   196578   196572   196582   196630   196681   196678 
  196623   196565   196531   196543   196591   196645   196688   196696 
  196647   196565   196514   196538   196631   196730   196749   196662 
  196553   196518   196564   196597   196572   196551   196569   196588 
  196597   196592   196595   196642   196678   196662   196650   196682 
  196699   196631   196538   196538   196623   196661   196605   196577 
  196661   196717   196614   196481   196510   196643   196700   196642 
  196595   196616   196620   196574   196553   196573   196581   196578 
  196593   196607   196589   196572   196595   196634   196649   196655 
  196645   196600   196564   196593   196669   196700   196639   196573 
  196599   196665   196653   196576   196549   196577   196578   196569 
  196612   196693   196717   196646   196577   196589   196614   196587 
  196547   196533   196546   196599   196676   196724   196705   196653 
  196642   196661   196651   196616   196596   196589   196572   196550 
  196546   196572   196622   196668   196672   196624   196574   196569 
  196609   196662   196662   196607   196581   196595   196622   196654 
  196673   196678   196663   196616   196576   196591   196631   196615 
  196543   196493   196514   196588   196642   196662   196693   196705 
  196662   196600   196560   196553   196560   196564   196580   196603 
  196607   196604   196615   196612   196581   196577   196622   196657 
  196645   196632   196678   196716   196626   196493   196520   196678 
  196761   196685   196573   196561   196604   196565   196469   196464 
  196578   196689   196713   196684   196645   196592   196545   196570 
  196653   196655   196553   196506   196592   196692   196677   196615 
  196649   196731   196719   196620   196530   196520   196614   196713 
  196693   196568   196453   196441   196519   196597   196638   196669 
  196688   196659   196589   196562   196632   196689   196616   196534 
  196589   196690   196669   196560   196542   196668   196757   196697 
  196603   196565   196553   196530   196516   196570   196658   196674 
  196615   196560   196564   196623   196678   196677   196631   196569 
  196547   196582   196609   196626   196668   196712   196689   196584 
  196512   196585   196717   196728   196596   196480   196484   196553 
  196605   196641   196689   196713   196641   196519   196479   196547 
  196641   196663   196624   196603   196624   196650   196639   196603 
  196587   196605   196646   196666   196627   196570   196572   196638 
  196688   196672   196658   196695   196700   196620   196546   196550 
  196591   196587   196547   196547   196587   196591   196553   196549 
  196624   196688   196645   196562   196580   196684   196715   196632 
  196577   196636   196701   196669   196604   196604   196632   196601 
  196526   196511   196596   196682   196672   196608   196574   196581 
  196608   196620   196609   196607   196603   196587   196561   196527 
  196545   196611   196627   196600   196600   196630   196680   196731 
  196735   196685   196622   196584   196572   196568   196572   196589 
  196631   196678   196649   196520   196438   196518   196669   196723 
  196632   196542   196587   196665   196643   196585   196601   196668 
  196661   196560   196501   196573   196685   196697   196619   196572 
  196588   196615   196636   196655   196688   196712   196676   196619 
  196605   196595   196543   196506   196514   196546   196595   196642 
  196670   196665   196631   196605   196612   196600   196547   196541 
  196630   196738   196734   196624   196560   196585   196611   196600 
  196587   196591   196588   196569   196591   196662   196703   196678 
  196631   196609   196615   196607   196599   196612   196595   196542 
  196533   196580   196636   196670   196685   196689   196665   196619 
  196600   196618   196595   196493   196419   196496   196672   196769 
  196717   196649   196680   196727   196674   196560   196496   196534 
  196614   196631   196592   196585   196627   196646   196597   196549 
  196595   196685   196668   196554   196524   196608   196628   196530 
  196488   196614   196761   196743   196631   196624   196697   196677 
  196565   196530   196603   196631   196558   196499   196545   196626 
  196627   196549   196515   196597   196713   196735   196651   196576 
  196600   196670   196677   196619   196584   196609   196636   196612 
  196588   196627   196665   196597   196496   196518   196635   196680 
  196622   196596   196661   196692   196607   196500   196500   196595 
  196658   196653   196641   196632   196593   196557   196560   196578 
  196581   196584   196619   196659   196665   196647   196642   196655 
  196672   196661   196618   196574   196562   196573   196588   196596 
  196599   196643   196723   196735   196653   196577   196578   196593 
  196539   196487   196561   196703   196736   196638   196549   196557 
  196596   196591   196588   196646   196689   196642   196573   196573 
  196614   196614   196585   196611   196674   196670   196615   196587 
  196588   196591   196581   196578   196608   196632   196632   196646 
  196650   196630   196636   196672   196670   196599   196519   196508 
  196561   196600   196595   196600   196636   196642   196618   196646 
  196697   196680   196615   196576   196562   196557   196558   196582 
  196643   196673   196614   196562   196608   196699   196723   196655 
  196588   196557   196515   196485   196506   196546   196587   196630 
  196674   196689   196643   196605   196649   196705   196676   196597 
  196591   196654   196665   196599   196568   196615   196666   196655 
  196614   196611   196638   196619   196547   196484   196472   196558 
  196690   196728   196654   196570   196574   196658   196684   196601 
  196528   196535   196587   196632   196677   196735   196739   196663 
  196607   196618   196638   196601   196547   196581   196658   196678 
  196638   196581   196546   196543   196539   196550   196584   196601 
  196611   196646   196684   196689   196680   196688   196684   196623 
  196560   196570   196609   196609   196601   196620   196638   196615 
  196565   196554   196591   196593   196531   196501   196573   196665 
  196670   196614   196597   196635   196645   196592   196538   196551 
  196620   196673   196670   196632   196596   196603   196642   196650 
  196624   196622   196643   196623   196543   196487   196527   196636 
  196705   196689   196655   196626   196566   196504   196500   196573 
  196663   196682   196642   196615   196615   196611   196611   196651 
  196720   196734   196662   196581   196566   196585   196587   196601 
  196634   196618   196573   196578   196651   196705   196670   196627 
  196651   196655   196592   196535   196557   196624   196619   196535 
  196511   196572   196631   196636   196600   196588   196611   196605 
  196585   196608   196674   196731   196723   196647   196581   196584 
  196611   196593   196549   196543   196589   196626   196605   196557 
  196554   196614   196680   196689   196635   196587   196604   196654 
  196670   196645   196624   196618   196584   196531   196527   196572 
  196616   196655   196685   196669   196605   196539   196520   196573 
  196643   196649   196627   196642   196666   196658   196638   196635 
  196647   196649   196620   196577   196561   196564   196560   196557 
  196568   196597   196622   196619   196612   196609   196596   196580 
  196592   196623   196638   196655   196699   196734   196720   196681 
  196674   196682   196650   196595   196572   196597   196604   196557 
  196534   196568   196616   196654   196663   196632   196568   196503 
  196489   196530   196584   196626   196623   196588   196589   196646 
  196688   196666   196631   196659   196722   196720   196665   196634 
  196624   196603   196569   196528   196499   196489   196506   196588 
  196670   196638   196554   196561   196638   196670   196627   196587 
  196607   196620   196581   196572   196626   196653   196614   196587 
  196608   196631   196604   196546   196519   196530   196534   196558 
  196631   196689   196690   196685   196709   196730   196678   196608 
  196631   196697   196681   196604   196589   196646   196653   196555 
  196489   196561   196646   196618   196558   196570   196623   196636 
  196580   196524   196538   196593   196639   196655   196645   196639 
  196670   196712   196688   196605   196593   196684   196746   196678 
  196555   196535   196609   196635   196600   196607   196653   196627 
  196537   196515   196624   196767   196809   196716   196577   196476 
  196410   196368   196368   196393   196426   196496   196615   196722 
  196776   196803   196840   196882   196870   196797   196732   196716 
  196715   196692   196646   196573   196469   196345   196260   196276 
  196364   196468   196557   196604   196649   196711   196730   196686 
  196638   196611   196601   196604   196635   196693   196709   196638 
  196549   196518   196526   196555   196591   196609   196631   196661 
  196688   196731   196797   196852   196847   196761   196622   196506 
  196477   196493   196497   196481   196441   196406   196407   196431 
  196468   196508   196564   196668   196803   196869   196809   196713 
  196713   196790   196815   196801   196854   196869   196720   196503 
  196373   196342   196348   196395   196481   196528   196503   196506 
  196595   196650   196569   196453   196485   196661   196790   196777 
  196722   196697   196634   196524   196488   196562   196681   196766 
  196800   196819   196816   196759   196662   196562   196503   196483 
  196464   196426   196406   196449   196522   196550   196573   196659 
  196742   196686   196506   196384   196470   196672   196763   196719 
  196717   196804   196830   196749   196673   196662   196663   196631 
  196609   196649   196673   196591   196441   196372   196462   196620 
  196689   196649   196627   196680   196700   196592   196433   196373 
  196427   196510   196620   196782   196889   196792   196535   196379 
  196460   196605   196612   196546   196587   196711   196726   196600 
  196533   196622   196719   196678   196605   196684   196854   196888 
  196765   196688   196726   196749   196649   196499   196454   196499 
  196461   196338   196310   196438   196581   196605   196582   196642 
  196743   196773   196674   196516   196473   196597   196708   196672 
  196564   196530   196618   196690   196589   196462   196549   196734 
  196750   196616   196537   196588   196655   196658   196669   196727 
  196751   196699   196620   196604   196676   196719   196630   196512 
  196472   196425   196352   196408   196642   196874   196913   196800 
  196735   196769   196736   196551   196342   196295   196418   196487 
  196396   196338   196462   196674   196796   196781   196735   196697 
  196551   196342   196325   196557   196804   196874   196789   196711 
  196742   196790   196784   196832   196965   196977   196746   196456 
  196372   196492   196534   196375   196294   196493   196719   196700 
  196518   196377   196342   196306   196222   196250   196497   196811 
  196960   196881   196736   196684   196685   196693   196749   196852 
  196896   196782   196574   196480   196593   196734   196739   196697 
  196682   196597   196416   196302   196392   196591   196695   196678 
  196666   196716   196757   196749   196755   196758   196676   196555 
  196484   196438   196375   196314   196323   196391   196408   196368 
  196435   196736   197122   197276   197121   196857   196618   196404 
  196248   196246   196454   196731   196859   196830   196766   196732 
  196682   196558   196416   196381   196479   196599   196597   196491 
  196441   196514   196620   196673   196699   196750   196776   196717 
  196630   196615   196690   196744   196685   196538   196407   196368 
  196396   196429   196446   196489   196605   196757   196835   196817 
  196780   196773   196766   196672   196495   196452   196672   196916 
  196905   196709   196577   196566   196504   196348   196298   196419 
  196531   196547   196603   196850   197206   197367   197162   196715 
  196284   196049   195976   195959   196029   196257   196550   196707 
  196670   196616   196704   196863   196933   196879   196794   196740 
  196662   196568   196593   196723   196746   196600   196439   196402 
  196452   196470   196477   196596   196838   197002   196902   196669 
  196531   196446   196281   196145   196249   196566   196817   196843 
  196790   196792   196751   196569   196371   196323   196368   196327 
  196258   196420   196861   197270   197365   197190   196960   196773 
  196570   196371   196287   196392   196655   196901   196916   196723 
  196539   196462   196430   196379   196334   196377   196495   196566 
  196562   196537   196485   196412   196427   196600   196819   196897 
  196782   196626   196561   196560   196599   196723   196855   196834 
  196670   196566   196631   196709   196634   196543   196654   196870 
  196928   196805   196715   196719   196603   196312   196129   196254 
  196531   196641   196512   196387   196385   196373   196317   196375 
  196632   196956   197089   196940   196727   196650   196654   196635 
  196608   196626   196654   196588   196458   196473   196705   196921 
  196905   196750   196657   196626   196535   196399   196383   196545 
  196717   196715   196591   196535   196570   196547   196456   196457 
  196592   196685   196668   196666   196716   196711   196612   196530 
  196582   196727   196823   196821   196798   196781   196651   196403 
  196264   196335   196439   196447   196462   196596   196777   196862 
  196842   196809   196776   196636   196406   196292   196415   196646 
  196808   196884   196947   196971   196839   196574   196376   196339 
  196353   196337   196349   196462   196659   196789   196720   196561 
  196473   196450   196434   196437   196501   196605   196655   196650 
  196670   196716   196722   196681   196678   196797   196959   196970 
  196758   196485   196373   196453   196568   196608   196604   196635 
  196730   196816   196771   196600   196469   196464   196450   196333 
  196226   196283   196465   196600   196612   196611   196726   196866 
  196843   196700   196653   196749   196816   196735   196604   196599 
  196701   196724   196636   196566   196570   196591   196553   196457 
  196399   196408   196410   196385   196433   196614   196834   196938 
  196870   196703   196577   196531   196495   196480   196511   196538 
  196562   196649   196790   196866   196804   196730   196780   196867 
  196793   196549   196392   196497   196684   196681   196558   196562 
  196672   196690   196597   196503   196469   196473   196470   196449 
  196416   196415   196487   196604   196688   196684   196646   196650 
  196681   196693   196686   196708   196751   196739   196647   196562 
  196578   196666   196751   196840   196889   196784   196546   196354 
  196366   196506   196531   196457   196547   196792   196863   196643 
  196408   196398   196449   196365   196335   196555   196809   196823 
  196647   196558   196708   196913   196931   196781   196623   196527 
  196472   196460   196508   196581   196657   196734   196738   196634 
  196533   196507   196472   196416   196491   196661   196705   196597 
  196527   196627   196771   196784   196750   196803   196840   196747 
  196601   196569   196627   196569   196377   196275   196358   196468 
  196452   196407   196524   196750   196828   196680   196501   196516 
  196699   196794   196727   196703   196763   196743   196585   196402 
  196357   196518   196715   196730   196591   196511   196599   196732 
  196731   196639   196646   196746   196759   196634   196511   196538 
  196655   196672   196569   196546   196670   196780   196750   196634 
  196528   196466   196411   196373   196442   196587   196639   196530 
  196395   196430   196628   196754   196684   196576   196607   196688 
  196653   196560   196595   196758   196832   196720   196607   196688 
  196840   196773   196493   196357   196516   196692   196620   196450 
  196491   196708   196807   196720   196672   196743   196736   196534 
  196312   196303   196453   196526   196492   196539   196695   196784 
  196716   196605   196596   196635   196550   196357   196284   196433 
  196607   196639   196608   196624   196678   196712   196708   196753 
  196898   196982   196863   196670   196592   196627   196622   196537 
  196535   196704   196846   196744   196507   196429   196557   196674 
  196650   196570   196589   196693   196700   196572   196460   196446 
  196480   196487   196483   196555   196708   196819   196767   196601 
  196520   196589   196647   196588   196508   196554   196678   196685 
  196549   196477   196581   196670   196600   196500   196547   196689 
  196761   196726   196690   196717   196757   196750   196689   196580 
  196492   196497   196547   196582   196601   196596   196573   196547 
  196546   196582   196597   196564   196551   196592   196643   196638 
  196565   196519   196573   196631   196585   196500   196523   196634 
  196663   196591   196587   196677   196732   196730   196743   196813 
  196844   196716   196565   196619   196790   196801   196611   196465 
  196528   196658   196662   196555   196465   196442   196425   196356 
  196325   196433   196611   196701   196626   196500   196514   196647 
  196709   196646   196600   196665   196716   196599   196412   196434 
  196697   196919   196912   196838   196888   196932   196769   196523 
  196457   196580   196659   196524   196333   196345   196530   196666 
  196692   196713   196749   196684   196495   196321   196314   196449 
  196547   196515   196476   196580   196777   196884   196844   196780 
  196784   196774   196615   196439   196479   196639   196678   196580 
  196547   196711   196879   196801   196615   196607   196739   196743 
