Origin Time       2024/06/23 22:54:00
Lat.              35.645
Long.             140.060
Depth. (km)       72
Mag.              4.1
Station Code      TCGH15
Station Lat.      36.5595
Station Long.     139.8637
Station Height(m) -175
Record Time       2024/06/23 22:54:56
Sampling Freq(Hz) 100Hz
Duration Time(s)  120
Dir.              1
Scale Factor      3923(gal)/8224838
Max. Acc. (gal)   0.324
Last Correction   2024/06/23 22:54:56
Memo.             
[...]
   -2390    -2381    -2371    -2382    -2440    -2463    -2461    -2448 
   -2374    -2313    -2358    -2434    -2465    -2443    -2404    -2381 
   -2380    -2398    -2419    -2407    -2388    -2381    -2358    -2359 
   -2412    -2458    -2459    -2413    -2371    -2376    -2377    -2385 
   -2442    -2446    -2392    -2384    -2357    -2308    -2378    -2461 
   -2425    -2408    -2436    -2419    -2396    -2390    -2400    -2430 
   -2431    -2428    -2455    -2440    -2381    -2335    -2312    -2344 
   -2409    -2417    -2421    -2436    -2415    -2424    -2435    -2396 
   -2430    -2466    -2363    -2307    -2385    -2417    -2388    -2398 
   -2440    -2481    -2465    -2366    -2308    -2362    -2428    -2461 
   -2454    -2374    -2344    -2409    -2393    -2349    -2394    -2405 
   -2384    -2421    -2432    -2409    -2423    -2427    -2390    -2381 
   -2427    -2452    -2413    -2397    -2430    -2394    -2319    -2346 
   -2428    -2457    -2413    -2354    -2385    -2439    -2405    -2411 
   -2469    -2431    -2369    -2385    -2394    -2381    -2389    -2411 
   -2424    -2403    -2378    -2404    -2400    -2338    -2353    -2434 
   -2463    -2457    -2434    -2417    -2430    -2404    -2377    -2389 
   -2353    -2340    -2428    -2451    -2396    -2404    -2427    -2424 
   -2428    -2386    -2358    -2401    -2411    -2381    -2388    -2434 
   -2448    -2365    -2320    -2421    -2431    -2320    -2380    -2498 
   -2439    -2378    -2424    -2454    -2461    -2419    -2322    -2319 
   -2394    -2421    -2436    -2427    -2366    -2370    -2404    -2363 
   -2397    -2523    -2517    -2430    -2438    -2444    -2343    -2276 
   -2353    -2452    -2463    -2439    -2407    -2343    -2320    -2381 
   -2432    -2431    -2439    -2458    -2419    -2354    -2355    -2400 
   -2407    -2388    -2373    -2346    -2326    -2336    -2377    -2467 
   -2521    -2447    -2398    -2454    -2458    -2401    -2386    -2389 
   -2423    -2448    -2366    -2309    -2374    -2425    -2424    -2398 
   -2382    -2434    -2439    -2363    -2384    -2466    -2458    -2405 
   -2388    -2370    -2331    -2323    -2388    -2458    -2458    -2428 
   -2419    -2390    -2340    -2350    -2432    -2488    -2473    -2455 
   -2428    -2370    -2340    -2328    -2339    -2427    -2463    -2389 
   -2377    -2427    -2435    -2413    -2380    -2421    -2501    -2435 
   -2350    -2386    -2388    -2340    -2334    -2353    -2415    -2442 
   -2403    -2404    -2413    -2403    -2436    -2421    -2371    -2423 
   -2457    -2393    -2377    -2401    -2407    -2411    -2377    -2367 
   -2436    -2448    -2393    -2393    -2404    -2380    -2394    -2447 
   -2493    -2502    -2408    -2330    -2370    -2367    -2311    -2326 
   -2358    -2398    -2457    -2462    -2443    -2435    -2416    -2419 
   -2408    -2353    -2380    -2469    -2444    -2370    -2371    -2366 
   -2339    -2350    -2392    -2417    -2385    -2409    -2508    -2477 
   -2398    -2434    -2415    -2362    -2400    -2393    -2358    -2404 
   -2427    -2444    -2504    -2473    -2397    -2371    -2327    -2332 
   -2413    -2392    -2323    -2365    -2446    -2477    -2444    -2394 
   -2419    -2454    -2407    -2334    -2311    -2355    -2430    -2438 
   -2389    -2373    -2425    -2492    -2485    -2417    -2370    -2339 
   -2335    -2413    -2504    -2455    -2342    -2351    -2389    -2371 
   -2411    -2416    -2347    -2400    -2475    -2415    -2388    -2431 
   -2419    -2384    -2359    -2366    -2408    -2412    -2401    -2427 
   -2443    -2448    -2421    -2373    -2397    -2427    -2382    -2376 
   -2380    -2312    -2343    -2497    -2529    -2462    -2435    -2385 
   -2324    -2351    -2396    -2397    -2423    -2459    -2424    -2359 
   -2332    -2312    -2324    -2428    -2533    -2528    -2450    -2367 
   -2301    -2297    -2382    -2466    -2446    -2385    -2412    -2446 
   -2362    -2316    -2405    -2455    -2398    -2359    -2403    -2471 
   -2479    -2450    -2450    -2416    -2323    -2290    -2354    -2432 
   -2454    -2424    -2389    -2346    -2323    -2388    -2443    -2419 
   -2411    -2435    -2443    -2442    -2412    -2394    -2438    -2431 
   -2376    -2407    -2443    -2409    -2412    -2424    -2396    -2390 
   -2376    -2335    -2349    -2392    -2407    -2407    -2411    -2430 
   -2452    -2442    -2396    -2355    -2362    -2403    -2436    -2451 
   -2416    -2353    -2359    -2396    -2384    -2373    -2377    -2392 
   -2446    -2469    -2412    -2378    -2376    -2347    -2376    -2448 
   -2442    -2423    -2469    -2469    -2390    -2350    -2408    -2489 
   -2465    -2393    -2401    -2404    -2362    -2367    -2354    -2312 
   -2354    -2412    -2427    -2431    -2416    -2421    -2442    -2403 
   -2351    -2358    -2407    -2458    -2471    -2485    -2497    -2432 
   -2362    -2347    -2316    -2317    -2392    -2417    -2381    -2363 
   -2374    -2425    -2466    -2420    -2397    -2463    -2459    -2381 
   -2393    -2432    -2388    -2371    -2431    -2448    -2413    -2388 
   -2394    -2400    -2342    -2295    -2355    -2416    -2404    -2439 
   -2502    -2478    -2398    -2340    -2343    -2400    -2436    -2434 
   -2442    -2436    -2390    -2354    -2373    -2393    -2374    -2412 
   -2488    -2417    -2305    -2319    -2367    -2446    -2524    -2470 
   -2424    -2463    -2398    -2308    -2335    -2373    -2394    -2394 
   -2347    -2397    -2508    -2492    -2450    -2451    -2407    -2389 
   -2408    -2361    -2338    -2413    -2454    -2407    -2365    -2351 
   -2355    -2385    -2428    -2496    -2494    -2384    -2378    -2478 
   -2442    -2362    -2408    -2413    -2357    -2378    -2369    -2311 
   -2357    -2388    -2349    -2390    -2436    -2427    -2452    -2443 
   -2385    -2401    -2413    -2351    -2327    -2385    -2435    -2425 
   -2412    -2428    -2415    -2380    -2377    -2385    -2423    -2488 
   -2486    -2447    -2450    -2432    -2365    -2349    -2416    -2440 
   -2389    -2374    -2386    -2367    -2359    -2398    -2439    -2416 
   -2362    -2359    -2378    -2357    -2350    -2393    -2421    -2405 
   -2412    -2454    -2440    -2384    -2385    -2427    -2428    -2413 
   -2409    -2392    -2384    -2380    -2359    -2385    -2431    -2425 
   -2435    -2428    -2358    -2371    -2450    -2425    -2398    -2423 
   -2382    -2351    -2381    -2381    -2411    -2458    -2404    -2351 
   -2376    -2384    -2396    -2417    -2388    -2382    -2436    -2443 
   -2420    -2427    -2389    -2362    -2436    -2471    -2446    -2465 
   -2459    -2413    -2404    -2393    -2367    -2374    -2376    -2326 
   -2280    -2327    -2419    -2443    -2440    -2447    -2416    -2381 
   -2374    -2380    -2367    -2319    -2317    -2400    -2462    -2488 
   -2489    -2442    -2417    -2446    -2446    -2431    -2434    -2393 
   -2332    -2336    -2355    -2370    -2427    -2465    -2461    -2462 
   -2431    -2404    -2421    -2380    -2320    -2362    -2404    -2378 
   -2376    -2407    -2425    -2435    -2428    -2443    -2462    -2403 
   -2376    -2463    -2455    -2327    -2296    -2317    -2282    -2311 
   -2408    -2447    -2474    -2535    -2527    -2451    -2396    -2355 
   -2342    -2401    -2447    -2409    -2361    -2332    -2319    -2374 
   -2436    -2413    -2381    -2408    -2438    -2443    -2431    -2405 
   -2411    -2440    -2430    -2420    -2427    -2388    -2353    -2393 
   -2442    -2428    -2384    -2385    -2438    -2450    -2403    -2384 
   -2401    -2398    -2384    -2386    -2400    -2389    -2357    -2366 
   -2374    -2343    -2374    -2430    -2428    -2451    -2444    -2357 
   -2347    -2404    -2413    -2417    -2385    -2311    -2338    -2440 
   -2465    -2415    -2365    -2365    -2394    -2392    -2400    -2467 
   -2496    -2465    -2446    -2403    -2349    -2359    -2396    -2400 
   -2377    -2365    -2419    -2451    -2382    -2373    -2458    -2474 
   -2436    -2403    -2350    -2346    -2380    -2401    -2458    -2462 
   -2369    -2357    -2400    -2365    -2349    -2401    -2442    -2455 
   -2443    -2430    -2430    -2380    -2320    -2350    -2401    -2389 
   -2363    -2363    -2381    -2385    -2367    -2411    -2481    -2443 
   -2407    -2479    -2471    -2369    -2361    -2401    -2403    -2401 
   -2394    -2386    -2409    -2428    -2409    -2394    -2446    -2494 
   -2424    -2347    -2392    -2446    -2434    -2408    -2385    -2386 
   -2432    -2457    -2423    -2382    -2373    -2357    -2311    -2295 
   -2361    -2436    -2442    -2408    -2382    -2359    -2351    -2369 
   -2388    -2392    -2417    -2446    -2420    -2413    -2436    -2392 
   -2354    -2347    -2304    -2359    -2486    -2470    -2420    -2469 
   -2486    -2438    -2394    -2349    -2305    -2317    -2378    -2411 
   -2415    -2450    -2458    -2446    -2486    -2489    -2427    -2403 
   -2376    -2320    -2342    -2389    -2371    -2393    -2466    -2467 
   -2421    -2432    -2477    -2469    -2385    -2300    -2305    -2374 
   -2416    -2431    -2450    -2443    -2419    -2415    -2419    -2398 
   -2380    -2389    -2392    -2390    -2390    -2378    -2403    -2444 
   -2412    -2347    -2331    -2350    -2365    -2377    -2393    -2439 
   -2501    -2490    -2407    -2354    -2336    -2324    -2363    -2382 
   -2353    -2412    -2489    -2438    -2405    -2436    -2415    -2392 
   -2409    -2423    -2434    -2419    -2367    -2308    -2262    -2276 
   -2357    -2455    -2540    -2585    -2563    -2496    -2434    -2396 
   -2350    -2317    -2382    -2443    -2398    -2409    -2496    -2458 
   -2330    -2280    -2315    -2370    -2382    -2386    -2475    -2532 
   -2452    -2396    -2443    -2470    -2444    -2439    -2420    -2340 
   -2295    -2299    -2276    -2263    -2255    -2208    -2227    -2303 
   -2316    -2380    -2542    -2641    -2644    -2629    -2616    -2581 
   -2469    -2355    -2305    -2220    -2172    -2301    -2479    -2560 
   -2501    -2339    -2250    -2263    -2274    -2338    -2409    -2390 
   -2423    -2508    -2486    -2471    -2556    -2631    -2623    -2533 
   -2442    -2347    -2158    -2070    -2258    -2488    -2601    -2623 
   -2477    -2243    -2133    -2101    -2056    -2116    -2357    -2627 
   -2724    -2655    -2582    -2532    -2469    -2450    -2455    -2444 
   -2497    -2504    -2344    -2258    -2346    -2398    -2405    -2496 
   -2589    -2462    -2173    -2061    -2162    -2239    -2270    -2400 
   -2616    -2758    -2778    -2706    -2512    -2322    -2236    -2115 
   -2045    -2222    -2394    -2380    -2401    -2527    -2579    -2525 
   -2457    -2411    -2363    -2312    -2312    -2393    -2484    -2470 
   -2388    -2390    -2478    -2463    -2299    -2223    -2378    -2540 
   -2523    -2419    -2319    -2215    -2119    -2081    -2169    -2324 
   -2434    -2509    -2551    -2552    -2621    -2716    -2646    -2484 
   -2423    -2388    -2301    -2295    -2389    -2439    -2392    -2317 
   -2282    -2270    -2273    -2316    -2394    -2508    -2602    -2577 
   -2548    -2639    -2651    -2482    -2327    -2308    -2351    -2282 
   -2146    -2151    -2223    -2278    -2430    -2559    -2513    -2461 
   -2506    -2498    -2398    -2331    -2301    -2274    -2297    -2308 
   -2239    -2239    -2404    -2582    -2636    -2573    -2462    -2401 
   -2374    -2305    -2269    -2319    -2398    -2452    -2450    -2474 
   -2609    -2706    -2682    -2640    -2555    -2386    -2239    -2184 
   -2262    -2409    -2421    -2322    -2224    -2146    -2214    -2386 
   -2425    -2430    -2512    -2555    -2569    -2500    -2326    -2308 
   -2390    -2327    -2289    -2363    -2384    -2421    -2502    -2481 
   -2412    -2416    -2461    -2482    -2436    -2340    -2263    -2205 
   -2173    -2247    -2427    -2594    -2654    -2601    -2486    -2382 
   -2351    -2371    -2335    -2263    -2282    -2390    -2504    -2566 
   -2498    -2339    -2276    -2330    -2340    -2292    -2317    -2430 
   -2502    -2485    -2458    -2501    -2548    -2555    -2550    -2420 
   -2208    -2207    -2317    -2315    -2355    -2466    -2493    -2500 
   -2494    -2393    -2255    -2197    -2272    -2381    -2442    -2531 
   -2582    -2556    -2608    -2628    -2465    -2342    -2313    -2226 
   -2207    -2319    -2393    -2436    -2461    -2385    -2288    -2238 
   -2182    -2162    -2273    -2502    -2681    -2623    -2409    -2280 
   -2258    -2254    -2274    -2366    -2517    -2658    -2712    -2637 
   -2504    -2458    -2504    -2555    -2593    -2598    -2558    -2493 
   -2349    -2150    -2097    -2166    -2120    -2045    -2158    -2254 
   -2150    -2135    -2324    -2502    -2697    -2918    -2929    -2739 
   -2517    -2323    -2230    -2230    -2304    -2508    -2679    -2660 
   -2508    -2241    -1969    -1879    -1937    -2119    -2366    -2489 
   -2600    -2841    -2913    -2698    -2548    -2570    -2527    -2347 
   -2162    -2084    -2093    -2145    -2273    -2397    -2365    -2308 
   -2401    -2481    -2400    -2359    -2490    -2632    -2704    -2724 
   -2683    -2668    -2712    -2685    -2539    -2334    -2131    -1989 
   -1929    -1954    -2104    -2339    -2525    -2538    -2412    -2323 
   -2270    -2127    -2019    -2104    -2286    -2521    -2803    -2929 
   -2837    -2697    -2525    -2311    -2177    -2200    -2342    -2448 
   -2376    -2207    -2076    -2035    -2180    -2413    -2516    -2583 
   -2679    -2610    -2435    -2354    -2373    -2536    -2849    -3082 
   -3028    -2725    -2386    -2184    -2115    -2134    -2273    -2448 
   -2454    -2288    -2130    -2108    -2197    -2234    -2155    -2111 
   -2181    -2299    -2403    -2439    -2427    -2512    -2640    -2633 
   -2621    -2658    -2559    -2454    -2498    -2482    -2388    -2420 
   -2524    -2523    -2435    -2388    -2401    -2361    -2253    -2196 
   -2173    -2119    -2154    -2332    -2523    -2617    -2590    -2506 
   -2430    -2307    -2177    -2201    -2335    -2413    -2448    -2455 
   -2335    -2207    -2254    -2366    -2374    -2338    -2392    -2513 
   -2546    -2478    -2463    -2551    -2673    -2756    -2713    -2516 
   -2353    -2358    -2369    -2224    -2020    -1960    -2111    -2328 
   -2467    -2562    -2635    -2671    -2739    -2736    -2496    -2203 
   -2074    -2065    -2141    -2300    -2473    -2555    -2467    -2316 
   -2288    -2394    -2501    -2582    -2693    -2714    -2521    -2284 
   -2154    -2115    -2195    -2312    -2347    -2393    -2467    -2479 
   -2520    -2573    -2493    -2377    -2351    -2398    -2459    -2413 
   -2357    -2457    -2509    -2404    -2354    -2371    -2334    -2265 
   -2228    -2274    -2319    -2255    -2251    -2451    -2677    -2775 
   -2731    -2548    -2336    -2224    -2251    -2381    -2484    -2504 
   -2558    -2606    -2550    -2527    -2577    -2524    -2388    -2292 
   -2263    -2286    -2263    -2150    -2043    -2025    -2154    -2380 
   -2497    -2484    -2489    -2523    -2535    -2521    -2457    -2339 
   -2215    -2180    -2295    -2436    -2481    -2478    -2455    -2394 
   -2351    -2420    -2602    -2678    -2538    -2416    -2401    -2354 
   -2297    -2296    -2357    -2479    -2540    -2463    -2392    -2412 
   -2393    -2297    -2276    -2370    -2452    -2450    -2401    -2380 
   -2401    -2378    -2330    -2363    -2442    -2450    -2424    -2477 
   -2535    -2470    -2386    -2382    -2394    -2413    -2416    -2393 
   -2432    -2413    -2224    -2141    -2290    -2467    -2582    -2616 
   -2521    -2431    -2407    -2320    -2177    -2091    -2110    -2218 
   -2323    -2450    -2663    -2763    -2640    -2516    -2450    -2324 
   -2203    -2187    -2284    -2517    -2767    -2802    -2662    -2544 
   -2443    -2249    -2052    -2026    -2107    -2187    -2331    -2540 
   -2689    -2689    -2513    -2296    -2243    -2286    -2245    -2218 
   -2355    -2528    -2563    -2517    -2440    -2272    -2155    -2280 
   -2497    -2596    -2602    -2579    -2540    -2494    -2446    -2424 
   -2392    -2301    -2258    -2286    -2281    -2295    -2408    -2536 
   -2536    -2366    -2191    -2151    -2197    -2331    -2532    -2635 
   -2677    -2764    -2741    -2566    -2430    -2365    -2308    -2241 
   -2135    -2093    -2224    -2381    -2448    -2498    -2512    -2452 
   -2425    -2477    -2544    -2543    -2478    -2442    -2353    -2157 
   -2122    -2309    -2407    -2346    -2300    -2300    -2315    -2349 
   -2470    -2698    -2797    -2635    -2467    -2427    -2362    -2242 
   -2150    -2123    -2174    -2257    -2342    -2465    -2579    -2628 
   -2628    -2547    -2432    -2435    -2485    -2450    -2394    -2357 
   -2326    -2336    -2350    -2359    -2430    -2488    -2459    -2417 
   -2385    -2328    -2313    -2377    -2443    -2478    -2509    -2501 
   -2397    -2263    -2234    -2312    -2394    -2461    -2531    -2554 
   -2527    -2467    -2351    -2265    -2263    -2251    -2258    -2351 
   -2440    -2461    -2421    -2363    -2342    -2322    -2292    -2324 
   -2403    -2473    -2544    -2621    -2718    -2763    -2623    -2374 
   -2185    -2104    -2127    -2200    -2255    -2323    -2425    -2506 
   -2505    -2458    -2440    -2438    -2427    -2440    -2435    -2382 
   -2367    -2377    -2349    -2363    -2400    -2386    -2424    -2470 
   -2378    -2268    -2257    -2266    -2278    -2319    -2342    -2386 
   -2497    -2586    -2596    -2558    -2502    -2466    -2505    -2613 
   -2664    -2551    -2363    -2255    -2212    -2199    -2235    -2282 
   -2324    -2374    -2366    -2305    -2304    -2367    -2401    -2423 
   -2506    -2532    -2412    -2323    -2351    -2396    -2459    -2528 
   -2512    -2473    -2486    -2471    -2435    -2435    -2396    -2301 
   -2272    -2326    -2382    -2384    -2367    -2396    -2411    -2350 
   -2288    -2297    -2344    -2384    -2428    -2493    -2583    -2664 
   -2655    -2543    -2428    -2370    -2339    -2347    -2407    -2450 
   -2442    -2382    -2301    -2281    -2308    -2346    -2424    -2462 
   -2413    -2411    -2450    -2435    -2412    -2409    -2390    -2358 
   -2334    -2323    -2309    -2297    -2342    -2430    -2501    -2538 
   -2504    -2390    -2296    -2277    -2301    -2346    -2389    -2393 
   -2371    -2350    -2347    -2403    -2501    -2569    -2585    -2519 
   -2361    -2269    -2319    -2359    -2354    -2359    -2351    -2388 
   -2493    -2543    -2535    -2540    -2542    -2528    -2436    -2274 
   -2236    -2304    -2295    -2292    -2384    -2434    -2421    -2450 
   -2511    -2511    -2405    -2307    -2313    -2342    -2366    -2451 
   -2519    -2494    -2428    -2362    -2286    -2199    -2211    -2378 
   -2488    -2416    -2312    -2285    -2347    -2474    -2546    -2535 
   -2527    -2504    -2421    -2338    -2328    -2400    -2486    -2497 
   -2423    -2340    -2322    -2370    -2448    -2517    -2543    -2488 
   -2390    -2347    -2354    -2376    -2443    -2482    -2408    -2332 
   -2330    -2331    -2331    -2332    -2326    -2338    -2366    -2385 
   -2390    -2385    -2378    -2363    -2366    -2446    -2536    -2520 
   -2444    -2393    -2374    -2404    -2450    -2452    -2430    -2361 
   -2222    -2141    -2189    -2308    -2454    -2559    -2569    -2548 
