Origin Time       2024/06/23 22:54:00
Lat.              35.645
Long.             140.060
Depth. (km)       72
Mag.              4.1
Station Code      TCGH12
Station Lat.      36.6959
Station Long.     139.9842
Station Height(m) 42
Record Time       2024/06/23 22:55:00
Sampling Freq(Hz) 100Hz
Duration Time(s)  120
Dir.              1
Scale Factor      2942(gal)/8224139
Max. Acc. (gal)   0.533
Last Correction   2024/06/23 22:55:00
Memo.             
[...]
  174317   174312   174276   174263   174287   174322   174333   174302 
  174255   174239   174298   174367   174336   174276   174302   174328 
  174299   174316   174337   174297   174271   174283   174295   174328 
  174355   174344   174317   174289   174283   174309   174303   174295 
  174332   174347   174301   174259   174263   174287   174314   174349 
  174371   174363   174325   174271   174264   174313   174332   174309 
  174271   174247   174282   174355   174374   174324   174262   174224 
  174221   174244   174295   174372   174417   174393   174341   174289 
  174228   174213   174295   174384   174393   174367   174347   174301 
  174268   174274   174260   174266   174310   174303   174278   174313 
  174320   174286   174302   174344   174360   174371   174359   174314 
  174280   174270   174267   174278   174306   174310   174299   174326 
  174345   174297   174224   174190   174236   174347   174413   174378 
  174337   174347   174320   174263   174253   174274   174326   174394 
  174370   174299   174307   174310   174259   174272   174310   174276 
  174235   174241   174276   174321   174339   174326   174324   174349 
  174383   174387   174343   174295   174289   174287   174271   174274 
  174282   174259   174229   174236   174287   174330   174340   174343 
  174353   174371   174371   174322   174263   174259   174314   174357 
  174340   174310   174297   174282   174297   174309   174262   174231 
  174253   174256   174268   174353   174422   174395   174313   174241 
  174248   174322   174361   174306   174263   174294   174278   174220 
  174258   174340   174372   174384   174363   174314   174322   174340 
  174279   174222   174243   174270   174282   174305   174313   174312 
  174324   174341   174351   174336   174310   174306   174301   174283 
  174299   174325   174301   174249   174232   174289   174379   174387 
  174324   174303   174313   174295   174268   174260   174278   174312 
  174344   174348   174303   174255   174262   174279   174248   174241 
  174326   174399   174374   174334   174348   174366   174337   174293 
  174278   174291   174303   174297   174286   174283   174279   174279 
  174297   174329   174345   174326   174309   174289   174236   174212 
  174270   174343   174364   174345   174330   174332   174303   174267 
  174276   174299   174313   174351   174375   174344   174310   174280 
  174225   174218   174302   174363   174334   174301   174313   174317 
  174301   174306   174324   174328   174324   174325   174320   174263 
  174175   174166   174256   174347   174398   174402   174357   174337 
  174364   174363   174320   174294   174301   174294   174263   174268 
  174324   174364   174322   174226   174205   174286   174361   174370 
  174328   174275   174255   174272   174283   174278   174285   174313 
  174324   174286   174253   174259   174282   174336   174379   174364 
  174347   174355   174359   174341   174325   174329   174313   174262 
  174243   174285   174325   174352   174391   174405   174349   174270 
  174235   174282   174374   174393   174299   174214   174197   174201 
  174220   174282   174345   174353   174318   174283   174267   174294 
  174355   174387   174368   174324   174297   174280   174258   174268 
  174313   174317   174305   174321   174337   174371   174409   174375 
  174294   174260   174266   174243   174244   174336   174376   174298 
  174271   174306   174274   174258   174356   174418   174382   174390 
  174387   174252   174154   174220   174297   174276   174243   174252 
  174289   174347   174403   174406   174352   174316   174290   174236 
  174216   174275   174334   174341   174326   174317   174297   174280 
  174302   174336   174332   174307   174302   174318   174347   174337 
  174279   174247   174264   174291   174322   174351   174370   174391 
  174372   174295   174267   174305   174314   174313   174347   174340 
  174271   174224   174221   174244   174294   174357   174394   174376 
  174316   174266   174253   174256   174285   174348   174380   174348 
  174309   174306   174303   174280   174291   174312   174276   174253 
  174294   174348   174378   174348   174291   174266   174243   174231 
  174301   174398   174405   174344   174313   174329   174345   174333 
  174313   174326   174368   174355   174263   174206   174244   174279 
  174259   174252   174270   174291   174343   174364   174333   174357 
  174407   174368   174289   174260   174270   174307   174352   174348 
  174302   174266   174248   174260   174324   174367   174307   174237 
  174253   174283   174279   174295   174340   174368   174321   174212 
  174171   174248   174334   174368   174366   174357   174376   174411 
  174428   174415   174379   174320   174259   174214   174191   174213 
  174258   174259   174235   174274   174359   174393   174366   174339 
  174299   174222   174152   174140   174221   174352   174417   174407 
  174370   174321   174299   174289   174271   174314   174399   174413 
  174328   174231   174221   174295   174348   174334   174325   174351 
  174333   174264   174251   174301   174313   174298   174306   174306 
  174305   174318   174290   174237   174239   174251   174210   174218 
  174305   174334   174313   174348   174378   174352   174355   174368 
  174332   174312   174318   174289   174262   174280   174322   174361 
  174343   174279   174276   174313   174316   174320   174332   174313 
  174278   174239   174214   174237   174305   174376   174410   174383 
  174322   174271   174235   174221   174266   174347   174384   174368 
  174345   174316   174275   174244   174221   174226   174276   174322 
  174355   174401   174417   174374   174302   174235   174221   174264 
  174293   174283   174274   174293   174348   174379   174333   174299 
  174310   174303   174286   174283   174282   174295   174322   174363 
  174391   174359   174302   174287   174287   174280   174282   174278 
  174255   174256   174287   174286   174255   174270   174320   174355 
  174388   174407   174371   174312   174260   174237   174260   174286 
  174297   174334   174353   174312   174285   174313   174322   174291 
  174285   174318   174347   174334   174301   174290   174322   174336 
  174280   174239   174280   174322   174329   174344   174333   174275 
  174229   174226   174249   174301   174372   174403   174379   174352 
  174340   174328   174303   174268   174268   174302   174298   174291 
  174326   174309   174244   174233   174228   174201   174259   174383 
  174475   174484   174403   174287   174212   174214   174267   174299 
  174291   174275   174286   174309   174307   174294   174309   174353 
  174394   174393   174341   174283   174252   174229   174214   174247 
  174322   174382   174395   174387   174384   174372   174324   174270 
  174260   174276   174262   174218   174206   174241   174298   174328 
  174312   174328   174374   174341   174272   174268   174324   174393 
  174405   174339   174270   174221   174174   174178   174251   174360 
  174433   174387   174287   174278   174334   174356   174349   174336 
  174286   174256   174306   174352   174347   174347   174318   174247 
  174243   174271   174222   174178   174226   174290   174345   174399 
  174407   174378   174347   174318   174305   174316   174322   174287 
  174240   174245   174279   174307   174336   174310   174237   174233 
  174295   174332   174328   174330   174340   174341   174336   174352 
  174382   174378   174364   174370   174344   174287   174251   174224 
  174213   174259   174328   174380   174399   174345   174248   174191 
  174197   174237   174286   174309   174307   174321   174356   174391 
  174417   174413   174363   174276   174204   174212   174279   174305 
  174287   174280   174274   174272   174305   174349   174393   174414 
  174386   174357   174360   174343   174324   174321   174278   174237 
  174248   174245   174218   174253   174332   174360   174332   174286 
  174247   174244   174259   174285   174337   174390   174414   174394 
  174325   174272   174301   174382   174441   174453   174430   174375 
  174302   174260   174245   174220   174189   174159   174147   174193 
  174258   174271   174283   174333   174364   174368   174382   174391 
  174399   174388   174326   174263   174258   174286   174345   174405 
  174382   174305   174268   174244   174205   174208   174229   174218 
  174218   174274   174364   174455   174483   174424   174359   174351 
  174372   174375   174334   174297   174294   174270   174241   174272 
  174285   174226   174193   174222   174259   174264   174252   174259 
  174285   174305   174320   174317   174282   174237   174245   174328 
  174393   174406   174428   174432   174378   174320   174283   174260 
  174253   174239   174217   174220   174245   174285   174328   174347 
  174326   174302   174312   174341   174366   174387   174374   174299 
  174225   174225   174282   174317   174297   174275   174280   174266 
  174249   174279   174322   174324   174294   174297   174348   174379 
  174368   174349   174325   174336   174406   174422   174347   174276 
  174244   174221   174198   174198   174249   174313   174340   174359 
  174366   174326   174291   174293   174310   174351   174379   174347 
  174314   174332   174356   174380   174410   174406   174334   174226 
  174155   174148   174199   174307   174395   174326   174141   174025 
  174058   174193   174329   174376   174379   174426   174502   174557 
  174582   174536   174395   174255   174205   174212   174201   174182 
  174174   174128   174048   174040   174145   174301   174420   174469 
  174471   174422   174353   174368   174480   174571   174549   174402 
  174191   174047   174028   174087   174191   174303   174337   174271 
  174214   174235   174290   174368   174482   174571   174544   174371 
  174118   173955   173989   174143   174333   174499   174496   174340 
  174263   174357   174480   174505   174437   174332   174231   174171 
  174171   174216   174262   174241   174151   174112   174216   174383 
  174514   174586   174549   174367   174154   174075   174154   174247 
  174240   174204   174275   174409   174441   174374   174353   174372 
  174349   174320   174313   174328   174368   174370   174345   174356 
  174299   174143   174058   174117   174228   174344   174507   174645 
  174587   174360   174189   174141   174124   174110   174145   174263 
  174410   174483   174467   174409   174332   174283   174297   174333 
  174351   174386   174397   174260   174033   173898   173924   174135 
  174447   174660   174746   174762   174658   174449   174226   174051 
  173974   173989   174067   174191   174324   174429   174438   174340 
  174226   174154   174171   174314   174433   174422   174374   174330 
  174298   174321   174336   174317   174359   174438   174459   174426 
  174393   174384   174409   174390   174256   174086   174002   174070 
  174268   174457   174514   174426   174262   174117   174054   174123 
  174353   174614   174683   174536   174325   174140   174031   174054 
  174182   174314   174356   174318   174303   174361   174442   174467 
  174383   174264   174214   174220   174221   174228   174259   174294 
  174330   174339   174290   174264   174326   174402   174453   174510 
  174492   174332   174190   174205   174245   174222   174221   174224 
  174160   174098   174139   174236   174272   174324   174461   174517 
  174488   174569   174676   174685   174690   174688   174592   174409 
  174104   173712   173472   173493   173674   173973   174347   174644 
  174795   174858   174856   174749   174533   174274   174020   173763 
  173569   173542   173700   174029   174484   174874   175049   175096 
  175076   174895   174569   174205   173851   173620   173615   173808 
  174104   174330   174361   174248   174124   174108   174206   174302 
  174409   174630   174856   174919   174857   174725   174496   174260 
  174139   174077   174032   174043   174054   174029   174051   174131 
  174232   174340   174383   174395   174479   174528   174464   174409 
  174372   174294   174241   174274   174297   174245   174232   174264 
  174183   174033   174035   174208   174402   174474   174401   174299 
  174280   174330   174366   174329   174231   174109   174016   173998 
  174077   174264   174479   174596   174714   174911   174969   174807 
  174559   174251   173959   173851   173944   174066   174096   174120 
  174206   174268   174325   174479   174615   174592   174525   174510 
  174474   174356   174166   173965   173817   173724   173767   174067 
  174502   174823   174987   174973   174637   174058   173630   173603 
  173901   174340   174710   174829   174684   174387   174131   174127 
  174353   174614   174768   174681   174339   174012   173905   173905 
  173962   174121   174294   174390   174409   174367   174341   174380 
  174438   174494   174538   174561   174609   174690   174650   174320 
  173793   173361   173222   173414   173843   174298   174603   174717 
  174671   174576   174623   174899   175135   175000   174538   174027 
  173670   173578   173763   174113   174432   174563   174479   174253 
  174015   173908   174006   174256   174480   174544   174553   174657 
  174780   174792   174664   174433   174143   173855   173708   173809 
  174105   174455   174683   174622   174332   174081   174035   174118 
  174139   174004   173773   173542   173483   173812   174507   175258 
  175748   175797   175371   174669   174035   173716   173774   174048 
  174240   174222   174139   174079   174028   174062   174168   174216 
  174231   174204   174075   174031   174186   174375   174561   174803 
  174978   174974   174847   174637   174317   173966   173730   173674 
  173769   173916   174055   174214   174361   174413   174391   174345 
  174318   174402   174584   174741   174799   174700   174459   174237 
  174131   174120   174182   174206   174136   174105   174172   174290 
  174468   174623   174590   174388   174201   174116   174105   174155 
  174221   174202   174110   174081   174170   174303   174374   174344 
  174321   174413   174525   174546   174544   174533   174449   174336 
  174244   174182   174178   174213   174239   174255   174294   174366 
  174420   174438   174464   174471   174406   174341   174361   174399 
  174360   174275   174202   174133   174089   174114   174178   174221 
  174256   174252   174152   174042   174012   174037   174105   174229 
  174379   174525   174615   174631   174619   174545   174363   174191 
  174127   174132   174185   174325   174560   174783   174829   174663 
  174421   174214   174048   173923   173840   173793   173861   174087 
  174363   174626   174883   175058   175078   174914   174603   174291 
  174085   173942   173819   173767   173821   173931   174064   174214 
  174305   174252   174136   174110   174214   174420   174638   174722 
  174676   174587   174449   174336   174328   174306   174206   174128 
  174082   174055   174114   174249   174402   174545   174598   174534 
  174424   174253   174046   173956   174009   174070   174154   174360 
  174630   174812   174853   174771   174613   174434   174249   174063 
  173916   173855   173942   174160   174349   174398   174355   174282 
  174217   174247   174380   174459   174406   174337   174356   174424 
  174459   174433   174356   174245   174133   174066   174052   174036 
  173998   174046   174226   174380   174376   174333   174374   174393 
  174309   174236   174218   174206   174222   174294   174390   174433 
  174382   174309   174278   174279   174371   174599   174773   174695 
  174438   174181   174032   174050   174225   174464   174604   174556 
  174430   174388   174444   174499   174507   174463   174361   174253 
  174198   174162   174104   174055   174043   174058   174091   174156 
  174240   174306   174318   174264   174190   174156   174167   174229 
  174333   174395   174348   174222   174086   174054   174186   174359 
  174474   174528   174474   174337   174313   174480   174688   174785 
  174753   174672   174613   174541   174442   174395   174403   174368 
  174259   174116   173966   173848   173820   173885   174017   174190 
  174336   174393   174359   174294   174255   174193   174027   173819 
  173749   173888   174163   174465   174687   174792   174839   174856 
  174831   174788   174722   174546   174206   173875   173792   173905 
  174036   174186   174375   174471   174410   174299   174231   174185 
  174170   174262   174428   174505   174429   174301   174193   174144 
  174201   174287   174272   174172   174108   174137   174243   174347 
  174364   174293   174181   174077   174066   174213   174436   174573 
  174549   174436   174401   174480   174533   174491   174434   174378 
  174290   174237   174278   174341   174367   174399   174448   174453 
  174420   174388   174325   174171   174006   173921   173890   173940 
  174121   174364   174573   174683   174648   174513   174329   174131 
  174002   173988   174070   174194   174280   174347   174409   174428 
  174449   174494   174484   174411   174322   174258   174195   174100 
  174064   174151   174224   174240   174307   174411   174480   174511 
  174514   174522   174546   174537   174488   174444   174393   174314 
  174197   174063   174008   174058   174141   174194   174212   174236 
  174282   174324   174367   174394   174378   174352   174305   174228 
  174197   174258   174368   174492   174595   174633   174583   174465 
  174312   174132   173969   173893   173916   173978   174031   174094 
  174233   174406   174486   174491   174521   174530   174447   174351 
  174322   174324   174298   174258   174228   174224   174258   174339 
  174442   174484   174407   174279   174206   174183   174166   174166 
  174209   174289   174378   174461   174540   174622   174650   174555 
  174388   174259   174194   174181   174228   174332   174428   174453 
  174405   174312   174213   174139   174086   174081   174131   174183 
  174226   174268   174249   174199   174213   174226   174158   174081 
  174055   174064   174129   174263   174387   174418   174371   174314 
  174276   174278   174348   174452   174517   174529   174521   174522 
  174565   174653   174734   174734   174607   174407   174239   174128 
  174059   174048   174101   174182   174251   174294   174330   174378 
  174424   174432   174374   174241   174051   173894   173859   173907 
  173992   174090   174152   174178   174218   174306   174430   174513 
  174517   174521   174544   174537   174545   174600   174596   174510 
  174490   174556   174573   174509   174432   174380   174314   174189 
  174069   174058   174108   174100   174060   174031   173971   173912 
  173942   174063   174220   174387   174568   174731   174810   174752 
  174573   174353   174191   174136   174171   174220   174209   174172 
  174197   174271   174336   174386   174378   174294   174252   174309 
  174348   174291   174193   174151   174221   174364   174501   174561 
  174518   174418   174324   174253   174232   174276   174341   174368 
  174313   174197   174137   174201   174282   174282   174252   174258 
  174275   174266   174249   174274   174318   174349   174405   174455 
  174409   174293   174209   174179   174218   174339   174460   174483 
