Origin Time       2024/06/23 22:54:00
Lat.              35.645
Long.             140.060
Depth. (km)       72
Mag.              4.1
Station Code      TCGH09
Station Lat.      36.8625
Station Long.     139.8364
Station Height(m) 461
Record Time       2024/06/23 22:55:05
Sampling Freq(Hz) 100Hz
Duration Time(s)  120
Dir.              3
Scale Factor      2942(gal)/8224139
Max. Acc. (gal)   0.172
Last Correction   2024/06/23 22:55:05
Memo.             
[...]
 -106583  -106519  -106463  -106485  -106482  -106420  -106404  -106470 
 -106531  -106527  -106520  -106564  -106586  -106525  -106463  -106469 
 -106479  -106474  -106520  -106575  -106564  -106544  -106555  -106542 
 -106528  -106562  -106570  -106505  -106447  -106439  -106458  -106494 
 -106515  -106521  -106535  -106536  -106535  -106532  -106521  -106513 
 -106502  -106492  -106510  -106552  -106578  -106566  -106517  -106462 
 -106435  -106467  -106539  -106578  -106537  -106446  -106394  -106431 
 -106508  -106571  -106605  -106598  -106559  -106521  -106529  -106550 
 -106504  -106447  -106467  -106498  -106477  -106454  -106474  -106533 
 -106573  -106544  -106521  -106558  -106597  -106604  -106564  -106488 
 -106443  -106463  -106506  -106559  -106602  -106571  -106477  -106431 
 -106461  -106486  -106483  -106477  -106458  -106421  -106440  -106548 
 -106635  -106637  -106608  -106556  -106493  -106477  -106497  -106482 
 -106420  -106388  -106423  -106483  -106547  -106639  -106720  -106710 
 -106612  -106512  -106470  -106477  -106502  -106508  -106466  -106409 
 -106415  -106497  -106590  -106635  -106670  -106674  -106532  -106359 
 -106328  -106355  -106388  -106494  -106587  -106587  -106589  -106624 
 -106591  -106517  -106501  -106481  -106405  -106359  -106396  -106494 
 -106614  -106674  -106629  -106529  -106455  -106443  -106448  -106431 
 -106447  -106517  -106562  -106555  -106537  -106520  -106517  -106548 
 -106581  -106569  -106540  -106546  -106546  -106492  -106438  -106442 
 -106451  -106448  -106483  -106542  -106609  -106618  -106509  -106443 
 -106517  -106564  -106529  -106517  -106520  -106504  -106492  -106469 
 -106444  -106471  -106504  -106478  -106434  -106425  -106469  -106528 
 -106556  -106571  -106575  -106582  -106618  -106639  -106600  -106529 
 -106475  -106466  -106471  -106482  -106513  -106533  -106516  -106481 
 -106458  -106470  -106509  -106573  -106671  -106737  -106693  -106593 
 -106509  -106412  -106330  -106338  -106419  -106502  -106558  -106566 
 -106543  -106525  -106524  -106543  -106551  -106483  -106398  -106417 
 -106490  -106547  -106591  -106590  -106539  -106525  -106574  -106600 
 -106571  -106539  -106496  -106431  -106389  -106378  -106384  -106438 
 -106528  -106589  -106605  -106578  -106482  -106392  -106419  -106520 
 -106586  -106602  -106585  -106550  -106523  -106520  -106537  -106535 
 -106500  -106486  -106490  -106483  -106513  -106585  -106628  -106602 
 -106531  -106446  -106392  -106425  -106528  -106621  -106635  -106564 
 -106501  -106477  -106470  -106500  -106539  -106537  -106527  -106512 
 -106458  -106413  -106448  -106519  -106546  -106559  -106596  -106602 
 -106550  -106490  -106451  -106431  -106459  -106528  -106577  -106578 
 -106573  -106574  -106529  -106462  -106442  -106461  -106475  -106465 
 -106436  -106435  -106481  -106546  -106594  -106610  -106589  -106547 
 -106510  -106474  -106438  -106454  -106498  -106509  -106506  -106508 
 -106515  -106552  -106594  -106602  -106564  -106502  -106478  -106502 
 -106529  -106542  -106555  -106567  -106559  -106531  -106512  -106489 
 -106440  -106432  -106482  -106498  -106444  -106393  -106435  -106537 
 -106585  -106564  -106551  -106566  -106569  -106546  -106505  -106462 
 -106466  -106505  -106521  -106523  -106537  -106546  -106533  -106520 
 -106552  -106605  -106600  -106551  -106494  -106435  -106408  -106429 
 -106473  -106532  -106552  -106525  -106539  -106589  -106589  -106547 
 -106494  -106435  -106421  -106463  -106520  -106555  -106519  -106465 
 -106501  -106564  -106577  -106582  -106574  -106520  -106467  -106465 
 -106498  -106521  -106525  -106532  -106512  -106451  -106412  -106440 
 -106488  -106537  -106609  -106606  -106517  -106497  -106532  -106498 
 -106463  -106497  -106519  -106486  -106462  -106498  -106560  -106574 
 -106551  -106554  -106567  -106555  -106539  -106524  -106509  -106510 
 -106536  -106547  -106504  -106461  -106469  -106490  -106506  -106512 
 -106497  -106497  -106500  -106481  -106463  -106454  -106462  -106500 
 -106559  -106585  -106555  -106552  -106559  -106508  -106465  -106459 
 -106436  -106442  -106533  -106624  -106613  -106567  -106571  -106560 
 -106533  -106559  -106577  -106542  -106520  -106489  -106421  -106389 
 -106416  -106467  -106528  -106582  -106605  -106581  -106539  -106508 
 -106475  -106446  -106454  -106486  -106501  -106489  -106482  -106473 
 -106462  -106513  -106581  -106574  -106539  -106528  -106519  -106512 
 -106508  -106488  -106451  -106440  -106497  -106581  -106631  -106656 
 -106641  -106552  -106469  -106463  -106462  -106425  -106434  -106502 
 -106551  -106550  -106521  -106517  -106577  -106658  -106670  -106616 
 -106546  -106439  -106327  -106311  -106390  -106475  -106524  -106559 
 -106575  -106564  -106583  -106609  -106564  -106483  -106425  -106382 
 -106373  -106438  -106543  -106623  -106637  -106585  -106510  -106467 
 -106471  -106497  -106517  -106515  -106496  -106486  -106485  -106500 
 -106537  -106567  -106567  -106540  -106533  -106559  -106548  -106544 
 -106601  -106609  -106544  -106502  -106482  -106471  -106508  -106546 
 -106506  -106438  -106408  -106423  -106475  -106532  -106560  -106567 
 -106567  -106564  -106532  -106508  -106546  -106551  -106515  -106517 
 -106512  -106479  -106466  -106481  -106497  -106492  -106510  -106525 
 -106492  -106510  -106546  -106494  -106455  -106473  -106459  -106456 
 -106510  -106554  -106573  -106577  -106555  -106550  -106544  -106502 
 -106485  -106494  -106494  -106531  -106582  -106574  -106528  -106512 
 -106508  -106467  -106461  -106501  -106512  -106512  -106535  -106548 
 -106529  -106492  -106497  -106539  -106566  -106579  -106563  -106488 
 -106411  -106389  -106412  -106462  -106529  -106589  -106625  -106623 
 -106571  -106517  -106497  -106490  -106478  -106492  -106536  -106542 
 -106497  -106469  -106470  -106504  -106539  -106529  -106531  -106552 
 -106537  -106533  -106551  -106533  -106505  -106488  -106481  -106479 
 -106479  -106501  -106567  -106621  -106594  -106521  -106483  -106471 
 -106438  -106408  -106419  -106448  -106479  -106505  -106529  -106581 
 -106617  -106608  -106600  -106587  -106536  -106473  -106431  -106416 
 -106423  -106459  -106502  -106532  -106566  -106600  -106596  -106566 
 -106556  -106552  -106504  -106458  -106477  -106504  -106513  -106523 
 -106500  -106466  -106479  -106517  -106533  -106490  -106452  -106506 
 -106559  -106546  -106535  -106510  -106477  -106482  -106489  -106486 
 -106501  -106520  -106532  -106510  -106458  -106452  -106497  -106519 
 -106535  -106590  -106623  -106582  -106548  -106539  -106504  -106475 
 -106486  -106512  -106525  -106531  -106543  -106533  -106510  -106494 
 -106469  -106452  -106448  -106462  -106519  -106543  -106519  -106542 
 -106589  -106577  -106548  -106551  -106548  -106536  -106528  -106513 
 -106498  -106488  -106485  -106510  -106521  -106520  -106575  -106590 
 -106537  -106548  -106542  -106440  -106401  -106444  -106479  -106509 
 -106521  -106521  -106529  -106517  -106501  -106509  -106513  -106524 
 -106551  -106567  -106546  -106482  -106419  -106397  -106409  -106436 
 -106471  -106516  -106567  -106608  -106617  -106582  -106524  -106510 
 -106535  -106535  -106512  -106485  -106458  -106473  -106529  -106578 
 -106616  -106618  -106556  -106496  -106470  -106450  -106461  -106525 
 -106563  -106533  -106508  -106498  -106474  -106494  -106567  -106598 
 -106563  -106527  -106505  -106470  -106439  -106435  -106427  -106439 
 -106486  -106521  -106554  -106589  -106566  -106506  -106459  -106411 
 -106413  -106500  -106581  -106600  -106559  -106501  -106488  -106519 
 -106559  -106578  -106537  -106477  -106462  -106481  -106517  -106567 
 -106594  -106600  -106596  -106555  -106498  -106483  -106501  -106512 
 -106510  -106509  -106496  -106467  -106450  -106463  -106515  -106550 
 -106520  -106488  -106517  -106547  -106523  -106509  -106546  -106552 
 -106510  -106483  -106477  -106462  -106442  -106458  -106515  -106535 
 -106510  -106508  -106532  -106548  -106529  -106500  -106500  -106516 
 -106532  -106556  -106562  -106563  -106579  -106556  -106513  -106520 
 -106551  -106562  -106548  -106524  -106482  -106421  -106419  -106481 
 -106525  -106529  -106508  -106517  -106560  -106548  -106504  -106504 
 -106497  -106479  -106500  -106520  -106535  -106554  -106527  -106478 
 -106486  -106524  -106521  -106500  -106508  -106533  -106564  -106571 
 -106542  -106519  -106529  -106552  -106543  -106489  -106452  -106478 
 -106532  -106567  -106569  -106564  -106552  -106519  -106512  -106519 
 -106477  -106432  -106442  -106490  -106551  -106594  -106583  -106550 
 -106524  -106482  -106474  -106523  -106536  -106489  -106439  -106429 
 -106447  -106469  -106501  -106532  -106542  -106532  -106529  -106551 
 -106570  -106574  -106548  -106474  -106411  -106396  -106378  -106358 
 -106384  -106456  -106529  -106587  -106647  -106682  -106666  -106605 
 -106537  -106497  -106483  -106508  -106546  -106560  -106566  -106536 
 -106486  -106463  -106455  -106461  -106478  -106482  -106470  -106469 
 -106493  -106531  -106570  -106616  -106662  -106668  -106616  -106547 
 -106501  -106454  -106416  -106448  -106489  -106454  -106394  -106381 
 -106394  -106434  -106547  -106674  -106710  -106698  -106698  -106689 
 -106644  -106563  -106486  -106451  -106423  -106409  -106440  -106477 
 -106496  -106519  -106529  -106501  -106459  -106435  -106407  -106390 
 -106438  -106515  -106564  -106575  -106562  -106551  -106525  -106488 
 -106509  -106566  -106566  -106527  -106474  -106394  -106355  -106411 
 -106492  -106525  -106544  -106573  -106582  -106609  -106677  -106697 
 -106617  -106496  -106386  -106338  -106381  -106496  -106629  -106721 
 -106724  -106655  -106579  -106546  -106548  -106548  -106521  -106473 
 -106396  -106289  -106224  -106278  -106400  -106512  -106606  -106663 
 -106672  -106685  -106678  -106613  -106544  -106504  -106479  -106475 
 -106492  -106510  -106508  -106482  -106474  -106505  -106539  -106521 
 -106478  -106473  -106485  -106483  -106492  -106465  -106393  -106374 
 -106409  -106456  -106539  -106617  -106644  -106645  -106641  -106624 
 -106605  -106563  -106488  -106458  -106478  -106475  -106482  -106542 
 -106566  -106517  -106488  -106512  -106504  -106465  -106469  -106508 
 -106529  -106536  -106521  -106490  -106493  -106513  -106519  -106543 
 -106583  -106586  -106529  -106448  -106409  -106420  -106438  -106456 
 -106486  -106506  -106492  -106479  -106494  -106498  -106527  -106569 
 -106524  -106458  -106473  -106497  -106488  -106471  -106473  -106515 
 -106554  -106544  -106536  -106562  -106581  -106587  -106617  -106612 
 -106556  -106548  -106571  -106567  -106563  -106558  -106533  -106492 
 -106436  -106396  -106389  -106417  -106477  -106525  -106527  -106524 
 -106555  -106594  -106631  -106652  -106616  -106524  -106458  -106473 
 -106497  -106471  -106467  -106510  -106520  -106500  -106509  -106515 
 -106498  -106508  -106558  -106610  -106616  -106566  -106493  -106425 
 -106381  -106401  -106501  -106614  -106671  -106668  -106618  -106531 
 -106454  -106439  -106454  -106439  -106420  -106438  -106469  -106504 
 -106539  -106520  -106448  -106415  -106431  -106432  -106419  -106442 
 -106513  -106593  -106616  -106587  -106594  -106639  -106651  -106623 
 -106577  -106542  -106537  -106520  -106475  -106463  -106489  -106494 
 -106478  -106462  -106435  -106412  -106397  -106389  -106425  -106519 
 -106621  -106685  -106706  -106687  -106632  -106555  -106493  -106466 
 -106446  -106443  -106489  -106542  -106575  -106609  -106640  -106629 
 -106529  -106370  -106273  -106292  -106365  -106436  -106492  -106528 
 -106544  -106563  -106616  -106704  -106782  -106776  -106709  -106651 
 -106560  -106421  -106334  -106309  -106297  -106301  -106334  -106404 
 -106505  -106600  -106656  -106636  -106550  -106467  -106416  -106361 
 -106319  -106339  -106408  -106520  -106678  -106762  -106691  -106575 
 -106500  -106465  -106504  -106585  -106609  -106577  -106529  -106440 
 -106355  -106378  -106477  -106564  -106637  -106662  -106602  -106493 
 -106378  -106332  -106398  -106492  -106524  -106490  -106429  -106416 
 -106513  -106675  -106799  -106812  -106682  -106455  -106243  -106164 
 -106251  -106431  -106616  -106771  -106849  -106778  -106614  -106498 
 -106474  -106492  -106497  -106485  -106459  -106443  -106467  -106489 
 -106510  -106556  -106551  -106497  -106455  -106408  -106384  -106446 
 -106552  -106631  -106647  -106608  -106575  -106594  -106647  -106724 
 -106766  -106693  -106527  -106336  -106177  -106085  -106072  -106173 
 -106366  -106536  -106663  -106762  -106763  -106678  -106573  -106485 
 -106442  -106427  -106413  -106416  -106462  -106569  -106667  -106674 
 -106645  -106667  -106695  -106658  -106560  -106478  -106427  -106373 
 -106334  -106316  -106307  -106366  -106502  -106623  -106697  -106776 
 -106820  -106763  -106647  -106531  -106447  -106388  -106331  -106305 
 -106312  -106327  -106375  -106431  -106440  -106473  -106562  -106604 
 -106586  -106582  -106570  -106536  -106528  -106521  -106465  -106388 
 -106353  -106382  -106502  -106660  -106731  -106699  -106623  -106506 
 -106377  -106282  -106258  -106335  -106478  -106596  -106650  -106681 
 -106695  -106668  -106640  -106650  -106656  -106613  -106569  -106551 
 -106509  -106479  -106500  -106529  -106559  -106581  -106608  -106686 
 -106737  -106683  -106558  -106382  -106176  -106034  -106043  -106142 
 -106263  -106435  -106574  -106601  -106617  -106660  -106670  -106651 
 -106623  -106597  -106567  -106533  -106536  -106543  -106509  -106482 
 -106458  -106386  -106324  -106342  -106432  -106548  -106616  -106604 
 -106564  -106554  -106582  -106614  -106623  -106589  -106521  -106479 
 -106474  -106506  -106591  -106641  -106624  -106612  -106581  -106481 
 -106375  -106340  -106381  -106438  -106478  -106523  -106563  -106582 
 -106546  -106454  -106397  -106425  -106504  -106582  -106605  -106583 
 -106546  -106494  -106479  -106502  -106512  -106533  -106581  -106621 
 -106635  -106606  -106536  -106469  -106474  -106521  -106536  -106546 
 -106566  -106558  -106529  -106501  -106461  -106427  -106419  -106396 
 -106351  -106331  -106348  -106367  -106363  -106359  -106390  -106459 
 -106550  -106644  -106721  -106760  -106762  -106728  -106678  -106641 
 -106614  -106575  -106493  -106380  -106330  -106357  -106416  -106496 
 -106543  -106544  -106540  -106532  -106520  -106532  -106593  -106641 
 -106647  -106628  -106537  -106415  -106369  -106367  -106388  -106455 
 -106519  -106563  -106596  -106581  -106524  -106442  -106365  -106338 
 -106374  -106466  -106575  -106650  -106671  -106627  -106563  -106546 
 -106527  -106482  -106459  -106479  -106531  -106578  -106578  -106524 
 -106446  -106411  -106448  -106509  -106579  -106685  -106760  -106736 
 -106660  -106587  -106536  -106521  -106516  -106492  -106436  -106374 
 -106355  -106355  -106328  -106321  -106384  -106497  -106589  -106629 
 -106647  -106640  -106601  -106564  -106536  -106493  -106442  -106398 
 -106381  -106397  -106425  -106452  -106508  -106575  -106596  -106594 
 -106604  -106604  -106590  -106543  -106465  -106409  -106369  -106377 
 -106481  -106554  -106556  -106591  -106637  -106654  -106643  -106570 
 -106448  -106348  -106320  -106382  -106510  -106621  -106633  -106570 
 -106523  -106528  -106558  -106551  -106497  -106447  -106423  -106412 
 -106409  -106398  -106382  -106419  -106531  -106666  -106770  -106806 
 -106763  -106640  -106474  -106373  -106381  -106436  -106492  -106525 
 -106515  -106486  -106497  -106546  -106586  -106613  -106643  -106675 
 -106686  -106650  -106587  -106517  -106429  -106384  -106408  -106435 
 -106434  -106428  -106438  -106451  -106451  -106456  -106481  -106504 
 -106520  -106543  -106574  -106587  -106578  -106573  -106562  -106517 
 -106470  -106446  -106419  -106370  -106332  -106346  -106429  -106537 
 -106585  -106579  -106582  -106591  -106593  -106604  -106612  -106604 
 -106571  -106512  -106469  -106470  -106486  -106494  -106494  -106513 
 -106546  -106547  -106537  -106543  -106542  -106537  -106527  -106486 
 -106450  -106432  -106400  -106365  -106358  -106362  -106393  -106463 
 -106539  -106597  -106648  -106662  -106643  -106652  -106658  -106621 
 -106606  -106606  -106574  -106564  -106593  -106601  -106590  -106552 
 -106473  -106407  -106389  -106390  -106421  -106483  -106525  -106529 
 -106521  -106492  -106450  -106434  -106421  -106402  -106431  -106488 
 -106520  -106533  -106551  -106581  -106596  -106574  -106542  -106509 
 -106451  -106374  -106350  -106409  -106504  -106594  -106643  -106620 
 -106574  -106559  -106558  -106564  -106582  -106569  -106524  -106508 
 -106520  -106531  -106567  -106608  -106600  -106562  -106515  -106483 
 -106489  -106482  -106443  -106397  -106375  -106417  -106506  -106582 
 -106613  -106598  -106555  -106510  -106486  -106500  -106532  -106555 
 -106562  -106560  -106570  -106586  -106591  -106601  -106627  -106647 
 -106612  -106521  -106442  -106396  -106359  -106336  -106350  -106408 
 -106465  -106463  -106423  -106424  -106456  -106466  -106493  -106547 
 -106564  -106521  -106461  -106434  -106444  -106481  -106543  -106598 
 -106610  -106586  -106551  -106504  -106462  -106462  -106488  -106509 
 -106510  -106504  -106531  -106562  -106578  -106613  -106612  -106547 
 -106497  -106490  -106501  -106510  -106513  -106510  -106509  -106519 
 -106516  -106485  -106474  -106501  -106531  -106546  -106544  -106513 
 -106473  -106466  -106474  -106470  -106482  -106510  -106512  -106504 
 -106544  -106596  -106578  -106539  -106533  -106537  -106562  -106608 
 -106609  -106579  -106558  -106533  -106519  -106533  -106539  -106512 
 -106490  -106490  -106488  -106493  -106492  -106465  -106469  -106505 
 -106515  -106521  -106536  -106525  -106533  -106586  -106610  -106597 
 -106558  -106483  -106435  -106446  -106470  -106492  -106496  -106479 
 -106489  -106515  -106517  -106509  -106501  -106500  -106520  -106533 
 -106497  -106425  -106378  -106413  -106497  -106537  -106533  -106516 
 -106486  -106479  -106509  -106554  -106610  -106656  -106664  -106640 
 -106574  -106478  -106428  -106421  -106423  -106446  -106478  -106501 
 -106536  -106560  -106552  -106551  -106574  -106562  -106516  -106485 
 -106447  -106416  -106419  -106429  -106451  -106477  -106481  -106488 
 -106500  -106501  -106502  -106504  -106500  -106501  -106520  -106524 
 -106483  -106456  -106493  -106546  -106594  -106645  -106655  -106614 
 -106564  -106529  -106500  -106488  -106531  -106610  -106677  -106705 
 -106691  -106641  -106573  -106516  -106489  -106473  -106454  -106429 
 -106396  -106377  -106394  -106423  -106435  -106451  -106474  -106474 
 -106461  -106455  -106467  -106523  -106587  -106583  -106544  -106536 
 -106527  -106515  -106535  -106548  -106560  -106577  -106539  -106485 
 -106474  -106481  -106505  -106528  -106529  -106550  -106562  -106531 
 -106531  -106563  -106567  -106563  -106578  -106606  -106641  -106636 
 -106591  -106536  -106483  -106458  -106459  -106444  -106423  -106412 
 -106397  -106390  -106398  -106407  -106424  -106459  -106496  -106528 
 -106544  -106527  -106488  -106459  -106438  -106409  -106398  -106423 
