Origin Time       2024/06/23 22:54:00
Lat.              35.645
Long.             140.060
Depth. (km)       72
Mag.              4.1
Station Code      TCGH06
Station Lat.      36.4458
Station Long.     139.9509
Station Height(m) 70
Record Time       2024/06/23 22:54:53
Sampling Freq(Hz) 100Hz
Duration Time(s)  120
Dir.              6
Scale Factor      3920(gal)/6170801
Max. Acc. (gal)   0.480
Last Correction   2024/06/23 22:54:38
Memo.             
  -38688   -38693   -38695   -38693   -38691   -38692   -38695   -38695 
  -38693   -38691   -38691   -38692   -38692   -38691   -38689   -38687 
  -38687   -38688   -38691   -38693   -38692   -38692   -38693   -38693 
  -38694   -38693   -38689   -38687   -38686   -38686   -38689   -38691 
  -38689   -38687   -38687   -38689   -38691   -38690   -38688   -38686 
  -38688   -38689   -38687   -38688   -38691   -38689   -38689   -38691 
  -38691   -38691   -38693   -38694   -38689   -38687   -38689   -38690 
  -38689   -38688   -38687   -38687   -38688   -38689   -38689   -38687 
  -38689   -38692   -38692   -38690   -38692   -38696   -38696   -38694 
  -38693   -38692   -38690   -38688   -38685   -38684   -38686   -38688 
  -38691   -38691   -38688   -38690   -38692   -38688   -38686   -38688 
  -38690   -38691   -38689   -38688   -38690   -38688   -38685   -38686 
  -38687   -38688   -38690   -38686   -38683   -38685   -38683   -38681 
  -38686   -38688   -38687   -38688   -38691   -38690   -38689   -38691 
  -38693   -38693   -38692   -38693   -38695   -38696   -38695   -38692 
  -38690   -38692   -38695   -38693   -38692   -38694   -38694   -38694 
  -38694   -38693   -38694   -38690   -38686   -38688   -38693   -38694 
  -38692   -38689   -38687   -38687   -38690   -38693   -38692   -38690 
  -38689   -38686   -38683   -38684   -38685   -38687   -38689   -38686 
  -38685   -38688   -38692   -38693   -38690   -38687   -38691   -38694 
  -38692   -38691   -38691   -38690   -38690   -38692   -38695   -38694 
  -38690   -38691   -38692   -38689   -38688   -38687   -38684   -38687 
  -38692   -38693   -38693   -38691   -38687   -38688   -38689   -38688 
  -38691   -38688   -38684   -38689   -38693   -38689   -38687   -38690 
  -38690   -38686   -38686   -38689   -38690   -38690   -38691   -38690 
  -38691   -38694   -38694   -38692   -38692   -38691   -38690   -38692 
  -38691   -38686   -38686   -38688   -38689   -38690   -38690   -38690 
  -38689   -38690   -38693   -38690   -38687   -38688   -38687   -38687 
  -38689   -38692   -38693   -38688   -38686   -38690   -38693   -38692 
  -38692   -38693   -38692   -38692   -38692   -38689   -38687   -38689 
  -38691   -38692   -38692   -38692   -38692   -38695   -38695   -38695 
  -38695   -38693   -38692   -38694   -38692   -38692   -38693   -38691 
  -38691   -38692   -38694   -38694   -38691   -38691   -38694   -38690 
  -38686   -38686   -38688   -38689   -38686   -38684   -38684   -38685 
  -38686   -38686   -38684   -38686   -38690   -38691   -38688   -38686 
  -38688   -38690   -38689   -38691   -38692   -38692   -38690   -38690 
  -38691   -38693   -38692   -38690   -38689   -38690   -38690   -38691 
  -38693   -38693   -38691   -38690   -38691   -38692   -38693   -38694 
  -38695   -38695   -38695   -38696   -38695   -38696   -38698   -38695 
  -38690   -38692   -38694   -38689   -38686   -38688   -38687   -38684 
  -38684   -38682   -38682   -38685   -38683   -38681   -38684   -38681 
  -38677   -38681   -38691   -38696   -38698   -38701   -38707   -38712 
  -38708   -38702   -38706   -38711   -38693   -38662   -38668   -38707 
  -38709   -38672   -38674   -38713   -38704   -38645   -38634   -38690 
  -38719   -38706   -38715   -38722   -38706   -38693   -38669   -38648 
  -38695   -38748   -38666   -38526   -38567   -38733   -38746   -38693 
  -38807   -38840   -38599   -38472   -38626   -38722   -38750   -38907 
  -38942   -38679   -38512   -38620   -38639   -38566   -38724   -38870 
  -38708   -38567   -38666   -38779   -38771   -38691   -38608   -38621 
  -38739   -38752   -38554   -38466   -38705   -38935   -38841   -38569 
  -38448   -38644   -38945   -38980   -38762   -38579   -38522   -38531 
  -38554   -38559   -38695   -39018   -39054   -38631   -38364   -38485 
  -38619   -38722   -38888   -38921   -38779   -38680   -38638   -38575 
  -38628   -38737   -38705   -38656   -38624   -38568   -38728   -38880 
  -38690   -38667   -38891   -38683   -38363   -38629   -38944   -38709 
  -38516   -38822   -38959   -38586   -38476   -38784   -38706   -38392 
  -38570   -38818   -38702   -38713   -38864   -38792   -38639   -38510 
  -38553   -38909   -38948   -38507   -38489   -38832   -38760   -38625 
  -38766   -38708   -38579   -38724   -38771   -38606   -38619   -38775 
  -38740   -38593   -38654   -38816   -38741   -38577   -38558   -38544 
  -38615   -38902   -39062   -38864   -38488   -38267   -38469   -38820 
  -38841   -38681   -38743   -38937   -38886   -38576   -38415   -38590 
  -38762   -38678   -38597   -38762   -38879   -38684   -38564   -38754 
  -38848   -38791   -38716   -38421   -38359   -38881   -39027   -38564 
  -38523   -38837   -38699   -38385   -38556   -38958   -38931   -38599 
  -38506   -38588   -38639   -38756   -38782   -38631   -38679   -38874 
  -38800   -38667   -38677   -38614   -38623   -38762   -38830   -38878 
  -38722   -38393   -38468   -38746   -38687   -38642   -38855   -38857 
  -38599   -38549   -38694   -38708   -38619   -38547   -38719   -39224 
  -39250   -38496   -38204   -38676   -38760   -38532   -38717   -38811 
  -38627   -38712   -38676   -38298   -38467   -39055   -38945   -38490 
  -38628   -38795   -38554   -38645   -38891   -38618   -38500   -38868 
  -38856   -38626   -38820   -38794   -38349   -38362   -38787   -38966 
  -38809   -38509   -38512   -38915   -38934   -38524   -38619   -38954 
  -38697   -38457   -38755   -38859   -38606   -38546   -38614   -38588 
  -38618   -38733   -38791   -38792   -38787   -38668   -38566   -38770 
  -38891   -38602   -38481   -38671   -38638   -38565   -38812   -38995 
  -38865   -38656   -38490   -38443   -38560   -38653   -38676   -38825 
  -39004   -38879   -38590   -38528   -38552   -38490   -38626   -38889 
  -38854   -38627   -38589   -38755   -38817   -38642   -38494   -38530 
  -38657   -38823   -38860   -38681   -38564   -38700   -38937   -38902 
  -38537   -38489   -38858   -38835   -38522   -38672   -38993   -38911 
  -38629   -38461   -38463   -38641   -38830   -38729   -38481   -38660 
  -39104   -38898   -38287   -38410   -38868   -38677   -38502   -38919 
  -39037   -38640   -38531   -38717   -38717   -38589   -38502   -38471 
  -38561   -38713   -38776   -38782   -38820   -38874   -38894   -38783 
  -38599   -38657   -38849   -38727   -38570   -38747   -38812   -38562 
  -38367   -38394   -38661   -38937   -38866   -38688   -38683   -38672 
  -38704   -38764   -38589   -38523   -38825   -38834   -38462   -38491 
  -38731   -38540   -38434   -38750   -38880   -38841   -38969   -39016 
  -38951   -38809   -38524   -38482   -38726   -38801   -38692   -38462 
  -38203   -38378   -38816   -38851   -38717   -38835   -38834   -38667 
  -38677   -38757   -38890   -39021   -38707   -38214   -38220   -38452 
  -38528   -38799   -39216   -39253   -38917   -38460   -38170   -38487 
  -39079   -39051   -38534   -38388   -38642   -38676   -38469   -38571 
  -38925   -38793   -38292   -38367   -38934   -39067   -38756   -38771 
  -39048   -38794   -38314   -38576   -39175   -39150   -38771   -38601 
  -38455   -38334   -38462   -38546   -38539   -38725   -38905   -38839 
  -38559   -38286   -38389   -38703   -38795   -38746   -38704   -38710 
  -38796   -38732   -38592   -38708   -38818   -38744   -38791   -38796 
  -38585   -38534   -38616   -38666   -38900   -38989   -38651   -38571 
  -38813   -38595   -38163   -38304   -38819   -39108   -39062   -38899 
  -38804   -38688   -38454   -38348   -38551   -38875   -39102   -39077 
  -38784   -38536   -38487   -38458   -38564   -38824   -38849   -38739 
  -38760   -38708   -38586   -38654   -38828   -38750   -38439   -38489 
  -38887   -38874   -38591   -38623   -38632   -38415   -38456   -38708 
  -38734   -38656   -38716   -38768   -38713   -38679   -38800   -38940 
  -38832   -38699   -38780   -38656   -38249   -38123   -38414   -38791 
  -38978   -38929   -38874   -38818   -38530   -38423   -38855   -39044 
  -38659   -38524   -38683   -38581   -38535   -38705   -38670   -38758 
  -39267   -39346   -38794   -38633   -38727   -38199   -37933   -38778 
  -39273   -38553   -38103   -38645   -38988   -38585   -38324   -38738 
  -39096   -38736   -38439   -38905   -39183   -38736   -38495   -38748 
  -38906   -38802   -38561   -38370   -38367   -38474   -38719   -38964 
  -38827   -38497   -38487   -38759   -38906   -38768   -38537   -38514 
  -38778   -38948   -38802   -38756   -38909   -38808   -38491   -38431 
  -38625   -38567   -38281   -38432   -38919   -39017   -38781   -38681 
  -38800   -38835   -38494   -38269   -38698   -39040   -38718   -38523 
  -38771   -38809   -38706   -38822   -38740   -38430   -38534   -38870 
  -38809   -38590   -38657   -38754   -38644   -38646   -38893   -38917 
  -38572   -38340   -38417   -38582   -38742   -38889   -38897   -38685 
  -38599   -38890   -38872   -38309   -38285   -38952   -39220   -38915 
  -38652   -38719   -38805   -38465   -38242   -38684   -38920   -38526 
  -38454   -38872   -38913   -38605   -38624   -38747   -38642   -38697 
  -38838   -38700   -38613   -38725   -38678   -38548   -38643   -38778 
  -38682   -38538   -38553   -38652   -38801   -38964   -38914   -38646 
  -38554   -38678   -38597   -38495   -38780   -38953   -38638   -38434 
  -38619   -38752   -38702   -38760   -38949   -38971   -38764   -38542 
  -38356   -38347   -38720   -39035   -38865   -38574   -38600   -38851 
  -38859   -38542   -38479   -38714   -38757   -38717   -38769   -38739 
  -38729   -38787   -38701   -38597   -38578   -38431   -38446   -38816 
  -38893   -38643   -38648   -38683   -38574   -38652   -38761   -38695 
  -38697   -38833   -38947   -39000   -38862   -38508   -38392   -38586 
  -38599   -38537   -38668   -38719   -38730   -38830   -38777   -38671 
  -38654   -38574   -38578   -38729   -38765   -38728   -38693   -38564 
  -38541   -38680   -38691   -38643   -38705   -38699   -38635   -38669 
  -38758   -38888   -38867   -38582   -38564   -38897   -38926   -38701 
  -38692   -38756   -38714   -38670   -38521   -38344   -38535   -38825 
  -38657   -38472   -38714   -38858   -38729   -38786   -38968   -38906 
  -38701   -38750   -38998   -38876   -38560   -38698   -38804   -38401 
  -38207   -38434   -38537   -38584   -38791   -38896   -38839   -38718 
  -38452   -38285   -38457   -38659   -38761   -38879   -38878   -38832 
  -38912   -38834   -38576   -38630   -38933   -38980   -38825   -38672 
  -38492   -38585   -38857   -38638   -38338   -38655   -38871   -38536 
  -38393   -38611   -38726   -38662   -38568   -38668   -38941   -38915 
  -38656   -38760   -39013   -38833   -38565   -38649   -38684   -38495 
  -38443   -38551   -38707   -38797   -38679   -38680   -38877   -38774 
  -38636   -38832   -38700   -38332   -38619   -38925   -38555   -38498 
  -38918   -38779   -38438   -38699   -38989   -38848   -38669   -38598 
  -38596   -38658   -38660   -38679   -38737   -38699   -38674   -38707 
  -38716   -38730   -38677   -38661   -38855   -38781   -38289   -38258 
  -38715   -38740   -38570   -38758   -38849   -38734   -38745   -38718 
  -38687   -38894   -39027   -38797   -38575   -38767   -39030   -38881 
  -38669   -38746   -38756   -38495   -38192   -38193   -38643   -38981 
  -38740   -38492   -38593   -38605   -38579   -38686   -38609   -38619 
  -38898   -38824   -38589   -38689   -38672   -38541   -38729   -38898 
  -38819   -38682   -38549   -38599   -38755   -38670   -38639   -38933 
  -39014   -38722   -38643   -38789   -38761   -38679   -38639   -38598 
  -38704   -38710   -38534   -38616   -38662   -38341   -38361   -38845 
  -38977   -38770   -38808   -38888   -38675   -38500   -38549   -38668 
  -38795   -38773   -38674   -38807   -38882   -38667   -38660   -38850 
  -38747   -38548   -38478   -38437   -38633   -38910   -38752   -38500 
  -38699   -38920   -38676   -38499   -38837   -38969   -38598   -38594 
  -38891   -38634   -38340   -38767   -39176   -38935   -38598   -38511 
  -38480   -38533   -38651   -38701   -38760   -38798   -38755   -38753 
  -38674   -38395   -38275   -38467   -38649   -38766   -38880   -38837 
  -38660   -38548   -38667   -38888   -38871   -38771   -38807   -38726 
  -38563   -38553   -38667   -38874   -38985   -38744   -38472   -38631 
  -38911   -38788   -38500   -38481   -38580   -38610   -38717   -38826 
  -38724   -38572   -38620   -38812   -38940   -38820   -38531   -38460 
  -38668   -38757   -38662   -38648   -38706   -38695   -38673   -38744 
  -38761   -38609   -38533   -38582   -38538   -38591   -38814   -38769 
  -38562   -38663   -38849   -38918   -38964   -38732   -38462   -38658 
  -38784   -38560   -38635   -38843   -38719   -38694   -38808   -38689 
  -38647   -38665   -38446   -38540   -38928   -38802   -38588   -38833 
  -38825   -38533   -38659   -38839   -38663   -38587   -38678   -38674 
  -38668   -38696   -38790   -38892   -38659   -38351   -38559   -38819 
  -38617   -38547   -38789   -38742   -38482   -38457   -38596   -38697 
  -38715   -38679   -38700   -38782   -38829   -38825   -38761   -38697 
  -38734   -38694   -38509   -38494   -38672   -38741   -38685   -38744 
  -38975   -39058   -38822   -38599   -38606   -38721   -38818   -38809 
  -38778   -38847   -38747   -38449   -38507   -38788   -38621   -38405 
  -38653   -38779   -38620   -38650   -38705   -38610   -38632   -38734 
  -38772   -38764   -38613   -38495   -38699   -38891   -38769   -38660 
  -38696   -38664   -38682   -38834   -38746   -38416   -38394   -38697 
  -38823   -38717   -38741   -38883   -38743   -38443   -38496   -38698 
  -38629   -38612   -38781   -38704   -38578   -38804   -38888   -38572 
  -38488   -38780   -38920   -38786   -38560   -38448   -38693   -38967 
  -38780   -38585   -38759   -38776   -38653   -38849   -38921   -38639 
  -38687   -38965   -38780   -38429   -38461   -38655   -38697   -38656 
  -38696   -38763   -38665   -38549   -38700   -38864   -38728   -38569 
  -38588   -38608   -38668   -38781   -38728   -38683   -38795   -38761 
  -38668   -38759   -38740   -38576   -38595   -38664   -38561   -38501 
  -38664   -38804   -38679   -38531   -38644   -38773   -38659   -38573 
  -38671   -38735   -38734   -38727   -38712   -38784   -38806   -38615 
  -38471   -38597   -38836   -38900   -38789   -38828   -38948   -38722 
  -38357   -38390   -38680   -38821   -38786   -38700   -38693   -38688 
  -38529   -38542   -38847   -38906   -38765   -38850   -38884   -38736 
  -38679   -38540   -38440   -38722   -38787   -38456   -38547   -38857 
  -38682   -38422   -38529   -38755   -38798   -38648   -38626   -38740 
  -38551   -38440   -38907   -39112   -38739   -38683   -38804   -38574 
  -38490   -38656   -38659   -38616   -38678   -38789   -38825   -38676 
  -38670   -38846   -38725   -38607   -38860   -38880   -38559   -38446 
  -38468   -38475   -38675   -38890   -38843   -38777   -38843   -38781 
  -38730   -38929   -38843   -38310   -38141   -38524   -38851   -38884 
  -38743   -38570   -38477   -38493   -38605   -38615   -38456   -38506 
  -38767   -38775   -38697   -38900   -39076   -39030   -38949   -38818 
  -38634   -38514   -38551   -38815   -39012   -38851   -38555   -38388 
  -38476   -38690   -38568   -38348   -38659   -38918   -38589   -38450 
  -38701   -38762   -38761   -38861   -38864   -38779   -38551   -38376 
  -38667   -38945   -38766   -38766   -38986   -38852   -38789   -38936 
  -38555   -38118   -38505   -38926   -38660   -38477   -38830   -39075 
  -38825   -38524   -38599   -38795   -38633   -38271   -38343   -38760 
  -38809   -38574   -38603   -38761   -38755   -38672   -38564   -38575 
  -38836   -38899   -38640   -38715   -38983   -38736   -38351   -38431 
  -38624   -38658   -38751   -38819   -38732   -38709   -38737   -38609 
  -38547   -38801   -38992   -38858   -38743   -38748   -38652   -38564 
  -38686   -38837   -38754   -38701   -38939   -38958   -38546   -38377 
  -38517   -38480   -38582   -38994   -39107   -38913   -38777   -38537 
  -38245   -38234   -38438   -38594   -38636   -38764   -38999   -38921 
  -38631   -38626   -38662   -38607   -38758   -38813   -38747   -38971 
  -39043   -38685   -38527   -38636   -38545   -38347   -38292   -38399 
  -38659   -38834   -38677   -38503   -38620   -38744   -38693   -38726 
  -38871   -38886   -38720   -38538   -38517   -38647   -38770   -38819 
  -38932   -39093   -38923   -38592   -38664   -38791   -38600   -38555 
  -38629   -38504   -38604   -38981   -38978   -38645   -38544   -38575 
  -38496   -38520   -38625   -38609   -38693   -38852   -38775   -38758 
  -38952   -38922   -38792   -38846   -38758   -38562   -38600   -38651 
  -38587   -38612   -38580   -38470   -38617   -38848   -38769   -38589 
  -38628   -38741   -38606   -38332   -38433   -38810   -38900   -38865 
  -38857   -38602   -38461   -38653   -38695   -38623   -38692   -38716 
  -38699   -38730   -38716   -38728   -38816   -38870   -38840   -38722 
  -38615   -38541   -38449   -38521   -38664   -38658   -38817   -39022 
  -38823   -38665   -38792   -38695   -38550   -38732   -38842   -38743 
  -38742   -38672   -38503   -38604   -38729   -38534   -38438   -38655 
  -38743   -38648   -38723   -38785   -38577   -38422   -38444   -38368 
  -38399   -38772   -38988   -38861   -38912   -39053   -38940   -38857 
  -38824   -38693   -38749   -38769   -38431   -38351   -38740   -38895 
  -38768   -38745   -38675   -38604   -38731   -38779   -38680   -38664 
  -38665   -38628   -38627   -38657   -38671   -38605   -38556   -38687 
  -38881   -38879   -38630   -38474   -38710   -38990   -38910   -38685 
  -38583   -38521   -38468   -38519   -38631   -38679   -38664   -38672 
  -38725   -38792   -38832   -38784   -38662   -38574   -38608   -38762 
  -38886   -38823   -38637   -38493   -38512   -38710   -38868   -38822 
  -38681   -38567   -38577   -38677   -38594   -38451   -38731   -39111 
  -38868   -38384   -38384   -38595   -38657   -38727   -38751   -38662 
  -38692   -38830   -38919   -38941   -38790   -38574   -38636   -38793 
  -38655   -38427   -38438   -38588   -38710   -38825   -38946   -39033 
  -39015   -38924   -38859   -38677   -38419   -38451   -38591   -38461 
  -38352   -38508   -38660   -38691   -38670   -38574   -38608   -38829 
  -38753   -38522   -38750   -38962   -38690   -38648   -38959   -38967 
  -38837   -38854   -38771   -38709   -38747   -38613   -38495   -38531 
  -38464   -38521   -38931   -39124   -38775   -38469   -38596   -38663 
  -38361   -38246   -38608   -38913   -38837   -38671   -38720   -38868 
  -38773   -38525   -38563   -38822   -38896   -38848   -38847   -38696 
  -38446   -38476   -38770   -38906   -38687   -38515   -38692   -38766 
  -38601   -38746   -39031   -38817   -38441   -38444   -38518   -38445 
  -38483   -38659   -38804   -38868   -38868   -38820   -38751   -38732 
  -38772   -38783   -38673   -38549   -38615   -38647   -38501   -38539 
  -38725   -38805   -38965   -39047   -38749   -38484   -38505   -38512 
  -38616   -38896   -38854   -38655   -38834   -38927   -38654   -38520 
  -38458   -38336   -38509   -38684   -38481   -38382   -38659   -38971 
  -39148   -39150   -38923   -38650   -38536   -38564   -38615   -38614 
  -38603   -38630   -38646   -38599   -38551   -38678   -38922   -38959 
  -38761   -38566   -38486   -38556   -38680   -38656   -38571   -38629 
  -38741   -38789   -38818   -38771   -38650   -38664   -38769   -38718 
  -38649   -38694   -38615   -38506   -38657   -38825   -38787   -38669 
