Origin Time       2024/06/23 22:54:00
Lat.              35.645
Long.             140.060
Depth. (km)       72
Mag.              4.1
Station Code      TCGH08
Station Lat.      36.8828
Station Long.     139.6459
Station Height(m) 499
Record Time       2024/06/23 22:55:07
Sampling Freq(Hz) 100Hz
Duration Time(s)  120
Dir.              3
Scale Factor      2942(gal)/8224139
Max. Acc. (gal)   0.118
Last Correction   2024/06/23 22:55:07
Memo.             
[...]
  -86756   -86792   -86826   -86818   -86821   -86848   -86833   -86798 
  -86807   -86821   -86792   -86760   -86768   -86788   -86773   -86771 
  -86806   -86813   -86794   -86771   -86742   -86755   -86821   -86875 
  -86873   -86852   -86849   -86842   -86788   -86718   -86718   -86796 
  -86873   -86887   -86838   -86802   -86800   -86778   -86749   -86752 
  -86755   -86752   -86772   -86791   -86778   -86767   -86784   -86825 
  -86881   -86900   -86849   -86809   -86807   -86802   -86788   -86765 
  -86752   -86783   -86805   -86779   -86783   -86836   -86846   -86792 
  -86741   -86710   -86697   -86768   -86891   -86954   -86949   -86918 
  -86890   -86852   -86784   -86760   -86811   -86822   -86779   -86786 
  -86817   -86776   -86707   -86699   -86746   -86799   -86834   -86849 
  -86846   -86825   -86791   -86782   -86802   -86810   -86791   -86783 
  -86813   -86853   -86859   -86825   -86790   -86792   -86817   -86809 
  -86767   -86744   -86769   -86803   -86819   -86830   -86819   -86786 
  -86772   -86767   -86768   -86800   -86838   -86861   -86871   -86860 
  -86827   -86779   -86741   -86760   -86819   -86857   -86834   -86773 
  -86732   -86719   -86745   -86815   -86857   -86857   -86875   -86872 
  -86800   -86725   -86724   -86751   -86769   -86829   -86857   -86786 
  -86724   -86730   -86776   -86837   -86864   -86863   -86846   -86784 
  -86728   -86737   -86767   -86776   -86796   -86822   -86815   -86796 
  -86792   -86765   -86732   -86764   -86841   -86879   -86872   -86864 
  -86850   -86829   -86830   -86832   -86787   -86752   -86757   -86771 
  -86787   -86795   -86778   -86738   -86728   -86807   -86904   -86902 
  -86844   -86833   -86854   -86842   -86810   -86791   -86772   -86745 
  -86748   -86779   -86779   -86749   -86759   -86806   -86832   -86842 
  -86852   -86825   -86784   -86772   -86775   -86786   -86815   -86852 
  -86859   -86815   -86784   -86794   -86787   -86738   -86709   -86749 
  -86813   -86806   -86769   -86787   -86817   -86818   -86840   -86864 
  -86845   -86802   -86757   -86746   -86807   -86865   -86845   -86833 
  -86864   -86871   -86849   -86788   -86706   -86678   -86710   -86787 
  -86879   -86895   -86836   -86776   -86728   -86711   -86760   -86822 
  -86867   -86900   -86892   -86856   -86845   -86806   -86718   -86694 
  -86742   -86767   -86799   -86868   -86867   -86787   -86737   -86756 
  -86803   -86823   -86798   -86769   -86772   -86795   -86822   -86832 
  -86818   -86810   -86810   -86799   -86813   -86849   -86826   -86744 
  -86692   -86701   -86746   -86795   -86823   -86838   -86857   -86879 
  -86886   -86837   -86767   -86757   -86798   -86827   -86832   -86795 
  -86725   -86701   -86730   -86755   -86778   -86842   -86899   -86873 
  -86807   -86782   -86794   -86799   -86809   -86829   -86840   -86840 
  -86814   -86755   -86718   -86737   -86780   -86825   -86825   -86784 
  -86798   -86849   -86863   -86850   -86811   -86756   -86760   -86815 
  -86844   -86846   -86830   -86780   -86741   -86737   -86742   -86759 
  -86768   -86756   -86764   -86806   -86853   -86869   -86841   -86795 
  -86778   -86794   -86803   -86795   -86800   -86817   -86815   -86803 
  -86806   -86800   -86761   -86736   -86768   -86829   -86852   -86806 
  -86740   -86719   -86752   -86798   -86836   -86875   -86899   -86872 
  -86834   -86838   -86826   -86768   -86752   -86788   -86817   -86829 
  -86823   -86794   -86760   -86744   -86765   -86802   -86807   -86794 
  -86795   -86826   -86865   -86871   -86842   -86810   -86795   -86796 
  -86787   -86775   -86786   -86798   -86791   -86796   -86822   -86813 
  -86765   -86742   -86757   -86783   -86832   -86881   -86879   -86845 
  -86813   -86787   -86788   -86807   -86795   -86763   -86748   -86740 
  -86745   -86771   -86782   -86792   -86821   -86818   -86798   -86802 
  -86790   -86780   -86815   -86841   -86837   -86845   -86838   -86791 
  -86753   -86755   -86788   -86818   -86819   -86803   -86775   -86746 
  -86744   -86776   -86821   -86848   -86854   -86833   -86792   -86783 
  -86798   -86806   -86838   -86880   -86891   -86865   -86791   -86717 
  -86709   -86729   -86756   -86790   -86794   -86776   -86756   -86745 
  -86760   -86800   -86850   -86899   -86915   -86894   -86857   -86826 
  -86814   -86800   -86771   -86767   -86792   -86790   -86757   -86742 
  -86772   -86821   -86848   -86841   -86807   -86778   -86786   -86805 
  -86800   -86814   -86868   -86895   -86864   -86815   -86775   -86745 
  -86722   -86695   -86692   -86740   -86794   -86810   -86810   -86811 
  -86805   -86799   -86818   -86826   -86805   -86805   -86840   -86868 
  -86865   -86832   -86779   -86726   -86729   -86794   -86827   -86814 
  -86818   -86814   -86779   -86763   -86772   -86802   -86848   -86872 
  -86864   -86857   -86852   -86833   -86818   -86815   -86807   -86802 
  -86814   -86814   -86792   -86784   -86769   -86759   -86791   -86803 
  -86783   -86798   -86810   -86788   -86772   -86741   -86714   -86737 
  -86776   -86803   -86830   -86841   -86840   -86834   -86817   -86800 
  -86806   -86823   -86838   -86854   -86845   -86783   -86733   -86737 
  -86753   -86773   -86813   -86834   -86796   -86737   -86729   -86780 
  -86829   -86853   -86877   -86884   -86871   -86868   -86868   -86842 
  -86811   -86810   -86837   -86834   -86782   -86724   -86695   -86707 
  -86748   -86787   -86821   -86830   -86798   -86796   -86846   -86852 
  -86827   -86840   -86848   -86815   -86765   -86740   -86749   -86767 
  -86784   -86810   -86825   -86825   -86821   -86794   -86757   -86767 
  -86817   -86861   -86868   -86844   -86803   -86756   -86737   -86753 
  -86787   -86826   -86833   -86806   -86794   -86792   -86776   -86761 
  -86771   -86815   -86863   -86867   -86834   -86782   -86738   -86749 
  -86794   -86834   -86859   -86845   -86814   -86790   -86760   -86753 
  -86761   -86753   -86775   -86841   -86877   -86852   -86809   -86783 
  -86778   -86787   -86813   -86853   -86859   -86805   -86748   -86722 
  -86726   -86760   -86813   -86857   -86876   -86876   -86856   -86806 
  -86757   -86764   -86799   -86811   -86832   -86857   -86822   -86768 
  -86772   -86791   -86790   -86809   -86827   -86815   -86810   -86819 
  -86830   -86838   -86815   -86788   -86818   -86846   -86815   -86786 
  -86776   -86748   -86722   -86734   -86757   -86768   -86768   -86778 
  -86813   -86829   -86811   -86814   -86841   -86846   -86833   -86821 
  -86800   -86765   -86746   -86767   -86792   -86795   -86783   -86765 
  -86767   -86779   -86772   -86787   -86836   -86849   -86810   -86776 
  -86787   -86834   -86877   -86888   -86875   -86848   -86822   -86794 
  -86764   -86771   -86787   -86782   -86795   -86833   -86848   -86832 
  -86807   -86796   -86788   -86780   -86794   -86830   -86856   -86848 
  -86825   -86796   -86764   -86757   -86769   -86776   -86786   -86796 
  -86790   -86768   -86760   -86778   -86799   -86800   -86803   -86823 
  -86827   -86805   -86800   -86827   -86850   -86854   -86841   -86806 
  -86790   -86817   -86834   -86806   -86778   -86784   -86799   -86794 
  -86794   -86794   -86773   -86761   -86778   -86809   -86850   -86881 
  -86867   -86827   -86815   -86819   -86809   -86790   -86778   -86783 
  -86786   -86764   -86746   -86749   -86755   -86780   -86810   -86786 
  -86745   -86757   -86790   -86823   -86877   -86907   -86880   -86836 
  -86811   -86805   -86787   -86763   -86753   -86745   -86742   -86752 
  -86764   -86771   -86773   -86786   -86815   -86838   -86854   -86880 
  -86900   -86894   -86854   -86807   -86791   -86811   -86840   -86842 
  -86811   -86769   -86752   -86760   -86765   -86760   -86768   -86817 
  -86860   -86834   -86776   -86778   -86823   -86848   -86844   -86845 
  -86856   -86834   -86795   -86773   -86768   -86776   -86778   -86771 
  -86791   -86802   -86776   -86746   -86742   -86773   -86807   -86821 
  -86856   -86880   -86853   -86829   -86821   -86807   -86807   -86803 
  -86782   -86776   -86794   -86802   -86782   -86748   -86734   -86751 
  -86788   -86818   -86798   -86772   -86806   -86848   -86857   -86860 
  -86859   -86853   -86838   -86813   -86799   -86800   -86807   -86807 
  -86783   -86745   -86736   -86752   -86755   -86746   -86751   -86772 
  -86796   -86802   -86779   -86759   -86780   -86825   -86863   -86890 
  -86892   -86854   -86796   -86779   -86792   -86778   -86756   -86764 
  -86778   -86787   -86802   -86800   -86780   -86778   -86800   -86818 
  -86822   -86850   -86887   -86877   -86842   -86826   -86819   -86802 
  -86773   -86755   -86759   -86775   -86796   -86814   -86821   -86817 
  -86796   -86773   -86773   -86791   -86825   -86856   -86845   -86818 
  -86803   -86783   -86778   -86779   -86782   -86799   -86795   -86778 
  -86792   -86805   -86807   -86844   -86876   -86848   -86805   -86803 
  -86818   -86800   -86765   -86761   -86780   -86784   -86776   -86779 
  -86798   -86811   -86795   -86783   -86800   -86811   -86818   -86837 
  -86854   -86853   -86844   -86833   -86809   -86791   -86799   -86798 
  -86773   -86753   -86773   -86814   -86822   -86803   -86782   -86767 
  -86776   -86798   -86806   -86802   -86802   -86809   -86822   -86826 
  -86814   -86809   -86827   -86837   -86821   -86794   -86778   -86779 
  -86787   -86799   -86810   -86807   -86806   -86810   -86806   -86794 
  -86798   -86823   -86833   -86805   -86790   -86813   -86815   -86787 
  -86787   -86815   -86815   -86787   -86767   -86765   -86769   -86780 
  -86813   -86856   -86859   -86826   -86810   -86792   -86756   -86734 
  -86752   -86778   -86782   -86779   -86784   -86791   -86795   -86803 
  -86818   -86841   -86846   -86832   -86833   -86861   -86886   -86891 
  -86880   -86867   -86857   -86836   -86803   -86775   -86760   -86742 
  -86715   -86698   -86701   -86733   -86775   -86791   -86806   -86834 
  -86850   -86850   -86859   -86871   -86868   -86832   -86763   -86711 
  -86719   -86768   -86818   -86845   -86832   -86783   -86767   -86817 
  -86864   -86873   -86879   -86865   -86830   -86803   -86786   -86792 
  -86829   -86840   -86803   -86759   -86721   -86690   -86665   -86661 
  -86698   -86760   -86818   -86846   -86867   -86899   -86894   -86838 
  -86786   -86768   -86788   -86811   -86809   -86806   -86800   -86782 
  -86765   -86757   -86765   -86782   -86792   -86803   -86822   -86844 
  -86846   -86827   -86829   -86853   -86860   -86849   -86856   -86856 
  -86813   -86763   -86757   -86787   -86813   -86821   -86814   -86795 
  -86771   -86746   -86715   -86691   -86694   -86710   -86737   -86764 
  -86786   -86813   -86829   -86840   -86873   -86899   -86908   -86925 
  -86908   -86853   -86818   -86790   -86746   -86740   -86772   -86769 
  -86722   -86711   -86768   -86819   -86822   -86814   -86825   -86846 
  -86853   -86842   -86822   -86795   -86791   -86803   -86782   -86752 
  -86746   -86746   -86764   -86794   -86769   -86730   -86764   -86815 
  -86826   -86860   -86911   -86890   -86819   -86787   -86811   -86861 
  -86907   -86904   -86817   -86719   -86726   -86783   -86799   -86798 
  -86805   -86806   -86829   -86863   -86871   -86860   -86854   -86852 
  -86830   -86786   -86752   -86757   -86773   -86773   -86759   -86761 
  -86813   -86845   -86817   -86786   -86764   -86732   -86730   -86775 
  -86813   -86800   -86759   -86729   -86726   -86732   -86749   -86805 
  -86861   -86876   -86895   -86915   -86876   -86811   -86787   -86778 
  -86767   -86782   -86802   -86799   -86809   -86832   -86811   -86776 
  -86795   -86832   -86829   -86815   -86814   -86814   -86815   -86809 
  -86796   -86803   -86817   -86817   -86822   -86841   -86846   -86806 
  -86757   -86756   -86790   -86802   -86800   -86826   -86848   -86829 
  -86798   -86775   -86772   -86788   -86794   -86795   -86807   -86836 
  -86861   -86844   -86786   -86757   -86768   -86778   -86791   -86830 
  -86877   -86886   -86825   -86755   -86732   -86726   -86725   -86779 
  -86871   -86908   -86868   -86809   -86788   -86814   -86845   -86845 
  -86832   -86833   -86832   -86810   -86787   -86775   -86776   -86800 
  -86815   -86800   -86805   -86834   -86861   -86888   -86888   -86852 
  -86799   -86736   -86713   -86765   -86823   -86826   -86792   -86745 
  -86714   -86715   -86705   -86660   -86661   -86744   -86818   -86836 
  -86814   -86791   -86805   -86818   -86821   -86861   -86908   -86915 
  -86914   -86906   -86854   -86790   -86782   -86842   -86900   -86891 
  -86830   -86775   -86757   -86736   -86714   -86779   -86872   -86884 
  -86890   -86954   -86991   -86931   -86829   -86734   -86675   -86649 
  -86656   -86714   -86782   -86829   -86881   -86906   -86871   -86838 
  -86818   -86794   -86815   -86859   -86822   -86733   -86668   -86637 
  -86614   -86601   -86651   -86748   -86782   -86768   -86768   -86755 
  -86738   -86755   -86768   -86780   -86825   -86895   -86956   -86989 
  -87010   -87023   -87002   -86927   -86845   -86799   -86784   -86798 
  -86852   -86919   -86933   -86880   -86798   -86701   -86622   -86613 
  -86671   -86761   -86827   -86844   -86832   -86811   -86780   -86730 
  -86682   -86674   -86710   -86772   -86829   -86849   -86841   -86837 
  -86844   -86840   -86830   -86850   -86883   -86875   -86836   -86827 
  -86832   -86791   -86725   -86698   -86719   -86744   -86757   -86791 
  -86838   -86864   -86871   -86887   -86891   -86879   -86869   -86872 
  -86876   -86845   -86764   -86680   -86641   -86649   -86691   -86768 
  -86869   -86977   -87080   -87133   -87080   -86946   -86784   -86634 
  -86560   -86568   -86609   -86675   -86744   -86776   -86784   -86769 
  -86726   -86698   -86692   -86697   -86730   -86775   -86791   -86783 
  -86778   -86805   -86861   -86903   -86907   -86899   -86896   -86883 
  -86853   -86827   -86815   -86815   -86834   -86875   -86911   -86940 
  -86954   -86935   -86904   -86883   -86860   -86850   -86859   -86861 
  -86853   -86819   -86760   -86711   -86691   -86706   -86722   -86680 
  -86626   -86634   -86680   -86728   -86787   -86825   -86822   -86811 
  -86805   -86776   -86733   -86705   -86702   -86730   -86805   -86884 
  -86917   -86922   -86919   -86899   -86879   -86872   -86871   -86861 
  -86840   -86819   -86813   -86822   -86826   -86790   -86724   -86678 
  -86664   -86643   -86597   -86587   -86626   -86675   -86719   -86767 
  -86823   -86888   -86941   -86965   -86948   -86884   -86818   -86788 
  -86800   -86845   -86891   -86898   -86867   -86840   -86817   -86776 
  -86746   -86746   -86773   -86841   -86927   -86980   -86965   -86900 
  -86854   -86852   -86841   -86829   -86846   -86857   -86849   -86829 
  -86794   -86764   -86767   -86763   -86717   -86661   -86653   -86714 
  -86803   -86860   -86881   -86871   -86827   -86763   -86668   -86598 
  -86610   -86657   -86706   -86764   -86809   -86807   -86768   -86749 
  -86776   -86838   -86895   -86888   -86854   -86873   -86919   -86925 
  -86894   -86865   -86836   -86795   -86765   -86773   -86803   -86800 
  -86786   -86807   -86830   -86817   -86788   -86784   -86814   -86865 
  -86888   -86856   -86815   -86790   -86775   -86786   -86787   -86763 
  -86759   -86768   -86759   -86732   -86709   -86699   -86697   -86724 
  -86773   -86786   -86778   -86811   -86859   -86887   -86899   -86877 
  -86836   -86818   -86815   -86821   -86865   -86913   -86933   -86940 
  -86906   -86829   -86769   -86755   -86759   -86772   -86779   -86782 
  -86809   -86836   -86829   -86819   -86830   -86836   -86819   -86794 
  -86768   -86744   -86721   -86703   -86714   -86752   -86773   -86755 
  -86725   -86734   -86796   -86890   -86968   -86991   -86973   -86958 
  -86950   -86921   -86853   -86787   -86755   -86740   -86719   -86707 
  -86710   -86714   -86722   -86765   -86827   -86849   -86832   -86826 
  -86849   -86856   -86825   -86788   -86772   -86767   -86765   -86756 
  -86742   -86749   -86761   -86756   -86772   -86803   -86805   -86792 
  -86782   -86767   -86778   -86810   -86807   -86769   -86738   -86725 
  -86730   -86751   -86779   -86822   -86860   -86871   -86876   -86883 
  -86900   -86938   -86967   -86980   -87002   -86994   -86935   -86888 
  -86879   -86879   -86853   -86809   -86768   -86740   -86738   -86745 
  -86737   -86732   -86737   -86748   -86760   -86756   -86745   -86742 
  -86753   -86763   -86732   -86692   -86683   -86674   -86657   -86672 
  -86728   -86800   -86853   -86857   -86814   -86771   -86779   -86821 
  -86841   -86833   -86833   -86854   -86892   -86910   -86899   -86903 
  -86926   -86925   -86884   -86827   -86788   -86771   -86760   -86759 
  -86753   -86736   -86724   -86728   -86768   -86833   -86867   -86844 
  -86826   -86854   -86875   -86846   -86791   -86751   -86757   -86784 
  -86771   -86732   -86721   -86742   -86761   -86769   -86800   -86860 
  -86895   -86873   -86830   -86800   -86782   -86780   -86799   -86803 
  -86800   -86819   -86852   -86875   -86877   -86867   -86860   -86850 
  -86829   -86805   -86772   -86744   -86767   -86809   -86821   -86819 
  -86802   -86757   -86717   -86702   -86728   -86794   -86861   -86898 
  -86899   -86853   -86776   -86719   -86699   -86717   -86778   -86838 
  -86848   -86817   -86786   -86778   -86788   -86790   -86783   -86794 
  -86805   -86803   -86796   -86772   -86764   -86815   -86868   -86872 
  -86861   -86849   -86819   -86788   -86783   -86791   -86810   -86841 
  -86853   -86842   -86829   -86814   -86799   -86786   -86769   -86753 
  -86746   -86756   -86783   -86807   -86814   -86817   -86810   -86773 
  -86740   -86738   -86745   -86740   -86751   -86795   -86846   -86876 
  -86898   -86934   -86961   -86937   -86877   -86834   -86813   -86783 
  -86763   -86776   -86784   -86771   -86772   -86772   -86757   -86767 
  -86787   -86790   -86798   -86796   -86780   -86796   -86837   -86856 
  -86854   -86841   -86817   -86768   -86706   -86694   -86732   -86745 
  -86741   -86761   -86792   -86829   -86853   -86845   -86822   -86814 
  -86822   -86845   -86873   -86877   -86868   -86867   -86844   -86794 
  -86752   -86738   -86748   -86767   -86788   -86833   -86884   -86907 
  -86917   -86910   -86868   -86814   -86772   -86759   -86769   -86771 
  -86779   -86815   -86826   -86800   -86778   -86763   -86748   -86752 
  -86769   -86780   -86784   -86782   -86767   -86757   -86769   -86799 
  -86837   -86853   -86836   -86825   -86833   -86819   -86794   -86787 
  -86799   -86813   -86809   -86800   -86800   -86792   -86803   -86813 
  -86795   -86805   -86833   -86817   -86787   -86780   -86780   -86779 
  -86780   -86791   -86815   -86832   -86823   -86807   -86795   -86792 
  -86798   -86806   -86819   -86850   -86886   -86888   -86850   -86809 
  -86778   -86751   -86753   -86780   -86788   -86790   -86803   -86825 
  -86845   -86850   -86842   -86846   -86850   -86838   -86821   -86798 
  -86775   -86768   -86786   -86805   -86814   -86819   -86817   -86805 
  -86794   -86782   -86769   -86755   -86748   -86763   -86772   -86763 
  -86760   -86780   -86802   -86802   -86798   -86798   -86790   -86787 
  -86792   -86795   -86796   -86802   -86813   -86829   -86836   -86840 
  -86853   -86879   -86895   -86900   -86900   -86880   -86833   -86784 
  -86760   -86760   -86775   -86791   -86798   -86792   -86780   -86755 
  -86733   -86752   -86796   -86815   -86806   -86791   -86786   -86794 
