Origin Time       2024/06/23 22:54:00
Lat.              35.645
Long.             140.060
Depth. (km)       72
Mag.              4.1
Station Code      TCGH12
Station Lat.      36.6959
Station Long.     139.9842
Station Height(m) 162
Record Time       2024/06/23 22:55:00
Sampling Freq(Hz) 100Hz
Duration Time(s)  120
Dir.              6
Scale Factor      7845(gal)/8223790
Max. Acc. (gal)   0.833
Last Correction   2024/06/23 22:55:00
Memo.             
  -20517   -21078   -21386   -21297   -20875   -20344   -19994   -19967 
  -20297   -20891   -21394   -21404   -20839   -20097   -19770   -20096 
  -20804   -21406   -21471   -20965   -20282   -19858   -19955   -20528 
  -21120   -21270   -20965   -20505   -20251   -20375   -20669   -20845 
  -20834   -20700   -20568   -20513   -20520   -20619   -20764   -20765 
  -20628   -20529   -20582   -20760   -20860   -20695   -20428   -20341 
  -20509   -20784   -20920   -20848   -20711   -20556   -20387   -20380 
  -20619   -20903   -21004   -20831   -20449   -20162   -20252   -20630 
  -20984   -21108   -20956   -20609   -20301   -20241   -20421   -20709 
  -20947   -20979   -20795   -20557   -20386   -20378   -20605   -20871 
  -20904   -20713   -20475   -20395   -20526   -20710   -20814   -20814 
  -20726   -20583   -20428   -20375   -20526   -20810   -21023   -20968 
  -20649   -20345   -20321   -20521   -20700   -20761   -20736   -20676 
  -20660   -20660   -20629   -20653   -20675   -20602   -20534   -20537 
  -20609   -20741   -20798   -20704   -20603   -20615   -20672   -20633 
  -20521   -20506   -20641   -20796   -20831   -20719   -20542   -20443 
  -20525   -20714   -20811   -20734   -20610   -20565   -20596   -20680 
  -20731   -20659   -20569   -20553   -20556   -20622   -20752   -20783 
  -20711   -20642   -20569   -20506   -20540   -20646   -20725   -20738 
  -20715   -20671   -20615   -20592   -20617   -20628   -20617   -20634 
  -20657   -20646   -20626   -20586   -20555   -20657   -20865   -20930 
  -20718   -20395   -20209   -20302   -20672   -21051   -21099   -20810 
  -20439   -20247   -20347   -20645   -20965   -21081   -20833   -20420 
  -20268   -20524   -20818   -20790   -20571   -20453   -20540   -20771 
  -20893   -20749   -20563   -20540   -20610   -20680   -20703   -20664 
  -20626   -20609   -20617   -20696   -20729   -20560   -20349   -20329 
  -20517   -20798   -21003   -20976   -20704   -20407   -20336   -20490 
  -20791   -21141   -21227   -20861   -20320   -20002   -20065   -20439 
  -20907   -21120   -20893   -20471   -20224   -20295   -20615   -20950 
  -21065   -20960   -20764   -20541   -20391   -20445   -20661   -20875 
  -20892   -20629   -20264   -20109   -20298   -20709   -21099   -21242 
  -21020   -20537   -20104   -20065   -20517   -21104   -21286   -20946 
  -20463   -20164   -20163   -20464   -20889   -21166   -21138   -20764 
  -20210   -19896   -20106   -20696   -21253   -21382   -20989   -20416 
  -20117   -20247   -20605   -20938   -21041   -20804   -20468   -20331 
  -20378   -20579   -20844   -20865   -20660   -20553   -20584   -20655 
  -20753   -20752   -20580   -20459   -20549   -20692   -20753   -20790 
  -20750   -20557   -20394   -20467   -20706   -20900   -20911   -20744 
  -20497   -20314   -20347   -20590   -20881   -21077   -21055   -20740 
  -20325   -20187   -20387   -20632   -20775   -20875   -20885   -20734 
  -20520   -20380   -20390   -20568   -20753   -20723   -20578   -20580 
  -20749   -20865   -20750   -20532   -20495   -20634   -20757   -20798 
  -20659   -20389   -20295   -20490   -20822   -21116   -21139   -20784 
  -20244   -19940   -20200   -20818   -21265   -21251   -20842   -20336 
  -20081   -20256   -20722   -21089   -21084   -20772   -20379   -20147 
  -20260   -20611   -20907   -21034   -21012   -20775   -20390   -20175 
  -20298   -20671   -21026   -21027   -20698   -20389   -20295   -20434 
  -20756   -21054   -21046   -20691   -20274   -20146   -20410   -20865 
  -21149   -21027   -20621   -20255   -20158   -20336   -20660   -20920 
  -20926   -20761   -20684   -20715   -20727   -20669   -20542   -20440 
  -20453   -20503   -20544   -20702   -20927   -20973   -20788   -20529 
  -20362   -20432   -20696   -20841   -20729   -20622   -20602   -20486 
  -20439   -20653   -20857   -20845   -20703   -20511   -20387   -20434 
  -20617   -20846   -20988   -20952   -20741   -20434   -20229   -20336 
  -20730   -21038   -20935   -20590   -20331   -20272   -20474   -20841 
  -21039   -20925   -20656   -20406   -20325   -20486   -20734   -20885 
  -20880   -20730   -20545   -20453   -20497   -20687   -20846   -20723 
  -20440   -20289   -20380   -20649   -20903   -21012   -20957   -20721 
  -20425   -20268   -20336   -20598   -20875   -20927   -20767   -20633 
  -20640   -20640   -20521   -20440   -20580   -20835   -20949   -20817 
  -20544   -20382   -20487   -20664   -20663   -20580   -20630   -20785 
  -20866   -20779   -20609   -20510   -20499   -20532   -20601   -20655 
  -20661   -20659   -20642   -20587   -20582   -20695   -20811   -20803 
  -20696   -20541   -20418   -20451   -20629   -20835   -20950   -20852 
  -20549   -20312   -20380   -20636   -20798   -20780   -20607   -20424 
  -20501   -20814   -21030   -21004   -20800   -20488   -20250   -20291 
  -20563   -20862   -21027   -20903   -20521   -20209   -20217   -20471 
  -20764   -20946   -20954   -20792   -20522   -20326   -20414   -20740 
  -21028   -21027   -20657   -20171   -20032   -20390   -20904   -21184 
  -21101   -20730   -20310   -20191   -20464   -20850   -21041   -20895 
  -20534   -20331   -20493   -20787   -20885   -20756   -20556   -20428 
  -20439   -20536   -20668   -20811   -20833   -20653   -20437   -20403 
  -20572   -20779   -20908   -20920   -20803   -20607   -20390   -20275 
  -20451   -20846   -21084   -20880   -20403   -20148   -20339   -20791 
  -21188   -21230   -20898   -20483   -20206   -20150   -20344   -20696 
  -20960   -20873   -20555   -20412   -20545   -20740   -20848   -20858 
  -20780   -20630   -20501   -20440   -20433   -20549   -20765   -20895 
  -20883   -20807   -20668   -20430   -20244   -20313   -20607   -20923 
  -20993   -20684   -20331   -20358   -20660   -20872   -20880   -20800 
  -20696   -20533   -20360   -20395   -20717   -20993   -20953   -20691 
  -20459   -20467   -20648   -20733   -20667   -20578   -20587   -20690 
  -20722   -20601   -20484   -20514   -20567   -20541   -20586   -20784 
  -20956   -20898   -20636   -20401   -20344   -20451   -20672   -20891 
  -20960   -20842   -20569   -20241   -20128   -20453   -21001   -21242 
  -21014   -20610   -20293   -20260   -20595   -20943   -20906   -20602 
  -20372   -20340   -20524   -20856   -21042   -20893   -20613   -20470 
  -20487   -20564   -20653   -20700   -20596   -20444   -20524   -20796 
  -20943   -20880   -20725   -20533   -20399   -20474   -20676   -20802 
  -20845   -20815   -20641   -20434   -20358   -20410   -20555   -20736 
  -20835   -20834   -20771   -20582   -20358   -20452   -20860   -21084 
  -20853   -20387   -20119   -20297   -20746   -21082   -21100   -20848 
  -20486   -20175   -20127   -20456   -20937   -21180   -21006   -20583 
  -20286   -20371   -20721   -20934   -20780   -20470   -20318   -20398 
  -20660   -20991   -21134   -20925   -20553   -20250   -20092   -20252 
  -20717   -21057   -21046   -20808   -20491   -20275   -20348   -20684 
  -20992   -21010   -20795   -20538   -20374   -20378   -20510   -20702 
  -20879   -20929   -20838   -20648   -20453   -20448   -20583   -20645 
  -20686   -20748   -20686   -20557   -20491   -20506   -20690   -20946 
  -20927   -20590   -20286   -20278   -20494   -20738   -20910   -20916 
  -20741   -20580   -20555   -20588   -20633   -20665   -20677   -20684 
  -20637   -20565   -20557   -20592   -20653   -20733   -20688   -20553 
  -20574   -20698   -20707   -20672   -20687   -20671   -20622   -20595 
  -20599   -20646   -20676   -20582   -20455   -20494   -20726   -20947 
  -20953   -20763   -20518   -20321   -20289   -20515   -20898   -21168 
  -21123   -20796   -20409   -20183   -20196   -20407   -20710   -20942 
  -21022   -20918   -20613   -20295   -20237   -20483   -20841   -21060 
  -20991   -20667   -20332   -20274   -20524   -20835   -20941   -20792 
  -20533   -20332   -20321   -20537   -20846   -20974   -20776   -20452 
  -20302   -20426   -20727   -20965   -20934   -20737   -20564   -20436 
  -20399   -20541   -20756   -20852   -20768   -20638   -20601   -20606 
  -20575   -20576   -20664   -20791   -20877   -20834   -20641   -20426 
  -20366   -20491   -20661   -20737   -20721   -20652   -20559   -20538 
  -20623   -20710   -20757   -20803   -20788   -20692   -20602   -20564 
  -20572   -20587   -20587   -20619   -20707   -20772   -20727   -20578 
  -20386   -20285   -20451   -20764   -20922   -20873   -20671   -20426 
  -20407   -20611   -20780   -20827   -20775   -20664   -20582   -20567 
  -20614   -20702   -20760   -20719   -20641   -20676   -20814   -20815 
  -20601   -20376   -20291   -20402   -20690   -20880   -20783   -20586 
  -20487   -20507   -20641   -20818   -20907   -20864   -20702   -20447 
  -20254   -20278   -20518   -20853   -21031   -20942   -20771   -20642 
  -20576   -20667   -20827   -20796   -20536   -20279   -20247   -20457 
  -20764   -20969   -20910   -20661   -20501   -20533   -20679   -20844 
  -20858   -20611   -20293   -20201   -20416   -20796   -21088   -21050 
  -20700   -20358   -20290   -20457   -20640   -20719   -20740   -20694 
  -20595   -20609   -20772   -20914   -20945   -20852   -20575   -20282 
  -20322   -20648   -20845   -20738   -20499   -20380   -20488   -20694 
  -20822   -20817   -20749   -20745   -20784   -20718   -20521   -20403 
  -20517   -20668   -20663   -20610   -20542   -20440   -20487   -20702 
  -20879   -20980   -20974   -20727   -20343   -20129   -20244   -20595 
  -20938   -21053   -20910   -20610   -20366   -20380   -20622   -20873 
  -20931   -20756   -20505   -20379   -20479   -20719   -20873   -20812 
  -20636   -20490   -20452   -20545   -20734   -20889   -20888   -20752 
  -20605   -20525   -20499   -20513   -20584   -20717   -20844   -20810 
  -20582   -20383   -20410   -20618   -20803   -20791   -20602   -20417 
  -20424   -20648   -20888   -20965   -20884   -20659   -20362   -20229 
  -20374   -20655   -20915   -21072   -21001   -20707   -20453   -20402 
  -20463   -20578   -20695   -20710   -20646   -20632   -20665   -20648 
  -20590   -20563   -20582   -20660   -20750   -20783   -20779   -20709 
  -20567   -20466   -20430   -20433   -20565   -20819   -20993   -20979 
  -20787   -20468   -20254   -20343   -20599   -20783   -20790   -20633 
  -20479   -20522   -20726   -20891   -20879   -20688   -20479   -20441 
  -20557   -20690   -20798   -20815   -20686   -20576   -20609   -20668 
  -20690   -20676   -20544   -20336   -20272   -20428   -20704   -20966 
  -21057   -20941   -20745   -20557   -20394   -20355   -20509   -20714 
  -20802   -20741   -20583   -20499   -20619   -20800   -20876   -20892 
  -20860   -20672   -20325   -20047   -20155   -20671   -21177   -21263 
  -20904   -20428   -20213   -20268   -20428   -20738   -21065   -21070 
  -20758   -20399   -20258   -20475   -20833   -20958   -20791   -20561 
  -20437   -20439   -20569   -20783   -20938   -20885   -20605   -20306 
  -20256   -20482   -20760   -20866   -20787   -20629   -20528   -20586 
  -20733   -20827   -20811   -20655   -20424   -20301   -20406   -20719 
  -21019   -21046   -20784   -20445   -20271   -20380   -20692   -20954 
  -20938   -20711   -20491   -20379   -20452   -20664   -20819   -20834 
  -20682   -20444   -20386   -20561   -20742   -20790   -20719   -20625 
  -20622   -20676   -20655   -20567   -20557   -20630   -20683   -20727 
  -20764   -20723   -20634   -20544   -20487   -20551   -20715   -20848 
  -20812   -20601   -20405   -20407   -20592   -20821   -20931   -20811 
  -20561   -20399   -20407   -20560   -20772   -20892   -20850   -20703 
  -20525   -20418   -20471   -20621   -20746   -20780   -20717   -20632 
  -20619   -20655   -20675   -20717   -20790   -20784   -20644   -20463 
  -20372   -20448   -20644   -20795   -20812   -20737   -20634   -20579 
  -20609   -20659   -20671   -20637   -20578   -20534   -20578   -20727 
  -20873   -20871   -20688   -20429   -20308   -20487   -20818   -20997 
  -20891   -20572   -20293   -20274   -20498   -20807   -20995   -20935 
  -20686   -20390   -20191   -20223   -20475   -20756   -20899   -20915 
  -20827   -20644   -20455   -20379   -20487   -20730   -20942   -20977 
  -20792   -20538   -20422   -20503   -20696   -20845   -20815   -20623 
  -20412   -20356   -20513   -20734   -20876   -20879   -20754   -20629 
  -20574   -20541   -20537   -20584   -20669   -20750   -20772   -20767 
  -20756   -20642   -20451   -20397   -20564   -20788   -20866   -20731 
  -20470   -20309   -20506   -20927   -21103   -20907   -20538   -20163 
  -20063   -20402   -20903   -21207   -21139   -20745   -20326   -20187 
  -20358   -20687   -20946   -20964   -20780   -20534   -20328   -20282 
  -20472   -20767   -20935   -20892   -20687   -20443   -20328   -20422 
  -20676   -20935   -21003   -20814   -20517   -20359   -20456   -20677 
  -20831   -20844   -20713   -20506   -20385   -20453   -20684   -20923 
  -20949   -20722   -20490   -20449   -20547   -20650   -20667   -20613 
  -20574   -20614   -20746   -20845   -20802   -20660   -20507   -20433 
  -20517   -20706   -20821   -20792   -20736   -20704   -20642   -20529 
  -20413   -20409   -20595   -20850   -20966   -20879   -20703   -20568 
  -20482   -20429   -20468   -20618   -20785   -20846   -20769   -20645 
  -20559   -20532   -20584   -20696   -20763   -20703   -20564   -20476 
  -20561   -20799   -20952   -20826   -20507   -20260   -20270   -20488 
  -20711   -20838   -20876   -20795   -20633   -20493   -20463   -20579 
  -20738   -20769   -20656   -20537   -20538   -20675   -20838   -20854 
  -20677   -20488   -20460   -20574   -20710   -20787   -20785   -20726 
  -20614   -20515   -20538   -20628   -20667   -20684   -20707   -20683 
  -20615   -20534   -20466   -20497   -20682   -20885   -20935   -20834 
  -20652   -20430   -20314   -20428   -20692   -20926   -20981   -20808 
  -20552   -20417   -20455   -20544   -20596   -20664   -20729   -20695 
  -20607   -20584   -20677   -20818   -20831   -20669   -20505   -20451 
  -20457   -20509   -20578   -20602   -20659   -20714   -20596   -20436 
  -20491   -20748   -21027   -21131   -20919   -20547   -20352   -20457 
  -20707   -20881   -20860   -20704   -20569   -20499   -20466   -20493 
  -20537   -20547   -20595   -20719   -20825   -20815   -20660   -20455 
  -20385   -20541   -20811   -20957   -20850   -20614   -20478   -20556 
  -20731   -20753   -20599   -20482   -20487   -20582   -20781   -20968 
  -20903   -20636   -20429   -20386   -20486   -20664   -20780   -20727 
  -20568   -20452   -20455   -20578   -20752   -20833   -20763   -20626 
  -20536   -20545   -20617   -20711   -20811   -20835   -20736   -20594 
  -20491   -20445   -20470   -20534   -20609   -20692   -20776   -20842 
  -20876   -20860   -20773   -20630   -20472   -20341   -20308   -20448 
  -20725   -20949   -20979   -20846   -20655   -20510   -20472   -20476 
  -20443   -20426   -20524   -20744   -20992   -21072   -20864   -20542 
  -20360   -20397   -20598   -20767   -20775   -20754   -20772   -20709 
  -20582   -20509   -20511   -20534   -20555   -20625   -20749   -20845 
  -20860   -20744   -20507   -20331   -20341   -20486   -20660   -20807 
  -20910   -20887   -20723   -20569   -20461   -20349   -20318   -20410 
  -20595   -20858   -21022   -20946   -20787   -20734   -20761   -20722 
  -20541   -20294   -20128   -20190   -20561   -21069   -21317   -21105 
  -20623   -20233   -20197   -20515   -20920   -21073   -20896   -20596 
  -20382   -20370   -20584   -20850   -20926   -20750   -20443   -20225 
  -20295   -20613   -20884   -20889   -20698   -20497   -20393   -20460 
  -20717   -20993   -21076   -20953   -20746   -20559   -20479   -20471 
  -20429   -20399   -20482   -20621   -20719   -20738   -20632   -20484 
  -20505   -20704   -20900   -20949   -20768   -20475   -20321   -20367 
  -20538   -20788   -20999   -21046   -20868   -20505   -20251   -20376 
  -20702   -20876   -20784   -20525   -20325   -20393   -20698   -20992 
  -21076   -20937   -20648   -20362   -20318   -20565   -20800   -20765 
  -20548   -20420   -20540   -20815   -20992   -20896   -20650   -20497 
  -20472   -20530   -20622   -20611   -20521   -20510   -20617   -20803 
  -20960   -20941   -20757   -20542   -20425   -20460   -20544   -20551 
  -20482   -20463   -20646   -20950   -21088   -20900   -20452   -20040 
  -20036   -20459   -20968   -21232   -21115   -20725   -20375   -20312 
  -20493   -20690   -20707   -20533   -20382   -20478   -20769   -21053 
  -21170   -20991   -20556   -20190   -20158   -20389   -20704   -20968 
  -21055   -20934   -20646   -20308   -20151   -20286   -20618   -21000 
  -21182   -21038   -20698   -20318   -20106   -20286   -20764   -21153 
  -21123   -20721   -20294   -20136   -20353   -20812   -21127   -21087 
  -20806   -20441   -20175   -20245   -20644   -21018   -21062   -20842 
  -20652   -20632   -20637   -20533   -20405   -20351   -20379   -20475 
  -20569   -20618   -20679   -20765   -20812   -20822   -20835   -20785 
  -20613   -20397   -20233   -20224   -20444   -20767   -21007   -21114 
  -21062   -20817   -20466   -20233   -20266   -20510   -20822   -21008 
  -20896   -20606   -20418   -20412   -20551   -20779   -20914   -20834 
  -20648   -20534   -20584   -20745   -20830   -20704   -20429   -20244 
  -20353   -20661   -20861   -20794   -20598   -20467   -20482   -20653 
  -20858   -20943   -20862   -20638   -20401   -20347   -20569   -20950 
  -21190   -21076   -20696   -20324   -20144   -20173   -20343   -20626 
  -20987   -21239   -21170   -20818   -20448   -20278   -20335   -20479 
  -20590   -20660   -20687   -20659   -20603   -20564   -20571   -20630 
  -20692   -20679   -20569   -20452   -20452   -20572   -20729   -20895 
  -20999   -20879   -20510   -20144   -20113   -20466   -20912   -21136 
  -21006   -20656   -20371   -20345   -20532   -20696   -20691   -20641 
  -20690   -20821   -20996   -21107   -20984   -20638   -20258   -20042 
  -20086   -20331   -20630   -20880   -20997   -20942   -20795   -20660 
  -20552   -20468   -20452   -20541   -20736   -20895   -20865   -20740 
  -20667   -20614   -20557   -20561   -20633   -20677   -20611   -20511 
  -20513   -20599   -20704   -20810   -20812   -20679   -20559   -20565 
  -20672   -20748   -20653   -20461   -20407   -20536   -20725   -20910 
  -20999   -20869   -20580   -20333   -20254   -20359   -20571   -20773 
  -20868   -20780   -20596   -20547   -20683   -20858   -20981   -20974 
  -20750   -20425   -20264   -20343   -20498   -20602   -20659   -20669 
  -20611   -20529   -20517   -20607   -20758   -20891   -20916   -20860 
  -20765   -20596   -20443   -20455   -20628   -20829   -20883   -20694 
  -20407   -20283   -20445   -20777   -21028   -21019   -20730   -20316 
  -20077   -20231   -20676   -21082   -21163   -20866   -20406   -20106 
  -20124   -20394   -20776   -21085   -21150   -20981   -20756   -20629 
  -20637   -20667   -20565   -20378   -20285   -20355   -20561   -20830 
  -21027   -21053   -20904   -20626   -20316   -20187   -20372   -20711 
  -20923   -20869   -20646   -20470   -20466   -20609   -20769   -20829 
  -20742   -20547   -20394   -20448   -20699   -20966   -21020   -20780 
  -20430   -20267   -20432   -20765   -20974   -20918   -20663   -20390 
  -20295   -20444   -20696   -20831   -20754   -20588   -20502   -20545 
  -20650   -20725   -20707   -20621   -20560   -20592   -20702   -20780 
  -20729   -20594   -20520   -20603   -20791   -20912   -20823   -20563 
  -20356   -20399   -20671   -20937   -20996   -20804   -20457   -20183 
