Origin Time       2024/06/23 22:54:00
Lat.              35.645
Long.             140.060
Depth. (km)       72
Mag.              4.1
Station Code      TCGH15
Station Lat.      36.5595
Station Long.     139.8637
Station Height(m) -175
Record Time       2024/06/23 22:54:56
Sampling Freq(Hz) 100Hz
Duration Time(s)  120
Dir.              3
Scale Factor      3923(gal)/8224838
Max. Acc. (gal)   0.176
Last Correction   2024/06/23 22:54:56
Memo.             
[...]
    1748     1714     1595     1572     1661     1795     1872     1818 
    1755     1749     1705     1688     1746     1749     1728     1674 
    1548     1525     1617     1703     1802     1856     1823     1780 
    1699     1567     1521     1629     1772     1826     1795     1736 
    1721     1787     1821     1730     1648     1675     1742     1773 
    1729     1660     1644     1657     1686     1705     1696     1730 
    1764     1706     1644     1674     1744     1736     1642     1598 
    1678     1815     1868     1788     1690     1663     1692     1726 
    1757     1775     1759     1738     1701     1651     1649     1690 
    1752     1738     1657     1651     1668     1707     1792     1773 
    1710     1725     1725     1718     1764     1764     1683     1636 
    1644     1645     1680     1742     1755     1718     1707     1736 
    1757     1730     1629     1607     1759     1810     1674     1611 
    1680     1768     1821     1782     1728     1796     1833     1688 
    1587     1624     1647     1663     1718     1782     1794     1707 
    1640     1625     1588     1645     1786     1831     1807     1777 
    1718     1691     1734     1734     1657     1642     1702     1723 
    1745     1787     1755     1686     1634     1586     1628     1734 
    1786     1814     1831     1794     1703     1607     1568     1591 
    1698     1810     1777     1696     1709     1775     1806     1764 
    1749     1792     1776     1698     1647     1628     1629     1669 
    1744     1763     1675     1566     1564     1656     1695     1683 
    1718     1738     1729     1803     1887     1854     1783     1730 
    1713     1709     1661     1636     1676     1718     1755     1784 
    1750     1661     1632     1671     1696     1690     1682     1710 
    1722     1636     1605     1691     1729     1746     1794     1780 
    1773     1830     1814     1699     1630     1657     1657     1649 
    1776     1852     1687     1553     1675     1807     1740     1636 
    1636     1678     1748     1803     1749     1641     1606     1688 
    1815     1845     1782     1741     1713     1653     1626     1653 
    1694     1713     1699     1686     1675     1665     1709     1783 
    1825     1813     1718     1588     1561     1680     1796     1769 
    1726     1795     1813     1736     1736     1772     1715     1655 
    1657     1660     1664     1649     1574     1590     1736     1787 
    1745     1783     1810     1723     1655     1655     1679     1746 
    1788     1776     1761     1709     1695     1782     1775     1676 
    1726     1791     1663     1590     1680     1698     1675     1709 
    1705     1699     1706     1640     1621     1721     1791     1779 
    1744     1723     1721     1719     1736     1775     1746     1672 
    1669     1706     1733     1775     1772     1695     1636     1657 
    1715     1715     1671     1701     1761     1741     1665     1584 
    1595     1748     1880     1865     1757     1713     1795     1811 
    1638     1483     1525     1644     1675     1663     1734     1845 
    1811     1661     1591     1663     1795     1827     1744     1729 
    1790     1788     1741     1715     1688     1642     1652     1741 
    1800     1750     1682     1687     1665     1586     1593     1655 
    1669     1714     1829     1879     1752     1570     1551     1680 
    1813     1857     1800     1702     1641     1678     1768     1783 
    1748     1757     1771     1741     1695     1622     1586     1656 
    1683     1622     1647     1740     1814     1818     1711     1671 
    1736     1726     1710     1750     1771     1752     1656     1601 
    1723     1836     1794     1701     1678     1726     1742     1696 
    1667     1642     1625     1676     1742     1756     1756     1729 
    1671     1663     1718     1768     1765     1741     1769     1833 
    1773     1618     1648     1795     1773     1680     1648     1625 
    1656     1721     1734     1738     1760     1761     1719     1648 
    1599     1649     1723     1679     1630     1736     1863     1864 
    1767     1680     1703     1759     1707     1649     1683     1632 
    1498     1539     1745     1877     1856     1782     1742     1748 
    1745     1661     1583     1651     1750     1769     1809     1821 
    1729     1655     1593     1559     1683     1822     1773     1624 
    1603     1737     1761     1634     1642     1790     1867     1804 
    1669     1609     1660     1710     1723     1756     1765     1680 
    1603     1652     1730     1782     1834     1782     1642     1665 
    1829     1863     1753     1657     1665     1729     1696     1642 
    1713     1768     1738     1705     1684     1698     1742     1764 
    1748     1674     1540     1470     1543     1703     1845     1869 
    1821     1772     1725     1742     1804     1804     1745     1644 
    1597     1676     1757     1764     1715     1669     1709     1757 
    1721     1671     1701     1759     1729     1656     1691     1775 
    1757     1678     1629     1607     1632     1715     1783     1772 
    1730     1737     1753     1690     1603     1617     1722     1809 
    1811     1775     1746     1692     1652     1713     1782     1760 
    1688     1617     1628     1718     1764     1757     1746     1734 
    1725     1682     1614     1630     1701     1729     1795     1845 
    1733     1647     1703     1692     1576     1549     1661     1795 
    1884     1895     1811     1696     1642     1652     1653     1647 
    1710     1807     1831     1733     1628     1675     1752     1728 
    1737     1779     1726     1651     1652     1657     1640     1661 
    1669     1645     1696     1784     1784     1755     1772     1788 
    1783     1780     1736     1641     1591     1598     1651     1740 
    1759     1723     1732     1717     1675     1672     1671     1676 
    1705     1690     1661     1732     1827     1790     1719     1750 
    1744     1694     1746     1768     1686     1709     1791     1737 
    1668     1692     1696     1682     1699     1674     1652     1711 
    1721     1649     1661     1737     1740     1715     1740     1782 
    1815     1825     1773     1688     1628     1617     1626     1593 
    1583     1718     1858     1795     1676     1717     1791     1799 
    1807     1764     1657     1598     1610     1651     1730     1825 
    1834     1790     1763     1701     1661     1709     1707     1644 
    1609     1568     1572     1678     1784     1803     1738     1655 
    1657     1749     1841     1860     1780     1637     1580     1694 
    1810     1810     1763     1691     1633     1686     1755     1729 
    1684     1696     1750     1792     1775     1667     1552     1597 
    1725     1736     1695     1722     1742     1703     1706     1759 
    1764     1753     1782     1769     1717     1714     1759     1795 
    1753     1655     1629     1630     1567     1579     1729     1814 
    1730     1626     1634     1719     1780     1765     1725     1733 
    1783     1802     1764     1696     1652     1690     1759     1741 
    1684     1668     1663     1698     1768     1750     1703     1728 
    1698     1618     1620     1648     1644     1653     1709     1760 
    1750     1776     1838     1827     1786     1779     1776     1725 
    1638     1610     1633     1601     1557     1626     1757     1794 
    1733     1691     1706     1744     1748     1702     1687     1738 
    1776     1771     1745     1698     1667     1703     1765     1765 
    1715     1722     1753     1699     1679     1775     1811     1726 
    1653     1633     1645     1713     1760     1750     1763     1734 
    1648     1603     1591     1632     1756     1840     1799     1722 
    1698     1679     1644     1663     1718     1792     1838     1794 
    1771     1783     1702     1615     1649     1711     1721     1722 
    1730     1703     1649     1591     1547     1599     1768     1876 
    1811     1687     1621     1615     1644     1703     1775     1845 
    1903     1885     1795     1715     1625     1583     1719     1858 
    1782     1634     1605     1617     1626     1687     1734     1748 
    1760     1722     1675     1687     1679     1628     1634     1659 
    1626     1659     1780     1863     1868     1845     1841     1815 
    1736     1680     1664     1622     1605     1668     1742     1769 
    1757     1686     1599     1595     1645     1660     1664     1684 
    1699     1703     1679     1655     1707     1787     1811     1806 
    1772     1729     1732     1763     1795     1794     1741     1684 
    1652     1641     1652     1676     1695     1669     1636     1695 
    1749     1694     1663     1719     1765     1791     1796     1769 
    1761     1748     1695     1668     1675     1686     1715     1696 
    1605     1614     1768     1841     1767     1702     1690     1690 
    1752     1827     1756     1602     1557     1629     1709     1734 
    1728     1725     1711     1702     1746     1815     1817     1776 
    1782     1783     1683     1548     1564     1744     1840     1749 
    1651     1649     1657     1615     1594     1668     1763     1752 
    1721     1775     1792     1709     1649     1686     1771     1813 
    1786     1737     1707     1711     1696     1660     1723     1852 
    1868     1760     1598     1472     1507     1637     1683     1691 
    1783     1831     1767     1749     1786     1804     1825     1768 
    1618     1522     1537     1640     1768     1821     1769     1705 
    1718     1765     1765     1726     1655     1621     1703     1769 
    1729     1698     1687     1669     1706     1713     1629     1591 
    1642     1703     1772     1848     1869     1850     1806     1713 
    1648     1698     1757     1705     1665     1745     1806     1787 
    1756     1691     1602     1587     1621     1641     1640     1640 
    1707     1783     1738     1647     1630     1655     1702     1814 
    1898     1838     1806     1895     1892     1771     1642     1528 
    1494     1584     1679     1637     1574     1651     1709     1692 
    1745     1811     1892     1991     1954     1836     1705     1556 
    1579     1746     1738     1547     1459     1576     1710     1752 
    1769     1786     1779     1746     1721     1764     1821     1792 
    1679     1583     1541     1509     1591     1825     1934     1841 
    1767     1737     1628     1503     1476     1510     1582     1730 
    1852     1823     1748     1741     1759     1787     1852     1857 
    1777     1719     1692     1690     1732     1759     1740     1710 
    1705     1718     1696     1626     1553     1561     1684     1769 
    1715     1690     1782     1850     1879     1934     1881     1698 
    1568     1541     1601     1711     1769     1765     1706     1595 
    1547     1653     1796     1802     1742     1750     1730     1632 
    1609     1667     1690     1690     1682     1647     1676     1775 
    1809     1803     1841     1848     1773     1672     1609     1620 
    1669     1694     1686     1667     1661     1719     1803     1768 
    1668     1665     1695     1678     1661     1683     1763     1826 
    1780     1725     1760     1829     1850     1807     1737     1671 
    1645     1711     1780     1742     1705     1702     1584     1437 
    1495     1663     1703     1688     1768     1814     1786     1784 
    1729     1622     1599     1598     1594     1663     1706     1678 
    1701     1746     1713     1688     1745     1811     1861     1883 
    1829     1773     1783     1725     1599     1593     1732     1908 
    1976     1845     1671     1595     1579     1615     1702     1771 
    1753     1665     1580     1499     1482     1628     1776     1771 
    1732     1703     1625     1584     1640     1750     1867     1902 
    1840     1756     1682     1634     1605     1614     1753     1914 
    1935     1894     1826     1686     1547     1497     1551     1669 
    1779     1852     1821     1667     1603     1717     1807     1802 
    1771     1757     1786     1814     1773     1647     1517     1464 
    1493     1648     1818     1829     1772     1699     1587     1587 
    1687     1790     1923     1934     1748     1621     1638     1686 
    1718     1690     1599     1545     1567     1652     1773     1845 
    1825     1775     1746     1703     1634     1629     1756     1914 
    1933     1833     1718     1586     1510     1607     1755     1786 
    1740     1687     1628     1625     1687     1706     1667     1645 
    1680     1763     1787     1687     1590     1610     1722     1852 
    1914     1899     1871     1761     1563     1462     1514     1637 
    1769     1834     1814     1775     1745     1709     1624     1547 
    1611     1737     1806     1883     1907     1811     1726     1668 
    1580     1540     1602     1698     1755     1792     1815     1830 
    1877     1879     1764     1618     1514     1494     1553     1572 
    1553     1626     1738     1763     1730     1649     1510     1471 
    1599     1744     1842     1941     1984     1956     1950     1948 
    1846     1755     1796     1804     1691     1618     1641     1694 
    1696     1602     1529     1578     1657     1729     1840     1921 
    1888     1790     1715     1674     1614     1584     1641     1714 
    1753     1717     1566     1389     1343     1490     1691     1732 
    1674     1684     1709     1714     1757     1760     1755     1879 
    2016     2007     1914     1844     1803     1767     1721     1694 
    1692     1686     1680     1668     1603     1564     1615     1633 
    1591     1621     1702     1759     1796     1782     1725     1730 
    1719     1626     1652     1787     1792     1679     1570     1503 
    1540     1669     1769     1742     1649     1630     1683     1741 
    1782     1760     1711     1709     1730     1769     1858     1934 
    1935     1915     1910     1899     1902     1917     1854     1688 
    1506     1387     1424     1591     1688     1655     1605     1590 
    1617     1682     1734     1741     1741     1760     1764     1717 
    1633     1563     1566     1651     1746     1771     1773     1849 
    1922     1858     1707     1590     1551     1622     1745     1783 
    1759     1733     1667     1594     1621     1729     1804     1799 
    1763     1799     1890     1864     1682     1521     1498     1564 
    1626     1644     1647     1668     1715     1799     1871     1898 
    1908     1861     1711     1563     1529     1613     1752     1877 
    1910     1817     1688     1602     1575     1603     1648     1679 
    1675     1663     1707     1734     1663     1624     1647     1630 
    1645     1753     1798     1738     1726     1787     1810     1768 
    1713     1686     1707     1763     1806     1825     1863     1871 
    1746     1606     1598     1633     1603     1563     1613     1757 
    1879     1914     1903     1849     1745     1644     1595     1629 
    1714     1737     1692     1665     1667     1684     1713     1707 
    1630     1541     1507     1534     1633     1741     1779     1784 
    1771     1725     1687     1663     1674     1784     1933     1981 
    1907     1769     1625     1582     1684     1782     1756     1674 
    1634     1672     1769     1833     1772     1695     1722     1761 
    1725     1644     1594     1634     1705     1713     1680     1641 
    1578     1551     1607     1647     1626     1636     1717     1853 
    1966     1945     1837     1783     1814     1857     1810     1701 
    1652     1632     1606     1607     1618     1634     1628     1574 
    1557     1605     1637     1649     1664     1669     1686     1728 
    1760     1798     1857     1922     1946     1891     1800     1757 
    1771     1791     1771     1736     1718     1664     1580     1601 
    1733     1794     1709     1590     1537     1556     1621     1686 
    1713     1705     1713     1749     1761     1742     1736     1730 
    1718     1707     1699     1725     1773     1787     1775     1772 
    1757     1710     1675     1663     1637     1618     1648     1728 
    1795     1775     1732     1741     1750     1738     1738     1750 
    1773     1787     1757     1684     1618     1642     1728     1756 
    1718     1664     1611     1586     1591     1641     1744     1822 
    1823     1752     1659     1636     1660     1649     1648     1694 
    1737     1748     1753     1740     1714     1715     1710     1723 
    1796     1802     1725     1703     1715     1692     1682     1706 
    1709     1674     1664     1678     1661     1634     1628     1622 
    1655     1738     1786     1795     1833     1844     1780     1726 
    1691     1610     1583     1663     1725     1782     1864     1865 
    1804     1784     1771     1725     1694     1701     1688     1644 
    1641     1678     1659     1593     1582     1622     1656     1703 
    1736     1723     1755     1819     1807     1752     1738     1728 
    1679     1661     1690     1714     1759     1796     1734     1641 
    1638     1679     1707     1753     1818     1834     1780     1740 
    1768     1800     1786     1761     1746     1713     1686     1669 
    1640     1632     1653     1653     1640     1652     1669     1675 
    1705     1729     1679     1628     1648     1687     1699     1702 
    1728     1764     1723     1618     1618     1763     1863     1850 
    1845     1848     1776     1696     1683     1699     1728     1748 
    1730     1733     1753     1723     1676     1672     1691     1698 
    1696     1691     1692     1707     1678     1622     1664     1719 
    1669     1637     1667     1667     1680     1746     1761     1671 
    1582     1598     1672     1706     1715     1749     1750     1737 
    1769     1765     1719     1691     1636     1597     1655     1750 
    1798     1784     1760     1763     1757     1734     1737     1764 
    1800     1837     1848     1838     1838     1817     1738     1647 
    1598     1605     1640     1678     1698     1707     1738     1761 
    1703     1649     1686     1718     1683     1637     1607     1613 
    1657     1701     1722     1738     1769     1787     1769     1756 
    1756     1730     1699     1694     1696     1674     1626     1597 
    1603     1634     1675     1709     1753     1806     1822     1819 
    1833     1814     1746     1692     1661     1665     1730     1771 
    1714     1664     1690     1687     1653     1688     1752     1767 
    1764     1737     1680     1671     1699     1686     1659     1661 
    1671     1691     1732     1767     1765     1719     1659     1640 
    1660     1664     1644     1629     1629     1660     1711     1734 
    1749     1792     1819     1791     1728     1657     1641     1686 
    1710     1696     1703     1750     1809     1822     1784     1744 
    1730     1736     1729     1721     1713     1688     1687     1734 
    1798     1826     1790     1732     1706     1691     1652     1599 
    1587     1622     1667     1686     1679     1680     1718     1776 
    1813     1783     1729     1715     1711     1696     1690     1699 
