Origin Time       2024/06/23 22:54:00
Lat.              35.645
Long.             140.060
Depth. (km)       72
Mag.              4.1
Station Code      TKYH12
Station Lat.      35.6701
Station Long.     139.2650
Station Height(m) 63
Record Time       2024/06/23 22:54:39
Sampling Freq(Hz) 100Hz
Duration Time(s)  120
Dir.              1
Scale Factor      2942(gal)/8224139
Max. Acc. (gal)   0.434
Last Correction   2024/06/23 22:54:39
Memo.             
[...]
  178900   178900   178904   178887   178887   178904   178899   178891 
  178888   178888   178897   178883   178883   178899   178889   178893 
  178889   178884   178904   178892   178881   178897   178903   178897 
  178876   178876   178903   178908   178906   178897   178888   178893 
  178887   178895   178916   178885   178876   178920   178903   178857 
  178889   178922   178885   178880   178918   178910   178880   178885 
  178893   178893   178899   178892   178888   178900   178903   178875 
  178879   178923   178906   178875   178899   178893   178883   178904 
  178888   178879   178910   178903   178881   178884   178877   178884 
  178888   178880   178900   178904   178888   178899   178903   178896 
  178895   178896   178900   178887   178881   178900   178893   178892 
  178907   178877   178877   178918   178895   178883   178904   178881 
  178880   178915   178914   178895   178889   178885   178887   178903 
  178914   178889   178865   178883   178903   178895   178902   178910 
  178900   178899   178888   178876   178892   178907   178896   178888 
  178893   178887   178887   178897   178883   178885   178912   178907 
  178887   178888   178892   178883   178887   178904   178902   178891 
  178893   178893   178889   178899   178911   178895   178865   178876 
  178904   178897   178879   178895   178911   178872   178860   178910 
  178907   178877   178892   178895   178879   178892   178918   178902 
  178872   178888   178902   178883   178880   178888   178907   178910 
  178876   178884   178906   178888   178891   178897   178876   178877 
  178900   178897   178877   178883   178906   178910   178903   178900 
  178896   178899   178902   178895   178899   178904   178899   178884 
  178877   178895   178906   178888   178887   178906   178885   178873 
  178904   178907   178891   178889   178885   178893   178895   178888 
  178903   178897   178875   178887   178910   178896   178884   178896 
  178893   178895   178902   178891   178888   178893   178892   178897 
  178895   178883   178899   178926   178912   178887   178889   178895 
  178889   178889   178885   178883   178881   178893   178907   178896 
  178889   178889   178877   178884   178902   178899   178896   178906 
  178903   178887   178884   178889   178883   178880   178884   178893 
  178903   178892   178891   178902   178883   178883   178910   178899 
  178877   178895   178904   178889   178906   178926   178896   178876 
  178893   178903   178889   178889   178915   178903   178885   178904 
  178897   178889   178904   178892   178870   178873   178888   178903 
  178906   178899   178885   178879   178903   178916   178889   178864 
  178872   178906   178914   178904   178908   178895   178885   178891 
  178888   178893   178895   178892   178899   178895   178893   178903 
  178899   178893   178897   178903   178885   178879   178896   178885 
  178879   178910   178899   178866   178884   178904   178902   178897 
  178895   178896   178879   178880   178902   178892   178888   178884 
  178861   178868   178895   178900   178897   178889   178873   178876 
  178895   178891   178883   178906   178900   178868   178883   178903 
  178883   178893   178910   178879   178873   178892   178880   178879 
  178900   178910   178906   178897   178904   178920   178906   178876 
  178868   178876   178879   178864   178858   178884   178880   178845 
  178857   178893   178914   178942   178941   178927   178941   178923 
  178866   178825   178816   178839   178846   178827   178854   178887 
  178875   178887   178916   178935   178981   178993   178956   178974 
  179020   178947   178769   178694   178815   178889   178775   178754 
  178946   179020   178868   178837   178969   178988   178977   179010 
  178954   178929   178961   178868   178707   178640   178642   178731 
  178911   178993   178973   179010   178991   178911   178983   178997 
  178899   179068   179203   178865   178599   178703   178722   178656 
  178738   178873   179018   179140   179055   178796   178672   178810 
  179049   179150   179066   178958   178841   178723   178745   178810 
  178769   178767   178883   178951   178951   178993   179015   178937 
  178826   178772   178876   179084   179097   178916   178806   178727 
  178690   178794   178865   178865   178929   179026   179031   178843 
  178683   178798   178935   178949   178993   179020   179001   178965 
  178816   178681   178814   179016   178908   178704   178822   179058 
  179020   178811   178789   178918   178903   178872   178946   178943 
  178916   178868   178723   178715   178854   178933   178978   178985 
  178887   178762   178731   178880   179070   179058   178914   178889 
  178957   178906   178768   178719   178762   178853   178923   178907 
  178849   178802   178815   178893   178923   178943   179023   179003 
  178881   178846   178812   178754   178869   178985   178911   178845 
  178862   178896   178924   178891   178838   178808   178849   179000 
  179043   178896   178826   178906   178968   178877   178717   178754 
  178950   179000   178953   178965   178897   178798   178877   178961 
  178870   178784   178781   178816   178899   178962   178891   178777 
  178838   178954   178903   178852   178929   178983   178980   178981 
  178900   178760   178779   178883   178848   178800   178865   178945 
  178953   178883   178842   178923   178966   178885   178846   178893 
  178962   178976   178849   178785   178904   178997   178980   178858 
  178750   178843   178947   178861   178785   178856   178929   178930 
  178866   178780   178850   178985   178949   178906   178957   178945 
  178916   178937   178893   178866   178939   178985   178947   178872 
  178787   178735   178772   178865   178895   178858   178838   178912 
  179023   178976   178860   178850   178845   178838   178889   178843 
  178750   178834   178957   178931   178861   178816   178814   178916 
  179049   179058   178958   178897   178927   178960   178897   178783 
  178762   178845   178919   178984   178981   178830   178745   178872 
  178969   178877   178788   178870   178974   178922   178815   178825 
  178931   178987   178861   178668   178669   178865   179055   179092 
  178964   178843   178812   178794   178803   178875   179000   179080 
  179004   178900   178860   178816   178821   178899   178904   178826 
  178876   179012   178933   178787   178825   178837   178779   178854 
  178980   179003   178954   178911   178865   178839   178893   178972 
  178999   178950   178861   178835   178830   178772   178787   178872 
  178906   178945   178966   178888   178811   178781   178781   178879 
  178996   179023   178983   178877   178785   178825   178860   178811 
  178858   178992   179010   178943   178915   178888   178858   178893 
  178930   178881   178826   178864   178926   178916   178900   178900 
  178815   178731   178822   178941   178918   178885   178924   178970 
  178993   178951   178842   178723   178735   178934   179049   178999 
  178938   178822   178753   178826   178862   178923   179057   179070 
  179015   178962   178850   178780   178783   178777   178796   178842 
  178889   178920   178881   178861   178897   178819   178723   178846 
  179004   179004   178964   178927   178934   178992   178899   178675 
  178660   178848   178923   178918   178960   178922   178849   178868 
  178842   178775   178833   178942   178980   178996   179020   178966 
  178861   178849   178908   178893   178812   178814   178933   179015 
  178930   178804   178804   178892   178956   178942   178908   178937 
  178937   178852   178823   178883   178895   178854   178834   178838 
  178872   178897   178869   178866   178915   178962   179018   179008 
  178879   178769   178753   178799   178854   178865   178880   178904 
  178896   178873   178838   178785   178769   178849   178945   178965 
  178983   179001   178938   178873   178869   178872   178887   178937 
  178961   178908   178850   178842   178816   178746   178714   178799 
  178941   178987   178980   179003   178970   178904   178918   178947 
  178938   178941   178924   178865   178796   178740   178773   178891 
  178946   178904   178812   178727   178777   178973   179085   178983 
  178864   178903   178943   178864   178777   178762   178860   178983 
  178943   178826   178802   178893   178974   178885   178781   178827 
  178896   178926   178939   178877   178789   178794   178870   178930 
  178927   178897   178915   178918   178864   178865   178915   178972 
  179026   178961   178821   178796   178846   178808   178753   178835 
  178926   178883   178873   178976   179045   179049   178991   178831 
  178677   178699   178843   178939   178987   178991   178916   178870 
  178892   178866   178807   178837   178926   178958   178927   178883 
  178857   178881   178941   178962   178916   178892   178892   178823 
  178785   178814   178808   178864   178984   178968   178869   178826 
  178810   178896   179047   179007   178891   178926   178946   178877 
  178800   178695   178707   178877   178934   178930   179022   178995 
  178854   178883   178962   178880   178796   178835   178903   178918 
  178850   178806   178877   178923   178827   178815   179019   179145 
  179031   178857   178776   178838   178927   178895   178819   178821 
  178883   178924   178853   178748   178812   178899   178811   178799 
  178911   178869   178761   178781   178831   178924   179059   178995 
  178789   178750   178831   178864   178908   178949   178883   178864 
  178984   178995   178858   178815   178888   178937   178916   178892 
  178939   179000   178988   178965   178943   178860   178787   178804 
  178860   178883   178862   178853   178896   178929   178900   178880 
  178885   178896   178934   178934   178843   178800   178875   178897 
  178831   178845   178912   178933   178937   178926   178922   178930 
  178865   178815   178854   178877   178923   178956   178829   178762 
  178906   178988   178945   178920   178880   178853   178884   178857 
  178807   178843   178892   178887   178907   178950   178920   178826 
  178769   178856   179037   179070   178937   178854   178858   178837 
  178842   178912   178923   178896   178907   178896   178903   178938 
  178903   178839   178814   178834   178876   178885   178887   178892 
  178854   178800   178784   178812   178872   178919   178920   178924 
  178947   178962   178960   178903   178841   178842   178846   178846 
  178902   178962   178933   178862   178893   178935   178835   178750 
  178804   178915   179027   179042   178902   178780   178784   178781 
  178771   178896   179035   178969   178830   178830   178916   178966 
  178933   178862   178868   178945   178942   178861   178833   178830 
  178799   178822   178916   178941   178891   178892   178881   178854 
  178922   178970   178939   178929   178919   178883   178827   178799 
  178881   178968   178962   178924   178858   178819   178853   178918 
  178956   178895   178849   178893   178904   178934   179003   178956 
  178895   178919   178872   178783   178798   178848   178807   178775 
  178937   179111   179032   178865   178811   178853   178929   178968 
  178915   178811   178792   178864   178908   178903   178846   178776 
  178796   178908   178957   178895   178902   179003   178988   178846 
  178756   178753   178787   178858   178918   178923   178965   179015 
  178956   178842   178768   178769   178833   178889   178911   178876 
  178854   178911   178883   178780   178804   178885   178953   178983 
  178887   178841   178935   178931   178815   178762   178806   178864 
  178850   178829   178889   178924   178918   178939   178922   178906 
  178943   178922   178835   178773   178779   178875   178927   178830 
  178765   178861   178977   178978   178889   178841   178893   178933 
  178906   178879   178853   178814   178846   178987   179020   178896 
  178864   178908   178870   178848   178854   178792   178765   178838 
  178880   178897   178922   178838   178753   178835   178937   178922 
  178915   178981   179015   178907   178730   178749   178943   178995 
  178908   178883   178866   178802   178802   178884   178931   178904 
  178857   178846   178880   178912   178912   178887   178861   178842 
  178830   178852   178865   178831   178823   178860   178872   178852 
  178818   178781   178814   178927   178985   178942   178896   178879 
  178830   178812   178842   178806   178808   178908   178950   178984 
  179041   178992   178910   178880   178854   178897   179003   179019 
  178951   178891   178853   178846   178866   178888   178939   179000 
  178961   178866   178792   178731   178729   178733   178703   178742 
  178788   178792   178850   178887   178892   178966   179041   179051 
  179019   179003   179028   178977   178862   178807   178723   178598 
  178591   178703   178812   178812   178789   178888   178985   179022 
  179065   179038   178957   178935   178981   179054   179062   178972 
  178896   178848   178718   178603   178646   178700   178640   178623 
  178741   178883   178983   179082   179213   179350   179429   179398 
  179334   179319   179219   178943   178646   178517   178579   178650 
  178559   178374   178317   178449   178671   178835   178750   178457 
  178347   178652   179184   179590   179685   179610   179563   179504 
  179363   179216   179166   179247   179325   179172   178833   178642 
  178653   178555   178213   177812   177676   177967   178410   178622 
  178675   178787   178895   178869   178680   178444   178464   178860 
  179351   179682   179799   179666   179359   179190   179308   179404 
  179185   178854   178749   178900   179076   179045   178779   178494 
  178416   178506   178659   178918   179151   179128   178888   178598 
  178363   178278   178347   178498   178692   178903   179038   179024 
  178879   178745   178727   178733   178730   178737   178681   178688 
  178896   179113   179151   179047   178907   178852   178966   179184 
  179444   179693   179764   179601   179255   178704   178201   178156 
  178444   178730   178995   179151   179091   178980   178837   178569 
  178420   178530   178714   178893   179016   178923   178748   178698 
  178692   178708   178852   178993   179037   179213   179483   179475 
  179219   178976   178783   178708   178827   178993   179078   179049 
  178927   178818   178767   178812   178956   179004   178872   178714 
  178694   178787   178872   178981   179131   179154   179035   178970 
  179023   179034   178887   178668   178514   178451   178424   178444 
  178584   178756   178800   178802   178893   178983   178987   178930 
  178830   178737   178711   178761   178821   178825   178880   179084 
  179305   179458   179539   179415   179140   178981   178997   179046 
  179004   178930   178888   178787   178627   178526   178575   178698 
  178710   178688   178776   178888   178961   178950   178811   178625 
  178474   178422   178542   178821   179103   179193   179089   178958 
  178865   178835   178896   178953   178950   178961   178970   178908 
  178821   178789   178807   178873   179043   179278   179431   179425 
  179253   179003   178845   178822   178893   179010   179037   178910 
  178761   178700   178665   178615   178591   178584   178583   178565 
  178534   178594   178748   178842   178880   178977   179047   179007 
  178957   178941   178903   178888   178964   179028   179034   179070 
  179074   179018   179014   179005   178945   178916   178908   178896 
  178918   178912   178818   178740   178781   178853   178862   178849 
  178792   178659   178561   178636   178821   178888   178792   178718 
  178768   178839   178848   178868   178956   179050   179086   179011 
  178947   179024   179115   179172   179190   179055   178885   178887 
  178978   178984   178866   178726   178687   178768   178872   178902 
  178868   178818   178754   178761   178915   179032   179001   178996 
  179037   178950   178787   178740   178841   178968   179004   178931 
  178839   178767   178695   178683   178727   178775   178872   178995 
  179004   178920   178895   178937   178985   179027   178961   178796 
  178690   178695   178791   178869   178839   178784   178791   178876 
  178987   179005   178931   178848   178799   178841   178947   179019 
  179011   178911   178773   178715   178762   178864   179024   179213 
  179315   179285   179184   179054   178919   178888   178938   178869 
  178749   178675   178599   178633   178737   178718   178677   178765 
  178869   178906   178943   178991   178980   178931   178918   178904 
  178845   178812   178845   178907   178965   178992   178977   178916 
  178831   178796   178815   178831   178834   178841   178883   178880 
  178750   178683   178757   178787   178776   178814   178816   178792 
  178783   178749   178788   178912   178974   179010   179104   179155 
  179072   178950   178895   178896   178947   179000   179000   178988 
  178970   178920   178875   178835   178792   178800   178839   178854 
  178883   178880   178833   178864   178908   178862   178815   178816 
  178834   178876   178849   178707   178671   178822   178937   178922 
  178902   178930   178980   179014   179001   178995   178966   178841 
  178783   178887   178949   178957   179054   179118   179018   178883 
  178829   178827   178846   178861   178868   178900   178923   178906 
  178860   178823   178873   178991   179020   178961   178903   178872 
  178880   178862   178780   178764   178870   178965   178937   178834 
  178789   178833   178857   178831   178823   178826   178815   178823 
  178888   178981   179038   179039   179034   179081   179151   179159 
  179070   178931   178856   178806   178681   178619   178698   178750 
  178718   178727   178792   178823   178848   178889   178872   178802 
  178781   178839   178911   178908   178841   178808   178804   178807 
  178879   178966   178972   178922   178865   178815   178772   178756 
  178757   178750   178802   178939   179066   179108   179046   178933 
  178865   178902   179034   179081   178949   178860   178862   178821 
  178807   178885   178972   178999   178933   178837   178781   178740 
  178741   178783   178799   178823   178866   178889   178926   178962 
  178938   178927   178969   178983   179020   179085   179018   178872 
  178810   178798   178744   178675   178698   178827   178962   179038 
  179047   178991   178873   178767   178775   178825   178811   178814 
  178857   178883   178916   178946   178887   178810   178819   178804 
  178754   178792   178829   178788   178762   178772   178819   178920 
  179003   179022   178991   178938   178899   178920   178995   179038 
  179035   178981   178870   178848   178937   178950   178931   178977 
  178953   178830   178768   178854   178966   178983   178962   178892 
  178754   178719   178800   178857   178889   178902   178846   178810 
  178911   179065   179116   179027   178862   178764   178772   178818 
  178934   179054   179004   178881   178853   178850   178798   178756 
  178795   178876   178954   179018   178951   178772   178672   178730 
  178900   179041   179047   179022   178995   178935   178891   178825 
  178745   178753   178811   178858   178907   178869   178745   178744 
