Origin Time       2024/06/23 22:54:00
Lat.              35.645
Long.             140.060
Depth. (km)       72
Mag.              4.1
Station Code      TKYH12
Station Lat.      35.6701
Station Long.     139.2650
Station Height(m) 63
Record Time       2024/06/23 22:54:39
Sampling Freq(Hz) 100Hz
Duration Time(s)  120
Dir.              2
Scale Factor      2942(gal)/8224139
Max. Acc. (gal)   0.249
Last Correction   2024/06/23 22:54:39
Memo.             
[...]
  162355   162360   162356   162351   162357   162353   162351   162359 
  162360   162355   162360   162363   162355   162352   162356   162356 
  162355   162361   162359   162353   162359   162359   162355   162355 
  162355   162357   162363   162356   162351   162357   162364   162359 
  162355   162356   162356   162355   162357   162357   162359   162357 
  162356   162357   162357   162356   162357   162357   162356   162356 
  162356   162356   162359   162359   162356   162356   162357   162357 
  162357   162359   162359   162352   162352   162360   162360   162355 
  162355   162359   162357   162356   162357   162361   162360   162355 
  162357   162361   162356   162349   162353   162359   162356   162351 
  162357   162363   162357   162353   162356   162357   162356   162355 
  162353   162355   162357   162353   162353   162361   162360   162355 
  162353   162355   162356   162359   162359   162355   162352   162356 
  162360   162360   162359   162356   162355   162353   162356   162359 
  162356   162359   162360   162357   162356   162357   162357   162359 
  162359   162356   162353   162356   162361   162360   162356   162356 
  162356   162359   162361   162353   162352   162360   162359   162353 
  162357   162363   162357   162357   162360   162353   162352   162360 
  162359   162353   162355   162357   162359   162359   162356   162356 
  162360   162360   162357   162356   162355   162359   162361   162360 
  162357   162356   162356   162357   162359   162357   162355   162353 
  162355   162359   162361   162359   162356   162360   162363   162357 
  162353   162357   162361   162359   162359   162361   162357   162357 
  162361   162356   162353   162363   162363   162357   162360   162360 
  162355   162356   162361   162360   162353   162353   162357   162359 
  162359   162360   162361   162356   162352   162360   162361   162353 
  162355   162356   162353   162357   162360   162356   162356   162355 
  162355   162359   162357   162356   162360   162357   162356   162359 
  162360   162357   162356   162359   162359   162355   162356   162357 
  162357   162360   162356   162351   162356   162360   162357   162357 
  162355   162352   162355   162353   162355   162364   162361   162353 
  162360   162361   162352   162356   162361   162356   162353   162356 
  162361   162360   162355   162356   162359   162359   162360   162360 
  162355   162353   162357   162357   162357   162360   162355   162352 
  162353   162356   162361   162360   162353   162356   162359   162357 
  162359   162357   162355   162356   162357   162357   162353   162353 
  162360   162356   162355   162360   162357   162352   162353   162359 
  162359   162355   162359   162360   162356   162359   162363   162355 
  162349   162357   162360   162355   162356   162359   162357   162363 
  162371   162384   162399   162407   162409   162388   162351   162326 
  162321   162307   162291   162302   162305   162301   162345   162371 
  162346   162364   162402   162417   162461   162496   162490   162456 
  162398   162348   162267   162222   162299   162265   162202   162398 
  162483   162341   162349   162351   162376   162549   162433   162356 
  162637   162625   162399   162248   162099   162256   162288   161929 
  162009   162432   162545   162386   162170   162182   162346   162356 
  162334   162376   162545   162807   162658   162222   162129   162143 
  162157   162429   162545   162507   162604   162522   162221   161882 
  161828   162195   162372   162476   162689   162471   162252   162286 
  162265   162440   162515   162417   162572   162595   162338   162063 
  161970   162275   162337   162012   162211   162654   162560   162251 
  162213   162498   162731   162599   162307   162183   162399   162623 
  162450   162295   162345   162338   162391   162353   162184   162288 
  162390   162207   162236   162481   162372   162116   162255   162484 
  162479   162498   162531   162417   162349   162406   162380   162229 
  162218   162446   162523   162279   162121   162136   162234   162515 
  162533   162220   162311   162589   162437   162257   162395   162587 
  162587   162336   162137   162228   162383   162398   162324   162373 
  162522   162421   162190   162216   162471   162630   162419   162194 
  162313   162330   162145   162189   162407   162558   162568   162380 
  162175   162220   162375   162345   162206   162203   162375   162545 
  162515   162355   162274   162322   162352   162349   162459   162525 
  162427   162340   162302   162379   162427   162253   162253   162558 
  162673   162445   162152   162116   162332   162379   162259   162302 
  162346   162311   162291   162190   162238   162460   162507   162448 
  162414   162391   162386   162369   162329   162190   162126   162317 
  162422   162432   162600   162565   162270   162221   162310   162244 
  162278   162453   162476   162402   162373   162297   162268   162336 
  162276   162228   162392   162530   162491   162353   162259   162340 
  162422   162302   162222   162392   162521   162417   162290   162253 
  162334   162484   162476   162326   162265   162311   162384   162434 
  162406   162309   162268   162357   162450   162429   162346   162313 
  162357   162418   162406   162302   162209   162272   162487   162553 
  162348   162257   162371   162376   162295   162264   162302   162376 
  162427   162464   162440   162387   162299   162139   162157   162298 
  162305   162349   162480   162526   162456   162315   162243   162286 
  162375   162440   162441   162457   162460   162379   162324   162317 
  162314   162310   162329   162449   162556   162498   162432   162411 
  162298   162179   162128   162117   162311   162537   162491   162471 
  162506   162338   162240   162282   162236   162267   162441   162491 
  162407   162364   162301   162236   162282   162291   162274   162419 
  162581   162558   162452   162365   162288   162247   162203   162149 
  162267   162481   162515   162391   162295   162314   162313   162237 
  162305   162456   162448   162400   162452   162434   162291   162170 
  162155   162297   162453   162410   162329   162325   162295   162353 
  162481   162496   162400   162309   162321   162346   162318   162382 
  162434   162352   162255   162184   162205   162332   162399   162392 
  162387   162375   162349   162319   162341   162422   162427   162325 
  162283   162367   162440   162445   162411   162384   162440   162464 
  162372   162336   162367   162348   162353   162361   162276   162271 
  162361   162303   162217   162217   162216   162326   162521   162626 
  162560   162352   162282   162372   162398   162388   162395   162449 
  162514   162427   162274   162213   162253   162324   162329   162361 
  162459   162492   162467   162363   162272   162325   162306   162224 
  162318   162468   162490   162329   162182   162334   162503   162329 
  162062   162098   162395   162506   162360   162360   162457   162405 
  162330   162294   162298   162418   162434   162310   162441   162643 
  162436   162176   162251   162379   162454   162440   162244   162247 
  162469   162359   162130   162270   162405   162334   162321   162286 
  162297   162514   162538   162252   162148   162311   162417   162382 
  162380   162456   162469   162450   162392   162216   162199   162372 
  162392   162340   162314   162315   162406   162392   162292   162353 
  162445   162434   162437   162429   162373   162344   162238   162171 
  162297   162333   162307   162372   162353   162348   162398   162367 
  162406   162464   162346   162260   162452   162634   162480   162346 
  162340   162193   162229   162410   162356   162353   162415   162371 
  162422   162400   162228   162253   162432   162471   162409   162386 
  162406   162422   162348   162268   162332   162383   162337   162301 
  162233   162274   162457   162376   162133   162233   162510   162525 
  162332   162247   162369   162419   162221   162153   162438   162635 
  162513   162390   162324   162216   162232   162336   162369   162417 
  162521   162552   162391   162228   162248   162241   162232   162355 
  162344   162276   162414   162469   162353   162332   162322   162329 
  162504   162446   162136   162218   162405   162228   162229   162452 
  162383   162232   162295   162419   162425   162360   162421   162529 
  162450   162330   162263   162202   162306   162421   162326   162278 
  162349   162407   162457   162410   162288   162276   162359   162368 
  162356   162437   162454   162410   162410   162294   162210   162359 
  162406   162329   162417   162468   162378   162369   162356   162301 
  162298   162276   162299   162352   162321   162342   162473   162508 
  162351   162321   162510   162502   162353   162318   162305   162363 
  162405   162325   162349   162438   162417   162302   162240   162368 
  162456   162391   162390   162413   162351   162279   162283   162328 
  162318   162329   162329   162274   162376   162452   162280   162201 
  162324   162430   162456   162395   162326   162341   162390   162422 
  162422   162364   162351   162423   162342   162190   162287   162446 
  162452   162383   162321   162284   162282   162376   162378   162220 
  162311   162508   162448   162382   162367   162248   162199   162301 
  162386   162372   162344   162292   162245   162330   162418   162395 
  162386   162410   162436   162407   162322   162450   162700   162564 
  162211   162187   162348   162345   162299   162297   162220   162218 
  162297   162230   162270   162503   162564   162469   162399   162351 
  162265   162164   162252   162436   162457   162419   162395   162375 
  162395   162429   162444   162375   162286   162306   162346   162375 
  162409   162351   162286   162348   162394   162357   162345   162342 
  162333   162310   162264   162303   162375   162405   162454   162429 
  162364   162378   162375   162398   162449   162375   162260   162255 
  162329   162373   162352   162315   162280   162311   162452   162529 
  162449   162337   162290   162342   162421   162418   162355   162284 
  162241   162209   162179   162221   162303   162379   162463   162480 
  162413   162392   162419   162426   162426   162342   162284   162378 
  162340   162244   162363   162369   162209   162238   162337   162340 
  162380   162453   162457   162410   162378   162352   162340   162330 
  162264   162268   162402   162511   162568   162513   162310   162184 
  162225   162322   162326   162247   162326   162518   162541   162364 
  162233   162274   162319   162349   162419   162402   162367   162382 
  162321   162279   162365   162402   162313   162305   162410   162459 
  162438   162390   162364   162421   162467   162450   162382   162257 
  162230   162305   162290   162245   162319   162445   162445   162321 
  162309   162438   162442   162318   162272   162267   162292   162356 
  162332   162376   162534   162475   162309   162337   162402   162351 
  162324   162394   162434   162436   162422   162337   162310   162421 
  162441   162279   162203   162351   162400   162271   162243   162256 
  162230   162307   162396   162405   162364   162292   162306   162403 
  162413   162329   162314   162386   162399   162402   162457   162427 
  162383   162355   162209   162172   162318   162410   162452   162394 
  162244   162275   162422   162432   162390   162406   162367   162272 
  162279   162382   162441   162386   162253   162198   162276   162329 
  162311   162386   162483   162394   162255   162265   162348   162406 
  162472   162556   162550   162441   162307   162240   162321   162405 
  162356   162317   162344   162373   162360   162340   162392   162403 
  162336   162380   162490   162438   162295   162292   162413   162433 
  162329   162328   162430   162383   162282   162342   162438   162411 
  162317   162275   162243   162209   162243   162238   162260   162372 
  162392   162399   162442   162413   162375   162365   162384   162390 
  162364   162388   162367   162305   162309   162315   162382   162492 
  162483   162449   162436   162333   162263   162329   162364   162359 
  162390   162349   162267   162244   162237   162236   162224   162249 
  162344   162368   162357   162395   162367   162279   162299   162437 
  162495   162454   162422   162375   162337   162321   162313   162364 
  162368   162333   162372   162398   162423   162450   162379   162310 
  162324   162324   162283   162303   162426   162565   162599   162552 
  162531   162421   162201   162136   162195   162257   162361   162328 
  162175   162241   162468   162589   162552   162454   162472   162581 
  162581   162475   162346   162202   162093   162094   162162   162156 
  162141   162264   162369   162333   162309   162379   162518   162670 
  162724   162661   162565   162476   162426   162446   162440   162297 
  162153   162163   162276   162415   162436   162328   162328   162332 
  162099   161828   161709   161709   161862   162151   162394   162534 
  162688   162853   162912   162781   162490   162259   162171   162122 
  162151   162236   162259   162302   162472   162656   162702   162614 
  162495   162355   162157   161973   161935   162116   162328   162340 
  162236   162179   162319   162675   162873   162722   162591   162689 
  162634   162220   161877   161815   161829   161932   162221   162604 
  162792   162611   162274   161968   161852   162010   162252   162541 
  162841   162897   162815   162773   162616   162351   162264   162441 
  162685   162843   162862   162676   162306   161954   161755   161661 
  161685   161940   162378   162711   162820   162841   162652   162256 
  162006   161897   161912   162190   162496   162629   162515   162197 
  162075   162310   162556   162592   162602   162696   162677   162527 
  162380   162190   162082   162220   162398   162492   162576   162522 
  162322   162265   162369   162396   162306   162328   162568   162660 
  162403   162151   162157   162353   162491   162402   162209   162139 
  162329   162567   162499   162229   162066   161998   161863   161811 
  162022   162265   162378   162382   162295   162338   162534   162598 
  162527   162504   162561   162575   162465   162356   162344   162365 
  162425   162542   162669   162799   162805   162511   162117   161993 
  162133   162270   162280   162218   162153   162091   162032   161993 
  161946   161978   162232   162558   162735   162726   162633   162600 
  162576   162452   162348   162363   162410   162396   162352   162346 
  162391   162476   162513   162490   162487   162450   162405   162400 
  162395   162423   162427   162298   162099   161939   161939   162129 
  162352   162414   162267   162136   162232   162503   162716   162642 
  162391   162240   162190   162130   162108   162182   162286   162410 
  162569   162584   162361   162079   162055   162321   162495   162434 
  162349   162317   162318   162349   162382   162378   162386   162499 
  162589   162577   162608   162673   162625   162494   162365   162225 
  162141   162244   162473   162607   162498   162287   162195   162213 
  162237   162201   162105   162101   162247   162396   162442   162432 
  162388   162305   162303   162456   162622   162641   162546   162490 
  162469   162375   162247   162210   162249   162199   162083   162125 
  162299   162417   162421   162376   162317   162216   162218   162365 
  162446   162430   162341   162271   162313   162330   162352   162448 
  162503   162517   162495   162460   162460   162444   162383   162306 
  162305   162363   162352   162301   162290   162325   162345   162313 
  162338   162449   162519   162491   162388   162275   162202   162186 
  162222   162318   162438   162506   162550   162549   162418   162276 
  162272   162340   162314   162237   162263   162290   162252   162230 
  162166   162097   162130   162241   162402   162522   162553   162600 
  162612   162487   162390   162379   162318   162271   162309   162376 
  162479   162526   162468   162449   162492   162517   162514   162456 
  162355   162284   162253   162202   162144   162160   162198   162137 
  162091   162206   162378   162472   162463   162429   162417   162311 
  162126   162101   162263   162414   162437   162324   162224   162261 
  162279   162263   162333   162417   162496   162540   162487   162496 
  162542   162453   162324   162318   162425   162499   162502   162533 
  162540   162440   162344   162325   162360   162410   162422   162392 
  162338   162283   162251   162198   162175   162264   162349   162368 
  162364   162307   162299   162379   162409   162411   162387   162318 
  162337   162383   162368   162376   162395   162384   162359   162301 
  162237   162257   162318   162329   162378   162453   162460   162490 
  162548   162511   162421   162333   162245   162220   162238   162229 
  162264   162342   162369   162388   162390   162357   162395   162450 
  162456   162500   162552   162471   162330   162298   162290   162209 
  162170   162220   162263   162237   162243   162328   162378   162379 
  162372   162351   162355   162364   162349   162378   162446   162468 
  162423   162368   162279   162152   162141   162252   162279   162225 
  162268   162445   162630   162689   162641   162573   162496   162376 
  162220   162090   162090   162243   162421   162399   162210   162132 
  162186   162272   162391   162498   162562   162529   162411   162386 
  162411   162345   162303   162378   162468   162491   162457   162440 
  162450   162378   162257   162275   162346   162368   162425   162465 
  162372   162232   162152   162136   162194   162267   162283   162311 
  162345   162340   162372   162434   162459   162453   162471   162487 
  162446   162434   162452   162375   162241   162178   162228   162372 
  162538   162610   162544   162422   162307   162259   162288   162307 
  162310   162326   162363   162363   162282   162271   162330   162322 
  162288   162252   162256   162357   162429   162425   162446   162407 
  162263   162206   162240   162292   162425   162504   162441   162348 
  162284   162292   162334   162356   162384   162414   162400   162348 
  162337   162375   162378   162345   162299   162247   162232   162275 
  162324   162318   162302   162329   162418   162575   162697   162706 
  162629   162496   162291   162064   162005   162122   162238   162325 
  162419   162471   162449   162440   162422   162340   162340   162423 
  162438   162436   162433   162392   162349   162305   162233   162182 
  162198   162244   162333   162507   162645   162666   162595   162486 
  162407   162319   162214   162155   162129   162156   162220   162271 
  162313   162330   162388   162510   162580   162565   162498   162395 
  162315   162306   162328   162310   162255   162224   162220   162224 
  162260   162321   162390   162463   162500   162469   162378   162286 
  162255   162217   162159   162152   162205   162326   162469   162545 
  162530   162463   162398   162351   162379   162456   162448   162430 
  162426   162359   162328   162324   162307   162352   162346   162230 
  162157   162168   162214   162288   162313   162264   162241   162256 
  162321   162448   162552   162598   162572   162465   162409   162463 
  162519   162525   162508   162449   162346   162263   162216   162217 
  162256   162268   162319   162429   162494   162521   162480   162348 
