Origin Time       2024/06/23 22:54:00
Lat.              35.645
Long.             140.060
Depth. (km)       72
Mag.              4.1
Station Code      TKYH12
Station Lat.      35.6701
Station Long.     139.2650
Station Height(m) 210
Record Time       2024/06/23 22:54:39
Sampling Freq(Hz) 100Hz
Duration Time(s)  120
Dir.              5
Scale Factor      7845(gal)/8223790
Max. Acc. (gal)   1.626
Last Correction   2024/06/23 22:54:39
Memo.             
[...]
   -2983    -2982    -2983    -2983    -2983    -2983    -2980    -2982 
   -2982    -2980    -2980    -2982    -2980    -2983    -2984    -2983 
   -2983    -2983    -2982    -2983    -2983    -2983    -2984    -2983 
   -2982    -2983    -2983    -2984    -2984    -2983    -2983    -2983 
   -2982    -2983    -2983    -2982    -2984    -2983    -2980    -2982 
   -2983    -2983    -2980    -2979    -2982    -2984    -2983    -2984 
   -2986    -2983    -2982    -2982    -2980    -2982    -2984    -2982 
   -2980    -2983    -2983    -2984    -2984    -2982    -2983    -2984 
   -2980    -2982    -2983    -2983    -2983    -2983    -2982    -2983 
   -2986    -2984    -2983    -2982    -2980    -2983    -2984    -2984 
   -2984    -2984    -2983    -2983    -2983    -2983    -2984    -2984 
   -2982    -2983    -2986    -2986    -2984    -2983    -2982    -2983 
   -2984    -2984    -2983    -2983    -2983    -2982    -2982    -2983 
   -2984    -2983    -2982    -2983    -2984    -2984    -2984    -2984 
   -2986    -2984    -2980    -2980    -2982    -2983    -2983    -2982 
   -2979    -2983    -2984    -2982    -2982    -2983    -2983    -2984 
   -2983    -2982    -2982    -2980    -2983    -2987    -2984    -2982 
   -2983    -2982    -2982    -2983    -2982    -2983    -2984    -2983 
   -2983    -2984    -2983    -2982    -2984    -2983    -2980    -2983 
   -2983    -2979    -2982    -2986    -2983    -2980    -2983    -2987 
   -2986    -2984    -2983    -2982    -2983    -2982    -2983    -2984 
   -2982    -2980    -2983    -2984    -2982    -2982    -2982    -2979 
   -2976    -2972    -2967    -2963    -2965    -2974    -2986    -2995 
   -2998    -2994    -2979    -2968    -2965    -2959    -2961    -2975 
   -2984    -3003    -3024    -3014    -2995    -2986    -2979    -2983 
   -2992    -3010    -3021    -2994    -2963    -2924    -2863    -2845 
   -2852    -2874    -2979    -3090    -3122    -3121    -3075    -3030 
   -3032    -2960    -2889    -2972    -3064    -3038    -2917    -2808 
   -2824    -2803    -2678    -2722    -2990    -3298    -3469    -3422 
   -3353    -3331    -3192    -2999    -2870    -2849    -2998    -3064 
   -2857    -2629    -2528    -2508    -2566    -2686    -2956    -3397 
   -3753    -3773    -3489    -3187    -3019    -2833    -2695    -2763 
   -2851    -2874    -2843    -2616    -2269    -2093    -2327    -2856 
   -3287    -3601    -3863    -3862    -3603    -3165    -2751    -2754 
   -3034    -3154    -3049    -2844    -2590    -2259    -2003    -2166 
   -2768    -3423    -3709    -3592    -3470    -3483    -3404    -3331 
   -3387    -3310    -3053    -2814    -2505    -2151    -2084    -2268 
   -2450    -2693    -3013    -3188    -3234    -3348    -3481    -3553 
   -3653    -3650    -3311    -2909    -2748    -2587    -2358    -2327 
   -2424    -2525    -2686    -2756    -2775    -3056    -3469    -3732 
   -3866    -3832    -3599    -3370    -3181    -2841    -2463    -2357 
   -2417    -2380    -2427    -2658    -2775    -2793    -2903    -3015 
   -3217    -3624    -3844    -3618    -3299    -3163    -2998    -2683 
   -2442    -2420    -2575    -2751    -2774    -2758    -2914    -3019 
   -2913    -2938    -3306    -3744    -3863    -3572    -3177    -2883 
   -2623    -2481    -2546    -2725    -2929    -3022    -2899    -2686 
   -2624    -2825    -3145    -3426    -3632    -3596    -3264    -2947 
   -2762    -2586    -2539    -2677    -2795    -2822    -2857    -2951 
   -3018    -3055    -3157    -3250    -3254    -3258    -3250    -3169 
   -3095    -3048    -2922    -2731    -2678    -2829    -2986    -3045 
   -3049    -3013    -2980    -2978    -2964    -2974    -3067    -3142 
   -3036    -2782    -2585    -2565    -2704    -2887    -3013    -3084 
   -3129    -3141    -3133    -3087    -3022    -3011    -3069    -3144 
   -3152    -3038    -2864    -2776    -2808    -2824    -2809    -2901 
   -3052    -3102    -3067    -3028    -3015    -3123    -3346    -3468 
   -3338    -3082    -2874    -2795    -2802    -2735    -2608    -2624 
   -2779    -2882    -2857    -2767    -2717    -2843    -3140    -3375 
   -3400    -3323    -3237    -3168    -3114    -3003    -2879    -2836 
   -2852    -2843    -2743    -2624    -2644    -2812    -3069    -3341 
   -3454    -3357    -3219    -3192    -3214    -3150    -3022    -2909 
   -2859    -2867    -2799    -2629    -2519    -2525    -2621    -2770 
   -2890    -2975    -3111    -3294    -3404    -3329    -3129    -3010 
   -3029    -3025    -2951    -2959    -3036    -2944    -2671    -2488 
   -2550    -2801    -3107    -3287    -3271    -3206    -3223    -3217 
   -3100    -3051    -3181    -3315    -3269    -3073    -2887    -2783 
   -2706    -2651    -2675    -2774    -2897    -2960    -2875    -2810 
   -2992    -3230    -3269    -3191    -3114    -3057    -2999    -2891 
   -2835    -2901    -2937    -2879    -2829    -2856    -2959    -3084 
   -3114    -3024    -2975    -3072    -3138    -3040    -2956    -3017 
   -3053    -2943    -2808    -2794    -2920    -3049    -3034    -2961 
   -3055    -3277    -3366    -3231    -3007    -2859    -2829    -2830 
   -2849    -2905    -2898    -2830    -2795    -2790    -2785    -2840 
   -3037    -3277    -3325    -3163    -2978    -2889    -2895    -2970 
   -3038    -3026    -3009    -3033    -2947    -2770    -2687    -2722 
   -2859    -3078    -3244    -3253    -3136    -3024    -3022    -3098 
   -3123    -3022    -2897    -2963    -3121    -3026    -2751    -2663 
   -2763    -2848    -2878    -2889    -2940    -3072    -3200    -3221 
   -3167    -3107    -3057    -2995    -2916    -2866    -2886    -2941 
   -2984    -2964    -2866    -2768    -2770    -2934    -3204    -3335 
   -3262    -3198    -3210    -3187    -3055    -2857    -2721    -2727 
   -2820    -2965    -3145    -3153    -2887    -2695    -2772    -2836 
   -2808    -2857    -2986    -3075    -3044    -3010    -3119    -3202 
   -3090    -2926    -2870    -2883    -2871    -2893    -3072    -3304 
   -3369    -3172    -2837    -2670    -2781    -2949    -3073    -3202 
   -3245    -3154    -3021    -2899    -2841    -2859    -2911    -3052 
   -3196    -3096    -2841    -2704    -2693    -2783    -2952    -3072 
   -3098    -3053    -2959    -2860    -2767    -2766    -2936    -3134 
   -3186    -3127    -3067    -2988    -2905    -2947    -3060    -3099 
   -3117    -3111    -3019    -2967    -2998    -2995    -2956    -2974 
   -3045    -3055    -3003    -2991    -2984    -2932    -2876    -2821 
   -2803    -2835    -2826    -2799    -2855    -2953    -3034    -3102 
   -3129    -3092    -3037    -3046    -3138    -3163    -3046    -2938 
   -2910    -2891    -2889    -2940    -3033    -3117    -3114    -3009 
   -2853    -2787    -2928    -3149    -3223    -3121    -2974    -2895 
   -2911    -3013    -3119    -3103    -2992    -2914    -2844    -2772 
   -2798    -2909    -2963    -2895    -2835    -2926    -3078    -3122 
   -3100    -3078    -3056    -3060    -3033    -2968    -2997    -3129 
   -3218    -3144    -2897    -2678    -2685    -2829    -2947    -3006 
   -2984    -2924    -2949    -3075    -3153    -3140    -3175    -3225 
   -3110    -2949    -2924    -2945    -2930    -2937    -2964    -2960 
   -2947    -2898    -2739    -2609    -2736    -3068    -3352    -3408 
   -3269    -3051    -2805    -2621    -2640    -2806    -2929    -2994 
   -3032    -2970    -2835    -2791    -2941    -3195    -3356    -3345 
   -3165    -2889    -2749    -2859    -3057    -3176    -3173    -3064 
   -2898    -2799    -2855    -2951    -2972    -2997    -3055    -3056 
   -2991    -2921    -2883    -2899    -2934    -2936    -2964    -3078 
   -3122    -2994    -2857    -2855    -2917    -2960    -2978    -2979 
   -2976    -2976    -2964    -2957    -3018    -3134    -3196    -3127 
   -3037    -3051    -3067    -2976    -2847    -2818    -2959    -3096 
   -3075    -2995    -2951    -2932    -2928    -2938    -3001    -3096 
   -3114    -3014    -2882    -2805    -2795    -2820    -2853    -2929 
   -3102    -3277    -3258    -3057    -2890    -2876    -2943    -2982 
   -2948    -2851    -2782    -2814    -2879    -2903    -2940    -3064 
   -3187    -3194    -3145    -3099    -3033    -3013    -3072    -3103 
   -3044    -2980    -2967    -2917    -2794    -2739    -2817    -2920 
   -2988    -3069    -3167    -3218    -3130    -2934    -2814    -2817 
   -2876    -2988    -3106    -3138    -3057    -2971    -2982    -2971 
   -2844    -2756    -2814    -2890    -2930    -3065    -3250    -3254 
   -3091    -2959    -2957    -3090    -3190    -3034    -2770    -2725 
   -2841    -2847    -2745    -2731    -2856    -2971    -2987    -3010 
   -3087    -3137    -3134    -3127    -3130    -3117    -3100    -3107 
   -3075    -2965    -2862    -2816    -2816    -2894    -3029    -3094 
   -3040    -2984    -3045    -3160    -3167    -2997    -2754    -2647 
   -2782    -3029    -3188    -3195    -3161    -3199    -3217    -3087 
   -2876    -2731    -2685    -2685    -2710    -2798    -2951    -3088 
   -3100    -2987    -2856    -2794    -2899    -3195    -3464    -3469 
   -3238    -2952    -2744    -2706    -2860    -3032    -3038    -2972 
   -2978    -3026    -3028    -2934    -2817    -2801    -2895    -3015 
   -3103    -3122    -3030    -2907    -2924    -3064    -3117    -2992 
   -2822    -2729    -2760    -2920    -3073    -3067    -2976    -2990 
   -3121    -3223    -3230    -3133    -2959    -2856    -2893    -2940 
   -2903    -2847    -2890    -3019    -3025    -2868    -2745    -2768 
   -2947    -3180    -3283    -3252    -3200    -3111    -2953    -2818 
   -2793    -2863    -2964    -3041    -3092    -3114    -3057    -2948 
   -2872    -2847    -2833    -2808    -2818    -2975    -3211    -3280 
   -3138    -3007    -2988    -2941    -2783    -2663    -2698    -2836 
   -3018    -3188    -3258    -3237    -3169    -3024    -2816    -2689 
   -2758    -2982    -3208    -3296    -3225    -3103    -3011    -2924 
   -2845    -2813    -2825    -2924    -3083    -3132    -3025    -2945 
   -3001    -3090    -3078    -2998    -2980    -3001    -2945    -2901 
   -3003    -3157    -3202    -3100    -2914    -2741    -2652    -2668 
   -2720    -2754    -2826    -2920    -2995    -3126    -3245    -3234 
   -3184    -3183    -3146    -3022    -2905    -2879    -2899    -2893 
   -2879    -2862    -2791    -2733    -2832    -3030    -3145    -3115 
   -3069    -3103    -3119    -3038    -2980    -3044    -3177    -3241 
   -3145    -2982    -2847    -2674    -2520    -2577    -2835    -3086 
   -3176    -3148    -3127    -3129    -3127    -3159    -3176    -3109 
   -3003    -2944    -2948    -2964    -2924    -2843    -2825    -2909 
   -2974    -2930    -2855    -2799    -2731    -2705    -2803    -2978 
   -3115    -3202    -3273    -3288    -3191    -3051    -3003    -3056 
   -3051    -2937    -2871    -2883    -2875    -2863    -2899    -2988 
   -3100    -3130    -3022    -2898    -2914    -3071    -3238    -3300 
   -3211    -3003    -2803    -2762    -2862    -2937    -2920    -2886 
   -2909    -2955    -2947    -2899    -2882    -2925    -3028    -3107 
   -3082    -3024    -3003    -2964    -2910    -2928    -3002    -3057 
   -3048    -2982    -2932    -2951    -2983    -2961    -2860    -2687 
   -2546    -2596    -2818    -3063    -3256    -3356    -3307    -3194 
   -3150    -3196    -3238    -3138    -2859    -2592    -2519    -2583 
   -2663    -2714    -2736    -2793    -2982    -3258    -3433    -3473 
   -3550    -3717    -3820    -3732    -3480    -3198    -3002    -2833 
   -2560    -2199    -1898    -1818    -2010    -2304    -2451    -2436 
   -2528    -2936    -3458    -3700    -3582    -3437    -3554    -3785 
   -3804    -3582    -3369    -3331    -3391    -3368    -3181    -2880 
   -2612    -2459    -2274    -1917    -1605    -1786    -2546    -3434 
   -3998    -4178    -4149    -4070    -3908    -3553    -3110    -2797 
   -2585    -2328    -2077    -1989    -2085    -2187    -2103    -1896 
   -1892    -2303    -3010    -3703    -4082    -4075    -3904    -3794 
   -3694    -3441    -3106    -2976    -3200    -3599    -3784    -3503 
   -2905    -2370    -2116    -2061    -2081    -2293    -2795    -3346 
   -3607    -3514    -3253    -2983    -2686    -2380    -2285    -2563 
   -3042    -3331    -3180    -2740    -2405    -2434    -2816    -3404 
   -4017    -4430    -4467    -4067    -3265    -2282    -1544    -1364 
   -1686    -2150    -2475    -2741    -3117    -3501    -3645    -3466 
   -3214    -3130    -3153    -3203    -3362    -3619    -3829    -3881 
   -3639    -3013    -2249    -1858    -2107    -2720    -3132    -3067 
   -2798    -2655    -2628    -2624    -2674    -2801    -2937    -2967 
   -2895    -2929    -3150    -3334    -3308    -3144    -2909    -2679 
   -2671    -2949    -3279    -3470    -3584    -3748    -3905    -3897 
   -3694    -3379    -3060    -2839    -2673    -2465    -2262    -2160 
   -2170    -2238    -2316    -2458    -2693    -2928    -3082    -3152 
   -3150    -3136    -3152    -3171    -3186    -3234    -3339    -3514 
   -3667    -3508    -2920    -2251    -1950    -2115    -2529    -2937 
   -3218    -3433    -3692    -3888    -3731    -3211    -2717    -2505 
   -2373    -2083    -1819    -1952    -2482    -3034    -3353    -3493 
   -3616    -3798    -4000    -4109    -4020    -3713    -3315    -2976 
   -2700    -2420    -2133    -1861    -1647    -1598    -1888    -2538 
   -3315    -3986    -4469    -4687    -4548    -4075    -3441    -2832 
   -2351    -2114    -2246    -2637    -2951    -2957    -2720    -2467 
   -2322    -2245    -2211    -2316    -2709    -3314    -3720    -3646 
   -3325    -3168    -3249    -3292    -3090    -2809    -2751    -2928 
   -3098    -3056    -2833    -2691    -2802    -3044    -3179    -3094 
   -2957    -3082    -3443    -3599    -3273    -2786    -2651    -2916 
   -3110    -2937    -2623    -2508    -2678    -3017    -3311    -3358 
   -3192    -3057    -3096    -3218    -3242    -3096    -2886    -2744 
   -2651    -2501    -2340    -2373    -2683    -3053    -3241    -3306 
   -3416    -3530    -3462    -3210    -2951    -2808    -2793    -2889 
   -2968    -2899    -2798    -2855    -3015    -3056    -2883    -2698 
   -2702    -2816    -2891    -2918    -2953    -3009    -3040    -3063 
   -3168    -3354    -3503    -3496    -3329    -3102    -2902    -2762 
   -2698    -2700    -2702    -2722    -2864    -3114    -3358    -3495 
   -3481    -3346    -3129    -2901    -2747    -2613    -2416    -2258 
   -2274    -2436    -2612    -2749    -2903    -3071    -3164    -3186 
   -3275    -3497    -3711    -3765    -3657    -3387    -2945    -2525 
   -2400    -2527    -2636    -2654    -2727    -2921    -3154    -3335 
   -3408    -3346    -3219    -3126    -3087    -3078    -3061    -2972 
   -2817    -2691    -2635    -2625    -2668    -2739    -2794    -2870 
   -3037    -3273    -3437    -3443    -3350    -3233    -3096    -2938 
   -2825    -2843    -2948    -2960    -2759    -2474    -2362    -2551 
   -2938    -3315    -3527    -3538    -3420    -3319    -3299    -3238 
   -3034    -2794    -2628    -2512    -2416    -2373    -2435    -2601 
   -2766    -2841    -2847    -2870    -2998    -3219    -3424    -3519 
   -3515    -3446    -3294    -3061    -2879    -2880    -3003    -3073 
   -3034    -2934    -2847    -2839    -2890    -2971    -3103    -3260 
   -3348    -3291    -3107    -2929    -2863    -2847    -2763    -2601 
   -2450    -2409    -2485    -2620    -2781    -2992    -3248    -3430 
   -3465    -3415    -3329    -3207    -3133    -3222    -3392    -3380 
   -3118    -2835    -2694    -2639    -2617    -2671    -2774    -2816 
   -2787    -2772    -2795    -2802    -2809    -2872    -2944    -2951 
   -2940    -2986    -3059    -3075    -3019    -2988    -3026    -3068 
   -3140    -3303    -3461    -3504    -3472    -3458    -3488    -3458 
   -3242    -2890    -2590    -2457    -2481    -2616    -2781    -2883 
   -2938    -3022    -3090    -3014    -2810    -2646    -2631    -2710 
   -2774    -2781    -2803    -2913    -3010    -2949    -2818    -2836 
   -3044    -3260    -3267    -3029    -2763    -2690    -2841    -3114 
   -3357    -3460    -3433    -3368    -3338    -3338    -3287    -3129 
   -2899    -2678    -2550    -2616    -2874    -3172    -3343    -3310 
   -3092    -2810    -2679    -2845    -3157    -3296    -3175    -2994 
   -2889    -2756    -2536    -2362    -2366    -2519    -2670    -2728 
   -2767    -2884    -3013    -3044    -2999    -3038    -3249    -3483 
   -3546    -3399    -3123    -2882    -2829    -2978    -3171    -3210 
   -3117    -3090    -3171    -3237    -3206    -3100    -3003    -2955 
   -2930    -2889    -2830    -2803    -2821    -2853    -2874    -2852 
   -2806    -2832    -2924    -2959    -2922    -2907    -2943    -3021 
   -3138    -3265    -3353    -3334    -3188    -2979    -2771    -2594 
   -2548    -2675    -2820    -2855    -2866    -2934    -3024    -3110 
   -3233    -3380    -3435    -3319    -3114    -2956    -2851    -2727 
   -2616    -2575    -2579    -2666    -2903    -3172    -3315    -3354 
   -3361    -3292    -3111    -2955    -2943    -3003    -3019    -2951 
   -2840    -2740    -2633    -2548    -2544    -2566    -2621    -2839 
   -3194    -3511    -3653    -3561    -3260    -2884    -2605    -2543 
   -2706    -2974    -3203    -3345    -3430    -3464    -3435    -3329 
   -3119    -2859    -2689    -2681    -2763    -2829    -2882    -2970 
   -3063    -3063    -2922    -2740    -2655    -2693    -2818    -2984 
   -3100    -3102    -3024    -2947    -2898    -2862    -2862    -2943 
   -3072    -3144    -3119    -3121    -3289    -3561    -3677    -3477 
   -3042    -2577    -2286    -2265    -2442    -2667    -2860    -3041 
   -3183    -3202    -3107    -3003    -2984    -3038    -3063    -3009 
   -2945    -2986    -3127    -3222    -3150    -2997    -2951    -3048 
   -3119    -3064    -2963    -2905    -2863    -2803    -2756    -2760 
   -2817    -2890    -2949    -2991    -3025    -3073    -3140    -3157 
   -3091    -3001    -2960    -2951    -2889    -2764    -2663    -2633 
   -2724    -2979    -3277    -3420    -3375    -3264    -3171    -3063 
   -2907    -2747    -2643    -2617    -2681    -2859    -3083    -3218 
   -3260    -3267    -3214    -3102    -3025    -2991    -2944    -2887 
   -2851    -2824    -2801    -2806    -2879    -3040    -3225    -3348 
   -3402    -3414    -3352    -3190    -3011    -2902    -2816    -2698 
   -2636    -2724    -2870    -2883    -2764    -2675    -2685    -2731 
   -2766    -2791    -2859    -3019    -3276    -3542    -3670    -3603 
   -3389    -3099    -2839    -2686    -2647    -2702    -2778    -2759 
   -2648    -2554    -2546    -2606    -2736    -2965    -3234    -3412 
   -3464    -3438    -3366    -3265    -3152    -3018    -2902    -2891 
   -2990    -3098    -3159    -3192    -3215    -3199    -3121    -2978 
   -2785    -2587    -2465    -2494    -2658    -2867    -3060    -3164 
   -3152    -3102    -3075    -3055    -3018    -2971    -2953    -2968 
   -2990    -3002    -3011    -3034    -3064    -3061    -3003    -2898 
   -2786    -2744    -2805    -2871    -2821    -2709    -2713    -2898 
   -3181    -3423    -3532    -3481    -3291    -3069    -2874    -2655 
