Origin Time       2024/06/23 22:54:00
Lat.              35.645
Long.             140.060
Depth. (km)       72
Mag.              4.1
Station Code      TKYH12
Station Lat.      35.6701
Station Long.     139.2650
Station Height(m) 63
Record Time       2024/06/23 22:54:39
Sampling Freq(Hz) 100Hz
Duration Time(s)  120
Dir.              3
Scale Factor      2942(gal)/8224139
Max. Acc. (gal)   0.303
Last Correction   2024/06/23 22:54:39
Memo.             
[...]
   -9733    -9732    -9734    -9734    -9732    -9734    -9737    -9737 
   -9734    -9733    -9732    -9732    -9736    -9734    -9733    -9733 
   -9732    -9730    -9733    -9734    -9734    -9733    -9733    -9732 
   -9732    -9734    -9736    -9734    -9733    -9733    -9733    -9733 
   -9732    -9733    -9736    -9736    -9733    -9730    -9730    -9732 
   -9733    -9733    -9734    -9736    -9734    -9732    -9733    -9736 
   -9733    -9730    -9734    -9736    -9732    -9733    -9734    -9733 
   -9733    -9733    -9733    -9734    -9733    -9733    -9733    -9732 
   -9733    -9734    -9733    -9733    -9734    -9734    -9734    -9736 
   -9736    -9734    -9733    -9733    -9733    -9734    -9734    -9734 
   -9733    -9732    -9732    -9734    -9734    -9733    -9734    -9736 
   -9734    -9734    -9734    -9734    -9732    -9732    -9732    -9734 
   -9734    -9734    -9733    -9729    -9730    -9734    -9734    -9732 
   -9734    -9737    -9736    -9737    -9736    -9730    -9730    -9736 
   -9737    -9734    -9734    -9734    -9736    -9736    -9733    -9732 
   -9734    -9734    -9732    -9733    -9736    -9734    -9730    -9730 
   -9734    -9733    -9730    -9733    -9732    -9730    -9733    -9733 
   -9733    -9734    -9733    -9730    -9732    -9733    -9733    -9734 
   -9736    -9734    -9732    -9732    -9733    -9734    -9732    -9732 
   -9733    -9732    -9730    -9730    -9733    -9732    -9733    -9734 
   -9732    -9730    -9733    -9733    -9733    -9734    -9734    -9733 
   -9732    -9733    -9736    -9734    -9733    -9736    -9736    -9733 
   -9733    -9734    -9736    -9734    -9732    -9732    -9733    -9733 
   -9734    -9736    -9733    -9734    -9736    -9733    -9732    -9732 
   -9732    -9733    -9736    -9734    -9732    -9734    -9734    -9732 
   -9733    -9734    -9732    -9733    -9734    -9732    -9730    -9734 
   -9736    -9736    -9733    -9730    -9734    -9733    -9732    -9736 
   -9736    -9733    -9732    -9732    -9733    -9732    -9730    -9733 
   -9734    -9730    -9732    -9734    -9733    -9734    -9733    -9733 
   -9737    -9737    -9733    -9733    -9733    -9733    -9733    -9736 
   -9734    -9732    -9733    -9736    -9734    -9732    -9733    -9732 
   -9730    -9733    -9734    -9729    -9730    -9734    -9733    -9730 
   -9732    -9730    -9729    -9733    -9733    -9730    -9730    -9732 
   -9734    -9736    -9733    -9733    -9736    -9734    -9733    -9734 
   -9730    -9729    -9732    -9733    -9730    -9730    -9733    -9733 
   -9732    -9730    -9729    -9732    -9734    -9734    -9734    -9733 
   -9733    -9733    -9733    -9734    -9736    -9734    -9732    -9733 
   -9733    -9734    -9737    -9737    -9733    -9733    -9734    -9736 
   -9736    -9734    -9733    -9736    -9738    -9736    -9732    -9734 
   -9734    -9730    -9730    -9734    -9734    -9734    -9734    -9733 
   -9733    -9733    -9732    -9730    -9732    -9733    -9733    -9733 
   -9732    -9732    -9733    -9734    -9734    -9736    -9737    -9734 
   -9732    -9736    -9736    -9732    -9732    -9736    -9736    -9734 
   -9734    -9732    -9733    -9736    -9733    -9732    -9732    -9733 
   -9734    -9733    -9733    -9732    -9730    -9732    -9732    -9732 
   -9734    -9734    -9732    -9732    -9733    -9733    -9734    -9734 
   -9734    -9733    -9732    -9733    -9733    -9733    -9737    -9736 
   -9732    -9733    -9734    -9733    -9732    -9732    -9733    -9734 
   -9733    -9732    -9734    -9734    -9730    -9728    -9730    -9733 
   -9733    -9734    -9736    -9736    -9732    -9732    -9733    -9733 
   -9733    -9733    -9733    -9733    -9733    -9734    -9737    -9740 
   -9738    -9734    -9730    -9734    -9736    -9733    -9733    -9736 
   -9732    -9732    -9736    -9736    -9736    -9732    -9732    -9733 
   -9733    -9733    -9732    -9732    -9733    -9730    -9730    -9734 
   -9734    -9733    -9733    -9734    -9734    -9733    -9732    -9732 
   -9734    -9736    -9734    -9733    -9732    -9734    -9736    -9733 
   -9732    -9733    -9734    -9734    -9736    -9734    -9732    -9732 
   -9732    -9732    -9733    -9733    -9733    -9734    -9732    -9730 
   -9733    -9733    -9730    -9733    -9734    -9734    -9733    -9730 
   -9732    -9736    -9733    -9732    -9733    -9734    -9734    -9733 
   -9733    -9733    -9732    -9733    -9736    -9734    -9733    -9734 
   -9733    -9732    -9734    -9734    -9732    -9730    -9733    -9733 
   -9732    -9733    -9732    -9732    -9734    -9733    -9732    -9733 
   -9736    -9736    -9736    -9737    -9740    -9738    -9734    -9733 
   -9733    -9733    -9733    -9734    -9733    -9732    -9732    -9733 
   -9733    -9730    -9732    -9734    -9733    -9732    -9732    -9733 
   -9736    -9736    -9733    -9732    -9734    -9734    -9733    -9734 
   -9734    -9734    -9733    -9732    -9733    -9733    -9732    -9732 
   -9736    -9736    -9732    -9733    -9736    -9732    -9730    -9736 
   -9736    -9732    -9732    -9732    -9730    -9732    -9733    -9732 
   -9732    -9732    -9732    -9733    -9733    -9734    -9736    -9736 
   -9734    -9733    -9733    -9732    -9733    -9734    -9733    -9734 
   -9736    -9732    -9732    -9734    -9733    -9730    -9733    -9734 
   -9734    -9733    -9733    -9733    -9733    -9734    -9734    -9733 
   -9732    -9733    -9733    -9733    -9734    -9732    -9732    -9734 
   -9733    -9732    -9736    -9734    -9733    -9734    -9734    -9734 
   -9738    -9736    -9729    -9732    -9734    -9736    -9736    -9733 
   -9733    -9733    -9732    -9733    -9733    -9732    -9732    -9730 
   -9730    -9733    -9734    -9734    -9734    -9733    -9733    -9734 
   -9734    -9733    -9734    -9736    -9734    -9734    -9733    -9734 
   -9734    -9732    -9732    -9734    -9733    -9733    -9733    -9732 
   -9733    -9733    -9732    -9734    -9734    -9732    -9732    -9734 
   -9733    -9732    -9733    -9730    -9730    -9733    -9736    -9732 
   -9730    -9732    -9733    -9733    -9733    -9733    -9733    -9733 
   -9733    -9732    -9732    -9733    -9733    -9733    -9734    -9733 
   -9732    -9733    -9733    -9733    -9734    -9733    -9733    -9734 
   -9734    -9733    -9730    -9730    -9736    -9737    -9733    -9732 
   -9733    -9733    -9730    -9730    -9736    -9736    -9733    -9736 
   -9736    -9730    -9729    -9733    -9738    -9737    -9732    -9734 
   -9736    -9730    -9730    -9733    -9732    -9732    -9738    -9737 
   -9732    -9732    -9736    -9736    -9733    -9734    -9738    -9738 
   -9736    -9734    -9734    -9732    -9732    -9736    -9736    -9733 
   -9733    -9733    -9733    -9733    -9733    -9734    -9736    -9733 
   -9733    -9734    -9734    -9733    -9733    -9733    -9730    -9732 
   -9734    -9736    -9733    -9733    -9736    -9736    -9734    -9734 
   -9736    -9737    -9736    -9736    -9736    -9734    -9733    -9732 
   -9732    -9734    -9737    -9736    -9734    -9737    -9737    -9733 
   -9733    -9736    -9734    -9733    -9733    -9730    -9730    -9732 
   -9729    -9730    -9732    -9729    -9730    -9734    -9733    -9732 
   -9733    -9733    -9732    -9732    -9733    -9733    -9733    -9734 
   -9734    -9732    -9732    -9733    -9733    -9734    -9734    -9733 
   -9736    -9734    -9732    -9734    -9734    -9732    -9733    -9734 
   -9734    -9733    -9732    -9732    -9736    -9736    -9733    -9733 
   -9734    -9736    -9733    -9732    -9733    -9734    -9734    -9732 
   -9733    -9734    -9733    -9733    -9734    -9734    -9732    -9732 
   -9733    -9733    -9734    -9734    -9732    -9729    -9729    -9732 
   -9733    -9734    -9733    -9736    -9736    -9732    -9730    -9732 
   -9732    -9733    -9733    -9733    -9733    -9733    -9733    -9732 
   -9733    -9733    -9732    -9730    -9730    -9733    -9734    -9733 
   -9733    -9736    -9736    -9732    -9730    -9733    -9734    -9733 
   -9732    -9732    -9732    -9732    -9733    -9733    -9733    -9733 
   -9732    -9733    -9734    -9734    -9733    -9734    -9732    -9730 
   -9732    -9733    -9733    -9733    -9732    -9730    -9733    -9733 
   -9733    -9733    -9734    -9736    -9734    -9733    -9733    -9733 
   -9736    -9734    -9730    -9730    -9732    -9732    -9732    -9736 
   -9736    -9730    -9732    -9733    -9733    -9733    -9732    -9732 
   -9732    -9732    -9732    -9733    -9736    -9736    -9732    -9732 
   -9734    -9734    -9733    -9733    -9732    -9730    -9734    -9737 
   -9734    -9733    -9734    -9732    -9729    -9732    -9736    -9734 
   -9733    -9734    -9732    -9729    -9734    -9736    -9733    -9733 
   -9734    -9734    -9733    -9732    -9730    -9732    -9732    -9730 
   -9732    -9733    -9736    -9737    -9733    -9730    -9734    -9734 
   -9733    -9733    -9733    -9734    -9732    -9729    -9732    -9734 
   -9736    -9736    -9734    -9732    -9730    -9732    -9733    -9733 
   -9732    -9732    -9732    -9732    -9733    -9733    -9732    -9730 
   -9733    -9736    -9737    -9736    -9734    -9733    -9734    -9736 
   -9737    -9737    -9733    -9732    -9734    -9732    -9732    -9736 
   -9733    -9732    -9733    -9733    -9734    -9734    -9734    -9734 
   -9734    -9734    -9733    -9733    -9734    -9734    -9733    -9733 
   -9733    -9733    -9732    -9732    -9734    -9736    -9734    -9732 
   -9730    -9732    -9733    -9733    -9733    -9733    -9734    -9733 
   -9733    -9734    -9733    -9733    -9730    -9732    -9734    -9734 
   -9734    -9736    -9734    -9733    -9733    -9733    -9733    -9733 
   -9734    -9736    -9733    -9733    -9734    -9733    -9733    -9733 
   -9733    -9736    -9738    -9734    -9733    -9736    -9734    -9732 
   -9732    -9733    -9733    -9733    -9736    -9736    -9734    -9737 
   -9737    -9736    -9734    -9732    -9730    -9733    -9733    -9734 
   -9736    -9732    -9732    -9736    -9732    -9729    -9730    -9730 
   -9730    -9732    -9733    -9738    -9741    -9738    -9738    -9738 
   -9737    -9736    -9733    -9732    -9734    -9736    -9734    -9733 
   -9732    -9734    -9736    -9734    -9732    -9733    -9733    -9733 
   -9732    -9733    -9737    -9736    -9732    -9733    -9734    -9734 
   -9733    -9733    -9734    -9734    -9732    -9730    -9733    -9734 
   -9733    -9736    -9737    -9733    -9733    -9736    -9734    -9732 
   -9733    -9732    -9732    -9733    -9733    -9733    -9733    -9734 
   -9734    -9732    -9732    -9732    -9732    -9733    -9734    -9733 
   -9732    -9734    -9736    -9733    -9733    -9736    -9734    -9733 
   -9733    -9733    -9734    -9734    -9733    -9733    -9733    -9734 
   -9733    -9730    -9730    -9733    -9733    -9733    -9733    -9734 
   -9734    -9733    -9732    -9734    -9737    -9733    -9732    -9734 
   -9734    -9734    -9733    -9734    -9734    -9733    -9732    -9734 
   -9737    -9733    -9730    -9737    -9738    -9733    -9732    -9729 
   -9729    -9733    -9734    -9733    -9733    -9733    -9734    -9734 
   -9733    -9734    -9736    -9734    -9736    -9737    -9732    -9730 
   -9733    -9732    -9733    -9734    -9734    -9733    -9734    -9733 
   -9732    -9733    -9734    -9734    -9733    -9730    -9730    -9734 
   -9734    -9733    -9732    -9733    -9736    -9734    -9733    -9734 
   -9734    -9733    -9733    -9732    -9734    -9734    -9730    -9730 
   -9732    -9736    -9737    -9733    -9730    -9734    -9734    -9733 
   -9733    -9734    -9732    -9730    -9732    -9732    -9732    -9733 
   -9733    -9732    -9734    -9732    -9729    -9733    -9733    -9730 
   -9734    -9736    -9732    -9732    -9733    -9734    -9734    -9732 
   -9730    -9734    -9737    -9734    -9733    -9734    -9733    -9733 
   -9734    -9734    -9736    -9737    -9736    -9732    -9732    -9733 
   -9736    -9736    -9733    -9733    -9734    -9733    -9732    -9733 
   -9733    -9733    -9733    -9732    -9732    -9734    -9734    -9733 
   -9733    -9733    -9733    -9732    -9732    -9733    -9736    -9734 
   -9732    -9730    -9734    -9737    -9734    -9734    -9733    -9732 
   -9732    -9733    -9732    -9733    -9733    -9733    -9734    -9737 
   -9736    -9733    -9733    -9733    -9733    -9733    -9734    -9734 
   -9733    -9733    -9734    -9733    -9732    -9734    -9736    -9732 
   -9733    -9736    -9734    -9734    -9736    -9732    -9730    -9733 
   -9733    -9732    -9734    -9737    -9733    -9730    -9734    -9736 
   -9733    -9733    -9734    -9733    -9730    -9733    -9736    -9733 
   -9733    -9734    -9733    -9733    -9736    -9734    -9734    -9734 
   -9733    -9732    -9732    -9730    -9732    -9736    -9740    -9738 
   -9738    -9736    -9732    -9733    -9736    -9734    -9733    -9733 
   -9733    -9734    -9736    -9736    -9734    -9734    -9736    -9732 
   -9730    -9734    -9734    -9734    -9736    -9733    -9730    -9733 
   -9734    -9734    -9734    -9733    -9733    -9734    -9736    -9736 
   -9734    -9734    -9734    -9733    -9733    -9734    -9738    -9748 
   -9760    -9783    -9817    -9846    -9850    -9814    -9747    -9693 
   -9670    -9636    -9595    -9602    -9609    -9613    -9713    -9830 
   -9841    -9821    -9837    -9860    -9873    -9894    -9923    -9840 
   -9670    -9590    -9528    -9485    -9548    -9495    -9463    -9772 
  -10044   -10018    -9998   -10044   -10116   -10112    -9861    -9765 
   -9929    -9814    -9482    -9234    -9215    -9459    -9335    -8888 
   -9155    -9933   -10212   -10025    -9980   -10127   -10006    -9668 
   -9628    -9694    -9514    -9354    -9266    -9185    -9217    -9171 
   -9219    -9670   -10123   -10361   -10536   -10546   -10288    -9888 
   -9796    -9958    -9612    -9274    -9586    -9525    -9094    -9319 
   -9929   -10079    -9749    -9764   -10056    -9899    -9894   -10172 
  -10079   -10064    -9973    -9235    -8969    -9695    -9994    -9427 
   -9229    -9747    -9933    -9568    -9630   -10031    -9879    -9587 
   -9783   -10045    -9987    -9771    -9666    -9582    -9435    -9612 
   -9933    -9782    -9589    -9774    -9736    -9433    -9564   -10033 
  -10114    -9829    -9744    -9801    -9722    -9814   -10064    -9846 
   -9423    -9657   -10000    -9620    -9375    -9749    -9815    -9514 
   -9553    -9787    -9713    -9553    -9834   -10150    -9890    -9649 
   -9869    -9826    -9428    -9450    -9745    -9634    -9417    -9737 
  -10161   -10025    -9782    -9842    -9857    -9787    -9705    -9528 
   -9521    -9674    -9641    -9582    -9717    -9853    -9826    -9722 
   -9709    -9706    -9636    -9710    -9806    -9729    -9652    -9594 
   -9589    -9734    -9887    -9917    -9730    -9504    -9603    -9788 
   -9763    -9742    -9884   -10087   -10035    -9678    -9601    -9948 
  -10062    -9744    -9451    -9417    -9495    -9571    -9759    -9988 
   -9930    -9710    -9657    -9755    -9882    -9884    -9765    -9726 
   -9706    -9621    -9598    -9614    -9559    -9435    -9404    -9614 
   -9801    -9796    -9923   -10064    -9891    -9752    -9844    -9796 
   -9612    -9613    -9722    -9714    -9634    -9637    -9769    -9863 
   -9736    -9576    -9556    -9594    -9706    -9861    -9929    -9946 
   -9973    -9944    -9859    -9844    -9869    -9771    -9574    -9525 
   -9694    -9823    -9796    -9682    -9517    -9459    -9624    -9887 
  -10045    -9900    -9575    -9462    -9629    -9823    -9868    -9748 
   -9613    -9671    -9825    -9769    -9640    -9721    -9779    -9657 
   -9575    -9591    -9675    -9768    -9791    -9888    -9975    -9844 
   -9755    -9779    -9776    -9872    -9891    -9676    -9575    -9602 
   -9548    -9576    -9734    -9813    -9715    -9606    -9710    -9836 
   -9728    -9657    -9791    -9873    -9778    -9721    -9803    -9776 
   -9616    -9555    -9609    -9721    -9823    -9803    -9744    -9749 
   -9774    -9802    -9799    -9742    -9733    -9747    -9713    -9734 
   -9822    -9825    -9734    -9694    -9659    -9552    -9605    -9836 
   -9877    -9656    -9491    -9639    -9894    -9872    -9709    -9724 
   -9757    -9714    -9788    -9883    -9780    -9590    -9521    -9567 
   -9667    -9830    -9879    -9675    -9620    -9890    -9957    -9722 
   -9628    -9722    -9809    -9823    -9823    -9841    -9782    -9680 
   -9649    -9671    -9715    -9747    -9674    -9543    -9531    -9694 
   -9865    -9833    -9691    -9676    -9741    -9752    -9784    -9876 
   -9861    -9742    -9729    -9728    -9637    -9684    -9755    -9597 
   -9516    -9686    -9810    -9742    -9720    -9882    -9882    -9634 
   -9645    -9884    -9876    -9715    -9691    -9710    -9644    -9606 
   -9676    -9732    -9726    -9759    -9861    -9869    -9741    -9759 
   -9867    -9776    -9695    -9711    -9625    -9633    -9903   -10110 
   -9965    -9641    -9520    -9628    -9732    -9803    -9801    -9657 
   -9632    -9848    -9992    -9931    -9813    -9648    -9463    -9472 
   -9725    -9919    -9856    -9686    -9624    -9706    -9710    -9514 
   -9456    -9694    -9853    -9788    -9768    -9868    -9841    -9675 
   -9647    -9749    -9818    -9694    -9413    -9371    -9560    -9726 
   -9948   -10088    -9976    -9745    -9533    -9547    -9849   -10049 
   -9840    -9541    -9535    -9621    -9612    -9664    -9740    -9807 
   -9937    -9860    -9656    -9775    -9981    -9857    -9589    -9529 
   -9734    -9860    -9643    -9444    -9605    -9788    -9707    -9672 
   -9926   -10066    -9795    -9567    -9682    -9752    -9605    -9479 
   -9551    -9801    -9911    -9809    -9873    -9963    -9759    -9644 
   -9780    -9809    -9705    -9655    -9699    -9720    -9651    -9693 
   -9836    -9780    -9626    -9672    -9821    -9809    -9740    -9845 
   -9888    -9697    -9618    -9702    -9737    -9799    -9825    -9774 
   -9745    -9671    -9655    -9753    -9769    -9726    -9670    -9683 
   -9873    -9940    -9761    -9732    -9855    -9815    -9639    -9478 
   -9499    -9714    -9853    -9910    -9994    -9922    -9633    -9309 
   -9289    -9703    -9999    -9801    -9524    -9514    -9683    -9848 
   -9880    -9859    -9838    -9652    -9396    -9467    -9899   -10193 
  -10044    -9756    -9575    -9390    -9297    -9516    -9867    -9927 
   -9725    -9711    -9917   -10007    -9922    -9765    -9695    -9744 
   -9618    -9452    -9606    -9747    -9707    -9837    -9968    -9880 
   -9860    -9825    -9547    -9370    -9467    -9547    -9599    -9763 
   -9873    -9819    -9782    -9826    -9792    -9740    -9838    -9922 
   -9798    -9606    -9528    -9555    -9585    -9667    -9876    -9931 
   -9714    -9605    -9807    -9984    -9788    -9548    -9678    -9857 
   -9825    -9802    -9794    -9668    -9587    -9682    -9822    -9859 
   -9819    -9794    -9747    -9721    -9867    -9931    -9682    -9483 
   -9570    -9776    -9967   -10019    -9867    -9633    -9575    -9697 
   -9740    -9713    -9718    -9614    -9463    -9558    -9849   -10042 
   -9990    -9730    -9570    -9663    -9703    -9649    -9715    -9807 
   -9784    -9687    -9661    -9817    -9888    -9671    -9539    -9695 
   -9791    -9732    -9671    -9589    -9539    -9609    -9686    -9703 
   -9801    -9960    -9934    -9732    -9640    -9764    -9910    -9844 
