Origin Time       2024/06/23 22:54:00
Lat.              35.645
Long.             140.060
Depth. (km)       72
Mag.              4.1
Station Code      TKYH12
Station Lat.      35.6701
Station Long.     139.2650
Station Height(m) 210
Record Time       2024/06/23 22:54:39
Sampling Freq(Hz) 100Hz
Duration Time(s)  120
Dir.              6
Scale Factor      7845(gal)/8223790
Max. Acc. (gal)   2.223
Last Correction   2024/06/23 22:54:39
Memo.             
[...]
   17120    17122    17124    17122    17120    17122    17122    17120 
   17122    17119    17119    17120    17120    17120    17120    17120 
   17123    17123    17120    17119    17122    17123    17124    17124 
   17124    17124    17123    17120    17122    17123    17122    17123 
   17122    17120    17122    17122    17123    17123    17122    17123 
   17123    17122    17123    17124    17124    17124    17123    17120 
   17122    17122    17122    17122    17122    17123    17123    17122 
   17122    17124    17122    17119    17123    17124    17122    17122 
   17123    17124    17123    17122    17120    17120    17122    17124 
   17123    17120    17122    17119    17118    17122    17122    17120 
   17122    17122    17120    17122    17122    17122    17122    17120 
   17119    17122    17126    17124    17122    17120    17123    17126 
   17123    17120    17123    17122    17123    17128    17124    17119 
   17123    17123    17122    17123    17123    17122    17123    17120 
   17120    17123    17123    17120    17122    17122    17122    17123 
   17122    17122    17122    17120    17123    17126    17122    17120 
   17120    17122    17123    17124    17123    17122    17122    17123 
   17123    17119    17120    17123    17123    17123    17124    17122 
   17122    17124    17122    17118    17120    17122    17123    17124 
   17123    17123    17123    17120    17122    17123    17123    17123 
   17122    17120    17123    17123    17120    17123    17122    17120 
   17122    17122    17122    17122    17120    17120    17122    17123 
   17123    17122    17122    17122    17122    17123    17123    17122 
   17120    17120    17122    17123    17123    17122    17120    17120 
   17120    17122    17122    17120    17122    17123    17122    17119 
   17123    17122    17119    17122    17122    17119    17120    17123 
   17122    17122    17119    17119    17123    17124    17123    17123 
   17123    17124    17122    17118    17119    17123    17123    17122 
   17123    17123    17123    17122    17119    17120    17123    17123 
   17122    17122    17122    17123    17123    17122    17122    17120 
   17119    17120    17122    17122    17123    17123    17122    17122 
   17120    17120    17123    17122    17122    17122    17119    17118 
   17123    17124    17123    17123    17122    17119    17119    17120 
   17120    17120    17120    17122    17124    17124    17122    17120 
   17122    17123    17123    17120    17122    17122    17120    17122 
   17123    17122    17123    17124    17123    17123    17123    17120 
   17124    17126    17122    17118    17120    17122    17122    17120 
   17120    17123    17126    17123    17120    17120    17124    17126 
   17124    17123    17122    17122    17120    17119    17119    17122 
   17122    17120    17122    17122    17122    17123    17123    17122 
   17120    17120    17122    17120    17122    17122    17120    17122 
   17123    17124    17123    17120    17122    17124    17122    17122 
   17122    17120    17119    17119    17120    17122    17122    17122 
   17123    17120    17120    17123    17120    17120    17123    17122 
   17120    17122    17122    17120    17118    17119    17123    17122 
   17120    17122    17120    17120    17123    17123    17120    17122 
   17123    17122    17123    17122    17120    17122    17124    17123 
   17122    17120    17122    17123    17123    17123    17122    17120 
   17122    17120    17120    17122    17123    17120    17119    17120 
   17122    17123    17123    17122    17122    17124    17122    17119 
   17120    17123    17122    17120    17122    17120    17122    17120 
   17119    17119    17119    17122    17122    17120    17122    17122 
   17118    17119    17122    17120    17120    17120    17119    17120 
   17122    17120    17119    17120    17122    17123    17120    17120 
   17123    17122    17123    17122    17120    17120    17122    17122 
   17122    17122    17120    17122    17122    17123    17124    17122 
   17120    17122    17119    17118    17119    17122    17123    17122 
   17120    17122    17124    17123    17123    17123    17119    17118 
   17122    17122    17122    17122    17120    17123    17123    17120 
   17123    17123    17119    17120    17122    17119    17119    17120 
   17119    17119    17119    17119    17120    17120    17120    17120 
   17122    17120    17122    17123    17123    17120    17119    17120 
   17120    17120    17122    17122    17120    17122    17122    17120 
   17122    17120    17120    17122    17120    17119    17122    17120 
   17122    17123    17122    17120    17123    17122    17122    17124 
   17123    17123    17124    17123    17122    17120    17120    17124 
   17128    17126    17122    17119    17118    17119    17123    17122 
   17120    17123    17120    17119    17123    17123    17122    17123 
   17122    17120    17123    17123    17123    17123    17120    17119 
   17119    17119    17123    17124    17120    17119    17120    17120 
   17122    17122    17122    17120    17119    17119    17122    17122 
   17122    17122    17122    17122    17122    17122    17123    17126 
   17126    17123    17122    17120    17122    17122    17122    17123 
   17126    17124    17122    17122    17123    17122    17122    17120 
   17120    17122    17122    17119    17119    17120    17122    17123 
   17123    17122    17120    17120    17122    17123    17123    17123 
   17122    17120    17122    17122    17122    17124    17123    17120 
   17120    17119    17122    17123    17120    17120    17123    17122 
   17120    17120    17122    17122    17123    17123    17124    17123 
   17123    17123    17120    17123    17124    17122    17122    17124 
   17120    17118    17122    17122    17119    17120    17123    17122 
   17119    17120    17122    17119    17120    17122    17120    17120 
   17122    17123    17122    17119    17119    17122    17122    17120 
   17122    17123    17122    17120    17122    17123    17123    17124 
   17124    17122    17122    17120    17118    17122    17123    17119 
   17120    17122    17120    17122    17122    17119    17122    17123 
   17122    17123    17122    17119    17120    17122    17120    17123 
   17123    17122    17124    17123    17119    17120    17122    17123 
   17123    17118    17119    17124    17122    17119    17120    17120 
   17122    17123    17122    17123    17123    17122    17119    17118 
   17119    17124    17122    17119    17122    17122    17119    17120 
   17123    17123    17120    17119    17120    17123    17122    17119 
   17122    17122    17122    17123    17120    17120    17123    17122 
   17123    17123    17119    17120    17122    17119    17119    17122 
   17122    17120    17120    17120    17122    17123    17122    17122 
   17119    17118    17120    17122    17123    17122    17119    17119 
   17124    17123    17120    17123    17120    17116    17120    17123 
   17120    17120    17122    17122    17122    17120    17119    17122 
   17123    17119    17119    17120    17124    17124    17122    17122 
   17120    17122    17124    17120    17120    17123    17120    17120 
   17124    17123    17123    17123    17122    17123    17124    17119 
   17119    17123    17122    17120    17123    17123    17122    17122 
   17119    17119    17120    17122    17122    17123    17123    17120 
   17118    17120    17123    17123    17123    17124    17123    17122 
   17123    17122    17119    17123    17123    17120    17122    17122 
   17120    17119    17119    17122    17123    17120    17118    17120 
   17119    17120    17126    17126    17122    17123    17122    17123 
   17123    17118    17120    17124    17122    17122    17123    17122 
   17123    17123    17119    17119    17122    17122    17123    17123 
   17120    17120    17123    17122    17119    17120    17120    17120 
   17123    17124    17122    17122    17122    17122    17122    17122 
   17124    17124    17122    17122    17122    17122    17123    17123 
   17122    17120    17120    17122    17123    17122    17120    17122 
   17122    17122    17122    17120    17120    17123    17124    17126 
   17122    17120    17123    17122    17122    17123    17120    17119 
   17122    17122    17119    17120    17122    17122    17122    17122 
   17120    17122    17120    17122    17122    17120    17122    17123 
   17122    17122    17122    17120    17122    17122    17119    17119 
   17122    17122    17123    17123    17122    17123    17123    17120 
   17123    17123    17120    17123    17126    17122    17123    17123 
   17122    17123    17124    17122    17120    17120    17122    17124 
   17124    17124    17123    17119    17119    17120    17119    17122 
   17123    17122    17123    17124    17120    17119    17123    17123 
   17123    17123    17122    17122    17123    17122    17122    17120 
   17120    17122    17120    17119    17120    17122    17123    17126 
   17123    17119    17122    17123    17122    17122    17122    17120 
   17122    17123    17120    17120    17122    17122    17123    17123 
   17122    17122    17123    17124    17122    17122    17124    17123 
   17119    17122    17124    17122    17120    17123    17124    17123 
   17123    17123    17120    17122    17122    17124    17124    17120 
   17122    17122    17120    17123    17123    17120    17122    17122 
   17120    17120    17120    17123    17126    17123    17120    17123 
   17124    17123    17122    17122    17119    17120    17122    17123 
   17124    17123    17123    17123    17123    17124    17124    17122 
   17123    17123    17122    17123    17120    17119    17126    17123 
   17122    17126    17122    17119    17124    17123    17122    17124 
   17122    17119    17120    17122    17122    17124    17124    17123 
   17123    17123    17119    17120    17122    17123    17123    17122 
   17123    17123    17120    17120    17122    17122    17122    17122 
   17122    17123    17122    17120    17120    17122    17123    17122 
   17120    17122    17123    17122    17122    17122    17120    17122 
   17122    17122    17124    17124    17122    17123    17123    17120 
   17118    17119    17120    17123    17123    17119    17122    17123 
   17120    17122    17127    17124    17120    17120    17118    17120 
   17124    17122    17119    17124    17127    17123    17120    17119 
   17122    17123    17120    17120    17123    17123    17120    17118 
   17119    17123    17124    17124    17123    17122    17120    17123 
   17123    17120    17120    17122    17123    17123    17123    17123 
   17120    17119    17120    17123    17122    17122    17123    17124 
   17123    17119    17119    17123    17122    17120    17122    17119 
   17119    17123    17123    17122    17122    17120    17120    17122 
   17123    17120    17120    17123    17123    17123    17123    17122 
   17122    17122    17124    17124    17123    17123    17126    17123 
   17122    17122    17122    17122    17124    17123    17122    17122 
   17122    17122    17122    17122    17124    17122    17119    17123 
   17123    17120    17120    17120    17120    17123    17123    17122 
   17122    17122    17122    17122    17122    17122    17122    17120 
   17122    17124    17122    17123    17123    17120    17123    17124 
   17122    17122    17122    17120    17122    17123    17120    17118 
   17119    17120    17122    17122    17122    17123    17122    17120 
   17123    17122    17120    17123    17123    17124    17124    17122 
   17122    17124    17122    17123    17124    17120    17119    17119 
   17119    17123    17123    17120    17123    17122    17119    17119 
   17120    17120    17122    17122    17122    17123    17123    17122 
   17124    17123    17120    17120    17119    17119    17122    17122 
   17120    17120    17120    17119    17120    17120    17120    17122 
   17122    17123    17123    17120    17120    17123    17123    17124 
   17124    17122    17120    17122    17122    17120    17122    17122 
   17120    17120    17120    17122    17123    17122    17122    17122 
   17123    17123    17118    17119    17124    17122    17120    17124 
   17123    17119    17120    17124    17123    17123    17123    17120 
   17122    17122    17120    17123    17124    17124    17123    17120 
   17122    17124    17123    17123    17124    17123    17120    17120 
   17122    17122    17122    17122    17122    17122    17122    17123 
   17123    17122    17122    17123    17123    17123    17123    17122 
   17122    17123    17123    17124    17122    17120    17119    17120 
   17122    17122    17122    17123    17124    17120    17123    17126 
   17120    17119    17120    17119    17122    17119    17104    17089 
   17062    17016    16980    16978    17041    17163    17286    17338 
   17344    17344    17286    17196    17154    17064    16935    16949 
   17035    17034    16974    16902    16830    16783    16848    17091 
   17373    17610    17752    17670    17564    17456    16981    16475 
   16487    16742    16949    16999    16822    16852    17041    16819 
   16618    17042    17797    18277    18166    17995    18239    18090 
   16968    15831    15696    16267    16711    16972    17286    17420 
   17359    17186    16649    16286    16945    18173    18975    18873 
   17980    16888    15923    15088    14791    15670    17464    18623 
   18365    17776    17201    16170    15820    16911    18103    18428 
   18357    18230    17342    15885    15525    16147    16515    16857 
   17226    17285    17527    17822    17460    17010    17423    17967 
   17447    16561    16592    17154    17429    17529    17459    16857 
   16016    15819    16452    17169    17674    18198    18185    17323 
   16659    16615    16551    16706    17574    18351    18045    17046 
   16298    16070    16320    16892    17334    17508    17683    17616 
   16848    16102    16572    17772    18256    17855    17374    17130 
   16951    16795    16768    16776    16719    16862    17182    17166 
   16974    17211    17564    17481    17332    17379    17077    16594 
   16729    17178    17289    17232    17111    16918    16892    16915 
   16884    17097    17529    17718    17482    17159    17088    17182 
   17270    17280    17057    16762    16783    16972    16999    16920 
   16961    17142    17230    17267    17432    17451    17288    17274 
   17192    16738    16286    16367    17000    17560    17482    17132 
   17157    17400    17373    17138    17169    17416    17446    17351 
   17266    17012    16748    16727    16819    16834    16873    17050 
   17127    16995    17003    17309    17633    17744    17568    17197 
   16860    16640    16649    17031    17501    17581    17311    17095 
   16965    16696    16484    16742    17311    17595    17562    17590 
   17516    17105    16748    16661    16717    16918    17153    17209 
   17161    17138    17089    17031    17089    17254    17374    17223 
   16853    16745    17104    17577    17737    17431    16916    16660 
   16796    17037    17163    17265    17406    17501    17413    17037 
   16568    16491    16931    17423    17510    17277    17081    17003 
   16946    16943    17072    17324    17412    17170    16969    16949 
   16969    17115    17228    17172    17199    17262    17136    16987 
   17020    17162    17250    17292    17309    17207    17072    17077 
   17107    17047    16987    16992    17010    16972    17001    17184 
   17362    17355    17130    16870    16808    16916    17100    17301 
   17354    17331    17433    17386    17050    16853    16919    17030 
   17166    17293    17305    17288    17251    17007    16660    16568 
   16842    17235    17347    17143    17135    17419    17409    17046 
   16843    16893    17105    17485    17699    17524    17244    17028 
   16750    16546    16749    17155    17227    17086    17140    17265 
   17265    17138    16924    16842    17030    17271    17354    17325 
   17284    17242    17174    17058    16988    17058    17064    16861 
   16839    17212    17482    17369    17186    17100    17010    16931 
   16931    16978    17108    17379    17517    17327    17154    17119 
   16961    16775    16864    17154    17289    17250    17285    17226 
   16922    16760    16919    17108    17178    17282    17377    17308 
   17235    17186    16974    16719    16744    17104    17362    17234 
   17134    17253    17246    17112    17032    16865    16707    16946 
   17437    17670    17518    17213    16935    16765    16780    16902 
   16965    17045    17224    17390    17494    17496    17271    16956 
   16830    16892    16996    17116    17242    17409    17632    17556 
   16972    16455    16505    16796    16984    17203    17551    17779 
   17579    17011    16656    16927    17386    17524    17373    17072 
   16745    16576    16686    17070    17452    17416    17038    16883 
   17043    17046    16966    17273    17724    17836    17518    16853 
   16370    16582    17053    17234    17281    17406    17386    16978 
   16513    16652    17302    17667    17532    17328    17211    16984 
   16681    16654    16972    17317    17487    17466    17275    17003 
   16748    16665    16880    17163    17354    17566    17520    17111 
   16922    17049    17015    16826    16843    17146    17390    17378 
   17393    17424    17066    16564    16611    17086    17285    17250 
   17410    17496    17182    16804    16675    16807    17134    17442 
   17510    17331    17166    17118    16904    16580    16538    16777 
   17149    17589    17733    17416    17095    17113    17342    17451 
   17215    16858    16737    16773    16821    16997    17377    17660 
   17440    16947    16791    16956    17068    17072    17199    17535 
   17725    17487    17084    16872    16829    16702    16525    16642 
   17093    17540    17775    17757    17467    17010    16653    16564 
   16619    16756    17151    17674    17872    17655    17247    16870 
   16648    16555    16717    17140    17390    17423    17475    17243 
   16772    16780    17236    17535    17554    17352    17041    16891 
   16876    16842    16957    17294    17497    17255    16784    16538 
   16731    17219    17575    17626    17540    17265    16779    16492 
   16713    17170    17467    17640    17583    16993    16428    16561 
   16924    17085    17370    17695    17625    17250    16908    16761 
   16815    16973    17136    17204    17135    17123    17247    17230 
   16956    16780    16961    17253    17404    17375    17261    17329 
   17475    17297    16915    16664    16625    16787    17032    17240 
   17423    17436    17154    16911    17030    17248    17190    17004 
   17016    17142    17138    17086    17224    17419    17358    17174 
   17131    17132    17111    17157    17149    17001    17008    17182 
   17097    16792    16738    16995    17221    17246    17240    17354 
   17458    17317    16911    16661    16900    17262    17292    17104 
   17038    17142    17321    17423    17177    16789    16823    17165 
   17302    17221    17173    17120    17035    17089    17188    17122 
