Origin Time       2024/06/23 22:54:00
Lat.              35.645
Long.             140.060
Depth. (km)       72
Mag.              4.1
Station Code      TKYH12
Station Lat.      35.6701
Station Long.     139.2650
Station Height(m) 210
Record Time       2024/06/23 22:54:39
Sampling Freq(Hz) 100Hz
Duration Time(s)  120
Dir.              4
Scale Factor      7845(gal)/8223790
Max. Acc. (gal)   2.232
Last Correction   2024/06/23 22:54:39
Memo.             
[...]
   -1035    -1035    -1038    -1036    -1036    -1036    -1032    -1034 
   -1038    -1035    -1034    -1038    -1036    -1035    -1035    -1034 
   -1038    -1039    -1035    -1035    -1038    -1035    -1036    -1035 
   -1032    -1035    -1036    -1035    -1036    -1035    -1034    -1036 
   -1036    -1034    -1032    -1035    -1036    -1038    -1036    -1034 
   -1032    -1032    -1034    -1035    -1036    -1039    -1038    -1034 
   -1034    -1036    -1036    -1035    -1036    -1035    -1035    -1035 
   -1035    -1035    -1035    -1034    -1035    -1035    -1035    -1036 
   -1035    -1032    -1035    -1038    -1036    -1038    -1036    -1034 
   -1035    -1036    -1034    -1035    -1035    -1034    -1036    -1035 
   -1035    -1038    -1036    -1036    -1039    -1036    -1035    -1035 
   -1034    -1034    -1036    -1035    -1034    -1036    -1035    -1032 
   -1034    -1035    -1034    -1034    -1032    -1032    -1036    -1038 
   -1036    -1036    -1035    -1036    -1035    -1035    -1036    -1035 
   -1035    -1039    -1035    -1034    -1035    -1035    -1035    -1036 
   -1034    -1032    -1034    -1034    -1036    -1036    -1032    -1034 
   -1036    -1035    -1034    -1035    -1034    -1035    -1036    -1032 
   -1034    -1038    -1038    -1036    -1036    -1036    -1039    -1039 
   -1036    -1036    -1038    -1034    -1032    -1032    -1034    -1036 
   -1036    -1035    -1034    -1031    -1032    -1035    -1034    -1032 
   -1035    -1035    -1035    -1036    -1035    -1036    -1040    -1039 
   -1038    -1036    -1035    -1036    -1038    -1036    -1035    -1034 
   -1032    -1036    -1036    -1032    -1034    -1034    -1030    -1031 
   -1034    -1032    -1034    -1035    -1034    -1034    -1035    -1036 
   -1038    -1036    -1036    -1035    -1034    -1035    -1035    -1035 
   -1036    -1038    -1035    -1035    -1035    -1034    -1035    -1034 
   -1032    -1034    -1035    -1034    -1034    -1035    -1035    -1035 
   -1035    -1035    -1035    -1036    -1036    -1038    -1036    -1034 
   -1035    -1035    -1032    -1034    -1035    -1034    -1035    -1034 
   -1032    -1032    -1032    -1034    -1035    -1034    -1035    -1036 
   -1032    -1031    -1034    -1035    -1036    -1036    -1034    -1034 
   -1036    -1035    -1034    -1036    -1035    -1034    -1034    -1032 
   -1036    -1036    -1032    -1034    -1036    -1034    -1034    -1036 
   -1035    -1035    -1034    -1032    -1036    -1036    -1036    -1039 
   -1036    -1034    -1036    -1038    -1035    -1036    -1035    -1035 
   -1036    -1034    -1035    -1038    -1034    -1032    -1035    -1031 
   -1031    -1035    -1035    -1035    -1036    -1032    -1030    -1031 
   -1032    -1034    -1035    -1035    -1035    -1035    -1034    -1034 
   -1034    -1036    -1038    -1035    -1032    -1034    -1034    -1034 
   -1036    -1035    -1032    -1035    -1035    -1034    -1035    -1034 
   -1035    -1036    -1038    -1042    -1044    -1044    -1044    -1040 
   -1034    -1027    -1019    -1016    -1015    -1005    -1012    -1044 
   -1057    -1061    -1085    -1082    -1058    -1067    -1073    -1046 
   -1021    -1008     -989     -966     -966     -974     -963     -993 
   -1061    -1071    -1097    -1166    -1143    -1096    -1109    -1073 
   -1017     -985     -922     -927     -980     -963     -967     -997 
   -1019    -1097    -1124    -1123    -1228    -1246    -1111    -1038 
   -1020     -947     -827     -756     -792     -818     -849    -1012 
   -1144    -1148    -1186    -1256    -1323    -1382    -1279    -1107 
   -1112    -1077     -785     -535     -577     -681     -727     -954 
   -1206    -1183    -1259    -1575    -1583    -1252    -1129    -1258 
   -1221     -984     -792     -575     -402     -595     -793     -681 
    -800    -1146    -1192    -1209    -1495    -1629    -1448    -1301 
   -1205     -923     -688     -764     -838     -776     -859    -1059 
   -1158    -1112     -958     -963    -1259    -1468    -1406    -1278 
   -1094     -849     -681     -575     -533     -672     -940    -1206 
   -1397    -1449    -1275     -970     -913    -1155    -1282    -1258 
   -1328    -1287     -932     -540     -349     -363     -560     -865 
   -1154    -1310    -1293    -1246    -1258    -1215    -1125    -1142 
   -1296    -1459    -1401    -1044     -648     -483     -556     -697 
    -808     -954    -1163    -1285    -1237    -1150    -1220    -1495 
   -1702    -1575    -1269    -1047     -915     -773     -618     -507 
    -463     -514     -662     -796     -886    -1024    -1212    -1356 
   -1381    -1312    -1260    -1266    -1363    -1522    -1476    -1129 
    -745     -492     -382     -398     -472     -642     -957    -1236 
   -1316    -1281    -1279    -1345    -1467    -1606    -1609    -1385 
   -1092     -886     -724     -544     -415     -460     -683     -955 
   -1167    -1263    -1282    -1266    -1142    -1000    -1074    -1263 
   -1329    -1335    -1271     -984     -688     -676     -765     -719 
    -684     -857    -1121    -1266    -1309    -1316    -1210    -1042 
    -947     -913     -980    -1171    -1259    -1116     -945     -913 
    -982    -1055    -1092    -1125    -1151    -1092     -927     -730 
    -612     -639     -770     -916    -1062    -1220    -1306    -1259 
   -1143    -1063    -1108    -1289    -1470    -1485    -1308    -1024 
    -787     -692     -684     -720     -839     -978    -1057    -1038 
    -926     -878    -1020    -1255    -1444    -1485    -1397    -1329 
   -1232     -977     -710     -606     -627     -641     -587     -579 
    -711     -913    -1096    -1209    -1289    -1414    -1541    -1594 
   -1576    -1502    -1364    -1155     -928     -743     -589     -499 
    -538     -681     -861     -977     -984    -1007    -1061    -1043 
   -1048    -1171    -1301    -1378    -1367    -1210    -1034     -962 
    -927     -919     -986    -1053    -1057    -1024     -992    -1020 
   -1080    -1024     -912     -913    -1004    -1119    -1212    -1200 
   -1102     -994     -885     -792     -797     -973    -1206    -1289 
   -1193    -1063     -974     -918     -862     -828     -916    -1089 
   -1183    -1158    -1053     -919     -859     -897     -978    -1096 
   -1202    -1201    -1100    -1030    -1028    -1034    -1071    -1170 
   -1216    -1174    -1115    -1034     -943     -911     -930     -957 
    -985    -1012    -1024     -992     -928     -904     -938    -1043 
   -1229    -1324    -1185    -1019    -1023    -1055     -993     -976 
   -1040    -1067    -1054    -1046    -1012     -980     -996    -1058 
   -1128    -1109     -994     -926     -911     -889     -943    -1053 
   -1062    -1023    -1065    -1144    -1175    -1152    -1107    -1032 
    -935     -859     -822     -839     -938    -1024    -1036    -1057 
   -1084    -1071    -1063    -1097    -1190    -1335    -1406    -1316 
   -1139     -965     -828     -784     -877    -1026    -1090    -1061 
   -1023     -999     -972     -958     -988    -1084    -1201    -1236 
   -1228    -1213    -1085     -870     -733     -724     -797     -877 
    -915     -958    -1038    -1062    -1021    -1067    -1148    -1102 
   -1084    -1235    -1389    -1441    -1379    -1173     -955     -824 
    -652     -475     -521     -764     -974    -1027     -988     -989 
   -1039    -1092    -1186    -1337    -1509    -1621    -1556    -1316 
    -980     -596     -357     -460     -774    -1036    -1140    -1189 
   -1250    -1217    -1154    -1178    -1181    -1189    -1270    -1212 
    -980     -815     -801     -895     -967     -900     -845     -919 
    -942     -882     -927    -1063    -1177    -1256    -1279    -1185 
   -1039     -949     -899     -924    -1085    -1258    -1277    -1174 
   -1063     -939     -789     -738     -826     -909     -951     -996 
    -978     -939     -981    -1082    -1228    -1358    -1350    -1259 
   -1197    -1139    -1051     -904     -754     -735     -830     -954 
   -1074    -1108    -1074    -1085    -1134    -1206    -1278    -1221 
   -1070     -959     -892     -878     -919     -988    -1078    -1120 
   -1125    -1147    -1081     -923     -874     -972    -1032     -994 
    -994    -1063    -1100    -1061     -957     -869     -901    -1028 
   -1208    -1345    -1252    -1034     -954     -927     -878     -931 
   -1011    -1012     -999     -967     -973    -1090    -1201    -1182 
   -1050     -958    -1016    -1058     -954     -874     -912     -950 
    -954    -1012    -1136    -1242    -1248    -1171    -1080     -993 
    -945    -1035    -1220    -1297    -1244    -1156     -982     -774 
    -723     -818     -951    -1089    -1171    -1140    -1012     -897 
    -900     -949     -963    -1017    -1127    -1224    -1202     -978 
    -774     -864    -1120    -1264    -1202    -1030     -889     -792 
    -726     -785     -994    -1196    -1264    -1255    -1233    -1173 
   -1088    -1012     -985    -1024    -1040    -1003    -1031    -1073 
    -976     -908    -1016    -1108    -1120    -1163    -1185    -1100 
    -969     -882     -874     -900     -955    -1039    -1071    -1075 
   -1112    -1129    -1139    -1161    -1112    -1053    -1077    -1074 
    -982     -913     -907     -923     -973    -1088    -1174    -1090 
    -935     -930    -1017    -1071    -1173    -1269    -1188    -1031 
    -955     -927     -938     -980     -935     -841     -888    -1050 
   -1085     -905     -703     -724     -953    -1127    -1162    -1156 
   -1193    -1324    -1425    -1310    -1139    -1111    -1113    -1061 
   -1021     -992     -954     -916     -837     -743     -778     -940 
   -1065    -1088    -1104    -1132    -1101    -1062    -1098    -1115 
   -1038    -1009    -1082    -1111    -1040     -955     -938     -982 
   -1019    -1013     -996     -994    -1032    -1116    -1174    -1138 
   -1054     -988     -940     -943    -1028    -1105    -1065     -954 
    -932    -1042    -1189    -1231    -1073     -830     -742     -861 
   -1016    -1055    -1019    -1021    -1075    -1152    -1233    -1259 
   -1192    -1081     -985     -945     -972    -1027    -1053    -1024 
    -992     -997    -1026    -1063    -1078     -993     -866     -847 
    -945    -1088    -1213    -1244    -1183    -1125    -1105    -1070 
    -993     -922     -899     -919     -959    -1034    -1136    -1174 
   -1108    -1027     -967     -901     -861     -892     -959    -1009 
   -1067    -1190    -1316    -1321    -1217    -1086     -965     -897 
    -928    -1012    -1075    -1066     -974     -884     -861     -869 
    -909     -999    -1086    -1161    -1212    -1158    -1004     -897 
    -913     -981    -1009     -990     -980    -1007    -1044    -1074 
   -1090    -1093    -1100    -1115    -1127    -1140    -1165    -1188 
   -1169    -1066     -949     -915     -915     -869     -861     -936 
   -1011    -1046    -1055    -1057    -1100    -1140    -1123    -1135 
   -1175    -1124    -1004     -892     -822     -838     -928    -1035 
   -1100    -1074    -1004     -953     -951    -1020    -1101    -1158 
   -1260    -1378    -1363    -1178     -932     -785     -816     -870 
    -811     -791     -928    -1096    -1181    -1197    -1167    -1112 
   -1050    -1024    -1047    -1069    -1082    -1111    -1136    -1132 
   -1090    -1008     -891     -807     -831     -916     -984    -1028 
   -1038    -1042    -1090    -1108    -1059    -1021     -999     -994 
   -1055    -1120    -1096    -1015     -953     -951    -1020    -1148 
   -1255    -1228    -1055     -904     -928    -1093    -1232    -1208 
   -1058     -928     -851     -842     -942    -1038    -1019     -978 
   -1040    -1151    -1148    -1031     -946     -958     -985     -920 
    -780     -747     -872     -974    -1012    -1085    -1169    -1263 
   -1381    -1383    -1248    -1112    -1057    -1096    -1138    -1065 
    -978     -997    -1034     -994     -934     -951    -1040    -1102 
   -1092    -1034     -976     -946     -927     -892     -861     -838 
    -805     -818     -939    -1096    -1189    -1225    -1240    -1231 
   -1182    -1093    -1027    -1008     -980     -954     -967     -965 
    -927     -934    -1053    -1252    -1424    -1490    -1424    -1239 
   -1048     -895     -738     -665     -741     -878    -1024    -1136 
   -1131    -1046     -985     -972     -990    -1005     -992     -993 
    -982     -891     -800     -820     -916     -989     -985     -936 
    -911     -930     -963     -992    -1031    -1120    -1221    -1286 
   -1332    -1362    -1382    -1406    -1382    -1309    -1258    -1205 
   -1109    -1031    -1015     -986     -903     -841     -839     -837 
    -845     -923    -1019    -1071    -1108    -1181    -1270    -1256 
   -1102     -904     -727     -665     -814    -1009    -1017     -831 
    -616     -558     -718     -926    -1031    -1062    -1073    -1096 
   -1165    -1240    -1250    -1217    -1200    -1189    -1146    -1009 
    -766     -537     -413     -364     -437     -735    -1151    -1467 
   -1633    -1715    -1783    -1902    -2020    -1964    -1615    -1053 
    -576     -537     -923    -1310    -1374    -1206    -1102    -1161 
   -1174     -955     -598     -329     -220     -167      -81       41 
     183      332      364       91     -486    -1175    -1771    -2089 
   -2135    -2131    -2269    -2519    -2673    -2650    -2644    -2763 
   -2786    -2524    -1979    -1185     -371       95      198      297 
     622     1051     1304     1213      832      351      -68     -351 
    -518     -733    -1155    -1729    -2174    -2286    -2170    -2088 
   -2134    -2166    -2012    -1726    -1588    -1792    -2135    -2212 
   -1914    -1472    -1054     -731     -564     -444     -302     -321 
    -629    -1062    -1279    -1142     -866     -670     -592     -641 
    -753     -741     -449       31      375      321     -124     -838 
   -1686    -2424    -2762    -2586    -2004    -1212     -402      222 
     480      345       21     -263     -476     -735    -1013    -1139 
   -1134    -1262    -1603    -1973    -2246    -2450    -2577    -2581 
   -2450    -2160    -1752    -1409    -1262    -1264    -1250    -1038 
    -600     -112      232      355      326      276      209      -14 
    -530    -1242    -1790    -1949    -1815    -1475     -982     -546 
    -328     -282     -271     -205     -184     -430     -916    -1414 
   -1836    -2153    -2317    -2365    -2308    -2045    -1556    -1032 
    -720     -751    -1008    -1215    -1192     -966     -700     -552 
    -584     -737     -864     -837     -731     -788    -1059    -1310 
   -1313    -1090     -857     -796     -892    -1050    -1212    -1306 
   -1237    -1003     -760     -660     -649     -579     -465     -454 
    -612     -905    -1298    -1678    -1863    -1752    -1426    -1115 
    -966     -946    -1004    -1100    -1159    -1163    -1177    -1242 
   -1327    -1386    -1426    -1452    -1408    -1294    -1183    -1071 
    -878     -650     -531     -523     -422     -122      224      409 
     325       -6     -450     -884    -1243    -1517    -1744    -1914 
   -2014    -2087    -2143    -2142    -2057    -1873    -1609    -1339 
   -1100     -881     -737     -733     -832     -926     -893     -733 
    -611     -691     -969    -1296    -1456    -1364    -1142     -891 
    -573     -221       40      136       10     -356     -855    -1294 
   -1513    -1516    -1460    -1474    -1567    -1667    -1620    -1389 
   -1146     -973     -797     -631     -587     -719     -913    -1019 
   -1046    -1105    -1221    -1301    -1266    -1224    -1305    -1420 
   -1445    -1382    -1237    -1065     -978     -958     -858     -621 
    -387     -365     -534     -665     -665     -612     -562     -569 
    -676     -854    -1066    -1300    -1559    -1864    -2128    -2178 
   -1993    -1707    -1456    -1321    -1271    -1192    -1017     -737 
    -396     -149     -108     -230     -446     -680     -841     -965 
   -1142    -1347    -1522    -1633    -1657    -1607    -1512    -1397 
   -1228     -926     -529     -191      -40     -133     -400     -660 
    -807     -892     -994    -1161    -1417    -1713    -1894    -1841 
   -1580    -1209     -801     -436     -236     -283     -529     -807 
    -989    -1082    -1174    -1301    -1412    -1449    -1441    -1466 
   -1532    -1593    -1599    -1501    -1344    -1231    -1146    -1024 
    -877     -762     -746     -847     -973    -1004     -880     -634 
    -400     -292     -317     -409     -511     -621     -739     -854 
   -1001    -1219    -1498    -1786    -1962    -1968    -1869    -1742 
   -1647    -1571    -1436    -1247    -1061     -876     -723     -627 
    -525     -396     -302     -282     -338     -425     -502     -602 
    -710     -742     -745     -824     -963    -1108    -1291    -1533 
   -1740    -1842    -1888    -1904    -1830    -1653    -1417    -1193 
   -1061    -1019     -986     -912     -838     -854     -932     -947 
    -896     -876     -888     -869     -811     -726     -646     -595 
    -596     -683     -804     -888     -912     -885     -822     -737 
    -697     -857    -1260    -1659    -1779    -1661    -1505    -1358 
   -1166     -970     -891     -935     -974     -967     -978     -982 
    -953     -934     -912     -854     -801     -805     -886    -1047 
   -1213    -1308    -1372    -1458    -1524    -1510    -1404    -1281 
   -1197    -1102     -989     -888     -753     -610     -549     -548 
    -549     -561     -634     -811    -1009    -1073    -1008     -957 
   -1019    -1165    -1323    -1487    -1621    -1601    -1416    -1202 
   -1078    -1058    -1081    -1101    -1143    -1190    -1162    -1051 
    -935     -847     -781     -743     -751     -824     -932     -980 
    -927     -854     -837     -888     -986    -1055    -1066    -1089 
   -1163    -1278    -1366    -1336    -1220    -1123    -1057     -996 
    -967     -992    -1012     -978     -909     -819     -687     -553 
    -515     -652     -911    -1129    -1227    -1258    -1250    -1194 
   -1151    -1192    -1297    -1370    -1316    -1143     -997     -977 
   -1038    -1115    -1161    -1152    -1196    -1360    -1474    -1370 
   -1063     -680     -407     -379     -565     -869    -1150    -1232 
   -1108     -950     -893     -934    -1009    -1081    -1117    -1102 
   -1080    -1050     -934     -770     -726     -830     -984    -1154 
   -1297    -1325    -1262    -1206    -1205    -1267    -1356    -1398 
   -1377    -1300    -1148     -974     -858     -781     -672     -561 
    -503     -465     -429     -440     -511     -606     -723     -907 
   -1173    -1468    -1736    -1931    -1995    -1890    -1674    -1406 
   -1142     -943     -803     -672     -581     -598     -724     -884 
    -985     -985     -878     -746     -737     -874    -1016    -1057 
   -1047    -1077    -1171    -1277    -1293    -1198    -1092    -1077 
   -1158    -1255    -1286    -1219    -1112    -1073    -1113    -1166 
   -1209    -1236    -1216    -1140    -1035     -922     -805     -727 
    -762     -882     -940     -831     -596     -387     -353     -459 
    -588     -754     -989    -1266    -1514    -1653    -1676    -1657 
   -1644    -1632    -1566    -1393    -1143     -923     -800     -756 
