Origin Time       2024/06/23 22:54:00
Lat.              35.645
Long.             140.060
Depth. (km)       72
Mag.              4.1
Station Code      YMNH16
Station Lat.      35.7421
Station Long.     138.5653
Station Height(m) 339
Record Time       2024/06/23 22:55:02
Sampling Freq(Hz) 100Hz
Duration Time(s)  120
Dir.              3
Scale Factor      2942(gal)/8224139
Max. Acc. (gal)   0.194
Last Correction   2024/06/23 22:55:03
Memo.             
 -843512  -843555  -843579  -843569  -843543  -843513  -843474  -843430 
 -843448  -843484  -843497  -843582  -843644  -843602  -843617  -843627 
 -843489  -843401  -843405  -843362  -843444  -843574  -843505  -843544 
 -843669  -843571  -843509  -843494  -843370  -843358  -843408  -843440 
 -843585  -843689  -843666  -843663  -843627  -843450  -843304  -843303 
 -843382  -843480  -843532  -843625  -843682  -843536  -843497  -843493 
 -843266  -843347  -843666  -843624  -843673  -843983  -843794  -843223 
 -843102  -843385  -843535  -843527  -843480  -843409  -843639  -844042 
 -843775  -843002  -842975  -843714  -843887  -843339  -843316  -843848 
 -843907  -843575  -843378  -843286  -843351  -843548  -843497  -843207 
 -843272  -843797  -843968  -843554  -843295  -843385  -843480  -843490 
 -843512  -843658  -843724  -843539  -843493  -843629  -843515  -843349 
 -843531  -843673  -843424  -843307  -843581  -843623  -843374  -843448 
 -843604  -843453  -843481  -843720  -843597  -843363  -843594  -843836 
 -843504  -843166  -843372  -843660  -843647  -843602  -843556  -843307 
 -843340  -843787  -843750  -843318  -843347  -843532  -843496  -843516 
 -843469  -843354  -843592  -843833  -843575  -843401  -843639  -843608 
 -843322  -843320  -843444  -843534  -843651  -843687  -843583  -843366 
 -843296  -843489  -843578  -843544  -843586  -843546  -843496  -843528 
 -843543  -843627  -843651  -843523  -843502  -843598  -843590  -843435 
 -843374  -843505  -843505  -843300  -843210  -843475  -843870  -843828 
 -843555  -843561  -843566  -843457  -843471  -843416  -843316  -843444 
 -843613  -843660  -843558  -843345  -843436  -843685  -843590  -843513 
 -843577  -843516  -843558  -843555  -843359  -843339  -843459  -843552 
 -843612  -843571  -843563  -843574  -843480  -843397  -843426  -843511 
 -843508  -843500  -843610  -843606  -843509  -843511  -843512  -843517 
 -843500  -843380  -843400  -843654  -843787  -843617  -843362  -843286 
 -843453  -843610  -843569  -843547  -843585  -843540  -843590  -843708 
 -843598  -843382  -843353  -843455  -843471  -843400  -843454  -843642 
 -843747  -843648  -843382  -843259  -843481  -843662  -843604  -843573 
 -843551  -843481  -843512  -843492  -843399  -843477  -843600  -843632 
 -843627  -843562  -843528  -843475  -843382  -843457  -843589  -843585 
 -843523  -843497  -843461  -843339  -843373  -843606  -843575  -843446 
 -843600  -843604  -843436  -843480  -843493  -843511  -843651  -843616 
 -843569  -843623  -843505  -843380  -843416  -843435  -843434  -843494 
 -843507  -843504  -843619  -843644  -843562  -843631  -843582  -843376 
 -843426  -843467  -843327  -843481  -843733  -843619  -843467  -843540 
 -843566  -843478  -843475  -843594  -843632  -843474  -843415  -843547 
 -843492  -843328  -843439  -843667  -843693  -843555  -843488  -843544 
 -843538  -843417  -843367  -843471  -843575  -843562  -843544  -843586 
 -843616  -843561  -843411  -843351  -843517  -843660  -843615  -843551 
 -843524  -843490  -843486  -843507  -843550  -843535  -843462  -843467 
 -843502  -843497  -843500  -843504  -843521  -843532  -843481  -843450 
 -843463  -843462  -843505  -843589  -843593  -843520  -843521  -843623 
 -843598  -843465  -843463  -843492  -843408  -843408  -843555  -843612 
 -843543  -843536  -843606  -843606  -843524  -843497  -843481  -843428 
 -843497  -843585  -843542  -843539  -843615  -843631  -843569  -843498 
 -843478  -843471  -843424  -843447  -843589  -843625  -843502  -843498 
 -843575  -843480  -843358  -843407  -843496  -843485  -843446  -843547 
 -843682  -843588  -843440  -843529  -843686  -843620  -843420  -843384 
 -843492  -843494  -843444  -843534  -843606  -843524  -843496  -843582 
 -843573  -843494  -843430  -843370  -843513  -843698  -843520  -843382 
 -843573  -843617  -843513  -843539  -843569  -843550  -843511  -843454 
 -843477  -843501  -843467  -843561  -843648  -843485  -843397  -843594 
 -843659  -843492  -843431  -843477  -843469  -843485  -843508  -843490 
 -843590  -843717  -843656  -843512  -843463  -843470  -843436  -843412 
 -843440  -843459  -843436  -843459  -843625  -843687  -843523  -843529 
 -843637  -843507  -843457  -843579  -843512  -843408  -843447  -843453 
 -843475  -843559  -843534  -843450  -843462  -843562  -843625  -843532 
 -843450  -843494  -843542  -843608  -843544  -843372  -843516  -843732 
 -843608  -843492  -843559  -843528  -843367  -843340  -843467  -843507 
 -843497  -843608  -843691  -843617  -843544  -843500  -843405  -843394 
 -843451  -843477  -843551  -843602  -843579  -843579  -843552  -843555 
 -843608  -843531  -843466  -843523  -843454  -843363  -843454  -843512 
 -843493  -843528  -843570  -843554  -843492  -843474  -843561  -843612 
 -843588  -843616  -843554  -843350  -843336  -843453  -843442  -843475 
 -843543  -843540  -843631  -843720  -843654  -843523  -843413  -843453 
 -843562  -843544  -843515  -843501  -843426  -843465  -843598  -843585 
 -843523  -843569  -843586  -843520  -843454  -843347  -843303  -843488 
 -843640  -843566  -843524  -843579  -843588  -843605  -843612  -843505 
 -843431  -843434  -843409  -843475  -843567  -843470  -843423  -843593 
 -843659  -843532  -843436  -843415  -843473  -843600  -843650  -843577 
 -843481  -843454  -843461  -843440  -843462  -843517  -843567  -843608 
 -843600  -843601  -843565  -843453  -843448  -843505  -843508  -843501 
 -843454  -843448  -843579  -843667  -843650  -843596  -843505  -843471 
 -843459  -843416  -843504  -843562  -843481  -843535  -843601  -843515 
 -843544  -843621  -843539  -843484  -843481  -843436  -843482  -843525 
 -843501  -843562  -843540  -843451  -843535  -843529  -843386  -843431 
 -843538  -843551  -843589  -843548  -843407  -843453  -843621  -843609 
 -843539  -843539  -843478  -843450  -843508  -843451  -843431  -843575 
 -843606  -843565  -843593  -843519  -843448  -843515  -843554  -843588 
 -843567  -843411  -843412  -843556  -843534  -843488  -843540  -843536 
 -843507  -843508  -843531  -843624  -843675  -843575  -843453  -843366 
 -843353  -843493  -843592  -843539  -843527  -843575  -843574  -843496 
 -843409  -843467  -843569  -843556  -843563  -843594  -843529  -843482 
 -843500  -843481  -843453  -843423  -843420  -843459  -843448  -843513 
 -843679  -843687  -843563  -843501  -843490  -843450  -843421  -843488 
 -843535  -843444  -843413  -843558  -843654  -843648  -843660  -843628 
 -843546  -843484  -843436  -843413  -843384  -843403  -843577  -843690 
 -843579  -843494  -843558  -843597  -843562  -843512  -843469  -843458 
 -843463  -843435  -843435  -843547  -843598  -843481  -843477  -843642 
 -843654  -843521  -843496  -843535  -843490  -843471  -843543  -843529 
 -843467  -843494  -843538  -843556  -843556  -843513  -843535  -843586 
 -843488  -843376  -843436  -843500  -843488  -843504  -843516  -843524 
 -843592  -843600  -843525  -843484  -843444  -843436  -843524  -843551 
 -843508  -843556  -843604  -843527  -843451  -843490  -843583  -843608 
 -843542  -843474  -843486  -843552  -843538  -843469  -843473  -843508 
 -843521  -843508  -843477  -843501  -843582  -843604  -843525  -843463 
 -843481  -843501  -843459  -843435  -843493  -843467  -843399  -843546 
 -843702  -843617  -843507  -843523  -843542  -843528  -843524  -843481 
 -843497  -843625  -843617  -843497  -843465  -843450  -843480  -843550 
 -843470  -843407  -843509  -843581  -843610  -843600  -843453  -843386 
 -843457  -843453  -843461  -843562  -843637  -843652  -843620  -843551 
 -843500  -843509  -843500  -843457  -843490  -843482  -843373  -843440 
 -843650  -843704  -843598  -843474  -843432  -843475  -843517  -843559 
 -843538  -843415  -843393  -843485  -843508  -843489  -843488  -843529 
 -843582  -843532  -843517  -843629  -843631  -843523  -843481  -843448 
 -843439  -843517  -843544  -843489  -843523  -843628  -843633  -843551 
 -843435  -843412  -843559  -843594  -843539  -843631  -843597  -843407 
 -843401  -843474  -843470  -843507  -843559  -843535  -843515  -843534 
 -843546  -843604  -843615  -843454  -843355  -843470  -843574  -843551 
 -843547  -843613  -843609  -843538  -843517  -843511  -843448  -843386 
 -843400  -843458  -843461  -843447  -843535  -843627  -843619  -843623 
 -843612  -843481  -843378  -843411  -843485  -843471  -843353  -843385 
 -843613  -843667  -843570  -843650  -843697  -843494  -843396  -843512 
 -843559  -843532  -843502  -843440  -843477  -843619  -843652  -843563 
 -843492  -843508  -843540  -843475  -843397  -843405  -843482  -843601 
 -843652  -843625  -843601  -843520  -843415  -843369  -843346  -843399 
 -843556  -843623  -843501  -843416  -843512  -843621  -843597  -843519 
 -843496  -843559  -843625  -843529  -843403  -843394  -843305  -843266 
 -843496  -843681  -843667  -843617  -843588  -843635  -843663  -843575 
 -843515  -843489  -843454  -843424  -843377  -843446  -843570  -843529 
 -843494  -843582  -843579  -843534  -843631  -843652  -843436  -843347 
 -843477  -843439  -843385  -843589  -843675  -843552  -843581  -843656 
 -843571  -843490  -843492  -843481  -843461  -843450  -843434  -843473 
 -843569  -843561  -843519  -843570  -843535  -843489  -843615  -843647 
 -843550  -843528  -843473  -843420  -843423  -843339  -843342  -843471 
 -843498  -843521  -843589  -843631  -843667  -843594  -843467  -843439 
 -843457  -843505  -843520  -843516  -843620  -843609  -843492  -843596 
 -843619  -843388  -843411  -843602  -843555  -843532  -843624  -843592 
 -843524  -843446  -843389  -843512  -843548  -843385  -843397  -843552 
 -843624  -843652  -843578  -843447  -843448  -843508  -843538  -843552 
 -843536  -843534  -843550  -843485  -843374  -843423  -843573  -843597 
 -843535  -843516  -843543  -843535  -843497  -843528  -843583  -843579 
 -843513  -843374  -843336  -843550  -843705  -843613  -843573  -843619 
 -843512  -843384  -843417  -843428  -843385  -843513  -843639  -843561 
 -843493  -843501  -843562  -843654  -843558  -843408  -843501  -843620 
 -843577  -843563  -843566  -843428  -843303  -843404  -843566  -843543 
 -843511  -843594  -843594  -843532  -843517  -843511  -843559  -843597 
 -843521  -843446  -843378  -843320  -843432  -843578  -843558  -843570 
 -843670  -843633  -843501  -843417  -843407  -843507  -843575  -843439 
 -843381  -843556  -843639  -843600  -843588  -843525  -843450  -843474 
 -843528  -843466  -843451  -843658  -843718  -843542  -843435  -843369 
 -843392  -843524  -843566  -843592  -843585  -843474  -843505  -843659 
 -843628  -843486  -843501  -843550  -843467  -843403  -843396  -843419 
 -843583  -843729  -843643  -843531  -843509  -843473  -843494  -843556 
 -843509  -843427  -843446  -843475  -843405  -843397  -843555  -843639 
 -843546  -843488  -843573  -843646  -843596  -843548  -843578  -843490 
 -843300  -843318  -843458  -843470  -843504  -843594  -843593  -843573 
 -843581  -843605  -843633  -843534  -843362  -843374  -843508  -843512 
 -843459  -843552  -843683  -843639  -843492  -843484  -843609  -843559 
 -843330  -843353  -843559  -843481  -843351  -843552  -843732  -843656 
 -843581  -843528  -843444  -843401  -843385  -843493  -843648  -843604 
 -843519  -843562  -843606  -843590  -843520  -843384  -843303  -843423 
 -843588  -843552  -843455  -843561  -843702  -843610  -843458  -843426 
 -843448  -843465  -843440  -843454  -843552  -843612  -843621  -843636 
 -843601  -843520  -843450  -843447  -843525  -843535  -843444  -843444 
 -843513  -843546  -843632  -843662  -843490  -843416  -843517  -843511 
 -843525  -843612  -843523  -843484  -843559  -843427  -843322  -843444 
 -843484  -843444  -843531  -843608  -843578  -843583  -843620  -843575 
 -843529  -843509  -843477  -843515  -843583  -843558  -843453  -843365 
 -843407  -843590  -843704  -843593  -843417  -843405  -843516  -843581 
 -843589  -843536  -843430  -843417  -843490  -843524  -843566  -843575 
 -843498  -843482  -843548  -843582  -843536  -843417  -843392  -843554 
 -843627  -843517  -843505  -843571  -843531  -843521  -843577  -843520 
 -843438  -843490  -843525  -843469  -843466  -843515  -843540  -843546 
 -843542  -843558  -843548  -843520  -843536  -843488  -843382  -843470 
 -843678  -843651  -843480  -843485  -843515  -843419  -843440  -843521 
 -843469  -843511  -843597  -843505  -843486  -843570  -843534  -843521 
 -843565  -843538  -843566  -843632  -843565  -843446  -843428  -843424 
 -843401  -843470  -843532  -843504  -843525  -843601  -843627  -843632 
 -843642  -843604  -843469  -843318  -843380  -843528  -843462  -843450 
 -843604  -843578  -843521  -843597  -843589  -843511  -843423  -843401 
 -843544  -843624  -843528  -843474  -843508  -843515  -843494  -843508 
 -843525  -843496  -843482  -843521  -843559  -843578  -843606  -843659 
 -843627  -843455  -843384  -843462  -843450  -843393  -843455  -843524 
 -843528  -843581  -843640  -843609  -843565  -843511  -843426  -843431 
 -843497  -843515  -843515  -843490  -843457  -843502  -843536  -843489 
 -843500  -843567  -843578  -843582  -843578  -843513  -843511  -843577 
 -843516  -843409  -843451  -843489  -843444  -843453  -843502  -843556 
 -843574  -843583  -843646  -843615  -843519  -843535  -843511  -843397 
 -843400  -843500  -843578  -843615  -843547  -843471  -843539  -843569 
 -843453  -843423  -843543  -843628  -843621  -843546  -843435  -843436 
 -843535  -843525  -843439  -843415  -843459  -843579  -843671  -843588 
 -843447  -843428  -843496  -843543  -843520  -843497  -843538  -843513 
 -843457  -843536  -843590  -843505  -843486  -843573  -843586  -843515 
 -843498  -843525  -843500  -843471  -843463  -843466  -843501  -843485 
 -843490  -843619  -843637  -843509  -843498  -843544  -843492  -843470 
 -843492  -843488  -843548  -843586  -843528  -843573  -843663  -843570 
 -843438  -843446  -843500  -843494  -843484  -843544  -843571  -843450 
 -843419  -843569  -843534  -843378  -843467  -843625  -843608  -843538 
 -843542  -843589  -843566  -843462  -843369  -843380  -843480  -843544 
 -843563  -843617  -843648  -843631  -843610  -843536  -843424  -843378 
 -843409  -843443  -843465  -843539  -843600  -843556  -843520  -843550 
 -843579  -843570  -843492  -843458  -843508  -843486  -843458  -843535 
 -843562  -843517  -843523  -843525  -843538  -843590  -843544  -843490 
 -843546  -843504  -843394  -843448  -843546  -843538  -843517  -843528 
 -843546  -843554  -843513  -843504  -843589  -843625  -843544  -843498 
 -843500  -843453  -843440  -843512  -843548  -843515  -843505  -843481 
 -843372  -843305  -843388  -843490  -843540  -843597  -843678  -843755 
 -843741  -843617  -843484  -843323  -843231  -843377  -843497  -843467 
 -843602  -843786  -843736  -843650  -843601  -843443  -843353  -843424 
 -843454  -843436  -843467  -843525  -843629  -843679  -843590  -843588 
 -843669  -843547  -843345  -843362  -843511  -843585  -843501  -843347 
 -843366  -843543  -843617  -843496  -843369  -843450  -843586  -843551 
 -843478  -843523  -843686  -843818  -843674  -843392  -843291  -843326 
 -843343  -843359  -843461  -843635  -843790  -843872  -843770  -843507 
 -843427  -843551  -843430  -843115  -843106  -843370  -843571  -843697 
 -843808  -843831  -843709  -843478  -843284  -843280  -843436  -843543 
 -843515  -843485  -843493  -843574  -843754  -843744  -843482  -843403 
 -843551  -843620  -843569  -843413  -843232  -843253  -843413  -843542 
 -843640  -843667  -843650  -843610  -843461  -843373  -843501  -843600 
 -843516  -843484  -843609  -843616  -843443  -843399  -843482  -843471 
 -843473  -843588  -843664  -843636  -843486  -843320  -843350  -843451 
 -843436  -843457  -843540  -843570  -843577  -843520  -843484  -843636 
 -843714  -843538  -843388  -843405  -843527  -843642  -843620  -843539 
 -843497  -843482  -843554  -843660  -843646  -843529  -843353  -843205 
 -843324  -843616  -843706  -843621  -843582  -843596  -843624  -843574 
 -843416  -843408  -843532  -843475  -843385  -843516  -843621  -843552 
 -843581  -843660  -843558  -843480  -843507  -843457  -843451  -843546 
 -843543  -843462  -843466  -843504  -843470  -843474  -843536  -843536 
 -843509  -843458  -843382  -843382  -843436  -843589  -843752  -843640 
 -843470  -843558  -843644  -843571  -843517  -843500  -843462  -843454 
 -843480  -843494  -843467  -843417  -843432  -843501  -843442  -843318 
 -843416  -843647  -843713  -843632  -843492  -843381  -843423  -843453 
 -843378  -843403  -843496  -843536  -843637  -843733  -843660  -843635 
 -843712  -843606  -843467  -843543  -843635  -843640  -843663  -843619 
 -843461  -843359  -843376  -843417  -843480  -843529  -843457  -843343 
 -843390  -843512  -843535  -843523  -843532  -843542  -843583  -843608 
 -843582  -843628  -843683  -843563  -843416  -843426  -843484  -843517 
 -843504  -843386  -843277  -843293  -843394  -843524  -843566  -843511 
 -843505  -843546  -843525  -843507  -843561  -843596  -843594  -843646 
 -843678  -843663  -843616  -843474  -843404  -843496  -843517  -843435 
 -843447  -843621  -843747  -843648  -843538  -843513  -843450  -843450 
 -843477  -843446  -843501  -843550  -843535  -843617  -843640  -843515 
 -843434  -843374  -843299  -843351  -843469  -843525  -843625  -843714 
 -843633  -843519  -843475  -843474  -843486  -843426  -843409  -843534 
 -843579  -843536  -843570  -843617  -843563  -843432  -843365  -843384 
 -843389  -843443  -843539  -843550  -843598  -843689  -843631  -843540 
 -843566  -843609  -843551  -843400  -843347  -843471  -843566  -843532 
 -843504  -843505  -843446  -843434  -843579  -843671  -843567  -843458 
 -843505  -843594  -843563  -843493  -843524  -843538  -843424  -843390 
 -843600  -843733  -843579  -843467  -843543  -843582  -843535  -843470 
 -843434  -843494  -843598  -843604  -843559  -843562  -843547  -843467 
 -843403  -843404  -843403  -843397  -843458  -843509  -843527  -843593 
 -843633  -843567  -843447  -843382  -843409  -843439  -843455  -843523 
 -843592  -843575  -843504  -843492  -843581  -843609  -843516  -843507 
 -843627  -843679  -843604  -843478  -843374  -843358  -843416  -843489 
 -843540  -843529  -843504  -843525  -843511  -843470  -843532  -843612 
 -843583  -843532  -843551  -843567  -843535  -843507  -843484  -843480 
 -843527  -843543  -843493  -843463  -843448  -843432  -843448  -843463 
 -843457  -843470  -843538  -843648  -843718  -843686  -843588  -843508 
 -843488  -843482  -843494  -843573  -843609  -843551  -843525  -843515 
 -843469  -843481  -843534  -843550  -843520  -843451  -843444  -843556 
 -843593  -843471  -843400  -843451  -843515  -843519  -843463  -843480 
 -843562  -843535  -843475  -843494  -843505  -843482  -843484  -843517 
 -843561  -843556  -843504  -843529  -843590  -843546  -843470  -843444 
 -843454  -843505  -843561  -843609  -843643  -843635  -843613  -843609 
 -843600  -843562  -843516  -843492  -843520  -843588  -843597  -843528 
 -843465  -843463  -843511  -843531  -843512  -843527  -843567  -843558 
 -843466  -843376  -843389  -843469  -843515  -843500  -843475  -843507 
 -843511  -843431  -843394  -843392  -843397  -843493  -843551  -843505 
 -843520  -843571  -843555  -843507  -843481  -843502  -843529  -843512 
 -843485  -843482  -843505  -843548  -843582  -843571  -843543  -843561 
 -843569  -843524  -843498  -843480  -843454  -843453  -843454  -843473 
 -843513  -843525  -843531  -843582  -843640  -843660  -843659  -843613 
 -843547  -843551  -843575  -843538  -843478  -843473  -843528  -843544 
