Origin Time       2024/06/23 22:54:00
Lat.              35.645
Long.             140.060
Depth. (km)       72
Mag.              4.1
Station Code      YMNH16
Station Lat.      35.7421
Station Long.     138.5653
Station Height(m) 339
Record Time       2024/06/23 22:55:02
Sampling Freq(Hz) 100Hz
Duration Time(s)  120
Dir.              2
Scale Factor      2942(gal)/8224139
Max. Acc. (gal)   0.249
Last Correction   2024/06/23 22:55:03
Memo.             
[...]
   61844    61601    61830    62009    61821    61717    61965    62174 
   62006    61758    61751    61784    61740    61878    62143    62158 
   61946    61817    61811    61816    61865    61931    61902    61877 
   62005    62091    61893    61635    61705    61906    61843    61780 
   61979    62017    61754    61696    61933    61994    61835    61828 
   61947    61900    61855    62064    62140    61821    61603    61778 
   62005    61986    61839    61838    61921    61846    61766    61885 
   61966    61831    61735    61866    61963    61825    61788    62016 
   62090    61902    61794    61836    61905    61987    62062    62081 
   62000    61832    61708    61697    61774    61905    62005    61990 
   61869    61759    61788    61858    61855    61906    62025    62017 
   61870    61767    61790    61852    61905    61994    61987    61813 
   61747    61846    61862    61855    61962    62027    61946    61892 
   61955    61956    61854    61811    61836    61846    61846    61855 
   61839    61796    61846    61987    62017    61925    61892    61894 
   61847    61855    61938    61978    61946    61858    61740    61685 
   61763    61885    61917    61940    61977    61865    61742    61821 
   61915    61877    61858    61951    62013    61939    61863    61902 
   61946    61889    61831    61894    61960    61892    61827    61871 
   61896    61854    61834    61840    61839    61852    61932    62001 
   61917    61809    61869    61973    61955    61878    61862    61888 
   61870    61835    61858    61892    61862    61836    61854    61811 
   61763    61869    61993    61959    61885    61916    61970    61935 
   61900    61897    61842    61809    61851    61885    61921    61923 
   61825    61790    61915    61958    61821    61797    61969    62013 
   61920    61955    61998    61869    61785    61882    61939    61885 
   61843    61804    61803    61933    62021    61893    61762    61842 
   61946    61877    61808    61885    61906    61797    61804    61956 
   61992    61869    61821    61917    61986    61951    61869    61801 
   61798    61855    61919    61952    61982    62000    61911    61774 
   61788    61893    61862    61777    61886    62052    61978    61797 
   61813    61921    61869    61790    61892    61981    61858    61766 
   61892    61973    61874    61835    61888    61831    61808    62002 
   62068    61820    61719    61935    62001    61824    61804    61954 
   61973    61917    61950    61906    61793    61882    62010    61909 
   61809    61882    61913    61824    61800    61913    61966    61854 
   61767    61803    61890    61962    61921    61824    61839    61920 
   61920    61852    61824    61847    61875    61956    62021    61893 
   61773    61865    61935    61906    61915    61882    61805    61838 
   61946    61965    61869    61794    61807    61847    61873    61878 
   61890    61950    61985    61920    61869    61905    61897    61840 
   61877    61920    61870    61885    61977    61912    61798    61904 
   61982    61807    61778    62020    62014    61730    61740    62020 
   62002    61732    61728    61942    61905    61712    61819    62095 
   62085    61885    61871    61927    61825    61742    61852    61992 
   61985    61915    61893    61877    61835    61823    61835    61840 
   61878    61955    61990    61916    61762    61750    61977    62121 
   62013    61894    61867    61847    61800    61709    61669    61825 
   62019    61986    61836    61774    61753    61792    61990    62102 
   61928    61835    62028    62105    61892    61766    61854    61901 
   61874    61886    61861    61750    61719    61825    61905    61911 
   61898    61865    61863    61940    62024    61994    61865    61843 
   61938    61977    61960    61877    61789    61878    61982    61840 
   61627    61681    61950    62066    61969    61869    61813    61819 
   61885    61886    61888    61986    61958    61796    61811    61923 
   61867    61812    61959    61998    61759    61681    61939    62066 
   61902    61858    61975    61892    61738    61832    61986    61975 
   61951    61967    61894    61820    61847    61863    61871    61938 
   61944    61857    61804    61816    61831    61871    61935    61905 
   61824    61878    61925    61797    61759    61944    62027    61911 
   61889    61962    61885    61759    61812    61931    61931    61866 
   61828    61805    61867    62032    62036    61797    61681    61840 
   61985    61977    61935    61925    61906    61836    61793    61804 
   61820    61884    61942    61896    61850    61889    61936    61915 
   61862    61852    61858    61870    61928    61933    61848    61867 
   61983    61938    61786    61824    61973    61943    61808    61848 
   61963    61879    61770    61878    61978    61911    61906    61985 
   61915    61780    61825    61947    61905    61789    61831    61911 
   61823    61727    61820    61977    62004    61933    61913    61940 
   61921    61869    61851    61884    61925    61888    61784    61767 
   61863    61911    61889    61912    61939    61908    61939    62001 
   61912    61789    61863    61998    61948    61835    61874    61902 
   61758    61707    61882    61967    61831    61726    61769    61858 
   61938    61974    61955    61938    61924    61871    61827    61877 
   61983    62002    61906    61847    61882    61913    61904    61890 
   61871    61857    61873    61869    61781    61724    61844    61981 
   61916    61797    61824    61870    61842    61890    62005    61970 
   61842    61879    61994    61919    61796    61852    61919    61894 
   61936    62001    61917    61792    61821    61921    61908    61850 
   61890    61960    61932    61839    61804    61832    61857    61870 
   61855    61859    61950    62014    61974    61881    61784    61757 
   61817    61892    61927    61905    61885    61908    61931    61942 
   61921    61859    61843    61893    61913    61905    61890    61848 
   61858    61942    61948    61819    61738    61857    61994    61951 
   61859    61848    61834    61809    61850    61890    61878    61892 
   61892    61807    61812    61975    62041    61898    61773    61832 
   61946    61981    61970    61923    61875    61893    61912    61870 
   61803    61773    61815    61875    61911    61942    61944    61886 
   61832    61875    61973    61997    61933    61847    61785    61797 
   61894    61979    61940    61817    61776    61867    61960    61942 
   61893    61919    61933    61885    61866    61890    61894    61871 
   61888    61919    61871    61827    61902    61952    61851    61797 
   61902    61912    61774    61820    62051    62023    61732    61715 
   61969    61951    61732    61801    62020    61933    61735    61855 
   62054    61974    61851    61886    61869    61798    61925    62051 
   61850    61672    61839    61960    61817    61785    61955    61992 
   61894    61958    62066    61932    61762    61859    62004    61933 
   61867    61951    61935    61728    61635    61821    61981    61878 
   61800    61965    62100    62005    61923    61944    61803    61600 
   61740    62047    62010    61736    61744    61977    61969    61823 
   61893    62016    61960    61882    61904    61921    61869    61797 
   61792    61840    61858    61863    61913    61958    61888    61774 
   61839    61944    61838    61788    61973    62031    61861    61843 
   62009    62008    61892    61947    61996    61808    61674    61816 
   61942    61858    61796    61854    61842    61817    61970    62082 
   61951    61852    61936    61921    61736    61681    61846    61959 
   61873    61801    61912    62044    62037    61935    61865    61875 
   61869    61839    61889    61936    61888    61843    61846    61834 
   61790    61790    61889    61935    61854    61909    62097    62027 
   61790    61832    62019    61965    61803    61821    61912    61885 
   61869    61960    61913    61707    61692    61861    61906    61889 
   62020    62106    61929    61786    61888    61928    61816    61831 
   61920    61854    61769    61840    61901    61865    61886    61947 
   61912    61830    61834    61928    61993    61919    61804    61857 
   61959    61863    61761    61886    61986    61913    61897    61912 
   61792    61736    61919    62056    61943    61830    61877    61929 
   61962    62040    62005    61794    61662    61767    61908    61897 
   61875    61924    61900    61858    61919    61916    61796    61807 
   61948    61936    61793    61788    61902    61943    61908    61927 
   61974    61929    61861    61882    61919    61909    61890    61830 
   61740    61770    61917    61965    61869    61823    61873    61892 
   61886    61900    61915    61986    62035    61921    61807    61838 
   61881    61851    61840    61904    61928    61857    61813    61866 
   61904    61888    61916    61939    61877    61838    61851    61877 
   61940    62004    61959    61840    61812    61862    61881    61912 
   61948    61886    61807    61842    61896    61823    61766    61917 
   62047    61908    61780    61904    62000    61885    61844    61969 
   61931    61767    61840    61994    61911    61817    61919    61936 
   61804    61838    61990    61924    61777    61865    61978    61865 
   61790    61940    62016    61839    61695    61820    61997    61955 
   61807    61821    61970    61965    61788    61774    61950    61978 
   61835    61796    61900    61951    61923    61924    61897    61817 
   61807    61865    61929    61994    61993    61896    61813    61851 
   61939    61894    61758    61785    61951    61942    61777    61792 
   61948    61962    61889    61933    62008    61942    61847    61874 
   61893    61828    61832    61917    61952    61943    61933    61890 
   61809    61773    61854    61959    61927    61825    61850    61985 
   62021    61944    61905    61912    61866    61771    61801    61979 
   62032    61869    61758    61825    61851    61798    61861    61952 
   61917    61852    61867    61923    61928    61917    61877    61759 
   61744    61913    62012    61921    61820    61828    61878    61913 
   61962    61966    61840    61765    61878    61963    61908    61842 
   61808    61808    61919    62054    61969    61762    61800    62017 
   62021    61840    61825    61928    61877    61793    61871    61927 
   61844    61857    61971    61958    61877    61877    61875    61831 
   61877    61989    61942    61797    61831    61943    61906    61858 
   61935    61974    61859    61770    61842    61905    61869    61858 
   61889    61923    61938    61893    61866    61908    61909    61873 
   61912    61956    61886    61820    61900    61966    61858    61761 
   61843    61962    61960    61869    61823    61855    61911    61952 
   61916    61804    61743    61793    61909    62000    61958    61839 
   61815    61842    61855    61952    62040    61955    61836    61851 
   61917    61913    61892    61902    61870    61800    61827    61909 
   61928    61948    61932    61794    61763    61938    62033    61958 
   61878    61865    61843    61808    61886    62013    61952    61803 
   61797    61871    61857    61773    61815    61955    61950    61881 
   61960    62036    61932    61797    61815    61911    61893    61812 
   61839    61920    61921    61904    61943    61921    61840    61875 
   61952    61885    61809    61863    61901    61834    61815    61875 
   61862    61811    61874    61917    61838    61846    61974    62014 
   61948    61912    61933    61935    61900    61874    61848    61808 
   61770    61771    61861    61967    61942    61831    61813    61886 
   61944    61975    61974    61908    61817    61832    61944    61951 
   61846    61832    61882    61852    61862    61985    61998    61842 
   61761    61854    61944    61913    61874    61896    61879    61846 
   61882    61898    61861    61878    61946    61966    61900    61831 
   61843    61908    61959    61936    61851    61825    61862    61847 
   61825    61893    61989    61967    61851    61851    61958    61942 
   61815    61785    61897    61985    61911    61831    61921    61959 
   61847    61848    61928    61859    61755    61813    61931    61929 
   61909    61963    61940    61832    61817    61900    61959    61973 
   61932    61827    61747    61780    61877    61958    62012    62019 
   61950    61870    61863    61916    61900    61780    61728    61786 
   61827    61857    61923    61960    61962    61978    61987    61928 
   61827    61789    61805    61773    61734    61805    61946    61986 
   61948    62010    62122    62104    61962    61815    61738    61784 
   61884    61855    61778    61861    61962    61846    61686    61740 
   61844    61804    61801    61898    61939    62054    62264    62212 
   61904    61801    61936    61869    61622    61639    61786    61742 
   61774    62013    62171    62218    62230    62063    61766    61626 
   61661    61654    61619    61711    61824    61773    61700    61838 
   62029    62035    61982    61993    61969    61939    61970    61979 
   61900    61751    61639    61727    61956    62051    62013    62114 
   62301    62249    62002    61847    61762    61708    61808    61889 
   61781    61716    61757    61645    61497    61659    61969    62102 
   62166    62189    61923    61576    61600    61763    61712    61735 
   61962    61986    61889    62181    62583    62424    61997    61924 
   61867    61430    61245    61761    62249    62174    62012    62039 
   61894    61663    61773    61916    61684    61539    61800    61956 
   61816    61803    61975    62013    62041    62239    62152    61670 
   61520    61846    61950    61796    62004    62349    62125    61736 
   61838    61889    61578    61632    62017    61950    61692    61902 
   62159    61909    61630    61726    61708    61546    61844    62282 
   62214    62055    62156    62044    61704    61727    61927    61705 
   61468    61763    62129    62155    62116    62128    61990    61731 
   61627    61657    61599    61592    61817    62033    62046    62032 
   62163    62243    61946    61410    61257    61645    61944    61874 
   61897    62154    62213    61978    61809    61803    61762    61715 
   61832    62019    62041    61884    61726    61757    61944    62051 
   62013    61997    62004    61931    61855    61877    61901    61782 
   61622    61684    61902    62000    61975    61944    61915    61923 
   61983    62008    61973    61952    61912    61819    61816    61875 
   61825    61816    61981    62095    62036    61901    61743    61659 
   61790    61952    61848    61743    62063    62397    62155    61800 
   61959    62168    61913    61668    61797    61823    61558    61576 
   61915    61948    61790    61982    62175    61879    61560    61642 
   61751    61677    61789    62086    62145    62025    62017    61966 
   61812    61835    61931    61803    61696    61852    61969    61885 
   61839    61871    61894    61987    62059    61935    61812    61847 
   61827    61747    61859    62017    61929    61790    61896    62122 
   62143    61878    61653    61727    61836    61750    61757    61973 
   62056    61942    61929    62000    61923    61835    61870    61780 
   61560    61547    61722    61830    61905    62014    62040    61990 
   62048    62139    61958    61662    61692    61884    61874    61866 
   62062    62170    62073    62064    62125    61915    61558    61527 
   61797    61939    61897    61956    62121    62156    62028    61859 
   61647    61469    61537    61785    61996    62132    62160    62036 
   61919    61952    62005    61942    61898    61936    61866    61746 
   61762    61751    61655    61746    61986    62032    61871    61804 
   61947    62056    61956    61857    61905    61909    61788    61762 
   61927    62001    61836    61735    61854    61932    61854    61821 
   61916    61902    61722    61753    61986    61951    61771    61894 
   62120    62073    61900    61839    61811    61769    61836    61954 
   61958    61924    61965    61986    61970    61971    61886    61755 
   61805    61928    61904    61905    62041    62039    61862    61821 
   61923    61867    61693    61692    61821    61875    61862    61796 
   61666    61685    61925    62054    61943    61874    61936    61942 
   61866    61808    61827    61900    61929    61884    61882    61985 
   61978    61776    61703    61936    62158    62048    61835    61867 
   61955    61894    61885    61962    61896    61765    61805    61877 
   61807    61811    61955    61956    61807    61815    61951    61921 
   61816    61854    61894    61836    61767    61682    61658    61827 
   61985    61920    61890    62079    62163    61983    61854    61939 
   62008    61927    61859    61904    61971    61951    61855    61840 
   61916    61902    61835    61855    61919    61967    61993    61923 
   61765    61712    61824    61890    61866    61927    62027    61966 
   61805    61758    61803    61827    61882    61942    61850    61731 
   61838    62004    61960    61869    61867    61835    61778    61785 
   61793    61817    61940    62024    61902    61759    61857    62017 
   61974    61933    62004    61886    61662    61744    62023    62098 
   62004    61986    61996    61940    61969    62071    61987    61773 
   61769    61884    61794    61680    61859    62075    61939    61713 
   61828    62055    62027    61869    61743    61597    61528    61670 
   61894    62054    62137    62079    61875    61730    61798    61963 
   61997    61966    62044    62109    61971    61743    61703    61819 
   61785    61712    61881    62012    61835    61699    61861    62002 
   61874    61793    61985    62090    61927    61855    61960    61917 
   61742    61736    61865    61905    61902    61936    61927    61898 
   61909    61901    61896    61966    62008    61925    61874    61917 
   61908    61848    61825    61803    61784    61824    61874    61886 
   61924    61985    61975    61913    61901    61885    61800    61820 
   61978    62021    61940    61944    61944    61788    61645    61688 
   61767    61771    61825    61936    61982    61992    61981    61916 
   61879    61935    62000    61981    61911    61861    61803    61734 
   61785    61996    62203    62185    61909    61681    61703    61790 
   61834    61928    61992    61920    61858    61874    61836    61765 
   61798    61851    61808    61804    61925    62004    61950    61896 
   61857    61777    61758    61867    61967    61950    61915    61943 
   61947    61901    61913    61940    61852    61770    61857    61946 
   61877    61828    61939    62004    61908    61824    61796    61738 
   61726    61842    61965    61985    61967    61948    61881    61819 
   61863    61943    61940    61919    61954    62005    62012    61944 
   61844    61827    61890    61901    61873    61900    61906    61831 
   61763    61770    61823    61870    61911    61935    61905    61859 
   61916    62040    62058    61992    61967    61929    61827    61759 
   61757    61766    61808    61916    62028    62095    62144    62074 
   61828    61654    61659    61659    61709    61890    61960    61859 
