Origin Time       2024/06/23 22:54:00
Lat.              35.645
Long.             140.060
Depth. (km)       72
Mag.              4.1
Station Code      YMNH16
Station Lat.      35.7421
Station Long.     138.5653
Station Height(m) 595
Record Time       2024/06/23 22:55:02
Sampling Freq(Hz) 100Hz
Duration Time(s)  120
Dir.              6
Scale Factor      7845(gal)/8223790
Max. Acc. (gal)   1.218
Last Correction   2024/06/23 22:55:03
Memo.             
    6893     6867     6871     6882     6879     6885     6876     6849 
    6810     6813     6894     6929     6930     6988     6961     6864 
    6835     6767     6737     6806     6764     6783     6960     6966 
    6974     7044     6783     6674     6993     6967     6804     6912 
    6866     6932     7095     6956     6957     6870     6597     6678 
    6656     6675     7086     7101     6897     6907     6817     6832 
    6845     6650     6754     7082     7207     7288     7157     6558 
    6388     6852     6677     6205     6759     7703     7653     6639 
    6164     6691     6988     7029     6926     6219     6575     8147 
    7888     6119     5848     6939     7441     7005     6678     6813 
    6762     6801     7163     6995     6650     6895     6972     6565 
    6496     6925     7241     7172     6961     6785     6616     6593 
    6951     7261     6845     6389     6924     7429     6767     6326 
    6839     7114     7042     6837     6624     6918     7183     7067 
    6771     6585     6991     7173     6748     6616     6727     6943 
    7214     6934     6381     6436     7190     7550     6863     6311 
    6502     6862     7372     7518     6822     6359     6791     7283 
    7022     6513     6609     6866     6791     6875     6976     6777 
    6874     7160     6889     6438     6602     7177     7315     6948 
    6748     6737     6771     7051     7079     6682     6679     6936 
    6771     6655     6926     7014     6804     6752     7006     7157 
    6793     6636     7200     7161     6367     6605     7373     6957 
    6419     6847     7053     6752     6770     7030     7149     6955 
    6720     6907     6975     6550     6556     6997     6918     6798 
    7047     6901     6716     6986     7078     6921     6739     6698 
    6982     6993     6767     7024     7134     6662     6658     7114 
    6953     6582     6744     6980     6968     6844     6795     6914 
    6848     6635     6772     7026     6978     6863     6868     6907 
    6951     6841     6729     6897     6828     6651     7021     7133 
    6917     7105     6968     6663     6851     6774     6556     6754 
    6972     7110     6951     6562     6623     6853     6905     6987 
    6941     6907     7056     6972     6724     6793     7014     6974 
    6843     6868     6841     6758     6813     6833     6853     6972 
    6907     6906     7026     6732     6613     7036     7030     6816 
    6939     6822     6826     7094     6767     6539     6885     6916 
    6909     7078     6905     6783     6887     6887     6876     6845 
    6736     6779     6918     6814     6745     7005     6993     6824 
    7028     6940     6624     6778     7007     7013     6899     6808 
    6889     6831     6720     6909     7006     6871     6898     7007 
    6916     6677     6602     6814     6913     6864     6968     6874 
    6671     6889     7082     6967     6848     6768     6841     6948 
    6994     7095     6890     6573     6696     6921     6956     6909 
    6826     6813     6779     6789     6991     6997     6778     6779 
    6948     7028     6940     6818     6844     6929     6967     6944 
    6856     6771     6728     6786     6878     6825     6786     6885 
    6953     6963     6951     6901     6812     6766     6816     6837 
    6826     6920     6984     6890     6853     6913     6826     6741 
    6885     6960     6836     6767     6805     6948     7053     6925 
    6858     6893     6783     6754     6858     6916     6937     6934 
    7036     7028     6671     6617     6974     6957     6710     6813 
    7053     6960     6663     6656     6928     7119     7003     6705 
    6756     6932     6770     6832     7065     6887     6747     6866 
    6979     7065     6856     6575     6847     7105     6886     6820 
    6882     6772     6825     6875     6754     6851     6978     6891 
    6903     6912     6847     6930     6893     6739     6840     6920 
    6847     6902     6983     6922     6832     6880     6871     6650 
    6660     6872     6918     6953     6921     6847     7022     7055 
    6821     6863     6941     6754     6855     6994     6708     6777 
    6978     6747     6872     7021     6814     6953     6959     6736 
    6878     6926     6813     6754     6690     6925     7068     6851 
    6883     6862     6679     7005     7215     6809     6561     6724 
    6920     6956     7015     7118     6852     6631     6949     6956 
    6562     6669     6953     6918     6901     6953     6941     6883 
    6770     6795     6979     6948     6779     6817     6918     6879 
    6837     6839     6798     6905     7105     7001     6849     6905 
    6809     6731     6912     7001     6801     6573     6728     6951 
    6840     6930     7160     7018     6897     6841     6610     6658 
    6929     6925     6845     6941     7028     6887     6708     6840 
    6964     6880     6987     6991     6671     6585     6774     6912 
    6855     6789     7044     7168     7020     7001     6782     6598 
    6880     7026     6959     6814     6583     6751     6929     6804 
    6947     6975     6751     6901     7028     6833     6794     6940 
    6971     6897     6909     6883     6741     6748     6898     7002 
    6960     6843     6816     6725     6690     6903     6814     6658 
    7018     7142     6936     6990     6886     6729     6910     6972 
    6816     6682     6713     6986     7036     6812     6855     6901 
    6745     6887     7096     6890     6621     6745     7041     7001 
    6781     6826     6967     6886     6674     6731     7029     6961 
    6824     7072     6916     6593     6939     7080     6750     6748 
    6853     6844     6995     7091     6894     6646     6671     6939 
    7107     6991     6771     6751     6885     6894     6821     6782 
    6775     6932     7069     6886     6708     6709     6758     7018 
    7145     6868     6848     7032     6867     6770     6855     6714 
    6724     6939     6867     6836     6986     6883     6820     6957 
    6852     6728     6867     6917     6867     6930     6987     6966 
    6851     6733     6818     6889     6770     6816     7009     6960 
    6863     6988     6991     6797     6768     6806     6799     6856 
    6858     6862     6914     6894     6964     6971     6787     6844 
    6994     6883     6801     6751     6669     6802     6980     6990 
    6890     6768     6882     7032     6831     6766     6970     6899 
    6832     6906     6735     6701     6971     7051     6902     6791 
    6875     6925     6817     6957     7088     6799     6637     6809 
    6901     6821     6787     6926     6906     6772     7009     7090 
    6758     6697     6791     6879     7010     6903     6890     7017 
    6871     6810     6974     6974     6824     6701     6733     6882 
    6901     6874     6952     6957     6851     6779     6752     6752 
    6808     6940     7002     6872     6781     6874     6944     6860 
    6805     6959     7078     6995     6898     6848     6832     6774 
    6786     7006     6921     6582     6727     6974     6874     6868 
    6913     6862     6901     6906     6987     6972     6624     6658 
    6963     6959     7017     6960     6732     6849     6925     6744 
    6729     6902     7094     7057     6814     6745     6826     6849 
    6864     6837     6743     6786     6976     7015     6907     6912 
    6964     6933     6849     6737     6723     6894     7003     6910 
    6818     6802     6790     6808     6886     6964     6903     6748 
    6798     7029     7034     6876     6849     6810     6791     6975 
    7030     6847     6789     6859     6912     6925     6829     6798 
    6829     6677     6666     6952     7053     6984     6929     6814 
    6844     6939     6809     6717     6791     6809     6968     7157 
    6856     6566     6812     7020     6997     6990     6895     6767 
    6741     6826     6912     6847     6828     6940     6971     6875 
    6743     6832     7045     6936     6744     6817     6928     6910 
    6760     6671     6879     7055     6994     7005     6952     6758 
    6862     6998     6760     6701     6918     6874     6816     6944 
    6903     6853     6906     6863     6936     6991     6787     6751 
    6841     6713     6718     6979     7051     6879     6787     6774 
    6826     7053     7057     6774     6731     6889     6943     6909 
    6863     6863     6875     6914     6933     6799     6682     6705 
    6837     7005     7002     6955     7009     6891     6733     6799 
    6901     7042     7096     6814     6705     6859     6731     6600 
    6714     6812     7041     7257     7167     7029     6841     6627 
    6705     6871     6894     6825     6702     6723     6855     6859 
    6868     7010     7030     6856     6832     6994     6916     6700 
    6787     6959     6934     6882     6907     6964     6902     6845 
    6953     6782     6529     6849     7105     6804     6646     6794 
    6874     6926     6986     6959     6894     6867     6920     6934 
    6848     6867     6963     6890     6729     6751     6848     6770 
    6801     7051     7109     7011     6916     6801     6802     6832 
    6859     6866     6690     6698     6975     7006     6924     6879 
    6772     6887     6920     6705     6852     6984     6880     7072 
    7068     6705     6592     6706     6918     6925     6718     6909 
    7068     6876     6959     7037     6826     6720     6671     6732 
    6930     7018     7061     6994     6814     6775     6752     6778 
    6957     7013     6964     6925     6851     6775     6741     6912 
    7015     6817     6817     6878     6694     6728     6910     6994 
    7034     6894     6806     6871     6787     6702     6864     7110 
    7029     6831     7026     6998     6588     6666     6853     6763 
    6914     6949     6787     6925     6968     6805     6747     6718 
    6867     7056     7051     7106     6975     6675     6778     6894 
    6743     6795     6956     6951     6799     6640     6779     7068 
    7149     7123     6990     6697     6579     6731     6777     6739 
    6933     7133     7078     6844     6677     6871     7032     6826 
    6764     6851     6868     6980     6959     6824     6806     6795 
    6906     6940     6714     6729     6936     7024     7040     6859 
    6725     6787     6764     6879     7030     6832     6767     6995 
    6952     6766     6867     6963     6847     6798     6806     6770 
    6856     6995     6978     6932     6891     6755     6770     6930 
    6894     6794     6948     7176     7017     6656     6748     6971 
    6737     6605     6897     6952     6732     6824     7096     7098 
    6959     6933     6843     6648     6721     6945     6932     6836 
    6785     6766     6957     7136     6951     6740     6835     6853 
    6713     6862     7003     6831     6799     6883     6925     7003 
    6826     6714     7003     6974     6700     6781     6835     6897 
    7076     6905     6856     7003     6716     6673     7022     6876 
    6679     6882     6914     6897     7030     6876     6664     6828 
    7049     7006     6802     6712     6870     6997     6928     6880 
    6828     6731     6779     6894     6917     6876     6847     6889 
    6941     6925     6859     6760     6801     7011     7005     6818 
    6770     6786     6940     7026     6760     6705     6879     6818 
    6853     6945     6875     6941     6947     6876     7020     7045 
    6864     6704     6678     6813     6843     6841     6997     6968 
    6806     6825     6867     6860     6897     6875     6870     6890 
    6740     6751     7022     7003     6906     6916     6666     6696 
    7080     7032     6853     6852     6751     6864     7063     6852 
    6694     6810     6871     7006     7025     6720     6675     6944 
    6929     6781     6891     6943     6828     6889     6926     6839 
    6874     6832     6762     6930     6983     6833     6860     6898 
    6786     6829     6944     6929     6997     6975     6696     6662 
    6889     6952     6955     6995     6916     6759     6729     6841 
    6941     6939     6839     6844     6975     6899     6768     6781 
    6725     6760     6886     6895     7009     7068     6907     6862 
    6878     6872     6891     6771     6728     6829     6837     6917 
    6991     6889     6891     6944     6906     6895     6817     6770 
    6806     6747     6812     6970     6970     6980     6879     6628 
    6709     6998     7022     6905     6905     6905     6809     6848 
    6975     6905     6783     6786     6824     6798     6768     6929 
    7067     6870     6717     6890     7005     6930     6878     6804 
    6723     6853     6983     6863     6863     6980     6866     6808 
    6899     6893     6917     6952     6887     6852     6783     6758 
    6871     6783     6698     6975     7024     6810     6897     6978 
    6875     6878     6920     6932     6879     6799     6868     6855 
    6713     6813     6924     6810     6828     6966     6968     6874 
    6777     6775     6837     6914     7020     6978     6902     6934 
    6777     6660     6831     6905     6976     7042     6791     6721 
    6979     7014     6903     6790     6637     6691     6910     7106 
    7105     6806     6689     6860     6848     6828     7007     6941 
    6696     6814     7013     6844     6752     6912     6905     6835 
    6937     6952     6824     6866     6990     6943     6832     6737 
    6685     6808     6960     6957     6909     6862     6824     6882 
    6880     6783     6880     6971     6767     6766     7024     6984 
    6837     6862     6872     6879     6839     6786     6951     6943 
    6737     6957     7068     6743     6747     6870     6831     6972 
    6957     6798     6898     6924     6847     6883     6805     6739 
    6820     6840     6863     6871     6860     7020     7069     6864 
    6767     6799     6837     6898     6932     6929     6853     6805 
    6925     6949     6787     6781     6897     6864     6831     6874 
    6866     6895     6878     6764     6836     6940     6863     6878 
    6957     6875     6825     6889     6853     6805     6891     6952 
    6901     6835     6840     6929     6999     6926     6768     6801 
    6921     6809     6721     6772     6779     6955     7136     6998 
    6874     6853     6795     6853     6886     6779     6866     7068 
    6982     6835     6925     6889     6650     6621     6760     6862 
    6995     7064     6979     6894     6890     6894     6785     6578 
    6585     6921     7068     6871     6867     6936     6825     6930 
    6972     6633     6586     6920     7065     7082     7026     6794 
    6716     6840     6883     6982     7126     7049     6957     7022 
    6957     6744     6671     6714     6724     6790     6867     6862 
    6891     6844     6702     6763     6894     6912     7057     7105 
    6818     6739     6852     6717     6570     6512     6660     7128 
    7284     7190     7334     7258     6963     6817     6567     6440 
    6720     6889     6810     6844     6963     6972     6848     6679 
    6592     6660     6829     6948     7036     7129     7102     7022 
    6925     6732     6748     6947     6922     6825     6821     6779 
    6855     7059     7102     6951     6793     6801     6913     6835 
    6677     6778     6943     6897     6795     6822     6871     6822 
    6853     6903     6752     6789     7087     7038     6808     6887 
    6940     6798     6829     6898     6824     6802     6744     6740 
    6952     7040     7013     7006     6809     6648     6754     6885 
    6909     6909     6968     7003     6926     6843     6704     6512 
    6554     6862     7156     7145     6963     7014     6957     6650 
    6763     7047     6913     6799     6944     7003     6832     6619 
    6656     6840     6934     6947     6856     6831     6945     6956 
    6953     7001     6929     6875     6814     6635     6696     6968 
    7025     6971     6922     6806     6816     6916     6822     6679 
    6813     7080     7088     6862     6772     6943     6978     6689 
    6613     6905     6968     6802     6820     6839     6797     6972 
    7092     6864     6750     6924     6895     6733     6810     6937 
    6976     6961     6859     6845     6964     6940     6806     6818 
    6845     6789     6818     6852     6797     6758     6825     6932 
    6957     6967     6960     6920     6932     6890     6870     6972 
    6940     6839     6779     6650     6731     6964     6956     6902 
    6929     6880     6794     6731     6790     6956     6972     6890 
    6917     6914     6801     6721     6771     6947     7001     6813 
    6752     6974     7048     6798     6669     6882     7086     7079 
    6934     6736     6650     6725     6825     6860     6821     6793 
    6831     6891     6951     6906     6783     6771     6855     6963 
    7044     7005     6897     6822     6828     6970     7075     6961 
    6859     6833     6748     6810     6916     6782     6751     6902 
    6918     6905     6891     6862     6945     6889     6752     6848 
    6849     6770     6883     6864     6781     6910     6957     6890 
    6906     6961     6997     6879     6751     6902     7009     6843 
    6763     6810     6787     6789     6860     6901     6853     6825 
    6963     6955     6671     6659     6941     7059     7013     6951 
    6858     6683     6656     6872     6902     6813     6880     6845 
    6867     7047     7020     6980     7017     6902     6880     6930 
    6836     6805     6759     6670     6825     6943     6855     6933 
    6991     6849     6832     6817     6733     6844     6945     6941 
    7020     6998     6831     6736     6735     6810     6901     6905 
    6907     6922     6917     6960     7013     6959     6802     6732 
    6756     6704     6755     6912     6835     6760     6878     6882 
    6925     7044     6941     6874     6912     6801     6791     6921 
    6882     6801     6808     6829     6917     7018     6984     6883 
    6860     6891     6910     6912     6851     6785     6816     6843 
    6772     6724     6781     6845     6893     6991     7040     6968 
    6887     6802     6736     6831     6925     6903     6953     6941 
    6808     6832     6878     6849     6961     6955     6766     6845 
    6968     6839     6845     6898     6748     6766     6902     6879 
    6836     6775     6725     6793     6899     7052     7107     6966 
    6879     6851     6772     6783     6832     6771     6723     6798 
    6879     6903     6941     6951     6886     6875     6914     6887 
    6899     6963     6868     6741     6855     6955     6847     6874 
    6971     6868     6831     6905     6903     6882     6847     6871 
    6955     6863     6747     6879     6967     6826     6812     6940 
    6917     6912     6994     6920     6806     6855     6941     6933 
    6859     6806     6782     6724     6758     6910     6897     6786 
    6818     6847     6806     6821     6913     6978     6903     6810 
    6774     6756     6894     7060     7013     6922     6885     6824 
