Origin Time       2024/06/23 22:54:00
Lat.              35.645
Long.             140.060
Depth. (km)       72
Mag.              4.1
Station Code      YMNH16
Station Lat.      35.7421
Station Long.     138.5653
Station Height(m) 339
Record Time       2024/06/23 22:55:02
Sampling Freq(Hz) 100Hz
Duration Time(s)  120
Dir.              1
Scale Factor      2942(gal)/8224139
Max. Acc. (gal)   0.223
Last Correction   2024/06/23 22:55:03
Memo.             
[...]
-1015802 -1015949 -1015842 -1015679 -1015748 -1015877 -1015869 -1015843 
-1015883 -1015822 -1015677 -1015715 -1015853 -1015827 -1015777 -1015941 
-1016103 -1015924 -1015664 -1015745 -1015920 -1015866 -1015802 -1015869 
-1015902 -1015849 -1015784 -1015771 -1015789 -1015773 -1015780 -1015845 
-1015868 -1015843 -1015821 -1015843 -1015891 -1015870 -1015822 -1015853 
-1015907 -1015841 -1015719 -1015784 -1015919 -1015858 -1015777 -1015822 
-1015816 -1015791 -1015849 -1015891 -1015888 -1015881 -1015838 -1015758 
-1015742 -1015884 -1016012 -1015915 -1015802 -1015868 -1015868 -1015719 
-1015715 -1015907 -1015968 -1015787 -1015721 -1015893 -1015914 -1015760 
-1015781 -1015904 -1015915 -1015883 -1015889 -1015869 -1015808 -1015808 
-1015837 -1015791 -1015764 -1015826 -1015866 -1015821 -1015791 -1015849 
-1015862 -1015775 -1015765 -1015845 -1015860 -1015866 -1015935 -1015953 
-1015891 -1015884 -1015897 -1015795 -1015684 -1015753 -1015911 -1015900 
-1015780 -1015807 -1015879 -1015800 -1015704 -1015735 -1015838 -1015916 
-1015923 -1015869 -1015826 -1015848 -1015910 -1015889 -1015792 -1015796 
-1015860 -1015807 -1015753 -1015833 -1015887 -1015808 -1015768 -1015827 
-1015843 -1015810 -1015826 -1015880 -1015888 -1015862 -1015902 -1015930 
-1015843 -1015792 -1015877 -1015923 -1015799 -1015718 -1015861 -1015947 
-1015764 -1015665 -1015835 -1015922 -1015792 -1015745 -1015906 -1015968 
-1015810 -1015771 -1015931 -1015935 -1015769 -1015804 -1015999 -1015942 
-1015694 -1015691 -1015865 -1015826 -1015714 -1015829 -1015914 -1015787 
-1015748 -1015910 -1016007 -1015877 -1015744 -1015897 -1016089 -1015899 
-1015633 -1015748 -1015976 -1015918 -1015718 -1015741 -1015939 -1015916 
-1015668 -1015636 -1015850 -1015912 -1015827 -1015854 -1015912 -1015892 
-1015889 -1015883 -1015818 -1015799 -1015845 -1015830 -1015807 -1015873 
-1015887 -1015787 -1015777 -1015888 -1015877 -1015730 -1015742 -1015930 
-1015945 -1015768 -1015799 -1016011 -1015946 -1015698 -1015740 -1015942 
-1015884 -1015687 -1015742 -1015961 -1015962 -1015783 -1015727 -1015791 
-1015796 -1015762 -1015791 -1015852 -1015872 -1015893 -1015922 -1015860 
-1015767 -1015843 -1015949 -1015831 -1015754 -1015912 -1015956 -1015810 
-1015789 -1015891 -1015846 -1015713 -1015771 -1015889 -1015807 -1015748 
-1015865 -1015896 -1015802 -1015829 -1015923 -1015868 -1015772 -1015833 
-1015918 -1015879 -1015839 -1015902 -1015904 -1015760 -1015675 -1015791 
-1015934 -1015920 -1015845 -1015854 -1015870 -1015772 -1015727 -1015879 
-1015942 -1015776 -1015719 -1015889 -1015943 -1015726 -1015618 -1015907 
-1016155 -1015915 -1015615 -1015744 -1015931 -1015788 -1015663 -1015876 
-1016065 -1015927 -1015810 -1015916 -1015918 -1015758 -1015740 -1015841 
-1015873 -1015872 -1015902 -1015852 -1015680 -1015621 -1015803 -1015933 
-1015815 -1015738 -1015912 -1016043 -1015897 -1015760 -1015838 -1015899 
-1015854 -1015869 -1015903 -1015837 -1015738 -1015726 -1015816 -1015865 
-1015783 -1015756 -1015869 -1015919 -1015853 -1015789 -1015799 -1015900 
-1015988 -1015956 -1015900 -1015880 -1015831 -1015788 -1015826 -1015893 
-1015842 -1015707 -1015721 -1015799 -1015734 -1015698 -1015839 -1015954 
-1015860 -1015735 -1015846 -1015993 -1015896 -1015788 -1015914 -1016076 
-1015995 -1015762 -1015719 -1015852 -1015861 -1015752 -1015730 -1015827 
-1015885 -1015814 -1015768 -1015853 -1015872 -1015750 -1015760 -1015949 
-1016012 -1015875 -1015794 -1015868 -1015903 -1015796 -1015756 -1015912 
-1015966 -1015750 -1015611 -1015723 -1015830 -1015791 -1015788 -1015920 
-1015957 -1015804 -1015758 -1015916 -1015964 -1015762 -1015677 -1015930 
-1016116 -1015930 -1015700 -1015745 -1015862 -1015806 -1015741 -1015826 
-1015911 -1015895 -1015857 -1015802 -1015704 -1015713 -1015862 -1015939 
-1015922 -1015922 -1015869 -1015798 -1015868 -1015951 -1015831 -1015702 
-1015812 -1015920 -1015803 -1015727 -1015845 -1015884 -1015762 -1015752 
-1015904 -1015962 -1015881 -1015896 -1015962 -1015821 -1015660 -1015819 
-1016020 -1015876 -1015688 -1015818 -1015937 -1015762 -1015654 -1015803 
-1015873 -1015765 -1015776 -1015947 -1015933 -1015733 -1015757 -1015956 
-1015945 -1015794 -1015829 -1015992 -1015984 -1015831 -1015764 -1015796 
-1015815 -1015788 -1015767 -1015783 -1015827 -1015877 -1015873 -1015819 
-1015815 -1015845 -1015810 -1015789 -1015856 -1015899 -1015915 -1015937 
-1015857 -1015713 -1015684 -1015810 -1015929 -1015903 -1015803 -1015779 
-1015853 -1015903 -1015839 -1015794 -1015887 -1015949 -1015843 -1015760 
-1015852 -1015930 -1015833 -1015760 -1015838 -1015862 -1015783 -1015776 
-1015810 -1015783 -1015788 -1015884 -1015958 -1015933 -1015866 -1015841 
-1015818 -1015772 -1015800 -1015881 -1015883 -1015827 -1015807 -1015821 
-1015826 -1015816 -1015823 -1015841 -1015849 -1015842 -1015842 -1015876 
-1015889 -1015846 -1015833 -1015841 -1015785 -1015750 -1015829 -1015916 
-1015892 -1015849 -1015893 -1015910 -1015802 -1015730 -1015821 -1015908 
-1015835 -1015775 -1015865 -1015895 -1015764 -1015756 -1015910 -1015911 
-1015753 -1015762 -1015945 -1015946 -1015742 -1015708 -1015865 -1015870 
-1015783 -1015877 -1015989 -1015869 -1015738 -1015853 -1015977 -1015854 
-1015698 -1015744 -1015885 -1015897 -1015780 -1015750 -1015831 -1015856 
-1015802 -1015779 -1015839 -1015903 -1015897 -1015885 -1015850 -1015768 
-1015802 -1015951 -1015977 -1015830 -1015726 -1015806 -1015920 -1015875 
-1015757 -1015750 -1015826 -1015854 -1015831 -1015854 -1015887 -1015842 
-1015804 -1015825 -1015845 -1015858 -1015834 -1015789 -1015822 -1015893 
-1015892 -1015814 -1015769 -1015834 -1015916 -1015903 -1015842 -1015807 
-1015795 -1015772 -1015749 -1015829 -1015980 -1015970 -1015806 -1015746 
-1015827 -1015866 -1015835 -1015850 -1015899 -1015887 -1015808 -1015767 
-1015833 -1015869 -1015803 -1015814 -1015891 -1015848 -1015757 -1015775 
-1015819 -1015800 -1015816 -1015908 -1015951 -1015899 -1015826 -1015814 
-1015856 -1015885 -1015903 -1015889 -1015819 -1015792 -1015839 -1015875 
-1015854 -1015814 -1015803 -1015827 -1015877 -1015923 -1015895 -1015792 
-1015735 -1015780 -1015816 -1015764 -1015746 -1015846 -1015893 -1015784 
-1015749 -1015910 -1015991 -1015877 -1015785 -1015822 -1015853 -1015818 
-1015822 -1015869 -1015852 -1015808 -1015852 -1015908 -1015839 -1015764 
-1015842 -1015927 -1015850 -1015734 -1015760 -1015877 -1015937 -1015908 
-1015846 -1015810 -1015821 -1015825 -1015783 -1015765 -1015823 -1015869 
-1015823 -1015788 -1015829 -1015835 -1015795 -1015853 -1015983 -1016000 
-1015903 -1015835 -1015842 -1015826 -1015726 -1015677 -1015771 -1015875 
-1015891 -1015885 -1015891 -1015866 -1015833 -1015857 -1015883 -1015810 
-1015750 -1015860 -1015999 -1015920 -1015708 -1015679 -1015825 -1015839 
-1015735 -1015780 -1015910 -1015893 -1015815 -1015892 -1015995 -1015853 
-1015645 -1015735 -1015966 -1015927 -1015731 -1015771 -1015972 -1015908 
-1015661 -1015707 -1015929 -1015897 -1015788 -1015888 -1015953 -1015815 
-1015780 -1015937 -1015939 -1015749 -1015711 -1015848 -1015908 -1015875 
-1015850 -1015833 -1015798 -1015771 -1015798 -1015837 -1015842 -1015881 
-1015915 -1015872 -1015825 -1015838 -1015861 -1015808 -1015748 -1015802 
-1015854 -1015822 -1015831 -1015866 -1015837 -1015804 -1015818 -1015842 
-1015857 -1015910 -1015989 -1015949 -1015795 -1015758 -1015830 -1015825 
-1015800 -1015848 -1015854 -1015764 -1015745 -1015880 -1015927 -1015771 
-1015717 -1015877 -1015923 -1015795 -1015822 -1015968 -1015918 -1015772 
-1015811 -1015943 -1015922 -1015795 -1015750 -1015765 -1015745 -1015775 
-1015929 -1016012 -1015846 -1015659 -1015771 -1015968 -1015873 -1015727 
-1015876 -1016024 -1015888 -1015762 -1015814 -1015818 -1015762 -1015816 
-1015893 -1015865 -1015835 -1015879 -1015884 -1015808 -1015772 -1015846 
-1015902 -1015821 -1015752 -1015845 -1015904 -1015794 -1015733 -1015816 
-1015857 -1015804 -1015772 -1015823 -1015889 -1015861 -1015810 -1015881 
-1015970 -1015912 -1015815 -1015838 -1015897 -1015848 -1015784 -1015833 
-1015883 -1015837 -1015780 -1015819 -1015896 -1015848 -1015738 -1015795 
-1015934 -1015918 -1015802 -1015768 -1015825 -1015875 -1015864 -1015818 
-1015821 -1015864 -1015858 -1015835 -1015842 -1015812 -1015800 -1015892 
-1015907 -1015760 -1015725 -1015888 -1015934 -1015788 -1015750 -1015854 
-1015881 -1015846 -1015830 -1015806 -1015803 -1015839 -1015895 -1015915 
-1015839 -1015785 -1015856 -1015933 -1015929 -1015858 -1015767 -1015768 
-1015888 -1015911 -1015758 -1015714 -1015866 -1015893 -1015741 -1015729 
-1015872 -1015888 -1015769 -1015752 -1015899 -1015989 -1015884 -1015811 
-1015933 -1015992 -1015825 -1015714 -1015845 -1015938 -1015819 -1015767 
-1015884 -1015875 -1015704 -1015707 -1015885 -1015888 -1015733 -1015762 
-1015922 -1015907 -1015796 -1015845 -1015965 -1015922 -1015762 -1015714 
-1015798 -1015815 -1015761 -1015810 -1015904 -1015850 -1015746 -1015811 
-1015922 -1015895 -1015881 -1015933 -1015873 -1015750 -1015792 -1015954 
-1015951 -1015762 -1015730 -1015934 -1015984 -1015787 -1015726 -1015880 
-1015911 -1015758 -1015726 -1015896 -1015956 -1015791 -1015717 -1015834 
-1015876 -1015803 -1015819 -1015923 -1015893 -1015745 -1015737 -1015850 
-1015908 -1015920 -1015877 -1015772 -1015740 -1015787 -1015810 -1015833 
-1015866 -1015864 -1015857 -1015876 -1015895 -1015877 -1015826 -1015808 
-1015854 -1015870 -1015831 -1015861 -1015961 -1015961 -1015833 -1015731 
-1015740 -1015802 -1015846 -1015868 -1015865 -1015798 -1015756 -1015827 
-1015854 -1015791 -1015818 -1015900 -1015864 -1015779 -1015833 -1015939 
-1015904 -1015808 -1015794 -1015810 -1015819 -1015833 -1015861 -1015879 
-1015803 -1015688 -1015714 -1015889 -1015981 -1015876 -1015791 -1015862 
-1015887 -1015800 -1015811 -1015906 -1015877 -1015772 -1015762 -1015826 
-1015879 -1015943 -1015973 -1015879 -1015764 -1015777 -1015861 -1015870 
-1015787 -1015757 -1015869 -1015968 -1015899 -1015768 -1015754 -1015848 
-1015918 -1015887 -1015799 -1015799 -1015888 -1015870 -1015780 -1015794 
-1015835 -1015796 -1015783 -1015861 -1015912 -1015835 -1015758 -1015822 
-1015903 -1015872 -1015829 -1015845 -1015829 -1015791 -1015831 -1015883 
-1015850 -1015852 -1015904 -1015843 -1015744 -1015794 -1015887 -1015862 
-1015825 -1015889 -1015941 -1015854 -1015780 -1015843 -1015845 -1015706 
-1015726 -1015919 -1015926 -1015757 -1015771 -1015950 -1015929 -1015734 
-1015752 -1015934 -1015926 -1015789 -1015812 -1015910 -1015856 -1015783 
-1015841 -1015852 -1015794 -1015866 -1015929 -1015816 -1015779 -1015899 
-1015919 -1015784 -1015727 -1015843 -1015924 -1015883 -1015875 -1015884 
-1015833 -1015829 -1015891 -1015868 -1015726 -1015663 -1015773 -1015853 
-1015823 -1015848 -1015893 -1015794 -1015675 -1015781 -1015978 -1015950 
-1015802 -1015838 -1015953 -1015892 -1015784 -1015850 -1015945 -1015860 
-1015729 -1015746 -1015850 -1015854 -1015775 -1015831 -1015968 -1015899 
-1015731 -1015788 -1015919 -1015831 -1015702 -1015794 -1015947 -1015908 
-1015807 -1015854 -1015893 -1015799 -1015777 -1015870 -1015860 -1015783 
-1015857 -1015953 -1015860 -1015804 -1015930 -1015938 -1015777 -1015729 
-1015829 -1015862 -1015768 -1015758 -1015861 -1015848 -1015784 -1015869 
-1015933 -1015819 -1015744 -1015838 -1015907 -1015846 -1015800 -1015858 
-1015892 -1015821 -1015787 -1015864 -1015904 -1015845 -1015789 -1015792 
-1015816 -1015831 -1015852 -1015879 -1015883 -1015883 -1015896 -1015902 
-1015870 -1015803 -1015757 -1015789 -1015860 -1015872 -1015818 -1015794 
-1015815 -1015825 -1015831 -1015830 -1015803 -1015795 -1015835 -1015864 
-1015842 -1015841 -1015887 -1015873 -1015814 -1015822 -1015858 -1015866 
-1015865 -1015854 -1015857 -1015864 -1015794 -1015713 -1015768 -1015884 
-1015881 -1015806 -1015834 -1015924 -1015879 -1015752 -1015804 -1015966 
-1015938 -1015771 -1015750 -1015881 -1015927 -1015827 -1015789 -1015881 
-1015869 -1015735 -1015745 -1015876 -1015893 -1015826 -1015846 -1015926 
-1015880 -1015741 -1015744 -1015865 -1015881 -1015777 -1015756 -1015891 
-1015966 -1015850 -1015783 -1015862 -1015865 -1015791 -1015821 -1015884 
-1015841 -1015769 -1015792 -1015846 -1015829 -1015787 -1015799 -1015865 
-1015916 -1015918 -1015891 -1015815 -1015714 -1015729 -1015837 -1015849 
-1015767 -1015760 -1015856 -1015920 -1015892 -1015862 -1015903 -1015927 
-1015868 -1015799 -1015749 -1015718 -1015772 -1015877 -1015920 -1015919 
-1015970 -1016031 -1015938 -1015730 -1015664 -1015737 -1015692 -1015565 
-1015664 -1015937 -1015993 -1015861 -1015906 -1016070 -1015996 -1015718 
-1015551 -1015564 -1015667 -1015831 -1015974 -1016022 -1016066 -1016185 
-1016288 -1016189 -1015939 -1015829 -1015815 -1015627 -1015465 -1015630 
-1015931 -1016058 -1015996 -1015903 -1015830 -1015680 -1015432 -1015321 
-1015528 -1015825 -1015930 -1015887 -1015900 -1016026 -1016089 -1015966 
-1015822 -1015769 -1015684 -1015665 -1015968 -1016308 -1016159 -1015652 
-1015428 -1015675 -1015912 -1015846 -1015810 -1016078 -1016336 -1016145 
-1015667 -1015426 -1015533 -1015641 -1015525 -1015438 -1015717 -1016138 
-1016258 -1016108 -1015983 -1015961 -1015988 -1015983 -1015846 -1015613 
-1015478 -1015621 -1015956 -1016163 -1016085 -1015829 -1015579 -1015567 
-1015794 -1015927 -1015858 -1015885 -1016111 -1016181 -1015958 -1015843 
-1015899 -1015721 -1015457 -1015537 -1015781 -1015845 -1015771 -1015704 
-1015719 -1015842 -1015941 -1015893 -1015784 -1015717 -1015707 -1015779 
-1015966 -1016180 -1016142 -1015845 -1015742 -1015958 -1015920 -1015465 
-1015357 -1015884 -1016223 -1015972 -1015779 -1015950 -1015983 -1015754 
-1015718 -1015838 -1015695 -1015475 -1015602 -1015856 -1015923 -1016024 
-1016220 -1016124 -1015725 -1015619 -1015991 -1016163 -1015780 -1015471 
-1015733 -1016135 -1016119 -1015864 -1015885 -1016081 -1015916 -1015424 
-1015216 -1015503 -1015798 -1015752 -1015669 -1015873 -1016234 -1016462 
-1016393 -1016132 -1015930 -1015781 -1015533 -1015343 -1015490 -1015829 
-1015983 -1015938 -1015992 -1016127 -1015992 -1015675 -1015681 -1015903 
-1015767 -1015497 -1015698 -1016007 -1015800 -1015522 -1015784 -1016134 
-1015988 -1015714 -1015816 -1016023 -1015933 -1015726 -1015717 -1015810 
-1015800 -1015802 -1015922 -1016005 -1015969 -1015919 -1015929 -1015897 
-1015762 -1015715 -1015856 -1015924 -1015815 -1015730 -1015729 -1015740 
-1015781 -1015814 -1015731 -1015605 -1015607 -1015699 -1015742 -1015846 
-1016078 -1016190 -1016054 -1015868 -1015803 -1015799 -1015729 -1015649 
-1015722 -1015870 -1015889 -1015829 -1015899 -1016058 -1016043 -1015877 
-1015860 -1015970 -1015950 -1015860 -1015914 -1015961 -1015749 -1015502 
-1015595 -1015856 -1015892 -1015798 -1015792 -1015771 -1015706 -1015742 
-1015870 -1015980 -1015960 -1015816 -1015775 -1015885 -1015920 -1015821 
-1015752 -1015792 -1015848 -1015821 -1015792 -1015845 -1015891 -1015870 
-1015835 -1015789 -1015695 -1015642 -1015791 -1016042 -1016116 -1015997 
-1015919 -1015915 -1015808 -1015663 -1015710 -1015866 -1015803 -1015575 
-1015611 -1015896 -1015906 -1015646 -1015668 -1015989 -1016124 -1016001 
-1015941 -1016041 -1016108 -1015993 -1015815 -1015787 -1015849 -1015821 
-1015798 -1015850 -1015839 -1015798 -1015861 -1015972 -1015965 -1015814 
-1015717 -1015792 -1015837 -1015733 -1015706 -1015861 -1015937 -1015811 
-1015754 -1015835 -1015745 -1015471 -1015441 -1015756 -1015973 -1015893 
-1015884 -1016118 -1016216 -1016003 -1015816 -1015819 -1015798 -1015713 
-1015750 -1015873 -1015908 -1015872 -1015849 -1015830 -1015775 -1015698 
-1015692 -1015826 -1015970 -1015938 -1015780 -1015758 -1015907 -1015969 
-1015850 -1015746 -1015769 -1015838 -1015866 -1015849 -1015808 -1015784 
-1015861 -1016032 -1016108 -1015965 -1015764 -1015754 -1015872 -1015853 
-1015777 -1015846 -1015827 -1015586 -1015518 -1015765 -1015923 -1015819 
-1015777 -1016005 -1016161 -1015970 -1015771 -1015791 -1015746 -1015582 
-1015568 -1015707 -1015808 -1015866 -1015929 -1015903 -1015811 -1015842 
-1015964 -1015981 -1015912 -1015872 -1015865 -1015872 -1015896 -1015919 
-1015889 -1015796 -1015750 -1015819 -1015879 -1015866 -1015903 -1015966 
-1015893 -1015781 -1015822 -1015910 -1015880 -1015780 -1015744 -1015816 
-1015860 -1015731 -1015569 -1015621 -1015822 -1015891 -1015838 -1015889 
-1015968 -1015911 -1015825 -1015812 -1015848 -1015861 -1015831 -1015845 
-1015912 -1015924 -1015833 -1015727 -1015754 -1015891 -1015993 -1015972 
-1015848 -1015754 -1015779 -1015843 -1015868 -1015860 -1015862 -1015833 
-1015762 -1015802 -1015942 -1015956 -1015848 -1015802 -1015837 -1015854 
-1015830 -1015806 -1015787 -1015738 -1015688 -1015659 -1015644 -1015754 
-1015992 -1016082 -1015916 -1015798 -1015919 -1016007 -1015830 -1015642 
-1015726 -1015910 -1015904 -1015771 -1015721 -1015769 -1015837 -1015923 
-1015991 -1015929 -1015810 -1015816 -1015902 -1015907 -1015881 -1015922 
-1015915 -1015775 -1015691 -1015810 -1015907 -1015787 -1015684 -1015802 
-1015910 -1015852 -1015827 -1015919 -1015941 -1015816 -1015713 -1015737 
-1015787 -1015802 -1015856 -1015930 -1015915 -1015818 -1015776 -1015837 
-1015893 -1015888 -1015892 -1015927 -1015961 -1015949 -1015862 -1015788 
-1015808 -1015812 -1015730 -1015710 -1015803 -1015856 -1015823 -1015791 
-1015819 -1015881 -1015864 -1015758 -1015731 -1015833 -1015885 -1015799 
-1015744 -1015848 -1015951 -1015926 -1015862 -1015830 -1015835 -1015892 
-1015962 -1015997 -1015972 -1015865 -1015680 -1015567 -1015676 -1015862 
-1015897 -1015856 -1015927 -1016039 -1015949 -1015708 -1015609 -1015700 
-1015765 -1015756 -1015864 -1016028 -1015964 -1015729 -1015668 -1015843 
-1015947 -1015833 -1015762 -1015866 -1015900 -1015831 -1015897 -1016035 
-1015960 -1015757 -1015753 -1015872 -1015842 -1015760 -1015821 -1015895 
-1015835 -1015754 -1015756 -1015753 -1015734 -1015804 -1015912 -1015916 
-1015860 -1015865 -1015896 -1015827 -1015715 -1015708 -1015771 -1015803 
-1015837 -1015897 -1015961 -1016024 -1016016 -1015891 -1015802 -1015883 
-1016004 -1015937 -1015742 -1015722 -1015868 -1015876 -1015738 -1015737 
-1015885 -1015939 -1015873 -1015858 -1015881 -1015852 -1015808 -1015768 
-1015758 -1015823 -1015856 -1015767 -1015717 -1015838 -1015941 -1015856 
-1015749 -1015787 -1015870 -1015854 -1015756 -1015718 -1015760 -1015796 
-1015835 -1015911 -1015956 -1015923 -1015870 -1015849 -1015849 -1015853 
-1015877 -1015889 -1015803 -1015714 -1015810 -1015988 -1015993 -1015850 
-1015815 -1015872 -1015784 -1015656 -1015744 -1015920 -1015969 -1015926 
-1015881 -1015845 -1015839 -1015866 -1015865 -1015808 -1015762 -1015779 
-1015819 -1015834 -1015889 -1016041 -1016113 -1015951 -1015731 -1015665 
-1015650 -1015590 -1015645 -1015862 -1015987 -1015908 -1015829 -1015841 
-1015826 -1015772 -1015781 -1015829 -1015818 -1015783 -1015780 -1015802 
-1015839 -1015891 -1015929 -1015920 -1015910 -1015939 -1015903 -1015761 
-1015683 -1015750 -1015834 -1015821 -1015765 -1015764 -1015825 -1015892 
-1015937 -1015968 -1015981 -1015972 -1015966 -1015958 -1015895 -1015768 
-1015657 -1015638 -1015679 -1015719 -1015767 -1015808 -1015842 -1015885 
-1015896 -1015892 -1015965 -1016065 -1016053 -1015914 -1015776 -1015721 
-1015695 -1015700 -1015804 -1015929 -1015943 -1015879 -1015802 -1015717 
-1015664 -1015715 -1015830 -1015868 -1015837 -1015873 -1015943 -1015904 
-1015787 -1015731 -1015756 -1015769 -1015776 -1015838 -1015922 -1015945 
-1015929 -1015924 -1015908 -1015888 -1015914 -1015947 -1015919 -1015831 
-1015734 -1015675 -1015667 -1015715 -1015810 -1015869 -1015858 -1015843 
-1015850 -1015821 -1015758 -1015761 -1015857 -1015929 -1015879 -1015787 
-1015776 -1015831 -1015862 -1015866 -1015916 -1016000 -1015985 -1015853 
-1015735 -1015718 -1015794 -1015883 -1015900 -1015870 -1015849 -1015870 
-1015974 -1016050 -1015945 -1015816 -1015870 -1015939 -1015835 -1015733 
