Origin Time       2024/06/23 22:54:00
Lat.              35.645
Long.             140.060
Depth. (km)       72
Mag.              4.1
Station Code      YMNH16
Station Lat.      35.7421
Station Long.     138.5653
Station Height(m) 595
Record Time       2024/06/23 22:55:02
Sampling Freq(Hz) 100Hz
Duration Time(s)  120
Dir.              5
Scale Factor      7845(gal)/8223790
Max. Acc. (gal)   1.264
Last Correction   2024/06/23 22:55:03
Memo.             
[...]
   -2442    -2320    -2285    -2340    -2458    -2454    -2307    -2401 
   -2702    -2650    -2362    -2312    -2394    -2442    -2486    -2492 
   -2344    -2166    -2336    -2646    -2601    -2525    -2671    -2617 
   -2330    -2193    -2247    -2365    -2531    -2647    -2563    -2338 
   -2292    -2511    -2575    -2408    -2442    -2562    -2423    -2301 
   -2363    -2343    -2322    -2466    -2500    -2417    -2519    -2582 
   -2413    -2290    -2385    -2594    -2575    -2285    -2200    -2413 
   -2556    -2543    -2558    -2585    -2430    -2262    -2328    -2415 
   -2458    -2550    -2465    -2292    -2403    -2631    -2628    -2435 
   -2307    -2416    -2560    -2467    -2308    -2288    -2382    -2489 
   -2505    -2481    -2501    -2459    -2331    -2340    -2461    -2448 
   -2384    -2408    -2450    -2494    -2550    -2536    -2494    -2462 
   -2328    -2170    -2212    -2450    -2648    -2659    -2554    -2477 
   -2482    -2451    -2307    -2182    -2250    -2446    -2520    -2473 
   -2502    -2515    -2448    -2482    -2539    -2448    -2338    -2330 
   -2405    -2520    -2546    -2454    -2461    -2623    -2610    -2332 
   -2207    -2317    -2303    -2191    -2284    -2619    -2883    -2741 
   -2396    -2312    -2459    -2475    -2336    -2311    -2367    -2299 
   -2301    -2583    -2766    -2574    -2327    -2316    -2405    -2354 
   -2214    -2247    -2454    -2592    -2671    -2760    -2664    -2416 
   -2338    -2400    -2315    -2232    -2398    -2490    -2357    -2374 
   -2539    -2605    -2636    -2497    -2162    -2153    -2432    -2431 
   -2324    -2452    -2654    -2712    -2563    -2442    -2415    -2339 
   -2334    -2380    -2362    -2390    -2502    -2538    -2463    -2471 
   -2532    -2498    -2413    -2423    -2502    -2358    -2174    -2369 
   -2571    -2504    -2489    -2539    -2438    -2331    -2431    -2563 
   -2482    -2381    -2374    -2226    -2223    -2628    -2701    -2334 
   -2363    -2623    -2574    -2474    -2388    -2265    -2344    -2554 
   -2598    -2421    -2309    -2431    -2462    -2354    -2440    -2570 
   -2465    -2328    -2362    -2465    -2462    -2362    -2407    -2529 
   -2440    -2358    -2536    -2739    -2675    -2332    -2099    -2222 
   -2404    -2430    -2397    -2533    -2768    -2635    -2189    -2091 
   -2427    -2687    -2650    -2458    -2259    -2242    -2405    -2469 
   -2566    -2759    -2556    -2155    -2251    -2512    -2365    -2263 
   -2523    -2679    -2594    -2523    -2451    -2178    -2042    -2446 
   -2743    -2490    -2401    -2650    -2597    -2270    -2166    -2301 
   -2457    -2631    -2718    -2466    -2130    -2187    -2506    -2740 
   -2766    -2560    -2265    -2108    -2236    -2442    -2389    -2340 
   -2531    -2586    -2475    -2474    -2466    -2455    -2582    -2604 
   -2374    -2231    -2430    -2644    -2504    -2311    -2398    -2485 
   -2393    -2359    -2326    -2201    -2327    -2575    -2496    -2458 
   -2735    -2686    -2239    -2145    -2419    -2551    -2505    -2509 
   -2520    -2376    -2343    -2606    -2635    -2299    -2176    -2349 
   -2424    -2393    -2490    -2662    -2614    -2415    -2377    -2436 
   -2455    -2442    -2367    -2323    -2354    -2409    -2513    -2569 
   -2505    -2400    -2371    -2520    -2556    -2245    -2037    -2273 
   -2643    -2808    -2713    -2470    -2263    -2239    -2447    -2597 
   -2385    -2254    -2497    -2559    -2373    -2371    -2492    -2590 
   -2659    -2532    -2224    -2141    -2386    -2539    -2471    -2461 
   -2517    -2466    -2347    -2367    -2494    -2493    -2400    -2404 
   -2448    -2443    -2505    -2624    -2562    -2350    -2245    -2340 
   -2512    -2496    -2311    -2328    -2501    -2486    -2420    -2438 
   -2392    -2411    -2563    -2625    -2573    -2459    -2292    -2257 
   -2397    -2457    -2421    -2461    -2501    -2440    -2340    -2340 
   -2504    -2621    -2470    -2295    -2335    -2339    -2339    -2623 
   -2821    -2579    -2354    -2457    -2498    -2296    -2151    -2250 
   -2450    -2479    -2400    -2416    -2504    -2670    -2781    -2619 
   -2355    -2236    -2228    -2249    -2330    -2424    -2404    -2400 
   -2593    -2695    -2501    -2367    -2370    -2322    -2393    -2538 
   -2485    -2353    -2365    -2529    -2673    -2674    -2558    -2347 
   -2199    -2219    -2274    -2408    -2648    -2660    -2378    -2278 
   -2521    -2668    -2508    -2376    -2409    -2343    -2262    -2404 
   -2554    -2563    -2506    -2378    -2251    -2259    -2425    -2577 
   -2500    -2377    -2496    -2594    -2370    -2199    -2411    -2652 
   -2619    -2489    -2450    -2424    -2292    -2200    -2362    -2620 
   -2674    -2523    -2366    -2315    -2393    -2502    -2481    -2392 
   -2390    -2459    -2461    -2392    -2373    -2377    -2500    -2686 
   -2506    -2205    -2327    -2527    -2423    -2292    -2397    -2598 
   -2635    -2528    -2440    -2319    -2234    -2385    -2500    -2371 
   -2327    -2447    -2556    -2639    -2610    -2452    -2358    -2381 
   -2367    -2309    -2344    -2488    -2596    -2571    -2496    -2370 
   -2218    -2308    -2590    -2616    -2380    -2257    -2335    -2508 
   -2712    -2729    -2439    -2196    -2288    -2478    -2489    -2380 
   -2335    -2419    -2478    -2448    -2538    -2623    -2393    -2169 
   -2259    -2436    -2556    -2620    -2596    -2496    -2369    -2358 
   -2475    -2458    -2277    -2249    -2434    -2546    -2519    -2498 
   -2444    -2353    -2358    -2478    -2539    -2450    -2396    -2403 
   -2301    -2289    -2509    -2655    -2596    -2471    -2374    -2385 
   -2409    -2297    -2242    -2371    -2531    -2679    -2729    -2532 
   -2346    -2409    -2525    -2466    -2290    -2214    -2273    -2350 
   -2469    -2659    -2720    -2558    -2450    -2440    -2319    -2257 
   -2381    -2432    -2351    -2378    -2544    -2656    -2644    -2508 
   -2382    -2446    -2446    -2199    -2030    -2160    -2455    -2668 
   -2668    -2614    -2617    -2506    -2354    -2408    -2409    -2143 
   -2108    -2467    -2677    -2594    -2512    -2490    -2504    -2525 
   -2466    -2374    -2351    -2312    -2196    -2184    -2392    -2708 
   -2841    -2644    -2431    -2434    -2442    -2315    -2200    -2251 
   -2376    -2509    -2716    -2775    -2498    -2218    -2292    -2538 
   -2529    -2336    -2313    -2330    -2223    -2367    -2702    -2695 
   -2459    -2397    -2496    -2481    -2295    -2339    -2586    -2532 
   -2363    -2447    -2448    -2226    -2234    -2494    -2536    -2362 
   -2342    -2517    -2659    -2617    -2434    -2308    -2430    -2582 
   -2508    -2390    -2392    -2430    -2417    -2377    -2394    -2489 
   -2567    -2461    -2272    -2330    -2523    -2531    -2430    -2389 
   -2404    -2447    -2478    -2511    -2556    -2513    -2396    -2339 
   -2344    -2335    -2305    -2385    -2531    -2511    -2434    -2467 
   -2474    -2444    -2455    -2493    -2550    -2544    -2457    -2349 
   -2262    -2295    -2378    -2446    -2593    -2597    -2428    -2444 
   -2457    -2308    -2323    -2413    -2424    -2504    -2567    -2544 
   -2527    -2490    -2407    -2296    -2293    -2412    -2394    -2312 
   -2446    -2627    -2609    -2485    -2469    -2479    -2303    -2231 
   -2474    -2602    -2451    -2351    -2392    -2403    -2436    -2582 
   -2640    -2512    -2369    -2322    -2331    -2376    -2471    -2552 
   -2509    -2405    -2330    -2249    -2250    -2475    -2629    -2493 
   -2420    -2498    -2461    -2438    -2551    -2474    -2250    -2371 
   -2681    -2566    -2242    -2303    -2520    -2516    -2448    -2421 
   -2424    -2455    -2475    -2484    -2389    -2266    -2384    -2619 
   -2596    -2394    -2407    -2562    -2488    -2290    -2344    -2538 
   -2488    -2319    -2350    -2421    -2386    -2421    -2525    -2525 
   -2469    -2501    -2544    -2371    -2123    -2296    -2690    -2656 
   -2374    -2311    -2465    -2616    -2571    -2394    -2273    -2257 
   -2330    -2424    -2447    -2504    -2687    -2744    -2548    -2315 
   -2199    -2230    -2339    -2462    -2533    -2484    -2430    -2484 
   -2582    -2601    -2481    -2386    -2438    -2389    -2084    -1988 
   -2388    -2740    -2762    -2747    -2605    -2265    -2170    -2330 
   -2371    -2427    -2562    -2486    -2346    -2400    -2492    -2493 
   -2484    -2482    -2425    -2411    -2511    -2470    -2270    -2353 
   -2679    -2667    -2344    -2247    -2295    -2253    -2446    -2790 
   -2751    -2494    -2434    -2419    -2304    -2211    -2255    -2459 
   -2555    -2392    -2332    -2535    -2660    -2563    -2461    -2470 
   -2365    -2118    -2158    -2488    -2667    -2647    -2624    -2621 
   -2506    -2277    -2184    -2232    -2212    -2265    -2474    -2592 
   -2668    -2735    -2578    -2450    -2477    -2335    -2128    -2126 
   -2243    -2415    -2614    -2693    -2675    -2675    -2604    -2397 
   -2170    -2062    -2154    -2389    -2571    -2547    -2465    -2578 
   -2751    -2689    -2465    -2282    -2211    -2222    -2199    -2270 
   -2546    -2683    -2601    -2574    -2579    -2482    -2304    -2209 
   -2299    -2373    -2400    -2551    -2659    -2566    -2504    -2479 
   -2342    -2334    -2475    -2467    -2389    -2355    -2316    -2327 
   -2465    -2694    -2766    -2471    -2138    -2191    -2466    -2571 
   -2461    -2324    -2347    -2521    -2628    -2531    -2398    -2421 
   -2461    -2405    -2392    -2359    -2253    -2296    -2465    -2562 
   -2612    -2609    -2496    -2385    -2373    -2386    -2355    -2351 
   -2500    -2619    -2430    -2242    -2420    -2585    -2427    -2339 
   -2447    -2427    -2388    -2489    -2481    -2344    -2354    -2528 
   -2670    -2620    -2400    -2261    -2285    -2342    -2444    -2511 
   -2446    -2439    -2533    -2531    -2466    -2500    -2529    -2382 
   -2246    -2338    -2496    -2509    -2424    -2377    -2420    -2490 
   -2532    -2563    -2479    -2281    -2272    -2412    -2386    -2393 
   -2563    -2535    -2367    -2392    -2513    -2551    -2509    -2423 
   -2290    -2269    -2492    -2619    -2471    -2361    -2373    -2398 
   -2474    -2597    -2613    -2417    -2253    -2354    -2413    -2289 
   -2374    -2610    -2586    -2473    -2512    -2527    -2459    -2365 
   -2251    -2300    -2493    -2524    -2409    -2400    -2500    -2531 
   -2484    -2519    -2566    -2362    -2074    -2145    -2415    -2512 
   -2598    -2733    -2633    -2442    -2471    -2479    -2261    -2193 
   -2371    -2390    -2319    -2486    -2698    -2647    -2498    -2502 
   -2471    -2265    -2215    -2354    -2357    -2382    -2577    -2604 
   -2497    -2515    -2490    -2403    -2413    -2378    -2303    -2330 
   -2388    -2452    -2540    -2606    -2617    -2504    -2330    -2293 
   -2374    -2427    -2471    -2509    -2455    -2332    -2319    -2538 
   -2731    -2597    -2286    -2146    -2295    -2484    -2511    -2482 
   -2400    -2311    -2502    -2759    -2586    -2277    -2295    -2393 
   -2377    -2421    -2467    -2409    -2400    -2497    -2532    -2459 
   -2461    -2513    -2465    -2421    -2421    -2319    -2257    -2438 
   -2598    -2482    -2377    -2450    -2467    -2444    -2547    -2602 
   -2374    -2123    -2232    -2521    -2606    -2573    -2624    -2589 
   -2346    -2172    -2288    -2479    -2459    -2336    -2317    -2381 
   -2542    -2722    -2670    -2519    -2465    -2331    -2201    -2316 
   -2452    -2373    -2311    -2448    -2535    -2448    -2512    -2741 
   -2647    -2297    -2224    -2328    -2344    -2367    -2404    -2424 
   -2485    -2571    -2616    -2569    -2489    -2478    -2427    -2269 
   -2235    -2385    -2455    -2413    -2469    -2573    -2500    -2373 
   -2459    -2515    -2344    -2338    -2539    -2532    -2366    -2342 
   -2398    -2405    -2434    -2508    -2539    -2412    -2200    -2236 
   -2550    -2793    -2779    -2528    -2313    -2427    -2631    -2563 
   -2299    -2116    -2158    -2339    -2461    -2473    -2466    -2473 
   -2443    -2385    -2436    -2582    -2614    -2525    -2431    -2347 
   -2250    -2211    -2353    -2540    -2546    -2525    -2646    -2623 
   -2417    -2484    -2709    -2606    -2373    -2316    -2307    -2342 
   -2475    -2450    -2177    -2110    -2508    -2871    -2732    -2371 
   -2296    -2488    -2520    -2242    -2039    -2226    -2475    -2407 
   -2228    -2346    -2682    -2702    -2324    -2157    -2409    -2610 
   -2579    -2577    -2660    -2716    -2697    -2485    -2106    -1915 
   -2096    -2392    -2569    -2748    -2925    -2740    -2376    -2420 
   -2644    -2425    -1899    -1719    -2099    -2625    -2891    -2835 
   -2674    -2512    -2200    -2015    -2255    -2376    -2151    -2300 
   -2891    -3153    -2839    -2373    -2214    -2324    -2340    -2424 
   -2694    -2554    -1946    -1566    -1725    -2381    -3233    -3516 
   -2998    -2473    -2396    -2322    -1977    -1682    -1823    -2366 
   -2786    -2767    -2643    -2698    -2728    -2575    -2334    -2209 
   -2401    -2600    -2423    -2235    -2405    -2628    -2547    -2278 
   -2197    -2376    -2434    -2288    -2338    -2662    -2974    -3053 
   -2632    -1823    -1458    -1975    -2729    -3032    -2918    -2709 
   -2582    -2605    -2605    -2299    -1869    -1729    -1956    -2344 
   -2579    -2690    -2982    -3121    -2766    -2577    -2783    -2486 
   -1548    -1115    -1836    -2799    -2876    -2484    -2617    -2974 
   -2795    -2477    -2552    -2462    -1948    -1756    -2111    -2401 
   -2407    -2509    -2880    -3109    -2810    -2382    -2289    -2168 
   -1879    -1910    -2249    -2581    -2868    -2924    -2713    -2539 
   -2374    -2301    -2578    -2620    -2031    -1711    -2191    -2739 
   -2860    -2735    -2454    -2223    -2327    -2585    -2601    -2388 
   -2317    -2388    -2205    -1937    -2230    -2884    -2990    -2539 
   -2274    -2377    -2517    -2517    -2455    -2461    -2559    -2555 
   -2336    -2232    -2382    -2497    -2582    -2751    -2781    -2583 
   -2308    -2003    -1794    -1939    -2397    -2776    -2776    -2384 
   -2057    -2371    -2932    -2907    -2494    -2349    -2485    -2473 
   -2181    -2066    -2442    -2781    -2606    -2408    -2565    -2590 
   -2224    -1964    -2212    -2664    -2687    -2232    -2010    -2407 
   -2851    -2849    -2728    -2737    -2575    -2191    -1999    -2133 
   -2309    -2376    -2432    -2567    -2754    -2876    -2829    -2608 
   -2293    -2062    -2057    -2122    -2137    -2331    -2646    -2683 
   -2571    -2682    -2766    -2519    -2207    -2062    -2046    -2088 
   -2085    -2133    -2403    -2810    -3126    -3092    -2654    -2246 
   -2257    -2397    -2243    -2031    -2153    -2465    -2655    -2706 
   -2805    -2959    -2825    -2353    -2052    -2143    -2286    -2250 
   -2127    -2077    -2226    -2505    -2683    -2758    -2879    -2856 
   -2509    -2185    -2112    -2095    -2157    -2431    -2686    -2725 
   -2681    -2666    -2660    -2525    -2245    -2104    -2119    -2119 
   -2273    -2556    -2713    -2781    -2825    -2717    -2413    -2118 
   -2049    -2162    -2280    -2313    -2390    -2693    -2914    -2574 
   -2084    -2162    -2550    -2658    -2527    -2450    -2438    -2349 
   -2320    -2459    -2455    -2367    -2569    -2741    -2517    -2231 
   -2120    -2131    -2339    -2641    -2729    -2575    -2434    -2462 
   -2535    -2520    -2498    -2490    -2353    -2185    -2243    -2458 
   -2582    -2614    -2663    -2619    -2404    -2254    -2351    -2509 
   -2448    -2223    -2151    -2342    -2570    -2683    -2637    -2407 
   -2250    -2385    -2484    -2290    -2150    -2334    -2578    -2628 
   -2563    -2496    -2455    -2467    -2504    -2516    -2454    -2344 
   -2344    -2477    -2578    -2644    -2647    -2400    -2137    -2246 
   -2413    -2289    -2269    -2542    -2637    -2431    -2322    -2417 
   -2501    -2512    -2484    -2415    -2396    -2443    -2386    -2276 
   -2340    -2523    -2547    -2355    -2285    -2475    -2532    -2385 
   -2479    -2782    -2795    -2492    -2266    -2211    -2255    -2388 
   -2439    -2424    -2575    -2731    -2679    -2546    -2346    -2154 
   -2216    -2394    -2465    -2528    -2589    -2548    -2440    -2323 
   -2259    -2308    -2436    -2527    -2508    -2450    -2448    -2494 
   -2492    -2482    -2521    -2470    -2359    -2300    -2195    -2119 
   -2277    -2552    -2686    -2679    -2617    -2481    -2369    -2392 
   -2415    -2312    -2241    -2323    -2427    -2485    -2551    -2623 
   -2594    -2458    -2361    -2307    -2284    -2474    -2745    -2686 
   -2380    -2286    -2467    -2596    -2532    -2389    -2276    -2253 
   -2335    -2421    -2430    -2447    -2536    -2593    -2512    -2322 
   -2220    -2386    -2565    -2394    -2253    -2569    -2860    -2695 
   -2419    -2282    -2204    -2255    -2454    -2590    -2540    -2389 
   -2339    -2461    -2566    -2535    -2401    -2208    -2120    -2295 
   -2579    -2728    -2689    -2570    -2458    -2366    -2305    -2319 
   -2386    -2430    -2371    -2270    -2371    -2613    -2617    -2404 
   -2338    -2504    -2647    -2567    -2365    -2277    -2316    -2361 
   -2447    -2532    -2485    -2430    -2455    -2446    -2405    -2376 
   -2322    -2355    -2513    -2614    -2674    -2751    -2682    -2457 
   -2257    -2192    -2201    -2201    -2269    -2458    -2605    -2585 
   -2516    -2463    -2354    -2266    -2378    -2594    -2609    -2386 
   -2184    -2166    -2376    -2666    -2763    -2689    -2567    -2322 
   -2079    -2119    -2393    -2625    -2633    -2506    -2505    -2567 
   -2481    -2446    -2596    -2575    -2290    -2143    -2263    -2424 
   -2502    -2536    -2554    -2559    -2517    -2385    -2246    -2249 
   -2393    -2515    -2524    -2539    -2620    -2623    -2431    -2218 
   -2223    -2336    -2394    -2463    -2538    -2523    -2516    -2604 
   -2639    -2525    -2403    -2343    -2232    -2052    -2041    -2317 
   -2629    -2714    -2612    -2478    -2371    -2331    -2408    -2462 
   -2326    -2226    -2295    -2340    -2502    -2882    -3030    -2782 
   -2479    -2292    -2184    -2147    -2176    -2293    -2461    -2502 
   -2385    -2357    -2511    -2597    -2552    -2590    -2671    -2546 
   -2268    -2157    -2243    -2272    -2258    -2396    -2579    -2637 
   -2709    -2783    -2592    -2274    -2204    -2358    -2497    -2489 
   -2336    -2236    -2385    -2619    -2648    -2558    -2567    -2579 
   -2425    -2238    -2239    -2363    -2376    -2297    -2374    -2623 
   -2790    -2718    -2462    -2207    -2161    -2269    -2308    -2284 
   -2311    -2330    -2335    -2486    -2737    -2840    -2739    -2571 
   -2435    -2336    -2222    -2091    -2130    -2394    -2633    -2690 
   -2663    -2617    -2462    -2268    -2266    -2427    -2558    -2605 
   -2544    -2390    -2262    -2228    -2313    -2455    -2521    -2539 
   -2548    -2469    -2336    -2284    -2358    -2513    -2631    -2573 
   -2411    -2363    -2396    -2376    -2366    -2439    -2538    -2509 
   -2338    -2296    -2454    -2582    -2570    -2511    -2552    -2690 
   -2641    -2339    -2173    -2268    -2344    -2303    -2219    -2203 
