Origin Time       2024/06/23 22:54:00
Lat.              35.645
Long.             140.060
Depth. (km)       72
Mag.              4.1
Station Code      YMNH16
Station Lat.      35.7421
Station Long.     138.5653
Station Height(m) 595
Record Time       2024/06/23 22:55:02
Sampling Freq(Hz) 100Hz
Duration Time(s)  120
Dir.              4
Scale Factor      7845(gal)/8223790
Max. Acc. (gal)   0.812
Last Correction   2024/06/23 22:55:03
Memo.             
[...]
     664      684      627      680      722      637      645      722 
     652      585      580      654      866      872      677      618 
     599      614      704      727      743      702      604      610 
     595      585      719      826      756      595      575      747 
     878      832      637      495      595      692      669      756 
     800      637      589      665      573      567      819      886 
     660      533      600      719      780      746      757      780 
     634      459      527      751      801      716      685      607 
     542      623      688      680      662      680      753      753 
     676      633      631      669      711      757      747      626 
     600      688      666      591      653      812      814      692 
     707      696      565      607      729      634      549      669 
     716      625      630      737      808      746      631      631 
     680      722      766      745      688      650      625      575 
     535      657      818      750      598      587      679      735 
     718      718      718      691      724      711      618      625 
     677      652      642      689      706      685      692      712 
     699      660      607      615      733      787      683      598 
     643      729      729      654      592      625      754      750 
     569      546      710      773      692      621      646      688 
     677      703      751      726      649      639      729      715 
     622      704      765      630      606      700      646      522 
     608      843      841      637      615      743      742      614 
     618      754      722      602      643      722      703      614 
     556      633      657      554      625      826      824      681 
     642      687      684      658      734      804      675      530 
     650      838      800      637      577      630      652      619 
     669      773      754      653      595      603      687      739 
     692      634      608      677      750      681      614      668 
     760      773      681      625      665      707      695      665 
     679      685      661      629      635      766      841      719 
     596      569      661      722      607      627      765      696 
     649      702      603      545      688      773      685      635 
     742      739      564      621      799      726      641      670 
     622      623      743      778      679      592      654      774 
     727      544      556      796      864      693      638      723 
     668      537      598      738      730      677      683      679 
     670      666      641      687      777      664      491      616 
     756      658      662      812      808      702      677      656 
     598      637      704      687      654      615      592      703 
     792      688      619      714      719      592      602      776 
     832      703      646      672      588      527      615      758 
     845      729      569      618      688      726      823      807 
     677      576      564      615      595      576      668      757 
     792      700      549      607      738      703      658      735 
     758      656      657      758      738      675      661      680 
     722      673      595      649      727      708      627      579 
     623      660      704      827      800      622      572      645 
     700      664      564      600      770      803      670      623 
     670      657      712      865      716      384      518      866 
     777      658      850      788      519      604      796      668 
     523      675      803      676      553      606      739      768 
     629      541      635      776      824      715      533      511 
     683      776      724      726      745      648      571      680 
     801      684      545      665      793      707      602      602 
     675      769      729      589      604      720      731      722 
     735      642      564      661      753      707      672      679 
     631      598      673      773      774      670      561      598 
     697      675      680      834      870      711      600      585 
     553      596      733      727      631      665      712      700 
     704      676      645      704      766      685      562      637 
     776      691      580      693      750      635      656      754 
     710      650      653      627      594      650      778      772 
     654      677      711      604      596      715      751      715 
     689      627      498      529      807      900      679      577 
     697      731      611      631      815      777      585      608 
     719      715      681      668      631      596      645      729 
     695      648      743      803      692      572      604      729 
     700      560      649      873      816      564      544      739 
     756      565      544      722      762      625      581      652 
     683      764      857      712      490      568      811      800 
     599      629      826      762      572      638      808      816 
     673      507      507      607      648      706      742      684 
     633      643      751      811      684      600      662      692 
     680      718      760      712      603      576      669      714 
     652      679      770      681      550      637      781      791 
     731      684      687      710      648      558      569      616 
     637      707      746      642      595      718      768      681 
     666      745      764      730      711      656      558      584 
     774      835      650      530      618      699      660      618 
     692      788      761      661      616      606      594      695 
     796      661      540      673      785      672      562      677 
     803      720      633      683      757      756      687      656 
     626      565      630      749      718      616      646      764 
     723      646      781      815      588      526      696      722 
     610      637      754      760      672      606      610      653 
     679      689      692      657      664      730      714      658 
     737      824      711      571      660      734      583      503 
     621      727      747      742      745      710      633      618 
     658      691      681      627      594      575      598      756 
     874      778      665      700      733      669      650      664 
     607      648      795      757      587      576      681      760 
     781      691      615      649      600      544      688      832 
     805      711      642      611      602      656      750      710 
     560      553      712      774      638      575      707      777 
     753      820      815      571      406      616      835      665 
     518      739      832      643      639      773      707      622 
     711      712      514      454      669      837      781      687 
     699      738      683      662      780      750      562      538 
     616      652      715      745      696      696      746      693 
     626      687      708      650      664      684      680      688 
     626      600      658      612      603      761      797      681 
     660      683      621      592      729      789      614      552 
     675      685      648      661      711      830      849      762 
     718      602      496      604      761      793      708      603 
     610      630      611      714      837      766      603      553 
     637      695      696      723      723      683      630      603 
     681      729      638      623      734      737      600      619 
     764      680      576      735      754      569      656      911 
     831      523      461      604      684      742      772      703 
     680      652      527      571      777      835      780      712 
     607      581      660      772      796      629      558      722 
     754      573      515      676      768      670      672      769 
     724      668      719      741      673      650      719      693 
     595      634      731      696      567      556      693      724 
     700      756      666      519      561      683      760      760 
     745      772      696      581      643      734      677      642 
     689      612      511      650      857      866      730      598 
     598      699      692      599      642      712      657      649 
     720      715      677      746      835      696      471      552 
     768      743      650      706      742      650      565      614 
     735      760      708      696      639      534      616      838 
     838      661      650      720      629      541      619      670 
     606      594      699      789      796      765      746      731 
     638      518      561      710      719      616      650      800 
     773      612      692      864      679      414      514      710 
     711      666      689      737      778      797      753      653 
     600      623      604      550      612      758      803      692 
     608      687      738      635      567      630      699      712 
     692      679      724      778      730      614      579      676 
     749      672      610      684      722      670      687      735 
     724      680      637      661      711      688      642      641 
     711      737      662      707      730      560      542      697 
     723      675      697      724      638      538      594      735 
     792      723      658      679      692      675      669      660 
     618      589      664      746      722      707      708      654 
     658      747      750      654      635      679      650      648 
     742      743      641      642      688      642      583      622 
     737      787      743      684      598      540      626      776 
     820      710      594      607      676      715      715      676 
     638      646      675      666      688      761      724      608 
     599      675      727      731      722      676      584      575 
     661      733      733      680      696      738      680      664 
     715      681      612      599      675      758      703      608 
     619      675      695      645      615      710      769      714 
     679      665      661      677      665      688      718      648 
     618      677      695      693      720      760      741      664 
     675      715      654      604      653      722      637      496 
     603      799      758      622      634      727      733      691 
     714      739      693      602      571      634      656      650 
     719      780      746      679      680      699      635      621 
     724      743      630      588      675      742      683      603 
     670      769      711      658      714      693      619      635 
     681      685      697      697      604      558      707      807 
     704      634      673      695      704      692      634      676 
     787      711      552      564      649      672      673      687 
     716      727      699      693      735      726      604      546 
     616      646      700      834      772      542      545      796 
     880      723      652      670      629      653      731      700 
     631      634      664      670      650      607      615      700 
     734      719      738      675      595      699      784      679 
     591      561      553      706      824      662      558      737 
     824      677      631      750      723      561      596      749 
     712      645      742      789      668      549      580      688 
     676      630      730      814      730      637      664      714 
     679      637      669      656      584      616      704      715 
     681      679      727      747      693      668      666      615 
     631      718      699      629      711      828      760      660 
     680      688      642      627      675      741      716      600 
     573      679      742      735      726      635      483      430 
     544      753      876      835      783      787      733      646 
     646      621      515      531      676      758      778      869 
     970      874      627      494      475      413      324      353 
     535      657      641      704      859      922      881      745 
     507      423      691     1005     1016      904      904      815 
     522      324      406      553      587      611      737      903 
    1015     1097     1035      631      216      205      400      495 
     579      872     1134      861      301      175      515      884 
    1071     1020      828      754      800      745      572      490 
     635      777      616      317      222      434      799      994 
     908      777      772      811      838      828      642      325 
     199      387      615      610      549      730      993     1062 
     939      776      679      537      276      232      643     1120 
    1181      896      704      812      945      785      460      351 
     445      380      360      796     1190     1026      773      832 
     845      540      257      318      369      187      406     1154 
    1529     1220      776      488      322      302      434      587 
     641      595      506      540      849     1210     1227      884 
     476      209      198      379      480      602      977     1200 
     990      831     1013     1094      708      271      183      220 
     210      275      560     1000     1210     1119     1069      994 
     626      257      307      599      641      415      375      635 
     940     1221     1355     1078      638      468      409      209 
     130      473     1020     1227     1009      901      989      783 
     386      298      368      251      117      270      746     1251 
    1328     1021      831      761      430       13       95      625 
     873      743      818     1115     1215     1088      904      603 
     172      -60       76      345      615     1039     1491     1474 
     993      672      697      660      363      145      264      386 
     315      403      754     1108     1266     1109      766      608 
     697      681      484      400      472      549      726     1055 
    1190      970      693      454      201      171      481      783 
     746      643      854     1138     1139      897      611      494 
     473      333      274      496      718      693      594      660 
     828      857      764      805      920      726      361      357 
     637      872     1078     1092      756      464      480      486 
     368      438      625      598      510      627      831      957 
     965      877      788      672      506      480      591      618 
     541      541      789     1128     1121      726      398      442 
     702      841      741      562      533      696      822      751 
     688      745      653      379      334      588      807      885 
     830      634      542      707      911      926      804      693 
     558      409      407      568      772      869      756      585 
     522      561      745      940      822      530      523      708 
     741      676      606      537      616      797      753      507 
     527      787      824      791      949     1020      834      526 
     333      418      626      760      785      726      716      800 
     832      743      623      594      653      658      591      530 
     477      438      465      606      792      855      784      714 
     735      832      859      730      618      668      704      646 
     664      685      568      490      554      680      781      760 
     627      540      665      918      947      739      580      469 
     415      542      692      803      967      940      614      449 
     677      892      843      730      622      526      588      675 
     589      553      697      789      750      737      738      683 
     654      611      481      476      684      843      816      739 
     695      638      572      607      734      820      830      723 
     552      538      587      534      623      861      849      622 
     560      658      706      692      645      596      645      747 
     750      666      658      742      772      729      629      521 
     583      737      742      697      753      793      723      652 
     714      805      724      534      450      550      704      727 
     688      770      854      770      677      662      562      467 
     583      757      742      533      383      517      753      826 
     820      854      820      693      634      641      643      691 
     693      599      648      820      796      658      681      729 
     616      518      614      792      835      712      579      535 
     540      554      627      734      789      823      820      684 
     514      519      670      712      672      791      878      722 
     567      535      565      697      804      766      712      707 
     689      684      720      730      693      696      718      679 
     658      677      587      456      510      662      722      777 
     850      789      675      635      616      614      665      706 
     673      604      589      650      714      707      654      675 
     769      762      610      472      504      642      710      723 
     756      784      770      741      747      707      602      608 
     653      598      634      780      822      765      702      654 
     633      599      573      611      703      787      768      668 
     604      626      741      873      872      746      643      600 
     562      540      568      637      735      778      711      660 
     687      681      646      653      611      525      560      634 
     602      634      868     1035      859      537      436      537 
     606      649      735      785      757      714      715      716 
     708      695      602      476      444      529      710      876 
     922      924      943      886      697      519      522      641 
     675      557      469      596      807      855      785      762 
     735      621      577      639      614      564      654      773 
     778      691      621      676      777      702      469      356 
     437      553      672      778      741      670      776      882 
     789      685      718      742      697      648      608      643 
     743      776      711      623      575      584      641      739 
     841      869      810      737      672      564      515      672 
     842      780      614      552      544      545      621      715 
     745      753      734      685      710      769      737      654 
     591      549      538      527      506      529      572      619 
     757      911      916      803      662      562      576      653 
     707      746      768      739      707      722      742      753 
