Origin Time       2024/04/21 06:19:00
Lat.              34.232
Long.             135.137
Depth. (km)       7
Mag.              2.9
Station Code      OSK010
Station Lat.      34.3744
Station Long.     135.2553
Station Height(m) 3
Record Time       2024/04/21 06:19:29
Sampling Freq(Hz) 100Hz
Duration Time(s)  60
Dir.              U-D
Scale Factor      7845(gal)/8223790
Max. Acc. (gal)   3.079
Last Correction   2024/04/21 06:19:29
Memo.             
   11809    11789    11796    11803    11816    11848    11850    11813 
   11797    11821    11840    11834    11827    11823    11808    11786 
   11788    11823    11839    11820    11815    11819    11816    11836 
   11844    11828    11827    11819    11788    11793    11831    11836 
   11803    11784    11816    11859    11853    11815    11800    11816 
   11823    11813    11811    11816    11832    11836    11800    11788 
   11830    11843    11817    11807    11809    11823    11839    11831 
   11809    11801    11807    11832    11859    11843    11800    11772 
   11765    11788    11835    11870    11874    11861    11840    11823 
   11804    11778    11774    11808    11836    11828    11819    11832 
   11843    11815    11767    11757    11777    11797    11839    11886 
   11897    11884    11846    11804    11799    11803    11785    11780 
   11812    11840    11848    11847    11832    11804    11784    11792 
   11808    11799    11786    11804    11830    11866    11897    11871 
   11828    11831    11846    11832    11796    11754    11754    11800 
   11813    11781    11774    11812    11842    11859    11867    11843 
   11815    11816    11847    11880    11862    11824    11831    11823 
   11773    11727    11689    11708    11823    11916    11898    11861 
   11884    11905    11867    11800    11736    11715    11747    11796 
   11842    11877    11896    11877    11824    11788    11766    11732 
   11734    11788    11840    11861    11877    11909    11936    11917 
   11840    11747    11703    11703    11711    11734    11780    11840 
   11920    11985    11970    11881    11801    11763    11732    11707 
   11722    11780    11844    11875    11861    11848    11875    11882 
   11828    11778    11777    11801    11828    11834    11823    11815 
   11800    11767    11743    11762    11821    11882    11917    11920 
   11882    11820    11777    11753    11738    11755    11808    11838 
   11828    11840    11884    11904    11862    11778    11736    11773 
   11805    11803    11820    11858    11878    11881    11858    11812 
   11785    11774    11753    11747    11772    11805    11866    11935 
   11935    11865    11793    11757    11758    11782    11799    11807 
   11831    11844    11840    11857    11866    11839    11800    11772 
   11778    11807    11812    11813    11832    11831    11824    11832 
   11834    11843    11858    11840    11805    11780    11769    11800 
   11834    11812    11807    11850    11866    11848    11832    11809 
   11797    11796    11788    11799    11828    11835    11824    11804 
   11789    11821    11858    11844    11830    11842    11840    11815 
   11792    11797    11817    11820    11817    11819    11809    11804 
   11804    11801    11813    11826    11834    11855    11867    11847 
   11815    11792    11778    11773    11778    11797    11832    11861 
   11857    11844    11839    11823    11797    11781    11790    11804 
   11817    11840    11848    11836    11816    11793    11811    11855 
   11847    11811    11807    11816    11823    11828    11815    11782 
   11758    11781    11836    11857    11844    11843    11851    11858 
   11854    11813    11762    11740    11754    11788    11826    11851 
   11859    11862    11870    11858    11819    11785    11776    11785 
   11794    11796    11820    11858    11867    11843    11808    11799 
   11824    11840    11830    11817    11805    11792    11803    11826 
   11831    11816    11808    11815    11826    11850    11875    11848 
   11799    11803    11826    11816    11785    11774    11789    11804 
   11834    11871    11865    11835    11824    11816    11807    11809 
   11811    11805    11809    11819    11826    11846    11855    11823 
   11786    11786    11816    11839    11823    11784    11769    11794 
   11835    11857    11850    11828    11832    11863    11878    11851 
   11790    11743    11761    11799    11800    11782    11789    11824 
   11836    11819    11823    11848    11869    11884    11875    11839 
   11809    11793    11765    11754    11789    11792    11749    11759 
   11840    11900    11888    11850    11830    11824    11815    11805 
   11813    11823    11812    11809    11843    11855    11808    11769 
   11769    11778    11804    11830    11834    11842    11865    11859 
   11836    11838    11836    11794    11754    11761    11803    11844 
   11861    11838    11805    11808    11832    11840    11834    11823 
   11809    11812    11830    11827    11805    11803    11826    11844 
   11843    11815    11782    11797    11826    11809    11793    11816 
   11840    11848    11854    11854    11850    11842    11820    11804 
   11801    11784    11766    11780    11805    11815    11834    11873 
   11889    11861    11827    11796    11772    11776    11799    11816 
   11836    11844    11819    11799    11819    11834    11823    11823 
   11828    11812    11789    11805    11844    11851    11827    11811 
   11815    11817    11809    11807    11808    11805    11816    11831 
   11828    11812    11807    11811    11817    11838    11846    11813 
   11797    11820    11830    11811    11786    11789    11831    11866 
   11865    11831    11780    11772    11815    11836    11812    11793 
   11797    11813    11838    11858    11862    11853    11842    11843 
   11824    11762    11730    11770    11821    11834    11827    11828 
   11830    11831    11844    11844    11821    11812    11796    11773 
   11786    11821    11836    11843    11854    11847    11827    11820 
   11824    11816    11812    11803    11767    11758    11809    11871 
   11874    11830    11811    11830    11839    11820    11805    11801 
   11785    11784    11816    11839    11828    11826    11848    11863 
   11847    11797    11761    11781    11824    11838    11830    11827 
   11838    11846    11828    11799    11788    11799    11807    11811 
   11827    11831    11815    11824    11846    11843    11840    11827 
   11792    11777    11799    11830    11835    11804    11811    11863 
   11859    11805    11781    11774    11788    11821    11824    11812 
   11821    11843    11873    11882    11842    11807    11799    11793 
   11803    11816    11816    11805    11793    11819    11869    11855 
   11800    11784    11807    11832    11827    11792    11777    11804 
   11839    11843    11812    11812    11862    11900    11893    11811 
   11703    11732    11870    11878    11745    11728    11859    11874 
   11770    11782    11888    11907    11846    11803    11796    11811 
   11821    11793    11776    11813    11880    11915    11835    11689 
   11689    11853    11942    11843    11742    11788    11853    11828 
   11804    11831    11857    11846    11827    11830    11826    11803 
   11790    11799    11807    11804    11807    11813    11815    11821 
   11820    11824    11863    11870    11817    11789    11819    11834 
   11804    11788    11805    11812    11823    11854    11839    11789 
   11797    11839    11847    11838    11823    11800    11793    11815 
   11831    11815    11796    11804    11817    11827    11831    11809 
   11797    11830    11847    11830    11832    11844    11816    11782 
   11804    11836    11824    11808    11812    11819    11827    11831 
   11834    11827    11800    11789    11813    11828    11823    11816 
   11813    11823    11836    11835    11820    11816    11816    11816 
   11828    11831    11808    11796    11812    11821    11816    11821 
   11830    11823    11816    11819    11820    11826    11839    11835 
   11813    11803    11808    11820    11827    11807    11793    11819 
   11838    11827    11817    11823    11821    11807    11803    11816 
   11821    11816    11823    11832    11834    11827    11817    11804 
   11796    11807    11823    11823    11808    11807    11832    11850 
   11831    11805    11808    11821    11816    11816    11830    11815 
   11785    11796    11836    11842    11819    11820    11842    11836 
   11807    11800    11815    11834    11834    11808    11796    11811 
   11819    11816    11815    11819    11823    11820    11824    11839 
   11840    11826    11813    11815    11821    11827    11823    11801 
   11782    11799    11832    11843    11830    11820    11826    11819 
   11805    11817    11840    11843    11840    11838    11816    11794 
   11805    11823    11811    11792    11790    11808    11839    11857 
   11838    11813    11811    11816    11828    11839    11827    11813 
   11820    11816    11809    11823    11823    11792    11778    11811 
   11842    11846    11840    11834    11830    11827    11813    11809 
   11824    11826    11815    11809    11801    11799    11813    11826 
   11827    11832    11836    11830    11820    11821    11817    11801 
   11799    11808    11817    11832    11835    11828    11821    11805 
   11797    11820    11850    11848    11828    11820    11815    11801 
   11800    11809    11812    11812    11819    11828    11835    11828 
   11815    11811    11816    11809    11800    11813    11834    11823 
   11815    11831    11835    11823    11824    11828    11823    11812 
   11799    11790    11799    11815    11828    11838    11843    11838 
   11824    11816    11804    11799    11808    11807    11794    11812 
   11842    11847    11835    11823    11821    11827    11820    11812 
   11819    11820    11809    11811    11832    11835    11816    11815 
   11817    11804    11805    11813    11796    11794    11820    11830 
   11824    11835    11835    11817    11831    11848    11821    11807 
   11820    11809    11805    11823    11830    11821    11819    11817 
   11808    11813    11838    11836    11815    11809    11803    11804 
   11828    11838    11832    11835    11823    11803    11812    11834 
   11835    11828    11827    11813    11796    11794    11804    11813 
   11826    11830    11823    11820    11823    11815    11812    11823 
   11834    11832    11824    11819    11816    11807    11789    11782 
   11812    11838    11828    11835    11842    11817    11816    11831 
   11827    11819    11812    11813    11819    11816    11813    11816 
   11828    11836    11819    11815    11835    11830    11813    11819 
   11815    11801    11809    11819    11823    11832    11834    11817 
   11801    11809    11824    11828    11827    11803    11784    11817 
   11847    11834    11824    11823    11812    11819    11839    11838 
   11820    11801    11792    11793    11807    11823    11827    11827 
   11831    11831    11830    11828    11815    11800    11813    11834 
   11846    11869    11847    11708    11568    11693    12025    12036 
   11601    11368    11686    12272    12908    12980    11419     9481 
   10808    14056    12874     9405    11308    14316    11925    10122 
   12050    12224    10831    11751    13549    12561    10265    11091 
   12681    11881    11651    11807    11564    12496    11859    10612 
   12306    12943    11572    11148    10936    12306    13516    11045 
   10241    12818    13093    11188    10597    11939    13092    11689 
   10386    12110    13278    11927    10917    11183    12087    12309 
   11322    11612    12652    11885    11203    11970    12376    11767 
   11313    11726    12035    11974    11628    11206    12337    12876 
   11192    11110    11985    11719    12145    12129    11477    11940 
   11878    11554    12063    11622    11241    12213    12370    11854 
   11924    11589    11298    11777    11901    12001    12442    11897 
   11078    11232    11959    12692    12316    11522    11581    11269 
   11217    12086    12093    12112    12498    11249    10793    12968 
   13285    10882    10192    11820    13001    12199    11159    11811 
   12071    11483    11788    11616    11183    12177    12752    11978 
   11588    11754    11751    11870    12063    11843    11338    11298 
   11965    12302    11938    11597    11519    11947    12517    12129 
   11254    11128    11878    12588    12109    11219    11389    11838 
   11863    11905    11815    11766    12063    12249    11974    11634 
   11858    11797    11030    11414    12528    12387    11854    11573 
   11377    11862    12086    11475    11380    12174    12752    12179 
   11071    10816    11742    12865    12421    11063    11604    12642 
   11616    11140    12402    12341    11103    11159    11880    12066 
   12091    11888    11445    11626    12414    12433    11387    11265 
   12324    12156    11172    11267    11997    12471    11857    11234 
   12054    12135    11404    11790    12016    11848    12028    11554 
   11202    12259    12912    11615    10659    11943    12908    11703 
   10939    11830    12052    11665    12093    11902    11383    11950 
   12195    12136    11907    10822    11176    12708    12505    11377 
   10852    11400    12835    13100    11900    10994    11384    12910 
   12923    10910    11022    13080    12262     9198     9209    12757 
   14690    12255     9398    10932    13784    12349     9849    12005 
   15047    13015     9931    10818    12159    11695    11426    11379 
   11892    12718    11279    10056    12653    14062    11732    11272 
   12186    10991    10862    12650    13190    11799    10103    10628 
   12646    13325    12158    10199    10939    13826    12729     9805 
   11043    13517    12930    10995    10882    11936    11955    11653 
   11925    11988    11408    11357    12538    12513    11510    11979 
   11599    10882    12587    12811    10837    10976    12415    12459 
   11187    10843    12378    13031    12033    11200    11086    11973 
   12563    11815    11623    12081    11870    11160    10721    11920 
   13298    12214    11148    11935    12303    11936    11209    10478 
   11811    13587    12537    10925    11246    11497    11110    11844 
   12734    12222    12029    12696    11843    10233    10759    12619 
   13027    11782    11333    11896    11364    11280    12766    12541 
   11064    11535    12183    11411    11535    12357    12029    11947 
   12449    11429    10260    11600    13244    12904    12062    11005 
   10395    12015    13103    11627    10767    11642    12148    11595 
   11164    11966    13167    12887    11141    10110    11279    13227 
   13157    11381    10831    11707    12371    12135    11209    11259 
   12347    12424    11681    11578    12079    11874    11168    11844 
   12519    11664    11723    12525    12015    11403    11308    11109 
   11264    11923    12673    12575    11333    10937    12168    12590 
   11389    10891    12012    12823    12286    11815    11794    11611 
   12112    12503    11178    10031    10840    12457    12927    11763 
   11418    12530    12112    10829    11705    12911    11997    10787 
   11071    12233    12545    11728    12020    12831    11893    11236 
   11961    11956    11519    11568    11416    11264    11723    12264 
   12075    11874    12239    11970    11422    11811    12177    11893 
   11524    11334    11587    12012    11904    11493    11592    12204 
   12387    11927    11742    11940    11880    11677    11761    12010 
   11927    11483    11392    11912    12102    11603    11576    12193 
   12382    11850    10874    10767    12298    13062    11740    10924 
   11931    12529    11785    11603    12094    11811    11438    11732 
   11983    11881    11577    11493    11988    12376    12105    11839 
   11804    11457    11318    11836    12025    11664    11620    12083 
   12436    11948    11275    11692    12324    11893    11226    11445 
   12175    12461    12218    11807    11605    11898    11800    10957 
   11083    12357    12744    11920    11264    11504    12116    12090 
   11854    11982    11715    11649    12256    12008    11487    11932 
   11907    11358    11700    12294    12108    11304    10953    11473 
   11801    12175    12857    12329    11396    11642    11920    11834 
   11844    11628    11632    11803    11693    11935    12125    11600 
   11253    11556    12021    12110    11803    11758    11905    11878 
   12124    12263    11627    11214    11581    11789    11835    12121 
   11921    11265    11161    11649    12213    12461    12081    11620 
   11804    12256    12177    11668    11834    12502    11867    10670 
   11254    12363    12023    11600    11898    11811    11634    11894 
   11835    11604    11828    11979    11641    11427    11943    12414 
   11863    11500    12201    12334    11635    11543    11742    11719 
   12028    12229    11718    11323    11680    11997    11863    12025 
   12401    12056    11298    11254    11838    11958    11637    11732 
   11885    11624    11614    11851    11889    11971    11993    11797 
   11747    11793    11780    11935    12105    11886    11669    11909 
   12052    11875    11755    11587    11566    11769    11653    11562 
   11857    12064    11969    11659    11696    12160    12141    11693 
   11570    11831    12004    11765    11758    12136    11901    11461 
   11784    12091    11820    11591    11627    11722    11711    11623 
   11758    12071    12136    11851    11685    11915    11986    11823 
   11923    11940    11685    11601    11680    11881    12087    11881 
   11550    11669    11969    11912    11755    11916    11978    11747 
   11653    11604    11546    11820    12108    11919    11659    11836 
   12017    11857    11886    12051    11865    11773    11904    11765 
   11624    11789    11842    11658    11611    11811    11998    11813 
   11468    11734    12201    12028    11862    11997    11871    11830 
   11988    11786    11573    11718    11780    11759    11871    11819 
   11618    11631    11815    11882    11776    11773    11963    12006 
   11902    11935    11919    11730    11597    11560    11678    11919 
   11892    11731    11781    11828    11894    12054    12039    11938 
   11803    11551    11546    11819    11961    11992    12028    11908 
   11708    11682    11831    11929    11770    11535    11610    11863 
   11902    11772    11828    12028    11938    11751    11870    11931 
   11904    12105    12017    11564    11543    11790    11708    11624 
   11824    11963    11866    11767    11789    11866    11961    11994 
   11978    11873    11603    11570    11950    12083    11701    11458 
   11686    11913    11873    11758    11711    11769    11819    11796 
   11865    11951    11919    11962    12047    11909    11688    11628 
   11701    11800    11766    11638    11719    11959    11974    11773 
   11661    11730    11877    11936    11871    11796    11723    11645 
   11745    11977    11902    11662    11830    11992    11735    11688 
   11890    11843    11823    11952    11862    11730    11840    11921 
   11838    11830    11888    11869    11827    11853    12005    12091 
   11831    11560    11643    11858    11962    11869    11719    11826 
   11982    11843    11670    11757    11886    11804    11678    11758 
   11857    11754    11684    11761    11728    11596    11668    11928 
   12010    11812    11642    11709    11974    12112    11781    11445 
   11766    12197    12050    11757    11738    11893    12058    11947 
   11727    11870    12050    11792    11466    11569    11875    11873 
