Origin Time       2024/04/21 06:19:00
Lat.              34.232
Long.             135.137
Depth. (km)       7
Mag.              2.9
Station Code      WKY001
Station Lat.      34.2293
Station Long.     135.1694
Station Height(m) 11
Record Time       2024/04/21 06:19:23
Sampling Freq(Hz) 100Hz
Duration Time(s)  60
Dir.              U-D
Scale Factor      7845(gal)/8223790
Max. Acc. (gal)   66.400
Last Correction   2024/04/21 06:19:22
Memo.             
[...]
   29322    29324    29323    29319    29315    29317    29324    29328 
   29326    29322    29313    29312    29317    29319    29313    29317 
   29322    29322    29327    29326    29316    29320    29331    29330 
   29324    29323    29320    29323    29327    29319    29312    29326 
   29332    29326    29323    29320    29319    29326    29330    29327 
   29320    29311    29311    29320    29327    29327    29323    29317 
   29319    29330    29338    29331    29317    29315    29315    29311 
   29317    29322    29316    29324    29334    29320    29311    29320 
   29320    29311    29312    29322    29326    29316    29313    29324 
   29332    29331    29327    29323    29323    29320    29322    29330 
   29332    29323    29315    29317    29331    29338    29328    29313 
   29308    29311    29316    29322    29326    29331    29331    29320 
   29308    29312    29320    29319    29319    29324    29317    29317 
   29330    29323    29313    29317    29313    29311    29320    29327 
   29326    29320    29322    29330    29332    29332    29331    29323 
   29322    29332    29339    29332    29322    29320    29326    29326 
   29324    29323    29317    29312    29316    29319    29312    29305 
   29311    29316    29312    29316    29323    29317    29315    29324 
   29328    29322    29315    29312    29311    29316    29332    29347 
   29342    29328    29324    29324    29326    29327    29323    29319 
   29326    29331    29322    29313    29316    29319    29319    29322 
   29326    29324    29324    29319    29316    29323    29320    29308 
   29309    29320    29319    29315    29317    29319    29316    29322 
   29322    29315    29319    29326    29328    29327    29324    29322 
   29322    29324    29327    29326    29323    29317    29309    29312 
   29326    29330    29317    29309    29316    29317    29316    29324 
   29331    29330    29324    29324    29327    29323    29320    29324 
   29319    29315    29320    29326    29324    29322    29319    29320 
   29327    29322    29313    29317    29317    29315    29315    29312 
   29308    29317    29326    29320    29316    29319    29322    29327 
   29327    29322    29323    29324    29316    29317    29332    29340 
   29339    29336    29330    29324    29326    29323    29313    29311 
   29313    29315    29319    29322    29315    29309    29311    29311 
   29317    29326    29322    29316    29317    29317    29322    29328 
   29330    29328    29326    29317    29311    29309    29311    29313 
   29320    29326    29324    29320    29322    29320    29319    29322 
   29332    29336    29335    29334    29328    29320    29316    29312 
   29319    29328    29324    29319    29316    29311    29309    29315 
   29322    29319    29315    29316    29320    29320    29317    29319 
   29323    29322    29323    29332    29338    29332    29327    29323 
   29319    29315    29316    29316    29316    29317    29319    29323 
   29319    29307    29312    29323    29316    29311    29313    29316 
   29326    29332    29330    29324    29326    29331    29335    29331 
   29323    29317    29320    29320    29317    29315    29316    29323 
   29327    29323    29313    29305    29307    29315    29320    29315 
   29309    29311    29320    29327    29328    29326    29324    29334 
   29339    29336    29331    29328    29331    29328    29316    29313 
   29323    29326    29324    29323    29313    29303    29303    29312 
   29319    29317    29316    29319    29322    29316    29311    29312 
   29316    29322    29330    29328    29324    29327    29330    29328 
   29331    29336    29334    29326    29316    29315    29326    29332 
   29327    29323    29319    29312    29313    29317    29316    29317 
   29317    29313    29311    29305    29300    29309    29332    29336 
   29317    29308    29320    29332    29332    29322    29320    29330 
   29331    29326    29328    29336    29339    29335    29327    29322 
   29326    29326    29320    29315    29316    29313    29304    29297 
   29297    29299    29304    29317    29328    29324    29317    29320 
   29334    29342    29335    29326    29328    29335    29335    29327 
   29323    29323    29319    29313    29311    29309    29312    29323 
   29327    29315    29309    29313    29322    29330    29328    29320 
   29317    29317    29322    29326    29316    29315    29328    29328 
   29326    29328    29324    29316    29308    29312    29332    29340 
   29328    29327    29334    29328    29319    29312    29307    29313 
   29320    29316    29316    29313    29312    29323    29319    29305 
   29312    29317    29317    29322    29320    29323    29331    29323 
   29327    29349    29339    29317    29317    29309    29313    29342 
   29334    29308    29312    29323    29334    29340    29328    29316 
   29311    29301    29304    29320    29326    29322    29320    29312 
   29301    29308    29322    29323    29324    29331    29327    29311 
   29312    29331    29340    29336    29326    29328    29339    29331 
   29322    29327    29316    29301    29312    29317    29308    29324 
   29335    29308    29300    29313    29308    29312    29332    29338 
   29326    29311    29313    29338    29339    29317    29312    29320 
   29339    29344    29317    29297    29312    29328    29328    29323 
   29331    29334    29312    29301    29315    29315    29313    29332 
   29331    29317    29327    29328    29317    29319    29316    29313 
   29328    29335    29326    29323    29328    29338    29335    29322 
   29316    29323    29331    29320    29305    29319    29330    29319 
   29307    29301    29315    29327    29311    29303    29316    29330 
   29328    29323    29319    29319    29323    29328    29330    29335 
   29342    29334    29315    29305    29319    29332    29336    29339 
   29332    29323    29324    29323    29313    29312    29311    29312 
   29322    29317    29303    29303    29309    29316    29327    29327 
   29319    29320    29326    29324    29328    29331    29317    29319 
   29346    29354    29335    29316    29309    29317    29331    29330 
   29324    29320    29317    29320    29317    29313    29326    29335 
   29324    29307    29305    29324    29340    29324    29296    29299 
   29317    29316    29309    29323    29336    29332    29322    29316 
   29323    29320    29312    29319    29331    29331    29331    29331 
   29332    29342    29350    29342    29322    29308    29316    29328 
   29311    29293    29313    29338    29322    29297    29311    29334 
   29326    29316    29322    29315    29303    29305    29322    29334 
   29330    29323    29326    29324    29324    29332    29338    29328 
   29324    29339    29335    29312    29307    29313    29316    29324 
   29331    29335    29335    29323    29311    29309    29312    29317 
   29323    29323    29316    29312    29315    29317    29328    29339 
   29330    29317    29319    29316    29312    29328    29339    29328 
   29330    29339    29331    29323    29317    29307    29305    29317 
   29322    29320    29323    29327    29324    29313    29311    29327 
   29338    29335    29328    29316    29301    29305    29326    29331 
   29320    29317    29323    29327    29327    29324    29319    29322 
   29328    29324    29317    29322    29326    29322    29319    29319 
   29317    29315    29313    29313    29326    29336    29326    29311 
   29317    29331    29336    29330    29323    29324    29331    29331 
   29320    29312    29315    29323    29327    29317    29307    29308 
   29313    29319    29327    29332    29328    29317    29313    29327 
   29334    29319    29307    29312    29319    29323    29324    29326 
   29330    29336    29331    29323    29316    29312    29322    29336 
   29332    29327    29328    29317    29308    29319    29327    29320 
   29312    29311    29315    29323    29323    29317    29316    29320 
   29322    29317    29317    29332    29340    29330    29320    29319 
   29322    29326    29328    29327    29316    29303    29305    29315 
   29317    29320    29326    29327    29322    29316    29326    29340 
   29339    29326    29316    29309    29315    29328    29330    29327 
   29330    29324    29313    29313    29323    29326    29324    29322 
   29316    29313    29316    29317    29315    29308    29309    29324 
   29335    29331    29324    29322    29319    29316    29317    29334 
   29347    29335    29316    29319    29331    29332    29323    29320 
   29313    29305    29307    29315    29320    29322    29320    29319 
   29316    29315    29324    29330    29316    29307    29311    29322 
   29332    29331    29324    29327    29334    29334    29328    29323 
   29322    29316    29317    29328    29327    29315    29311    29317 
   29320    29316    29315    29317    29324    29330    29320    29311 
   29319    29322    29317    29320    29317    29311    29317    29335 
   29347    29346    29331    29319    29320    29326    29326    29324 
   29323    29323    29323    29317    29311    29317    29327    29320 
   29303    29301    29317    29320    29307    29305    29313    29313 
   29317    29332    29338    29336    29334    29330    29320    29320 
   29335    29344    29332    29317    29319    29327    29330    29324 
   29317    29317    29316    29313    29312    29308    29311    29319 
   29315    29304    29308    29322    29328    29319    29305    29308 
   29323    29335    29336    29331    29331    29336    29328    29320 
   29327    29335    29331    29317    29312    29317    29316    29309 
   29319    29330    29324    29316    29316    29317    29316    29316 
   29317    29316    29319    29324    29328    29328    29320    29309 
   29308    29320    29328    29326    29324    29327    29327    29323 
   29320    29322    29328    29331    29319    29304    29312    29330 
   29330    29320    29319    29326    29323    29309    29316    29339 
   29335    29315    29308    29313    29324    29332    29322    29316 
   29331    29332    29316    29311    29313    29324    29335    29323 
   29305    29305    29315    29320    29324    29326    29320    29311 
   29311    29326    29336    29326    29315    29320    29332    29343 
   29346    29336    29323    29313    29311    29320    29323    29322 
   29328    29328    29319    29316    29319    29315    29308    29305 
   29313    29319    29309    29308    29322    29328    29327    29327 
   29326    29324    29331    29331    29317    29322    29334    29327 
   29317    29326    29328    29328    29335    29328    29311    29308 
   29312    29320    29331    29326    29312    29315    29323    29320 
   29324    29328    29308    29296    29316    29331    29322    29319 
   29322    29319    29320    29327    29342    29347    29326    29309 
   29323    29328    29312    29307    29320    29331    29327    29319 
   29330    29344    29331    29305    29299    29307    29315    29319 
   29313    29311    29322    29331    29330    29332    29332    29319 
   29317    29327    29322    29304    29304    29320    29336    29335 
   29320    29320    29340    29342    29322    29311    29319    29330 
   29328    29317    29313    29323    29331    29322    29312    29319 
   29327    29319    29308    29304    29308    29319    29328    29334 
   29328    29319    29320    29326    29323    29320    29320    29320 
   29326    29331    29328    29327    29324    29311    29299    29307 
   29330    29349    29339    29313    29312    29324    29319    29317 
   29332    29332    29319    29316    29317    29319    29322    29317 
   29313    29323    29331    29323    29319    29323    29327    29334 
   29335    29322    29303    29299    29308    29316    29319    29326 
   29332    29335    29334    29326    29311    29303    29312    29332 
   29336    29326    29320    29313    29313    29330    29338    29330 
   29320    29320    29331    29332    29324    29322    29317    29304 
   29305    29320    29334    29335    29323    29305    29297    29304 
   29319    29326    29328    29330    29322    29320    29330    29324 
   29319    29330    29338    29336    29331    29320    29313    29323 
   29336    29335    29319    29312    29312    29311    29312    29320 
   29320    29316    29315    29326    29336    29328    29312    29309 
   29312    29319    29336    29344    29336    29323    29312    29315 
   29326    29324    29317    29323    29328    29323    29320    29326 
   29328    29322    29313    29315    29326    29334    29320    29307 
   29319    29328    29317    29313    29323    29331    29335    29334 
   29324    29315    29309    29305    29308    29320    29331    29339 
   29335    29320    29315    29317    29323    29328    29323    29317 
   29319    29322    29327    29331    29331    29332    29330    29319 
   29311    29308    29311    29315    29316    29322    29324    29319 
   29322    29334    29324    29300    29301    29324    29335    29328 
   29326    29335    29335    29324    29327    29335    29334    29322 
   29309    29307    29309    29313    29319    29324    29332    29335 
   29328    29315    29307    29309    29308    29304    29307    29316 
   29323    29320    29313    29315    29326    29328    29327    29336 
   29347    29344    29331    29322    29323    29332    29338    29330 
   29388    30226    34333    41831    36768     1529   -22466    31266 
   98928    58259    -9624    24590    46441   -13863      117    79783 
   61742     3430    22758    45131    19291    15088    37835    36575 
   20694    24979    37586    26809    12479    35908    62095    36944 
    2558    12332    37902    40578    25355    22457    36776    32603 
   14203    24914    50110    44550    19626    11925    24142    37543 
   36694    27091    21898    24336    36732    39964    25401    27552 
   38740    21112    10666    38357    45532    18712    20630    40483 
   30308    19387    34362    38396    24806    26869    31068    23329 
   33404    43576    22819    13949    35849    43912    37704    43856 
   34767    -5308   -29871    -1925    61260    98351    74966    28964 
  -11649   -36528    -9697    53218    88584    76754    38605     2573 
   -8969     6589    32161    50792    48049    24715    11596    11776 
   23596    69703    90464    23145   -27999    22234    44903   -17284 
   -9401    75523    94041    43686   -12879   -24313    36362    72661 
   30986    10157    37733    43838    24408    10997    15068    46124 
   67304    36039    -2928    -4611    15145    47657    71910    54220 
   17821     1100     9753    33177    43559    33326    33633    44436 
   30983     5250     7987    30774    40518    34211    30249    35538 
   32560    16602    16216    36163    41260    24177    18754    32640 
   35915    25655    25706    34808    37974    34233    32004    34053 
   31014    19422    13842    26944    43275    39661    25533    21413 
   24144    24794    27187    34962    39908    33575    24028    23410 
   26335    25490    27872    33988    34017    30102    30179    30433 
   26310    23734    27299    32491    34311    33278    31136    27480 
   23953    24790    28829    31781    33176    33330    33570    32995 
   27211    22125    25803    31001    31756    32113    30188    23849 
   20196    21581    26406    35407    39349    31395    23449    24385 
   28705    32420    36077    36838    32486    27962    29371    34252 
   33817    27055    22967    24047    24725    24676    26901    30253 
   31407    29754    28139    28881    31104    32350    30850    27276 
   25392    28070    32597    34434    33227    30612    27373    25477 
   27888    33232    35513    32121    26407    23834    25600    27060 
   27584    30083    32049    29903    25458    24100    28189    32805 
   33265    31318    28721    26746    29727    35985    36189    29860 
   26253    27151    26470    23414    24503    31050    34308    30909 
   28298    28926    29216    30276    32063    31953    30767    28525 
   26023    27603    30912    28638    24549    26509    30900    32007 
   30800    29085    28089    28730    29859    30912    31984    31491 
   29359    27719    27310    27901    28880    28710    28096    29228 
   30271    29374    29424    30969    31252    30519    30245    30377 
   29967    28409    27144    27251    27693    28035    28539    28912 
   29536    30901    30805    28178    27517    30218    31527    30670 
   29948    29367    29029    28456    27476    28289    30694    31644 
   30572    29512    29107    28471    27652    27788    29571    31067 
   30353    29505    29632    28146    25972    26743    28399    28263 
   29488    32370    32834    31707    31212    29997    28995    29930 
   30407    29205    28541    28671    27785    26528    26855    27822 
   27932    28663    30524    31031    30227    30645    31303    30098 
   28402    27911    28382    29295    30157    30202    29407    28871 
   28937    28715    28197    28861    30676    31297    30415    30150 
   30466    29702    28345    27650    27760    28479    29149    29717 
   30092    29273    28379    28706    29104    29228    29385    29123 
   29097    29925    30145    29107    28800    29824    30362    30103 
   30146    30484    29929    28453    27959    28787    29532    29582 
   28779    27963    28260    29031    29512    29980    30195    29447 
   28475    28428    29077    29944    30554    30257    29282    28915 
   29636    30253    30154    29741    29158    28530    28084    28054 
   28372    28723    29288    30007    30084    29585    29454    29770 
   29798    29342    29280    29963    29999    29046    28830    29479 
   29581    29214    29083    29061    28888    28667    28777    29335 
   29633    29296    28944    28885    29142    29529    29513    29315 
   29181    28934    29081    30037    30875    30527    29682    29442 
   29251    28790    29019    29593    29282    28791    29022    29108 
   28973    29403    29700    29336    29289    29620    29114    28123 
   28119    28877    29733    30550    30325    29170    28707    29002 
   29266    29563    29697    29382    29111    29195    29617    30092 
   29903    29392    29295    29060    28707    28945    29185    29201 
   29663    29945    29443    29219    29586    29559    29357    29473 
   29347    29057    28815    28426    28617    29363    29308    28588 
   28543    29277    29820    29871    30072    30408    30057    29446 
   29593    29911    29640    29166    28738    28405    28524    28907 
   29003    29178    29673    29689    29336    29428    29670    29687 
   29671    29357    28776    28750    29164    29197    29057    29228 
   29446    29365    29234    29377    29635    29616    29304    29307 
   29763    29906    29501    28961    28472    28372    29020    29817 
   29924    29610    29430    29351    29328    29411    29587    29698 
   29451    29139    29289    29353    28968    29053    29520    29308 
   28802    28894    29239    29317    29363    29508    29563    29528 
   29457    29353    29277    29242    29204    29139    29096    29255 
   29425    29276    29160    29320    29494    29631    29681    29555 
   29500    29677    29782    29500    29046    28900    29084    29081 
