Origin Time       2025/03/30 22:55:00
Lat.              41.993
Long.             142.725
Depth. (km)       55
Mag.              4.6
Station Code      AOMH12
Station Lat.      40.5846
Station Long.     141.1547
Station Height(m) -15
Record Time       2025/03/30 22:56:53
Sampling Freq(Hz) 100Hz
Duration Time(s)  120
Dir.              3
Scale Factor      2942(gal)/8224139
Max. Acc. (gal)   0.132
Last Correction   2025/03/30 22:56:54
Memo.             
[...]
  -40058   -40061   -40072   -40070   -40035   -39992   -39968   -39970 
  -39996   -40027   -40050   -40062   -40053   -40023   -39995   -40000 
  -40036   -40053   -40034   -40028   -40059   -40088   -40081   -40061 
  -40046   -40016   -39992   -40007   -40031   -40023   -39995   -39997 
  -40047   -40108   -40120   -40069   -40015   -40015   -40053   -40085 
  -40092   -40068   -40038   -40045   -40077   -40080   -40036   -39978 
  -39950   -39973   -40022   -40057   -40076   -40092   -40105   -40103 
  -40089   -40078   -40074   -40061   -40039   -40047   -40092   -40107 
  -40073   -40042   -40027   -40016   -40024   -40035   -40030   -40032 
  -40046   -40068   -40090   -40084   -40043   -40007   -39997   -40000 
  -39999   -40000   -40018   -40031   -40036   -40047   -40059   -40055 
  -40043   -40036   -40031   -40018   -40011   -40005   -39985   -39984 
  -40015   -40030   -40022   -40028   -40063   -40109   -40127   -40119 
  -40089   -40026   -39958   -39930   -39914   -39891   -39896   -39930 
  -39972   -40035   -40115   -40151   -40115   -40057   -40011   -39973 
  -39947   -39934   -39941   -39999   -40076   -40089   -40055   -40061 
  -40092   -40084   -40066   -40090   -40123   -40109   -40065   -40035 
  -40027   -40019   -40003   -39999   -40019   -40053   -40070   -40080 
  -40096   -40095   -40055   -40026   -40027   -40034   -40030   -40019 
  -40020   -40059   -40108   -40112   -40068   -40026   -40018   -40019 
  -40012   -40008   -40008   -40005   -40003   -40004   -40001   -40003 
  -40024   -40051   -40072   -40085   -40082   -40057   -40018   -39987 
  -39985   -40011   -40032   -40059   -40111   -40147   -40139   -40111 
  -40103   -40122   -40142   -40124   -40069   -40022   -40011   -40012 
  -40009   -40026   -40046   -40046   -40046   -40049   -40051   -40050 
  -40028   -39992   -39985   -40014   -40038   -40035   -40023   -40028 
  -40061   -40101   -40104   -40063   -40028   -40016   -39999   -39976 
  -39980   -40020   -40051   -40039   -40016   -40008   -40018   -40058 
  -40082   -40038   -39984   -39981   -40009   -40038   -40047   -40022 
  -39991   -40007   -40042   -40043   -40043   -40062   -40050   -40004 
  -39976   -39980   -40005   -40034   -40049   -40054   -40065   -40059 
  -40035   -40032   -40039   -40024   -40018   -40055   -40104   -40101 
  -40039   -39991   -40003   -40042   -40058   -40059   -40065   -40061 
  -40054   -40047   -40022   -40009   -40036   -40072   -40089   -40073 
  -40022   -39992   -40020   -40062   -40063   -40028   -39996   -39995 
  -40011   -40028   -40032   -40019   -40015   -40032   -40058   -40078 
  -40076   -40049   -40028   -40023   -40014   -39987   -39954   -39947 
  -39981   -40041   -40096   -40111   -40089   -40077   -40078   -40058 
  -40043   -40072   -40111   -40116   -40092   -40051   -39996   -39958 
  -39970   -40007   -40036   -40061   -40065   -40031   -39987   -39977 
  -40003   -40038   -40061   -40059   -40050   -40053   -40065   -40058 
  -40050   -40080   -40120   -40109   -40058   -40020   -40015   -40032 
  -40047   -40050   -40059   -40085   -40101   -40081   -40053   -40061 
  -40081   -40065   -40038   -40024   -40022   -40046   -40080   -40080 
  -40049   -40007   -39965   -39958   -39984   -39993   -39995   -40018 
  -40041   -40043   -40020   -39989   -39995   -40019   -39996   -39950 
  -39962   -40019   -40058   -40068   -40046   -40005   -39981   -39977 
  -39980   -39996   -40023   -40059   -40108   -40140   -40143   -40132 
  -40104   -40063   -40049   -40036   -39987   -39949   -39976   -40027 
  -40054   -40065   -40068   -40063   -40042   -40005   -39993   -40009 
  -40027   -40045   -40076   -40097   -40096   -40086   -40072   -40070 
  -40100   -40108   -40062   -40027   -40051   -40089   -40101   -40108 
  -40100   -40053   -39997   -39973   -39982   -39996   -40000   -40023 
  -40095   -40150   -40097   -39978   -39922   -39954   -40008   -40039 
  -40053   -40042   -40020   -40030   -40076   -40105   -40076   -40014 
  -39970   -39958   -39958   -39969   -39992   -40026   -40081   -40132 
  -40124   -40063   -40020   -40036   -40065   -40049   -40005   -39977 
  -39970   -39982   -40001   -40001   -39997   -40019   -40049   -40053 
  -40062   -40085   -40080   -40063   -40082   -40078   -40023   -39991 
  -40026   -40081   -40100   -40103   -40120   -40134   -40120   -40074 
  -40023   -39991   -39977   -39978   -40001   -40031   -40055   -40069 
  -40069   -40055   -40030   -39987   -39958   -39989   -40050   -40088 
  -40096   -40080   -40050   -40026   -40005   -39980   -39964   -39960 
  -39954   -39961   -39993   -40023   -40035   -40042   -40043   -40028 
  -40011   -40004   -40014   -40043   -40068   -40042   -40015   -40062 
  -40127   -40123   -40080   -40046   -40007   -39972   -39974   -40011 
  -40062   -40117   -40139   -40105   -40072   -40061   -40053   -40047 
  -40066   -40088   -40078   -40050   -40027   -39992   -39965   -39993 
  -40057   -40096   -40097   -40078   -40045   -40015   -40012   -40019 
  -40020   -40035   -40061   -40077   -40084   -40065   -40030   -40024 
  -40053   -40069   -40047   -40011   -39995   -40001   -40011   -40005 
  -39982   -39982   -40028   -40070   -40080   -40076   -40053   -40018 
  -40004   -40028   -40059   -40069   -40061   -40024   -39977   -39985 
  -40045   -40070   -40059   -40072   -40099   -40081   -40015   -39973 
  -40003   -40063   -40084   -40069   -40077   -40111   -40113   -40070 
  -40039   -40045   -40039   -40009   -39984   -39982   -40015   -40054 
  -40066   -40081   -40117   -40124   -40092   -40049   -39993   -39949 
  -39954   -39987   -40016   -40042   -40057   -40041   -40019   -40027 
  -40050   -40059   -40039   -39999   -39972   -39964   -39950   -39949 
  -39993   -40047   -40061   -40065   -40095   -40107   -40085   -40055 
  -40036   -40003   -39941   -39906   -39938   -40001   -40065   -40099 
  -40089   -40074   -40070   -40069   -40072   -40078   -40090   -40097 
  -40081   -40062   -40061   -40055   -40030   -39991   -39965   -39987 
  -40023   -40019   -40008   -40043   -40090   -40097   -40099   -40119 
  -40126   -40108   -40089   -40053   -40020   -40020   -40016   -40004 
  -40016   -40030   -40027   -40030   -40027   -39997   -39982   -40008 
  -40019   -40014   -40023   -40020   -40000   -39992   -39993   -40003 
  -40026   -40042   -40059   -40104   -40155   -40159   -40101   -40031 
  -39989   -39981   -39997   -40019   -40028   -40042   -40073   -40089 
  -40053   -39992   -39966   -39988   -40024   -40043   -40051   -40077 
  -40103   -40080   -40026   -40001   -40014   -40030   -40027   -40015 
  -40030   -40061   -40057   -40016   -39987   -39996   -40028   -40051 
  -40053   -40027   -40004   -40015   -40057   -40108   -40131   -40103 
  -40084   -40117   -40144   -40115   -40062   -40026   -40009   -39991 
  -39968   -39947   -39937   -39955   -39997   -40045   -40096   -40132 
  -40138   -40128   -40111   -40070   -40012   -39973   -39958   -39946 
  -39962   -40014   -40054   -40059   -40050   -40038   -40014   -39997 
  -39996   -39984   -39996   -40045   -40066   -40053   -40038   -40036 
  -40054   -40090   -40122   -40124   -40093   -40069   -40073   -40066 
  -40036   -40041   -40081   -40097   -40084   -40072   -40053   -40027 
  -40014   -40018   -40024   -40032   -40039   -40049   -40072   -40099 
  -40105   -40101   -40109   -40097   -40045   -40004   -39997   -39996 
  -40004   -40024   -40024   -39996   -39982   -40009   -40039   -40035 
  -40007   -39989   -40003   -40038   -40058   -40042   -40022   -40039 
  -40072   -40063   -40035   -40024   -40018   -40016   -40051   -40090 
  -40078   -40035   -40016   -40018   -40020   -40020   -40014   -40011 
  -40028   -40070   -40108   -40107   -40076   -40043   -40027   -40035 
  -40038   -40014   -40007   -40039   -40058   -40030   -39974   -39934 
  -39941   -39978   -40004   -39995   -39962   -39933   -39927   -39937 
  -39942   -39945   -39989   -40080   -40126   -40085   -40042   -40035 
  -40030   -40030   -40054   -40078   -40088   -40101   -40131   -40161 
  -40154   -40105   -40062   -40068   -40073   -40049   -40035   -40035 
  -40034   -40047   -40047   -40004   -39965   -39968   -39973   -39974 
  -40012   -40066   -40084   -40054   -39989   -39923   -39895   -39897 
  -39906   -39931   -40001   -40080   -40101   -40080   -40070   -40066 
  -40051   -40038   -40039   -40058   -40082   -40086   -40078   -40103 
  -40153   -40178   -40166   -40155   -40165   -40146   -40068   -39985 
  -39954   -39973   -40034   -40112   -40159   -40166   -40149   -40111 
  -40074   -40049   -40024   -40018   -40038   -40054   -40041   -40005 
  -39970   -39950   -39945   -39943   -39954   -39977   -39999   -40004 
  -40005   -40027   -40039   -39992   -39923   -39904   -39945   -39993 
  -40034   -40085   -40135   -40135   -40078   -40014   -40003   -40028 
  -40023   -40007   -40038   -40076   -40078   -40081   -40103   -40130 
  -40146   -40146   -40138   -40135   -40134   -40115   -40073   -40049 
  -40072   -40112   -40126   -40080   -39989   -39923   -39908   -39903 
  -39895   -39923   -39969   -39984   -40012   -40081   -40082   -39989 
  -39926   -39951   -40011   -40046   -40018   -39939   -39907   -39939 
  -39958   -39961   -40003   -40069   -40108   -40113   -40113   -40123 
  -40142   -40149   -40136   -40120   -40101   -40066   -40036   -40036 
  -40047   -40051   -40050   -40049   -40057   -40080   -40085   -40058 
  -40046   -40057   -40041   -40003   -39993   -39995   -39961   -39928 
  -39945   -39977   -39985   -39988   -39995   -39982   -39958   -39965 
  -40008   -40045   -40050   -40061   -40100   -40147   -40163   -40130 
  -40097   -40099   -40107   -40115   -40135   -40161   -40144   -40092 
  -40077   -40086   -40026   -39916   -39873   -39911   -39969   -40042 
  -40136   -40200   -40196   -40166   -40154   -40122   -40034   -39922 
  -39829   -39791   -39838   -39923   -39987   -40063   -40176   -40247 
  -40227   -40144   -40059   -39981   -39904   -39866   -39912   -40036 
  -40177   -40243   -40207   -40126   -40055   -40009   -40000   -40022 
  -40034   -40047   -40095   -40135   -40122   -40084   -40047   -39999 
  -39961   -39966   -39972   -39960   -40000   -40095   -40157   -40150 
  -40108   -40068   -40020   -39916   -39803   -39811   -39933   -40028 
  -40065   -40103   -40135   -40097   -39984   -39880   -39858   -39899 
  -39976   -40072   -40146   -40167   -40146   -40131   -40150   -40161 
  -40116   -40050   -40032   -40069   -40096   -40073   -40019   -39964 
  -39928   -39915   -39924   -39961   -40001   -40015   -40007   -39985 
  -39950   -39927   -39955   -40028   -40085   -40105   -40123   -40153 
  -40169   -40136   -40035   -39928   -39906   -39930   -39941   -39976 
  -40042   -40085   -40111   -40136   -40127   -40077   -40019   -39993 
  -40032   -40138   -40247   -40278   -40207   -40099   -40022   -40000 
  -40039   -40112   -40142   -40100   -40036   -40018   -40059   -40096 
  -40066   -40001   -39958   -39937   -39928   -39933   -39942   -39965 
  -40038   -40115   -40088   -39996   -39969   -40012   -40045   -40014 
  -39954   -39938   -39974   -40019   -40045   -40039   -40004   -39965 
  -39969   -40023   -40063   -40045   -39982   -39908   -39849   -39830 
  -39893   -40036   -40158   -40178   -40153   -40144   -40120   -40049 
  -39982   -39972   -40034   -40165   -40254   -40153   -39962   -39926 
  -40045   -40124   -40112   -40078   -40035   -40008   -40042   -40073 
  -40041   -40005   -40015   -40024   -39997   -39915   -39796   -39739 
  -39773   -39798   -39812   -39891   -39974   -40016   -40076   -40166 
  -40267   -40354   -40360   -40275   -40181   -40109   -40024   -39912 
  -39803   -39753   -39803   -39911   -40007   -40088   -40150   -40162 
  -40132   -40117   -40151   -40211   -40247   -40246   -40230   -40197 
  -40165   -40165   -40201   -40244   -40251   -40177   -40051   -39962 
  -39931   -39926   -39966   -40061   -40126   -40107   -40063   -40042 
  -40026   -40008   -39982   -39973   -40022   -40082   -40078   -40003 
  -39920   -39880   -39846   -39796   -39772   -39787   -39846   -39961 
  -40059   -40076   -40034   -39980   -39950   -39958   -39982   -39989 
  -39992   -40011   -40011   -39977   -39972   -40001   -40015   -40023 
  -40068   -40134   -40196   -40275   -40355   -40387   -40375   -40335 
  -40239   -40080   -39945   -39901   -39920   -39969   -40042   -40099 
  -40103   -40069   -40012   -39954   -39964   -40045   -40103   -40115 
  -40112   -40100   -40073   -40022   -39969   -39968   -39999   -39966 
  -39865   -39807   -39834   -39858   -39847   -39865   -39950   -40081 
  -40190   -40234   -40261   -40308   -40317   -40230   -40055   -39876 
  -39816   -39896   -39997   -40065   -40127   -40149   -40122   -40103 
  -40076   -40015   -39987   -40032   -40096   -40143   -40159   -40078 
  -39939   -39864   -39880   -39961   -40046   -40058   -40024   -40019 
  -40046   -40082   -40105   -40115   -40112   -40088   -40061   -40057 
  -40086   -40108   -40069   -40003   -39958   -39946   -39955   -39961 
  -39970   -40012   -40051   -40055   -40057   -40069   -40062   -40041 
  -40031   -40055   -40117   -40150   -40093   -39996   -39947   -39980 
  -40054   -40105   -40096   -40032   -39970   -39961   -39991   -40032 
  -40066   -40070   -40055   -40053   -40055   -40026   -39980   -39985 
  -40051   -40095   -40076   -40049   -40081   -40159   -40205   -40181 
  -40072   -39899   -39775   -39792   -39893   -39973   -39989   -39976 
  -39977   -39997   -39997   -39951   -39868   -39764   -39675   -39669 
  -39768   -39901   -40015   -40105   -40169   -40204   -40228   -40269 
  -40316   -40336   -40340   -40352   -40348   -40320   -40298   -40275 
  -40208   -40112   -40053   -40026   -39980   -39926   -39870   -39795 
  -39746   -39785   -39879   -39980   -40059   -40088   -40097   -40113 
  -40072   -39972   -39914   -39934   -39973   -39976   -39941   -39910 
  -39924   -40012   -40140   -40203   -40180   -40157   -40154   -40122 
  -40062   -40023   -40015   -40003   -39992   -39984   -39977   -40001 
  -40043   -40050   -40028   -40012   -40020   -40074   -40158   -40221 
  -40217   -40146   -40050   -39974   -39914   -39860   -39827   -39850 
  -39918   -39996   -40093   -40209   -40304   -40332   -40297   -40230 
  -40147   -40058   -39989   -39957   -39961   -39999   -40032   -40028 
  -40022   -40049   -40074   -40058   -40034   -40028   -40035   -40050 
  -40043   -39969   -39870   -39839   -39879   -39939   -40007   -40089 
  -40155   -40140   -40030   -39892   -39802   -39789   -39849   -39943 
  -40032   -40080   -40092   -40088   -40074   -40063   -40047   -40000 
  -39982   -40047   -40117   -40119   -40096   -40093   -40078   -40030 
  -39965   -39922   -39953   -40063   -40157   -40155   -40100   -40062 
  -40077   -40154   -40231   -40209   -40095   -39981   -39908   -39884 
  -39919   -39988   -40070   -40155   -40197   -40181   -40162   -40178 
  -40178   -40115   -40066   -40085   -40086   -40038   -40026   -40073 
  -40104   -40085   -40047   -40031   -40058   -40111   -40138   -40128 
  -40111   -40088   -40051   -40041   -40034   -39989   -39950   -39958 
  -39980   -39996   -40020   -40046   -40065   -40074   -40068   -40045 
  -40003   -39938   -39860   -39811   -39822   -39858   -39911   -39982 
  -40022   -39995   -39919   -39854   -39852   -39879   -39884   -39895 
  -39960   -40074   -40185   -40225   -40194   -40158   -40136   -40108 
  -40085   -40090   -40107   -40111   -40115   -40146   -40182   -40174 
  -40138   -40128   -40132   -40096   -40028   -39965   -39912   -39868 
  -39843   -39850   -39900   -39974   -40049   -40117   -40186   -40213 
  -40151   -40034   -39927   -39860   -39839   -39876   -39962   -40053 
  -40088   -40078   -40077   -40093   -40122   -40153   -40155   -40127 
  -40084   -40027   -39962   -39934   -39958   -39988   -39980   -39947 
  -39933   -39934   -39943   -39972   -40022   -40082   -40128   -40134 
  -40139   -40171   -40180   -40135   -40074   -40028   -40023   -40082 
  -40165   -40213   -40227   -40228   -40209   -40154   -40066   -39976 
  -39911   -39881   -39877   -39896   -39923   -39945   -39966   -39984 
  -39997   -40016   -40039   -40049   -40068   -40131   -40219   -40266 
  -40215   -40074   -39942   -39901   -39947   -40012   -40028   -39993 
  -39976   -40007   -40043   -40062   -40053   -39999   -39938   -39937 
  -39987   -40034   -40085   -40144   -40165   -40153   -40151   -40138 
  -40100   -40078   -40088   -40095   -40072   -40038   -40034   -40014 
  -39927   -39830   -39796   -39834   -39923   -40019   -40053   -40026 
  -40019   -40077   -40150   -40150   -40069   -40005   -40036   -40107 
  -40132   -40115   -40096   -40073   -40023   -39964   -39934   -39935 
  -39955   -39991   -40022   -40019   -39984   -39951   -39938   -39934 
  -39937   -39941   -39966   -40041   -40117   -40126   -40073   -40022 
  -40008   -40051   -40124   -40167   -40186   -40217   -40219   -40154 
  -40051   -39976   -39955   -39964   -39981   -40035   -40124   -40220 
  -40279   -40267   -40209   -40159   -40123   -40057   -39964   -39908 
  -39908   -39924   -39931   -39924   -39935   -39996   -40058   -40070 
  -40074   -40088   -40078   -40058   -40046   -40019   -39965   -39915 
  -39908   -39935   -39934   -39887   -39865   -39912   -39993   -40077 
  -40143   -40177   -40200   -40235   -40243   -40190   -40132   -40119 
  -40127   -40136   -40136   -40104   -40062   -40041   -40030   -40022 
  -40009   -39982   -39957   -39954   -39957   -39964   -39997   -40022 
  -39968   -39888   -39900   -39993   -40080   -40116   -40097   -40041 
  -39974   -39906   -39857   -39861   -39887   -39900   -39935   -40015 
  -40076   -40095   -40119   -40151   -40139   -40099   -40072   -40050 
  -40019   -39982   -39938   -39908   -39924   -39962   -39991   -40046 
  -40108   -40124   -40132   -40181   -40228   -40242   -40228   -40207 
  -40196   -40197   -40192   -40174   -40147   -40104   -40057   -40032 
  -40028   -40014   -39973   -39950   -40003   -40096   -40136   -40107 
  -40050   -40005   -40008   -40068   -40123   -40146   -40153   -40117 
  -40049   -40007   -39989   -39942   -39884   -39880   -39928   -39974 
  -39991   -40001   -40011   -39985   -39941   -39941   -40004   -40062 
  -40058   -40039   -40059   -40096   -40103   -40061   -40000   -39980 
  -40011   -40028   -39995   -39953   -39951   -39996   -40049   -40072 
  -40055   -40026   -40003   -39973   -39938   -39933   -39961   -39996 
  -40028   -40043   -40046   -40051   -40055   -40055   -40054   -40042 
  -40015   -39996   -39996   -39957   -39862   -39781   -39771   -39822 
  -39923   -40034   -40089   -40096   -40101   -40084   -40032   -40004 
  -40032   -40092   -40149   -40184   -40201   -40228   -40261   -40271 
  -40275   -40265   -40208   -40138   -40101   -40092   -40096   -40117 
  -40158   -40200   -40223   -40209   -40166   -40134   -40127   -40101 
  -40026   -39945   -39910   -39873   -39808   -39775   -39781   -39773 
  -39773   -39820   -39895   -39968   -40031   -40047   -40039   -40080 
  -40154   -40190   -40178   -40167   -40158   -40128   -40107   -40099 
  -40054   -39989   -39953   -39953   -39977   -39991   -39973   -39974 
  -40039   -40130   -40190   -40231   -40266   -40254   -40196   -40150 
  -40123   -40073   -40018   -39999   -40003   -40000   -39985   -39958 
