Origin Time       2025/03/30 22:55:00
Lat.              41.993
Long.             142.725
Depth. (km)       55
Mag.              4.6
Station Code      AOMH13
Station Lat.      40.5794
Station Long.     141.4451
Station Height(m) -140
Record Time       2025/03/30 22:56:49
Sampling Freq(Hz) 100Hz
Duration Time(s)  120
Dir.              2
Scale Factor      2942(gal)/8224139
Max. Acc. (gal)   0.339
Last Correction   2025/03/30 22:56:49
Memo.             
[...]
  148028   148090   148043   147993   148062   148177   148244   148275 
  148258   148182   148093   148027   148014   148051   148058   148009 
  147991   148034   148081   148089   148058   148026   148005   147977 
  147964   147988   147992   147954   147965   148043   148080   148011 
  147928   147951   148062   148153   148185   148196   148219   148225 
  148181   148111   148065   148059   148080   148080   148042   148001 
  147969   147946   147960   147988   148001   148032   148095   148147 
  148159   148111   148039   148022   148034   148027   148026   148022 
  148012   148039   148081   148104   148127   148127   148109   148116 
  148119   148081   148042   148045   148055   148030   147991   147985 
  148000   148012   148039   148074   148092   148105   148108   148072 
  148039   148051   148051   148007   147958   147949   147972   148014 
  148068   148126   148167   148180   148162   148122   148093   148095 
  148103   148095   148084   148068   148027   147974   147955   147988 
  148059   148132   148163   148142   148088   148018   147941   147903 
  147918   147946   147991   148066   148122   148128   148111   148085 
  148061   148061   148092   148119   148084   148018   148016   148080 
  148111   148066   148005   148026   148076   148050   148005   148011 
  148028   148034   148051   148105   148167   148186   148162   148126 
  148100   148088   148085   148078   148041   147969   147893   147846 
  147884   148030   148162   148174   148143   148130   148089   148023 
  147991   147996   148005   148016   148046   148119   148185   148149 
  148059   148043   148090   148111   148072   148020   148020   148030 
  148005   148015   148062   148057   148018   148015   148024   147996 
  147951   147954   148014   148078   148130   148159   148158   148150 
  148140   148108   148072   148047   148038   148047   148085   148149 
  148186   148151   148074   148020   147992   147970   147981   148043 
  148090   148061   147996   147992   148070   148124   148081   148022 
  148003   147987   147984   148023   148041   147997   147960   147977 
  148034   148086   148116   148130   148122   148107   148112   148124 
  148127   148127   148131   148131   148117   148092   148062   148028 
  147989   147978   148007   148023   148016   148035   148085   148105 
  148058   147993   148000   148074   148111   148078   148050   148042 
  148023   148022   148073   148124   148101   148045   148039   148038 
  147993   147954   147965   148026   148078   148072   148042   148024 
  148009   148000   147988   147997   148070   148147   148169   148182 
  148198   148181   148138   148081   148028   147996   147965   147941 
  147961   148016   148059   148068   148092   148162   148190   148126 
  148059   148046   148042   148039   148046   148035   148009   148008 
  148026   148047   148063   148058   148062   148096   148112   148086 
  148049   148035   148045   148026   147978   147972   148001   148031 
  148069   148096   148078   148076   148095   148059   148009   148026 
  148054   148041   148035   148053   148049   148020   148011   148042 
  148080   148084   148080   148101   148134   148151   148138   148113 
  148111   148089   148036   148020   148051   148066   148054   148062 
  148104   148135   148117   148070   148012   147949   147912   147926 
  147958   147995   148027   148041   148059   148080   148072   148076 
  148111   148109   148069   148042   148022   148000   147995   148004 
  148038   148099   148151   148159   148154   148163   148144   148082 
  148042   148053   148068   148072   148072   148077   148080   148061 
  148008   147955   147947   147962   147973   148012   148057   148062 
  148073   148109   148117   148078   148028   148007   148058   148123 
  148089   148001   147993   148063   148105   148085   148070   148073 
  148070   148088   148111   148100   148065   148047   148065   148074 
  148028   147974   147982   148041   148077   148038   147981   148016 
  148104   148124   148105   148124   148143   148107   148049   148030 
  148061   148096   148104   148103   148097   148051   147977   147945 
  147988   148053   148061   148008   147964   147970   148003   148038 
  148086   148158   148216   148204   148138   148086   148036   147970 
  147946   147970   147976   147964   147991   148054   148097   148090 
  148061   148065   148093   148081   148049   148051   148097   148153 
  148158   148113   148082   148072   148054   148050   148065   148068 
  148077   148120   148157   148132   148065   148004   147980   147976 
  147978   148024   148119   148181   148165   148100   148049   148041 
  148038   147991   147907   147850   147876   147951   148027   148120 
  148217   148227   148154   148095   148088   148085   148058   148053 
  148074   148082   148096   148109   148073   147993   147920   147908 
  147980   148074   148123   148132   148107   148057   148023   148019 
  148039   148061   148072   148088   148105   148089   148036   147987 
  147984   148070   148203   148240   148151   148054   148019   148015 
  148012   148007   148005   148012   148016   148035   148069   148072 
  148028   147988   148000   148058   148111   148123   148099   148068 
  148078   148124   148132   148104   148089   148066   148011   147968 
  147958   147938   147906   147907   147946   148007   148069   148109 
  148143   148174   148184   148176   148193   148215   148170   148090 
  148076   148126   148134   148065   147984   147945   147945   147960 
  147970   147985   148000   148000   148004   148046   148116   148158 
  148131   148054   148007   148041   148080   148055   148031   148062 
  148107   148124   148120   148089   148034   147999   148008   148034 
  148051   148074   148101   148099   148066   148027   147992   147997 
  148035   148055   148055   148065   148078   148081   148053   148018 
  148018   148032   148043   148076   148112   148103   148032   147961 
  147969   148027   148043   148038   148072   148120   148139   148135 
  148131   148116   148066   148018   148023   148058   148065   148045 
  148036   148042   148016   147985   148000   148034   148046   148059 
  148068   148050   148043   148045   148014   147978   147988   148045 
  148109   148135   148127   148140   148166   148144   148090   148045 
  147970   147880   147870   147969   148082   148143   148142   148120 
  148123   148154   148171   148153   148128   148119   148119   148135 
  148135   148080   148014   147989   147981   147972   147987   148019 
  148036   148016   147968   147951   147992   148038   148073   148123 
  148151   148124   148066   148011   147984   147981   147997   148050 
  148096   148084   148062   148046   148036   148073   148116   148100 
  148043   148009   148028   148061   148076   148077   148059   148027 
  148004   148000   148007   148018   148026   148026   148043   148081 
  148084   148055   148045   148041   148031   148053   148122   148194 
  148219   148189   148155   148139   148112   148081   148077   148084 
  148032   147951   147941   147981   148001   148018   148058   148095 
  148086   148039   148014   148039   148077   148096   148085   148043 
  147992   147924   147866   147888   147996   148128   148200   148169 
  148095   148059   148055   148046   148054   148138   148232   148208 
  148113   148061   148036   148036   148062   148059   148049   148070 
  148090   148089   148074   148063   148077   148078   148022   147942 
  147906   147938   148012   148059   148053   148038   148036   148055 
  148084   148072   148038   148039   148051   148081   148135   148135 
  148059   147992   147976   148011   148062   148062   148047   148081 
  148096   148065   148059   148090   148111   148097   148068   148049 
  148041   148053   148070   148078   148084   148080   148061   148073 
  148115   148130   148104   148042   147973   147951   147966   147996 
  148051   148100   148105   148084   148096   148144   148157   148147 
  148178   148190   148138   148049   147957   147915   147938   147964 
  147958   147946   147949   147965   147999   148062   148165   148255 
  148240   148140   148051   148019   148045   148096   148124   148115 
  148072   148031   148016   148000   147969   147958   147993   148063 
  148108   148093   148078   148101   148105   148055   147997   147973 
  147991   148034   148074   148124   148165   148131   148041   148001 
  148042   148088   148107   148101   148066   148038   148036   148019 
  147984   147961   147955   147989   148046   148082   148084   148062 
  148050   148062   148050   148008   147991   147993   147972   147953 
  147992   148063   148109   148139   148178   148207   148201   148146 
  148059   148027   148046   148050   148051   148063   148054   148020 
  147995   147995   148027   148065   148062   148041   148051   148076 
  148072   148059   148077   148122   148143   148126   148108   148112 
  148128   148138   148111   148085   148076   148032   148007   148058 
  148076   148001   147926   147910   147918   147914   147927   147968 
  148009   148062   148116   148142   148139   148127   148124   148140 
  148170   148193   148169   148105   148032   147950   147900   147946 
  148043   148099   148103   148085   148063   148053   148054   148063 
  148070   148069   148049   148008   147973   147964   147970   147981 
  147988   147993   148024   148073   148081   148072   148100   148130 
  148108   148074   148085   148123   148157   148189   148197   148165 
  148116   148085   148088   148099   148073   148019   148023   148078 
  148077   148039   148046   148059   148062   148077   148068   148043 
  148032   147991   147946   147981   148068   148124   148155   148173 
  148162   148113   148066   148062   148068   148036   147978   147916 
  147883   147900   147935   147972   148009   148036   148059   148104 
  148159   148182   148176   148171   148150   148095   148051   148063 
  148109   148132   148097   148035   148008   147999   147957   147962 
  148069   148162   148178   148153   148108   148072   148018   147939 
  147912   147972   148090   148178   148134   148028   147981   147969 
  147947   147943   147974   148000   147947   147850   147799   147804 
  147853   147903   147920   147961   148003   147969   147935   147973 
  148022   148038   148034   148019   148008   148001   147996   148011 
  148014   147981   147965   147989   148057   148154   148220   148238 
  148243   148230   148211   148219   148224   148189   148130   148095 
  148130   148189   148207   148204   148204   148174   148123   148104 
  148131   148166   148184   148194   148215   148223   148159   148046 
  147978   147958   147923   147907   147950   148001   148020   148005 
  147939   147865   147843   147850   147839   147857   147950   148026 
  148003   147989   148058   148107   148108   148135   148151   148138 
  148155   148174   148173   148188   148176   148119   148092   148097 
  148096   148115   148204   148331   148387   148344   148247   148131 
  148046   148027   148038   148055   148090   148117   148123   148108 
  148059   148039   148115   148221   148251   148161   147993   147845 
  147760   147733   147777   147888   148026   148131   148166   148140 
  148078   147987   147915   147923   147982   148028   148018   147949 
  147888   147903   147980   148062   148096   148063   147988   147907 
  147869   147895   147954   147988   147980   147993   148092   148213 
  148273   148288   148298   148292   148231   148138   148076   148066 
  148138   148304   148460   148481   148385   148254   148124   148023 
  147945   147883   147885   147970   148085   148198   148305   148315 
  148174   148018   147981   147985   147906   147765   147631   147515 
  147464   147513   147598   147683   147766   147810   147856   148009 
  148231   148392   148429   148367   148278   148230   148235   148254 
  148255   148209   148104   147991   147915   147868   147885   148039 
  148288   148506   148606   148572   148471   148387   148312   148209 
  148122   148076   148031   147996   147984   147945   147853   147729 
  147637   147684   147850   148005   148100   148165   148215   148240 
  148196   148050   147877   147772   147737   147752   147847   148018 
  148162   148208   148171   148073   147972   147962   148053   148161 
  148200   148146   148038   147941   147908   147939   148004   148123 
  148274   148352   148282   148095   147885   147754   147733   147771 
  147812   147852   147903   147957   148001   148057   148134   148201 
  148217   148144   148018   147962   148012   148078   148076   148007 
  147945   147931   147970   148073   148207   148298   148319   148263 
  148147   148020   147926   147857   147795   147757   147750   147758 
  147812   147920   148007   148047   148093   148155   148238   148329 
  148374   148358   148312   148250   148155   147976   147687   147411 
  147283   147289   147405   147600   147775   147900   148030   148134 
  148213   148344   148539   148745   148894   148914   148826   148703 
  148540   148312   148072   147919   147918   148003   148039   147978 
  147879   147803   147766   147765   147796   147849   147926   148019 
  148081   148113   148153   148201   148231   148223   148200   148221 
  148296   148332   148263   148112   147933   147815   147806   147858 
  147934   147991   147970   147912   147946   148136   148425   148691 
  148813   148725   148468   148143   147830   147557   147329   147172 
  147110   147136   147243   147422   147672   147974   148252   148436 
  148524   148545   148533   148517   148497   148432   148300   148167 
  148119   148116   148080   148047   148090   148211   148383   148552 
  148602   148467   148194   147910   147737   147706   147756   147822 
  147870   147907   147935   147931   147892   147862   147908   148009 
  148089   148155   148215   148219   148184   148130   148031   147919 
  147846   147847   147968   148178   148358   148432   148413   148352 
  148281   148150   147931   147702   147569   147618   147814   148043 
  148254   148432   148522   148482   148350   148184   147985   147815 
  147788   147876   147966   148035   148115   148171   148178   148151 
  148085   147965   147799   147625   147514   147492   147518   147606 
  147792   148038   148265   148406   148448   148446   148440   148420 
  148371   148316   148279   148246   148209   148236   148365   148501 
  148536   148436   148194   147862   147560   147388   147339   147325 
  147280   147226   147237   147368   147592   147856   148084   148217 
  148294   148367   148396   148329   148203   148144   148275   148517 
  148667   148610   148375   148104   147923   147825   147787   147835 
  147945   148062   148159   148235   148316   148369   148344   148306 
  148316   148315   148282   148231   148149   148070   148034   147999 
  147930   147827   147712   147680   147798   148008   148205   148298 
  148269   148190   148158   148209   148278   148243   148076   147872 
  147733   147687   147708   147727   147715   147721   147776   147879 
  148001   148117   148244   148381   148452   148410   148266   148078 
  147941   147920   148020   148149   148215   148236   148220   148096 
  147892   147712   147596   147598   147750   147947   148065   148101 
  148130   148185   148213   148159   148047   147928   147850   147850 
  147954   148128   148267   148294   148213   148046   147856   147721 
  147633   147571   147582   147685   147806   147877   147942   148038 
  148099   148070   148016   148015   148088   148186   148258   148290 
  148312   148351   148406   148455   148501   148570   148632   148605 
  148466   148309   148188   148066   147924   147800   147788   147941 
  148117   148143   148042   147912   147795   147734   147788   147942 
  148132   148286   148332   148277   148177   148082   148024   147989 
  147943   147903   147884   147915   148059   148313   148527   148543 
  148366   148124   147922   147810   147768   147758   147777   147846 
  148009   148219   148308   148244   148184   148192   148221   148244 
  148259   148258   148196   148072   147973   147931   147901   147885 
  147897   147922   147928   147889   147847   147864   147889   147845 
  147719   147592   147559   147615   147690   147746   147804   147910 
  148080   148266   148423   148568   148706   148791   148780   148643 
  148377   148092   147910   147820   147779   147779   147800   147820 
  147843   147866   147914   148003   148078   148095   148068   148034 
  148027   148043   148047   148051   148101   148181   148238   148286 
  148375   148437   148387   148271   148162   148058   147954   147889 
  147912   147989   147997   147903   147820   147810   147825   147853 
  147916   147974   147987   148004   148090   148190   148257   148324 
  148393   148406   148350   148252   148135   148019   147951   147966 
  148034   148149   148294   148375   148366   148300   148201   148116 
  148035   147911   147807   147792   147792   147729   147642   147590 
  147580   147641   147803   148000   148112   148127   148140   148200 
  148247   148244   148227   148200   148132   148034   147935   147837 
  147749   147695   147667   147687   147776   147892   148016   148166 
  148289   148332   148325   148305   148248   148147   148055   148001 
  148016   148116   148225   148301   148365   148379   148346   148327 
  148290   148198   148122   148107   148132   148157   148123   147999 
  147846   147789   147845   147922   147991   148063   148116   148127 
  148107   148105   148132   148135   148131   148163   148173   148126 
  148051   147927   147771   147663   147617   147613   147640   147679 
  147742   147827   147939   148136   148393   148570   148595   148527 
  148424   148324   148255   148225   148184   148103   148030   147968 
  147872   147764   147708   147718   147761   147819   147892   148009 
  148163   148252   148176   147978   147804   147741   147798   147919 
  148039   148099   148055   147945   147866   147860   147901   148004 
  148154   148270   148324   148350   148356   148335   148313   148309 
  148300   148304   148331   148278   148122   147981   147908   147870 
  147872   147901   147950   148022   148099   148171   148182   148084 
  147972   147947   148004   148088   148144   148185   148244   148302 
  148325   148308   148244   148169   148115   148061   147993   147970 
  148027   148104   148151   148196   148239   148240   148184   148101 
  148030   147987   147973   147946   147872   147796   147768   147771 
  147781   147814   147881   147946   147997   148054   148105   148174 
  148266   148324   148347   148362   148348   148294   148198   148047 
  147891   147807   147789   147775   147762   147795   147872   147978 
  148103   148207   148259   148251   148155   148004   147885   147815 
  147768   147749   147788   147884   148012   148169   148316   148346 
  148231   148099   148042   148030   147976   147837   147704   147711 
  147852   148036   148201   148301   148316   148263   148176   148062 
  147937   147860   147889   147977   148050   148126   148184   148149 
  148047   147987   147984   147985   147987   148027   148088   148111 
  148077   148012   147964   147976   148070   148194   148262   148234 
  148140   148061   148038   148058   148081   148076   148045   148012 
