Origin Time       2025/03/30 22:55:00
Lat.              41.993
Long.             142.725
Depth. (km)       55
Mag.              4.6
Station Code      AOMH13
Station Lat.      40.5794
Station Long.     141.4451
Station Height(m) 10
Record Time       2025/03/30 22:56:49
Sampling Freq(Hz) 100Hz
Duration Time(s)  120
Dir.              6
Scale Factor      7845(gal)/8223790
Max. Acc. (gal)   0.464
Last Correction   2025/03/30 22:56:49
Memo.             
[...]
  -27602   -27558   -27581   -27665   -27676   -27587   -27548   -27614 
  -27672   -27660   -27634   -27607   -27562   -27550   -27596   -27625 
  -27607   -27598   -27599   -27568   -27526   -27515   -27533   -27572 
  -27633   -27679   -27664   -27583   -27522   -27538   -27591   -27649 
  -27697   -27712   -27680   -27602   -27548   -27572   -27608   -27629 
  -27646   -27649   -27639   -27600   -27549   -27565   -27641   -27700 
  -27689   -27600   -27499   -27479   -27542   -27594   -27616   -27665 
  -27677   -27618   -27587   -27580   -27544   -27529   -27565   -27641 
  -27729   -27760   -27683   -27554   -27481   -27486   -27506   -27546 
  -27673   -27828   -27854   -27689   -27486   -27415   -27495   -27631 
  -27720   -27711   -27669   -27660   -27645   -27616   -27625   -27649 
  -27633   -27571   -27514   -27513   -27531   -27537   -27552   -27575 
  -27595   -27600   -27599   -27623   -27618   -27562   -27552   -27587 
  -27623   -27688   -27754   -27741   -27645   -27542   -27515   -27561 
  -27595   -27583   -27572   -27583   -27583   -27585   -27630   -27688 
  -27716   -27693   -27626   -27571   -27571   -27596   -27604   -27599 
  -27604   -27638   -27662   -27604   -27494   -27472   -27576   -27685 
  -27720   -27716   -27703   -27664   -27592   -27533   -27564   -27657 
  -27688   -27625   -27541   -27514   -27553   -27589   -27588   -27569 
  -27558   -27603   -27665   -27645   -27591   -27602   -27653   -27669 
  -27627   -27572   -27558   -27614   -27683   -27654   -27538   -27465 
  -27473   -27508   -27533   -27558   -27619   -27710   -27785   -27801 
  -27738   -27662   -27648   -27641   -27598   -27575   -27565   -27499 
  -27432   -27491   -27641   -27733   -27710   -27633   -27580   -27560 
  -27544   -27557   -27604   -27631   -27635   -27652   -27676   -27685 
  -27653   -27612   -27606   -27595   -27588   -27606   -27602   -27596 
  -27585   -27534   -27540   -27629   -27696   -27675   -27565   -27464 
  -27490   -27607   -27680   -27650   -27583   -27530   -27500   -27542 
  -27629   -27676   -27689   -27658   -27595   -27585   -27587   -27571 
  -27615   -27649   -27587   -27525   -27531   -27588   -27662   -27708 
  -27718   -27693   -27641   -27627   -27668   -27662   -27608   -27581 
  -27565   -27545   -27573   -27625   -27621   -27591   -27583   -27596 
  -27603   -27565   -27544   -27600   -27629   -27579   -27535   -27514 
  -27503   -27546   -27645   -27715   -27688   -27604   -27580   -27645 
  -27700   -27654   -27567   -27545   -27569   -27592   -27612   -27641 
  -27687   -27685   -27625   -27607   -27618   -27591   -27583   -27611 
  -27610   -27581   -27580   -27600   -27588   -27561   -27581   -27627 
  -27638   -27608   -27589   -27622   -27662   -27641   -27585   -27548 
  -27549   -27584   -27633   -27704   -27758   -27712   -27622   -27558 
  -27521   -27545   -27610   -27633   -27615   -27606   -27649   -27719 
  -27697   -27603   -27579   -27642   -27723   -27756   -27679   -27548 
  -27502   -27549   -27584   -27568   -27519   -27463   -27446   -27490 
  -27567   -27630   -27645   -27623   -27592   -27589   -27649   -27733 
  -27768   -27724   -27611   -27525   -27533   -27567   -27562   -27540 
  -27527   -27602   -27747   -27783   -27665   -27546   -27500   -27521 
  -27580   -27619   -27622   -27602   -27575   -27571   -27600   -27656 
  -27689   -27679   -27643   -27610   -27603   -27600   -27557   -27510 
  -27511   -27546   -27595   -27626   -27615   -27615   -27654   -27661 
  -27598   -27550   -27599   -27677   -27702   -27684   -27631   -27573 
  -27568   -27546   -27476   -27483   -27580   -27638   -27635   -27627 
  -27616   -27621   -27648   -27653   -27638   -27643   -27648   -27629 
  -27603   -27579   -27585   -27607   -27592   -27568   -27549   -27496 
  -27449   -27453   -27515   -27611   -27656   -27652   -27696   -27749 
  -27722   -27650   -27602   -27602   -27642   -27693   -27733   -27749 
  -27711   -27603   -27522   -27531   -27561   -27611   -27666   -27619 
  -27548   -27604   -27697   -27724   -27741   -27724   -27665   -27679 
  -27747   -27734   -27618   -27503   -27465   -27502   -27573   -27658 
  -27695   -27618   -27513   -27504   -27552   -27561   -27542   -27521 
  -27503   -27517   -27569   -27615   -27595   -27522   -27449   -27394 
  -27414   -27537   -27629   -27648   -27672   -27699   -27711   -27742 
  -27774   -27785   -27756   -27683   -27626   -27604   -27603   -27631 
  -27662   -27652   -27619   -27638   -27693   -27707   -27676   -27630 
  -27554   -27510   -27562   -27629   -27608   -27540   -27552   -27641 
  -27642   -27541   -27503   -27581   -27650   -27619   -27568   -27594 
  -27642   -27622   -27557   -27504   -27472   -27449   -27460   -27529 
  -27587   -27558   -27499   -27496   -27549   -27584   -27561   -27518 
  -27504   -27552   -27668   -27760   -27737   -27653   -27619   -27623 
  -27573   -27522   -27576   -27648   -27654   -27676   -27685   -27670 
  -27741   -27838   -27789   -27619   -27499   -27527   -27602   -27581 
  -27521   -27525   -27577   -27608   -27606   -27600   -27608   -27650 
  -27703   -27660   -27518   -27419   -27454   -27602   -27749   -27793 
  -27722   -27581   -27463   -27434   -27480   -27567   -27654   -27681 
  -27648   -27610   -27599   -27619   -27650   -27641   -27591   -27558 
  -27558   -27584   -27661   -27762   -27800   -27738   -27612   -27492 
  -27418   -27394   -27469   -27634   -27730   -27684   -27581   -27517 
  -27567   -27712   -27826   -27842   -27789   -27703   -27604   -27513 
  -27498   -27592   -27679   -27665   -27619   -27635   -27689   -27688 
  -27616   -27525   -27484   -27540   -27641   -27734   -27815   -27826 
  -27762   -27693   -27616   -27571   -27600   -27599   -27537   -27499 
  -27469   -27454   -27519   -27604   -27621   -27592   -27556   -27498 
  -27475   -27554   -27645   -27658   -27627   -27584   -27538   -27494 
  -27487   -27556   -27635   -27643   -27603   -27560   -27535   -27527 
  -27526   -27553   -27584   -27588   -27595   -27588   -27544   -27531 
  -27569   -27660   -27808   -27905   -27868   -27761   -27660   -27602 
  -27594   -27608   -27657   -27738   -27773   -27700   -27585   -27507 
  -27486   -27517   -27572   -27604   -27621   -27608   -27560   -27541 
  -27568   -27606   -27641   -27652   -27664   -27699   -27679   -27589 
  -27518   -27499   -27495   -27490   -27517   -27575   -27607   -27595 
  -27592   -27669   -27792   -27791   -27616   -27453   -27421   -27481 
  -27611   -27754   -27826   -27812   -27715   -27567   -27502   -27579 
  -27650   -27616   -27521   -27427   -27438   -27583   -27693   -27703 
  -27699   -27683   -27650   -27638   -27641   -27649   -27639   -27625 
  -27645   -27641   -27573   -27523   -27519   -27522   -27504   -27460 
  -27456   -27542   -27645   -27662   -27622   -27658   -27754   -27734 
  -27577   -27453   -27500   -27664   -27773   -27783   -27734   -27637 
  -27564   -27568   -27596   -27588   -27554   -27552   -27591   -27611 
  -27612   -27614   -27599   -27569   -27514   -27426   -27386   -27464 
  -27600   -27679   -27679   -27650   -27611   -27585   -27576   -27537 
  -27521   -27580   -27648   -27683   -27645   -27533   -27459   -27448 
  -27450   -27488   -27557   -27625   -27672   -27653   -27569   -27542 
  -27645   -27789   -27838   -27773   -27714   -27735   -27778   -27778 
  -27787   -27800   -27723   -27596   -27535   -27534   -27594   -27676 
  -27652   -27544   -27472   -27449   -27461   -27496   -27521   -27568 
  -27657   -27730   -27733   -27684   -27648   -27654   -27677   -27653 
  -27569   -27477   -27409   -27403   -27486   -27549   -27537   -27534 
  -27550   -27554   -27533   -27503   -27548   -27633   -27641   -27658 
  -27758   -27868   -27940   -27884   -27648   -27426   -27392   -27515 
  -27670   -27730   -27688   -27638   -27607   -27595   -27627   -27689 
  -27739   -27762   -27754   -27691   -27595   -27560   -27612   -27670 
  -27676   -27637   -27552   -27456   -27432   -27465   -27513   -27581 
  -27656   -27691   -27691   -27683   -27716   -27769   -27724   -27608 
  -27558   -27588   -27646   -27672   -27638   -27625   -27642   -27603 
  -27499   -27413   -27432   -27503   -27491   -27422   -27430   -27506 
  -27565   -27621   -27711   -27780   -27750   -27683   -27642   -27592 
  -27553   -27573   -27589   -27575   -27583   -27622   -27643   -27622 
  -27558   -27472   -27441   -27542   -27702   -27820   -27885   -27864 
  -27762   -27672   -27631   -27641   -27673   -27637   -27517   -27423 
  -27413   -27461   -27549   -27595   -27538   -27472   -27461   -27465 
  -27515   -27629   -27737   -27819   -27876   -27889   -27870   -27796 
  -27669   -27550   -27464   -27417   -27403   -27409   -27476   -27589 
  -27634   -27581   -27515   -27517   -27552   -27519   -27441   -27368 
  -27333   -27422   -27583   -27679   -27739   -27784   -27714   -27556 
  -27480   -27579   -27724   -27773   -27770   -27765   -27703   -27630 
  -27650   -27707   -27675   -27604   -27626   -27672   -27607   -27500 
  -27481   -27538   -27603   -27665   -27685   -27554   -27361   -27325 
  -27433   -27558   -27664   -27712   -27720   -27724   -27706   -27688 
  -27685   -27680   -27704   -27729   -27661   -27519   -27411   -27411 
  -27450   -27432   -27434   -27517   -27581   -27598   -27612   -27608 
  -27571   -27522   -27486   -27491   -27521   -27558   -27662   -27826 
  -27904   -27862   -27820   -27792   -27739   -27681   -27608   -27548 
  -27575   -27654   -27679   -27626   -27598   -27657   -27695   -27652 
  -27594   -27550   -27513   -27461   -27405   -27430   -27548   -27670 
  -27777   -27842   -27784   -27666   -27621   -27622   -27572   -27518 
  -27553   -27589   -27545   -27508   -27508   -27490   -27475   -27507 
  -27581   -27691   -27837   -27970   -27972   -27801   -27596   -27515 
  -27552   -27584   -27604   -27670   -27712   -27711   -27751   -27783 
  -27735   -27680   -27649   -27626   -27596   -27552   -27545   -27610 
  -27677   -27676   -27616   -27553   -27494   -27445   -27414   -27364 
  -27322   -27348   -27442   -27577   -27662   -27652   -27629   -27583 
  -27490   -27454   -27491   -27517   -27546   -27626   -27746   -27827 
  -27841   -27850   -27850   -27807   -27743   -27677   -27638   -27614 
  -27540   -27432   -27349   -27349   -27469   -27645   -27762   -27780 
  -27749   -27726   -27675   -27579   -27522   -27534   -27572   -27588 
  -27576   -27599   -27657   -27697   -27722   -27693   -27606   -27541 
  -27494   -27448   -27456   -27513   -27571   -27610   -27650   -27712 
  -27714   -27616   -27548   -27565   -27558   -27506   -27507   -27564 
  -27608   -27641   -27662   -27630   -27564   -27526   -27575   -27710 
  -27811   -27800   -27707   -27562   -27464   -27491   -27545   -27569 
  -27583   -27515   -27384   -27344   -27476   -27703   -27865   -27859 
  -27746   -27643   -27589   -27553   -27558   -27626   -27676   -27648 
  -27548   -27444   -27432   -27499   -27545   -27538   -27527   -27564 
  -27633   -27696   -27746   -27754   -27726   -27697   -27673   -27666 
  -27677   -27662   -27633   -27638   -27662   -27633   -27492   -27363 
  -27392   -27477   -27498   -27525   -27604   -27708   -27758   -27714 
  -27681   -27710   -27742   -27800   -27864   -27834   -27692   -27503 
  -27387   -27387   -27425   -27446   -27450   -27445   -27487   -27612 
  -27737   -27773   -27778   -27819   -27846   -27841   -27787   -27633 
  -27480   -27423   -27399   -27388   -27380   -27360   -27396   -27468 
  -27515   -27583   -27661   -27716   -27731   -27676   -27606   -27584 
  -27576   -27583   -27611   -27612   -27576   -27562   -27629   -27720 
  -27708   -27634   -27626   -27646   -27607   -27534   -27522   -27619 
  -27780   -27881   -27855   -27756   -27649   -27587   -27575   -27538 
  -27475   -27441   -27391   -27363   -27450   -27557   -27594   -27599 
  -27595   -27607   -27668   -27774   -27912   -28004   -27981   -27866 
  -27742   -27681   -27646   -27572   -27449   -27297   -27206   -27243 
  -27324   -27403   -27513   -27618   -27685   -27724   -27747   -27764 
  -27772   -27801   -27865   -27897   -27845   -27734   -27607   -27502 
  -27468   -27494   -27488   -27433   -27414   -27437   -27469   -27533 
  -27579   -27585   -27633   -27687   -27680   -27666   -27676   -27700 
  -27718   -27685   -27639   -27635   -27668   -27703   -27673   -27534 
  -27361   -27306   -27429   -27612   -27692   -27672   -27657   -27699 
  -27762   -27788   -27741   -27652   -27611   -27657   -27695   -27639 
  -27515   -27407   -27369   -27398   -27448   -27473   -27487   -27557 
  -27650   -27672   -27657   -27650   -27662   -27724   -27762   -27697 
  -27618   -27625   -27666   -27669   -27645   -27658   -27691   -27681 
  -27652   -27614   -27538   -27467   -27445   -27495   -27612   -27697 
  -27677   -27606   -27525   -27446   -27429   -27491   -27526   -27507 
  -27518   -27538   -27507   -27488   -27556   -27687   -27783   -27792 
  -27769   -27729   -27681   -27720   -27819   -27842   -27777   -27689 
  -27637   -27629   -27621   -27629   -27627   -27548   -27469   -27473 
  -27527   -27599   -27638   -27646   -27681   -27711   -27691   -27641 
  -27598   -27604   -27646   -27650   -27615   -27596   -27606   -27606 
  -27560   -27500   -27469   -27464   -27465   -27465   -27476   -27511 
  -27567   -27608   -27591   -27552   -27541   -27523   -27504   -27545 
  -27587   -27573   -27567   -27618   -27726   -27837   -27897   -27882 
  -27770   -27633   -27607   -27669   -27693   -27697   -27737   -27715 
  -27567   -27411   -27334   -27291   -27252   -27195   -27129   -27121 
  -27199   -27342   -27484   -27538   -27571   -27692   -27822   -27862 
  -27843   -27818   -27800   -27781   -27791   -27834   -27842   -27803 
  -27801   -27818   -27749   -27622   -27554   -27558   -27569   -27561 
  -27523   -27465   -27449   -27496   -27585   -27657   -27666   -27697 
  -27742   -27638   -27465   -27409   -27411   -27394   -27399   -27438 
  -27508   -27584   -27602   -27557   -27544   -27581   -27611   -27660 
  -27765   -27858   -27900   -27923   -27924   -27893   -27831   -27756 
  -27707   -27683   -27645   -27580   -27510   -27480   -27476   -27461 
  -27461   -27477   -27506   -27540   -27544   -27576   -27666   -27726 
  -27766   -27827   -27837   -27776   -27670   -27575   -27558   -27602 
  -27630   -27627   -27608   -27581   -27554   -27552   -27568   -27567 
  -27581   -27657   -27757   -27834   -27850   -27816   -27807   -27805 
  -27758   -27691   -27608   -27521   -27491   -27513   -27514   -27499 
  -27517   -27548   -27538   -27514   -27534   -27585   -27585   -27511 
  -27487   -27572   -27666   -27718   -27716   -27650   -27608   -27630 
  -27633   -27608   -27600   -27616   -27639   -27631   -27583   -27508 
  -27418   -27351   -27325   -27340   -27391   -27425   -27430   -27419 
  -27392   -27459   -27641   -27773   -27780   -27722   -27646   -27573 
  -27531   -27546   -27589   -27610   -27621   -27615   -27595   -27599 
  -27623   -27641   -27643   -27637   -27645   -27654   -27656   -27652 
  -27588   -27490   -27454   -27496   -27588   -27693   -27770   -27799 
  -27764   -27689   -27654   -27683   -27729   -27733   -27676   -27594 
  -27515   -27472   -27468   -27454   -27445   -27500   -27598   -27648 
  -27604   -27519   -27496   -27525   -27550   -27594   -27642   -27639 
  -27585   -27525   -27508   -27514   -27494   -27477   -27515   -27585 
  -27621   -27615   -27627   -27676   -27754   -27839   -27857   -27839 
  -27888   -27950   -27930   -27841   -27737   -27660   -27615   -27579 
  -27550   -27533   -27527   -27537   -27572   -27633   -27641   -27565 
  -27499   -27468   -27459   -27506   -27589   -27652   -27688   -27680 
  -27618   -27546   -27527   -27568   -27581   -27533   -27515   -27550 
  -27606   -27710   -27827   -27851   -27774   -27684   -27619   -27575 
  -27584   -27642   -27688   -27693   -27646   -27608   -27637   -27656 
  -27646   -27649   -27616   -27562   -27544   -27538   -27556   -27602 
  -27608   -27552   -27481   -27457   -27511   -27622   -27704   -27684 
  -27603   -27548   -27546   -27591   -27610   -27549   -27491   -27514 
  -27584   -27650   -27706   -27747   -27756   -27730   -27699   -27666 
  -27648   -27661   -27662   -27629   -27603   -27596   -27615   -27664 
  -27702   -27669   -27558   -27456   -27440   -27446   -27427   -27441 
  -27487   -27498   -27448   -27384   -27372   -27425   -27510   -27562 
  -27523   -27467   -27479   -27533   -27562   -27554   -27568   -27642 
  -27695   -27700   -27708   -27714   -27693   -27656   -27626   -27646 
  -27704   -27769   -27815   -27812   -27807   -27815   -27784   -27739 
  -27719   -27683   -27615   -27546   -27484   -27440   -27444   -27492 
  -27548   -27585   -27594   -27589   -27625   -27687   -27696   -27641 
  -27575   -27550   -27581   -27602   -27576   -27508   -27418   -27378 
  -27405   -27448   -27498   -27558   -27610   -27631   -27618   -27638 
  -27726   -27789   -27792   -27780   -27747   -27689   -27658   -27691 
  -27735   -27730   -27702   -27680   -27676   -27715   -27760   -27747 
  -27677   -27587   -27552   -27580   -27580   -27554   -27527   -27472 
  -27429   -27445   -27491   -27550   -27604   -27641   -27656   -27623 
  -27575   -27550   -27534   -27517   -27522   -27585   -27666   -27689 
  -27645   -27565   -27521   -27583   -27676   -27687   -27626   -27546 
  -27507   -27554   -27604   -27591   -27584   -27598   -27571   -27526 
  -27537   -27610   -27670   -27695   -27700   -27685   -27664   -27673 
  -27724   -27764   -27727   -27646   -27565   -27502   -27508   -27587 
  -27664   -27704   -27703   -27656   -27579   -27527   -27530   -27558 
  -27594   -27630   -27626   -27587   -27556   -27540   -27529   -27506 
  -27483   -27487   -27500   -27519   -27550   -27576   -27606   -27622 
  -27615   -27637   -27649   -27616   -27606   -27642   -27699   -27726 
  -27680   -27652   -27696   -27716   -27689   -27676   -27687   -27716 
  -27733   -27714   -27695   -27693   -27672   -27615   -27557   -27525 
  -27521   -27534   -27552   -27577   -27594   -27564   -27529   -27548 
  -27583   -27602   -27619   -27616   -27618   -27646   -27669   -27677 
  -27665   -27643   -27626   -27583   -27526   -27491   -27473   -27490 
  -27515   -27504   -27498   -27541   -27592   -27600   -27581   -27603 
  -27673   -27719   -27703   -27669   -27679   -27715   -27691   -27621 
  -27589   -27606   -27638   -27641   -27614   -27585   -27534   -27487 
  -27514   -27589   -27658   -27704   -27707   -27675   -27639   -27615 
  -27602   -27587   -27610   -27683   -27704   -27641   -27572   -27552 
  -27549   -27531   -27526   -27550   -27576   -27612   -27653   -27665 
  -27665   -27672   -27691   -27708   -27693   -27648   -27580   -27490 
  -27407   -27342   -27298   -27310   -27387   -27492   -27558   -27565 
  -27576   -27600   -27615   -27630   -27631   -27633   -27681   -27753 
  -27784   -27756   -27695   -27635   -27580   -27546   -27569   -27602 
  -27607   -27614   -27631   -27664   -27689   -27683   -27660   -27619 
  -27573   -27565   -27562   -27534   -27518   -27518   -27508   -27502 
  -27523   -27560   -27569   -27562   -27577   -27625   -27681   -27706 
  -27704   -27700   -27650   -27573   -27537   -27530   -27545   -27591 
  -27627   -27634   -27607   -27557   -27545   -27567   -27568   -27564 
  -27577   -27607   -27657   -27706   -27727   -27716   -27703   -27702 
