Origin Time       2025/03/30 22:55:00
Lat.              41.993
Long.             142.725
Depth. (km)       55
Mag.              4.6
Station Code      AOMH17
Station Lat.      40.4492
Station Long.     141.3374
Station Height(m) -49.1
Record Time       2025/03/30 22:56:53
Sampling Freq(Hz) 100Hz
Duration Time(s)  120
Dir.              3
Scale Factor      3923(gal)/8224838
Max. Acc. (gal)   0.183
Last Correction   2025/03/30 22:56:53
Memo.             
[...]
    9200     9252     9306     9296     9208     9123     9116     9162 
    9197     9201     9202     9243     9275     9252     9227     9228 
    9231     9244     9270     9248     9188     9162     9190     9221 
    9220     9204     9201     9212     9224     9227     9223     9247 
    9281     9262     9197     9155     9167     9213     9231     9200 
    9181     9188     9196     9223     9242     9227     9219     9209 
    9194     9219     9252     9259     9273     9305     9309     9248 
    9173     9146     9165     9180     9181     9212     9248     9232 
    9216     9227     9219     9201     9202     9202     9184     9174 
    9205     9243     9247     9238     9239     9244     9244     9224 
    9198     9178     9155     9169     9227     9263     9281     9288 
    9251     9209     9205     9216     9223     9227     9251     9288 
    9259     9186     9162     9189     9215     9207     9174     9167 
    9219     9259     9234     9200     9216     9229     9205     9212 
    9252     9215     9109     9070     9113     9150     9170     9197 
    9200     9189     9217     9242     9217     9212     9235     9234 
    9228     9223     9207     9205     9196     9166     9167     9217 
    9258     9250     9238     9246     9221     9167     9162     9225 
    9292     9289     9239     9234     9275     9279     9250     9240 
    9227     9197     9192     9211     9221     9225     9231     9244 
    9282     9315     9298     9270     9244     9196     9150     9124 
    9105     9120     9181     9235     9262     9296     9292     9228 
    9208     9248     9261     9244     9234     9224     9201     9171 
    9177     9197     9178     9153     9165     9205     9261     9309 
    9319     9283     9247     9228     9224     9238     9238     9184 
    9109     9094     9153     9236     9294     9269     9169     9107 
    9151     9250     9308     9304     9269     9221     9201     9202 
    9200     9212     9232     9211     9159     9142     9167     9189 
    9182     9181     9202     9212     9212     9247     9273     9244 
    9217     9215     9201     9177     9147     9146     9163     9139 
    9097     9105     9153     9204     9250     9261     9225     9189 
    9184     9229     9300     9333     9327     9308     9270     9231 
    9227     9234     9240     9239     9213     9192     9209     9244 
    9266     9278     9269     9234     9216     9234     9248     9220 
    9173     9162     9192     9223     9236     9248     9254     9240 
    9224     9212     9219     9254     9250     9202     9204     9248 
    9261     9238     9209     9182     9175     9169     9170     9196 
    9211     9198     9182     9170     9180     9204     9217     9225 
    9239     9255     9248     9220     9205     9207     9188     9146 
    9132     9196     9250     9229     9213     9227     9224     9213 
    9216     9250     9283     9266     9240     9244     9248     9247 
    9217     9155     9143     9192     9221     9196     9170     9178 
    9184     9158     9150     9174     9192     9207     9229     9242 
    9232     9208     9223     9286     9316     9290     9262     9223 
    9169     9140     9182     9251     9258     9216     9175     9151 
    9174     9216     9228     9239     9256     9252     9236     9228 
    9213     9202     9217     9243     9261     9248     9216     9207 
    9224     9224     9185     9143     9134     9163     9211     9261 
    9317     9339     9300     9247     9216     9204     9180     9153 
    9158     9167     9157     9171     9209     9232     9232     9223 
    9208     9204     9232     9278     9301     9292     9263     9219 
    9184     9188     9205     9216     9239     9255     9225     9207 
    9231     9240     9217     9211     9236     9234     9174     9128 
    9134     9165     9201     9224     9234     9240     9223     9182 
    9161     9146     9124     9128     9158     9212     9282     9297 
    9248     9234     9273     9278     9240     9221     9219     9198 
    9178     9177     9184     9202     9242     9293     9321     9319 
    9289     9250     9225     9213     9188     9171     9197     9236 
    9235     9192     9151     9143     9147     9177     9256     9315 
    9298     9261     9244     9263     9273     9215     9162     9173 
    9181     9166     9196     9256     9279     9243     9194     9175 
    9188     9204     9202     9212     9242     9242     9209     9202 
    9213     9212     9190     9161     9167     9223     9266     9266 
    9244     9215     9188     9166     9161     9197     9244     9266 
    9266     9251     9247     9234     9184     9163     9177     9151 
    9121     9138     9165     9185     9216     9243     9244     9247 
    9251     9246     9261     9273     9219     9161     9180     9239 
    9265     9265     9259     9229     9189     9188     9219     9246 
    9242     9225     9250     9282     9239     9169     9162     9205 
    9250     9263     9231     9190     9175     9194     9252     9289 
    9256     9213     9204     9209     9232     9274     9293     9267 
    9234     9224     9219     9200     9171     9169     9209     9239 
    9219     9184     9165     9166     9205     9240     9231     9207 
    9186     9173     9200     9250     9273     9248     9186     9146 
    9171     9223     9261     9265     9221     9165     9154     9188 
    9215     9220     9212     9185     9161     9146     9151     9208 
    9281     9305     9278     9228     9180     9150     9166     9216 
    9235     9201     9167     9170     9219     9277     9288     9261 
    9242     9211     9158     9155     9207     9202     9154     9159 
    9208     9223     9225     9263     9306     9310     9274     9240 
    9243     9248     9235     9224     9219     9212     9219     9251 
    9274     9248     9194     9155     9146     9173     9239     9298 
    9288     9228     9197     9201     9198     9205     9244     9258 
    9217     9166     9139     9153     9208     9255     9263     9271 
    9273     9239     9217     9240     9242     9192     9153     9154 
    9182     9225     9244     9229     9212     9200     9204     9238 
    9259     9228     9193     9171     9151     9182     9229     9231 
    9220     9216     9212     9239     9289     9324     9298     9216 
    9161     9169     9196     9224     9252     9235     9173     9148 
    9186     9225     9238     9232     9217     9213     9234     9228 
    9193     9178     9174     9169     9190     9238     9270     9248 
    9184     9148     9173     9225     9247     9220     9198     9208 
    9196     9170     9193     9227     9223     9225     9217     9182 
    9190     9234     9255     9259     9235     9194     9186     9213 
    9252     9263     9224     9181     9185     9236     9297     9323 
    9293     9219     9157     9158     9184     9175     9161     9184 
    9224     9251     9269     9300     9301     9258     9244     9261 
    9244     9219     9234     9238     9192     9151     9167     9221 
    9250     9224     9196     9212     9231     9223     9204     9194 
    9198     9184     9161     9180     9213     9220     9200     9170 
    9173     9190     9180     9186     9235     9261     9236     9205 
    9196     9201     9212     9217     9225     9231     9231     9231 
    9211     9159     9119     9126     9167     9216     9251     9256 
    9232     9201     9190     9213     9254     9279     9281     9279 
    9258     9209     9174     9182     9223     9255     9254     9248 
    9232     9184     9171     9223     9277     9286     9261     9238 
    9231     9231     9228     9221     9209     9194     9173     9170 
    9207     9236     9220     9188     9170     9170     9177     9186 
    9211     9251     9273     9271     9269     9266     9248     9212 
    9186     9197     9224     9221     9185     9173     9209     9238 
    9238     9248     9251     9216     9184     9185     9216     9248 
    9217     9150     9139     9196     9251     9278     9277     9240 
    9193     9167     9158     9184     9243     9267     9250     9247 
    9228     9192     9198     9239     9265     9255     9231     9242 
    9266     9250     9216     9197     9190     9200     9235     9275 
    9269     9221     9178     9151     9162     9196     9190     9159 
    9144     9150     9167     9182     9188     9193     9184     9180 
    9229     9285     9281     9228     9181     9194     9256     9279 
    9252     9242     9256     9273     9271     9246     9221     9217 
    9220     9228     9265     9294     9274     9244     9232     9207 
    9180     9192     9231     9242     9221     9225     9242     9211 
    9159     9140     9157     9180     9192     9197     9188     9166 
    9163     9180     9184     9175     9169     9186     9215     9212 
    9196     9205     9221     9205     9163     9159     9201     9225 
    9223     9225     9243     9261     9266     9275     9283     9252 
    9211     9208     9221     9236     9261     9270     9259     9240 
    9204     9169     9177     9220     9255     9261     9228     9198 
    9209     9227     9217     9223     9248     9252     9258     9273 
    9242     9173     9113     9085     9097     9124     9151     9184 
    9209     9244     9273     9258     9244     9270     9290     9282 
    9266     9255     9240     9223     9207     9177     9151     9162 
    9186     9198     9208     9221     9252     9300     9306     9248 
    9184     9180     9217     9236     9244     9258     9246     9219 
    9212     9224     9234     9207     9175     9186     9204     9227 
    9248     9225     9202     9216     9221     9190     9161     9181 
    9236     9256     9228     9197     9201     9216     9215     9232 
    9258     9239     9213     9232     9248     9224     9194     9201 
    9239     9236     9174     9143     9163     9180     9192     9205 
    9202     9194     9205     9250     9283     9254     9205     9189 
    9189     9180     9190     9225     9220     9177     9166     9196 
    9239     9278     9309     9320     9300     9275     9261     9263 
    9304     9312     9255     9205     9180     9194     9246     9275 
    9281     9259     9200     9167     9177     9177     9154     9121 
    9105     9131     9193     9263     9288     9246     9186     9158 
    9166     9211     9258     9256     9212     9188     9234     9293 
    9313     9296     9238     9167     9146     9180     9227     9238 
    9200     9169     9159     9134     9116     9131     9136     9116 
    9126     9204     9277     9286     9283     9315     9355     9355 
    9313     9309     9370     9433     9441     9370     9270     9221 
    9201     9161     9123     9084     9043     9058     9120     9162 
    9165     9173     9200     9200     9200     9246     9271     9227 
    9173     9167     9193     9189     9144     9119     9154     9216 
    9261     9270     9262     9247     9227     9212     9202     9177 
    9112     9047     9042     9085     9139     9192     9239     9275 
    9292     9296     9301     9301     9289     9267     9261     9283 
    9304     9286     9213     9135     9105     9119     9165     9239 
    9319     9356     9310     9216     9167     9177     9188     9163 
    9123     9093     9092     9127     9171     9193     9219     9263 
    9300     9331     9350     9320     9254     9217     9240     9248 
    9200     9143     9139     9209     9290     9298     9278     9304 
    9360     9405     9424     9409     9367     9333     9317     9279 
    9190     9077     9013     9019     9045     9090     9140     9136 
    9113     9084     9036     9024     9046     9051     9039     9028 
    9034     9053     9088     9169     9270     9331     9362     9421 
    9481     9474     9455     9499     9537     9490     9385     9305 
    9294     9281     9215     9136     9092     9107     9138     9124 
    9128     9202     9294     9332     9308     9293     9290     9240 
    9194     9205     9185     9097     9047     9115     9234     9289 
    9286     9282     9293     9321     9336     9310     9266     9219 
    9188     9158     9085     9016     8992     8995     9024     9043 
    9016     8977     8959     8966     9011     9101     9236     9370 
    9418     9354     9266     9251     9292     9319     9329     9329 
    9285     9235     9239     9243     9217     9202     9181     9162 
    9184     9236     9316     9402     9420     9369     9320     9327 
    9366     9348     9279     9219     9136     9042     9019     9050 
    9081     9115     9144     9190     9274     9339     9377     9413 
    9398     9367     9390     9378     9279     9217     9224     9209 
    9158     9082     8992     8924     8899     8910     8947     9013 
    9131     9246     9281     9283     9301     9292     9248     9227 
    9258     9317     9370     9421     9432     9340     9200     9124 
    9143     9198     9200     9124     9045     9051     9146     9238 
    9251     9167     9069     9065     9151     9254     9319     9285 
    9173     9112     9151     9188     9155     9105     9119     9207 
    9320     9427     9493     9471     9401     9352     9312     9271 
    9261     9277     9302     9302     9293     9325     9351     9336 
    9321     9285     9221     9196     9236     9298     9308     9255 
    9200     9188     9196     9154     9076     9013     8922     8833 
    8846     8918     8970     9013     9058     9094     9115     9136 
    9171     9211     9258     9300     9327     9344     9347     9351 
    9366     9355     9328     9281     9207     9173     9185     9169 
    9151     9185     9250     9310     9373     9463     9533     9510 
    9418     9292     9132     9000     8989     9109     9243     9316 
    9346     9329     9315     9350     9363     9301     9200     9121 
    9120     9142     9119     9088     9070     9051     9039     9032 
    9039     9072     9113     9126     9097     9063     9054     9089 
    9181     9265     9266     9213     9197     9250     9327     9369 
    9339     9315     9397     9531     9597     9547     9420     9304 
    9256     9252     9227     9174     9138     9147     9182     9209 
    9235     9251     9232     9197     9184     9163     9136     9146 
    9170     9188     9215     9231     9216     9175     9148     9153 
    9165     9202     9281     9333     9323     9301     9297     9265 
    9198     9161     9174     9171     9111     9040     9036     9092 
    9134     9178     9248     9247     9181     9153     9123     9062 
    9039     9061     9078     9069     9047     9084     9192     9302 
    9382     9421     9420     9406     9393     9366     9328     9273 
    9228     9259     9296     9243     9182     9221     9289     9288 
    9219     9131     9111     9204     9332     9404     9385     9302 
    9192     9069     8973     8949     8972     8997     9027     9066 
    9103     9153     9224     9270     9255     9212     9194     9192 
    9209     9294     9390     9389     9327     9292     9309     9381 
    9443     9427     9374     9309     9242     9227     9270     9317 
    9352     9379     9375     9286     9135     9054     9104     9178 
    9207     9244     9309     9339     9286     9198     9144     9109 
    9062     9046     9078     9092     9078     9112     9185     9201 
    9155     9139     9184     9242     9266     9265     9273     9256 
    9204     9185     9194     9166     9119     9109     9135     9178 
    9231     9278     9306     9302     9293     9317     9344     9293 
    9197     9175     9232     9266     9261     9270     9296     9292 
    9236     9196     9204     9185     9146     9178     9244     9271 
    9296     9342     9379     9406     9421     9389     9286     9161 
    9066     9019     9028     9050     9026     8973     8935     8932 
    8961     9001     9073     9182     9297     9377     9404     9398 
    9366     9305     9254     9221     9173     9111     9101     9147 
    9170     9161     9134     9103     9116     9177     9244     9278 
    9278     9289     9304     9304     9313     9356     9406     9405 
    9346     9281     9221     9174     9148     9127     9131     9185 
    9244     9262     9231     9198     9197     9170     9105     9067 
    9061     9062     9093     9144     9175     9185     9197     9238 
    9309     9347     9329     9320     9327     9320     9319     9348 
    9371     9359     9331     9296     9261     9247     9254     9261 
    9277     9294     9278     9242     9217     9189     9161     9173 
    9216     9256     9261     9211     9151     9166     9232     9267 
    9265     9238     9181     9134     9096     9032     8992     9022 
    9063     9051     9000     8951     8937     8964     9008     9085 
    9189     9247     9270     9328     9420     9512     9568     9548 
    9459     9358     9308     9304     9288     9248     9220     9227 
    9259     9270     9232     9155     9094     9096     9148     9236 
    9355     9467     9501     9431     9321     9256     9238     9228 
    9198     9153     9153     9205     9225     9184     9139     9131 
    9140     9143     9134     9086     8992     8901     8870     8962 
    9146     9285     9333     9328     9310     9310     9312     9316 
    9346     9371     9346     9285     9265     9274     9267     9259 
    9240     9196     9163     9163     9211     9269     9246     9177 
    9163     9192     9174     9124     9108     9103     9067     9036 
    9067     9157     9209     9169     9099     9062     9082     9155 
    9236     9304     9350     9347     9319     9313     9319     9321 
    9335     9354     9394     9431     9412     9350     9275     9190 
    9128     9117     9159     9229     9273     9277     9277     9290 
    9292     9239     9161     9128     9108     9078     9101     9175 
    9224     9221     9188     9166     9157     9116     9058     9057 
    9107     9138     9154     9194     9243     9255     9211     9153 
    9136     9151     9178     9223     9259     9273     9271     9277 
    9283     9254     9227     9262     9292     9274     9265     9261 
    9242     9225     9207     9154     9081     9043     9081     9169 
    9247     9277     9267     9267     9293     9325     9346     9337 
    9316     9316     9321     9315     9293     9254     9250     9288 
    9306     9324     9354     9360     9342     9335     9358     9354 
    9296     9258     9243     9193     9121     9063     9020     8985 
    8961     8977     9039     9105     9130     9117     9135     9200 
    9262     9300     9310     9290     9250     9219     9219     9239 
    9243     9217     9173     9142     9138     9153     9166     9151 
    9132     9136     9158     9178     9181     9174     9154     9117 
    9119     9167     9208     9229     9221     9189     9185     9240 
    9332     9389     9369     9331     9294     9250     9240     9270 
    9294     9327     9378     9432     9455     9428     9374     9329 
    9301     9302     9321     9300     9247     9209     9162     9092 
    9031     8995     8988     9007     9008     8977     8955     8969 
