Origin Time       2025/03/30 22:55:00
Lat.              41.993
Long.             142.725
Depth. (km)       55
Mag.              4.6
Station Code      AOMH13
Station Lat.      40.5794
Station Long.     141.4451
Station Height(m) -140
Record Time       2025/03/30 22:56:49
Sampling Freq(Hz) 100Hz
Duration Time(s)  120
Dir.              3
Scale Factor      2942(gal)/8224139
Max. Acc. (gal)   0.144
Last Correction   2025/03/30 22:56:49
Memo.             
[...]
  160826   160890   160901   160875   160845   160764   160656   160624 
  160662   160704   160722   160728   160764   160807   160820   160841 
  160849   160795   160728   160697   160685   160713   160802   160884 
  160911   160890   160817   160759   160791   160833   160805   160739 
  160693   160704   160731   160714   160704   160740   160756   160725 
  160721   160756   160780   160803   160824   160809   160779   160768 
  160790   160828   160834   160814   160790   160756   160737   160753 
  160751   160712   160685   160705   160763   160826   160879   160894 
  160861   160840   160853   160864   160863   160856   160841   160817 
  160753   160685   160675   160720   160780   160803   160798   160822 
  160828   160772   160752   160822   160883   160851   160805   160797 
  160762   160720   160745   160780   160768   160767   160794   160786 
  160766   160803   160855   160843   160801   160790   160793   160782 
  160766   160741   160739   160752   160740   160725   160741   160764 
  160793   160829   160832   160816   160843   160866   160833   160786 
  160768   160787   160824   160839   160793   160708   160658   160677 
  160744   160809   160828   160825   160803   160764   160755   160758 
  160739   160748   160816   160867   160840   160766   160668   160579 
  160587   160702   160834   160918   160930   160887   160803   160686 
  160641   160718   160825   160907   160933   160894   160830   160764 
  160694   160640   160637   160708   160779   160799   160805   160799 
  160768   160739   160755   160805   160853   160893   160891   160813 
  160712   160675   160724   160786   160787   160751   160729   160702 
  160659   160679   160786   160899   160929   160876   160824   160798 
  160778   160774   160783   160809   160824   160791   160753   160724 
  160678   160647   160635   160656   160749   160849   160886   160864 
  160826   160828   160859   160857   160825   160779   160732   160667 
  160582   160571   160664   160774   160845   160851   160828   160833 
  160855   160852   160822   160816   160861   160909   160903   160818 
  160701   160648   160666   160681   160685   160708   160767   160829 
  160836   160794   160774   160822   160909   160925   160875   160864 
  160868   160822   160776   160735   160668   160636   160660   160681 
  160659   160678   160780   160822   160783   160829   160936   160965 
  160902   160817   160771   160770   160782   160774   160716   160640 
  160625   160678   160744   160774   160751   160747   160828   160890 
  160879   160863   160832   160776   160740   160713   160744   160837 
  160866   160802   160733   160737   160818   160880   160844   160728 
  160648   160685   160762   160805   160832   160839   160816   160766 
  160725   160740   160751   160722   160733   160766   160749   160787 
  160920   160988   160949   160884   160813   160752   160714   160712 
  160755   160758   160708   160704   160720   160724   160779   160836 
  160820   160797   160826   160874   160903   160882   160814   160751 
  160694   160641   160662   160745   160799   160824   160872   160872 
  160790   160724   160735   160810   160876   160828   160745   160774 
  160840   160863   160868   160845   160798   160743   160713   160778 
  160853   160829   160778   160767   160751   160717   160712   160725 
  160708   160683   160731   160824   160888   160890   160849   160821 
  160805   160758   160698   160698   160766   160805   160780   160760 
  160743   160689   160662   160693   160722   160751   160814   160844 
  160814   160802   160825   160836   160782   160694   160706   160809 
  160847   160798   160735   160682   160682   160753   160813   160821 
  160818   160807   160797   160813   160834   160825   160763   160694 
  160660   160670   160747   160828   160829   160760   160687   160713 
  160825   160901   160895   160857   160837   160852   160880   160847 
  160716   160617   160637   160694   160729   160763   160816   160863 
  160861   160844   160879   160938   160937   160849   160751   160714 
  160728   160705   160629   160593   160652   160772   160883   160918 
  160866   160817   160841   160859   160826   160822   160861   160871 
  160821   160740   160678   160663   160695   160735   160732   160735 
  160789   160821   160816   160830   160848   160839   160822   160806 
  160798   160813   160825   160809   160787   160795   160836   160875 
  160883   160868   160856   160832   160812   160836   160859   160843 
  160818   160797   160783   160756   160668   160585   160609   160699 
  160756   160768   160762   160729   160687   160664   160693   160780 
  160847   160860   160857   160810   160739   160743   160789   160752 
  160678   160644   160601   160585   160641   160654   160617   160629 
  160695   160780   160824   160825   160817   160764   160722   160776 
  160861   160867   160805   160752   160718   160693   160712   160753 
  160745   160726   160799   160930   161030   161084   161048   160924 
  160824   160787   160760   160725   160689   160645   160616   160618 
  160671   160748   160782   160771   160756   160768   160828   160926 
  160992   160949   160841   160770   160728   160704   160712   160714 
  160677   160640   160697   160807   160814   160752   160782   160860 
  160844   160755   160725   160771   160795   160735   160643   160633 
  160687   160713   160726   160789   160856   160851   160810   160834 
  160913   160967   160987   160983   160971   160979   160983   160937 
  160837   160753   160759   160812   160825   160832   160925   161032 
  161007   160930   160903   160851   160782   160755   160695   160606 
  160613   160739   160824   160780   160741   160795   160880   160929 
  160918   160884   160864   160829   160751   160641   160558   160560 
  160672   160824   160867   160780   160681   160640   160689   160809 
  160930   161002   160992   160913   160786   160686   160685   160724 
  160731   160721   160733   160806   160910   160945   160911   160870 
  160809   160745   160744   160805   160875   160895   160878   160840 
  160753   160654   160624   160668   160717   160731   160716   160672 
  160609   160552   160521   160510   160543   160633   160717   160747 
  160783   160870   160913   160847   160733   160668   160695   160789 
  160849   160832   160766   160666   160562   160536   160605   160726 
  160843   160855   160759   160697   160731   160790   160844   160874 
  160875   160895   160907   160853   160780   160740   160698   160641 
  160629   160674   160718   160745   160812   160957   161091   161091 
  161017   160983   160963   160909   160849   160795   160733   160695 
  160726   160779   160798   160799   160813   160821   160834   160857 
  160820   160706   160597   160536   160540   160608   160712   160805 
  160825   160780   160766   160818   160866   160874   160872   160859 
  160825   160766   160658   160539   160515   160582   160655   160697 
  160710   160694   160670   160655   160694   160799   160890   160924 
  160940   160940   160902   160859   160864   160929   160951   160870 
  160772   160755   160833   160902   160857   160748   160647   160583 
  160563   160558   160594   160699   160779   160776   160747   160741 
  160764   160812   160848   160864   160922   161010   161030   160952 
  160810   160637   160500   160473   160558   160654   160704   160772 
  160870   160891   160857   160883   160944   160937   160856   160749 
  160693   160729   160760   160699   160627   160641   160744   160834 
  160814   160745   160712   160714   160774   160859   160911   160910 
  160851   160798   160775   160736   160706   160733   160789   160849 
  160926   161018   161076   161098   161087   160994   160874   160847 
  160870   160848   160786   160675   160564   160537   160547   160536 
  160544   160605   160725   160860   160949   160992   160992   160914 
  160790   160721   160717   160736   160774   160780   160708   160616 
  160578   160616   160721   160840   160932   160968   160921   160856 
  160839   160803   160724   160670   160650   160641   160705   160814 
  160868   160866   160849   160894   161013   161088   161045   160937 
  160852   160832   160814   160758   160728   160737   160722   160716 
  160763   160783   160745   160739   160748   160718   160671   160612 
  160562   160589   160663   160729   160814   160879   160847   160759 
  160675   160640   160704   160802   160825   160771   160718   160729 
  160758   160736   160706   160718   160752   160762   160762   160782 
  160803   160803   160807   160824   160814   160798   160793   160752 
  160722   160753   160774   160753   160740   160743   160744   160743 
  160759   160778   160756   160725   160764   160834   160834   160778 
  160755   160809   160857   160812   160705   160625   160621   160662 
  160643   160583   160639   160805   160913   160936   160942   160909 
  160822   160749   160713   160679   160654   160683   160731   160731 
  160745   160824   160886   160857   160782   160748   160748   160752 
  160758   160718   160664   160655   160660   160667   160701   160748 
  160797   160786   160701   160666   160739   160807   160793   160710 
  160633   160651   160718   160720   160706   160762   160836   160893 
  160947   160994   161015   160987   160905   160837   160840   160897 
  160947   160953   160944   160944   160909   160837   160803   160830 
  160843   160794   160737   160705   160687   160725   160817   160866 
  160872   160902   160891   160786   160718   160782   160833   160741 
  160586   160513   160539   160609   160725   160851   160905   160915 
  160956   160940   160790   160675   160720   160776   160758   160775 
  160857   160887   160847   160857   160934   160964   160959   160984 
  161013   161001   160933   160848   160799   160776   160749   160729 
  160733   160745   160731   160737   160839   160980   161080   161117 
  161056   160901   160776   160752   160762   160748   160744   160801 
  160867   160848   160755   160654   160567   160520   160555   160632 
  160678   160708   160732   160748   160817   160901   160872   160758 
  160697   160735   160771   160731   160664   160632   160608   160577 
  160598   160691   160806   160893   160928   160932   160906   160848 
  160821   160829   160791   160731   160712   160694   160637   160632 
  160720   160780   160753   160718   160720   160737   160749   160725 
  160636   160512   160456   160519   160598   160609   160612   160672 
  160749   160791   160832   160901   160926   160883   160832   160774 
  160686   160605   160585   160601   160614   160641   160720   160841 
  160947   160983   160952   160863   160748   160662   160654   160729 
  160793   160805   160806   160774   160693   160651   160682   160739 
  160814   160888   160903   160884   160875   160855   160814   160772 
  160741   160720   160683   160639   160612   160645   160749   160887 
  161030   161141   161152   161060   160937   160828   160712   160597 
  160556   160602   160654   160677   160728   160828   160940   161015 
  161056   161088   161053   160925   160795   160714   160693   160726 
  160744   160739   160770   160813   160812   160774   160774   160817 
  160814   160771   160801   160880   160911   160903   160890   160829 
  160729   160686   160702   160678   160575   160454   160402   160447 
  160564   160735   160874   160928   160944   160920   160878   160938 
  161077   161153   161110   160969   160810   160740   160755   160776 
  160814   160895   160961   160959   160875   160762   160694   160666 
  160628   160591   160624   160741   160848   160887   160890   160874 
  160872   160907   160911   160860   160772   160672   160624   160658 
  160714   160717   160640   160569   160591   160629   160621   160663 
  160786   160874   160867   160830   160836   160863   160856   160832 
  160795   160725   160671   160675   160705   160744   160770   160771 
  160745   160685   160659   160733   160822   160818   160759   160764 
  160849   160911   160906   160833   160745   160717   160697   160652 
  160628   160589   160536   160558   160648   160752   160822   160828 
  160806   160783   160768   160791   160812   160802   160840   160926 
  160972   160969   160949   160895   160807   160745   160766   160824 
  160807   160749   160780   160886   160967   160974   160924   160901 
  160933   160976   161013   161025   160994   160948   160872   160759 
  160679   160616   160528   160471   160486   160548   160609   160612 
  160563   160508   160482   160525   160666   160840   160952   161005 
  161007   160938   160861   160832   160807   160778   160794   160857 
  160910   160920   160906   160868   160814   160787   160807   160832 
  160803   160747   160716   160691   160679   160739   160797   160766 
  160737   160780   160841   160890   160876   160791   160751   160801 
  160851   160874   160895   160903   160882   160825   160766   160743 
  160739   160713   160652   160583   160574   160667   160806   160874 
  160816   160687   160606   160627   160678   160702   160712   160724 
  160756   160814   160849   160822   160763   160743   160766   160790 
  160817   160840   160832   160817   160813   160787   160740   160687 
  160621   160554   160502   160466   160455   160496   160554   160593 
  160659   160780   160879   160884   160817   160782   160812   160840 
  160849   160849   160830   160798   160778   160801   160868   160955 
  161067   161180   161175   161010   160803   160639   160516   160454 
  160473   160547   160631   160729   160857   160934   160906   160849 
  160801   160726   160654   160641   160677   160704   160712   160721 
  160741   160753   160755   160778   160814   160832   160817   160797 
  160817   160836   160787   160682   160586   160563   160598   160643 
  160687   160726   160759   160790   160805   160824   160888   160979 
  161036   161049   161059   161079   161083   161036   160944   160868 
  160861   160876   160852   160861   160941   160986   160987   160996 
  160978   160934   160914   160886   160824   160770   160780   160820 
  160789   160708   160668   160677   160733   160856   160959   160921 
  160814   160774   160820   160891   160909   160857   160786   160725 
  160702   160736   160766   160708   160597   160546   160552   160578 
  160655   160766   160843   160870   160897   160960   160987   160936 
  160876   160817   160721   160645   160625   160635   160682   160779 
  160888   160961   160968   160924   160876   160803   160716   160712 
  160747   160693   160610   160613   160682   160732   160717   160674 
  160687   160770   160821   160793   160744   160705   160671   160644 
  160621   160594   160552   160533   160582   160658   160679   160647 
  160613   160600   160597   160610   160655   160695   160705   160699 
  160691   160704   160766   160834   160876   160905   160890   160840 
  160809   160806   160817   160801   160743   160681   160641   160606 
  160597   160670   160786   160857   160891   160915   160917   160867 
  160799   160776   160813   160864   160890   160887   160849   160753 
  160641   160579   160558   160554   160591   160667   160759   160875 
  160995   161049   160998   160905   160863   160851   160778   160660 
  160594   160597   160656   160752   160798   160744   160691   160732 
  160795   160805   160776   160766   160798   160828   160817   160789 
  160795   160845   160879   160875   160864   160886   160953   160995 
  160965   160926   160909   160899   160915   160953   160967   160934 
  160911   160938   160986   160996   160951   160880   160809   160758 
  160752   160779   160830   160887   160871   160813   160806   160813 
  160798   160803   160805   160770   160726   160686   160654   160652 
  160672   160678   160681   160695   160705   160718   160749   160760 
  160732   160705   160706   160672   160569   160498   160535   160612 
  160674   160731   160775   160780   160768   160790   160856   160932 
  160990   161014   161005   160960   160886   160822   160810   160837 
  160861   160880   160878   160828   160766   160718   160659   160587 
  160551   160564   160597   160608   160590   160583   160613   160666 
  160753   160863   160936   160952   160930   160898   160864   160825 
  160802   160789   160768   160752   160728   160699   160694   160686 
  160655   160610   160601   160654   160694   160704   160735   160735 
  160681   160686   160748   160767   160775   160825   160855   160845 
  160843   160864   160882   160843   160779   160775   160825   160872 
  160886   160834   160741   160671   160629   160617   160685   160805 
  160879   160920   160929   160851   160741   160693   160698   160732 
  160767   160775   160763   160758   160764   160772   160790   160818 
  160840   160886   160965   161022   161033   161001   160909   160793 
  160733   160756   160774   160736   160710   160716   160714   160732 
  160770   160780   160762   160756   160789   160810   160775   160751 
  160787   160837   160848   160817   160775   160749   160744   160756 
  160767   160771   160778   160778   160743   160679   160627   160624 
  160675   160747   160803   160864   160926   160937   160901   160867 
  160860   160874   160864   160812   160758   160733   160747   160806 
  160868   160886   160887   160878   160841   160832   160878   160949 
  161011   161011   160926   160814   160755   160748   160736   160687 
  160639   160629   160647   160671   160699   160706   160690   160678 
  160671   160663   160662   160675   160704   160713   160666   160600 
  160583   160614   160640   160664   160694   160712   160731   160744 
  160751   160771   160775   160743   160716   160725   160772   160806 
  160790   160751   160721   160720   160767   160845   160910   160948 
  160965   160952   160905   160872   160872   160870   160841   160795 
  160763   160780   160794   160751   160712   160720   160760   160830 
  160879   160848   160793   160756   160722   160721   160785   160855 
  160926   161032   161083   161022   160936   160883   160829   160770 
  160732   160709   160679   160658   160671   160698   160698   160695 
  160712   160713   160708   160726   160737   160726   160716   160699 
  160671   160640   160629   160647   160681   160701   160689   160672 
  160681   160713   160763   160817   160866   160909   160929   160924 
  160914   160903   160895   160894   160883   160871   160860   160841 
  160844   160890   160934   160938   160897   160834   160789   160753 
  160713   160690   160679   160652   160621   160601   160581   160574 
  160582   160610   160686   160768   160813   160829   160818   160790 
  160783   160790   160772   160756   160772   160799   160807   160783 
  160768   160799   160833   160822   160776   160739   160728   160731 
  160722   160698   160674   160670   160697   160748   160813   160895 
  160967   160967   160898   160836   160805   160767   160729   160731 
  160775   160822   160824   160793   160789   160816   160832   160813 
  160780   160763   160745   160725   160745   160798   160845   160855 
  160818   160770   160736   160712   160705   160725   160776   160866 
  160948   160938   160837   160735   160683   160693   160749   160807 
  160833   160841   160839   160813   160775   160756   160747   160726 
