Origin Time       2025/03/30 22:55:00
Lat.              41.993
Long.             142.725
Depth. (km)       55
Mag.              4.6
Station Code      AOMH12
Station Lat.      40.5846
Station Long.     141.1547
Station Height(m) 85
Record Time       2025/03/30 22:56:53
Sampling Freq(Hz) 100Hz
Duration Time(s)  120
Dir.              6
Scale Factor      7845(gal)/8223790
Max. Acc. (gal)   0.615
Last Correction   2025/03/30 22:56:54
Memo.             
[...]
   14129    14175    14214    14226    14226    14210    14150    14062 
   14014    14050    14158    14262    14310    14316    14257    14114 
   13986    13973    14076    14214    14292    14300    14257    14161 
   14037    13960    13994    14121    14253    14332    14345    14285 
   14181    14071    14007    14021    14099    14197    14276    14303 
   14268    14191    14116    14099    14137    14177    14202    14249 
   14316    14337    14281    14191    14121    14114    14141    14157 
   14188    14243    14274    14234    14133    14049    14033    14068 
   14133    14231    14342    14399    14335    14166    13981    13872 
   13905    14064    14250    14389    14457    14423    14270    14057 
   13898    13876    13990    14158    14310    14419    14463    14391 
   14207    14010    13903    13926    14042    14207    14381    14492 
   14450    14256    14018    13855    13826    13929    14129    14349 
   14486    14485    14347    14125    13919    13837    13917    14106 
   14291    14392    14407    14364    14264    14115    13986    13940 
   13992    14129    14287    14369    14343    14245    14118    14025 
   14008    14080    14212    14304    14281    14183    14096    14076 
   14108    14145    14153    14152    14162    14180    14181    14170 
   14172    14176    14172    14191    14241    14289    14285    14200 
   14095    14041    14048    14114    14207    14265    14273    14237 
   14173    14130    14122    14129    14148    14181    14237    14278 
   14265    14200    14123    14060    14031    14057    14153    14285 
   14374    14373    14292    14162    14037    13969    13981    14068 
   14195    14323    14416    14423    14328    14183    14041    13975 
   14030    14143    14227    14272    14281    14254    14200    14130 
   14089    14104    14142    14162    14154    14138    14135    14133 
   14114    14106    14127    14158    14175    14195    14247    14315 
   14332    14270    14165    14050    13950    13934    14031    14183 
   14301    14324    14268    14199    14161    14168    14208    14246 
   14257    14215    14137    14081    14098    14173    14260    14300 
   14276    14211    14139    14092    14076    14094    14137    14177 
   14170    14122    14094    14122    14170    14188    14180    14199 
   14238    14243    14203    14129    14035    13975    13995    14102 
   14260    14377    14378    14277    14137    14038    14030    14107 
   14224    14293    14269    14203    14156    14149    14179    14199 
   14193    14195    14193    14168    14142    14137    14143    14131 
   14094    14071    14091    14156    14230    14276    14305    14337 
   14318    14208    14067    13996    14045    14168    14283    14319 
   14265    14177    14104    14073    14098    14150    14197    14227 
   14222    14169    14116    14118    14137    14127    14127    14192 
   14296    14354    14296    14158    14054    14052    14108    14184 
   14262    14295    14253    14170    14094    14052    14044    14077 
   14156    14231    14261    14256    14220    14158    14095    14045 
   14049    14129    14246    14322    14310    14220    14114    14065 
   14103    14177    14238    14283    14308    14300    14256    14188 
   14121    14072    14054    14080    14138    14211    14260    14235 
   14158    14095    14088    14160    14257    14297    14273    14197 
   14080    13984    13956    14011    14148    14292    14374    14388 
   14323    14184    14025    13925    13944    14103    14343    14521 
   14519    14331    14050    13819    13761    13903    14180    14467 
   14611    14527    14281    14011    13818    13759    13848    14067 
   14318    14465    14443    14316    14177    14067    13986    13964 
   14049    14216    14355    14372    14276    14160    14087    14041 
   14014    14053    14176    14301    14346    14285    14177    14104 
   14085    14092    14118    14164    14247    14351    14385    14307 
   14195    14112    14084    14114    14160    14218    14318    14378 
   14289    14083    13896    13846    13950    14129    14296    14405 
   14408    14292    14112    13965    13946    14077    14239    14319 
   14324    14299    14231    14130    14058    14069    14138    14208 
   14234    14208    14142    14071    14046    14087    14168    14238 
   14245    14176    14083    14040    14095    14220    14338    14366 
   14270    14130    14060    14079    14126    14168    14188    14181 
   14166    14168    14193    14220    14215    14168    14106    14079 
   14107    14168    14249    14322    14318    14222    14096    14017 
   14027    14118    14226    14287    14281    14231    14173    14141 
   14148    14180    14214    14227    14206    14165    14133    14130 
   14165    14212    14224    14177    14108    14087    14125    14168 
   14193    14211    14223    14233    14220    14169    14122    14118 
   14134    14143    14150    14172    14200    14212    14199    14158 
   14102    14069    14094    14153    14191    14181    14161    14177 
   14218    14246    14258    14250    14206    14135    14071    14054 
   14111    14199    14264    14289    14278    14234    14158    14072 
   14025    14065    14188    14324    14393    14359    14245    14103 
   14015    14025    14099    14191    14249    14242    14203    14173 
   14154    14150    14168    14169    14138    14118    14114    14094 
   14076    14107    14181    14266    14332    14358    14319    14216 
   14092    14008    14025    14142    14277    14343    14316    14227 
   14110    13991    13919    13954    14089    14251    14350    14331 
   14211    14069    13964    13929    14006    14177    14373    14516 
   14536    14412    14185    13945    13806    13849    14046    14283 
   14445    14476    14384    14211    14026    13913    13929    14069 
   14261    14377    14355    14245    14103    13972    13919    13984 
   14146    14326    14419    14386    14283    14188    14142    14115 
   14075    14054    14098    14185    14268    14311    14311    14268 
   14154    13996    13915    13988    14127    14220    14239    14219 
   14203    14175    14123    14107    14168    14260    14296    14249 
   14179    14134    14111    14114    14156    14238    14327    14342 
   14247    14112    14022    14014    14088    14211    14318    14342 
   14256    14098    13979    13983    14094    14249    14385    14430 
   14341    14158    13987    13905    13933    14054    14226    14372 
   14399    14297    14172    14115    14119    14138    14157    14199 
   14272    14303    14231    14103    14008    13999    14037    14068 
   14104    14168    14227    14243    14216    14192    14210    14235 
   14224    14199    14191    14180    14149    14123    14121    14131 
   14152    14170    14189    14234    14258    14219    14169    14154 
   14162    14189    14210    14192    14148    14104    14075    14083 
   14148    14231    14280    14283    14247    14179    14114    14084 
   14080    14115    14173    14195    14185    14183    14200    14239 
   14258    14239    14210    14183    14150    14102    14034    13999 
   14057    14175    14284    14349    14355    14303    14175    13994 
   13887    13972    14212    14446    14512    14384    14181    14030 
   13957    13952    14037    14206    14362    14388    14262    14110 
   14044    14046    14060    14076    14125    14208    14288    14300 
   14218    14087    14010    14023    14087    14154    14218    14304 
   14404    14446    14392    14269    14134    14025    13952    13936 
   14027    14210    14368    14408    14318    14158    14038    14019 
   14071    14139    14193    14216    14210    14181    14154    14146 
   14146    14146    14139    14131    14143    14181    14223    14253 
   14257    14229    14179    14131    14110    14104    14108    14148 
   14210    14234    14193    14096    13995    13961    14015    14135 
   14293    14424    14446    14346    14181    14038    13984    14025 
   14139    14277    14346    14319    14242    14149    14067    14033 
   14042    14095    14204    14326    14378    14338    14226    14111 
   14053    14054    14091    14157    14224    14264    14253    14180 
   14092    14061    14076    14095    14141    14226    14299    14296 
   14220    14123    14061    14057    14107    14195    14280    14304 
   14245    14138    14058    14056    14111    14179    14233    14268 
   14295    14303    14257    14173    14121    14141    14210    14261 
   14247    14193    14139    14116    14141    14200    14264    14300 
   14293    14234    14111    13967    13913    14011    14175    14287 
   14320    14285    14195    14081    13983    13948    14018    14154 
   14264    14300    14262    14168    14084    14072    14125    14204 
   14276    14318    14350    14378    14351    14250    14133    14057 
   14022    13998    14006    14107    14293    14454    14474    14338 
   14152    14015    13929    13883    13936    14115    14332    14459 
   14439    14316    14168    14018    13886    13853    13961    14142 
   14277    14304    14254    14175    14079    13991    13987    14096 
   14258    14372    14365    14261    14141    14035    13960    13965 
   14076    14246    14393    14439    14372    14266    14187    14135 
   14111    14127    14199    14301    14364    14331    14230    14126 
   14069    14044    14026    14077    14219    14357    14392    14289 
   14104    13937    13848    13871    14040    14296    14493    14494 
   14283    13969    13714    13640    13814    14170    14527    14717 
   14674    14431    14115    13868    13775    13864    14094    14343 
   14466    14401    14230    14094    14062    14103    14162    14230 
   14305    14328    14268    14183    14103    14031    14026    14115 
   14247    14345    14347    14268    14187    14142    14134    14173 
   14264    14334    14264    14041    13840    13838    14018    14203 
   14276    14266    14234    14179    14098    14035    14061    14185 
   14324    14378    14324    14212    14107    14030    14017    14087 
   14203    14307    14366    14350    14266    14168    14107    14096 
   14098    14080    14068    14107    14192    14278    14331    14307 
   14193    14069    14019    14057    14139    14208    14219    14175 
   14110    14053    14044    14111    14207    14245    14196    14116 
   14087    14145    14256    14354    14382    14312    14191    14067 
   13961    13932    14035    14226    14391    14454    14416    14330 
   14237    14139    14046    14002    14037    14096    14102    14073 
   14076    14137    14219    14268    14268    14247    14193    14058 
   13876    13787    13899    14164    14427    14561    14509    14311 
   14057    13852    13783    13930    14245    14544    14686    14651 
   14472    14208    13956    13801    13779    13890    14095    14311 
   14436    14419    14316    14266    14291    14251    14092    13944 
   13933    14057    14208    14303    14380    14438    14337    14058 
   13791    13721    13878    14103    14243    14315    14346    14307 
   14216    14108    14023    14021    14092    14191    14308    14419 
   14469    14423    14253    13995    13774    13744    13969    14332 
   14623    14712    14567    14260    13941    13728    13678    13822 
   14111    14430    14675    14743    14567    14219    13841    13570 
   13536    13783    14170    14488    14594    14474    14216    13960 
   13814    13811    13929    14127    14347    14497    14517    14407 
   14187    13940    13817    13945    14274    14584    14659    14480 
   14193    13954    13834    13867    14030    14251    14420    14430 
   14265    14080    14061    14208    14334    14304    14181    14092 
   14072    14060    14026    14050    14181    14332    14395    14378 
   14342    14283    14156    13971    13838    13887    14131    14413 
   14516    14353    14035    13770    13689    13818    14115    14451 
   14655    14601    14292    13894    13680    13829    14235    14607 
   14752    14690    14470    14137    13832    13716    13837    14121 
   14386    14455    14310    14083    13944    13967    14080    14192 
   14304    14415    14462    14385    14204    14041    13990    14022 
   14038    14023    14058    14188    14310    14311    14204    14111 
   14106    14145    14170    14208    14288    14332    14264    14122 
   14037    14052    14076    14026    13953    13949    14008    14091 
   14169    14215    14211    14154    14077    14060    14138    14258 
   14351    14374    14319    14219    14134    14112    14156    14219 
   14253    14227    14165    14103    14054    14073    14212    14413 
   14557    14557    14409    14199    14003    13880    13900    14062 
   14280    14424    14409    14295    14185    14123    14106    14096 
   14058    14010    13979    14002    14111    14276    14412    14428 
   14281    14052    13872    13813    13899    14107    14320    14418 
   14370    14235    14071    13927    13873    13961    14148    14337 
   14469    14517    14462    14308    14087    13879    13813    13949 
   14188    14376    14420    14358    14253    14103    13964    13971 
   14146    14355    14450    14431    14400    14382    14315    14177 
   14057    14053    14125    14110    13954    13801    13805    13979 
   14179    14268    14233    14102    13922    13809    13826    13991 
   14307    14648    14818    14735    14422    14004    13702    13682 
   13946    14351    14694    14802    14602    14183    13775    13603 
   13737    14061    14401    14575    14488    14230    13968    13814 
   13818    13964    14216    14523    14751    14767    14550    14199 
   13871    13676    13674    13876    14189    14435    14496    14359 
   14112    13892    13810    13899    14119    14355    14489    14463 
   14291    14058    13873    13809    13894    14091    14314    14470 
   14474    14327    14130    13988    13965    14073    14273    14451 
   14496    14395    14231    14087    13996    13965    14014    14142 
   14304    14439    14480    14404    14281    14156    14041    13980 
   14003    14106    14242    14322    14307    14237    14137    14019 
   13909    13845    13888    14049    14253    14404    14438    14324 
   14095    13872    13813    13963    14189    14339    14347    14242 
   14126    14076    14052    14052    14145    14327    14540    14709 
   14715    14513    14177    13841    13671    13747    13980    14220 
   14351    14322    14188    14048    13940    13914    14004    14168 
   14339    14450    14449    14372    14256    14098    13988    14038 
   14224    14403    14415    14250    14046    13909    13845    13832 
   13875    14040    14328    14584    14666    14563    14326    14038 
   13824    13784    13952    14229    14428    14432    14281    14089 
   13956    13933    14004    14123    14246    14342    14374    14332 
   14243    14146    14057    14015    14061    14172    14266    14274 
   14183    14037    13932    13944    14060    14214    14346    14403 
   14364    14272    14206    14212    14285    14361    14372    14285 
   14129    13999    13984    14083    14230    14330    14318    14212 
   14052    13888    13811    13891    14138    14458    14658    14631 
   14420    14104    13809    13694    13788    13995    14238    14458 
   14597    14588    14370    13999    13663    13555    13728    14080 
   14442    14681    14712    14517    14176    13848    13694    13782 
   14052    14364    14550    14508    14293    14041    13828    13709 
   13764    14013    14312    14451    14400    14292    14222    14204 
   14224    14273    14366    14430    14346    14137    13942    13882 
   13954    14061    14121    14141    14165    14207    14226    14188 
   14146    14166    14223    14262    14264    14231    14187    14129 
   14072    14084    14202    14364    14459    14395    14180    13942 
   13821    13879    14098    14366    14523    14505    14374    14222 
   14111    14050    14033    14068    14106    14073    14014    14019 
   14112    14238    14310    14320    14320    14311    14250    14146 
   14050    14013    14049    14116    14162    14181    14211    14268 
   14332    14376    14342    14219    14064    13942    13896    13959 
   14130    14338    14451    14408    14269    14130    14037    13992 
   13992    14072    14260    14482    14597    14509    14256    13950 
   13732    13707    13914    14247    14490    14482    14249    13948 
   13752    13772    13990    14253    14409    14404    14287    14157 
   14080    14065    14104    14183    14270    14347    14373    14320 
   14226    14156    14133    14141    14145    14146    14161    14166 
   14127    14052    13981    13963    14010    14111    14260    14423 
   14517    14476    14320    14152    14064    14050    14033    13991 
   13988    14064    14175    14233    14207    14150    14129    14157 
   14202    14245    14315    14396    14378    14230    14058    13980 
   14044    14200    14332    14380    14364    14295    14172    14038 
   13945    13921    13948    13980    14050    14189    14326    14386 
   14358    14243    14098    14011    13996    14045    14172    14341 
   14461    14467    14368    14237    14148    14106    14085    14083 
   14103    14134    14148    14141    14158    14234    14315    14326 
   14234    14087    13998    14034    14157    14280    14334    14310 
   14233    14121    14011    13961    13991    14072    14168    14253 
   14300    14284    14207    14111    14026    13971    13999    14133 
   14301    14412    14422    14358    14277    14191    14085    13973 
   13915    13969    14119    14264    14343    14374    14350    14229 
   14017    13826    13811    13998    14233    14376    14445    14499 
   14507    14400    14193    13986    13875    13907    14065    14284 
   14478    14557    14461    14216    13915    13670    13586    13690 
   13914    14169    14353    14384    14295    14172    14073    14061 
   14181    14380    14538    14569    14449    14241    14058    13963 
   13953    14010    14091    14175    14270    14353    14350    14253 
   14122    14025    13984    14014    14115    14261    14400    14450 
   14374    14260    14195    14162    14129    14107    14123    14181 
   14260    14319    14316    14241    14125    14015    13946    13940 
   13998    14111    14250    14335    14310    14192    14038    13894 
   13813    13855    14021    14256    14476    14586    14532    14343 
   14112    13941    13900    13988    14137    14292    14389    14365 
   14220    14023    13894    13913    14023    14129    14195    14215 
   14207    14189    14173    14185    14241    14284    14272    14241 
   14243    14274    14310    14335    14330    14264    14137    13998 
   13922    13942    14034    14162    14293    14346    14274    14146 
   14085    14145    14258    14326    14312    14269    14258    14269 
   14261    14233    14207    14170    14094    14013    13996    14077 
   14212    14307    14303    14243    14179    14110    14038    13994 
   14007    14089    14195    14260    14280    14265    14211    14149 
   14108    14088    14099    14172    14314    14462    14511    14408 
