Origin Time       2025/03/30 22:55:00
Lat.              41.993
Long.             142.725
Depth. (km)       55
Mag.              4.6
Station Code      AOMH06
Station Lat.      40.9664
Station Long.     141.3738
Station Height(m) -95
Record Time       2025/03/30 22:56:41
Sampling Freq(Hz) 100Hz
Duration Time(s)  120
Dir.              2
Scale Factor      2942(gal)/8224139
Max. Acc. (gal)   0.317
Last Correction   2025/03/30 22:56:41
Memo.             
[...]
  -97279   -97259   -97279   -97312   -97324   -97308   -97294   -97271 
  -97245   -97286   -97360   -97411   -97455   -97480   -97449   -97402 
  -97394   -97395   -97386   -97376   -97339   -97283   -97282   -97317 
  -97330   -97330   -97357   -97384   -97352   -97309   -97322   -97333 
  -97306   -97303   -97332   -97343   -97321   -97324   -97371   -97382 
  -97341   -97325   -97325   -97287   -97255   -97279   -97345   -97425 
  -97480   -97476   -97416   -97335   -97293   -97299   -97332   -97371 
  -97390   -97397   -97376   -97322   -97310   -97366   -97389   -97347 
  -97321   -97318   -97293   -97270   -97290   -97318   -97333   -97332 
  -97301   -97278   -97313   -97386   -97422   -97389   -97347   -97359 
  -97399   -97441   -97448   -97391   -97328   -97328   -97363   -97371 
  -97345   -97316   -97289   -97256   -97243   -97276   -97301   -97279 
  -97270   -97293   -97335   -97401   -97461   -97491   -97487   -97438 
  -97362   -97294   -97279   -97314   -97325   -97290   -97302   -97376 
  -97401   -97353   -97320   -97318   -97348   -97391   -97378   -97335 
  -97328   -97336   -97347   -97347   -97329   -97340   -97372   -97356 
  -97303   -97278   -97298   -97351   -97405   -97474   -97538   -97510 
  -97410   -97326   -97262   -97252   -97297   -97289   -97239   -97245 
  -97272   -97290   -97310   -97303   -97291   -97318   -97340   -97345 
  -97382   -97417   -97417   -97413   -97420   -97407   -97360   -97306 
  -97293   -97314   -97325   -97325   -97347   -97401   -97433   -97370 
  -97289   -97314   -97375   -97370   -97329   -97299   -97286   -97312 
  -97360   -97390   -97397   -97372   -97320   -97281   -97281   -97317 
  -97376   -97420   -97403   -97337   -97285   -97263   -97270   -97324 
  -97376   -97372   -97352   -97355   -97379   -97414   -97453   -97486 
  -97460   -97380   -97308   -97258   -97232   -97260   -97329   -97379 
  -97384   -97372   -97357   -97329   -97309   -97333   -97372   -97372 
  -97364   -97367   -97344   -97316   -97330   -97351   -97344   -97344 
  -97345   -97329   -97314   -97287   -97245   -97247   -97285   -97297 
  -97297   -97355   -97452   -97490   -97448   -97414   -97407   -97378 
  -97357   -97380   -97393   -97380   -97375   -97368   -97351   -97312 
  -97248   -97222   -97268   -97344   -97399   -97407   -97391   -97393 
  -97397   -97366   -97318   -97303   -97330   -97326   -97270   -97249 
  -97293   -97339   -97390   -97448   -97444   -97372   -97309   -97309 
  -97364   -97444   -97511   -97524   -97452   -97320   -97190   -97141 
  -97189   -97272   -97344   -97394   -97414   -97390   -97341   -97308 
  -97302   -97294   -97262   -97254   -97302   -97343   -97336   -97318 
  -97309   -97314   -97372   -97457   -97484   -97430   -97349   -97310 
  -97336   -97387   -97414   -97425   -97422   -97402   -97376   -97330 
  -97289   -97298   -97325   -97324   -97290   -97262   -97293   -97347 
  -97355   -97339   -97333   -97306   -97256   -97251   -97303   -97335 
  -97320   -97312   -97332   -97364   -97393   -97440   -97498   -97505 
  -97451   -97395   -97376   -97390   -97395   -97360   -97306   -97264 
  -97249   -97259   -97274   -97289   -97301   -97286   -97259   -97276 
  -97320   -97333   -97347   -97371   -97370   -97349   -97352   -97395 
  -97438   -97421   -97389   -97384   -97362   -97317   -97294   -97313 
  -97353   -97383   -97405   -97457   -97502   -97484   -97426   -97360 
  -97303   -97281   -97290   -97310   -97328   -97347   -97359   -97335 
  -97278   -97231   -97222   -97262   -97322   -97366   -97390   -97386 
  -97349   -97305   -97264   -97248   -97298   -97378   -97429   -97461 
  -97479   -97448   -97382   -97337   -97355   -97397   -97393   -97352 
  -97325   -97308   -97310   -97357   -97403   -97418   -97394   -97316 
  -97239   -97214   -97210   -97232   -97302   -97359   -97355   -97322 
  -97317   -97336   -97347   -97351   -97345   -97314   -97290   -97301 
  -97318   -97351   -97424   -97480   -97475   -97451   -97406   -97351 
  -97329   -97341   -97368   -97401   -97402   -97368   -97333   -97329 
  -97336   -97309   -97283   -97305   -97321   -97298   -97308   -97355 
  -97368   -97348   -97345   -97347   -97298   -97244   -97260   -97313 
  -97357   -97410   -97457   -97456   -97395   -97313   -97298   -97363 
  -97401   -97395   -97401   -97410   -97382   -97318   -97260   -97243 
  -97256   -97267   -97267   -97282   -97314   -97339   -97343   -97337 
  -97349   -97391   -97430   -97441   -97430   -97402   -97364   -97328 
  -97303   -97309   -97337   -97379   -97437   -97464   -97403   -97308 
  -97275   -97321   -97366   -97355   -97332   -97349   -97383   -97386 
  -97355   -97337   -97357   -97357   -97320   -97320   -97364   -97387 
  -97364   -97326   -97309   -97301   -97267   -97235   -97262   -97322 
  -97355   -97340   -97309   -97320   -97355   -97366   -97389   -97436 
  -97455   -97440   -97406   -97372   -97375   -97393   -97372   -97337 
  -97313   -97268   -97224   -97222   -97245   -97268   -97303   -97359 
  -97411   -97428   -97413   -97401   -97387   -97345   -97318   -97339 
  -97356   -97360   -97362   -97337   -97313   -97332   -97357   -97340 
  -97308   -97333   -97401   -97402   -97366   -97386   -97410   -97393 
  -97374   -97347   -97316   -97303   -97308   -97330   -97368   -97384 
  -97357   -97325   -97314   -97308   -97301   -97325   -97380   -97409 
  -97359   -97295   -97289   -97310   -97324   -97349   -97380   -97371 
  -97332   -97320   -97328   -97329   -97341   -97384   -97417   -97397 
  -97351   -97330   -97352   -97394   -97406   -97355   -97279   -97244 
  -97260   -97294   -97337   -97372   -97371   -97348   -97317   -97305 
  -97349   -97405   -97426   -97403   -97330   -97289   -97332   -97379 
  -97409   -97437   -97422   -97364   -97312   -97294   -97321   -97372 
  -97382   -97312   -97232   -97229   -97281   -97312   -97322   -97344 
  -97367   -97372   -97370   -97360   -97352   -97360   -97383   -97411 
  -97447   -97453   -97402   -97347   -97326   -97333   -97357   -97367 
  -97345   -97329   -97322   -97294   -97279   -97318   -97356   -97344 
  -97291   -97252   -97262   -97306   -97349   -97370   -97387   -97418 
  -97438   -97413   -97341   -97264   -97239   -97266   -97314   -97356 
  -97368   -97379   -97416   -97428   -97393   -97347   -97314   -97294 
  -97279   -97263   -97271   -97306   -97330   -97343   -97379   -97422 
  -97436   -97411   -97379   -97370   -97376   -97375   -97353   -97353 
  -97401   -97414   -97356   -97312   -97317   -97320   -97289   -97248 
  -97259   -97347   -97421   -97413   -97372   -97348   -97333   -97329 
  -97339   -97348   -97341   -97329   -97312   -97270   -97235   -97259 
  -97314   -97357   -97398   -97417   -97389   -97344   -97305   -97274 
  -97281   -97336   -97414   -97460   -97434   -97363   -97312   -97313 
  -97344   -97384   -97437   -97460   -97418   -97360   -97321   -97285 
  -97270   -97294   -97328   -97343   -97325   -97297   -97285   -97302 
  -97347   -97379   -97364   -97348   -97372   -97384   -97363   -97345 
  -97336   -97340   -97380   -97420   -97409   -97375   -97367   -97399 
  -97424   -97383   -97325   -97302   -97299   -97320   -97382   -97429 
  -97416   -97368   -97330   -97333   -97359   -97359   -97345   -97335 
  -97313   -97281   -97245   -97251   -97318   -97370   -97351   -97316 
  -97303   -97306   -97330   -97360   -97370   -97367   -97353   -97336 
  -97322   -97309   -97306   -97328   -97367   -97411   -97436   -97434 
  -97424   -97391   -97339   -97325   -97360   -97357   -97299   -97282 
  -97325   -97347   -97303   -97235   -97236   -97332   -97405   -97399 
  -97367   -97349   -97353   -97351   -97337   -97376   -97441   -97444 
  -97390   -97328   -97294   -97285   -97279   -97282   -97301   -97333 
  -97366   -97355   -97308   -97310   -97394   -97460   -97433   -97380 
  -97380   -97395   -97391   -97403   -97406   -97366   -97314   -97274 
  -97260   -97291   -97351   -97421   -97460   -97452   -97420   -97374 
  -97321   -97290   -97294   -97310   -97309   -97290   -97272   -97271 
  -97281   -97267   -97231   -97224   -97287   -97374   -97401   -97387 
  -97401   -97437   -97461   -97449   -97405   -97384   -97401   -97394 
  -97347   -97302   -97295   -97318   -97351   -97368   -97364   -97360 
  -97336   -97287   -97276   -97291   -97282   -97303   -97383   -97437 
  -97436   -97420   -97384   -97324   -97282   -97293   -97335   -97352 
  -97337   -97322   -97326   -97363   -97407   -97378   -97309   -97322 
  -97360   -97312   -97247   -97247   -97282   -97341   -97391   -97384 
  -97357   -97330   -97289   -97291   -97341   -97366   -97366   -97376 
  -97418   -97447   -97393   -97314   -97320   -97376   -97413   -97428 
  -97424   -97397   -97359   -97328   -97320   -97324   -97329   -97341 
  -97336   -97313   -97309   -97313   -97303   -97291   -97295   -97314 
  -97312   -97282   -97298   -97368   -97395   -97336   -97286   -97293 
  -97301   -97326   -97397   -97433   -97445   -97497   -97519   -97467 
  -97409   -97364   -97316   -97297   -97299   -97299   -97301   -97301 
  -97294   -97303   -97330   -97341   -97316   -97276   -97279   -97335 
  -97366   -97348   -97329   -97317   -97317   -97341   -97360   -97363 
  -97379   -97413   -97418   -97389   -97384   -97420   -97444   -97448 
  -97449   -97418   -97345   -97287   -97268   -97247   -97225   -97252 
  -97316   -97330   -97289   -97282   -97321   -97326   -97324   -97348 
  -97343   -97312   -97324   -97363   -97399   -97421   -97407   -97370 
  -97355   -97376   -97383   -97339   -97314   -97359   -97409   -97406 
  -97352   -97303   -97308   -97321   -97316   -97325   -97340   -97328 
  -97298   -97278   -97299   -97321   -97301   -97299   -97333   -97332 
  -97314   -97357   -97429   -97443   -97384   -97305   -97290   -97355 
  -97405   -97413   -97411   -97395   -97379   -97372   -97357   -97370 
  -97391   -97379   -97362   -97337   -97286   -97255   -97271   -97294 
  -97305   -97310   -97320   -97343   -97343   -97320   -97330   -97356 
  -97360   -97380   -97410   -97409   -97410   -97413   -97382   -97347 
  -97328   -97316   -97326   -97349   -97367   -97390   -97386   -97343 
  -97318   -97318   -97326   -97360   -97399   -97410   -97383   -97320 
  -97259   -97247   -97302   -97383   -97417   -97390   -97326   -97271 
  -97299   -97386   -97432   -97429   -97414   -97384   -97340   -97320 
  -97324   -97312   -97281   -97240   -97208   -97210   -97256   -97318 
  -97383   -97437   -97441   -97398   -97374   -97395   -97411   -97387 
  -97340   -97302   -97281   -97285   -97333   -97411   -97465   -97455 
  -97398   -97345   -97308   -97279   -97289   -97332   -97347   -97318 
  -97317   -97353   -97387   -97409   -97399   -97368   -97351   -97321 
  -97282   -97283   -97308   -97328   -97328   -97291   -97278   -97313 
  -97339   -97349   -97374   -97405   -97414   -97410   -97434   -97479 
  -97490   -97426   -97336   -97316   -97343   -97324   -97272   -97260 
  -97285   -97310   -97314   -97291   -97286   -97317   -97349   -97382 
  -97414   -97413   -97363   -97293   -97255   -97264   -97282   -97282 
  -97283   -97318   -97378   -97411   -97414   -97391   -97363   -97371 
  -97407   -97428   -97434   -97402   -97309   -97237   -97218   -97213 
  -97251   -97325   -97360   -97343   -97294   -97255   -97272   -97312 
  -97335   -97347   -97336   -97324   -97347   -97372   -97353   -97321 
  -97295   -97243   -97209   -97278   -97370   -97357   -97295   -97295 
  -97329   -97345   -97364   -97394   -97416   -97406   -97398   -97421 
  -97416   -97356   -97316   -97322   -97371   -97447   -97483   -97453 
  -97411   -97371   -97286   -97175   -97129   -97173   -97237   -97298 
  -97353   -97353   -97303   -97276   -97299   -97345   -97364   -97348 
  -97387   -97483   -97497   -97414   -97367   -97402   -97478   -97515 
  -97474   -97406   -97367   -97359   -97370   -97390   -97422   -97437 
  -97434   -97453   -97447   -97393   -97356   -97336   -97303   -97276 
  -97241   -97210   -97212   -97224   -97255   -97309   -97328   -97324 
  -97355   -97428   -97503   -97546   -97548   -97537   -97519   -97499 
  -97513   -97567   -97615   -97611   -97560   -97514   -97483   -97460 
  -97455   -97428   -97378   -97376   -97397   -97390   -97375   -97347 
  -97329   -97348   -97330   -97270   -97228   -97210   -97209   -97244 
  -97313   -97375   -97416   -97461   -97509   -97521   -97490   -97467 
  -97467   -97449   -97425   -97405   -97367   -97314   -97249   -97209 
  -97237   -97297   -97330   -97335   -97302   -97268   -97256   -97233 
  -97228   -97255   -97233   -97175   -97159   -97143   -97087   -97029 
  -97004   -97033   -97116   -97227   -97336   -97409   -97456   -97478 
  -97432   -97379   -97413   -97471   -97463   -97403   -97320   -97231 
  -97202   -97244   -97297   -97330   -97348   -97367   -97375   -97329 
  -97240   -97158   -97096   -97032   -96969   -96921   -96874   -96831 
  -96853   -96943   -97046   -97148   -97275   -97451   -97622   -97700 
  -97741   -97834   -97888   -97788   -97621   -97540   -97553   -97568 
  -97533   -97452   -97367   -97325   -97308   -97231   -97059   -96857 
  -96714   -96681   -96738   -96816   -96901   -97024   -97216   -97441 
  -97587   -97606   -97595   -97625   -97669   -97740   -97887   -98051 
  -98101   -98015   -97880   -97750   -97611   -97474   -97391   -97345 
  -97213   -96993   -96839   -96789   -96750   -96704   -96697   -96738 
  -96788   -96804   -96804   -96896   -97140   -97438   -97669   -97829 
  -97977   -98126   -98228   -98234   -98113   -97888   -97625   -97407 
  -97281   -97243   -97295   -97387   -97407   -97308   -97139   -96990 
  -96958   -97094   -97325   -97483   -97494   -97443   -97378   -97306 
  -97317   -97436   -97556   -97602   -97560   -97476   -97457   -97534 
  -97654   -97749   -97737   -97609   -97405   -97177   -97033   -96975 
  -96874   -96741   -96680   -96695   -96770   -96939   -97186   -97433 
  -97621   -97761   -97895   -97995   -98023   -97969   -97825   -97646 
  -97544   -97524   -97499   -97406   -97290   -97225   -97227   -97271 
  -97340   -97367   -97271   -97085   -96965   -96986   -97048   -97047 
  -97012   -97021   -97067   -97113   -97197   -97303   -97325   -97251 
  -97167   -97135   -97187   -97336   -97503   -97591   -97583   -97530 
  -97468   -97382   -97291   -97264   -97283   -97317   -97393   -97472 
  -97491   -97453   -97402   -97391   -97425   -97420   -97322   -97147 
  -96974   -96944   -97079   -97248   -97379   -97465   -97476   -97426 
  -97340   -97236   -97163   -97114   -97042   -97002   -97128   -97407 
  -97681   -97799   -97760   -97715   -97695   -97591   -97395   -97206 
  -97152   -97322   -97611   -97806   -97822   -97669   -97384   -97078 
  -96898   -96882   -96919   -96908   -96888   -96951   -97132   -97374 
  -97568   -97642   -97609   -97530   -97480   -97494   -97515   -97505 
  -97528   -97602   -97626   -97571   -97517   -97480   -97414   -97337 
  -97301   -97343   -97433   -97475   -97444   -97414   -97486   -97627 
  -97648   -97444   -97133   -96896   -96813   -96850   -96961   -97119 
  -97263   -97353   -97387   -97386   -97406   -97460   -97521   -97622 
  -97779   -97902   -97933   -97884   -97725   -97456   -97198   -97063 
  -97073   -97167   -97231   -97221   -97205   -97210   -97214   -97206 
  -97171   -97117   -97067   -96997   -96917   -96911   -97009   -97174 
  -97353   -97507   -97605   -97622   -97556   -97451   -97409   -97476 
  -97559   -97560   -97498   -97448   -97437   -97474   -97552   -97613 
  -97610   -97556   -97494   -97476   -97521   -97582   -97578   -97464 
  -97247   -96996   -96831   -96831   -96966   -97141   -97245   -97248 
  -97214   -97185   -97173   -97209   -97274   -97321   -97333   -97325 
  -97321   -97328   -97363   -97451   -97521   -97460   -97299   -97170 
  -97120   -97146   -97262   -97470   -97713   -97880   -97872   -97699 
  -97449   -97221   -97073   -96990   -96923   -96869   -96880   -96992 
  -97206   -97420   -97490   -97428   -97320   -97205   -97140   -97167 
  -97251   -97318   -97308   -97233   -97175   -97163   -97171   -97202 
  -97245   -97276   -97328   -97443   -97622   -97815   -97934   -97919 
  -97772   -97568   -97417   -97348   -97293   -97213   -97140   -97132 
  -97205   -97297   -97367   -97411   -97380   -97293   -97225   -97214 
  -97256   -97299   -97290   -97290   -97364   -97456   -97463   -97362 
  -97206   -97100   -97096   -97132   -97163   -97243   -97391   -97495 
  -97451   -97332   -97283   -97335   -97393   -97387   -97391   -97475 
  -97557   -97545   -97463   -97393   -97403   -97457   -97447   -97366 
  -97316   -97317   -97335   -97368   -97401   -97426   -97463   -97479 
  -97429   -97362   -97351   -97380   -97394   -97359   -97258   -97143 
  -97102   -97144   -97186   -97194   -97213   -97210   -97163   -97179 
  -97271   -97348   -97386   -97389   -97372   -97368   -97368   -97425 
  -97599   -97784   -97831   -97760   -97691   -97654   -97587   -97474 
  -97367   -97287   -97206   -97125   -97079   -97092   -97147   -97205 
  -97241   -97249   -97268   -97310   -97341   -97355   -97355   -97362 
  -97425   -97515   -97555   -97549   -97514   -97440   -97357   -97283 
  -97232   -97274   -97393   -97472   -97488   -97472   -97420   -97367 
  -97368   -97421   -97495   -97522   -97461   -97376   -97332   -97345 
  -97372   -97355   -97295   -97239   -97232   -97340   -97534   -97694 
  -97776   -97785   -97667   -97411   -97123   -96917   -96824   -96793 
  -96809   -96884   -96951   -96959   -96997   -97152   -97353   -97480 
  -97515   -97521   -97537   -97541   -97503   -97467   -97510   -97636 
  -97730   -97669   -97487   -97337   -97279   -97241   -97200   -97206 
  -97258   -97333   -97430   -97505   -97532   -97533   -97484   -97349 
  -97221   -97213   -97254   -97251   -97249   -97293   -97390   -97534 
  -97657   -97699   -97663   -97580   -97472   -97320   -97127   -96963 
  -96909   -96971   -97105   -97248   -97347   -97372   -97305   -97197 
  -97190   -97308   -97443   -97501   -97452   -97366   -97348   -97382 
  -97387   -97387   -97407   -97417   -97410   -97372   -97291   -97208 
  -97146   -97081   -97027   -97006   -96990   -96963   -97004   -97147 
  -97281   -97297   -97208   -97096   -97066   -97136   -97231   -97321 
  -97416   -97483   -97510   -97510   -97478   -97421   -97364   -97299 
  -97216   -97174   -97237   -97352   -97428   -97459   -97506   -97571 
  -97594   -97560   -97488   -97393   -97352   -97453   -97636   -97738 
  -97690   -97582   -97518   -97491   -97453   -97399   -97343   -97268 
  -97175   -97090   -97038   -97027   -97056   -97098   -97113   -97121 
  -97171   -97239   -97312   -97421   -97537   -97599   -97610   -97610 
  -97605   -97555   -97457   -97375   -97349   -97356   -97341   -97314 
  -97357   -97503   -97642   -97668   -97594   -97482   -97367   -97291 
  -97270   -97247   -97198   -97137   -97077   -97063   -97141   -97266 
  -97368   -97432   -97443   -97426   -97459   -97529   -97586   -97615 
  -97572   -97463   -97393   -97371   -97337   -97299   -97294   -97316 
  -97325   -97279   -97236   -97270   -97341   -97393   -97448   -97533 
  -97598   -97579   -97490   -97420   -97428   -97478   -97497   -97482 
  -97497   -97549   -97588   -97564   -97451   -97279   -97129   -97033 
  -97000   -97031   -97054   -97032   -97008   -97011   -97105   -97301 
