Origin Time       2025/03/30 22:55:00
Lat.              41.993
Long.             142.725
Depth. (km)       55
Mag.              4.6
Station Code      AOMH12
Station Lat.      40.5846
Station Long.     141.1547
Station Height(m) 85
Record Time       2025/03/30 22:56:53
Sampling Freq(Hz) 100Hz
Duration Time(s)  120
Dir.              4
Scale Factor      7845(gal)/8223790
Max. Acc. (gal)   1.131
Last Correction   2025/03/30 22:56:54
Memo.             
[...]
   -2907    -2936    -2971    -2988    -2986    -2971    -2967    -2978 
   -2982    -2963    -2932    -2918    -2934    -2963    -2997    -3052 
   -3133    -3215    -3268    -3261    -3187    -3076    -2974    -2902 
   -2867    -2870    -2911    -2987    -3079    -3159    -3190    -3152 
   -3065    -2970    -2895    -2856    -2866    -2921    -3005    -3083 
   -3118    -3107    -3072    -3045    -3041    -3034    -3001    -2934 
   -2863    -2826    -2852    -2937    -3063    -3194    -3288    -3318 
   -3279    -3173    -3032    -2894    -2794    -2736    -2717    -2740 
   -2812    -2933    -3083    -3215    -3298    -3318    -3279    -3206 
   -3117    -3025    -2948    -2895    -2863    -2844    -2849    -2884 
   -2937    -3007    -3088    -3144    -3152    -3118    -3053    -2979 
   -2932    -2920    -2929    -2949    -2979    -3018    -3061    -3086 
   -3090    -3071    -3038    -3018    -3015    -2998    -2961    -2940 
   -2943    -2972    -3026    -3086    -3130    -3154    -3152    -3122 
   -3076    -3029    -2986    -2937    -2889    -2870    -2895    -2944 
   -2982    -2994    -2991    -2997    -3022    -3060    -3087    -3092 
   -3075    -3032    -2968    -2926    -2934    -2974    -3003    -3001 
   -2987    -2997    -3044    -3096    -3126    -3126    -3107    -3080 
   -3038    -2976    -2910    -2870    -2874    -2921    -2979    -3014 
   -3034    -3057    -3075    -3071    -3048    -3022    -2999    -2984 
   -2990    -3022    -3068    -3102    -3099    -3071    -3046    -3034 
   -3028    -3014    -3003    -3009    -3017    -3003    -2974    -2941 
   -2929    -2957    -3001    -3025    -3030    -3030    -3040    -3060 
   -3067    -3045    -3001    -2949    -2906    -2886    -2902    -2960 
   -3034    -3096    -3121    -3103    -3067    -3033    -3017    -3029 
   -3051    -3042    -3007    -2982    -2979    -3002    -3042    -3071 
   -3072    -3060    -3042    -3014    -2982    -2976    -3006    -3037 
   -3042    -3029    -3009    -2994    -2986    -2978    -2975    -2982 
   -2990    -3002    -3021    -3040    -3052    -3038    -2990    -2934 
   -2914    -2930    -2959    -2986    -3019    -3057    -3088    -3110 
   -3127    -3138    -3130    -3098    -3051    -3005    -2975    -2967 
   -2970    -2975    -2992    -3026    -3068    -3106    -3113    -3072 
   -3003    -2943    -2918    -2930    -2961    -2988    -2995    -2991 
   -3001    -3030    -3072    -3115    -3148    -3156    -3119    -3041 
   -2953    -2872    -2822    -2822    -2859    -2907    -2960    -3009 
   -3046    -3073    -3087    -3096    -3114    -3140    -3161    -3152 
   -3105    -3025    -2934    -2870    -2857    -2893    -2956    -3025 
   -3083    -3122    -3132    -3105    -3053    -3003    -2974    -2972 
   -2983    -2980    -2963    -2945    -2938    -2955    -2988    -3015 
   -3036    -3052    -3052    -3033    -3010    -2990    -2974    -2964 
   -2960    -2953    -2940    -2937    -2971    -3048    -3130    -3168 
   -3148    -3098    -3048    -2998    -2941    -2894    -2887    -2925 
   -2997    -3083    -3165    -3225    -3238    -3184    -3065    -2925 
   -2822    -2781    -2795    -2853    -2938    -3032    -3105    -3145 
   -3150    -3129    -3096    -3056    -3002    -2948    -2901    -2864 
   -2864    -2909    -2986    -3072    -3148    -3195    -3195    -3144 
   -3059    -2976    -2930    -2932    -2959    -2995    -3033    -3063 
   -3082    -3105    -3114    -3087    -3041    -3009    -2990    -2971 
   -2951    -2937    -2944    -2974    -3007    -3030    -3045    -3053 
   -3048    -3037    -3025    -2992    -2953    -2938    -2944    -2960 
   -2979    -2971    -2933    -2911    -2930    -2990    -3095    -3208 
   -3271    -3252    -3163    -3036    -2910    -2812    -2759    -2774 
   -2866    -3010    -3168    -3285    -3326    -3291    -3208    -3111 
   -3014    -2916    -2808    -2712    -2668    -2709    -2821    -2971 
   -3110    -3203    -3240    -3225    -3181    -3136    -3099    -3071 
   -3042    -3002    -2945    -2883    -2828    -2799    -2821    -2894 
   -2991    -3073    -3123    -3138    -3119    -3068    -3005    -2952 
   -2936    -2964    -3015    -3063    -3099    -3127    -3132    -3095 
   -3028    -2963    -2936    -2948    -2976    -3003    -3028    -3052 
   -3069    -3065    -3040    -3013    -3001    -3005    -3019    -3044 
   -3073    -3090    -3078    -3042    -2988    -2934    -2894    -2875 
   -2875    -2887    -2913    -2974    -3068    -3164    -3221    -3215 
   -3160    -3083    -2999    -2918    -2857    -2837    -2870    -2945 
   -3019    -3065    -3090    -3110    -3123    -3113    -3063    -2988 
   -2922    -2894    -2902    -2938    -2992    -3060    -3132    -3160 
   -3117    -3025    -2918    -2836    -2810    -2844    -2922    -3025 
   -3109    -3133    -3106    -3063    -3024    -2992    -2974    -2972 
   -2999    -3060    -3136    -3192    -3188    -3115    -3005    -2890 
   -2805    -2783    -2820    -2884    -2965    -3057    -3145    -3226 
   -3298    -3338    -3321    -3242    -3119    -2976    -2844    -2747 
   -2713    -2747    -2822    -2934    -3064    -3169    -3221    -3215 
   -3172    -3118    -3064    -3019    -2987    -2960    -2926    -2899 
   -2903    -2945    -3011    -3083    -3142    -3169    -3163    -3134 
   -3099    -3071    -3049    -3024    -2992    -2964    -2943    -2943 
   -2974    -3017    -3057    -3098    -3137    -3156    -3142    -3096 
   -3029    -2960    -2920    -2916    -2944    -2998    -3059    -3098 
   -3092    -3049    -2994    -2951    -2933    -2933    -2924    -2899 
   -2891    -2913    -2964    -3030    -3078    -3086    -3064    -3017 
   -2956    -2903    -2872    -2882    -2932    -2982    -2999    -2982 
   -2948    -2917    -2901    -2903    -2922    -2952    -2984    -3009 
   -3022    -3034    -3067    -3122    -3181    -3231    -3250    -3218 
   -3144    -3046    -2938    -2853    -2829    -2864    -2930    -2998 
   -3046    -3061    -3038    -2998    -2965    -2959    -2986    -3025 
   -3063    -3071    -3022    -2925    -2817    -2747    -2755    -2844 
   -2961    -3056    -3110    -3138    -3129    -3073    -2995    -2916 
   -2852    -2814    -2803    -2817    -2857    -2926    -3015    -3107 
   -3173    -3186    -3134    -3028    -2902    -2803    -2772    -2822 
   -2947    -3110    -3279    -3416    -3474    -3433    -3306    -3119 
   -2917    -2749    -2668    -2691    -2799    -2965    -3149    -3312 
   -3416    -3423    -3329    -3186    -3038    -2921    -2857    -2851 
   -2895    -2987    -3105    -3214    -3296    -3341    -3337    -3275 
   -3171    -3064    -2968    -2880    -2810    -2779    -2793    -2841 
   -2921    -3021    -3105    -3140    -3115    -3046    -2952    -2860 
   -2798    -2786    -2828    -2906    -2988    -3063    -3138    -3204 
   -3245    -3249    -3219    -3173    -3136    -3114    -3098    -3075 
   -3055    -3033    -3003    -2971    -2949    -2952    -2995    -3072 
   -3156    -3214    -3217    -3152    -3048    -2933    -2822    -2737 
   -2700    -2732    -2847    -2995    -3113    -3181    -3217    -3237 
   -3227    -3165    -3069    -2975    -2894    -2845    -2837    -2856 
   -2897    -2959    -3015    -3032    -2986    -2886    -2768    -2679 
   -2651    -2695    -2806    -2941    -3067    -3172    -3258    -3319 
   -3338    -3302    -3222    -3126    -3026    -2922    -2818    -2739 
   -2727    -2799    -2933    -3088    -3213    -3260    -3237    -3183 
   -3136    -3115    -3114    -3099    -3046    -2961    -2874    -2828 
   -2845    -2894    -2924    -2897    -2806    -2687    -2601    -2590 
   -2656    -2782    -2936    -3071    -3149    -3171    -3154    -3114 
   -3065    -3018    -2983    -2982    -3034    -3126    -3214    -3277 
   -3307    -3296    -3261    -3217    -3163    -3113    -3094    -3110 
   -3150    -3202    -3221    -3181    -3111    -3025    -2930    -2857 
   -2836    -2857    -2891    -2916    -2911    -2872    -2817    -2768 
   -2751    -2778    -2836    -2901    -2953    -2976    -2953    -2894 
   -2814    -2731    -2679    -2713    -2855    -3091    -3364    -3578 
   -3646    -3551    -3329    -3055    -2839    -2749    -2774    -2864 
   -2968    -3045    -3095    -3129    -3141    -3119    -3092    -3107 
   -3184    -3288    -3365    -3380    -3348    -3308    -3291    -3276 
   -3231    -3153    -3046    -2905    -2728    -2555    -2432    -2384 
   -2425    -2556    -2755    -2984    -3204    -3385    -3507    -3551 
   -3497    -3339    -3118    -2905    -2739    -2635    -2609    -2664 
   -2789    -2960    -3130    -3246    -3283    -3249    -3172    -3086 
   -3032    -3033    -3079    -3141    -3194    -3221    -3211    -3163 
   -3071    -2938    -2793    -2670    -2613    -2636    -2716    -2848 
   -3032    -3226    -3360    -3406    -3383    -3298    -3140    -2929 
   -2705    -2515    -2416    -2446    -2575    -2764    -2982    -3198 
   -3403    -3586    -3713    -3753    -3709    -3616    -3491    -3303 
   -3028    -2704    -2416    -2259    -2290    -2477    -2721    -2938 
   -3075    -3130    -3153    -3186    -3207    -3159    -3015    -2825 
   -2678    -2635    -2689    -2806    -2961    -3109    -3203    -3234 
   -3196    -3072    -2871    -2658    -2527    -2558    -2752    -3033 
   -3304    -3493    -3557    -3483    -3295    -3038    -2759    -2504 
   -2323    -2269    -2369    -2596    -2880    -3164    -3411    -3604 
   -3730    -3750    -3642    -3446    -3221    -3007    -2839    -2720 
   -2650    -2624    -2641    -2716    -2829    -2947    -3032    -3059 
   -2999    -2868    -2739    -2682    -2720    -2839    -2998    -3138 
   -3235    -3323    -3431    -3549    -3639    -3653    -3538    -3307 
   -3053    -2867    -2786    -2802    -2875    -2952    -3009    -3049 
   -3072    -3052    -2980    -2880    -2772    -2667    -2608    -2631 
   -2727    -2863    -3014    -3169    -3335    -3500    -3600    -3569 
   -3389    -3102    -2801    -2592    -2513    -2535    -2625    -2778 
   -2994    -3223    -3376    -3365    -3187    -2917    -2663    -2527 
   -2570    -2790    -3119    -3461    -3716    -3825    -3773    -3585 
   -3307    -2978    -2664    -2463    -2438    -2597    -2894    -3219 
   -3454    -3524    -3414    -3183    -2949    -2789    -2717    -2743 
   -2857    -3007    -3133    -3188    -3163    -3107    -3071    -3042 
   -3001    -2947    -2875    -2799    -2759    -2774    -2833    -2922 
   -3005    -3030    -2980    -2883    -2790    -2754    -2824    -3011 
   -3258    -3469    -3545    -3442    -3191    -2887    -2640    -2509 
   -2525    -2697    -2988    -3333    -3635    -3797    -3774    -3576 
   -3244    -2857    -2515    -2297    -2263    -2425    -2732    -3082 
   -3387    -3600    -3707    -3704    -3607    -3429    -3175    -2891 
   -2655    -2523    -2501    -2560    -2650    -2717    -2752    -2782 
   -2825    -2894    -2988    -3082    -3145    -3167    -3140    -3068 
   -2972    -2870    -2760    -2654    -2571    -2548    -2635    -2848 
   -3134    -3418    -3638    -3746    -3716    -3550    -3267    -2934 
   -2660    -2515    -2519    -2666    -2898    -3110    -3227    -3252 
   -3230    -3199    -3171    -3129    -3056    -2978    -2932    -2925 
   -2933    -2934    -2940    -2971    -3024    -3064    -3060    -2995 
   -2876    -2733    -2620    -2597    -2690    -2868    -3075    -3257 
   -3362    -3357    -3267    -3148    -3049    -2991    -2970    -2978 
   -3007    -3032    -3017    -2953    -2880    -2851    -2886    -2964 
   -3068    -3190    -3326    -3461    -3566    -3609    -3568    -3422 
   -3194    -2934    -2678    -2444    -2268    -2178    -2191    -2301 
   -2504    -2772    -3049    -3258    -3354    -3383    -3429    -3519 
   -3600    -3597    -3484    -3284    -3029    -2731    -2416    -2155 
   -2047    -2162    -2475    -2889    -3318    -3711    -4006    -4132 
   -4043    -3769    -3384    -2970    -2609    -2373    -2311    -2467 
   -2802    -3196    -3526    -3699    -3667    -3442    -3098    -2752 
   -2500    -2373    -2370    -2489    -2717    -3029    -3385    -3703 
   -3870    -3831    -3596    -3213    -2774    -2388    -2146    -2088 
   -2209    -2471    -2826    -3217    -3572    -3813    -3877    -3730 
   -3380    -2889    -2376    -2006    -1915    -2123    -2523    -2980 
   -3395    -3696    -3843    -3824    -3654    -3377    -3055    -2751 
   -2515    -2393    -2420    -2565    -2762    -2980    -3204    -3404 
   -3515    -3473    -3296    -3087    -2938    -2879    -2887    -2948 
   -3064    -3211    -3335    -3385    -3349    -3249    -3106    -2922 
   -2709    -2498    -2328    -2234    -2238    -2349    -2546    -2789 
   -3040    -3300    -3573    -3817    -3964    -3975    -3835    -3543 
   -3145    -2709    -2305    -2008    -1892    -1991    -2282    -2701 
   -3172    -3605    -3919    -4041    -3948    -3662    -3257    -2829 
   -2467    -2227    -2138    -2209    -2419    -2716    -3032    -3296 
   -3473    -3558    -3538    -3396    -3165    -2929    -2768    -2724 
   -2766    -2845    -2941    -3052    -3172    -3277    -3337    -3356 
   -3369    -3387    -3385    -3333    -3215    -3068    -2959    -2910 
   -2880    -2824    -2741    -2675    -2673    -2747    -2870    -2991 
   -3064    -3071    -3017    -2922    -2817    -2737    -2733    -2851 
   -3068    -3306    -3476    -3503    -3370    -3127    -2841    -2562 
   -2346    -2253    -2308    -2500    -2795    -3169    -3569    -3920 
   -4147    -4201    -4064    -3757    -3337    -2902    -2546    -2334 
   -2292    -2415    -2686    -3057    -3407    -3601    -3564    -3319 
   -2959    -2592    -2312    -2195    -2281    -2547    -2891    -3192 
   -3395    -3519    -3601    -3622    -3531    -3331    -3099    -2914 
   -2816    -2808    -2864    -2945    -3022    -3064    -3041    -2953 
   -2824    -2687    -2579    -2536    -2570    -2664    -2785    -2910 
   -3022    -3110    -3175    -3208    -3172    -3053    -2901    -2779 
   -2727    -2774    -2910    -3086    -3258    -3400    -3484    -3511 
   -3485    -3397    -3256    -3068    -2864    -2694    -2598    -2586 
   -2663    -2803    -2959    -3086    -3154    -3177    -3188    -3199 
   -3192    -3159    -3092    -3009    -2921    -2837    -2786    -2783 
   -2802    -2824    -2857    -2916    -2997    -3078    -3130    -3148 
   -3146    -3136    -3117    -3098    -3090    -3114    -3177    -3261 
   -3327    -3345    -3296    -3184    -3056    -2948    -2857    -2793 
   -2789    -2844    -2937    -3045    -3134    -3184    -3213    -3233 
   -3231    -3181    -3055    -2851    -2610    -2398    -2266    -2253 
   -2376    -2635    -3003    -3412    -3770    -3997    -4027    -3832 
   -3454    -2975    -2504    -2147    -1992    -2072    -2350    -2731 
   -3106    -3397    -3568    -3611    -3535    -3349    -3102    -2866 
   -2705    -2662    -2747    -2934    -3179    -3420    -3611    -3721 
   -3739    -3662    -3497    -3268    -3017    -2801    -2658    -2585 
   -2566    -2585    -2631    -2689    -2752    -2817    -2886    -2960 
   -3029    -3069    -3042    -2951    -2841    -2752    -2702    -2701 
   -2736    -2803    -2913    -3056    -3211    -3358    -3468    -3512 
   -3485    -3404    -3292    -3153    -2984    -2805    -2655    -2570 
   -2570    -2659    -2839    -3092    -3373    -3607    -3735    -3750 
   -3682    -3553    -3349    -3067    -2754    -2493    -2350    -2332 
   -2420    -2594    -2832    -3080    -3287    -3393    -3360    -3196 
   -2959    -2705    -2508    -2428    -2502    -2724    -3022    -3308 
   -3520    -3619    -3584    -3423    -3161    -2855    -2590    -2430 
   -2378    -2430    -2597    -2871    -3181    -3435    -3570    -3566 
   -3458    -3306    -3161    -3052    -2980    -2940    -2943    -3007 
   -3115    -3208    -3240    -3188    -3071    -2914    -2736    -2569 
   -2471    -2481    -2569    -2690    -2817    -2940    -3067    -3203 
   -3321    -3380    -3376    -3327    -3241    -3126    -3001    -2883 
   -2785    -2710    -2660    -2643    -2664    -2727    -2810    -2903 
   -3005    -3115    -3223    -3318    -3381    -3400    -3360    -3252 
   -3100    -2949    -2845    -2810    -2836    -2895    -2963    -3011 
   -3036    -3034    -3014    -2995    -3001    -3044    -3111    -3161 
   -3154    -3092    -3006    -2928    -2863    -2797    -2731    -2679 
   -2658    -2705    -2851    -3064    -3289    -3489    -3624    -3677 
   -3655    -3561    -3399    -3198    -2997    -2837    -2755    -2771 
   -2868    -2988    -3071    -3086    -3025    -2905    -2759    -2632 
   -2575    -2620    -2756    -2944    -3133    -3285    -3379    -3400 
   -3358    -3262    -3117    -2933    -2755    -2629    -2590    -2644 
   -2789    -3002    -3229    -3406    -3489    -3473    -3375    -3244 
   -3115    -2991    -2866    -2745    -2655    -2639    -2717    -2857 
   -3009    -3136    -3227    -3277    -3284    -3249    -3198    -3157 
   -3123    -3072    -3007    -2952    -2910    -2887    -2882    -2886 
   -2920    -3003    -3118    -3195    -3190    -3110    -3013    -2940 
   -2902    -2889    -2897    -2936    -2997    -3048    -3063    -3034 
   -2970    -2879    -2770    -2662    -2594    -2610    -2717    -2868 
   -3013    -3118    -3167    -3159    -3102    -3001    -2870    -2729 
   -2624    -2610    -2712    -2905    -3134    -3357    -3535    -3639 
   -3649    -3558    -3388    -3172    -2959    -2802    -2729    -2743 
   -2836    -2967    -3100    -3215    -3299    -3342    -3314    -3200 
   -3032    -2856    -2712    -2632    -2631    -2701    -2832    -3007 
   -3198    -3357    -3435    -3406    -3275    -3080    -2876    -2725 
   -2677    -2739    -2866    -3015    -3163    -3271    -3303    -3252 
   -3140    -3009    -2895    -2812    -2779    -2835    -2976    -3159 
   -3306    -3360    -3330    -3257    -3160    -3037    -2884    -2712 
   -2565    -2489    -2492    -2563    -2689    -2860    -3061    -3258 
   -3389    -3412    -3327    -3186    -3057    -2988    -2979    -3007 
   -3049    -3065    -3036    -2964    -2872    -2797    -2772    -2806 
   -2886    -2990    -3102    -3215    -3308    -3352    -3314    -3184 
   -2990    -2793    -2646    -2565    -2567    -2668    -2866    -3109 
   -3319    -3433    -3429    -3329    -3165    -2976    -2818    -2741 
   -2754    -2843    -2994    -3167    -3299    -3337    -3271    -3126 
   -2945    -2778    -2667    -2637    -2671    -2743    -2855    -3009 
   -3186    -3335    -3411    -3385    -3268    -3100    -2947    -2860 
   -2862    -2952    -3103    -3264    -3389    -3449    -3416    -3303 
   -3145    -2972    -2805    -2678    -2628    -2667    -2767    -2902 
   -3034    -3121    -3148    -3129    -3069    -2970    -2852    -2751 
   -2691    -2706    -2812    -2986    -3176    -3337    -3431    -3435 
   -3360    -3222    -3048    -2880    -2764    -2728    -2801    -2959 
   -3129    -3241    -3279    -3252    -3176    -3072    -2963    -2882 
   -2872    -2951    -3076    -3192    -3261    -3275    -3253    -3202 
   -3115    -2994    -2856    -2745    -2706    -2748    -2851    -2990 
   -3133    -3256    -3327    -3303    -3169    -2974    -2789    -2663 
   -2604    -2586    -2583    -2597    -2648    -2725    -2812    -2903 
   -2987    -3045    -3084    -3125    -3160    -3157    -3110    -3038 
