Origin Time       2025/03/30 22:55:00
Lat.              41.993
Long.             142.725
Depth. (km)       55
Mag.              4.6
Station Code      AOMH06
Station Lat.      40.9664
Station Long.     141.3738
Station Height(m) -95
Record Time       2025/03/30 22:56:41
Sampling Freq(Hz) 100Hz
Duration Time(s)  120
Dir.              3
Scale Factor      2942(gal)/8224139
Max. Acc. (gal)   0.161
Last Correction   2025/03/30 22:56:41
Memo.             
[...]
 -108263  -108098  -107994  -108013  -108093  -108135  -108145  -108211 
 -108272  -108216  -108120  -108095  -108066  -107974  -107931  -107959 
 -107970  -107977  -108067  -108174  -108149  -108070  -108086  -108141 
 -108180  -108224  -108209  -108116  -108016  -107944  -107912  -107935 
 -108001  -108075  -108151  -108221  -108253  -108241  -108197  -108157 
 -108144  -108081  -107990  -108005  -108085  -108097  -108091  -108164 
 -108270  -108322  -108303  -108197  -108043  -107975  -107986  -107946 
 -107909  -107979  -108090  -108203  -108309  -108271  -108085  -107935 
 -107885  -107892  -107958  -108070  -108163  -108194  -108184  -108120 
 -107997  -107959  -108047  -108135  -108193  -108241  -108257  -108233 
 -108167  -108059  -107958  -107932  -108024  -108175  -108263  -108256 
 -108213  -108155  -108066  -107987  -107932  -107866  -107866  -108010 
 -108184  -108233  -108182  -108126  -108109  -108128  -108129  -108093 
 -108091  -108133  -108135  -108093  -108101  -108144  -108114  -108072 
 -108108  -108136  -108121  -108109  -108091  -108066  -108028  -107989 
 -107998  -108058  -108118  -108141  -108099  -108040  -108043  -108068 
 -108028  -107977  -107987  -108010  -108032  -108105  -108206  -108264 
 -108240  -108179  -108144  -108129  -108132  -108153  -108137  -108082 
 -108078  -108151  -108232  -108272  -108294  -108275  -108151  -108004 
 -107985  -108010  -107931  -107874  -107970  -108105  -108221  -108321 
 -108334  -108268  -108190  -108089  -107944  -107816  -107778  -107840 
 -107993  -108156  -108209  -108207  -108230  -108184  -108063  -107991 
 -107967  -107923  -107952  -108101  -108194  -108206  -108271  -108313 
 -108210  -108082  -108032  -108004  -107987  -108025  -108082  -108124 
 -108183  -108253  -108270  -108174  -108012  -107923  -107948  -108022 
 -108103  -108186  -108216  -108148  -108095  -108141  -108141  -108012 
 -107914  -107952  -108040  -108141  -108221  -108184  -108118  -108152 
 -108210  -108225  -108189  -108083  -107979  -107968  -108010  -107986 
 -107914  -107933  -108049  -108144  -108153  -108101  -108064  -108103 
 -108179  -108236  -108267  -108257  -108186  -108099  -108054  -107995 
 -107890  -107860  -107990  -108166  -108278  -108332  -108332  -108245 
 -108116  -108029  -107964  -107878  -107824  -107871  -108017  -108182 
 -108283  -108297  -108263  -108197  -108074  -107946  -107900  -107936 
 -108017  -108102  -108166  -108209  -108214  -108147  -108017  -107939 
 -107970  -108022  -108091  -108230  -108334  -108319  -108257  -108195 
 -108121  -108041  -107979  -107955  -108025  -108166  -108216  -108128 
 -108054  -108070  -108079  -108020  -107982  -108041  -108140  -108216 
 -108265  -108228  -108083  -107983  -107998  -108013  -107987  -108024 
 -108149  -108241  -108211  -108102  -107985  -107947  -108052  -108164 
 -108136  -108072  -108103  -108157  -108149  -108121  -108099  -108072 
 -108079  -108141  -108191  -108155  -108045  -107954  -107956  -108018 
 -108090  -108175  -108213  -108170  -108130  -108126  -108121  -108098 
 -108072  -108075  -108097  -108116  -108163  -108191  -108133  -108090 
 -108102  -108071  -108014  -108004  -107998  -107997  -108066  -108176 
 -108216  -108205  -108225  -108220  -108159  -108085  -107997  -107943 
 -108001  -108130  -108217  -108221  -108166  -108048  -107936  -107959 
 -108079  -108140  -108125  -108103  -108102  -108144  -108234  -108260 
 -108121  -107944  -107885  -107900  -107936  -108002  -108066  -108130 
 -108197  -108209  -108182  -108160  -108113  -108039  -107979  -107959 
 -108020  -108178  -108328  -108332  -108202  -108098  -108081  -108039 
 -107960  -107941  -107990  -108052  -108110  -108151  -108151  -108120 
 -108116  -108135  -108101  -108051  -108068  -108118  -108106  -108024 
 -107991  -108067  -108174  -108234  -108222  -108139  -108039  -108012 
 -108068  -108121  -108139  -108139  -108122  -108130  -108141  -108085 
 -108022  -108010  -107989  -108001  -108135  -108282  -108274  -108156 
 -108079  -108055  -108027  -107985  -107940  -107929  -107997  -108153 
 -108301  -108322  -108264  -108194  -108087  -107958  -107870  -107860 
 -107908  -107991  -108114  -108228  -108287  -108290  -108234  -108153 
 -108047  -107904  -107852  -107956  -108101  -108211  -108284  -108290 
 -108243  -108216  -108191  -108105  -108044  -108071  -108083  -108054 
 -108081  -108116  -108070  -108039  -108101  -108133  -108090  -108072 
 -108093  -108081  -108064  -108091  -108136  -108167  -108157  -108082 
 -108039  -108112  -108172  -108103  -108008  -108008  -108066  -108106 
 -108103  -108031  -107929  -107902  -107936  -107987  -108064  -108144 
 -108233  -108326  -108301  -108143  -108009  -107946  -107906  -107910 
 -107983  -108105  -108233  -108306  -108302  -108256  -108190  -108106 
 -108040  -108020  -108031  -108039  -108037  -108051  -108098  -108151 
 -108137  -108070  -108045  -108068  -108093  -108147  -108190  -108128 
 -108048  -108070  -108125  -108168  -108218  -108182  -108063  -108004 
 -108028  -108082  -108140  -108166  -108149  -108162  -108216  -108207 
 -108097  -107997  -107966  -107962  -107987  -108059  -108120  -108143 
 -108157  -108152  -108079  -107954  -107855  -107858  -107971  -108126 
 -108247  -108291  -108270  -108244  -108245  -108206  -108075  -107937 
 -107897  -107937  -108024  -108133  -108182  -108145  -108091  -108051 
 -108045  -108085  -108118  -108125  -108147  -108183  -108197  -108171 
 -108122  -108058  -107968  -107921  -108010  -108160  -108226  -108170 
 -108086  -108086  -108144  -108157  -108101  -108017  -107964  -108000 
 -108145  -108280  -108245  -108110  -108074  -108141  -108160  -108097 
 -108012  -107936  -107954  -108102  -108237  -108232  -108147  -108108 
 -108116  -108083  -108040  -108021  -108002  -108002  -108048  -108120 
 -108194  -108211  -108160  -108095  -108043  -108037  -108067  -108052 
 -107995  -107983  -108040  -108137  -108237  -108253  -108205  -108225 
 -108249  -108148  -108018  -107973  -107970  -107975  -108024  -108099 
 -108130  -108128  -108144  -108136  -108085  -108055  -108056  -108058 
 -108058  -108045  -108035  -108062  -108128  -108217  -108255  -108166 
 -108044  -108012  -108039  -108070  -108095  -108118  -108160  -108216 
 -108228  -108182  -108164  -108202  -108176  -108063  -107966  -107916 
 -107933  -108059  -108205  -108256  -108216  -108106  -107989  -107956 
 -107970  -107952  -107937  -107960  -107998  -108059  -108137  -108168 
 -108189  -108220  -108178  -108121  -108137  -108143  -108089  -108055 
 -108062  -108017  -107958  -108024  -108149  -108178  -108159  -108182 
 -108187  -108120  -108067  -108070  -108072  -108067  -108062  -108059 
 -108108  -108180  -108164  -108105  -108117  -108137  -108112  -108099 
 -108063  -107956  -107887  -107935  -108016  -108114  -108284  -108387 
 -108303  -108170  -108076  -107966  -107917  -108006  -108091  -108129 
 -108211  -108302  -108324  -108253  -108110  -107974  -107912  -107950 
 -108055  -108137  -108153  -108114  -108041  -108005  -108036  -108075 
 -108072  -108036  -108012  -108075  -108197  -108210  -108089  -108012 
 -108047  -108083  -108064  -108032  -108035  -108066  -108095  -108135 
 -108160  -108136  -108112  -108129  -108144  -108113  -108036  -107963 
 -107927  -107933  -108027  -108171  -108251  -108268  -108248  -108167 
 -108099  -108076  -108033  -107986  -108013  -108108  -108182  -108211 
 -108214  -108164  -108091  -108081  -108106  -108055  -107940  -107905 
 -107973  -108060  -108151  -108216  -108205  -108175  -108193  -108211 
 -108149  -107990  -107863  -107896  -108033  -108149  -108197  -108217 
 -108222  -108191  -108168  -108149  -108058  -107943  -107917  -107975 
 -108060  -108141  -108163  -108128  -108108  -108110  -108106  -108105 
 -108102  -108098  -108147  -108216  -108191  -108114  -108093  -108097 
 -108097  -108101  -108087  -108081  -108118  -108151  -108112  -108044 
 -108017  -107995  -107989  -108044  -108076  -108052  -108052  -108094 
 -108143  -108147  -108122  -108139  -108155  -108122  -108108  -108124 
 -108121  -108113  -108122  -108106  -108060  -108067  -108163  -108229 
 -108194  -108151  -108129  -108072  -108027  -108059  -108114  -108108 
 -108075  -108103  -108148  -108113  -108033  -107995  -107997  -107985 
 -107964  -108037  -108191  -108257  -108174  -108071  -108036  -108044 
 -108076  -108120  -108130  -108113  -108125  -108135  -108106  -108106 
 -108128  -108106  -108101  -108143  -108143  -108099  -108085  -108091 
 -108098  -108094  -108055  -108029  -108093  -108183  -108184  -108106 
 -108036  -107998  -107986  -108004  -108052  -108106  -108133  -108117 
 -108095  -108097  -108087  -108063  -108091  -108159  -108190  -108198 
 -108206  -108151  -108033  -107933  -107870  -107870  -107981  -108129 
 -108194  -108178  -108143  -108098  -108085  -108118  -108128  -108117 
 -108106  -108063  -108032  -108060  -108120  -108166  -108172  -108163 
 -108129  -108093  -108117  -108135  -108071  -108004  -108024  -108144 
 -108259  -108264  -108189  -108099  -108051  -108091  -108178  -108206 
 -108162  -108137  -108168  -108187  -108144  -108060  -107977  -107917 
 -107906  -107952  -108044  -108129  -108149  -108152  -108186  -108195 
 -108152  -108110  -108062  -107973  -107927  -107990  -108083  -108129 
 -108147  -108167  -108183  -108162  -108093  -108018  -107987  -107985 
 -107998  -108022  -108036  -108079  -108141  -108117  -108037  -108024 
 -108048  -108066  -108130  -108220  -108209  -108137  -108137  -108152 
 -108102  -108041  -108010  -108027  -108101  -108179  -108210  -108201 
 -108160  -108089  -107997  -107952  -108014  -108095  -108089  -108043 
 -108029  -108075  -108178  -108226  -108174  -108151  -108207  -108244 
 -108217  -108184  -108157  -108099  -108070  -108109  -108116  -108068 
 -108045  -108059  -108059  -108022  -107997  -108001  -108029  -108099 
 -108159  -108153  -108098  -108048  -108040  -108039  -108054  -108125 
 -108171  -108157  -108144  -108132  -108106  -108033  -107948  -107968 
 -108036  -108062  -108124  -108209  -108249  -108286  -108265  -108152 
 -108051  -108013  -107993  -107979  -107994  -108052  -108137  -108193 
 -108170  -108109  -108076  -108060  -108010  -107959  -107955  -107979 
 -108001  -108045  -108135  -108225  -108256  -108220  -108151  -108097 
 -108089  -108105  -108129  -108135  -108102  -108112  -108163  -108163 
 -108136  -108129  -108116  -108074  -108028  -108039  -108089  -108148 
 -108230  -108255  -108184  -108086  -107987  -107929  -107940  -107990 
 -108074  -108153  -108189  -108202  -108202  -108174  -108124  -108041 
 -107937  -107885  -107925  -108013  -108098  -108159  -108172  -108175 
 -108201  -108217  -108182  -108089  -108004  -107994  -108029  -108044 
 -108074  -108172  -108297  -108368  -108348  -108247  -108079  -107920 
 -107867  -107889  -107913  -107971  -108078  -108168  -108199  -108222 
 -108257  -108197  -108067  -108049  -108086  -108076  -108091  -108097 
 -108055  -108043  -108054  -108036  -108025  -108067  -108106  -108097 
 -108099  -108120  -108125  -108151  -108157  -108109  -108098  -108126 
 -108086  -108035  -108062  -108126  -108191  -108232  -108195  -108085 
 -107970  -107923  -107947  -108000  -108072  -108145  -108166  -108149 
 -108143  -108129  -108093  -108049  -108018  -108017  -108068  -108159 
 -108213  -108213  -108199  -108149  -108064  -108047  -108082  -108064 
 -108045  -108081  -108106  -108086  -108052  -108060  -108120  -108145 
 -108090  -108008  -107977  -108021  -108110  -108166  -108114  -108047 
 -108103  -108191  -108189  -108144  -108086  -108039  -108055  -108079 
 -108052  -108049  -108108  -108147  -108129  -108085  -108056  -108070 
 -108137  -108205  -108164  -108043  -108006  -108090  -108162  -108152 
 -108139  -108168  -108228  -108303  -108311  -108217  -108122  -108071 
 -108041  -108047  -108051  -108002  -107978  -108070  -108191  -108183 
 -108117  -108106  -108068  -108012  -108021  -108031  -108001  -108013 
 -108083  -108129  -108147  -108201  -108249  -108236  -108220  -108191 
 -108110  -108056  -108049  -108021  -107989  -108022  -108106  -108145 
 -108125  -108144  -108182  -108162  -108143  -108153  -108112  -108031 
 -107983  -107983  -108014  -108078  -108147  -108160  -108099  -108024 
 -107986  -108000  -108018  -107990  -107928  -107901  -107987  -108149 
 -108211  -108132  -108075  -108112  -108172  -108209  -108191  -108126 
 -108091  -108086  -108062  -108085  -108175  -108178  -108055  -107983 
 -108016  -108025  -108005  -108052  -108135  -108160  -108147  -108172 
 -108226  -108197  -108086  -108031  -108049  -108097  -108184  -108261 
 -108238  -108162  -108129  -108117  -108052  -107978  -107958  -107958 
 -107979  -108066  -108157  -108178  -108153  -108132  -108106  -108063 
 -108025  -108028  -108071  -108109  -108078  -108020  -108029  -108089 
 -108141  -108175  -108113  -107950  -107856  -107925  -108056  -108155 
 -108201  -108197  -108160  -108117  -108093  -108091  -108054  -107979 
 -107974  -108070  -108155  -108176  -108217  -108267  -108195  -108044 
 -107987  -108020  -108045  -108067  -108105  -108143  -108171  -108190 
 -108190  -108136  -108035  -108004  -108106  -108229  -108279  -108264 
 -108172  -108022  -107954  -107997  -108027  -108028  -108101  -108217 
 -108297  -108322  -108306  -108261  -108149  -107998  -107975  -108089 
 -108103  -107948  -107827  -107832  -107866  -107910  -108044  -108182 
 -108171  -108036  -107909  -107862  -107901  -107971  -107982  -107971 
 -108033  -108153  -108260  -108314  -108332  -108384  -108484  -108548 
 -108504  -108342  -108148  -108029  -107974  -107909  -107839  -107823 
 -107923  -108082  -108139  -108075  -107997  -107948  -107947  -107954 
 -107878  -107793  -107855  -108049  -108233  -108319  -108382  -108461 
 -108465  -108406  -108384  -108368  -108297  -108202  -108118  -108052 
 -107982  -107885  -107790  -107732  -107711  -107746  -107856  -108009 
 -108180  -108306  -108276  -108162  -108099  -108068  -108043  -108029 
 -108029  -108098  -108175  -108179  -108194  -108191  -108066  -107940 
 -107941  -107979  -107990  -108029  -108109  -108160  -108182  -108218 
 -108267  -108349  -108395  -108282  -108155  -108178  -108256  -108278 
 -108237  -108157  -108059  -107983  -108000  -108090  -108182  -108240 
 -108228  -108163  -108125  -108147  -108160  -108079  -107974  -107974 
 -108043  -108128  -108225  -108252  -108202  -108186  -108237  -108260 
 -108206  -108130  -108043  -107905  -107782  -107766  -107778  -107751 
 -107773  -107882  -108032  -108155  -108180  -108112  -108035  -107991 
 -107968  -107986  -108087  -108225  -108342  -108445  -108452  -108341 
 -108264  -108265  -108203  -108014  -107792  -107678  -107754  -107923 
 -108018  -107998  -107952  -107970  -108058  -108176  -108221  -108128 
 -108008  -107989  -107993  -107937  -107943  -108068  -108205  -108284 
 -108276  -108190  -108148  -108220  -108321  -108309  -108178  -108066 
 -108013  -107958  -107909  -107877  -107877  -107962  -108099  -108217 
 -108297  -108297  -108216  -108179  -108180  -108117  -108109  -108232 
 -108303  -108259  -108198  -108117  -107990  -107878  -107898  -108035 
 -108108  -108049  -107954  -107905  -107902  -107905  -107954  -108085 
 -108224  -108295  -108278  -108183  -108133  -108221  -108333  -108299 
 -108109  -107898  -107846  -107978  -108118  -108162  -108147  -108064 
 -107997  -108097  -108255  -108280  -108241  -108241  -108244  -108238 
 -108209  -108122  -108016  -107947  -107933  -107978  -108037  -108017 
 -107931  -107871  -107862  -107921  -108062  -108189  -108263  -108306 
 -108356  -108460  -108527  -108429  -108267  -108166  -108063  -107950 
 -107919  -107913  -107828  -107747  -107767  -107883  -108017  -108035 
 -107916  -107817  -107858  -108004  -108129  -108186  -108209  -108226 
 -108259  -108267  -108166  -107991  -107919  -108016  -108135  -108156 
 -108118  -108078  -108081  -108121  -108136  -108081  -107986  -107910 
 -107892  -107959  -108094  -108209  -108261  -108261  -108201  -108095 
 -108049  -108120  -108210  -108230  -108201  -108178  -108207  -108317 
 -108423  -108364  -108145  -107973  -107935  -107947  -107946  -107943 
 -107950  -107983  -108063  -108141  -108156  -108102  -108027  -108045 
 -108170  -108252  -108261  -108302  -108364  -108351  -108255  -108156 
 -108081  -108000  -107919  -107840  -107723  -107662  -107754  -107898 
 -107993  -108032  -108041  -108070  -108148  -108251  -108329  -108356 
 -108334  -108271  -108228  -108222  -108137  -108006  -108035  -108178 
 -108230  -108203  -108159  -108101  -108098  -108167  -108210  -108164 
 -108072  -107986  -107910  -107910  -108017  -108101  -108086  -108055 
 -108089  -108176  -108237  -108214  -108176  -108179  -108167  -108159 
 -108198  -108195  -108137  -108118  -108114  -108068  -108017  -108008 
 -107967  -107850  -107792  -107838  -107887  -107958  -108036  -108075 
 -108143  -108237  -108268  -108211  -108109  -108036  -108054  -108143 
 -108198  -108172  -108168  -108234  -108303  -108352  -108352  -108270 
 -108171  -108110  -108075  -108045  -108012  -108022  -108070  -108037 
 -107939  -107885  -107893  -107943  -107991  -107994  -107974  -107982 
 -108035  -108109  -108175  -108206  -108179  -108139  -108159  -108190 
 -108130  -108000  -107906  -107894  -107948  -108027  -108082  -108083 
 -108056  -108076  -108170  -108294  -108384  -108365  -108263  -108180 
 -108114  -108032  -108012  -108029  -108022  -108062  -108176  -108278 
 -108315  -108279  -108202  -108147  -108122  -108114  -108083  -108033 
 -108006  -107983  -107950  -107941  -107954  -107966  -107998  -108041 
 -108070  -108095  -108122  -108125  -108102  -108098  -108159  -108249 
 -108279  -108230  -108147  -108098  -108143  -108201  -108156  -108039 
 -107912  -107792  -107736  -107801  -107928  -108010  -108041  -108056 
 -108060  -108101  -108195  -108244  -108210  -108183  -108195  -108183 
 -108112  -108018  -107905  -107805  -107856  -108045  -108189  -108221 
 -108194  -108147  -108087  -108006  -107940  -107962  -108041  -108094 
 -108103  -108113  -108168  -108264  -108346  -108383  -108373  -108360 
 -108355  -108326  -108278  -108213  -108156  -108162  -108191  -108190 
 -108180  -108157  -108112  -108078  -108032  -107921  -107790  -107704 
 -107693  -107777  -107935  -108094  -108147  -108060  -107936  -107851 
 -107828  -107871  -107940  -108013  -108121  -108268  -108361  -108307 
 -108163  -108052  -108035  -108067  -108051  -108032  -108081  -108116 
 -108129  -108193  -108279  -108333  -108351  -108336  -108270  -108217 
 -108283  -108419  -108472  -108375  -108191  -108014  -107916  -107909 
 -107908  -107870  -107875  -107952  -108028  -108058  -108020  -107933 
 -107889  -107916  -107975  -108078  -108190  -108248  -108290  -108384 
 -108471  -108446  -108344  -108238  -108140  -108043  -107968  -107908 
 -107829  -107775  -107813  -107923  -108021  -108049  -108033  -108027 
 -108014  -107966  -107937  -107948  -107974  -108021  -108090  -108167 
 -108203  -108159  -108124  -108187  -108279  -108326  -108321  -108270 
 -108187  -108090  -108010  -107990  -108010  -108043  -108095  -108186 
 -108295  -108330  -108248  -108122  -108006  -107939  -107967  -108013 
 -108017  -108087  -108251  -108364  -108352  -108243  -108043  -107824 
 -107765  -107866  -107958  -107975  -107956  -107954  -108021  -108116 
