Origin Time       2025/03/30 22:55:00
Lat.              41.993
Long.             142.725
Depth. (km)       55
Mag.              4.6
Station Code      AOMH12
Station Lat.      40.5846
Station Long.     141.1547
Station Height(m) 85
Record Time       2025/03/30 22:56:53
Sampling Freq(Hz) 100Hz
Duration Time(s)  120
Dir.              5
Scale Factor      7845(gal)/8223790
Max. Acc. (gal)   1.064
Last Correction   2025/03/30 22:56:54
Memo.             
[...]
   36409    36404    36375    36335    36313    36323    36340    36351 
   36354    36366    36404    36450    36485    36495    36475    36421 
   36354    36310    36297    36304    36331    36374    36423    36468 
   36495    36494    36456    36390    36324    36297    36313    36346 
   36383    36428    36466    36454    36374    36274    36205    36185 
   36209    36285    36412    36558    36660    36682    36617    36487 
   36331    36200    36140    36169    36266    36391    36513    36613 
   36655    36612    36498    36362    36259    36219    36227    36259 
   36302    36352    36404    36439    36444    36432    36424    36428 
   36425    36389    36327    36286    36293    36333    36375    36405 
   36428    36445    36450    36454    36462    36454    36409    36343 
   36290    36282    36321    36378    36410    36400    36371    36358 
   36364    36379    36387    36377    36366    36378    36409    36439 
   36444    36421    36383    36339    36313    36339    36405    36481 
   36536    36562    36553    36494    36383    36263    36188    36177 
   36215    36278    36348    36414    36474    36517    36524    36481 
   36401    36305    36228    36204    36234    36296    36377    36459 
   36521    36536    36502    36451    36417    36400    36396    36402 
   36412    36428    36447    36447    36425    36391    36340    36275 
   36227    36211    36236    36294    36362    36428    36482    36504 
   36499    36486    36470    36456    36435    36386    36317    36263 
   36243    36250    36279    36325    36366    36386    36404    36417 
   36420    36402    36370    36347    36360    36416    36499    36575 
   36595    36548    36456    36343    36238    36161    36135    36177 
   36261    36352    36445    36537    36605    36629    36594    36505 
   36402    36317    36265    36250    36277    36331    36387    36416 
   36398    36355    36323    36340    36400    36452    36470    36458 
   36428    36402    36394    36404    36418    36416    36396    36374 
   36355    36352    36362    36366    36367    36367    36362    36363 
   36374    36385    36393    36389    36369    36337    36316    36324 
   36370    36428    36472    36504    36513    36491    36429    36343 
   36269    36235    36248    36290    36344    36396    36436    36463 
   36472    36452    36413    36381    36366    36369    36386    36404 
   36404    36374    36319    36277    36289    36350    36432    36514 
   36582    36603    36559    36464    36352    36242    36165    36139 
   36161    36224    36325    36447    36553    36602    36583    36514 
   36414    36313    36252    36247    36294    36375    36450    36504 
   36537    36536    36482    36381    36278    36217    36207    36236 
   36289    36364    36456    36529    36562    36547    36491    36414 
   36343    36302    36297    36315    36344    36371    36379    36382 
   36396    36420    36439    36435    36414    36405    36418    36440 
   36452    36439    36409    36382    36347    36312    36294    36282 
   36270    36278    36312    36362    36427    36490    36535    36551 
   36525    36458    36383    36351    36363    36377    36362    36337 
   36327    36328    36340    36358    36375    36393    36409    36405 
   36386    36383    36410    36450    36481    36486    36456    36396 
   36317    36235    36184    36194    36256    36336    36410    36471 
   36514    36522    36486    36416    36335    36269    36232    36221 
   36247    36317    36410    36493    36552    36575    36556    36498 
   36413    36339    36301    36289    36306    36358    36405    36427 
   36431    36421    36413    36417    36420    36400    36363    36327 
   36310    36321    36346    36375    36412    36455    36495    36510 
   36481    36418    36352    36292    36242    36217    36225    36256 
   36300    36347    36393    36436    36466    36474    36456    36421 
   36391    36390    36404    36402    36371    36337    36332    36362 
   36417    36481    36528    36544    36520    36468    36423    36386 
   36335    36265    36211    36219    36297    36396    36466    36486 
   36463    36410    36339    36271    36235    36236    36271    36339 
   36421    36487    36524    36553    36585    36591    36559    36495 
   36423    36360    36310    36273    36259    36269    36294    36336 
   36378    36408    36420    36413    36396    36381    36379    36391 
   36401    36405    36408    36394    36360    36344    36352    36364 
   36366    36360    36364    36383    36396    36390    36378    36390 
   36439    36490    36497    36450    36363    36281    36251    36281 
   36325    36350    36360    36390    36448    36509    36539    36510 
   36436    36344    36252    36186    36171    36217    36320    36458 
   36583    36653    36647    36576    36482    36382    36274    36178 
   36130    36147    36217    36321    36439    36545    36605    36593 
   36518    36425    36340    36263    36194    36165    36204    36305 
   36424    36521    36585    36605    36572    36493    36409    36346 
   36304    36293    36309    36335    36375    36428    36467    36478 
   36458    36420    36379    36347    36323    36306    36298    36312 
   36354    36397    36418    36429    36425    36408    36382    36352 
   36332    36346    36404    36493    36566    36578    36532    36448 
   36344    36248    36170    36124    36134    36212    36343    36472 
   36544    36541    36482    36405    36354    36337    36343    36354 
   36362    36377    36408    36441    36452    36445    36443    36443 
   36443    36437    36417    36390    36356    36312    36271    36261 
   36288    36342    36396    36440    36470    36468    36429    36364 
   36301    36273    36282    36321    36390    36474    36533    36529 
   36460    36364    36286    36255    36270    36321    36401    36489 
   36553    36560    36504    36406    36305    36234    36217    36262 
   36363    36491    36590    36614    36555    36445    36344    36288 
   36270    36282    36315    36358    36389    36398    36393    36366 
   36323    36277    36261    36301    36381    36455    36501    36505 
   36468    36406    36339    36279    36258    36293    36367    36443 
   36490    36499    36467    36405    36335    36273    36239    36261 
   36337    36447    36562    36647    36679    36647    36547    36406 
   36258    36139    36084    36109    36207    36340    36464    36545 
   36590    36594    36544    36448    36321    36202    36155    36194 
   36278    36373    36451    36490    36495    36479    36432    36370 
   36325    36296    36277    36289    36333    36402    36470    36514 
   36539    36539    36493    36405    36305    36227    36219    36283 
   36382    36467    36504    36481    36432    36397    36386    36400 
   36428    36448    36454    36459    36458    36432    36382    36316 
   36231    36148    36112    36143    36239    36369    36487    36572 
   36618    36614    36551    36445    36329    36231    36175    36174 
   36238    36354    36478    36566    36593    36553    36470    36383 
   36328    36310    36315    36335    36383    36452    36512    36532 
   36504    36443    36371    36296    36231    36211    36240    36306 
   36379    36428    36443    36443    36437    36413    36367    36321 
   36301    36308    36323    36342    36362    36379    36402    36451 
   36520    36586    36624    36614    36548    36441    36324    36213 
   36157    36185    36269    36362    36448    36504    36495    36425 
   36329    36255    36221    36234    36306    36428    36555    36629 
   36612    36518    36401    36283    36171    36108    36131    36236 
   36398    36560    36653    36655    36583    36458    36323    36223 
   36171    36170    36219    36304    36404    36487    36529    36549 
   36572    36576    36545    36482    36382    36273    36198    36159 
   36144    36163    36216    36305    36429    36560    36648    36655 
   36587    36487    36406    36352    36316    36290    36279    36273 
   36269    36266    36266    36275    36286    36297    36317    36362 
   36423    36477    36505    36499    36462    36406    36352    36320 
   36310    36312    36305    36292    36282    36289    36310    36340 
   36375    36423    36468    36487    36467    36421    36367    36320 
   36300    36320    36373    36439    36499    36532    36517    36452 
   36358    36266    36208    36190    36211    36255    36306    36363 
   36420    36464    36494    36502    36482    36441    36402    36382 
   36405    36468    36536    36575    36575    36551    36521    36475 
   36398    36316    36266    36262    36309    36386    36455    36482 
   36452    36375    36293    36247    36258    36319    36410    36490 
   36521    36489    36406    36302    36223    36204    36250    36350 
   36487    36622    36709    36734    36695    36582    36433    36308 
   36223    36177    36169    36208    36301    36410    36487    36525 
   36531    36505    36460    36408    36359    36325    36304    36312 
   36375    36475    36568    36632    36645    36605    36526    36435 
   36363    36331    36327    36335    36352    36391    36464    36552 
   36617    36632    36589    36510    36418    36324    36248    36208 
   36205    36239    36293    36336    36352    36339    36315    36300 
   36271    36216    36153    36119    36154    36256    36359    36410 
   36409    36386    36364    36343    36313    36263    36193    36138 
   36144    36221    36336    36455    36536    36551    36505    36421 
   36335    36282    36281    36320    36398    36504    36601    36651 
   36632    36537    36394    36250    36135    36076    36111    36231 
   36383    36506    36556    36514    36404    36292    36238    36234 
   36258    36308    36397    36522    36634    36674    36622    36513 
   36387    36290    36255    36288    36355    36410    36437    36441 
   36425    36381    36306    36217    36157    36155    36208    36293 
   36390    36475    36540    36585    36605    36594    36564    36537 
   36518    36486    36436    36401    36401    36417    36428    36421 
   36398    36358    36296    36217    36146    36111    36097    36092 
   36123    36208    36313    36396    36433    36441    36439    36448 
   36495    36579    36666    36718    36714    36633    36501    36366 
   36247    36153    36130    36205    36343    36471    36552    36576 
   36551    36486    36402    36324    36273    36256    36263    36300 
   36382    36486    36567    36598    36583    36541    36472    36366 
   36238    36115    36018    35973    35988    36061    36180    36316 
   36467    36629    36745    36756    36663    36505    36347    36247 
   36235    36327    36495    36672    36792    36826    36751    36576 
   36348    36139    36035    36078    36250    36486    36688    36759 
   36660    36443    36216    36054    35953    35901    35916    36012 
   36184    36390    36549    36605    36564    36487    36440    36459 
   36513    36518    36427    36270    36132    36062    36066    36146 
   36310    36544    36790    36980    37041    36946    36734    36470 
   36220    36055    36001    36034    36126    36248    36393    36541 
   36651    36693    36667    36587    36490    36405    36340    36293 
   36279    36317    36396    36491    36599    36699    36744    36694 
   36520    36225    35903    35677    35630    35783    36094    36485 
   36882    37214    37392    37347    37075    36614    36051    35552 
   35306    35387    35716    36131    36481    36680    36717    36610 
   36400    36139    35905    35777    35799    35941    36139    36332 
   36459    36487    36459    36435    36441    36491    36586    36690 
   36768    36798    36744    36599    36410    36243    36177    36254 
   36435    36656    36863    36990    36973    36776    36425    36034 
   35723    35572    35604    35802    36099    36427    36741    36991 
   37106    37058    36871    36628    36445    36367    36320    36219 
   36058    35878    35737    35676    35715    35851    36061    36282 
   36452    36548    36568    36522    36450    36394    36378    36385 
   36404    36451    36518    36574    36593    36599    36648    36757 
   36869    36911    36865    36764    36653    36556    36478    36417 
   36362    36325    36331    36355    36354    36294    36165    36000 
   35868    35818    35878    36043    36298    36598    36856    36994 
   36979    36814    36532    36186    35857    35650    35645    35838 
   36144    36447    36661    36763    36749    36636    36462    36274 
   36132    36082    36136    36270    36452    36652    36826    36922 
   36902    36767    36559    36332    36135    36008    35993    36090 
   36217    36293    36304    36304    36339    36398    36427    36423 
   36441    36517    36613    36657    36624    36529    36387    36216 
   36074    36020    36094    36317    36628    36909    37045    36980 
   36767    36506    36273    36113    36057    36080    36148    36250 
   36356    36444    36506    36537    36545    36551    36544    36482 
   36331    36113    35905    35772    35725    35764    35883    36063 
   36301    36570    36802    36956    37019    36985    36882    36761 
   36626    36467    36300    36151    36045    35982    35972    36030 
   36166    36355    36528    36595    36535    36375    36196    36101 
   36147    36319    36580    36880    37141    37291    37272    37054 
   36666    36184    35727    35401    35271    35391    35780    36351 
   36919    37295    37370    37169    36815    36420    36039    35750 
   35652    35773    36059    36375    36566    36564    36401    36163 
   35964    35862    35876    35996    36196    36433    36637    36734 
   36710    36601    36464    36362    36309    36293    36321    36402 
   36539    36705    36822    36828    36734    36583    36404    36231 
   36104    36055    36086    36144    36188    36223    36270    36333 
   36387    36429    36506    36633    36753    36813    36817    36790 
   36745    36690    36616    36524    36409    36269    36140    36063 
   36045    36069    36132    36259    36459    36666    36760    36672 
   36428    36142    35954    35928    36054    36290    36549    36730 
   36782    36699    36506    36248    36007    35864    35854    35973 
   36224    36570    36906    37129    37156    36968    36629    36244 
   35915    35714    35694    35861    36155    36475    36749    36946 
   37034    36977    36776    36485    36189    35982    35939    36081 
   36347    36613    36757    36740    36583    36333    36038    35762 
   35598    35618    35824    36147    36493    36818    37104    37319 
   37411    37332    37085    36725    36316    35910    35561    35363 
   35391    35630    35976    36323    36593    36752    36813    36791 
   36693    36536    36352    36182    36057    35996    36020    36123 
   36262    36396    36512    36625    36742    36814    36775    36629 
   36436    36234    36057    35946    35928    35996    36113    36255 
   36416    36591    36756    36855    36841    36724    36512    36225 
   35949    35769    35730    35822    36005    36255    36541    36806 
   36996    37068    37000    36821    36562    36262    36009    35904 
   35986    36215    36482    36695    36814    36809    36688    36485 
   36239    36034    35945    35991    36171    36462    36798    37089 
   37230    37145    36842    36418    36013    35761    35733    35904 
   36175    36443    36644    36737    36693    36536    36337    36153 
   36001    35899    35881    35982    36189    36427    36601    36647 
   36559    36390    36216    36101    36073    36139    36290    36505 
   36741    36927    36995    36904    36660    36309    35932    35615 
   35436    35442    35617    35907    36293    36734    37133    37373 
   37370    37126    36730    36302    35962    35812    35873    36089 
   36400    36747    37044    37203    37169    36949    36618    36302 
   36105    36050    36107    36235    36406    36572    36651    36595 
   36435    36250    36116    36058    36061    36128    36262    36431 
   36594    36703    36701    36560    36293    35964    35672    35495 
   35460    35557    35765    36067    36425    36776    37080    37305 
   37399    37324    37093    36772    36450    36188    36003    35908 
   35905    35957    36035    36153    36332    36562    36774    36911 
   36958    36914    36782    36568    36296    36008    35769    35634 
   35641    35799    36081    36425    36761    37029    37177    37177 
   37045    36829    36567    36281    36022    35862    35846    35978 
   36232    36528    36764    36853    36763    36555    36324    36127 
   35992    35934    35939    35986    36054    36117    36196    36324 
   36493    36664    36784    36825    36813    36767    36670    36524 
   36354    36190    36069    36015    36034    36116    36244    36379 
   36474    36495    36451    36374    36275    36167    36096    36104 
   36213    36418    36656    36837    36925    36925    36841    36680 
   36468    36269    36158    36193    36370    36597    36760    36822 
   36775    36582    36262    35922    35694    35648    35760    35957 
   36186    36416    36591    36644    36541    36344    36161    36066 
   36062    36123    36235    36391    36552    36660    36684    36628 
   36522    36429    36389    36404    36450    36504    36563    36617 
   36628    36575    36467    36331    36184    36032    35904    35849 
   35914    36104    36383    36687    36942    37077    37039    36852 
   36597    36328    36084    35919    35876    35943    36078    36244 
   36397    36499    36528    36490    36428    36394    36423    36516 
   36639    36756    36828    36807    36699    36556    36421    36310 
   36219    36154    36128    36135    36166    36223    36296    36358 
   36397    36427    36458    36475    36455    36396    36306    36211 
   36130    36074    36055    36076    36146    36270    36433    36610 
   36783    36921    36971    36894    36709    36481    36278    36138 
   36076    36085    36159    36288    36425    36526    36579    36601 
   36609    36606    36580    36524    36447    36381    36348    36336 
   36323    36294    36251    36193    36143    36127    36153    36219 
   36309    36385    36443    36524    36639    36740    36772    36707 
   36548    36325    36093    35899    35780    35784    35918    36153 
   36433    36697    36861    36868    36724    36479    36177    35881 
   35703    35731    35964    36317    36668    36911    36995    36919 
   36741    36540    36369    36246    36180    36170    36224    36342 
   36462    36498    36420    36266    36109    36030    36076    36231 
   36414    36539    36567    36506    36386    36262    36171    36135 
   36184    36313    36479    36639    36751    36782    36734    36639 
   36524    36424    36360    36336    36364    36445    36551    36641 
   36684    36675    36644    36606    36544    36432    36267    36080 
   35927    35846    35856    35976    36180    36404    36589    36693 
   36688    36578    36408    36250    36178    36228    36389    36602 
   36788    36880    36841    36671    36401    36105    35866    35765 
   35854    36113    36448    36759    36964    37015    36895    36639 
