Origin Time       2025/03/30 22:55:00
Lat.              41.993
Long.             142.725
Depth. (km)       55
Mag.              4.6
Station Code      AOMH16
Station Lat.      40.4624
Station Long.     141.0923
Station Height(m) 315
Record Time       2025/03/30 22:56:56
Sampling Freq(Hz) 100Hz
Duration Time(s)  120
Dir.              4
Scale Factor      7845(gal)/8223790
Max. Acc. (gal)   2.370
Last Correction   2025/03/30 22:56:56
Memo.             
[...]
   10170    10189    10197    10207    10214    10212    10206    10203 
   10228    10304    10407    10494    10523    10462    10327    10158 
    9994     9883     9859     9911    10026    10192    10374    10530 
   10612    10582    10459    10311    10189    10138    10168    10219 
   10226    10172    10077    10011     9992     9980     9981    10034 
   10145    10312    10474    10524    10455    10341    10214    10098 
   10039    10075    10201    10377    10513    10546    10496    10427 
   10358    10269    10150    10027     9957     9999    10146    10305 
   10400    10449    10507    10569    10613    10615    10536    10390 
   10242    10129    10035     9963     9917     9913     9994    10161 
   10341    10462    10497    10446    10316    10169    10087    10073 
   10104    10180    10257    10287    10297    10320    10332    10293 
   10188    10068    10007    10049    10168    10284    10335    10343 
   10315    10237    10154    10116    10123    10181    10276    10343 
   10349    10296    10211    10134    10084    10066    10095    10172 
   10292    10424    10504    10515    10481    10415    10354    10320 
   10287    10251    10243    10250    10257    10254    10238    10227 
   10191    10114    10065    10064    10071    10077    10072    10089 
   10203    10377    10528    10609    10593    10524    10477    10443 
   10385    10296    10200    10150    10157    10183    10201    10192 
   10146    10096    10058    10023     9995     9992    10025    10084 
   10165    10268    10374    10451    10466    10424    10353    10280 
   10223    10180    10152    10156    10199    10272    10349    10386 
   10357    10266    10152    10084    10099    10153    10224    10328 
   10432    10484    10428    10242    10018     9887     9880     9983 
   10157    10327    10465    10555    10540    10417    10265    10172 
   10189    10276    10350    10389    10427    10459    10435    10309 
   10118     9979     9968    10073    10238    10370    10405    10376 
   10319    10235    10160    10122    10102    10107    10146    10214 
   10319    10440    10500    10446    10315    10197    10152    10173 
   10218    10220    10181    10199    10304    10419    10480    10465 
   10359    10201    10052     9953     9911     9922    10000    10131 
   10254    10365    10478    10548    10531    10442    10326    10235 
   10195    10176    10158    10133    10071     9968     9891     9895 
    9944     9999    10092    10218    10311    10359    10403    10449 
   10500    10557    10590    10546    10420    10274    10183    10164 
   10169    10156    10133    10141    10191    10249    10262    10218 
   10145    10104    10139    10233    10358    10496    10611    10652 
   10593    10442    10237    10041     9937     9950    10019    10093 
   10184    10291    10392    10486    10551    10540    10450    10303 
   10142    10030     9990     9996    10041    10118    10199    10270 
   10315    10311    10262    10207    10219    10328    10469    10559 
   10573    10480    10280    10046     9842     9710     9703     9813 
    9984    10191    10381    10507    10565    10542    10428    10293 
   10211    10204    10238    10272    10326    10403    10442    10426 
   10380    10278    10125     9994     9945     9984    10088    10201 
   10287    10332    10315    10235    10138    10056    10010    10037 
   10146    10299    10457    10577    10613    10579    10520    10446 
   10370    10314    10265    10212    10149    10058     9958     9899 
    9918    10021    10193    10392    10544    10613    10593    10500 
   10347    10164    10014     9954     9975    10065    10224    10380 
   10446    10404    10295    10184    10137    10162    10249    10376 
   10492    10555    10554    10444    10227    10002     9873     9875 
    9973    10107    10224    10277    10243    10184    10160    10153 
   10145    10146    10173    10257    10397    10508    10528    10478 
   10405    10357    10338    10309    10247    10153    10064    10037 
   10058    10061    10021     9973     9991    10125    10331    10508 
   10615    10666    10658    10563    10373    10127     9927     9864 
    9952    10146    10374    10543    10597    10559    10484    10388 
   10274    10162    10062     9995     9977     9988    10007    10034 
   10079    10152    10262    10408    10558    10660    10670    10570 
   10407    10250    10133    10045     9981     9976    10056    10179 
   10272    10297    10251    10166    10081    10019     9995     9994 
    9983    10004    10115    10297    10496    10654    10731    10727 
   10644    10497    10316    10106     9904     9806     9855    10027 
   10262    10469    10586    10585    10439    10210    10019     9915 
    9925    10068    10284    10463    10534    10496    10390    10262 
   10150    10088    10110    10211    10353    10496    10579    10525 
   10354    10173    10048     9979     9964    10014    10137    10284 
   10377    10407    10397    10350    10291    10249    10214    10164 
   10102    10046    10034    10064    10138    10285    10477    10613 
   10624    10534    10422    10326    10206    10052     9931     9923 
   10029    10185    10300    10284    10145    10006     9988    10103 
   10280    10428    10498    10473    10365    10239    10118     9971 
    9838     9826     9994    10296    10621    10854    10925    10832 
   10617    10351    10091     9873     9763     9822    10012    10215 
   10368    10447    10444    10382    10261    10088     9945     9892 
    9929    10048    10220    10386    10496    10547    10542    10481 
   10417    10395    10386    10343    10266    10181    10104    10048 
   10042    10103    10184    10241    10292    10362    10436    10490 
   10494    10423    10303    10185    10111    10100    10142    10200 
   10250    10285    10307    10318    10304    10255    10189    10119 
   10053    10033    10068    10116    10160    10224    10314    10405 
   10459    10434    10326    10173    10033     9946     9933     9987 
   10056    10110    10166    10201    10183    10130    10069    10046 
   10106    10228    10381    10557    10694    10732    10677    10547 
   10372    10216    10123    10066    10048    10093    10185    10287 
   10370    10393    10341    10264    10191    10131    10106    10095 
   10081    10091    10152    10254    10345    10377    10355    10297 
   10238    10243    10334    10454    10535    10540    10473    10358 
   10230    10138    10096    10052     9999     9998    10079    10201 
   10288    10323    10365    10415    10449    10474    10471    10409 
   10301    10173    10048     9968     9964    10018    10092    10154 
   10199    10253    10324    10366    10343    10292    10270    10295 
   10351    10419    10469    10508    10547    10547    10465    10331 
   10189    10038     9925     9925    10041    10211    10382    10512 
   10570    10551    10457    10281    10053     9836     9701     9668 
    9714     9807     9921    10029    10133    10234    10315    10389 
   10467    10517    10523    10527    10552    10586    10609    10589 
   10505    10392    10305    10287    10327    10377    10399    10422 
   10471    10493    10399    10191     9949     9747     9641     9675 
    9833    10050    10266    10435    10492    10415    10261    10089 
    9954     9926    10021    10183    10380    10584    10697    10647 
   10466    10223     9999     9886     9931    10107    10323    10507 
   10602    10563    10397    10142     9844     9610     9540     9618 
    9801    10023    10203    10326    10423    10465    10430    10388 
   10432    10590    10804    10956    10945    10779    10524    10203 
    9838     9491     9235     9158     9323     9690    10133    10528 
   10818    10967    10948    10809    10624    10450    10332    10285 
   10278    10250    10158    10041     9933     9833     9755     9721 
    9747     9869    10087    10330    10527    10625    10604    10493 
   10349    10247    10278    10438    10642    10813    10901    10868 
   10700    10404    10048     9747     9591     9607     9774    10015 
   10226    10326    10274    10111     9956     9906     9991    10214 
   10515    10775    10890    10802    10532    10200     9921     9738 
    9684     9801    10104    10517    10878    11045    10990    10795 
   10562    10330    10095     9871     9676     9505     9348     9246 
    9283     9522     9945    10482    11024    11448    11669    11646 
   11371    10917    10405     9925     9539     9278     9134     9127 
    9312     9691    10199    10724    11159    11429    11481    11275 
   10855    10353     9872     9466     9192     9119     9286     9645 
   10012    10201    10165    10017     9948    10060    10280    10488 
   10659    10818    10943    10932    10698    10291     9868     9583 
    9518     9647     9884    10158    10393    10538    10597    10590 
   10566    10593    10685    10793    10851    10777    10511    10120 
    9772     9622     9709     9952    10249    10540    10800    10997 
   11051    10905    10612    10282     9987     9740     9548     9444 
    9471     9613     9786     9921     9998    10030    10050    10073 
   10099    10166    10345    10673    11118    11553    11799    11751 
   11425    10875    10180     9471     8920     8658     8692     8939 
    9290     9639     9921    10106    10204    10291    10430    10651 
   10987    11400    11749    11902    11788    11400    10818    10156 
    9509     8972     8661     8629     8803     9072     9389     9780 
   10224    10625    10914    11070    11082    10984    10849    10701 
   10523    10322    10130    10010     9992    10007     9960     9838 
    9725     9737     9925    10242    10571    10831    11030    11196 
   11290    11210    10883    10349     9742     9194     8824     8737 
    8937     9340     9832    10319    10755    11080    11199    11084 
   10837    10636    10638    10831    11040    11113    11025    10839 
   10624    10390    10081     9690     9327     9108     9032     9039 
    9108     9254     9501     9807    10080    10254    10309    10249 
   10131    10084    10239    10606    11057    11453    11681    11686 
   11511    11184    10689    10069     9472     9094     9046     9229 
    9428     9501     9470     9450     9508     9672     9990    10443 
   10939    11357    11570    11493    11164    10705    10212     9749 
    9391     9246     9391     9767    10204    10570    10800    10929 
   11025    11084    11083    10987    10741    10378    10035     9813 
    9687     9598     9543     9559     9668     9873    10142    10401 
   10582    10700    10849    11065    11230    11190    10874    10370 
    9899     9657     9690     9895    10095    10195    10214    10147 
    9950     9645     9382     9335     9566     9972    10350    10569 
   10652    10631    10466    10143     9736     9447     9510     9942 
   10516    10999    11288    11371    11268    11010    10660    10320 
   10057     9915     9929    10096    10373    10667    10858    10874 
   10716    10428    10071     9701     9343     9050     8935     9059 
    9383     9855    10419    11013    11569    11938    11890    11333 
   10404     9387     8584     8186     8222     8621     9267    10025 
   10760    11345    11655    11638    11330    10867    10462    10272 
   10292    10423    10539    10536    10382    10087     9733     9485 
    9440     9566     9778    10021    10284    10525    10644    10615 
   10548    10517    10486    10417    10314    10183    10046     9957 
    9981    10156    10509    11028    11542    11807    11651    11060 
   10224     9400     8712     8263     8143     8314     8687     9207 
    9720    10011    10054    10033    10200    10696    11367    11928 
   12259    12371    12291    12051    11628    11006    10272     9599 
    9150     8946     8885     8946     9190     9586    10022    10407 
   10647    10693    10596    10435    10246    10044     9859     9798 
    9973    10328    10659    10795    10716    10519    10336    10273 
   10335    10428    10465    10405    10254    10038     9763     9444 
    9178     9090     9244     9624    10112    10558    10841    10916 
   10797    10575    10389    10347    10443    10546    10565    10484 
   10314    10107     9936     9842     9864    10034    10315    10586 
   10709    10616    10373    10095     9861     9738     9790    10029 
   10413    10832    11109    11110    10837    10389     9891     9472 
    9266     9364     9771    10393    11030    11457    11535    11275 
   10770    10135     9501     9028     8820     8856     9066     9375 
    9713     9983    10107    10141    10231    10465    10855    11345 
   11830    12220    12428    12372    12021    11411    10685    10084 
    9721     9522     9410     9332     9259     9232     9261     9300 
    9320     9304     9298     9397     9620     9927    10299    10701 
   11041    11187    11068    10770    10409    10053     9767     9625 
    9661     9892    10311    10791    11105    11146    10994    10754 
   10457    10079     9686     9444     9423     9543     9713     9890 
   10034    10108    10169    10314    10486    10578    10602    10663 
   10787    10883    10918    10970    11053    11142    11214    11200 
   11061    10817    10444     9931     9333     8706     8154     7819 
    7761     7948     8341     8912     9633    10438    11222    11847 
   12189    12209    11944    11462    10847    10230     9786     9620 
    9697     9900    10139    10328    10400    10354    10197     9942 
    9706     9598     9599     9629     9634     9632     9705     9922 
   10299    10795    11315    11773    12110    12272    12248    12046 
   11659    11111    10489     9925     9572     9512     9666     9848 
    9903     9796     9612     9437     9325     9301     9369     9520 
    9728     9948    10164    10363    10505    10602    10701    10768 
   10731    10536    10201     9832     9541     9398     9437     9609 
    9834    10107    10432    10708    10825    10766    10613    10507 
   10527    10640    10764    10841    10878    10901    10893    10783 
   10525    10184     9886     9682     9558     9516     9572     9724 
    9925    10106    10220    10258    10220    10131    10021     9909 
    9849     9888    10004    10185    10469    10817    11092    11168 
   10998    10617    10141     9684     9305     9055     9035     9324 
    9890    10546    11051    11252    11119    10747    10326    10007 
    9844     9857    10015    10226    10424    10527    10440    10153 
    9752     9424     9391     9694    10168    10633    10949    11026 
   10905    10693    10498    10386    10357    10427    10633    10898 
   11068    11033    10735    10207     9598     9131     9011     9274 
    9825    10543    11259    11755    11881    11581    10935    10138 
    9445     9069     9055     9343     9846    10377    10721    10800 
   10643    10377    10164    10033     9919     9801     9707     9683 
    9749     9857     9922     9903     9859     9902    10079    10324 
   10515    10540    10407    10200     9979     9776     9634     9578 
    9644     9891    10338    10905    11431    11759    11808    11578 
   11114    10494     9855     9363     9159     9254     9531     9856 
   10142    10366    10578    10821    11059    11217    11246    11146 
   10906    10498     9969     9420     8957     8695     8719     9031 
    9549    10122    10575    10787    10777    10716    10741    10868 
   11078    11315    11468    11445    11217    10787    10238     9706 
    9304     9097     9100     9227     9381     9558     9798    10077 
   10327    10494    10567    10571    10528    10449    10314    10102 
    9834     9583     9413     9335     9366     9536     9829    10193 
   10578    10854    10909    10777    10566    10416    10428    10571 
   10764    10962    11107    11141    11013    10692    10239     9810 
    9541     9460     9517     9661     9888    10166    10405    10588 
   10756    10925    11111    11319    11449    11407    11196    10840 
   10373     9850     9292     8760     8398     8290     8445     8800 
    9254     9748    10243    10690    11034    11205    11159    10975 
   10778    10632    10543    10484    10422    10349    10270    10158 
    9971     9753     9620     9657     9856    10125    10369    10542 
   10656    10733    10739    10628    10454    10345    10395    10563 
   10706    10714    10590    10407    10253    10173    10118    10014 
    9859     9718     9659     9715     9877    10088    10269    10378 
   10416    10397    10322    10184    10008     9837     9698     9616 
    9616     9699     9844    10002    10135    10265    10428    10612 
   10739    10752    10701    10665    10666    10681    10656    10592 
   10563    10619    10719    10814    10881    10906    10872    10764 
   10566    10284     9990     9799     9767     9855     9990    10120 
   10212    10231    10146     9971     9767     9605     9535     9579 
    9710     9859     9983    10083    10152    10174    10134    10080 
   10110    10264    10515    10786    10960    10980    10895    10747 
   10557    10372    10212    10080    10002     9963     9913     9868 
    9845     9828     9837     9923    10098    10303    10453    10531 
   10588    10627    10616    10592    10601    10613    10616    10625 
   10624    10613    10613    10621    10608    10521    10316    10035 
    9760     9545     9452     9522     9738    10038    10334    10527 
   10550    10368    10014     9606     9259     9042     8985     9077 
    9294     9593     9900    10173    10422    10665    10901    11084 
   11157    11118    10998    10790    10527    10292    10152    10142 
   10276    10505    10733    10887    10920    10804    10547    10210 
    9892     9698     9679     9828    10077    10320    10482    10557 
   10555    10497    10393    10270    10197    10239    10389    10567 
   10702    10754    10706    10588    10427    10226     9994     9801 
    9717     9732     9767     9772     9757     9745     9749     9784 
    9864    10007    10211    10449    10682    10856    10918    10829 
   10598    10297    10018     9838     9807     9898    10041    10193 
   10326    10419    10462    10434    10343    10250    10241    10346 
   10474    10485    10357    10188    10065    10022    10050    10107 
   10139    10130    10073     9981     9883     9805     9790     9890 
   10114    10412    10714    10948    11013    10839    10467    10019 
    9579     9215     9004     8976     9143     9489     9956    10494 
   11014    11399    11605    11604    11364    10941    10462    10081 
    9925     9994    10219    10498    10704    10771    10709    10543 
   10343    10177    10080    10084    10154    10185    10110     9937 
    9761     9702     9784     9972    10219    10439    10586    10689 
   10748    10743    10686    10609    10527    10435    10299    10085 
    9814     9525     9256     9072     9030     9143     9390     9702 
    9999    10245    10447    10619    10773    10890    10959    11007 
   11045    11002    10831    10590    10355    10168    10079    10099 
