Origin Time       2025/03/30 22:55:00
Lat.              41.993
Long.             142.725
Depth. (km)       55
Mag.              4.6
Station Code      AOMH06
Station Lat.      40.9664
Station Long.     141.3738
Station Height(m) 5
Record Time       2025/03/30 22:56:41
Sampling Freq(Hz) 100Hz
Duration Time(s)  120
Dir.              5
Scale Factor      7845(gal)/8223790
Max. Acc. (gal)   3.113
Last Correction   2025/03/30 22:56:41
Memo.             
[...]
  -26347   -26161   -25987   -25830   -25678   -25600   -25705   -25895 
  -26053   -26192   -26277   -26256   -26138   -25982   -25882   -25851 
  -25837   -25866   -25942   -25996   -26026   -26096   -26158   -26133 
  -26041   -25937   -25875   -25882   -25949   -26061   -26130   -26106 
  -26056   -26009   -25942   -25878   -25798   -25710   -25751   -25961 
  -26180   -26308   -26339   -26266   -26106   -25897   -25733   -25670 
  -25682   -25805   -26037   -26277   -26434   -26438   -26299   -26083 
  -25825   -25575   -25424   -25463   -25662   -25915   -26195   -26430 
  -26497   -26410   -26203   -25899   -25699   -25736   -25910   -26106 
  -26261   -26327   -26253   -26044   -25820   -25714   -25705   -25708 
  -25758   -25921   -26131   -26283   -26310   -26234   -26094   -25901 
  -25751   -25733   -25813   -25949   -26109   -26214   -26233   -26183 
  -26077   -25956   -25836   -25686   -25614   -25748   -25932   -25999 
  -26056   -26160   -26195   -26177   -26153   -26077   -26064   -26184 
  -26258   -26217   -26117   -25956   -25726   -25490   -25370   -25447 
  -25683   -25965   -26262   -26554   -26663   -26491   -26207   -25964 
  -25749   -25602   -25604   -25706   -25810   -25925   -26077   -26190 
  -26210   -26242   -26295   -26207   -26026   -25948   -25948   -25957 
  -26029   -26064   -25941   -25786   -25733   -25755   -25810   -25895 
  -26003   -26111   -26160   -26144   -26109   -26046   -25959   -25897 
  -25882   -25897   -25955   -26060   -26149   -26149   -26069   -25990 
  -25934   -25897   -25953   -26117   -26229   -26188   -26067   -25953 
  -25868   -25799   -25770   -25810   -25894   -25965   -25995   -26018 
  -26061   -26069   -26040   -26010   -26005   -26092   -26242   -26275 
  -26138   -25960   -25864   -25875   -25901   -25894   -25906   -25901 
  -25832   -25797   -25898   -26098   -26285   -26385   -26377   -26262 
  -26083   -25947   -25886   -25821   -25752   -25749   -25812   -25876 
  -25903   -25933   -25929   -25856   -25917   -26127   -26235   -26208 
  -26138   -26038   -25955   -25933   -25933   -25930   -25967   -26022 
  -26028   -26022   -26021   -25975   -25945   -25995   -26025   -26007 
  -26001   -25980   -25957   -25975   -26017   -26095   -26191   -26212 
  -26157   -26069   -25933   -25812   -25809   -25837   -25810   -25834 
  -25945   -25996   -25969   -26007   -26088   -26050   -25932   -25934 
  -26052   -26115   -26171   -26275   -26271   -26154   -26049   -25897 
  -25705   -25598   -25618   -25732   -25913   -26169   -26377   -26388 
  -26258   -26095   -25934   -25791   -25702   -25743   -25887   -26023 
  -26136   -26199   -26129   -25978   -25887   -25866   -25905   -25995 
  -26046   -26061   -26091   -26061   -25976   -25974   -26046   -26084 
  -26075   -26059   -26029   -25957   -25878   -25857   -25893   -25942 
  -25987   -26030   -26052   -26007   -25938   -25928   -25967   -26003 
  -26017   -26030   -26050   -26034   -26022   -26087   -26136   -26102 
  -26056   -26037   -25999   -25924   -25852   -25818   -25820   -25870 
  -25978   -26063   -26079   -26099   -26114   -26091   -26095   -26100 
  -26104   -26088   -25961   -25822   -25795   -25821   -25895   -26044 
  -26125   -26061   -25992   -25957   -25891   -25832   -25816   -25876 
  -26021   -26140   -26217   -26257   -26196   -26073   -25932   -25798 
  -25785   -25870   -25948   -26025   -26095   -26134   -26168   -26215 
  -26214   -26144   -26017   -25793   -25569   -25532   -25639   -25778 
  -25987   -26248   -26369   -26304   -26167   -25990   -25866   -25880 
  -25948   -26055   -26219   -26314   -26246   -26060   -25828   -25644 
  -25571   -25631   -25860   -26149   -26261   -26214   -26150   -26057 
  -25964   -25982   -26064   -26057   -25980   -25961   -26007   -25995 
  -25911   -25888   -25925   -25906   -25882   -25920   -25971   -26032 
  -26102   -26107   -26061   -26071   -26118   -26072   -25910   -25778 
  -25786   -25897   -26028   -26156   -26288   -26356   -26295   -26169 
  -26029   -25820   -25621   -25623   -25749   -25832   -25926   -26055 
  -26117   -26126   -26140   -26140   -26075   -25905   -25739   -25726 
  -25844   -25987   -26129   -26272   -26354   -26307   -26153   -25945 
  -25689   -25496   -25525   -25763   -26079   -26353   -26488   -26450 
  -26273   -26052   -25886   -25793   -25720   -25698   -25775   -25851 
  -25872   -25907   -25979   -26087   -26165   -26163   -26172   -26204 
  -26210   -26207   -26140   -25974   -25817   -25772   -25849   -25963 
  -26052   -26095   -26042   -25910   -25817   -25821   -25861   -25922 
  -26061   -26180   -26172   -26119   -26019   -25852   -25749   -25755 
  -25837   -26026   -26233   -26334   -26357   -26264   -25995   -25733 
  -25640   -25672   -25748   -25829   -25952   -26084   -26146   -26192 
  -26233   -26204   -26149   -26121   -26084   -26019   -25942   -25861 
  -25785   -25760   -25861   -26038   -26153   -26181   -26121   -25978 
  -25870   -25856   -25883   -25934   -25998   -26029   -26053   -26119 
  -26138   -26065   -26001   -25945   -25891   -25933   -26038   -26069 
  -26021   -25979   -25961   -25910   -25839   -25834   -25907   -25996 
  -26061   -26109   -26160   -26165   -26063   -25922   -25810   -25709 
  -25712   -25876   -26071   -26226   -26325   -26329   -26239   -26076 
  -25921   -25872   -25914   -25967   -25980   -25995   -26005   -25945 
  -25872   -25836   -25828   -25909   -26061   -26129   -26117   -26126 
  -26084   -25955   -25888   -25922   -25964   -26019   -26107   -26153 
  -26131   -26079   -25998   -25910   -25859   -25868   -25925   -25988 
  -26063   -26168   -26221   -26130   -25972   -25841   -25766   -25764 
  -25818   -25918   -26057   -26181   -26246   -26196   -26034   -25914 
  -25949   -26034   -26034   -25949   -25861   -25806   -25744   -25724 
  -25802   -25917   -26076   -26280   -26414   -26412   -26273   -26044 
  -25830   -25687   -25628   -25672   -25809   -26014   -26237   -26339 
  -26264   -26096   -25928   -25841   -25845   -25897   -26015   -26129 
  -26164   -26184   -26142   -25965   -25787   -25728   -25767   -25848 
  -25979   -26152   -26233   -26179   -26106   -26094   -26095   -26030 
  -25952   -25928   -25913   -25903   -25929   -25945   -25895   -25829 
  -25853   -25940   -26049   -26222   -26289   -26099   -25883   -25795 
  -25743   -25802   -26017   -26246   -26415   -26430   -26262   -26053 
  -25843   -25666   -25641   -25722   -25832   -26002   -26150   -26168 
  -26102   -25996   -25887   -25878   -25968   -26056   -26131   -26107 
  -25945   -25836   -25818   -25805   -25856   -25947   -25992   -26088 
  -26229   -26268   -26241   -26234   -26169   -26026   -25891   -25833 
  -25886   -26011   -26088   -26049   -25971   -25917   -25875   -25880 
  -25897   -25852   -25834   -25922   -26055   -26187   -26271   -26241 
  -26114   -25956   -25786   -25662   -25683   -25843   -26044   -26196 
  -26260   -26231   -26103   -25938   -25853   -25837   -25849   -25917 
  -26023   -26123   -26172   -26126   -26023   -25948   -25911   -25890 
  -25917   -25959   -25921   -25878   -25936   -26029   -26117   -26222 
  -26241   -26095   -25917   -25817   -25798   -25845   -25875   -25926 
  -26087   -26242   -26352   -26422   -26339   -26125   -25909   -25770 
  -25705   -25691   -25766   -25871   -25894   -25883   -25951   -26072 
  -26145   -26115   -26037   -25951   -25874   -25921   -26055   -26094 
  -26025   -25925   -25851   -25851   -25914   -26072   -26299   -26415 
  -26381   -26331   -26262   -26082   -25839   -25640   -25517   -25479 
  -25581   -25826   -26067   -26167   -26194   -26165   -26052   -26019 
  -26110   -26129   -26050   -25957   -25844   -25787   -25849   -25971 
  -26114   -26239   -26252   -26181   -26086   -25922   -25785   -25789 
  -25839   -25937   -26171   -26354   -26329   -26204   -26042   -25812 
  -25597   -25527   -25659   -25917   -26157   -26284   -26245   -26065 
  -25853   -25693   -25617   -25631   -25779   -26086   -26397   -26539 
  -26492   -26308   -26109   -25957   -25818   -25764   -25816   -25818 
  -25802   -25894   -26021   -26091   -26144   -26180   -26145   -26076 
  -26007   -25897   -25775   -25743   -25810   -25898   -25965   -26042 
  -26106   -26160   -26234   -26257   -26198   -26073   -25872   -25712 
  -25662   -25691   -25890   -26181   -26335   -26331   -26262   -26176 
  -26063   -25917   -25822   -25828   -25864   -25857   -25837   -25870 
  -25938   -26001   -26040   -26053   -26048   -26057   -26103   -26086 
  -25951   -25840   -25839   -25903   -26021   -26198   -26333   -26311 
  -26150   -25914   -25717   -25672   -25760   -25918   -26055   -26077 
  -26049   -26060   -26044   -25998   -26042   -26121   -26114   -26079 
  -26049   -25982   -25884   -25793   -25710   -25682   -25747   -25870 
  -26017   -26188   -26361   -26468   -26462   -26342   -26129   -25893 
  -25685   -25523   -25490   -25628   -25821   -26015   -26221   -26339 
  -26323   -26244   -26138   -26002   -25863   -25786   -25806   -25867 
  -25922   -25980   -26038   -26077   -26096   -26104   -26075   -26021 
  -26026   -26046   -26009   -26025   -26084   -26036   -25929   -25866 
  -25813   -25744   -25712   -25793   -25959   -26118   -26264   -26396 
  -26450   -26339   -26071   -25814   -25627   -25471   -25489   -25749 
  -26056   -26298   -26449   -26404   -26195   -25996   -25840   -25753 
  -25837   -25994   -26090   -26160   -26180   -26134   -26088   -26041 
  -25961   -25875   -25837   -25824   -25793   -25791   -25847   -25924 
  -26029   -26154   -26212   -26152   -26026   -25938   -25899   -25870 
  -25893   -25990   -26049   -26034   -26001   -25930   -25855   -25886 
  -26025   -26196   -26325   -26345   -26285   -26158   -25947   -25747 
  -25644   -25589   -25579   -25693   -25898   -26065   -26136   -26194 
  -26252   -26226   -26140   -26041   -25961   -25888   -25771   -25693 
  -25691   -25709   -25833   -26056   -26196   -26222   -26203   -26145 
  -26073   -26015   -25967   -25949   -26002   -26114   -26199   -26156 
  -26038   -25952   -25894   -25897   -25983   -26096   -26210   -26260 
  -26179   -26022   -25878   -25833   -25905   -26018   -26115   -26150 
  -26088   -25968   -25799   -25589   -25444   -25458   -25617   -25863 
  -26119   -26342   -26497   -26559   -26488   -26280   -26046   -25878 
  -25756   -25726   -25805   -25890   -25938   -26002   -26076   -26090 
  -26063   -26055   -26052   -26075   -26133   -26154   -26134   -26125 
  -26092   -26010   -25915   -25814   -25783   -25870   -25914   -25890 
  -25961   -26091   -26157   -26200   -26218   -26171   -26083   -25955 
  -25895   -26011   -26114   -26126   -26208   -26329   -26393   -26376 
  -26252   -26080   -25866   -25658   -25663   -25863   -26017   -26052 
  -26034   -25942   -25782   -25694   -25724   -25759   -25780   -25860 
  -25987   -26079   -26087   -26003   -25849   -25744   -25807   -26014 
  -26226   -26347   -26379   -26329   -26168   -25967   -25872   -25874 
  -25847   -25762   -25697   -25726   -25782   -25824   -25956   -26110 
  -26125   -26117   -26206   -26214   -26014   -25755   -25587   -25536 
  -25597   -25721   -25845   -25911   -25861   -25789   -25849   -25988 
  -26113   -26273   -26446   -26477   -26384   -26353   -26365   -26269 
  -26109   -25991   -25922   -25901   -25957   -26049   -26049   -25934 
  -25789   -25648   -25540   -25473   -25474   -25555   -25628   -25729 
  -25942   -26077   -26018   -25955   -25883   -25698   -25627   -25856 
  -26223   -26549   -26824   -27089   -27268   -27199   -26879   -26441 
  -25953   -25479   -25170   -25126   -25216   -25288   -25385   -25505 
  -25581   -25656   -25748   -25816   -25807   -25745   -25753   -25878 
  -26075   -26354   -26698   -26987   -27118   -27136   -27097   -26963 
  -26723   -26401   -26026   -25666   -25474   -25537   -25687   -25726 
  -25690   -25598   -25381   -25051   -24749   -24683   -24942   -25442 
  -26049   -26557   -26757   -26642   -26342   -25972   -25740   -25852 
  -26246   -26709   -27082   -27213   -26982   -26383   -25631   -25068 
  -24877   -25116   -25714   -26307   -26545   -26426   -26098   -25659 
  -25351   -25465   -25971   -26603   -27109   -27324   -27230   -26874 
  -26308   -25772   -25505   -25478   -25609   -25874   -26037   -25932 
  -25756   -25637   -25564   -25682   -25965   -26160   -26168   -26015 
  -25732   -25478   -25436   -25529   -25591   -25624   -25645   -25660 
  -25704   -25813   -26094   -26501   -26784   -26878   -26850   -26674 
  -26357   -25995   -25666   -25431   -25398   -25554   -25780   -26082 
  -26377   -26474   -26431   -26391   -26316   -26204   -26107   -25940 
  -25613   -25289   -25215   -25452   -25874   -26260   -26474   -26446 
  -26125   -25605   -25126   -24956   -25240   -25848   -26512   -26986 
  -27085   -26790   -26183   -25428   -24931   -25012   -25566   -26252 
  -26766   -26968   -26842   -26426   -25895   -25471   -25324   -25563 
  -26084   -26577   -26778   -26573   -25957   -25166   -24597   -24456 
  -24763   -25424   -26152   -26665   -26901   -26936   -26802   -26530 
  -26222   -25951   -25706   -25531   -25548   -25801   -26191   -26590 
  -26835   -26815   -26597   -26261   -25897   -25670   -25604   -25639 
  -25825   -26111   -26333   -26416   -26271   -25801   -25146   -24619 
  -24498   -24845   -25513   -26325   -26997   -27253   -27110   -26735 
  -26269   -25806   -25473   -25490   -25901   -26446   -26855   -26964 
  -26665   -26055   -25400   -24807   -24393   -24491   -25253   -26447 
  -27681   -28495   -28547   -27777   -26350   -24649   -23269   -22734 
  -23199   -24497   -26172   -27517   -28031   -27753   -26952   -25976 
  -25294   -25245   -25756   -26485   -27064   -27249   -26950   -26268 
  -25529   -25072   -25030   -25331   -25714   -25957   -26055   -25991 
  -25724   -25447   -25423   -25644   -26052   -26631   -27074   -27008 
  -26511   -25944   -25543   -25408   -25587   -26011   -26445   -26647 
  -26535   -26103   -25444   -24914   -24856   -25185   -25679   -26276 
  -26769   -26905   -26725   -26408   -26102   -25960   -26057   -26302 
  -26545   -26600   -26323   -25785   -25142   -24549   -24291   -24606 
  -25363   -26218   -26916   -27264   -27141   -26635   -25933   -25285 
  -24962   -25003   -25317   -25894   -26650   -27329   -27585   -27286 
  -26705   -26140   -25685   -25436   -25428   -25498   -25524   -25610 
  -25841   -26103   -26252   -26207   -26005   -25743   -25450   -25254 
  -25321   -25570   -25876   -26218   -26534   -26700   -26573   -26149 
  -25650   -25316   -25250   -25483   -25941   -26288   -26222   -25871 
  -25544   -25440   -25675   -26229   -26809   -27122   -27137   -26902 
  -26492   -26086   -25821   -25733   -25820   -26015   -26173   -26144 
  -25893   -25564   -25419   -25548   -25867   -26275   -26577   -26534 
  -26173   -25762   -25458   -25305   -25405   -25699   -25996   -26244 
  -26369   -26260   -25994   -25702   -25479   -25421   -25490   -25610 
  -25813   -26041   -26141   -26099   -26088   -26199   -26373   -26650 
  -26995   -27167   -27032   -26608   -25971   -25351   -24968   -24889 
  -25111   -25459   -25822   -26306   -26763   -26933   -26858   -26572 
  -26056   -25537   -25238   -25139   -25263   -25606   -26014   -26388 
  -26628   -26630   -26439   -26102   -25628   -25184   -24965   -25014 
  -25285   -25717   -26198   -26634   -26940   -27047   -26937   -26611 
  -26144   -25718   -25465   -25456   -25748   -26275   -26828   -27136 
  -27032   -26532   -25795   -25105   -24749   -24835   -25285   -25849 
  -26266   -26445   -26310   -25882   -25486   -25389   -25579   -26005 
  -26503   -26806   -26842   -26663   -26387   -26183   -26038   -25852 
  -25667   -25521   -25434   -25502   -25724   -25951   -26080   -26137 
  -26215   -26312   -26356   -26291   -26119   -25991   -26048   -26194 
  -26291   -26272   -26075   -25748   -25442   -25307   -25463   -25847 
  -26254   -26542   -26565   -26241   -25702   -25207   -24980   -25092 
  -25465   -25920   -26254   -26342   -26157   -25870   -25720   -25780 
  -26041   -26453   -26893   -27179   -27128   -26734   -26212   -25802 
  -25569   -25492   -25610   -25806   -25888   -25911   -25957   -25987 
  -26010   -26026   -26023   -25995   -25915   -25801   -25755   -25883 
  -26157   -26423   -26522   -26424   -26254   -26065   -25861   -25735 
  -25685   -25695   -25812   -25907   -25883   -25879   -25968   -26098 
  -26239   -26268   -26119   -25932   -25691   -25385   -25263   -25408 
  -25690   -26034   -26292   -26361   -26366   -26327   -26188   -26098 
  -26106   -26117   -26150   -26185   -26149   -26056   -25929   -25756 
  -25571   -25408   -25288   -25301   -25451   -25610   -25748   -25863 
  -25894   -25856   -25799   -25755   -25833   -26163   -26708   -27282 
  -27699   -27757   -27306   -26481   -25574   -24881   -24606   -24727 
  -25158   -25718   -26138   -26326   -26304   -26098   -25857   -25841 
  -26168   -26644   -27071   -27345   -27261   -26751   -26022   -25348 
  -24919   -24777   -24953   -25429   -25967   -26292   -26323   -26168 
  -25986   -25840   -25753   -25724   -25708   -25647   -25462   -25269 
  -25308   -25586   -25986   -26437   -26881   -27209   -27249   -26966 
  -26514   -26086   -25814   -25753   -25868   -26005   -25983   -25778 
  -25515   -25374   -25510   -25932   -26441   -26774   -26784   -26443 
  -25893   -25381   -25132   -25215   -25463   -25721   -26011   -26246 
  -26288   -26248   -26258   -26273   -26295   -26399   -26543   -26604 
  -26496   -26250   -25955   -25705   -25591   -25656   -25832   -25920 
  -25860   -25780   -25668   -25532   -25528   -25697   -25944   -26168 
  -26284   -26298   -26246   -26109   -25903   -25755   -25740   -25855 
  -26091   -26403   -26607   -26576   -26403   -26221   -26026   -25801 
  -25664   -25697   -25728   -25674   -25683   -25737   -25679   -25578 
  -25616   -25787   -25990   -26218   -26500   -26693   -26608   -26374 
  -26202   -26013   -25853   -25903   -25998   -25942   -25812   -25681 
  -25567   -25494   -25539   -25793   -26136   -26339   -26329   -26137 
  -25864   -25697   -25774   -26067   -26389   -26511   -26347   -26010 
  -25655   -25402   -25346   -25490   -25745   -26060   -26407   -26638 
  -26603   -26406   -26215   -26018   -25839   -25762   -25698   -25596 
  -25560   -25570   -25528   -25502   -25582   -25725   -25905   -26163 
  -26478   -26788   -27024   -27058   -26825   -26383   -25845   -25370 
  -25135   -25200   -25452   -25832   -26279   -26582   -26617   -26470 
  -26227   -25953   -25728   -25586   -25591   -25814   -26129   -26407 
  -26623   -26636   -26423   -26173   -25922   -25675   -25578   -25625 
  -25656   -25656   -25704   -25732   -25722   -25767   -25864   -26029 
  -26289   -26542   -26712   -26720   -26457   -26011   -25586   -25300 
  -25293   -25670   -26231   -26692   -26970   -26995   -26694   -26187 
  -25668   -25257   -25018   -25002   -25173   -25416   -25647   -25834 
  -25971   -26056   -26127   -26241   -26372   -26443   -26453   -26438 
  -26342   -26117   -25867   -25736   -25718   -25760   -25872   -26019 
  -26080   -26045   -25999   -25917   -25752   -25635   -25726   -25967 
  -26234   -26545   -26817   -26914   -26838   -26572   -26145   -25755 
  -25536   -25452   -25432   -25481   -25639   -25826   -25948   -26032 
  -26103   -26080   -25901   -25628   -25377   -25232   -25267   -25478 
