Origin Time       2025/03/30 22:55:00
Lat.              41.993
Long.             142.725
Depth. (km)       55
Mag.              4.6
Station Code      AOMH16
Station Lat.      40.4624
Station Long.     141.0923
Station Height(m) 165
Record Time       2025/03/30 22:56:56
Sampling Freq(Hz) 100Hz
Duration Time(s)  120
Dir.              3
Scale Factor      2942(gal)/8224139
Max. Acc. (gal)   0.125
Last Correction   2025/03/30 22:56:56
Memo.             
[...]
    8325     8309     8294     8291     8268     8210     8185     8220 
    8247     8259     8305     8363     8378     8336     8278     8272 
    8301     8280     8241     8251     8283     8294     8289     8267 
    8245     8282     8333     8303     8229     8191     8206     8251 
    8270     8255     8270     8306     8306     8268     8233     8221 
    8243     8289     8336     8374     8387     8371     8336     8272 
    8205     8202     8241     8247     8239     8283     8351     8382 
    8382     8380     8386     8372     8334     8314     8318     8328 
    8343     8356     8324     8241     8208     8262     8299     8278 
    8294     8357     8345     8255     8212     8243     8280     8301 
    8291     8252     8235     8247     8230     8191     8213     8295 
    8340     8318     8286     8259     8230     8208     8208     8243 
    8278     8262     8205     8168     8186     8233     8282     8317 
    8343     8352     8330     8275     8228     8236     8290     8325 
    8320     8313     8305     8266     8222     8222     8245     8253 
    8260     8275     8293     8314     8334     8348     8348     8317 
    8272     8260     8268     8264     8274     8289     8282     8283 
    8301     8318     8345     8351     8307     8257     8228     8213 
    8214     8243     8309     8359     8324     8255     8235     8233 
    8243     8280     8309     8324     8347     8347     8307     8276 
    8287     8305     8313     8328     8328     8290     8243     8198 
    8172     8194     8262     8325     8324     8280     8259     8245 
    8230     8259     8307     8317     8298     8284     8272     8287 
    8328     8333     8310     8307     8326     8351     8347     8306 
    8263     8241     8263     8333     8397     8407     8383     8324 
    8237     8187     8195     8237     8290     8329     8326     8248 
    8158     8179     8267     8318     8340     8322     8271     8240 
    8239     8253     8290     8325     8321     8282     8237     8206 
    8179     8158     8181     8252     8307     8314     8301     8291 
    8293     8278     8256     8271     8307     8322     8318     8316 
    8318     8328     8316     8268     8230     8220     8228     8241 
    8228     8210     8222     8239     8248     8266     8289     8318 
    8326     8294     8270     8276     8305     8340     8351     8333 
    8324     8313     8289     8268     8255     8256     8279     8310 
    8344     8375     8392     8394     8368     8317     8282     8280 
    8301     8316     8295     8272     8289     8303     8272     8221 
    8205     8235     8282     8317     8334     8351     8355     8311 
    8260     8255     8291     8347     8371     8336     8287     8251 
    8225     8214     8193     8187     8241     8297     8291     8255 
    8232     8236     8247     8255     8287     8340     8361     8337 
    8282     8210     8174     8194     8237     8272     8283     8267 
    8253     8252     8247     8274     8329     8328     8256     8205 
    8205     8228     8264     8305     8328     8328     8309     8286 
    8275     8260     8236     8222     8232     8286     8363     8384 
    8347     8295     8268     8271     8252     8229     8260     8309 
    8322     8313     8345     8417     8424     8374     8355     8313 
    8226     8217     8268     8268     8268     8317     8324     8259 
    8224     8256     8283     8290     8297     8293     8306     8344 
    8347     8317     8303     8303     8284     8253     8232     8222 
    8210     8197     8175     8168     8202     8272     8348     8391 
    8392     8371     8347     8321     8272     8229     8237     8263 
    8260     8260     8299     8345     8351     8328     8298     8268 
    8249     8229     8212     8247     8324     8338     8267     8198 
    8201     8230     8245     8270     8294     8274     8247     8270 
    8333     8382     8379     8345     8302     8271     8287     8330 
    8320     8270     8255     8272     8282     8253     8203     8213 
    8278     8324     8360     8398     8395     8361     8325     8278 
    8235     8224     8221     8226     8249     8259     8241     8218 
    8216     8240     8257     8260     8275     8276     8248     8263 
    8320     8338     8338     8376     8426     8422     8352     8252 
    8198     8233     8305     8340     8321     8274     8233     8197 
    8167     8197     8272     8295     8256     8256     8290     8257 
    8189     8199     8276     8334     8352     8357     8383     8395 
    8343     8259     8210     8206     8220     8224     8216     8228 
    8264     8293     8305     8303     8297     8320     8351     8340 
    8324     8322     8306     8283     8279     8294     8302     8267 
    8214     8193     8190     8185     8198     8237     8280     8306 
    8313     8313     8299     8268     8267     8338     8405     8388 
    8338     8295     8243     8221     8259     8326     8391     8419 
    8402     8338     8248     8191     8187     8199     8237     8302 
    8333     8309     8274     8264     8290     8316     8305     8290 
    8307     8324     8297     8240     8206     8222     8244     8217 
    8171     8168     8202     8237     8266     8305     8355     8371 
    8347     8324     8306     8282     8279     8299     8290     8272 
    8271     8259     8253     8255     8232     8214     8235     8272 
    8313     8341     8341     8316     8313     8360     8374     8303 
    8222     8205     8237     8279     8297     8316     8357     8355 
    8302     8293     8318     8324     8310     8270     8212     8202 
    8262     8333     8344     8317     8341     8376     8332     8259 
    8230     8235     8241     8232     8225     8262     8325     8353 
    8351     8360     8356     8287     8203     8187     8247     8324 
    8371     8378     8364     8324     8274     8253     8241     8239 
    8272     8283     8232     8198     8230     8278     8294     8270 
    8255     8293     8322     8284     8224     8194     8209     8271 
    8332     8365     8382     8351     8287     8233     8167     8125 
    8182     8294     8375     8371     8313     8267     8237     8206 
    8194     8203     8201     8205     8240     8274     8297     8321 
    8321     8307     8305     8295     8295     8322     8305     8245 
    8248     8302     8309     8268     8237     8237     8267     8279 
    8244     8198     8191     8239     8334     8428     8433     8379 
    8345     8322     8286     8267     8260     8236     8216     8232 
    8266     8301     8330     8332     8314     8330     8368     8367 
    8330     8299     8271     8244     8249     8316     8409     8451 
    8421     8334     8208     8104     8105     8185     8267     8324 
    8363     8380     8348     8272     8208     8194     8216     8228 
    8197     8164     8189     8251     8301     8334     8365     8367 
    8325     8267     8208     8187     8229     8282     8302     8280 
    8245     8237     8235     8235     8259     8293     8309     8290 
    8251     8244     8264     8260     8253     8276     8286     8263 
    8236     8217     8236     8276     8270     8240     8255     8301 
    8329     8328     8318     8313     8326     8353     8336     8278 
    8252     8260     8280     8297     8306     8336     8333     8262 
    8212     8230     8280     8314     8294     8260     8283     8336 
    8374     8394     8382     8341     8311     8325     8370     8378 
    8325     8253     8182     8158     8210     8280     8317     8307 
    8267     8262     8278     8252     8240     8271     8307     8351 
    8387     8384     8374     8374     8360     8314     8255     8232 
    8249     8263     8260     8286     8356     8421     8417     8349 
    8294     8278     8255     8222     8210     8214     8244     8316 
    8364     8306     8216     8202     8225     8229     8243     8263 
    8275     8280     8267     8249     8278     8349     8399     8364 
    8287     8249     8248     8229     8203     8197     8216     8259 
    8298     8303     8306     8326     8333     8330     8352     8388 
    8403     8384     8343     8321     8341     8359     8343     8321 
    8305     8271     8232     8214     8213     8189     8155     8158 
    8199     8243     8267     8268     8236     8220     8255     8275 
    8248     8221     8199     8191     8209     8230     8216     8193 
    8210     8264     8322     8374     8402     8360     8274     8236 
    8240     8233     8266     8329     8329     8268     8210     8178 
    8159     8156     8195     8287     8371     8370     8320     8309 
    8317     8314     8330     8329     8286     8253     8236     8212 
    8203     8247     8317     8348     8341     8307     8241     8182 
    8158     8167     8237     8356     8455     8492     8457     8361 
    8263     8212     8217     8237     8235     8264     8348     8379 
    8316     8237     8206     8228     8249     8221     8193     8224 
    8302     8384     8424     8399     8367     8365     8365     8329 
    8259     8217     8251     8294     8267     8228     8239     8255 
    8243     8226     8214     8228     8268     8280     8268     8283 
    8320     8349     8348     8329     8353     8401     8391     8325 
    8267     8260     8287     8307     8322     8352     8375     8365 
    8336     8328     8364     8403     8395     8340     8280     8286 
    8348     8356     8294     8251     8228     8182     8152     8167 
    8209     8286     8375     8407     8382     8348     8330     8343 
    8379     8394     8371     8313     8240     8206     8239     8297 
    8324     8252     8089     7966     7967     8025     8063     8067 
    8089     8172     8264     8310     8351     8403     8438     8422 
    8347     8257     8209     8229     8302     8364     8363     8321 
    8278     8244     8237     8249     8247     8249     8278     8297 
    8280     8256     8255     8278     8301     8294     8262     8266 
    8336     8378     8276     8109     8040     8086     8174     8251 
    8279     8256     8218     8205     8237     8309     8391     8441 
    8406     8336     8341     8419     8473     8490     8496     8479 
    8411     8299     8187     8133     8147     8185     8214     8222 
    8213     8225     8263     8293     8321     8356     8360     8333 
    8309     8291     8249     8166     8101     8120     8182     8237 
    8295     8349     8371     8328     8224     8133     8156     8274 
    8353     8363     8409     8519     8600     8556     8386     8217 
    8141     8133     8164     8197     8181     8151     8178     8256 
    8314     8325     8333     8356     8374     8388     8383     8353 
    8348     8395     8484     8545     8533     8502     8456     8340 
    8217     8181     8212     8236     8210     8151     8121     8145 
    8203     8249     8235     8191     8178     8190     8217     8280 
    8391     8502     8549     8521     8429     8345     8332     8284 
    8151     8031     7969     7962     8028     8118     8174     8208 
    8226     8224     8226     8259     8305     8361     8452     8545 
    8568     8498     8359     8182     8058     8050     8094     8127 
    8168     8243     8338     8419     8483     8552     8571     8492 
    8371     8270     8220     8221     8224     8229     8283     8310 
    8266     8236     8233     8216     8208     8198     8197     8260 
    8379     8486     8506     8430     8357     8344     8307     8206 
    8132     8106     8062     7990     7960     8023     8139     8216 
    8228     8217     8218     8237     8270     8313     8361     8401 
    8419     8442     8473     8449     8361     8283     8278     8325 
    8337     8279     8205     8179     8194     8206     8221     8263 
    8328     8376     8371     8338     8321     8306     8287     8276 
    8257     8228     8193     8162     8194     8299     8391     8395 
    8318     8243     8239     8248     8201     8164     8226     8320 
    8355     8370     8401     8434     8457     8433     8325     8205 
    8190     8236     8255     8268     8298     8328     8352     8338 
    8305     8301     8306     8290     8248     8167     8127     8187 
    8251     8267     8338     8471     8544     8526     8455     8332 
    8198     8098     8054     8094     8190     8299     8415     8449 
    8351     8226     8129     8066     8086     8178     8274     8347 
    8371     8344     8318     8353     8475     8588     8552     8410 
    8275     8166     8091     8083     8129     8176     8182     8183 
    8226     8262     8266     8298     8351     8374     8368     8364 
    8379     8394     8403     8428     8424     8313     8135     8021 
    8019     8060     8077     8081     8152     8295     8398     8413 
    8394     8407     8480     8563     8583     8527     8417     8302 
    8232     8182     8133     8135     8187     8213     8199     8201 
    8225     8240     8245     8272     8316     8333     8317     8298 
    8295     8297     8313     8347     8348     8305     8278     8287 
    8289     8260     8201     8122     8102     8160     8212     8256 
    8334     8372     8320     8239     8205     8218     8226     8230 
    8270     8313     8326     8314     8266     8212     8226     8301 
    8360     8402     8465     8503     8453     8360     8302     8297 
    8318     8328     8283     8148     7987     7933     8002     8101 
    8202     8314     8403     8437     8456     8491     8499     8469 
    8467     8473     8421     8338     8284     8268     8256     8226 
    8202     8213     8270     8328     8338     8326     8295     8229 
    8143     8062     8027     8070     8140     8179     8201     8220 
    8233     8259     8309     8371     8411     8398     8360     8365 
    8388     8372     8330     8295     8274     8256     8210     8121 
    8044     8033     8063     8091     8086     8041     8039     8122 
    8210     8252     8280     8334     8399     8422     8421     8464 
    8506     8495     8475     8482     8484     8455     8398     8352 
    8336     8344     8378     8399     8357     8290     8270     8289 
    8294     8276     8276     8320     8365     8353     8328     8357 
    8395     8386     8356     8314     8267     8243     8236     8275 
    8353     8370     8278     8129     8029     8047     8159     8302 
    8414     8445     8411     8363     8333     8324     8309     8274 
    8224     8182     8198     8275     8336     8352     8355     8345 
    8316     8302     8316     8321     8326     8374     8428     8425 
    8387     8348     8290     8230     8214     8239     8264     8286 
    8303     8295     8268     8257     8287     8340     8348     8286 
    8212     8129     8025     7956     7971     8067     8206     8282 
    8249     8213     8230     8267     8324     8384     8398     8345 
    8235     8120     8054     8027     8040     8112     8189     8198 
    8147     8113     8139     8189     8236     8294     8356     8384 
    8375     8352     8311     8268     8284     8347     8370     8357 
    8394     8495     8584     8577     8467     8333     8245     8189 
    8167     8181     8191     8208     8240     8253     8249     8248 
    8237     8228     8240     8249     8240     8237     8245     8237 
    8198     8145     8118     8160     8248     8291     8293     8326 
    8384     8421     8426     8391     8322     8270     8247     8236 
    8240     8247     8259     8297     8334     8356     8384     8411 
    8399     8337     8279     8313     8406     8459     8469     8459 
    8430     8455     8536     8579     8572     8545     8494     8446 
    8418     8386     8360     8347     8322     8297     8266     8210 
    8189     8230     8256     8216     8168     8181     8208     8168 
    8082     8001     7960     8004     8104     8176     8213     8230 
    8224     8206     8175     8145     8158     8194     8230     8276 
    8310     8326     8320     8266     8221     8275     8380     8410 
    8330     8239     8220     8255     8305     8361     8399     8407 
    8419     8456     8495     8514     8510     8509     8513     8494 
    8433     8324     8189     8117     8141     8213     8276     8272 
    8203     8158     8152     8152     8160     8174     8190     8214 
    8241     8274     8294     8279     8249     8220     8191     8176 
    8171     8156     8140     8159     8208     8260     8333     8406 
    8425     8413     8390     8336     8303     8338     8361     8324 
    8290     8268     8232     8201     8186     8197     8268     8379 
    8434     8407     8363     8328     8266     8195     8166     8182 
    8210     8241     8268     8276     8272     8272     8263     8236 
    8208     8167     8100     8047     8081     8193     8301     8359 
    8376     8328     8218     8156     8194     8256     8268     8247 
    8248     8270     8266     8240     8252     8322     8386     8384 
    8336     8306     8322     8341     8344     8361     8409     8465 
    8499     8494     8452     8397     8363     8360     8355     8328 
    8320     8334     8347     8349     8347     8311     8229     8125 
    8037     7987     7973     7970     8017     8129     8230     8275 
    8267     8239     8248     8275     8268     8268     8303     8326 
    8352     8413     8463     8476     8498     8532     8536     8511 
    8490     8465     8421     8372     8337     8301     8264     8233 
    8208     8232     8313     8394     8438     8433     8390     8347 
    8321     8317     8347     8382     8370     8305     8225     8174 
    8137     8081     8047     8081     8145     8210     8275     8321 
    8340     8333     8310     8284     8255     8217     8187     8166 
    8158     8178     8208     8202     8186     8217     8263     8279 
    8297     8334     8365     8392     8417     8387     8301     8230 
    8194     8162     8151     8191     8263     8318     8333     8325 
    8309     8264     8182     8109     8085     8086     8094     8120 
    8155     8178     8201     8224     8229     8222     8226     8270 
    8337     8357     8343     8356     8359     8326     8303     8289 
    8289     8351     8442     8494     8482     8425     8382     8380 
    8378     8353     8332     8325     8329     8328     8338     8383 
    8411     8359     8267     8206     8181     8187     8218     8233 
    8233     8267     8324     8347     8332     8318     8334     8376 
    8394     8345     8263     8199     8170     8155     8168     8209 
    8225     8214     8235     8272     8272     8237     8220     8230 
    8248     8271     8302     8328     8338     8348     8353     8317 
    8262     8244     8259     8272     8274     8266     8259     8252 
    8255     8278     8310     8338     8347     8318     8260     8208 
    8201     8240     8290     8333     8356     8325     8248     8195 
    8191     8208     8243     8307     8371     8391     8370     8357 
    8386     8422     8440     8434     8402     8364     8338     8322 
    8333     8353     8356     8341     8298     8228     8172     8151 
    8135     8117     8121     8135     8143     8168     8206     8208 
