Origin Time       2025/03/30 22:55:00
Lat.              41.993
Long.             142.725
Depth. (km)       55
Mag.              4.6
Station Code      AOMH16
Station Lat.      40.4624
Station Long.     141.0923
Station Height(m) 165
Record Time       2025/03/30 22:56:56
Sampling Freq(Hz) 100Hz
Duration Time(s)  120
Dir.              2
Scale Factor      2942(gal)/8224139
Max. Acc. (gal)   0.211
Last Correction   2025/03/30 22:56:56
Memo.             
[...]
   58935    58949    58961    58972    58984    58986    58976    58950 
   58920    58893    58878    58891    58924    58949    58978    59026 
   59042    59012    58976    58947    58935    58951    58968    58959 
   58947    58932    58928    58954    58969    58974    59034    59098 
   59078    59017    58973    58927    58897    58889    58862    58858 
   58926    58986    58981    58953    58932    58943    58977    58973 
   58930    58920    58946    58970    58968    58920    58876    58889 
   58914    58934    58980    58977    58918    58924    58985    58997 
   59005    59059    59088    59050    58978    58909    58899    58953 
   58984    58962    58953    58957    58931    58916    58962    59007 
   58970    58926    58953    59004    59022    59008    58980    58959 
   58945    58905    58865    58869    58878    58868    58878    58911 
   58942    58984    59016    59007    58995    59016    59022    58976 
   58930    58924    58930    58939    58995    59053    59044    59016 
   58999    58951    58895    58862    58837    58855    58928    58962 
   58949    58965    58999    59012    59020    59017    59000    58989 
   58973    58951    58963    58990    59001    58996    58957    58907 
   58907    58924    58926    58942    58981    59009    59016    58988 
   58938    58901    58895    58903    58904    58899    58909    58920 
   58923    58972    59042    59036    58995    59005    59009    58968 
   58951    58965    58951    58936    58955    58989    59013    59004 
   58968    58945    58945    58945    58935    58936    58958    58966 
   58946    58942    58974    58984    58949    58935    58965    58966 
   58923    58903    58907    58897    58900    58946    59004    59015 
   58968    58936    58968    59004    58999    58981    58965    58958 
   58976    58996    58982    58953    58941    58947    58949    58942 
   58958    59009    59055    59044    58978    58916    58918    58954 
   58969    58965    58962    58974    59009    59032    59012    58972 
   58936    58918    58924    58919    58889    58891    58918    58912 
   58909    58945    58985    59031    59059    59017    58962    58972 
   58988    58968    58955    58950    58951    58976    58972    58924 
   58884    58854    58839    58880    58955    59015    59043    59024 
   58966    58949    58989    59020    59028    59012    58955    58911 
   58926    58955    58980    59019    59034    58999    58965    58938 
   58892    58865    58846    58799    58789    58855    58924    58966 
   59005    59032    59040    59031    58988    58942    58931    58928 
   58931    58978    59036    59053    59022    58951    58869    58827 
   58841    58885    58938    58981    59005    59022    59042    59065 
   59088    59082    59044    59011    58978    58934    58914    58911 
   58877    58846    58843    58837    58857    58931    58992    59012 
   59017    58989    58955    58972    59008    59027    59038    59035 
   59012    58977    58930    58889    58887    58901    58905    58908 
   58901    58884    58884    58897    58896    58912    58976    59035 
   59055    59069    59086    59080    59047    59022    59020    59017 
   58989    58957    58951    58938    58888    58857    58878    58893 
   58885    58887    58900    58911    58927    58942    58935    58909 
   58904    58941    58986    59016    59026    59005    58966    58934 
   58918    58931    58958    58974    59005    59035    59034    59024 
   59011    58969    58936    58939    58947    58954    58954    58911 
   58860    58850    58865    58908    58989    59023    58970    58939 
   58977    59022    59061    59076    59003    58922    58926    58938 
   58926    58965    59003    58974    58951    58972    58996    59020 
   59032    59001    58976    58989    58980    58927    58891    58873 
   58845    58833    58862    58909    58955    58989    59000    59016 
   59040    59035    59026    59036    59031    59005    58999    58992 
   58974    58982    58980    58932    58895    58889    58892    58931 
   58990    59007    59008    59011    58976    58934    58920    58885 
   58857    58904    58962    58973    58969    58947    58905    58896 
   58914    58918    58926    58936    58928    58922    58924    58934 
   58961    58972    58953    58962    58990    58982    58946    58926 
   58927    58950    58974    58984    59004    59016    58977    58934 
   58927    58922    58907    58900    58918    58982    59054    59059 
   59023    59009    59000    58980    58974    58965    58939    58934 
   58957    58977    58973    58946    58935    58961    58993    58984 
   58947    58947    59000    59038    58996    58932    58924    58947 
   58968    58995    59005    58985    58970    58973    58977    58978 
   58968    58947    58919    58868    58827    58846    58903    58958 
   58985    58932    58851    58853    58934    59028    59111    59138 
   59093    59039    59004    58984    58980    58980    58976    58961 
   58932    58923    58927    58903    58892    58916    58892    58841 
   58884    58980    59023    59034    59015    58951    58934    58984 
   58999    58955    58912    58903    58932    58963    58946    58905 
   58888    58895    58926    58947    58919    58918    59005    59080 
   59059    59003    58955    58926    58922    58914    58897    58924 
   58973    58977    58946    58927    58963    59046    59051    58935 
   58842    58849    58895    58970    59040    59040    59038    59067 
   59032    58959    58976    59032    59017    58977    58936    58854 
   58830    58942    59044    59023    58961    58931    58920    58905 
   58888    58885    58942    59038    59096    59078    59015    58954 
   58932    58939    58963    59013    59031    58970    58908    58900 
   58900    58893    58916    58932    58900    58865    58874    58936 
   59023    59063    59032    58986    58955    58950    58969    58978 
   58976    59004    59030    58996    58951    58936    58916    58914 
   58946    58957    58954    58972    58969    58935    58908    58911 
   58966    59035    59027    58959    58915    58907    58923    58942 
   58924    58899    58912    58903    58855    58874    58954    58988 
   58982    58997    59011    59005    59015    59038    59030    59005 
   59013    59032    59009    58972    58963    58962    58938    58920 
   58926    58920    58914    58946    58974    58963    58973    59008 
   59003    58951    58897    58869    58900    58977    59032    59024 
   58965    58899    58869    58870    58876    58903    58949    58978 
   58989    58995    58989    58957    58900    58862    58868    58892 
   58914    58939    58945    58942    58997    59078    59086    59036 
   59001    58972    58928    58918    58943    58946    58934    58955 
   58968    58957    58981    59017    59003    58972    58966    58970 
   58973    58958    58926    58927    58950    58946    58932    58923 
   58908    58939    59007    59007    58938    58900    58903    58923 
   58965    59000    59004    59011    59023    59013    58980    58935 
   58911    58934    58963    58974    58974    58938    58869    58857 
   58919    58935    58880    58874    58945    58985    58978    59000 
   59040    59047    59028    59011    58995    58988    58981    58965 
   58968    58988    58980    58969    59007    59044    59007    58920 
   58876    58895    58928    58947    58976    59009    59020    59015 
   58997    58962    58941    58935    58914    58897    58919    58938 
   58934    58939    58936    58911    58908    58930    58941    58969 
   59023    59054    59059    59049    59017    58995    58984    58950 
   58892    58857    58853    58855    58870    58916    58955    58954 
   58949    58985    59036    59054    59058    59071    59054    58982 
   58915    58904    58932    58959    58966    58955    58958    58980 
   58969    58936    58941    58949    58912    58897    58947    58992 
   59016    59024    58968    58882    58877    58920    58941    58953 
   58961    58945    58934    58942    58961    58999    59019    58978 
   58924    58914    58938    58974    58995    58986    58988    59003 
   58986    58965    58982    58978    58915    58865    58884    58934 
   58962    58976    59012    59042    59017    58976    58963    58978 
   58997    58984    58941    58939    58969    58946    58903    58909 
   58936    58957    58973    58954    58911    58895    58895    58891 
   58901    58918    58945    59005    59055    59074    59092    59089 
   59061    59043    59019    58972    58954    58955    58918    58874 
   58851    58822    58822    58869    58909    58931    58959    58977 
   58972    58981    59008    59003    58953    58922    58939    58966 
   58984    59009    59024    59012    58993    58974    58947    58903 
   58851    58843    58874    58888    58911    58965    58986    58981 
   58990    58988    58950    58911    58887    58911    58970    58985 
   58965    58962    58945    58918    58932    58959    58970    58970 
   58947    58946    59013    59057    59003    58949    58953    58946 
   58939    58993    59053    59046    58999    58955    58936    58951 
   58963    58949    58930    58901    58866    58877    58931    58963 
   58985    59023    59034    59003    58968    58949    58966    59012 
   59019    58980    58966    58974    58949    58934    58968    58995 
   58995    58985    58965    58955    58957    58955    58972    59020 
   59054    59057    59042    58997    58946    58955    58999    58990 
   58943    58920    58934    58968    58997    58997    58976    58966 
   58990    59031    59022    58942    58884    58904    58926    58935 
   58988    59042    59046    59013    58930    58841    58861    58932 
   58927    58915    58982    59051    59055    59028    58965    58872 
   58822    58835    58873    58899    58889    58880    58897    58897 
   58874    58881    58900    58895    58892    58901    58907    58923 
   58942    58946    58969    59032    59100    59123    59080    58997 
   58919    58842    58787    58815    58911    58981    59012    59046 
   59055    59008    58949    58896    58833    58803    58835    58893 
   58958    59017    59026    58980    58950    58973    58995    58976 
   58966    58985    58986    58963    58959    58977    58976    58947 
   58947    58989    59000    58947    58887    58860    58882    58949 
   58981    58938    58878    58838    58828    58895    58999    59035 
   59000    58959    58928    58901    58899    58950    59046    59101 
   59062    59005    58985    58974    58963    58973    59005    59059 
   59088    59050    58999    58968    58922    58876    58850    58845 
   58889    58978    59035    59061    59097    59109    59105    59136 
   59121    59000    58905    58919    58985    59076    59132    59055 
   58927    58881    58870    58874    58930    58951    58899    58868 
   58905    58976    59023    59000    58959    58957    58955    58968 
   58989    58914    58783    58788    58907    58990    59035    59047 
   58978    58892    58889    58950    59031    59115    59146    59107 
   59030    58938    58877    58892    58922    58916    58918    58922 
   58891    58885    58954    59035    59076    59066    59015    58977 
   58958    58916    58876    58885    58926    58995    59080    59144 
   59190    59200    59117    59009    58978    58970    58928    58900 
   58887    58870    58891    58946    58981    58972    58930    58877 
   58826    58772    58737    58776    58873    58951    59017    59103 
   59142    59094    59003    58922    58900    58924    58936    58973 
   59085    59216    59279    59244    59111    58935    58796    58729 
   58720    58718    58718    58789    58891    58912    58891    58905 
   58909    58882    58866    58860    58865    58895    58932    58976 
   59049    59130    59169    59134    59047    58962    58900    58869 
   58874    58870    58833    58857    58949    58946    58831    58761 
   58739    58715    58760    58877    58961    58986    58966    58903 
   58885    58947    58972    58935    58941    58989    58999    58965 
   58935    58932    58993    59128    59274    59346    59317    59258 
   59227    59139    58947    58784    58743    58761    58757    58716 
   58645    58599    58627    58691    58726    58746    58851    59051 
   59211    59259    59236    59167    59092    59049    59023    59008 
   58997    58919    58800    58781    58865    58924    58899    58814 
   58749    58785    58884    58985    59088    59167    59217    59279 
   59283    59142    58989    58949    58938    58915    58935    58954 
   58938    58928    58899    58808    58769    58876    59053    59206 
   59319    59339    59256    59148    59054    58961    58896    58891 
   58909    58942    59027    59157    59224    59189    59107    58961 
   58735    58560    58526    58554    58579    58623    58720    58850 
   58945    58986    58999    59007    59069    59220    59363    59408 
   59352    59205    59022    58930    58915    58849    58762    58765 
   58841    58934    59015    59042    59008    58954    58941    59013 
   59134    59228    59294    59333    59298    59192    59043    58849 
   58630    58490    58500    58603    58684    58720    58754    58811 
   58919    59058    59128    59136    59173    59188    59120    59055 
   59028    58965    58868    58816    58853    58901    58838    58657 
   58464    58368    58465    58753    59032    59154    59200    59235 
   59208    59147    59084    58973    58891    58928    59011    59089 
   59162    59119    58992    58977    59058    59090    59078    59016 
   58854    58703    58693    58820    59049    59292    59400    59368 
   59252    59043    58861    58816    58800    58749    58746    58818 
   58930    59007    58972    58935    59005    59028    58923    58819 
   58730    58653    58702    58838    58943    59030    59059    59005 
   58999    59039    58943    58729    58575    58513    58494    58530 
   58669    58916    59155    59248    59225    59167    59081    58982 
   58909    58903    59023    59216    59333    59317    59157    58860 
   58622    58611    58687    58718    58845    59140    59379    59350 
   59157    59043    59059    59084    59050    58943    58758    58590 
   58569    58707    58943    59211    59417    59497    59428    59205 
   58966    58945    59082    59065    58843    58676    58666    58729 
   58801    58839    58807    58764    58760    58766    58770    58824 
   58950    59059    59067    58976    58822    58708    58800    59065 
   59225    59185    59097    59035    58997    59055    59190    59246 
   59188    59152    59181    59170    59089    58992    58900    58857 
   58930    59053    59062    58946    58860    58881    58950    59032 
   59125    59169    59112    59013    58922    58834    58788    58826 
   58931    59094    59255    59258    59089    58926    58824    58741 
   58731    58804    58855    58838    58746    58633    58656    58838 
   58984    58965    58807    58614    58542    58619    58749    58920 
   59090    59101    58959    58803    58654    58576    58669    58847 
   58984    59058    59051    58989    58978    59055    59174    59274 
   59293    59256    59229    59216    59223    59254    59252    59186 
   59090    59039    59092    59175    59166    59055    58888    58707 
   58630    58685    58743    58753    58793    58855    58858    58799 
   58765    58818    58945    59096    59233    59285    59201    59042 
   58900    58818    58820    58876    58897    58878    58869    58823 
   58702    58623    58664    58743    58828    58965    59081    59101 
   59139    59275    59370    59337    59275    59228    59112    58926 
   58806    58822    58878    58893    58911    58953    58977    59012 
   59089    59158    59213    59266    59290    59313    59350    59314 
   59181    59015    58835    58681    58618    58611    58623    58692 
   58792    58839    58823    58793    58800    58868    58953    58990 
   58976    58909    58800    58720    58716    58756    58842    58966 
   59034    59009    58970    58969    59008    59032    58992    58973 
   59023    59007    58901    58830    58812    58857    59004    59121 
   59057    58918    58866    58918    59063    59240    59302    59231 
   59132    59047    58961    58893    58876    58920    58995    59046 
   59084    59131    59125    59020    58872    58739    58671    58699 
   58749    58741    58753    58797    58787    58810    58942    58993 
   58881    58820    58901    58982    58972    58901    58816    58785 
   58873    59044    59194    59259    59256    59247    59285    59305 
   59179    58969    58841    58784    58737    58784    58912    58965 
   58966    59030    59065    58963    58811    58698    58600    58527 
   58565    58741    58970    59163    59277    59294    59273    59310 
   59370    59339    59235    59136    59036    58931    58843    58754 
   58714    58773    58830    58843    58908    58988    59000    58978 
   58928    58831    58756    58752    58783    58835    58904    58955 
   58999    59081    59189    59227    59158    59096    59138    59202 
   59179    59082    58953    58799    58687    58720    58860    58984 
   59057    59086    59032    58899    58777    58716    58698    58716 
   58770    58854    58969    59066    59069    59015    59039    59158 
   59258    59242    59092    58888    58730    58635    58623    58737 
   58916    59088    59252    59350    59316    59204    59070    58954 
   58924    58953    58954    58970    59024    58986    58827    58700 
   58702    58765    58808    58853    58978    59158    59258    59247 
   59208    59130    58974    58849    58855    58908    58901    58843 
   58787    58774    58803    58853    58897    58903    58851    58788 
   58772    58793    58822    58885    59008    59130    59162    59077 
   58928    58803    58734    58675    58619    58672    58847    59009 
   59105    59202    59287    59312    59336    59367    59329    59266 
   59233    59136    58924    58720    58638    58688    58806    58904 
   58957    58981    58953    58868    58777    58727    58734    58799 
   58914    59046    59130    59116    59054    58992    58927    58901 
   58961    59023    58977    58842    58729    58722    58796    58870 
   58903    58873    58808    58803    58882    58984    59090    59192 
   59225    59213    59200    59119    58981    58914    58914    58905 
   58932    59013    59055    59030    58966    58889    58830    58801 
   58841    58980    59080    58988    58845    58827    58858    58889 
   58981    59066    59084    59080    59055    59040    59096    59139 
   59084    58982    58872    58750    58688    58739    58850    58957 
   59008    59003    59001    59001    58949    58880    58847    58845 
   58870    58888    58860    58855    58932    59019    59088    59178 
   59229    59173    59086    59080    59123    59101    58988    58872 
   58822    58860    58996    59130    59148    59086    58980    58828 
   58754    58808    58861    58892    58970    59016    58973    58932 
   58907    58853    58839    58919    59051    59177    59232    59170 
   59031    58905    58872    58935    59028    59089    59089    59032 
