Origin Time       2025/03/30 22:55:00
Lat.              41.993
Long.             142.725
Depth. (km)       55
Mag.              4.6
Station Code      AOMH06
Station Lat.      40.9664
Station Long.     141.3738
Station Height(m) 5
Record Time       2025/03/30 22:56:41
Sampling Freq(Hz) 100Hz
Duration Time(s)  120
Dir.              4
Scale Factor      7845(gal)/8223790
Max. Acc. (gal)   2.324
Last Correction   2025/03/30 22:56:41
Memo.             
[...]
   -2648    -2470    -2482    -2647    -2874    -3103    -3342    -3530 
   -3537    -3323    -2974    -2625    -2430    -2430    -2577    -2852 
   -3196    -3468    -3559    -3418    -3078    -2708    -2513    -2589 
   -2844    -3086    -3203    -3213    -3161    -3076    -2964    -2817 
   -2679    -2632    -2710    -2876    -3068    -3188    -3198    -3152 
   -3075    -2955    -2836    -2787    -2824    -2911    -3026    -3149 
   -3218    -3169    -3009    -2808    -2663    -2647    -2798    -3060 
   -3265    -3308    -3190    -2992    -2864    -2872    -2934    -2974 
   -2963    -2862    -2727    -2698    -2822    -3045    -3273    -3403 
   -3361    -3138    -2797    -2506    -2435    -2590    -2867    -3175 
   -3404    -3469    -3420    -3331    -3175    -2932    -2679    -2502 
   -2425    -2457    -2627    -2928    -3267    -3480    -3451    -3230 
   -2972    -2783    -2701    -2768    -2972    -3160    -3211    -3163 
   -3051    -2830    -2540    -2377    -2509    -2867    -3222    -3426 
   -3470    -3392    -3225    -3003    -2772    -2596    -2525    -2556 
   -2698    -2983    -3335    -3597    -3647    -3416    -2952    -2500 
   -2300    -2389    -2664    -2964    -3160    -3276    -3312    -3192 
   -2976    -2835    -2845    -2959    -3065    -3094    -3075    -3059 
   -3036    -2980    -2863    -2704    -2608    -2646    -2790    -2997 
   -3190    -3261    -3217    -3142    -3092    -3076    -3059    -3001 
   -2906    -2828    -2809    -2851    -2956    -3114    -3194    -3088 
   -2910    -2791    -2695    -2643    -2717    -2882    -3069    -3235 
   -3272    -3149    -2967    -2822    -2797    -2936    -3127    -3206 
   -3134    -2984    -2839    -2776    -2849    -2991    -3072    -3080 
   -3075    -3014    -2856    -2700    -2673    -2814    -3073    -3306 
   -3383    -3298    -3117    -2905    -2713    -2616    -2690    -2874 
   -3038    -3106    -3059    -2945    -2849    -2799    -2795    -2868 
   -3034    -3240    -3365    -3316    -3152    -3015    -2955    -2917 
   -2840    -2728    -2660    -2687    -2805    -3006    -3230    -3357 
   -3307    -3067    -2727    -2475    -2470    -2729    -3123    -3460 
   -3592    -3468    -3125    -2673    -2308    -2228    -2470    -2894 
   -3284    -3438    -3342    -3165    -3030    -2947    -2903    -2901 
   -2918    -2933    -2940    -2944    -2964    -3015    -3052    -3024 
   -2976    -2965    -2952    -2917    -2897    -2901    -2921    -2988 
   -3100    -3187    -3202    -3134    -2994    -2862    -2812    -2798 
   -2759    -2727    -2770    -2895    -3024    -3076    -3068    -3060 
   -3034    -2956    -2862    -2814    -2829    -2880    -3001    -3241 
   -3508    -3608    -3433    -3042    -2632    -2381    -2365    -2574 
   -2921    -3249    -3402    -3331    -3110    -2866    -2702    -2662 
   -2706    -2809    -2965    -3106    -3159    -3122    -3030    -2965 
   -2980    -3025    -3034    -2974    -2886    -2872    -2961    -3094 
   -3173    -3094    -2901    -2752    -2698    -2709    -2825    -3053 
   -3261    -3323    -3244    -3065    -2847    -2702    -2673    -2727 
   -2876    -3067    -3168    -3173    -3157    -3115    -3041    -2929 
   -2779    -2659    -2612    -2637    -2779    -3040    -3334    -3545 
   -3538    -3292    -2983    -2776    -2693    -2710    -2794    -2879 
   -2941    -3006    -3083    -3142    -3117    -2983    -2849    -2824 
   -2876    -2922    -2953    -2995    -2999    -2951    -2898    -2868 
   -2875    -2921    -2976    -3038    -3127    -3190    -3148    -3021 
   -2883    -2774    -2713    -2716    -2770    -2852    -2974    -3125 
   -3244    -3316    -3354    -3310    -3149    -2905    -2643    -2486 
   -2528    -2700    -2907    -3142    -3356    -3422    -3303    -3071 
   -2836    -2687    -2644    -2677    -2779    -2970    -3214    -3404 
   -3433    -3254    -2917    -2583    -2457    -2573    -2798    -3001 
   -3126    -3181    -3208    -3222    -3190    -3071    -2883    -2728 
   -2720    -2857    -3015    -3105    -3160    -3203    -3149    -2925 
   -2620    -2442    -2520    -2806    -3129    -3333    -3346    -3195 
   -2983    -2837    -2812    -2876    -2955    -2964    -2906    -2867 
   -2911    -3036    -3154    -3160    -3045    -2895    -2789    -2749 
   -2760    -2826    -2992    -3225    -3408    -3447    -3292    -2988 
   -2687    -2536    -2566    -2724    -2937    -3098    -3168    -3200 
   -3187    -3082    -2909    -2747    -2681    -2741    -2878    -3040 
   -3199    -3275    -3207    -3057    -2902    -2771    -2708    -2756 
   -2918    -3114    -3210    -3118    -2911    -2779    -2810    -2920 
   -2987    -2984    -2948    -2949    -3051    -3198    -3261    -3177 
   -2982    -2774    -2648    -2632    -2721    -2895    -3078    -3186 
   -3218    -3190    -3118    -3030    -2948    -2891    -2876    -2886 
   -2890    -2911    -2967    -3003    -3010    -3026    -3029    -2976 
   -2909    -2860    -2830    -2853    -2933    -3014    -3053    -3055 
   -3036    -3025    -3049    -3057    -3013    -2960    -2920    -2875 
   -2851    -2871    -2929    -3010    -3109    -3183    -3167    -3057 
   -2924    -2857    -2887    -2952    -2984    -2974    -2903    -2782 
   -2687    -2701    -2843    -3052    -3227    -3288    -3226    -3083 
   -2945    -2891    -2902    -2940    -2956    -2895    -2806    -2779 
   -2843    -2988    -3167    -3245    -3150    -2994    -2911    -2898 
   -2868    -2805    -2783    -2866    -3033    -3196    -3262    -3219 
   -3117    -2957    -2741    -2566    -2565    -2772    -3086    -3352 
   -3451    -3342    -3071    -2768    -2600    -2636    -2797    -2955 
   -3051    -3071    -3022    -2961    -2957    -3014    -3073    -3080 
   -3015    -2934    -2940    -3022    -3109    -3177    -3175    -3049 
   -2828    -2574    -2412    -2470    -2737    -3088    -3358    -3433 
   -3334    -3144    -2943    -2814    -2781    -2806    -2868    -2967 
   -3082    -3163    -3165    -3060    -2860    -2681    -2639    -2728 
   -2897    -3086    -3229    -3295    -3267    -3123    -2913    -2729 
   -2652    -2727    -2906    -3067    -3136    -3117    -3036    -2898 
   -2744    -2673    -2735    -2898    -3109    -3316    -3447    -3403 
   -3164    -2867    -2713    -2758    -2867    -2940    -2982    -2979 
   -2926    -2882    -2883    -2917    -2947    -2965    -3013    -3099 
   -3183    -3204    -3115    -2944    -2779    -2632    -2525    -2579 
   -2816    -3114    -3370    -3478    -3369    -3114    -2870    -2717 
   -2682    -2776    -2951    -3114    -3211    -3202    -3086    -2933 
   -2781    -2674    -2683    -2782    -2911    -3059    -3180    -3210 
   -3165    -3103    -3018    -2907    -2855    -2913    -3014    -3078 
   -3069    -2991    -2879    -2783    -2740    -2775    -2883    -3037 
   -3159    -3142    -2995    -2843    -2779    -2840    -2992    -3145 
   -3208    -3154    -3011    -2837    -2716    -2709    -2825    -3033 
   -3246    -3339    -3264    -3063    -2847    -2739    -2729    -2745 
   -2812    -2934    -3041    -3102    -3134    -3118    -3042    -2933 
   -2839    -2803    -2825    -2889    -2992    -3096    -3125    -3051 
   -2910    -2764    -2713    -2795    -2953    -3118    -3242    -3284 
   -3234    -3115    -2976    -2863    -2817    -2853    -2922    -2976 
   -3010    -3015    -2982    -2929    -2845    -2736    -2687    -2758 
   -2899    -3022    -3076    -3099    -3148    -3225    -3252    -3163 
   -2991    -2830    -2799    -2947    -3140    -3198    -3082    -2864 
   -2655    -2578    -2664    -2848    -3045    -3183    -3242    -3250 
   -3210    -3105    -2948    -2802    -2721    -2725    -2821    -2968 
   -3103    -3176    -3138    -2998    -2879    -2874    -2940    -3005 
   -3017    -2932    -2822    -2817    -2917    -3017    -3015    -2898 
   -2782    -2793    -2953    -3213    -3424    -3456    -3319    -3079 
   -2759    -2463    -2369    -2520    -2806    -3087    -3268    -3358 
   -3384    -3275    -3001    -2701    -2552    -2604    -2790    -3030 
   -3253    -3372    -3316    -3084    -2802    -2620    -2574    -2666 
   -2866    -3052    -3163    -3221    -3206    -3130    -3026    -2874 
   -2752    -2779    -2895    -3048    -3227    -3316    -3242    -3045 
   -2751    -2494    -2474    -2655    -2863    -3025    -3127    -3172 
   -3175    -3134    -3075    -3037    -3015    -2978    -2932    -2922 
   -2965    -3005    -2976    -2922    -2928    -2988    -3063    -3132 
   -3150    -3083    -2933    -2752    -2652    -2729    -2949    -3164 
   -3234    -3130    -2925    -2745    -2686    -2745    -2840    -2891 
   -2903    -2922    -3032    -3237    -3381    -3348    -3172    -2937 
   -2740    -2656    -2704    -2852    -3041    -3184    -3187    -3030 
   -2817    -2693    -2739    -2930    -3164    -3349    -3411    -3289 
   -3041    -2797    -2635    -2570    -2598    -2720    -2887    -3049 
   -3192    -3265    -3208    -3056    -2905    -2820    -2812    -2820 
   -2794    -2813    -2930    -3076    -3200    -3284    -3262    -3136 
   -2995    -2887    -2801    -2771    -2832    -2936    -3033    -3069 
   -2991    -2871    -2836    -2916    -3055    -3180    -3222    -3146 
   -2982    -2795    -2646    -2582    -2613    -2722    -2911    -3140 
   -3349    -3493    -3474    -3245    -2894    -2590    -2500    -2651 
   -2897    -3103    -3231    -3245    -3123    -2920    -2752    -2724 
   -2845    -3056    -3244    -3288    -3179    -3014    -2901    -2897 
   -2940    -2922    -2864    -2857    -2920    -3022    -3127    -3154 
   -3088    -2990    -2855    -2691    -2605    -2640    -2797    -3040 
   -3253    -3341    -3291    -3117    -2871    -2647    -2528    -2594 
   -2857    -3168    -3346    -3350    -3221    -3005    -2783    -2652 
   -2701    -2948    -3248    -3389    -3288    -3040    -2802    -2675 
   -2674    -2739    -2791    -2808    -2845    -2961    -3121    -3250 
   -3329    -3341    -3230    -3019    -2867    -2847    -2889    -2947 
   -3021    -3067    -3075    -3060    -2982    -2860    -2794    -2799 
   -2844    -2921    -2995    -3033    -3060    -3094    -3092    -3029 
   -2956    -2918    -2913    -2920    -2906    -2875    -2871    -2922 
   -3021    -3111    -3126    -3069    -3013    -3003    -3028    -3021 
   -2936    -2825    -2770    -2755    -2722    -2693    -2729    -2844 
   -2992    -3091    -3078    -2988    -2899    -2859    -2883    -2968 
   -3069    -3153    -3240    -3335    -3366    -3265    -3069    -2891 
   -2778    -2685    -2621    -2632    -2720    -2876    -3053    -3145 
   -3109    -3053    -3079    -3181    -3296    -3315    -3169    -2956 
   -2821    -2832    -2924    -2976    -2914    -2763    -2623    -2583 
   -2632    -2708    -2812    -2970    -3121    -3188    -3177    -3113 
   -3007    -2902    -2863    -2910    -2933    -2781    -2486    -2257 
   -2270    -2550    -2953    -3285    -3414    -3304    -3061    -2851 
   -2764    -2790    -2863    -2944    -3032    -3117    -3172    -3203 
   -3244    -3302    -3330    -3235    -2992    -2748    -2681    -2776 
   -2949    -3180    -3406    -3493    -3397    -3167    -2909    -2770 
   -2839    -3082    -3370    -3530    -3439    -3134    -2768    -2497 
   -2409    -2493    -2660    -2848    -3018    -3138    -3202    -3194 
   -3109    -2984    -2839    -2683    -2586    -2596    -2728    -2971 
   -3218    -3330    -3275    -3105    -2930    -2894    -3003    -3133 
   -3223    -3284    -3299    -3268    -3186    -3034    -2864    -2776 
   -2797    -2821    -2722    -2538    -2428    -2448    -2524    -2627 
   -2814    -3127    -3522    -3892    -4106    -4059    -3753    -3342 
   -3059    -3046    -3223    -3383    -3323    -2970    -2469    -2088 
   -1944    -1958    -2065    -2239    -2397    -2477    -2578    -2782 
   -2999    -3109    -3069    -2934    -2849    -2925    -3118    -3341 
   -3553    -3654    -3520    -3196    -2851    -2600    -2486    -2531 
   -2729    -3040    -3375    -3670    -3866    -3855    -3553    -3032 
   -2533    -2286    -2339    -2569    -2820    -2987    -2948    -2650 
   -2374    -2498    -3061    -3788    -4330    -4440    -4071    -3346 
   -2508    -1867    -1640    -1850    -2344    -2844    -3095    -3046 
   -2848    -2716    -2743    -2867    -2974    -3006    -2991    -3030 
   -3221    -3546    -3794    -3705    -3269    -2710    -2187    -1813 
   -1776    -2185    -2914    -3662    -4137    -4205    -3892    -3335 
   -2747    -2330    -2166    -2262    -2614    -3118    -3569    -3777 
   -3636    -3214    -2728    -2377    -2309    -2585    -3092    -3603 
   -3909    -3913    -3609    -3073    -2539    -2262    -2284    -2481 
   -2724    -2944    -3125    -3249    -3242    -3059    -2768    -2485 
   -2282    -2216    -2336    -2709    -3338    -4058    -4564    -4576 
   -4033    -3113    -2101    -1345    -1151    -1566    -2377    -3280 
   -3963    -4255    -4178    -3785    -3117    -2336    -1719    -1491 
   -1687    -2220    -2999    -3838    -4422    -4534    -4168    -3454 
   -2627    -1973    -1691    -1830    -2320    -3001    -3663    -4120 
   -4226    -3873    -3153    -2430    -2016    -1944    -2069    -2300 
   -2617    -2976    -3283    -3462    -3483    -3350    -3080    -2705 
   -2381    -2335    -2666    -3241    -3730    -3820    -3468    -2872 
   -2330    -2070    -2122    -2369    -2763    -3288    -3789    -4032 
   -3870    -3277    -2371    -1534    -1225    -1614    -2540    -3713 
   -4785    -5406    -5360    -4627    -3419    -2143    -1235    -1020 
   -1530    -2434    -3308    -3855    -3932    -3632    -3250    -3037 
   -3025    -3082    -3034    -2845    -2666    -2655    -2833    -3056 
   -3105    -2870    -2477    -2180    -2143    -2347    -2721    -3152 
   -3446    -3501    -3368    -3138    -2967    -2998    -3152    -3241 
   -3248    -3223    -3145    -3005    -2849    -2749    -2789    -2911 
   -2893    -2625    -2270    -2068    -2134    -2409    -2802    -3284 
   -3817    -4288    -4549    -4455    -4008    -3415    -2868    -2447 
   -2218    -2177    -2204    -2236    -2358    -2632    -2964    -3173 
   -3121    -2890    -2786    -3003    -3431    -3847    -4101    -4140 
   -3925    -3437    -2771    -2177    -1939    -2165    -2695    -3246 
   -3631    -3827    -3835    -3630    -3214    -2621    -1977    -1534 
   -1536    -2027    -2859    -3716    -4170    -3950    -3175    -2242 
   -1588    -1537    -2084    -2902    -3680    -4230    -4376    -4055 
   -3402    -2712    -2353    -2508    -2994    -3469    -3726    -3663 
   -3221    -2558    -2030    -1842    -1952    -2232    -2575    -2922 
   -3268    -3542    -3591    -3327    -2803    -2196    -1745    -1682 
   -2146    -3011    -3939    -4550    -4567    -4037    -3311    -2679 
   -2284    -2243    -2540    -2968    -3323    -3512    -3543    -3446 
   -3235    -3001    -2853    -2752    -2585    -2388    -2344    -2573 
   -2983    -3372    -3582    -3559    -3330    -2988    -2647    -2397 
   -2315    -2431    -2673    -2890    -2965    -2852    -2633    -2515 
   -2624    -2920    -3350    -3821    -4098    -4021    -3607    -2978 
   -2369    -2000    -1927    -2127    -2532    -2979    -3285    -3368 
   -3257    -3065    -2922    -2901    -2947    -2930    -2799    -2664 
   -2690    -2909    -3175    -3285    -3165    -2922    -2733    -2752 
   -3072    -3632    -4186    -4469    -4372    -3944    -3339    -2748 
   -2349    -2200    -2227    -2343    -2481    -2506    -2304    -1950 
   -1684    -1695    -2029    -2610    -3307    -3936    -4310    -4340 
   -4091    -3694    -3260    -2874    -2539    -2257    -2133    -2243 
   -2558    -3019    -3512    -3819    -3800    -3539    -3203    -2922 
   -2774    -2789    -2937    -3164    -3392    -3484    -3291    -2845 
   -2393    -2169    -2246    -2502    -2743    -2914    -3048    -3129 
   -3175    -3238    -3299    -3272    -3109    -2839    -2569    -2462 
   -2608    -2889    -3088    -3091    -2916    -2678    -2567    -2714 
   -3084    -3524    -3832    -3855    -3546    -3041    -2641    -2550 
   -2695    -2916    -3069    -3045    -2841    -2602    -2474    -2516 
   -2732    -3059    -3342    -3450    -3346    -3052    -2686    -2463 
   -2497    -2697    -2943    -3183    -3380    -3501    -3526    -3447 
   -3334    -3246    -3117    -2880    -2612    -2425    -2407    -2616 
   -3003    -3403    -3647    -3627    -3377    -3090    -2911    -2857 
   -2859    -2806    -2679    -2637    -2783    -2999    -3160    -3214 
   -3117    -2845    -2477    -2172    -2095    -2305    -2694    -3045 
   -3203    -3187    -3125    -3107    -3114    -3130    -3222    -3333 
   -3252    -2913    -2539    -2388    -2486    -2764    -3187    -3703 
   -4191    -4442    -4253    -3643    -2837    -2134    -1791    -1864 
   -2169    -2462    -2542    -2382    -2231    -2335    -2718    -3253 
   -3788    -4189    -4340    -4205    -3838    -3383    -2991    -2693 
   -2425    -2162    -1983    -2007    -2286    -2812    -3461    -3969 
   -4108    -3811    -3192    -2533    -2076    -1885    -1958    -2254 
   -2663    -3087    -3434    -3653    -3774    -3813    -3709    -3422 
   -3037    -2668    -2378    -2245    -2349    -2695    -3157    -3504 
   -3534    -3199    -2704    -2377    -2420    -2793    -3230    -3420 
   -3272    -2895    -2489    -2251    -2308    -2621    -3024    -3342 
   -3524    -3584    -3496    -3273    -3015    -2835    -2776    -2813 
   -2863    -2843    -2783    -2789    -2886    -3014    -3126    -3223 
   -3288    -3229    -2992    -2668    -2459    -2548    -2902    -3258 
   -3391    -3331    -3240    -3175    -3117    -3046    -2940    -2779 
   -2593    -2420    -2303    -2292    -2442    -2759    -3203    -3663 
   -3954    -3955    -3681    -3238    -2793    -2502    -2432    -2536 
   -2729    -2959    -3184    -3330    -3350    -3269    -3133    -3009 
   -2924    -2798    -2581    -2386    -2392    -2668    -3153    -3643 
   -3892    -3815    -3478    -2970    -2434    -2061    -1938    -2027 
   -2257    -2562    -2905    -3272    -3597    -3754    -3721    -3603 
   -3477    -3342    -3187    -2995    -2749    -2488    -2303    -2277 
   -2448    -2791    -3179    -3456    -3561    -3503    -3315    -3071 
   -2851    -2683    -2581    -2578    -2683    -2833    -3009    -3235 
   -3461    -3584    -3537    -3311    -2982    -2675    -2461    -2330 
   -2323    -2479    -2735    -3009    -3267    -3461    -3523    -3433 
   -3253    -3068    -2948    -2932    -2987    -3018    -2947    -2802 
   -2690    -2720    -2938    -3242    -3458    -3503    -3369    -3072 
   -2713    -2450    -2376    -2461    -2600    -2674    -2660    -2660 
   -2786    -3049    -3341    -3520    -3534    -3387    -3087    -2698 
   -2400    -2349    -2523    -2781    -2972    -2988    -2866    -2766 
   -2826    -3071    -3368    -3535    -3508    -3343    -3119    -2903 
   -2763    -2754    -2851    -2978    -3044    -2982    -2808    -2613 
   -2520    -2579    -2735    -2903    -3036    -3129    -3195    -3233 
   -3249    -3257    -3211    -3068    -2866    -2694    -2616    -2577 
   -2532    -2551    -2681    -2891    -3125    -3326    -3465    -3493 
   -3350    -3045    -2698    -2493    -2470    -2528    -2619    -2772 
   -2961    -3122    -3231    -3288    -3335    -3408    -3443    -3364 
