Origin Time       2025/03/30 22:55:00
Lat.              41.993
Long.             142.725
Depth. (km)       55
Mag.              4.6
Station Code      AOMH17
Station Lat.      40.4492
Station Long.     141.3374
Station Height(m) -49.1
Record Time       2025/03/30 22:56:53
Sampling Freq(Hz) 100Hz
Duration Time(s)  120
Dir.              1
Scale Factor      3923(gal)/8224838
Max. Acc. (gal)   0.204
Last Correction   2025/03/30 22:56:53
Memo.             
[...]
   20286    20299    20347    20402    20393    20331    20298    20297 
   20279    20259    20270    20308    20304    20263    20256    20262 
   20266    20295    20298    20268    20250    20227    20224    20263 
   20298    20316    20325    20314    20297    20295    20299    20301 
   20290    20266    20251    20247    20258    20293    20305    20271 
   20260    20294    20313    20286    20277    20321    20367    20371 
   20347    20306    20270    20278    20312    20322    20328    20331 
   20293    20236    20218    20229    20258    20316    20363    20347 
   20312    20313    20336    20349    20340    20318    20317    20325 
   20316    20312    20320    20308    20290    20282    20285    20314 
   20341    20337    20348    20371    20339    20283    20290    20328 
   20310    20248    20214    20216    20223    20252    20294    20294 
   20281    20305    20326    20331    20331    20308    20272    20255 
   20244    20247    20272    20285    20277    20272    20272    20286 
   20314    20318    20305    20324    20366    20389    20372    20348 
   20343    20317    20270    20232    20216    20233    20254    20244 
   20262    20312    20340    20363    20371    20331    20285    20275 
   20294    20317    20316    20297    20290    20291    20287    20267 
   20229    20212    20252    20328    20364    20355    20329    20293 
   20281    20297    20304    20312    20317    20298    20283    20268 
   20254    20271    20322    20367    20359    20312    20264    20240 
   20263    20306    20318    20298    20279    20290    20318    20322 
   20317    20316    20299    20295    20305    20281    20266    20289 
   20313    20332    20328    20297    20301    20328    20333    20317 
   20270    20220    20221    20243    20245    20270    20298    20310 
   20331    20320    20270    20268    20317    20343    20351    20356 
   20324    20262    20237    20247    20264    20309    20336    20326 
   20318    20297    20278    20287    20304    20326    20332    20304 
   20281    20263    20250    20248    20254    20293    20337    20326 
   20326    20349    20339    20317    20289    20260    20274    20281 
   20252    20224    20216    20247    20297    20329    20339    20309 
   20272    20268    20272    20278    20291    20298    20318    20341 
   20341    20340    20344    20356    20347    20286    20224    20223 
   20262    20294    20293    20285    20289    20309    20337    20336 
   20324    20333    20352    20386    20401    20339    20285    20308 
   20333    20324    20301    20279    20289    20325    20348    20359 
   20344    20293    20247    20223    20213    20240    20286    20282 
   20237    20232    20255    20270    20287    20297    20299    20316 
   20298    20262    20283    20340    20372    20383    20370    20325 
   20302    20318    20295    20245    20229    20208    20210    20274 
   20299    20278    20255    20225    20225    20259    20283    20295 
   20297    20285    20287    20321    20355    20367    20372    20355 
   20317    20317    20347    20356    20331    20291    20294    20321 
   20331    20344    20325    20259    20214    20193    20202    20240 
   20254    20274    20295    20268    20266    20306    20299    20299 
   20353    20368    20356    20397    20417    20370    20322    20312 
   20331    20348    20344    20332    20277    20191    20175    20228 
   20251    20237    20240    20270    20297    20297    20291    20304 
   20328    20335    20312    20299    20322    20345    20344    20329 
   20325    20340    20345    20318    20291    20302    20313    20297 
   20282    20255    20225    20247    20277    20281    20289    20291 
   20290    20302    20310    20310    20302    20291    20306    20332 
   20337    20343    20336    20298    20282    20285    20262    20247 
   20259    20270    20285    20309    20341    20372    20355    20318 
   20309    20314    20333    20348    20322    20278    20239    20225 
   20247    20272    20289    20309    20339    20351    20318    20281 
   20272    20275    20293    20305    20272    20237    20235    20245 
   20260    20264    20267    20286    20299    20295    20302    20333 
   20356    20324    20287    20301    20306    20304    20336    20340 
   20309    20313    20322    20324    20340    20324    20267    20235 
   20232    20236    20272    20325    20349    20337    20294    20237 
   20217    20241    20278    20314    20348    20359    20348    20333 
   20317    20299    20275    20254    20281    20344    20359    20348 
   20353    20332    20302    20312    20313    20306    20289    20256 
   20255    20250    20213    20224    20260    20262    20283    20335 
   20372    20379    20347    20299    20259    20244    20262    20277 
   20302    20341    20306    20236    20244    20286    20301    20313 
   20328    20320    20293    20270    20266    20290    20328    20332 
   20306    20304    20309    20286    20289    20313    20282    20233 
   20250    20285    20306    20349    20405    20426    20398    20341 
   20299    20291    20271    20240    20259    20286    20263    20252 
   20274    20278    20283    20309    20325    20329    20341    20366 
   20378    20360    20353    20339    20268    20202    20193    20218 
   20282    20347    20358    20339    20310    20295    20309    20309 
   20293    20278    20267    20274    20281    20279    20286    20297 
   20306    20305    20283    20271    20264    20247    20259    20298 
   20318    20326    20322    20309    20293    20270    20245    20239 
   20254    20272    20285    20295    20312    20333    20351    20356 
   20352    20325    20267    20232    20241    20266    20289    20309 
   20313    20299    20286    20297    20335    20351    20328    20310 
   20318    20331    20348    20341    20308    20304    20293    20232 
   20202    20220    20237    20268    20281    20259    20256    20281 
   20326    20348    20312    20298    20304    20293    20317    20345 
   20356    20386    20375    20333    20328    20318    20301    20291 
   20256    20232    20251    20289    20301    20282    20281    20312 
   20340    20349    20335    20332    20340    20305    20283    20326 
   20355    20351    20353    20339    20304    20279    20268    20271 
   20270    20260    20274    20304    20324    20368    20413    20379 
   20321    20321    20321    20283    20247    20241    20252    20250 
   20254    20282    20294    20309    20318    20291    20291    20285 
   20251    20286    20326    20312    20322    20340    20340    20351 
   20333    20310    20329    20345    20339    20320    20289    20260 
   20252    20268    20297    20306    20278    20254    20264    20258 
   20233    20243    20259    20247    20235    20259    20294    20302 
   20326    20371    20349    20293    20287    20286    20264    20248 
   20235    20225    20223    20236    20275    20298    20282    20241 
   20190    20183    20218    20220    20212    20236    20274    20313 
   20298    20248    20256    20286    20295    20329    20368    20386 
   20375    20345    20336    20325    20290    20287    20337    20368 
   20348    20302    20250    20251    20337    20403    20380    20325 
   20293    20278    20263    20263    20286    20309    20345    20363 
   20304    20245    20251    20271    20270    20262    20278    20325 
   20375    20406    20394    20348    20332    20344    20331    20286 
   20258    20270    20299    20325    20363    20393    20376    20349 
   20333    20294    20260    20247    20248    20283    20335    20363 
   20375    20374    20353    20343    20352    20351    20326    20301 
   20287    20281    20271    20239    20187    20154    20167    20225 
   20306    20391    20443    20417    20348    20291    20258    20275 
   20339    20402    20422    20383    20325    20290    20289    20312 
   20318    20306    20335    20371    20332    20243    20174    20139 
   20151    20206    20263    20285    20271    20252    20228    20183 
   20175    20233    20310    20378    20401    20375    20332    20282 
   20266    20299    20321    20294    20231    20166    20124    20077 
   20044    20071    20125    20174    20204    20228    20286    20358 
   20397    20380    20318    20275    20250    20196    20167    20225 
   20351    20460    20474    20416    20351    20320    20314    20289 
   20286    20344    20391    20378    20335    20287    20264    20262 
   20258    20240    20229    20275    20364    20413    20399    20386 
   20409    20443    20434    20383    20352    20363    20398    20430 
   20420    20356    20263    20201    20233    20321    20366    20355 
   20321    20267    20204    20171    20156    20128    20135    20206 
   20272    20305    20324    20360    20434    20487    20470    20444 
   20448    20443    20406    20347    20272    20189    20120    20119 
   20187    20262    20324    20395    20464    20505    20514    20538 
   20586    20579    20510    20409    20281    20182    20133    20096 
   20116    20190    20236    20248    20268    20294    20310    20306 
   20282    20268    20279    20272    20259    20251    20202    20159 
   20191    20218    20182    20129    20116    20174    20250    20272 
   20271    20277    20281    20297    20328    20340    20318    20316 
   20351    20356    20289    20205    20205    20285    20343    20355 
   20351    20308    20224    20132    20056    20038    20094    20198 
   20287    20312    20306    20335    20387    20413    20405    20379 
   20326    20259    20220    20220    20240    20286    20316    20248 
   20156    20159    20216    20305    20421    20509    20565    20598 
   20596    20588    20553    20488    20401    20268    20120    20000 
   19927    19963    20115    20308    20499    20619    20596    20480 
   20345    20232    20212    20251    20252    20227    20189    20146 
   20150    20197    20223    20233    20272    20339    20393    20366 
   20247    20147    20128    20147    20191    20239    20227    20217 
   20299    20412    20466    20461    20447    20478    20553    20595 
   20551    20464    20372    20254    20179    20206    20254    20291 
   20320    20308    20329    20402    20407    20367    20364    20380 
   20374    20336    20326    20360    20325    20205    20144    20167 
   20163    20110    20067    20028    19997    20020    20086    20167 
   20275    20348    20329    20270    20208    20164    20151    20108 
   20086    20175    20275    20328    20387    20383    20277    20200 
   20216    20250    20271    20325    20402    20470    20522    20525 
   20467    20417    20421    20441    20429    20424    20456    20471 
   20444    20376    20298    20305    20398    20443    20385    20317 
   20326    20413    20521    20544    20440    20313    20237    20235 
   20329    20436    20468    20429    20316    20200    20158    20137 
   20123    20131    20139    20159    20212    20317    20480    20576 
   20534    20441    20312    20154    20066    20059    20061    20062 
   20100    20177    20235    20252    20256    20243    20293    20475 
   20634    20633    20530    20413    20316    20240    20218    20240 
   20191    20109    20116    20171    20224    20245    20244    20272 
   20268    20210    20202    20209    20187    20171    20154    20170 
   20190    20117    20046    20048    20074    20163    20299    20405 
   20490    20547    20555    20538    20486    20430    20424    20430 
   20418    20376    20289    20216    20239    20322    20403    20506 
   20640    20725    20679    20493    20287    20223    20281    20335 
   20335    20302    20259    20210    20154    20105    20115    20208 
   20290    20287    20254    20221    20187    20166    20146    20113 
   20083    20090    20128    20151    20164    20223    20294    20321 
   20318    20321    20347    20393    20401    20340    20267    20232 
   20247    20286    20281    20212    20187    20286    20398    20451 
   20494    20476    20359    20248    20198    20217    20297    20353 
   20385    20406    20367    20328    20352    20375    20351    20281 
   20198    20183    20229    20290    20322    20268    20179    20137 
   20152    20247    20360    20362    20298    20282    20271    20275 
   20347    20401    20363    20301    20301    20376    20457    20467 
   20410    20360    20363    20401    20441    20453    20390    20245 
   20140    20147    20200    20268    20321    20286    20250    20293 
   20352    20375    20339    20278    20268    20281    20267    20275 
   20313    20340    20355    20368    20355    20313    20291    20314 
   20351    20339    20266    20201    20178    20186    20214    20212 
   20167    20163    20218    20299    20391    20482    20524    20491 
   20480    20530    20521    20455    20449    20471    20464    20445 
   20416    20375    20356    20344    20263    20152    20144    20205 
   20233    20216    20171    20143    20144    20113    20081    20094 
   20115    20148    20178    20135    20042    19973    19996    20100 
   20174    20210    20237    20223    20224    20291    20370    20429 
   20443    20399    20344    20302    20279    20277    20289    20339 
   20403    20420    20398    20376    20332    20302    20343    20375 
   20312    20174    20029    19961    19997    20094    20233    20366 
   20436    20491    20537    20526    20511    20545    20619    20710 
   20726    20626    20501    20398    20344    20343    20344    20343 
   20363    20337    20231    20154    20200    20285    20322    20312 
   20260    20214    20167    20065    19997    20034    20077    20082 
   20075    20085    20136    20166    20158    20202    20295    20410 
   20532    20565    20530    20501    20416    20289    20236    20254 
   20282    20297    20317    20328    20270    20200    20218    20278 
   20324    20367    20389    20376    20368    20363    20325    20270 
   20248    20277    20310    20336    20347    20305    20228    20177 
   20131    20089    20131    20228    20260    20258    20312    20382 
   20422    20455    20483    20480    20433    20358    20304    20309 
   20310    20259    20263    20347    20394    20409    20424    20393 
   20345    20332    20328    20294    20231    20166    20139    20171 
   20225    20262    20282    20289    20263    20229    20221    20196 
   20142    20136    20179    20237    20328    20395    20382    20352 
   20340    20312    20289    20309    20358    20385    20405    20451 
   20470    20437    20413    20394    20355    20301    20239    20250 
   20345    20398    20352    20290    20316    20403    20457    20468 
   20432    20331    20232    20167    20135    20155    20191    20205 
   20204    20185    20125    20088    20159    20264    20321    20380 
   20453    20471    20401    20290    20224    20200    20162    20133 
   20150    20217    20309    20353    20321    20268    20256    20264 
   20221    20133    20082    20082    20113    20173    20235    20259 
   20264    20275    20304    20362    20414    20421    20406    20417 
   20426    20412    20403    20390    20359    20343    20316    20275 
   20304    20356    20339    20283    20251    20281    20372    20445 
   20452    20422    20371    20328    20304    20248    20178    20156 
   20187    20268    20348    20345    20306    20272    20243    20299 
   20395    20407    20376    20322    20252    20247    20317    20443 
   20561    20551    20437    20328    20266    20301    20372    20386 
   20379    20343    20275    20251    20221    20148    20112    20109 
   20116    20160    20223    20281    20305    20272    20241    20240 
   20244    20262    20262    20225    20208    20186    20120    20110 
   20191    20248    20262    20293    20318    20333    20364    20364 
   20314    20260    20216    20198    20227    20270    20306    20345 
   20375    20374    20329    20289    20322    20414    20476    20452 
   20370    20309    20305    20351    20399    20389    20355    20352 
   20355    20356    20360    20343    20351    20395    20422    20430 
   20413    20374    20359    20370    20382    20362    20282    20212 
   20189    20170    20177    20221    20260    20294    20335    20372 
   20403    20403    20372    20356    20351    20340    20328    20295 
   20250    20248    20304    20341    20314    20241    20137    20024 
   19953    19962    20048    20154    20182    20155    20144    20179 
   20291    20428    20490    20501    20483    20417    20367    20355 
   20308    20256    20294    20353    20340    20309    20321    20352 
   20380    20397    20374    20301    20236    20208    20166    20112 
   20077    20081    20158    20256    20309    20352    20374    20349 
   20333    20325    20305    20304    20324    20364    20414    20424 
   20360    20262    20210    20213    20224    20263    20322    20374 
   20422    20417    20348    20297    20293    20299    20285    20231 
   20143    20062    20035    20074    20144    20208    20245    20282 
   20328    20364    20380    20393    20399    20379    20326    20260 
   20224    20258    20297    20281    20267    20272    20264    20293 
   20366    20434    20471    20451    20387    20341    20340    20370 
   20403    20394    20313    20218    20194    20227    20248    20241 
   20225    20229    20266    20332    20402    20437    20455    20497 
   20552    20588    20580    20491    20370    20304    20277    20247 
   20241    20266    20285    20298    20316    20333    20343    20344 
   20331    20302    20268    20240    20224    20201    20148    20074 
   20039    20094    20191    20235    20224    20204    20166    20140 
   20179    20245    20287    20299    20298    20331    20410    20472 
   20491    20487    20428    20321    20245    20248    20309    20360 
   20333    20275    20283    20341    20359    20363    20374    20318 
   20223    20173    20155    20158    20167    20173    20213    20255 
   20263    20270    20251    20229    20252    20285    20352    20436 
   20439    20417    20410    20351    20279    20251    20264    20310 
   20353    20352    20310    20258    20220    20169    20120    20121 
   20155    20202    20254    20277    20283    20298    20316    20352 
   20399    20414    20386    20343    20339    20359    20353    20341 
   20328    20321    20344    20336    20293    20312    20359    20363 
   20386    20441    20456    20430    20399    20355    20291    20241 
   20256    20343    20433    20467    20441    20391    20371    20393 
   20393    20324    20221    20182    20244    20316    20320    20299 
   20301    20279    20189    20094    20069    20102    20185    20262 
   20258    20232    20223    20182    20162    20212    20255    20282 
   20336    20351    20289    20232    20210    20200    20232    20298 
   20340    20363    20349    20262    20158    20120    20124    20142 
   20183    20213    20235    20289    20320    20295    20264    20250 
   20267    20316    20366    20391    20372    20339    20326    20312 
   20297    20305    20339    20386    20410    20383    20347    20366 
   20443    20491    20466    20416    20371    20324    20291    20279 
   20275    20264    20250    20251    20248    20196    20142    20146 
