Origin Time       2025/03/30 22:55:00
Lat.              41.993
Long.             142.725
Depth. (km)       55
Mag.              4.6
Station Code      AOMH16
Station Lat.      40.4624
Station Long.     141.0923
Station Height(m) 315
Record Time       2025/03/30 22:56:56
Sampling Freq(Hz) 100Hz
Duration Time(s)  120
Dir.              5
Scale Factor      7845(gal)/8223790
Max. Acc. (gal)   2.108
Last Correction   2025/03/30 22:56:56
Memo.             
[...]
   16772    16614    16606    16765    17061    17402    17676    17825 
   17859    17797    17637    17401    17140    16927    16831    16891 
   17078    17331    17581    17744    17793    17760    17659    17473 
   17231    16997    16841    16831    16965    17162    17383    17604 
   17760    17805    17736    17578    17369    17172    17065    17096 
   17227    17370    17483    17564    17586    17528    17419    17290 
   17153    17027    16958    16976    17073    17221    17377    17496 
   17536    17493    17401    17282    17166    17115    17143    17205 
   17265    17317    17358    17370    17328    17238    17139    17080 
   17069    17092    17153    17259    17402    17547    17643    17664 
   17610    17490    17355    17269    17242    17243    17240    17227 
   17208    17186    17166    17165    17204    17267    17317    17361 
   17419    17456    17429    17379    17390    17464    17527    17521 
   17462    17393    17327    17289    17323    17401    17436    17402 
   17338    17275    17230    17166    17070    16995    16968    16980 
   17043    17173    17339    17497    17617    17682    17667    17570 
   17427    17316    17292    17338    17443    17595    17689    17625 
   17459    17285    17100    16875    16661    16564    16630    16833 
   17109    17401    17659    17842    17913    17852    17687    17489 
   17313    17182    17101    17057    17051    17093    17176    17278 
   17350    17361    17338    17313    17294    17298    17344    17419 
   17494    17540    17547    17523    17469    17365    17213    17084 
   17042    17088    17178    17257    17301    17325    17352    17394 
   17435    17432    17377    17321    17315    17356    17425    17473 
   17432    17298    17146    17027    16943    16914    16962    17074 
   17207    17331    17454    17608    17761    17811    17698    17479 
   17254    17085    17014    17045    17132    17242    17371    17513 
   17636    17693    17632    17458    17275    17180    17176    17220 
   17285    17338    17347    17308    17263    17258    17262    17247 
   17247    17304    17412    17531    17612    17617    17540    17389 
   17201    17035    16950    16972    17080    17224    17366    17478 
   17547    17572    17544    17462    17344    17203    17070    17000 
   17003    17046    17100    17166    17290    17481    17658    17748 
   17724    17572    17336    17116    16980    16949    17011    17111 
   17213    17324    17433    17520    17578    17595    17562    17486 
   17398    17338    17312    17266    17165    17035    16916    16833 
   16803    16831    16916    17097    17369    17640    17845    17955 
   17930    17799    17635    17471    17323    17221    17189    17236 
   17339    17442    17497    17475    17382    17265    17182    17161 
   17177    17194    17194    17174    17157    17159    17170    17165 
   17142    17099    17065    17099    17231    17420    17602    17734 
   17802    17794    17721    17631    17536    17412    17257    17126 
   17080    17135    17246    17343    17393    17385    17312    17196 
   17081    17005    16974    16970    17010    17116    17262    17400 
   17517    17604    17636    17601    17520    17444    17402    17381 
   17370    17396    17442    17454    17404    17311    17213    17124 
   17041    16993    17020    17131    17290    17408    17439    17433 
   17423    17400    17363    17294    17199    17139    17165    17275 
   17421    17523    17559    17555    17501    17394    17267    17155 
   17077    17046    17078    17163    17259    17339    17373    17334 
   17239    17142    17084    17061    17051    17082    17216    17450 
   17718    17942    18044    17987    17805    17563    17312    17061 
   16827    16679    16696    16883    17159    17448    17679    17793 
   17787    17703    17541    17316    17104    16984    17003    17142 
   17320    17462    17517    17469    17361    17259    17205    17231 
   17317    17383    17392    17390    17400    17383    17307    17157 
   16968    16850    16906    17126    17398    17608    17706    17693 
   17604    17514    17444    17346    17215    17115    17091    17161 
   17307    17458    17539    17529    17459    17377    17309    17236 
   17123    16970    16854    16864    17012    17235    17444    17585 
   17662    17668    17583    17432    17273    17139    17051    17045 
   17139    17315    17504    17641    17689    17621    17474    17329 
   17246    17216    17212    17223    17258    17294    17275    17203 
   17169    17197    17209    17199    17242    17347    17444    17490 
   17479    17421    17366    17320    17238    17118    17031    17038 
   17149    17327    17505    17622    17655    17625    17575    17500 
   17359    17178    17055    17061    17185    17366    17501    17520 
   17432    17321    17251    17207    17169    17161    17204    17281 
   17354    17397    17385    17309    17203    17123    17080    17045 
   17022    17057    17189    17392    17570    17662    17702    17744 
   17775    17751    17639    17455    17257    17103    17038    17034 
   17004    16937    16915    16988    17124    17278    17404    17479 
   17518    17523    17501    17486    17479    17463    17444    17415 
   17367    17316    17251    17166    17109    17126    17200    17282 
   17344    17361    17317    17228    17139    17109    17158    17259 
   17386    17524    17662    17778    17817    17751    17616    17446 
   17248    17080    17000    16997    17005    16995    16978    17007 
   17113    17242    17336    17412    17486    17540    17550    17498 
   17392    17262    17134    17039    17037    17120    17236    17377 
   17563    17740    17829    17802    17668    17469    17254    17092 
   17011    16976    16978    17074    17261    17466    17632    17707 
   17656    17512    17321    17118    16962    16911    16961    17097 
   17282    17439    17528    17558    17520    17415    17281    17173 
   17119    17113    17153    17238    17339    17412    17443    17464 
   17504    17536    17521    17452    17358    17247    17134    17049 
   17028    17064    17113    17161    17235    17356    17490    17567 
   17539    17448    17394    17404    17432    17459    17485    17486 
   17460    17425    17377    17321    17278    17247    17232    17267 
   17325    17320    17221    17065    16906    16810    16816    16918 
   17092    17317    17558    17772    17921    17941    17797    17550 
   17309    17159    17130    17174    17211    17219    17235    17265 
   17270    17211    17095    17005    17023    17142    17298    17433 
   17514    17525    17475    17421    17402    17412    17446    17481 
   17474    17428    17365    17293    17223    17155    17084    17045 
   17080    17184    17321    17447    17521    17532    17514    17518 
   17559    17583    17560    17512    17427    17259    17030    16826 
   16704    16703    16854    17134    17478    17806    17996    17984 
   17793    17473    17091    16753    16567    16595    16825    17182 
   17572    17880    18033    18061    18003    17820    17487    17091 
   16758    16583    16583    16721    16929    17134    17307    17447 
   17528    17529    17471    17412    17378    17355    17336    17355 
   17440    17571    17675    17652    17456    17169    16922    16811 
   16843    16942    17037    17150    17312    17491    17632    17687 
   17633    17501    17375    17331    17355    17383    17381    17371 
   17402    17473    17533    17529    17435    17273    17120    17051 
   17066    17104    17119    17140    17230    17401    17567    17617 
   17523    17365    17250    17224    17262    17300    17298    17284 
   17289    17312    17315    17262    17158    17070    17093    17248 
   17458    17629    17725    17747    17695    17578    17428    17280 
   17155    17081    17066    17095    17143    17185    17200    17197 
   17199    17186    17177    17238    17369    17497    17617    17740 
   17809    17755    17581    17356    17159    17031    17003    17065 
   17157    17228    17275    17311    17328    17312    17242    17124 
   17027    17015    17072    17162    17265    17365    17470    17597 
   17710    17755    17714    17622    17520    17416    17274    17108 
   17020    17057    17172    17319    17454    17510    17469    17351 
   17166    16958    16800    16707    16707    16862    17119    17348 
   17485    17533    17533    17539    17537    17496    17409    17300 
   17201    17162    17208    17319    17416    17427    17378    17373 
   17462    17572    17585    17482    17335    17201    17119    17109 
   17119    17101    17100    17190    17375    17558    17629    17583 
   17466    17308    17180    17166    17261    17370    17443    17504 
   17583    17647    17635    17524    17340    17151    17031    17011 
   17054    17116    17184    17261    17363    17486    17560    17533 
   17448    17379    17346    17315    17285    17294    17351    17415 
   17469    17512    17509    17433    17307    17186    17126    17115 
   17104    17085    17072    17070    17103    17169    17217    17208 
   17182    17203    17297    17450    17612    17732    17770    17726 
   17629    17483    17294    17095    16923    16833    16868    17018 
   17219    17388    17498    17591    17671    17702    17668    17575 
   17440    17321    17259    17235    17204    17165    17147    17163 
   17204    17255    17315    17363    17377    17370    17371    17358 
   17289    17189    17105    17055    17050    17097    17197    17346 
   17508    17618    17647    17626    17579    17501    17413    17361 
   17347    17350    17354    17339    17305    17297    17325    17342 
   17323    17280    17227    17182    17177    17196    17205    17215 
   17258    17338    17450    17558    17605    17568    17478    17346 
   17170    16984    16804    16654    16617    16753    17050    17444 
   17798    17977    17975    17875    17743    17590    17378    17113 
   16900    16838    16926    17089    17242    17309    17285    17232 
   17215    17238    17285    17366    17491    17651    17794    17851 
   17774    17564    17293    17082    17012    17061    17158    17261 
   17363    17442    17446    17340    17155    16974    16877    16880 
   16950    17046    17155    17274    17392    17491    17539    17510 
   17427    17352    17340    17377    17397    17367    17309    17275 
   17312    17413    17512    17529    17454    17351    17255    17135 
   16972    16825    16789    16900    17095    17297    17477    17599 
   17616    17540    17463    17455    17509    17579    17633    17645 
   17590    17486    17356    17189    17014    16892    16829    16823 
   16924    17147    17439    17709    17882    17950    17963    17914 
   17722    17347    16868    16456    16270    16325    16534    16846 
   17236    17658    18052    18318    18366    18214    17957    17678 
   17405    17140    16889    16646    16424    16303    16347    16533 
   16822    17162    17496    17768    17922    17907    17767    17617 
   17560    17653    17899    18187    18373    18388    18231    17930 
   17527    17081    16652    16308    16140    16214    16497    16862 
   17184    17417    17593    17733    17802    17747    17552    17254 
   16938    16703    16605    16677    16922    17280    17668    17995 
   18177    18164    17959    17585    17103    16648    16328    16156 
   16146    16335    16696    17127    17525    17829    18013    18085 
   18083    18045    18017    18019    18013    17918    17687    17356 
   17034    16794    16636    16572    16645    16861    17150    17402 
   17514    17490    17406    17290    17145    17011    16958    17019 
   17180    17379    17541    17626    17651    17624    17525    17359 
   17182    17093    17166    17383    17663    17925    18104    18152 
   18045    17771    17356    16900    16497    16189    16008    15979 
   16102    16375    16800    17342    17872    18246    18392    18326 
   18110    17855    17691    17686    17775    17874    17936    17905 
   17720    17397    17007    16621    16306    16100    16035    16141 
   16378    16722    17174    17613    17861    17845    17616    17307 
   17068    16981    17069    17335    17753    18188    18461    18474 
   18256    17898    17501    17105    16744    16479    16371    16459 
   16710    16961    17059    17007    16887    16787    16777    16875 
   17028    17215    17466    17795    18146    18404    18472    18358 
   18141    17855    17505    17157    16907    16812    16897    17155 
   17497    17760    17815    17629    17290    16958    16721    16587 
   16584    16711    16916    17165    17458    17747    17937    17984 
   17919    17791    17668    17606    17610    17608    17485    17194 
   16830    16528    16380    16426    16607    16810    16976    17108 
   17231    17328    17348    17324    17402    17687    18094    18420 
   18538    18435    18125    17618    17008    16460    16102    16006 
   16198    16630    17201    17818    18392    18802    18952    18809 
   18358    17649    16854    16171    15700    15488    15560    15897 
   16467    17205    17968    18603    19005    19126    18959    18542 
   17961    17371    16962    16834    16929    17112    17228    17166 
   16935    16607    16206    15799    15533    15549    15928    16654 
   17587    18513    19225    19527    19310    18646    17759    16893 
   16235    15927    16006    16359    16834    17301    17587    17587 
   17382    17097    16781    16443    16162    16137    16486    17073 
   17674    18183    18531    18647    18558    18334    17983    17544 
   17176    17031    17122    17347    17593    17787    17919    18010 
   18033    17955    17763    17493    17243    17092    17045    17053 
   17030    16970    16941    16923    16838    16711    16664    16749 
   16912    17113    17382    17748    18176    18538    18690    18563 
   18172    17567    16807    16024    15465    15350    15684    16298 
   16989    17608    18061    18288    18285    18139    17967    17844 
   17802    17841    17894    17818    17524    17078    16619    16249 
   16059    16079    16266    16582    16999    17464    17895    18169 
   18196    18017    17772    17556    17386    17273    17180    17041 
   16893    16860    17042    17432    17849    18069    18040    17878 
   17701    17513    17281    17062    16935    16891    16869    16827 
   16752    16660    16603    16595    16586    16551    16590    16857 
   17442    18243    18990    19440    19508    19225    18628    17787 
   16829    15940    15333    15136    15363    15944    16756    17617 
   18342    18805    18941    18732    18254    17666    17091    16602 
   16309    16293    16507    16870    17335    17811    18165    18293 
   18183    17895    17514    17111    16761    16542    16513    16695 
   17059    17501    17853    17992    17902    17620    17189    16640 
   16066    15662    15543    15662    16005    16614    17415    18243 
   18920    19283    19226    18775    18150    17593    17167    16883 
   16795    16884    17057    17274    17490    17624    17691    17736 
   17740    17720    17675    17586    17510    17444    17280    16995 
   16676    16479    16510    16730    17066    17474    17837    18040 
   18052    17857    17440    16916    16499    16318    16407    16737 
   17199    17675    18079    18307    18254    17918    17415    16875 
   16389    16027    15844    15913    16236    16718    17289    17853 
   18269    18504    18554    18393    18071    17663    17247    16903 
   16684    16641    16777    17051    17396    17683    17847    17936 
   17977    17956    17876    17722    17473    17185    16968    16868 
   16885    17015    17219    17459    17710    17913    17986    17887 
   17649    17359    17038    16686    16368    16160    16131    16344 
   16771    17278    17736    18098    18358    18490    18458    18234 
   17802    17201    16569    16089    15905    16036    16382    16835 
   17278    17567    17652    17595    17473    17334    17231    17234 
   17365    17536    17639    17622    17487    17308    17178    17127 
   17159    17275    17428    17589    17770    17917    17929    17786 
   17578    17400    17262    17142    17046    16995    16995    17034 
   17031    16912    16753    16694    16788    17028    17386    17815 
   18265    18627    18782    18692    18377    17911    17409    16923 
   16478    16136    15961    15975    16173    16505    16893    17290 
   17718    18171    18524    18604    18350    17891    17420    17022 
   16702    16474    16382    16488    16769    17084    17307    17394 
   17373    17308    17270    17307    17393    17427    17346    17169 
   16965    16788    16640    16526    16507    16623    16869    17265 
   17771    18218    18472    18536    18438    18195    17892    17667 
   17581    17594    17683    17817    17892    17828    17621    17317 
   17012    16791    16671    16696    16923    17297    17666    17902 
   17938    17801    17610    17444    17281    17093    16899    16749 
   16698    16748    16838    16929    17015    17091    17149    17173 
   17139    17032    16861    16648    16428    16264    16191    16210 
   16360    16687    17158    17685    18184    18574    18758    18700 
   18463    18137    17780    17448    17180    17016    17041    17278 
   17639    17992    18249    18354    18283    18056    17749    17423 
   17081    16735    16438    16268    16291    16530    16951    17496 
   18048    18430    18504    18289    17933    17604    17382    17258 
   17169    17070    16993    16962    16918    16821    16690    16575 
   16537    16572    16629    16683    16767    16923    17146    17396 
   17589    17645    17583    17482    17398    17367    17366    17347 
   17292    17230    17203    17217    17265    17319    17327    17319 
   17405    17658    18030    18370    18520    18461    18235    17845 
   17304    16675    16052    15564    15352    15529    16100    16903 
   17697    18316    18702    18844    18740    18404    17892    17309 
   16808    16571    16633    16891    17238    17525    17610    17532 
   17383    17173    16946    16780    16737    16877    17157    17470 
   17744    17899    17917    17837    17648    17323    16908    16530 
   16340    16437    16787    17273    17805    18273    18523    18503 
   18265    17860    17359    16852    16437    16225    16236    16410 
   16696    17039    17374    17647    17809    17837    17768    17687 
   17672    17722    17771    17803    17849    17884    17869    17805 
   17678    17477    17199    16872    16603    16470    16440    16448 
   16464    16546    16791    17161    17463    17566    17491    17356 
   17261    17227    17209    17172    17134    17189    17386    17644 
   17828    17872    17795    17670    17552    17436    17270    17037 
   16783    16621    16625    16760    16937    17101    17261    17436 
   17597    17672    17648    17587    17564    17593    17666    17782 
   17909    17959    17887    17728    17521    17309    17149    17041 
   16960    16920    16938    16997    17095    17199    17244    17217 
