Origin Time       2025/03/30 22:55:00
Lat.              41.993
Long.             142.725
Depth. (km)       55
Mag.              4.6
Station Code      AOMH12
Station Lat.      40.5846
Station Long.     141.1547
Station Height(m) -15
Record Time       2025/03/30 22:56:53
Sampling Freq(Hz) 100Hz
Duration Time(s)  120
Dir.              2
Scale Factor      2942(gal)/8224139
Max. Acc. (gal)   0.160
Last Correction   2025/03/30 22:56:54
Memo.             
[...]
  134036   134013   133964   133936   133932   133944   133972   133995 
  133991   133967   133942   133924   133901   133878   133874   133903 
  133951   133974   133969   133965   133964   133949   133936   133938 
  133949   133963   133965   133934   133883   133856   133856   133863 
  133895   133957   134021   134068   134073   134038   134001   133965 
  133922   133894   133890   133895   133894   133888   133905   133933 
  133953   133972   133979   133982   133986   133975   133956   133952 
  133936   133891   133860   133867   133883   133898   133918   133928 
  133933   133953   133961   133944   133940   133956   133972   133994 
  134013   134002   133974   133948   133933   133932   133944   133964 
  133979   133986   133974   133942   133925   133928   133933   133936 
  133934   133930   133937   133948   133952   133960   133959   133932 
  133897   133897   133924   133949   133961   133972   133978   133969 
  133961   133972   133978   133944   133899   133890   133906   133920 
  133934   133944   133947   133961   133980   133969   133947   133934 
  133921   133909   133920   133955   133995   134009   133999   133996 
  134001   133986   133960   133951   133948   133940   133933   133918 
  133901   133898   133901   133911   133942   133960   133942   133902 
  133872   133879   133903   133914   133936   133982   134015   134022 
  134013   133982   133941   133920   133921   133932   133953   133983 
  133998   133990   133980   133974   133955   133926   133901   133886 
  133883   133884   133891   133913   133918   133909   133924   133944 
  133936   133929   133942   133961   133974   133968   133947   133938 
  133947   133960   133984   133992   133986   133995   134010   134006 
  133994   133980   133975   133971   133968   133967   133942   133907 
  133906   133933   133963   133984   133975   133945   133942   133959 
  133955   133938   133933   133929   133917   133906   133907   133922 
  133925   133901   133884   133910   133953   133961   133930   133895 
  133874   133868   133870   133859   133845   133861   133899   133926 
  133955   133980   133991   133999   133994   133949   133897   133872 
  133879   133902   133926   133929   133910   133909   133938   133951 
  133938   133932   133937   133948   133945   133925   133915   133915 
  133911   133920   133922   133879   133814   133802   133855   133909 
  133918   133893   133866   133857   133878   133921   133945   133941 
  133933   133937   133945   133940   133921   133899   133895   133925 
  133987   134048   134080   134088   134080   134059   134036   134010 
  133987   133988   133996   133986   133971   133960   133949   133932 
  133901   133857   133829   133834   133863   133899   133914   133905 
  133914   133934   133926   133920   133934   133936   133930   133940 
  133964   134003   134028   134025   134022   134007   133953   133913 
  133924   133959   133990   134007   134006   133992   133987   134002 
  134036   134061   134072   134069   134046   134042   134082   134107 
  134096   134088   134083   134060   134040   134055   134080   134080 
  134048   133990   133934   133915   133936   133982   134033   134048 
  134030   134015   134011   134010   134009   134019   134037   134042 
  134041   134038   134034   134001   133948   133924   133921   133894 
  133855   133821   133797   133779   133770   133774   133782   133785 
  133799   133812   133820   133852   133893   133898   133887   133893 
  133924   133991   134065   134094   134088   134083   134071   134056 
  134048   134040   134026   134003   133971   133941   133937   133955 
  133969   133971   133978   133986   133974   133938   133901   133876 
  133849   133807   133758   133718   133698   133677   133671   133714 
  133780   133836   133883   133905   133888   133863   133855   133849 
  133829   133803   133790   133791   133809   133852   133891   133901 
  133917   133964   134006   134018   134003   133990   133980   133947 
  133898   133879   133897   133937   133990   134041   134053   134021 
  133986   133988   134026   134060   134042   133961   133866   133805 
  133786   133798   133844   133902   133938   133951   133963   133967 
  133964   133976   133955   133884   133864   133925   133969   133952 
  133924   133932   133969   134006   134022   134019   133998   133963 
  133924   133880   133845   133828   133832   133863   133920   133980 
  134023   134037   134030   134034   134067   134080   134057   134065 
  134096   134084   134042   134001   133961   133926   133886   133857 
  133844   133824   133785   133745   133733   133743   133766   133805 
  133833   133864   133932   133999   134042   134073   134079   134063 
  134053   134068   134122   134176   134181   134177   134171   134123 
  134056   133999   133965   133944   133891   133818   133787   133794 
  133812   133868   133951   133991   133974   133932   133883   133830 
  133799   133812   133852   133910   133960   133956   133920   133909 
  133910   133913   133933   133952   133914   133844   133807   133814 
  133855   133922   133960   133961   133998   134094   134187   134238 
  134238   134179   134071   133976   133947   133936   133898   133880 
  133922   133968   133984   134009   134046   134049   133995   133930 
  133898   133888   133901   133942   133947   133888   133829   133817 
  133851   133903   133924   133890   133853   133871   133924   133967 
  134002   134050   134119   134188   134214   134187   134141   134096 
  134057   134056   134102   134126   134065   133952   133847   133774 
  133721   133679   133652   133647   133668   133733   133834   133906 
  133917   133915   133932   133974   134065   134164   134196   134145 
  134061   134014   134003   133964   133920   133933   133982   133983 
  133921   133841   133741   133648   133643   133709   133779   133856 
  133907   133911   133936   133992   134010   133971   133929   133926 
  133961   134018   134065   134048   133941   133791   133654   133555 
  133521   133544   133575   133600   133647   133728   133844   133982 
  134126   134234   134242   134165   134104   134113   134142   134160 
  134144   134046   133913   133859   133876   133897   133932   133995 
  134067   134127   134136   134094   134068   134071   134050   133990 
  133934   133922   133937   133971   134018   134014   133933   133825 
  133743   133689   133664   133685   133724   133762   133794   133799 
  133816   133898   133998   134055   134079   134077   134046   133988 
  133902   133814   133798   133897   134057   134187   134210   134123 
  134009   133949   133991   134117   134250   134345   134358   134252 
  134045   133833   133706   133681   133722   133786   133813   133772 
  133718   133724   133794   133884   133975   134063   134121   134138 
  134150   134153   134092   133986   133920   133937   133991   134028 
  134061   134090   134067   134007   133934   133830   133736   133706 
  133748   133848   133938   133969   133983   134001   133998   134007 
  134060   134103   134130   134152   134106   133945   133770   133701 
  133735   133778   133782   133737   133668   133618   133608   133658 
  133764   133887   134021   134172   134280   134306   134279   134239 
  134200   134119   134001   133933   133945   133992   134056   134144 
  134210   134156   133994   133864   133859   133936   133986   133940 
  133839   133755   133679   133600   133585   133683   133817   133879 
  133875   133875   133888   133906   133953   134034   134092   134086 
  134033   133956   133859   133795   133790   133822   133906   134034 
  134123   134131   134118   134131   134161   134138   134025   133901 
  133859   133888   133955   134021   134045   133994   133872   133735 
  133632   133597   133635   133704   133772   133855   133953   134046 
  134083   134028   133920   133807   133718   133710   133795   133883 
  133890   133851   133832   133840   133872   133948   134041   134111 
  134168   134210   134226   134223   134208   134171   134103   133982 
  133826   133720   133685   133698   133766   133866   133941   133978 
  133990   133987   133971   133955   133975   134017   134030   134002 
  133930   133814   133722   133758   133906   134071   134185   134222 
  134207   134191   134172   134127   134057   133964   133844   133733 
  133743   133914   134096   134138   134060   133975   133957   133967 
  133945   133932   133948   133963   133982   134006   134009   133991 
  133982   134026   134114   134173   134176   134146   134076   133953 
  133806   133652   133536   133516   133577   133668   133774   133871 
  133925   133953   133999   134056   134090   134090   134067   134059 
  134075   134069   134021   133960   133894   133824   133812   133901 
  134036   134136   134163   134095   133941   133793   133737   133756 
  133821   133926   134007   134011   133995   134013   134042   134065 
  134103   134165   134212   134200   134125   134001   133834   133674 
  133589   133600   133666   133708   133648   133536   133512   133641 
  133852   134052   134222   134346   134346   134215   134046   133886 
  133740   133633   133585   133581   133598   133632   133706   133824 
  133949   134036   134098   134171   134241   134264   134217   134114 
  133978   133852   133790   133795   133809   133789   133764   133772 
  133816   133891   133972   134009   134006   134011   134019   134010 
  134007   134014   134001   133990   134036   134122   134168   134148 
  134114   134102   134102   134129   134185   134210   134158   134034 
  133867   133732   133683   133710   133776   133845   133883   133884 
  133859   133829   133847   133963   134107   134141   134033   133879 
  133771   133720   133687   133658   133655   133704   133805   133938 
  134059   134133   134169   134187   134161   134072   133967   133888 
  133829   133809   133856   133933   133976   133961   133918   133898 
  133922   133961   133978   133942   133884   133874   133914   133965 
  134028   134075   134076   134046   134001   133945   133913   133933 
  133999   134071   134100   134082   134045   133990   133925   133883 
  133833   133755   133706   133712   133749   133812   133893   133974 
  134028   134052   134053   134030   134017   134060   134131   134156 
  134130   134084   134036   134021   134026   133984   133901   133851 
  133878   133922   133924   133906   133894   133887   133907   133952 
  133996   134038   134067   134036   133952   133879   133852   133857 
  133879   133907   133930   133934   133914   133860   133791   133770 
  133820   133924   134044   134121   134123   134063   133967   133893 
  133879   133901   133922   133932   133940   133959   133995   134030 
  134011   133955   133928   133948   134006   134071   134096   134052 
  133955   133875   133870   133905   133949   134014   134059   134050 
  134063   134119   134141   134118   134100   134086   134061   134042 
  134019   133960   133861   133764   133693   133641   133612   133613 
  133636   133677   133747   133822   133849   133833   133836   133893 
  133995   134096   134152   134150   134091   134018   134007   134034 
  134030   133998   133965   133938   133937   133934   133886   133824 
  133836   133921   133978   133957   133921   133921   133951   134018 
  134103   134111   134003   133887   133867   133932   134023   134086 
  134068   133984   133903   133868   133852   133816   133794   133834 
  133895   133915   133905   133871   133793   133717   133733   133832 
  133920   133975   134042   134111   134138   134131   134114   134083 
  134049   134025   133990   133936   133872   133798   133724   133675 
  133652   133655   133689   133764   133880   134003   134086   134106 
  134064   133996   133947   133941   133987   134063   134131   134169 
  134167   134133   134068   133992   133956   133952   133936   133893 
  133812   133713   133647   133656   133722   133786   133810   133825 
  133868   133945   134019   134036   134011   134007   134026   134057 
  134103   134148   134173   134163   134113   134065   134029   133983 
  133941   133920   133926   133963   134015   134060   134083   134083 
  134073   134065   134071   134083   134072   134018   133945   133871 
  133801   133776   133826   133884   133898   133903   133906   133880 
  133872   133930   134028   134110   134146   134122   134040   133930 
  133848   133806   133768   133713   133660   133650   133687   133733 
  133751   133749   133753   133779   133844   133938   134038   134102 
  134126   134149   134173   134171   134153   134131   134106   134099 
  134114   134121   134090   134006   133875   133716   133579   133535 
  133593   133687   133779   133856   133907   133959   134042   134118 
  134144   134126   134072   133995   133914   133829   133747   133677 
  133651   133679   133722   133760   133794   133837   133891   133920 
  133917   133925   133942   133922   133888   133899   133965   134057 
  134136   134157   134142   134127   134114   134104   134095   134065 
  134022   133982   133941   133891   133825   133756   133731   133755 
  133782   133797   133817   133837   133872   133924   133953   133972 
  134013   134048   134053   134057   134088   134131   134142   134113 
  134088   134095   134107   134122   134146   134141   134094   134053 
  134052   134069   134083   134071   134034   134014   134029   134059 
  134077   134057   134005   133948   133875   133805   133768   133732 
  133664   133582   133515   133496   133512   133551   133650   133779 
  133884   133974   134053   134119   134179   134225   134242   134222 
  134156   134090   134083   134134   134180   134188   134172   134149 
  134145   134153   134127   134060   134003   133975   133951   133913 
  133878   133875   133906   133948   133968   133940   133876   133806 
  133732   133672   133632   133590   133554   133570   133627   133682 
  133716   133721   133706   133697   133701   133735   133813   133918 
  134015   134068   134069   134050   134036   134032   134036   134036 
  134040   134045   134036   134025   134029   134036   134036   134025 
  134001   133987   133984   133971   133947   133928   133917   133891 
  133848   133830   133847   133856   133866   133910   133960   133963 
  133930   133906   133918   133956   133975   133961   133933   133893 
  133879   133924   133986   134019   134036   134075   134131   134154 
  134121   134059   133990   133934   133924   133959   134015   134064 
  134094   134113   134145   134185   134184   134126   134077   134079 
  134084   134056   134014   133967   133894   133806   133745   133737 
  133762   133787   133810   133834   133857   133852   133814   133797 
  133824   133866   133895   133911   133932   133957   133969   133968 
  133991   134028   134029   134006   133996   133992   133976   133969 
  133990   134025   134037   134019   134005   134006   134021   134056 
  134088   134077   134037   134001   133949   133878   133807   133740 
  133708   133744   133802   133829   133840   133870   133936   134015 
  134056   134049   134006   133934   133867   133828   133803   133764 
  133716   133704   133745   133799   133840   133880   133925   133960 
  134001   134059   134102   134123   134148   134142   134056   133930 
  133834   133787   133789   133826   133879   133945   134011   134052 
  134083   134122   134154   134172   134167   134115   134015   133897 
  133798   133748   133729   133731   133770   133836   133897   133934 
  133925   133894   133895   133940   134006   134034   134019   134023 
  134048   134044   134018   133987   133969   133990   134036   134076 
  134113   134133   134103   134040   133998   133996   134006   134005 
  133992   133964   133909   133847   133824   133839   133841   133820 
  133797   133801   133826   133852   133866   133863   133844   133829 
  133832   133845   133844   133816   133791   133816   133879   133930 
  133941   133937   133948   133975   134015   134063   134079   134050 
  134019   134011   133999   133960   133902   133868   133874   133890 
  133907   133937   133960   133965   133964   133963   133961   133947 
  133897   133834   133799   133797   133837   133917   133986   134007 
  134009   134014   134002   133953   133898   133870   133874   133891 
  133914   133938   133957   133960   133942   133921   133902   133884 
  133874   133880   133915   133960   133991   134026   134073   134114 
  134137   134153   134157   134148   134122   134055   133944   133822 
  133722   133668   133663   133710   133793   133863   133902   133913 
  133901   133901   133925   133941   133937   133934   133941   133949 
  133949   133932   133911   133918   133951   134001   134055   134098 
  134127   134142   134138   134118   134104   134106   134115   134129 
  134136   134125   134107   134106   134118   134134   134153   134158 
  134118   134037   133949   133875   133810   133756   133725   133709 
  133704   133729   133766   133783   133813   133851   133853   133832 
  133825   133807   133766   133749   133774   133799   133820   133856 
  133898   133938   133983   134019   134040   134061   134090   134110 
  134115   134117   134111   134096   134087   134084   134077   134075 
  134076   134055   134010   133972   133959   133949   133930   133898 
  133836   133749   133694   133697   133710   133708   133720   133758 
  133809   133874   133937   133980   134006   134033   134056   134046 
  134010   133968   133924   133890   133870   133859   133876   133930 
  133987   134017   134011   133984   133961   133945   133937   133952 
  133971   133976   133979   133987   133994   134005   134007   133987 
  133945   133911   133913   133928   133930   133933   133951   133983 
  134011   134021   134029   134028   134003   133983   133979   133967 
  133932   133888   133876   133901   133929   133945   133948   133938 
  133933   133945   133944   133913   133878   133860   133866   133893 
  133929   133941   133911   133882   133913   134002   134077   134086 
  134037   133959   133868   133810   133809   133829   133840   133844 
  133864   133911   133982   134053   134087   134071   134041   134014 
  133975   133934   133899   133861   133822   133786   133752   133731 
  133731   133758   133812   133890   133971   134026   134048   134059 
  134077   134104   134111   134073   134010   133967   133965   133998 
  134033   134033   133998   133965   133963   133978   133996   134022 
  134045   134056   134060   134049   134022   134009   134003   133987 
  133964   133942   133929   133922   133909   133886   133857   133833 
  133836   133848   133841   133833   133837   133845   133867   133894 
  133895   133868   133845   133844   133851   133857   133880   133909 
  133914   133901   133903   133930   133961   133988   134014   134030 
  134018   133996   133992   133996   133996   133992   133979   133942 
  133895   133864   133866   133902   133955   133983   133976   133960 
  133948   133930   133902   133890   133905   133934   133953   133947 
  133929   133930   133961   134013   134077   134131   134141   134117 
  134104   134106   134090   134052   134017   134010   134018   134015 
  133986   133924   133845   133785   133751   133747   133764   133782 
  133793   133805   133822   133834   133832   133844   133899   133968 
