Origin Time       2025/03/30 22:55:00
Lat.              41.993
Long.             142.725
Depth. (km)       55
Mag.              4.6
Station Code      AOMH13
Station Lat.      40.5794
Station Long.     141.4451
Station Height(m) -140
Record Time       2025/03/30 22:56:49
Sampling Freq(Hz) 100Hz
Duration Time(s)  120
Dir.              1
Scale Factor      2942(gal)/8224139
Max. Acc. (gal)   0.274
Last Correction   2025/03/30 22:56:49
Memo.             
[...]
   44768    44779    44739    44687    44675    44668    44633    44609 
   44631    44685    44729    44744    44745    44716    44668    44663 
   44682    44674    44679    44747    44818    44814    44752    44706 
   44707    44724    44730    44722    44683    44643    44655    44702 
   44737    44771    44834    44896    44890    44802    44720    44709 
   44710    44653    44583    44560    44593    44659    44707    44705 
   44683    44679    44674    44644    44624    44666    44753    44806 
   44791    44730    44678    44666    44685    44703    44691    44651 
   44635    44683    44768    44824    44828    44826    44826    44793 
   44734    44685    44670    44687    44695    44686    44682    44694 
   44721    44745    44728    44671    44620    44599    44637    44740 
   44828    44822    44755    44707    44720    44755    44753    44733 
   44734    44722    44678    44643    44649    44678    44703    44733 
   44770    44784    44770    44722    44652    44610    44598    44587 
   44589    44639    44729    44817    44876    44892    44857    44806 
   44770    44724    44667    44639    44648    44662    44671    44683 
   44713    44753    44761    44721    44694    44710    44740    44748 
   44721    44675    44660    44670    44676    44689    44699    44710 
   44740    44756    44747    44752    44761    44755    44733    44703 
   44703    44724    44712    44699    44744    44797    44795    44747 
   44693    44680    44702    44706    44705    44710    44695    44658 
   44608    44568    44589    44653    44683    44663    44667    44747 
   44842    44887    44863    44784    44710    44683    44675    44691 
   44743    44786    44793    44770    44744    44740    44740    44703 
   44647    44616    44616    44618    44595    44575    44617    44703 
   44756    44741    44707    44705    44717    44701    44685    44722 
   44793    44837    44820    44747    44691    44709    44766    44805 
   44811    44822    44825    44756    44647    44587    44587    44612 
   44641    44693    44779    44836    44817    44764    44713    44682 
   44693    44721    44730    44726    44721    44728    44737    44733 
   44733    44729    44689    44652    44647    44629    44621    44662 
   44701    44699    44687    44686    44683    44659    44610    44570 
   44598    44697    44776    44774    44760    44806    44879    44918 
   44890    44801    44709    44671    44686    44740    44788    44767 
   44703    44637    44581    44578    44620    44643    44668    44693 
   44678    44664    44679    44710    44780    44855    44832    44743 
   44694    44707    44760    44818    44837    44818    44779    44712 
   44652    44647    44660    44653    44647    44639    44636    44658 
   44693    44732    44772    44786    44756    44705    44667    44656 
   44670    44674    44637    44598    44610    44664    44714    44757 
   44822    44875    44871    44821    44764    44724    44697    44678 
   44660    44664    44718    44760    44736    44706    44725    44753 
   44733    44658    44585    44566    44594    44649    44707    44739 
   44767    44799    44794    44768    44766    44753    44721    44706 
   44732    44779    44810    44801    44759    44714    44676    44652 
   44653    44678    44691    44680    44676    44687    44699    44702 
   44690    44685    44718    44753    44761    44760    44726    44666 
   44663    44717    44739    44705    44670    44685    44740    44768 
   44736    44675    44625    44610    44617    44640    44687    44726 
   44749    44772    44784    44776    44767    44752    44725    44718 
   44736    44732    44717    44744    44784    44784    44729    44651 
   44613    44632    44653    44643    44644    44694    44788    44879 
   44887    44802    44703    44663    44671    44667    44645    44658 
   44703    44737    44743    44730    44713    44702    44710    44743 
   44756    44717    44667    44656    44667    44675    44690    44737 
   44795    44814    44787    44728    44641    44589    44614    44648 
   44643    44640    44674    44725    44778    44809    44798    44761 
   44739    44737    44724    44705    44718    44764    44802    44797 
   44745    44693    44678    44695    44705    44695    44691    44707 
   44736    44756    44755    44720    44686    44710    44764    44763 
   44690    44625    44622    44647    44667    44701    44737    44748 
   44736    44733    44749    44753    44713    44668    44680    44714 
   44713    44698    44706    44732    44734    44706    44690    44701 
   44714    44706    44683    44670    44682    44717    44756    44782 
   44797    44801    44782    44761    44749    44710    44636    44579 
   44583    44609    44610    44622    44678    44724    44729    44728 
   44730    44730    44733    44744    44763    44770    44755    44749 
   44756    44741    44725    44741    44760    44736    44671    44606 
   44577    44602    44706    44832    44871    44814    44732    44668 
   44652    44693    44745    44768    44767    44757    44744    44710 
   44645    44590    44594    44647    44707    44743    44755    44756 
   44743    44732    44748    44763    44757    44744    44721    44698 
   44676    44658    44656    44679    44702    44707    44722    44761 
   44784    44764    44725    44695    44685    44689    44701    44705 
   44698    44698    44709    44724    44739    44751    44752    44743 
   44726    44707    44685    44663    44660    44675    44674    44668 
   44697    44748    44787    44810    44824    44814    44774    44728 
   44707    44714    44722    44693    44628    44586    44590    44613 
   44652    44712    44757    44763    44730    44686    44656    44652 
   44666    44691    44724    44755    44778    44793    44790    44763 
   44713    44663    44649    44672    44706    44728    44732    44729 
   44707    44678    44694    44759    44798    44778    44751    44759 
   44759    44725    44716    44741    44736    44702    44683    44662 
   44635    44633    44647    44651    44636    44609    44624    44717 
   44806    44820    44803    44784    44751    44724    44717    44724 
   44720    44691    44663    44668    44705    44745    44757    44726 
   44679    44655    44672    44726    44783    44813    44826    44805 
   44728    44655    44625    44610    44641    44721    44752    44720 
   44724    44764    44766    44717    44660    44644    44674    44695 
   44710    44744    44753    44726    44732    44779    44820    44818 
   44766    44691    44662    44687    44702    44680    44652    44637 
   44631    44635    44637    44640    44675    44734    44761    44725 
   44675    44679    44726    44768    44797    44825    44840    44824 
   44761    44671    44622    44674    44761    44784    44757    44748 
   44761    44752    44697    44652    44652    44640    44594    44587 
   44637    44697    44743    44752    44737    44740    44744    44722 
   44709    44722    44729    44690    44626    44605    44635    44671 
   44705    44741    44766    44799    44841    44848    44807    44737 
   44660    44609    44583    44571    44591    44641    44709    44772 
   44801    44818    44838    44828    44795    44761    44697    44624 
   44613    44660    44702    44710    44714    44741    44779    44793 
   44763    44721    44689    44656    44647    44674    44699    44705 
   44710    44718    44740    44775    44794    44782    44767    44745 
   44686    44613    44594    44640    44695    44710    44693    44678 
   44687    44717    44739    44739    44721    44712    44724    44730 
   44699    44666    44656    44655    44675    44721    44775    44825 
   44847    44822    44764    44703    44671    44652    44641    44687 
   44767    44798    44763    44720    44726    44749    44713    44644 
   44617    44644    44705    44757    44753    44716    44686    44672 
   44690    44729    44761    44771    44764    44755    44748    44744 
   44734    44699    44644    44612    44597    44599    44653    44743 
   44806    44833    44818    44751    44667    44621    44635    44697 
   44734    44699    44663    44682    44720    44748    44745    44730 
   44763    44824    44851    44851    44836    44807    44791    44794 
   44763    44695    44648    44639    44644    44637    44631    44643 
   44652    44653    44680    44710    44705    44690    44707    44761 
   44794    44761    44720    44710    44699    44683    44671    44651 
   44644    44652    44649    44648    44647    44636    44660    44712 
   44729    44740    44794    44853    44878    44856    44791    44733 
   44710    44690    44663    44655    44689    44740    44761    44741 
   44702    44672    44682    44730    44757    44743    44736    44753 
   44776    44787    44782    44751    44689    44636    44613    44597 
   44608    44670    44716    44701    44687    44721    44772    44797 
   44784    44745    44695    44674    44702    44712    44678    44671 
   44699    44698    44659    44647    44698    44776    44820    44814 
   44782    44734    44693    44676    44674    44685    44737    44795 
   44791    44760    44736    44691    44637    44617    44628    44662 
   44705    44737    44763    44772    44756    44713    44663    44622 
   44590    44572    44581    44609    44664    44724    44748    44759 
   44771    44768    44761    44744    44714    44697    44666    44640 
   44685    44749    44751    44732    44739    44747    44736    44703 
   44660    44670    44734    44778    44759    44691    44639    44658 
   44722    44763    44755    44734    44718    44694    44670    44659 
   44671    44721    44768    44772    44770    44795    44820    44814 
   44784    44737    44690    44675    44691    44702    44675    44631 
   44616    44633    44663    44683    44678    44666    44674    44706 
   44753    44818    44860    44837    44776    44710    44663    44660 
   44663    44651    44648    44636    44614    44626    44682    44756 
   44824    44841    44783    44709    44693    44709    44740    44798 
   44832    44797    44724    44662    44644    44664    44699    44747 
   44767    44741    44707    44699    44707    44712    44709    44702 
   44712    44726    44718    44697    44679    44660    44651    44659 
   44676    44721    44775    44782    44745    44702    44666    44647 
   44658    44676    44721    44803    44833    44766    44702    44693 
   44694    44691    44678    44645    44647    44690    44705    44691 
   44690    44716    44766    44815    44832    44803    44720    44618 
   44567    44567    44610    44713    44820    44864    44867    44851 
   44807    44761    44726    44687    44683    44702    44674    44644 
   44679    44739    44775    44790    44776    44751    44739    44729 
   44732    44756    44745    44690    44656    44675    44709    44714 
   44691    44670    44666    44658    44645    44679    44751    44793 
   44779    44730    44705    44726    44736    44710    44705    44724 
   44728    44702    44674    44649    44618    44609    44655    44718 
   44734    44705    44689    44703    44728    44736    44716    44683 
   44668    44670    44703    44766    44802    44802    44776    44714 
   44683    44728    44749    44728    44740    44755    44722    44671 
   44640    44633    44643    44671    44716    44747    44752    44759 
   44779    44783    44724    44629    44599    44644    44702    44739 
   44729    44695    44683    44698    44721    44744    44763    44768 
   44744    44686    44616    44575    44593    44660    44730    44766 
   44794    44828    44828    44797    44776    44775    44771    44744 
   44722    44741    44774    44764    44701    44633    44628    44676 
   44718    44726    44725    44729    44741    44768    44782    44759 
   44749    44783    44834    44857    44806    44710    44662    44675 
   44710    44751    44752    44690    44622    44595    44593    44583 
   44564    44543    44539    44543    44555    44608    44664    44668 
   44662    44680    44714    44767    44806    44788    44744    44736 
   44759    44763    44745    44737    44740    44718    44637    44543 
   44521    44587    44689    44783    44868    44925    44907    44836 
   44793    44833    44918    44946    44903    44871    44857    44826 
   44780    44734    44741    44815    44859    44811    44736    44693 
   44679    44647    44599    44622    44712    44764    44751    44726 
   44714    44697    44652    44579    44516    44477    44443    44444 
   44523    44624    44663    44666    44699    44755    44766    44690 
   44559    44479    44514    44608    44694    44749    44734    44680 
   44678    44741    44791    44766    44694    44676    44729    44775 
   44793    44793    44797    44840    44898    44913    44869    44780 
   44702    44725    44851    44968    44999    44984    44950    44859 
   44729    44643    44626    44651    44685    44690    44645    44563 
   44447    44329    44281    44327    44424    44543    44680    44780 
   44770    44705    44697    44734    44730    44667    44602    44597 
   44656    44683    44610    44483    44381    44365    44460    44612 
   44737    44824    44898    44968    45006    44984    44945    44940 
   44948    44955    44959    44944    44949    44999    45029    44996 
   44915    44825    44761    44730    44713    44706    44741    44833 
   44930    44972    44925    44788    44652    44625    44691    44734 
   44691    44598    44505    44402    44278    44147    44018    43949 
   44043    44297    44540    44635    44620    44585    44587    44664 
   44794    44918    44995    44992    44929    44857    44783    44724 
   44705    44720    44748    44783    44825    44868    44899    44907 
   44894    44894    44933    44990    45013    44983    44944    44910 
   44803    44621    44491    44481    44498    44447    44363    44354 
   44452    44567    44597    44571    44624    44790    44971    45102 
   45153    45079    44898    44720    44617    44574    44572    44601 
   44614    44590    44523    44431    44351    44288    44240    44253 
   44347    44510    44732    45000    45247    45376    45342    45179 
   44965    44766    44581    44423    44356    44386    44443    44501 
   44570    44613    44581    44533    44604    44809    45050    45211 
   45237    45177    45107    45014    44895    44799    44720    44620 
   44551    44558    44614    44674    44730    44821    44949    45060 
   45092    45036    44928    44803    44705    44629    44527    44381 
   44266    44281    44431    44585    44645    44668    44705    44736 
   44775    44842    44959    45112    45179    45072    44888    44721 
   44577    44485    44500    44602    44724    44803    44810    44752 
   44644    44487    44332    44231    44227    44374    44618    44818 
   44902    44872    44799    44753    44736    44730    44730    44709 
   44686    44736    44840    44888    44868    44824    44748    44706 
   44741    44783    44822    44890    44902    44810    44707    44655 
   44659    44757    44892    44930    44849    44721    44620    44601 
   44653    44721    44774    44814    44842    44811    44671    44486 
   44370    44338    44313    44236    44132    44081    44116    44208 
   44342    44532    44778    45022    45210    45315    45346    45360 
   45374    45351    45245    45079    44913    44748    44570    44409 
   44288    44207    44190    44239    44321    44432    44533    44579 
   44587    44608    44687    44833    44984    45106    45215    45264 
   45191    45036    44892    44803    44741    44662    44563    44478 
   44455    44532    44653    44749    44830    44892    44882    44759 
   44547    44348    44255    44250    44304    44437    44606    44733 
   44829    44919    44972    44991    45033    45100    45156    45135 
   44986    44756    44587    44537    44562    44586    44572    44556 
   44577    44649    44779    44876    44834    44707    44621    44612 
   44640    44713    44848    44983    45019    44949    44836    44736 
   44670    44620    44554    44460    44370    44293    44219    44186 
   44257    44446    44683    44871    44976    45025    45029    45000 
   44961    44910    44848    44786    44722    44649    44563    44501 
   44520    44591    44628    44616    44595    44575    44594    44724 
   44921    45046    45011    44847    44666    44545    44470    44393 
   44343    44396    44506    44558    44544    44568    44702    44895 
   45030    45080    45071    45026    44975    44945    44933    44940 
   44949    44896    44753    44583    44442    44383    44466    44645 
   44784    44801    44766    44784    44864    44949    44999    44976 
   44884    44790    44739    44733    44734    44699    44671    44698 
   44718    44703    44722    44784    44852    44898    44906    44880 
   44859    44884    44950    44994    44965    44887    44776    44628 
   44469    44350    44293    44301    44340    44329    44224    44115 
   44105    44188    44305    44440    44587    44706    44728    44636 
   44523    44506    44614    44797    44980    45090    45084    44998 
   44910    44894    44919    44917    44871    44798    44749    44776 
   44820    44828    44855    44883    44851    44809    44794    44761 
   44705    44647    44601    44582    44610    44678    44707    44679 
   44683    44707    44643    44497    44347    44257    44277    44406 
   44575    44685    44710    44721    44745    44766    44809    44888 
   44969    45015    44986    44872    44729    44604    44554    44622 
   44740    44817    44841    44822    44793    44770    44712    44663 
   44706    44799    44880    44925    44895    44848    44882    44952 
   44972    44960    44969    44994    44972    44879    44737    44598 
   44509    44458    44394    44312    44230    44186    44253    44433 
   44624    44713    44687    44628    44612    44629    44621    44556 
   44494    44531    44658    44782    44833    44803    44759    44778 
   44852    44948    45046    45106    45087    44948    44695    44467 
   44416    44547    44774    45017    45189    45237    45173    45026 
   44830    44598    44379    44297    44379    44481    44455    44312 
   44186    44163    44196    44230    44285    44425    44666    44928 
   45107    45177    45158    45083    45007    44926    44807    44702 
   44668    44726    44837    44899    44887    44838    44791    44788 
   44828    44878    44922    44918    44856    44783    44693    44548 
   44389    44292    44278    44335    44435    44548    44660    44757 
   44844    44960    45110    45231    45257    45160    44976    44815 
   44718    44644    44606    44613    44601    44551    44513    44527 
   44582    44626    44633    44625    44614    44575    44501    44446 
   44482    44597    44717    44815    44933    45048    45091    45060 
   44986    44906    44844    44770    44676    44616    44620    44686 
   44763    44805    44822    44845    44878    44891    44867    44815 
   44745    44712    44780    44905    44973    44914    44717    44447 
   44211    44077    44050    44122    44280    44469    44637    44780 
   44898    44995    45069    45041    44842    44543    44259    44078 
   44053    44177    44386    44605    44793    44940    45013    44982 
