Origin Time       2025/03/30 22:55:00
Lat.              41.993
Long.             142.725
Depth. (km)       55
Mag.              4.6
Station Code      AOMH13
Station Lat.      40.5794
Station Long.     141.4451
Station Height(m) 10
Record Time       2025/03/30 22:56:49
Sampling Freq(Hz) 100Hz
Duration Time(s)  120
Dir.              5
Scale Factor      7845(gal)/8223790
Max. Acc. (gal)   1.144
Last Correction   2025/03/30 22:56:49
Memo.             
[...]
   37806    37849    37851    37824    37789    37755    37729    37712 
   37708    37719    37746    37795    37852    37895    37918    37912 
   37874    37804    37702    37612    37579    37620    37720    37843 
   37937    37975    37945    37864    37762    37666    37600    37569 
   37585    37651    37736    37810    37872    37905    37878    37797 
   37686    37584    37550    37600    37700    37817    37933    38007 
   38025    38003    37948    37874    37797    37724    37685    37686 
   37708    37737    37758    37756    37741    37716    37701    37714 
   37735    37743    37748    37760    37793    37833    37849    37833 
   37795    37752    37717    37720    37786    37858    37883    37885 
   37885    37866    37820    37752    37693    37665    37669    37706 
   37770    37841    37903    37909    37844    37768    37724    37702 
   37696    37701    37710    37716    37737    37768    37793    37828 
   37870    37879    37864    37848    37821    37781    37741    37708 
   37677    37654    37659    37693    37743    37812    37875    37899 
   37878    37822    37739    37656    37620    37627    37643    37679 
   37743    37804    37843    37867    37875    37863    37840    37831 
   37841    37848    37837    37810    37786    37790    37805    37793 
   37746    37679    37633    37643    37708    37793    37859    37898 
   37899    37840    37736    37648    37619    37644    37701    37766 
   37817    37843    37841    37813    37770    37741    37750    37787 
   37827    37848    37844    37816    37763    37723    37716    37723 
   37724    37723    37720    37719    37701    37681    37697    37744 
   37790    37825    37856    37885    37902    37902    37885    37851 
   37814    37786    37762    37737    37712    37693    37692    37712 
   37755    37804    37836    37849    37845    37816    37762    37712 
   37701    37732    37768    37802    37854    37897    37910    37893 
   37840    37760    37681    37623    37605    37624    37673    37736 
   37793    37839    37875    37893    37895    37876    37835    37778 
   37719    37677    37659    37665    37679    37687    37694    37719 
   37750    37775    37814    37856    37893    37922    37940    37940 
   37910    37848    37768    37685    37615    37577    37574    37602 
   37648    37716    37802    37863    37876    37868    37859    37835 
   37791    37756    37747    37741    37759    37809    37835    37817 
   37785    37759    37741    37737    37755    37783    37800    37805 
   37805    37779    37741    37712    37677    37646    37642    37673 
   37723    37762    37782    37805    37843    37885    37918    37940 
   37935    37890    37832    37773    37727    37710    37710    37720 
   37755    37804    37833    37835    37818    37804    37778    37743 
   37740    37773    37797    37775    37714    37663    37655    37663 
   37686    37735    37785    37809    37810    37810    37809    37794 
   37773    37775    37821    37874    37881    37829    37758    37698 
   37663    37655    37673    37706    37737    37767    37797    37816 
   37829    37832    37814    37783    37756    37751    37775    37810 
   37840    37854    37837    37808    37777    37735    37696    37689 
   37723    37783    37851    37906    37928    37898    37820    37713 
   37632    37619    37656    37705    37748    37763    37755    37755 
   37763    37766    37767    37774    37790    37809    37831    37835 
   37801    37760    37733    37706    37700    37729    37778    37844 
   37917    37968    37972    37932    37871    37798    37728    37697 
   37706    37740    37793    37835    37832    37783    37712    37633 
   37569    37548    37577    37635    37713    37798    37862    37886 
   37872    37835    37801    37770    37739    37732    37747    37767 
   37778    37767    37743    37723    37735    37777    37817    37859 
   37909    37929    37895    37829    37764    37700    37646    37627 
   37644    37696    37783    37870    37916    37916    37882    37839 
   37806    37778    37751    37724    37692    37667    37658    37670 
   37709    37763    37820    37863    37882    37878    37854    37813 
   37768    37723    37692    37694    37732    37802    37870    37903 
   37902    37870    37827    37782    37733    37696    37677    37662 
   37658    37673    37698    37724    37739    37755    37766    37760 
   37767    37804    37835    37852    37855    37849    37840    37825 
   37809    37789    37773    37783    37798    37789    37790    37812 
   37813    37781    37740    37713    37692    37679    37692    37712 
   37736    37778    37820    37859    37898    37917    37897    37856 
   37816    37771    37713    37669    37662    37679    37731    37804 
   37871    37917    37925    37881    37805    37725    37682    37686 
   37709    37744    37768    37763    37744    37723    37708    37712 
   37727    37731    37733    37752    37785    37804    37808    37800 
   37783    37768    37756    37746    37758    37793    37833    37870 
   37879    37845    37767    37675    37620    37615    37651    37720 
   37779    37808    37821    37816    37791    37770    37752    37732 
   37701    37675    37665    37674    37723    37812    37890    37924 
   37914    37893    37891    37897    37887    37871    37847    37795 
   37705    37597    37523    37511    37565    37678    37810    37918 
   37979    37987    37957    37902    37836    37768    37724    37731 
   37779    37825    37848    37841    37802    37755    37714    37686 
   37669    37655    37658    37693    37736    37768    37795    37825 
   37856    37874    37863    37831    37797    37759    37709    37673 
   37675    37692    37702    37727    37763    37785    37783    37785 
   37801    37827    37872    37917    37920    37887    37829    37746 
   37678    37656    37677    37725    37786    37837    37851    37818 
   37771    37739    37725    37727    37717    37692    37673    37681 
   37716    37773    37833    37882    37901    37887    37866    37843 
   37813    37791    37785    37791    37790    37762    37719    37683 
   37670    37670    37682    37732    37805    37849    37856    37828 
   37754    37660    37597    37590    37628    37685    37750    37797 
   37828    37878    37925    37921    37876    37820    37771    37741 
   37736    37762    37814    37871    37890    37851    37786    37751 
   37756    37781    37810    37844    37860    37833    37787    37767 
   37759    37737    37712    37698    37700    37693    37673    37656 
   37658    37678    37717    37777    37844    37886    37895    37889 
   37870    37845    37825    37808    37785    37750    37701    37669 
   37663    37673    37678    37679    37693    37723    37755    37786 
   37825    37872    37908    37909    37874    37820    37760    37719 
   37694    37692    37728    37786    37824    37822    37786    37746 
   37725    37723    37744    37794    37859    37913    37940    37956 
   37956    37913    37840    37777    37724    37681    37651    37635 
   37627    37629    37666    37729    37779    37797    37786    37760 
   37744    37744    37754    37767    37783    37801    37806    37810 
   37825    37840    37852    37870    37860    37810    37746    37696 
   37667    37666    37706    37760    37791    37821    37859    37871 
   37849    37814    37787    37779    37768    37743    37719    37723 
   37766    37818    37855    37882    37881    37835    37763    37686 
   37624    37588    37566    37589    37671    37775    37863    37913 
   37906    37841    37728    37611    37550    37567    37636    37716 
   37797    37870    37909    37906    37874    37820    37774    37751 
   37756    37813    37902    37968    37984    37951    37885    37804 
   37719    37665    37663    37696    37740    37773    37778    37762 
   37736    37709    37692    37700    37725    37746    37778    37828 
   37854    37845    37825    37810    37810    37821    37836    37849 
   37837    37787    37719    37660    37644    37667    37712    37762 
   37789    37802    37820    37829    37821    37786    37727    37674 
   37666    37724    37818    37890    37929    37940    37902    37822 
   37743    37683    37648    37640    37660    37704    37756    37812 
   37844    37843    37836    37822    37786    37741    37708    37689 
   37697    37735    37794    37844    37866    37860    37814    37747 
   37683    37625    37596    37611    37652    37706    37762    37810 
   37848    37862    37867    37871    37852    37812    37777    37764 
   37768    37781    37786    37774    37754    37759    37786    37802 
   37790    37768    37762    37783    37827    37859    37855    37832 
   37810    37797    37802    37816    37802    37755    37690    37633 
   37608    37612    37640    37692    37740    37785    37852    37922 
   37963    37968    37957    37937    37886    37809    37736    37682 
   37660    37670    37700    37743    37781    37800    37812    37822 
   37824    37802    37755    37708    37679    37658    37652    37669 
   37701    37743    37790    37840    37875    37871    37845    37805 
   37748    37705    37686    37683    37704    37737    37755    37751 
   37743    37733    37716    37713    37743    37787    37843    37895 
   37914    37902    37867    37816    37763    37729    37725    37735 
   37732    37723    37717    37704    37697    37704    37733    37793 
   37845    37864    37874    37898    37933    37963    37983    37984 
   37943    37871    37791    37719    37669    37647    37648    37671 
   37697    37731    37782    37828    37855    37883    37901    37889 
   37864    37851    37840    37822    37813    37814    37801    37777 
   37760    37743    37713    37679    37652    37625    37602    37611 
   37638    37654    37662    37666    37677    37706    37752    37797 
   37801    37764    37737    37723    37706    37713    37733    37752 
   37781    37818    37848    37858    37855    37851    37841    37841 
   37852    37845    37821    37786    37748    37729    37732    37754 
   37797    37835    37845    37844    37835    37824    37813    37800 
   37774    37729    37679    37647    37625    37593    37548    37509 
   37503    37511    37512    37516    37539    37594    37679    37758 
   37806    37810    37752    37659    37574    37517    37493    37496 
   37536    37621    37724    37825    37922    38014    38097    38141 
   38137    38101    38057    38033    38003    37959    37932    37933 
   37940    37957    37972    37955    37909    37870    37855    37848 
   37840    37855    37879    37895    37909    37909    37891    37871 
   37847    37800    37736    37679    37632    37581    37528    37503 
   37517    37570    37651    37735    37795    37822    37845    37902 
   37983    38041    38048    38013    37953    37882    37818    37767 
   37702    37620    37554    37547    37619    37739    37879    38021 
   38124    38165    38152    38097    38013    37906    37801    37732 
   37702    37698    37690    37652    37604    37577    37590    37638 
   37694    37763    37844    37909    37928    37887    37779    37636 
   37513    37459    37493    37593    37733    37878    37980    38026 
   38009    37929    37836    37775    37764    37810    37875    37912 
   37887    37802    37687    37586    37515    37458    37401    37365 
   37366    37407    37484    37577    37663    37747    37820    37868 
   37894    37913    37943    37970    37970    37951    37909    37856 
   37813    37770    37727    37698    37670    37632    37589    37539 
   37493    37467    37493    37604    37783    37997    38191    38288 
   38253    38092    37858    37623    37423    37274    37189    37165 
   37189    37243    37318    37411    37512    37636    37801    37995 
   38196    38354    38429    38416    38325    38178    38010    37837 
   37671    37515    37373    37276    37253    37342    37551    37813 
   38041    38195    38253    38240    38210    38199    38218    38234 
   38217    38176    38125    38052    37941    37773    37532    37269 
   37084    37049    37162    37396    37686    37947    38133    38210 
   38175    38075    37945    37802    37690    37655    37706    37793 
   37871    37917    37883    37762    37616    37505    37466    37516 
   37638    37820    38036    38250    38415    38472    38410    38236 
   37967    37704    37540    37474    37444    37373    37242    37079 
   36909    36799    36825    36990    37266    37601    37935    38217 
   38392    38448    38411    38307    38160    37975    37758    37578 
   37500    37524    37619    37750    37885    37967    37940    37810 
   37625    37459    37392    37431    37547    37708    37851    37949 
   37986    37947    37863    37760    37671    37625    37624    37660 
   37728    37804    37856    37849    37760    37613    37443    37297 
   37238    37322    37544    37812    38030    38175    38221    38182 
   38129    38115    38144    38200    38241    38218    38130    37999 
   37843    37667    37497    37368    37282    37234    37224    37260 
   37365    37540    37755    37964    38128    38214    38209    38126 
   38038    37986    37960    37962    37957    37917    37843    37737 
   37617    37511    37426    37372    37365    37422    37555    37748 
   37959    38148    38296    38422    38529    38604    38655    38674 
   38618    38445    38146    37743    37299    36906    36655    36576 
   36652    36859    37156    37481    37778    38005    38128    38122 
   38043    37968    37912    37868    37843    37832    37848    37906 
   37990    38072    38110    38075    37964    37802    37651    37569 
   37569    37655    37787    37909    38007    38087    38146    38172 
   38132    38014    37848    37673    37496    37322    37206    37203 
   37301    37461    37655    37840    37970    38011    37959    37841 
   37713    37632    37611    37631    37682    37733    37747    37739 
   37723    37682    37608    37523    37473    37503    37639    37856 
   38068    38196    38190    38036    37787    37521    37311    37201 
   37195    37296    37501    37750    37962    38080    38075    37943 
   37697    37393    37149    37057    37147    37388    37721    38080 
   38367    38484    38430    38256    38009    37754    37559    37470 
   37481    37530    37577    37613    37639    37689    37775    37841 
   37828    37747    37662    37633    37702    37866    38048    38140 
   38087    37929    37759    37639    37615    37693    37804    37883 
   37928    37945    37948    37944    37944    37952    37955    37945 
   37912    37824    37710    37642    37624    37644    37696    37740 
   37739    37702    37702    37813    38024    38252    38426    38492 
   38423    38246    38030    37840    37693    37554    37400    37254 
   37164    37170    37292    37515    37797    38071    38263    38349 
   38361    38319    38214    38045    37820    37569    37328    37123 
   36998    36988    37081    37241    37434    37651    37887    38113 
   38331    38565    38761    38865    38854    38720    38503    38265 
   38051    37887    37756    37621    37458    37255    37053    36877 
   36749    36717    36783    36917    37112    37339    37566    37804 
   38047    38230    38298    38253    38121    37912    37692    37548 
   37505    37539    37617    37697    37743    37724    37638    37524 
   37413    37345    37351    37430    37554    37698    37855    37999 
   38099    38136    38121    38064    37993    37918    37840    37770 
   37729    37759    37868    38020    38169    38264    38250    38137 
   37959    37764    37633    37611    37694    37866    38055    38172 
   38161    38014    37760    37440    37142    36964    36944    37071 
   37304    37573    37824    38014    38110    38105    38013    37894 
   37804    37736    37702    37723    37795    37916    38044    38129 
   38140    38087    38036    38043    38109    38215    38288    38268 
   38156    37956    37690    37408    37141    36942    36877    36953 
   37119    37300    37435    37513    37540    37532    37538    37593 
   37687    37767    37800    37804    37817    37881    38003    38129 
   38199    38187    38083    37912    37721    37566    37469    37422 
   37462    37623    37859    38101    38318    38477    38537    38491 
   38367    38206    38037    37890    37793    37775    37820    37847 
   37817    37751    37667    37588    37539    37543    37596    37669 
   37735    37777    37778    37768    37760    37735    37705    37685 
   37665    37633    37575    37498    37444    37435    37503    37665 
   37875    38057    38128    38078    37982    37893    37816    37755 
   37716    37712    37748    37825    37937    38043    38099    38074 
   37947    37759    37574    37428    37354    37378    37488    37636 
   37779    37894    37966    37971    37891    37720    37508    37343 
   37258    37255    37330    37420    37477    37497    37498    37511 
   37544    37613    37747    37925    38109    38264    38349    38356 
   38307    38213    38082    37926    37764    37606    37455    37350 
   37318    37330    37354    37381    37403    37426    37477    37582 
   37746    37951    38169    38364    38514    38605    38595    38477 
   38292    38082    37878    37698    37570    37527    37544    37589 
   37640    37669    37654    37604    37551    37528    37538    37579 
   37666    37781    37887    37951    37940    37871    37793    37727 
   37687    37693    37746    37821    37867    37870    37870    37903 
   37975    38053    38111    38121    38047    37909    37777    37689 
   37658    37694    37804    37956    38094    38184    38163    37974 
   37678    37377    37123    36961    36915    36977    37142    37377 
   37644    37902    38119    38290    38396    38419    38376    38291 
   38179    38051    37910    37759    37619    37503    37415    37353 
   37315    37296    37309    37389    37543    37721    37870    37959 
   37990    37982    37947    37901    37867    37874    37929    38014 
   38109    38200    38241    38210    38130    37993    37800    37601 
   37462    37423    37462    37512    37528    37503    37463    37447 
   37466    37527    37621    37728    37860    38007    38145    38256 
   38306    38271    38148    37944    37686    37415    37200    37110 
   37138    37268    37480    37720    37952    38133    38209    38180 
   38082    37941    37787    37651    37565    37532    37525    37542 
   37552    37517    37443    37370    37358    37451    37639    37872 
   38071    38145    38082    37926    37755    37635    37586    37601 
   37677    37794    37908    37975    37983    37964    37951    37970 
   38017    38070    38118    38141    38101    38002    37863    37693 
   37509    37336    37206    37141    37176    37326    37538    37741 
   37894    37970    37976    37959    37929    37883    37821    37760 
   37723    37721    37752    37802    37821    37775    37679    37566 
   37484    37496    37632    37851    38067    38211    38256    38213 
   38130    38047    37978    37941    37945    37994    38051    38051 
   37976    37864    37763    37719    37743    37818    37922    37997 
