Origin Time       2025/03/30 22:55:00
Lat.              41.993
Long.             142.725
Depth. (km)       55
Mag.              4.6
Station Code      AOMH06
Station Lat.      40.9664
Station Long.     141.3738
Station Height(m) -95
Record Time       2025/03/30 22:56:41
Sampling Freq(Hz) 100Hz
Duration Time(s)  120
Dir.              1
Scale Factor      2942(gal)/8224139
Max. Acc. (gal)   0.229
Last Correction   2025/03/30 22:56:41
Memo.             
[...]
   47667    47771    47825    47837    47825    47804    47773    47703 
   47644    47671    47744    47795    47841    47896    47916    47875 
   47788    47704    47665    47687    47764    47834    47846    47822 
   47795    47772    47781    47821    47846    47853    47844    47781 
   47682    47653    47722    47802    47827    47788    47733    47713 
   47731    47769    47795    47767    47725    47733    47758    47752 
   47746    47767    47783    47796    47803    47781    47754    47771 
   47808    47831    47833    47822    47827    47849    47842    47795 
   47742    47727    47741    47725    47686    47695    47772    47845 
   47846    47803    47780    47783    47783    47781    47787    47785 
   47758    47727    47726    47734    47727    47730    47754    47758 
   47734    47731    47760    47761    47738    47745    47787    47831 
   47858    47858    47835    47811    47799    47783    47756    47744 
   47737    47714    47699    47707    47745    47804    47839    47814 
   47758    47715    47694    47677    47683    47744    47818    47856 
   47879    47899    47892    47866    47817    47730    47650    47625 
   47657    47730    47791    47808    47829    47857    47861    47869 
   47872    47827    47768    47718    47671    47649    47659    47686 
   47731    47779    47792    47777    47783    47806    47790    47750 
   47741    47753    47788    47857    47903    47881    47810    47733 
   47700    47710    47719    47733    47741    47727    47738    47775 
   47785    47791    47808    47804    47794    47823    47864    47860 
   47818    47777    47742    47686    47633    47632    47659    47691 
   47763    47850    47906    47908    47860    47792    47773    47791 
   47777    47740    47736    47763    47776    47764    47754    47772 
   47800    47807    47777    47738    47740    47765    47769    47769 
   47784    47784    47763    47737    47726    47753    47800    47823 
   47795    47717    47652    47680    47773    47818    47798    47773 
   47753    47734    47715    47707    47733    47765    47781    47788 
   47775    47756    47758    47791    47850    47871    47821    47779 
   47784    47784    47776    47777    47779    47798    47817    47803 
   47792    47814    47827    47799    47746    47722    47737    47748 
   47733    47710    47721    47761    47792    47799    47784    47740 
   47713    47754    47834    47888    47898    47876    47852    47830 
   47788    47741    47721    47726    47736    47725    47699    47696 
   47734    47777    47804    47815    47798    47763    47730    47704 
   47699    47725    47773    47830    47869    47876    47862    47839 
   47815    47791    47760    47746    47765    47787    47784    47767 
   47726    47679    47677    47707    47740    47785    47810    47776 
   47736    47733    47741    47760    47814    47842    47808    47749 
   47698    47692    47737    47777    47791    47811    47854    47871 
   47831    47785    47780    47818    47854    47852    47818    47746 
   47659    47629    47671    47729    47773    47798    47790    47754 
   47698    47646    47656    47736    47815    47854    47853    47812 
   47767    47752    47744    47734    47750    47792    47850    47896 
   47893    47852    47802    47757    47719    47686    47698    47780 
   47853    47841    47779    47722    47699    47723    47750    47738 
   47738    47773    47792    47790    47788    47791    47788    47758 
   47703    47676    47703    47746    47783    47821    47856    47871 
   47873    47858    47808    47750    47714    47687    47700    47771 
   47849    47908    47927    47873    47781    47725    47715    47722 
   47699    47640    47611    47652    47727    47792    47810    47771 
   47719    47704    47745    47804    47830    47839    47858    47841 
   47781    47730    47721    47757    47799    47779    47715    47677 
   47686    47726    47765    47784    47803    47833    47885    47962 
   47988    47929    47830    47707    47613    47619    47669    47680 
   47683    47711    47742    47773    47806    47810    47780    47768 
   47807    47869    47908    47903    47849    47771    47695    47630 
   47623    47691    47771    47814    47819    47787    47753    47725 
   47680    47676    47758    47844    47892    47927    47919    47865 
   47815    47779    47723    47667    47657    47687    47725    47765 
   47796    47821    47846    47848    47790    47700    47641    47637 
   47692    47781    47846    47854    47819    47767    47736    47748 
   47779    47803    47811    47792    47745    47688    47661    47686 
   47745    47819    47877    47891    47875    47830    47741    47660 
   47657    47727    47818    47862    47834    47768    47717    47699 
   47698    47711    47754    47808    47823    47791    47758    47756 
   47761    47756    47754    47777    47810    47823    47830    47841 
   47829    47790    47750    47721    47719    47754    47780    47775 
   47775    47790    47803    47798    47779    47749    47707    47680 
   47695    47734    47769    47790    47799    47808    47827    47860 
   47892    47881    47854    47869    47858    47777    47704    47686 
   47702    47729    47738    47736    47736    47729    47736    47771 
   47818    47837    47806    47750    47713    47704    47737    47800 
   47835    47833    47819    47800    47788    47794    47811    47823 
   47818    47807    47808    47804    47765    47709    47690    47709 
   47741    47802    47873    47881    47827    47775    47731    47686 
   47655    47634    47636    47680    47738    47788    47818    47807 
   47779    47753    47713    47677    47688    47745    47821    47889 
   47911    47872    47807    47764    47764    47777    47773    47783 
   47803    47796    47779    47748    47687    47645    47649    47682 
   47738    47800    47844    47869    47876    47853    47817    47777 
   47749    47748    47764    47767    47733    47696    47717    47776 
   47800    47767    47736    47757    47799    47806    47803    47833 
   47848    47827    47826    47829    47796    47777    47776    47756 
   47740    47730    47719    47719    47738    47767    47765    47725 
   47707    47727    47752    47760    47763    47781    47814    47842 
   47866    47873    47857    47822    47756    47691    47686    47730 
   47780    47818    47829    47806    47768    47734    47727    47729 
   47692    47659    47680    47725    47768    47810    47833    47852 
   47849    47784    47709    47680    47687    47713    47753    47806 
   47846    47837    47815    47833    47841    47821    47819    47817 
   47796    47777    47756    47746    47768    47776    47744    47718 
   47734    47765    47760    47731    47733    47741    47723    47703 
   47695    47700    47730    47775    47817    47835    47823    47825 
   47849    47833    47764    47718    47733    47787    47854    47889 
   47872    47846    47838    47817    47764    47704    47673    47688 
   47722    47744    47752    47758    47771    47777    47765    47734 
   47721    47768    47829    47831    47803    47771    47730    47699 
   47695    47727    47794    47849    47871    47873    47861    47815 
   47767    47761    47768    47772    47799    47799    47763    47761 
   47806    47830    47779    47698    47695    47736    47738    47736 
   47749    47742    47721    47717    47715    47718    47740    47748 
   47744    47761    47769    47777    47812    47806    47754    47727 
   47718    47703    47710    47763    47846    47911    47925    47904 
   47856    47783    47710    47653    47640    47673    47722    47772 
   47812    47814    47779    47742    47719    47717    47753    47779 
   47773    47788    47830    47868    47853    47779    47722    47710 
   47723    47767    47783    47734    47688    47696    47746    47806 
   47860    47885    47865    47856    47875    47856    47799    47745 
   47727    47753    47744    47669    47623    47632    47657    47692 
   47714    47731    47767    47777    47772    47783    47781    47761 
   47745    47722    47694    47695    47744    47827    47885    47862 
   47794    47776    47800    47788    47757    47780    47834    47861 
   47860    47830    47749    47676    47669    47692    47718    47750 
   47772    47784    47787    47769    47764    47783    47822    47875 
   47895    47850    47781    47740    47721    47709    47725    47750 
   47706    47633    47652    47714    47761    47839    47910    47898 
   47844    47798    47765    47757    47773    47779    47748    47714 
   47709    47713    47725    47767    47821    47865    47891    47880 
   47837    47808    47802    47814    47868    47918    47877    47792 
   47752    47740    47717    47715    47752    47795    47804    47787 
   47822    47942    48053    48069    48027    47988    47961    47931 
   47914    47889    47821    47783    47826    47861    47841    47808 
   47788    47781    47763    47711    47656    47649    47713    47773 
   47775    47768    47787    47799    47808    47834    47845    47817 
   47749    47661    47601    47587    47572    47553    47609    47761 
   47946    48080    48095    48031    47989    47953    47872    47768 
   47669    47619    47649    47707    47742    47736    47687    47650 
   47676    47695    47634    47533    47457    47459    47553    47659 
   47695    47673    47660    47700    47753    47763    47752    47702 
   47610    47557    47560    47571    47601    47688    47839    47964 
   47952    47856    47796    47785    47776    47736    47659    47583 
   47576    47623    47623    47524    47385    47283    47275    47371 
   47528    47684    47823    47962    48109    48246    48331    48313 
   48196    48064    47987    47937    47902    47903    47914    47904 
   47893    47871    47811    47749    47737    47799    47875    47883 
   47825    47746    47628    47461    47360    47405    47478    47495 
   47501    47474    47413    47420    47542    47718    47856    47965 
   48124    48254    48270    48249    48200    48101    48023    47927 
   47764    47642    47599    47578    47618    47727    47815    47856 
   47852    47795    47756    47767    47752    47699    47673    47730 
   47860    47973    47935    47706    47420    47270    47358    47637 
   47957    48181    48259    48219    48127    48022    47873    47702 
   47590    47571    47653    47795    47860    47785    47656    47536 
   47455    47452    47502    47552    47626    47764    47910    47965 
   47945    47934    47899    47784    47661    47592    47579    47632 
   47730    47815    47857    47866    47866    47860    47880    47945 
   48000    47993    47926    47807    47652    47518    47440    47406 
   47412    47430    47457    47555    47723    47848    47889    47931 
   47989    48046    48080    48004    47795    47590    47510    47557 
   47719    47916    47973    47841    47682    47628    47648    47672 
   47691    47748    47877    48049    48201    48266    48220    48108 
   47939    47753    47634    47595    47641    47749    47806    47734 
   47596    47540    47648    47848    48015    48064    47991    47868 
   47741    47640    47637    47738    47850    47879    47821    47740 
   47740    47903    48158    48319    48317    48195    47958    47675 
   47443    47289    47277    47464    47746    48006    48190    48235 
   48105    47834    47571    47486    47556    47634    47672    47698 
   47719    47763    47850    47937    47914    47795    47767    47893 
   48001    47947    47790    47679    47676    47692    47700    47775 
   47892    47987    48035    47970    47749    47493    47360    47351 
   47385    47471    47613    47729    47785    47798    47741    47619 
   47499    47475    47607    47763    47788    47768    47780    47808 
   47862    47929    47952    47927    47899    47920    47985    47992 
   47895    47785    47763    47775    47710    47592    47534    47563 
   47656    47733    47702    47668    47796    48006    48130    48158 
   48119    47987    47800    47641    47526    47455    47429    47417 
   47391    47355    47341    47397    47493    47560    47623    47726 
   47806    47784    47699    47655    47711    47854    48001    48027 
   47934    47873    47860    47773    47632    47522    47482    47545 
   47683    47804    47848    47773    47640    47579    47580    47576 
   47595    47650    47688    47675    47646    47648    47622    47503 
   47382    47371    47463    47595    47717    47802    47861    47942 
   48074    48215    48298    48330    48347    48365    48377    48369 
   48339    48257    48124    48012    47947    47899    47850    47807 
   47764    47696    47569    47445    47405    47393    47332    47283 
   47325    47399    47422    47417    47464    47587    47725    47798 
   47796    47763    47731    47754    47885    48100    48294    48393 
   48398    48321    48161    47972    47818    47731    47754    47872 
   47969    47968    47873    47733    47601    47493    47383    47283 
   47247    47282    47362    47521    47757    47960    48066    48115 
   48096    47997    47935    47993    48111    48236    48347    48351 
   48213    48024    47910    47903    47918    47892    47850    47802 
   47733    47642    47514    47370    47251    47167    47150    47245 
   47406    47490    47472    47466    47536    47649    47773    47866 
   47898    47929    48042    48209    48348    48412    48375    48222 
   47980    47753    47619    47587    47619    47668    47715    47777 
   47837    47868    47868    47875    47893    47880    47823    47761 
   47713    47649    47551    47434    47332    47268    47250    47278 
   47397    47613    47835    47991    48062    48049    48003    48000 
   48039    48066    48053    48012    47974    47942    47896    47837 
   47772    47717    47665    47606    47580    47614    47649    47646 
   47626    47599    47579    47615    47733    47862    47877    47746 
   47592    47530    47553    47636    47748    47835    47896    47941 
   47920    47841    47808    47866    47926    47926    47904    47896 
   47885    47839    47769    47726    47722    47748    47814    47875 
   47829    47682    47594    47638    47694    47656    47565    47509 
   47557    47696    47800    47773    47657    47557    47513    47524 
   47625    47811    47972    48023    47999    47972    47977    48016 
   48042    48010    47943    47858    47714    47534    47394    47304 
   47287    47399    47596    47765    47862    47888    47822    47680 
   47563    47561    47659    47785    47923    48041    48051    47954 
   47853    47817    47822    47815    47781    47749    47749    47812 
   47930    47996    47966    47941    47949    47938    47939    47991 
   48046    48046    47958    47799    47599    47422    47364    47444 
   47578    47686    47740    47745    47719    47688    47679    47711 
   47779    47845    47848    47785    47737    47723    47696    47676 
   47703    47787    47910    48015    48038    47993    47953    47916 
   47835    47745    47730    47812    47899    47868    47709    47534 
   47460    47482    47532    47574    47568    47533    47556    47611 
   47623    47642    47736    47884    48012    48046    47979    47907 
   47943    48054    48105    48062    48001    47970    47950    47898 
   47783    47663    47626    47663    47696    47698    47677    47657 
   47632    47636    47721    47817    47837    47821    47844    47902 
   47926    47883    47790    47694    47680    47769    47838    47795 
   47672    47582    47628    47780    47918    47979    47950    47856 
   47771    47763    47779    47699    47538    47429    47441    47515 
   47564    47596    47691    47848    47992    48054    47991    47826 
   47655    47549    47530    47587    47650    47704    47785    47856 
   47853    47790    47695    47619    47638    47729    47819    47914 
   48012    48043    47997    47985    48057    48118    48078    47920 
   47704    47536    47483    47520    47578    47637    47699    47787 
   47919    48027    48033    47956    47838    47688    47540    47467 
   47491    47569    47645    47661    47644    47688    47779    47821 
   47795    47740    47667    47596    47561    47599    47721    47881 
   48014    48084    48077    48015    47949    47891    47846    47844 
   47861    47803    47636    47470    47441    47536    47634    47688 
   47706    47691    47669    47663    47665    47668    47664    47669 
   47698    47717    47714    47703    47690    47714    47792    47858 
   47873    47865    47839    47799    47781    47800    47837    47879 
   47916    47942    47942    47904    47860    47844    47857    47884 
   47907    47898    47858    47821    47775    47698    47625    47586 
   47575    47579    47594    47630    47684    47715    47726    47768 
   47856    47960    48065    48162    48207    48170    48069    47956 
   47861    47806    47802    47818    47834    47875    47914    47896 
   47838    47802    47785    47768    47767    47788    47806    47787 
   47726    47648    47599    47628    47711    47784    47830    47868 
   47883    47834    47748    47717    47742    47756    47785    47892 
   48018    48042    47949    47846    47795    47772    47775    47807 
   47852    47889    47873    47802    47773    47810    47790    47694 
   47613    47559    47520    47529    47556    47544    47517    47509 
   47525    47565    47632    47707    47750    47758    47772    47769 
   47700    47580    47479    47453    47498    47568    47656    47765 
   47856    47892    47900    47892    47846    47792    47795    47865 
   47942    47952    47877    47776    47703    47668    47676    47744 
   47844    47926    47970    47949    47861    47767    47709    47675 
   47613    47505    47440    47503    47649    47795    47912    47987 
   47989    47922    47839    47795    47818    47907    47965    47879 
   47703    47591    47606    47700    47775    47788    47804    47861 
   47892    47833    47725    47660    47679    47746    47806    47815 
   47788    47757    47714    47640    47579    47571    47619    47704 
   47763    47760    47749    47771    47812    47872    47919    47895 
   47850    47871    47914    47935    47980    48020    47962    47838 
   47727    47652    47617    47609    47591    47567    47571    47615 
   47675    47727    47767    47806    47842    47865    47858    47822 
   47796    47771    47711    47649    47607    47590    47619    47671 
   47713    47779    47866    47922    47934    47927    47896    47848 
   47830    47864    47919    47987    48064    48088    48033    47939 
   47834    47753    47733    47736    47721    47690    47633    47598 
   47649    47733    47785    47826    47839    47811    47799    47827 
   47854    47854    47845    47821    47790    47771    47757    47748 
   47757    47779    47795    47792    47763    47714    47655    47609 
   47619    47664    47698    47726    47769    47803    47775    47713 
   47668    47640    47642    47704    47776    47803    47830    47891 
   47931    47899    47838    47850    47939    48022    48050    48010 
   47898    47760    47668    47623    47563    47472    47414    47434 
