Origin Time       2025/03/30 22:55:00
Lat.              41.993
Long.             142.725
Depth. (km)       55
Mag.              4.6
Station Code      AOMH17
Station Lat.      40.4492
Station Long.     141.3374
Station Height(m) -49.1
Record Time       2025/03/30 22:56:53
Sampling Freq(Hz) 100Hz
Duration Time(s)  120
Dir.              2
Scale Factor      3923(gal)/8224838
Max. Acc. (gal)   0.223
Last Correction   2025/03/30 22:56:53
Memo.             
[...]
   -9907    -9942    -9936    -9898    -9869    -9904    -9944    -9929 
   -9906    -9888    -9898    -9950    -9979    -9957    -9892    -9837 
   -9859    -9871    -9840    -9852    -9863    -9869    -9917    -9927 
   -9892    -9861    -9852    -9884    -9918    -9922    -9919    -9911 
   -9894    -9880    -9884    -9910    -9952    -9980    -9945    -9864 
   -9799    -9784    -9840    -9925    -9960    -9964    -9960    -9909 
   -9838    -9798    -9806    -9857    -9884    -9887    -9903    -9873 
   -9815    -9819    -9845    -9845    -9877    -9930    -9933    -9907 
   -9894    -9892    -9890    -9857    -9826    -9860    -9899    -9899 
   -9891    -9877    -9871    -9883    -9892    -9911    -9934    -9946 
   -9952    -9929    -9872    -9832    -9821    -9829    -9849    -9871 
   -9892    -9919    -9941    -9944    -9921    -9909    -9930    -9927 
   -9891    -9872    -9853    -9836    -9875    -9911    -9882    -9852 
   -9860    -9876    -9895    -9911    -9915    -9922    -9937    -9950 
   -9953    -9922    -9855    -9807    -9806    -9822    -9852    -9891 
   -9926    -9964    -9963    -9900    -9844    -9834    -9830    -9838 
   -9890    -9929    -9917    -9890    -9868    -9857    -9875    -9886 
   -9886    -9898    -9895    -9879    -9886    -9909    -9941    -9953 
   -9922    -9898    -9892    -9887    -9903    -9910    -9886    -9860 
   -9837    -9832    -9853    -9880    -9906    -9917    -9914    -9917 
   -9913    -9903    -9902    -9884    -9871    -9888    -9891    -9873 
   -9873    -9884    -9898    -9907    -9896    -9883    -9876    -9869 
   -9894    -9917    -9902    -9895    -9903    -9896    -9883    -9863 
   -9844    -9845    -9864    -9871    -9859    -9863    -9886    -9894 
   -9888    -9879    -9864    -9836    -9822    -9861    -9907    -9907 
   -9899    -9911    -9915    -9895    -9873    -9868    -9882    -9900 
   -9904    -9896    -9884    -9861    -9877    -9940    -9948    -9909 
   -9923    -9957    -9948    -9933    -9914    -9890    -9886    -9867 
   -9829    -9819    -9830    -9846    -9859    -9869    -9895    -9910 
   -9880    -9867    -9915    -9940    -9917    -9931    -9957    -9938 
   -9884    -9829    -9822    -9855    -9873    -9876    -9896    -9934 
   -9952    -9946    -9938    -9894    -9838    -9860    -9883    -9849 
   -9857    -9894    -9873    -9841    -9848    -9875    -9873    -9859 
   -9883    -9907    -9904    -9898    -9888    -9914    -9954    -9934 
   -9871    -9834    -9859    -9903    -9904    -9875    -9868    -9884 
   -9879    -9871    -9891    -9909    -9917    -9911    -9886    -9873 
   -9857    -9832    -9867    -9931    -9946    -9926    -9895    -9884 
   -9904    -9903    -9872    -9849    -9852    -9875    -9900    -9914 
   -9914    -9910    -9915    -9918    -9902    -9869    -9836    -9819 
   -9826    -9848    -9853    -9850    -9867    -9875    -9879    -9907 
   -9931    -9929    -9900    -9849    -9832    -9869    -9903    -9883 
   -9845    -9852    -9899    -9927    -9917    -9902    -9899    -9899 
   -9909    -9926    -9915    -9887    -9895    -9926    -9933    -9898 
   -9855    -9837    -9833    -9838    -9865    -9896    -9900    -9882 
   -9891    -9933    -9941    -9918    -9907    -9919    -9945    -9938 
   -9907    -9907    -9907    -9895    -9896    -9891    -9882    -9882 
   -9871    -9856    -9845    -9871    -9913    -9899    -9873    -9877 
   -9877    -9883    -9898    -9896    -9883    -9900    -9942    -9936 
   -9886    -9841    -9826    -9856    -9909    -9929    -9914    -9895 
   -9877    -9880    -9895    -9892    -9872    -9856    -9861    -9850 
   -9814    -9825    -9875    -9899    -9906    -9892    -9844    -9833 
   -9868    -9887    -9909    -9944    -9950    -9938    -9921    -9888 
   -9856    -9850    -9879    -9896    -9887    -9896    -9919    -9911 
   -9882    -9869    -9845    -9809    -9825    -9860    -9886    -9933 
   -9963    -9949    -9911    -9861    -9817    -9806    -9859    -9918 
   -9927    -9919    -9911    -9902    -9910    -9923    -9919    -9914 
   -9926    -9909    -9868    -9859    -9876    -9917    -9949    -9918 
   -9853    -9801    -9801    -9853    -9879    -9888    -9915    -9922 
   -9922    -9913    -9886    -9875    -9877    -9896    -9929    -9933 
   -9923    -9913    -9892    -9875    -9856    -9872    -9925    -9961 
   -9984    -9963    -9911    -9919    -9926    -9894    -9869    -9848 
   -9857    -9884    -9886    -9890    -9882    -9850    -9846    -9848 
   -9826    -9817    -9823    -9828    -9850    -9904    -9945    -9954 
   -9946    -9911    -9883    -9868    -9823    -9794    -9841    -9918 
   -9964    -9969    -9948    -9913    -9872    -9838    -9821    -9810 
   -9813    -9849    -9914    -9949    -9930    -9910    -9890    -9872 
   -9879    -9859    -9829    -9861    -9900    -9890    -9868    -9867 
   -9871    -9876    -9875    -9864    -9890    -9931    -9910    -9877 
   -9899    -9917    -9913    -9921    -9917    -9880    -9846    -9849 
   -9873    -9892    -9902    -9909    -9925    -9925    -9906    -9904 
   -9903    -9875    -9864    -9896    -9926    -9914    -9883    -9867 
   -9868    -9864    -9849    -9860    -9910    -9949    -9942    -9904 
   -9877    -9873    -9863    -9849    -9856    -9863    -9853    -9856 
   -9865    -9853    -9850    -9880    -9910    -9926    -9949    -9963 
   -9931    -9911    -9922    -9911    -9899    -9911    -9907    -9871 
   -9840    -9836    -9850    -9868    -9872    -9867    -9883    -9909 
   -9915    -9892    -9850    -9855    -9915    -9953    -9938    -9915 
   -9903    -9890    -9880    -9859    -9825    -9832    -9860    -9864 
   -9875    -9891    -9888    -9890    -9902    -9887    -9884    -9923 
   -9937    -9906    -9877    -9882    -9910    -9917    -9900    -9896 
   -9888    -9856    -9841    -9875    -9918    -9925    -9900    -9891 
   -9907    -9892    -9865    -9873    -9846    -9822    -9880    -9907 
   -9896    -9934    -9957    -9933    -9888    -9844    -9849    -9907 
   -9930    -9903    -9896    -9892    -9863    -9849    -9868    -9919 
   -9967    -9956    -9927    -9909    -9869    -9845    -9860    -9872 
   -9872    -9868    -9856    -9840    -9830    -9848    -9879    -9879 
   -9863    -9869    -9904    -9949    -9942    -9915    -9941    -9956 
   -9919    -9875    -9856    -9864    -9856    -9825    -9811    -9822 
   -9860    -9903    -9903    -9883    -9860    -9838    -9855    -9894 
   -9931    -9968    -9954    -9904    -9872    -9853    -9845    -9850 
   -9872    -9914    -9948    -9956    -9911    -9856    -9855    -9869 
   -9880    -9896    -9884    -9872    -9890    -9903    -9903    -9902 
   -9890    -9884    -9894    -9882    -9861    -9890    -9931    -9940 
   -9937    -9941    -9942    -9909    -9852    -9834    -9873    -9914 
   -9904    -9877    -9864    -9836    -9830    -9844    -9834    -9859 
   -9921    -9958    -9958    -9927    -9902    -9894    -9898    -9923 
   -9929    -9909    -9899    -9869    -9833    -9837    -9873    -9918 
   -9938    -9921    -9880    -9863    -9877    -9882    -9868    -9853 
   -9869    -9934    -9963    -9930    -9888    -9837    -9799    -9798 
   -9823    -9871    -9903    -9918    -9922    -9892    -9877    -9886 
   -9865    -9859    -9890    -9919    -9923    -9886    -9848    -9841 
   -9848    -9848    -9837    -9846    -9865    -9873    -9899    -9927 
   -9934    -9918    -9887    -9888    -9921    -9953    -9968    -9931 
   -9864    -9837    -9846    -9842    -9840    -9853    -9841    -9838 
   -9868    -9902    -9960   -10011   -10002    -9973    -9952    -9915 
   -9899    -9925    -9926    -9879    -9834    -9821    -9833    -9849 
   -9859    -9871    -9886    -9895    -9891    -9890    -9883    -9853 
   -9844    -9875    -9884    -9882    -9903    -9898    -9864    -9867 
   -9900    -9918    -9922    -9927    -9934    -9930    -9927    -9938 
   -9927    -9907    -9917    -9911    -9857    -9822    -9844    -9871 
   -9868    -9853    -9830    -9832    -9876    -9907    -9914    -9934 
   -9950    -9940    -9907    -9868    -9832    -9833    -9880    -9899 
   -9850    -9792    -9786    -9825    -9852    -9873    -9915    -9944 
   -9945    -9931    -9923    -9926    -9909    -9884    -9892    -9914 
   -9926    -9925    -9900    -9852    -9821    -9828    -9829    -9825 
   -9833    -9829    -9859    -9915    -9906    -9891    -9929    -9945 
   -9944    -9942    -9915    -9904    -9934    -9956    -9907    -9836 
   -9832    -9865    -9891    -9899    -9879    -9864    -9876    -9906 
   -9948    -9960    -9940    -9918    -9899    -9884    -9859    -9841 
   -9873    -9891    -9833    -9776    -9783    -9822    -9872    -9910 
   -9923    -9937    -9942    -9938    -9945    -9925    -9879    -9869 
   -9859    -9829    -9836    -9852    -9856    -9886    -9944    -9994 
   -9999    -9971    -9936    -9879    -9841    -9871    -9910    -9902 
   -9879    -9871    -9880    -9898    -9891    -9871    -9886    -9913 
   -9907    -9865    -9825    -9833    -9867    -9891    -9913    -9925 
   -9919    -9918    -9895    -9838    -9810    -9838    -9879    -9903 
   -9888    -9848    -9833    -9850    -9884    -9917    -9927    -9936 
   -9937    -9927    -9934    -9917    -9871    -9848    -9842    -9842 
   -9845    -9849    -9876    -9913    -9895    -9852    -9868    -9902 
   -9888    -9872    -9879    -9891    -9914    -9937    -9952    -9953 
   -9927    -9906    -9910    -9884    -9841    -9842    -9857    -9849 
   -9859    -9883    -9879    -9856    -9842    -9856    -9896    -9938 
   -9960    -9953    -9949    -9980   -10004    -9983    -9936    -9876 
   -9821    -9811    -9852    -9888    -9887    -9849    -9826    -9857 
   -9886    -9876    -9875    -9876    -9844    -9809    -9809    -9856 
   -9926    -9980    -9984    -9950    -9913    -9886    -9868    -9864 
   -9875    -9888    -9919    -9965    -9973    -9913    -9833    -9825 
   -9882    -9910    -9887    -9856    -9840    -9852    -9888    -9918 
   -9907    -9884    -9879    -9857    -9840    -9859    -9883    -9915 
   -9944    -9922    -9882    -9869    -9865    -9865    -9880    -9882 
   -9860    -9846    -9853    -9864    -9910    -9995   -10030    -9999 
   -9957    -9911    -9863    -9842    -9849    -9872    -9906    -9910 
   -9864    -9833    -9829    -9818    -9823    -9859    -9896    -9906 
   -9902    -9919    -9926    -9917    -9909    -9888    -9875    -9853 
   -9806    -9801    -9830    -9846    -9865    -9877    -9857    -9852 
   -9894    -9944    -9963    -9977    -9980    -9936    -9879    -9853 
   -9849    -9848    -9829    -9830    -9873    -9886    -9864    -9853 
   -9832    -9823    -9850    -9865    -9861    -9894    -9949    -9950 
   -9927    -9931    -9925    -9911    -9917    -9906    -9873    -9883 
   -9933    -9941    -9900    -9867    -9852    -9861    -9891    -9895 
   -9876    -9880    -9903    -9927    -9930    -9872    -9815    -9841 
   -9888    -9892    -9895    -9898    -9876    -9873    -9907    -9923 
   -9902    -9880    -9872    -9871    -9873    -9883    -9899    -9917 
   -9940    -9981   -10006    -9987    -9972    -9980    -9971    -9937 
   -9883    -9855    -9868    -9856    -9811    -9790    -9805    -9865 
   -9929    -9940    -9929    -9921    -9922    -9925    -9902    -9894 
   -9907    -9909    -9910    -9925    -9927    -9914    -9910    -9926 
   -9938    -9945    -9945    -9923    -9903    -9898    -9887    -9859 
   -9837    -9845    -9865    -9876    -9872    -9844    -9814    -9830 
   -9879    -9887    -9836    -9803    -9825    -9868    -9906    -9938 
   -9994   -10057   -10072   -10029    -9963    -9888    -9791    -9697 
   -9661    -9672    -9687    -9734    -9790    -9780    -9720    -9666 
   -9672    -9752    -9849    -9904    -9922    -9944    -9940    -9875 
   -9809    -9786    -9809    -9860    -9886    -9898    -9948   -10027 
  -10098   -10123   -10100   -10058   -10017    -9984    -9927    -9815 
   -9720    -9694    -9687    -9674    -9675    -9702    -9749    -9784 
   -9819    -9909   -10012   -10044   -10004    -9973    -9958    -9915 
   -9879    -9894    -9944    -9998   -10015    -9972    -9904    -9868 
   -9879    -9909    -9934    -9936    -9918    -9900    -9871    -9817 
   -9764    -9757    -9796    -9814    -9788    -9756    -9740    -9748 
   -9792    -9859    -9892    -9906    -9954   -10011   -10039   -10058 
  -10049    -9979    -9855    -9738    -9705    -9742    -9788    -9852 
   -9952   -10035   -10091   -10143   -10183   -10173   -10080    -9971 
   -9949    -9969    -9965    -9936    -9853    -9767    -9757    -9803 
   -9845    -9882    -9934    -9960    -9946    -9948    -9941    -9915 
   -9923    -9980   -10044   -10039    -9981    -9958    -9973   -10003 
  -10062   -10114   -10135   -10123   -10061    -9990    -9930    -9838 
   -9721    -9602    -9487    -9451    -9525    -9610    -9633    -9652 
   -9714    -9830    -9998   -10166   -10276   -10296   -10211   -10069 
   -9942    -9856    -9801    -9768    -9771    -9803    -9833    -9873 
   -9910    -9886    -9836    -9832    -9833    -9810    -9810    -9821 
   -9803    -9769    -9710    -9624    -9580    -9614    -9668    -9705 
   -9752    -9845    -9960   -10060   -10131   -10152   -10156   -10184 
  -10160   -10044    -9936    -9909    -9927    -9927    -9886    -9783 
   -9668    -9637    -9666    -9732    -9857    -9968    -9992    -9961 
   -9941    -9957   -10010   -10046    -9975    -9814    -9707    -9706 
   -9715    -9655    -9529    -9421    -9464    -9695    -9963   -10146 
  -10207   -10154   -10114   -10130   -10133   -10129   -10118   -10088 
  -10060   -10007    -9926    -9856    -9845    -9888    -9918    -9927 
   -9956    -9999   -10002    -9921    -9790    -9703    -9729    -9802 
   -9813    -9751    -9675    -9663    -9728    -9784    -9744    -9660 
   -9666    -9774    -9913   -10033   -10056   -10014   -10002   -10000 
   -9995    -9964    -9860    -9742    -9699    -9763    -9872    -9918 
   -9896    -9848    -9774    -9729    -9782    -9853    -9828    -9772 
   -9772    -9799    -9844    -9887    -9896    -9906    -9900    -9868 
   -9868    -9937   -10035   -10062   -10045   -10087   -10137   -10149 
  -10154   -10154   -10199   -10251   -10192   -10052    -9938    -9863 
   -9798    -9769    -9832    -9944   -10039   -10079   -10022    -9918 
   -9838    -9747    -9636    -9594    -9649    -9748    -9873   -10015 
  -10080   -10000    -9873    -9837    -9856    -9842    -9836    -9880 
   -9892    -9783    -9594    -9477    -9510    -9622    -9715    -9815 
   -9938   -10037   -10103   -10143   -10130   -10049    -9927    -9823 
   -9778    -9788    -9799    -9791    -9802    -9837    -9898    -9968 
  -10003    -9973    -9852    -9694    -9637    -9695    -9787    -9890 
   -9996   -10023    -9957    -9899    -9903    -9953   -10045   -10168 
  -10254   -10224   -10110    -9975    -9828    -9720    -9667    -9652 
   -9671    -9668    -9639    -9643    -9707    -9832    -9958   -10045 
  -10092   -10089   -10057   -10019    -9944    -9863    -9819    -9783 
   -9780    -9828    -9841    -9801    -9780    -9833    -9946   -10053 
  -10100   -10107   -10073    -9992    -9931    -9940    -9976   -10021 
  -10064   -10079   -10052    -9969    -9849    -9726    -9633    -9606 
   -9617    -9640    -9720    -9836    -9914    -9902    -9795    -9683 
   -9655    -9757    -9944   -10072   -10100   -10099   -10085   -10056 
  -10039   -10029    -9972    -9884    -9821    -9791    -9803    -9836 
   -9832    -9830    -9911   -10015   -10061   -10044    -9952    -9826 
   -9736    -9693    -9699    -9733    -9749    -9738    -9726    -9771 
   -9868    -9923    -9948    -9995   -10045   -10115   -10156   -10060 
   -9898    -9782    -9703    -9657    -9690    -9775    -9844    -9882 
   -9914    -9971   -10033   -10030    -9995   -10008   -10048   -10052 
   -9980    -9879    -9838    -9805    -9736    -9678    -9598    -9505 
   -9499    -9590    -9724    -9877    -9988   -10002    -9987    -9984 
   -9941    -9892    -9890    -9911    -9979   -10118   -10247   -10270 
  -10191   -10093   -10025    -9965    -9898    -9845    -9806    -9751 
   -9732    -9764    -9794    -9833    -9883    -9892    -9855    -9822 
   -9825    -9864    -9965   -10085   -10118   -10066   -10011    -9957 
   -9884    -9811    -9757    -9732    -9718    -9725    -9756    -9788 
   -9844    -9931   -10007   -10056   -10045    -9995    -9969    -9946 
   -9929    -9964    -9980    -9906    -9807    -9765    -9790    -9801 
   -9729    -9679    -9732    -9814    -9880    -9914    -9910    -9950 
   -9994    -9934    -9833    -9761    -9729    -9771    -9846    -9853 
   -9828    -9875    -9972   -10057   -10093   -10035    -9892    -9756 
   -9703    -9709    -9748    -9868   -10000   -10035   -10006    -9945 
   -9860    -9796    -9778    -9799    -9834    -9814    -9732    -9691 
   -9757    -9861    -9919    -9933    -9952    -9996   -10041   -10088 
  -10141   -10149   -10125   -10104   -10062   -10004    -9964    -9911 
   -9840    -9765    -9672    -9570    -9528    -9567    -9621    -9630 
   -9643    -9753    -9938   -10058   -10061   -10029   -10035   -10069 
  -10107   -10156   -10154   -10076    -9991    -9921    -9848    -9779 
   -9717    -9675    -9648    -9626    -9641    -9698    -9778    -9821 
   -9760    -9710    -9806    -9979   -10096   -10122   -10131   -10153 
  -10154   -10143   -10110   -10080   -10107   -10104   -10034    -9957 
   -9876    -9810    -9803    -9841    -9882    -9883    -9859    -9829 
   -9772    -9703    -9679    -9703    -9768    -9864    -9915    -9910 
   -9946    -9998    -9957    -9841    -9748    -9756    -9832    -9875 
   -9868    -9859    -9856    -9856    -9853    -9819    -9765    -9776 
   -9844    -9863    -9865    -9900    -9930    -9944    -9941    -9921 
   -9923    -9949    -9965    -9969    -9929    -9832    -9760    -9788 
   -9880    -9934    -9936    -9919    -9882    -9867    -9922   -10008 
  -10062   -10054   -10014    -9973    -9971   -10008   -10011    -9956 
   -9925    -9950   -10000   -10010    -9938    -9833    -9759    -9726 
   -9726    -9753    -9775    -9772    -9761    -9751    -9755    -9802 
   -9852    -9826    -9730    -9670    -9691    -9747    -9822    -9922 
   -9985    -9996   -10004   -10011    -9963    -9882    -9825    -9784 
   -9791    -9857    -9899    -9918    -9961    -9994   -10023   -10044 
  -10008    -9985    -9994    -9969    -9936    -9918    -9869    -9786 
   -9749    -9817    -9898    -9917    -9933    -9965    -9940    -9859 
   -9806    -9782    -9755    -9796    -9936   -10058   -10079   -10026 
   -9950    -9909    -9922    -9952    -9981    -9994    -9979    -9980 
   -9999    -9987    -9969    -9963    -9899    -9768    -9680    -9691 
   -9745    -9802    -9869    -9950   -10025   -10023    -9936    -9849 
   -9809    -9807    -9842    -9922    -9995    -9968    -9865    -9775 
   -9724    -9713    -9703    -9705    -9761    -9825    -9871    -9907 
   -9911    -9884    -9852    -9863    -9927    -9975    -9977    -9946 
   -9863    -9759    -9694    -9691    -9776    -9886    -9934    -9958 
   -9984    -9971    -9963    -9999   -10050   -10102   -10103   -10035 
   -9949    -9850    -9759    -9733    -9801    -9914    -9967    -9946 
   -9910    -9846    -9796    -9841    -9945   -10000    -9965    -9895 
