Origin Time       2025/03/30 22:55:00
Lat.              41.993
Long.             142.725
Depth. (km)       55
Mag.              4.6
Station Code      AOMH16
Station Lat.      40.4624
Station Long.     141.0923
Station Height(m) 165
Record Time       2025/03/30 22:56:56
Sampling Freq(Hz) 100Hz
Duration Time(s)  120
Dir.              1
Scale Factor      2942(gal)/8224139
Max. Acc. (gal)   0.251
Last Correction   2025/03/30 22:56:56
Memo.             
[...]
  132028   131989   131919   131904   131927   131923   131912   131947 
  131992   131994   131989   132004   132007   132001   132012   132030 
  132027   131996   131965   131963   131959   131923   131873   131827 
  131791   131781   131822   131916   132025   132086   132071   132016 
  131959   131922   131922   131967   132027   132047   132024   131990 
  131938   131881   131884   131946   131980   131959   131943   131967 
  132005   132023   132020   132015   132013   132009   131998   131985 
  131959   131919   131877   131861   131900   131971   132017   132021 
  132023   132028   132024   132019   132003   131958   131913   131912 
  131939   131935   131889   131863   131886   131931   131970   131981 
  131967   131959   131954   131924   131890   131886   131932   132016 
  132081   132085   132039   131978   131940   131944   131976   132004 
  131982   131915   131866   131892   131965   132013   132012   131985 
  131942   131912   131935   131978   132008   132032   132024   131980 
  131947   131962   131976   131943   131916   131936   131951   131931 
  131928   131978   132023   132017   132009   132011   131974   131922 
  131919   131954   131954   131915   131899   131907   131916   131936 
  131981   132017   132008   131974   131955   131932   131904   131924 
  131989   132025   131982   131876   131801   131845   131955   132025 
  132046   132054   132047   132030   132013   132008   132015   132013 
  132012   132028   132023   131985   131971   131966   131907   131841 
  131855   131926   131965   131978   131997   131973   131907   131897 
  131932   131922   131900   131951   132025   132020   131967   131965 
  132003   132015   132012   132019   131993   131934   131909   131934 
  131951   131957   131959   131944   131931   131943   131949   131912 
  131873   131901   131965   131965   131926   131927   131947   131951 
  131978   132025   132027   131982   131958   131974   131982   131971 
  131994   132040   132017   131927   131865   131869   131916   131985 
  132021   132003   131974   131977   131990   131976   131954   131977 
  132011   132008   132008   132039   132057   132036   132005   131984 
  131936   131872   131863   131920   131959   131935   131874   131850 
  131886   131935   131958   131959   131976   132021   132021   131939 
  131885   131920   131961   131963   131980   132004   131977   131947 
  131970   131988   131961   131954   131994   132012   131986   131966 
  131958   131944   131949   131989   132042   132075   132093   132116 
  132113   132050   131954   131888   131885   131909   131920   131922 
  131926   131930   131922   131904   131892   131882   131881   131905 
  131951   131990   132027   132044   132012   131954   131927   131917 
  131917   131949   132005   132043   132023   131970   131939   131939 
  131936   131919   131917   131931   131924   131905   131901   131904 
  131915   131949   131992   132032   132067   132065   132021   131970 
  131928   131919   131949   131980   131996   131994   131970   131939 
  131935   131984   132039   132025   131970   131951   131954   131949 
  131959   131993   132013   132016   132013   131996   131954   131932 
  131965   131982   131935   131877   131857   131861   131878   131908 
  131932   131935   131940   131965   131985   131986   131981   131981 
  131989   132030   132101   132133   132085   132004   131963   131965 
  131958   131947   131973   131998   131953   131872   131847   131868 
  131888   131928   131971   131966   131926   131931   131976   131978 
  131961   132000   132055   132057   132039   132052   132043   131980 
  131931   131931   131922   131890   131882   131911   131936   131926 
  131904   131916   131955   131988   131994   131977   131981   132003 
  131990   131971   131978   131967   131923   131889   131890   131895 
  131888   131904   131969   132042   132066   132048   132025   132011 
  132003   131974   131922   131893   131908   131915   131913   131932 
  131967   131992   131981   131938   131913   131955   132009   132009 
  131982   131967   131957   131943   131931   131931   131936   131936 
  131949   131998   132055   132047   131986   131961   131976   131992 
  132005   132021   132039   132058   132044   131967   131870   131828 
  131845   131877   131911   131955   131977   131959   131943   131954 
  131974   131992   131993   131992   132012   132021   131997   131978 
  131980   131976   131970   131970   131967   131954   131928   131916 
  131947   132003   132023   131978   131909   131886   131938   132011 
  132048   132075   132094   132058   131977   131923   131909   131895 
  131877   131899   131949   131953   131901   131893   131955   132001 
  131990   131971   131967   131969   131984   132013   132027   131992 
  131942   131936   131974   131994   131970   131934   131911   131909 
  131943   132000   132019   131986   131958   131971   131982   131944 
  131885   131874   131923   131985   132025   132039   132032   132008 
  131967   131927   131903   131890   131895   131923   131953   131966 
  131969   131959   131930   131900   131889   131888   131889   131928 
  132009   132066   132050   132003   131989   132012   132024   132011 
  132015   132034   132023   131980   131922   131861   131849   131920 
  131990   131996   131994   132028   132030   131946   131855   131859 
  131911   131930   131949   132008   132048   132027   132003   132005 
  131996   131985   132017   132046   132017   131957   131922   131916 
  131907   131905   131946   132001   132015   131985   131950   131913 
  131882   131896   131940   131955   131953   131988   132023   131998 
  131969   131985   131996   131962   131944   131976   131988   131935 
  131896   131930   131977   131980   131967   131958   131949   131986 
  132054   132051   131985   131955   131982   131984   131950   131958 
  131986   131957   131903   131904   131935   131927   131889   131893 
  131961   132034   132058   132025   131976   131926   131868   131834 
  131847   131885   131934   131994   132043   132052   132020   131958 
  131916   131931   131978   132013   132016   132003   131982   131949 
  131917   131922   131949   131966   131978   132015   132052   132061 
  132059   132052   132038   132024   131992   131931   131880   131870 
  131893   131905   131900   131923   131978   132013   132005   131959 
  131909   131897   131928   131981   132031   132057   132038   131980 
  131928   131940   132000   132042   132044   132016   131966   131911 
  131874   131877   131897   131908   131916   131919   131913   131924 
  131977   132042   132051   132004   131984   132012   132015   131977 
  131958   131978   131992   131961   131927   131934   131939   131931 
  131958   132001   132023   132028   132009   131966   131936   131935 
  131924   131888   131877   131926   131981   131996   131992   132000 
  131998   131967   131938   131927   131927   131942   131969   131980 
  131966   131967   131994   132019   132027   132027   132013   131977 
  131934   131915   131928   131988   132059   132054   131976   131915 
  131896   131888   131892   131935   131998   132011   131970   131946 
  131944   131939   131930   131919   131909   131927   131977   132019 
  132023   131993   131943   131893   131863   131876   131934   131994 
  132038   132079   132082   132021   131962   131951   131958   131957 
  131977   132021   132015   131947   131901   131896   131899   131900 
  131926   131978   132023   132043   132057   132065   132036   131973 
  131931   131930   131931   131922   131920   131950   131996   132000 
  131980   131981   131980   131958   131931   131897   131872   131885 
  131932   131971   131973   131966   131996   132039   132040   131994 
  131931   131872   131846   131886   131965   131990   131950   131934 
  131963   131981   131977   131977   131974   131962   131939   131904 
  131880   131893   131940   131990   132019   132030   132044   132059 
  132047   132017   131996   131967   131919   131889   131924   132008 
  132052   132009   131944   131938   131984   132027   132039   132036 
  132001   131939   131911   131927   131934   131923   131936   131976 
  131989   131951   131911   131916   131951   131970   131974   131969 
  131946   131908   131892   131905   131897   131865   131874   131935 
  131986   131981   131946   131951   131990   132001   131980   131944 
  131916   131939   131994   132004   131985   132017   132052   132009 
  131938   131940   132001   132035   132017   131984   131939   131877 
  131857   131913   131994   132036   132035   132011   131973   131923 
  131873   131838   131838   131878   131913   131913   131926   131971 
  132017   132017   131966   131940   131977   132003   131966   131903 
  131847   131818   131815   131847   131912   131984   132025   132024 
  132008   131996   131974   131954   131961   131970   131962   131958 
  131970   131981   131982   131982   131985   131992   131997   131997 
  132009   132042   132030   131962   131942   132017   132096   132116 
  132127   132148   132115   132017   131959   131970   131953   131905 
  131936   132038   132061   131986   131950   131971   131942   131859 
  131839   131912   131978   131985   131969   131958   131955   131962 
  131961   131926   131884   131878   131896   131924   131982   132038 
  132038   132025   132069   132125   132106   132027   131996   132036 
  132028   131946   131932   132024   132109   132129   132115   132052 
  131951   131892   131911   131932   131900   131857   131870   131944 
  132017   132038   132009   131966   131965   132015   132050   132030 
  131990   131965   131935   131912   131907   131927   131967   132005 
  132036   132078   132116   132111   132046   131954   131874   131809 
  131747   131715   131741   131777   131766   131776   131873   131993 
  132048   132024   131939   131865   131897   132009   132075   132050 
  132025   132067   132105   132084   132042   132005   131959   131912 
  131904   131940   131955   131934   131934   131942   131920   131897 
  131890   131893   131916   131959   131982   131949   131861   131772 
  131751   131816   131888   131913   131938   131973   131974   131936 
  131889   131877   131919   132003   132105   132186   132212   132212 
  132205   132127   131962   131836   131796   131751   131688   131714 
  131841   131940   131970   132012   132054   131988   131820   131704 
  131703   131750   131816   131917   132001   132031   132043   132046 
  132009   131980   132047   132154   132173   132120   132090   132082 
  132054   132055   132116   132163   132138   132048   131917   131772 
  131654   131612   131681   131845   132034   132166   132182   132111 
  132034   131971   131896   131865   131927   131989   132005   132032 
  132040   131963   131877   131866   131907   131984   132113   132228 
  132236   132135   131977   131808   131670   131626   131695   131793 
  131873   131962   132028   132007   131936   131880   131811   131716 
  131695   131820   131990   132085   132139   132193   132197   132138 
  132094   132079   132042   131993   131955   131889   131792   131741 
  131793   131916   132051   132182   132285   132300   132209   132088 
  131986   131901   131868   131932   132052   132136   132131   132070 
  132004   131903   131753   131661   131699   131787   131863   131966 
  132084   132111   132038   131997   132028   132020   131896   131719 
  131600   131568   131599   131696   131835   131965   132105   132277 
  132414   132445   132378   132274   132129   131924   131712   131564 
  131518   131638   131939   132260   132363   132213   131985   131814 
  131734   131754   131847   131931   131984   132090   132260   132359 
  132317   132251   132252   132213   132077   132000   132043   132039 
  131888   131688   131588   131626   131777   131988   132106   131992 
  131745   131618   131664   131716   131733   131838   132048   132229 
  132305   132271   132119   131939   131915   132050   132138   132061 
  131939   131936   132063   132220   132312   132255   132048   131861 
  131847   131922   131916   131862   131878   131904   131819   131684 
  131689   131880   132104   132227   132219   132098   131936   131828 
  131799   131812   131853   131951   132088   132136   132040   131900 
  131841   131913   132027   132004   131831   131680   131666   131765 
  131854   131823   131707   131645   131685   131807   131992   132169 
  132229   132165   132104   132127   132125   132003   131845   131753 
  131693   131656   131753   131969   132109   132131   132165   132246 
  132285   132248   132224   132274   132331   132282   132086   131830 
  131653   131626   131672   131701   131796   132008   132152   132078 
  131935   131907   131934   131924   131967   132119   132224   132129 
  131922   131814   131857   131930   131942   131911   131866   131827 
  131824   131896   132004   132057   132000   131847   131665   131537 
  131476   131442   131454   131592   131851   132096   132229   132300 
  132375   132408   132279   132003   131774   131738   131865   132067 
  132266   132366   132327   132258   132286   132332   132225   131955 
  131645   131406   131311   131413   131700   132036   132248   132328 
  132372   132406   132420   132413   132364   132228   132003   131768 
  131634   131656   131772   131874   131943   132030   132124   132136 
  132048   131959   131935   131916   131893   131962   132115   132208 
  132185   132097   131949   131731   131517   131357   131260   131275 
  131461   131768   132081   132322   132447   132410   132258   132119 
  132047   131998   131970   132000   132042   132028   132007   132000 
  131900   131733   131687   131788   131866   131836   131784   131800 
  131881   131924   131863   131793   131870   132101   132260   132171 
  131953   131815   131830   131992   132255   132502   132621   132582 
  132402   132144   131943   131873   131882   131900   131888   131774 
  131539   131349   131413   131695   131931   131931   131803   131797 
  131953   132065   132004   131901   131935   132038   132030   131955 
  131961   132039   132142   132223   132173   131936   131674   131626 
  131827   132057   132144   132102   131992   131885   131862   131895 
  131877   131824   131846   131901   131876   131834   131912   132069 
  132151   132109   132015   131940   131927   131982   132067   132127 
  132167   132214   132243   132228   132198   132192   132193   132128 
  131963   131761   131608   131588   131743   132005   132197   132208 
  132116   132051   132003   131903   131819   131850   131882   131780 
  131629   131576   131645   131789   131977   132140   132200   132170 
  132128   132078   131994   131980   132097   132204   132169   132058 
  131935   131758   131556   131469   131542   131658   131750   131835 
  131919   131988   132034   132031   131988   131977   132043   132138 
  132214   132262   132235   132133   132039   131985   131936   131928 
  132015   132129   132142   132052   131947   131832   131730   131747 
  131888   131986   131946   131851   131809   131816   131868   131967 
  132047   132034   131966   131926   131917   131969   132111   132204 
  132109   131977   131997   132079   132078   132070   132140   132178 
  132066   131903   131831   131830   131832   131873   131989   132092 
  132100   132090   132159   132250   132268   132219   132152   132086 
  131985   131811   131603   131480   131484   131556   131677   131859 
  132038   132135   132150   132115   132048   131981   131934   131899 
  131884   131940   132058   132108   132040   131954   131882   131782 
  131723   131795   131885   131843   131741   131712   131738   131769 
  131847   131971   132047   132032   131992   131967   131931   131943 
  132096   132289   132370   132359   132317   132219   132090   132059 
  132125   132102   131959   131869   131865   131850   131803   131741 
  131653   131544   131465   131483   131600   131805   132043   132193 
  132198   132147   132124   132132   132116   132051   131940   131804 
  131733   131800   131938   132013   131996   131949   131934   131936 
  131919   131855   131797   131854   132011   132089   131989   131851 
  131865   132032   132177   132193   132131   132054   131981   131930 
  131923   131985   132071   132085   132055   132119   132239   132256 
  132187   132156   132140   132071   132025   132078   132138   132100 
  132039   132061   132086   131976   131778   131662   131676   131787 
  131946   132048   132009   131916   131892   131915   131912   131903 
  131928   131943   131909   131885   131911   131951   131997   132102 
  132289   132451   132445   132266   132046   131876   131761   131691 
  131664   131696   131780   131843   131842   131830   131868   131922 
  131909   131811   131726   131772   131923   132011   131946   131851 
  131845   131870   131870   131893   131942   131939   131888   131908 
  132038   132147   132123   132024   131971   131961   131909   131814 
  131777   131846   131947   132027   132120   132224   132267   132221 
  132142   132081   132035   132008   132015   132021   131989   131931 
  131886   131896   131982   132073   132044   131888   131727   131689 
  131796   131966   132100   132150   132123   132032   131913   131836 
  131855   131922   131954   131938   131913   131908   131917   131931 
  131943   131955   131954   131955   132032   132148   132144   131986 
  131818   131733   131681   131610   131585   131720   131993   132231 
  132312   132268   132182   132070   131939   131863   131899   131990 
  132055   132090   132136   132177   132159   132113   132113   132156 
  132190   132162   132078   131984   131890   131792   131718   131699 
  131738   131811   131876   131927   131992   132024   131965   131859 
  131816   131886   131993   132039   132048   132043   131947   131805 
  131820   132012   132185   132240   132235   132169   132020   131873 
  131781   131695   131619   131649   131760   131814   131814   131873 
  131955   131967   131973   132034   132069   132061   132117   132193 
  132143   132007   131903   131831   131749   131692   131696   131758 
  131882   132035   132119   132104   132063   132023   131936   131834 
  131827   131924   132021   132063   132075   132035   131940   131909 
  132005   132105   132101   132051   132031   132048   132065   132061 
  132054   132025   131973   131949   131988   132035   131997   131870 
  131762   131735   131714   131676   131730   131888   131990   131978 
  131980   132005   131926   131804   131823   131940   131961   131885 
  131862   131878   131827   131769   131820   131917   131955   132001 
  132128   132236   132225   132170   132152   132136   132090   132048 
  132021   132013   132017   131988   131905   131838   131861   131949 
  132019   132089   132165   132147   132039   131996   132059   132100 
  132063   132042   132073   132069   131992   131873   131745   131660 
  131669   131739   131782   131795   131836   131912   131963   131949 
  131868   131766   131738   131812   131863   131824   131822   131936 
  132059   132077   132017   131996   132062   132163   132252   132300 
  132258   132150   132082   132078   132067   132055   132104   132190 
  132208   132093   131904   131772   131772   131853   131912   131903 
