Origin Time       2025/03/30 22:55:00
Lat.              41.993
Long.             142.725
Depth. (km)       55
Mag.              4.6
Station Code      AOMH13
Station Lat.      40.5794
Station Long.     141.4451
Station Height(m) 10
Record Time       2025/03/30 22:56:49
Sampling Freq(Hz) 100Hz
Duration Time(s)  120
Dir.              4
Scale Factor      7845(gal)/8223790
Max. Acc. (gal)   0.990
Last Correction   2025/03/30 22:56:49
Memo.             
[...]
   -2438    -2511    -2582    -2616    -2604    -2575    -2552    -2535 
   -2524    -2520    -2521    -2515    -2489    -2435    -2353    -2281 
   -2258    -2281    -2346    -2431    -2504    -2556    -2567    -2521 
   -2458    -2420    -2407    -2416    -2463    -2531    -2573    -2590 
   -2598    -2585    -2542    -2496    -2473    -2463    -2442    -2417 
   -2416    -2427    -2436    -2462    -2501    -2532    -2544    -2535 
   -2521    -2513    -2496    -2465    -2436    -2408    -2373    -2336 
   -2319    -2339    -2398    -2473    -2524    -2542    -2525    -2473 
   -2409    -2369    -2357    -2371    -2419    -2484    -2529    -2543 
   -2533    -2516    -2490    -2465    -2439    -2409    -2385    -2374 
   -2386    -2417    -2448    -2481    -2515    -2529    -2520    -2517 
   -2527    -2512    -2457    -2407    -2400    -2408    -2403    -2413 
   -2470    -2550    -2596    -2608    -2608    -2571    -2488    -2408 
   -2376    -2369    -2366    -2396    -2467    -2538    -2571    -2566 
   -2519    -2443    -2359    -2297    -2286    -2335    -2430    -2539 
   -2631    -2681    -2664    -2589    -2488    -2384    -2308    -2299 
   -2346    -2425    -2527    -2605    -2623    -2587    -2524    -2451 
   -2377    -2338    -2357    -2417    -2490    -2547    -2577    -2573 
   -2516    -2419    -2336    -2295    -2277    -2290    -2347    -2428 
   -2508    -2579    -2631    -2624    -2554    -2473    -2421    -2390 
   -2385    -2424    -2497    -2570    -2617    -2627    -2592    -2517 
   -2423    -2346    -2305    -2293    -2311    -2362    -2419    -2455 
   -2479    -2505    -2520    -2525    -2538    -2552    -2551    -2529 
   -2494    -2450    -2417    -2401    -2385    -2390    -2439    -2482 
   -2488    -2471    -2459    -2452    -2442    -2444    -2469    -2496 
   -2512    -2521    -2502    -2439    -2362    -2330    -2344    -2385 
   -2451    -2538    -2609    -2639    -2633    -2605    -2546    -2461 
   -2388    -2344    -2317    -2312    -2334    -2382    -2435    -2469 
   -2486    -2490    -2469    -2444    -2444    -2474    -2517    -2562 
   -2610    -2651    -2666    -2655    -2612    -2556    -2508    -2455 
   -2404    -2369    -2353    -2354    -2367    -2382    -2394    -2394 
   -2403    -2436    -2469    -2485    -2498    -2515    -2519    -2488 
   -2420    -2362    -2346    -2362    -2405    -2475    -2542    -2562 
   -2524    -2458    -2388    -2334    -2335    -2397    -2486    -2562 
   -2600    -2606    -2592    -2542    -2479    -2455    -2465    -2477 
   -2504    -2558    -2596    -2579    -2528    -2462    -2398    -2343 
   -2300    -2281    -2295    -2324    -2369    -2430    -2488    -2517 
   -2523    -2525    -2532    -2531    -2524    -2512    -2489    -2462 
   -2434    -2405    -2389    -2397    -2432    -2471    -2500    -2521 
   -2525    -2497    -2447    -2401    -2389    -2413    -2452    -2484 
   -2504    -2513    -2498    -2454    -2413    -2393    -2388    -2416 
   -2493    -2578    -2632    -2655    -2655    -2624    -2550    -2466 
   -2417    -2396    -2384    -2393    -2413    -2416    -2393    -2362 
   -2340    -2328    -2330    -2347    -2381    -2431    -2490    -2540 
   -2569    -2579    -2574    -2538    -2485    -2465    -2462    -2440 
   -2417    -2411    -2415    -2432    -2467    -2511    -2540    -2543 
   -2531    -2515    -2496    -2475    -2474    -2485    -2489    -2493 
   -2502    -2509    -2501    -2470    -2417    -2362    -2327    -2328 
   -2374    -2436    -2473    -2496    -2516    -2527    -2525    -2512 
   -2494    -2492    -2496    -2494    -2494    -2506    -2521    -2539 
   -2550    -2532    -2490    -2452    -2421    -2392    -2388    -2407 
   -2423    -2435    -2452    -2473    -2471    -2448    -2424    -2400 
   -2371    -2365    -2398    -2459    -2524    -2566    -2555    -2493 
   -2428    -2389    -2363    -2358    -2392    -2450    -2523    -2600 
   -2635    -2598    -2513    -2423    -2346    -2290    -2274    -2305 
   -2373    -2461    -2555    -2621    -2625    -2571    -2492    -2423 
   -2381    -2374    -2405    -2471    -2543    -2581    -2578    -2554 
   -2515    -2467    -2442    -2454    -2482    -2486    -2474    -2473 
   -2488    -2516    -2548    -2563    -2556    -2525    -2465    -2404 
   -2366    -2349    -2361    -2404    -2452    -2485    -2494    -2479 
   -2447    -2417    -2411    -2431    -2471    -2521    -2559    -2575 
   -2573    -2565    -2548    -2513    -2462    -2419    -2403    -2413 
   -2432    -2451    -2482    -2506    -2488    -2435    -2380    -2346 
   -2331    -2326    -2349    -2394    -2428    -2440    -2447    -2450 
   -2452    -2463    -2482    -2494    -2501    -2512    -2524    -2532 
   -2539    -2544    -2542    -2527    -2490    -2438    -2392    -2369 
   -2376    -2398    -2423    -2462    -2519    -2571    -2587    -2552 
   -2485    -2411    -2344    -2312    -2335    -2408    -2501    -2587 
   -2646    -2647    -2585    -2492    -2389    -2299    -2250    -2257 
   -2327    -2435    -2528    -2583    -2604    -2593    -2548    -2484 
   -2436    -2421    -2419    -2434    -2481    -2517    -2506    -2469 
   -2427    -2380    -2353    -2381    -2442    -2492    -2538    -2583 
   -2590    -2531    -2440    -2380    -2369    -2388    -2434    -2502 
   -2552    -2552    -2513    -2467    -2434    -2419    -2427    -2462 
   -2504    -2524    -2511    -2485    -2454    -2421    -2415    -2443 
   -2478    -2505    -2516    -2500    -2470    -2455    -2454    -2461 
   -2474    -2475    -2454    -2417    -2378    -2351    -2361    -2404 
   -2443    -2462    -2473    -2481    -2478    -2448    -2411    -2405 
   -2423    -2440    -2470    -2512    -2543    -2559    -2558    -2547 
   -2532    -2512    -2478    -2427    -2389    -2390    -2420    -2462 
   -2489    -2500    -2516    -2528    -2520    -2498    -2477    -2463 
   -2467    -2496    -2531    -2558    -2577    -2570    -2529    -2475 
   -2420    -2370    -2346    -2359    -2405    -2470    -2515    -2523 
   -2508    -2478    -2439    -2419    -2425    -2444    -2461    -2469 
   -2459    -2424    -2371    -2320    -2296    -2312    -2349    -2393 
   -2452    -2511    -2552    -2587    -2619    -2644    -2658    -2660 
   -2636    -2562    -2451    -2343    -2263    -2232    -2269    -2355 
   -2443    -2490    -2498    -2484    -2454    -2423    -2409    -2428 
   -2479    -2535    -2566    -2579    -2589    -2592    -2581    -2550 
   -2497    -2431    -2374    -2342    -2330    -2342    -2382    -2442 
   -2489    -2496    -2465    -2431    -2427    -2448    -2471    -2496 
   -2536    -2566    -2559    -2542    -2532    -2520    -2511    -2517 
   -2532    -2540    -2524    -2493    -2444    -2378    -2323    -2320 
   -2376    -2452    -2509    -2542    -2544    -2508    -2448    -2404 
   -2389    -2400    -2427    -2469    -2508    -2527    -2525    -2504 
   -2465    -2417    -2389    -2397    -2427    -2443    -2455    -2474 
   -2473    -2452    -2443    -2450    -2450    -2432    -2415    -2424 
   -2447    -2452    -2451    -2457    -2461    -2463    -2488    -2524 
   -2539    -2538    -2539    -2529    -2501    -2471    -2466    -2477 
   -2473    -2458    -2455    -2444    -2420    -2393    -2361    -2346 
   -2371    -2421    -2466    -2505    -2548    -2581    -2574    -2533 
   -2502    -2496    -2481    -2442    -2407    -2390    -2384    -2398 
   -2442    -2494    -2528    -2529    -2513    -2492    -2465    -2436 
   -2421    -2421    -2424    -2424    -2431    -2463    -2505    -2515 
   -2494    -2467    -2435    -2398    -2385    -2404    -2424    -2423 
   -2424    -2447    -2477    -2492    -2493    -2486    -2471    -2457 
   -2448    -2458    -2494    -2547    -2594    -2625    -2619    -2547 
   -2443    -2354    -2293    -2266    -2292    -2369    -2462    -2547 
   -2621    -2674    -2681    -2644    -2598    -2563    -2525    -2470 
   -2413    -2363    -2326    -2324    -2361    -2411    -2470    -2523 
   -2539    -2511    -2436    -2349    -2292    -2282    -2327    -2408 
   -2492    -2556    -2571    -2535    -2479    -2432    -2408    -2398 
   -2404    -2434    -2467    -2488    -2492    -2471    -2434    -2415 
   -2446    -2512    -2570    -2597    -2589    -2548    -2506    -2469 
   -2438    -2427    -2423    -2405    -2384    -2374    -2390    -2438 
   -2497    -2551    -2578    -2566    -2519    -2447    -2374    -2335 
   -2357    -2443    -2551    -2635    -2685    -2678    -2592    -2467 
   -2359    -2300    -2304    -2361    -2444    -2517    -2554    -2542 
   -2481    -2405    -2362    -2355    -2382    -2438    -2501    -2554 
   -2581    -2589    -2582    -2554    -2515    -2475    -2430    -2381 
   -2344    -2334    -2353    -2385    -2419    -2452    -2481    -2500 
   -2512    -2527    -2533    -2523    -2513    -2497    -2451    -2405 
   -2381    -2374    -2384    -2409    -2447    -2505    -2565    -2602 
   -2613    -2587    -2516    -2439    -2392    -2362    -2355    -2382 
   -2411    -2407    -2400    -2401    -2393    -2380    -2377    -2390 
   -2431    -2496    -2574    -2628    -2640    -2633    -2606    -2550 
   -2493    -2462    -2442    -2409    -2358    -2290    -2212    -2146 
   -2131    -2180    -2280    -2405    -2519    -2592    -2624    -2632 
   -2617    -2596    -2602    -2633    -2660    -2678    -2689    -2685 
   -2670    -2643    -2616    -2587    -2547    -2494    -2434    -2367 
   -2326    -2327    -2367    -2436    -2521    -2593    -2606    -2547 
   -2466    -2403    -2355    -2330    -2361    -2447    -2529    -2566 
   -2577    -2573    -2528    -2457    -2401    -2370    -2354    -2344 
   -2327    -2296    -2261    -2230    -2209    -2205    -2220    -2249 
   -2288    -2327    -2335    -2308    -2268    -2230    -2209    -2226 
   -2297    -2420    -2542    -2623    -2662    -2641    -2552    -2455 
   -2417    -2438    -2505    -2644    -2820    -2948    -3003    -2997 
   -2920    -2770    -2597    -2478    -2448    -2486    -2575    -2687 
   -2754    -2736    -2654    -2529    -2389    -2265    -2189    -2188 
   -2249    -2351    -2474    -2587    -2654    -2656    -2597    -2501 
   -2405    -2332    -2285    -2269    -2299    -2353    -2357    -2272 
   -2124    -1988    -1918    -1919    -1999    -2143    -2300    -2427 
   -2504    -2536    -2551    -2560    -2565    -2579    -2623    -2689 
   -2771    -2849    -2890    -2870    -2798    -2695    -2573    -2455 
   -2373    -2338    -2350    -2412    -2516    -2635    -2739    -2820 
   -2864    -2851    -2793    -2705    -2602    -2513    -2442    -2380 
   -2338    -2323    -2326    -2326    -2311    -2281    -2243    -2212 
   -2201    -2197    -2188    -2168    -2146    -2158    -2219    -2322 
   -2461    -2597    -2671    -2670    -2598    -2471    -2334    -2232 
   -2188    -2193    -2243    -2334    -2434    -2502    -2543    -2575 
   -2597    -2600    -2604    -2644    -2722    -2818    -2895    -2924 
   -2906    -2859    -2791    -2718    -2632    -2521    -2396    -2289 
   -2234    -2241    -2265    -2272    -2242    -2187    -2141    -2137 
   -2177    -2249    -2332    -2417    -2477    -2477    -2425    -2361 
   -2299    -2249    -2235    -2266    -2328    -2405    -2489    -2569 
   -2633    -2683    -2731    -2787    -2840    -2855    -2832    -2791 
   -2732    -2651    -2548    -2413    -2255    -2101    -1977    -1919 
   -1958    -2085    -2253    -2428    -2589    -2721    -2835    -2913 
   -2922    -2891    -2844    -2763    -2656    -2567    -2511    -2458 
   -2351    -2176    -1977    -1813    -1728    -1746    -1884    -2123 
   -2398    -2660    -2891    -3046    -3076    -3029    -2997    -3009 
   -3033    -3045    -3001    -2856    -2625    -2358    -2122    -1989 
   -1966    -2000    -2065    -2164    -2282    -2400    -2488    -2544 
   -2586    -2602    -2577    -2517    -2435    -2331    -2228    -2157 
   -2110    -2065    -2027    -2012    -2022    -2053    -2115    -2207 
   -2308    -2401    -2498    -2606    -2712    -2795    -2828    -2805 
   -2752    -2678    -2604    -2554    -2516    -2481    -2457    -2451 
   -2470    -2511    -2571    -2663    -2786    -2903    -2978    -2997 
   -2959    -2866    -2743    -2605    -2457    -2317    -2216    -2153 
   -2106    -2052    -1998    -1981    -2020    -2133    -2315    -2502 
   -2606    -2604    -2543    -2478    -2442    -2470    -2558    -2646 
   -2682    -2636    -2504    -2326    -2149    -2008    -1925    -1900 
   -1944    -2061    -2238    -2448    -2633    -2751    -2794    -2764 
   -2674    -2582    -2528    -2511    -2529    -2593    -2705    -2835 
   -2913    -2916    -2847    -2701    -2504    -2332    -2241    -2227 
   -2262    -2324    -2362    -2330    -2236    -2128    -2045    -2003 
   -2014    -2108    -2290    -2523    -2768    -2999    -3177    -3280 
   -3306    -3256    -3160    -3065    -2987    -2901    -2802    -2683 
   -2519    -2315    -2104    -1900    -1725    -1640    -1721    -1962 
   -2272    -2567    -2799    -2930    -2938    -2843    -2689    -2504 
   -2305    -2134    -2037    -2026    -2072    -2123    -2127    -2093 
   -2072    -2088    -2141    -2215    -2322    -2467    -2628    -2778 
   -2882    -2893    -2812    -2701    -2625    -2579    -2550    -2543 
   -2520    -2415    -2232    -2025    -1840    -1714    -1696    -1821 
   -2092    -2475    -2893    -3225    -3365    -3254    -2918    -2477 
   -2072    -1804    -1746    -1935    -2320    -2782    -3183    -3437 
   -3503    -3370    -3092    -2789    -2535    -2354    -2261    -2255 
   -2316    -2397    -2444    -2412    -2293    -2116    -1950    -1880 
   -1942    -2116    -2355    -2597    -2766    -2824    -2775    -2668 
   -2581    -2560    -2597    -2666    -2724    -2705    -2601    -2448 
   -2262    -2045    -1865    -1807    -1876    -2029    -2254    -2539 
   -2820    -3011    -3073    -2987    -2729    -2358    -2037    -1885 
   -1921    -2107    -2388    -2637    -2725    -2636    -2471    -2315 
   -2203    -2192    -2315    -2521    -2743    -2936    -3053    -3064 
   -2987    -2849    -2666    -2465    -2296    -2223    -2247    -2301 
   -2332    -2324    -2261    -2146    -2026    -1972    -2006    -2089 
   -2193    -2311    -2417    -2494    -2544    -2571    -2579    -2575 
   -2589    -2646    -2701    -2704    -2664    -2593    -2484    -2369 
   -2285    -2251    -2277    -2370    -2535    -2755    -2991    -3175 
   -3213    -3090    -2882    -2671    -2535    -2509    -2567    -2659 
   -2728    -2713    -2602    -2424    -2207    -1976    -1807    -1767 
   -1857    -2062    -2363    -2670    -2866    -2911    -2833    -2660 
   -2446    -2282    -2241    -2317    -2492    -2722    -2917    -2974 
   -2863    -2643    -2386    -2138    -1969    -1969    -2135    -2378 
   -2612    -2789    -2856    -2786    -2609    -2380    -2149    -1987 
   -1941    -2023    -2185    -2347    -2479    -2574    -2597    -2551 
   -2496    -2461    -2425    -2374    -2311    -2261    -2250    -2274 
   -2305    -2320    -2301    -2241    -2151    -2065    -2015    -2050 
   -2193    -2419    -2675    -2910    -3071    -3114    -3029    -2859 
   -2667    -2501    -2411    -2423    -2508    -2605    -2667    -2658 
   -2578    -2455    -2350    -2304    -2290    -2280    -2292    -2344 
   -2436    -2554    -2660    -2731    -2743    -2686    -2582    -2448 
   -2282    -2099    -1948    -1876    -1885    -1949    -2042    -2143 
   -2235    -2311    -2384    -2461    -2543    -2631    -2714    -2783 
   -2857    -2928    -2945    -2907    -2841    -2752    -2633    -2505 
   -2420    -2407    -2452    -2550    -2689    -2839    -2979    -3092 
   -3137    -3061    -2882    -2668    -2474    -2328    -2263    -2288 
   -2363    -2440    -2470    -2419    -2270    -2041    -1795    -1640 
   -1649    -1798    -2022    -2281    -2520    -2681    -2731    -2682 
   -2596    -2536    -2525    -2554    -2600    -2640    -2673    -2691 
   -2679    -2647    -2614    -2596    -2578    -2544    -2512    -2502 
   -2490    -2469    -2473    -2489    -2466    -2392    -2288    -2178 
   -2088    -2056    -2100    -2176    -2245    -2305    -2353    -2373 
   -2366    -2347    -2339    -2346    -2378    -2431    -2485    -2517 
   -2516    -2520    -2567    -2613    -2608    -2565    -2481    -2365 
   -2262    -2226    -2270    -2357    -2455    -2562    -2648    -2682 
   -2647    -2551    -2435    -2319    -2224    -2181    -2192    -2222 
   -2250    -2278    -2312    -2347    -2404    -2506    -2640    -2760 
   -2845    -2897    -2902    -2843    -2729    -2577    -2393    -2224 
   -2149    -2200    -2355    -2569    -2795    -2986    -3084    -3053 
   -2897    -2656    -2417    -2288    -2304    -2436    -2643    -2843 
   -2914    -2798    -2531    -2195    -1888    -1714    -1729    -1926 
   -2263    -2660    -3022    -3268    -3348    -3252    -3015    -2714 
   -2435    -2228    -2110    -2093    -2177    -2307    -2420    -2488 
   -2493    -2428    -2308    -2176    -2064    -1985    -1954    -1980 
   -2072    -2212    -2354    -2462    -2517    -2527    -2533    -2578 
   -2673    -2806    -2930    -2982    -2917    -2747    -2519    -2299 
   -2161    -2139    -2205    -2336    -2489    -2590    -2571    -2407 
   -2141    -1876    -1694    -1671    -1838    -2135    -2459    -2743 
   -2926    -2982    -2932    -2829    -2731    -2670    -2666    -2716 
   -2763    -2744    -2635    -2454    -2243    -2050    -1938    -1950 
   -2065    -2232    -2417    -2594    -2744    -2852    -2884    -2816 
   -2658    -2447    -2236    -2099    -2092    -2207    -2403    -2651 
   -2870    -2959    -2899    -2731    -2475    -2182    -1941    -1827 
   -1864    -2027    -2266    -2504    -2683    -2778    -2787    -2741 
   -2658    -2528    -2412    -2380    -2401    -2428    -2461    -2478 
   -2459    -2428    -2419    -2425    -2423    -2415    -2415    -2434 
   -2496    -2621    -2791    -2959    -3080    -3138    -3122    -3028 
   -2880    -2735    -2635    -2567    -2485    -2389    -2299    -2232 
   -2207    -2234    -2295    -2362    -2425    -2488    -2529    -2538 
   -2529    -2515    -2501    -2506    -2524    -2544    -2543    -2496 
   -2413    -2326    -2253    -2193    -2115    -2015    -1948    -1934 
   -1975    -2081    -2251    -2463    -2679    -2874    -3009    -3019 
   -2903    -2729    -2543    -2381    -2295    -2300    -2355    -2407 
   -2434    -2403    -2276    -2096    -1938    -1854    -1884    -2015 
   -2187    -2351    -2486    -2601    -2686    -2718    -2724    -2731 
   -2729    -2702    -2671    -2647    -2619    -2587    -2574    -2594 
   -2617    -2604    -2552    -2489    -2409    -2317    -2254    -2215 
   -2146    -2052    -1985    -1987    -2062    -2207    -2417    -2678 
   -2928    -3095    -3140    -3049    -2845    -2600    -2398    -2273 
   -2236    -2312    -2450    -2551    -2562    -2477    -2320    -2128 
   -1926    -1750    -1674    -1736    -1930    -2222    -2548    -2821 
   -2982    -3025    -2972    -2847    -2691    -2554    -2463    -2446 
   -2498    -2590    -2681    -2741    -2758    -2727    -2643    -2527 
   -2430    -2388    -2404    -2463    -2536    -2597    -2624    -2608 
   -2546    -2461    -2390    -2359    -2376    -2444    -2555    -2691 
   -2794    -2801    -2722    -2598    -2459    -2367    -2381    -2488 
