Origin Time       2025/03/30 22:55:00
Lat.              41.993
Long.             142.725
Depth. (km)       55
Mag.              4.6
Station Code      AOMH17
Station Lat.      40.4492
Station Long.     141.3374
Station Height(m) 65
Record Time       2025/03/30 22:56:53
Sampling Freq(Hz) 100Hz
Duration Time(s)  120
Dir.              4
Scale Factor      7845(gal)/8223790
Max. Acc. (gal)   1.575
Last Correction   2025/03/30 22:56:53
Memo.             
[...]
  -22032   -22127   -22241   -22327   -22365   -22373   -22391   -22439 
  -22507   -22569   -22586   -22504   -22302   -22059   -21898   -21872 
  -21964   -22131   -22304   -22399   -22389   -22335   -22308   -22354 
  -22474   -22611   -22677   -22615   -22430   -22179   -21960   -21848 
  -21867   -22019   -22234   -22383   -22427   -22450   -22484   -22499 
  -22489   -22469   -22414   -22300   -22164   -22069   -22023   -21996 
  -21979   -21994   -22090   -22265   -22437   -22555   -22634   -22628 
  -22508   -22347   -22242   -22202   -22187   -22191   -22223   -22246 
  -22238   -22246   -22302   -22372   -22385   -22300   -22172   -22122 
  -22191   -22293   -22364   -22415   -22414   -22314   -22210   -22231 
  -22354   -22457   -22466   -22376   -22225   -22080   -22033   -22144 
  -22353   -22503   -22489   -22380   -22281   -22215   -22188   -22218 
  -22252   -22216   -22146   -22123   -22157   -22223   -22335   -22472 
  -22558   -22538   -22419   -22254   -22134   -22122   -22175   -22206 
  -22204   -22226   -22300   -22389   -22443   -22449   -22430   -22389 
  -22302   -22180   -22113   -22131   -22177   -22218   -22276   -22337 
  -22360   -22357   -22385   -22434   -22437   -22403   -22361   -22268 
  -22126   -22042   -22072   -22165   -22264   -22361   -22449   -22473 
  -22420   -22358   -22334   -22322   -22288   -22249   -22215   -22153 
  -22073   -22065   -22157   -22299   -22465   -22611   -22634   -22520 
  -22369   -22234   -22134   -22123   -22207   -22296   -22314   -22264 
  -22183   -22117   -22118   -22183   -22277   -22387   -22464   -22443 
  -22339   -22239   -22179   -22145   -22194   -22366   -22512   -22482 
  -22360   -22304   -22289   -22225   -22165   -22184   -22231   -22275 
  -22338   -22380   -22338   -22253   -22194   -22156   -22138   -22162 
  -22246   -22380   -22481   -22458   -22354   -22265   -22221   -22238 
  -22338   -22432   -22411   -22299   -22212   -22196   -22214   -22241 
  -22295   -22356   -22362   -22311   -22253   -22202   -22142   -22115 
  -22185   -22326   -22400   -22353   -22276   -22256   -22279   -22300 
  -22311   -22311   -22289   -22260   -22262   -22299   -22334   -22354 
  -22368   -22385   -22431   -22499   -22499   -22372   -22202   -22057 
  -21933   -21899   -22022   -22216   -22365   -22450   -22482   -22446 
  -22362   -22302   -22264   -22219   -22200   -22222   -22253   -22287 
  -22330   -22374   -22422   -22480   -22527   -22522   -22445   -22310 
  -22148   -22007   -21949   -21975   -22048   -22164   -22303   -22400 
  -22450   -22492   -22512   -22499   -22480   -22430   -22308   -22158 
  -22068   -22080   -22162   -22237   -22253   -22252   -22299   -22401 
  -22470   -22442   -22362   -22289   -22221   -22158   -22165   -22260 
  -22362   -22404   -22387   -22315   -22199   -22104   -22107   -22207 
  -22334   -22418   -22450   -22445   -22403   -22329   -22237   -22157 
  -22131   -22162   -22207   -22249   -22281   -22293   -22293   -22289 
  -22293   -22322   -22365   -22391   -22380   -22341   -22295   -22261 
  -22250   -22254   -22257   -22245   -22222   -22202   -22181   -22149 
  -22117   -22130   -22195   -22281   -22370   -22432   -22442   -22445 
  -22481   -22486   -22405   -22306   -22253   -22221   -22180   -22158 
  -22187   -22239   -22276   -22300   -22327   -22351   -22357   -22351 
  -22357   -22365   -22342   -22277   -22203   -22154   -22173   -22277 
  -22395   -22450   -22441   -22378   -22264   -22142   -22110   -22181 
  -22262   -22281   -22268   -22257   -22242   -22256   -22360   -22501 
  -22539   -22458   -22362   -22281   -22185   -22098   -22064   -22110 
  -22245   -22414   -22519   -22530   -22484   -22374   -22196   -22056 
  -22048   -22110   -22150   -22184   -22257   -22354   -22400   -22357 
  -22279   -22252   -22295   -22374   -22461   -22508   -22470   -22373 
  -22292   -22248   -22212   -22188   -22173   -22146   -22110   -22069 
  -22027   -22038   -22145   -22297   -22422   -22491   -22484   -22424 
  -22392   -22412   -22455   -22482   -22449   -22350   -22238   -22142 
  -22077   -22059   -22090   -22172   -22284   -22400   -22492   -22504 
  -22431   -22366   -22346   -22318   -22270   -22242   -22226   -22184 
  -22122   -22083   -22076   -22096   -22154   -22241   -22327   -22416 
  -22511   -22577   -22585   -22550   -22485   -22401   -22323   -22250 
  -22154   -22045   -21972   -21973   -22054   -22171   -22241   -22249 
  -22288   -22410   -22511   -22507   -22484   -22501   -22492   -22407 
  -22296   -22207   -22142   -22115   -22115   -22103   -22081   -22108 
  -22198   -22312   -22432   -22543   -22596   -22557   -22453   -22323 
  -22198   -22104   -22065   -22080   -22127   -22189   -22250   -22293 
  -22326   -22368   -22427   -22488   -22522   -22505   -22445   -22373 
  -22308   -22214   -22072   -21960   -21945   -21999   -22090   -22221 
  -22362   -22438   -22408   -22339   -22319   -22341   -22357   -22380 
  -22430   -22461   -22430   -22364   -22311   -22265   -22210   -22169 
  -22172   -22204   -22227   -22262   -22347   -22405   -22343   -22229 
  -22184   -22219   -22268   -22310   -22362   -22405   -22392   -22327 
  -22265   -22230   -22219   -22231   -22264   -22287   -22285   -22266 
  -22257   -22268   -22297   -22349   -22395   -22396   -22356   -22292 
  -22222   -22173   -22168   -22192   -22230   -22275   -22324   -22358 
  -22335   -22292   -22311   -22381   -22419   -22418   -22400   -22331 
  -22216   -22134   -22102   -22095   -22134   -22229   -22346   -22472 
  -22569   -22582   -22528   -22457   -22354   -22207   -22061   -21990 
  -22030   -22140   -22202   -22157   -22095   -22117   -22226   -22378 
  -22497   -22508   -22450   -22410   -22365   -22270   -22204   -22242 
  -22334   -22403   -22420   -22385   -22310   -22223   -22177   -22189 
  -22195   -22134   -22046   -22042   -22157   -22302   -22400   -22464 
  -22501   -22482   -22426   -22383   -22354   -22315   -22270   -22241 
  -22207   -22146   -22095   -22117   -22233   -22381   -22472   -22470 
  -22427   -22410   -22422   -22423   -22368   -22256   -22133   -22041 
  -22026   -22096   -22184   -22208   -22203   -22242   -22304   -22327 
  -22329   -22360   -22396   -22405   -22422   -22465   -22508   -22511 
  -22459   -22361   -22234   -22100   -22025   -22072   -22204   -22302 
  -22331   -22357   -22350   -22257   -22183   -22229   -22299   -22280 
  -22230   -22223   -22221   -22200   -22210   -22262   -22316   -22362 
  -22415   -22458   -22453   -22396   -22342   -22333   -22331   -22281 
  -22199   -22129   -22091   -22111   -22204   -22318   -22389   -22423 
  -22438   -22387   -22252   -22156   -22180   -22242   -22264   -22277 
  -22289   -22248   -22173   -22140   -22194   -22319   -22446   -22501 
  -22496   -22482   -22457   -22405   -22357   -22314   -22253   -22180 
  -22095   -22007   -21968   -22022   -22161   -22339   -22492   -22562 
  -22532   -22446   -22368   -22331   -22311   -22261   -22198   -22165 
  -22141   -22113   -22131   -22204   -22262   -22291   -22323   -22354 
  -22374   -22407   -22441   -22443   -22423   -22387   -22287   -22113 
  -21987   -22029   -22195   -22356   -22435   -22442   -22405   -22346 
  -22258   -22183   -22199   -22304   -22378   -22351   -22266   -22198 
  -22171   -22171   -22196   -22276   -22404   -22505   -22511   -22450 
  -22388   -22320   -22253   -22249   -22302   -22316   -22277   -22238 
  -22196   -22156   -22150   -22172   -22187   -22222   -22303   -22380 
  -22414   -22419   -22403   -22368   -22320   -22256   -22177   -22148 
  -22202   -22281   -22304   -22288   -22292   -22320   -22342   -22365 
  -22391   -22376   -22297   -22202   -22148   -22140   -22168   -22230 
  -22326   -22419   -22455   -22449   -22422   -22329   -22198   -22148 
  -22199   -22273   -22296   -22272   -22258   -22281   -22293   -22281 
  -22297   -22360   -22405   -22358   -22264   -22229   -22243   -22237 
  -22222   -22242   -22284   -22302   -22283   -22253   -22227   -22218 
  -22266   -22353   -22410   -22443   -22464   -22437   -22368   -22287 
  -22173   -22046   -22009   -22104   -22272   -22412   -22453   -22391 
  -22295   -22223   -22196   -22238   -22354   -22473   -22486   -22370 
  -22207   -22107   -22137   -22287   -22473   -22565   -22496   -22315 
  -22119   -21995   -21978   -22044   -22156   -22285   -22381   -22401 
  -22373   -22370   -22404   -22424   -22397   -22339   -22273   -22188 
  -22106   -22084   -22141   -22234   -22315   -22365   -22412   -22466 
  -22489   -22481   -22473   -22435   -22306   -22111   -21975   -21969 
  -22056   -22160   -22261   -22357   -22416   -22416   -22387   -22372 
  -22387   -22405   -22410   -22374   -22276   -22145   -22087   -22135 
  -22207   -22241   -22252   -22258   -22258   -22273   -22322   -22376 
  -22389   -22357   -22331   -22366   -22459   -22549   -22558   -22461 
  -22296   -22117   -21975   -21929   -21982   -22069   -22140   -22207 
  -22292   -22361   -22378   -22405   -22495   -22573   -22554   -22459 
  -22342   -22221   -22134   -22118   -22158   -22235   -22322   -22385 
  -22396   -22351   -22281   -22218   -22183   -22200   -22250   -22277 
  -22276   -22280   -22289   -22312   -22346   -22351   -22337   -22361 
  -22408   -22395   -22323   -22258   -22187   -22083   -22042   -22129 
  -22272   -22377   -22420   -22430   -22430   -22387   -22297   -22233 
  -22207   -22168   -22129   -22123   -22125   -22115   -22129   -22192 
  -22296   -22422   -22540   -22599   -22565   -22457   -22330   -22245 
  -22214   -22195   -22203   -22280   -22378   -22400   -22353   -22320 
  -22312   -22262   -22176   -22123   -22115   -22131   -22175   -22230 
  -22242   -22212   -22239   -22360   -22478   -22499   -22424   -22311 
  -22208   -22160   -22192   -22269   -22320   -22334   -22329   -22315 
  -22308   -22320   -22322   -22273   -22199   -22150   -22127   -22121 
  -22179   -22327   -22484   -22562   -22547   -22470   -22350   -22218 
  -22137   -22149   -22219   -22288   -22314   -22289   -22250   -22243 
  -22268   -22293   -22312   -22316   -22316   -22351   -22430   -22484 
  -22464   -22412   -22369   -22329   -22287   -22252   -22219   -22204 
  -22227   -22265   -22260   -22219   -22181   -22145   -22131   -22175 
  -22253   -22346   -22453   -22509   -22445   -22310   -22221   -22199 
  -22199   -22229   -22307   -22397   -22443   -22447   -22450   -22466 
  -22485   -22513   -22522   -22438   -22248   -22038   -21901   -21864 
  -21925   -22059   -22200   -22296   -22361   -22422   -22455   -22427 
  -22370   -22339   -22314   -22237   -22129   -22054   -22044   -22094 
  -22194   -22314   -22388   -22389   -22387   -22432   -22476   -22453 
  -22388   -22322   -22242   -22148   -22081   -22075   -22127   -22225 
  -22351   -22457   -22472   -22401   -22300   -22192   -22087   -22050 
  -22129   -22283   -22430   -22505   -22485   -22383   -22248   -22125 
  -22053   -22077   -22175   -22264   -22312   -22345   -22378   -22397 
  -22388   -22387   -22412   -22422   -22373   -22288   -22215   -22183 
  -22192   -22230   -22270   -22284   -22265   -22254   -22312   -22434 
  -22509   -22447   -22283   -22110   -21988   -21941   -21992   -22131 
  -22291   -22416   -22512   -22566   -22535   -22434   -22357   -22342 
  -22337   -22302   -22266   -22260   -22252   -22237   -22277   -22380 
  -22461   -22478   -22459   -22393   -22258   -22107   -22007   -21978 
  -21992   -22040   -22099   -22126   -22115   -22131   -22238   -22405 
  -22559   -22673   -22727   -22702   -22615   -22507   -22442   -22450 
  -22503   -22572   -22654   -22697   -22611   -22393   -22158   -21969 
  -21801   -21647   -21563   -21617   -21836   -22158   -22485   -22723 
  -22800   -22720   -22562   -22403   -22264   -22118   -21972   -21917 
  -22021   -22203   -22327   -22376   -22405   -22420   -22412   -22400 
  -22380   -22314   -22183   -22021   -21892   -21859   -21936   -22046 
  -22122   -22173   -22181   -22131   -22118   -22212   -22349   -22431 
  -22439   -22396   -22322   -22258   -22285   -22430   -22613   -22762 
  -22867   -22898   -22782   -22515   -22215   -22011   -21910   -21861 
  -21871   -21960   -22111   -22291   -22442   -22505   -22476   -22395 
  -22337   -22319   -22275   -22171   -22079   -22090   -22183   -22291 
  -22385   -22410   -22307   -22153   -22083   -22095   -22129   -22180 
  -22223   -22214   -22172   -22137   -22129   -22208   -22391   -22565 
  -22623   -22567   -22430   -22246   -22107   -22077   -22094   -22081 
  -22126   -22302   -22509   -22655   -22771   -22879   -22914   -22800 
  -22566   -22307   -22045   -21799   -21698   -21833   -22095   -22295 
  -22377   -22434   -22546   -22693   -22806   -22817   -22705   -22512 
  -22296   -22087   -21918   -21820   -21847   -22045   -22319   -22501 
  -22546   -22509   -22441   -22388   -22387   -22399   -22334   -22130 
  -21798   -21477   -21340   -21413   -21609   -21911   -22307   -22662 
  -22847   -22842   -22720   -22608   -22613   -22705   -22747   -22659 
  -22501   -22373   -22296   -22211   -22108   -22019   -21941   -21883 
  -21882   -21921   -21928   -21924   -22006   -22188   -22396   -22609 
  -22813   -22891   -22773   -22550   -22333   -22152   -22037   -22017 
  -22079   -22199   -22341   -22485   -22665   -22889   -23089   -23182 
  -23106   -22797   -22241   -21574   -21019   -20729   -20729   -20956 
  -21309   -21722   -22188   -22702   -23195   -23579   -23791   -23777 
  -23510   -23031   -22439   -21855   -21361   -20987   -20761   -20740 
  -20938   -21346   -21945   -22624   -23228   -23683   -23939   -23889 
  -23512   -22941   -22337   -21825   -21525   -21466   -21546   -21664 
  -21782   -21887   -22017   -22219   -22501   -22859   -23261   -23554 
  -23544   -23201   -22678   -22162   -21783   -21547   -21377   -21257 
  -21282   -21516   -21878   -22249   -22563   -22756   -22817   -22860 
  -22977   -23106   -23133   -22989   -22659   -22183   -21636   -21163 
  -20895   -20873   -21077   -21442   -21875   -22285   -22632   -22936 
  -23211   -23395   -23367   -23085   -22686   -22365   -22145   -21924 
  -21674   -21514   -21563   -21805   -22125   -22432   -22689   -22858 
  -22900   -22781   -22488   -22067   -21658   -21443   -21500   -21732 
  -21987   -22215   -22435   -22627   -22744   -22788   -22761   -22665 
  -22550   -22478   -22438   -22338   -22152   -21971   -21894   -21926 
  -21987   -22005   -22009   -22083   -22238   -22445   -22736   -23076 
  -23292   -23251   -22975   -22555   -22108   -21810   -21766   -21872 
  -21925   -21853   -21752   -21739   -21864   -22117   -22414   -22640 
  -22766   -22843   -22878   -22837   -22731   -22611   -22496   -22354 
  -22156   -21930   -21741   -21654   -21698   -21833   -21992   -22162 
  -22330   -22424   -22420   -22403   -22432   -22473   -22489   -22474 
  -22411   -22289   -22123   -21953   -21841   -21841   -21983   -22245 
  -22524   -22720   -22786   -22729   -22611   -22524   -22536   -22613 
  -22623   -22443   -22095   -21735   -21551   -21668   -22029   -22397 
  -22581   -22582   -22469   -22256   -21972   -21749   -21717   -21882 
  -22114   -22276   -22353   -22454   -22680   -22962   -23159   -23201 
  -23074   -22804   -22481   -22195   -21960   -21789   -21725   -21798 
  -21940   -22019   -21972   -21892   -21915   -22072   -22337   -22648 
  -22860   -22827   -22600   -22362   -22169   -21973   -21833   -21813 
  -21882   -22011   -22204   -22414   -22594   -22750   -22862   -22885 
  -22789   -22593   -22370   -22229   -22226   -22306   -22376   -22427 
  -22477   -22481   -22395   -22208   -21906   -21570   -21389   -21466 
  -21703   -21964   -22194   -22370   -22503   -22617   -22702   -22732 
  -22688   -22543   -22353   -22246   -22262   -22300   -22227   -22037 
  -21855   -21793   -21857   -21992   -22137   -22261   -22388   -22528 
  -22626   -22654   -22639   -22585   -22480   -22331   -22145   -21942 
  -21778   -21735   -21868   -22133   -22426   -22707   -22997   -23291 
  -23457   -23363   -23028   -22581   -22149   -21811   -21620   -21574 
  -21586   -21556   -21516   -21535   -21597   -21679   -21818   -22060 
  -22380   -22682   -22901   -23031   -23060   -22968   -22785   -22593 
  -22426   -22221   -21960   -21739   -21636   -21648   -21756   -21959 
  -22238   -22551   -22806   -22905   -22832   -22666   -22505   -22389 
  -22288   -22219   -22270   -22434   -22566   -22566   -22495   -22489 
  -22561   -22605   -22581   -22516   -22393   -22199   -21995   -21816 
  -21627   -21455   -21428   -21609   -21876   -22084   -22231   -22384 
  -22545   -22671   -22766   -22871   -22999   -23086   -23055   -22918 
  -22735   -22519   -22264   -22013   -21814   -21637   -21435   -21277 
  -21281   -21477   -21824   -22264   -22690   -22952   -22958   -22767 
  -22535   -22320   -22110   -21926   -21833   -21876   -22027   -22210 
  -22396   -22619   -22847   -22964   -22891   -22675   -22437   -22233 
  -22049   -21878   -21743   -21667   -21643   -21664   -21751   -21938 
  -22226   -22557   -22816   -22910   -22870   -22824   -22823   -22816 
  -22763   -22675   -22528   -22254   -21884   -21583   -21471   -21543 
  -21766   -22075   -22353   -22559   -22728   -22836   -22869   -22885 
  -22885   -22782   -22545   -22214   -21901   -21710   -21682   -21778 
  -21933   -22107   -22258   -22318   -22289   -22262   -22318   -22481 
  -22666   -22725   -22603   -22346   -22054   -21865   -21863   -21990 
  -22131   -22218   -22212   -22146   -22111   -22196   -22414   -22658 
  -22756   -22594   -22237   -21856   -21620   -21618   -21868   -22289 
  -22724   -23020   -23120   -23056   -22883   -22665   -22441   -22211 
  -22015   -21915   -21903   -21942   -22057   -22252   -22459   -22607 
  -22653   -22585   -22403   -22154   -21934   -21817   -21776   -21751 
  -21741   -21836   -22052   -22277   -22423   -22492   -22499   -22451 
  -22420   -22457   -22524   -22563   -22570   -22536   -22424   -22258 
  -22118   -22041   -22022   -22027   -22006   -21945   -21922   -22018 
  -22223   -22431   -22540   -22566   -22594   -22646   -22657   -22601 
  -22550   -22567   -22630   -22638   -22520   -22288   -22032   -21856 
  -21833   -21987   -22264   -22546   -22732   -22782   -22666   -22383 
  -22026   -21749   -21668   -21793   -22018   -22242   -22434   -22558 
  -22567   -22488   -22393   -22287   -22137   -22013   -21999   -22077 
  -22168   -22250   -22383   -22566   -22701   -22721   -22648   -22500 
  -22249   -21945   -21745   -21743   -21879   -22054   -22243   -22466 
  -22697   -22866   -22918   -22866   -22773   -22688   -22580   -22383 
  -22100   -21799   -21533   -21374   -21402   -21573   -21743   -21883 
  -22050   -22249   -22451   -22654   -22798   -22808   -22702   -22582 
  -22512   -22453   -22349   -22231   -22168   -22177   -22210   -22218 
  -22222   -22256   -22310   -22380   -22481   -22594   -22646   -22570 
  -22408   -22235   -22081   -21968   -21928   -21934   -21938   -21925 
  -21929   -21994   -22126   -22326   -22581   -22805   -22910   -22908 
  -22854   -22774   -22675   -22536   -22297   -21988   -21759   -21726 
  -21861   -22064   -22243   -22346   -22361   -22322   -22241   -22156 
  -22156   -22238   -22285   -22284   -22303   -22364   -22443   -22496 
  -22484   -22403   -22293   -22229   -22258   -22353   -22461   -22555 
  -22573   -22462   -22284   -22152   -22110   -22115   -22125   -22137 
