Origin Time       2025/03/30 22:55:00
Lat.              41.993
Long.             142.725
Depth. (km)       55
Mag.              4.6
Station Code      AOMH06
Station Lat.      40.9664
Station Long.     141.3738
Station Height(m) 5
Record Time       2025/03/30 22:56:41
Sampling Freq(Hz) 100Hz
Duration Time(s)  120
Dir.              6
Scale Factor      7845(gal)/8223790
Max. Acc. (gal)   0.758
Last Correction   2025/03/30 22:56:41
Memo.             
[...]
    4233     4399     4552     4644     4745     4753     4599     4463 
    4480     4557     4583     4625     4684     4631     4544     4579 
    4673     4735     4752     4688     4567     4495     4526     4575 
    4572     4599     4741     4877     4816     4579     4387     4340 
    4386     4527     4715     4735     4577     4552     4710     4726 
    4573     4544     4646     4745     4810     4739     4525     4387 
    4453     4617     4693     4657     4623     4608     4580     4583 
    4611     4631     4708     4824     4796     4596     4414     4367 
    4422     4531     4646     4707     4688     4660     4745     4872 
    4789     4483     4249     4259     4410     4568     4730     4893 
    4932     4815     4680     4596     4540     4499     4500     4587 
    4708     4726     4662     4656     4654     4519     4322     4282 
    4502     4796     4881     4746     4650     4698     4725     4617 
    4499     4472     4456     4429     4511     4692     4824     4815 
    4673     4534     4465     4403     4428     4637     4868     4881 
    4649     4426     4457     4592     4629     4658     4743     4761 
    4698     4642     4573     4534     4631     4687     4494     4320 
    4465     4757     4908     4822     4560     4329     4325     4553 
    4804     4846     4722     4629     4587     4564     4615     4688 
    4644     4504     4450     4572     4712     4730     4684     4588 
    4426     4330     4432     4634     4753     4800     4834     4760 
    4610     4564     4579     4545     4564     4642     4606     4509 
    4544     4656     4658     4583     4560     4554     4496     4509 
    4642     4746     4752     4718     4687     4685     4675     4573 
    4428     4351     4406     4607     4862     4965     4808     4556 
    4467     4571     4698     4760     4696     4480     4322     4434 
    4656     4779     4826     4779     4556     4284     4221     4471 
    4845     4984     4799     4587     4530     4564     4615     4591 
    4500     4523     4672     4756     4671     4550     4577     4626 
    4523     4469     4629     4768     4725     4683     4741     4730 
    4612     4514     4452     4411     4472     4652     4799     4750 
    4557     4430     4449     4538     4666     4772     4745     4646 
    4603     4584     4556     4546     4564     4638     4783     4864 
    4768     4625     4519     4367     4241     4345     4626     4822 
    4833     4810     4811     4714     4548     4423     4329     4363 
    4584     4784     4878     4953     4924     4715     4483     4421 
    4487     4488     4419     4422     4507     4569     4600     4675 
    4768     4734     4569     4502     4591     4658     4672     4695 
    4700     4680     4656     4545     4355     4367     4642     4804 
    4727     4668     4668     4579     4465     4510     4654     4710 
    4679     4594     4471     4480     4679     4881     4931     4779 
    4527     4395     4444     4577     4664     4610     4529     4580 
    4712     4815     4846     4754     4556     4382     4328     4368 
    4450     4600     4776     4795     4718     4747     4787     4693 
    4537     4410     4387     4457     4564     4691     4746     4652 
    4531     4523     4610     4731     4804     4742     4625     4612 
    4657     4602     4506     4495     4537     4610     4703     4688 
    4553     4457     4460     4534     4664     4758     4719     4592 
    4519     4519     4534     4594     4661     4672     4735     4855 
    4827     4629     4468     4421     4421     4461     4540     4611 
    4676     4768     4880     4919     4796     4569     4372     4325 
    4464     4652     4710     4657     4634     4672     4630     4506 
    4496     4594     4619     4591     4611     4664     4711     4679 
    4541     4469     4554     4644     4631     4577     4608     4726 
    4797     4822     4799     4591     4286     4193     4390     4669 
    4807     4758     4634     4550     4565     4657     4668     4537 
    4488     4668     4833     4722     4514     4494     4563     4591 
    4688     4760     4611     4430     4432     4465     4460     4623 
    4943     5047     4820     4608     4596     4598     4526     4488 
    4472     4438     4506     4673     4726     4610     4521     4554 
    4638     4734     4792     4716     4544     4430     4471     4617 
    4743     4734     4595     4514     4573     4648     4669     4657 
    4596     4533     4549     4648     4726     4676     4583     4607 
    4706     4739     4677     4553     4426     4430     4594     4704 
    4618     4510     4550     4600     4567     4568     4615     4658 
    4708     4665     4527     4519     4676     4822     4872     4757 
    4517     4351     4360     4531     4784     4885     4742     4538 
    4456     4504     4584     4656     4745     4796     4731     4561 
    4432     4479     4579     4580     4584     4641     4638     4615 
    4715     4822     4698     4438     4348     4406     4453     4595 
    4796     4804     4665     4567     4564     4666     4769     4747 
    4625     4521     4490     4484     4530     4650     4743     4801 
    4833     4735     4581     4476     4353     4295     4436     4633 
    4737     4793     4807     4641     4360     4299     4513     4693 
    4719     4696     4664     4660     4737     4783     4676     4494 
    4422     4518     4666     4770     4827     4792     4634     4480 
    4438     4457     4455     4494     4684     4901     4878     4626 
    4453     4510     4596     4588     4592     4672     4752     4716 
    4540     4364     4387     4595     4772     4839     4841     4738 
    4544     4363     4320     4471     4673     4752     4723     4668 
    4649     4683     4676     4603     4544     4500     4476     4526 
    4641     4733     4668     4514     4563     4764     4776     4635 
    4596     4625     4565     4445     4403     4467     4595     4766 
    4860     4792     4658     4563     4541     4544     4515     4548 
    4675     4746     4710     4650     4590     4498     4444     4552 
    4729     4745     4631     4548     4500     4469     4482     4536 
    4598     4654     4758     4857     4777     4595     4556     4633 
    4673     4649     4534     4418     4490     4720     4865     4785 
    4631     4569     4527     4490     4572     4692     4669     4540 
    4487     4548     4563     4511     4533     4584     4592     4631 
    4668     4638     4683     4807     4733     4491     4460     4675 
    4788     4668     4564     4611     4600     4475     4476     4580 
    4568     4546     4665     4772     4770     4710     4611     4521 
    4482     4527     4687     4851     4861     4734     4560     4368 
    4291     4433     4625     4727     4792     4761     4580     4422 
    4429     4534     4618     4693     4769     4716     4592     4610 
    4708     4712     4626     4509     4450     4526     4657     4704 
    4638     4583     4607     4588     4526     4590     4752     4818 
    4729     4594     4523     4495     4506     4591     4629     4584 
    4635     4779     4857     4842     4698     4429     4228     4256 
    4465     4692     4780     4700     4560     4469     4482     4611 
    4831     4986     4897     4652     4482     4449     4523     4631 
    4644     4540     4471     4552     4672     4621     4436     4368 
    4509     4720     4854     4837     4687     4531     4509     4617 
    4679     4594     4526     4557     4573     4594     4687     4780 
    4754     4635     4565     4542     4488     4476     4549     4619 
    4637     4671     4772     4816     4719     4637     4622     4541 
    4468     4522     4654     4757     4707     4550     4482     4513 
    4556     4585     4567     4603     4769     4823     4658     4546 
    4584     4580     4522     4587     4742     4754     4630     4608 
    4696     4698     4579     4464     4433     4475     4523     4571 
    4668     4743     4669     4488     4405     4540     4769     4858 
    4727     4541     4517     4584     4537     4507     4691     4862 
    4765     4544     4428     4441     4544     4688     4738     4646 
    4545     4538     4626     4753     4822     4749     4557     4417 
    4446     4577     4693     4752     4741     4639     4477     4386 
    4459     4629     4769     4820     4780     4672     4521     4430 
    4504     4615     4598     4533     4502     4518     4649     4826 
    4873     4806     4720     4608     4471     4395     4499     4725 
    4807     4672     4519     4436     4406     4476     4648     4807 
    4785     4569     4401     4476     4718     4887     4837     4658 
    4518     4465     4518     4622     4599     4486     4502     4577 
    4569     4612     4720     4695     4533     4463     4542     4595 
    4626     4766     4891     4823     4679     4633     4637     4590 
    4545     4576     4614     4565     4502     4509     4573     4689 
    4770     4691     4515     4403     4442     4598     4706     4673 
    4573     4511     4550     4660     4723     4764     4822     4774 
    4590     4409     4336     4402     4584     4787     4889     4801 
    4587     4453     4453     4480     4573     4752     4801     4658 
    4556     4518     4429     4467     4691     4826     4824     4800 
    4729     4625     4529     4436     4402     4459     4560     4641 
    4622     4510     4502     4679     4807     4733     4634     4638 
    4629     4519     4467     4590     4739     4814     4862     4833 
    4675     4498     4409     4403     4430     4494     4587     4622 
    4611     4646     4684     4688     4689     4622     4475     4417 
    4530     4726     4885     4870     4666     4519     4558     4594 
    4538     4545     4660     4718     4603     4440     4452     4617 
    4707     4675     4585     4492     4531     4680     4696     4603 
    4635     4764     4776     4638     4529     4536     4604     4689 
    4706     4611     4596     4722     4747     4576     4359     4245 
    4313     4536     4745     4741     4552     4437     4533     4725 
    4854     4843     4689     4511     4467     4523     4576     4637 
    4706     4758     4780     4653     4396     4326     4526     4683 
    4681     4671     4658     4619     4644     4698     4684     4648 
    4654     4625     4511     4463     4533     4565     4541     4553 
    4563     4568     4650     4735     4706     4615     4573     4584 
    4603     4635     4680     4660     4554     4517     4639     4784 
    4815     4743     4626     4526     4503     4579     4695     4683 
    4536     4456     4518     4649     4777     4757     4577     4498 
    4596     4642     4545     4480     4584     4781     4872     4792 
    4664     4545     4392     4302     4469     4808     4942     4727 
    4461     4391     4417     4475     4646     4796     4710     4515 
    4486     4619     4739     4764     4676     4488     4378     4479 
    4648     4706     4698     4746     4785     4692     4553     4498 
    4499     4523     4585     4677     4752     4769     4745     4673 
    4521     4384     4419     4588     4681     4645     4607     4592 
    4564     4654     4885     4976     4770     4504     4417     4432 
    4453     4579     4808     4920     4788     4594     4545     4579 
    4580     4564     4496     4325     4272     4561     4895     4878 
    4631     4411     4305     4388     4646     4905     4966     4787 
    4611     4571     4465     4298     4325     4494     4617     4773 
    4938     4843     4556     4459     4577     4610     4534     4549 
    4610     4529     4426     4579     4850     4837     4644     4707 
    4950     4996     4843     4687     4490     4191     4023     4234 
    4681     5013     5039     4806     4517     4422     4540     4611 
    4552     4515     4513     4437     4320     4341     4581     4857 
    4962     4897     4788     4780     4861     4820     4576     4303 
    4234     4436     4685     4698     4499     4286     4156     4229 
    4537     4834     4961     5030     5039     4874     4642     4550 
    4634     4719     4669     4548     4418     4272     4276     4544 
    4830     4920     4838     4630     4411     4342     4384     4406 
    4472     4699     4926     4955     4912     4935     4920     4766 
    4523     4374     4415     4533     4675     4839     4841     4625 
    4415     4320     4305     4368     4483     4614     4627     4421 
    4199     4174     4337     4610     4800     4803     4746     4729 
    4764     4842     4877     4768     4541     4379     4442     4634 
    4710     4585     4387     4310     4441     4648     4785     4834 
    4757     4587     4525     4635     4780     4827     4741     4602 
    4506     4518     4707     4920     4907     4772     4688     4584 
    4488     4513     4606     4685     4673     4523     4387     4425 
    4557     4633     4576     4438     4378     4503     4710     4756 
    4637     4610     4685     4631     4477     4450     4618     4864 
    5004     4924     4612     4233     4113     4357     4758     5032 
    4935     4581     4387     4455     4642     4915     5159     5205 
    5013     4569     4027     3828     4124     4529     4685     4683 
    4772     4901     4855     4598     4286     4090     4071     4270 
    4650     4889     4742     4473     4469     4769     5167     5408 
    5265     4729     4153     3963     4189     4583     5000     5289 
    5202     4693     4140     4009     4267     4518     4584     4542 
    4546     4688     4797     4689     4472     4368     4442     4572 
    4607     4567     4607     4781     4992     5125     5078     4735 
    4191     3866     4032     4479     4919     5219     5286     5154 
    4916     4629     4428     4324     4170     4012     4005     4180 
    4507     4830     4931     4815     4641     4504     4465     4509 
    4576     4714     4880     4837     4590     4490     4607     4730 
    4874     5051     5019     4672     4220     4014     4275     4822 
    5247     5290     4978     4531     4141     3900     3931     4256 
    4683     5019     5115     4874     4526     4421     4571     4747 
    4791     4730     4688     4666     4592     4502     4492     4537 
    4506     4392     4348     4441     4652     4970     5216     5130 
    4761     4390     4210     4232     4293     4279     4271     4425 
    4827     5232     5205     4766     4326     4085     4008     4116 
    4406     4679     4768     4793     4943     5185     5329     5244 
    4939     4531     4206     4145     4376     4662     4729     4585 
    4384     4248     4359     4665     4743     4473     4315     4545 
    4861     4959     4878     4722     4549     4437     4452     4623 
    4834     4853     4668     4513     4480     4455     4440     4506 
    4576     4619     4708     4707     4507     4387     4504     4614 
    4607     4639     4754     4831     4816     4762     4666     4479 
    4307     4341     4545     4739     4874     4907     4715     4407 
    4276     4369     4529     4681     4761     4664     4513     4592 
    4877     5055     4999     4816     4598     4406     4291     4260 
    4295     4394     4564     4714     4696     4553     4479     4596 
    4835     4988     4962     4812     4558     4302     4267     4468 
    4685     4788     4806     4797     4770     4719     4695     4687 
    4596     4467     4392     4365     4436     4614     4720     4685 
    4627     4603     4575     4556     4573     4580     4529     4471 
    4488     4576     4679     4745     4756     4747     4729     4687 
    4685     4753     4761     4630     4510     4545     4681     4746 
    4576     4229     4013     4095     4338     4627     4939     5136 
    5028     4680     4414     4459     4695     4851     4810     4650 
    4533     4504     4499     4522     4614     4723     4752     4700 
    4625     4537     4469     4483     4553     4619     4626     4525 
    4405     4452     4635     4758     4787     4815     4872     4900 
    4872     4803     4688     4595     4630     4702     4627     4419 
    4241     4216     4352     4529     4603     4622     4722     4826 
    4801     4700     4626     4577     4533     4550     4618     4615 
    4556     4564     4681     4762     4614     4313     4149     4267 
    4545     4750     4823     4914     5019     4949     4685     4407 
    4283     4359     4526     4648     4689     4685     4656     4580 
    4480     4502     4708     4936     5024     4946     4739     4471 
    4232     4106     4174     4455     4806     5004     5009     4923 
    4800     4642     4446     4260     4239     4450     4730     4899 
    4909     4791     4622     4459     4311     4306     4565     4891 
    4924     4629     4303     4212     4367     4623     4834     4889 
    4757     4572     4509     4583     4695     4766     4715     4495 
    4274     4261     4461     4745     4959     4961     4747     4490 
    4418     4537     4625     4638     4677     4692     4627     4546 
    4491     4440     4450     4591     4735     4768     4780     4862 
    4899     4733     4450     4313     4403     4571     4679     4745 
    4780     4685     4490     4419     4606     4904     5013     4851 
    4622     4405     4153     4025     4153     4415     4637     4743 
    4783     4841     4854     4703     4513     4498     4653     4835 
    4947     4959     4866     4695     4477     4303     4305     4442 
    4534     4554     4623     4737     4789     4756     4685     4588 
    4491     4463     4498     4527     4545     4530     4445     4394 
    4492     4696     4877     4904     4723     4504     4488     4679 
    4931     5115     5076     4796     4513     4457     4621     4808 
    4834     4677     4456     4286     4241     4367     4549     4642 
    4645     4563     4361     4176     4216     4464     4746     4953 
    5027     4893     4584     4347     4305     4286     4283     4471 
    4745     4878     4896     4877     4780     4618     4533     4595 
    4691     4696     4660     4607     4463     4328     4384     4565 
    4688     4699     4703     4796     4884     4845     4735     4627 
    4561     4588     4661     4666     4561     4423     4379     4463 
    4610     4758     4855     4838     4673     4402     4182     4166 
    4315     4469     4533     4553     4615     4706     4742     4703 
    4641     4668     4849     5093     5244     5155     4826     4509 
    4383     4329     4286     4387     4595     4687     4625     4546 
    4496     4476     4554     4707     4769     4680     4538     4448 
    4441     4504     4633     4752     4746     4698     4712     4679 
    4572     4517     4533     4568     4591     4639     4698     4611 
    4425     4415     4607     4804     4930     4953     4799     4557 
    4433     4441     4471     4509     4577     4654     4711     4731 
    4729     4756     4791     4741     4581     4361     4240     4365 
    4603     4734     4769     4766     4673     4546     4525     4606 
    4676     4650     4553     4479     4494     4585     4631     4545 
