Origin Time       2025/03/30 22:55:00
Lat.              41.993
Long.             142.725
Depth. (km)       55
Mag.              4.6
Station Code      AOMH16
Station Lat.      40.4624
Station Long.     141.0923
Station Height(m) 315
Record Time       2025/03/30 22:56:56
Sampling Freq(Hz) 100Hz
Duration Time(s)  120
Dir.              6
Scale Factor      7845(gal)/8223790
Max. Acc. (gal)   0.896
Last Correction   2025/03/30 22:56:56
Memo.             
[...]
    5737     5644     5580     5566     5572     5601     5675     5751 
    5737     5610     5470     5432     5508     5640     5738     5741 
    5634     5435     5260     5308     5584     5875     5984     5921 
    5823     5780     5733     5614     5487     5456     5533     5660 
    5780     5852     5848     5771     5657     5574     5566     5586 
    5562     5525     5551     5648     5759     5814     5794     5744 
    5726     5748     5771     5757     5664     5503     5398     5467 
    5687     5902     5953     5834     5656     5495     5395     5391 
    5479     5587     5661     5698     5730     5783     5811     5768 
    5686     5614     5553     5508     5536     5690     5871     5927 
    5863     5790     5733     5648     5560     5545     5591     5643 
    5701     5778     5832     5827     5784     5730     5667     5616 
    5625     5660     5609     5493     5459     5543     5651     5738 
    5788     5737     5590     5483     5513     5587     5563     5471 
    5482     5643     5806     5869     5875     5888     5915     5902 
    5795     5601     5381     5240     5305     5601     5946     6069 
    5906     5645     5487     5464     5505     5551     5602     5645 
    5655     5674     5775     5903     5906     5778     5680     5697 
    5701     5574     5412     5364     5429     5535     5644     5738 
    5788     5776     5721     5684     5684     5675     5665     5728 
    5809     5786     5660     5560     5579     5691     5773     5732 
    5583     5463     5501     5703     5906     5946     5873     5827 
    5798     5674     5501     5435     5472     5478     5452     5518 
    5664     5745     5719     5671     5657     5660     5645     5620 
    5611     5632     5672     5718     5728     5674     5625     5664 
    5740     5753     5694     5629     5618     5686     5805     5891 
    5867     5755     5659     5613     5567     5528     5559     5643 
    5709     5765     5845     5881     5775     5559     5386     5368 
    5503     5705     5869     5925     5859     5730     5599     5486 
    5441     5487     5541     5544     5572     5691     5798     5786 
    5718     5702     5718     5679     5586     5559     5640     5691 
    5624     5559     5611     5734     5813     5807     5764     5721 
    5676     5633     5628     5664     5676     5622     5579     5630 
    5746     5821     5794     5699     5584     5505     5517     5613 
    5688     5663     5597     5589     5640     5703     5748     5744 
    5690     5647     5640     5632     5625     5660     5737     5796 
    5771     5679     5611     5590     5578     5571     5555     5503 
    5491     5590     5751     5886     5929     5861     5768     5709 
    5657     5589     5506     5458     5514     5690     5908     6039 
    5956     5690     5447     5385     5501     5684     5784     5748 
    5675     5640     5602     5547     5557     5648     5730     5744 
    5701     5626     5540     5455     5443     5572     5763     5877 
    5894     5841     5730     5599     5518     5530     5613     5663 
    5605     5516     5525     5647     5783     5860     5884     5900 
    5937     5968     5904     5732     5563     5495     5532     5637 
    5738     5769     5701     5552     5402     5343     5406     5553 
    5726     5861     5877     5725     5501     5425     5566     5744 
    5772     5655     5541     5536     5616     5729     5809     5784 
    5670     5568     5583     5695     5778     5749     5668     5643 
    5686     5719     5710     5699     5692     5640     5568     5576 
    5680     5799     5854     5811     5721     5652     5607     5575 
    5552     5508     5427     5381     5456     5653     5842     5871 
    5756     5640     5607     5649     5705     5713     5699     5715 
    5782     5861     5842     5672     5448     5324     5374     5536 
    5714     5853     5902     5823     5688     5606     5620     5717 
    5833     5877     5830     5772     5757     5744     5661     5537 
    5481     5532     5644     5753     5783     5680     5505     5382 
    5405     5560     5729     5813     5818     5780     5736     5701 
    5651     5582     5537     5516     5502     5532     5598     5668 
    5763     5873     5921     5846     5680     5528     5493     5587 
    5733     5846     5859     5755     5602     5503     5506     5568 
    5614     5614     5603     5626     5691     5760     5764     5699 
    5632     5576     5516     5483     5521     5599     5653     5678 
    5717     5792     5853     5836     5730     5587     5501     5547 
    5717     5930     6058     5985     5717     5409     5281     5381 
    5540     5634     5695     5742     5768     5794     5861     5931 
    5848     5601     5433     5474     5591     5682     5742     5733 
    5637     5545     5563     5655     5711     5692     5636     5572 
    5524     5557     5734     5940     5968     5805     5640     5572 
    5552     5513     5452     5422     5472     5591     5706     5757 
    5768     5796     5856     5892     5857     5778     5710     5671 
    5616     5517     5402     5333     5402     5636     5895     6012 
    5954     5794     5628     5528     5495     5474     5459     5536 
    5744     5933     5907     5697     5520     5493     5552     5616 
    5656     5664     5667     5751     5950     6102     5985     5645 
    5368     5362     5563     5745     5760     5665     5595     5606 
    5672     5686     5580     5479     5514     5663     5836     5941 
    5914     5776     5613     5502     5485     5528     5575     5624 
    5672     5664     5606     5574     5603     5657     5707     5767 
    5827     5813     5709     5641     5667     5675     5611     5583 
    5668     5771     5755     5632     5522     5502     5560     5671 
    5782     5803     5705     5559     5471     5478     5536     5575 
    5599     5691     5849     5935     5871     5726     5598     5526 
    5517     5613     5817     5985     5942     5736     5567     5510 
    5502     5529     5626     5751     5806     5782     5784     5834 
    5818     5719     5649     5636     5620     5591     5570     5547 
    5512     5478     5462     5448     5427     5429     5505     5652 
    5818     5949     5977     5877     5729     5644     5611     5556 
    5528     5647     5852     5935     5834     5683     5626     5668 
    5736     5799     5860     5852     5714     5517     5383     5340 
    5352     5413     5556     5763     5910     5890     5752     5656 
    5675     5706     5628     5491     5445     5530     5643     5698 
    5709     5707     5687     5643     5591     5580     5628     5690 
    5761     5884     5999     5961     5763     5572     5522     5593 
    5679     5718     5715     5691     5636     5553     5483     5436 
    5410     5472     5651     5834     5900     5861     5805     5763 
    5741     5742     5724     5632     5490     5386     5383     5456 
    5563     5748     5999     6107     5968     5753     5610     5517 
    5440     5408     5466     5613     5791     5933     5962     5844 
    5649     5505     5475     5540     5625     5667     5645     5582 
    5555     5645     5794     5844     5784     5740     5729     5634 
    5463     5390     5487     5647     5783     5899     5975     5930 
    5784     5672     5597     5458     5313     5313     5470     5659 
    5787     5856     5853     5751     5625     5617     5707     5729 
    5620     5516     5559     5701     5798     5809     5753     5630 
    5505     5490     5570     5640     5676     5724     5756     5718 
    5657     5671     5748     5786     5724     5599     5462     5373 
    5444     5706     6000     6096     5927     5687     5589     5614 
    5640     5624     5566     5493     5517     5698     5863     5791 
    5524     5312     5331     5535     5740     5817     5772     5679 
    5664     5772     5860     5800     5668     5605     5657     5745 
    5744     5616     5449     5395     5529     5761     5911     5898 
    5819     5818     5864     5800     5580     5309     5132     5178 
    5470     5859     6119     6129     5958     5734     5499     5320 
    5343     5590     5863     5964     5890     5752     5620     5518 
    5482     5537     5632     5651     5583     5582     5732     5887 
    5884     5764     5645     5545     5467     5472     5557     5637 
    5670     5695     5755     5813     5798     5705     5587     5526 
    5549     5613     5671     5680     5640     5626     5664     5701 
    5719     5715     5661     5568     5487     5460     5518     5651 
    5768     5814     5836     5869     5868     5795     5682     5582 
    5557     5614     5670     5679     5668     5633     5587     5579 
    5622     5675     5690     5674     5709     5825     5923     5871 
    5665     5472     5412     5468     5609     5778     5881     5869 
    5803     5815     5911     5879     5620     5337     5236     5309 
    5468     5663     5833     5868     5741     5618     5597     5557 
    5444     5417     5605     5871     5996     5949     5829     5683 
    5517     5391     5410     5580     5799     5967     6026     5949 
    5798     5670     5599     5574     5574     5579     5574     5566 
    5578     5605     5653     5756     5834     5753     5557     5425 
    5416     5451     5497     5567     5657     5729     5763     5791 
    5844     5877     5825     5692     5574     5551     5594     5616 
    5620     5687     5817     5925     5953     5902     5792     5648 
    5514     5478     5583     5740     5792     5713     5603     5539 
    5506     5467     5443     5493     5620     5746     5817     5802 
    5694     5533     5386     5336     5443     5638     5791     5815 
    5730     5614     5526     5478     5491     5578     5703     5860 
    6031     6115     5989     5702     5455     5390     5491     5671 
    5827     5881     5842     5806     5814     5803     5740     5659 
    5591     5528     5439     5354     5359     5456     5584     5740 
    5891     5906     5761     5613     5562     5571     5576     5535 
    5463     5459     5578     5760     5891     5903     5827     5776 
    5800     5775     5616     5448     5379     5390     5493     5694 
    5934     6123     6151     5967     5648     5352     5238     5339 
    5526     5682     5803     5876     5871     5829     5806     5748 
    5553     5289     5171     5319     5655     6007     6231     6250 
    6070     5790     5529     5346     5233     5188     5246     5400 
    5548     5647     5741     5783     5697     5578     5591     5748 
    5896     5917     5842     5760     5703     5683     5695     5715 
    5719     5703     5679     5684     5760     5883     5918     5784 
    5576     5447     5447     5548     5680     5745     5709     5659 
    5684     5755     5773     5733     5715     5748     5794     5837 
    5868     5836     5705     5522     5383     5324     5294     5247 
    5233     5310     5467     5667     5856     5945     5914     5836 
    5769     5748     5767     5791     5798     5734     5545     5350 
    5381     5640     5864     5836     5606     5428     5463     5637 
    5794     5849     5771     5626     5574     5670     5794     5813 
    5751     5703     5638     5485     5302     5209     5244     5382 
    5578     5794     5992     6130     6193     6154     5956     5640 
    5375     5292     5390     5613     5879     6038     5944     5665 
    5445     5387     5385     5367     5378     5451     5570     5718 
    5899     6041     6019     5822     5594     5472     5495     5624 
    5745     5775     5749     5744     5763     5779     5791     5799 
    5761     5684     5641     5647     5607     5444     5248     5235 
    5486     5795     5927     5891     5836     5844     5861     5776 
    5605     5495     5518     5624     5724     5742     5657     5528 
    5462     5486     5540     5537     5454     5421     5618     5977 
    6241     6211     5907     5562     5400     5420     5499     5555 
    5606     5701     5821     5865     5730     5468     5292     5337 
    5539     5729     5827     5900     6021     6154     6234     6200 
    6012     5736     5510     5424     5444     5483     5491     5471 
    5460     5524     5663     5742     5665     5521     5456     5509 
    5598     5638     5630     5652     5790     6008     6116     5969 
    5657     5432     5383     5363     5282     5220     5246     5377 
    5613     5886     6076     6147     6146     6096     5961     5757 
    5595     5563     5626     5659     5590     5481     5363     5216 
    5163     5356     5728     6019     6034     5798     5499     5300 
    5313     5618     6076     6342     6224     5896     5626     5494 
    5447     5495     5656     5809     5821     5741     5663     5575 
    5432     5271     5212     5297     5443     5606     5776     5900 
    5973     6052     6126     6123     6004     5776     5487     5246 
    5146     5223     5431     5616     5647     5597     5628     5769 
    5937     6034     5968     5697     5351     5201     5359     5607 
    5652     5510     5455     5618     5876     6077     6164     6100 
    5891     5641     5516     5547     5586     5560     5587     5730 
    5886     5956     5946     5914     5832     5594     5208     4847 
    4725     4962     5468     5925     6119     6150     6166     6138 
    5964     5672     5435     5420     5616     5881     6075     6103 
    5948     5686     5439     5283     5211     5184     5231     5382 
    5603     5811     5933     5950     5911     5875     5815     5668 
    5448     5259     5215     5351     5580     5776     5895     5949 
    5949     5931     5927     5922     5871     5744     5559     5385 
    5277     5265     5401     5663     5907     6008     5983     5929 
    5867     5746     5586     5447     5333     5255     5277     5491 
    5875     6192     6207     5940     5591     5339     5259     5360 
    5593     5798     5833     5749     5707     5703     5628     5536 
    5570     5721     5814     5714     5489     5304     5252     5351 
    5570     5798     5886     5852     5826     5767     5591     5410 
    5429     5722     6100     6327     6373     6313     6201     6045 
    5809     5467     5115     4989     5174     5417     5460     5367 
    5370     5528     5717     5849     5879     5765     5567     5460 
    5526     5645     5711     5761     5821     5796     5606     5343 
    5223     5332     5555     5741     5823     5836     5845     5906 
    6026     6057     5825     5449     5263     5406     5684     5819 
    5756     5601     5454     5378     5464     5776     6168     6388 
    6332     6106     5860     5606     5290     5020     4959     5086 
    5242     5368     5544     5795     6006     6049     5884     5563 
    5233     5104     5283     5676     6054     6232     6176     5984 
    5794     5665     5593     5571     5626     5757     5880     5913 
    5861     5783     5744     5800     5915     5976     5921     5746 
    5518     5416     5522     5684     5715     5611     5510     5508 
    5541     5508     5402     5312     5319     5408     5510     5574 
    5551     5458     5360     5310     5350     5483     5659     5815 
    5922     5958     5900     5755     5618     5566     5586     5637 
    5694     5765     5860     5917     5902     5837     5784     5783 
    5768     5671     5552     5537     5701     5960     6165     6249 
    6177     5946     5624     5316     5116     5059     5171     5451 
    5764     5923     5872     5738     5651     5593     5578     5664 
    5795     5871     5863     5803     5676     5463     5270     5243 
    5427     5684     5825     5817     5742     5630     5470     5352 
    5395     5583     5803     5965     6027     5969     5880     5892 
    5973     5980     5813     5548     5367     5404     5702     6095 
    6305     6259     6046     5767     5467     5152     4904     4830 
    4995     5391     5799     5944     5833     5628     5475     5445 
    5502     5567     5617     5663     5661     5556     5394     5296 
    5381     5657     5952     6066     5950     5697     5491     5451 
    5530     5636     5680     5621     5535     5559     5711     5902 
    6064     6184     6219     6106     5867     5660     5626     5711 
    5753     5706     5624     5499     5323     5174     5152     5243 
    5336     5421     5597     5863     6054     6035     5834     5605 
    5481     5454     5437     5429     5513     5765     6100     6282 
    6216     6023     5838     5718     5680     5738     5846     5869 
    5745     5544     5333     5150     5085     5258     5634     5968 
    6022     5810     5553     5418     5395     5389     5335     5287 
    5313     5379     5432     5498     5607     5745     5863     5886 
    5819     5741     5676     5633     5670     5841     6111     6332 
    6354     6176     5888     5559     5298     5283     5578     6006 
    6312     6376     6223     5907     5540     5333     5410     5629 
    5817     5957     6065     6070     5876     5537     5229     4999 
    4837     4854     5081     5371     5602     5798     5957     5946 
    5733     5516     5431     5393     5300     5223     5277     5435 
    5562     5574     5509     5448     5440     5543     5811     6151 
    6384     6454     6397     6210     5954     5782     5709     5593 
    5439     5443     5697     6025     6158     6003     5703     5456 
    5358     5370     5377     5298     5178     5150     5304     5576 
    5813     5948     5991     5950     5857     5768     5728     5748 
    5822     5907     5923     5786     5551     5400     5401     5476 
    5590     5761     5964     6092     6066     5881     5551     5158 
    4909     4963     5269     5587     5730     5697     5576     5455 
    5400     5466     5645     5849     5967     5983     5931     5857 
    5860     5953     5985     5899     5800     5741     5656     5506 
    5346     5271     5336     5491     5617     5675     5742     5864 
    5958     5938     5784     5520     5250     5152     5327     5676 
    5954     5976     5788     5571     5463     5487     5537     5502 
    5417     5381     5429     5589     5827     5998     6007     5929 
    5860     5809     5729     5628     5593     5684     5838     5946 
    5983     5962     5871     5719     5630     5715     5898     5991 
    5911     5730     5539     5379     5287     5320     5466     5594 
    5625     5616     5601     5560     5493     5418     5362     5375 
    5460     5574     5684     5722     5664     5590     5533     5518 
    5536     5520     5509     5555     5630     5730     5850     5919 
    5891     5815     5744     5687     5701     5850     6103     6319 
    6365     6216     5940     5657     5497     5491     5571     5649 
    5702     5745     5760     5691     5535     5405     5420     5566 
    5738     5768     5583     5331     5208     5265     5391     5483 
    5547     5630     5721     5767     5760     5719     5676     5674 
    5728     5814     5881     5903     5890     5844     5763     5691 
