Origin Time       2025/03/30 22:55:00
Lat.              41.993
Long.             142.725
Depth. (km)       55
Mag.              4.6
Station Code      AOMH12
Station Lat.      40.5846
Station Long.     141.1547
Station Height(m) -15
Record Time       2025/03/30 22:56:53
Sampling Freq(Hz) 100Hz
Duration Time(s)  120
Dir.              1
Scale Factor      2942(gal)/8224139
Max. Acc. (gal)   0.202
Last Correction   2025/03/30 22:56:54
Memo.             
[...]
  132214   132264   132310   132324   132318   132305   132271   132223 
  132201   132202   132196   132183   132189   132229   132281   132295 
  132281   132252   132220   132214   132237   132240   132235   132259 
  132289   132306   132318   132318   132301   132274   132263   132275 
  132281   132264   132251   132254   132254   132243   132241   132244 
  132227   132216   132231   132259   132289   132300   132294   132298 
  132286   132243   132212   132210   132235   132285   132314   132295 
  132252   132219   132219   132235   132239   132243   132250   132252 
  132268   132283   132278   132259   132235   132227   132248   132283 
  132291   132275   132274   132290   132291   132287   132290   132270 
  132228   132198   132181   132171   132197   132246   132266   132260 
  132271   132294   132295   132285   132277   132267   132273   132294 
  132328   132354   132335   132279   132252   132259   132259   132252 
  132260   132270   132258   132239   132227   132221   132225   132240 
  132239   132214   132202   132214   132244   132282   132297   132287 
  132290   132300   132291   132285   132298   132308   132294   132271 
  132262   132268   132266   132240   132227   132240   132266   132289 
  132301   132293   132270   132251   132237   132213   132187   132190 
  132216   132239   132264   132301   132318   132294   132247   132224 
  132237   132259   132281   132305   132306   132283   132262   132251 
  132252   132264   132266   132237   132202   132193   132202   132212 
  132237   132285   132306   132290   132275   132270   132263   132259 
  132259   132264   132279   132308   132337   132351   132328   132281 
  132250   132240   132241   132239   132231   132225   132212   132190 
  132179   132171   132170   132186   132209   132241   132268   132255 
  132237   132255   132277   132293   132310   132318   132314   132304 
  132287   132287   132308   132327   132332   132332   132320   132290 
  132270   132260   132259   132282   132306   132302   132283   132260 
  132240   132246   132263   132263   132251   132244   132231   132214 
  132225   132247   132251   132251   132260   132266   132258   132239 
  132228   132231   132240   132251   132263   132262   132254   132266 
  132301   132317   132306   132281   132252   132252   132277   132277 
  132255   132231   132212   132206   132208   132214   132235   132267 
  132289   132297   132298   132293   132279   132267   132266   132250 
  132210   132187   132202   132224   132221   132216   132236   132262 
  132298   132341   132341   132305   132297   132287   132239   132208 
  132219   132248   132291   132325   132314   132266   132223   132205 
  132198   132213   132267   132304   132283   132255   132254   132270 
  132278   132258   132231   132223   132217   132213   132214   132206 
  132193   132202   132228   132244   132250   132268   132301   132312 
  132305   132291   132271   132251   132239   132243   132263   132290 
  132306   132308   132309   132309   132301   132294   132282   132263 
  132262   132274   132281   132290   132289   132264   132247   132248 
  132235   132202   132204   132241   132246   132231   132251   132260 
  132247   132263   132290   132295   132298   132316   132339   132348 
  132331   132293   132254   132229   132223   132229   132247   132259 
  132258   132271   132314   132341   132322   132275   132239   132231 
  132243   132243   132214   132173   132159   132190   132231   132254 
  132264   132264   132250   132244   132256   132268   132275   132281 
  132294   132318   132318   132281   132243   132241   132273   132300 
  132306   132302   132281   132247   132219   132198   132192   132209 
  132241   132263   132264   132268   132271   132266   132285   132325 
  132337   132318   132290   132250   132209   132200   132219   132232 
  132216   132202   132219   132236   132244   132256   132263   132281 
  132324   132352   132339   132301   132254   132200   132162   132175 
  132223   132260   132290   132312   132316   132310   132302   132300 
  132301   132295   132273   132260   132266   132278   132287   132277 
  132244   132228   132233   132240   132250   132259   132267   132275 
  132268   132263   132260   132246   132229   132223   132228   132251 
  132283   132300   132297   132285   132273   132266   132254   132236 
  132228   132227   132224   132244   132286   132312   132302   132277 
  132252   132229   132223   132243   132264   132273   132283   132294 
  132295   132294   132289   132277   132278   132289   132278   132256 
  132246   132225   132205   132210   132220   132219   132223   132220 
  132201   132189   132200   132227   132247   132251   132254   132266 
  132273   132286   132305   132312   132314   132318   132305   132278 
  132260   132259   132264   132274   132290   132301   132304   132300 
  132285   132267   132254   132236   132227   132244   132256   132229 
  132197   132193   132198   132204   132233   132267   132259   132232 
  132221   132198   132173   132183   132219   132243   132271   132309 
  132335   132345   132345   132321   132287   132275   132274   132266 
  132282   132318   132325   132305   132282   132247   132223   132221 
  132216   132206   132214   132240   132275   132300   132300   132294 
  132278   132248   132221   132217   132237   132264   132274   132267 
  132255   132243   132231   132217   132223   132256   132295   132312 
  132306   132305   132316   132305   132268   132251   132248   132243 
  132251   132251   132227   132219   132243   132271   132290   132304 
  132313   132317   132314   132309   132297   132289   132289   132273 
  132233   132204   132200   132212   132239   132264   132262   132236 
  132225   132256   132300   132309   132295   132285   132268   132252 
  132273   132320   132343   132322   132278   132241   132228   132228 
  132235   132247   132252   132246   132241   132244   132248   132252 
  132252   132240   132214   132193   132190   132193   132204   132231 
  132250   132252   132248   132229   132224   132256   132300   132327 
  132336   132329   132314   132309   132310   132304   132287   132254 
  132201   132169   132179   132200   132217   132237   132250   132258 
  132262   132262   132262   132259   132256   132262   132258   132243 
  132244   132266   132274   132271   132270   132250   132221   132220 
  132243   132264   132290   132321   132340   132344   132341   132335 
  132318   132294   132266   132244   132229   132212   132206   132216 
  132212   132192   132190   132209   132227   132243   132255   132235 
  132202   132202   132221   132233   132250   132278   132301   132300 
  132263   132225   132219   132236   132254   132260   132268   132294 
  132312   132309   132318   132316   132277   132250   132255   132255 
  132252   132277   132324   132358   132348   132335   132344   132335 
  132282   132243   132252   132271   132270   132251   132205   132154 
  132166   132229   132277   132300   132306   132298   132289   132282 
  132263   132233   132212   132202   132193   132198   132239   132270 
  132246   132205   132210   132256   132297   132318   132335   132333 
  132313   132290   132277   132282   132304   132309   132286   132267 
  132254   132233   132252   132304   132327   132318   132325   132321 
  132271   132227   132229   132232   132209   132185   132165   132160 
  132189   132233   132273   132294   132289   132274   132263   132254 
  132251   132264   132278   132273   132255   132227   132187   132181 
  132223   132274   132298   132289   132264   132258   132266   132270 
  132285   132295   132277   132248   132236   132241   132262   132281 
  132271   132256   132279   132305   132293   132268   132256   132251 
  132256   132264   132256   132236   132219   132208   132208   132217 
  132227   132244   132278   132318   132332   132302   132259   132240 
  132240   132237   132233   132232   132243   132271   132285   132273 
  132291   132329   132329   132309   132301   132291   132271   132252 
  132251   132277   132301   132291   132270   132255   132239   132244 
  132275   132295   132301   132304   132282   132229   132189   132190 
  132202   132208   132219   132220   132225   132248   132259   132256 
  132259   132268   132291   132320   132327   132316   132314   132306 
  132271   132231   132214   132224   132241   132262   132273   132274 
  132289   132316   132322   132306   132286   132279   132270   132251 
  132244   132247   132229   132198   132175   132158   132150   132159 
  132183   132217   132236   132229   132220   132237   132262   132268 
  132271   132294   132325   132347   132340   132304   132281   132298 
  132328   132339   132343   132344   132331   132301   132273   132263 
  132279   132295   132279   132243   132214   132212   132233   132247 
  132252   132266   132264   132264   132308   132348   132349   132340 
  132327   132297   132268   132246   132217   132193   132177   132165 
  132179   132217   132237   132240   132251   132267   132279   132286 
  132285   132285   132275   132243   132220   132232   132252   132255 
  132254   132262   132278   132290   132286   132267   132240   132201 
  132175   132169   132156   132152   132178   132205   132214   132209 
  132190   132174   132179   132206   132225   132219   132209   132209 
  132200   132181   132189   132228   132258   132254   132227   132213 
  132227   132236   132220   132198   132192   132198   132193   132179 
  132214   132283   132327   132331   132317   132295   132275   132263 
  132251   132241   132252   132285   132312   132327   132321   132282 
  132239   132224   132229   132264   132313   132325   132308   132295 
  132291   132287   132291   132304   132310   132294   132263   132256 
  132273   132271   132258   132243   132231   132228   132231   132224 
  132205   132190   132202   132244   132295   132327   132332   132336 
  132341   132332   132308   132279   132258   132267   132312   132340 
  132344   132359   132374   132368   132370   132391   132413   132406 
  132381   132366   132358   132344   132356   132397   132430   132455 
  132464   132437   132386   132328   132279   132266   132275   132274 
  132262   132259   132267   132287   132316   132329   132318   132322 
  132341   132333   132310   132287   132259   132241   132239   132233 
  132220   132198   132170   132151   132147   132148   132146   132155 
  132194   132240   132273   132287   132271   132232   132223   132256 
  132289   132308   132313   132289   132247   132210   132178   132173 
  132202   132225   132220   132225   132255   132287   132321   132343 
  132327   132287   132260   132247   132241   132239   132246   132259 
  132274   132275   132243   132204   132193   132183   132166   132174 
  132197   132192   132150   132090   132047   132046   132063   132044 
  132009   132024   132074   132085   132058   132032   132012   132009 
  132052   132112   132131   132138   132186   132250   132300   132340 
  132354   132349   132362   132382   132375   132336   132282   132217 
  132169   132173   132214   132255   132308   132379   132428   132413 
  132366   132335   132329   132339   132344   132318   132271   132241 
  132252   132295   132332   132329   132286   132231   132202   132227 
  132275   132285   132252   132217   132173   132124   132123   132183 
  132250   132281   132289   132283   132243   132179   132144   132152 
  132179   132209   132224   132208   132189   132205   132255   132317 
  132390   132464   132516   132525   132503   132486   132501   132547 
  132583   132584   132568   132544   132505   132449   132364   132268 
  132221   132225   132241   132270   132304   132313   132309   132304 
  132264   132181   132092   132044   132059   132105   132154   132192 
  132179   132113   132062   132092   132178   132251   132286   132298 
  132297   132295   132297   132294   132304   132343   132393   132428 
  132422   132387   132370   132375   132389   132387   132363   132336 
  132333   132345   132360   132375   132371   132331   132277   132247 
  132239   132232   132231   132252   132281   132290   132308   132344 
  132329   132237   132146   132081   132019   131974   131966   131954 
  131912   131880   131884   131908   131970   132084   132192   132268 
  132354   132448   132499   132505   132511   132520   132497   132436 
  132368   132297   132240   132223   132239   132262   132258   132212 
  132166   132167   132231   132332   132424   132468   132457   132412 
  132364   132300   132237   132228   132219   132147   132051   131994 
  131992   132008   132003   131984   131982   131998   132025   132069 
  132115   132124   132125   132166   132213   132237   132267   132320 
  132364   132359   132302   132260   132293   132371   132447   132526 
  132599   132599   132503   132360   132210   132089   132034   132007 
  131950   131903   131884   131842   131816   131880   132003   132151 
  132318   132467   132572   132609   132564   132505   132478   132467 
  132462   132462   132437   132374   132312   132264   132217   132181 
  132154   132144   132178   132235   132283   132327   132391   132486 
  132563   132592   132595   132553   132456   132360   132286   132200 
  132097   132021   132021   132090   132186   132266   132290   132294 
  132348   132401   132351   132221   132093   132003   131973   131988 
  132017   132044   132051   132051   132112   132248   132391   132497 
  132588   132691   132779   132825   132814   132756   132691   132610 
  132520   132462   132403   132301   132210   132212   132295   132409 
  132493   132457   132300   132165   132154   132204   132244   132279 
  132309   132337   132359   132310   132160   132011   131961   131978 
  131993   132007   132032   132052   132057   132048   132050   132085 
  132146   132204   132237   132237   132235   132264   132317   132355 
  132378   132397   132366   132274   132196   132178   132221   132312 
  132397   132422   132410   132412   132405   132329   132206   132123 
  132112   132128   132131   132139   132146   132121   132094   132094 
  132090   132098   132181   132320   132430   132472   132417   132259 
  132081   131976   131957   132025   132165   132283   132312   132285 
  132274   132313   132387   132430   132406   132356   132320   132279 
  132219   132174   132151   132090   132012   131978   131996   132081 
  132220   132332   132385   132409   132420   132417   132383   132312 
  132206   132101   132044   132065   132155   132258   132310   132297 
  132240   132183   132196   132271   132312   132271   132205   132133 
  132054   132013   132059   132159   132251   132341   132422   132455 
  132424   132347   132274   132268   132302   132306   132302   132308 
  132282   132233   132198   132190   132205   132216   132194   132144 
  132098   132120   132256   132428   132514   132510   132490   132502 
  132547   132578   132533   132432   132356   132314   132262   132196 
  132132   132063   132008   132030   132131   132221   132254   132263 
  132287   132341   132440   132551   132598   132561   132472   132325 
  132144   132017   131963   131950   131989   132077   132123   132098 
  132081   132120   132209   132320   132397   132414   132405   132391 
  132391   132433   132541   132660   132682   132591   132462   132327 
  132201   132124   132125   132190   132285   132352   132343   132304 
  132316   132339   132306   132250   132217   132209   132214   132198 
  132138   132052   131994   132009   132088   132155   132193   132227 
  132259   132294   132310   132266   132193   132187   132267   132345 
  132379   132389   132390   132408   132464   132524   132534   132497 
  132428   132335   132241   132171   132115   132090   132135   132241 
  132352   132425   132456   132441   132390   132336   132301   132271 
  132243   132231   132216   132151   132039   131939   131907   131940 
  132001   132044   132077   132120   132158   132167   132136   132071 
  132028   132055   132116   132148   132162   132201   132259   132318 
  132389   132437   132437   132406   132368   132339   132316   132309 
  132354   132436   132487   132471   132408   132337   132304   132295 
  132275   132251   132219   132163   132089   132016   131970   131981 
  132039   132102   132124   132115   132144   132235   132327   132367 
  132345   132278   132198   132140   132120   132144   132206   132286 
  132347   132375   132386   132370   132329   132329   132397   132448 
  132428   132389   132356   132316   132287   132274   132248   132220 
  132221   132259   132306   132355   132414   132457   132429   132333 
  132248   132225   132244   132274   132274   132178   132008   131912 
  131981   132119   132209   132224   132200   132206   132279   132363 
  132401   132398   132385   132360   132301   132213   132142   132117 
  132151   132224   132290   132333   132364   132391   132440   132514 
  132555   132538   132514   132506   132511   132494   132435   132386 
  132381   132370   132349   132344   132336   132309   132295   132282 
  132210   132079   131938   131845   131866   131967   132016   131992 
  131992   132062   132151   132214   132285   132374   132441   132467 
  132445   132387   132345   132355   132378   132376   132362   132343 
  132312   132271   132223   132181   132193   132236   132221   132132 
  132047   132040   132128   132259   132363   132390   132343   132293 
  132287   132304   132297   132263   132220   132178   132140   132115 
  132098   132094   132106   132135   132179   132212   132213   132224 
  132286   132344   132336   132294   132251   132202   132166   132167 
  132192   132197   132194   132220   132278   132356   132435   132462 
  132437   132426   132428   132389   132302   132208   132147   132128 
  132132   132144   132144   132112   132057   132015   132031   132097 
  132170   132225   132259   132291   132335   132349   132327   132314 
  132324   132322   132329   132368   132409   132405   132371   132320 
  132274   132275   132347   132453   132536   132555   132498   132398 
  132302   132233   132183   132177   132241   132312   132324   132308 
  132271   132198   132146   132163   132227   132308   132389   132441 
  132470   132510   132556   132574   132540   132441   132305   132193 
  132136   132117   132113   132120   132129   132135   132142   132147 
  132150   132144   132123   132108   132109   132093   132077   132101 
  132125   132120   132131   132167   132179   132171   132174   132170 
  132146   132152   132189   132219   132250   132302   132351   132372 
  132372   132375   132376   132364   132354   132347   132335   132325 
  132317   132305   132308   132328   132359   132406   132435   132408 
  132348   132294   132240   132177   132120   132077   132052   132075 
  132133   132181   132231   132309   132387   132410   132358   132268 
  132177   132104   132081   132094   132108   132129   132160   132186 
  132201   132213   132231   132271   132331   132370   132364   132327 
  132289   132270   132251   132231   132233   132250   132258   132264 
  132247   132212   132205   132205   132167   132115   132094   132112 
  132123   132135   132202   132321   132443   132528   132576   132588 
  132547   132456   132345   132240   132174   132167   132206   132254 
