Origin Time       2025/03/30 22:55:00
Lat.              41.993
Long.             142.725
Depth. (km)       55
Mag.              4.6
Station Code      AOMH17
Station Lat.      40.4492
Station Long.     141.3374
Station Height(m) 65
Record Time       2025/03/30 22:56:53
Sampling Freq(Hz) 100Hz
Duration Time(s)  120
Dir.              5
Scale Factor      7845(gal)/8223790
Max. Acc. (gal)   1.053
Last Correction   2025/03/30 22:56:53
Memo.             
[...]
     958     1026     1023      984      915      827      780      792 
     792      753      734      756      780      820      926     1059 
    1117     1053      927      818      749      746      803      865 
     881      826      729      680      737      880     1021     1075 
    1047      957      834      731      649      572      540      595 
     734      945     1177     1316     1289     1115      853      579 
     418      475      706      942     1061     1058      970      854 
     789      826      919      963      930      858      781      731 
     731      761      792      832      878      907      896      854 
     823      861      961     1032     1034     1001      913      765 
     648      612      646      741      870      984     1038     1016 
     926      822      773      777      791      810      847      895 
     915      909      901      866      814      795      820      846 
     827      770      714      703      773      885      986     1055 
    1066      994      900      855      831      769      704      696 
     745      831      954     1069     1108     1019      800      573 
     488      573      774     1063     1316     1324     1081      777 
     546      465      587      820      986     1000      922      855 
     872      961     1034     1020      924      783      665      631 
     697      841      942      908      800      729      754      878 
    1005     1044     1009      928      812      719      737      835 
     901      909      882      843      824      832      851      837 
     774      741      760      778      808      880      980     1074 
    1100      999      815      662      614      681      812      912 
     930      897      849      801      804      857      893      903 
     901      873      845      878      946      981      977      953 
     909      843      756      660      615      670      788      873 
     918      957      961      916      884      905      920      853 
     783      823      889      859      785      745      745      791 
     897     1011     1030      947      847      799      823      886 
     913      888      820      714      629      623      666      746 
     909     1117     1229     1206     1100      905      649      476 
     498      681      905     1057     1112     1086      965      792 
     697      712      743      746      776      855      942     1004 
    1042     1047     1004      919      830      743      660      638 
     689      749      807      907      990      976      916      903 
     912      928      966      977      939      900      842      724 
     599      531      533      616      778      950     1063     1093 
    1071     1040      989      895      760      652      661      778 
     903      943      888      772      673      688      796      884 
     924      947      951      958      999     1044     1020      900 
     749      639      618      697      824      930      992      994 
     939      857      801      797      804      807      837      878 
     899      907      922      922      874      795      735      735 
     789      861      935      980      954      873      803      795 
     858      945      986      958      891      818      751      700 
     672      679      712      773      876      988     1047     1042 
     981      888      819      792      787      805      834      843 
     846      857      882      920      927      870      799      766 
     760      765      805      905     1017     1062     1023      951 
     882      816      764      758      793      810      785      776 
     815      869      912      945      938      868      778      742 
     761      803      847      865      849      837      866      911 
     903      853      827      808      745      696      735      822 
     885      932      989     1019      970      857      738      669 
     683      780      900     1012     1119     1155     1059      909 
     801      734      680      665      714      795      849      854 
     835      841      873      904      936      965      955      912 
     861      804      754      762      851      969     1050     1055 
     945      761      622      602      691      830      942      986 
     978      947      920      934      962      936      855      753 
     652      603      669      811      945     1043     1073      992 
     858      791      792      776      749      766      812      861 
     912      957      963      904      792      689      653      702 
     805      905      962      963      922      877      854      838 
     823      807      789      803      873      976     1051     1026 
     915      793      693      649      738      951     1146     1173 
    1034      831      639      523      556      720      919     1054 
    1081     1036      988      955      922      858      768      662 
     561      518      581      745      945     1092     1142     1075 
     916      747      633      608      684      804      916     1027 
    1115     1132     1084      996      876      729      614      596 
     669      765      835      882      938      986     1009     1034 
    1051      985      827      662      561      549      633      785 
     943     1030     1024      988      970      967      940      868 
     796      756      754      828      950     1028     1000      853 
     675      572      553      608      739      904     1046     1115 
    1093     1013      915      808      702      642      683      788 
     895      986     1027      993      919      847      799      776 
     761      749      761      792      830      896      988     1035 
    1000      920      839      800      807      819      837      870 
     876      827      773      747      730      722      749      812 
     893      970     1000      989      982      966      915      861 
     834      837      888      969      992      923      828      778 
     772      776      781      770      720      683      733      870 
    1011     1059      996      878      777      730      761      872 
     981      994      905      781      683      666      749      881 
     980      972      839      664      594      714      958     1158 
    1205     1096      869      638      544      606      731      843 
     926     1003     1080     1105     1053      939      778      612 
     541      602      739      895     1028     1088     1048      947 
     862      827      795      719      633      631      762      967 
    1177     1302     1220      934      664      591      645      715 
     810      897      885      800      739      739      789      873 
     943      961      926      859      819      851      900      900 
     868      837      826      859      930      976      965      913 
     849      776      703      679      729      810      913     1048 
    1139     1105      939      691      503      486      591      761 
     981     1159     1183     1067      946      896      884      884 
     865      781      662      579      562      643      824     1008 
    1086     1051      947      812      704      681      766      909 
     985      930      807      711      708      803      942     1035 
    1024      915      776      684      700      816      923      951 
     946      951      970     1001     1020      990      908      776 
     626      540      560      650      760      872      999     1093 
    1077      981      889      835      834      880      950     1003 
     978      841      660      564      614      774      962     1073 
    1058      947      819      726      703      769      866      908 
     908      911      892      834      777      756      778      842 
     908      924      886      855      858      880      920      986 
    1017      947      800      664      619      672      739      789 
     849      913      976     1050     1084     1017      888      762 
     681      650      656      710      818      930      999     1001 
     965      931      874      792      769      827      881      884 
     870      892      931      949      955      951      895      785 
     654      537      486      537      677      858     1038     1179 
    1242     1210     1104      939      756      634      608      642 
     700      762      795      805      864      990     1108     1139 
    1073      927      720      538      490      594      797     1011 
    1144     1162     1077      934      810      781      835      855 
     788      681      598      604      754     1004     1220     1275 
    1147      918      704      603      649      789      919      939 
     838      726      711      791      896      969      980      909 
     787      710      758      899     1038     1090     1026      878 
     712      594      589      699      843      945      981      959 
     900      830      766      731      739      776      835      918 
     988     1012      989      935      876      830      796      768 
     738      723      766      857      943      992      994      972 
     931      858      774      719      702      741      835      928 
     988     1007      962      862      773      769      850      934 
     940      877      804      751      737      774      835      861 
     854      862      904      950      953      881      762      702 
     737      810      897      985      999      913      801      735 
     743      783      805      847      915      934      892      849 
     822      810      855      955     1020     1008      938      839 
     753      726      761      815      853      865      859      845 
     830      819      846      923     1011     1062     1062      990 
     846      700      656      720      827      915      953      932 
     864      785      746      762      781      750      710      727 
     804      905      988     1013     1000      973      918      851 
     803      760      711      704      787      904      989     1044 
    1042      963      892      877      895      912      876      777 
     699      697      765      866      940      973      976      915 
     793      715      737      803      859      895      888      837 
     801      824      858      846      804      762      737      745 
     792      855      924      977      970      907      854      835 
     816      807      835      864      837      789      783      801 
     808      826      885      967     1021     1019      950      823 
     700      645      677      789      901      927      907      904 
     934     1004     1077     1067      946      770      608      504 
     531      699      865      923      915      881      808      737 
     730      793      886      949      950      916      868      823 
     814      847      877      882      893      934      976      996 
    1000      978      916      854      842      835      799      780 
     804      868      954     1026     1047      981      810      584 
     422      430      581      766      926     1021     1034     1007 
    1012     1082     1170     1192     1127     1035      984      967 
     935      885      853      834      810      789      783      776 
     739      683      680      751      812      797      731      669 
     649      676      751      845      878      838      808      850 
     928     1013     1116     1204     1213     1152     1039      870 
     657      476      422      515      706      911     1021      985 
     847      700      629      660      747      859      949      986 
    1001     1024     1078     1169     1205     1108      947      826 
     769      799      924     1039     1028      943      891      861 
     801      735      702      695      661      565      448      383 
     411      538      738      951     1123     1178     1082      942 
     877      859      781      633      508      464      514      696 
     969     1177     1217     1140     1046      972      923      904 
     907      919      916      878      815      745      668      607 
     618      691      745      719      649      627      700      831 
     958     1032     1016      901      769      704      697      757 
     939     1235     1571     1826     1872     1679     1314      905 
     592      418      328      256      187      141      149      276 
     561      893     1120     1206     1177     1088     1044     1061 
    1059     1009      920      791      661      637      793     1061 
    1260     1290     1147      864      571      423      459      660 
     981     1275     1370     1255     1057      857      661      479 
     363      372      523      766     1027     1250     1390     1401 
    1283     1090      861      641      510      483      521      588 
     633      639      623      589      614      783     1050     1270 
    1324     1213     1044      900      804      788      824      803 
     675      552      527      560      621      757      934     1058 
    1104     1093     1046      990      954      936      947     1015 
    1088     1077      966      789      625      588      712      909 
    1105     1246     1251     1124      946      778      692      784 
     993     1047      781      342      -51     -249     -122      314 
     847     1260     1458     1495     1522     1579     1574     1453 
    1246      972      664      425      342      406      571      787 
     980     1102     1113      954      657      371      217      247 
     448      724      945     1036      992      868      787      823 
     913      955      886      685      444      356      546      949 
    1378     1640     1617     1320      907      598      506      575 
     723      900     1046     1150     1232     1264     1167      934 
     652      425      325      355      469      625      792      988 
    1224     1431     1499     1399     1158      824      521      425 
     519      587      568      600      703      776      842      936 
     985      955      927      967     1071     1198     1242     1082 
     780      515      373      384      573      870     1136     1246 
    1162      958      739      621      661      831     1062     1240 
    1281     1200     1063      908      726      513      344      303 
     436      768     1208     1529     1588     1381      957      442 
      59      -22      164      506      888     1186     1348     1402 
    1337     1166      976      791      573      376      301      356 
     480      660      889     1100     1216     1232     1170     1036 
     857      680      560      510      530      665      936     1270 
    1547     1637     1444     1028      599      334      287      413 
     648      912     1090     1124     1070     1004      935      843 
     729      600      498      471      531      658      835     1035 
    1205     1323     1371     1302     1085      762      471      376 
     540      841     1119     1263     1223     1048      854      720 
     643      588      545      502      452      454      558      756 
    1026     1317     1525     1534     1332     1066      895      857 
     901      938      928      872      753      588      465      475 
     626      823      940      932      823      687      619      675 
     816      970     1074     1105     1075      997      927      934 
     946      816      589      456      442      454      484      537 
     592      675      800      936     1071     1209     1332     1426 
    1487     1472     1344     1128      891      685      561      531 
     540      526      513      521      541      633      858     1123 
    1296     1316     1166      903      670      594      683      835 
     923      838      585      330      236      324      550      869 
    1189     1418     1521     1514     1432     1264     1008      737 
     525      400      423      592      778      895      951      951 
     927      940      999     1067     1085      982      797      664 
     664      753      862      936      909      792      735      851 
    1063     1247     1305     1146      783      394      183      265 
     587      955     1206     1324     1324     1173      959      865 
     882      864      772      656      538      460      496      646 
     828      977     1046      993      851      689      576      572 
     680      874     1170     1507     1715     1686     1439     1032 
     550      101     -176     -152      164      623     1066     1360 
    1409     1219      922      695      599      544      484      473 
     541      689      915     1151     1309     1344     1248     1077 
     972      994     1019      962      888      831      808      842 
     877      832      729      633      581      552      538      621 
     801      915      870      749      649      631      726      897 
    1085     1223     1279     1290     1258     1161     1015      819 
     614      530      626      868     1185     1451     1529     1394 
    1108      762      452      229      106      110      247      486 
     822     1188     1440     1499     1364     1047      618      211 
      -8       25      243      585      993     1325     1491     1505 
    1386     1142      842      599      484      488      550      646 
     811     1047     1259     1328     1220     1004      787      649 
     625      673      734      792      847      905      990     1104 
    1227     1355     1421     1331     1089      777      503      352 
     337      438      622      831     1005     1101     1115     1066 
     978      854      679      483      333      256      283      475 
     839     1269     1563     1576     1333      955      576      328 
     297      471      746     1015     1213     1321     1325     1220 
    1032      820      634      507      461      480      513      584 
     789     1112     1385     1472     1345     1021      576      182 
       4       76      332      657      951     1148     1219     1183 
    1115     1078     1089     1119     1123     1053      919      815 
     855     1061     1314     1452     1375     1090      689      333 
     171      226      429      657      761      712      621      576 
     630      812     1067     1291     1422     1458     1408     1270 
    1067      857      703      604      514      454      476      579 
     727      855      932      970      945      842      703      592 
     554      568      615      733      886      976      984      959 
     935      934      980     1053     1094     1097     1090     1059 
     989      923      881      869      915      980      973      895 
     803      704      591      487      427      436      519      683 
     911     1138     1263     1247     1150     1063     1007      962 
     934      930      938      950      996     1067     1055      886 
     641      459      399      460      616      785      882      911 
     907      886      842      783      720      650      588      618 
