Origin Time       2025/03/30 22:55:00
Lat.              41.993
Long.             142.725
Depth. (km)       55
Mag.              4.6
Station Code      AOMH17
Station Lat.      40.4492
Station Long.     141.3374
Station Height(m) 65
Record Time       2025/03/30 22:56:53
Sampling Freq(Hz) 100Hz
Duration Time(s)  120
Dir.              6
Scale Factor      7845(gal)/8223790
Max. Acc. (gal)   0.756
Last Correction   2025/03/30 22:56:53
Memo.             
[...]
  -37933   -37848   -37755   -37728   -37748   -37785   -37828   -37843 
  -37793   -37697   -37636   -37662   -37704   -37706   -37719   -37731 
  -37692   -37659   -37724   -37847   -37906   -37851   -37744   -37669 
  -37627   -37600   -37619   -37692   -37771   -37845   -37898   -37866 
  -37732   -37558   -37419   -37384   -37471   -37652   -37868   -38007 
  -38001   -37893   -37741   -37604   -37552   -37589   -37681   -37797 
  -37864   -37841   -37764   -37679   -37613   -37585   -37600   -37647 
  -37698   -37714   -37716   -37771   -37855   -37883   -37848   -37783 
  -37725   -37687   -37638   -37594   -37611   -37651   -37681   -37727 
  -37802   -37874   -37894   -37839   -37743   -37655   -37586   -37577 
  -37658   -37756   -37813   -37851   -37858   -37809   -37741   -37698 
  -37681   -37693   -37746   -37785   -37743   -37660   -37643   -37689 
  -37690   -37628   -37627   -37698   -37732   -37740   -37808   -37870 
  -37828   -37705   -37597   -37567   -37633   -37786   -37930   -37949 
  -37867   -37759   -37611   -37477   -37505   -37673   -37816   -37895 
  -37936   -37889   -37773   -37692   -37658   -37628   -37620   -37677 
  -37771   -37822   -37774   -37673   -37592   -37551   -37539   -37590 
  -37717   -37817   -37831   -37832   -37854   -37851   -37827   -37798 
  -37740   -37682   -37658   -37617   -37566   -37590   -37679   -37775 
  -37866   -37872   -37747   -37613   -37567   -37589   -37667   -37801 
  -37930   -38013   -38056   -37993   -37763   -37516   -37388   -37307 
  -37281   -37439   -37725   -37953   -38070   -38088   -37978   -37756 
  -37559   -37498   -37566   -37709   -37863   -37943   -37899   -37790 
  -37678   -37558   -37454   -37438   -37512   -37619   -37747   -37916 
  -38075   -38132   -38033   -37785   -37507   -37385   -37463   -37627 
  -37798   -37935   -37951   -37827   -37678   -37604   -37581   -37601 
  -37670   -37727   -37728   -37743   -37809   -37854   -37847   -37822 
  -37775   -37705   -37648   -37616   -37612   -37640   -37686   -37731 
  -37741   -37727   -37741   -37789   -37810   -37785   -37759   -37759 
  -37760   -37744   -37714   -37669   -37628   -37600   -37565   -37577 
  -37674   -37783   -37849   -37893   -37889   -37802   -37687   -37638 
  -37670   -37725   -37733   -37705   -37702   -37689   -37639   -37648 
  -37716   -37717   -37647   -37617   -37689   -37812   -37922   -38001 
  -38011   -37894   -37659   -37440   -37370   -37461   -37632   -37820 
  -37967   -37995   -37878   -37706   -37594   -37577   -37627   -37704 
  -37774   -37820   -37835   -37798   -37731   -37670   -37633   -37635 
  -37665   -37693   -37752   -37860   -37913   -37831   -37678   -37578 
  -37589   -37682   -37790   -37868   -37893   -37827   -37709   -37624 
  -37586   -37596   -37693   -37821   -37840   -37767   -37720   -37704 
  -37673   -37647   -37628   -37639   -37721   -37800   -37798   -37775 
  -37767   -37728   -37674   -37670   -37687   -37701   -37741   -37770 
  -37728   -37655   -37620   -37673   -37817   -37930   -37908   -37791 
  -37660   -37565   -37550   -37606   -37656   -37651   -37644   -37690 
  -37751   -37795   -37840   -37851   -37771   -37644   -37562   -37600 
  -37770   -37974   -38088   -38061   -37889   -37608   -37357   -37296 
  -37450   -37708   -37935   -38017   -37909   -37700   -37552   -37551 
  -37643   -37739   -37794   -37801   -37778   -37775   -37814   -37835 
  -37786   -37693   -37601   -37570   -37628   -37740   -37854   -37905 
  -37855   -37762   -37709   -37710   -37750   -37779   -37725   -37596 
  -37500   -37520   -37639   -37794   -37894   -37872   -37752   -37632 
  -37616   -37719   -37851   -37889   -37804   -37702   -37655   -37619 
  -37631   -37764   -37885   -37839   -37748   -37735   -37701   -37619 
  -37621   -37667   -37600   -37500   -37554   -37736   -37881   -37925 
  -37912   -37835   -37690   -37552   -37515   -37589   -37704   -37800 
  -37883   -37926   -37875   -37804   -37795   -37759   -37629   -37547 
  -37604   -37689   -37721   -37759   -37782   -37698   -37575   -37552 
  -37629   -37762   -37902   -37947   -37879   -37770   -37628   -37515 
  -37571   -37778   -37903   -37848   -37732   -37627   -37551   -37604 
  -37760   -37868   -37901   -37881   -37768   -37642   -37617   -37663 
  -37704   -37720   -37717   -37732   -37758   -37740   -37720   -37760 
  -37795   -37740   -37650   -37582   -37554   -37636   -37828   -37945 
  -37893   -37777   -37666   -37548   -37507   -37625   -37801   -37887 
  -37886   -37844   -37773   -37683   -37585   -37508   -37531   -37696 
  -37899   -38003   -37980   -37868   -37700   -37536   -37474   -37563 
  -37755   -37937   -38003   -37921   -37743   -37555   -37453   -37520 
  -37709   -37855   -37903   -37878   -37759   -37615   -37571   -37606 
  -37620   -37629   -37693   -37758   -37789   -37820   -37824   -37748 
  -37673   -37690   -37744   -37777   -37806   -37802   -37723   -37671 
  -37712   -37732   -37687   -37685   -37758   -37812   -37785   -37702 
  -37585   -37478   -37463   -37570   -37750   -37902   -37948   -37908 
  -37812   -37644   -37505   -37562   -37758   -37891   -37914   -37891 
  -37841   -37764   -37687   -37616   -37546   -37538   -37627   -37737 
  -37827   -37916   -37932   -37816   -37655   -37561   -37575   -37685 
  -37832   -37944   -37932   -37777   -37624   -37570   -37565   -37621 
  -37759   -37858   -37856   -37818   -37752   -37643   -37555   -37563 
  -37651   -37766   -37860   -37870   -37778   -37665   -37611   -37646 
  -37756   -37872   -37893   -37801   -37674   -37555   -37465   -37494 
  -37687   -37891   -37947   -37868   -37759   -37666   -37605   -37611 
  -37700   -37806   -37836   -37782   -37697   -37631   -37627   -37693 
  -37785   -37833   -37778   -37648   -37563   -37588   -37681   -37789 
  -37876   -37893   -37816   -37712   -37679   -37740   -37840   -37864 
  -37740   -37535   -37404   -37438   -37616   -37854   -38052   -38111 
  -37987   -37740   -37501   -37392   -37467   -37648   -37800   -37868 
  -37854   -37779   -37709   -37685   -37682   -37667   -37663   -37694 
  -37736   -37775   -37813   -37832   -37825   -37790   -37740   -37690 
  -37654   -37655   -37683   -37685   -37670   -37683   -37706   -37717 
  -37740   -37746   -37693   -37631   -37646   -37705   -37729   -37731 
  -37770   -37847   -37920   -37953   -37895   -37735   -37554   -37469 
  -37498   -37590   -37721   -37872   -37966   -37947   -37855   -37737 
  -37623   -37558   -37585   -37659   -37721   -37787   -37854   -37821 
  -37689   -37600   -37633   -37735   -37829   -37848   -37783   -37700 
  -37620   -37540   -37536   -37636   -37727   -37766   -37821   -37855 
  -37805   -37700   -37613   -37623   -37700   -37744   -37775   -37852 
  -37881   -37774   -37673   -37685   -37679   -37627   -37686   -37827 
  -37871   -37809   -37719   -37639   -37611   -37666   -37774   -37879 
  -37944   -37935   -37855   -37743   -37592   -37444   -37439   -37592 
  -37751   -37817   -37816   -37786   -37736   -37696   -37706   -37752 
  -37774   -37743   -37709   -37723   -37751   -37756   -37760   -37733 
  -37627   -37531   -37552   -37633   -37685   -37728   -37797   -37867 
  -37913   -37914   -37831   -37698   -37629   -37652   -37705   -37755 
  -37795   -37806   -37762   -37648   -37538   -37523   -37586   -37674 
  -37781   -37858   -37863   -37844   -37837   -37821   -37768   -37681 
  -37602   -37588   -37656   -37752   -37785   -37759   -37700   -37602 
  -37536   -37588   -37714   -37841   -37957   -38021   -37967   -37832 
  -37667   -37486   -37397   -37470   -37606   -37728   -37864   -37975 
  -37959   -37809   -37654   -37570   -37539   -37585   -37700   -37789 
  -37818   -37828   -37832   -37795   -37717   -37667   -37666   -37663 
  -37646   -37627   -37632   -37709   -37855   -37983   -37979   -37832 
  -37663   -37592   -37612   -37659   -37723   -37793   -37777   -37656 
  -37563   -37584   -37648   -37708   -37793   -37858   -37813   -37696 
  -37625   -37656   -37739   -37808   -37855   -37889   -37866   -37764 
  -37654   -37597   -37589   -37640   -37775   -37925   -37963   -37876 
  -37762   -37643   -37503   -37413   -37455   -37581   -37701   -37767 
  -37759   -37712   -37710   -37775   -37831   -37835   -37797   -37720 
  -37660   -37706   -37816   -37882   -37887   -37836   -37733   -37620 
  -37558   -37592   -37687   -37743   -37731   -37713   -37733   -37766 
  -37763   -37717   -37647   -37597   -37620   -37700   -37775   -37829 
  -37836   -37768   -37678   -37623   -37593   -37602   -37702   -37858 
  -37955   -37970   -37962   -37918   -37790   -37608   -37484   -37458 
  -37478   -37546   -37698   -37847   -37881   -37829   -37777   -37713 
  -37592   -37493   -37551   -37714   -37836   -37891   -37917   -37890 
  -37785   -37648   -37562   -37554   -37627   -37756   -37848   -37858 
  -37832   -37789   -37728   -37683   -37650   -37616   -37642   -37731 
  -37781   -37754   -37732   -37750   -37736   -37681   -37679   -37741 
  -37791   -37818   -37854   -37889   -37883   -37828   -37741   -37628 
  -37508   -37461   -37515   -37619   -37720   -37794   -37822   -37801 
  -37758   -37732   -37748   -37810   -37871   -37862   -37783   -37710 
  -37675   -37632   -37575   -37563   -37605   -37665   -37724   -37752 
  -37739   -37758   -37818   -37841   -37814   -37779   -37721   -37611 
  -37496   -37466   -37569   -37773   -37978   -38088   -38084   -37983 
  -37808   -37624   -37494   -37481   -37625   -37813   -37902   -37918 
  -37889   -37744   -37528   -37369   -37314   -37368   -37561   -37827 
  -38045   -38152   -38082   -37845   -37601   -37463   -37396   -37416 
  -37586   -37798   -37893   -37883   -37793   -37628   -37546   -37666 
  -37871   -37987   -37991   -37953   -37868   -37708   -37563   -37512 
  -37561   -37704   -37844   -37876   -37881   -37921   -37891   -37750 
  -37621   -37563   -37524   -37515   -37551   -37589   -37600   -37636 
  -37755   -37855   -37770   -37558   -37439   -37505   -37673   -37849 
  -38013   -38094   -37982   -37721   -37478   -37366   -37436   -37651 
  -37848   -37925   -37930   -37921   -37898   -37852   -37778   -37681 
  -37578   -37489   -37486   -37601   -37696   -37669   -37627   -37663 
  -37728   -37839   -38026   -38179   -38192   -38090   -37866   -37544 
  -37346   -37438   -37670   -37836   -37893   -37810   -37609   -37436 
  -37409   -37540   -37781   -38044   -38215   -38221   -38061   -37810 
  -37615   -37528   -37458   -37382   -37386   -37423   -37378   -37355 
  -37485   -37693   -37924   -38130   -38144   -37943   -37759   -37735 
  -37821   -37909   -37895   -37778   -37693   -37708   -37717   -37655 
  -37597   -37563   -37515   -37513   -37609   -37702   -37748   -37827 
  -37909   -37902   -37806   -37625   -37388   -37226   -37223   -37358 
  -37566   -37744   -37860   -37990   -38114   -38151   -38159   -38226 
  -38256   -38133   -37895   -37642   -37434   -37319   -37297   -37324 
  -37413   -37597   -37782   -37866   -37898   -37937   -37920   -37836 
  -37740   -37621   -37515   -37520   -37650   -37793   -37852   -37808 
  -37713   -37675   -37762   -37895   -37976   -38016   -38055   -38068 
  -38010   -37854   -37616   -37385   -37255   -37211   -37206   -37295 
  -37498   -37704   -37841   -37951   -38003   -37951   -37870   -37844 
  -37848   -37858   -37874   -37820   -37648   -37480   -37404   -37370 
  -37345   -37355   -37405   -37465   -37527   -37617   -37719   -37785 
  -37870   -38060   -38288   -38403   -38331   -38098   -37771   -37447 
  -37262   -37299   -37516   -37787   -37978   -38032   -37975   -37818 
  -37604   -37474   -37497   -37544   -37575   -37731   -38002   -38180 
  -38171   -38009   -37733   -37436   -37274   -37332   -37570   -37886 
  -38161   -38277   -38194   -37951   -37593   -37227   -37037   -37066 
  -37183   -37331   -37578   -37875   -38044   -38013   -37909   -37878 
  -37936   -38014   -38037   -37963   -37790   -37582   -37422   -37322 
  -37291   -37358   -37490   -37608   -37696   -37781   -37870   -37937 
  -37975   -38005   -38026   -38029   -38044   -38095   -38157   -38163 
  -38030   -37723   -37339   -37099   -37137   -37366   -37632   -37844 
  -37936   -37898   -37771   -37573   -37346   -37197   -37208   -37399 
  -37705   -37967   -38060   -38009   -37897   -37773   -37670   -37627 
  -37656   -37763   -37908   -37983   -37953   -37903   -37845   -37670 
  -37362   -37089   -37030   -37227   -37616   -38051   -38344   -38404 
  -38286   -38049   -37756   -37547   -37527   -37627   -37710   -37700 
  -37577   -37399   -37293   -37338   -37474   -37621   -37806   -38079 
  -38326   -38348   -38110   -37806   -37629   -37559   -37536   -37656 
  -37899   -38007   -37893   -37696   -37489   -37374   -37521   -37828 
  -38006   -37974   -37816   -37616   -37462   -37422   -37496   -37650 
  -37845   -37993   -37987   -37855   -37689   -37540   -37459   -37484 
  -37561   -37654   -37825   -38020   -38011   -37824   -37706   -37683 
  -37642   -37619   -37674   -37759   -37840   -37910   -37926   -37886 
  -37852   -37816   -37714   -37574   -37467   -37432   -37486   -37605 
  -37693   -37685   -37663   -37758   -37972   -38141   -38111   -37910 
  -37615   -37305   -37162   -37261   -37455   -37660   -37885   -38038 
  -38052   -37975   -37866   -37752   -37633   -37486   -37346   -37273 
  -37287   -37404   -37673   -38018   -38215   -38171   -38045   -37959 
  -37832   -37674   -37666   -37847   -38052   -38156   -38122   -37926 
  -37589   -37218   -36960   -36933   -37147   -37492   -37858   -38157 
  -38225   -38014   -37754   -37629   -37571   -37543   -37639   -37825 
  -37949   -37956   -37914   -37876   -37795   -37670   -37636   -37752 
  -37876   -37863   -37744   -37616   -37516   -37500   -37625   -37800 
  -37812   -37619   -37428   -37393   -37434   -37492   -37642   -37887 
  -38094   -38172   -38152   -38061   -37893   -37701   -37571   -37492 
  -37416   -37424   -37570   -37720   -37728   -37642   -37589   -37635 
  -37797   -38024   -38217   -38318   -38287   -38074   -37732   -37455 
  -37355   -37336   -37328   -37416   -37633   -37839   -37899   -37843 
  -37719   -37554   -37465   -37550   -37759   -37972   -38103   -38111 
  -37976   -37733   -37500   -37412   -37513   -37720   -37883   -37893 
  -37744   -37573   -37536   -37662   -37866   -38018   -38016   -37841 
  -37524   -37203   -37112   -37318   -37671   -37993   -38094   -37917 
  -37648   -37497   -37504   -37640   -37894   -38194   -38354   -38267 
  -38022   -37733   -37462   -37336   -37428   -37611   -37731   -37759 
  -37719   -37642   -37575   -37535   -37516   -37542   -37601   -37654 
  -37694   -37760   -37837   -37885   -37920   -37935   -37856   -37693 
  -37534   -37451   -37515   -37712   -37887   -37935   -37893   -37786 
  -37647   -37585   -37646   -37763   -37867   -37875   -37764   -37654 
  -37633   -37662   -37696   -37758   -37874   -37990   -37995   -37862 
  -37723   -37706   -37775   -37827   -37840   -37801   -37651   -37428 
  -37328   -37447   -37648   -37770   -37800   -37782   -37755   -37778 
  -37822   -37767   -37592   -37426   -37385   -37496   -37725   -37978 
  -38137   -38137   -37964   -37660   -37362   -37262   -37386   -37550 
  -37631   -37652   -37636   -37619   -37674   -37805   -37962   -38098 
  -38156   -38082   -37882   -37659   -37531   -37534   -37624   -37724 
  -37779   -37800   -37809   -37829   -37879   -37932   -37908   -37777 
  -37600   -37440   -37350   -37396   -37590   -37841   -38001   -37994 
  -37866   -37698   -37547   -37424   -37347   -37400   -37605   -37825 
  -37952   -38020   -38063   -38038   -37943   -37832   -37758   -37724 
  -37740   -37828   -37909   -37833   -37623   -37471   -37469   -37558 
  -37674   -37787   -37855   -37822   -37689   -37551   -37497   -37536 
  -37627   -37716   -37798   -37878   -37895   -37820   -37735   -37712 
  -37706   -37648   -37581   -37566   -37548   -37466   -37399   -37430 
  -37579   -37817   -38029   -38109   -38095   -38036   -37916   -37770 
  -37671   -37627   -37598   -37586   -37617   -37682   -37758   -37839 
  -37891   -37881   -37851   -37864   -37908   -37916   -37851   -37725 
  -37585   -37476   -37400   -37400   -37551   -37825   -38056   -38124 
  -38030   -37804   -37517   -37358   -37446   -37679   -37863   -37930 
  -37939   -37885   -37725   -37525   -37422   -37434   -37490   -37578 
  -37687   -37755   -37779   -37806   -37824   -37821   -37843   -37882 
  -37920   -37956   -37905   -37704   -37493   -37449   -37561   -37696 
  -37752   -37720   -37636   -37546   -37486   -37478   -37523   -37660 
  -37860   -37948   -37885   -37805   -37751   -37690   -37652   -37659 
  -37679   -37693   -37713   -37752   -37797   -37840   -37886   -37889 
  -37810   -37720   -37694   -37735   -37827   -37908   -37876   -37751 
  -37633   -37581   -37612   -37686   -37720   -37700   -37696   -37747 
  -37805   -37805   -37727   -37601   -37494   -37482   -37616   -37864 
  -38102   -38194   -38082   -37816   -37539   -37399   -37449   -37623 
  -37816   -37953   -37953   -37802   -37636   -37550   -37513   -37548 
  -37689   -37820   -37832   -37781   -37750   -37712   -37612   -37486 
  -37390   -37350   -37404   -37566   -37806   -38043   -38180   -38176 
  -38044   -37837   -37677   -37627   -37642   -37698   -37833   -37971 
  -37982   -37860   -37681   -37496   -37401   -37482   -37646   -37754 
  -37809   -37817   -37720   -37574   -37525   -37573   -37620   -37683 
  -37782   -37802   -37709   -37638   -37659   -37702   -37727   -37794 
  -37918   -38020   -38045   -38022   -37983   -37926   -37845   -37733 
  -37593   -37480   -37451   -37478   -37497   -37496   -37482   -37482 
  -37540   -37677   -37868   -38034   -38075   -37989   -37875   -37820 
  -37786   -37735   -37716   -37727   -37675   -37589   -37571   -37625 
  -37720   -37833   -37894   -37856   -37774   -37729   -37740   -37778 
  -37809   -37809   -37764   -37692   -37611   -37539   -37508   -37516 
  -37547   -37633   -37755   -37828   -37862   -37894   -37879   -37800 
  -37706   -37651   -37656   -37687   -37696   -37692   -37682   -37667 
  -37670   -37663   -37631   -37639   -37709   -37751   -37723   -37674 
  -37628   -37581   -37588   -37702   -37832   -37879   -37885   -37858 
  -37752   -37673   -37754   -37920   -38018   -38002   -37909   -37739 
  -37516   -37370   -37355   -37393   -37485   -37667   -37845   -37926 
  -37940   -37920   -37868   -37822   -37804   -37782   -37760   -37771 
  -37813   -37839   -37791   -37686   -37554   -37420   -37374   -37463 
  -37589   -37697   -37837   -37966   -37986   -37939   -37897   -37822 
  -37716   -37663   -37678   -37678   -37640   -37613   -37621   -37644 
  -37696   -37793   -37872   -37851   -37747   -37667   -37663   -37670 
  -37647   -37632   -37627   -37598   -37574   -37573   -37592   -37663 
  -37797   -37944   -38026   -37997   -37859   -37697   -37633   -37692 
  -37763   -37791   -37840   -37930   -37976   -37901   -37723   -37523 
  -37380   -37350   -37442   -37593   -37752   -37898   -37984   -37959 
  -37860   -37793   -37797   -37817   -37810   -37786   -37777   -37797 
  -37814   -37752   -37589   -37399   -37300   -37358   -37504   -37617 
  -37665   -37665   -37643   -37648   -37693   -37724   -37721   -37739 
  -37814   -37920   -38003   -38036   -37974   -37798   -37606   -37511 
