Origin Time       2025/03/30 22:55:00
Lat.              41.993
Long.             142.725
Depth. (km)       55
Mag.              4.6
Station Code      HDKH06
Station Lat.      42.3498
Station Long.     142.3572
Station Height(m) -105
Record Time       2025/03/30 22:56:11
Sampling Freq(Hz) 100Hz
Duration Time(s)  120
Dir.              3
Scale Factor      2942(gal)/8224139
Max. Acc. (gal)   0.274
Last Correction   2025/03/30 22:56:11
Memo.             
  153763   153765   153767   153767   153763   153763   153766   153765 
  153763   153765   153763   153763   153763   153762   153763   153766 
  153763   153762   153765   153765   153765   153765   153765   153765 
  153762   153763   153766   153765   153765   153765   153760   153760 
  153762   153762   153762   153762   153762   153765   153766   153765 
  153763   153766   153766   153763   153765   153765   153762   153762 
  153762   153760   153762   153763   153765   153765   153763   153765 
  153765   153762   153762   153762   153762   153762   153762   153763 
  153766   153765   153763   153765   153765   153765   153763   153762 
  153766   153767   153765   153763   153762   153760   153765   153766 
  153765   153766   153765   153765   153767   153767   153767   153765 
  153763   153766   153766   153763   153765   153765   153766   153769 
  153766   153762   153765   153767   153767   153766   153766   153767 
  153767   153766   153766   153766   153766   153763   153760   153765 
  153766   153765   153766   153769   153765   153762   153763   153765 
  153765   153765   153766   153766   153765   153765   153767   153766 
  153765   153766   153766   153763   153765   153766   153766   153765 
  153763   153765   153766   153765   153766   153766   153763   153763 
  153766   153766   153765   153765   153766   153766   153765   153763 
  153765   153763   153763   153762   153762   153767   153769   153762 
  153759   153765   153765   153763   153766   153767   153767   153766 
  153766   153766   153765   153766   153767   153765   153765   153767 
  153769   153767   153765   153763   153765   153766   153766   153766 
  153766   153767   153765   153762   153765   153767   153766   153766 
  153767   153767   153766   153765   153766   153765   153763   153763 
  153765   153765   153763   153762   153763   153763   153762   153763 
  153765   153763   153765   153765   153763   153765   153766   153765 
  153766   153767   153766   153765   153767   153765   153760   153762 
  153765   153762   153759   153763   153766   153765   153763   153763 
  153765   153763   153763   153765   153766   153766   153766   153765 
  153765   153765   153765   153766   153766   153762   153759   153763 
  153766   153765   153763   153763   153763   153765   153763   153762 
  153765   153766   153763   153763   153766   153765   153763   153766 
  153766   153763   153766   153767   153766   153765   153765   153766 
  153765   153763   153765   153767   153766   153765   153765   153766 
  153765   153765   153766   153766   153763   153765   153765   153765 
  153766   153766   153769   153769   153766   153763   153763   153762 
  153763   153766   153765   153765   153766   153763   153762   153762 
  153765   153765   153763   153766   153767   153765   153762   153762 
  153763   153765   153762   153759   153762   153763   153763   153763 
  153762   153763   153765   153763   153765   153766   153765   153765 
  153763   153763   153765   153765   153763   153762   153763   153765 
  153765   153765   153765   153765   153766   153763   153762   153765 
  153763   153762   153765   153766   153762   153760   153765   153767 
  153766   153763   153763   153766   153765   153762   153763   153765 
  153765   153766   153765   153763   153763   153762   153763   153763 
  153763   153765   153765   153765   153765   153763   153762   153763 
  153766   153763   153763   153766   153765   153763   153766   153765 
  153763   153766   153765   153763   153766   153766   153765   153765 
  153763   153760   153763   153766   153765   153765   153767   153766 
  153766   153767   153765   153763   153765   153765   153766   153766 
  153763   153765   153769   153769   153763   153763   153769   153766 
  153763   153767   153770   153767   153763   153765   153766   153765 
  153763   153765   153767   153766   153765   153766   153766   153765 
  153765   153766   153766   153767   153769   153769   153769   153766 
  153765   153765   153766   153766   153765   153763   153762   153760 
  153763   153766   153763   153760   153762   153762   153763   153766 
  153766   153765   153763   153765   153763   153765   153765   153762 
  153762   153765   153763   153762   153762   153763   153765   153763 
  153765   153766   153765   153766   153767   153766   153765   153765 
  153765   153763   153762   153763   153766   153766   153763   153762 
  153763   153765   153762   153760   153763   153766   153769   153770 
  153766   153766   153769   153767   153763   153765   153765   153765 
  153767   153766   153763   153766   153767   153766   153765   153765 
  153763   153767   153767   153765   153766   153765   153765   153767 
  153767   153765   153766   153765   153763   153766   153767   153766 
  153765   153762   153763   153766   153766   153766   153766   153765 
  153763   153763   153765   153765   153763   153763   153765   153765 
  153762   153762   153763   153765   153765   153765   153765   153763 
  153760   153763   153766   153766   153763   153763   153767   153767 
  153763   153763   153766   153763   153763   153766   153766   153763 
  153765   153766   153763   153765   153763   153762   153763   153763 
  153763   153765   153765   153765   153765   153765   153765   153767 
  153767   153763   153765   153765   153762   153765   153766   153763 
  153765   153767   153767   153766   153765   153763   153763   153763 
  153766   153766   153765   153763   153767   153769   153763   153760 
  153765   153765   153763   153765   153765   153766   153766   153763 
  153763   153763   153765   153765   153763   153763   153763   153763 
  153763   153765   153766   153765   153765   153765   153765   153765 
  153767   153765   153763   153767   153767   153766   153767   153766 
  153765   153765   153765   153766   153767   153765   153762   153763 
  153763   153763   153765   153766   153767   153766   153763   153765 
  153766   153766   153766   153763   153762   153763   153763   153763 
  153765   153765   153765   153765   153765   153766   153767   153763 
  153760   153766   153769   153766   153763   153763   153765   153766 
  153766   153766   153765   153766   153767   153766   153766   153766 
  153765   153762   153763   153765   153765   153767   153765   153762 
  153765   153767   153766   153767   153770   153769   153765   153766 
  153767   153765   153765   153767   153767   153767   153766   153765 
  153765   153766   153766   153765   153766   153765   153762   153765 
  153766   153765   153765   153765   153760   153763   153767   153767 
  153767   153766   153765   153765   153766   153765   153765   153762 
  153760   153763   153762   153759   153763   153767   153763   153762 
  153765   153765   153762   153763   153765   153763   153763   153762 
  153760   153762   153760   153765   153766   153763   153765   153767 
  153765   153762   153760   153762   153766   153767   153766   153763 
  153765   153766   153765   153766   153765   153765   153766   153766 
  153766   153767   153763   153765   153767   153765   153763   153765 
  153766   153766   153767   153766   153763   153763   153765   153763 
  153762   153762   153765   153767   153767   153766   153765   153766 
  153765   153763   153766   153765   153763   153763   153765   153765 
  153766   153763   153762   153765   153765   153762   153760   153762 
  153766   153766   153763   153763   153765   153765   153763   153763 
  153763   153762   153763   153763   153763   153766   153767   153763 
  153763   153766   153766   153766   153765   153763   153767   153769 
  153767   153767   153767   153766   153765   153765   153763   153762 
  153765   153765   153762   153763   153763   153760   153763   153763 
  153762   153763   153763   153763   153763   153766   153767   153766 
  153766   153767   153765   153765   153765   153763   153760   153763 
  153766   153766   153765   153765   153766   153766   153766   153763 
  153763   153763   153762   153762   153763   153765   153766   153765 
  153765   153766   153765   153765   153766   153767   153766   153766 
  153767   153766   153766   153765   153762   153762   153762   153762 
  153765   153769   153766   153762   153763   153765   153766   153767 
  153767   153765   153765   153766   153766   153766   153766   153766 
  153766   153767   153766   153766   153765   153763   153765   153765 
  153765   153765   153762   153766   153770   153766   153762   153765 
  153766   153765   153765   153766   153767   153765   153763   153766 
  153766   153763   153762   153765   153763   153762   153763   153765 
  153763   153763   153763   153765   153765   153763   153765   153766 
  153766   153765   153762   153762   153763   153763   153763   153765 
  153767   153763   153760   153765   153766   153765   153766   153767 
  153767   153767   153767   153769   153767   153765   153766   153767 
  153766   153763   153760   153762   153765   153766   153769   153767 
  153766   153767   153769   153767   153767   153765   153763   153765 
  153762   153763   153767   153766   153766   153769   153766   153763 
  153765   153765   153765   153766   153766   153765   153763   153763 
  153762   153762   153763   153763   153765   153767   153766   153763 
  153765   153766   153766   153765   153765   153762   153760   153762 
  153763   153766   153766   153763   153763   153766   153767   153763 
  153762   153765   153767   153769   153767   153765   153765   153765 
  153765   153766   153766   153766   153766   153766   153767   153769 
  153767   153765   153763   153765   153767   153766   153763   153766 
  153767   153769   153769   153767   153766   153763   153763   153766 
  153769   153767   153766   153766   153767   153767   153765   153765 
  153766   153766   153765   153765   153765   153766   153767   153766 
  153766   153766   153766   153766   153765   153765   153767   153766 
  153765   153766   153766   153766   153766   153765   153766   153767 
  153766   153765   153766   153766   153763   153762   153765   153767 
  153766   153765   153766   153767   153766   153765   153762   153763 
  153765   153766   153766   153765   153766   153767   153766   153766 
  153765   153765   153765   153763   153763   153765   153765   153766 
  153769   153766   153763   153766   153766   153765   153766   153766 
  153766   153766   153766   153765   153763   153765   153766   153762 
  153760   153763   153766   153766   153763   153765   153766   153765 
  153762   153763   153763   153765   153767   153766   153762   153763 
  153765   153766   153767   153767   153765   153765   153766   153766 
  153766   153766   153769   153770   153767   153767   153769   153769 
  153769   153769   153767   153769   153769   153769   153769   153767 
  153765   153767   153769   153767   153767   153767   153767   153766 
  153766   153767   153769   153769   153767   153766   153767   153769 
  153769   153767   153767   153770   153767   153765   153766   153767 
  153767   153769   153770   153767   153766   153766   153767   153769 
  153769   153767   153769   153769   153767   153766   153767   153769 
  153767   153767   153769   153769   153770   153769   153766   153765 
  153767   153769   153767   153766   153766   153765   153765   153766 
  153766   153766   153765   153763   153765   153765   153765   153766 
  153767   153766   153766   153766   153769   153766   153762   153765 
  153765   153762   153763   153763   153763   153766   153767   153766 
  153765   153765   153766   153766   153763   153762   153765   153766 
  153763   153766   153769   153765   153763   153767   153766   153762 
  153765   153766   153766   153767   153766   153763   153763   153766 
  153766   153765   153766   153765   153762   153763   153765   153765 
  153765   153766   153766   153767   153769   153767   153765   153765 
  153767   153765   153762   153766   153765   153760   153765   153766 
  153760   153760   153766   153765   153762   153763   153765   153763 
  153765   153763   153760   153762   153762   153762   153762   153763 
  153763   153763   153765   153766   153765   153763   153765   153765 
  153760   153760   153763   153763   153763   153766   153766   153763 
  153762   153765   153763   153765   153763   153760   153763   153765 
  153760   153760   153763   153765   153765   153765   153765   153763 
  153765   153765   153763   153763   153763   153766   153765   153763 
  153763   153763   153763   153765   153763   153763   153763   153760 
  153763   153766   153765   153762   153763   153766   153765   153763 
  153766   153763   153762   153763   153760   153762   153766   153765 
  153763   153763   153762   153765   153766   153763   153763   153765 
  153765   153767   153767   153766   153765   153760   153758   153755 
  153748   153743   153736   153729   153721   153715   153712   153711 
  153706   153702   153696   153685   153667   153646   153625   153607 
  153588   153578   153574   153573   153577   153576   153557   153530 
  153501   153480   153466   153458   153451   153455   153472   153486 
  153501   153515   153523   153538   153573   153634   153719   153813 
  153881   153897   153866   153824   153808   153831   153894   153994 
  154132   154296   154445   154531   154530   154426   154233   154022 
  153889   153868   153922   153994   154053   154124   154233   154310 
  154225   153952   153640   153512   153654   153947   154199   154275 
  154149   153885   153571   153295   153148   153211   153490   153877 
  154167   154194   153976   153704   153543   153531   153597   153636 
  153621   153611   153630   153658   153729   153891   154090   154199 
  154126   153886   153611   153457   153461   153563   153743   153987 
  154165   154161   154060   153983   153910   153812   153778   153877 
  154040   154148   154125   153964   153723   153472   153260   153168 
  153306   153639   153974   154151   154117   153897   153620   153465 
  153492   153613   153708   153729   153711   153727   153817   153925 
  153951   153890   153814   153740   153658   153601   153630   153750 
  153878   153918   153855   153738   153624   153538   153453   153346 
  153225   153141   153169   153311   153459   153517   153505   153495 
  153515   153559   153593   153566   153526   153604   153794   153936 
  153949   153902   153871   153898   153971   154012   153981   153922 
  153882   153848   153786   153690   153601   153585   153674   153836 
  153997   154110   154138   154047   153851   153615   153434   153395 
  153488   153621   153732   153820   153870   153859   153794   153721 
  153693   153729   153792   153820   153804   153782   153789   153837 
  153916   153978   153979   153939   153905   153894   153875   153820 
  153752   153712   153708   153739   153798   153847   153859   153847 
  153824   153810   153836   153909   153990   154013   153952   153848 
  153746   153685   153696   153767   153852   153894   153851   153739 
  153616   153530   153485   153461   153435   153422   153472   153588 
  153721   153833   153906   153914   153854   153766   153694   153667 
  153702   153793   153886   153917   153887   153859   153840   153785 
  153696   153624   153623   153688   153774   153836   153860   153856 
  153837   153808   153779   153765   153731   153647   153543   153484 
  153504   153578   153661   153711   153701   153654   153621   153623 
  153624   153624   153669   153778   153900   153962   153943   153877 
  153825   153828   153858   153860   153828   153798   153806   153858 
  153937   153997   153971   153868   153779   153758   153756   153733 
  153706   153705   153731   153785   153874   153983   154070   154075 
  153975   153813   153671   153611   153635   153723   153835   153916 
  153912   153821   153711   153661   153681   153733   153797   153866 
  153905   153868   153773   153681   153652   153702   153792   153856 
  153866   153835   153775   153697   153643   153638   153646   153639 
  153630   153619   153604   153613   153663   153746   153825   153832 
  153743   153627   153562   153558   153608   153727   153873   153974 
  153998   153941   153835   153748   153715   153685   153616   153551 
  153565   153675   153833   153940   153935   153868   153854   153897 
  153898   153793   153624   153504   153534   153694   153846   153860 
  153744   153615   153563   153598   153677   153740   153763   153779 
  153825   153882   153912   153905   153847   153733   153619   153594 
  153677   153792   153874   153921   153937   153921   153882   153829 
  153762   153715   153732   153793   153802   153712   153593   153549 
  153612   153723   153801   153832   153832   153808   153755   153681 
  153600   153546   153555   153615   153701   153812   153937   154048 
  154109   154083   153962   153778   153596   153482   153468   153528 
  153654   153814   153929   153945   153897   153846   153809   153759 
  153696   153670   153689   153713   153744   153806   153886   153956 
  154003   154012   153959   153851   153723   153604   153512   153477 
  153550   153731   153918   153990   153924   153793   153684   153651 
  153684   153744   153801   153833   153847   153866   153887   153891 
  153852   153787   153796   153920   154048   154062   153968   153836 
  153736   153697   153698   153728   153808   153913   153963   153910 
  153789   153682   153640   153650   153688   153751   153844   153925 
  153924   153817   153663   153543   153512   153584   153733   153885 
  153963   153964   153925   153862   153782   153715   153692   153725 
  153775   153777   153729   153682   153669   153704   153771   153804 
  153763   153693   153639   153581   153508   153445   153415   153450 
  153562   153700   153813   153878   153874   153817   153742   153650 
  153550   153505   153553   153644   153711   153736   153735   153733 
  153742   153729   153692   153663   153670   153696   153717   153742 
  153789   153856   153906   153906   153851   153760   153677   153642 
  153661   153715   153771   153798   153802   153821   153871   153931 
  153970   153981   153978   153979   153972   153917   153836   153816 
  153878   153941   153928   153832   153721   153658   153640   153657 
  153709   153771   153827   153886   153940   153956   153929   153902 
  153897   153870   153781   153663   153573   153546   153571   153600 
  153597   153569   153550   153594   153720   153866   153922   153852 
  153715   153558   153397   153279   153266   153384   153577   153744 
  153846   153906   153939   153932   153885   153798   153690   153592 
  153539   153573   153706   153889   154017   154014   153909   153804 
  153766   153809   153905   153990   154017   154002   153964   153866 
  153700   153544   153474   153486   153570   153715   153866   153964 
  154005   153997   153918   153786   153685   153648   153648   153693 
  153805   153964   154124   154225   154195   154035   153843   153698 
  153604   153578   153673   153871   154072   154184   154190   154126 
  154032   153932   153841   153762   153715   153748   153860   153972 
  154016   153972   153859   153701   153515   153349   153269   153303 
  153426   153562   153624   153590   153517   153442   153393   153404 
  153457   153509   153566   153654   153750   153793   153770   153723 
