Origin Time       2025/03/30 22:55:00
Lat.              41.993
Long.             142.725
Depth. (km)       55
Mag.              4.6
Station Code      HDKH05
Station Lat.      42.5977
Station Long.     142.5446
Station Height(m) 205
Record Time       2025/03/30 22:56:23
Sampling Freq(Hz) 100Hz
Duration Time(s)  120
Dir.              3
Scale Factor      3920(gal)/6170801
Max. Acc. (gal)   0.134
Last Correction   2025/03/30 22:56:07
Memo.             
[...]
   12405    12401    12411    12434    12446    12427    12385    12364 
   12375    12374    12350    12333    12334    12347    12370    12417 
   12468    12488    12483    12455    12425    12428    12434    12413 
   12391    12382    12380    12392    12409    12419    12428    12430 
   12411    12403    12413    12399    12360    12330    12308    12305 
   12352    12413    12425    12411    12432    12473    12477    12441 
   12399    12376    12389    12424    12420    12378    12365    12375 
   12361    12337    12344    12386    12422    12412    12367    12330 
   12343    12386    12403    12383    12368    12387    12419    12433 
   12435    12436    12433    12420    12389    12359    12365    12363 
   12327    12328    12388    12439    12443    12423    12406    12411 
   12427    12432    12414    12381    12362    12377    12416    12452 
   12456    12427    12381    12334    12307    12301    12308    12332 
   12348    12328    12317    12375    12464    12499    12489    12494 
   12501    12484    12460    12437    12403    12384    12393    12400 
   12386    12381    12400    12412    12404    12402    12403    12395 
   12392    12400    12413    12413    12396    12388    12397    12397 
   12401    12419    12416    12381    12349    12326    12296    12294 
   12328    12352    12365    12400    12416    12393    12379    12397 
   12414    12401    12377    12378    12389    12396    12397    12379 
   12338    12310    12327    12368    12405    12435    12436    12393 
   12356    12375    12415    12424    12399    12376    12381    12412 
   12432    12424    12410    12411    12433    12460    12452    12396 
   12338    12327    12377    12433    12428    12369    12329    12356 
   12414    12447    12453    12452    12471    12521    12542    12500 
   12443    12403    12371    12353    12357    12372    12367    12342 
   12333    12355    12389    12403    12393    12385    12395    12419 
   12429    12396    12350    12344    12381    12433    12447    12414 
   12404    12425    12420    12385    12349    12335    12355    12389 
   12392    12349    12302    12299    12351    12422    12454    12441 
   12426    12427    12421    12407    12389    12358    12332    12338 
   12380    12431    12455    12463    12486    12498    12473    12457 
   12450    12400    12348    12370    12423    12422    12376    12356 
   12389    12417    12381    12334    12328    12348    12368    12385 
   12392    12393    12408    12443    12475    12464    12400    12331 
   12318    12369    12426    12443    12439    12442    12445    12437 
   12415    12388    12370    12355    12334    12322    12330    12338 
   12323    12309    12320    12339    12353    12369    12388    12413 
   12436    12439    12440    12461    12478    12463    12437    12423 
   12406    12381    12378    12391    12375    12340    12336    12347 
   12349    12365    12387    12378    12358    12363    12369    12369 
   12393    12424    12449    12476    12481    12463    12447    12435 
   12443    12471    12471    12440    12418    12416    12401    12374 
   12375    12388    12378    12365    12363    12358    12338    12315 
   12313    12324    12339    12364    12384    12386    12373    12366 
   12387    12431    12473    12496    12485    12455    12448    12448 
   12430    12427    12418    12378    12362    12377    12367    12345 
   12360    12411    12451    12448    12429    12420    12411    12391 
   12378    12383    12395    12386    12356    12334    12338    12356 
   12371    12386    12403    12406    12391    12382    12385    12395 
   12425    12461    12455    12403    12369    12412    12474    12459 
   12383    12348    12396    12459    12455    12404    12375    12378 
   12387    12395    12389    12344    12309    12344    12400    12406 
   12365    12322    12325    12368    12380    12349    12350    12405 
   12448    12458    12485    12517    12509    12474    12453    12455 
   12454    12420    12365    12321    12302    12317    12339    12338 
   12338    12360    12377    12379    12373    12369    12399    12433 
   12405    12358    12363    12387    12394    12399    12406    12407 
   12411    12432    12461    12468    12455    12433    12416    12412 
   12425    12450    12459    12428    12388    12373    12367    12345 
   12328    12358    12415    12436    12404    12372    12370    12349 
   12303    12298    12323    12324    12325    12344    12357    12367 
   12402    12452    12479    12443    12379    12362    12376    12388 
   12410    12429    12433    12426    12404    12390    12401    12403 
   12393    12396    12391    12362    12344    12363    12401    12424 
   12433    12444    12442    12422    12404    12397    12410    12444 
   12456    12440    12440    12450    12427    12393    12388    12393 
   12376    12367    12396    12406    12369    12340    12354    12394 
   12425    12428    12424    12419    12396    12374    12377    12369 
   12341    12356    12425    12460    12427    12395    12397    12403 
   12406    12420    12433    12432    12429    12424    12413    12394 
   12358    12323    12318    12345    12389    12418    12407    12379 
   12367    12361    12356    12377    12409    12414    12392    12360 
   12331    12317    12327    12359    12398    12427    12444    12451 
   12445    12427    12403    12400    12420    12436    12443    12439 
   12393    12329    12330    12387    12421    12417    12409    12405 
   12396    12373    12358    12360    12372    12407    12432    12410 
   12397    12411    12423    12446    12448    12398    12370    12395 
   12407    12394    12387    12373    12341    12328    12344    12351 
   12346    12353    12369    12389    12416    12428    12427    12434 
   12452    12466    12460    12433    12402    12372    12356    12379 
   12428    12468    12482    12453    12391    12363    12394    12414 
   12379    12322    12281    12280    12303    12311    12318    12345 
   12383    12417    12425    12408    12400    12393    12386    12404 
   12428    12433    12439    12456    12472    12484    12500    12502 
   12487    12469    12451    12433    12407    12376    12370    12376 
   12369    12364    12368    12354    12315    12281    12299    12360 
   12391    12379    12378    12406    12433    12432    12386    12316 
   12286    12328    12382    12379    12332    12315    12364    12428 
   12456    12458    12448    12451    12483    12507    12484    12436 
   12415    12425    12425    12407    12405    12419    12430    12417 
   12375    12322    12283    12288    12331    12363    12355    12326 
   12313    12331    12366    12415    12468    12488    12479    12460 
   12426    12412    12439    12459    12447    12430    12430    12452 
   12477    12479    12452    12408    12367    12349    12358    12373 
   12365    12337    12325    12351    12380    12386    12382    12382 
   12389    12412    12447    12464    12445    12414    12393    12403 
   12445    12471    12460    12433    12403    12384    12385    12384 
   12374    12378    12393    12409    12425    12422    12390    12360 
   12357    12368    12371    12354    12338    12342    12348    12355 
   12389    12433    12458    12463    12443    12393    12345    12332 
   12363    12417    12437    12409    12392    12419    12453    12452 
   12428    12427    12454    12473    12458    12414    12376    12369 
   12381    12393    12381    12347    12329    12333    12343    12358 
   12355    12317    12281    12286    12332    12384    12399    12377 
   12366    12389    12428    12442    12420    12406    12415    12430 
   12435    12407    12354    12341    12372    12393    12395    12406 
   12423    12415    12385    12374    12399    12434    12447    12435 
   12433    12455    12465    12433    12387    12391    12433    12443 
   12438    12455    12464    12442    12407    12395    12427    12451 
   12427    12385    12354    12331    12323    12326    12318    12309 
   12323    12346    12360    12358    12345    12331    12338    12371 
   12385    12355    12331    12335    12344    12366    12399    12404 
   12385    12376    12377    12371    12356    12343    12352    12384 
   12420    12444    12445    12437    12431    12416    12388    12368 
   12348    12326    12328    12359    12379    12380    12398    12432 
   12461    12474    12448    12400    12376    12356    12321    12300 
   12303    12321    12348    12373    12383    12396    12443    12506 
   12523    12473    12416    12405    12400    12354    12306    12295 
   12303    12313    12338    12377    12412    12413    12396    12411 
   12452    12481    12491    12473    12447    12457    12491    12503 
   12492    12479    12445    12383    12349    12364    12384    12388 
   12379    12361    12365    12403    12444    12470    12473    12461 
   12467    12479    12463    12435    12411    12387    12384    12417 
   12443    12432    12415    12414    12413    12399    12381    12381 
   12396    12408    12422    12434    12419    12389    12382    12392 
   12385    12356    12332    12339    12364    12373    12373    12393 
   12421    12415    12365    12317    12312    12341    12361    12327 
   12271    12268    12304    12317    12325    12352    12378    12378 
   12353    12329    12318    12314    12326    12360    12407    12454 
   12492    12526    12542    12520    12490    12483    12490    12489 
   12454    12407    12394    12407    12421    12425    12422    12440 
   12479    12501    12488    12472    12476    12486    12477    12454 
   12449    12463    12464    12445    12432    12430    12429    12409 
   12369    12338    12316    12284    12268    12292    12338    12382 
   12411    12431    12455    12468    12460    12442    12414    12374 
   12337    12310    12285    12274    12301    12352    12406    12458 
   12498    12513    12503    12465    12396    12335    12328    12365 
   12384    12356    12318    12321    12352    12363    12365    12387 
   12410    12401    12360    12322    12311    12325    12355    12392 
   12423    12433    12432    12439    12440    12423    12405    12395 
   12387    12376    12368    12380    12397    12383    12350    12334 
   12355    12395    12412    12399    12371    12335    12303    12294 
   12312    12345    12379    12416    12459    12479    12475    12466 
   12431    12372    12353    12392    12430    12429    12414    12423 
   12458    12471    12427    12349    12284    12250    12239    12254 
   12290    12315    12320    12313    12302    12315    12356    12396 
   12438    12462    12450    12445    12469    12494    12515    12525 
   12507    12481    12459    12438    12441    12460    12474    12497 
   12516    12507    12496    12500    12487    12450    12421    12428 
   12466    12494    12493    12488    12493    12491    12480    12472 
   12481    12505    12513    12495    12471    12448    12421    12389 
   12342    12294    12267    12257    12253    12247    12232    12220 
   12232    12265    12284    12268    12236    12218    12219    12238 
   12270    12287    12284    12295    12316    12316    12309    12305 
   12299    12300    12336    12397    12430    12404    12358    12334 
   12334    12333    12330    12356    12415    12473    12523    12563 
   12571    12548    12516    12484    12455    12441    12453    12474 
   12472    12449    12430    12431    12438    12439    12438    12433 
   12424    12423    12422    12415    12420    12449    12472    12463 
   12431    12392    12370    12367    12358    12346    12356    12380 
   12400    12415    12419    12407    12394    12380    12356    12349 
   12367    12379    12386    12412    12436    12444    12460    12472 
   12461    12442    12413    12380    12374    12389    12392    12367 
   12324    12301    12317    12346    12369    12381    12370    12364 
   12387    12412    12409    12400    12413    12437    12456    12471 
   12485    12489    12481    12473    12469    12460    12437    12408 
   12382    12346    12308    12314    12359    12388    12378    12350 
   12336    12352    12377    12377    12353    12342    12375    12426 
   12446    12432    12409    12391    12373    12357    12348    12341 
   12334    12324    12306    12284    12274    12294    12335    12373 
   12391    12396    12408    12417    12413    12413    12422    12430 
   12422    12393    12364    12345    12316    12286    12289    12327 
   12355    12332    12283    12264    12290    12343    12389    12412 
   12437    12467    12471    12451    12444    12472    12507    12507 
   12476    12464    12498    12547    12565    12538    12508    12510 
   12518    12498    12469    12446    12431    12438    12459    12460 
   12443    12431    12419    12405    12401    12414    12438    12469 
   12495    12498    12491    12483    12476    12463    12421    12353 
   12308    12294    12266    12226    12217    12239    12265    12277 
   12278    12272    12255    12261    12316    12369    12380    12361 
   12341    12348    12386    12426    12453    12460    12430    12388 
   12376    12387    12381    12354    12341    12366    12413    12435 
   12411    12384    12386    12405    12430    12452    12467    12479 
   12475    12455    12444    12447    12454    12458    12458    12457 
   12449    12429    12409    12386    12355    12327    12299    12270 
   12237    12196    12184    12229    12288    12312    12306    12297 
   12310    12330    12340    12354    12386    12416    12422    12412 
   12409    12420    12428    12423    12417    12426    12438    12429 
   12412    12419    12440    12441    12426    12415    12431    12470 
   12492    12482    12467    12467    12474    12483    12490    12481 
   12462    12458    12473    12472    12436    12392    12377    12387 
   12397    12400    12398    12386    12365    12364    12389    12404 
   12394    12380    12392    12430    12461    12465    12442    12410 
   12407    12427    12431    12424    12427    12444    12459    12460 
   12448    12417    12375    12342    12333    12348    12366    12365 
   12337    12306    12309    12344    12367    12358    12341    12342 
   12356    12362    12359    12357    12362    12374    12389    12388 
   12373    12369    12381    12378    12345    12299    12275    12291 
   12317    12322    12326    12342    12348    12345    12362    12391 
   12411    12421    12422    12418    12427    12455    12483    12491 
   12469    12427    12396    12399    12412    12410    12400    12383 
   12359    12349    12354    12360    12372    12399    12438    12476 
   12478    12441    12415    12431    12446    12429    12414    12422 
   12440    12451    12455    12451    12439    12437    12445    12435 
   12416    12414    12423    12420    12402    12383    12373    12377 
   12397    12416    12423    12430    12434    12423    12410    12403 
   12402    12403    12385    12355    12342    12348    12354    12344 
   12326    12313    12312    12314    12317    12325    12334    12348 
   12378    12417    12457    12491    12497    12460    12410    12376 
   12361    12357    12363    12374    12372    12364    12379    12402 
   12401    12386    12373    12351    12324    12309    12321    12351 
   12364    12372    12405    12447    12463    12443    12415    12399 
   12392    12394    12393    12381    12385    12416    12444    12455 
   12455    12458    12465    12458    12444    12444    12442    12430 
   12423    12430    12437    12425    12412    12417    12427    12422 
   12410    12401    12390    12375    12367    12364    12354    12350 
   12360    12367    12372    12383    12385    12374    12362    12356 
   12356    12358    12352    12343    12353    12381    12408    12421 
   12423    12421    12419    12413    12395    12377    12369    12362 
   12371    12409    12438    12432    12413    12403    12407    12412 
   12409    12410    12416    12419    12428    12448    12470    12490 
   12494    12478    12466    12462    12451    12440    12440    12442 
   12437    12431    12428    12416    12408    12409    12393    12358 
   12331    12325    12328    12324    12311    12300    12294    12294 
   12307    12332    12348    12346    12334    12334    12359    12386 
   12382    12361    12358    12375    12379    12358    12342    12350 
   12371    12397    12414    12415    12413    12415    12412    12407 
   12408    12411    12407    12406    12417    12424    12416    12407 
   12410    12408    12382    12351    12343    12355    12373    12398 
   12423    12434    12438    12439    12428    12420    12421    12420 
   12413    12421    12438    12437    12425    12426    12432    12431 
   12415    12386    12361    12361    12381    12404    12420    12427 
   12437    12453    12452    12438    12441    12459    12465    12452 
   12429    12402    12384    12383    12388    12378    12358    12345 
   12342    12339    12338    12343    12356    12375    12403    12425 
   12435    12438    12432    12421    12413    12399    12381    12373 
   12379    12387    12386    12380    12375    12356    12326    12313 
   12318    12319    12324    12344    12366    12375    12368    12353 
   12346    12353    12353    12344    12338    12342    12356    12365 
   12366    12367    12372    12396    12431    12433    12407    12392 
   12393    12395    12395    12400    12407    12409    12407    12402 
   12400    12407    12412    12415    12422    12431    12438    12440 
   12441    12450    12459    12451    12424    12389    12371    12384 
   12407    12423    12433    12440    12449    12460    12464    12460 
   12456    12457    12463    12461    12443    12416    12393    12383 
   12377    12364    12352    12352    12368    12375    12357    12336 
   12332    12337    12342    12347    12348    12348    12356    12373 
   12389    12403    12415    12422    12429    12438    12435    12421 
   12406    12390    12380    12386    12408    12427    12426    12408 
   12384    12371    12380    12385    12374    12372    12380    12387 
   12385    12371    12373    12400    12418    12410    12401    12411 
   12422    12416    12412    12417    12424    12430    12435    12439 
   12443    12447    12456    12467    12467    12458    12445    12415 
   12378    12356    12349    12357    12366    12354    12330    12320 
   12322    12330    12349    12368    12374    12364    12352    12361 
   12382    12380    12358    12350    12364    12375    12376    12379 
   12385    12395    12396    12381    12365    12367    12387    12403 
   12404    12401    12410    12424    12423    12398    12374    12367 
   12368    12370    12375    12380    12387    12395    12402    12410 
   12423    12428    12412    12383    12369    12373    12383    12390 
   12398    12409    12422    12428    12418    12403    12404    12410 
   12391    12357    12344    12357    12369    12370    12376    12391 
   12408    12418    12424    12430    12420    12400    12392    12400 
   12413    12421    12431    12448    12456    12448    12452    12479 
   12492    12476    12460    12459    12472    12495    12499    12485 
   12482    12496    12511    12509    12492    12476    12455    12426 
