Origin Time       2025/03/30 22:55:00
Lat.              41.993
Long.             142.725
Depth. (km)       55
Mag.              4.6
Station Code      HDKH06
Station Lat.      42.3498
Station Long.     142.3572
Station Height(m) 10
Record Time       2025/03/30 22:56:11
Sampling Freq(Hz) 100Hz
Duration Time(s)  120
Dir.              4
Scale Factor      7845(gal)/8223790
Max. Acc. (gal)   1.651
Last Correction   2025/03/30 22:56:11
Memo.             
[...]
   53692    53690    53689    53689    53688    53688    53690    53690 
   53689    53690    53689    53688    53689    53689    53686    53689 
   53690    53688    53688    53686    53688    53690    53689    53689 
   53689    53686    53686    53688    53686    53685    53685    53685 
   53682    53684    53686    53686    53686    53688    53688    53686 
   53686    53685    53685    53686    53688    53685    53684    53688 
   53688    53685    53688    53689    53689    53690    53689    53685 
   53686    53689    53688    53686    53689    53689    53688    53690 
   53692    53690    53690    53690    53685    53684    53689    53689 
   53686    53688    53686    53686    53688    53685    53684    53685 
   53688    53688    53686    53688    53686    53685    53685    53686 
   53686    53685    53686    53688    53686    53686    53688    53685 
   53685    53689    53686    53682    53688    53690    53684    53685 
   53689    53685    53685    53688    53685    53684    53688    53686 
   53684    53686    53688    53686    53688    53689    53686    53685 
   53688    53688    53685    53686    53688    53684    53685    53688 
   53684    53685    53690    53689    53686    53688    53686    53684 
   53686    53688    53686    53685    53684    53685    53686    53686 
   53685    53686    53685    53686    53685    53685    53689    53688 
   53684    53684    53685    53684    53685    53689    53688    53686 
   53689    53692    53688    53685    53685    53685    53685    53686 
   53686    53686    53688    53689    53689    53689    53689    53689 
   53690    53690    53689    53688    53686    53685    53684    53681 
   53677    53677    53677    53674    53673    53673    53673    53676 
   53676    53676    53674    53667    53662    53659    53653    53647 
   53644    53644    53647    53654    53657    53654    53651    53646 
   53636    53628    53623    53623    53622    53624    53635    53650 
   53663    53678    53692    53700    53708    53711    53711    53708 
   53697    53682    53670    53662    53666    53689    53723    53767 
   53819    53865    53889    53878    53821    53728    53628    53553 
   53516    53516    53551    53626    53735    53862    53977    54037 
   54014    53927    53820    53725    53667    53655    53670    53693 
   53712    53697    53644    53578    53526    53504    53526    53589 
   53682    53779    53851    53859    53801    53712    53632    53596 
   53613    53667    53738    53794    53797    53730    53626    53558 
   53585    53697    53811    53827    53713    53538    53415    53426 
   53584    53820    54021    54072    53937    53680    53445    53368 
   53484    53700    53866    53873    53719    53496    53334    53323 
   53477    53732    53987    54149    54189    54137    54041    53914 
   53752    53573    53415    53320    53311    53372    53457    53526 
   53558    53554    53543    53549    53580    53661    53786    53919 
   54052    54205    54356    54450    54421    54211    53813    53311 
   52845    52551    52515    52743    53164    53657    54085    54328 
   54333    54137    53846    53561    53365    53292    53311    53373 
   53465    53603    53774    53919    53963    53866    53649    53391 
   53199    53146    53242    53437    53663    53866    54021    54132 
   54199    54209    54141    53985    53766    53551    53415    53401 
   53489    53617    53735    53816    53843    53805    53716    53627 
   53584    53612    53707    53847    54001    54137    54237    54287 
   54249    54105    53875    53601    53338    53138    53034    53040 
   53157    53353    53562    53704    53725    53634    53481    53338 
   53262    53279    53391    53584    53820    54048    54233    54345 
   54355    54232    53973    53623    53266    53002    52897    52949 
   53127    53383    53651    53886    54051    54117    54085    53997 
   53916    53875    53866    53858    53838    53820    53815    53802 
   53755    53670    53572    53495    53477    53522    53601    53700 
   53809    53905    53968    53993    53963    53893    53815    53720 
   53609    53515    53461    53443    53460    53495    53531    53584 
   53654    53711    53731    53709    53646    53554    53461    53399 
   53404    53504    53685    53882    54029    54087    54044    53925 
   53766    53577    53384    53242    53207    53303    53499    53716 
   53887    53977    53978    53916    53825    53735    53670    53650 
   53669    53723    53796    53865    53913    53928    53893    53805 
   53688    53566    53465    53418    53446    53541    53670    53784 
   53840    53827    53775    53740    53748    53793    53840    53860 
   53844    53805    53762    53721    53684    53658    53657    53674 
   53682    53658    53600    53536    53505    53527    53599    53703 
   53823    53931    54006    54032    53978    53842    53659    53473 
   53333    53264    53271    53345    53458    53558    53609    53609 
   53568    53528    53536    53565    53563    53528    53493    53519 
   53638    53816    53973    54045    54000    53848    53655    53484 
   53366    53315    53330    53403    53516    53659    53820    53985 
   54136    54252    54307    54294    54226    54125    54018    53917 
   53815    53703    53581    53470    53401    53392    53435    53499 
   53546    53562    53555    53551    53589    53671    53757    53815 
   53824    53781    53709    53635    53576    53547    53532    53501 
   53434    53329    53223    53181    53229    53341    53468    53557 
   53599    53628    53696    53824    54001    54176    54299    54322 
   54244    54095    53919    53742    53584    53465    53396    53377 
   53407    53478    53588    53721    53856    53966    54033    54047 
   54009    53950    53910    53901    53908    53900    53833    53698 
   53534    53389    53304    53291    53339    53430    53528    53613 
   53678    53721    53747    53752    53728    53667    53593    53551 
   53584    53690    53838    53970    54031    53981    53821    53597 
   53384    53261    53253    53329    53442    53555    53657    53759 
   53866    53946    53979    53975    53955    53944    53948    53944 
   53908    53825    53716    53622    53565    53531    53503    53465 
   53426    53418    53473    53603    53777    53946    54072    54132 
   54117    54035    53890    53705    53524    53391    53320    53341 
   53460    53639    53809    53897    53851    53682    53460    53268 
   53169    53192    53308    53455    53586    53689    53763    53829 
   53901    53968    54012    54018    53982    53904    53798    53693 
   53609    53555    53520    53473    53412    53383    53426    53555 
   53752    53970    54156    54268    54288    54216    54059    53850 
   53649    53499    53408    53369    53354    53337    53319    53303 
   53284    53280    53314    53399    53518    53634    53734    53829 
   53943    54081    54203    54255    54193    54020    53775    53520 
   53295    53123    53056    53129    53316    53561    53804    54002 
   54148    54260    54337    54353    54301    54179    53985    53744 
   53512    53331    53239    53257    53353    53474    53585    53667 
   53716    53739    53738    53715    53673    53617    53555    53491 
   53433    53401    53395    53396    53399    53424    53487    53607 
   53788    53978    54116    54170    54129    53991    53779    53555 
   53389    53320    53342    53393    53423    53445    53496    53605 
   53761    53908    54005    54045    54032    53975    53893    53805 
   53728    53676    53658    53676    53719    53774    53831    53870 
   53860    53793    53707    53643    53636    53696    53790    53874 
   53913    53892    53811    53686    53534    53372    53235    53161 
   53176    53291    53481    53689    53862    53986    54066    54101 
   54063    53916    53677    53435    53289    53279    53379    53530 
   53669    53758    53790    53761    53686    53608    53566    53577 
   53639    53734    53835    53933    54016    54048    54004    53892 
   53757    53659    53654    53739    53850    53902    53852    53728 
   53597    53514    53481    53487    53516    53561    53615    53666 
   53708    53728    53719    53670    53562    53391    53203    53061 
   53025    53114    53308    53562    53824    54045    54190    54224 
   54143    53981    53793    53635    53549    53542    53597    53680 
   53757    53812    53825    53792    53730    53676    53665    53709 
   53784    53838    53846    53797    53725    53685    53700    53763 
   53855    53937    53982    53983    53943    53859    53736    53590 
   53437    53293    53187    53142    53163    53249    53400    53581 
   53748    53883    53964    53986    53959    53900    53824    53758 
   53720    53704    53688    53659    53615    53554    53495    53457 
   53451    53495    53588    53712    53827    53900    53928    53933 
   53939    53946    53931    53881    53806    53719    53638    53592 
   53595    53638    53700    53740    53724    53654    53563    53491 
   53460    53477    53518    53545    53547    53545    53578    53676 
   53816    53947    54017    53991    53879    53721    53562    53439 
   53365    53323    53306    53329    53408    53559    53763    53964 
   54103    54152    54118    54049    53998    53982    53978    53948 
   53871    53762    53671    53651    53719    53856    54006    54102 
   54121    54072    53967    53813    53630    53454    53323    53244 
   53204    53185    53195    53265    53403    53578    53739    53856 
   53912    53882    53769    53600    53430    53319    53302    53354 
   53434    53503    53542    53563    53593    53639    53692    53735 
   53747    53717    53653    53572    53495    53441    53428    53451 
   53485    53515    53547    53588    53642    53725    53839    53963 
   54071    54139    54156    54133    54094    54048    53995    53941 
   53892    53833    53765    53682    53597    53547    53557    53605 
   53661    53697    53689    53631    53557    53507    53515    53595 
   53721    53846    53933    53975    53962    53885    53746    53551 
   53329    53138    53044    53061    53167    53302    53395    53404 
   53346    53285    53279    53337    53428    53515    53574    53616 
   53659    53727    53825    53936    54008    53998    53893    53721 
   53538    53411    53388    53464    53612    53812    54033    54237 
   54390    54461    54430    54315    54166    54028    53940    53927 
   53974    54056    54155    54220    54206    54114    53966    53777 
   53588    53426    53299    53229    53246    53360    53541    53759 
   53971    54106    54135    54072    53947    53784    53616    53458 
   53318    53218    53172    53165    53187    53235    53307    53387 
   53460    53509    53549    53599    53676    53767    53850    53906 
   53940    53960    53975    53985    53989    53987    53983    53979 
   53968    53951    53919    53865    53804    53765    53762    53805 
   53892    53997    54076    54093    54032    53924    53825    53778 
   53782    53806    53812    53765    53646    53472    53283    53111 
   52987    52936    52942    52967    52990    53007    53025    53053 
   53087    53119    53156    53203    53258    53304    53316    53288 
   53253    53258    53325    53441    53573    53701    53824    53952 
   54086    54224    54357    54453    54473    54402    54245    54033 
   53813    53634    53519    53480    53541    53707    53937    54179 
   54387    54519    54571    54556    54488    54367    54189    53951 
   53669    53404    53238    53198    53261    53377    53487    53550 
   53551    53482    53353    53194    53040    52921    52851    52824 
   52843    52924    53076    53291    53535    53761    53919    53979 
   53933    53792    53589    53383    53238    53194    53252    53376 
   53523    53662    53784    53902    54044    54214    54399    54567 
   54673    54697    54657    54571    54442    54279    54091    53897 
   53715    53553    53399    53260    53157    53110    53137    53254 
   53451    53711    53998    54259    54432    54492    54448    54319 
   54143    53936    53686    53389    53076    52783    52529    52342 
   52249    52274    52443    52744    53121    53515    53889    54217 
   54486    54693    54820    54839    54749    54565    54311    54009 
   53689    53393    53163    53028    52988    53021    53098    53214 
   53370    53574    53809    54043    54260    54461    54630    54739 
   54770    54718    54579    54345    54025    53655    53284    52972 
   52774    52710    52763    52902    53094    53291    53454    53570 
   53651    53723    53812    53921    54036    54152    54282    54411 
   54506    54527    54432    54197    53846    53423    52988    52604 
   52324    52201    52273    52555    53013    53565    54116    54567 
   54859    54996    54997    54886    54681    54382    53989    53538 
   53091    52716    52473    52400    52493    52695    52936    53180 
   53420    53644    53840    53983    54027    53954    53788    53582 
   53424    53388    53464    53592    53708    53766    53759    53724 
   53707    53731    53805    53905    53978    53987    53955    53936 
   53986    54140    54388    54670    54930    55124    55217    55202 
   55089    54866    54522    54071    53550    53006    52520    52170 
   51985    51956    52058    52255    52508    52805    53125    53442 
   53731    53962    54114    54174    54129    53998    53796    53539 
   53249    52941    52632    52367    52200    52162    52267    52492 
   52795    53150    53541    53952    54367    54741    55016    55148 
   55140    55032    54876    54720    54604    54529    54467    54382 
   54233    54002    53717    53434    53199    53049    53001    53048 
   53177    53372    53630    53941    54261    54521    54660    54639 
   54472    54205    53882    53546    53237    52980    52791    52678 
   52629    52643    52725    52868    53059    53280    53501    53701 
   53890    54066    54207    54307    54373    54399    54378    54306 
   54194    54062    53927    53796    53678    53576    53482    53397 
   53318    53264    53262    53325    53464    53690    53975    54267 
   54522    54703    54789    54787    54699    54525    54276    53975 
   53644    53306    52978    52681    52425    52238    52174    52270 
   52527    52917    53368    53794    54132    54329    54367    54263 
   54058    53806    53565    53364    53219    53130    53092    53100 
   53153    53245    53377    53554    53763    53971    54145    54278 
   54375    54446    54484    54468    54369    54186    53940    53692 
   53509    53439    53484    53613    53777    53936    54058    54120 
   54121    54070    53954    53786    53596    53406    53233    53102 
   53037    53050    53131    53250    53369    53458    53499    53484 
   53415    53325    53254    53229    53253    53325    53430    53561 
   53719    53905    54091    54240    54321    54326    54265    54157 
   54017    53855    53678    53492    53310    53148    53018    52930 
   52909    52979    53152    53422    53759    54125    54479    54769 
   54958    55016    54932    54733    54467    54186    53940    53750 
   53613    53524    53468    53423    53391    53389    53414    53450 
   53484    53499    53492    53487    53504    53545    53601    53657 
   53696    53707    53697    53677    53644    53597    53539    53477 
   53418    53370    53329    53298    53300    53347    53435    53557 
   53692    53828    53973    54116    54229    54297    54328    54336 
   54322    54286    54217    54110    53981    53855    53746    53654 
   53596    53577    53586    53605    53603    53554    53477    53401 
   53347    53338    53380    53465    53566    53631    53620    53534 
   53399    53254    53138    53064    53033    53056    53142    53296 
   53511    53765    54027    54278    54484    54606    54626    54549 
   54405    54241    54094    53968    53848    53732    53623    53505 
   53376    53237    53090    52959    52880    52891    52996    53172 
   53369    53535    53631    53635    53553    53434    53330    53288 
   53331    53445    53595    53746    53859    53893    53833    53701 
   53524    53339    53195    53126    53149    53273    53500    53805 
   54152    54492    54770    54940    54990    54926    54768    54542 
   54276    54010    53770    53577    53450    53383    53358    53369 
   53396    53423    53460    53508    53563    53626    53682    53717 
   53735    53747    53765    53801    53854    53921    53991    54045 
   54054    53981    53808    53566    53308    53072    52899    52822 
   52843    52949    53126    53345    53568    53761    53892    53944 
   53924    53858    53774    53697    53640    53608    53595    53597 
   53603    53578    53507    53411    53315    53249    53244    53300 
   53401    53547    53721    53897    54060    54195    54272    54286 
   54247    54162    54049    53944    53856    53777    53696    53611 
   53528    53477    53481    53538    53627    53725    53820    53904 
   53991    54083    54162    54213    54237    54224    54178    54106 
   54017    53923    53835    53755    53680    53603    53530    53472 
   53434    53431    53466    53519    53590    53680    53751    53781 
   53758    53677    53555    53426    53302    53184    53088    53029 
   53013    53064    53192    53380    53585    53757    53847    53842 
   53748    53611    53478    53395    53380    53433    53550    53721 
   53931    54163    54392    54569    54654    54625    54484    54263 
   54001    53734    53500    53325    53218    53173    53187    53249 
   53347    53466    53593    53703    53781    53819    53808    53750 
   53655    53539    53433    53360    53327    53327    53357    53401 
   53447    53497    53550    53608    53674    53742    53794    53833 
   53859    53870    53881    53919    53990    54076    54159    54218 
   54241    54233    54202    54156    54105    54044    53966    53869 
   53755    53632    53515    53427    53401    53446    53545    53666 
   53761    53800    53774    53686    53558    53407    53241    53060 
   52874    52712    52612    52598    52677    52832    53029    53245 
   53461    53650    53796    53902    53971    54010    54035    54060 
   54081    54091    54101    54113    54125    54137    54149    54163 
   54182    54199    54209    54199    54156    54076    53966    53843 
   53725    53631    53582    53577    53608    53669    53744    53821 
   53893    53958    54005    54033    54048    54049    54037    54014 
   53975    53909    53788    53589    53323    53028    52747    52529 
   52411    52396    52481    52635    52821    53017    53200    53356 
   53472    53551    53605    53640    53653    53650    53643    53644 
   53670    53728    53812    53916    54028    54136    54221    54275 
   54307    54333    54367    54411    54463    54496    54492    54452 
   54375    54275    54174    54085    54024    54005    54022    54054 
   54075    54079    54068    54047    54002    53916    53770    53580 
   53366    53150    52956    52794    52674    52609    52605    52644 
