Origin Time       2025/03/30 22:55:00
Lat.              41.993
Long.             142.725
Depth. (km)       55
Mag.              4.6
Station Code      HDKH07
Station Lat.      42.1330
Station Long.     142.9164
Station Height(m) 40
Record Time       2025/03/30 22:56:07
Sampling Freq(Hz) 100Hz
Duration Time(s)  120
Dir.              5
Scale Factor      7845(gal)/8223790
Max. Acc. (gal)   4.783
Last Correction   2025/03/30 22:56:07
Memo.             
[...]
  -10798   -10795   -10794   -10794   -10797   -10795   -10795   -10797 
  -10797   -10794   -10794   -10798   -10797   -10791   -10791   -10795 
  -10794   -10795   -10801   -10797   -10793   -10797   -10797   -10793 
  -10794   -10797   -10794   -10794   -10795   -10795   -10797   -10798 
  -10794   -10791   -10795   -10798   -10795   -10795   -10797   -10795 
  -10795   -10794   -10794   -10794   -10793   -10795   -10798   -10797 
  -10795   -10795   -10793   -10794   -10795   -10795   -10795   -10795 
  -10797   -10797   -10794   -10795   -10801   -10801   -10798   -10797 
  -10794   -10793   -10794   -10797   -10795   -10794   -10794   -10793 
  -10791   -10794   -10795   -10795   -10797   -10794   -10794   -10798 
  -10798   -10794   -10793   -10793   -10794   -10795   -10795   -10795 
  -10794   -10795   -10797   -10795   -10794   -10791   -10791   -10791 
  -10794   -10795   -10794   -10793   -10794   -10794   -10794   -10797 
  -10797   -10794   -10791   -10790   -10793   -10795   -10794   -10791 
  -10793   -10793   -10791   -10790   -10790   -10794   -10793   -10790 
  -10790   -10790   -10793   -10797   -10794   -10791   -10793   -10797 
  -10795   -10793   -10791   -10793   -10794   -10797   -10795   -10794 
  -10795   -10794   -10793   -10793   -10793   -10794   -10794   -10794 
  -10795   -10795   -10795   -10794   -10790   -10790   -10795   -10797 
  -10795   -10794   -10794   -10793   -10795   -10797   -10795   -10794 
  -10794   -10797   -10798   -10795   -10794   -10793   -10791   -10794 
  -10795   -10797   -10795   -10793   -10794   -10795   -10795   -10795 
  -10794   -10793   -10794   -10795   -10797   -10794   -10793   -10794 
  -10795   -10793   -10794   -10797   -10794   -10795   -10797   -10793 
  -10791   -10794   -10795   -10795   -10798   -10797   -10794   -10794 
  -10795   -10794   -10793   -10794   -10793   -10793   -10793   -10794 
  -10797   -10797   -10795   -10795   -10794   -10793   -10793   -10794 
  -10794   -10795   -10795   -10794   -10795   -10797   -10798   -10795 
  -10794   -10793   -10794   -10794   -10793   -10794   -10798   -10795 
  -10794   -10798   -10798   -10795   -10794   -10794   -10795   -10797 
  -10797   -10795   -10794   -10793   -10791   -10791   -10795   -10798 
  -10797   -10795   -10794   -10794   -10795   -10795   -10797   -10797 
  -10794   -10794   -10795   -10793   -10793   -10798   -10797   -10793 
  -10790   -10791   -10793   -10793   -10791   -10793   -10794   -10794 
  -10795   -10795   -10793   -10794   -10795   -10794   -10794   -10795 
  -10794   -10793   -10793   -10794   -10797   -10798   -10794   -10791 
  -10794   -10793   -10794   -10798   -10795   -10794   -10795   -10795 
  -10795   -10795   -10794   -10793   -10795   -10797   -10794   -10793 
  -10797   -10800   -10798   -10797   -10797   -10795   -10793   -10791 
  -10793   -10795   -10798   -10797   -10795   -10795   -10794   -10794 
  -10794   -10794   -10793   -10794   -10798   -10801   -10798   -10795 
  -10797   -10797   -10795   -10795   -10798   -10797   -10794   -10795 
  -10794   -10794   -10797   -10795   -10794   -10795   -10797   -10797 
  -10797   -10793   -10793   -10795   -10797   -10795   -10795   -10795 
  -10797   -10795   -10794   -10794   -10793   -10794   -10794   -10791 
  -10793   -10794   -10795   -10795   -10793   -10791   -10793   -10793 
  -10791   -10791   -10790   -10790   -10787   -10778   -10773   -10768 
  -10760   -10759   -10774   -10798   -10820   -10840   -10862   -10874 
  -10878   -10866   -10829   -10775   -10723   -10697   -10714   -10767 
  -10837   -10917   -10991   -11032   -11014   -10925   -10785   -10648 
  -10558   -10505   -10494   -10566   -10732   -10947   -11117   -11124 
  -10905   -10536   -10204   -10079   -10234   -10611   -11025   -11287 
  -11317   -11137   -10855   -10628   -10532   -10551   -10643   -10741 
  -10797   -10813   -10825   -10893   -11044   -11206   -11284   -11267 
  -11207   -11134   -10982   -10674   -10277   -10008   -10088   -10554 
  -11184   -11641   -11685   -11325   -10797   -10376   -10216   -10301 
  -10469   -10554   -10520   -10447   -10474   -10681   -10917   -10951 
  -10746   -10474   -10374   -10574   -10975   -11330   -11419   -11179 
  -10768   -10451   -10397   -10596   -10872   -10990   -10839   -10548 
  -10426   -10723   -11404   -12121   -12433   -12085   -11168   -10085 
   -9390    -9443   -10118   -10951   -11476   -11461   -11072   -10732 
  -10652   -10709   -10701   -10480   -10027    -9643    -9726   -10382 
  -11342   -12128   -12306   -11828   -11088   -10521   -10249   -10112 
   -9976    -9871    -9945   -10315   -10862   -11263   -11352   -11241 
  -11117   -11075   -11095   -11102   -11068   -11032   -11044   -11091 
  -11082   -10937   -10679   -10478   -10554   -10924   -11341   -11530 
  -11423   -11128   -10785   -10520   -10434   -10511   -10611   -10593 
  -10405   -10068    -9701    -9499    -9618   -10096   -10777   -11334 
  -11507   -11279   -10831   -10416   -10230   -10343   -10739   -11263 
  -11638   -11701   -11502   -11126   -10640   -10174    -9911    -9983 
  -10393   -11020   -11669   -12086   -12010   -11406   -10563    -9930 
   -9837   -10245   -10746   -10941   -10794   -10601   -10698   -11153 
  -11705   -11970   -11734   -11082   -10312    -9832    -9923   -10463 
  -11055   -11398   -11381   -11063   -10642   -10296   -10115   -10142 
  -10301   -10430   -10498   -10604   -10794   -11043   -11267   -11322 
  -11164   -10929   -10766   -10736   -10824   -10895   -10840   -10693 
  -10552   -10546   -10766   -11122   -11392   -11407   -11133   -10669 
  -10237   -10073   -10254   -10627   -10971   -11146   -11133   -11033 
  -10959   -10913   -10851   -10739   -10554   -10377   -10377   -10635 
  -11043   -11357   -11373   -11097   -10752   -10596   -10696   -10936 
  -11129   -11105   -10844   -10528   -10365   -10443   -10719   -11024 
  -11186   -11136   -10872   -10450   -10045    -9875   -10062   -10565 
  -11121   -11389   -11248   -10885   -10597   -10550   -10690   -10827 
  -10820   -10697   -10590   -10619   -10813   -11098   -11377   -11587 
  -11674   -11605   -11377   -11011   -10593   -10253   -10112   -10196 
  -10399   -10539   -10504   -10363   -10324   -10511   -10860   -11206 
  -11362   -11218   -10822   -10374   -10083   -10064   -10301   -10693 
  -11097   -11380   -11443   -11261   -10947   -10720   -10700   -10833 
  -10979   -10990   -10852   -10710   -10659   -10665   -10696   -10732 
  -10744   -10768   -10791   -10756   -10750   -10893   -11121   -11313 
  -11385   -11237   -10871   -10459   -10168   -10089   -10230   -10476 
  -10710   -10893   -10975   -10924   -10771   -10581   -10428   -10426 
  -10663   -11071   -11429   -11574   -11529   -11388   -11190   -10897 
  -10519   -10197   -10098   -10260   -10604   -10962   -11117   -10952 
  -10551   -10127    -9922   -10056   -10440   -10895   -11283   -11518 
  -11539   -11338   -10991   -10643   -10451   -10504   -10779   -11186 
  -11580   -11816   -11838   -11630   -11152   -10443    -9717    -9282 
   -9386   -10003   -10767   -11242   -11260   -10960   -10617   -10446 
  -10466   -10555   -10604   -10647   -10840   -11272   -11780   -12040 
  -11855   -11317   -10728   -10353   -10261   -10359   -10516   -10650 
  -10748   -10833   -10860   -10727   -10435   -10170   -10138   -10358 
  -10669   -10895   -10999   -11032   -11049   -11106   -11205   -11263 
  -11200   -11025   -10821   -10675   -10596   -10565   -10574   -10585 
  -10562   -10531   -10542   -10581   -10600   -10601   -10613   -10629 
  -10654   -10723   -10827   -10918   -10956   -10920   -10885   -10948 
  -11065   -11064   -10820   -10369    -9910    -9701    -9896   -10440 
  -11106   -11641   -11869   -11738   -11368   -10975   -10732   -10712 
  -10882   -11146   -11392   -11510   -11408   -11102   -10721   -10399 
  -10200   -10174   -10319   -10543   -10758   -10893   -10895   -10802 
  -10702   -10624   -10552   -10501   -10500   -10551   -10654   -10825 
  -11030   -11172   -11203   -11151   -11063   -10998   -10980   -10993 
  -11001   -10967   -10860   -10687   -10521   -10466   -10527   -10593 
  -10548   -10385   -10206   -10161   -10334   -10674   -11043   -11298 
  -11368   -11291   -11187   -11159   -11191   -11188   -11070   -10835 
  -10551   -10288   -10106   -10062   -10166   -10376   -10646   -10901 
  -11057   -11121   -11155   -11180   -11165   -11071   -10906   -10743 
  -10652   -10651   -10700   -10774   -10891   -11032   -11151   -11184 
  -11057   -10783   -10513   -10409   -10519   -10766   -11005   -11101 
  -11006   -10804   -10655   -10659   -10787   -10953   -11092   -11194 
  -11271   -11291   -11186   -10917   -10551   -10206    -9948    -9837 
   -9906   -10095   -10287   -10384   -10366   -10300   -10312   -10482 
  -10777   -11094   -11354   -11502   -11514   -11412   -11202   -10901 
  -10598   -10395   -10363   -10548   -10879   -11198   -11379   -11364 
  -11180   -10959   -10866   -10970   -11191   -11342   -11265   -10968 
  -10620   -10386   -10335   -10430   -10573   -10678   -10737   -10817 
  -10974   -11149   -11214   -11079   -10810   -10589   -10558   -10674 
  -10779   -10741   -10538   -10278   -10162   -10288   -10547   -10719 
  -10654   -10439   -10319   -10446   -10766   -11101   -11296   -11327 
  -11259   -11148   -11016   -10883   -10768   -10665   -10582   -10586 
  -10705   -10886   -11070   -11227   -11361   -11476   -11529   -11441 
  -11186   -10832   -10489   -10253   -10197   -10314   -10482   -10609 
  -10666   -10639   -10539   -10385   -10188   -10008    -9958   -10108 
  -10431   -10822   -11164   -11368   -11403   -11295   -11083   -10847 
  -10704   -10725   -10902   -11157   -11365   -11418   -11271   -10951 
  -10570   -10280   -10183   -10305   -10561   -10744   -10701   -10454 
  -10176   -10050   -10115   -10270   -10381   -10380   -10303   -10257 
  -10319   -10459   -10516   -10320    -9884    -9391    -9080    -9093 
   -9404    -9848   -10273   -10665   -11102   -11605   -12042   -12209 
  -12025   -11619   -11249   -11191   -11595   -12366   -13193   -13760 
  -13952   -13878   -13757   -13724   -13732   -13603   -13157   -12387 
  -11508   -10804   -10449   -10413   -10531   -10593   -10420    -9925 
   -9174    -8379    -7801    -7626    -7901    -8571    -9481   -10401 
  -11084   -11321   -11043   -10390    -9680    -9279    -9425   -10069 
  -10922   -11615   -11869   -11646   -11145   -10650   -10393   -10465 
  -10774   -11078   -11124   -10845   -10419   -10206   -10542   -11473 
  -12658   -13562   -13729   -12999   -11570    -9918    -8580    -7939 
   -8100    -8901   -10034   -11215   -12283   -13134   -13675   -13802 
  -13412   -12484   -11214    -9936    -8932    -8301    -7944    -7662 
   -7352    -7115    -7173    -7693    -8703   -10029   -11310   -12222 
  -12668   -12727   -12582   -12433   -12379   -12360   -12267   -12054 
  -11763   -11454   -11159   -10913   -10791   -10912   -11357   -12063 
  -12746   -13028   -12629   -11523    -9981    -8441    -7264    -6604 
   -6459    -6768    -7456    -8444    -9601   -10694   -11433   -11595 
  -11219   -10613   -10203   -10331   -11086   -12294   -13635   -14754 
  -15376   -15346   -14651   -13467   -12117   -10967   -10262    -9972 
   -9819    -9489    -8814    -7875    -6956    -6397    -6467    -7246 
   -8568   -10083   -11419   -12330   -12769   -12835   -12663   -12334 
  -11888   -11388   -10956   -10663   -10536   -10596   -10849   -11315 
  -11965   -12646   -13131   -13236   -12927   -12347   -11705   -11153 
  -10748   -10481   -10318   -10255   -10284   -10305   -10185    -9830 
   -9223    -8464    -7739    -7261    -7254    -7865    -9065   -10679 
  -12379   -13737   -14442   -14422   -13832   -12966   -12105   -11362 
  -10662    -9902    -9124    -8534    -8371    -8762    -9640   -10748 
  -11785   -12525   -12887   -12915   -12694   -12282   -11703   -11017 
  -10363    -9913    -9768    -9892   -10111   -10246   -10249   -10231 
  -10374   -10764   -11318   -11850   -12159   -12112   -11705   -11061 
  -10369    -9842    -9626    -9705    -9898    -9956    -9717    -9215 
   -8692    -8540    -9018   -10058   -11327   -12424   -13078   -13248 
  -13019   -12496   -11774   -10960   -10234    -9813    -9819   -10222 
  -10844   -11462   -11943   -12312   -12676   -13100   -13524   -13753 
  -13583   -12949   -11983   -10921    -9979    -9258    -8731    -8311 
   -7962    -7736    -7735    -7994    -8422    -8853    -9193    -9462 
   -9722   -10069   -10558   -11113   -11564   -11749   -11568   -11053 
  -10373    -9760    -9436    -9499    -9904   -10524   -11209   -11859 
  -12484   -13116   -13749   -14283   -14530   -14305   -13525   -12262 
  -10770    -9412    -8484    -8118    -8262    -8769    -9499   -10299 
  -10986   -11389   -11380   -10948   -10257    -9601    -9263    -9370 
   -9828   -10397   -10847   -11049   -11021   -10867   -10709   -10631 
  -10677   -10844   -11097   -11395   -11734   -12137   -12625   -13162 
  -13593   -13649   -13092   -11882   -10274    -8712    -7612    -7175 
   -7346    -7928    -8708    -9566   -10486   -11488   -12490   -13301 
  -13705   -13555   -12853   -11778   -10627    -9687    -9111    -8916 
   -9055    -9463   -10081   -10805   -11472   -11905   -11975   -11657 
  -11070   -10453   -10052    -9984   -10231   -10666   -11090   -11342 
  -11354   -11132   -10801   -10620   -10822   -11489   -12496   -13543 
  -14310   -14607   -14395   -13721   -12669   -11304    -9734    -8170 
   -6875    -6053    -5780    -6003    -6575    -7353    -8272    -9283 
  -10297   -11210   -11921   -12397   -12664   -12769   -12744   -12587 
  -12279   -11846   -11369   -10980   -10820   -10966   -11375   -11921 
  -12430   -12737   -12731   -12345   -11577   -10519    -9355    -8341 
   -7724    -7591    -7811    -8131    -8326    -8306    -8147    -8082 
   -8360    -9069   -10104   -11259   -12326   -13165   -13703   -13913 
  -13768   -13300   -12615   -11890   -11292   -10909   -10721   -10662 
  -10683   -10774   -10932   -11102   -11183   -11103   -10863   -10546 
  -10319   -10353   -10748   -11476   -12348   -13065   -13332   -12972 
  -12016   -10712    -9429    -8491    -8067    -8143    -8600    -9317 
  -10207   -11180   -12089   -12761   -13077   -12996   -12549   -11843 
  -11044   -10336    -9879    -9776   -10035   -10540   -11128   -11662 
  -12047   -12222   -12150   -11815   -11244   -10531    -9819    -9258 
   -8949    -8939    -9189    -9578    -9968   -10276   -10470   -10578 
  -10643   -10696   -10748   -10804   -10870   -10939   -10990   -10997 
  -10959   -10916   -10935   -11018   -11103   -11083   -10851   -10374 
   -9761    -9232    -9027    -9290    -9981   -10883   -11704   -12206 
  -12295   -12015   -11487   -10854   -10237    -9760    -9563    -9761 
  -10376   -11267   -12174   -12854   -13158   -13072   -12704   -12229 
  -11803   -11493   -11280   -11088   -10870   -10629   -10417   -10276 
  -10203   -10166   -10130   -10072    -9991    -9913    -9865    -9859 
   -9886    -9936    -9983   -10004    -9973    -9841    -9602    -9358 
   -9267    -9466    -9985   -10729   -11516   -12143   -12475   -12496 
  -12279   -11955   -11655   -11466   -11408   -11415   -11372   -11188 
  -10864   -10493   -10218   -10126   -10233   -10473   -10728   -10891 
  -10910   -10771   -10489   -10114    -9737    -9463    -9367    -9490 
   -9802   -10199   -10574   -10851   -11014   -11136   -11318   -11597 
  -11919   -12171   -12249   -12086   -11699   -11186   -10665   -10241 
   -9990    -9911    -9949   -10044   -10135   -10192   -10245   -10346 
  -10535   -10813   -11138   -11438   -11641   -11708   -11638   -11466 
  -11263   -11109   -11084   -11234   -11515   -11793   -11902   -11728 
  -11259   -10608    -9984    -9580    -9470    -9587    -9810   -10038 
  -10230   -10420   -10677   -11029   -11449   -11835   -12060   -12036 
  -11757   -11315   -10855   -10500   -10318   -10293   -10357   -10436 
  -10459   -10389   -10260   -10141   -10112   -10216   -10438   -10739 
  -11080   -11437   -11794   -12096   -12241   -12151   -11797   -11210 
  -10477    -9740    -9157    -8846    -8865    -9177    -9647   -10146 
  -10586   -10905   -11097   -11173   -11142   -11028   -10858   -10665 
  -10508   -10454   -10536   -10754   -11070   -11414   -11712   -11900 
  -11956   -11900   -11776   -11634   -11499   -11364   -11210   -11036 
  -10875   -10763   -10736   -10824   -11003   -11195   -11321   -11325 
  -11211   -11063   -10978   -11014   -11149   -11277   -11269   -11037 
  -10598   -10060    -9547    -9147    -8899    -8796    -8822    -8966 
   -9221    -9583   -10038   -10571   -11169   -11805   -12434   -12982 
  -13348   -13435   -13204   -12695   -12019   -11306   -10652   -10110 
   -9702    -9444    -9348    -9432    -9694   -10106   -10598   -11083 
  -11472   -11701   -11763   -11704   -11570   -11399   -11210   -10990 
  -10713   -10382   -10037    -9732    -9533    -9471    -9512    -9591 
   -9651    -9649    -9609    -9612    -9744   -10042   -10484   -10999 
  -11503   -11912   -12167   -12235   -12096   -11758   -11271   -10724 
  -10218    -9840    -9659    -9697    -9913   -10246   -10611   -10906 
  -11088   -11186   -11257   -11372   -11566   -11824   -12086   -12267 
  -12282   -12078   -11654   -11097   -10551   -10162    -9996   -10025 
  -10154   -10282   -10345   -10326   -10254   -10162   -10061    -9945 
   -9801    -9661    -9599    -9701   -10019   -10535   -11144   -11718 
  -12133   -12313   -12221   -11874   -11345   -10746   -10189    -9798 
   -9659    -9788   -10150   -10671   -11242   -11758   -12136   -12322 
  -12299   -12097   -11786   -11431   -11090   -10825   -10673   -10636 
  -10686   -10752   -10746   -10621   -10415   -10223   -10150   -10255 
  -10523   -10871   -11203   -11434   -11514   -11442   -11240   -10943 
  -10617   -10330   -10147   -10130   -10274   -10544   -10875   -11179 
  -11391   -11492   -11489   -11391   -11198   -10928   -10631   -10354 
  -10114    -9910    -9732    -9593    -9549    -9668    -9988   -10486 
  -11059   -11562   -11880   -11967   -11865   -11627   -11292   -10891 
  -10457   -10048    -9724    -9545    -9558    -9747   -10079   -10515 
  -11006   -11515   -12000   -12364   -12507   -12374   -11975   -11394 
  -10755   -10185    -9765    -9516    -9416    -9431    -9522    -9684 
   -9926   -10260   -10696   -11209   -11736   -12213   -12577   -12766 
  -12745   -12499   -12036   -11396   -10650    -9898    -9250    -8792 
   -8569    -8581    -8789    -9123    -9504    -9864   -10154   -10372 
  -10543   -10702   -10893   -11129   -11380   -11603   -11751   -11808 
  -11794   -11758   -11736   -11732   -11711   -11631   -11480   -11267 
  -11018   -10758   -10484   -10192    -9895    -9639    -9508    -9567 
   -9823   -10253   -10778   -11291   -11696   -11915   -11916   -11726 
  -11408   -11044   -10710   -10443   -10251   -10130   -10081   -10127 
  -10291   -10570   -10903   -11209   -11427   -11542   -11588   -11639 
  -11746   -11902   -12062   -12144   -12105   -11950   -11708   -11410 
  -11065   -10694   -10335   -10026    -9790    -9633    -9539    -9505 
   -9551    -9701    -9963   -10300   -10648   -10949   -11152   -11211 
  -11122   -10917   -10655   -10407   -10250   -10253   -10426   -10714 
  -11020   -11267   -11441   -11558   -11622   -11624   -11547   -11387 
