Origin Time       2025/03/30 22:55:00
Lat.              41.993
Long.             142.725
Depth. (km)       55
Mag.              4.6
Station Code      HDKH07
Station Lat.      42.1330
Station Long.     142.9164
Station Height(m) -61
Record Time       2025/03/30 22:56:07
Sampling Freq(Hz) 100Hz
Duration Time(s)  120
Dir.              3
Scale Factor      2942(gal)/8224139
Max. Acc. (gal)   1.241
Last Correction   2025/03/30 22:56:07
Memo.             
[...]
   94201    94201    94197    94197    94203    94203    94198    94198 
   94198    94198    94201    94200    94197    94200    94198    94197 
   94198    94198    94198    94197    94197    94197    94197    94196 
   94197    94200    94198    94198    94201    94198    94197    94198 
   94196    94193    94198    94200    94197    94197    94198    94197 
   94197    94197    94196    94197    94198    94198    94197    94197 
   94197    94198    94200    94198    94196    94194    94193    94196 
   94197    94197    94200    94198    94198    94198    94198    94198 
   94196    94197    94200    94200    94198    94197    94198    94200 
   94198    94197    94197    94198    94198    94198    94198    94200 
   94198    94198    94200    94200    94198    94198    94200    94200 
   94198    94197    94200    94200    94197    94197    94198    94198 
   94198    94198    94198    94200    94201    94201    94201    94198 
   94197    94200    94201    94200    94201    94201    94198    94197 
   94198    94200    94200    94201    94201    94200    94198    94201 
   94200    94198    94200    94203    94201    94200    94201    94201 
   94198    94200    94200    94200    94204    94204    94198    94198 
   94203    94201    94200    94203    94201    94200    94200    94200 
   94201    94200    94198    94200    94200    94198    94197    94200 
   94201    94198    94198    94200    94201    94200    94200    94200 
   94200    94203    94203    94198    94198    94203    94203    94203 
   94205    94203    94201    94201    94201    94201    94204    94203 
   94201    94203    94203    94203    94203    94203    94203    94203 
   94204    94204    94201    94203    94201    94198    94201    94203 
   94201    94203    94203    94201    94203    94203    94201    94200 
   94203    94204    94200    94200    94203    94203    94203    94204 
   94203    94203    94203    94201    94201    94203    94203    94203 
   94201    94201    94203    94203    94203    94201    94201    94203 
   94204    94204    94204    94201    94200    94200    94204    94204 
   94201    94201    94201    94200    94198    94200    94201    94203 
   94203    94203    94201    94201    94201    94198    94197    94201 
   94203    94204    94203    94198    94198    94201    94201    94200 
   94200    94201    94201    94200    94201    94201    94200    94203 
   94204    94203    94203    94201    94200    94203    94203    94200 
   94198    94200    94203    94204    94203    94198    94197    94198 
   94200    94201    94201    94201    94200    94200    94204    94201 
   94198    94200    94201    94201    94201    94201    94201    94201 
   94201    94201    94200    94200    94203    94204    94201    94198 
   94200    94204    94203    94200    94201    94200    94197    94200 
   94201    94201    94200    94200    94201    94203    94201    94203 
   94203    94200    94201    94203    94200    94201    94204    94201 
   94198    94200    94200    94201    94203    94203    94200    94198 
   94200    94203    94201    94201    94204    94203    94197    94198 
   94201    94200    94200    94200    94198    94200    94198    94197 
   94200    94200    94197    94197    94203    94203    94200    94198 
   94197    94197    94200    94203    94203    94203    94203    94200 
   94200    94201    94201    94201    94201    94203    94201    94198 
   94200    94201    94203    94201    94198    94200    94201    94200 
   94198    94198    94198    94200    94198    94197    94200    94200 
   94198    94200    94201    94201    94201    94201    94200    94200 
   94200    94200    94200    94203    94203    94201    94201    94201 
   94201    94201    94200    94200    94203    94203    94200    94200 
   94201    94203    94203    94200    94200    94201    94203    94203 
   94203    94203    94203    94203    94201    94201    94200    94201 
   94203    94204    94203    94200    94201    94203    94200    94201 
   94201    94198    94201    94203    94201    94198    94200    94201 
   94200    94200    94201    94201    94200    94200    94201    94201 
   94203    94203    94198    94200    94203    94203    94203    94200 
   94200    94204    94204    94200    94198    94201    94203    94200 
   94200    94200    94200    94201    94201    94200    94198    94201 
   94203    94200    94200    94203    94205    94205    94203    94200 
   94200    94198    94198    94203    94205    94204    94203    94201 
   94201    94200    94200    94201    94201    94201    94200    94201 
   94204    94203    94203    94203    94200    94201    94205    94205 
   94200    94200    94201    94201    94201    94203    94204    94203 
   94204    94204    94203    94203    94201    94201    94203    94204 
   94203    94201    94201    94203    94203    94201    94203    94201 
   94200    94200    94200    94201    94201    94200    94198    94201 
   94201    94200    94201    94200    94198    94200    94201    94200 
   94201    94200    94201    94204    94203    94200    94200    94198 
   94198    94200    94200    94201    94200    94200    94200    94201 
   94201    94200    94197    94198    94200    94198    94200    94204 
   94200    94197    94200    94201    94198    94198    94200    94200 
   94201    94201    94200    94197    94198    94201    94201    94200 
   94196    94197    94203    94204    94201    94198    94200    94203 
   94201    94201    94200    94200    94200    94200    94200    94201 
   94203    94204    94203    94201    94203    94201    94201    94205 
   94204    94203    94205    94204    94204    94205    94201    94200 
   94203    94204    94203    94201    94201    94204    94204    94204 
   94204    94203    94201    94204    94204    94204    94204    94205 
   94203    94200    94200    94201    94200    94198    94201    94205 
   94204    94201    94204    94204    94200    94200    94201    94201 
   94201    94203    94201    94200    94203    94203    94198    94198 
   94204    94205    94200    94198    94200    94201    94203    94201 
   94198    94200    94201    94200    94198    94200    94198    94198 
   94201    94200    94196    94198    94198    94197    94197    94197 
   94197    94198    94198    94196    94196    94198    94198    94196 
   94194    94197    94200    94198    94196    94197    94200    94201 
   94197    94196    94198    94198    94197    94197    94198    94200 
   94200    94198    94198    94198    94197    94197    94201    94201 
   94198    94198    94198    94198    94198    94198    94198    94200 
   94200    94198    94197    94197    94197    94197    94197    94197 
   94198    94200    94198    94197    94197    94197    94197    94197 
   94197    94197    94198    94198    94196    94196    94197    94197 
   94197    94200    94200    94197    94198    94201    94200    94198 
   94197    94198    94201    94200    94197    94201    94201    94198 
   94200    94201    94198    94197    94200    94203    94200    94198 
   94200    94200    94198    94200    94200    94200    94201    94200 
   94200    94200    94200    94200    94201    94203    94200    94198 
   94200    94203    94204    94201    94200    94201    94203    94201 
   94201    94201    94203    94203    94203    94201    94201    94203 
   94201    94200    94201    94203    94204    94205    94205    94204 
   94204    94203    94201    94204    94204    94201    94203    94204 
   94204    94203    94204    94203    94203    94203    94201    94201 
   94204    94205    94203    94200    94201    94205    94207    94205 
   94205    94205    94204    94204    94204    94204    94204    94203 
   94201    94201    94204    94203    94200    94204    94204    94201 
   94204    94205    94204    94204    94203    94201    94204    94205 
   94203    94201    94204    94204    94201    94203    94203    94204 
   94205    94204    94203    94204    94203    94201    94201    94203 
   94203    94200    94200    94201    94203    94204    94203    94200 
   94201    94204    94201    94203    94203    94200    94200    94201 
   94201    94203    94203    94201    94201    94203    94203    94201 
   94200    94201    94203    94200    94198    94198    94197    94198 
   94198    94198    94200    94200    94198    94200    94201    94198 
   94196    94197    94200    94201    94200    94197    94198    94203 
   94200    94196    94198    94201    94197    94197    94201    94201 
   94200    94198    94198    94200    94198    94196    94197    94198 
   94194    94193    94196    94196    94194    94198    94200    94198 
   94200    94198    94197    94200    94198    94196    94197    94200 
   94201    94198    94197    94197    94200    94200    94200    94200 
   94197    94197    94198    94197    94196    94198    94200    94200 
   94201    94198    94200    94201    94197    94198    94200    94198 
   94198    94200    94200    94201    94203    94203    94200    94198 
   94200    94200    94200    94201    94201    94201    94200    94200 
   94198    94200    94203    94200    94197    94198    94200    94198 
   94200    94201    94200    94198    94200    94200    94198    94198 
   94200    94200    94198    94198    94198    94198    94198    94198 
   94200    94198    94200    94201    94198    94198    94198    94198 
   94198    94198    94197    94200    94201    94200    94198    94200 
   94201    94200    94198    94201    94200    94197    94198    94198 
   94197    94197    94198    94200    94200    94198    94197    94198 
   94198    94200    94201    94200    94197    94201    94205    94203 
   94198    94197    94197    94196    94198    94201    94200    94204 
   94203    94198    94198    94200    94200    94200    94200    94201 
   94201    94203    94204    94201    94201    94203    94204    94205 
   94204    94201    94203    94204    94205    94204    94204    94204 
   94204    94204    94203    94200    94200    94201    94200    94201 
   94204    94205    94204    94204    94204    94203    94204    94204 
   94203    94203    94201    94198    94200    94203    94204    94203 
   94201    94203    94203    94201    94204    94203    94200    94201 
   94203    94203    94203    94203    94203    94203    94201    94203 
   94203    94201    94203    94205    94203    94201    94203    94204 
   94201    94201    94204    94203    94201    94203    94201    94200 
   94203    94203    94203    94200    94200    94203    94203    94201 
   94201    94201    94201    94203    94201    94203    94203    94201 
   94201    94201    94200    94201    94203    94203    94200    94200 
   94200    94201    94203    94201    94201    94201    94203    94204 
   94204    94203    94203    94203    94200    94198    94200    94204 
   94201    94198    94200    94200    94201    94203    94200    94200 
   94201    94201    94200    94201    94201    94203    94203    94200 
   94198    94198    94198    94198    94201    94203    94200    94201 
   94201    94201    94201    94200    94198    94198    94201    94201 
   94203    94204    94201    94200    94200    94200    94198    94198 
   94201    94203    94198    94200    94203    94201    94200    94201 
   94200    94198    94197    94197    94200    94198    94198    94198 
   94198    94200    94200    94197    94197    94200    94198    94198 
   94197    94194    94196    94197    94198    94200    94198    94198 
   94200    94198    94197    94197    94196    94196    94197    94198 
   94197    94198    94200    94200    94198    94200    94200    94200 
   94198    94197    94198    94198    94198    94198    94201    94201 
   94198    94197    94198    94198    94198    94198    94200    94201 
   94201    94201    94198    94197    94200    94200    94200    94200 
   94200    94198    94198    94201    94201    94200    94197    94194 
   94197    94200    94200    94198    94198    94200    94203    94201 
   94198    94200    94201    94201    94201    94200    94198    94198 
   94200    94198    94200    94201    94200    94200    94200    94200 
   94201    94200    94198    94198    94198    94200    94200    94198 
   94198    94198    94196    94194    94197    94198    94198    94200 
   94200    94197    94196    94196    94196    94198    94200    94198 
   94197    94200    94200    94200    94201    94200    94200    94200 
   94198    94197    94200    94198    94197    94200    94201    94201 
   94201    94200    94200    94201    94201    94201    94203    94203 
   94201    94198    94201    94201    94203    94203    94201    94203 
   94204    94203    94200    94201    94203    94203    94200    94198 
   94200    94203    94204    94203    94201    94200    94201    94200 
   94200    94203    94203    94201    94201    94201    94201    94201 
   94201    94201    94203    94201    94200    94201    94203    94200 
   94200    94204    94207    94209    94213    94225    94247    94274 
   94319    94379    94444    94497    94531    94540    94524    94483 
   94433    94402    94419    94487    94608    94763    94895    94965 
   94979    94940    94837    94640    94292    93876    93636    93725 
   94063    94451    94748    94963    95035    94684    93796    92784 
   92240    92385    92974    93548    93872    94189    94774    95323 
   95141    94039    92631    91687    91586    92105    92803    93816 
   95215    96317    96655    96310    95384    94142    92950    92016 
   91586    91987    93367    95323    96965    97669    97428    96481 
   95191    93856    92620    91766    91538    91963    92940    94223 
   95555    96508    96385    95204    93879    92955    92318    91902 
   91932    92659    93768    94597    95129    95673    95858    95251 
   94252    93348    92533    91937    92259    93872    95774    96695 
   96597    95762    94312    92977    92519    92978    93781    94270 
   94501    94967    95490    95432    94744    94055    93785    93726 
   93703    93860    94109    94412    94813    94826    94201    93455 
   93029    93132    93710    94247    94436    94425    94185    93812 
   93741    93926    94038    94244    94736    95049    94640    93942 
   93853    94441    95089    95258    94896    94583    94782    95095 
   94925    94224    93488    93437    94116    94755    94787    94259 
   93765    93777    93799    93495    93599    94354    94845    94440 
   93707    93592    94135    94568    94509    94266    94103    93992 
   93972    94065    94224    94455    94621    94614    94521    94419 
   94410    94393    94200    94099    94051    93641    93366    93833 
   94456    94606    94421    94297    94428    94490    94171    93719 
   93429    93438    93765    94123    94223    94085    93861    93772 
   93991    94398    94848    95138    94783    93884    93449    93937 
   94605    94857    94991    95175    95102    94903    94900    94841 
   94541    94184    93769    93522    93815    94289    94524    94636 
   94514    93974    93355    92974    92931    93426    94209    94645 
   94683    94433    93803    93287    93515    94261    94915    95123 
   94799    94279    94003    93927    93777    93592    93634    94046 
   94653    95073    95060    94668    94228    94190    94539    94636 
   94059    93194    92932    93696    94748    95126    94868    94590 
   94514    94421    94153    93818    93640    93673    93749    93727 
   93737    94019    94441    94540    94189    93880    94061    94463 
   94655    94730    94783    94605    94192    93707    93299    93302 
   93899    94595    94825    94803    94890    94826    94313    93529 
   93101    93434    94031    94409    94815    95322    95567    95412 
   94950    94304    93652    93294    93544    94151    94512    94693 
   94936    94832    94248    93742    93498    93156    92862    93154 
   93773    94112    94371    94730    94748    94263    93702    93467 
   93491    93681    94201    94730    94803    94586    94250    93885 
   93864    94130    94211    93973    93471    93172    93676    94250 
   94135    94203    94811    95004    94587    94173    93895    93815 
   94238    94891    95160    94919    94471    94347    94652    94716 
   94386    94188    94119    94003    94124    94446    94363    93823 
   93545    93819    94207    94294    94066    93873    93999    94240 
   94279    94061    93663    93344    93528    94103    94338    94134 
   94081    94186    94130    94072    94163    94132    93762    93390 
   93594    94450    95230    95146    94363    93718    93798    94508 
   95098    95141    95033    94864    94451    94117    93953    93760 
   93815    94236    94684    94952    94884    94490    94190    94171 
   94109    93916    93881    94014    94221    94610    94967    94903 
   94385    93725    93405    93517    93671    93765    94014    94302 
   94336    94266    94429    94648    94446    93760    93195    93366 
   94124    94872    95301    95393    95193    94872    94450    93841 
   93387    93409    93636    93721    93710    93842    94273    94788 
   94878    94437    93887    93434    93058    92951    93236    93691 
   93993    93969    93888    94189    94641    94729    94541    94378 
   94290    94246    94217    94285    94516    94714    94690    94585 
   94567    94643    94849    94976    94663    94093    93660    93482 
   93587    93864    94220    94668    94954    94968    94930    94811 
   94554    94209    93746    93361    93306    93583    94089    94522 
   94645    94541    94327    94171    94139    94012    93815    93768 
   93808    93838    93874    94008    94308    94464    94157    93640 
   93474    93896    94481    94740    94702    94481    94247    94263 
   94323    94085    93737    93634    93831    94147    94450    94693 
   94775    94776    94890    94990    94887    94554    94020    93583 
   93518    93727    94111    94552    94633    94254    93934    93908 
   93916    93892    93922    93926    93839    93768    93854    94093 
   94354    94427    94186    93945    94082    94408    94644    94855 
   94987    94902    94706    94389    93874    93530    93718    94196 
   94568    94738    94744    94566    94159    93631    93156    92790 
   92713    93155    93802    94189    94428    94640    94635    94479 
   94332    94113    93823    93677    93879    94358    94819    94987 
   94751    94409    94351    94451    94458    94371    94261    94312 
   94535    94609    94548    94626    94678    94490    94292    94136 
   93881    93748    93896    94103    94305    94732    95335    95543 
   94923    93923    93403    93668    94232    94424    94113    93750 
   93833    94437    95058    95099    94487    93665    93093    92934 
   93089    93336    93600    93993    94423    94640    94671    94652 
   94474    94041    93590    93399    93509    93895    94497    94976 
   94957    94576    94328    94336    94315    94107    93885    93853 
   93960    94147    94413    94636    94801    94915    94826    94651 
   94711    94940    94926    94479    93982    93881    94016    94103 
   94123    94003    93775    93695    93820    93989    94139    94250 
   94333    94567    94864    94790    94266    93675    93364    93488 
   93893    94194    94267    94340    94506    94576    94467    94324 
