Origin Time       2025/03/30 22:55:00
Lat.              41.993
Long.             142.725
Depth. (km)       55
Mag.              4.6
Station Code      HDKH04
Station Lat.      42.5126
Station Long.     142.0381
Station Height(m) 10
Record Time       2025/03/30 22:56:14
Sampling Freq(Hz) 100Hz
Duration Time(s)  120
Dir.              5
Scale Factor      7845(gal)/8223790
Max. Acc. (gal)   0.777
Last Correction   2025/03/30 22:56:14
Memo.             
[...]
   -3746    -3742    -3777    -3838    -3905    -3943    -3946    -3948 
   -3964    -3986    -3998    -3964    -3888    -3809    -3767    -3758 
   -3763    -3796    -3867    -3956    -4041    -4101    -4118    -4106 
   -4102    -4117    -4131    -4091    -3979    -3834    -3723    -3688 
   -3730    -3801    -3865    -3902    -3920    -3932    -3942    -3946 
   -3929    -3871    -3789    -3742    -3754    -3813    -3901    -3975 
   -4016    -4050    -4067    -4029    -3959    -3900    -3867    -3859 
   -3856    -3850    -3855    -3879    -3946    -4064    -4171    -4183 
   -4081    -3890    -3701    -3634    -3694    -3782    -3823    -3797 
   -3743    -3731    -3785    -3881    -3973    -4023    -4052    -4104 
   -4160    -4180    -4117    -3959    -3785    -3694    -3719    -3832 
   -3967    -4055    -4075    -4032    -3921    -3770    -3634    -3546 
   -3550    -3674    -3861    -4017    -4091    -4067    -3971    -3886 
   -3881    -3940    -3987    -3989    -3973    -3969    -3983    -4009 
   -4035    -4064    -4078    -4036    -3952    -3870    -3796    -3738 
   -3732    -3794    -3893    -3982    -4018    -3979    -3885    -3794 
   -3748    -3728    -3735    -3788    -3878    -3987    -4095    -4151 
   -4101    -3958    -3794    -3703    -3747    -3902    -4050    -4091 
   -4043    -3985    -3959    -3952    -3940    -3916    -3893    -3897 
   -3935    -3979    -3986    -3929    -3829    -3762    -3802    -3937 
   -4078    -4124    -4058    -3935    -3835    -3808    -3821    -3816 
   -3789    -3769    -3785    -3848    -3929    -4002    -4040    -4029 
   -4004    -3996    -3997    -3998    -3986    -3946    -3898    -3877 
   -3878    -3865    -3823    -3770    -3721    -3701    -3732    -3811 
   -3908    -3978    -3970    -3902    -3827    -3782    -3811    -3910 
   -4045    -4191    -4297    -4297    -4176    -3982    -3785    -3653 
   -3618    -3707    -3905    -4106    -4194    -4148    -4027    -3898 
   -3812    -3785    -3804    -3850    -3904    -3931    -3905    -3839 
   -3788    -3801    -3885    -3994    -4056    -4036    -3943    -3835 
   -3778    -3774    -3802    -3866    -3943    -4025    -4098    -4117 
   -4044    -3925    -3834    -3800    -3793    -3767    -3719    -3678 
   -3657    -3661    -3708    -3807    -3919    -3994    -4013    -3974 
   -3889    -3794    -3738    -3758    -3869    -4024    -4143    -4167 
   -4104    -4008    -3936    -3923    -3985    -4087    -4175    -4213 
   -4158    -3998    -3813    -3686    -3646    -3697    -3842    -4013 
   -4116    -4120    -4051    -3940    -3842    -3793    -3781    -3793 
   -3819    -3832    -3835    -3854    -3878    -3897    -3932    -3967 
   -3975    -3955    -3912    -3869    -3862    -3905    -3975    -4037 
   -4071    -4064    -4018    -3943    -3866    -3832    -3856    -3908 
   -3947    -3925    -3835    -3754    -3738    -3777    -3859    -4000 
   -4153    -4226    -4195    -4102    -3986    -3875    -3807    -3798 
   -3840    -3912    -3958    -3931    -3844    -3738    -3680    -3738 
   -3879    -4002    -4037    -3963    -3823    -3735    -3788    -3919 
   -4006    -4020    -3994    -3982    -4014    -4050    -4014    -3928 
   -3862    -3836    -3851    -3888    -3902    -3875    -3850    -3881 
   -3967    -4067    -4128    -4116    -4025    -3892    -3763    -3681 
   -3663    -3693    -3738    -3784    -3827    -3850    -3819    -3732 
   -3642    -3604    -3663    -3834    -4055    -4222    -4268    -4189 
   -4021    -3835    -3709    -3697    -3794    -3951    -4102    -4217 
   -4271    -4222    -4098    -4036    -4090    -4190    -4279    -4344 
   -4379    -4359    -4245    -4052    -3854    -3738    -3735    -3774 
   -3774    -3717    -3616    -3504    -3473    -3568    -3728    -3862 
   -3894    -3852    -3805    -3784    -3784    -3790    -3786    -3755 
   -3711    -3700    -3743    -3813    -3869    -3889    -3877    -3848 
   -3811    -3765    -3704    -3661    -3704    -3852    -4040    -4190 
   -4248    -4213    -4131    -4068    -4082    -4170    -4264    -4272 
   -4156    -3971    -3829    -3794    -3836    -3894    -3927    -3896 
   -3812    -3743    -3738    -3781    -3839    -3896    -3952    -4000 
   -4025    -4001    -3894    -3747    -3669    -3708    -3836    -3998 
   -4118    -4148    -4109    -4056    -4064    -4156    -4266    -4291 
   -4190    -4001    -3800    -3638    -3547    -3547    -3642    -3808 
   -4002    -4164    -4213    -4128    -3974    -3836    -3784    -3834 
   -3920    -3948    -3874    -3769    -3747    -3825    -3939    -4027 
   -4050    -3986    -3874    -3774    -3709    -3693    -3734    -3797 
   -3855    -3874    -3842    -3794    -3738    -3638    -3524    -3442 
   -3396    -3414    -3524    -3685    -3834    -3936    -3982    -3991 
   -3987    -3986    -3990    -3996    -4008    -4024    -4040    -4075 
   -4117    -4122    -4079    -4013    -3977    -4002    -4101    -4251 
   -4368    -4394    -4359    -4306    -4278    -4299    -4330    -4317 
   -4251    -4133    -3987    -3871    -3811    -3794    -3836    -3924 
   -3987    -4000    -3958    -3852    -3723    -3605    -3469    -3310 
   -3187    -3129    -3137    -3241    -3445    -3723    -4013    -4197 
   -4222    -4144    -4027    -3898    -3765    -3616    -3478    -3427 
   -3503    -3688    -3928    -4143    -4271    -4321    -4326    -4314 
   -4283    -4241    -4205    -4180    -4175    -4172    -4128    -4002 
   -3794    -3541    -3314    -3194    -3233    -3416    -3682    -3963 
   -4170    -4239    -4212    -4148    -4082    -4060    -4106    -4193 
   -4272    -4275    -4166    -3991    -3827    -3721    -3707    -3789 
   -3939    -4083    -4160    -4163    -4117    -4033    -3947    -3931 
   -3982    -4025    -4020    -3950    -3820    -3704    -3701    -3827 
   -3994    -4099    -4093    -3977    -3785    -3568    -3376    -3252 
   -3223    -3287    -3427    -3627    -3842    -4005    -4095    -4129 
   -4122    -4101    -4078    -4074    -4113    -4155    -4125    -4014 
   -3875    -3785    -3800    -3910    -4054    -4151    -4158    -4075 
   -3950    -3852    -3831    -3879    -3956    -4031    -4090    -4137 
   -4187    -4221    -4190    -4093    -3989    -3915    -3879    -3877 
   -3850    -3753    -3596    -3418    -3289    -3291    -3422    -3624 
   -3829    -3985    -4081    -4125    -4136    -4141    -4132    -4078 
   -3997    -3929    -3898    -3943    -4082    -4267    -4414    -4440 
   -4310    -4082    -3856    -3724    -3732    -3858    -4032    -4172 
   -4207    -4126    -3962    -3781    -3667    -3663    -3757    -3882 
   -3946    -3901    -3774    -3622    -3534    -3586    -3769    -3996 
   -4160    -4190    -4083    -3905    -3751    -3699    -3746    -3840 
   -3924    -3951    -3902    -3796    -3690    -3661    -3736    -3901 
   -4095    -4244    -4280    -4166    -3931    -3693    -3565    -3589 
   -3720    -3852    -3889    -3812    -3672    -3550    -3534    -3665 
   -3901    -4143    -4324    -4403    -4359    -4233    -4097    -3983 
   -3916    -3892    -3873    -3851    -3836    -3844    -3886    -3924 
   -3925    -3898    -3871    -3852    -3828    -3815    -3851    -3932 
   -4043    -4172    -4293    -4379    -4387    -4286    -4120    -3948 
   -3817    -3777    -3809    -3834    -3801    -3724    -3619    -3526 
   -3541    -3701    -3933    -4159    -4301    -4283    -4108    -3839 
   -3586    -3478    -3561    -3762    -3960    -4041    -3954    -3766 
   -3577    -3453    -3439    -3537    -3685    -3851    -3994    -4074 
   -4126    -4168    -4158    -4137    -4164    -4179    -4121    -4009 
   -3871    -3740    -3682    -3732    -3862    -4012    -4122    -4144 
   -4075    -3981    -3912    -3878    -3882    -3913    -3937    -3937 
   -3910    -3843    -3751    -3672    -3650    -3727    -3894    -4066 
   -4137    -4059    -3870    -3672    -3585    -3676    -3908    -4172 
   -4345    -4333    -4136    -3883    -3738    -3757    -3894    -4077 
   -4220    -4237    -4135    -3994    -3871    -3792    -3775    -3780 
   -3753    -3723    -3739    -3770    -3778    -3785    -3790    -3758 
   -3721    -3740    -3778    -3790    -3796    -3832    -3906    -4002 
   -4104    -4168    -4131    -3970    -3751    -3576    -3523    -3646 
   -3940    -4307    -4603    -4715    -4610    -4349    -4056    -3835 
   -3734    -3753    -3839    -3932    -3975    -3915    -3775    -3636 
   -3573    -3636    -3780    -3905    -3981    -4006    -4005    -4036 
   -4121    -4229    -4314    -4303    -4140    -3882    -3650    -3557 
   -3649    -3873    -4087    -4158    -4056    -3855    -3655    -3539 
   -3522    -3573    -3681    -3838    -3983    -4025    -3904    -3659 
   -3415    -3295    -3375    -3632    -3943    -4166    -4248    -4209 
   -4066    -3871    -3708    -3636    -3699    -3888    -4135    -4380 
   -4573    -4656    -4588    -4371    -4048    -3716    -3487    -3441 
   -3597    -3892    -4212    -4453    -4529    -4418    -4203    -3997 
   -3871    -3832    -3846    -3862    -3829    -3755    -3685    -3653 
   -3661    -3666    -3636    -3565    -3478    -3439    -3491    -3601 
   -3719    -3793    -3797    -3747    -3697    -3716    -3808    -3932 
   -4082    -4218    -4259    -4214    -4129    -3979    -3777    -3659 
   -3711    -3851    -3998    -4144    -4287    -4410    -4499    -4509 
   -4345    -4029    -3707    -3528    -3573    -3808    -4098    -4298 
   -4324    -4195    -4004    -3827    -3708    -3680    -3746    -3828 
   -3852    -3813    -3705    -3557    -3466    -3478    -3566    -3721 
   -3900    -4028    -4102    -4136    -4117    -4047    -3960    -3867 
   -3771    -3712    -3735    -3863    -4070    -4275    -4426    -4506 
   -4460    -4274    -4018    -3792    -3693    -3751    -3894    -4023 
   -4077    -4017    -3859    -3692    -3593    -3597    -3707    -3863 
   -3989    -4031    -3983    -3901    -3832    -3804    -3840    -3928 
   -4024    -4059    -3989    -3821    -3627    -3542    -3611    -3736 
   -3889    -4067    -4166    -4194    -4224    -4171    -4027    -3908 
   -3861    -3863    -3882    -3897    -3855    -3730    -3586    -3488 
   -3458    -3516    -3665    -3843    -3964    -4004    -3975    -3909 
   -3861    -3901    -4040    -4217    -4357    -4391    -4301    -4132 
   -3936    -3763    -3659    -3643    -3703    -3813    -3946    -4056 
   -4082    -4043    -3994    -3939    -3893    -3896    -3915    -3886 
   -3819    -3743    -3680    -3697    -3821    -3989    -4139    -4222 
   -4203    -4094    -3923    -3708    -3511    -3418    -3453    -3593 
   -3811    -4037    -4175    -4190    -4129    -4045    -3975    -3948 
   -3963    -3987    -4012    -4044    -4055    -4014    -3962    -3936 
   -3917    -3909    -3956    -4056    -4147    -4193    -4195    -4141 
   -4001    -3808    -3627    -3497    -3450    -3518    -3646    -3726 
   -3716    -3657    -3600    -3593    -3685    -3863    -4078    -4257 
   -4329    -4268    -4114    -3928    -3782    -3739    -3802    -3946 
   -4109    -4202    -4189    -4121    -4055    -4006    -3979    -3977 
   -3948    -3843    -3701    -3623    -3658    -3758    -3873    -4004 
   -4110    -4149    -4163    -4129    -3998    -3817    -3681    -3654 
   -3716    -3812    -3888    -3894    -3836    -3746    -3696    -3744 
   -3870    -4054    -4251    -4351    -4317    -4185    -4001    -3850 
   -3798    -3815    -3844    -3862    -3854    -3828    -3807    -3843 
   -3948    -4058    -4125    -4118    -4041    -3950    -3847    -3746 
   -3700    -3715    -3767    -3838    -3920    -4009    -4074    -4093 
   -4085    -4054    -4000    -3952    -3944    -3963    -3987    -4017 
   -4029    -3985    -3898    -3802    -3708    -3635    -3601    -3613 
   -3646    -3666    -3673    -3685    -3721    -3789    -3874    -3962 
   -4054    -4139    -4186    -4144    -3998    -3816    -3670    -3582 
   -3592    -3720    -3886    -3994    -4040    -4056    -4074    -4113 
   -4166    -4191    -4166    -4120    -4072    -4016    -3975    -3994 
   -4048    -4083    -4105    -4117    -4097    -4056    -4001    -3923 
   -3867    -3878    -3923    -3964    -3975    -3919    -3794    -3647 
   -3519    -3437    -3446    -3555    -3701    -3854    -3987    -4018 
   -3935    -3821    -3746    -3730    -3769    -3839    -3897    -3904 
   -3878    -3871    -3889    -3936    -4025    -4132    -4212    -4230 
   -4186    -4099    -3998    -3929    -3924    -3974    -4054    -4108 
   -4085    -3998    -3893    -3807    -3774    -3794    -3821    -3827 
   -3797    -3731    -3643    -3559    -3503    -3508    -3592    -3726 
   -3861    -3956    -3996    -3986    -3967    -3990    -4082    -4189 
   -4240    -4220    -4137    -4009    -3886    -3821    -3816    -3870 
   -3979    -4095    -4171    -4175    -4113    -4041    -4006    -3998 
   -4001    -4006    -3982    -3916    -3832    -3757    -3709    -3697 
   -3732    -3827    -3942    -4028    -4063    -4024    -3928    -3812 
   -3694    -3624    -3624    -3649    -3658    -3659    -3670    -3688 
   -3717    -3786    -3893    -4017    -4144    -4247    -4298    -4286 
   -4206    -4078    -3950    -3867    -3851    -3890    -3954    -4009 
   -4056    -4112    -4170    -4216    -4234    -4199    -4101    -3959 
   -3790    -3622    -3473    -3364    -3334    -3388    -3492    -3618 
   -3730    -3786    -3792    -3777    -3758    -3748    -3786    -3896 
   -4040    -4141    -4160    -4087    -3954    -3834    -3808    -3912 
   -4129    -4388    -4607    -4727    -4716    -4585    -4398    -4209 
   -4024    -3852    -3723    -3670    -3689    -3746    -3820    -3870 
   -3848    -3782    -3730    -3734    -3813    -3932    -4027    -4041 
   -3952    -3797    -3635    -3526    -3538    -3669    -3834    -3959 
   -3983    -3861    -3640    -3450    -3377    -3418    -3542    -3748 
   -3979    -4166    -4321    -4444    -4500    -4498    -4455    -4405 
   -4376    -4337    -4244    -4091    -3917    -3796    -3763    -3797 
   -3873    -3935    -3906    -3808    -3704    -3635    -3632    -3678 
   -3730    -3770    -3796    -3788    -3734    -3654    -3577    -3520 
   -3515    -3573    -3669    -3777    -3874    -3924    -3921    -3878 
   -3812    -3769    -3792    -3882    -4010    -4132    -4212    -4241 
   -4252    -4261    -4226    -4093    -3863    -3592    -3370    -3303 
   -3416    -3666    -3948    -4128    -4149    -4062    -3923    -3792 
   -3707    -3694    -3759    -3862    -3966    -4058    -4102    -4081 
   -4020    -3975    -3990    -4051    -4110    -4131    -4113    -4066 
   -3994    -3942    -3919    -3888    -3877    -3935    -4023    -4094 
   -4129    -4106    -4012    -3866    -3724    -3659    -3682    -3740 
   -3804    -3847    -3824    -3743    -3663    -3630    -3669    -3785 
   -3948    -4120    -4255    -4297    -4244    -4144    -4035    -3919 
   -3788    -3658    -3565    -3547    -3645    -3838    -4059    -4229 
   -4293    -4244    -4117    -3978    -3917    -3969    -4087    -4212 
   -4270    -4210    -4055    -3867    -3721    -3690    -3788    -3947 
   -4091    -4179    -4187    -4109    -3987    -3885    -3816    -3785 
   -3793    -3820    -3858    -3898    -3931    -3943    -3939    -3929 
   -3912    -3881    -3858    -3862    -3881    -3901    -3920    -3932 
   -3947    -3963    -3963    -3929    -3882    -3852    -3855    -3881 
   -3900    -3892    -3863    -3825    -3805    -3825    -3877    -3921 
   -3954    -3969    -3951    -3916    -3885    -3862    -3874    -3901 
   -3897    -3878    -3866    -3847    -3812    -3769    -3750    -3793 
   -3889    -4024    -4182    -4310    -4365    -4333    -4213    -4060 
   -3936    -3838    -3751    -3670    -3565    -3433    -3325    -3304 
   -3388    -3542    -3728    -3910    -4058    -4153    -4197    -4185 
   -4102    -3960    -3802    -3694    -3685    -3774    -3913    -4040 
   -4110    -4099    -4020    -3904    -3786    -3699    -3654    -3646 
   -3673    -3712    -3730    -3721    -3708    -3701    -3726    -3797 
   -3905    -4009    -4056    -4020    -3910    -3797    -3761    -3835 
   -4004    -4239    -4457    -4576    -4576    -4479    -4310    -4106 
   -3924    -3815    -3782    -3817    -3923    -4064    -4171    -4218 
   -4206    -4151    -4087    -4029    -3978    -3939    -3900    -3855 
   -3817    -3798    -3819    -3875    -3937    -3982    -3975    -3901 
   -3804    -3731    -3708    -3754    -3847    -3944    -4014    -4025 
   -3970    -3877    -3797    -3775    -3825    -3928    -4025    -4037 
   -3937    -3755    -3557    -3422    -3412    -3541    -3758    -3989 
   -4162    -4221    -4179    -4099    -4028    -3991    -4006    -4041 
   -4050    -3993    -3869    -3730    -3635    -3593    -3612    -3699 
   -3815    -3925    -4028    -4110    -4158    -4147    -4075    -3981 
   -3904    -3859    -3856    -3878    -3885    -3866    -3834    -3816 
   -3856    -3962    -4086    -4170    -4174    -4104    -3985    -3858 
   -3763    -3721    -3732    -3775    -3812    -3825    -3850    -3919 
   -4031    -4155    -4247    -4264    -4190    -4048    -3893    -3769 
   -3704    -3705    -3716    -3700    -3681    -3692    -3743    -3836 
   -3943    -4017    -4041    -4020    -3969    -3894    -3813    -3742 
   -3684    -3659    -3692    -3775    -3867    -3909    -3886    -3834 
   -3782    -3747    -3746    -3792    -3871    -3960    -4045    -4105 
   -4114    -4086    -4044    -3997    -3950    -3913    -3902    -3910 
   -3935    -3977    -4016    -4044    -4055    -4031    -3981    -3942 
   -3939    -3955    -3986    -4037    -4072    -4055    -4002    -3923 
   -3823    -3731    -3669    -3642    -3673    -3770    -3896    -4008 
   -4079    -4095    -4070    -4033    -4006    -3991    -3969    -3889 
   -3742    -3591    -3481    -3423    -3426    -3489    -3588    -3696 
   -3796    -3875    -3924    -3951    -3970    -3991    -4029    -4075 
   -4094    -4067    -4016    -3959    -3919    -3897    -3889    -3888 
   -3879    -3844    -3807    -3824    -3906    -4021    -4133    -4236 
   -4307    -4341    -4349    -4318    -4240    -4116    -3956    -3808 
   -3724    -3732    -3835    -3977    -4072    -4089    -4041    -3973 
   -3925    -3901    -3892    -3900    -3917    -3933    -3931    -3898 
   -3842    -3767    -3707    -3715    -3794    -3888    -3954    -3958 
   -3897    -3816    -3766    -3767    -3805    -3851    -3874    -3855 
   -3812    -3782    -3788    -3840    -3942    -4063    -4145    -4141 
   -4052    -3916    -3778    -3688    -3670    -3709    -3771    -3835 
   -3889    -3931    -3981    -4044    -4099    -4147    -4190    -4214 
   -4202    -4159    -4097    -4016    -3946    -3925    -3954    -4000 
   -4029    -4031    -4009    -3971    -3916    -3863    -3828    -3793 
   -3757    -3727    -3681    -3609    -3528    -3470    -3468    -3527 
   -3627    -3736    -3840    -3946    -4048    -4133    -4202    -4247 
   -4253    -4244    -4244    -4253    -4243    -4174    -4039    -3873 
   -3739    -3693    -3730    -3816    -3906    -3951    -3952    -3919 
   -3855    -3794    -3765    -3770    -3824    -3912    -3987    -4025 
   -4016    -3971    -3924    -3910    -3950    -4021    -4068    -4085 
   -4081    -4037    -3960    -3881    -3797    -3701    -3613    -3554 
   -3550    -3623    -3758    -3904    -4021    -4085    -4074    -3994 
