Origin Time       2025/03/30 22:55:00
Lat.              41.993
Long.             142.725
Depth. (km)       55
Mag.              4.6
Station Code      HDKH01
Station Lat.      42.7031
Station Long.     142.2296
Station Height(m) -18
Record Time       2025/03/30 22:56:15
Sampling Freq(Hz) 100Hz
Duration Time(s)  120
Dir.              2
Scale Factor      2942(gal)/8224139
Max. Acc. (gal)   0.143
Last Correction   2025/03/30 22:56:16
Memo.             
[...]
  130933   130933   130931   130929   130933   130933   130931   130931 
  130933   130933   130932   130933   130932   130928   130929   130933 
  130935   130932   130932   130933   130933   130935   130933   130931 
  130931   130932   130932   130931   130931   130932   130932   130932 
  130932   130933   130933   130933   130933   130931   130929   130932 
  130935   130933   130932   130933   130933   130932   130932   130932 
  130933   130933   130935   130936   130936   130936   130935   130936 
  130936   130937   130937   130939   130943   130944   130944   130948 
  130954   130955   130954   130954   130952   130948   130945   130945 
  130943   130944   130947   130945   130945   130947   130945   130941 
  130935   130927   130916   130914   130931   130958   130985   131008 
  131014   130999   130975   130955   130937   130917   130889   130855 
  130829   130832   130875   130941   131001   131037   131041   131017 
  130990   130977   130963   130929   130866   130789   130740   130740 
  130785   130854   130909   130928   130927   130932   130958   130998 
  131032   131035   130999   130941   130893   130879   130893   130900 
  130878   130843   130810   130812   130854   130906   130939   130945 
  130932   130918   130920   130936   130955   130966   130958   130939 
  130936   130951   130963   130967   130960   130950   130947   130945 
  130933   130910   130890   130882   130879   130881   130885   130879 
  130866   130855   130862   130894   130941   130989   131025   131036 
  131014   130972   130929   130904   130896   130885   130863   130844 
  130843   130869   130921   130987   131035   131044   131006   130937 
  130871   130832   130835   130875   130931   130983   131045   131107 
  131157   131183   131159   131076   130963   130844   130750   130701 
  130705   130738   130779   130829   130894   130968   131036   131087 
  131117   131125   131117   131087   131039   130995   130962   130927 
  130886   130846   130815   130802   130796   130792   130805   130836 
  130890   130966   131041   131085   131087   131063   131031   130989 
  130945   130918   130909   130902   130905   130910   130909   130910 
  130913   130912   130920   130951   130978   130979   130970   130971 
  130986   131008   131025   131026   131010   130971   130906   130836 
  130793   130797   130837   130875   130885   130885   130900   130928 
  130960   130978   130975   130968   130978   130989   130982   130964 
  130945   130929   130918   130913   130904   130883   130852   130825 
  130820   130827   130835   130847   130867   130894   130925   130955 
  130989   131031   131060   131048   130989   130901   130812   130740 
  130708   130736   130813   130905   130982   131028   131041   131036 
  131018   130987   130941   130897   130869   130862   130875   130905 
  130939   130959   130968   130977   130975   130960   130945   130937 
  130941   130959   130981   130991   130991   130979   130967   130963 
  130950   130923   130905   130900   130897   130906   130928   130951 
  130977   130995   131001   130995   130982   130959   130936   130927 
  130936   130956   130972   130971   130951   130917   130875   130833 
  130808   130800   130804   130827   130877   130944   131005   131052 
  131074   131070   131048   131008   130955   130906   130873   130860 
  130874   130897   130909   130910   130908   130906   130910   130923 
  130937   130954   130964   130971   130972   130960   130939   130916 
  130893   130882   130893   130925   130972   131013   131017   130981 
  130932   130901   130897   130909   130925   130940   130945   130947 
  130959   130977   130982   130977   130971   130963   130941   130916 
  130912   130933   130941   130929   130910   130890   130883   130894 
  130905   130913   130937   130971   130991   130990   130974   130951 
  130937   130943   130955   130956   130951   130956   130967   130958 
  130931   130901   130863   130827   130821   130837   130859   130891 
  130929   130956   130970   130960   130939   130936   130960   130990 
  130997   130977   130950   130935   130933   130931   130914   130889 
  130871   130870   130883   130902   130925   130951   130966   130963 
  130954   130947   130943   130948   130947   130931   130918   130912 
  130894   130878   130874   130863   130856   130883   130932   130975 
  130999   130999   130986   130981   130974   130950   130920   130898 
  130896   130906   130917   130925   130940   130963   130975   130971 
  130958   130952   130960   130963   130947   130923   130913   130906 
  130902   130905   130904   130901   130904   130902   130906   130923 
  130945   130972   131010   131044   131059   131056   131028   130974 
  130912   130867   130852   130869   130898   130914   130901   130864 
  130832   130821   130832   130848   130862   130881   130914   130964 
  131018   131058   131076   131080   131067   131031   130975   130923 
  130879   130842   130800   130765   130771   130816   130870   130918 
  130966   131005   131031   131045   131044   131032   131024   131016 
  130986   130935   130886   130864   130873   130893   130904   130898 
  130897   130918   130960   130995   131001   130978   130955   130959 
  130979   130986   130971   130948   130932   130924   130914   130896 
  130878   130878   130898   130914   130912   130893   130871   130858 
  130855   130858   130862   130883   130929   130975   130985   130959 
  130928   130906   130890   130889   130905   130927   130955   130983 
  131002   131009   131004   130991   130972   130948   130918   130893 
  130877   130875   130890   130918   130944   130952   130948   130950 
  130958   130948   130916   130883   130874   130897   130944   131001 
  131048   131072   131080   131078   131053   131008   130959   130921 
  130894   130875   130862   130850   130840   130843   130859   130878 
  130878   130863   130871   130910   130964   131016   131047   131053 
  131047   131031   131002   130964   130924   130898   130889   130886 
  130893   130914   130936   130945   130940   130929   130917   130909 
  130906   130897   130887   130904   130936   130956   130964   130966 
  130954   130933   130921   130910   130894   130879   130869   130870 
  130887   130920   130954   130979   130998   131012   131016   131012 
  131006   130998   130972   130928   130887   130871   130864   130854 
  130846   130839   130829   130827   130844   130885   130929   130964 
  130990   131002   131006   131009   130998   130977   130954   130931 
  130910   130905   130900   130883   130870   130860   130859   130875 
  130897   130912   130924   130937   130951   130959   130954   130932 
  130910   130904   130913   130928   130941   130941   130940   130952 
  130975   130991   130993   130981   130964   130954   130950   130954 
  130956   130955   130956   130955   130950   130960   130977   130967 
  130941   130921   130904   130896   130890   130873   130856   130864 
  130887   130910   130929   130951   130986   131025   131062   131093 
  131106   131086   131041   130987   130932   130881   130842   130815 
  130809   130828   130870   130923   130966   130989   130986   130974 
  130959   130936   130909   130897   130897   130896   130896   130902 
  130912   130912   130897   130878   130875   130904   130941   130963 
  130960   130948   130944   130948   130944   130923   130894   130882 
  130882   130881   130878   130882   130898   130913   130913   130909 
  130920   130952   130999   131028   131016   130994   130985   130967 
  130933   130897   130869   130855   130863   130889   130920   130940 
  130943   130937   130932   130918   130900   130904   130935   130971 
  130994   131006   131018   131021   131001   130970   130939   130904 
  130869   130852   130864   130897   130928   130943   130945   130939 
  130916   130886   130871   130883   130920   130963   130998   131020 
  131024   131013   130991   130966   130944   130923   130891   130866 
  130862   130871   130886   130901   130902   130898   130902   130908 
  130914   130931   130945   130948   130940   130928   130927   130937 
  130948   130945   130939   130948   130967   130979   130975   130958 
  130941   130944   130950   130941   130927   130916   130914   130927 
  130945   130966   130974   130970   130962   130954   130943   130923 
  130896   130867   130843   130828   130836   130881   130956   131026 
  131053   131035   130995   130971   130972   130977   130971   130968 
  130971   130972   130977   130978   130960   130918   130878   130859 
  130863   130889   130916   130935   130948   130951   130939   130928 
  130928   130939   130948   130948   130945   130954   130967   130962 
  130929   130898   130886   130898   130921   130936   130945   130960 
  130971   130968   130944   130905   130877   130871   130886   130906 
  130923   130936   130943   130937   130925   130913   130910   130914 
  130917   130914   130916   130929   130963   130994   130995   130974 
  130951   130950   130963   130974   130971   130956   130932   130910 
  130898   130891   130893   130901   130908   130918   130932   130947 
  130960   130967   130964   130954   130954   130966   130974   130974 
  130977   130978   130966   130943   130923   130909   130900   130886 
  130864   130840   130819   130802   130790   130794   130829   130878 
  130920   130952   130967   130964   130958   130951   130943   130923 
  130896   130874   130864   130869   130882   130891   130894   130900 
  130917   130941   130971   130999   131009   130993   130963   130936 
  130918   130917   130933   130947   130944   130937   130939   130944 
  130952   130966   130985   131002   131010   131006   130999   130991 
  130981   130962   130936   130916   130914   130928   130958   130995 
  131014   131009   130998   130994   130994   130994   130983   130952 
  130918   130902   130890   130879   130874   130874   130889   130923 
  130952   130956   130939   130923   130923   130937   130948   130940 
  130927   130936   130964   130989   130990   130968   130931   130889 
  130856   130848   130851   130850   130848   130858   130883   130914 
  130944   130974   130993   130995   130986   130972   130970   130982 
  130990   130974   130940   130913   130902   130897   130882   130848 
  130813   130812   130840   130870   130896   130918   130943   130972 
  130999   131008   130998   130981   130966   130959   130956   130941 
  130913   130887   130874   130871   130874   130882   130894   130910 
  130931   130956   130983   130998   130997   130982   130955   130925 
  130904   130909   130935   130952   130951   130945   130937   130929 
  130927   130923   130916   130923   130935   130929   130921   130916 
  130913   130928   130950   130960   130948   130921   130898   130881 
  130863   130852   130862   130879   130883   130873   130855   130854 
  130883   130929   130970   130995   131009   131014   131012   130994 
  130962   130927   130905   130893   130886   130904   130935   130952 
  130950   130947   130945   130947   130952   130958   130954   130945 
  130952   130974   130995   131002   130975   130925   130890   130878 
  130875   130883   130901   130923   130948   130977   131010   131049 
  131079   131079   131045   130994   130950   130920   130891   130862 
  130850   130870   130920   130974   131009   131018   131005   130986 
  130974   130964   130951   130940   130923   130902   130886   130873 
  130856   130847   130846   130843   130842   130850   130864   130878 
  130889   130897   130905   130913   130931   130960   130986   130995 
  130997   130995   130990   130975   130944   130905   130875   130863 
  130866   130882   130900   130909   130914   130921   130936   130951 
  130960   130968   130982   130995   131004   131004   130994   130975 
  130964   130967   130968   130950   130928   130918   130916   130909 
  130894   130873   130851   130850   130871   130905   130933   130959 
  130978   130987   130986   130977   130967   130963   130962   130962 
  130966   130967   130952   130923   130887   130856   130832   130820 
  130829   130862   130906   130941   130958   130967   130983   131002 
  131016   131032   131063   131094   131105   131086   131051   131022 
  130993   130950   130905   130887   130902   130940   130987   131032 
  131063   131086   131107   131121   131118   131106   131095   131093 
  131098   131093   131058   131001   130951   130927   130921   130923 
  130918   130901   130873   130846   130835   130831   130828   130828 
  130842   130874   130912   130944   130963   130962   130931   130878 
  130821   130775   130743   130717   130693   130670   130643   130620 
  130611   130621   130647   130688   130736   130785   130839   130898 
  130943   130967   130979   130994   131009   131016   131012   131008 
  131004   130994   130977   130954   130931   130902   130873   130852 
  130837   130823   130806   130789   130785   130792   130793   130805 
  130843   130893   130947   131004   131058   131109   131148   131159 
  131144   131118   131080   131026   130958   130885   130812   130750 
  130716   130719   130756   130825   130908   130994   131079   131137 
  131148   131126   131091   131047   130999   130967   130951   130950 
  130964   130993   131017   131025   131010   130975   130940   130931 
  130951   130983   131006   131025   131051   131080   131095   131083 
  131051   131006   130944   130860   130771   130698   130644   130596 
  130553   130532   130539   130580   130647   130717   130777   130828 
  130874   130928   130987   131033   131058   131064   131055   131029 
  131002   130991   130971   130928   130885   130854   130827   130821 
  130846   130879   130914   130955   130990   131004   130999   130987 
  130982   130991   131017   131047   131068   131089   131117   131140 
  131136   131109   131066   131026   131008   130994   130978   130958 
  130927   130874   130820   130782   130751   130711   130678   130670 
  130674   130673   130678   130702   130742   130779   130813   130854 
  130909   130981   131052   131117   131171   131211   131237   131247 
  131237   131210   131175   131141   131103   131062   131020   130968 
  130901   130828   130774   130759   130773   130794   130813   130840 
  130890   130950   130998   131040   131072   131086   131082   131063 
  131035   131009   130979   130948   130932   130935   130945   130945 
  130936   130923   130909   130904   130900   130886   130858   130812 
  130762   130736   130739   130755   130778   130815   130873   130950 
  131025   131090   131136   131163   131172   131156   131117   131063 
  131001   130947   130906   130874   130852   130836   130817   130792 
  130765   130751   130759   130790   130837   130893   130937   130968 
  130999   131048   131112   131176   131218   131226   131201   131147 
  131078   131006   130927   130844   130792   130774   130783   130819 
  130867   130913   130950   130974   130998   131033   131068   131082 
  131067   131032   130993   130943   130878   130820   130793   130793 
  130806   130824   130836   130843   130844   130842   130839   130847 
  130866   130889   130913   130939   130972   131013   131047   131056 
  131043   131021   130997   130972   130968   130995   131036   131064 
  131062   131028   130986   130959   130940   130916   130885   130858 
  130846   130837   130820   130802   130793   130794   130801   130808 
  130827   130859   130904   130954   130989   130994   130982   130963 
  130931   130889   130847   130813   130792   130782   130777   130775 
  130792   130821   130850   130862   130854   130842   130851   130891 
  130948   131005   131055   131087   131083   131047   130995   130950 
  130923   130917   130933   130967   131006   131031   131021   130982 
  130933   130893   130879   130896   130929   130962   130979   130977 
  130959   130931   130900   130860   130805   130747   130709   130697 
  130708   130744   130808   130896   131006   131118   131210   131275 
  131309   131307   131259   131172   131076   130981   130877   130771 
  130685   130621   130588   130588   130615   130659   130721   130792 
  130863   130941   131020   131070   131087   131087   131085   131078 
  131068   131058   131045   131035   131029   131017   130991   130966 
  130952   130948   130940   130921   130896   130873   130862   130864 
  130877   130896   130921   130952   130987   131012   131017   131012 
  131004   130995   130991   130998   131016   131044   131068   131071 
  131044   130997   130955   130929   130913   130905   130914   130945 
  130987   131025   131047   131045   131026   131008   130993   130982 
  130979   130978   130975   130971   130956   130927   130889   130855 
  130835   130821   130810   130813   130832   130862   130889   130897 
  130891   130896   130914   130935   130948   130968   130999   131028 
  131041   131031   131004   130970   130928   130882   130848   130842 
  130860   130885   130894   130901   130920   130952   130983   130999 
  130997   130972   130933   130894   130871   130856   130836   130813 
  130781   130739   130701   130673   130657   130661   130690   130729 
  130771   130827   130904   130997   131095   131178   131233   131257 
  131251   131224   131180   131126   131079   131041   131002   130962 
  130916   130864   130824   130804   130810   130843   130891   130955 
  131025   131090   131143   131182   131203   131199   131174   131130 
  131074   131018   130970   130925   130893   130864   130837   130817 
  130806   130806   130810   130823   130842   130866   130886   130902 
  130921   130943   130964   130983   130997   130998   130982   130951 
  130912   130873   130839   130813   130809   130821   130829   130842 
  130866   130896   130940   130987   131024   131044   131039   131016 
  130989   130962   130940   130941   130956   130974   130991   130995 
  130981   130959   130940   130923   130908   130890   130870   130848 
  130825   130808   130805   130810   130821   130835   130850   130862 
  130874   130897   130925   130950   130982   131017   131037   131029 
  131004   130978   130955   130935   130912   130886   130867   130860 
  130862   130869   130877   130882   130881   130875   130867   130848 
  130832   130832   130840   130848   130866   130894   130928   130964 
  131002   131035   131040   131014   130972   130924   130881   130844 
  130816   130793   130782   130782   130781   130773   130770   130769 
  130769   130771   130770   130769   130774   130779   130786   130812 
  130859   130910   130967   131033   131093   131124   131128   131113 
  131090   131062   131029   130991   130966   130964   130978   130987 
  130983   130972   130960   130944   130923   130902   130889   130886 
  130887   130882   130875   130885   130914   130962   131017   131059 
  131089   131103   131095   131066   131021   130966   130918   130894 
  130881   130864   130848   130846   130858   130891   130943   130995 
  131043   131089   131122   131144   131157   131153   131130   131102 
  131067   131026   130985   130940   130902   130886   130885   130898 
  130929   130964   130987   131002   131012   131025   131044   131059 
  131052   131024   130990   130952   130905   130852   130801   130766 
  130752   130755   130759   130759   130751   130735   130724   130725 
