Origin Time       2025/03/30 22:55:00
Lat.              41.993
Long.             142.725
Depth. (km)       55
Mag.              4.6
Station Code      HDKH03
Station Lat.      42.5934
Station Long.     142.3521
Station Height(m) 160
Record Time       2025/03/30 22:56:27
Sampling Freq(Hz) 100Hz
Duration Time(s)  120
Dir.              5
Scale Factor      7845(gal)/8223790
Max. Acc. (gal)   2.003
Last Correction   2025/03/30 22:56:11
Memo.             
[...]
   -1482    -1483    -1485    -1482    -1478    -1474    -1470    -1468 
   -1472    -1486    -1507    -1528    -1541    -1545    -1541    -1533 
   -1521    -1507    -1494    -1482    -1475    -1475    -1479    -1486 
   -1495    -1501    -1506    -1509    -1506    -1498    -1490    -1485 
   -1487    -1509    -1540    -1563    -1571    -1564    -1541    -1509 
   -1478    -1456    -1448    -1456    -1479    -1509    -1530    -1534 
   -1516    -1476    -1432    -1405    -1402    -1428    -1470    -1512 
   -1552    -1594    -1626    -1642    -1633    -1586    -1506    -1417 
   -1348    -1312    -1316    -1358    -1425    -1503    -1575    -1626 
   -1651    -1651    -1632    -1603    -1570    -1533    -1493    -1449 
   -1398    -1348    -1314    -1308    -1337    -1399    -1472    -1543 
   -1610    -1664    -1695    -1702    -1675    -1617    -1534    -1439 
   -1354    -1304    -1302    -1341    -1405    -1479    -1551    -1605 
   -1634    -1636    -1610    -1559    -1483    -1408    -1360    -1355 
   -1383    -1435    -1485    -1521    -1551    -1576    -1593    -1588 
   -1571    -1536    -1487    -1447    -1432    -1435    -1448    -1459 
   -1458    -1449    -1444    -1436    -1432    -1440    -1460    -1498 
   -1549    -1598    -1633    -1655    -1663    -1652    -1607    -1533 
   -1448    -1368    -1304    -1260    -1247    -1274    -1333    -1410 
   -1503    -1602    -1678    -1715    -1710    -1665    -1599    -1530 
   -1482    -1464    -1474    -1494    -1512    -1514    -1503    -1485 
   -1468    -1470    -1495    -1539    -1579    -1599    -1590    -1551 
   -1493    -1437    -1398    -1382    -1386    -1402    -1425    -1453 
   -1487    -1529    -1567    -1588    -1595    -1580    -1539    -1472 
   -1391    -1321    -1289    -1309    -1389    -1509    -1634    -1732 
   -1775    -1764    -1714    -1645    -1574    -1505    -1429    -1332 
   -1228    -1146    -1116    -1156    -1256    -1387    -1530    -1661 
   -1753    -1788    -1775    -1729    -1668    -1603    -1541    -1480 
   -1420    -1378    -1377    -1428    -1522    -1624    -1694    -1705 
   -1645    -1532    -1397    -1277    -1204    -1202    -1274    -1387 
   -1499    -1584    -1625    -1613    -1566    -1517    -1491    -1503 
   -1548    -1614    -1680    -1709    -1682    -1606    -1489    -1348 
   -1217    -1131    -1112    -1165    -1270    -1404    -1547    -1672 
   -1765    -1823    -1842    -1814    -1729    -1594    -1443    -1300 
   -1181    -1116    -1125    -1208    -1344    -1498    -1641    -1757 
   -1841    -1887    -1894    -1858    -1772    -1636    -1480    -1335 
   -1217    -1132    -1081    -1069    -1102    -1179    -1289    -1421 
   -1572    -1725    -1838    -1881    -1857    -1772    -1633    -1475 
   -1343    -1273    -1278    -1345    -1451    -1568    -1667    -1728 
   -1757    -1755    -1710    -1622    -1499    -1362    -1248    -1192 
   -1193    -1252    -1362    -1490    -1599    -1664    -1663    -1584 
   -1448    -1305    -1213    -1205    -1281    -1418    -1593    -1767 
   -1890    -1934    -1894    -1771    -1582    -1359    -1151    -1007 
    -963    -1034    -1205    -1445    -1699    -1906    -2015    -2011 
   -1907    -1742    -1560    -1394    -1254    -1135    -1043     -994 
   -1003    -1077    -1216    -1410    -1634    -1850    -2016    -2106 
   -2110    -2033    -1899    -1740    -1575    -1422    -1289    -1178 
   -1105    -1075    -1084    -1129    -1205    -1294    -1377    -1443 
   -1499    -1559    -1641    -1750    -1869    -1976    -2037    -2020 
   -1915    -1737    -1525    -1316    -1150    -1040     -988     -978 
   -1003    -1066    -1175    -1329    -1512    -1701    -1869    -1993 
   -2046    -2019    -1926    -1788    -1637    -1501    -1394    -1323 
   -1285    -1270    -1278    -1297    -1312    -1308    -1291    -1275 
   -1263    -1267    -1304    -1385    -1510    -1663    -1811    -1923 
   -1969    -1938    -1846    -1732    -1621    -1524    -1444    -1372 
   -1296    -1204    -1107    -1017     -974    -1007    -1120    -1304 
   -1536    -1780    -2015    -2207    -2308    -2293    -2155    -1906 
   -1586    -1259     -989     -822     -766     -808     -923    -1082 
   -1258    -1417    -1551    -1674    -1810    -1961    -2111    -2226 
   -2257    -2165    -1954    -1661    -1345    -1062     -849     -727 
    -695     -743     -857    -1021    -1223    -1445    -1680    -1903 
   -2076    -2168    -2172    -2087    -1933    -1745    -1561    -1399 
   -1270    -1179    -1140    -1167    -1244    -1337    -1432    -1510 
   -1543    -1513    -1436    -1340    -1258    -1221    -1246    -1341 
   -1505    -1714    -1929    -2101    -2192    -2178    -2061    -1871 
   -1638    -1374    -1100     -861     -687     -595     -600     -708 
    -901    -1171    -1506    -1871    -2211    -2462    -2585    -2575 
   -2440    -2195    -1858    -1470    -1081     -737     -476     -348 
    -391     -608     -965    -1401    -1846    -2228    -2488    -2585 
   -2520    -2316    -2007    -1640    -1273     -965     -754     -662 
    -707     -886    -1174    -1501    -1783    -1944    -1956    -1830 
   -1615    -1385    -1198    -1094    -1088    -1170    -1310    -1476 
   -1641    -1779    -1865    -1904    -1903    -1854    -1753    -1606 
   -1447    -1308    -1205    -1155    -1166    -1231    -1336    -1463 
   -1575    -1653    -1702    -1728    -1730    -1702    -1633    -1528 
   -1416    -1329    -1294    -1324    -1409    -1528    -1645    -1723 
   -1741    -1696    -1598    -1467    -1333    -1235    -1197    -1220 
   -1289    -1397    -1532    -1659    -1752    -1800    -1795    -1729 
   -1606    -1449    -1301    -1205    -1177    -1205    -1273    -1364 
   -1458    -1525    -1556    -1561    -1564    -1578    -1603    -1629 
   -1640    -1622    -1576    -1510    -1441    -1385    -1355    -1345 
   -1352    -1377    -1420    -1480    -1557    -1656    -1768    -1864 
   -1908    -1869    -1726    -1486    -1205     -955     -814     -835 
   -1028    -1339    -1686    -1985    -2176    -2224    -2145    -1973 
   -1763    -1563    -1397    -1269    -1171    -1093    -1032    -1007 
   -1031    -1124    -1287    -1503    -1729    -1907    -1999    -1984 
   -1868    -1683    -1472    -1270    -1108    -1016    -1007    -1086 
   -1246    -1456    -1671    -1841    -1935    -1942    -1867    -1728 
   -1552    -1362    -1188    -1069    -1026    -1061    -1170    -1341 
   -1556    -1786    -1988    -2123    -2161    -2074    -1865    -1578 
   -1269     -985     -776     -689     -749     -930    -1185    -1466 
   -1740    -1980    -2160    -2259    -2276    -2203    -2031    -1780 
   -1483    -1185     -946     -804     -787     -900    -1120    -1393 
   -1659    -1867    -1980    -1976    -1868    -1698    -1499    -1306 
   -1156    -1084    -1092    -1169    -1298    -1455    -1593    -1688 
   -1755    -1802    -1834    -1849    -1840    -1802    -1723    -1606 
   -1463    -1305    -1142    -1001     -922     -926    -1016    -1177 
   -1374    -1560    -1705    -1792    -1806    -1763    -1695    -1626 
   -1560    -1507    -1482    -1476    -1489    -1516    -1549    -1579 
   -1595    -1575    -1506    -1398    -1275    -1174    -1134    -1181 
   -1305    -1474    -1655    -1802    -1873    -1857    -1769    -1630 
   -1482    -1363    -1297    -1291    -1339    -1429    -1533    -1618 
   -1661    -1642    -1570    -1475    -1399    -1383    -1441    -1553 
   -1676    -1764    -1776    -1696    -1544    -1362    -1209    -1136 
   -1173    -1309    -1490    -1645    -1723    -1714    -1636    -1525 
   -1422    -1364    -1368    -1436    -1549    -1678    -1786    -1840 
   -1825    -1741    -1601    -1428    -1260    -1132    -1058    -1050 
   -1113    -1233    -1385    -1539    -1656    -1709    -1698    -1634 
   -1555    -1495    -1478    -1505    -1557    -1613    -1652    -1661 
   -1632    -1561    -1467    -1370    -1287    -1235    -1219    -1236 
   -1286    -1358    -1431    -1501    -1574    -1647    -1723    -1810 
   -1904    -1991    -2039    -2006    -1868    -1644    -1386    -1147 
    -973     -896     -923    -1024    -1156    -1291    -1406    -1499 
   -1588    -1684    -1784    -1871    -1904    -1854    -1725    -1541 
   -1352    -1209    -1132    -1123    -1175    -1264    -1367    -1459 
   -1537    -1611    -1688    -1773    -1857    -1904    -1884    -1776 
   -1590    -1366    -1161    -1009     -931     -938    -1028    -1194 
   -1405    -1620    -1800    -1922    -1968    -1950    -1883    -1777 
   -1652    -1522    -1402    -1305    -1229    -1167    -1127    -1120 
   -1159    -1259    -1416    -1598    -1771    -1900    -1957    -1930 
   -1821    -1664    -1495    -1345    -1231    -1163    -1146    -1174 
   -1243    -1345    -1474    -1615    -1756    -1861    -1888    -1819 
   -1675    -1506    -1356    -1254    -1220    -1258    -1350    -1472 
   -1603    -1721    -1806    -1857    -1869    -1831    -1744    -1615 
   -1458    -1294    -1155    -1061    -1021    -1039    -1108    -1224 
   -1390    -1588    -1777    -1927    -2018    -2029    -1952    -1798 
   -1594    -1378    -1198    -1080    -1038    -1081    -1204    -1375 
   -1561    -1723    -1822    -1838    -1776    -1663    -1537    -1425 
   -1335    -1275    -1256    -1283    -1348    -1440    -1539    -1625 
   -1679    -1694    -1668    -1602    -1512    -1418    -1337    -1278 
   -1250    -1262    -1318    -1404    -1497    -1582    -1640    -1664 
   -1664    -1648    -1629    -1610    -1578    -1510    -1401    -1259 
   -1115    -1008     -974    -1034    -1192    -1422    -1672    -1873 
   -1968    -1931    -1784    -1587    -1409    -1308    -1313    -1422 
   -1588    -1756    -1890    -1960    -1945    -1846    -1684    -1494 
   -1302    -1123     -977     -897     -895     -961    -1086    -1250 
   -1417    -1566    -1682    -1756    -1790    -1787    -1750    -1682 
   -1593    -1506    -1443    -1416    -1425    -1468    -1532    -1593 
   -1614    -1586    -1524    -1458    -1421    -1426    -1468    -1528 
   -1570    -1580    -1557    -1502    -1436    -1390    -1378    -1406 
   -1474    -1553    -1618    -1657    -1663    -1626    -1567    -1499 
   -1443    -1428    -1472    -1568    -1695    -1826    -1929    -1979 
   -1953    -1844    -1661    -1441    -1232    -1067     -961     -916 
    -936    -1008    -1119    -1258    -1406    -1552    -1686    -1806 
   -1908    -1980    -2004    -1972    -1887    -1769    -1637    -1505 
   -1391    -1314    -1278    -1273    -1283    -1308    -1348    -1397 
   -1444    -1482    -1506    -1513    -1497    -1445    -1355    -1242 
   -1138    -1069    -1067    -1165    -1379    -1692    -2045    -2363 
   -2574    -2612    -2448    -2099    -1621    -1108     -660     -367 
    -280     -403     -696    -1101    -1552    -1980    -2317    -2517 
   -2554    -2427    -2168    -1830    -1467    -1131     -872     -726 
    -702     -788     -965    -1197    -1436    -1644    -1794    -1854 
   -1811    -1680    -1493    -1278    -1073     -927     -893     -988 
   -1198    -1493    -1821    -2118    -2330    -2427    -2403    -2273 
   -2066    -1802    -1505    -1205     -934     -735     -654     -715 
    -913    -1215    -1548    -1844    -2041    -2099    -2008    -1796 
   -1528    -1274    -1093    -1005    -1001    -1043    -1088    -1123 
   -1177    -1271    -1421    -1621    -1841    -2035    -2181    -2261 
   -2265    -2200    -2087    -1946    -1795    -1641    -1476    -1291 
   -1089     -884     -697     -561     -490     -495     -589     -784 
   -1080    -1467    -1917    -2370    -2752    -2984    -3013    -2822 
   -2442    -1938    -1417     -970     -654     -486     -448     -525 
    -703     -947    -1221    -1509    -1775    -1971    -2060    -2026 
   -1880    -1664    -1441    -1270    -1189    -1206    -1298    -1429 
   -1567    -1684    -1779    -1863    -1944    -2014    -2045    -2006 
   -1877    -1669    -1428    -1200    -1023     -928     -931    -1005 
   -1116    -1232    -1331    -1389    -1389    -1332    -1246    -1163 
   -1112    -1127    -1235    -1440    -1714    -2006    -2253    -2397 
   -2405    -2274    -2053    -1817    -1628    -1518    -1489    -1516 
   -1547    -1521    -1401    -1209    -1000     -826     -734     -751 
    -865    -1034    -1213    -1368    -1467    -1498    -1478    -1431 
   -1387    -1387    -1453    -1586    -1769    -1973    -2160    -2295 
   -2355    -2335    -2231    -2054    -1826    -1559    -1270     -999 
    -784     -643     -583     -606     -703     -845    -1004    -1162 
   -1306    -1431    -1537    -1644    -1773    -1941    -2131    -2317 
   -2478    -2592    -2641    -2609    -2465    -2189    -1794    -1312 
    -800     -319       52      248      228       -9     -426     -951 
   -1498    -1981    -2330    -2516    -2543    -2434    -2227    -1968 
   -1706    -1478    -1321    -1256    -1286    -1401    -1583    -1796 
   -1987    -2108    -2119    -1988    -1725    -1371     -981     -623 
    -353     -191     -159     -272     -513     -843    -1236    -1669 
   -2115    -2521    -2832    -2994    -2961    -2732    -2339    -1846 
   -1345     -922     -638     -530     -594     -788    -1053    -1324 
   -1563    -1752    -1881    -1942    -1925    -1846    -1736    -1601 
   -1452    -1305    -1173    -1078    -1058    -1134    -1306    -1568 
   -1898    -2247    -2551    -2754    -2813    -2698    -2403    -1952 
   -1402     -820     -274      184      496      603      479      126 
    -429    -1128    -1880    -2585    -3145    -3491    -3585    -3431 
   -3067    -2546    -1944    -1337     -787     -345      -55       44 
     -59     -349     -773    -1259    -1734    -2119    -2347    -2382 
   -2223    -1937    -1620    -1358    -1213    -1224    -1372    -1598 
   -1822    -1961    -1966    -1836    -1605    -1339    -1107     -957 
    -911     -967    -1101    -1277    -1448    -1586    -1675    -1713 
   -1702    -1663    -1620    -1578    -1540    -1501    -1455    -1394 
   -1328    -1289    -1302    -1377    -1497    -1621    -1703    -1706 
   -1610    -1421    -1186     -973     -851     -869    -1028    -1279 
   -1553    -1790    -1948    -2011    -1984    -1890    -1771    -1676 
   -1634    -1660    -1753    -1895    -2050    -2174    -2231    -2193 
   -2046    -1792    -1455    -1082     -726     -437     -261     -217 
    -301     -498     -793    -1144    -1512    -1864    -2162    -2370 
   -2467    -2454    -2349    -2181    -1975    -1767    -1582    -1413 
   -1248    -1080     -907     -760     -684     -714     -861    -1123 
   -1467    -1841    -2177    -2411    -2489    -2384    -2118    -1761 
   -1394    -1092     -900     -819     -827     -901    -1007    -1117 
   -1228    -1348    -1501    -1711    -1991    -2305    -2585    -2756 
   -2751    -2528    -2108    -1571    -1027     -583     -310     -233 
    -333     -552     -804    -1024    -1185    -1301    -1414    -1575 
   -1806    -2073    -2312    -2463    -2469    -2312    -2039    -1725 
   -1452    -1278    -1219    -1256    -1339    -1390    -1356    -1224 
   -1030     -847     -765     -834    -1048    -1367    -1717    -2025 
   -2228    -2273    -2134    -1844    -1474    -1107     -823     -677 
    -681     -822    -1063    -1363    -1686    -2011    -2324    -2616 
   -2860    -3017    -3034    -2870    -2501    -1950    -1281     -588 
       8      403      540      418       82     -388     -912    -1420 
   -1864    -2222    -2470    -2593    -2583    -2431    -2139    -1744 
   -1309     -918     -657     -606     -793    -1196    -1726    -2272 
   -2706    -2921    -2859    -2517    -1956    -1283     -635     -126 
     163      194      -35     -487    -1080    -1705    -2263    -2682 
   -2924    -2971    -2830    -2528    -2108    -1620    -1100     -607 
    -237      -72     -166     -533    -1125    -1840    -2531    -3032 
   -3202    -2983    -2411    -1613     -777      -90      311      373 
     126     -346     -938    -1544    -2083    -2508    -2794    -2938 
   -2953    -2839    -2587    -2207    -1734    -1231     -770     -432 
    -261     -286     -495     -851    -1291    -1741    -2115    -2331 
   -2334    -2115    -1729    -1269     -846     -548     -433     -522 
    -788    -1159    -1560    -1930    -2228    -2430    -2521    -2505 
   -2407    -2251    -2050    -1818    -1566    -1305    -1047     -814 
    -625     -499     -449     -473     -580     -783    -1088    -1479 
   -1919    -2350    -2705    -2918    -2953    -2810    -2524    -2157 
   -1776    -1439    -1181    -1011     -908     -849     -820     -811 
    -820     -864     -961    -1119    -1327    -1564    -1807    -2023 
   -2184    -2263    -2251    -2154    -1989    -1787    -1583    -1416 
   -1308    -1259    -1259    -1293    -1328    -1332    -1297    -1219 
   -1097     -959     -846     -787     -805     -905    -1084    -1328 
   -1609    -1884    -2111    -2258    -2303    -2234    -2070    -1853 
   -1605    -1350    -1113     -916     -769     -680     -662     -729 
    -881    -1112    -1395    -1690    -1956    -2158    -2262    -2249 
   -2126    -1918    -1661    -1393    -1159    -1000     -939     -980 
   -1116    -1324    -1574    -1836    -2073    -2250    -2332    -2303 
   -2153    -1900    -1572    -1202     -831     -496     -244     -126 
    -189     -442     -864    -1389    -1935    -2431    -2812    -3026 
   -3064    -2940    -2683    -2351    -2002    -1674    -1393    -1170 
   -1009     -904     -831     -777     -746     -739     -765     -843 
    -990    -1202    -1453    -1709    -1929    -2084    -2160    -2161 
   -2100    -1991    -1845    -1678    -1499    -1324    -1175    -1069 
   -1009    -1009    -1066    -1150    -1231    -1294    -1333    -1354 
   -1372    -1426    -1536    -1695    -1875    -2025    -2084    -2018 
   -1817    -1502    -1134     -777     -499     -356     -384     -592 
    -947    -1391    -1854    -2272    -2585    -2752    -2764    -2648 
   -2444    -2201    -1964    -1763    -1601    -1468    -1347    -1216 
   -1077     -946     -845     -808     -864     -999    -1193    -1408 
   -1594    -1710    -1733    -1657    -1505    -1309    -1115     -967 
    -895     -907    -1004    -1169    -1370    -1580    -1787    -1989 
   -2188    -2374    -2516    -2569    -2506    -2317    -2010    -1613 
   -1190     -805     -522     -390     -436     -652     -997    -1405 
   -1802    -2124    -2316    -2340    -2203    -1949    -1645    -1362 
   -1159    -1065    -1078    -1174    -1316    -1467    -1593    -1665 
   -1684    -1660    -1605    -1518    -1401    -1254    -1093     -955 
    -889     -942    -1139    -1470    -1887    -2308    -2635    -2781 
   -2710    -2424    -1957    -1372     -768     -249       93      191 
      25     -387     -989    -1675    -2336    -2870    -3177    -3204 
   -2960    -2496    -1892    -1251     -660     -190      102      183 
      49     -280     -773    -1372    -2011    -2604    -3055    -3291 
   -3277    -3025    -2582    -2025    -1437     -905     -492     -232 
    -139     -197     -375     -637     -954    -1296    -1629    -1921 
   -2141    -2272    -2297    -2212    -2029    -1769    -1479    -1217 
   -1043     -990    -1057    -1216    -1425    -1645    -1840    -1977 
