Origin Time       2025/03/30 22:55:00
Lat.              41.993
Long.             142.725
Depth. (km)       55
Mag.              4.6
Station Code      HDKH06
Station Lat.      42.3498
Station Long.     142.3572
Station Height(m) -105
Record Time       2025/03/30 22:56:11
Sampling Freq(Hz) 100Hz
Duration Time(s)  120
Dir.              2
Scale Factor      2942(gal)/8224139
Max. Acc. (gal)   0.220
Last Correction   2025/03/30 22:56:11
Memo.             
[...]
   82393    82391    82390    82390    82391    82393    82391    82393 
   82391    82390    82391    82391    82389    82390    82393    82391 
   82391    82393    82390    82389    82391    82393    82393    82391 
   82390    82390    82391    82393    82391    82389    82390    82393 
   82391    82391    82390    82390    82391    82393    82391    82391 
   82390    82390    82390    82390    82391    82393    82391    82390 
   82391    82391    82391    82391    82393    82390    82390    82394 
   82391    82389    82390    82390    82389    82389    82390    82389 
   82390    82390    82391    82390    82389    82391    82393    82390 
   82391    82394    82390    82390    82391    82391    82391    82391 
   82389    82389    82390    82393    82391    82390    82391    82393 
   82390    82389    82390    82393    82393    82391    82393    82393 
   82390    82389    82394    82393    82389    82390    82393    82393 
   82390    82390    82393    82393    82394    82393    82389    82390 
   82393    82390    82390    82391    82391    82391    82393    82393 
   82393    82393    82394    82393    82391    82393    82394    82393 
   82393    82393    82391    82393    82395    82394    82393    82393 
   82391    82391    82390    82391    82394    82393    82390    82390 
   82395    82393    82390    82391    82391    82391    82393    82393 
   82390    82390    82391    82391    82391    82393    82390    82390 
   82391    82391    82391    82391    82390    82390    82390    82391 
   82393    82393    82391    82390    82390    82390    82393    82393 
   82391    82391    82391    82390    82389    82391    82393    82391 
   82391    82391    82391    82393    82393    82390    82390    82391 
   82391    82390    82389    82390    82390    82391    82391    82390 
   82390    82390    82391    82391    82390    82390    82391    82390 
   82390    82390    82390    82390    82389    82390    82390    82390 
   82391    82391    82390    82390    82391    82390    82390    82390 
   82387    82386    82390    82393    82390    82389    82389    82389 
   82391    82391    82389    82389    82389    82389    82390    82391 
   82389    82387    82389    82390    82390    82390    82390    82390 
   82390    82389    82393    82394    82390    82389    82390    82390 
   82390    82390    82390    82391    82391    82387    82389    82391 
   82390    82389    82390    82390    82391    82393    82389    82389 
   82390    82389    82387    82389    82389    82389    82390    82390 
   82390    82390    82389    82389    82390    82390    82390    82389 
   82389    82389    82387    82387    82391    82391    82390    82390 
   82391    82390    82390    82391    82391    82394    82391    82387 
   82389    82390    82389    82390    82390    82390    82391    82391 
   82390    82390    82391    82390    82390    82391    82391    82390 
   82391    82391    82389    82389    82393    82393    82391    82390 
   82390    82393    82393    82393    82393    82390    82390    82391 
   82391    82391    82394    82398    82402    82405    82409    82416 
   82418    82417    82414    82414    82416    82414    82418    82426 
   82435    82441    82445    82448    82451    82448    82441    82433 
   82425    82422    82424    82425    82422    82414    82402    82397 
   82405    82424    82441    82449    82440    82429    82436    82444 
   82437    82418    82390    82362    82344    82347    82360    82368 
   82358    82340    82339    82362    82391    82391    82356    82333 
   82371    82458    82510    82436    82258    82104    82080    82181 
   82325    82453    82547    82602    82613    82575    82501    82402 
   82320    82300    82305    82271    82205    82158    82170    82252 
   82348    82402    82437    82486    82532    82548    82518    82452 
   82404    82425    82489    82490    82404    82294    82223    82209 
   82263    82347    82372    82309    82219    82156    82107    82055 
   82032    82088    82227    82393    82537    82633    82644    82539 
   82371    82269    82301    82409    82497    82514    82444    82310 
   82213    82235    82317    82351    82306    82236    82181    82183 
   82291    82475    82637    82729    82752    82686    82532    82356 
   82242    82217    82251    82278    82264    82231    82221    82258 
   82337    82410    82405    82337    82339    82480    82655    82736 
   82718    82648    82560    82493    82435    82347    82247    82223 
   82304    82404    82420    82351    82278    82270    82321    82368 
   82386    82418    82514    82637    82696    82659    82576    82507 
   82483    82479    82460    82436    82418    82399    82382    82370 
   82352    82323    82287    82237    82165    82107    82155    82335 
   82540    82655    82663    82610    82543    82486    82424    82341 
   82271    82247    82275    82351    82435    82462    82441    82445 
   82489    82522    82539    82567    82597    82574    82490    82417 
   82383    82360    82316    82236    82159    82159    82247    82360 
   82422    82404    82345    82305    82279    82242    82201    82198 
   82248    82310    82363    82431    82512    82549    82507    82413 
   82317    82263    82277    82333    82382    82404    82422    82444 
   82453    82458    82486    82552    82620    82625    82551    82439 
   82316    82190    82094    82048    82048    82093    82188    82327 
   82494    82648    82749    82792    82796    82760    82683    82586 
   82510    82459    82408    82370    82374    82397    82395    82364 
   82339    82364    82424    82458    82449    82443    82462    82490 
   82501    82474    82418    82375    82354    82341    82327    82300 
   82269    82269    82289    82297    82293    82301    82356    82449 
   82517    82518    82470    82394    82310    82236    82197    82215 
   82269    82312    82332    82350    82374    82399    82416    82410 
   82379    82339    82305    82293    82302    82335    82390    82455 
   82516    82556    82575    82586    82591    82557    82475    82383 
   82314    82277    82286    82341    82395    82414    82398    82371 
   82364    82386    82401    82368    82286    82190    82119    82088 
   82098    82143    82204    82277    82364    82443    82466    82429 
   82374    82343    82332    82317    82304    82335    82416    82472 
   82463    82432    82416    82391    82337    82242    82108    82011 
   82043    82198    82386    82520    82563    82544    82525    82522 
   82503    82448    82372    82298    82255    82277    82352    82436 
   82495    82521    82520    82507    82512    82557    82621    82638 
   82587    82509    82444    82379    82310    82274    82286    82327 
   82364    82391    82420    82453    82480    82479    82451    82431 
   82448    82499    82536    82482    82335    82188    82097    82047 
   82044    82101    82202    82335    82472    82560    82583    82587 
   82610    82644    82645    82564    82428    82309    82243    82216 
   82210    82212    82231    82298    82390    82441    82443    82435 
   82433    82422    82420    82440    82456    82443    82413    82389 
   82393    82424    82474    82547    82622    82682    82709    82667 
   82557    82447    82381    82364    82397    82436    82413    82333 
   82278    82289    82328    82348    82354    82383    82444    82491 
   82478    82395    82264    82148    82120    82182    82278    82379 
   82476    82541    82533    82447    82329    82252    82252    82298 
   82331    82323    82309    82317    82325    82304    82264    82255 
   82312    82395    82455    82486    82498    82485    82431    82358 
   82305    82291    82301    82325    82368    82413    82443    82472 
   82547    82660    82755    82771    82702    82575    82425    82287 
   82198    82173    82200    82279    82404    82544    82644    82656 
   82594    82512    82414    82304    82219    82179    82163    82155 
   82158    82174    82216    82302    82428    82545    82601    82574 
   82506    82464    82472    82505    82526    82518    82495    82458 
   82406    82362    82327    82285    82244    82246    82314    82418 
   82476    82448    82360    82269    82215    82208    82243    82298 
   82341    82367    82382    82393    82401    82395    82371    82364 
   82399    82452    82497    82532    82545    82516    82443    82360 
   82316    82318    82327    82335    82375    82437    82495    82526 
   82514    82468    82417    82385    82377    82368    82341    82333 
   82370    82395    82348    82247    82178    82185    82254    82341 
   82395    82404    82401    82413    82416    82383    82350    82355 
   82374    82367    82339    82313    82305    82302    82282    82248 
   82240    82281    82348    82406    82443    82468    82485    82479 
   82472    82485    82503    82505    82495    82498    82521    82534 
   82509    82449    82390    82354    82314    82244    82179    82171 
   82221    82297    82363    82399    82421    82459    82522    82582 
   82601    82578    82559    82564    82567    82521    82416    82279 
   82169    82132    82173    82247    82313    82385    82483    82571 
   82597    82567    82505    82414    82306    82202    82123    82097 
   82136    82224    82309    82345    82339    82332    82348    82394 
   82468    82541    82567    82537    82483    82437    82412    82389 
   82347    82296    82260    82258    82309    82417    82537    82628 
   82698    82763    82776    82692    82529    82356    82251    82233 
   82264    82305    82351    82428    82552    82679    82728    82672 
   82561    82466    82413    82368    82296    82233    82236    82298 
   82394    82493    82548    82536    82482    82420    82366    82324 
   82294    82275    82278    82304    82321    82316    82309    82347 
   82437    82541    82606    82615    82595    82560    82505    82426 
   82336    82244    82182    82159    82156    82147    82135    82151 
   82183    82189    82179    82201    82246    82294    82368    82462 
   82528    82555    82549    82499    82420    82356    82327    82293 
   82232    82190    82221    82298    82370    82426    82486    82556 
   82614    82624    82594    82552    82507    82470    82458    82453 
   82449    82452    82451    82432    82395    82337    82264    82206 
   82170    82150    82161    82229    82335    82436    82512    82552 
   82544    82517    82516    82528    82506    82439    82355    82306 
   82305    82318    82323    82313    82286    82247    82221    82225 
   82252    82300    82356    82390    82393    82395    82417    82412 
   82341    82244    82186    82182    82219    82285    82354    82389 
   82381    82366    82372    82385    82364    82296    82215    82182 
   82232    82331    82431    82505    82556    82601    82633    82637 
   82606    82543    82467    82391    82317    82255    82216    82208 
   82244    82313    82393    82463    82516    82548    82568    82587 
   82590    82532    82420    82325    82317    82382    82451    82463 
   82424    82382    82360    82345    82339    82370    82440    82516 
   82564    82564    82525    82485    82464    82432    82371    82310 
   82282    82275    82279    82308    82367    82418    82429    82432 
   82490    82606    82701    82692    82593    82483    82412    82379 
   82377    82389    82410    82452    82499    82522    82505    82462 
   82416    82381    82374    82420    82495    82536    82505    82445 
   82405    82379    82343    82286    82235    82236    82296    82377 
   82458    82518    82556    82590    82625    82652    82648    82595 
   82526    82493    82491    82478    82435    82378    82348    82359 
   82387    82405    82399    82375    82358    82364    82391    82412 
   82402    82368    82339    82331    82324    82298    82260    82235 
   82229    82248    82293    82363    82458    82566    82660    82711 
   82703    82644    82566    82501    82462    82452    82472    82494 
   82486    82451    82408    82372    82358    82364    82385    82393 
   82368    82327    82300    82300    82328    82391    82491    82609 
   82711    82780    82819    82831    82807    82721    82552    82329 
   82134    82032    82027    82080    82138    82170    82178    82169 
   82135    82075    82013    81990    82011    82038    82038    82016 
   82004    82017    82038    82040    82032    82042    82092    82183 
   82302    82418    82509    82571    82598    82564    82464    82337 
   82248    82224    82242    82267    82277    82283    82324    82406 
   82493    82545    82549    82506    82441    82363    82267    82156 
   82043    81942    81886    81907    81996    82108    82223    82324 
   82371    82324    82219    82143    82143    82188    82224    82229 
   82221    82242    82301    82371    82418    82429    82412    82372 
   82308    82224    82132    82028    81911    81834    81843    81923 
   82038    82178    82333    82475    82572    82624    82649    82656 
   82634    82586    82516    82420    82306    82208    82148    82112 
   82092    82108    82159    82224    82281    82329    82367    82381 
   82362    82302    82220    82155    82135    82152    82202    82286 
   82393    82513    82636    82737    82813    82887    82950    82960 
   82884    82760    82640    82534    82432    82341    82279    82262 
   82300    82379    82468    82540    82595    82664    82769    82895 
   82987    83006    82964    82908    82861    82802    82711    82603 
   82482    82335    82185    82082    82044    82047    82063    82096 
   82156    82247    82358    82476    82595    82691    82734    82721 
   82690    82684    82699    82709    82692    82655    82632    82624 
   82595    82533    82458    82385    82332    82325    82383    82487 
   82599    82671    82675    82615    82547    82524    82559    82611 
   82638    82625    82618    82652    82680    82652    82572    82474 
   82375    82310    82313    82370    82439    82494    82543    82586 
   82599    82571    82525    82493    82472    82445    82408    82360 
   82313    82291    82297    82301    82281    82237    82198    82194 
   82237    82305    82356    82389    82413    82431    82432    82417 
   82382    82345    82314    82273    82220    82182    82181    82215 
   82266    82294    82275    82232    82193    82177    82196    82250 
   82309    82335    82320    82274    82217    82179    82171    82204 
   82297    82443    82586    82665    82668    82634    82605    82590 
   82557    82483    82381    82285    82225    82210    82228    82255 
   82270    82260    82240    82250    82306    82387    82472    82539 
   82557    82513    82416    82289    82170    82086    82043    82051 
   82109    82192    82273    82355    82439    82516    82567    82576 
   82536    82460    82379    82335    82320    82306    82293    82273 
   82223    82139    82057    82011    82001    81993    81976    81954 
   81932    81916    81931    81997    82112    82248    82364    82437 
   82480    82517    82540    82541    82537    82548    82580    82626 
   82671    82706    82723    82734    82745    82744    82688    82575 
   82443    82347    82316    82341    82391    82445    82506    82576 
   82636    82667    82674    82672    82660    82625    82583    82553 
   82528    82494    82468    82463    82443    82385    82313    82266 
   82248    82244    82236    82229    82243    82296    82381    82463 
   82520    82559    82575    82540    82452    82351    82254    82151 
   82043    81967    81961    82034    82177    82367    82568    82740 
   82852    82890    82853    82769    82675    82587    82491    82391 
   82324    82305    82310    82329    82371    82439    82533    82640 
   82725    82782    82811    82783    82684    82553    82420    82296 
   82194    82142    82154    82204    82235    82219    82189    82186 
   82205    82202    82148    82071    82030    82050    82115    82179 
   82229    82291    82375    82471    82572    82664    82725    82756 
   82763    82734    82683    82633    82594    82555    82493    82416 
   82359    82345    82372    82418    82459    82487    82516    82537 
   82537    82503    82424    82308    82198    82119    82070    82057 
   82066    82067    82047    82004    81932    81849    81796    81819 
   81934    82129    82351    82526    82605    82605    82579    82560 
   82553    82548    82533    82518    82520    82537    82559    82576 
   82583    82575    82548    82489    82399    82300    82210    82165 
   82198    82300    82406    82472    82498    82498    82479    82445 
   82410    82394    82398    82390    82341    82269    82198    82142 
   82105    82100    82132    82213    82325    82422    82493    82547 
   82571    82551    82514    82493    82503    82532    82548    82564 
   82605    82661    82721    82777    82811    82811    82779    82717 
   82633    82543    82459    82379    82302    82235    82181    82152 
   82167    82216    82250    82240    82196    82139    82084    82053 
   82057    82089    82142    82205    82270    82325    82377    82413 
   82413    82374    82304    82212    82134    82097    82101    82132 
   82183    82263    82371    82480    82560    82609    82642    82668 
   82691    82718    82763    82822    82887    82929    82908    82810 
   82663    82516    82399    82327    82306    82343    82412    82476 
   82495    82447    82354    82277    82244    82248    82271    82306 
   82341    82355    82325    82252    82166    82094    82063    82081 
   82121    82148    82154    82162    82182    82205    82231    82262 
   82278    82260    82208    82129    82036    81947    81882    81877 
   81940    82042    82148    82251    82348    82441    82532    82607 
   82657    82686    82690    82659    82605    82552    82509    82479 
   82462    82436    82391    82336    82286    82274    82298    82316 
   82279    82194    82117    82111    82161    82212    82251    82306 
   82382    82471    82557    82618    82641    82644    82651    82676 
   82706    82705    82655    82572    82487    82414    82356    82317 
   82302    82317    82350    82402    82475    82575    82703    82840 
   82938    82965    82908    82790    82655    82532    82409    82277 
   82162    82100    82093    82116    82144    82170    82200    82231 
   82273    82332    82409    82502    82599    82679    82714    82698 
   82644    82575    82516    82487    82495    82520    82537    82547 
   82547    82536    82506    82441    82347    82264    82217    82200 
   82208    82243    82297    82354    82391    82409    82413    82404 
   82381    82371    82397    82448    82493    82497    82456    82386 
   82316    82271    82255    82237    82194    82146    82136    82175 
   82237    82314    82402    82495    82591    82679    82725    82709 
   82647    82566    82485    82404    82337    82312    82324    82360 
   82404    82424    82412    82383    82360    82359    82393    82458 
   82530    82601    82659    82702    82719    82713    82676    82610 
   82522    82424    82337    82278    82247    82235    82221    82192 
   82150    82119    82100    82090    82085    82082    82097    82143 
   82212    82283    82354    82429    82518    82611    82688    82725 
