Origin Time       2025/03/30 22:55:00
Lat.              41.993
Long.             142.725
Depth. (km)       55
Mag.              4.6
Station Code      HDKH07
Station Lat.      42.1330
Station Long.     142.9164
Station Height(m) -61
Record Time       2025/03/30 22:56:07
Sampling Freq(Hz) 100Hz
Duration Time(s)  120
Dir.              1
Scale Factor      2942(gal)/8224139
Max. Acc. (gal)   1.411
Last Correction   2025/03/30 22:56:07
Memo.             
[...]
   11106    11105    11105    11106    11106    11103    11103    11105 
   11105    11105    11105    11105    11103    11103    11103    11103 
   11106    11106    11103    11103    11105    11105    11105    11106 
   11106    11106    11106    11103    11105    11106    11103    11103 
   11105    11103    11103    11105    11105    11105    11102    11105 
   11106    11105    11105    11106    11106    11106    11105    11106 
   11106    11107    11109    11107    11105    11105    11106    11105 
   11103    11103    11106    11106    11105    11106    11106    11102 
   11102    11105    11103    11103    11105    11106    11105    11103 
   11103    11106    11105    11102    11105    11106    11105    11105 
   11105    11105    11103    11102    11103    11105    11105    11105 
   11103    11102    11102    11105    11106    11105    11105    11106 
   11106    11105    11103    11105    11106    11106    11106    11106 
   11105    11103    11103    11105    11107    11106    11103    11106 
   11107    11105    11105    11107    11106    11106    11106    11105 
   11105    11106    11106    11107    11106    11105    11105    11107 
   11107    11107    11107    11107    11106    11105    11106    11106 
   11106    11107    11106    11102    11103    11107    11106    11106 
   11106    11105    11106    11107    11107    11107    11107    11105 
   11106    11107    11106    11105    11107    11106    11106    11107 
   11107    11107    11106    11105    11106    11109    11106    11106 
   11107    11106    11106    11106    11106    11106    11106    11103 
   11103    11105    11106    11106    11105    11105    11106    11106 
   11105    11105    11106    11105    11105    11106    11106    11109 
   11107    11105    11105    11109    11106    11105    11107    11106 
   11103    11107    11109    11105    11103    11107    11107    11103 
   11105    11107    11106    11103    11102    11105    11103    11106 
   11110    11106    11103    11103    11103    11103    11106    11105 
   11105    11106    11105    11103    11105    11105    11105    11105 
   11103    11105    11106    11105    11106    11107    11105    11105 
   11107    11105    11102    11102    11103    11103    11105    11105 
   11106    11105    11105    11105    11103    11103    11105    11103 
   11102    11103    11103    11105    11103    11102    11105    11107 
   11105    11102    11103    11103    11103    11105    11105    11103 
   11103    11103    11103    11105    11105    11105    11105    11103 
   11103    11103    11103    11101    11103    11106    11103    11103 
   11106    11103    11102    11103    11103    11103    11106    11107 
   11107    11103    11102    11106    11105    11101    11103    11105 
   11103    11105    11105    11103    11105    11105    11103    11105 
   11105    11105    11105    11105    11105    11105    11103    11103 
   11105    11102    11102    11106    11105    11103    11105    11105 
   11103    11107    11109    11107    11105    11101    11103    11106 
   11106    11103    11105    11106    11105    11103    11103    11105 
   11106    11103    11103    11107    11105    11103    11103    11103 
   11105    11105    11105    11106    11105    11103    11105    11103 
   11105    11106    11105    11105    11105    11105    11105    11106 
   11107    11109    11106    11103    11103    11105    11102    11102 
   11106    11107    11106    11106    11107    11105    11102    11103 
   11105    11106    11106    11106    11106    11105    11106    11106 
   11107    11109    11107    11106    11106    11107    11107    11107 
   11105    11105    11106    11106    11105    11106    11107    11105 
   11103    11105    11105    11105    11106    11109    11109    11106 
   11105    11106    11106    11106    11105    11106    11106    11105 
   11106    11106    11102    11105    11107    11106    11105    11105 
   11106    11105    11105    11106    11106    11103    11105    11106 
   11105    11106    11109    11106    11102    11105    11107    11106 
   11105    11105    11105    11105    11106    11105    11105    11106 
   11106    11106    11106    11107    11106    11105    11106    11106 
   11105    11105    11107    11107    11105    11106    11109    11107 
   11106    11105    11103    11106    11107    11107    11106    11106 
   11106    11106    11106    11106    11105    11106    11109    11107 
   11105    11105    11105    11106    11103    11103    11106    11107 
   11107    11106    11106    11106    11107    11107    11105    11105 
   11106    11106    11103    11103    11107    11107    11106    11106 
   11106    11105    11103    11103    11103    11103    11105    11106 
   11107    11106    11107    11107    11107    11106    11107    11106 
   11105    11107    11107    11106    11105    11105    11106    11105 
   11105    11105    11103    11103    11106    11106    11105    11107 
   11106    11105    11105    11105    11106    11109    11106    11103 
   11105    11105    11106    11105    11103    11105    11106    11105 
   11105    11105    11102    11105    11107    11106    11105    11106 
   11105    11105    11106    11105    11105    11105    11106    11106 
   11105    11102    11105    11107    11105    11105    11106    11105 
   11103    11105    11105    11105    11103    11106    11106    11105 
   11105    11105    11105    11106    11106    11105    11106    11107 
   11106    11105    11103    11103    11105    11105    11105    11105 
   11106    11105    11105    11105    11105    11105    11103    11103 
   11103    11103    11105    11106    11105    11105    11106    11105 
   11105    11106    11103    11103    11105    11105    11105    11107 
   11106    11105    11105    11102    11102    11105    11107    11105 
   11105    11106    11107    11106    11103    11103    11106    11106 
   11105    11105    11107    11107    11105    11107    11109    11105 
   11103    11106    11106    11107    11107    11106    11107    11107 
   11105    11106    11107    11105    11105    11107    11106    11106 
   11106    11106    11107    11107    11105    11107    11110    11107 
   11105    11106    11106    11106    11106    11106    11106    11107 
   11109    11107    11106    11103    11103    11105    11099    11092 
   11087    11078    11070    11068    11067    11070    11076    11080 
   11080    11076    11067    11053    11034    11017    11011    11022 
   11034    11051    11076    11113    11175    11240    11244    11187 
   11119    11082    11091    11133    11169    11217    11298    11342 
   11275    11133    11037    11118    11371    11535    11380    11033 
   10805    10828    11026    11219    11300    11358    11456    11445 
   11263    11007    10719    10470    10492    10843    11311    11766 
   12050    11877    11321    10791    10535    10577    10845    11121 
   11191    11115    11082    11126    11279    11504    11558    11362 
   11149    11049    11009    10926    10790    10741    10870    11067 
   11198    11326    11561    11670    11287    10578    10146    10320 
   10908    11480    11718    11477    10829    10243    10269    10844 
   11346    11334    11094    11217    11618    11637    11076    10488 
   10430    10721    10948    11221    11584    11646    11308    10824 
   10419    10428    11047    11699    11668    11092    10563    10366 
   10542    10978    11387    11624    11720    11491    10883    10515 
   10909    11557    11704    11373    10963    10827    11137    11441 
   11227    10840    10827    11087    11227    11137    10962    10864 
   10916    11067    11111    10987    11038    11414    11688    11562 
   11218    11020    11099    11113    10862    10808    11242    11750 
   11858    11533    11006    10531    10316    10400    10670    11018 
   11313    11456    11460    11360    11249    11179    11074    10885 
   10671    10623    10883    11315    11691    11834    11716    11572 
   11543    11457    11214    11017    11064    11322    11599    11695 
   11520    11115    10709    10615    10782    10891    10925    10994 
   11021    10941    10808    10732    10864    11169    11298    11064 
   10763    10683    10773    10922    11055    10999    10763    10705 
   10968    11292    11549    11726    11662    11349    10914    10404 
    9987     9925    10262    10798    11253    11519    11668    11655 
   11427    11199    11171    11249    11338    11411    11311    11032 
   10887    11040    11344    11682    11913    11766    11313    10940 
   10785    10747    10785    10886    10902    10729    10681    10932 
   11140    11236    11308    11149    10899    10922    11105    11196 
   11137    10930    10682    10628    10949    11477    11800    11743 
   11476    11215    11025    10832    10647    10628    10855    11151 
   11268    11180    11017    10891    10860    10875    10916    11061 
   11250    11381    11481    11499    11452    11508    11546    11353 
   11060    10872    10862    11072    11398    11564    11466    11263 
   11122    11078    11022    10929    10936    11051    11137    11163 
   11117    10899    10552    10440    10822    11462    11927    11973 
   11711    11438    11180    10845    10575    10546    10758    11032 
   11145    11128    11172    11303    11294    11018    10762    10708 
   10620    10520    10679    11011    11321    11514    11543    11561 
   11569    11300    10913    10854    11038    11122    11210    11399 
   11411    11294    11263    11155    10966    10944    11001    11001 
   11010    11005    11007    11126    11230    11205    11168    11070 
   10848    10810    11016    11103    11056    11087    11160    11259 
   11435    11489    11283    11048    10930    10867    10943    11132 
   11128    10885    10666    10631    10759    10979    11213    11330 
   11182    10867    10674    10706    10928    11225    11353    11236 
   11083    11068    11192    11344    11334    11115    10936    10971 
   11107    11238    11269    11119    10949    10975    11173    11348 
   11375    11257    11102    11099    11233    11311    11295    11202 
   11053    10929    10816    10755    10971    11414    11707    11703 
   11506    11221    11056    11118    11225    11249    11254    11252 
   11136    10889    10682    10674    10883    11134    11156    10945 
   10797    10840    10905    10936    11091    11308    11314    11070 
   10782    10638    10751    11048    11294    11327    11195    11091 
   11101    11149    11151    11034    10829    10698    10754    10943 
   11137    11268    11335    11337    11254    11105    10991    10999 
   11113    11225    11240    11214    11237    11240    11165    11090 
   11130    11335    11550    11549    11371    11190    11002    10778 
   10654    10786    11047    11136    11010    10827    10681    10639 
   10783    11117    11450    11568    11450    11207    11032    11071 
   11283    11542    11664    11522    11284    11178    11218    11298 
   11284    11138    10986    10921    10871    10828    10928    11136 
   11248    11232    11232    11307    11407    11452    11352    11128 
   10882    10643    10489    10573    10876    11246    11546    11677 
   11622    11454    11236    10986    10839    10903    10993    10935 
   10858    10887    11021    11238    11402    11319    11022    10763 
   10713    10895    11260    11556    11497    11210    10999    10928 
   10899    10890    10994    11245    11438    11381    11190    11082 
   11160    11367    11415    11136    10785    10646    10708    10893 
   11114    11260    11340    11387    11412    11495    11583    11504 
   11261    11017    10939    10990    10935    10763    10709    10795 
   10827    10700    10540    10548    10736    10991    11211    11232 
   10989    10727    10685    10881    11192    11372    11314    11209 
   11122    10890    10562    10469    10747    11130    11296    11209 
   11083    11130    11348    11531    11518    11308    11018    10809 
   10779    10925    11152    11292    11263    11179    11198    11329 
   11462    11502    11415    11281    11225    11250    11314    11361 
   11241    10902    10569    10492    10710    11072    11408    11664 
   11801    11676    11264    10886    10875    11205    11553    11646 
   11500    11267    10945    10571    10400    10517    10665    10666 
   10638    10712    10858    10970    10921    10702    10555    10683 
   10941    11133    11248    11291    11272    11217    11075    10882 
   10766    10777    10930    11227    11508    11556    11369    11200 
   11272    11538    11674    11449    11063    10824    10762    10831 
   11005    11229    11464    11614    11549    11353    11223    11130 
   10932    10728    10692    10750    10736    10593    10351    10145 
   10073    10025     9913     9857     9934    10087    10239    10335 
   10388    10457    10561    10673    10721    10660    10488    10230 
    9981     9899    10091    10539    11059    11375    11410    11418 
   11645    12023    12291    12290    12087    11824    11608    11524 
   11510    11406    11234    11134    11133    11226    11483    11855 
   12110    12077    11859    11739    11896    12229    12542    12752 
   12852    12769    12414    11842    11180    10534    10058     9942 
   10188    10655    11281    11935    12278    12183    11842    11333 
   10712    10254    10170    10517    11277    12272    13284    14188 
   14836    15051    14743    13940    12777    11499    10403     9687 
    9378     9429     9817    10393    10858    10991    10806    10451 
   10061     9736     9505     9317     9227     9441    10046    10867 
   11612    12035    12015    11646    11209    10939    10916    11091 
   11292    11349    11246    11099    11052    11214    11492    11585 
   11318    10840    10446    10281    10251    10231    10203    10211 
   10305    10494    10717    10921    11090    11279    11585    12002 
   12428    12726    12749    12415    11815    11165    10736    10609 
   10542    10260     9818     9485     9408     9514     9639     9625 
    9432     9200     9138     9369     9923    10741    11651    12455 
   13043    13296    13065    12420    11631    11013    10866    11313 
   12183    13189    14019    14397    14220    13568    12622    11601 
   10612     9699     9040     8793     8920     9256     9568     9641 
    9450     9171     9081     9373     9999    10720    11330    11784 
   12150    12467    12688    12741    12625    12356    11936    11519 
   11319    11284    11217    11068    10922    10854    10835    10783 
   10665    10507    10347    10243    10307    10602    10995    11256 
   11342    11306    11102    10789    10566    10516    10642    11011 
   11588    12186    12671    13022    13185    13032    12510    11700 
   10733     9783     9077     8829     9054     9544    10127    10755 
   11334    11736    11944    12020    12040    12118    12275    12384 
   12384    12337    12320    12345    12298    12016    11508    10945 
   10459    10095     9852     9726     9751     9945    10188    10295 
   10272    10297    10480    10795    11192    11530    11655    11570 
   11358    11111    10963    10937    10921    10843    10663    10341 
    9956     9699     9693     9910    10258    10654    11005    11287 
   11585    11929    12212    12332    12262    11983    11504    10967 
   10566    10374    10362    10465    10581    10702    10881    11088 
   11264    11340    11268    11132    11060    11106    11280    11538 
   11751    11820    11786    11734    11672    11565    11395    11152 
   10837    10513    10297    10224    10223    10245    10296    10377 
   10463    10565    10713    10886    11078    11325    11547    11604 
   11491    11303    11145    11097    11160    11219    11151    10932 
   10662    10478    10465    10605    10828    11070    11248    11311 
   11350    11531    11888    12274    12480    12428    12194    11911 
   11693    11603    11643    11745    11815    11851    11900    11956 
   11952    11859    11754    11647    11454    11196    10939    10658 
   10392    10230    10150    10091    10031     9980     9969    10053 
   10285    10644    11033    11419    11815    12155    12330    12266 
   11982    11584    11182    10889    10801    10951    11248    11519 
   11642    11610    11506    11418    11334    11213    11059    10882 
   10663    10400    10160    10041    10075    10185    10262    10254 
   10206    10195    10262    10370    10504    10744    11142    11599 
   11962    12141    12127    11969    11720    11406    11098    10916 
   10836    10748    10647    10620    10732    10956    11210    11415 
   11496    11454    11394    11380    11376    11323    11188    10993 
   10832    10821    10971    11151    11221    11182    11144    11199 
   11313    11368    11280    11063    10813    10678    10763    11045 
   11385    11593    11565    11389    11213    11078    10980    10916 
   10821    10651    10480    10413    10486    10663    10890    11098 
   11210    11194    11099    11003    10941    10940    11005    11075 
   11128    11186    11211    11179    11134    11122    11160    11249 
   11318    11269    11110    10921    10752    10621    10538    10520 
   10598    10759    10941    11074    11109    11014    10817    10648 
   10624    10716    10849    11045    11334    11688    12067    12452 
   12804    13049    13108    12961    12650    12289    11954    11651 
   11418    11281    11148    10925    10656    10420    10242    10085 
    9879     9594     9321     9170     9151     9254     9491     9805 
   10135    10517    10948    11334    11614    11782    11853    11893 
   12004    12194    12379    12436    12298    12017    11703    11425 
   11245    11183    11173    11179    11248    11411    11612    11772 
   11859    11900    11928    11961    11952    11813    11537    11213 
   10917    10702    10632    10665    10682    10631    10530    10434 
   10432    10571    10794    11028    11234    11383    11441    11369 
   11173    10936    10748    10623    10550    10521    10550    10659 
   10835    11025    11211    11395    11570    11696    11730    11670 
   11527    11299    10998    10674    10369    10084     9859     9794 
    9940    10231    10555    10839    11079    11277    11392    11392 
   11317    11211    11099    10989    10916    10918    11014    11169 
   11310    11389    11404    11353    11240    11101    10959    10804 
   10623    10449    10336    10316    10378    10520    10732    10968 
   11184    11377    11556    11720    11873    11985    12012    11929 
   11751    11539    11394    11353    11404    11524    11638    11665 
   11619    11542    11431    11315    11225    11097    10879    10638 
   10444    10330    10311    10372    10476    10628    10831    11010 
   11098    11097    11053    11048    11148    11349    11600    11874 
   12114    12228    12191    12069    11931    11819    11773    11778 
   11746    11620    11445    11303    11238    11240    11225    11122 
   10979    10863    10744    10612    10513    10458    10457    10538 
   10678    10798    10901    11017    11105    11118    11117    11172 
   11288    11410    11464    11416    11310    11219    11180    11191 
