Origin Time       2025/03/30 22:55:00
Lat.              41.993
Long.             142.725
Depth. (km)       55
Mag.              4.6
Station Code      HDKH02
Station Lat.      42.7061
Station Long.     142.4054
Station Height(m) 120
Record Time       2025/03/30 22:56:13
Sampling Freq(Hz) 100Hz
Duration Time(s)  120
Dir.              3
Scale Factor      2940(gal)/6170270
Max. Acc. (gal)   0.215
Last Correction   2025/03/30 22:55:58
Memo.             
[...]
   53377    53376    53374    53373    53374    53374    53375    53375 
   53374    53374    53377    53378    53375    53373    53375    53378 
   53377    53376    53376    53376    53375    53375    53375    53375 
   53375    53377    53376    53373    53375    53378    53376    53375 
   53375    53377    53377    53376    53374    53373    53373    53375 
   53378    53377    53377    53376    53374    53376    53378    53375 
   53373    53375    53376    53376    53377    53376    53375    53376 
   53376    53375    53376    53377    53378    53377    53375    53375 
   53375    53376    53375    53373    53373    53375    53377    53375 
   53373    53375    53375    53376    53378    53377    53375    53376 
   53378    53376    53374    53376    53376    53376    53377    53377 
   53377    53376    53377    53378    53376    53375    53376    53375 
   53375    53377    53375    53374    53376    53375    53374    53376 
   53376    53375    53375    53375    53374    53375    53376    53376 
   53375    53375    53375    53373    53374    53377    53377    53375 
   53373    53373    53376    53376    53375    53376    53375    53373 
   53374    53375    53377    53378    53376    53376    53376    53373 
   53374    53377    53376    53374    53376    53377    53377    53377 
   53377    53375    53374    53375    53375    53376    53377    53377 
   53376    53376    53374    53374    53376    53375    53376    53379 
   53378    53375    53376    53375    53375    53377    53376    53375 
   53375    53375    53373    53375    53377    53376    53375    53376 
   53377    53376    53372    53373    53377    53377    53374    53374 
   53377    53377    53377    53376    53375    53376    53376    53374 
   53374    53376    53377    53376    53376    53376    53375    53374 
   53376    53378    53375    53372    53377    53379    53375    53374 
   53376    53376    53377    53377    53375    53375    53378    53376 
   53374    53376    53375    53374    53377    53376    53374    53376 
   53376    53375    53375    53376    53376    53376    53375    53376 
   53375    53374    53378    53379    53377    53376    53376    53375 
   53375    53375    53376    53376    53376    53376    53375    53375 
   53375    53376    53375    53375    53375    53376    53377    53375 
   53374    53376    53376    53375    53375    53375    53375    53375 
   53376    53377    53375    53374    53375    53376    53376    53375 
   53375    53375    53375    53376    53378    53378    53376    53375 
   53375    53375    53376    53377    53378    53375    53373    53374 
   53376    53377    53377    53375    53376    53375    53375    53377 
   53377    53374    53375    53376    53375    53375    53376    53376 
   53375    53376    53375    53374    53376    53376    53375    53377 
   53375    53374    53376    53376    53375    53376    53376    53375 
   53375    53378    53378    53377    53376    53376    53374    53373 
   53375    53378    53379    53378    53376    53375    53376    53376 
   53375    53373    53373    53374    53374    53376    53377    53376 
   53376    53375    53377    53378    53375    53375    53377    53376 
   53375    53376    53377    53377    53375    53373    53373    53376 
   53378    53377    53376    53375    53377    53377    53376    53376 
   53375    53373    53375    53375    53376    53377    53375    53375 
   53375    53373    53373    53375    53376    53375    53376    53375 
   53374    53376    53376    53374    53375    53376    53375    53375 
   53375    53375    53376    53376    53375    53376    53375    53375 
   53375    53375    53376    53376    53374    53374    53377    53376 
   53374    53376    53376    53376    53376    53376    53375    53376 
   53377    53378    53376    53377    53377    53376    53375    53375 
   53375    53377    53377    53376    53374    53373    53376    53377 
   53374    53375    53376    53377    53377    53376    53377    53377 
   53375    53374    53377    53377    53373    53373    53376    53376 
   53375    53376    53376    53376    53375    53374    53375    53378 
   53378    53377    53375    53374    53375    53375    53374    53374 
   53375    53376    53376    53375    53375    53378    53377    53375 
   53378    53377    53374    53376    53377    53375    53375    53376 
   53378    53378    53376    53377    53376    53374    53376    53379 
   53376    53375    53378    53377    53375    53376    53377    53375 
   53376    53379    53379    53376    53375    53375    53377    53376 
   53377    53378    53376    53375    53378    53375    53372    53375 
   53376    53376    53375    53374    53374    53376    53376    53374 
   53375    53378    53377    53374    53376    53378    53376    53374 
   53374    53374    53376    53376    53375    53376    53376    53375 
   53376    53377    53376    53378    53376    53374    53378    53379 
   53377    53376    53375    53373    53373    53373    53375    53377 
   53377    53378    53377    53374    53374    53377    53375    53374 
   53376    53376    53377    53376    53375    53377    53376    53374 
   53376    53375    53373    53376    53376    53375    53376    53375 
   53375    53376    53375    53375    53376    53376    53375    53375 
   53374    53373    53375    53377    53377    53375    53374    53375 
   53376    53375    53373    53374    53376    53376    53376    53378 
   53377    53376    53377    53376    53374    53373    53376    53377 
   53375    53375    53376    53374    53374    53376    53375    53373 
   53376    53375    53373    53375    53376    53375    53375    53375 
   53374    53374    53375    53377    53379    53375    53374    53377 
   53376    53374    53375    53375    53375    53377    53377    53375 
   53375    53375    53376    53376    53378    53378    53376    53377 
   53377    53375    53375    53376    53374    53376    53379    53377 
   53373    53373    53374    53376    53377    53377    53377    53376 
   53374    53374    53375    53376    53377    53376    53376    53376 
   53376    53375    53375    53376    53375    53374    53376    53376 
   53374    53375    53377    53375    53374    53378    53378    53376 
   53375    53374    53375    53376    53376    53378    53376    53372 
   53375    53378    53377    53376    53375    53374    53376    53378 
   53376    53374    53375    53375    53374    53377    53378    53377 
   53375    53373    53374    53376    53376    53375    53377    53378 
   53377    53376    53375    53375    53376    53377    53376    53374 
   53374    53377    53376    53375    53376    53376    53376    53377 
   53375    53374    53376    53376    53375    53375    53375    53375 
   53375    53374    53375    53377    53377    53376    53375    53375 
   53376    53376    53374    53375    53376    53374    53377    53378 
   53375    53375    53378    53376    53376    53379    53377    53375 
   53375    53376    53375    53375    53378    53378    53375    53376 
   53378    53378    53375    53376    53377    53376    53377    53377 
   53376    53375    53375    53375    53375    53374    53376    53377 
   53378    53377    53376    53376    53377    53377    53375    53375 
   53377    53378    53379    53378    53377    53376    53377    53378 
   53377    53377    53377    53377    53377    53377    53375    53374 
   53376    53378    53376    53376    53378    53377    53374    53375 
   53376    53376    53377    53375    53375    53377    53376    53377 
   53378    53377    53376    53375    53377    53378    53376    53376 
   53375    53374    53377    53380    53376    53375    53377    53376 
   53375    53375    53376    53375    53375    53378    53379    53376 
   53377    53378    53376    53377    53379    53377    53374    53375 
   53376    53376    53375    53375    53376    53377    53376    53374 
   53375    53375    53373    53374    53375    53376    53378    53378 
   53376    53376    53378    53377    53374    53374    53376    53375 
   53376    53377    53376    53376    53377    53376    53375    53377 
   53377    53373    53374    53378    53378    53376    53375    53374 
   53373    53375    53377    53376    53372    53375    53379    53376 
   53375    53377    53376    53376    53379    53378    53377    53377 
   53375    53375    53376    53378    53377    53374    53374    53378 
   53375    53373    53376    53375    53375    53375    53374    53375 
   53377    53377    53378    53376    53377    53377    53375    53375 
   53377    53377    53375    53375    53376    53378    53378    53375 
   53375    53377    53377    53375    53374    53374    53376    53377 
   53375    53375    53377    53377    53376    53375    53376    53377 
   53376    53376    53375    53377    53378    53376    53374    53376 
   53377    53376    53376    53376    53377    53377    53374    53374 
   53376    53374    53376    53377    53374    53375    53380    53378 
   53375    53376    53376    53374    53376    53377    53373    53373 
   53376    53375    53375    53378    53378    53377    53376    53375 
   53374    53376    53376    53375    53374    53375    53378    53377 
   53375    53375    53376    53376    53377    53377    53376    53377 
   53377    53375    53376    53378    53375    53375    53376    53375 
   53375    53378    53378    53377    53376    53375    53376    53377 
   53377    53376    53374    53375    53377    53377    53375    53375 
   53375    53377    53378    53375    53376    53377    53375    53375 
   53377    53376    53375    53374    53374    53376    53376    53376 
   53377    53378    53376    53376    53376    53375    53375    53378 
   53378    53377    53375    53372    53375    53378    53375    53375 
   53376    53374    53377    53378    53376    53377    53376    53376 
   53377    53376    53375    53376    53375    53375    53377    53375 
   53373    53376    53378    53376    53377    53380    53377    53376 
   53378    53376    53374    53377    53379    53376    53376    53377 
   53376    53375    53375    53375    53376    53377    53377    53376 
   53375    53376    53377    53377    53376    53375    53375    53377 
   53377    53374    53375    53377    53375    53375    53376    53376 
   53375    53375    53375    53374    53375    53376    53376    53375 
   53374    53375    53375    53376    53377    53377    53375    53375 
   53375    53374    53375    53377    53375    53372    53375    53377 
   53376    53376    53376    53375    53375    53374    53373    53374 
   53375    53376    53375    53376    53377    53375    53374    53376 
   53375    53375    53377    53377    53376    53377    53376    53374 
   53374    53375    53374    53373    53374    53376    53377    53377 
   53376    53376    53375    53375    53375    53377    53377    53374 
   53375    53378    53376    53375    53376    53377    53378    53378 
   53376    53376    53376    53375    53377    53378    53376    53376 
   53376    53375    53375    53377    53376    53375    53378    53377 
   53373    53375    53377    53376    53376    53376    53375    53376 
   53378    53377    53377    53377    53375    53375    53374    53373 
   53375    53375    53375    53378    53376    53374    53377    53377 
   53376    53378    53378    53375    53374    53376    53376    53374 
   53374    53375    53374    53376    53378    53377    53375    53373 
   53375    53377    53373    53371    53374    53377    53377    53376 
   53375    53377    53376    53374    53375    53377    53378    53378 
   53378    53375    53374    53375    53376    53375    53376    53377 
   53375    53375    53375    53374    53375    53378    53376    53374 
   53375    53377    53376    53376    53378    53376    53372    53373 
   53375    53374    53374    53375    53375    53376    53377    53376 
   53375    53373    53372    53375    53375    53372    53374    53373 
   53369    53371    53374    53371    53370    53371    53370    53366 
   53361    53361    53361    53356    53351    53344    53337    53335 
   53333    53338    53350    53357    53358    53354    53347    53331 
   53313    53294    53275    53262    53268    53295    53338    53381 
   53406    53416    53418    53407    53383    53352    53321    53290 
   53278    53309    53374    53448    53501    53515    53504    53500 
   53510    53511    53478    53414    53354    53339    53370    53415 
   53442    53444    53428    53401    53387    53405    53436    53462 
   53483    53482    53435    53346    53247    53189    53217    53320 
   53443    53537    53565    53523    53431    53334    53287    53291 
   53311    53318    53280    53220    53206    53262    53377    53532 
   53654    53653    53514    53317    53191    53217    53345    53470 
   53529    53521    53485    53438    53364    53269    53210    53238 
   53331    53427    53486    53487    53437    53388    53384    53409 
   53419    53399    53377    53384    53419    53457    53494    53520 
   53497    53422    53325    53246    53229    53255    53255    53237 
   53251    53286    53327    53387    53455    53499    53502    53480 
   53465    53455    53430    53397    53379    53362    53328    53280 
   53239    53242    53313    53419    53492    53508    53473    53382 
   53278    53228    53241    53285    53323    53336    53318    53291 
   53329    53444    53549    53596    53577    53472    53322    53192 
   53052    52924    52954    53171    53414    53564    53621    53582 
   53470    53390    53398    53446    53458    53375    53232    53156 
   53188    53257    53356    53494    53601    53612    53551    53472 
   53375    53263    53200    53225    53295    53350    53374    53397 
   53439    53504    53569    53573    53493    53406    53366    53316 
   53250    53266    53353    53400    53396    53387    53367    53354 
   53390    53439    53446    53426    53381    53296    53215    53199 
   53238    53292    53357    53418    53450    53460    53464    53473 
   53487    53475    53420    53329    53223    53165    53214    53332 
   53449    53544    53601    53587    53471    53292    53176    53176 
   53217    53266    53354    53445    53494    53515    53486    53376 
   53274    53285    53359    53419    53464    53474    53445    53432 
   53414    53334    53234    53195    53243    53365    53517    53602 
   53559    53429    53304    53261    53288    53314    53335    53374 
   53393    53375    53356    53359    53386    53429    53464    53470 
   53448    53404    53357    53337    53320    53282    53260    53303 
   53412    53519    53550    53511    53455    53412    53386    53367 
   53333    53290    53284    53321    53384    53453    53457    53362 
   53259    53228    53263    53313    53326    53324    53367    53442 
   53494    53512    53490    53409    53309    53255    53247    53273 
   53337    53422    53493    53509    53448    53350    53271    53233 
   53258    53328    53395    53453    53495    53479    53423    53385 
   53374    53376    53392    53409    53403    53389    53382    53353 
   53327    53345    53355    53329    53335    53365    53346    53311 
   53337    53393    53415    53411    53376    53308    53277    53307 
   53317    53288    53294    53356    53403    53406    53435    53493 
   53486    53426    53413    53415    53374    53341    53341    53367 
   53427    53469    53445    53402    53356    53276    53211    53227 
   53305    53392    53464    53521    53535    53481    53402    53353 
   53343    53333    53301    53280    53289    53307    53324    53332 
   53330    53322    53307    53321    53384    53440    53456    53458 
   53459    53454    53432    53392    53346    53318    53361    53447 
   53483    53471    53461    53425    53350    53288    53256    53222 
   53207    53248    53326    53400    53456    53486    53490    53469 
   53435    53398    53360    53333    53349    53402    53433    53436 
   53456    53456    53376    53299    53324    53394    53430    53428 
   53383    53321    53310    53348    53384    53415    53446    53461 
   53470    53478    53449    53385    53334    53319    53333    53355 
   53352    53318    53286    53296    53337    53369    53379    53374 
   53370    53380    53422    53486    53493    53421    53360    53352 
   53349    53330    53316    53313    53314    53332    53370    53409 
   53434    53421    53365    53320    53328    53367    53400    53409 
   53417    53451    53480    53482    53474    53417    53302    53255 
   53338    53417    53397    53359    53359    53360    53345    53309 
   53278    53298    53342    53371    53406    53434    53441    53436 
   53379    53296    53295    53341    53356    53379    53413    53415 
   53408    53402    53386    53377    53383    53384    53349    53279 
   53230    53233    53283    53366    53430    53426    53406    53437 
   53460    53391    53294    53278    53338    53402    53445    53461 
   53403    53272    53207    53272    53346    53371    53400    53411 
   53386    53397    53428    53402    53359    53371    53409    53416 
   53397    53350    53294    53309    53385    53419    53427    53488 
   53530    53479    53385    53279    53184    53166    53208    53260 
   53327    53375    53373    53375    53395    53393    53374    53362 
   53354    53341    53333    53347    53385    53409    53394    53397 
   53464    53540    53542    53478    53428    53425    53422    53396 
   53382    53395    53425    53454    53459    53463    53485    53491 
   53481    53455    53379    53279    53225    53226    53269    53339 
   53392    53395    53366    53369    53444    53487    53425    53359 
   53378    53438    53493    53521    53466    53334    53229    53217 
   53269    53345    53398    53395    53375    53384    53402    53396 
   53372    53358    53360    53348    53321    53330    53393    53450 
   53466    53465    53445    53359    53232    53157    53175    53258 
   53348    53385    53377    53360    53327    53286    53262    53251 
   53305    53433    53510    53483    53426    53366    53313    53329 
   53383    53387    53399    53479    53523    53461    53368    53337 
   53363    53368    53345    53345    53334    53285    53297    53413 
   53500    53456    53382    53400    53448    53414    53307    53228 
   53266    53364    53390    53355    53351    53348    53304    53316 
   53423    53475    53421    53397    53408    53339    53228    53199 
   53274    53389    53485    53538    53541    53523    53506    53465 
   53391    53353    53398    53457    53440    53371    53320    53280 
   53254    53269    53280    53272    53303    53375    53433    53454 
   53418    53324    53245    53241    53306    53421    53535    53605 
   53625    53565    53427    53302    53277    53344    53431    53473 
   53448    53388    53334    53300    53291    53319    53371    53420 
   53455    53467    53431    53367    53345    53364    53364    53351 
   53365    53395    53417    53431    53406    53338    53314    53384 
   53447    53417    53335    53271    53250    53295    53392    53440 
   53395    53333    53309    53303    53295    53286    53309    53374 
   53433    53454    53431    53375    53351    53397    53430    53383 
