Origin Time       2025/03/30 22:55:00
Lat.              41.993
Long.             142.725
Depth. (km)       55
Mag.              4.6
Station Code      HDKH02
Station Lat.      42.7061
Station Long.     142.4054
Station Height(m) 230
Record Time       2025/03/30 22:56:13
Sampling Freq(Hz) 100Hz
Duration Time(s)  120
Dir.              6
Scale Factor      3920(gal)/6170801
Max. Acc. (gal)   0.779
Last Correction   2025/03/30 22:55:58
Memo.             
[...]
    4926     4926     4926     4927     4927     4926     4928     4926 
    4923     4924     4925     4925     4925     4924     4926     4927 
    4926     4926     4926     4926     4925     4926     4927     4926 
    4926     4925     4924     4927     4927     4926     4926     4926 
    4925     4927     4928     4926     4926     4927     4926     4925 
    4926     4926     4926     4927     4929     4927     4926     4926 
    4925     4926     4926     4924     4925     4927     4927     4926 
    4926     4927     4927     4928     4927     4925     4927     4929 
    4926     4924     4927     4928     4927     4927     4924     4924 
    4927     4925     4924     4926     4925     4926     4928     4927 
    4926     4926     4927     4927     4925     4926     4926     4928 
    4928     4926     4927     4927     4926     4927     4928     4928 
    4928     4927     4926     4926     4925     4926     4927     4926 
    4924     4924     4926     4925     4925     4927     4926     4925 
    4925     4926     4926     4927     4925     4924     4927     4928 
    4925     4922     4925     4927     4924     4924     4926     4925 
    4926     4927     4924     4923     4926     4927     4926     4926 
    4927     4926     4924     4924     4926     4927     4926     4924 
    4926     4929     4927     4924     4926     4927     4925     4926 
    4925     4924     4925     4926     4927     4925     4924     4926 
    4929     4927     4925     4926     4927     4927     4926     4925 
    4926     4927     4926     4926     4927     4928     4927     4927 
    4926     4926     4925     4926     4927     4925     4924     4925 
    4926     4926     4926     4927     4927     4925     4924     4927 
    4928     4926     4926     4927     4927     4925     4925     4926 
    4926     4925     4925     4928     4928     4925     4926     4928 
    4927     4926     4925     4926     4928     4927     4925     4926 
    4927     4926     4925     4927     4928     4927     4926     4925 
    4925     4926     4925     4925     4926     4926     4925     4924 
    4924     4925     4924     4924     4927     4927     4924     4924 
    4927     4927     4926     4926     4926     4925     4925     4926 
    4926     4926     4927     4928     4927     4926     4926     4926 
    4927     4928     4926     4926     4927     4926     4927     4928 
    4925     4925     4927     4926     4925     4925     4926     4927 
    4928     4926     4924     4926     4929     4927     4925     4926 
    4926     4926     4928     4927     4924     4925     4928     4926 
    4923     4923     4924     4925     4926     4927     4926     4925 
    4926     4926     4926     4926     4926     4926     4924     4924 
    4925     4926     4926     4926     4925     4925     4926     4926 
    4925     4926     4926     4924     4925     4926     4926     4927 
    4927     4926     4927     4928     4926     4926     4926     4926 
    4926     4926     4925     4925     4928     4927     4925     4926 
    4926     4926     4926     4925     4925     4927     4927     4923 
    4924     4927     4927     4927     4927     4927     4926     4925 
    4924     4925     4927     4926     4924     4926     4926     4924 
    4925     4927     4926     4924     4925     4927     4925     4925 
    4927     4928     4926     4925     4926     4927     4925     4924 
    4926     4927     4924     4924     4927     4926     4926     4927 
    4927     4928     4927     4924     4924     4927     4928     4926 
    4925     4926     4927     4927     4927     4926     4925     4926 
    4926     4926     4928     4927     4925     4924     4926     4927 
    4926     4926     4927     4925     4924     4926     4925     4922 
    4924     4926     4925     4925     4927     4926     4926     4926 
    4925     4924     4924     4924     4925     4925     4925     4927 
    4925     4925     4927     4927     4925     4924     4924     4927 
    4929     4926     4922     4923     4926     4927     4925     4925 
    4927     4925     4923     4924     4925     4926     4927     4926 
    4925     4925     4925     4924     4925     4926     4926     4926 
    4926     4926     4925     4925     4924     4926     4928     4925 
    4923     4926     4927     4925     4926     4925     4924     4926 
    4926     4925     4924     4924     4927     4929     4927     4925 
    4925     4926     4926     4925     4924     4925     4926     4925 
    4925     4926     4925     4926     4926     4925     4924     4925 
    4925     4924     4925     4926     4925     4926     4926     4926 
    4926     4925     4923     4923     4925     4925     4923     4925 
    4926     4924     4925     4928     4926     4924     4927     4927 
    4926     4927     4926     4924     4926     4927     4923     4923 
    4926     4926     4926     4927     4926     4923     4925     4927 
    4924     4925     4928     4926     4925     4925     4925     4926 
    4927     4926     4925     4925     4925     4925     4925     4926 
    4925     4925     4925     4925     4926     4926     4928     4929 
    4927     4925     4925     4926     4926     4924     4925     4926 
    4925     4924     4925     4924     4925     4927     4926     4927 
    4927     4925     4926     4927     4928     4927     4926     4927 
    4927     4925     4926     4927     4927     4926     4925     4925 
    4926     4927     4927     4926     4924     4926     4927     4926 
    4925     4926     4924     4926     4928     4925     4924     4926 
    4925     4925     4926     4925     4924     4926     4926     4924 
    4924     4926     4926     4927     4927     4925     4925     4927 
    4926     4927     4927     4925     4926     4927     4925     4926 
    4927     4924     4923     4926     4926     4927     4925     4923 
    4925     4929     4927     4925     4927     4928     4927     4927 
    4927     4928     4927     4926     4924     4924     4927     4928 
    4927     4926     4926     4926     4926     4926     4927     4927 
    4925     4926     4929     4927     4925     4927     4927     4927 
    4927     4926     4927     4928     4926     4926     4928     4928 
    4926     4927     4927     4926     4926     4926     4926     4926 
    4928     4926     4925     4927     4927     4926     4927     4926 
    4923     4925     4928     4927     4926     4927     4928     4927 
    4927     4926     4924     4927     4929     4927     4928     4930 
    4927     4924     4927     4928     4927     4926     4925     4927 
    4929     4928     4926     4927     4928     4927     4926     4927 
    4927     4926     4925     4924     4926     4926     4925     4926 
    4928     4925     4926     4928     4927     4925     4926     4927 
    4926     4927     4927     4928     4928     4928     4926     4925 
    4927     4927     4926     4927     4927     4926     4926     4928 
    4928     4927     4927     4927     4927     4926     4926     4927 
    4927     4926     4927     4927     4925     4927     4929     4928 
    4926     4926     4927     4927     4926     4926     4928     4929 
    4928     4928     4927     4927     4928     4928     4926     4927 
    4928     4927     4927     4927     4925     4926     4929     4928 
    4926     4926     4927     4927     4928     4927     4926     4928 
    4928     4926     4926     4928     4927     4926     4927     4927 
    4926     4927     4927     4925     4927     4927     4925     4925 
    4926     4926     4927     4927     4927     4928     4928     4926 
    4926     4927     4927     4927     4927     4927     4926     4926 
    4927     4928     4928     4929     4928     4926     4927     4928 
    4925     4925     4928     4928     4927     4924     4925     4927 
    4927     4927     4926     4924     4925     4926     4926     4927 
    4927     4927     4927     4926     4924     4924     4927     4928 
    4926     4926     4928     4928     4926     4925     4926     4925 
    4925     4926     4926     4926     4927     4928     4927     4926 
    4926     4927     4926     4926     4927     4926     4927     4927 
    4926     4928     4929     4927     4926     4926     4925     4925 
    4927     4925     4923     4926     4927     4926     4926     4927 
    4926     4926     4927     4925     4926     4928     4926     4925 
    4927     4928     4928     4927     4925     4925     4927     4928 
    4927     4926     4926     4925     4926     4928     4928     4927 
    4925     4925     4927     4927     4926     4927     4926     4925 
    4928     4926     4925     4926     4926     4926     4927     4926 
    4926     4927     4926     4926     4926     4926     4927     4927 
    4927     4928     4926     4926     4926     4925     4926     4928 
    4926     4925     4927     4926     4925     4925     4927     4927 
    4926     4927     4929     4928     4926     4926     4927     4927 
    4926     4925     4927     4927     4925     4925     4925     4926 
    4927     4928     4927     4927     4927     4927     4925     4925 
    4926     4927     4928     4926     4925     4927     4928     4927 
    4927     4928     4928     4926     4924     4925     4925     4925 
    4927     4927     4923     4924     4928     4927     4925     4927 
    4927     4925     4925     4927     4928     4926     4925     4927 
    4926     4927     4927     4924     4923     4927     4927     4926 
    4928     4927     4926     4927     4927     4927     4927     4926 
    4926     4927     4926     4925     4925     4928     4928     4927 
    4929     4927     4925     4926     4927     4927     4927     4927 
    4927     4927     4927     4926     4926     4928     4928     4927 
    4928     4927     4926     4926     4926     4926     4927     4927 
    4926     4926     4927     4925     4925     4927     4926     4925 
    4927     4929     4928     4925     4925     4927     4927     4927 
    4928     4928     4927     4926     4926     4926     4926     4928 
    4928     4926     4925     4926     4927     4927     4925     4926 
    4928     4927     4925     4925     4927     4927     4926     4927 
    4927     4927     4927     4927     4927     4927     4924     4925 
    4928     4928     4926     4927     4928     4926     4925     4924 
    4924     4925     4926     4928     4928     4926     4925     4927 
    4927     4928     4928     4926     4927     4927     4925     4925 
    4927     4928     4926     4926     4927     4928     4926     4926 
    4926     4927     4927     4926     4926     4925     4927     4927 
    4926     4927     4928     4927     4929     4928     4925     4926 
    4927     4926     4925     4925     4927     4926     4925     4925 
    4926     4925     4926     4926     4926     4926     4927     4928 
    4926     4925     4928     4928     4925     4926     4927     4927 
    4929     4927     4924     4926     4927     4926     4926     4925 
    4925     4927     4929     4927     4927     4928     4926     4925 
    4926     4926     4926     4928     4928     4927     4927     4927 
    4927     4926     4927     4927     4927     4926     4926     4926 
    4926     4926     4925     4927     4928     4928     4928     4926 
    4926     4927     4925     4924     4925     4924     4925     4926 
    4926     4927     4928     4925     4923     4926     4927     4926 
    4926     4927     4929     4928     4926     4926     4927     4927 
    4927     4926     4926     4927     4926     4924     4926     4928 
    4928     4925     4926     4927     4926     4926     4926     4926 
    4926     4925     4926     4925     4925     4928     4928     4925 
    4925     4927     4925     4925     4927     4928     4926     4925 
    4925     4927     4929     4928     4927     4927     4927     4926 
    4927     4928     4926     4926     4927     4927     4926     4926 
    4926     4925     4927     4928     4927     4925     4924     4925 
    4927     4926     4926     4928     4928     4926     4927     4927 
    4926     4925     4926     4928     4927     4925     4925     4927 
    4927     4926     4927     4927     4925     4924     4926     4927 
    4924     4923     4926     4927     4925     4925     4926     4926 
    4927     4927     4926     4926     4927     4926     4925     4926 
    4927     4927     4925     4924     4926     4928     4928     4926 
    4925     4927     4930     4926     4924     4927     4927     4924 
    4925     4928     4927     4926     4927     4927     4928     4926 
    4926     4929     4927     4926     4927     4925     4924     4928 
    4928     4925     4924     4926     4926     4925     4926     4926 
    4925     4926     4928     4927     4925     4926     4926     4926 
    4925     4924     4923     4924     4924     4924     4924     4925 
    4925     4923     4923     4922     4919     4917     4917     4918 
    4918     4919     4919     4922     4921     4916     4912     4909 
    4902     4892     4877     4860     4852     4856     4875     4905 
    4937     4962     4969     4949     4914     4875     4829     4774 
    4715     4679     4715     4832     4987     5118     5182     5178 
    5142     5108     5066     4974     4803     4590     4455     4521 
    4787     5115     5323     5312     5172     5114     5253     5473 
    5516     5217     4687     4259     4205     4508     4899     5076 
    4919     4599     4474     4775     5389     5962     6153     5819 
    5101     4349     3909     3958     4399     4891     5090     4916 
    4597     4492     4789     5370     5910     6036     5586     4793 
    4097     3866     4193     4804     5307     5511     5409     5085 
    4708     4500     4658     5157     5646     5714     5275     4628 
    4215     4275     4652     4973     5004     4814     4653     4730 
    5066     5461     5636     5499     5201     4898     4674     4570 
    4588     4718     4902     5016     5019     4951     4851     4791 
    4819     4889     4951     4939     4794     4632     4649     4855 
    5117     5308     5345     5241     5099     5032     5082     5173 
    5155     4950     4614     4287     4126     4207     4465     4789 
    5121     5390     5519     5547     5543     5476     5317     5100 
    4849     4564     4261     4007     3888     3985     4395     5073 
    5718     6048     5975     5539     4977     4606     4447     4338 
    4306     4444     4642     4773     4870     4998     5170     5423 
    5724     5879     5687     5084     4272     3742     3836     4359 
    4898     5245     5376     5351     5290     5282     5295     5222 
    5028     4812     4662     4547     4437     4419     4602     4997 
    5443     5622     5384     5025     4904     4962     4981     4934 
    4810     4558     4312     4281     4491     4855     5260     5531 
    5566     5431     5220     4972     4740     4590     4527     4506 
    4507     4560     4705     4938     5200     5448     5620     5582 
    5293     4892     4537     4374     4486     4760     4992     5114 
    5159     5137     5011     4813     4701     4751     4834     4852 
    4872     4916     4943     4994     5052     4991     4855     4837 
    4973     5173     5348     5322     5029     4715     4573     4526 
    4504     4521     4598     4828     5233     5547     5480     5115 
    4803     4809     5088     5318     5232     4875     4497     4338 
    4494     4868     5219     5333     5212     5023     4895     4866 
    4919     4948     4847     4639     4462     4505     4882     5426 
    5755     5644     5198     4736     4547     4656     4843     4890 
    4743     4525     4464     4670     4959     5096     5077     5023 
    5019     5063     5055     4969     4939     5039     5166     5186 
    5042     4783     4576     4571     4728     4880     4939     4929 
    4924     4973     5046     5076     5010     4894     4870     4992 
    5145     5192     5071     4811     4580     4589     4839     5118 
    5230     5114     4854     4660     4671     4807     4963     5092 
    5068     4855     4673     4670     4758     4879     5046     5180 
    5186     5087     4935     4783     4778     4955     5056     4895 
    4663     4637     4805     5004     5219     5408     5341     5031 
    4796     4755     4799     4851     4838     4789     4846     4973 
    5002     4940     4865     4774     4723     4794     4965     5155 
    5261     5212     5053     4861     4694     4629     4698     4812 
    4850     4834     4876     4985     5087     5145     5113     4928 
    4671     4581     4791     5136     5346     5315     5132     4959 
    4894     4904     4904     4880     4882     4886     4826     4734 
    4707     4763     4834     4891     4916     4870     4796     4830 
    5016     5237     5364     5329     5129     4898     4801     4812 
    4814     4796     4806     4849     4886     4920     5000     5064 
    5000     4895     4937     5105     5200     5110     4869     4643 
    4609     4759     4939     5049     5070     5015     4970     5041 
    5150     5095     4871     4664     4614     4728     4866     4879 
    4809     4816     4955     5142     5220     5105     4903     4796 
    4869     5059     5149     4994     4756     4645     4703     4882 
    5032     5006     4865     4786     4859     5048     5219     5218 
    5020     4802     4752     4866     5004     5049     4985     4894 
    4862     4919     5036     5063     4876     4663     4704     4906 
    4998     4955     4888     4854     4857     4862     4873     4935 
    4999     4999     4992     5059     5178     5200     4982     4669 
    4577     4717     4865     4938     4931     4856     4813     4834 
    4900     5056     5254     5317     5123     4725     4394     4398 
    4735     5190     5464     5326     4890     4534     4478     4647 
    4888     5070     5113     5041     4981     5024     5062     4932 
    4770     4799     4909     4953     4981     4968     4923     4997 
    5110     5040     4858     4799     4876     4957     4979     4924 
    4811     4781     4890     4982     5023     5108     5127     4980 
    4791     4625     4501     4540     4739     4948     5076     5059 
    4919     4849     4973     5187     5295     5190     4938     4689 
    4558     4620     4850     5058     5087     5028     5069     5227 
    5344     5315     5202     5089     4947     4754     4575     4494 
    4582     4801     4989     5075     5078     5030     5048     5152 
    5164     5019     4797     4596     4550     4699     4913     5028 
    4955     4831     4905     5102     5166     5135     5151     5168 
    5129     5038     4831     4531     4366     4504     4833     5101 
    5140     4964     4795     4867     5161     5432     5442     5167 
    4809     4541     4437     4559     4807     4952     4955     4949 
    4973     4943     4818     4694     4698     4858     5045     5097 
    5019     4923     4842     4816     4857     4895     4983     5178 
    5268     5096     4814     4616     4617     4845     5093     5101 
    4962     4931     5009     5053     5016     4989     5041     5041 
    4894     4728     4601     4489     4526     4822     5191     5298 
