Origin Time       2025/03/30 22:55:00
Lat.              41.993
Long.             142.725
Depth. (km)       55
Mag.              4.6
Station Code      HDKH04
Station Lat.      42.5126
Station Long.     142.0381
Station Height(m) -210
Record Time       2025/03/30 22:56:14
Sampling Freq(Hz) 100Hz
Duration Time(s)  120
Dir.              1
Scale Factor      2942(gal)/8224139
Max. Acc. (gal)   0.180
Last Correction   2025/03/30 22:56:14
Memo.             
[...]
   43657    43656    43654    43654    43656    43654    43654    43654 
   43653    43653    43657    43656    43650    43652    43659    43656 
   43653    43654    43654    43653    43653    43654    43661    43660 
   43650    43650    43659    43657    43654    43656    43654    43653 
   43652    43652    43656    43656    43659    43660    43654    43654 
   43657    43656    43656    43656    43653    43652    43653    43652 
   43649    43648    43645    43644    43646    43645    43640    43642 
   43642    43637    43642    43645    43638    43646    43654    43652 
   43657    43661    43664    43672    43675    43673    43676    43679 
   43681    43681    43681    43683    43683    43676    43667    43659 
   43646    43633    43623    43615    43609    43605    43610    43618 
   43626    43629    43625    43623    43627    43627    43633    43640 
   43636    43630    43632    43646    43669    43690    43706    43722 
   43727    43714    43692    43677    43660    43644    43638    43636 
   43633    43625    43614    43611    43622    43650    43680    43694 
   43687    43667    43649    43641    43630    43621    43619    43621 
   43622    43623    43623    43627    43640    43660    43691    43723 
   43740    43722    43687    43657    43642    43638    43640    43638 
   43641    43657    43683    43710    43733    43748    43741    43713 
   43677    43649    43619    43582    43544    43519    43521    43542 
   43565    43605    43675    43750    43799    43816    43815    43802 
   43768    43725    43700    43686    43641    43578    43532    43532 
   43567    43594    43590    43571    43564    43579    43607    43640 
   43672    43694    43692    43692    43721    43762    43779    43757 
   43722    43688    43659    43642    43633    43621    43618    43629 
   43638    43642    43641    43636    43633    43644    43671    43711 
   43741    43744    43722    43700    43711    43738    43735    43706 
   43661    43609    43559    43522    43518    43544    43561    43565 
   43578    43622    43680    43718    43745    43768    43776    43767 
   43754    43754    43764    43781    43800    43810    43799    43760 
   43692    43623    43568    43506    43421    43349    43349    43420 
   43506    43578    43646    43719    43783    43829    43850    43837 
   43776    43690    43623    43591    43568    43552    43542    43545 
   43572    43623    43681    43721    43738    43752    43765    43776 
   43785    43783    43762    43721    43659    43607    43599    43619 
   43632    43617    43594    43594    43629    43677    43703    43695 
   43671    43627    43588    43594    43627    43646    43638    43627 
   43652    43710    43765    43787    43758    43703    43646    43598 
   43579    43586    43598    43615    43629    43625    43614    43617 
   43644    43677    43687    43661    43632    43619    43610    43629 
   43694    43740    43731    43713    43704    43702    43715    43731 
   43717    43665    43592    43528    43495    43501    43536    43587 
   43633    43677    43722    43753    43769    43767    43745    43721 
   43706    43690    43671    43664    43663    43649    43638    43653 
   43657    43626    43588    43567    43569    43590    43606    43621 
   43654    43702    43733    43729    43694    43650    43609    43578 
   43573    43580    43588    43621    43663    43684    43687    43680 
   43652    43613    43584    43567    43567    43595    43650    43715 
   43762    43784    43791    43788    43772    43745    43714    43675 
   43641    43621    43599    43594    43630    43677    43687    43656 
   43611    43590    43599    43634    43691    43735    43742    43721 
   43681    43653    43652    43665    43680    43683    43653    43603 
   43561    43561    43611    43673    43684    43625    43557    43541 
   43564    43595    43618    43632    43626    43611    43607    43617 
   43630    43650    43677    43698    43699    43680    43649    43633 
   43641    43657    43668    43679    43699    43723    43726    43700 
   43681    43675    43668    43679    43698    43722    43753    43753 
   43704    43656    43623    43584    43542    43518    43503    43506 
   43551    43633    43714    43771    43789    43781    43769    43762 
   43771    43788    43787    43758    43722    43690    43649    43598 
   43545    43492    43460    43474    43515    43557    43592    43630 
   43675    43694    43673    43645    43626    43617    43627    43644 
   43642    43625    43611    43613    43630    43659    43688    43704 
   43713    43723    43744    43762    43758    43730    43691    43660 
   43644    43644    43637    43606    43576    43575    43595    43618 
   43642    43663    43677    43688    43717    43775    43818    43806 
   43752    43672    43594    43540    43514    43522    43536    43542 
   43572    43625    43683    43742    43799    43833    43815    43741 
   43646    43575    43551    43568    43605    43640    43663    43677 
   43683    43677    43681    43691    43684    43661    43633    43611 
   43610    43615    43621    43640    43677    43729    43785    43818 
   43799    43727    43621    43515    43455    43452    43475    43517 
   43579    43626    43652    43673    43681    43665    43660    43681 
   43717    43744    43753    43744    43730    43714    43692    43696 
   43723    43719    43672    43640    43630    43613    43615    43642 
   43663    43665    43659    43645    43626    43611    43613    43638 
   43676    43699    43679    43625    43587    43588    43614    43657 
   43695    43718    43730    43729    43715    43711    43725    43731 
   43707    43661    43629    43611    43602    43600    43602    43609 
   43622    43659    43703    43702    43667    43652    43673    43713 
   43734    43718    43681    43649    43623    43602    43578    43559 
   43571    43587    43579    43569    43582    43617    43679    43748 
   43791    43798    43769    43708    43632    43579    43567    43590 
   43637    43687    43721    43731    43715    43687    43665    43650 
   43630    43598    43573    43569    43588    43623    43653    43677 
   43704    43733    43760    43775    43758    43707    43650    43617 
   43606    43615    43633    43644    43636    43614    43606    43634 
   43680    43695    43663    43609    43565    43556    43580    43621 
   43656    43676    43684    43681    43675    43654    43627    43630 
   43656    43667    43648    43618    43621    43664    43699    43699 
   43687    43704    43749    43768    43737    43684    43633    43580 
   43534    43525    43549    43575    43607    43664    43721    43761 
   43769    43725    43650    43598    43582    43588    43611    43630 
   43630    43609    43588    43606    43671    43757    43822    43845 
   43830    43785    43721    43636    43568    43556    43565    43569 
   43582    43605    43642    43694    43729    43723    43687    43641 
   43596    43556    43538    43551    43564    43573    43602    43642 
   43675    43681    43672    43677    43706    43722    43713    43690 
   43663    43644    43653    43675    43671    43637    43609    43610 
   43636    43679    43726    43754    43767    43788    43806    43787 
   43725    43660    43621    43614    43640    43661    43650    43641 
   43633    43596    43559    43560    43594    43633    43675    43717 
   43737    43726    43700    43686    43690    43714    43746    43756 
   43718    43664    43627    43592    43545    43511    43515    43542 
   43551    43551    43605    43707    43785    43811    43800    43757 
   43688    43619    43572    43536    43507    43530    43600    43665 
   43707    43731    43737    43733    43742    43749    43715    43659 
   43615    43598    43607    43633    43646    43632    43606    43584 
   43587    43627    43695    43762    43803    43808    43798    43781 
   43746    43690    43625    43575    43560    43584    43633    43692 
   43752    43772    43738    43699    43684    43665    43619    43571 
   43536    43503    43475    43483    43533    43595    43654    43715 
   43730    43687    43660    43691    43723    43723    43713    43698 
   43672    43653    43640    43618    43578    43526    43507    43529 
   43552    43565    43592    43644    43711    43767    43794    43800 
   43777    43718    43663    43641    43640    43632    43614    43618 
   43672    43734    43757    43742    43717    43688    43648    43594 
   43564    43592    43649    43692    43715    43722    43686    43611 
   43568    43590    43638    43672    43684    43676    43661    43660 
   43668    43668    43653    43637    43623    43605    43588    43588 
   43599    43606    43609    43621    43634    43636    43640    43653 
   43669    43690    43707    43707    43698    43699    43704    43679 
   43629    43590    43575    43549    43517    43524    43571    43619 
   43657    43687    43717    43731    43715    43695    43726    43787 
   43800    43738    43649    43584    43575    43615    43665    43698 
   43703    43683    43659    43654    43657    43640    43603    43586 
   43600    43626    43637    43646    43691    43777    43850    43870 
   43853    43803    43723    43656    43617    43571    43533    43530 
   43537    43559    43617    43660    43661    43653    43645    43652 
   43687    43725    43742    43726    43683    43633    43590    43569 
   43588    43633    43649    43623    43607    43606    43606    43622 
   43645    43665    43686    43699    43718    43750    43765    43734 
   43675    43630    43610    43609    43609    43586    43567    43590 
   43636    43688    43750    43794    43784    43748    43731    43722 
   43684    43634    43622    43645    43646    43619    43602    43609 
   43633    43660    43679    43694    43700    43688    43656    43625 
   43614    43622    43650    43688    43688    43648    43613    43613 
   43630    43641    43652    43675    43699    43717    43703    43668 
   43654    43642    43598    43578    43623    43673    43680    43667 
   43644    43621    43607    43591    43571    43560    43561    43572 
   43595    43619    43630    43642    43686    43753    43795    43776 
   43725    43698    43695    43686    43687    43698    43680    43637 
   43603    43599    43622    43644    43648    43638    43609    43555 
   43510    43524    43586    43648    43669    43661    43654    43659 
   43671    43679    43681    43698    43722    43735    43735    43752 
   43777    43765    43718    43677    43664    43672    43673    43654 
   43622    43594    43586    43607    43663    43735    43776    43730 
   43613    43510    43479    43507    43552    43599    43641    43680 
   43719    43745    43744    43718    43654    43584    43580    43638 
   43690    43711    43713    43691    43661    43664    43714    43771 
   43807    43808    43757    43686    43644    43633    43641    43665 
   43694    43730    43776    43800    43767    43703    43667    43656 
   43650    43641    43629    43640    43679    43704    43690    43652 
   43634    43644    43642    43636    43649    43654    43638    43622 
   43636    43681    43726    43725    43675    43618    43606    43644 
   43690    43694    43661    43627    43583    43505    43426    43407 
   43436    43472    43524    43603    43687    43745    43764    43773 
   43807    43839    43818    43757    43702    43660    43633    43625 
   43626    43644    43676    43706    43730    43767    43788    43750 
   43687    43664    43667    43660    43633    43583    43545    43559 
   43602    43633    43653    43669    43661    43636    43627    43654 
   43699    43749    43810    43853    43848    43808    43764    43731 
   43734    43788    43845    43833    43777    43750    43748    43737 
   43698    43640    43599    43575    43557    43551    43528    43482 
   43452    43460    43491    43510    43499    43479    43475    43502 
   43584    43688    43749    43768    43767    43750    43731    43708 
   43684    43680    43676    43638    43592    43573    43575    43571 
   43561    43545    43518    43509    43511    43503    43495    43492 
   43488    43494    43526    43594    43669    43730    43762    43752 
   43723    43715    43757    43838    43910    43930    43910    43880 
   43850    43819    43798    43789    43815    43883    43920    43873 
   43764    43644    43569    43564    43590    43627    43661    43644 
   43578    43522    43471    43409    43355    43308    43263    43247 
   43271    43351    43482    43586    43592    43551    43525    43529 
   43569    43642    43710    43745    43767    43791    43807    43806 
   43785    43744    43692    43653    43640    43644    43632    43580 
   43522    43483    43449    43432    43470    43532    43544    43525 
   43533    43560    43587    43609    43636    43680    43721    43730 
   43721    43722    43731    43733    43734    43753    43781    43799 
   43800    43788    43772    43767    43772    43749    43665    43528 
   43382    43299    43316    43399    43479    43528    43561    43568 
   43557    43583    43625    43646    43686    43762    43853    43947 
   44016    43999    43897    43773    43672    43603    43576    43600 
   43638    43640    43636    43688    43780    43826    43804    43767 
   43756    43780    43815    43850    43897    43946    43950    43895 
   43795    43694    43609    43529    43451    43374    43302    43245 
   43209    43213    43262    43285    43249    43193    43154    43163 
   43235    43363    43515    43654    43765    43852    43919    43973 
   44008    44004    43958    43892    43849    43842    43854    43872 
   43897    43920    43945    43981    44015    44027    44024    44018 
   44012    44010    44004    43987    43953    43912    43862    43768 
   43646    43556    43503    43451    43380    43313    43262    43235 
   43266    43359    43453    43490    43455    43383    43355    43416 
   43506    43567    43618    43683    43738    43795    43895    43997 
   44026    43968    43850    43721    43642    43615    43599    43586 
   43572    43540    43482    43421    43393    43409    43456    43530 
   43611    43648    43636    43644    43677    43680    43656    43661 
   43686    43686    43684    43704    43718    43711    43691    43667 
   43680    43764    43884    43977    44027    44026    43974    43908 
   43849    43788    43738    43704    43672    43657    43667    43660 
   43618    43573    43532    43487    43452    43445    43470    43490 
   43472    43429    43387    43363    43363    43371    43371    43387 
   43444    43541    43664    43779    43858    43884    43849    43781 
   43738    43734    43733    43719    43713    43698    43659    43649 
   43717    43823    43899    43895    43838    43796    43795    43822 
   43843    43808    43708    43598    43541    43559    43629    43698 
   43703    43650    43610    43618    43656    43691    43698    43669 
   43636    43623    43630    43654    43696    43702    43645    43599 
   43603    43629    43660    43653    43599    43556    43549    43571 
   43606    43641    43667    43673    43668    43690    43769    43861 
   43889    43827    43714    43598    43515    43487    43511    43560 
   43572    43533    43498    43507    43526    43522    43497    43472 
   43470    43498    43541    43595    43676    43776    43858    43888 
   43879    43865    43845    43808    43776    43757    43752    43757 
   43767    43794    43814    43773    43706    43688    43718    43734 
   43717    43703    43700    43680    43638    43590    43553    43548 
   43564    43568    43548    43546    43592    43649    43679    43675 
   43652    43609    43552    43519    43540    43591    43645    43698 
   43749    43792    43831    43849    43806    43710    43614    43551 
   43505    43460    43418    43382    43355    43357    43397    43453 
   43534    43645    43761    43853    43899    43883    43826    43752 
   43664    43583    43525    43514    43572    43671    43779    43872 
   43900    43848    43752    43637    43517    43426    43402    43437 
   43502    43573    43633    43677    43725    43776    43826    43883 
   43930    43962    43988    43977    43904    43792    43664    43534 
   43417    43325    43287    43322    43393    43455    43510    43551 
   43572    43587    43611    43644    43681    43723    43752    43742 
   43695    43626    43542    43468    43443    43468    43538    43667 
   43811    43897    43906    43862    43802    43723    43621    43521 
   43472    43497    43561    43614    43642    43642    43632    43659 
   43725    43788    43814    43806    43798    43815    43853    43875 
   43846    43776    43692    43579    43448    43380    43417    43514 
   43623    43726    43799    43808    43738    43641    43572    43549 
   43567    43607    43646    43691    43735    43745    43715    43672 
   43623    43565    43509    43475    43464    43465    43479    43510 
   43563    43637    43703    43725    43702    43660    43629    43630 
   43664    43702    43731    43765    43806    43846    43861    43841 
   43807    43776    43753    43731    43707    43671    43618    43567 
   43542    43548    43586    43665    43775    43872    43930    43931 
   43862    43761    43671    43587    43497    43414    43372    43391 
   43455    43541    43636    43713    43744    43738    43718    43694 
   43686    43699    43714    43722    43713    43668    43605    43551 
   43524    43534    43584    43661    43734    43768    43749    43686 
   43607    43563    43580    43627    43688    43769    43841    43869 
   43833    43729    43609    43530    43491    43483    43518    43578 
   43638    43691    43715    43690    43650    43654    43684    43706 
   43727    43752    43764    43729    43633    43522    43461    43492 
   43603    43742    43841    43861    43833    43803    43781    43750 
   43707    43648    43564    43501    43510    43564    43623    43661 
   43665    43653    43645    43615    43565    43525    43498    43483 
   43484    43506    43553    43626    43702    43765    43814    43841 
   43835    43823    43845    43881    43883    43841    43758    43637 
   43503    43386    43285    43204    43177    43236    43378    43548 
   43690    43807    43914    43974    43974    43931    43854    43757 
   43660    43591    43583    43607    43623    43615    43583    43557 
   43580    43638    43703    43757    43779    43773    43769    43779 
   43798    43807    43804    43789    43734    43625    43490    43376 
   43330    43353    43411    43483    43537    43559    43584    43633 
   43691    43730    43707    43611    43494    43416    43414    43494 
   43607    43714    43783    43767    43687    43632    43626    43657 
   43711    43765    43794    43785    43758    43746    43750    43757 
   43758    43745    43718    43700    43702    43694    43653    43602 
   43536    43459    43421    43411    43389    43387    43422    43487 
   43579    43659    43698    43731    43772    43789    43769    43719 
   43664    43637    43668    43741    43810    43837    43815    43764 
   43700    43654    43629    43590    43525    43474    43453    43475 
   43559    43680    43788    43866    43887    43798    43626    43471 
