Origin Time       2025/03/30 22:55:00
Lat.              41.993
Long.             142.725
Depth. (km)       55
Mag.              4.6
Station Code      HDKH05
Station Lat.      42.5977
Station Long.     142.5446
Station Height(m) 205
Record Time       2025/03/30 22:56:23
Sampling Freq(Hz) 100Hz
Duration Time(s)  120
Dir.              1
Scale Factor      3920(gal)/6170801
Max. Acc. (gal)   0.124
Last Correction   2025/03/30 22:56:07
Memo.             
[...]
   37800    37804    37813    37824    37830    37828    37822    37820 
   37819    37815    37805    37796    37794    37800    37812    37826 
   37835    37833    37823    37812    37809    37817    37829    37828 
   37816    37806    37807    37818    37836    37851    37851    37841 
   37828    37819    37819    37830    37845    37850    37844    37834 
   37826    37818    37813    37813    37813    37817    37823    37826 
   37829    37836    37843    37846    37841    37829    37813    37797 
   37785    37786    37798    37810    37822    37831    37829    37821 
   37816    37820    37832    37848    37856    37844    37818    37796 
   37796    37811    37830    37839    37833    37819    37810    37811 
   37822    37832    37835    37836    37831    37820    37819    37824 
   37825    37829    37825    37813    37806    37799    37796    37804 
   37809    37813    37823    37832    37836    37843    37838    37818 
   37799    37787    37781    37792    37818    37832    37827    37813 
   37797    37792    37805    37811    37813    37833    37853    37853 
   37847    37835    37807    37780    37772    37773    37783    37805 
   37824    37831    37836    37837    37840    37855    37863    37838 
   37798    37775    37774    37787    37807    37824    37824    37809 
   37791    37773    37766    37775    37786    37794    37812    37834 
   37843    37839    37827    37821    37830    37850    37865    37866 
   37846    37812    37783    37760    37751    37766    37790    37800 
   37804    37818    37840    37862    37862    37833    37809    37800 
   37786    37780    37791    37810    37835    37860    37863    37843 
   37821    37811    37813    37828    37843    37839    37832    37835 
   37828    37824    37840    37849    37843    37841    37827    37799 
   37791    37804    37817    37829    37829    37812    37804    37803 
   37793    37793    37813    37828    37830    37826    37810    37796 
   37804    37828    37839    37831    37812    37787    37779    37798 
   37824    37846    37864    37861    37847    37848    37846    37827 
   37807    37786    37767    37779    37812    37824    37817    37808 
   37804    37818    37853    37886    37897    37875    37828    37784 
   37758    37752    37768    37793    37826    37858    37866    37852 
   37839    37827    37813    37808    37807    37801    37795    37787 
   37781    37791    37820    37856    37887    37889    37855    37810 
   37789    37790    37794    37808    37832    37842    37836    37834 
   37827    37810    37805    37810    37810    37814    37818    37802 
   37774    37746    37735    37757    37789    37814    37829    37823 
   37809    37807    37817    37841    37860    37850    37831    37818 
   37799    37791    37793    37787    37798    37834    37858    37867 
   37868    37850    37824    37811    37812    37813    37813    37814 
   37815    37821    37828    37816    37784    37758    37759    37788 
   37829    37856    37850    37824    37810    37814    37821    37839 
   37855    37841    37820    37816    37817    37823    37838    37837 
   37818    37805    37800    37786    37773    37777    37789    37810 
   37843    37862    37864    37856    37845    37839    37826    37809 
   37812    37817    37804    37789    37779    37772    37790    37819 
   37832    37838    37827    37802    37799    37820    37843    37861 
   37859    37839    37827    37827    37820    37805    37797    37806 
   37826    37838    37834    37838    37856    37864    37858    37844 
   37827    37811    37791    37779    37788    37802    37809    37815 
   37814    37805    37805    37817    37823    37818    37815    37821 
   37818    37808    37812    37814    37811    37821    37825    37806 
   37798    37816    37838    37853    37860    37848    37828    37821 
   37817    37778    37734    37754    37815    37841    37845    37858 
   37858    37847    37847    37839    37810    37784    37770    37772 
   37799    37827    37835    37841    37849    37836    37798    37764 
   37764    37800    37840    37868    37883    37876    37852    37825 
   37798    37788    37807    37821    37803    37778    37761    37768 
   37812    37854    37863    37851    37823    37790    37779    37801 
   37843    37881    37883    37841    37790    37752    37715    37707 
   37756    37825    37874    37896    37888    37857    37825    37806 
   37804    37797    37787    37805    37842    37859    37846    37816 
   37797    37800    37808    37819    37828    37827    37831    37840 
   37829    37816    37815    37788    37758    37768    37793    37816 
   37847    37867    37873    37868    37838    37802    37784    37778 
   37790    37816    37820    37805    37799    37807    37831    37855 
   37863    37862    37850    37824    37804    37793    37781    37781 
   37794    37803    37808    37806    37787    37778    37795    37818 
   37836    37845    37824    37783    37760    37756    37767    37802 
   37837    37851    37867    37889    37894    37882    37859    37820 
   37793    37791    37784    37780    37797    37810    37827    37864 
   37878    37848    37815    37791    37784    37808    37822    37809 
   37814    37818    37778    37748    37761    37778    37795    37838 
   37890    37922    37931    37908    37857    37816    37806    37804 
   37805    37819    37835    37835    37814    37794    37805    37839 
   37848    37821    37782    37744    37726    37755    37826    37880 
   37886    37878    37862    37820    37778    37764    37770    37783 
   37788    37788    37799    37807    37814    37851    37889    37879 
   37847    37823    37807    37815    37851    37880    37889    37881 
   37847    37811    37791    37761    37737    37763    37800    37803 
   37804    37822    37834    37838    37847    37859    37863    37851 
   37821    37790    37778    37785    37784    37779    37798    37830 
   37854    37863    37841    37816    37821    37824    37820    37835 
   37841    37822    37803    37788    37778    37782    37787    37787 
   37787    37783    37775    37773    37790    37824    37848    37857 
   37854    37829    37799    37787    37786    37788    37796    37803 
   37799    37790    37804    37834    37834    37810    37808    37821 
   37816    37818    37844    37876    37890    37869    37840    37830 
   37818    37804    37797    37788    37786    37792    37787    37777 
   37788    37813    37831    37834    37829    37821    37803    37786 
   37790    37804    37815    37840    37870    37875    37856    37821 
   37773    37749    37767    37788    37798    37818    37829    37826 
   37836    37840    37828    37838    37870    37893    37892    37859 
   37814    37790    37794    37812    37829    37839    37847    37833 
   37795    37758    37734    37748    37816    37885    37911    37914 
   37898    37859    37827    37809    37796    37788    37786    37790 
   37801    37827    37852    37847    37824    37809    37789    37774 
   37794    37823    37846    37873    37873    37839    37820    37814 
   37811    37830    37855    37864    37857    37825    37790    37793 
   37819    37817    37798    37806    37831    37836    37826    37805 
   37775    37781    37823    37842    37839    37839    37832    37829 
   37825    37802    37785    37777    37763    37760    37763    37769 
   37799    37830    37838    37835    37818    37796    37793    37800 
   37805    37804    37788    37778    37777    37762    37760    37802 
   37844    37862    37882    37882    37856    37837    37811    37771 
   37774    37827    37863    37872    37873    37851    37825    37827 
   37833    37824    37827    37833    37829    37843    37867    37856 
   37819    37791    37781    37782    37784    37784    37796    37817 
   37826    37835    37856    37860    37842    37818    37784    37755 
   37743    37744    37780    37851    37892    37876    37844    37810 
   37768    37751    37772    37805    37834    37855    37852    37827 
   37810    37810    37821    37848    37871    37860    37838    37829 
   37820    37817    37830    37842    37847    37842    37813    37786 
   37780    37786    37809    37844    37855    37837    37819    37817 
   37808    37784    37786    37817    37833    37831    37827    37812 
   37799    37792    37789    37804    37811    37794    37806    37843 
   37858    37857    37853    37838    37815    37789    37775    37778 
   37782    37784    37780    37759    37759    37794    37816    37819 
   37832    37843    37851    37866    37872    37863    37848    37819 
   37793    37785    37778    37772    37786    37804    37811    37818 
   37825    37828    37832    37825    37811    37804    37801    37800 
   37802    37783    37749    37740    37755    37772    37805    37844 
   37860    37858    37840    37817    37811    37803    37782    37772 
   37787    37818    37844    37850    37865    37893    37886    37844 
   37800    37763    37773    37844    37901    37894    37853    37804 
   37762    37752    37782    37827    37857    37870    37871    37849 
   37825    37827    37835    37822    37808    37821    37839    37834 
   37826    37826    37828    37844    37858    37851    37856    37876 
   37884    37878    37861    37828    37799    37793    37798    37813 
   37840    37863    37875    37876    37862    37844    37822    37796 
   37772    37756    37752    37768    37798    37822    37837    37839 
   37831    37837    37858    37853    37812    37787    37786    37786 
   37802    37836    37847    37836    37822    37794    37761    37750 
   37763    37798    37835    37848    37858    37872    37862    37831 
   37806    37795    37801    37803    37778    37753    37755    37762 
   37760    37757    37761    37785    37808    37817    37830    37843 
   37850    37863    37860    37819    37784    37791    37809    37818 
   37829    37836    37842    37850    37847    37841    37849    37844 
   37813    37789    37805    37840    37863    37883    37913    37929 
   37925    37927    37926    37895    37839    37792    37764    37749 
   37757    37788    37820    37850    37866    37860    37854    37854 
   37835    37805    37802    37830    37865    37893    37905    37891 
   37861    37835    37821    37815    37813    37791    37750    37736 
   37767    37799    37816    37819    37818    37827    37828    37808 
   37807    37819    37805    37792    37809    37828    37848    37855 
   37818    37780    37777    37773    37766    37776    37787    37800 
   37820    37818    37812    37835    37858    37846    37815    37795 
   37806    37837    37854    37854    37846    37820    37796    37790 
   37781    37786    37817    37828    37821    37830    37841    37842 
   37853    37877    37898    37896    37863    37832    37828    37836 
   37829    37797    37760    37736    37729    37737    37757    37780 
   37806    37823    37812    37780    37758    37761    37782    37808 
   37840    37881    37911    37918    37912    37898    37879    37863 
   37837    37799    37779    37782    37779    37772    37775    37777 
   37768    37755    37738    37730    37740    37759    37785    37821 
   37848    37847    37813    37766    37735    37726    37732    37770 
   37828    37872    37888    37881    37857    37828    37801    37775 
   37751    37748    37774    37802    37808    37793    37762    37746 
   37758    37767    37755    37749    37763    37782    37804    37832 
   37845    37841    37846    37851    37825    37782    37751    37739 
   37749    37773    37784    37775    37778    37797    37804    37803 
   37812    37806    37777    37742    37714    37707    37725    37747 
   37771    37814    37865    37897    37897    37866    37823    37801 
   37805    37799    37771    37752    37758    37771    37777    37795 
   37808    37785    37760    37775    37819    37860    37872    37834 
   37793    37793    37808    37826    37870    37920    37964    38006 
   38012    37968    37910    37855    37806    37772    37765    37776 
   37780    37771    37772    37788    37800    37799    37801    37816 
   37835    37859    37888    37900    37892    37880    37857    37828 
   37821    37830    37845    37867    37880    37866    37851    37848 
   37845    37843    37852    37880    37920    37931    37898    37869 
   37863    37846    37809    37784    37774    37773    37792    37812 
   37818    37833    37855    37875    37908    37932    37934    37941 
   37938    37902    37855    37803    37740    37688    37671    37690 
   37723    37754    37794    37842    37866    37869    37877    37895 
   37903    37889    37861    37824    37782    37744    37730    37750 
   37783    37808    37838    37890    37944    37964    37949    37916 
   37879    37842    37806    37779    37772    37782    37788    37788 
   37802    37837    37855    37843    37832    37834    37832    37822 
   37816    37812    37800    37791    37810    37862    37924    37976 
   37997    37981    37939    37894    37863    37855    37866    37875 
   37867    37858    37857    37857    37857    37849    37825    37819 
   37844    37858    37850    37824    37762    37696    37663    37651 
   37667    37721    37782    37840    37888    37897    37876    37859 
   37858    37856    37829    37776    37724    37698    37702    37729 
   37753    37771    37782    37759    37713    37683    37654    37625 
   37623    37637    37657    37699    37747    37784    37821    37852 
   37852    37833    37822    37819    37829    37853    37869    37878 
   37885    37878    37862    37845    37821    37808    37819    37843 
   37871    37895    37889    37839    37786    37764    37762    37762 
   37757    37756    37775    37813    37850    37883    37910    37925 
   37921    37893    37852    37814    37780    37753    37747    37759 
   37769    37770    37774    37780    37781    37779    37765    37736 
   37723    37720    37700    37689    37708    37722    37724    37725 
   37721    37734    37774    37797    37800    37814    37820    37799 
   37787    37802    37821    37841    37871    37897    37918    37936 
   37927    37890    37850    37823    37817    37822    37816    37799 
   37785    37787    37824    37877    37896    37891    37895    37898 
   37891    37881    37864    37850    37854    37868    37890    37919 
   37931    37915    37898    37894    37903    37935    37975    37974 
   37929    37879    37838    37795    37767    37767    37777    37787 
   37794    37776    37756    37763    37780    37793    37807    37798 
   37765    37748    37762    37796    37841    37884    37905    37892 
   37856    37813    37769    37735    37727    37734    37737    37743 
   37756    37757    37749    37741    37735    37724    37708    37706 
   37729    37766    37802    37826    37827    37809    37791    37794 
   37824    37857    37864    37842    37798    37758    37743    37746 
   37764    37805    37839    37842    37834    37837    37860    37906 
   37949    37961    37941    37901    37856    37818    37799    37792 
   37788    37800    37841    37900    37948    37957    37942    37938 
   37937    37923    37898    37859    37817    37790    37775    37763 
   37749    37710    37662    37654    37700    37776    37854    37891 
   37882    37875    37879    37862    37831    37809    37808    37828 
   37846    37849    37855    37853    37848    37864    37884    37898 
   37914    37897    37840    37781    37735    37710    37720    37737 
   37747    37776    37814    37837    37871    37918    37924    37888 
   37844    37790    37729    37700    37707    37729    37753    37759 
   37751    37745    37737    37745    37788    37818    37799    37769 
   37752    37759    37802    37843    37837    37814    37810    37811 
   37814    37833    37858    37867    37852    37814    37775    37762 
   37775    37795    37815    37835    37848    37838    37827    37855 
   37901    37915    37895    37856    37803    37761    37748    37758 
   37779    37790    37780    37778    37798    37817    37829    37837 
   37821    37790    37788    37822    37856    37867    37862    37851 
   37829    37809    37808    37820    37837    37862    37863    37834 
   37806    37789    37783    37792    37802    37830    37888    37937 
   37951    37927    37852    37759    37707    37692    37703    37742 
   37773    37777    37772    37764    37764    37790    37827    37855 
   37865    37857    37849    37841    37817    37793    37781    37767 
   37762    37779    37799    37831    37875    37890    37870    37854 
   37854    37862    37861    37846    37835    37848    37890    37946 
   37980    37972    37932    37885    37853    37849    37857    37849 
   37828    37823    37828    37832    37847    37864    37869    37877 
   37883    37871    37862    37868    37863    37835    37800    37781 
   37776    37767    37762    37783    37814    37832    37835    37829 
   37818    37798    37763    37725    37707    37717    37737    37756 
   37773    37785    37788    37780    37765    37747    37728    37724 
   37732    37734    37734    37751    37781    37802    37809    37823 
   37849    37868    37864    37849    37839    37825    37811    37815 
   37831    37843    37858    37878    37886    37878    37882    37896 
   37892    37871    37842    37813    37796    37779    37764    37776 
   37798    37802    37792    37769    37736    37716    37710    37715 
   37751    37803    37840    37849    37824    37789    37779    37789 
   37805    37822    37831    37840    37852    37860    37872    37891 
   37899    37895    37882    37859    37836    37819    37799    37785 
   37782    37788    37811    37838    37847    37852    37866    37867 
   37853    37827    37794    37773    37763    37752    37742    37739 
   37740    37744    37751    37768    37795    37827    37854    37868 
   37883    37910    37935    37934    37911    37884    37851    37819 
   37796    37770    37737    37739    37789    37843    37885    37924 
   37937    37928    37913    37874    37826    37804    37805    37824 
   37857    37882    37890    37878    37848    37834    37847    37860 
   37868    37875    37878    37882    37880    37862    37844    37821 
   37785    37755    37730    37710    37714    37734    37750    37760 
   37766    37767    37769    37768    37760    37749    37732    37717 
   37730    37759    37771    37765    37765    37784    37819    37852 
   37872    37862    37821    37793    37800    37820    37825    37807 
   37774    37750    37749    37763    37781    37795    37800    37809 
   37828    37835    37827    37822    37820    37815    37831    37866 
   37893    37904    37901    37890    37891    37903    37907    37902 
   37897    37886    37868    37850    37828    37815    37830    37855 
   37879    37906    37916    37893    37852    37805    37773    37763 
   37752    37743    37752    37763    37759    37750    37746    37742 
   37755    37796    37822    37820    37819    37814    37807    37819 
   37832    37824    37809    37803    37820    37854    37877    37881 
   37867    37829    37782    37755    37751    37762    37786    37806 
   37808    37794    37782    37776    37772    37769    37772    37773 
