Origin Time       2025/03/30 22:55:00
Lat.              41.993
Long.             142.725
Depth. (km)       55
Mag.              4.6
Station Code      HDKH03
Station Lat.      42.5934
Station Long.     142.3521
Station Height(m) 54
Record Time       2025/03/30 22:56:27
Sampling Freq(Hz) 100Hz
Duration Time(s)  120
Dir.              3
Scale Factor      2942(gal)/8224139
Max. Acc. (gal)   0.104
Last Correction   2025/03/30 22:56:11
Memo.             
[...]
  -67265   -67190   -67128   -67109   -67123   -67138   -67146   -67143 
  -67122   -67090   -67074   -67078   -67092   -67112   -67139   -67158 
  -67162   -67143   -67108   -67090   -67109   -67153   -67186   -67196 
  -67173   -67135   -67119   -67134   -67161   -67176   -67159   -67109 
  -67047   -67005   -67015   -67084   -67181   -67255   -67274   -67239 
  -67188   -67159   -67158   -67158   -67153   -67150   -67150   -67146 
  -67138   -67139   -67161   -67193   -67211   -67194   -67155   -67127 
  -67124   -67142   -67170   -67207   -67230   -67220   -67184   -67159 
  -67174   -67215   -67251   -67259   -67235   -67186   -67123   -67076 
  -67078   -67127   -67178   -67207   -67221   -67230   -67219   -67186 
  -67144   -67119   -67117   -67135   -67161   -67180   -67180   -67161 
  -67140   -67130   -67124   -67115   -67096   -67074   -67061   -67063 
  -67089   -67136   -67182   -67201   -67182   -67146   -67123   -67111 
  -67101   -67089   -67076   -67070   -67078   -67101   -67138   -67182 
  -67211   -67207   -67170   -67122   -67090   -67093   -67127   -67174 
  -67211   -67225   -67221   -67203   -67178   -67163   -67161   -67159 
  -67162   -67181   -67196   -67184   -67161   -67140   -67127   -67122 
  -67132   -67167   -67205   -67205   -67162   -67105   -67070   -67065 
  -67086   -67132   -67189   -67223   -67213   -67167   -67119   -67108 
  -67143   -67188   -67216   -67224   -67211   -67180   -67155   -67151 
  -67157   -67169   -67188   -67201   -67198   -67188   -67182   -67180 
  -67173   -67167   -67162   -67154   -67154   -67163   -67176   -67177 
  -67158   -67124   -67093   -67077   -67080   -67105   -67150   -67189 
  -67211   -67215   -67198   -67170   -67146   -67132   -67130   -67140 
  -67165   -67193   -67212   -67213   -67193   -67155   -67117   -67103 
  -67122   -67154   -67171   -67166   -67154   -67134   -67104   -67088 
  -67099   -67132   -67173   -67201   -67216   -67216   -67192   -67154 
  -67128   -67123   -67136   -67154   -67165   -67150   -67109   -67072 
  -67061   -67086   -67142   -67203   -67236   -67227   -67181   -67128 
  -67095   -67085   -67092   -67108   -67127   -67139   -67144   -67151 
  -67159   -67158   -67147   -67136   -67138   -67162   -67207   -67251 
  -67282   -67284   -67242   -67165   -67086   -67053   -67084   -67144 
  -67192   -67211   -67207   -67178   -67136   -67100   -67078   -67077 
  -67099   -67138   -67178   -67204   -67217   -67224   -67220   -67198 
  -67166   -67149   -67144   -67132   -67109   -67108   -67134   -67150 
  -67149   -67150   -67153   -67135   -67104   -67093   -67130   -67189 
  -67227   -67235   -67228   -67203   -67167   -67149   -67157   -67188 
  -67205   -67181   -67132   -67092   -67074   -67095   -67150   -67212 
  -67258   -67265   -67230   -67182   -67155   -67157   -67174   -67193 
  -67200   -67194   -67188   -67182   -67184   -67190   -67185   -67157 
  -67123   -67115   -67143   -67181   -67192   -67171   -67139   -67116 
  -67109   -67113   -67127   -67153   -67188   -67207   -67201   -67184 
  -67166   -67146   -67127   -67128   -67149   -67151   -67126   -67101 
  -67100   -67120   -67154   -67177   -67178   -67158   -67117   -67073 
  -67053   -67070   -67113   -67149   -67147   -67122   -67104   -67112 
  -67140   -67174   -67194   -67200   -67200   -67203   -67204   -67192 
  -67170   -67151   -67143   -67142   -67143   -67153   -67155   -67153 
  -67158   -67171   -67177   -67170   -67146   -67113   -67089   -67082 
  -67101   -67143   -67196   -67230   -67211   -67162   -67131   -67135 
  -67167   -67215   -67267   -67311   -67320   -67285   -67232   -67181 
  -67136   -67104   -67088   -67108   -67169   -67232   -67255   -67236 
  -67200   -67161   -67142   -67153   -67177   -67190   -67180   -67155 
  -67123   -67088   -67078   -67113   -67167   -67196   -67197   -67188 
  -67163   -67138   -67128   -67120   -67105   -67097   -67117   -67165 
  -67208   -67220   -67189   -67124   -67055   -67027   -67054   -67115 
  -67171   -67198   -67188   -67153   -67105   -67063   -67062   -67103 
  -67149   -67170   -67163   -67143   -67131   -67130   -67140   -67174 
  -67217   -67246   -67254   -67239   -67205   -67151   -67096   -67078 
  -67103   -67135   -67157   -67174   -67190   -67194   -67177   -67155 
  -67151   -67154   -67149   -67130   -67099   -67074   -67082   -67104 
  -67109   -67116   -67140   -67154   -67151   -67153   -67163   -67173 
  -67166   -67159   -67188   -67243   -67278   -67275   -67243   -67196 
  -67149   -67131   -67157   -67211   -67258   -67255   -67200   -67127 
  -67066   -67032   -67036   -67074   -67116   -67139   -67146   -67142 
  -67135   -67134   -67138   -67132   -67119   -67100   -67085   -67088 
  -67111   -67136   -67154   -67161   -67146   -67113   -67089   -67086 
  -67107   -67142   -67161   -67154   -67143   -67143   -67153   -67169 
  -67181   -67182   -67178   -67176   -67171   -67165   -67163   -67169 
  -67171   -67166   -67162   -67161   -67151   -67124   -67089   -67066 
  -67077   -67112   -67157   -67203   -67235   -67244   -67231   -67190 
  -67128   -67070   -67050   -67058   -67081   -67123   -67161   -67167 
  -67146   -67120   -67123   -67157   -67190   -67213   -67235   -67248 
  -67238   -67224   -67231   -67246   -67251   -67247   -67244   -67242 
  -67230   -67205   -67178   -67161   -67154   -67149   -67149   -67158 
  -67166   -67162   -67158   -67159   -67155   -67147   -67142   -67140 
  -67142   -67142   -67138   -67124   -67097   -67072   -67072   -67100 
  -67143   -67176   -67180   -67150   -67103   -67072   -67078   -67117 
  -67171   -67223   -67246   -67227   -67182   -67150   -67159   -67198 
  -67232   -67236   -67203   -67149   -67109   -67097   -67099   -67111 
  -67122   -67119   -67113   -67117   -67126   -67130   -67135   -67147 
  -67154   -67144   -67131   -67130   -67143   -67154   -67162   -67177 
  -67186   -67186   -67180   -67170   -67170   -67192   -67234   -67273 
  -67290   -67279   -67238   -67176   -67117   -67092   -67105   -67143 
  -67181   -67203   -67201   -67186   -67170   -67150   -67132   -67116 
  -67107   -67126   -67171   -67216   -67232   -67219   -67190   -67159 
  -67140   -67143   -67166   -67189   -67194   -67184   -67165   -67134 
  -67095   -67059   -67043   -67043   -67043   -67034   -67034   -67051 
  -67080   -67113   -67155   -67188   -67181   -67146   -67109   -67093 
  -67103   -67128   -67155   -67169   -67159   -67128   -67096   -67093 
  -67130   -67181   -67220   -67238   -67234   -67212   -67181   -67153 
  -67139   -67144   -67174   -67208   -67227   -67235   -67223   -67193 
  -67177   -67200   -67255   -67308   -67332   -67328   -67296   -67243 
  -67186   -67143   -67127   -67144   -67185   -67211   -67203   -67177 
  -67143   -67112   -67108   -67128   -67144   -67150   -67153   -67149 
  -67138   -67130   -67113   -67090   -67085   -67096   -67103   -67109 
  -67126   -67147   -67158   -67146   -67116   -67093   -67081   -67070 
  -67065   -67081   -67104   -67116   -67112   -67089   -67061   -67045 
  -67049   -67068   -67086   -67108   -67146   -67192   -67223   -67231 
  -67225   -67221   -67231   -67244   -67252   -67258   -67270   -67274 
  -67262   -67243   -67231   -67228   -67236   -67242   -67240   -67235 
  -67230   -67227   -67230   -67238   -67239   -67212   -67162   -67111 
  -67069   -67030   -67005   -67009   -67035   -67062   -67082   -67103 
  -67128   -67151   -67169   -67188   -67203   -67197   -67185   -67180 
  -67167   -67135   -67104   -67089   -67086   -67099   -67122   -67142 
  -67140   -67116   -67088   -67069   -67073   -67103   -67136   -67154 
  -67155   -67151   -67150   -67149   -67136   -67128   -67139   -67150 
  -67140   -67131   -67136   -67149   -67149   -67135   -67124   -67127 
  -67138   -67150   -67161   -67167   -67170   -67165   -67162   -67163 
  -67162   -67171   -67194   -67212   -67224   -67227   -67203   -67167 
  -67166   -67193   -67211   -67203   -67181   -67167   -67182   -67223 
  -67262   -67275   -67262   -67236   -67215   -67201   -67188   -67176 
  -67166   -67142   -67092   -67042   -67023   -67046   -67090   -67120 
  -67115   -67090   -67066   -67062   -67082   -67119   -67153   -67176 
  -67181   -67169   -67150   -67142   -67144   -67147   -67150   -67151 
  -67149   -67144   -67128   -67113   -67113   -67112   -67111   -67117 
  -67131   -67151   -67158   -67139   -67116   -67115   -67131   -67149 
  -67166   -67181   -67184   -67167   -67149   -67147   -67157   -67163 
  -67163   -67154   -67132   -67104   -67090   -67104   -67119   -67126 
  -67142   -67165   -67193   -67227   -67258   -67281   -67289   -67270 
  -67235   -67209   -67197   -67193   -67193   -67190   -67178   -67157 
  -67136   -67128   -67127   -67130   -67135   -67138   -67139   -67131 
  -67119   -67116   -67120   -67132   -67165   -67201   -67217   -67215 
  -67212   -67208   -67190   -67154   -67115   -67096   -67104   -67130 
  -67161   -67180   -67176   -67147   -67104   -67073   -67074   -67105 
  -67161   -67223   -67261   -67263   -67238   -67212   -67204   -67213 
  -67231   -67252   -67270   -67275   -67251   -67207   -67178   -67184 
  -67212   -67231   -67227   -67205   -67173   -67138   -67113   -67117 
  -67143   -67157   -67139   -67099   -67061   -67038   -67023   -67019 
  -67041   -67082   -67120   -67143   -67153   -67140   -67109   -67088 
  -67092   -67105   -67119   -67132   -67138   -67130   -67130   -67159 
  -67224   -67306   -67370   -67386   -67342   -67258   -67182   -67139 
  -67126   -67135   -67158   -67166   -67162   -67170   -67190   -67198 
  -67181   -67140   -67104   -67092   -67096   -67090   -67066   -67042 
  -67038   -67050   -67076   -67122   -67182   -67234   -67251   -67239 
  -67217   -67197   -67181   -67162   -67130   -67093   -67077   -67097 
  -67142   -67186   -67207   -67193   -67154   -67109   -67081   -67085 
  -67120   -67169   -67203   -67219   -67231   -67223   -67182   -67123 
  -67066   -67026   -67008   -67009   -67024   -67053   -67081   -67090 
  -67095   -67103   -67115   -67131   -67161   -67200   -67239   -67259 
  -67261   -67239   -67198   -67150   -67105   -67088   -67093   -67096 
  -67096   -67103   -67109   -67113   -67127   -67153   -67180   -67186 
  -67173   -67144   -67111   -67104   -67131   -67165   -67189   -67201 
  -67203   -67192   -67173   -67167   -67192   -67239   -67279   -67286 
  -67243   -67174   -67120   -67103   -67115   -67144   -67177   -67196 
  -67198   -67181   -67154   -67139   -67142   -67162   -67204   -67252 
  -67297   -67332   -67344   -67329   -67292   -67236   -67176   -67131 
  -67117   -67122   -67127   -67136   -67151   -67153   -67120   -67074 
  -67058   -67082   -67131   -67182   -67223   -67254   -67270   -67262 
  -67236   -67211   -67193   -67186   -67184   -67178   -67173   -67166 
  -67162   -67161   -67144   -67096   -67030   -66985   -66985   -67026 
  -67082   -67132   -67157   -67130   -67050   -66968   -66934   -66950 
  -66996   -67047   -67088   -67116   -67127   -67111   -67076   -67058 
  -67078   -67123   -67165   -67186   -67189   -67181   -67165   -67153 
  -67162   -67193   -67228   -67248   -67252   -67246   -67231   -67203 
  -67166   -67127   -67104   -67108   -67123   -67140   -67163   -67174 
  -67169   -67158   -67158   -67176   -67198   -67207   -67215   -67234 
  -67258   -67293   -67335   -67355   -67339   -67288   -67223   -67167 
  -67127   -67101   -67088   -67084   -67090   -67099   -67101   -67105 
  -67119   -67143   -67173   -67197   -67201   -67173   -67124   -67089 
  -67090   -67127   -67174   -67213   -67234   -67231   -67207   -67188 
  -67177   -67162   -67143   -67126   -67112   -67109   -67115   -67123 
  -67131   -67136   -67131   -67119   -67103   -67078   -67051   -67024 
  -66992   -66961   -66953   -66977   -67018   -67057   -67101   -67163 
  -67232   -67275   -67286   -67293   -67304   -67309   -67319   -67338 
  -67350   -67343   -67308   -67248   -67182   -67136   -67135   -67167 
  -67209   -67244   -67252   -67224   -67189   -67181   -67193   -67208 
  -67225   -67234   -67220   -67192   -67163   -67144   -67134   -67122 
  -67099   -67068   -67046   -67042   -67050   -67066   -67084   -67097 
  -67095   -67076   -67062   -67073   -67104   -67136   -67150   -67149 
  -67150   -67162   -67178   -67194   -67211   -67236   -67275   -67297 
  -67281   -67243   -67207   -67174   -67147   -67130   -67119   -67108 
  -67088   -67055   -67022   -67009   -67027   -67059   -67084   -67089 
  -67084   -67088   -67107   -67135   -67182   -67238   -67270   -67275 
  -67270   -67266   -67277   -67294   -67309   -67313   -67301   -67279 
  -67271   -67286   -67305   -67312   -67308   -67288   -67259   -67235 
  -67219   -67205   -67182   -67136   -67082   -67050   -67054   -67085 
  -67120   -67138   -67140   -67147   -67149   -67130   -67108   -67113 
  -67143   -67170   -67171   -67151   -67135   -67126   -67104   -67068 
  -67035   -67026   -67030   -67028   -67030   -67062   -67113   -67151 
  -67167   -67180   -67188   -67178   -67143   -67099   -67062   -67034 
  -67001   -66955   -66911   -66896   -66912   -66951   -67016   -67080 
  -67116   -67128   -67120   -67104   -67101   -67130   -67186   -67255 
  -67301   -67305   -67284   -67258   -67231   -67196   -67173   -67167 
  -67171   -67180   -67194   -67211   -67224   -67236   -67251   -67267 
  -67271   -67250   -67215   -67192   -67193   -67219   -67266   -67308 
  -67313   -67293   -67277   -67279   -67284   -67279   -67273   -67279 
  -67301   -67335   -67381   -67425   -67448   -67448   -67431   -67405 
  -67378   -67339   -67284   -67225   -67177   -67132   -67093   -67070 
  -67059   -67051   -67035   -67012   -66991   -66988   -67011   -67036 
  -67053   -67072   -67101   -67132   -67161   -67176   -67165   -67128 
  -67088   -67059   -67043   -67027   -67018   -67014   -66991   -66945 
  -66903   -66892   -66896   -66895   -66889   -66883   -66877   -66889 
  -66922   -66962   -67008   -67047   -67063   -67059   -67065   -67089 
  -67124   -67163   -67194   -67203   -67188   -67184   -67213   -67269 
  -67325   -67359   -67365   -67352   -67324   -67284   -67251   -67244 
  -67246   -67239   -67219   -67196   -67184   -67188   -67211   -67240 
  -67257   -67250   -67227   -67200   -67180   -67170   -67162   -67157 
  -67159   -67159   -67147   -67127   -67108   -67100   -67093   -67086 
  -67081   -67086   -67105   -67124   -67144   -67170   -67194   -67208 
  -67198   -67176   -67167   -67178   -67197   -67215   -67238   -67255 
  -67242   -67190   -67131   -67089   -67072   -67082   -67112   -67142 
  -67155   -67154   -67140   -67117   -67096   -67090   -67093   -67090 
  -67074   -67054   -67047   -67054   -67062   -67062   -67050   -67020 
  -66984   -66964   -66973   -67016   -67072   -67112   -67134   -67147 
  -67158   -67170   -67194   -67238   -67282   -67298   -67284   -67263 
  -67255   -67261   -67274   -67290   -67304   -67308   -67301   -67289 
  -67279   -67267   -67251   -67220   -67180   -67144   -67126   -67126 
  -67142   -67163   -67173   -67170   -67162   -67157   -67169   -67205 
  -67247   -67267   -67257   -67224   -67182   -67146   -67122   -67107 
  -67093   -67090   -67097   -67104   -67109   -67112   -67104   -67086 
  -67076   -67084   -67104   -67117   -67117   -67111   -67099   -67072 
  -67046   -67030   -67009   -66976   -66942   -66924   -66926   -66947 
  -66991   -67049   -67103   -67135   -67151   -67173   -67207   -67240 
  -67271   -67304   -67338   -67352   -67340   -67317   -67296   -67277 
  -67259   -67242   -67230   -67221   -67220   -67227   -67235   -67225 
  -67198   -67177   -67170   -67180   -67200   -67213   -67220   -67224 
  -67228   -67234   -67238   -67236   -67231   -67231   -67244   -67265 
  -67270   -67251   -67217   -67174   -67124   -67072   -67032   -67015 
  -67014   -67035   -67084   -67143   -67194   -67220   -67219   -67212 
  -67211   -67212   -67211   -67208   -67196   -67167   -67123   -67084 
  -67059   -67043   -67028   -67018   -67003   -66984   -66973   -66980 
  -66997   -67024   -67059   -67099   -67135   -67165   -67182   -67184 
  -67174   -67162   -67149   -67146   -67171   -67215   -67250   -67254 
  -67230   -67211   -67211   -67221   -67227   -67212   -67186   -67167 
  -67163   -67166   -67166   -67169   -67177   -67185   -67200   -67225 
  -67252   -67273   -67285   -67281   -67261   -67244   -67252   -67284 
  -67320   -67342   -67340   -67328   -67313   -67288   -67251   -67217 
  -67197   -67190   -67190   -67192   -67186   -67169   -67138   -67095 
  -67051   -67034   -67047   -67070   -67086   -67085   -67065   -67031 
  -66995   -66966   -66943   -66928   -66931   -66949   -66972   -67004 
  -67046   -67088   -67116   -67128   -67126   -67128   -67143   -67166 
  -67189   -67201   -67201   -67193   -67176   -67153   -67139   -67132 
  -67126   -67122   -67124   -67126   -67138   -67158   -67169   -67154 
  -67128   -67105   -67086   -67082   -67104   -67139   -67169   -67176 
  -67159   -67142   -67144   -67166   -67201   -67238   -67263   -67278 
  -67281   -67277   -67278   -67279   -67275   -67261   -67232   -67197 
  -67170   -67149   -67131   -67117   -67112   -67111   -67108   -67097 
  -67082   -67069   -67046   -67020   -67008   -67009   -67019   -67038 
  -67058   -67072   -67080   -67080   -67081   -67100   -67134   -67165 
  -67189   -67209   -67219   -67215   -67200   -67180   -67165   -67166 
  -67177   -67181   -67178   -67181   -67186   -67182   -67178   -67189 
  -67217   -67251   -67290   -67327   -67340   -67323   -67286   -67244 
  -67213   -67204   -67205   -67213   -67221   -67213   -67189   -67162 
  -67150   -67163   -67193   -67213   -67209   -67184   -67147   -67117 
  -67105   -67103   -67104   -67117   -67134   -67142   -67136   -67123 
  -67108   -67093   -67081   -67078   -67080   -67074   -67068   -67062 
  -67058   -67066   -67085   -67111   -67146   -67190   -67234   -67263 
  -67277   -67270   -67250   -67231   -67215   -67198   -67186   -67178 
  -67169   -67155   -67134   -67107   -67082   -67065   -67058   -67057 
  -67054   -67043   -67035   -67042   -67058   -67078   -67096   -67097 
  -67086   -67073   -67063   -67076   -67113   -67157   -67194   -67231 
  -67270   -67304   -67317   -67315   -67309   -67313   -67317   -67320 
  -67329   -67342   -67343   -67329   -67309   -67290   -67271   -67255 
  -67242   -67235   -67228   -67211   -67192   -67184   -67171   -67142 
  -67104   -67076   -67068   -67072   -67084   -67090   -67092   -67084 
  -67068   -67049   -67038   -67030   -67020   -67008   -66993   -66981 
  -66977   -66987   -67004   -67023   -67035   -67049   -67070   -67089 
  -67104   -67113   -67116   -67124   -67140   -67158   -67171   -67190 
  -67217   -67247   -67269   -67275   -67261   -67227   -67193   -67174 
  -67177   -67201   -67225   -67230   -67212   -67184   -67159   -67151 
  -67162   -67188   -67219   -67235   -67231   -67216   -67192   -67162 
  -67143   -67143   -67155   -67176   -67194   -67205   -67207   -67194 
  -67173   -67153   -67140   -67143   -67163   -67188   -67200   -67192 
  -67177   -67169   -67161   -67150   -67142   -67136   -67128   -67117 
  -67104   -67093   -67085   -67080   -67085   -67111   -67146   -67173 
  -67186   -67177   -67135   -67082   -67057   -67057   -67068   -67078 
  -67088   -67089   -67078   -67069   -67077   -67097   -67123   -67151 
