Origin Time       2025/03/30 22:55:00
Lat.              41.993
Long.             142.725
Depth. (km)       55
Mag.              4.6
Station Code      HDKH01
Station Lat.      42.7031
Station Long.     142.2296
Station Height(m) 82
Record Time       2025/03/30 22:56:15
Sampling Freq(Hz) 100Hz
Duration Time(s)  120
Dir.              5
Scale Factor      7845(gal)/8223790
Max. Acc. (gal)   0.894
Last Correction   2025/03/30 22:56:16
Memo.             
[...]
    7315     7335     7398     7501     7619     7699     7697     7614 
    7484     7342     7211     7122     7092     7134     7245     7388 
    7528     7635     7688     7700     7681     7641     7597     7554 
    7520     7495     7464     7434     7408     7391     7393     7425 
    7466     7483     7465     7438     7423     7412     7392     7385 
    7433     7537     7651     7727     7732     7673     7561     7414 
    7254     7118     7071     7148     7315     7510     7661     7724 
    7716     7666     7600     7538     7493     7473     7464     7434 
    7389     7341     7307     7321     7383     7470     7558     7618 
    7639     7623     7572     7500     7426     7371     7358     7385 
    7404     7384     7341     7314     7326     7387     7472     7553 
    7618     7649     7645     7614     7565     7515     7474     7453 
    7453     7450     7435     7412     7387     7376     7395     7438 
    7481     7493     7480     7483     7507     7539     7562     7558 
    7527     7469     7392     7315     7250     7223     7253     7342 
    7472     7605     7716     7804     7857     7852     7774     7636 
    7480     7335     7222     7142     7103     7129     7217     7329 
    7435     7514     7564     7592     7596     7587     7577     7576 
    7585     7592     7580     7550     7503     7439     7368     7306 
    7280     7298     7344     7398     7450     7504     7549     7572 
    7570     7558     7543     7519     7484     7447     7420     7420 
    7441     7462     7487     7499     7477     7426     7356     7300 
    7304     7361     7434     7501     7565     7624     7654     7624 
    7537     7430     7371     7377     7415     7446     7449     7441 
    7447     7469     7485     7479     7453     7427     7425     7453 
    7501     7549     7595     7634     7657     7638     7554     7430 
    7314     7223     7171     7171     7234     7345     7464     7564 
    7636     7689     7724     7715     7653     7568     7489     7442 
    7430     7419     7391     7350     7314     7300     7315     7350 
    7407     7483     7560     7612     7632     7616     7570     7524 
    7507     7526     7560     7564     7508     7404     7303     7258 
    7276     7329     7379     7398     7392     7387     7388     7400 
    7429     7485     7576     7668     7722     7724     7684     7627 
    7562     7477     7379     7290     7245     7256     7295     7342 
    7388     7427     7466     7499     7526     7568     7639     7717 
    7755     7719     7619     7495     7391     7312     7249     7210 
    7204     7231     7287     7350     7429     7535     7666     7798 
    7884     7882     7801     7672     7522     7360     7182     7022 
    6936     6956     7078     7256     7449     7631     7788     7900 
    7927     7859     7723     7566     7441     7352     7268     7180 
    7129     7156     7252     7360     7433     7458     7473     7515 
    7593     7689     7754     7755     7712     7649     7578     7511 
    7441     7375     7327     7307     7311     7310     7300     7318 
    7369     7450     7533     7592     7632     7654     7638     7569 
    7454     7342     7273     7254     7283     7352     7454     7574 
    7666     7700     7678     7641     7626     7628     7618     7566 
    7473     7358     7246     7169     7152     7177     7241     7335 
    7434     7520     7574     7593     7616     7651     7680     7678 
    7628     7545     7457     7380     7317     7258     7223     7238 
    7311     7434     7587     7724     7793     7771     7685     7572 
    7469     7392     7329     7281     7246     7227     7237     7273 
    7331     7408     7503     7608     7696     7726     7699     7626 
    7527     7430     7345     7295     7299     7339     7406     7484 
    7541     7558     7538     7488     7430     7388     7381     7404 
    7443     7487     7528     7561     7568     7535     7484     7441 
    7422     7412     7388     7357     7349     7380     7456     7561 
    7661     7723     7712     7631     7516     7389     7268     7176 
    7152     7218     7364     7537     7670     7720     7705     7647 
    7562     7474     7402     7349     7323     7319     7339     7388 
    7443     7487     7520     7560     7596     7623     7626     7587 
    7516     7452     7411     7395     7389     7391     7419     7468 
    7508     7508     7464     7410     7376     7358     7356     7369 
    7418     7511     7622     7715     7761     7736     7654     7533 
    7402     7288     7194     7129     7122     7195     7344     7520 
    7661     7740     7769     7763     7722     7624     7464     7275 
    7129     7071     7103     7211     7368     7549     7716     7811 
    7803     7703     7543     7381     7256     7200     7238     7342 
    7476     7597     7685     7739     7744     7670     7519     7330 
    7163     7075     7078     7146     7249     7381     7538     7688 
    7784     7819     7830     7832     7800     7709     7550     7346 
    7156     7022     6964     6984     7079     7245     7460     7670 
    7831     7909     7906     7862     7790     7697     7585     7452 
    7311     7191     7117     7101     7123     7153     7198     7285 
    7423     7578     7700     7755     7755     7722     7654     7560 
    7462     7381     7350     7375     7403     7396     7364     7344 
    7372     7442     7522     7582     7609     7619     7623     7618 
    7605     7577     7528     7468     7398     7329     7276     7248 
    7254     7287     7344     7427     7515     7570     7580     7555 
    7531     7516     7496     7458     7411     7383     7396     7442 
    7506     7566     7623     7680     7715     7707     7641     7522 
    7387     7283     7222     7191     7191     7237     7335     7466 
    7581     7635     7641     7635     7620     7584     7516     7442 
    7396     7384     7392     7407     7412     7408     7404     7404 
    7420     7464     7538     7634     7711     7723     7663     7576 
    7496     7427     7369     7317     7258     7207     7168     7148 
    7167     7252     7408     7599     7762     7862     7894     7885 
    7832     7720     7555     7381     7240     7152     7118     7137 
    7213     7329     7452     7541     7582     7591     7576     7555 
    7541     7527     7524     7527     7516     7487     7438     7389 
    7358     7354     7380     7419     7464     7518     7568     7597 
    7592     7558     7527     7504     7489     7476     7437     7379 
    7330     7299     7294     7308     7337     7375     7420     7491 
    7577     7646     7672     7654     7615     7577     7539     7489 
    7420     7348     7303     7288     7288     7298     7318     7356 
    7406     7452     7492     7538     7587     7628     7653     7647 
    7622     7592     7545     7470     7385     7318     7287     7291 
    7319     7357     7403     7456     7508     7550     7570     7576 
    7582     7600     7608     7572     7499     7423     7368     7341 
    7339     7372     7438     7518     7584     7620     7626     7612 
    7584     7537     7469     7388     7334     7338     7383     7435 
    7476     7499     7504     7495     7480     7469     7473     7491 
    7515     7541     7551     7523     7470     7414     7365     7327 
    7296     7290     7314     7360     7425     7499     7560     7588 
    7581     7564     7560     7565     7574     7580     7573     7551 
    7516     7466     7410     7360     7333     7327     7325     7327 
    7350     7410     7492     7550     7553     7510     7470     7464 
    7479     7487     7488     7497     7530     7562     7564     7526 
    7481     7469     7469     7447     7412     7380     7366     7365 
    7358     7350     7365     7408     7477     7557     7620     7651 
    7641     7592     7516     7425     7333     7263     7231     7246 
    7295     7356     7419     7499     7604     7715     7804     7846 
    7824     7749     7627     7465     7296     7167     7113     7149 
    7241     7342     7414     7457     7485     7499     7503     7507 
    7522     7550     7568     7561     7545     7533     7531     7530 
    7507     7462     7414     7380     7353     7326     7307     7323 
    7375     7441     7485     7497     7507     7538     7587     7624 
    7632     7607     7554     7483     7402     7327     7292     7312 
    7360     7414     7462     7500     7522     7514     7488     7474 
    7485     7522     7568     7611     7649     7653     7607     7516 
    7402     7292     7222     7209     7246     7319     7419     7547 
    7677     7761     7769     7723     7658     7584     7484     7350 
    7226     7159     7155     7218     7327     7447     7566     7672 
    7740     7744     7666     7543     7431     7349     7311     7326 
    7371     7430     7491     7533     7534     7493     7443     7404 
    7373     7342     7300     7263     7256     7295     7371     7464 
    7566     7670     7759     7825     7844     7797     7692     7550 
    7412     7310     7248     7233     7256     7299     7348     7383 
    7404     7427     7468     7533     7595     7620     7611     7582 
    7549     7510     7461     7416     7388     7375     7381     7392 
    7389     7387     7408     7458     7514     7558     7584     7584 
    7554     7495     7414     7339     7296     7312     7387     7474 
    7551     7601     7618     7620     7620     7611     7588     7543 
    7491     7438     7372     7296     7231     7204     7221     7256 
    7296     7361     7470     7607     7728     7798     7825     7834 
    7824     7767     7663     7547     7462     7438     7445     7438 
    7402     7342     7287     7275     7319     7423     7565     7690 
    7774     7790     7744     7668     7574     7480     7402     7348 
    7312     7279     7248     7237     7248     7279     7323     7366 
    7393     7392     7366     7341     7342     7376     7433     7495 
    7550     7587     7596     7561     7484     7391     7311     7281 
    7310     7358     7396     7415     7400     7356     7287     7214 
    7176     7184     7241     7348     7480     7619     7749     7847 
    7905     7916     7889     7830     7730     7604     7487     7398 
    7348     7338     7364     7414     7452     7445     7385     7288 
    7177     7079     7013     7002     7067     7200     7361     7522 
    7665     7781     7873     7921     7931     7912     7851     7739 
    7584     7398     7221     7098     7056     7091     7177     7304 
    7466     7639     7794     7904     7944     7927     7855     7731 
    7576     7416     7269     7142     7040     6974     6970     7047 
    7199     7381     7547     7674     7774     7847     7869     7846 
    7801     7743     7681     7603     7512     7438     7379     7321 
    7250     7161     7069     6988     6928     6903     6913     6956 
    7033     7138     7276     7437     7595     7728     7816     7855 
    7852     7812     7761     7723     7709     7712     7722     7726 
    7709     7665     7604     7541     7499     7488     7500     7520 
    7530     7518     7481     7398     7272     7149     7053     7007 
    7014     7065     7175     7342     7545     7746     7896     7971 
    7967     7892     7770     7616     7443     7292     7200     7175 
    7198     7236     7261     7252     7202     7130     7078     7076 
    7134     7261     7445     7632     7780     7878     7924     7920 
    7884     7839     7794     7740     7685     7645     7620     7604 
    7580     7553     7542     7550     7546     7495     7395     7280 
    7191     7156     7171     7200     7229     7253     7272     7291 
    7307     7333     7381     7438     7483     7518     7549     7569 
    7573     7564     7555     7565     7604     7669     7747     7827 
    7879     7874     7793     7636     7430     7203     7010     6895 
    6859     6899     7021     7209     7426     7619     7749     7820 
    7846     7832     7776     7665     7516     7368     7250     7187 
    7168     7177     7214     7284     7385     7484     7542     7566 
    7570     7569     7572     7585     7614     7650     7689     7736 
    7789     7838     7861     7842     7778     7662     7500     7307 
    7109     6944     6839     6818     6898     7059     7267     7488 
    7677     7808     7866     7847     7766     7639     7492     7341 
    7200     7111     7101     7152     7240     7338     7442     7551 
    7658     7743     7797     7815     7801     7767     7707     7619 
    7526     7447     7372     7303     7258     7245     7268     7315 
    7361     7415     7492     7597     7704     7765     7763     7712 
    7620     7495     7350     7206     7088     7006     6966     6961 
    6991     7076     7221     7395     7578     7744     7854     7890 
    7866     7798     7708     7630     7581     7558     7543     7504 
    7425     7302     7146     7002     6920     6934     7063     7275 
    7518     7749     7917     8002     8004     7924     7786     7618 
    7439     7280     7145     7055     7042     7115     7257     7426 
    7574     7682     7747     7796     7838     7862     7862     7824 
    7744     7638     7506     7350     7196     7083     7051     7095 
    7176     7249     7279     7245     7153     7026     6928     6918 
    7032     7260     7543     7827     8078     8275     8395     8405 
    8297     8098     7836     7537     7227     6955     6770     6702 
    6759     6910     7109     7331     7545     7717     7846     7911 
    7902     7824     7690     7535     7384     7260     7188     7180 
    7237     7341     7445     7519     7568     7605     7641     7666 
    7676     7655     7608     7554     7497     7441     7393     7350 
    7315     7287     7265     7256     7261     7287     7337     7410 
    7504     7628     7784     7951     8085     8141     8106     7977 
    7770     7512     7242     7024     6899     6876     6934     7036 
    7152     7276     7396     7495     7553     7574     7582     7582 
    7562     7516     7456     7403     7375     7376     7393     7411 
    7437     7481     7541     7609     7682     7762     7850     7912 
    7920     7851     7704     7504     7275     7036     6844     6759 
    6791     6906     7067     7249     7429     7588     7712     7785 
    7812     7816     7808     7774     7699     7597     7485     7372 
    7288     7248     7253     7295     7345     7388     7411     7393 
    7337     7242     7145     7088     7078     7132     7276     7495 
    7751     7997     8179     8270     8255     8154     8000     7819 
    7630     7442     7264     7105     6983     6922     6940     7040 
    7211     7422     7631     7798     7906     7944     7909     7820 
    7708     7576     7429     7268     7102     6961     6874     6858 
    6930     7079     7287     7524     7743     7901     7970     7946 
    7850     7707     7560     7438     7339     7260     7202     7169 
    7167     7200     7272     7369     7477     7585     7659     7677 
    7650     7599     7554     7530     7518     7510     7499     7485 
    7473     7453     7416     7368     7323     7303     7321     7381 
    7491     7624     7753     7839     7874     7861     7794     7685 
    7547     7392     7223     7059     6922     6839     6832     6910 
    7068     7267     7461     7611     7695     7717     7701     7673 
    7654     7658     7697     7744     7770     7762     7715     7635 
    7535     7426     7326     7248     7207     7210     7242     7296 
    7356     7396     7415     7422     7418     7391     7350     7315 
    7303     7315     7352     7399     7447     7497     7535     7558 
    7561     7542     7519     7500     7476     7447     7420     7408 
    7408     7418     7442     7464     7474     7481     7481     7466 
    7434     7388     7338     7295     7283     7323     7411     7534 
    7666     7778     7858     7894     7885     7834     7747     7642 
    7527     7418     7339     7294     7272     7273     7296     7331 
    7358     7368     7368     7361     7346     7322     7291     7277 
    7308     7404     7553     7708     7817     7858     7828     7742 
    7618     7474     7342     7258     7250     7296     7354     7408 
    7454     7499     7558     7627     7692     7739     7773     7793 
    7778     7716     7624     7519     7420     7323     7218     7122 
    7060     7049     7095     7191     7322     7465     7607     7726 
    7790     7790     7742     7661     7569     7474     7383     7299 
    7217     7141     7084     7063     7099     7188     7310     7456 
    7604     7734     7812     7819     7773     7709     7650     7591 
    7523     7454     7388     7331     7294     7275     7281     7311 
    7368     7457     7568     7684     7790     7867     7893     7858 
    7766     7636     7493     7354     7242     7168     7141     7160 
    7217     7302     7404     7511     7608     7678     7712     7704 
    7653     7584     7523     7472     7441     7434     7450     7480 
    7493     7473     7410     7311     7207     7121     7068     7087 
    7182     7333     7511     7688     7834     7931     7960     7904 
    7765     7580     7385     7211     7078     7003     7011     7109 
    7265     7442     7593     7700     7749     7717     7626     7514 
    7420     7379     7384     7402     7410     7396     7373     7349 
    7327     7319     7334     7373     7425     7468     7493     7496 
    7479     7458     7447     7458     7485     7504     7514     7520 
    7541     7596     7692     7804     7896     7944     7943     7885 
    7774     7628     7468     7331     7246     7200     7173     7142 
    7105     7084     7090     7134     7226     7349     7472     7570 
    7643     7697     7717     7711     7685     7639     7597     7555 
    7489     7392     7268     7133     7011     6944     6956     7036 
    7163     7310     7438     7535     7605     7651     7672     7673 
    7655     7620     7570     7526     7501     7515     7570     7641 
    7695     7719     7713     7689     7635     7541     7420     7284 
    7159     7078     7057     7109     7219     7362     7512     7651 
    7767     7857     7901     7892     7823     7700     7539     7369 
    7217     7088     7003     6994     7060     7179     7322     7450 
    7537     7568     7545     7499     7445     7402     7398     7439 
    7519     7624     7732     7819     7859     7851     7793     7676 
    7514     7348     7213     7145     7148     7199     7287     7396 
    7516     7627     7696     7707     7647     7520     7353     7175 
    7028     6952     6978     7106     7300     7519     7724     7886 
    7992     8028     8000     7931     7824     7690     7543     7384 
    7234     7132     7092     7123     7195     7275     7339     7384 
    7412     7426     7420     7411     7414     7437     7483     7547 
    7620     7685     7730     7746     7731     7693     7639     7570 
    7496     7427     7361     7302     7249     7209     7188     7202 
    7238     7276     7311     7357     7411     7483     7570     7661 
