Origin Time       2025/03/30 22:55:00
Lat.              41.993
Long.             142.725
Depth. (km)       55
Mag.              4.6
Station Code      HDKH03
Station Lat.      42.5934
Station Long.     142.3521
Station Height(m) 54
Record Time       2025/03/30 22:56:27
Sampling Freq(Hz) 100Hz
Duration Time(s)  120
Dir.              2
Scale Factor      2942(gal)/8224139
Max. Acc. (gal)   0.171
Last Correction   2025/03/30 22:56:11
Memo.             
[...]
   70274    70286    70295    70285    70285    70291    70283    70275 
   70274    70281    70293    70295    70282    70271    70278    70302 
   70317    70303    70281    70267    70255    70256    70272    70274 
   70270    70279    70278    70264    70259    70267    70282    70291 
   70287    70270    70263    70281    70301    70295    70279    70264 
   70248    70247    70258    70267    70282    70287    70283    70276 
   70256    70240    70236    70240    70255    70266    70266    70278 
   70297    70309    70325    70340    70321    70285    70268    70258 
   70247    70244    70236    70231    70236    70254    70282    70301 
   70308    70325    70339    70335    70313    70281    70255    70248 
   70258    70260    70248    70249    70263    70268    70279    70289 
   70293    70312    70326    70314    70282    70252    70241    70248 
   70267    70286    70290    70291    70301    70303    70303    70306 
   70305    70302    70293    70264    70232    70222    70231    70251 
   70286    70318    70340    70344    70321    70294    70281    70276 
   70274    70271    70271    70287    70318    70330    70322    70312 
   70287    70271    70286    70295    70275    70255    70243    70243 
   70270    70302    70318    70333    70343    70332    70325    70312 
   70276    70258    70255    70243    70252    70274    70270    70264 
   70274    70270    70272    70308    70330    70310    70295    70298 
   70289    70282    70293    70301    70330    70364    70348    70309 
   70276    70245    70241    70264    70279    70278    70267    70256 
   70264    70268    70267    70285    70302    70310    70310    70286 
   70266    70262    70255    70267    70286    70282    70285    70282 
   70244    70195    70170    70193    70251    70305    70347    70351 
   70308    70270    70262    70278    70326    70371    70366    70318 
   70268    70241    70229    70235    70260    70270    70275    70297 
   70301    70305    70316    70318    70339    70360    70349    70317 
   70282    70260    70256    70266    70294    70320    70328    70320 
   70291    70262    70252    70245    70237    70231    70224    70231 
   70249    70274    70290    70287    70290    70313    70320    70302 
   70290    70291    70289    70272    70255    70231    70197    70173 
   70175    70205    70243    70283    70322    70336    70335    70343 
   70351    70367    70390    70389    70364    70339    70316    70299 
   70282    70270    70267    70264    70260    70255    70252    70259 
   70278    70299    70309    70306    70306    70308    70298    70279 
   70270    70278    70282    70268    70256    70268    70294    70303 
   70298    70294    70294    70308    70317    70314    70322    70322 
   70302    70271    70254    70262    70276    70272    70259    70256 
   70272    70287    70290    70289    70276    70266    70259    70255 
   70255    70254    70255    70266    70278    70281    70275    70262 
   70241    70225    70232    70271    70326    70363    70355    70310 
   70279    70282    70285    70267    70259    70262    70258    70255 
   70260    70272    70297    70324    70341    70352    70352    70336 
   70320    70321    70337    70353    70359    70360    70339    70290 
   70255    70268    70293    70309    70341    70363    70343    70320 
   70297    70264    70247    70249    70252    70252    70258    70268 
   70279    70287    70295    70297    70281    70251    70235    70243 
   70263    70290    70317    70324    70332    70352    70352    70344 
   70332    70290    70243    70210    70191    70190    70195    70195 
   70201    70213    70228    70240    70255    70279    70312    70343 
   70355    70337    70310    70285    70268    70276    70299    70303 
   70293    70282    70263    70248    70244    70235    70216    70225 
   70256    70266    70264    70272    70268    70291    70337    70345 
   70351    70366    70364    70356    70337    70309    70289    70268 
   70248    70224    70204    70206    70225    70248    70285    70317 
   70337    70343    70325    70308    70310    70324    70321    70298 
   70289    70294    70275    70239    70222    70208    70191    70209 
   70240    70249    70258    70263    70259    70278    70317    70347 
   70357    70341    70303    70276    70262    70247    70247    70256 
   70264    70281    70293    70291    70282    70276    70281    70282 
   70278    70283    70278    70271    70301    70344    70362    70371 
   70371    70341    70302    70263    70232    70227    70228    70237 
   70255    70264    70283    70316    70343    70362    70370    70355 
   70329    70318    70332    70333    70294    70260    70264    70268 
   70260    70254    70235    70228    70237    70244    70243    70214 
   70174    70183    70249    70310    70352    70401    70438    70430 
   70399    70376    70353    70322    70290    70262    70229    70201 
   70190    70191    70222    70282    70335    70368    70379    70356 
   70313    70274    70251    70244    70256    70275    70279    70254 
   70231    70231    70231    70231    70252    70274    70267    70241 
   70221    70224    70248    70268    70278    70310    70360    70395 
   70410    70401    70374    70339    70310    70299    70283    70264 
   70281    70291    70281    70283    70295    70299    70310    70328 
   70317    70281    70255    70252    70271    70314    70351    70356 
   70349    70343    70320    70285    70260    70255    70272    70289 
   70282    70263    70240    70231    70225    70193    70171    70166 
   70155    70164    70189    70204    70225    70244    70255    70275 
   70291    70289    70278    70267    70271    70291    70309    70321 
   70322    70302    70283    70264    70240    70231    70247    70276 
   70303    70329    70355    70372    70374    70357    70335    70316 
   70305    70301    70306    70321    70345    70360    70360    70352 
   70348    70370    70374    70324    70255    70195    70178    70229 
   70305    70362    70391    70383    70347    70303    70268    70240 
   70216    70206    70202    70194    70186    70177    70173    70187 
   70205    70212    70225    70249    70275    70290    70272    70244 
   70227    70218    70224    70233    70244    70262    70293    70329 
   70355    70371    70371    70360    70343    70317    70298    70295 
   70289    70275    70270    70268    70286    70326    70341    70324 
   70306    70289    70301    70345    70372    70383    70391    70389 
   70380    70360    70322    70299    70316    70339    70330    70313 
   70299    70266    70237    70237    70247    70275    70312    70332 
   70330    70317    70285    70239    70213    70208    70198    70201 
   70213    70212    70217    70228    70225    70217    70220    70225 
   70224    70235    70256    70283    70309    70326    70336    70328 
   70308    70303    70313    70299    70274    70248    70212    70194 
   70201    70201    70205    70218    70222    70227    70244    70270 
   70301    70335    70356    70360    70363    70367    70359    70349 
   70362    70371    70352    70326    70314    70313    70320    70325 
   70326    70321    70305    70278    70243    70228    70248    70274 
   70306    70357    70393    70395    70393    70387    70366    70347 
   70352    70349    70320    70293    70271    70247    70241    70259 
   70275    70286    70291    70271    70244    70239    70255    70270 
   70267    70252    70237    70224    70217    70212    70194    70183 
   70214    70263    70282    70293    70310    70303    70293    70305 
   70306    70285    70266    70254    70256    70258    70233    70197 
   70162    70140    70148    70170    70193    70228    70266    70291 
   70301    70309    70328    70347    70336    70301    70264    70237 
   70227    70243    70282    70321    70321    70299    70294    70294 
   70302    70317    70312    70297    70285    70279    70298    70301 
   70275    70270    70301    70348    70387    70379    70343    70333 
   70345    70348    70348    70347    70328    70282    70224    70182 
   70173    70190    70213    70225    70232    70245    70254    70249 
   70235    70221    70217    70212    70212    70243    70267    70272 
   70294    70310    70310    70314    70301    70290    70306    70317 
   70321    70329    70305    70270    70279    70320    70348    70341 
   70305    70268    70249    70249    70254    70260    70287    70321 
   70360    70411    70436    70432    70452    70480    70476    70440 
   70384    70335    70302    70276    70240    70208    70193    70187 
   70183    70187    70202    70239    70286    70301    70290    70270 
   70231    70216    70243    70275    70297    70313    70336    70349 
   70339    70332    70337    70326    70303    70279    70247    70210 
   70194    70204    70216    70233    70274    70318    70340    70353 
   70370    70370    70344    70309    70279    70264    70251    70210 
   70174    70166    70160    70168    70191    70194    70210    70252 
   70278    70302    70309    70298    70306    70316    70321    70322 
   70301    70275    70259    70244    70235    70220    70200    70202 
   70217    70232    70243    70243    70240    70248    70262    70272 
   70275    70281    70299    70322    70351    70372    70363    70337 
   70317    70294    70286    70294    70291    70279    70267    70245 
   70213    70204    70216    70217    70228    70255    70267    70279 
   70308    70336    70367    70398    70398    70368    70352    70349 
   70324    70286    70274    70289    70309    70336    70391    70456 
   70487    70472    70414    70349    70310    70276    70258    70282 
   70333    70393    70436    70451    70444    70416    70364    70297 
   70235    70206    70202    70206    70205    70209    70248    70297 
   70320    70335    70340    70339    70348    70348    70347    70375 
   70399    70394    70379    70352    70318    70308    70302    70290 
   70274    70248    70220    70208    70214    70240    70285    70322 
   70347    70375    70393    70384    70372    70356    70344    70353 
   70353    70345    70356    70356    70341    70320    70276    70227 
   70194    70171    70160    70162    70168    70183    70206    70236 
   70251    70241    70228    70201    70163    70141    70141    70147 
   70156    70171    70198    70229    70233    70214    70206    70197 
   70195    70227    70262    70268    70267    70267    70266    70256 
   70240    70216    70186    70173    70182    70197    70208    70210 
   70197    70183    70197    70225    70245    70266    70295    70310 
   70301    70295    70317    70343    70348    70359    70393    70411 
   70394    70370    70335    70260    70167    70101    70073    70077 
   70110    70152    70177    70201    70233    70267    70305    70333 
   70349    70366    70370    70357    70336    70306    70278    70254 
   70232    70222    70224    70221    70212    70200    70175    70146 
   70136    70150    70177    70217    70264    70303    70332    70366 
   70409    70444    70467    70476    70476    70471    70459    70432 
   70413    70421    70426    70403    70366    70318    70266    70216 
   70164    70127    70125    70159    70189    70204    70221    70240 
   70267    70314    70374    70426    70453    70452    70409    70326 
   70259    70213    70177    70182    70217    70237    70248    70245 
   70217    70194    70200    70222    70268    70325    70359    70335 
   70281    70259    70255    70262    70306    70355    70379    70397 
   70399    70387    70383    70387    70382    70360    70318    70260 
   70195    70133    70094    70081    70089    70105    70114    70135 
   70174    70220    70262    70289    70312    70345    70390    70428 
   70441    70438    70438    70430    70429    70430    70410    70375 
   70329    70262    70177    70097    70055    70059    70089    70112 
   70123    70131    70133    70164    70233    70297    70349    70398 
   70430    70436    70417    70384    70351    70317    70281    70254 
   70249    70267    70283    70285    70283    70278    70271    70260 
   70240    70206    70174    70159    70164    70193    70240    70290 
   70345    70393    70398    70376    70357    70343    70324    70303 
   70295    70306    70325    70335    70326    70314    70310    70326 
   70356    70363    70344    70321    70289    70252    70225    70201 
   70187    70205    70232    70239    70236    70224    70193    70171 
   70174    70191    70237    70322    70418    70495    70548    70557 
   70522    70460    70386    70318    70262    70224    70212    70218 
   70245    70282    70306    70330    70349    70336    70289    70232 
   70187    70150    70131    70136    70141    70170    70243    70328 
   70406    70467    70502    70518    70510    70467    70424    70379 
   70313    70248    70216    70214    70218    70220    70213    70189 
   70166    70177    70177    70151    70163    70190    70182    70174 
   70197    70244    70312    70389    70452    70490    70510    70521 
   70517    70506    70480    70430    70359    70279    70218    70166 
   70112    70090    70112    70173    70256    70310    70333    70351 
   70348    70349    70364    70376    70395    70403    70395    70394 
   70394    70374    70336    70290    70248    70227    70233    70251 
   70263    70272    70289    70295    70276    70235    70171    70078 
   69975    69885    69828    69805    69808    69846    69930    70052 
   70187    70321    70447    70529    70573    70607    70614    70591 
   70536    70453    70376    70320    70287    70283    70282    70259 
   70231    70205    70179    70168    70181    70212    70247    70271 
   70286    70293    70303    70325    70351    70363    70366    70379 
   70398    70391    70357    70308    70267    70258    70258    70251 
   70259    70290    70314    70318    70318    70314    70279    70220 
   70177    70171    70195    70241    70282    70302    70298    70267 
   70235    70224    70221    70220    70245    70295    70335    70359 
   70357    70310    70244    70171    70119    70143    70222    70314 
   70410    70491    70545    70583    70623    70642    70619    70602 
   70582    70510    70429    70374    70328    70286    70245    70206 
   70181    70170    70155    70140    70148    70178    70214    70268 
   70345    70406    70432    70440    70421    70353    70268    70204 
   70166    70154    70160    70175    70204    70243    70267    70286 
   70303    70301    70267    70222    70197    70195    70212    70228 
   70228    70214    70208    70209    70209    70216    70243    70278 
   70305    70318    70318    70309    70302    70302    70316    70336 
   70344    70349    70355    70345    70336    70343    70339    70297 
   70222    70131    70055    70012    69978    69958    69973    69994 
   70025    70089    70160    70224    70279    70324    70357    70384 
   70411    70443    70480    70506    70486    70429    70371    70320 
   70276    70254    70245    70233    70229    70236    70233    70220 
   70210    70216    70241    70282    70332    70379    70401    70407 
   70417    70416    70382    70324    70289    70305    70355    70421 
   70492    70551    70582    70567    70511    70440    70364    70289 
   70235    70218    70229    70248    70260    70229    70151    70067 
   70001    69966    69969    70006    70071    70135    70193    70256 
   70317    70357    70372    70368    70355    70332    70294    70232 
   70162    70109    70081    70082    70110    70156    70216    70282 
   70332    70359    70367    70347    70321    70325    70352    70395 
   70449    70511    70567    70594    70607    70600    70557    70505 
   70437    70345    70264    70216    70174    70139    70119    70097 
   70062    70031    70035    70065    70097    70150    70228    70286 
   70294    70267    70220    70174    70163    70175    70205    70256 
   70316    70378    70441    70510    70546    70526    70492    70472 
   70436    70376    70322    70282    70245    70217    70194    70175 
   70179    70201    70212    70218    70241    70290    70343    70364 
   70353    70335    70297    70241    70204    70185    70178    70187 
   70209    70245    70302    70347    70364    70362    70345    70328 
   70329    70340    70364    70407    70443    70451    70418    70357 
   70298    70251    70216    70204    70210    70231    70274    70337 
   70393    70430    70457    70457    70425    70375    70312    70252 
   70210    70186    70185    70191    70186    70173    70150    70127 
   70124    70140    70162    70179    70200    70224    70236    70240 
   70237    70218    70190    70154    70121    70096    70075    70063 
   70065    70090    70131    70151    70166    70183    70182    70174 
   70178    70174    70159    70151    70151    70168    70202    70239 
   70282    70333    70384    70429    70460    70478    70484    70472 
   70441    70391    70325    70262    70218    70214    70249    70299 
   70347    70391    70449    70521    70583    70627    70665    70681 
   70672    70638    70592    70551    70497    70416    70349    70333 
   70340    70332    70328    70330    70328    70320    70291    70255 
   70236    70233    70258    70301    70317    70316    70318    70316 
   70312    70324    70341    70333    70312    70289    70264    70247 
   70222    70182    70160    70154    70129    70105    70092    70077 
   70067    70083    70106    70112    70121    70146    70155    70164 
   70198    70229    70254    70276    70276    70256    70239    70255 
   70278    70271    70248    70232    70218    70205    70187    70155 
   70139    70159    70179    70189    70213    70244    70262    70282 
   70299    70291    70275    70271    70276    70301    70328    70330 
   70332    70355    70382    70401    70424    70468    70521    70553 
   70563    70557    70544    70532    70510    70467    70416    70370 
   70328    70298    70286    70291    70309    70336    70352    70335 
   70301    70285    70271    70241    70205    70175    70160    70158 
   70162    70163    70141    70117    70110    70112    70113    70110 
   70121    70163    70225    70281    70317    70344    70359    70349 
   70333    70336    70347    70341    70329    70320    70299    70270 
   70240    70220    70214    70224    70236    70249    70268    70282 
   70308    70341    70357    70364    70357    70328    70297    70260 
   70216    70181    70151    70140    70159    70171    70164    70159 
   70154    70132    70106    70098    70120    70150    70170    70194 
   70214    70221    70228    70243    70266    70293    70324    70355 
   70374    70387    70397    70383    70359    70341    70321    70309 
   70310    70305    70308    70329    70355    70374    70374    70347 
   70290    70248    70244    70231    70205    70200    70210    70229 
   70255    70289    70330    70352    70353    70360    70362    70352 
   70348    70345    70336    70317    70289    70268    70268    70281 
   70295    70320    70341    70340    70344    70364    70366    70359 
   70371    70389    70399    70389    70364    70330    70281    70241 
   70216    70193    70201    70232    70258    70298    70336    70351 
