Origin Time       2025/03/30 22:55:00
Lat.              41.993
Long.             142.725
Depth. (km)       55
Mag.              4.6
Station Code      HDKH07
Station Lat.      42.1330
Station Long.     142.9164
Station Height(m) 40
Record Time       2025/03/30 22:56:07
Sampling Freq(Hz) 100Hz
Duration Time(s)  120
Dir.              4
Scale Factor      7845(gal)/8223790
Max. Acc. (gal)   6.459
Last Correction   2025/03/30 22:56:07
Memo.             
[...]
    1420     1418     1421     1422     1420     1420     1422     1422 
    1422     1421     1420     1420     1421     1420     1418     1418 
    1420     1420     1421     1421     1420     1417     1420     1424 
    1424     1421     1421     1420     1416     1417     1420     1417 
    1418     1420     1420     1420     1422     1421     1420     1421 
    1421     1420     1418     1418     1416     1414     1417     1422 
    1424     1421     1421     1421     1417     1418     1421     1420 
    1421     1421     1420     1420     1417     1418     1421     1418 
    1417     1418     1421     1421     1421     1420     1417     1417 
    1418     1418     1420     1421     1420     1418     1420     1420 
    1420     1418     1418     1420     1421     1418     1418     1420 
    1420     1420     1422     1424     1421     1420     1421     1421 
    1420     1418     1418     1418     1420     1422     1421     1420 
    1421     1420     1420     1420     1420     1421     1418     1417 
    1418     1420     1421     1422     1420     1420     1421     1420 
    1418     1421     1421     1418     1420     1417     1414     1420 
    1421     1420     1420     1418     1420     1422     1422     1420 
    1420     1420     1418     1414     1417     1421     1422     1422 
    1422     1421     1421     1421     1420     1418     1417     1417 
    1418     1420     1420     1420     1420     1424     1425     1424 
    1421     1418     1416     1417     1418     1421     1424     1422 
    1420     1418     1420     1422     1421     1417     1418     1422 
    1421     1420     1421     1421     1420     1420     1422     1425 
    1421     1417     1418     1422     1424     1421     1420     1418 
    1417     1417     1421     1421     1417     1418     1421     1421 
    1421     1421     1420     1417     1420     1418     1417     1420 
    1421     1420     1420     1422     1424     1422     1418     1416 
    1417     1420     1420     1420     1422     1420     1421     1425 
    1422     1416     1418     1424     1421     1418     1417     1421 
    1422     1421     1420     1420     1418     1417     1418     1421 
    1420     1420     1421     1420     1418     1420     1420     1418 
    1418     1417     1420     1422     1425     1422     1417     1418 
    1422     1420     1416     1417     1417     1417     1421     1425 
    1421     1418     1420     1420     1418     1420     1418     1417 
    1420     1418     1416     1418     1421     1422     1425     1422 
    1417     1416     1420     1421     1420     1421     1421     1416 
    1417     1422     1421     1420     1420     1414     1414     1421 
    1422     1418     1420     1418     1417     1420     1422     1421 
    1417     1417     1421     1420     1417     1421     1424     1420 
    1417     1416     1414     1417     1421     1420     1418     1421 
    1422     1420     1418     1418     1417     1417     1421     1420 
    1418     1422     1424     1421     1418     1420     1418     1418 
    1418     1420     1418     1417     1420     1422     1421     1420 
    1418     1417     1418     1420     1422     1421     1418     1417 
    1418     1421     1422     1421     1420     1420     1420     1420 
    1418     1420     1418     1416     1417     1422     1422     1422 
    1422     1421     1420     1420     1420     1418     1420     1420 
    1420     1421     1422     1421     1420     1420     1420     1420 
    1420     1421     1421     1421     1421     1420     1417     1417 
    1420     1424     1422     1418     1421     1424     1421     1417 
    1418     1418     1417     1420     1421     1420     1420     1418 
    1418     1421     1424     1422     1418     1417     1418     1418 
    1420     1422     1420     1417     1417     1418     1421     1424 
    1422     1418     1416     1417     1418     1420     1421     1421 
    1418     1420     1422     1422     1421     1421     1421     1421 
    1421     1424     1425     1421     1417     1417     1418     1420 
    1421     1421     1417     1417     1420     1421     1421     1421 
    1420     1418     1421     1421     1420     1421     1421     1418 
    1420     1421     1418     1418     1421     1421     1420     1418 
    1417     1418     1420     1421     1422     1420     1420     1424 
    1421     1416     1421     1422     1420     1418     1417     1420 
    1420     1418     1418     1418     1420     1420     1418     1421 
    1421     1418     1418     1417     1418     1421     1422     1421 
    1418     1420     1421     1420     1420     1422     1421     1417 
    1420     1422     1420     1418     1422     1421     1417     1418 
    1417     1414     1416     1420     1422     1422     1420     1418 
    1420     1420     1418     1418     1420     1421     1422     1421 
    1417     1417     1418     1420     1422     1421     1417     1418 
    1418     1416     1418     1424     1425     1418     1416     1420 
    1421     1418     1418     1421     1421     1418     1417     1418 
    1422     1422     1421     1417     1417     1418     1422     1422 
    1420     1417     1418     1420     1421     1422     1418     1414 
    1414     1418     1421     1424     1422     1418     1416     1416 
    1420     1425     1424     1420     1417     1414     1416     1422 
    1426     1424     1420     1418     1418     1418     1418     1418 
    1418     1420     1424     1424     1417     1413     1418     1421 
    1422     1421     1418     1418     1421     1420     1417     1417 
    1418     1424     1421     1414     1413     1420     1424     1424 
    1424     1424     1420     1417     1417     1416     1417     1422 
    1424     1421     1420     1418     1417     1420     1421     1421 
    1421     1421     1422     1420     1416     1418     1422     1424 
    1425     1421     1418     1420     1418     1417     1421     1426 
    1425     1421     1416     1417     1420     1417     1418     1422 
    1421     1420     1418     1418     1421     1424     1424     1424 
    1420     1417     1417     1420     1421     1422     1424     1421 
    1421     1421     1418     1417     1418     1418     1416     1416 
    1414     1410     1404     1397     1395     1397     1393     1385 
    1383     1385     1386     1389     1391     1391     1390     1385 
    1381     1378     1370     1366     1368     1375     1397     1437 
    1489     1545     1598     1622     1601     1544     1478     1429 
    1413     1425     1460     1525     1620     1721     1795     1809 
    1738     1591     1379     1123      909      861     1059     1466 
    1910     2185     2143     1776     1215      639      229      141 
     464     1136     1921     2481     2608     2334     1849     1339 
     868      433      139      189      702     1540     2347     2793 
    2793     2467     1985     1455      928      476      220      274 
     673     1325     2079     2748     3079     2863     2114     1090 
     172     -305     -198      417     1294     2135     2716     2897 
    2583     1788      715     -249     -693     -419      495     1763 
    2883     3358     3046     2199     1262      645      500      664 
     884     1093     1409     1871     2326     2544     2328     1664 
     810      136      -55      373     1302     2313     2871     2629 
    1749      773      221      333      954     1648     2091     2258 
    2261     2168     1968     1653     1262      864      589      544 
     716     1059     1494     1895     2192     2342     2200     1678 
     939      317       78      282      812     1487     2112     2489 
    2512     2251     1910     1611     1321     1007      781      820 
    1209     1809     2282     2320     1852     1096      460      301 
     681     1355     1971     2276     2184     1764     1198      715 
     503      708     1391     2315     2975     2983     2342     1452 
     838      714      927     1250     1547     1769     1863     1702 
    1220      568       29     -120      225      897     1584     2025 
    2079     1783     1313      901      784     1038     1498     1933 
    2147     2046     1740     1456     1321     1282     1228     1167 
    1182     1302     1522     1799     1977     1944     1757     1524 
    1341     1314     1420     1536     1583     1539     1402     1243 
    1152     1112     1063     1034     1089     1246     1464     1652 
    1725     1642     1462     1340     1383     1529     1652     1675 
    1548     1297     1067     1032     1254     1605     1850     1810 
    1474     1012      689      688      999     1432     1729     1768 
    1676     1641     1730     1871     1898     1726     1436     1158 
    1009     1059     1277     1545     1701     1614     1321     1032 
     981     1242     1626     1813     1637     1236      926      912 
    1169     1522     1799     1903     1852     1723     1564     1428 
    1432     1617     1877     2045     1989     1701     1360     1215 
    1348     1622     1796     1674     1232      681      310      313 
     685     1240     1733     1945     1777     1374     1007      845 
     930     1210     1567     1857     1952     1834     1655     1560 
    1587     1663     1610     1329      934      625      567      812 
    1204     1536     1753     1857     1836     1714     1572     1544 
    1725     2043     2274     2228     1898     1466     1197     1197 
    1296     1258     1020      693      518      720     1243     1769 
    2012     1914     1652     1444     1306     1124      877      680 
     668      932     1413     1858     2016     1868     1628     1541 
    1672     1860     1883     1615     1117      652      513      780 
    1262     1702     1950     1965     1775     1453     1107      854 
     793      918     1140     1378     1599     1810     1993     2088 
    2016     1768     1437     1175     1124     1329     1667     1895 
    1852     1598     1324     1171     1171     1267     1360     1378 
    1328     1262     1216     1224     1296     1395     1483     1566 
    1626     1610     1487     1294     1116     1034     1120     1444 
    1956     2428     2610     2378     1776     1009      368       74 
     175      557     1055     1547     1933     2099     1983     1653 
    1246      873      623      557      710     1063     1557     2079 
    2444     2496     2215     1763     1387     1247     1296     1374 
    1363     1269     1231     1364     1606     1807     1864     1714 
    1377      997      750      746      994     1371     1674     1746 
    1564     1259     1036     1019     1213     1530     1818     1991 
    2062     2066     1961     1694     1321     1007      904     1048 
    1300     1424     1323     1097      919      900     1035     1235 
    1421     1578     1726     1885     2039     2127     2085     1911 
    1663     1449     1385     1486     1644     1705     1575     1287 
     973      772      774      973     1236     1408     1443     1402 
    1389     1462     1559     1580     1494     1323     1131      989 
     950     1043     1251     1541     1880     2174     2317     2227 
    1880     1351      808      476      545     1030     1715     2290 
    2497     2241     1633      946      454      309      526     1036 
    1687     2259     2554     2461     2019     1410      884      608 
     630      870     1186     1476     1713     1868     1895     1784 
    1576     1363     1266     1345     1551     1745     1787     1618 
    1314     1032      900      938     1034     1101     1185     1358 
    1587     1746     1698     1439     1143     1032     1206     1561 
    1850     1857     1547     1075      653      400      341      461 
     737     1146     1649     2118     2370     2303     1962     1541 
    1246     1135     1119     1093     1038     1044     1240     1617 
    2000     2231     2284     2227     2147     2068     1930     1688 
    1417     1297     1455     1818     2133     2142     1783     1240 
     769      550      637      909     1129     1155     1035      915 
     916     1054     1227     1310     1251     1125     1048     1093 
    1296     1580     1782     1809     1711     1602     1544     1510 
    1486     1499     1547     1587     1572     1462     1283     1119 
    1031     1046     1148     1275     1358     1389     1408     1440 
    1476     1451     1313     1117     1003     1104     1443     1894 
    2281     2461     2376     2083     1701     1362     1155     1084 
    1086     1124     1196     1321     1513     1706     1779     1663 
    1414     1197     1158     1291     1470     1566     1526     1397 
    1266     1194     1192     1232     1278     1297     1229      984 
     541       20     -380     -513     -371      -83      195      359 
     407      433      525      679      826      963     1192     1620 
    2209     2756     3064     3075     2860     2585     2404     2363 
    2442     2601     2801     2986     3088     3052     2857     2512 
    2062     1590     1183      953      982     1246     1579     1771 
    1640     1147      504       58       45      506     1323     2293 
    3176     3720     3724     3134     2070      808     -261     -796 
    -657       28      962     1822     2394     2610     2509     2147 
    1556      776      -54     -673     -746       -6     1591     3797 
    6060     7707     8191     7258     5067     2196     -565    -2520 
   -3281    -2884    -1740     -419      587     1020      831      102 
   -1011    -2257    -3252    -3574    -2934    -1328      896     3195 
    5050     6122     6343     5859     4880     3626     2284      996 
     -95     -772     -789      -71     1186     2600     3748     4328 
    4226     3523     2413     1169      101     -530     -607     -222 
     345      757      753      280     -456    -1094    -1275     -797 
     291     1745     3192     4261     4718     4513     3782     2789 
    1831     1154      884     1012     1337     1503     1198      342 
    -835    -1888    -2370    -2046     -962      568     2106     3300 
    3977     4135     3909     3450     2906     2467     2350     2713 
    3493     4359     4872     4738     3943     2682     1186     -356 
   -1765    -2802    -3208    -2855    -1860     -567      637     1453 
    1725     1466      854      175     -267     -261      236     1096 
    2081     2974     3672     4172     4530     4758     4789     4514 
    3877     2937     1858      843       44     -475     -753     -905 
   -1030    -1166    -1306    -1406    -1381    -1129     -584      247 
    1285     2378     3296     3819     3873     3584     3215     3021 
    3090     3308     3458     3373     3078     2762     2609     2636 
    2654     2412     1795      924       89     -418     -479     -203 
     148      322      189     -183     -568     -687     -342      490 
    1625     2736     3519     3827     3708     3337     2893     2485 
    2093     1590      855      -99    -1120    -1949    -2343    -2191 
   -1540     -583      413     1220     1748     2008     2072     2052 
    2089     2307     2748     3295     3694     3689     3164     2262 
    1325      702      588      958     1571     2145     2521     2718 
    2853     3014     3180     3233     2982     2313     1296      137 
    -873    -1472    -1534    -1104     -390      305      702      668 
     279     -213     -502     -371      218     1147     2220     3234 
    4017     4449     4482     4153     3581     2882     2157     1493 
     961      610      487      560      691      702      492      108 
    -284     -492     -419      -62      552     1387     2374     3375 
    4163     4529     4375     3780     2971     2169     1453      778 
      76     -618    -1132    -1250     -849       31     1188     2320 
    3154     3557     3542     3206     2670     2081     1583     1282 
    1213     1341     1563     1719     1664     1377      958      556 
     309      309      544      895     1248     1584     1945     2361 
    2799     3138     3173     2739     1836      614     -696    -1813 
   -2508    -2687    -2342    -1505     -271     1220     2801     4245 
    5297     5753     5545     4756     3611     2430     1503      986 
     870     1038     1298     1455     1370     1001      445     -122 
    -545     -691     -499      -27      623     1356     2037     2529 
    2733     2597     2139     1483      807      280       16       63 
     415      986     1626     2188     2596     2864     3042     3133 
    3063     2694     1946      916     -139     -896    -1119     -783 
     -60      832     1741     2531     3086     3333     3245     2870 
    2344     1844     1506     1371     1367     1372     1296     1105 
     842      587      406      321      297      299      351      542 
     940     1506     2092     2515     2655     2533     2282     2049 
    1892     1779     1644     1471     1321     1266     1282     1252 
    1057      672      213     -128     -202       27      508     1117 
    1705     2169     2458     2546     2434     2174     1850     1561 
    1405     1445     1679     2037     2411     2685     2779     2670 
    2416     2119     1858     1657     1459     1165      702       94 
    -529     -976    -1069     -735      -32      880     1807     2582 
    3075     3230     3055     2587     1902     1120      387     -139 
    -319      -86      488     1209     1838     2201     2288     2228 
    2185     2241     2347     2396     2297     2023     1594     1082 
     600      268      162      265      499      789     1104     1467 
    1933     2509     3102     3553     3703     3477     2913     2145 
    1352      704      307      195      306      502      684      865 
    1116     1485     1921     2263     2328     2029     1441      776 
     257       29       95      379      776     1189     1556     1837 
    2022     2147     2230     2239     2131     1894     1557     1205 
     931      787      760      792      820      807      766      758 
     835     1013     1274     1548     1759     1877     1919     1935 
    1988     2081     2138     2080     1890     1571     1169      768 
     444      259      263      471      869     1402     1977     2478 
    2793     2849     2650     2254     1772     1339     1051      938 
     969     1061     1105     1040      878      679      521      499 
     676     1023     1416     1723     1853     1791     1633     1518 
    1516     1606     1722     1809     1868     1930     2014     2096 
    2116     2019     1809     1568     1422     1435     1571     1723 
    1782     1691     1474     1201      946      739      572      427 
     325      314      436      677      980     1266     1486     1613 
    1636     1547     1356     1124      959      973     1221     1705 
    2358     3072     3719     4179     4398     4382     4185     3873 
    3480     2982     2336     1547      679     -151     -824    -1297 
   -1597    -1765    -1823    -1752    -1516    -1102     -544       91 
     724     1298     1787     2203     2560     2856     3073     3175 
    3123     2914     2578     2182     1800     1489     1279     1188 
