Origin Time       2025/03/30 22:55:00
Lat.              41.993
Long.             142.725
Depth. (km)       55
Mag.              4.6
Station Code      HDKH02
Station Lat.      42.7061
Station Long.     142.4054
Station Height(m) 230
Record Time       2025/03/30 22:56:13
Sampling Freq(Hz) 100Hz
Duration Time(s)  120
Dir.              4
Scale Factor      3920(gal)/6170801
Max. Acc. (gal)   1.202
Last Correction   2025/03/30 22:55:58
Memo.             
[...]
    4210     4224     4332     4481     4583     4573     4467     4363 
    4361     4479     4624     4669     4534     4257     4000     3944 
    4145     4492     4768     4807     4611     4340     4192     4267 
    4504     4719     4743     4529     4198     3964     3986     4253 
    4610     4852     4852     4633     4342     4163     4221     4487 
    4775     4876     4696     4328     3987     3866     4017     4318 
    4572     4652     4555     4388     4295     4346     4484     4593 
    4574     4417     4218     4113     4191     4421     4662     4771 
    4686     4456     4220     4090     4074     4127     4194     4219 
    4211     4231     4320     4484     4699     4895     5003     4996 
    4875     4670     4441     4243     4087     3966     3902     3923 
    4044     4268     4555     4827     5012     5046     4909     4650 
    4355     4105     3959     3923     3989     4140     4334     4526 
    4675     4776     4845     4877     4845     4711     4448     4104 
    3807     3661     3707     3920     4216     4491     4687     4790 
    4803     4775     4775     4780     4711     4560     4350     4099 
    3896     3860     4008     4253     4479     4586     4570     4512 
    4472     4485     4557     4623     4592     4454     4278     4151 
    4127     4213     4379     4565     4681     4667     4554     4440 
    4404     4441     4491     4488     4408     4287     4161     4062 
    4054     4170     4358     4546     4685     4738     4701     4618 
    4550     4521     4495     4425     4289     4099     3933     3896 
    4045     4349     4706     4979     5078     4992     4782     4540 
    4327     4160     4030     3914     3838     3860     3994     4213 
    4475     4725     4906     4986     4959     4830     4632     4406 
    4187     4032     3988     4041     4178     4386     4585     4671 
    4622     4480     4306     4181     4161     4233     4370     4536 
    4651     4659     4594     4519     4476     4482     4501     4457 
    4335     4205     4135     4148     4241     4381     4522     4628 
    4665     4602     4461     4322     4251     4266     4342     4408 
    4408     4385     4418     4530     4663     4704     4603     4424 
    4270     4219     4290     4406     4458     4406     4295     4218 
    4258     4413     4595     4700     4678     4546     4384     4287 
    4294     4356     4381     4323     4230     4193     4274     4455 
    4649     4762     4750     4631     4469     4328     4247     4228 
    4248     4269     4269     4252     4240     4259     4320     4413 
    4512     4593     4663     4746     4815     4780     4594     4304 
    4004     3811     3823     4017     4267     4460     4530     4495 
    4458     4490     4572     4639     4626     4500     4311     4187 
    4220     4382     4571     4681     4673     4598     4522     4465 
    4420     4366     4295     4212     4148     4186     4362     4580 
    4732     4780     4703     4508     4280     4112     4031     4047 
    4145     4280     4445     4637     4790     4840     4771     4600 
    4376     4176     4083     4102     4158     4200     4233     4273 
    4335     4431     4543     4623     4645     4633     4630     4643 
    4644     4587     4450     4282     4150     4097     4152     4291 
    4433     4501     4471     4380     4301     4289     4344     4414 
    4451     4433     4377     4331     4351     4451     4580     4667 
    4675     4613     4516     4432     4384     4359     4338     4299 
    4232     4169     4157     4215     4325     4428     4479     4504 
    4543     4586     4635     4704     4760     4745     4649     4504 
    4352     4233     4178     4184     4218     4250     4274     4299 
    4345     4413     4456     4458     4461     4491     4528     4533 
    4488     4411     4340     4322     4384     4475     4525     4521 
    4468     4383     4307     4245     4184     4137     4110     4102 
    4156     4310     4537     4761     4895     4889     4774     4626 
    4505     4423     4353     4259     4129     4029     4056     4233 
    4490     4722     4844     4836     4738     4596     4467     4390 
    4317     4189     4049     3987     4057     4245     4464     4619 
    4680     4655     4570     4483     4424     4379     4347     4332 
    4322     4326     4340     4349     4381     4462     4551     4594 
    4545     4394     4207     4088     4119     4290     4494     4605 
    4566     4438     4359     4399     4507     4590     4572     4421 
    4191     3996     3938     4051     4297     4589     4809     4880 
    4806     4677     4587     4531     4441     4288     4097     3949 
    3949     4113     4347     4528     4593     4575     4530     4508 
    4543     4598     4613     4564     4429     4236     4106     4116 
    4236     4400     4524     4530     4434     4345     4350     4448 
    4573     4622     4533     4346     4179     4139     4247     4434 
    4577     4588     4500     4428     4438     4514     4599     4616 
    4517     4343     4204     4187     4297     4447     4547     4557 
    4480     4372     4306     4301     4340     4380     4380     4363 
    4385     4461     4560     4634     4633     4543     4390     4234 
    4148     4169     4301     4498     4668     4731     4680     4564 
    4434     4315     4225     4176     4143     4121     4162     4289 
    4478     4678     4795     4763     4590     4340     4120     4036 
    4120     4309     4490     4576     4562     4502     4452     4452 
    4499     4529     4472     4344     4231     4192     4247     4367 
    4473     4519     4527     4522     4530     4558     4553     4474 
    4381     4331     4333     4381     4436     4448     4422     4374 
    4321     4316     4374     4435     4426     4332     4209     4138 
    4167     4310     4511     4642     4628     4518     4417     4383 
    4396     4411     4434     4478     4496     4457     4409     4393 
    4401     4417     4432     4429     4408     4385     4381     4400 
    4411     4395     4418     4532     4667     4734     4711     4621 
    4508     4422     4369     4325     4270     4198     4121     4054 
    4024     4068     4198     4384     4581     4744     4824     4807 
    4722     4594     4426     4255     4140     4122     4209     4369 
    4513     4573     4545     4450     4311     4178     4120     4184 
    4331     4449     4448     4340     4219     4186     4289     4489 
    4687     4798     4810     4754     4682     4634     4602     4531 
    4373     4127     3873     3747     3829     4079     4382     4631 
    4755     4761     4741     4735     4704     4636     4554     4462 
    4381     4330     4294     4243     4177     4129     4123     4165 
    4256     4376     4475     4518     4492     4436     4438     4547 
    4708     4815     4795     4656     4466     4292     4168     4084 
    4016     3971     3992     4095     4256     4439     4607     4717 
    4738     4681     4591     4511     4471     4467     4481     4493 
    4469     4398     4309     4252     4254     4314     4419     4533 
    4588     4536     4390     4218     4111     4142     4308     4525 
    4675     4679     4547     4386     4309     4341     4436     4530 
    4553     4465     4297     4142     4081     4134     4263     4392 
    4457     4475     4515     4604     4711     4766     4697     4490 
    4229     4051     4043     4194     4412     4602     4709     4727 
    4688     4633     4570     4476     4341     4202     4100     4053 
    4075     4165     4302     4452     4573     4640     4661     4648 
    4624     4619     4614     4575     4486     4359     4262     4256 
    4314     4382     4421     4385     4275     4170     4141     4194 
    4304     4433     4543     4630     4699     4713     4641     4502 
    4339     4207     4161     4215     4318     4409     4436     4369 
    4259     4204     4239     4326     4415     4467     4469     4468 
    4503     4558     4596     4596     4558     4513     4510     4552 
    4578     4536     4425     4265     4119     4073     4142     4272 
    4420     4546     4620     4662     4708     4740     4709     4592 
    4404     4209     4083     4059     4114     4200     4287     4375 
    4465     4553     4630     4662     4609     4465     4263     4077 
    4003     4067     4203     4319     4353     4318     4292     4352 
    4500     4638     4695     4675     4588     4460     4348     4303 
    4348     4448     4536     4573     4555     4502     4456     4441 
    4447     4447     4431     4409     4390     4373     4367     4381 
    4401     4423     4447     4460     4467     4472     4431     4330 
    4233     4204     4235     4292     4360     4437     4534     4652 
    4745     4750     4650     4478     4304     4207     4215     4306 
    4442     4569     4616     4540     4364     4173     4062     4054 
    4115     4203     4300     4408     4549     4722     4853     4867 
    4751     4528     4242     3976     3826     3863     4075     4349 
    4578     4715     4762     4752     4706     4607     4437     4193 
    3936     3800     3879     4130     4446     4704     4784     4667 
    4476     4345     4323     4397     4495     4526     4474     4398 
    4353     4356     4385     4387     4340     4284     4286     4373 
    4513     4634     4669     4609     4524     4486     4502     4531 
    4515     4414     4264     4162     4195     4349     4518     4597 
    4558     4465     4415     4454     4549     4606     4533     4347 
    4154     4047     4082     4256     4455     4562     4571     4532 
    4504     4544     4627     4657     4567     4361     4102     3914 
    3907     4075     4309     4492     4569     4563     4534     4535 
    4552     4514     4394     4244     4120     4039     4013     4043 
    4106     4206     4378     4596     4792     4921     4947     4851 
    4669     4472     4343     4319     4342     4315     4208     4082 
    4036     4131     4348     4593     4751     4771     4701     4631 
    4611     4626     4633     4575     4422     4236     4136     4188 
    4372     4602     4762     4784     4710     4638     4618     4630 
    4618     4552     4475     4441     4462     4537     4632     4677 
    4628     4500     4360     4279     4243     4196     4118     4038 
    4023     4111     4280     4476     4641     4741     4798     4831 
    4836     4814     4773     4721     4680     4655     4623     4548 
    4400     4173     3900     3648     3490     3474     3601     3827 
    4087     4320     4508     4682     4852     4976     5007     4932 
    4769     4564     4353     4146     3957     3824     3779     3824 
    3945     4100     4251     4403     4562     4692     4748     4714 
    4619     4508     4435     4432     4468     4475     4424     4313 
    4170     4077     4106     4228     4358     4415     4371     4294 
    4284     4354     4431     4449     4384     4256     4166     4227 
    4435     4694     4892     4923     4758     4478     4196     3997 
    3915     3905     3890     3880     3960     4176     4489     4805 
    4995     4969     4766     4507     4291     4167     4132     4161 
    4227     4316     4442     4626     4863     5103     5277     5345 
    5298     5157     4977     4791     4616     4457     4271     4028 
    3743     3462     3264     3233     3365     3582     3821     4058 
    4308     4604     4948     5276     5484     5510     5386     5173 
    4916     4646     4383     4144     3961     3866     3868     3942 
    4063     4201     4315     4382     4397     4368     4325     4308 
    4338     4403     4494     4607     4704     4742     4717     4654 
    4591     4558     4573     4632     4699     4729     4704     4623 
    4490     4318     4123     3933     3776     3673     3634     3677 
    3812     4006     4210     4388     4510     4577     4623     4678 
    4760     4873     4989     5050     5019     4889     4686     4458 
    4252     4093     3990     3954     3985     4059     4144     4237 
    4351     4473     4577     4659     4731     4786     4803     4759 
    4677     4603     4553     4525     4495     4420     4286     4123 
    3976     3906     3950     4095     4297     4499     4615     4606 
    4530     4470     4468     4519     4582     4589     4505     4382 
    4290     4278     4362     4470     4501     4451     4366     4299 
    4332     4501     4736     4900     4865     4618     4269     3973 
    3858     3930     4095     4269     4435     4617     4827     5017 
    5130     5147     5068     4892     4632     4316     3988     3710 
    3558     3555     3664     3837     4027     4204     4354     4481 
    4609     4740     4833     4836     4738     4588     4452     4374 
    4376     4429     4432     4319     4137     4001     4014     4195 
    4453     4665     4757     4734     4673     4660     4709     4748 
    4698     4545     4324     4117     4010     4012     4065     4112 
    4131     4143     4166     4184     4191     4204     4246     4342 
    4475     4598     4685     4744     4779     4787     4765     4697 
    4553     4328     4043     3723     3449     3323     3388     3635 
    4017     4463     4919     5342     5686     5905     5978     5911 
    5730     5464     5139     4756     4298     3772     3240     2791 
    2523     2520     2810     3340     4002     4664     5208     5574 
    5735     5698     5516     5249     4949     4660     4403     4196 
    4064     4023     4059     4106     4075     3932     3730     3568 
    3530     3659     3935     4267     4550     4726     4797     4801 
    4798     4848     4947     5000     4899     4622     4258     3948 
    3797     3840     4034     4256     4391     4425     4407     4396 
    4434     4521     4623     4691     4679     4584     4442     4288 
    4143     4025     3949     3949     4044     4194     4333     4404 
    4374     4270     4178     4176     4286     4472     4660     4786 
    4829     4811     4757     4686     4606     4512     4429     4403 
    4437     4524     4639     4705     4667     4549     4386     4215 
    4075     3968     3917     3981     4173     4461     4788     5053 
    5164     5109     4945     4758     4629     4588     4587     4576 
    4553     4506     4414     4314     4266     4295     4384     4490 
    4571     4607     4597     4570     4566     4575     4562     4499 
    4375     4226     4096     4002     3957     3951     3945     3936 
    3962     4050     4208     4424     4638     4792     4855     4825 
    4725     4585     4435     4316     4258     4265     4331     4431 
    4541     4622     4616     4504     4336     4166     4029     3938 
    3876     3797     3701     3672     3804     4099     4453     4731 
    4841     4781     4639     4527     4520     4610     4718     4768 
    4754     4700     4649     4633     4602     4467     4190     3832 
    3525     3392     3468     3715     4040     4348     4601     4823 
    5047     5293     5541     5717     5735     5562     5241     4878 
    4588     4413     4320     4265     4202     4085     3914     3744 
    3645     3681     3886     4230     4632     4987     5203     5241 
    5109     4839     4505     4204     3994     3885     3877     3955 
    4092     4275     4466     4598     4653     4662     4635     4560 
    4432     4234     3973     3718     3535     3474     3566     3792 
    4099     4436     4737     4915     4930     4816     4638     4450 
    4287     4172     4102     4058     4029     4001     3994     4057 
    4215     4448     4685     4846     4917     4920     4870     4784 
    4672     4527     4370     4247     4171     4123     4098     4111 
    4184     4351     4626     4938     5185     5283     5183     4927 
    4648     4433     4292     4232     4237     4258     4281     4318 
    4362     4404     4434     4436     4408     4354     4300     4306 
    4414     4609     4814     4912     4824     4562     4219     3932 
    3801     3833     3961     4109     4244     4376     4514     4659 
    4789     4864     4860     4780     4640     4464     4285     4127 
    4013     3984     4086     4305     4557     4754     4853     4853 
    4766     4602     4366     4105     3885     3750     3738     3871 
    4083     4290     4459     4571     4616     4632     4650     4657 
    4635     4585     4525     4494     4508     4528     4492     4376 
    4209     4062     4001     4044     4125     4163     4137     4097 
    4103     4188     4331     4471     4577     4654     4717     4772 
    4785     4689     4476     4236     4089     4106     4281     4524 
    4709     4774     4751     4722     4744     4785     4751     4587 
    4337     4116     4041     4155     4375     4524     4492     4327 
    4152     4071     4124     4260     4396     4493     4537     4529 
    4511     4516     4540     4560     4539     4447     4321     4246 
    4272     4373     4492     4561     4542     4478     4421     4370 
    4306     4222     4132     4073     4079     4143     4247     4391 
    4569     4743     4890     5000     5049     5012     4894     4718 
    4508     4306     4127     3971     3864     3832     3889     4043 
    4258     4446     4553     4606     4655     4731     4832     4923 
    4970     4963     4897     4770     4577     4341     4129     4016 
    4033     4145     4296     4439     4536     4575     4573     4542 
    4477     4385     4271     4126     3962     3817     3722     3703 
    3770     3894     4052     4255     4518     4812     5058     5176 
    5128     4929     4665     4447     4332     4315     4355     4406 
    4445     4469     4477     4460     4401     4298     4192     4135 
    4127     4140     4157     4174     4210     4300     4457     4665 
    4893     5084     5149     5055     4838     4547     4231     3959 
    3778     3704     3750     3926     4200     4500     4750     4888 
    4905     4839     4726     4574     4376     4157     3978     3894 
    3938     4097     4268     4336     4284     4165     4058     4046 
    4151     4311     4439     4479     4441     4394     4420     4537 
    4696     4840     4932     4979     5021     5071     5078     4976 
    4747     4438     4128     3904     3813     3830     3897     3968 
    4024     4092     4219     4423     4672     4900     5021     4963 
    4752     4481     4218     4020     3934     3951     4038     4159 
    4267     4333     4381     4436     4501     4572     4643     4710 
    4775     4836     4873     4856     4766     4614     4426     4225 
    4061     3989     4031     4157     4320     4475     4594     4670 
    4701     4682     4620     4508     4365     4241     4179     4205 
    4310     4428     4497     4490     4395     4238     4092     4011 
    3994     4025     4070     4074     4037     4010     4035     4140 
    4313     4497     4657     4782     4860     4891     4874     4800 
    4668     4516     4389     4313     4296     4337     4404     4448 
    4445     4409     4364     4336     4336     4366     4438     4539 
    4633     4706     4754     4763     4737     4681     4581     4435 
