Origin Time       2025/03/30 22:55:00
Lat.              41.993
Long.             142.725
Depth. (km)       55
Mag.              4.6
Station Code      HDKH01
Station Lat.      42.7031
Station Long.     142.2296
Station Height(m) -18
Record Time       2025/03/30 22:56:15
Sampling Freq(Hz) 100Hz
Duration Time(s)  120
Dir.              1
Scale Factor      2942(gal)/8224139
Max. Acc. (gal)   0.173
Last Correction   2025/03/30 22:56:16
Memo.             
[...]
   40826    40864    40937    41021    41094    41149    41183    41185 
   41154    41102    41046    40999    40963    40940    40926    40926 
   40945    40981    41017    41023    40994    40941    40882    40840 
   40829    40852    40911    41010    41130    41237    41308    41326 
   41277    41177    41044    40900    40791    40728    40703    40720 
   40771    40830    40890    40942    40983    41011    41031    41045 
   41050    41046    41050    41071    41076    41052    41021    40994 
   40971    40950    40927    40899    40871    40859    40872    40911 
   40969    41030    41079    41096    41085    41073    41081    41098 
   41099    41079    41041    40986    40921    40869    40838    40832 
   40848    40888    40953    41031    41100    41141    41146    41116 
   41071    41014    40950    40903    40892    40907    40930    40945 
   40948    40957    40990    41030    41052    41056    41060    41072 
   41091    41100    41079    41022    40954    40909    40906    40953 
   41029    41096    41125    41104    41050    40990    40934    40902 
   40896    40905    40925    40953    40972    40981    40996    41015 
   41027    41034    41048    41060    41060    41049    41033    41004 
   40963    40906    40840    40794    40798    40848    40927    41013 
   41072    41095    41085    41053    41014    40976    40944    40929 
   40926    40915    40898    40902    40936    40979    41019    41060 
   41091    41103    41099    41079    41044    41004    40965    40936 
   40923    40927    40944    40965    40988    41013    41023    41014 
   41002    41004    41027    41058    41083    41096    41094    41076 
   41060    41045    41022    40984    40944    40907    40883    40882 
   40900    40921    40941    40968    40998    41018    41023    41022 
   41027    41045    41073    41100    41107    41083    41033    40969 
   40919    40899    40898    40906    40919    40933    40950    40976 
   41006    41023    41021    41003    40976    40942    40914    40903 
   40914    40937    40965    40992    41018    41042    41071    41084 
   41077    41068    41050    41015    40968    40921    40887    40876 
   40896    40941    40995    41045    41091    41118    41116    41106 
   41087    41062    41054    41058    41060    41053    41034    41000 
   40967    40946    40940    40941    40940    40927    40930    40963 
   41011    41060    41099    41126    41138    41126    41099    41067 
   41023    40976    40936    40902    40883    40879    40876    40872 
   40880    40906    40944    40973    40988    40999    41017    41029 
   41021    40992    40957    40942    40960    40996    41017    41007 
   40983    40968    40969    40984    41002    41011    41010    41000 
   40992    40981    40959    40933    40919    40921    40933    40948 
   40961    40975    40992    41013    41033    41052    41065    41058 
   41021    40965    40917    40896    40907    40933    40949    40963 
   40986    41010    41022    41025    41019    40999    40967    40938 
   40926    40944    40983    41025    41073    41119    41133    41096 
   41023    40946    40894    40878    40888    40906    40922    40942 
   40968    40988    40996    41000    41006    41019    41048    41073 
   41080    41065    41038    41018    41013    41015    41010    40992 
   40963    40934    40918    40909    40910    40932    40964    40991 
   41007    41025    41040    41053    41067    41062    41037    41010 
   40996    40988    40987    40988    40984    40975    40965    40950 
   40937    40936    40946    40963    40981    41003    41041    41102 
   41169    41215    41211    41146    41046    40952    40884    40852 
   40849    40861    40892    40945    41000    41041    41069    41087 
   41092    41081    41045    41003    40980    40980    40988    40988 
   40971    40946    40942    40961    40988    41011    41023    41014 
   40998    41004    41029    41049    41056    41041    41011    40986 
   40971    40959    40938    40918    40915    40929    40948    40965 
   40975    40988    41011    41035    41054    41069    41073    41057 
   41021    40980    40952    40932    40907    40880    40867    40880 
   40918    40965    41013    41046    41069    41089    41107    41119 
   41119    41099    41057    41006    40954    40910    40879    40868 
   40879    40915    40959    40986    40986    40967    40959    40969 
   40980    40981    40980    40984    41008    41041    41058    41056 
   41040    41013    40988    40979    40991    41008    41008    40987 
   40954    40922    40898    40888    40899    40934    40986    41042 
   41087    41112    41118    41104    41079    41056    41037    41008 
   40971    40937    40918    40914    40921    40948    40990    41021 
   41030    41027    41023    41003    40965    40937    40936    40954 
   40988    41029    41072    41115    41135    41115    41069    41021 
   40988    40969    40960    40957    40950    40940    40941    40952 
   40960    40964    40959    40945    40937    40948    40964    40963 
   40948    40933    40933    40965    41025    41079    41108    41100 
   41067    41031    40996    40946    40890    40844    40824    40845 
   40911    41002    41084    41122    41112    41084    41050    41010 
   40968    40937    40930    40945    40967    40986    41003    41019 
   41023    41007    40963    40913    40884    40883    40902    40927 
   40952    40983    41022    41062    41098    41110    41088    41040 
   40983    40938    40913    40896    40886    40886    40898    40942 
   41017    41081    41121    41142    41141    41118    41081    41030 
   40971    40927    40923    40953    40994    41026    41035    41022 
   41000    40986    40984    40991    40988    40967    40936    40929 
   40954    40987    41007    41010    40999    40990    40988    40994 
   40995    40987    40979    40981    40992    41006    41017    41017 
   41010    41003    40991    40976    40976    40996    41019    41026 
   41026    41029    41033    41030    41002    40952    40918    40930 
   40984    41045    41088    41110    41103    41067    41010    40949 
   40900    40871    40867    40895    40946    41010    41071    41107 
   41100    41065    41030    40999    40976    40968    40976    40996 
   41022    41041    41048    41041    41038    41037    41023    41000 
   40988    40996    41022    41046    41058    41061    41056    41048 
   41044    41048    41053    41049    41040    41026    41013    40998 
   40969    40929    40902    40906    40937    40983    41022    41033 
   41011    40977    40945    40918    40902    40899    40922    40969 
   41019    41046    41041    41002    40950    40910    40895    40906 
   40936    40973    41013    41044    41057    41056    41046    41029 
   40996    40963    40930    40896    40871    40864    40879    40909 
   40941    40967    40984    40988    40977    40971    40983    41011 
   41041    41057    41053    41038    41035    41046    41061    41060 
   41038    41013    40987    40952    40910    40873    40857    40867 
   40896    40933    40975    41015    41042    41049    41042    41022 
   40996    40987    40988    40981    40964    40945    40938    40946 
   40954    40960    40973    40991    41007    41025    41038    41042 
   41035    41025    41022    41035    41053    41060    41048    41021 
   40990    40968    40953    40938    40922    40909    40905    40921 
   40959    41000    41030    41053    41077    41100    41112    41095 
   41049    41003    40977    40964    40949    40933    40922    40917 
   40923    40952    40995    41034    41056    41052    41041    41052 
   41083    41106    41103    41075    41026    40971    40933    40926 
   40941    40968    40996    41008    41007    40999    40987    40965 
   40938    40919    40922    40938    40953    40959    40960    40967 
   40977    40990    41006    41021    41023    41013    40995    40969 
   40936    40900    40876    40876    40896    40922    40948    40976 
   41004    41026    41027    41008    40980    40953    40932    40926 
   40942    40976    41021    41065    41094    41098    41088    41067 
   41042    41025    41011    40999    40990    40977    40969    40973 
   40981    40981    40987    41002    41022    41046    41073    41091 
   41087    41058    41015    40967    40915    40878    40865    40873 
   40895    40927    40967    41017    41068    41104    41115    41091 
   41046    41003    40976    40968    40976    40984    40990    40990 
   40988    40996    41015    41030    41030    41017    40988    40954 
   40932    40921    40915    40918    40936    40963    40994    41019 
   41029    41023    41014    41000    40984    40972    40967    40971 
   40988    41002    41008    41018    41029    41031    41027    41017 
   40990    40944    40896    40868    40864    40888    40932    40983 
   41029    41060    41079    41091    41088    41077    41057    41030 
   41011    41003    41004    41011    41017    41014    41002    40980 
   40954    40938    40938    40942    40946    40957    40976    40994 
   41010    41031    41048    41048    41035    41022    41023    41042 
   41061    41057    41040    41027    41022    41011    40986    40959 
   40950    40963    40991    41017    41025    41017    41004    40992 
   40983    40975    40967    40956    40945    40942    40948    40957 
   40971    40975    40971    40965    40957    40944    40932    40926 
   40930    40941    40964    40995    41021    41044    41064    41069 
   41061    41054    41053    41050    41045    41027    41010    41002 
   41000    41002    40994    40968    40929    40890    40876    40890 
   40921    40959    40998    41034    41069    41089    41092    41075 
   41046    41023    41008    40991    40972    40963    40960    40952 
   40942    40937    40934    40948    40983    41017    41030    41030 
   41022    41011    41000    40980    40953    40934    40930    40942 
   40976    41013    41037    41050    41058    41057    41041    41025 
   41013    40990    40956    40915    40884    40873    40880    40899 
   40919    40938    40963    40991    41021    41038    41041    41034 
   41003    40960    40930    40910    40898    40903    40919    40941 
   40975    41017    41053    41077    41099    41114    41106    41084 
   41053    41023    41010    41007    41006    41008    41013    41017 
   41031    41060    41077    41068    41052    41042    41034    41026 
   41021    41013    41010    41023    41044    41067    41092    41116 
   41133    41138    41138    41142    41158    41176    41176    41164 
   41158    41160    41165    41169    41170    41168    41168    41165 
   41149    41123    41096    41076    41076    41095    41127    41158 
   41168    41153    41131    41108    41083    41060    41035    41006 
   40987    40981    40981    40973    40956    40934    40922    40927 
   40950    40975    40987    40995    41004    41008    41003    40979 
   40927    40857    40790    40738    40716    40718    40728    40734 
   40755    40788    40817    40832    40840    40840    40825    40811 
   40815    40832    40864    40906    40933    40942    40942    40926 
   40898    40867    40840    40818    40806    40813    40851    40910 
   40973    41033    41079    41102    41095    41064    41026    40991 
   40960    40942    40937    40934    40932    40934    40948    40975 
   40996    40996    40975    40938    40902    40878    40861    40855 
   40860    40869    40875    40884    40906    40937    40972    40998 
   41006    41006    40998    40976    40948    40927    40913    40899 
   40898    40917    40942    40975    41008    41030    41038    41042 
   41046    41056    41075    41103    41134    41153    41138    41084 
   41003    40925    40863    40822    40803    40807    40834    40882 
   40938    40996    41034    41038    41031    41033    41045    41069 
   41096    41108    41102    41081    41053    41027    41011    40995 
   40976    40953    40929    40902    40879    40855    40834    40828 
   40836    40853    40883    40926    40971    41010    41042    41058 
   41062    41062    41050    41031    41008    40980    40956    40945 
   40944    40945    40937    40921    40907    40900    40906    40930 
   40967    41008    41062    41126    41181    41218    41231    41224 
   41200    41161    41119    41087    41053    41013    40979    40957 
   40946    40941    40946    40969    40999    41014    41010    40984 
   40944    40900    40869    40853    40856    40883    40932    40986 
   41030    41064    41079    41083    41079    41073    41075    41079 
   41080    41081    41085    41092    41095    41091    41071    41041 
   41013    40994    40986    40995    41013    41025    41027    41027 
   41033    41040    41053    41079    41107    41135    41158    41157 
   41127    41089    41064    41056    41067    41080    41071    41044 
   41019    40995    40973    40964    40959    40949    40945    40948 
   40952    40960    40981    41015    41040    41049    41056    41068 
   41081    41089    41087    41072    41054    41040    41023    40996 
   40954    40898    40832    40756    40687    40648    40637    40649 
   40689    40753    40828    40895    40957    41018    41084    41154 
   41222    41276    41299    41277    41210    41115    41015    40921 
   40844    40790    40753    40732    40721    40725    40752    40803 
   40879    40979    41099    41220    41335    41427    41477    41477 
   41449    41386    41289    41179    41075    40980    40902    40834 
   40768    40709    40675    40670    40694    40744    40814    40890 
   40956    41004    41042    41075    41110    41148    41169    41162 
   41130    41079    41007    40915    40822    40748    40695    40666 
   40662    40694    40763    40855    40950    41033    41089    41123 
   41142    41137    41110    41068    41003    40926    40857    40806 
   40775    40778    40807    40856    40921    40990    41053    41103 
   41145    41173    41185    41200    41223    41246    41264    41268 
   41249    41206    41135    41041    40941    40871    40842    40844 
   40865    40896    40926    40959    40992    41023    41046    41053 
   41037    41019    41017    41029    41044    41050    41040    41029 
   41026    41019    41000    40969    40936    40919    40919    40919 
   40914    40913    40913    40907    40902    40902    40914    40934 
   40953    40964    40972    40977    40977    40963    40937    40923 
   40927    40938    40945    40948    40944    40929    40907    40900 
   40909    40919    40932    40949    40963    40965    40950    40921 
   40895    40891    40919    40971    41030    41087    41130    41149 
   41154    41161    41162    41157    41160    41173    41195    41222 
   41239    41242    41226    41191    41139    41079    41017    40967 
   40933    40914    40903    40900    40913    40937    40971    41014 
   41060    41100    41135    41160    41169    41166    41153    41125 
   41072    41008    40953    40906    40876    40868    40873    40888 
   40910    40927    40936    40933    40913    40887    40865    40851 
   40846    40863    40900    40944    40977    40999    41011    41011 
   40995    40968    40941    40919    40902    40887    40884    40894 
   40914    40942    40973    41003    41037    41083    41137    41173 
   41176    41148    41099    41044    41004    40988    40984    40986 
   40984    40975    40968    40964    40956    40945    40936    40933 
   40948    40979    41010    41035    41053    41058    41046    41029 
   41017    40999    40969    40929    40882    40832    40794    40772 
   40765    40774    40805    40856    40909    40952    40986    41014 
   41040    41067    41091    41112    41131    41145    41145    41125 
   41091    41060    41034    41022    41026    41038    41048    41049 
   41044    41030    41004    40971    40941    40926    40930    40959 
   40998    41029    41048    41061    41068    41067    41064    41062 
   41057    41040    41014    40988    40965    40950    40940    40926 
   40913    40903    40896    40898    40906    40914    40918    40927 
   40946    40977    41019    41057    41080    41084    41073    41067 
   41072    41083    41092    41089    41069    41040    41011    40991 
   40983    40980    40968    40942    40929    40936    40954    40981 
   41011    41035    41045    41038    41018    40988    40952    40915 
   40882    40868    40882    40903    40917    40925    40930    40937 
   40948    40960    40980    41004    41022    41026    41018    40998 
   40964    40919    40875    40844    40841    40855    40864    40871 
   40876    40882    40895    40915    40941    40979    41030    41083 
   41122    41130    41108    41076    41041    41004    40973    40952 
   40948    40968    40996    41018    41030    41031    41033    41045 
   41057    41057    41042    41011    40972    40937    40911    40903 
   40903    40903    40906    40911    40921    40929    40934    40934 
   40926    40925    40941    40969    40999    41030    41054    41064 
   41065    41060    41049    41035    41033    41045    41056    41050 
   41031    41010    40991    40979    40981    41000    41025    41052 
   41089    41126    41143    41145    41134    41114    41096    41076 
   41053    41033    41010    40988    40977    40976    40975    40975 
   40973    40969    40963    40952    40946    40950    40959    40963 
   40967    40977    40992    40998    40986    40960    40934    40921 
   40921    40932    40942    40950    40963    40977    40992    41011 
   41038    41068    41087    41098    41102    41098    41084    41072 
   41061    41050    41048    41058    41079    41103    41119    41121 
   41111    41089    41065    41056    41061    41071    41067    41049 
   41029    41013    41006    41015    41040    41073    41100    41100 
   41073    41031    40990    40948    40905    40865    40855    40883 
   40937    40994    41031    41037    41017    40994    40977    40969 
   40975    40987    40996    41010    41030    41038    41025    41000 
   40977    40964    40967    40979    40981    40973    40961    40950 
   40950    40968    41002    41034    41054    41065    41072    41075 
   41068    41049    41025    41004    40979    40950    40936    40936 
   40944    40957    40969    40971    40963    40953    40944    40932 
   40917    40902    40891    40890    40894    40895    40888    40869 
   40846    40829    40815    40803    40798    40805    40828    40865 
   40906    40941    40960    40965    40967    40971    40976    40986 
   40991    40986    40967    40938    40906    40865    40824    40801 
   40805    40819    40837    40865    40905    40949    41004    41072 
   41134    41181    41203    41197    41172    41137    41104    41076 
   41064    41077    41103    41131    41165    41197    41212    41204 
   41187    41172    41160    41153    41150    41148    41146    41145 
   41138    41118    41081    41031    40983    40948    40927    40914 
   40905    40899    40899    40905    40913    40918    40919    40922 
   40927    40936    40952    40967    40973    40977    40976    40968 
   40953    40932    40909    40891    40888    40892    40898    40909 
