Origin Time       2025/03/30 22:55:00
Lat.              41.993
Long.             142.725
Depth. (km)       55
Mag.              4.6
Station Code      HDKH06
Station Lat.      42.3498
Station Long.     142.3572
Station Height(m) 10
Record Time       2025/03/30 22:56:11
Sampling Freq(Hz) 100Hz
Duration Time(s)  120
Dir.              5
Scale Factor      7845(gal)/8223790
Max. Acc. (gal)   1.668
Last Correction   2025/03/30 22:56:11
Memo.             
[...]
  -34688   -34686   -34681   -34674   -34669   -34662   -34661   -34665 
  -34665   -34662   -34659   -34651   -34651   -34668   -34688   -34708 
  -34723   -34728   -34723   -34711   -34693   -34676   -34659   -34657 
  -34677   -34719   -34780   -34836   -34870   -34888   -34898   -34900 
  -34892   -34869   -34825   -34777   -34754   -34769   -34808   -34840 
  -34838   -34800   -34769   -34780   -34835   -34915   -34973   -34967 
  -34894   -34798   -34732   -34723   -34751   -34763   -34723   -34638 
  -34551   -34518   -34555   -34643   -34749   -34840   -34889   -34867 
  -34763   -34596   -34425   -34321   -34310   -34375   -34464   -34518 
  -34516   -34484   -34447   -34430   -34458   -34557   -34720   -34901 
  -35033   -35063   -34990   -34870   -34771   -34743   -34803   -34919 
  -35027   -35068   -35033   -34963   -34917   -34920   -34956   -34983 
  -34954   -34859   -34742   -34653   -34619   -34636   -34689   -34754 
  -34827   -34921   -35031   -35132   -35186   -35160   -35054   -34906 
  -34777   -34695   -34639   -34551   -34385   -34179   -34017   -33960 
  -34022   -34171   -34362   -34554   -34705   -34780   -34773   -34723 
  -34666   -34614   -34570   -34533   -34479   -34392   -34298   -34256 
  -34300   -34435   -34661   -34943   -35191   -35321   -35307   -35186 
  -35021   -34871   -34778   -34740   -34739   -34773   -34851   -34956 
  -35056   -35109   -35081   -34978   -34842   -34711   -34609   -34539 
  -34481   -34431   -34416   -34462   -34569   -34713   -34859   -34954 
  -34963   -34908   -34832   -34790   -34808   -34871   -34951   -35004 
  -34982   -34850   -34626   -34354   -34101   -33945   -33947   -34095 
  -34331   -34580   -34793   -34959   -35064   -35086   -35009   -34850 
  -34663   -34514   -34450   -34495   -34626   -34788   -34947   -35081 
  -35155   -35149   -35071   -34940   -34781   -34620   -34468   -34350 
  -34307   -34360   -34492   -34672   -34865   -35037   -35141   -35147 
  -35043   -34847   -34632   -34481   -34438   -34507   -34651   -34807 
  -34931   -34996   -34986   -34915   -34815   -34724   -34670   -34654 
  -34661   -34681   -34724   -34803   -34906   -35002   -35040   -34985 
  -34843   -34649   -34457   -34321   -34277   -34338   -34472   -34605 
  -34685   -34688   -34607   -34461   -34296   -34160   -34087   -34096 
  -34190   -34348   -34550   -34785   -35028   -35237   -35378   -35413 
  -35332   -35158   -34920   -34662   -34437   -34299   -34279   -34371 
  -34543   -34758   -34982   -35174   -35284   -35290   -35205   -35063 
  -34913   -34812   -34789   -34850   -34975   -35106   -35186   -35187 
  -35100   -34923   -34692   -34461   -34272   -34163   -34134   -34172 
  -34271   -34427   -34618   -34800   -34925   -34959   -34898   -34785 
  -34673   -34587   -34523   -34480   -34442   -34414   -34407   -34419 
  -34435   -34458   -34488   -34531   -34595   -34668   -34740   -34805 
  -34847   -34873   -34905   -34958   -35041   -35136   -35199   -35210 
  -35171   -35094   -34992   -34879   -34785   -34728   -34723   -34767 
  -34839   -34900   -34919   -34881   -34798   -34708   -34631   -34581 
  -34562   -34572   -34603   -34641   -34677   -34713   -34757   -34801 
  -34827   -34817   -34778   -34740   -34732   -34766   -34830   -34888 
  -34893   -34828   -34715   -34588   -34472   -34371   -34296   -34268 
  -34287   -34341   -34415   -34488   -34542   -34573   -34569   -34543 
  -34534   -34557   -34597   -34643   -34684   -34707   -34717   -34746 
  -34809   -34911   -35043   -35166   -35232   -35218   -35128   -34993 
  -34865   -34774   -34736   -34753   -34796   -34838   -34874   -34916 
  -34965   -35019   -35063   -35077   -35035   -34939   -34813   -34695 
  -34600   -34533   -34484   -34447   -34430   -34438   -34464   -34493 
  -34530   -34566   -34607   -34647   -34666   -34650   -34615   -34573 
  -34545   -34542   -34551   -34545   -34518   -34474   -34418   -34350 
  -34287   -34254   -34272   -34346   -34477   -34666   -34892   -35117 
  -35299   -35403   -35411   -35325   -35170   -34986   -34823   -34711 
  -34658   -34665   -34717   -34786   -34846   -34892   -34933   -34977 
  -35013   -35024   -34987   -34893   -34759   -34630   -34541   -34493 
  -34477   -34489   -34518   -34551   -34595   -34651   -34716   -34781 
  -34827   -34836   -34800   -34727   -34634   -34545   -34476   -34434 
  -34422   -34452   -34534   -34670   -34832   -34960   -35002   -34944 
  -34813   -34680   -34612   -34636   -34731   -34848   -34951   -35004 
  -34993   -34927   -34831   -34734   -34654   -34604   -34580   -34550 
  -34484   -34387   -34311   -34314   -34407   -34569   -34761   -34936 
  -35055   -35098   -35064   -34982   -34877   -34766   -34673   -34616 
  -34604   -34627   -34661   -34690   -34711   -34728   -34761   -34805 
  -34851   -34871   -34835   -34743   -34642   -34587   -34601   -34673 
  -34762   -34834   -34865   -34843   -34778   -34705   -34639   -34578 
  -34534   -34530   -34566   -34627   -34689   -34751   -34825   -34900 
  -34947   -34952   -34913   -34839   -34753   -34677   -34626   -34601 
  -34600   -34616   -34641   -34673   -34713   -34750   -34774   -34774 
  -34724   -34632   -34546   -34510   -34543   -34627   -34722   -34811 
  -34879   -34917   -34933   -34951   -34983   -35024   -35055   -35046 
  -34985   -34871   -34719   -34568   -34445   -34353   -34302   -34298 
  -34350   -34454   -34582   -34711   -34811   -34862   -34866   -34848 
  -34839   -34847   -34871   -34882   -34857   -34804   -34736   -34661 
  -34618   -34618   -34634   -34661   -34715   -34794   -34884   -34956 
  -34990   -34974   -34916   -34835   -34762   -34717   -34696   -34669 
  -34609   -34531   -34466   -34452   -34495   -34562   -34618   -34643 
  -34639   -34635   -34657   -34693   -34704   -34666   -34605   -34572 
  -34593   -34669   -34762   -34839   -34882   -34893   -34881   -34847 
  -34812   -34801   -34827   -34878   -34935   -34965   -34951   -34904 
  -34839   -34763   -34684   -34609   -34565   -34581   -34663   -34785 
  -34898   -34958   -34951   -34904   -34851   -34819   -34796   -34763 
  -34717   -34666   -34614   -34560   -34510   -34469   -34450   -34466 
  -34512   -34573   -34623   -34655   -34686   -34726   -34753   -34746 
  -34711   -34659   -34592   -34514   -34435   -34365   -34326   -34357 
  -34472   -34641   -34803   -34909   -34955   -34965   -34958   -34938 
  -34894   -34824   -34735   -34647   -34587   -34568   -34593   -34663 
  -34771   -34888   -34966   -34974   -34920   -34832   -34728   -34619 
  -34528   -34492   -34537   -34654   -34801   -34928   -35001   -35008 
  -34975   -34950   -34948   -34960   -34974   -34978   -34963   -34920 
  -34851   -34757   -34641   -34539   -34480   -34470   -34496   -34524 
  -34523   -34481   -34416   -34373   -34377   -34423   -34495   -34573 
  -34647   -34713   -34765   -34816   -34886   -34967   -35031   -35047 
  -34996   -34885   -34751   -34638   -34570   -34550   -34564   -34607 
  -34681   -34769   -34846   -34901   -34951   -35017   -35100   -35172 
  -35203   -35175   -35094   -34971   -34832   -34696   -34577   -34484 
  -34422   -34403   -34433   -34501   -34585   -34661   -34690   -34657 
  -34577   -34488   -34429   -34416   -34453   -34527   -34619   -34703 
  -34766   -34812   -34836   -34835   -34813   -34763   -34688   -34596 
  -34496   -34408   -34375   -34408   -34492   -34612   -34750   -34884 
  -35000   -35093   -35164   -35225   -35278   -35310   -35310   -35278 
  -35206   -35108   -35013   -34932   -34863   -34805   -34751   -34709 
  -34693   -34692   -34695   -34690   -34647   -34541   -34385   -34231 
  -34136   -34133   -34217   -34360   -34526   -34681   -34813   -34897 
  -34916   -34888   -34834   -34777   -34734   -34690   -34632   -34562 
  -34500   -34468   -34472   -34510   -34577   -34662   -34736   -34770 
  -34750   -34695   -34636   -34609   -34618   -34641   -34668   -34700 
  -34740   -34789   -34835   -34863   -34869   -34858   -34848   -34858 
  -34890   -34935   -34977   -35005   -35012   -34996   -34955   -34892 
  -34808   -34719   -34647   -34612   -34616   -34647   -34672   -34674 
  -34662   -34643   -34620   -34595   -34568   -34537   -34506   -34477 
  -34456   -34445   -34458   -34510   -34609   -34742   -34866   -34935 
  -34920   -34819   -34655   -34465   -34302   -34209   -34206   -34296 
  -34473   -34696   -34902   -35047   -35094   -35037   -34917   -34797 
  -34731   -34728   -34765   -34803   -34811   -34784   -34740   -34724 
  -34759   -34832   -34890   -34902   -34875   -34825   -34771   -34750 
  -34784   -34859   -34942   -34986   -34966   -34894   -34793   -34677 
  -34570   -34489   -34434   -34408   -34416   -34456   -34515   -34584 
  -34646   -34690   -34709   -34703   -34676   -34639   -34614   -34615 
  -34628   -34638   -34638   -34628   -34618   -34626   -34649   -34663 
  -34670   -34674   -34674   -34682   -34701   -34722   -34738   -34757 
  -34796   -34858   -34924   -34969   -34985   -34978   -34967   -34967 
  -34977   -34978   -34956   -34911   -34836   -34723   -34565   -34375 
  -34184   -34036   -33967   -34001   -34145   -34368   -34623   -34878 
  -35102   -35264   -35355   -35386   -35378   -35341   -35278   -35198 
  -35124   -35066   -35025   -35008   -35017   -35039   -35043   -35013 
  -34946   -34852   -34770   -34734   -34750   -34803   -34859   -34890 
  -34884   -34851   -34808   -34766   -34738   -34738   -34771   -34821 
  -34855   -34850   -34801   -34708   -34573   -34416   -34271   -34161 
  -34109   -34115   -34159   -34214   -34275   -34356   -34480   -34646 
  -34821   -34959   -35012   -34965   -34840   -34692   -34572   -34512 
  -34515   -34560   -34628   -34705   -34780   -34850   -34931   -35020 
  -35112   -35201   -35290   -35384   -35464   -35495   -35475   -35415 
  -35347   -35302   -35293   -35301   -35287   -35228   -35121   -34981 
  -34830   -34692   -34565   -34434   -34292   -34150   -34020   -33916 
  -33864   -33878   -33949   -34065   -34204   -34338   -34449   -34528 
  -34568   -34580   -34576   -34561   -34543   -34510   -34450   -34385 
  -34333   -34327   -34402   -34553   -34761   -34977   -35137   -35222 
  -35247   -35217   -35145   -35060   -34967   -34874   -34800   -34739 
  -34672   -34605   -34550   -34511   -34499   -34526   -34592   -34680 
  -34757   -34794   -34780   -34724   -34653   -34595   -34587   -34638 
  -34727   -34815   -34852   -34821   -34751   -34689   -34651   -34622 
  -34572   -34480   -34352   -34218   -34105   -34029   -34006   -34037 
  -34115   -34244   -34422   -34643   -34884   -35116   -35318   -35486 
  -35607   -35661   -35633   -35511   -35297   -35028   -34757   -34541 
  -34429   -34422   -34493   -34604   -34717   -34800   -34847   -34850 
  -34796   -34688   -34538   -34366   -34207   -34079   -33993   -33951 
  -33956   -34001   -34064   -34140   -34242   -34376   -34534   -34695 
  -34834   -34938   -35016   -35087   -35155   -35210   -35248   -35271 
  -35274   -35253   -35214   -35167   -35129   -35114   -35124   -35143 
  -35152   -35125   -35039   -34893   -34711   -34538   -34418   -34371 
  -34389   -34470   -34607   -34785   -34982   -35159   -35287   -35352 
  -35347   -35271   -35117   -34882   -34582   -34237   -33885   -33570 
  -33326   -33192   -33207   -33392   -33735   -34187   -34686   -35167 
  -35559   -35802   -35877   -35808   -35640   -35434   -35243   -35086 
  -34965   -34874   -34800   -34739   -34707   -34709   -34736   -34776 
  -34804   -34794   -34751   -34681   -34592   -34504   -34434   -34389 
  -34381   -34415   -34472   -34531   -34576   -34600   -34609   -34608 
  -34587   -34526   -34430   -34327   -34250   -34229   -34279   -34407 
  -34601   -34840   -35104   -35371   -35614   -35796   -35900   -35935 
  -35912   -35829   -35688   -35499   -35272   -35036   -34813   -34615 
  -34460   -34361   -34311   -34299   -34321   -34358   -34403   -34456 
  -34518   -34580   -34636   -34678   -34692   -34678   -34653   -34624 
  -34592   -34554   -34511   -34452   -34360   -34234   -34074   -33876 
  -33678   -33516   -33427   -33438   -33547   -33736   -33995   -34311 
  -34669   -35037   -35368   -35631   -35808   -35880   -35854   -35757 
  -35610   -35432   -35243   -35058   -34897   -34785   -34728   -34739 
  -34823   -34969   -35152   -35333   -35456   -35482   -35402   -35240 
  -35048   -34888   -34790   -34753   -34754   -34755   -34711   -34612 
  -34468   -34292   -34115   -33967   -33860   -33808   -33825   -33907 
  -34042   -34203   -34360   -34487   -34553   -34549   -34506   -34456 
  -34418   -34399   -34392   -34398   -34418   -34462   -34546   -34665 
  -34798   -34917   -34996   -35035   -35046   -35039   -35036   -35050 
  -35078   -35116   -35147   -35149   -35124   -35082   -35041   -35010 
  -35004   -35009   -34996   -34939   -34842   -34724   -34624   -34581 
  -34611   -34713   -34863   -35012   -35129   -35217   -35287   -35348 
  -35390   -35386   -35309   -35155   -34943   -34708   -34484   -34299 
  -34168   -34079   -34013   -33964   -33943   -33940   -33948   -33955 
  -33941   -33906   -33862   -33832   -33858   -33964   -34144   -34379 
  -34643   -34901   -35120   -35295   -35425   -35507   -35534   -35502 
  -35424   -35321   -35201   -35066   -34933   -34828   -34759   -34734 
  -34761   -34834   -34940   -35085   -35263   -35449   -35606   -35700 
  -35710   -35638   -35509   -35353   -35179   -34996   -34825   -34686 
  -34589   -34531   -34483   -34419   -34318   -34159   -33939   -33675 
  -33401   -33168   -33018   -32977   -33050   -33232   -33515   -33862 
  -34229   -34585   -34898   -35139   -35294   -35359   -35329   -35216 
  -35046   -34867   -34724   -34634   -34597   -34622   -34709   -34865 
  -35071   -35297   -35506   -35673   -35785   -35843   -35853   -35811 
  -35714   -35571   -35394   -35205   -35029   -34882   -34770   -34696 
  -34645   -34589   -34514   -34422   -34329   -34246   -34183   -34142 
  -34122   -34121   -34141   -34180   -34229   -34280   -34349   -34438 
  -34533   -34609   -34653   -34649   -34608   -34554   -34511   -34511 
  -34576   -34696   -34842   -34981   -35081   -35125   -35122   -35089 
  -35033   -34969   -34911   -34870   -34850   -34842   -34823   -34786 
  -34734   -34668   -34607   -34561   -34524   -34506   -34510   -34535 
  -34569   -34591   -34587   -34570   -34566   -34573   -34582   -34593 
  -34608   -34642   -34711   -34821   -34963   -35114   -35247   -35324 
  -35318   -35218   -35044   -34823   -34584   -34379   -34246   -34206 
  -34268   -34435   -34695   -35014   -35344   -35642   -35873   -36020 
  -36078   -36047   -35934   -35768   -35576   -35375   -35175   -34973 
  -34749   -34507   -34249   -33970   -33683   -33421   -33212   -33087 
  -33056   -33110   -33228   -33388   -33570   -33764   -33964   -34163 
  -34366   -34580   -34797   -34992   -35125   -35181   -35171   -35121 
  -35070   -35054   -35086   -35152   -35239   -35324   -35375   -35382 
  -35348   -35287   -35233   -35217   -35241   -35294   -35359   -35418 
  -35455   -35452   -35397   -35283   -35118   -34912   -34681   -34446 
  -34225   -34030   -33875   -33764   -33694   -33666   -33674   -33697 
  -33731   -33782   -33860   -33986   -34157   -34349   -34533   -34686 
  -34790   -34824   -34776   -34659   -34518   -34406   -34362   -34393 
  -34485   -34623   -34786   -34962   -35136   -35299   -35445   -35569 
  -35675   -35766   -35839   -35892   -35924   -35932   -35907   -35837 
  -35707   -35515   -35262   -34960   -34635   -34319   -34055   -33868 
  -33772   -33764   -33829   -33940   -34075   -34210   -34327   -34412 
  -34462   -34477   -34466   -34439   -34404   -34372   -34349   -34344 
  -34348   -34354   -34357   -34352   -34350   -34360   -34403   -34499 
  -34645   -34820   -34992   -35117   -35163   -35127   -35029   -34905 
  -34798   -34749   -34767   -34838   -34947   -35074   -35195   -35295 
  -35352   -35337   -35236   -35051   -34816   -34581   -34393   -34284 
  -34256   -34303   -34406   -34541   -34696   -34862   -35012   -35127 
  -35198   -35217   -35206   -35191   -35162   -35087   -34963   -34800 
  -34624   -34481   -34404   -34402   -34461   -34564   -34678   -34781 
  -34863   -34905   -34886   -34808   -34685   -34537   -34384   -34256 
  -34172   -34129   -34119   -34142   -34194   -34265   -34357   -34456 
  -34537   -34573   -34553   -34483   -34387   -34298   -34240   -34231 
  -34284   -34402   -34578   -34794   -35019   -35216   -35364   -35465 
  -35530   -35575   -35608   -35630   -35633   -35617   -35587   -35548 
  -35505   -35478   -35467   -35459   -35436   -35386   -35306   -35210 
  -35116   -35016   -34905   -34771   -34603   -34406   -34206   -34030 
  -33891   -33790   -33720   -33677   -33660   -33685   -33748   -33845 
  -33955   -34044   -34102   -34132   -34132   -34115   -34111   -34128 
  -34168   -34246   -34365   -34522   -34712   -34924   -35144   -35359 
  -35554   -35711   -35808   -35834   -35793   -35708   -35602   -35495 
  -35402   -35320   -35249   -35210   -35213   -35248   -35301   -35349 
  -35367   -35337   -35251   -35105   -34919   -34720   -34523   -34345 
  -34200   -34079   -33974   -33876   -33785   -33694   -33609   -33540 
  -33504   -33504   -33529   -33561   -33593   -33629   -33691   -33812 
  -34009   -34261   -34545   -34828   -35083   -35298   -35468   -35581 
  -35629   -35607   -35523   -35395   -35243   -35093   -34966   -34875 
  -34828   -34827   -34861   -34923   -35010   -35116   -35229   -35347 
  -35452   -35525   -35553   -35533   -35461   -35344   -35191   -35029 
  -34875   -34740   -34636   -34551   -34477   -34407   -34337   -34267 
  -34202   -34148   -34113   -34098   -34096   -34103   -34121   -34141 
  -34160   -34184   -34206   -34218   -34230   -34254   -34291   -34354 
  -34450   -34572   -34712   -34865   -35009   -35133   -35235   -35301 
  -35325   -35313   -35267   -35195   -35117   -35039   -34967   -34912 
  -34882   -34896   -34965   -35083   -35232   -35378   -35482   -35515 
  -35472   -35351   -35166   -34947   -34715   -34495   -34323   -34225 
  -34188   -34203   -34257   -34330   -34403   -34466   -34506   -34516 
  -34496   -34442   -34362   -34277   -34199   -34150   -34145   -34175 
  -34225   -34276   -34310   -34319   -34318   -34323   -34342   -34373 
  -34419   -34481   -34562   -34662   -34777   -34904   -35046   -35198 
  -35338   -35441   -35491   -35488   -35434   -35341   -35225   -35101 
  -34987   -34915   -34894   -34919   -34979   -35060   -35141   -35208 
  -35259   -35289   -35299   -35299   -35289   -35256   -35197   -35112 
  -35001   -34878   -34765   -34672   -34604   -34566   -34543   -34520 
  -34495   -34458   -34398   -34318   -34219   -34094   -33961   -33851 
  -33775   -33737   -33731   -33743   -33770   -33801   -33839   -33889 
  -33940   -33988   -34041   -34103   -34175   -34269   -34385   -34520 
  -34670   -34827   -34982   -35143   -35307   -35464   -35595   -35681 
  -35710   -35675   -35591   -35484   -35390   -35330   -35317   -35357 
  -35449   -35571   -35698   -35807   -35873   -35880   -35829   -35730 
  -35595   -35432   -35239   -35017   -34781   -34551   -34360   -34223 
  -34146   -34128   -34152   -34187   -34198   -34169   -34109   -34021 
  -33928   -33855   -33804   -33779   -33777   -33778   -33790   -33817 
  -33858   -33909   -33970   -34037   -34119   -34214   -34319   -34430 
