Origin Time       2025/03/30 22:55:00
Lat.              41.993
Long.             142.725
Depth. (km)       55
Mag.              4.6
Station Code      HDKH03
Station Lat.      42.5934
Station Long.     142.3521
Station Height(m) 160
Record Time       2025/03/30 22:56:27
Sampling Freq(Hz) 100Hz
Duration Time(s)  120
Dir.              4
Scale Factor      7845(gal)/8223790
Max. Acc. (gal)   1.913
Last Correction   2025/03/30 22:56:11
Memo.             
[...]
   41331    41345    41330    41295    41257    41234    41229    41235 
   41239    41233    41214    41180    41150    41137    41143    41173 
   41223    41284    41350    41415    41466    41481    41455    41396 
   41324    41268    41238    41229    41226    41216    41183    41130 
   41083    41056    41061    41104    41173    41249    41324    41386 
   41428    41453    41454    41426    41369    41295    41224    41187 
   41187    41226    41287    41345    41385    41397    41377    41330 
   41258    41170    41080    41003    40954    40946    40990    41089 
   41241    41407    41540    41609    41605    41544    41461    41368 
   41269    41173    41085    41011    40971    40977    41041    41156 
   41291    41397    41447    41436    41395    41354    41330    41308 
   41278    41237    41179    41111    41053    41023    41033    41087 
   41172    41262    41346    41408    41438    41432    41389    41319 
   41253    41216    41216    41245    41277    41288    41266    41227 
   41207    41234    41311    41423    41542    41616    41605    41516 
   41377    41222    41081    40963    40868    40803    40768    40772 
   40837    40971    41168    41401    41643    41848    41978    42018 
   41975    41859    41678    41446    41180    40903    40662    40502 
   40463    40555    40761    41035    41312    41524    41629    41636 
   41573    41473    41380    41312    41268    41243    41239    41247 
   41268    41297    41318    41311    41268    41187    41092    41026 
   41015    41061    41146    41237    41304    41341    41351    41350 
   41353    41370    41399    41431    41459    41466    41436    41361 
   41238    41098    40975    40902    40902    40965    41072    41199 
   41314    41393    41438    41458    41472    41493    41524    41543 
   41540    41515    41463    41388    41281    41142    40987    40841 
   40743    40725    40802    40967    41187    41409    41575    41662 
   41667    41605    41507    41411    41330    41256    41176    41087 
   40995    40919    40892    40933    41030    41157    41284    41378 
   41420    41431    41432    41435    41449    41462    41442    41376 
   41281    41180    41096    41045    41014    40995    40994    41018 
   41085    41202    41346    41489    41592    41621    41578    41482 
   41362    41253    41183    41156    41179    41238    41300    41337 
   41338    41310    41261    41211    41180    41176    41181    41183 
   41164    41126    41099    41115    41189    41312    41447    41553 
   41597    41575    41501    41397    41283    41166    41057    40954 
   40860    40790    40772    40825    40961    41166    41403    41620 
   41773    41835    41802    41705    41580    41454    41341    41239 
   41145    41057    40987    40942    40926    40929    40952    40991 
   41044    41103    41176    41266    41376    41500    41613    41686 
   41701    41650    41543    41407    41270    41153    41058    40987 
   40940    40915    40921    40957    41034    41158    41307    41457 
   41582    41658    41665    41604    41497    41373    41242    41134 
   41072    41062    41098    41158    41215    41251    41253    41224 
   41185    41169    41195    41253    41320    41378    41412    41428 
   41428    41403    41357    41295    41218    41148    41095    41069 
   41079    41122    41181    41247    41315    41378    41424    41435 
   41386    41280    41135    40991    40890    40857    40900    41017 
   41202    41430    41648    41804    41860    41812    41679    41496 
   41291    41081    40895    40756    40675    40664    40734    40875 
   41060    41258    41432    41548    41582    41546    41472    41385 
   41297    41218    41160    41138    41160    41222    41311    41404 
   41477    41517    41534    41532    41505    41445    41355    41247 
   41148    41081    41057    41068    41106    41154    41197    41223 
   41238    41256    41276    41287    41281    41258    41227    41206 
   41207    41237    41287    41339    41369    41364    41330    41283 
   41238    41208    41202    41210    41222    41234    41243    41260 
   41287    41315    41338    41364    41396    41432    41466    41465 
   41399    41250    41042    40824    40657    40589    40637    40791 
   41003    41230    41447    41640    41805    41937    42005    41986 
   41871    41666    41393    41102    40845    40664    40587    40616 
   40728    40892    41077    41268    41463    41658    41832    41949 
   41963    41848    41620    41324    41023    40788    40663    40660 
   40770    40957    41166    41359    41513    41613    41651    41625 
   41539    41404    41235    41056    40906    40821    40811    40878 
   40996    41129    41251    41351    41426    41485    41521    41523 
   41485    41405    41295    41187    41116    41102    41149    41238 
   41330    41378    41362    41296    41206    41115    41053    41038 
   41075    41157    41280    41423    41542    41601    41571    41453 
   41274    41087    40952    40905    40952    41083    41257    41412 
   41508    41531    41481    41384    41284    41219    41208    41249 
   41327    41416    41480    41489    41440    41350    41243    41157 
   41107    41083    41076    41080    41084    41102    41153    41241 
   41361    41486    41573    41586    41515    41374    41189    40995 
   40838    40767    40797    40925    41127    41355    41554    41679 
   41705    41631    41474    41270    41072    40929    40873    40898 
   40979    41084    41189    41284    41362    41409    41423    41401 
   41349    41284    41223    41180    41177    41222    41308    41422 
   41532    41597    41589    41513    41400    41272    41148    41041 
   40964    40922    40934    41004    41110    41231    41343    41432 
   41480    41476    41423    41341    41249    41170    41121    41100 
   41119    41185    41280    41370    41427    41426    41373    41310 
   41273    41276    41311    41351    41365    41341    41273    41166 
   41050    40967    40936    40961    41046    41176    41319    41450 
   41546    41580    41540    41442    41311    41188    41100    41061 
   41064    41088    41122    41160    41199    41243    41296    41359 
   41426    41477    41494    41465    41392    41296    41199    41118 
   41064    41056    41094    41161    41250    41346    41432    41499 
   41532    41519    41461    41386    41332    41310    41310    41308 
   41270    41184    41072    40964    40894    40890    40952    41067 
   41216    41370    41507    41624    41713    41750    41724    41631 
   41470    41261    41040    40833    40678    40605    40626    40730 
   40887    41079    41288    41493    41671    41786    41806    41725 
   41558    41343    41123    40937    40819    40784    40828    40934 
   41081    41246    41407    41535    41605    41611    41553    41457 
   41364    41299    41272    41268    41258    41227    41181    41137 
   41108    41114    41164    41241    41312    41355    41362    41331 
   41278    41235    41218    41231    41264    41297    41315    41311 
   41295    41280    41272    41277    41295    41315    41331    41332 
   41314    41292    41288    41303    41335    41376    41409    41431 
   41424    41370    41270    41135    40973    40819    40714    40676 
   40720    40842    41026    41235    41432    41589    41689    41725 
   41708    41639    41538    41435    41349    41276    41211    41146 
   41076    41014    40981    40991    41045    41133    41229    41318 
   41389    41431    41438    41405    41334    41238    41142    41076 
   41069    41127    41219    41315    41386    41423    41432    41426 
   41411    41395    41370    41328    41273    41226    41193    41177 
   41183    41199    41218    41234    41238    41224    41202    41170 
   41139    41125    41148    41211    41304    41401    41490    41562 
   41608    41628    41611    41540    41411    41227    41026    40861 
   40776    40795    40911    41088    41280    41447    41555    41596 
   41578    41507    41392    41264    41148    41073    41065    41118 
   41219    41351    41481    41567    41584    41527    41408    41258 
   41115    41004    40934    40910    40921    40953    41008    41095 
   41214    41358    41512    41647    41727    41717    41607    41424 
   41223    41064    40987    40999    41075    41176    41262    41307 
   41289    41220    41141    41094    41094    41143    41234    41343 
   41453    41540    41582    41567    41501    41405    41318    41261 
   41246    41262    41284    41285    41238    41137    40998    40851 
   40736    40697    40752    40898    41111    41358    41580    41720 
   41751    41677    41521    41332    41162    41049    41008    41038 
   41114    41202    41292    41377    41446    41482    41473    41401 
   41272    41099    40909    40726    40591    40544    40599    40755 
   40990    41266    41542    41779    41963    42083    42133    42105 
   41995    41820    41602    41365    41129    40910    40720    40570 
   40482    40482    40582    40764    40991    41218    41405    41546 
   41638    41679    41685    41661    41602    41521    41427    41330 
   41241    41176    41141    41137    41156    41184    41214    41241 
   41251    41233    41188    41121    41040    40964    40914    40907 
   40960    41071    41223    41400    41559    41661    41675    41605 
   41481    41353    41258    41218    41222    41245    41268    41280 
   41274    41256    41237    41214    41175    41107    41013    40899 
   40803    40767    40824    40999    41287    41644    41995    42263 
   42392    42346    42129    41789    41376    40949    40571    40292 
   40143    40138    40261    40478    40752    41042    41319    41578 
   41812    42009    42144    42182    42094    41879    41570    41223 
   40915    40716    40662    40749    40945    41200    41454    41647 
   41732    41693    41557    41372    41189    41067    41021    41023 
   41035    41033    41000    40945    40896    40902    40994    41180 
   41432    41689    41867    41909    41793    41532    41192    40878 
   40676    40637    40768    41027    41320    41561    41694    41719 
   41667    41586    41517    41482    41458    41405    41304    41146 
   40957    40783    40676    40672    40770    40953    41203    41481 
   41731    41898    41941    41851    41635    41328    40986    40663 
   40408    40252    40216    40297    40458    40663    40902    41176 
   41490    41840    42186    42466    42618    42595    42400    42070 
   41667    41268    40929    40693    40581    40576    40643    40744 
   40853    40950    41035    41104    41152    41184    41223    41297 
   41420    41585    41769    41939    42052    42045    41883    41577 
   41176    40759    40413    40215    40190    40324    40587    40940 
   41342    41756    42132    42425    42596    42612    42460    42152 
   41724    41242    40784    40413    40163    40038    40015    40068 
   40180    40347    40572    40844    41138    41419    41647    41797 
   41871    41899    41918    41960    42037    42124    42169    42129 
   41971    41698    41349    40967    40608    40327    40151    40093 
   40158    40350    40653    41037    41445    41805    42045    42133 
   42066    41866    41588    41299    41050    40880    40792    40763 
   40768    40797    40845    40927    41068    41284    41565    41870 
   42132    42283    42284    42144    41904    41623    41358    41141 
   40957    40784    40606    40419    40254    40155    40159    40297 
   40576    40975    41443    41917    42330    42630    42774    42731 
   42503    42124    41650    41149    40699    40371    40201    40188 
   40305    40498    40720    40933    41111    41239    41327    41391 
   41440    41481    41507    41509    41486    41446    41400    41366 
   41364    41389    41432    41476    41497    41486    41439    41364 
   41280    41202    41135    41072    41004    40917    40801    40676 
   40586    40574    40676    40888    41168    41446    41656    41762 
   41758    41665    41534    41412    41314    41234    41164    41099 
   41054    41045    41079    41160    41280    41418    41553    41661 
   41720    41713    41635    41493    41304    41107    40952    40882 
   40923    41064    41268    41481    41647    41723    41692    41573 
   41411    41260    41166    41150    41193    41262    41326    41361 
   41372    41378    41389    41392    41359    41268    41106    40878 
   40628    40423    40343    40450    40755    41216    41760    42279 
   42661    42816    42708    42354    41833    41246    40705    40292 
   40041    39941    39949    40026    40142    40296    40509    40806 
   41200    41674    42160    42574    42832    42858    42631    42194 
   41632    41056    40572    40257    40149    40236    40475    40803 
   41148    41453    41688    41832    41893    41886    41818    41683 
   41482    41220    40914    40608    40365    40243    40275    40455 
   40743    41079    41401    41655    41806    41854    41824    41754 
   41673    41585    41481    41357    41223    41099    41013    40990 
   41049    41193    41401    41629    41817    41898    41829    41617 
   41314    40991    40724    40576    40581    40729    40995    41337 
   41689    41993    42186    42207    42039    41692    41211    40679 
   40188    39804    39590    39573    39750    40104    40599    41187 
   41801    42379    42855    43167    43266    43117    42731    42155 
   41476    40801    40228    39842    39684    39758    40038    40458 
   40937    41401    41789    42059    42202    42229    42165    42036 
   41848    41602    41303    40961    40621    40340    40176    40162 
   40305    40571    40911    41265    41567    41769    41845    41812 
   41717    41611    41523    41465    41419    41350    41241    41095 
   40950    40864    40868    40963    41134    41335    41503    41592 
   41582    41497    41388    41314    41316    41401    41534    41648 
   41688    41620    41455    41237    41026    40873    40810    40844 
   40959    41119    41278    41389    41428    41389    41284    41141 
   40996    40879    40810    40801    40842    40938    41091    41288 
   41516    41754    41972    42142    42240    42242    42124    41860 
   41472    41023    40605    40308    40197    40286    40535    40873 
   41224    41521    41743    41894    41980    41993    41905    41705 
   41400    41021    40626    40288    40072    40036    40205    40562 
   41056    41604    42095    42445    42607    42568    42360    42040 
   41678    41322    41003    40751    40576    40491    40510    40632 
   40837    41087    41326    41501    41581    41550    41430    41264 
   41088    40937    40833    40782    40768    40794    40868    40992 
   41175    41411    41678    41935    42144    42268    42272    42149 
   41908    41570    41185    40819    40543    40402    40417    40582 
   40860    41187    41494    41731    41854    41850    41732    41538 
   41311    41083    40888    40741    40643    40583    40566    40590 
   40663    40790    40971    41184    41400    41596    41743    41825 
   41837    41789    41692    41566    41434    41310    41204    41125 
   41067    41025    40995    40977    40976    41000    41060    41157 
   41283    41416    41534    41616    41654    41642    41581    41485 
   41377    41272    41175    41089    41019    40968    40949    40972 
   41050    41180    41345    41511    41647    41729    41743    41682 
   41562    41403    41220    41034    40867    40734    40653    40637 
   40686    40797    40959    41150    41368    41605    41836    42029 
   42149    42156    42041    41813    41499    41148    40825    40586 
   40466    40471    40578    40748    40945    41143    41326    41486 
   41625    41742    41829    41875    41870    41798    41652    41428 
   41142    40832    40555    40371    40325    40419    40625    40905 
   41192    41431    41593    41675    41697    41689    41667    41635 
   41585    41500    41385    41276    41195    41153    41158    41200 
   41258    41315    41361    41382    41373    41331    41266    41191 
   41126    41095    41112    41176    41270    41368    41431    41442 
   41399    41314    41202    41080    40960    40846    40752    40706 
   40730    40837    41017    41245    41481    41677    41801    41843 
   41812    41716    41573    41407    41239    41087    40975    40910 
   40880    40867    40856    40846    40856    40913    41041    41246 
   41508    41775    41990    42109    42105    41974    41740    41449 
   41139    40855    40620    40448    40358    40362    40468    40680 
   40988    41355    41729    42056    42282    42364    42291    42076 
   41752    41370    40987    40649    40387    40231    40211    40344 
   40624    41008    41435    41831    42126    42273    42268    42140 
   41937    41713    41503    41319    41157    41014    40896    40817 
   40786    40801    40853    40934    41035    41139    41233    41303 
   41347    41366    41364    41342    41301    41254    41214    41191 
   41193    41210    41218    41202    41164    41115    41076    41077 
   41143    41269    41428    41582    41677    41678    41581    41408 
   41207    41029    40923    40926    41027    41189    41373    41523 
   41608    41635    41620    41584    41547    41530    41527    41531 
   41526    41486    41400    41269    41110    40953    40830    40763 
   40764    40833    40952    41088    41215    41307    41339    41310 
   41229    41123    41018    40942    40925    40984    41130    41353 
   41607    41840    41993    42018    41910    41689    41391    41077 
   40799    40593    40487    40489    40568    40699    40855    41008 
   41153    41288    41412    41526    41620    41677    41690    41654 
   41561    41422    41258    41096    40967    40890    40878    40929 
   41027    41150    41276    41386    41467    41507    41501    41474 
   41443    41419    41397    41362    41295    41200    41106    41042 
   41033    41081    41173    41288    41395    41459    41470    41427 
   41349    41265    41200    41165    41161    41169    41173    41169 
   41165    41169    41203    41276    41376    41473    41538    41543 
   41489    41391    41280    41185    41125    41106    41127    41166 
   41211    41254    41280    41289    41288    41270    41250    41241 
   41245    41264    41300    41330    41327    41281    41200    41103 
   41017    40972    40975    41019    41087    41156    41214    41251 
   41268    41272    41274    41284    41314    41372    41466    41596 
   41737    41859    41924    41905    41791    41604    41378    41150 
   40957    40824    40764    40778    40857    40987    41149    41314 
   41446    41527    41547    41505    41411    41293    41176    41077 
   41018    40999    41019    41064    41123    41183    41242    41308 
   41392    41499    41611    41698    41736    41706    41589    41395 
   41146    40873    40614    40410    40296    40297    40421    40660 
   40983    41334    41665    41925    42078    42121    42071    41937 
   41731    41465    41164    40871    40640    40516    40514    40629 
   40828    41060    41289    41489    41635    41728    41769    41751 
