Origin Time       2025/03/30 22:55:00
Lat.              41.993
Long.             142.725
Depth. (km)       55
Mag.              4.6
Station Code      HDKH01
Station Lat.      42.7031
Station Long.     142.2296
Station Height(m) 82
Record Time       2025/03/30 22:56:15
Sampling Freq(Hz) 100Hz
Duration Time(s)  120
Dir.              4
Scale Factor      7845(gal)/8223790
Max. Acc. (gal)   0.744
Last Correction   2025/03/30 22:56:16
Memo.             
[...]
   23828    23892    23958    24025    24093    24138    24144    24105 
   24024    23928    23830    23747    23707    23689    23681    23684 
   23696    23741    23830    23936    24042    24120    24162    24167 
   24151    24121    24074    24021    23973    23922    23859    23782 
   23708    23674    23697    23757    23824    23878    23916    23946 
   23973    23998    24005    23984    23938    23880    23839    23839 
   23878    23953    24042    24106    24109    24036    23903    23735 
   23571    23453    23411    23464    23615    23847    24108    24331 
   24464    24490    24414    24266    24070    23855    23666    23546 
   23519    23575    23679    23792    23890    23963    24003    24007 
   23998    24000    24008    24015    24009    23977    23926    23874 
   23841    23834    23845    23849    23843    23845    23868    23904 
   23949    23988    24001    23982    23938    23885    23847    23836 
   23866    23931    23996    24027    24013    23959    23877    23785 
   23707    23668    23704    23816    23955    24075    24165    24219 
   24225    24182    24090    23947    23782    23658    23604    23612 
   23657    23733    23834    23959    24081    24163    24196    24175 
   24098    23969    23807    23649    23538    23521    23618    23803 
   24017    24198    24305    24324    24254    24112    23935    23760 
   23622    23539    23518    23558    23647    23774    23909    24011 
   24062    24066    24057    24075    24117    24140    24115    24040 
   23943    23842    23749    23683    23668    23706    23778    23861 
   23932    23978    24004    24027    24047    24052    24046    24038 
   24032    24017    23965    23866    23753    23653    23588    23572 
   23622    23735    23897    24079    24229    24302    24297    24228 
   24112    23969    23819    23696    23629    23635    23703    23800 
   23892    23943    23958    23957    23955    23962    23970    23976 
   23982    23984    23978    23967    23935    23882    23820    23762 
   23728    23733    23787    23885    23996    24089    24142    24124 
   24032    23885    23724    23610    23581    23646    23772    23920 
   24052    24135    24159    24140    24093    24035    23978    23924 
   23874    23830    23807    23815    23823    23805    23760    23714 
   23699    23730    23801    23912    24042    24158    24239    24275 
   24274    24233    24160    24051    23899    23728    23587    23508 
   23517    23618    23784    23966    24120    24214    24237    24196 
   24109    23982    23835    23706    23623    23604    23650    23754 
   23882    23994    24071    24098    24077    24023    23957    23893 
   23845    23818    23819    23835    23846    23854    23870    23900 
   23931    23936    23900    23847    23816    23834    23884    23944 
   23992    24020    24047    24066    24054    24009    23944    23873 
   23814    23774    23749    23728    23722    23738    23760    23791 
   23841    23909    23997    24081    24132    24151    24155    24152 
   24132    24069    23963    23832    23699    23588    23522    23517 
   23588    23738    23931    24106    24228    24278    24254    24178 
   24066    23926    23773    23642    23565    23566    23643    23787 
   23966    24133    24248    24290    24250    24132    23957    23769 
   23616    23542    23554    23625    23728    23854    23982    24096 
   24170    24183    24136    24048    23966    23916    23897    23899 
   23899    23881    23846    23785    23714    23679    23700    23768 
   23846    23919    23990    24061    24117    24143    24128    24086 
   24030    23976    23935    23900    23868    23838    23819    23808 
   23791    23770    23773    23795    23816    23822    23820    23843 
   23913    24015    24120    24201    24246    24244    24189    24078 
   23919    23749    23618    23546    23534    23581    23677    23822 
   24005    24183    24294    24304    24225    24104    23978    23857 
   23730    23612    23541    23548    23638    23766    23880    23959 
   24027    24094    24148    24179    24181    24150    24101    24047 
   23974    23884    23769    23639    23541    23499    23526    23625 
   23774    23951    24119    24224    24256    24248    24216    24165 
   24094    23990    23854    23735    23670    23646    23637    23633 
   23645    23700    23799    23908    24005    24085    24148    24193 
   24204    24175    24119    24046    23967    23878    23781    23688 
   23611    23580    23602    23647    23701    23772    23872    23998 
   24129    24231    24268    24232    24143    24028    23908    23799 
   23718    23681    23699    23762    23858    23957    24027    24054 
   24039    23992    23926    23861    23807    23761    23734    23742 
   23797    23897    24011    24102    24150    24144    24097    24021 
   23931    23845    23776    23730    23712    23722    23770    23857 
   23947    24020    24063    24073    24051    24016    23982    23950 
   23909    23862    23811    23774    23761    23768    23800    23857 
   23923    23989    24040    24073    24066    23998    23901    23820 
   23780    23793    23846    23913    23967    23978    23947    23881 
   23792    23716    23687    23726    23834    23984    24124    24217 
   24250    24220    24129    23997    23853    23719    23618    23564 
   23561    23611    23706    23830    23957    24079    24192    24262 
   24266    24210    24100    23951    23795    23662    23585    23576 
   23633    23738    23857    23957    24012    24028    24030    24009 
   23953    23873    23804    23785    23830    23919    24031    24127 
   24181    24177    24108    23990    23851    23722    23630    23596 
   23630    23718    23827    23939    24050    24146    24200    24193 
   24127    24015    23892    23795    23728    23701    23724    23780 
   23855    23940    24012    24051    24048    24008    23949    23873 
   23805    23777    23792    23832    23878    23920    23953    23950 
   23905    23853    23831    23853    23904    23959    24000    24025 
   24032    24015    23974    23923    23878    23859    23862    23868 
   23872    23878    23905    23949    23974    23957    23903    23846 
   23826    23841    23865    23888    23905    23919    23940    23969 
   23990    23989    23961    23915    23859    23804    23762    23745 
   23769    23842    23954    24078    24174    24216    24194    24117 
   24009    23888    23787    23738    23751    23814    23893    23950 
   23965    23949    23922    23888    23842    23807    23811    23862 
   23958    24059    24119    24120    24058    23949    23812    23680 
   23595    23573    23610    23701    23834    23985    24132    24243 
   24279    24237    24140    24007    23854    23710    23602    23554 
   23589    23691    23822    23938    24012    24046    24048    24027 
   23993    23943    23885    23834    23789    23762    23772    23832 
   23938    24048    24116    24112    24039    23923    23797    23689 
   23625    23620    23697    23836    23982    24093    24146    24136 
   24078    23992    23896    23814    23761    23765    23820    23892 
   23958    24009    24042    24043    23997    23904    23797    23720 
   23693    23708    23755    23816    23881    23944    23984    24001 
   24015    24024    24027    24012    23974    23932    23907    23899 
   23896    23869    23822    23773    23737    23724    23747    23811 
   23912    24028    24125    24187    24216    24206    24162    24094 
   24008    23903    23795    23700    23630    23598    23604    23657 
   23750    23854    23935    23989    24028    24051    24059    24063 
   24058    24042    24020    24000    23978    23943    23892    23822 
   23735    23666    23652    23689    23777    23899    24023    24133 
   24205    24209    24150    24039    23911    23800    23724    23701 
   23739    23815    23888    23927    23919    23881    23841    23818 
   23814    23835    23882    23947    24019    24073    24077    24030 
   23954    23870    23800    23762    23768    23819    23892    23954 
   23976    23949    23892    23834    23793    23772    23768    23804 
   23877    23963    24051    24113    24140    24143    24111    24032 
   23920    23808    23724    23685    23699    23757    23851    23971 
   24075    24131    24131    24082    24012    23944    23884    23831 
   23792    23776    23782    23811    23854    23900    23935    23955 
   23961    23961    23962    23959    23949    23932    23893    23826 
   23738    23665    23633    23649    23722    23851    24009    24163 
   24281    24345    24341    24260    24117    23951    23796    23676 
   23599    23568    23589    23665    23777    23893    23993    24065 
   24109    24127    24097    24017    23915    23824    23777    23780 
   23801    23832    23880    23936    23982    23992    23953    23884 
   23818    23769    23737    23733    23782    23884    24015    24135 
   24204    24205    24144    24042    23928    23823    23746    23718 
   23741    23804    23876    23927    23944    23932    23909    23885 
   23855    23832    23836    23876    23942    24009    24055    24074 
   24063    24036    23998    23943    23869    23789    23723    23681 
   23660    23674    23747    23870    24013    24144    24241    24294 
   24294    24232    24105    23935    23766    23637    23566    23554 
   23591    23681    23805    23943    24059    24116    24115    24071 
   23992    23897    23815    23765    23750    23760    23787    23828 
   23881    23946    24017    24082    24124    24135    24113    24058 
   23966    23846    23728    23652    23625    23645    23711    23805 
   23900    23982    24044    24085    24109    24106    24071    24009 
   23939    23880    23838    23822    23830    23842    23854    23873 
   23882    23870    23855    23874    23927    23986    24030    24043 
   24032    24009    23966    23908    23847    23796    23773    23772 
   23777    23788    23808    23854    23930    24005    24048    24046 
   24007    23949    23888    23839    23814    23818    23842    23869 
   23896    23916    23927    23946    23969    23992    24013    24017 
   24004    23988    23961    23915    23847    23765    23697    23668 
   23674    23714    23776    23855    23946    24024    24074    24084 
   24057    24017    23984    23951    23907    23854    23805    23781 
   23797    23841    23892    23954    24021    24081    24113    24108 
   24077    24028    23961    23881    23789    23700    23643    23642 
   23696    23800    23935    24078    24197    24267    24273    24206 
   24084    23944    23827    23766    23754    23757    23773    23807 
   23842    23874    23908    23950    24009    24078    24128    24138 
   24127    24120    24121    24125    24111    24071    24024    23971 
   23908    23847    23796    23774    23797    23850    23912    23962 
   23990    23993    23980    23958    23931    23904    23880    23853 
   23826    23815    23831    23869    23911    23932    23917    23878 
   23842    23824    23827    23853    23889    23926    23954    23976 
   23984    23966    23939    23915    23892    23869    23828    23754 
   23662    23575    23511    23498    23541    23631    23738    23834 
   23908    23943    23942    23932    23927    23928    23946    23980 
   24024    24078    24131    24163    24155    24101    24005    23885 
   23768    23677    23637    23654    23718    23814    23920    24017 
   24086    24108    24070    23976    23846    23722    23650    23653 
   23722    23830    23951    24065    24129    24121    24035    23900 
   23764    23661    23620    23657    23754    23881    24000    24079 
   24108    24078    24008    23931    23869    23815    23761    23722 
   23720    23761    23831    23911    23985    24036    24038    24008 
   23986    23982    23998    24028    24052    24069    24079    24075 
   24054    24016    23967    23900    23814    23716    23603    23490 
   23415    23398    23448    23572    23761    24003    24250    24439 
   24529    24517    24424    24290    24151    24027    23927    23851 
   23792    23746    23714    23679    23647    23626    23599    23575 
   23560    23561    23595    23662    23746    23835    23916    23988 
   24054    24115    24175    24236    24279    24289    24251    24171 
   24075    23980    23904    23853    23839    23863    23904    23920 
   23892    23818    23720    23634    23575    23562    23618    23746 
   23930    24132    24313    24430    24453    24382    24237    24055 
   23869    23718    23638    23630    23680    23768    23854    23917 
   23942    23922    23862    23777    23688    23615    23575    23589 
   23661    23768    23888    24003    24112    24221    24318    24383 
   24397    24354    24267    24152    24020    23899    23815    23787 
   23796    23820    23836    23834    23814    23791    23774    23773 
   23791    23826    23876    23915    23917    23886    23847    23816 
   23799    23814    23872    23954    24039    24111    24166    24210 
   24236    24235    24193    24104    23988    23872    23780    23722 
   23687    23672    23691    23737    23788    23826    23843    23850 
   23850    23849    23851    23855    23870    23900    23943    23989 
   24021    24035    24036    24039    24043    24031    23989    23931 
   23855    23754    23633    23506    23413    23388    23453    23611 
   23843    24112    24370    24567    24678    24686    24575    24368 
   24100    23812    23549    23340    23206    23159    23202    23332 
   23526    23751    23970    24160    24301    24376    24390    24362 
   24316    24282    24268    24256    24232    24178    24084    23953 
   23796    23633    23491    23388    23336    23340    23406    23523 
   23660    23800    23931    24046    24144    24224    24281    24305 
   24289    24239    24171    24085    23978    23843    23695    23548 
   23418    23330    23298    23332    23445    23626    23849    24086 
   24295    24441    24501    24470    24354    24182    24003    23855 
   23750    23691    23664    23674    23715    23754    23777    23788 
   23793    23822    23890    24012    24178    24345    24455    24459 
   24351    24165    23943    23730    23561    23457    23431    23485 
   23602    23743    23874    23980    24054    24106    24147    24166 
   24162    24138    24089    24016    23922    23805    23684    23577 
   23517    23530    23626    23801    24034    24275    24471    24555 
   24493    24305    24043    23757    23491    23294    23202    23224 
   23350    23549    23765    23965    24128    24243    24298    24291 
   24228    24116    23976    23845    23737    23664    23638    23650 
   23687    23728    23754    23777    23826    23916    24044    24186 
   24310    24391    24393    24302    24143    23949    23762    23629 
   23575    23596    23679    23805    23949    24081    24177    24208 
   24173    24085    23969    23861    23784    23757    23792    23873 
   23965    24035    24061    24039    23984    23915    23847    23780 
   23720    23681    23665    23679    23724    23804    23923    24073 
   24219    24325    24364    24332    24232    24085    23907    23716 
   23550    23445    23421    23483    23615    23791    23976    24119 
   24171    24121    23988    23820    23660    23541    23492    23537 
   23680    23884    24092    24254    24324    24286    24151    23957 
   23770    23657    23654    23755    23911    24071    24201    24260 
   24237    24138    23992    23855    23780    23780    23835    23905 
   23957    23962    23909    23808    23676    23560    23508    23535 
   23631    23770    23923    24059    24156    24202    24196    24133 
   24027    23901    23781    23684    23633    23639    23697    23796 
   23907    24004    24075    24121    24139    24131    24094    24027 
   23943    23845    23755    23704    23695    23720    23774    23849 
   23922    23980    24023    24058    24084    24090    24070    24032 
   23988    23931    23880    23849    23842    23863    23904    23934 
   23928    23876    23782    23693    23641    23643    23708    23819 
   23938    24031    24092    24109    24085    24043    24007    23977 
   23955    23931    23904    23885    23873    23866    23866    23873 
   23877    23865    23832    23787    23733    23689    23691    23768 
   23923    24116    24295    24417    24443    24367    24204    23982 
   23749    23548    23402    23336    23361    23471    23637    23827 
   24001    24124    24183    24186    24166    24150    24139    24121 
   24075    23980    23832    23658    23495    23382    23342    23388 
   23517    23704    23922    24125    24278    24359    24367    24322 
   24239    24127    24008    23884    23760    23654    23577    23544 
   23560    23616    23708    23830    23965    24100    24221    24312 
   24344    24295    24173    24013    23849    23708    23606    23550 
   23542    23575    23638    23720    23815    23915    24009    24090 
   24155    24192    24189    24150    24079    23981    23873    23784 
   23727    23703    23696    23695    23696    23706    23731    23777 
   23838    23897    23949    23986    24003    24009    24016    24024 
   24023    24008    23982    23951    23931    23934    23953    23978 
   23997    24007    24020    24032    24031    24008    23961    23899 
   23834    23781    23757    23760    23781    23820    23868    23913 
   23939    23938    23923    23909    23908    23920    23938    23970 
   24015    24052    24063    24030    23954    23863    23784    23731 
   23703    23704    23737    23796    23870    23928    23946    23932 
   23908    23885    23876    23877    23890    23908    23916    23911 
   23901    23901    23920    23966    24035    24102    24144    24163 
   24156    24125    24063    23967    23849    23730    23645    23634 
   23707    23845    24011    24159    24248    24254    24160    23988 
   23776    23580    23449    23422    23517    23710    23959    24201 
   24368    24437    24401    24267    24075    23866    23674    23534 
   23467    23476    23548    23662    23788    23895    23977    24030 
   24044    24036    24021    24011    24013    24019    24017    24012 
   24000    23981    23951    23911    23869    23835    23823    23835 
   23859    23889    23913    23922    23912    23881    23846    23819 
   23808    23815    23832    23853    23873    23889    23897    23901 
   23903    23905    23911    23919    23935    23955    23977    23986 
   23966    23919    23866    23832    23823    23819    23811    23801 
   23793    23792    23781    23754    23727    23714    23727    23782 
   23865    23951    24027    24070    24063    24008    23926    23830 
   23743    23688    23668    23692    23762    23859    23971    24079 
   24151    24174    24147    24065    23944    23812    23701    23646 
   23661    23743    23882    24052    24212    24322    24371    24356 
   24287    24193    24085    23971    23853    23737    23638    23577 
   23569    23619    23708    23811    23908    23990    24054    24096 
   24129    24170    24210    24237    24244    24210    24123    23976 
   23792    23608    23465    23394    23411    23511    23665    23827 
