Origin Time       2025/03/30 22:55:00
Lat.              41.993
Long.             142.725
Depth. (km)       55
Mag.              4.6
Station Code      HDKH04
Station Lat.      42.5126
Station Long.     142.0381
Station Height(m) 10
Record Time       2025/03/30 22:56:14
Sampling Freq(Hz) 100Hz
Duration Time(s)  120
Dir.              4
Scale Factor      7845(gal)/8223790
Max. Acc. (gal)   0.908
Last Correction   2025/03/30 22:56:14
Memo.             
[...]
   -9475    -9518    -9468    -9331    -9117    -8928    -8866    -8927 
   -9065    -9223    -9315    -9298    -9184    -9020    -8905    -8889 
   -8951    -9047    -9123    -9138    -9084    -9009    -8974    -8974 
   -8985    -9015    -9058    -9104    -9170    -9229    -9236    -9182 
   -9096    -9023    -8991    -9007    -9081    -9173    -9207    -9184 
   -9170    -9201    -9270    -9317    -9281    -9174    -9058    -8961 
   -8878    -8826    -8849    -8919    -8985    -9070    -9162    -9193 
   -9178    -9169    -9146    -9089    -9018    -8964    -8935    -8942 
   -8989    -9072    -9167    -9238    -9282    -9328    -9344    -9296 
   -9204    -9097    -9012    -8972    -8959    -8970    -9016    -9108 
   -9211    -9282    -9319    -9296    -9194    -9053    -8930    -8856 
   -8851    -8934    -9063    -9178    -9220    -9167    -9073    -9023 
   -9057    -9154    -9252    -9297    -9282    -9216    -9131    -9086 
   -9097    -9108    -9078    -9024    -8970    -8946    -8981    -9073 
   -9186    -9258    -9221    -9088    -8937    -8853    -8877    -8976 
   -9108    -9234    -9298    -9296    -9232    -9116    -8991    -8905 
   -8878    -8908    -8970    -9050    -9131    -9189    -9232    -9290 
   -9342    -9344    -9294    -9186    -9050    -8953    -8931    -8984 
   -9101    -9221    -9267    -9215    -9080    -8904    -8780    -8787 
   -8911    -9073    -9194    -9270    -9320    -9332    -9279    -9169 
   -9042    -8954    -8939    -8991    -9089    -9207    -9293    -9304 
   -9254    -9185    -9117    -9081    -9089    -9121    -9135    -9096 
   -9024    -8964    -8931    -8935    -8972    -9015    -9058    -9101 
   -9109    -9089    -9082    -9117    -9189    -9248    -9275    -9286 
   -9275    -9232    -9174    -9132    -9126    -9134    -9142    -9140 
   -9093    -8996    -8897    -8830    -8820    -8892    -9018    -9153 
   -9238    -9246    -9213    -9184    -9169    -9148    -9093    -9035 
   -9018    -9036    -9082    -9134    -9161    -9161    -9136    -9104 
   -9093    -9100    -9107    -9103    -9085    -9073    -9085    -9127 
   -9166    -9147    -9086    -9046    -9051    -9097    -9146    -9130 
   -9043    -8954    -8932    -8992    -9094    -9185    -9216    -9166 
   -9096    -9080    -9117    -9185    -9239    -9234    -9180    -9120 
   -9066    -9036    -9045    -9053    -9013    -8966    -8980    -9046 
   -9126    -9201    -9243    -9247    -9219    -9169    -9135    -9142 
   -9153    -9124    -9076    -9067    -9099    -9126    -9148    -9174 
   -9184    -9167    -9115    -9030    -8954    -8912    -8904    -8924 
   -8959    -9012    -9088    -9157    -9174    -9144    -9117    -9124 
   -9151    -9181    -9204    -9198    -9140    -9050    -8977    -8950 
   -8982    -9057    -9107    -9088    -9022    -8972    -8962    -8997 
   -9074    -9153    -9208    -9242    -9231    -9165    -9090    -9057 
   -9070    -9100    -9107    -9078    -9039    -9023    -9054    -9119 
   -9193    -9258    -9290    -9270    -9204    -9124    -9063    -9050 
   -9105    -9212    -9308    -9316    -9221    -9084    -8969    -8923 
   -8953    -9009    -9050    -9062    -9051    -9053    -9097    -9178 
   -9258    -9279    -9224    -9128    -9023    -8931    -8881    -8884 
   -8946    -9059    -9175    -9256    -9292    -9290    -9269    -9225 
   -9159    -9096    -9053    -9035    -9035    -9042    -9040    -9034 
   -9039    -9036    -9008    -8985    -9005    -9067    -9153    -9238 
   -9292    -9279    -9186    -9035    -8868    -8746    -8718    -8775 
   -8901    -9067    -9212    -9305    -9373    -9423    -9440    -9393 
   -9277    -9148    -9047    -8973    -8928    -8924    -8955    -8993 
   -9043    -9120    -9225    -9337    -9379    -9309    -9177    -9050 
   -8989    -9011    -9076    -9134    -9140    -9097    -9059    -9047 
   -9046    -9040    -9013    -8976    -8961    -8997    -9092    -9213 
   -9313    -9358    -9340    -9279    -9204    -9128    -9047    -8957 
   -8889    -8880    -8942    -9050    -9144    -9194    -9217    -9223 
   -9202    -9161    -9123    -9093    -9061    -9046    -9050    -9015 
   -8910    -8797    -8780    -8891    -9063    -9216    -9320    -9362 
   -9325    -9246    -9198    -9231    -9313    -9339    -9269    -9162 
   -9072    -9011    -8981    -8986    -9023    -9082    -9124    -9103 
   -9026    -8949    -8920    -8949    -9008    -9076    -9134    -9159 
   -9140    -9090    -9042    -9015    -9001    -9005    -9046    -9103 
   -9143    -9166    -9175    -9166    -9148    -9161    -9223    -9296 
   -9331    -9319    -9240    -9121    -9023    -8951    -8893    -8874 
   -8904    -8958    -9011    -9019    -8980    -8953    -8954    -8972 
   -9001    -9034    -9067    -9101    -9128    -9159    -9211    -9283 
   -9340    -9343    -9302    -9258    -9223    -9171    -9099    -9038 
   -9039    -9109    -9193    -9239    -9231    -9185    -9132    -9072 
   -9005    -8965    -8953    -8968    -9022    -9088    -9136    -9148 
   -9108    -9040    -8996    -9004    -9059    -9120    -9158    -9185 
   -9208    -9221    -9211    -9139    -9007    -8895    -8872    -8962 
   -9154    -9385    -9528    -9487    -9282    -9028    -8827    -8725 
   -8714    -8789    -8932    -9069    -9151    -9198    -9204    -9174 
   -9142    -9109    -9062    -9020    -9023    -9082    -9167    -9238 
   -9279    -9275    -9215    -9134    -9061    -9016    -9032    -9097 
   -9165    -9212    -9240    -9246    -9213    -9111    -8972    -8877 
   -8880    -8966    -9082    -9165    -9186    -9181    -9180    -9165 
   -9132    -9105    -9072    -9020    -9003    -9081    -9256    -9441 
   -9505    -9398    -9201    -9050    -9016    -9042    -9043    -9018 
   -8989    -8973    -8973    -8981    -9003    -9031    -9027    -8984 
   -8961    -9035    -9213    -9371    -9389    -9256    -9045    -8850 
   -8741    -8730    -8829    -9020    -9224    -9364    -9418    -9389 
   -9281    -9119    -8947    -8835    -8834    -8943    -9116    -9262 
   -9281    -9136    -8900    -8706    -8653    -8739    -8885    -9032 
   -9143    -9171    -9120    -9082    -9123    -9217    -9332    -9447 
   -9509    -9464    -9339    -9185    -9074    -9078    -9169    -9255 
   -9301    -9281    -9161    -8973    -8847    -8861    -8982    -9163 
   -9343    -9433    -9401    -9270    -9077    -8893    -8795    -8810 
   -8916    -9022    -9055    -9026    -8972    -8937    -8961    -9053 
   -9174    -9263    -9262    -9171    -9031    -8889    -8824    -8884 
   -9012    -9113    -9154    -9157    -9162    -9157    -9112    -9069 
   -9078    -9143    -9231    -9281    -9244    -9151    -9031    -8888 
   -8791    -8803    -8907    -9080    -9274    -9358    -9294    -9190 
   -9105    -9061    -9099    -9194    -9266    -9269    -9216    -9144 
   -9094    -9085    -9092    -9093    -9104    -9112    -9100    -9086 
   -9097    -9126    -9155    -9161    -9121    -9050    -8957    -8851 
   -8791    -8838    -8984    -9182    -9394    -9524    -9499    -9356 
   -9154    -8991    -8972    -9090    -9259    -9389    -9412    -9321 
   -9157    -8984    -8897    -8947    -9067    -9162    -9185    -9121 
   -8997    -8869    -8787    -8793    -8903    -9069    -9208    -9252 
   -9163    -8965    -8741    -8581    -8553    -8654    -8835    -9016 
   -9109    -9090    -9022    -8995    -9034    -9086    -9113    -9120 
   -9151    -9227    -9302    -9348    -9364    -9355    -9328    -9310 
   -9316    -9300    -9213    -9081    -8969    -8927    -8977    -9065 
   -9126    -9169    -9208    -9234    -9252    -9262    -9258    -9246 
   -9229    -9228    -9259    -9305    -9324    -9302    -9282    -9294 
   -9346    -9444    -9567    -9648    -9621    -9497    -9342    -9182 
   -8993    -8854    -8904    -8999    -8962    -8896    -8850    -8800 
   -8772    -8712    -8640    -8619    -8646    -8715    -8796    -8872 
   -8914    -8877    -8793    -8735    -8739    -8812    -8949    -9113 
   -9250    -9335    -9362    -9319    -9208    -9070    -8982    -9032 
   -9244    -9540    -9803    -9918    -9837    -9612    -9350    -9142 
   -9000    -8916    -8888    -8899    -8916    -8907    -8868    -8803 
   -8687    -8559    -8518    -8598    -8768    -8985    -9162    -9242 
   -9261    -9267    -9273    -9293    -9329    -9359    -9404    -9495 
   -9607    -9676    -9663    -9572    -9439    -9335    -9319    -9381 
   -9452    -9447    -9321    -9100    -8865    -8716    -8683    -8730 
   -8834    -8947    -9000    -8969    -8878    -8777    -8733    -8787 
   -8931    -9140    -9355    -9504    -9517    -9393    -9227    -9116 
   -9089    -9131    -9201    -9231    -9200    -9154    -9147    -9173 
   -9184    -9135    -8997    -8781    -8550    -8378    -8301    -8341 
   -8517    -8772    -9019    -9194    -9243    -9162    -9013    -8861 
   -8760    -8754    -8838    -8950    -9020    -9036    -9039    -9054 
   -9080    -9119    -9167    -9201    -9209    -9205    -9216    -9266 
   -9366    -9509    -9647    -9722    -9709    -9614    -9481    -9355 
   -9267    -9240    -9306    -9454    -9622    -9738    -9748    -9633 
   -9391    -9062    -8781    -8657    -8649    -8689    -8754    -8802 
   -8807    -8806    -8807    -8796    -8795    -8796    -8765    -8727 
   -8708    -8700    -8692    -8668    -8630    -8622    -8706    -8891 
   -9120    -9315    -9409    -9424    -9443    -9487    -9514    -9504 
   -9451    -9389    -9371    -9409    -9447    -9428    -9350    -9231 
   -9120    -9094    -9180    -9327    -9423    -9356    -9136    -8880 
   -8675    -8541    -8491    -8517    -8579    -8626    -8649    -8692 
   -8829    -9085    -9400    -9664    -9806    -9807    -9688    -9504 
   -9329    -9215    -9196    -9243    -9274    -9261    -9200    -9082 
   -8966    -8926    -8972    -9066    -9162    -9200    -9132    -8993 
   -8888    -8883    -8953    -9023    -9042    -8986    -8856    -8694 
   -8568    -8523    -8560    -8621    -8665    -8738    -8883    -9049 
   -9148    -9155    -9113    -9084    -9107    -9231    -9440    -9639 
   -9771    -9821    -9775    -9647    -9505    -9431    -9420    -9421 
   -9414    -9405    -9379    -9313    -9204    -9085    -8977    -8891 
   -8835    -8800    -8758    -8700    -8626    -8556    -8556    -8665 
   -8824    -8970    -9084    -9112    -9045    -8961    -8908    -8897 
   -8941    -9018    -9080    -9150    -9259    -9367    -9444    -9508 
   -9555    -9590    -9603    -9556    -9435    -9247    -9031    -8847 
   -8752    -8742    -8769    -8775    -8746    -8719    -8737    -8830 
   -8962    -9057    -9105    -9132    -9136    -9136    -9150    -9150 
   -9146    -9177    -9250    -9360    -9491    -9562    -9485    -9252 
   -8945    -8691    -8598    -8654    -8768    -8895    -9019    -9131 
   -9240    -9355    -9479    -9586    -9618    -9558    -9447    -9331 
   -9231    -9171    -9163    -9162    -9154    -9186    -9247    -9282 
   -9271    -9212    -9119    -9030    -8958    -8901    -8876    -8888 
   -8901    -8904    -8926    -8973    -9003    -9003    -9005    -8988 
   -8939    -8903    -8897    -8915    -8939    -8934    -8916    -8918 
   -8941    -9000    -9088    -9181    -9242    -9240    -9211    -9181 
   -9128    -9038    -8919    -8789    -8704    -8738    -8905    -9130 
   -9304    -9370    -9343    -9275    -9192    -9090    -9007    -8995 
   -9035    -9082    -9157    -9302    -9474    -9586    -9609    -9578 
   -9545    -9521    -9499    -9494    -9481    -9452    -9445    -9394 
   -9229    -9039    -8907    -8820    -8787    -8810    -8851    -8893 
   -8880    -8764    -8630    -8536    -8459    -8451    -8563    -8784 
   -9099    -9401    -9552    -9526    -9355    -9094    -8858    -8742 
   -8758    -8868    -9011    -9147    -9265    -9348    -9409    -9464 
   -9516    -9552    -9567    -9578    -9586    -9559    -9466    -9317 
   -9138    -8964    -8850    -8806    -8777    -8749    -8742    -8735 
   -8703    -8642    -8581    -8603    -8735    -8914    -9109    -9317 
   -9498    -9605    -9586    -9440    -9209    -8928    -8665    -8507 
   -8467    -8545    -8776    -9090    -9344    -9497    -9547    -9474 
   -9351    -9250    -9155    -9090    -9080    -9090    -9101    -9101 
   -9107    -9142    -9202    -9277    -9325    -9323    -9313    -9333 
   -9360    -9386    -9421    -9412    -9301    -9107    -8891    -8723 
   -8649    -8685    -8833    -9061    -9256    -9304    -9211    -9046 
   -8860    -8726    -8711    -8797    -8961    -9196    -9418    -9545 
   -9564    -9472    -9274    -9049    -8880    -8770    -8739    -8811 
   -8931    -9053    -9155    -9211    -9216    -9192    -9151    -9115 
   -9089    -9090    -9139    -9235    -9347    -9432    -9456    -9370 
   -9171    -8969    -8849    -8814    -8889    -9066    -9197    -9181 
   -9027    -8739    -8445    -8363    -8522    -8835    -9213    -9512 
   -9640    -9614    -9470    -9252    -9049    -8908    -8826    -8800 
   -8839    -8946    -9112    -9277    -9356    -9321    -9205    -9043 
   -8888    -8850    -8984    -9208    -9424    -9572    -9609    -9514 
   -9313    -9065    -8854    -8721    -8672    -8733    -8893    -9073 
   -9209    -9290    -9293    -9227    -9167    -9148    -9175    -9247 
   -9317    -9369    -9408    -9350    -9121    -8823    -8595    -8502 
   -8579    -8799    -9081    -9374    -9570    -9571    -9433    -9269 
   -9147    -9124    -9216    -9337    -9317    -9134    -8955    -8754 
   -8401    -8151    -8245    -8514    -8811    -9099    -9328    -9477 
   -9513    -9462    -9414    -9409    -9379    -9217    -8949    -8756 
   -8756    -8904    -9120    -9339    -9482    -9497    -9416    -9333 
   -9277    -9223    -9196    -9207    -9213    -9216    -9216    -9150 
   -9004    -8831    -8683    -8642    -8785    -9049    -9296    -9448 
   -9472    -9371    -9185    -8966    -8785    -8662    -8594    -8629 
   -8766    -8908    -9030    -9143    -9231    -9317    -9409    -9447 
   -9397    -9278    -9146    -9053    -9027    -9077    -9174    -9229 
   -9138    -8938    -8770    -8691    -8773    -9023    -9242    -9346 
   -9369    -9275    -9181    -9243    -9440    -9660    -9787    -9859 
   -9906    -9722    -9382    -9096    -8768    -8626    -8804    -8900 
   -8957    -9107    -9132    -9070    -8958    -8773    -8634    -8549 
   -8549    -8676    -8851    -9040    -9177    -9174    -9111    -9045 
   -8989    -9007    -9072    -9121    -9120    -9038    -8920    -8866 
   -8931    -9078    -9247    -9427    -9574    -9648    -9645    -9535 
   -9332    -9119    -8939    -8804    -8726    -8719    -8772    -8797 
   -8775    -8788    -8856    -8935    -9050    -9193    -9306    -9359 
   -9347    -9286    -9207    -9136    -9097    -9097    -9134    -9204 
   -9289    -9356    -9369    -9327    -9271    -9205    -9135    -9081 
   -9069    -9128    -9246    -9389    -9517    -9574    -9547    -9437 
   -9275    -9096    -8891    -8668    -8475    -8345    -8307    -8390 
   -8591    -8857    -9096    -9256    -9331    -9294    -9177    -9080 
   -9043    -9054    -9084    -9099    -9051    -8911    -8756    -8694 
   -8772    -9009    -9325    -9531    -9539    -9385    -9126    -8885 
   -8799    -8870    -9013    -9161    -9265    -9283    -9217    -9128 
   -9088    -9116    -9209    -9294    -9254    -9182    -9223    -9225 
   -9124    -9099    -9082    -9069    -9225    -9370    -9409    -9427 
   -9302    -9124    -9012    -8919    -8966    -9175    -9402    -9560 
   -9526    -9275    -8945    -8656    -8491    -8499    -8648    -8862 
   -9026    -9076    -9070    -9040    -9026    -9053    -9093    -9132 
   -9138    -9086    -9028    -9009    -9050    -9134    -9202    -9202 
   -9126    -9015    -8946    -8941    -8964    -9003    -9046    -9036 
   -8968    -8910    -8905    -8959    -9080    -9265    -9475    -9666 
   -9780    -9749    -9585    -9346    -9089    -8899    -8839    -8892 
   -8985    -9049    -9049    -8981    -8907    -8889    -8927    -8989 
   -9069    -9143    -9173    -9154    -9093    -9000    -8943    -8961 
   -9030    -9130    -9223    -9269    -9293    -9328    -9348    -9333 
   -9290    -9221    -9136    -9074    -9067    -9104    -9165    -9235 
   -9273    -9243    -9159    -9072    -9012    -9008    -9076    -9185 
   -9277    -9327    -9286    -9135    -8949    -8824    -8804    -8876 
   -8964    -9003    -9000    -8982    -8970    -8992    -9046    -9085 
   -9070    -8993    -8922    -8946    -9050    -9174    -9274    -9313 
   -9273    -9184    -9127    -9162    -9235    -9265    -9213    -9085 
   -8928    -8802    -8738    -8769    -8866    -8951    -8984    -8999 
   -9057    -9167    -9313    -9463    -9548    -9513    -9377    -9198 
   -9049    -8976    -8980    -9023    -9059    -9084    -9128    -9181 
   -9208    -9229    -9255    -9271    -9271    -9234    -9136    -8982 
   -8827    -8768    -8835    -8993    -9200    -9367    -9413    -9336 
   -9196    -9072    -9026    -9053    -9097    -9099    -9066    -9053 
   -9073    -9109    -9147    -9139    -9050    -8926    -8834    -8816 
   -8884    -8992    -9065    -9062    -9003    -8939    -8953    -9085 
   -9282    -9441    -9466    -9356    -9192    -9072    -9069    -9173 
   -9316    -9423    -9429    -9335    -9200    -9094    -9046    -9053 
   -9082    -9081    -9045    -9000    -8927    -8845    -8787    -8746 
   -8739    -8766    -8776    -8770    -8811    -8910    -9032    -9177 
   -9328    -9424    -9429    -9348    -9209    -9063    -8959    -8912 
   -8928    -9004    -9119    -9235    -9328    -9402    -9452    -9471 
   -9468    -9443    -9391    -9319    -9235    -9171    -9139    -9108 
   -9085    -9101    -9124    -9096    -9039    -8992    -8949    -8920 
   -8943    -9012    -9119    -9232    -9238    -9086    -8846    -8607 
   -8461    -8488    -8679    -8943    -9165    -9265    -9242    -9146 
   -9043    -9012    -9076    -9181    -9258    -9262    -9209    -9140 
   -9078    -9055    -9094    -9135    -9111    -9074    -9062    -9003 
   -8931    -8996    -9198    -9393    -9491    -9490    -9424    -9340 
   -9271    -9235    -9239    -9254    -9208    -9073    -8915    -8815 
   -8795    -8841    -8946    -9097    -9234    -9290    -9259    -9153 
   -8988    -8827    -8752    -8788    -8893    -9028    -9169    -9247 
   -9200    -9069    -8932    -8842    -8847    -8957    -9124    -9312 
   -9485    -9589    -9621    -9597    -9491    -9332    -9186    -9058 
   -8953    -8912    -8938    -8999    -9066    -9120    -9155    -9165 
   -9131    -9040    -8934    -8874    -8905    -9034    -9197    -9306 
   -9308    -9193    -9022    -8876    -8804    -8808    -8872    -8974 
   -9086    -9184    -9261    -9283    -9220    -9094    -8961    -8876 
   -8870    -8932    -9015    -9055    -9038    -8991    -8958    -8974 
   -9016    -9061    -9101    -9119    -9099    -9065    -9058    -9099 
   -9155    -9232    -9362    -9494    -9532    -9447    -9302    -9181 
   -9123    -9136    -9204    -9278    -9309    -9270    -9177    -9097 
   -9099    -9174    -9278    -9364    -9366    -9229    -8997    -8776 
   -8660    -8685    -8812    -8950    -9038    -9066    -9043    -8991 
   -8957    -8973    -9008    -9032    -9032    -9013    -9009    -9036 
   -9063    -9070    -9074    -9089    -9113    -9151    -9185    -9192 
