Origin Time       2025/03/30 22:55:00
Lat.              41.993
Long.             142.725
Depth. (km)       55
Mag.              4.6
Station Code      HDKH02
Station Lat.      42.7061
Station Long.     142.4054
Station Height(m) 120
Record Time       2025/03/30 22:56:13
Sampling Freq(Hz) 100Hz
Duration Time(s)  120
Dir.              1
Scale Factor      2940(gal)/6170270
Max. Acc. (gal)   0.157
Last Correction   2025/03/30 22:55:58
Memo.             
[...]
  110858   110858   110841   110775   110715   110693   110674   110670 
  110705   110732   110733   110743   110771   110776   110750   110736 
  110742   110731   110723   110737   110726   110697   110714   110756 
  110770   110776   110798   110794   110767   110750   110721   110687 
  110703   110737   110743   110741   110729   110676   110625   110638 
  110699   110763   110823   110857   110838   110804   110790   110774 
  110752   110745   110740   110722   110699   110681   110665   110658 
  110690   110746   110774   110790   110818   110814   110772   110751 
  110760   110771   110792   110827   110837   110812   110784   110762 
  110734   110715   110699   110670   110649   110652   110673   110698 
  110707   110709   110729   110751   110774   110818   110866   110881 
  110866   110843   110803   110736   110691   110704   110727   110722 
  110705   110689   110675   110676   110705   110757   110811   110850 
  110861   110840   110792   110723   110656   110619   110610   110624 
  110663   110711   110739   110746   110743   110735   110729   110731 
  110736   110745   110752   110737   110706   110686   110693   110716 
  110754   110805   110822   110774   110721   110718   110733   110743 
  110757   110760   110752   110762   110770   110748   110742   110771 
  110776   110746   110727   110729   110725   110698   110684   110697 
  110714   110744   110782   110810   110856   110891   110863   110818 
  110782   110725   110669   110657   110681   110699   110701   110720 
  110747   110738   110718   110727   110751   110770   110779   110769 
  110741   110710   110683   110670   110691   110739   110764   110756 
  110767   110790   110789   110785   110792   110778   110751   110740 
  110720   110678   110656   110662   110666   110688   110731   110745 
  110746   110783   110807   110802   110823   110843   110806   110759 
  110743   110720   110693   110693   110697   110690   110687   110682 
  110686   110720   110754   110770   110808   110838   110797   110742 
  110739   110754   110768   110800   110833   110848   110854   110831 
  110769   110723   110721   110723   110701   110681   110689   110699 
  110691   110699   110740   110794   110832   110849   110870   110883 
  110841   110751   110672   110639   110643   110654   110665   110679 
  110687   110706   110753   110787   110783   110772   110762   110738 
  110716   110704   110692   110683   110698   110729   110745   110761 
  110797   110812   110803   110807   110798   110767   110745   110724 
  110711   110724   110716   110690   110709   110746   110753   110766 
  110800   110831   110863   110873   110832   110780   110750   110729 
  110715   110710   110707   110715   110724   110726   110742   110756 
  110746   110756   110771   110748   110723   110706   110671   110651 
  110673   110718   110766   110792   110798   110795   110778   110765 
  110737   110669   110624   110634   110658   110686   110724   110760 
  110796   110839   110868   110852   110795   110739   110698   110657 
  110626   110629   110658   110687   110702   110709   110715   110731 
  110769   110805   110814   110808   110789   110766   110754   110752 
  110757   110752   110739   110743   110738   110704   110690   110707 
  110725   110759   110784   110772   110768   110787   110788   110773 
  110753   110723   110688   110666   110667   110693   110724   110750 
  110778   110805   110818   110830   110850   110855   110830   110784 
  110734   110691   110646   110609   110613   110661   110724   110772 
  110809   110849   110856   110809   110766   110741   110692   110673 
  110724   110782   110807   110799   110760   110743   110751   110739 
  110738   110762   110741   110689   110683   110698   110711   110763 
  110822   110819   110772   110732   110702   110680   110691   110723 
  110753   110797   110836   110824   110788   110752   110711   110694 
  110704   110720   110741   110757   110755   110752   110765   110770 
  110744   110710   110695   110681   110685   110714   110714   110700 
  110711   110720   110742   110771   110749   110719   110733   110754 
  110768   110782   110780   110763   110739   110714   110705   110734 
  110780   110779   110740   110726   110734   110735   110730   110730 
  110747   110778   110786   110770   110767   110784   110788   110777 
  110771   110754   110714   110670   110655   110686   110712   110698 
  110705   110743   110753   110758   110788   110798   110781   110780 
  110771   110722   110704   110756   110803   110817   110825   110820 
  110816   110817   110796   110761   110734   110705   110686   110697 
  110720   110720   110712   110740   110789   110819   110832   110825 
  110804   110789   110770   110745   110724   110690   110650   110631 
  110633   110648   110674   110699   110719   110726   110719   110711 
  110721   110753   110781   110798   110812   110820   110812   110792 
  110758   110696   110629   110599   110613   110645   110681   110722 
  110758   110774   110781   110795   110812   110815   110802   110785 
  110774   110757   110728   110715   110725   110721   110700   110694 
  110710   110725   110728   110727   110725   110734   110774   110811 
  110814   110803   110774   110738   110740   110762   110757   110732 
  110730   110762   110784   110780   110763   110733   110705   110704 
  110715   110718   110717   110713   110717   110731   110747   110782 
  110828   110831   110779   110716   110685   110698   110713   110692 
  110672   110683   110696   110709   110745   110771   110763   110757 
  110773   110794   110800   110788   110773   110756   110739   110746 
  110765   110752   110721   110719   110761   110818   110838   110802 
  110744   110712   110708   110701   110688   110667   110624   110604 
  110638   110658   110653   110694   110770   110820   110861   110903 
  110895   110842   110805   110770   110717   110694   110708   110721 
  110727   110728   110735   110767   110804   110818   110823   110820 
  110791   110763   110763   110764   110755   110760   110767   110759 
  110745   110720   110685   110668   110671   110681   110710   110761 
  110806   110825   110817   110799   110799   110796   110755   110714 
  110720   110730   110710   110715   110756   110764   110756   110763 
  110732   110682   110673   110668   110650   110672   110725   110746 
  110755   110794   110811   110764   110720   110700   110676   110679 
  110730   110782   110797   110787   110760   110732   110723   110729 
  110745   110779   110815   110839   110853   110849   110829   110801 
  110766   110744   110733   110701   110671   110678   110699   110732 
  110779   110797   110769   110732   110703   110675   110655   110667 
  110718   110777   110797   110767   110741   110765   110807   110829 
  110827   110792   110746   110721   110715   110712   110692   110637 
  110606   110647   110692   110687   110684   110709   110721   110730 
  110773   110800   110770   110736   110727   110710   110690   110697 
  110718   110738   110762   110787   110795   110780   110761   110755 
  110767   110789   110791   110766   110741   110735   110754   110780 
  110772   110736   110721   110727   110733   110753   110779   110799 
  110821   110828   110805   110775   110744   110707   110695   110707 
  110701   110708   110766   110814   110802   110774   110758   110722 
  110685   110679   110682   110689   110708   110716   110724   110760 
  110799   110810   110800   110795   110770   110689   110608   110595 
  110602   110613   110678   110756   110770   110744   110731   110723 
  110706   110706   110725   110734   110734   110750   110778   110799 
  110809   110790   110733   110689   110671   110645   110635   110668 
  110701   110728   110750   110746   110732   110738   110742   110719 
  110685   110681   110704   110724   110750   110777   110782   110788 
  110815   110847   110867   110858   110823   110802   110794   110770 
  110750   110761   110766   110750   110742   110742   110733   110743 
  110780   110798   110790   110775   110746   110717   110713   110719 
  110736   110751   110735   110704   110697   110716   110735   110731 
  110723   110728   110724   110719   110735   110739   110713   110684 
  110660   110641   110642   110652   110658   110681   110722   110740 
  110739   110756   110764   110738   110715   110695   110658   110643 
  110690   110765   110799   110792   110804   110838   110842   110815 
  110786   110757   110722   110697   110680   110664   110683   110762 
  110848   110879   110869   110866   110871   110867   110877   110895 
  110890   110876   110873   110881   110902   110917   110907   110906 
  110925   110918   110890   110877   110856   110819   110809   110809 
  110812   110844   110843   110785   110755   110759   110755   110768 
  110813   110873   110929   110965   110989   110995   110967   110912 
  110853   110792   110726   110670   110630   110604   110630   110694 
  110706   110681   110686   110681   110646   110643   110652   110623 
  110605   110617   110613   110609   110628   110643   110659   110691 
  110709   110696   110667   110640   110651   110686   110691   110665 
  110652   110655   110649   110639   110631   110615   110612   110632 
  110633   110622   110643   110665   110650   110646   110664   110656 
  110643   110664   110683   110673   110673   110686   110682   110692 
  110743   110781   110780   110772   110764   110752   110741   110727 
  110699   110672   110670   110668   110658   110687   110735   110740 
  110725   110722   110693   110634   110593   110586   110602   110624 
  110644   110664   110693   110730   110773   110819   110854   110889 
  110948   111006   111018   110974   110914   110884   110858   110791 
  110724   110675   110611   110547   110503   110465   110452   110509 
  110625   110735   110811   110868   110905   110931   110955   110951 
  110935   110930   110910   110878   110855   110829   110808   110815 
  110846   110870   110837   110751   110667   110610   110575   110565 
  110585   110620   110632   110633   110672   110716   110722   110733 
  110777   110842   110912   110964   110988   110991   110955   110887 
  110813   110746   110713   110713   110697   110674   110671   110664 
  110669   110703   110708   110679   110661   110651   110637   110630 
  110649   110695   110747   110805   110860   110882   110869   110840 
  110810   110797   110800   110802   110790   110776   110781   110776 
  110732   110675   110612   110538   110498   110515   110559   110611 
  110658   110696   110755   110823   110851   110851   110853   110849 
  110850   110859   110861   110865   110875   110859   110827   110800 
  110772   110752   110751   110742   110712   110708   110743   110764 
  110758   110760   110776   110796   110796   110760   110722   110730 
  110769   110801   110812   110804   110783   110746   110699   110679 
  110686   110684   110684   110730   110807   110872   110900   110882 
  110852   110855   110877   110881   110852   110790   110725   110653 
  110560   110483   110459   110478   110524   110589   110668   110739 
  110770   110781   110819   110868   110868   110815   110760   110707 
  110654   110646   110674   110669   110645   110662   110728   110814 
  110882   110913   110927   110938   110930   110902   110864   110806 
  110739   110704   110688   110685   110703   110680   110609   110572 
  110574   110581   110607   110622   110604   110607   110644   110668 
  110695   110770   110849   110893   110945   110975   110917   110838 
  110798   110754   110704   110681   110649   110588   110534   110505 
  110485   110497   110557   110606   110627   110686   110766   110820 
  110874   110918   110906   110864   110822   110763   110705   110680 
  110695   110744   110802   110847   110884   110918   110941   110942 
  110914   110857   110793   110756   110745   110748   110767   110802 
  110842   110867   110863   110838   110798   110737   110668   110641 
  110673   110715   110737   110756   110780   110788   110748   110662 
  110586   110548   110549   110592   110650   110681   110692   110694 
  110687   110678   110676   110690   110724   110740   110715   110691 
  110671   110628   110610   110649   110681   110671   110650   110641 
  110652   110669   110659   110646   110672   110722   110755   110738 
  110675   110617   110594   110590   110589   110598   110641   110696 
  110710   110687   110668   110668   110687   110717   110757   110810 
  110859   110890   110906   110901   110869   110829   110794   110761 
  110724   110695   110687   110694   110725   110780   110826   110861 
  110899   110920   110909   110877   110837   110828   110868   110917 
  110951   110995   111036   111040   111013   110988   110970   110935 
  110878   110820   110761   110713   110682   110647   110632   110661 
  110690   110711   110743   110770   110784   110808   110828   110826 
  110828   110837   110832   110815   110795   110774   110751   110723 
  110697   110676   110655   110639   110633   110640   110655   110682 
  110731   110779   110794   110779   110745   110716   110705   110675 
  110612   110554   110513   110481   110480   110520   110572   110601 
  110593   110584   110603   110636   110688   110769   110839   110885 
  110920   110930   110926   110933   110923   110863   110773   110693 
  110621   110538   110464   110431   110451   110515   110569   110584 
  110609   110666   110733   110813   110898   110981   111049   111073 
  111068   111058   111018   110958   110908   110861   110807   110763 
  110751   110766   110776   110789   110820   110836   110840   110838 
  110792   110722   110679   110672   110714   110792   110844   110866 
  110882   110884   110880   110900   110923   110927   110943   110965 
  110940   110853   110731   110609   110520   110480   110485   110513 
  110553   110596   110630   110671   110708   110709   110684   110640 
  110585   110560   110558   110543   110523   110513   110528   110571 
  110610   110634   110650   110651   110652   110663   110661   110639 
  110609   110589   110576   110560   110571   110619   110657   110697 
  110755   110795   110829   110877   110904   110909   110905   110869 
  110809   110766   110762   110787   110824   110860   110891   110908 
  110914   110916   110901   110875   110860   110855   110852   110851 
  110840   110831   110844   110859   110835   110762   110694   110681 
  110686   110692   110732   110783   110816   110857   110877   110849 
  110828   110830   110816   110783   110745   110701   110664   110660 
  110682   110703   110726   110751   110759   110774   110816   110843 
  110842   110849   110842   110796   110742   110711   110694   110689 
  110714   110741   110734   110721   110721   110708   110690   110674 
  110640   110603   110601   110632   110664   110690   110705   110698 
  110696   110721   110735   110717   110707   110716   110716   110715 
  110714   110678   110643   110653   110675   110689   110715   110735 
  110719   110681   110638   110603   110610   110667   110721   110739 
  110752   110762   110756   110773   110808   110811   110798   110781 
  110737   110710   110721   110716   110702   110715   110710   110673 
  110661   110680   110697   110730   110792   110854   110892   110896 
  110872   110858   110864   110866   110855   110836   110807   110779 
  110779   110794   110788   110782   110782   110759   110721   110679 
  110636   110615   110613   110610   110615   110637   110667   110692 
  110715   110737   110755   110790   110846   110879   110896   110912 
  110896   110850   110794   110717   110665   110677   110706   110715 
  110716   110716   110696   110655   110652   110704   110759   110804 
  110837   110853   110859   110843   110814   110817   110846   110875 
  110895   110894   110885   110888   110877   110844   110813   110795 
  110787   110767   110739   110725   110716   110705   110699   110686 
  110659   110625   110596   110590   110623   110694   110756   110780 
  110789   110788   110767   110758   110767   110763   110753   110750 
  110753   110765   110784   110794   110795   110786   110768   110727 
  110651   110559   110494   110487   110530   110614   110730   110830 
  110876   110890   110878   110846   110831   110830   110799   110743 
  110670   110587   110531   110532   110575   110642   110710   110758 
  110797   110844   110871   110856   110820   110776   110739   110743 
  110768   110769   110775   110801   110790   110734   110684   110655 
  110643   110663   110685   110672   110638   110601   110567   110554 
  110574   110617   110667   110724   110782   110821   110834   110818 
  110775   110729   110694   110661   110639   110631   110638   110669 
  110713   110738   110752   110791   110829   110843   110866   110884 
  110863   110828   110788   110734   110699   110695   110698   110695 
  110671   110647   110658   110699   110749   110804   110855   110892 
  110914   110926   110923   110891   110843   110808   110779   110749 
  110729   110715   110700   110693   110692   110700   110736   110787 
  110825   110845   110845   110815   110777   110769   110790   110822 
  110868   110898   110885   110851   110819   110776   110724   110682 
  110639   110584   110550   110539   110520   110515   110559   110614 
  110640   110654   110667   110665   110668   110693   110713   110723 
  110745   110752   110723   110695   110696   110712   110721   110712 
  110690   110677   110688   110704   110705   110691   110664   110652 
  110668   110686   110702   110722   110738   110755   110783   110801 
  110804   110801   110799   110802   110804   110812   110832   110849 
  110865   110882   110886   110881   110878   110876   110862   110824 
  110769   110717   110683   110666   110640   110611   110629   110692 
  110742   110748   110738   110738   110747   110762   110783   110800 
  110819   110854   110880   110895   110930   110974   110993   110980 
  110951   110925   110903   110875   110836   110786   110741   110718 
  110706   110697   110706   110728   110728   110714   110713   110713 
  110718   110749   110787   110814   110837   110833   110808   110799 
  110798   110793   110813   110844   110854   110845   110815   110762 
  110707   110657   110603   110560   110554   110583   110619   110646 
  110660   110666   110669   110662   110644   110635   110637   110634 
  110644   110682   110724   110775   110836   110866   110867   110866 
  110857   110840   110830   110816   110784   110745   110709   110664 
  110613   110576   110548   110514   110514   110571   110644   110702 
  110744   110754   110745   110752   110782   110822   110857   110859 
  110831   110808   110802   110804   110819   110833   110815   110771 
  110731   110691   110635   110581   110537   110480   110439   110455 
  110501   110553   110627   110690   110712   110721   110729   110727 
  110735   110762   110793   110818   110826   110827   110825   110812 
  110798   110778   110749   110723   110701   110685   110695   110709 
  110709   110717   110739   110760   110784   110826   110864   110872 
  110864   110847   110824   110833   110872   110901   110928   110973 
  110989   110962   110929   110891   110841   110801   110766   110725 
