Origin Time       2025/03/30 22:55:00
Lat.              41.993
Long.             142.725
Depth. (km)       55
Mag.              4.6
Station Code      HDKH03
Station Lat.      42.5934
Station Long.     142.3521
Station Height(m) 160
Record Time       2025/03/30 22:56:27
Sampling Freq(Hz) 100Hz
Duration Time(s)  120
Dir.              6
Scale Factor      7845(gal)/8223790
Max. Acc. (gal)   0.470
Last Correction   2025/03/30 22:56:11
Memo.             
[...]
   11132    11218    11290    11319    11303    11249    11180    11136 
   11138    11157    11142    11103    11087    11086    11079    11098 
   11178    11283    11341    11323    11277    11249    11232    11195 
   11145    11106    11095    11103    11114    11133    11176    11222 
   11233    11207    11186    11172    11151    11144    11171    11182 
   11157    11146    11165    11175    11168    11178    11192    11186 
   11167    11146    11115    11091    11115    11178    11226    11240 
   11234    11225    11211    11191    11182    11186    11171    11126 
   11101    11115    11146    11173    11199    11218    11226    11223 
   11211    11196    11198    11215    11202    11132    11061    11052 
   11079    11118    11180    11264    11335    11348    11294    11219 
   11168    11136    11125    11151    11191    11196    11148    11088 
   11060    11064    11101    11179    11277    11329    11296    11229 
   11195    11190    11183    11178    11188    11203    11215    11230 
   11246    11236    11186    11125    11079    11057    11067    11106 
   11138    11130    11090    11064    11082    11130    11192    11269 
   11353    11403    11387    11319    11240    11180    11141    11102 
   11059    11024    11018    11055    11129    11209    11246    11236 
   11200    11153    11102    11084    11128    11206    11264    11286 
   11295    11290    11237    11155    11121    11164    11215    11213 
   11187    11164    11121    11056    11038    11102    11179    11198 
   11179    11173    11169    11151    11152    11223    11330    11392 
   11367    11277    11167    11068    10999    10972    10987    11026 
   11065    11099    11141    11199    11241    11244    11223    11215 
   11229    11246    11250    11237    11225    11218    11194    11148 
   11111    11101    11094    11070    11057    11095    11183    11277 
   11325    11299    11229    11163    11130    11136    11176    11230 
   11246    11205    11152    11140    11141    11125    11126    11178 
   11240    11263    11246    11218    11209    11230    11246    11211 
   11160    11149    11160    11149    11128    11133    11157    11164 
   11151    11140    11134    11129    11145    11178    11182    11151 
   11138    11167    11194    11214    11252    11260    11206    11151 
   11155    11206    11257    11292    11299    11260    11169    11056 
   10971    10963    11016    11074    11117    11173    11236    11263 
   11254    11248    11256    11252    11226    11198    11171    11117 
   11037    10983    10993    11067    11179    11279    11314    11288 
   11234    11186    11169    11191    11213    11205    11173    11148 
   11141    11159    11205    11256    11264    11219    11161    11109 
   11075    11087    11134    11155    11125    11107    11142    11196 
   11250    11304    11313    11259    11209    11211    11230    11213 
   11172    11152    11153    11157    11144    11133    11155    11202 
   11232    11230    11226    11227    11200    11138    11086    11075 
   11080    11083    11122    11209    11272    11269    11259    11277 
   11275    11213    11138    11105    11103    11109    11132    11183 
   11223    11214    11175    11142    11141    11180    11236    11269 
   11269    11248    11188    11092    11030    11053    11105    11111 
   11086    11084    11111    11133    11151    11198    11257    11276 
   11257    11241    11236    11237    11240    11233    11206    11180 
   11164    11149    11141    11144    11144    11149    11182    11234 
   11277    11292    11267    11196    11113    11061    11070    11130 
   11205    11254    11275    11256    11187    11119    11119    11172 
   11223    11260    11275    11254    11199    11129    11064    11016 
   10999    11049    11148    11245    11304    11326    11319    11280 
   11210    11146    11125    11124    11114    11110    11129    11146 
   11125    11075    11055    11084    11157    11265    11380    11425 
   11368    11265    11167    11067    11006    11040    11111    11141 
   11151    11188    11233    11240    11211    11179    11151    11113 
   11080    11083    11111    11117    11106    11136    11202    11246 
   11241    11218    11223    11248    11261    11257    11238    11195 
   11132    11083    11078    11094    11095    11114    11187    11269 
   11299    11296    11306    11304    11268    11222    11182    11126 
   11063    11036    11051    11072    11091    11115    11133    11129 
   11124    11144    11175    11186    11202    11248    11295    11303 
   11288    11273    11244    11195    11163    11151    11148    11145 
   11141    11142    11171    11209    11214    11191    11180    11186 
   11180    11168    11159    11136    11094    11075    11103    11151 
   11188    11214    11214    11179    11146    11149    11178    11200 
   11210    11219    11225    11214    11190    11168    11142    11110 
   11090    11090    11106    11153    11229    11286    11286    11240 
   11175    11118    11084    11068    11079    11137    11219    11268 
   11269    11249    11206    11141    11103    11130    11203    11269 
   11315    11352    11368    11331    11233    11113    11032    10998 
   10995    11038    11144    11244    11280    11275    11271    11256 
   11217    11179    11175    11195    11191    11142    11079    11040 
   11034    11068    11140    11213    11249    11233    11173    11113 
   11088    11114    11173    11234    11273    11269    11198    11088 
   11021    11030    11075    11132    11206    11273    11295    11269 
   11215    11136    11061    11038    11067    11111    11175    11250 
   11303    11333    11354    11344    11272    11173    11098    11063 
   11059    11078    11115    11167    11203    11199    11156    11132 
   11176    11254    11303    11313    11313    11299    11245    11172 
   11130    11138    11178    11227    11264    11249    11186    11124 
   11084    11052    11040    11091    11188    11261    11261    11206 
   11134    11071    11033    11026    11045    11080    11106    11101 
   11079    11086    11145    11232    11306    11357    11369    11322 
   11221    11129    11098    11107    11129    11173    11236    11260 
   11226    11192    11209    11245    11242    11196    11148    11119 
   11092    11078    11106    11163    11194    11190    11195    11203 
   11184    11179    11237    11313    11333    11318    11310    11283 
   11202    11103    11043    11028    11049    11080    11086    11079 
   11110    11192    11287    11325    11290    11245    11234    11229 
   11207    11191    11190    11179    11152    11121    11086    11060 
   11075    11142    11237    11303    11303    11254    11195    11136 
   11094    11083    11088    11102    11126    11134    11117    11137 
   11226    11296    11273    11184    11092    11037    11044    11102 
   11155    11175    11194    11232    11256    11254    11253    11279 
   11313    11306    11250    11175    11110    11063    11038    11052 
   11098    11157    11214    11253    11259    11230    11187    11169 
   11192    11230    11259    11273    11256    11209    11163    11134 
   11118    11095    11068    11086    11176    11283    11348    11375 
   11358    11269    11134    11026    10999    11032    11079    11136 
   11195    11213    11171    11130    11159    11236    11291    11307 
   11296    11240    11160    11117    11118    11110    11070    11048 
   11070    11097    11107    11122    11152    11194    11230    11245 
   11248    11248    11240    11236    11256    11283    11268    11206 
   11129    11056    10997    10978    11030    11141    11252    11315 
   11326    11286    11207    11133    11110    11134    11169    11211 
   11261    11292    11269    11203    11134    11086    11070    11086 
   11115    11144    11161    11164    11164    11178    11175    11144 
   11124    11148    11176    11169    11138    11113    11099    11103 
   11134    11194    11269    11313    11269    11179    11121    11114 
   11124    11132    11156    11191    11198    11186    11199    11234 
   11246    11225    11205    11207    11217    11198    11155    11138 
   11164    11198    11234    11295    11350    11341    11263    11176 
   11110    11060    11030    11024    11030    11033    11041    11086 
   11160    11221    11250    11257    11248    11234    11230    11219 
   11179    11122    11068    11028    11033    11109    11209    11269 
   11288    11299    11313    11315    11290    11227    11156    11107 
   11080    11056    11056    11110    11178    11210    11217    11236 
   11265    11280    11272    11230    11149    11075    11065    11107 
   11137    11145    11169    11213    11242    11238    11218    11209 
   11199    11168    11124    11105    11126    11153    11178    11225 
   11279    11307    11310    11298    11268    11213    11144    11091 
   11076    11098    11141    11191    11237    11256    11242    11217 
   11200    11194    11180    11156    11136    11132    11118    11086 
   11061    11064    11075    11103    11172    11256    11311    11333 
   11337    11307    11245    11196    11165    11114    11053    11029 
   11051    11103    11173    11244    11296    11307    11253    11146 
   11044    10993    10993    11036    11109    11186    11236    11240 
   11210    11165    11130    11122    11142    11176    11207    11211 
   11188    11163    11152    11165    11205    11259    11304    11315 
   11264    11151    11047    11028    11079    11136    11151    11126 
   11086    11044    11014    11022    11098    11233    11379    11488 
   11542    11531    11450    11325    11194    11072    10971    10922 
   10947    11003    11037    11043    11060    11124    11205    11267 
   11319    11367    11380    11340    11287    11284    11318    11318 
   11264    11184    11113    11076    11076    11092    11125    11187 
   11257    11298    11290    11245    11172    11084    11020    10989 
   10974    10971    10978    10994    11038    11134    11253    11345 
   11395    11416    11414    11379    11322    11272    11225    11163 
   11103    11068    11043    11001    10963    10972    11016    11053 
   11090    11149    11217    11268    11310    11341    11341    11308 
   11268    11229    11191    11171    11168    11146    11105    11075 
   11060    11048    11055    11092    11136    11168    11202    11245 
   11279    11283    11268    11261    11253    11229    11191    11142 
   11074    10995    10947    10955    11011    11095    11188    11294 
   11421    11549    11626    11620    11543    11426    11291    11148 
   11005    10891    10836    10825    10821    10837    10925    11075 
   11227    11357    11475    11537    11473    11299    11113    10982 
   10924    10948    11032    11114    11167    11182    11149    11105 
   11101    11141    11191    11242    11290    11304    11265    11194 
   11140    11119    11111    11105    11114    11137    11148    11134 
   11125    11164    11261    11371    11450    11499    11515    11475 
   11364    11205    11047    10937    10891    10886    10890    10898 
   10937    11010    11088    11145    11207    11286    11335    11319 
   11260    11199    11151    11126    11157    11233    11294    11319 
   11315    11287    11253    11236    11219    11184    11126    11059 
   11006    10979    10987    11055    11188    11337    11439    11473 
   11441    11344    11195    11051    10953    10908    10910    10964 
   11043    11090    11080    11060    11067    11091    11128    11182 
   11254    11318    11335    11298    11242    11202    11179    11164 
   11151    11141    11149    11173    11188    11183    11186    11229 
   11284    11298    11279    11291    11337    11356    11315    11257 
   11227    11183    11082    10967    10905    10902    10926    10978 
   11084    11225    11344    11408    11441    11476    11522    11558 
   11561    11526    11450    11308    11115    10937    10829    10797 
   10825    10902    10993    11044    11048    11047    11072    11119 
   11172    11233    11300    11342    11340    11321    11315    11304 
   11273    11240    11191    11110    11014    10941    10917    10932 
   10966    11026    11117    11198    11232    11234    11227    11188 
   11133    11121    11165    11210    11213    11171    11088    10971 
   10848    10775    10794    10899    11051    11219    11383    11507 
   11558    11526    11445    11373    11326    11275    11218    11172 
   11136    11086    11016    10944    10902    10925    11007    11114 
   11241    11377    11473    11481    11415    11315    11213    11156 
   11191    11287    11381    11453    11487    11412    11207    10983 
   10875    10906    11025    11199    11391    11529    11568    11523 
   11414    11253    11080    10943    10872    10874    10928    10998 
   11072    11148    11207    11214    11172    11129    11113    11107 
   11117    11167    11242    11287    11267    11199    11132    11084 
   11061    11074    11107    11119    11084    11037    11024    11065 
   11167    11311    11457    11556    11561    11453    11277    11107 
   10963    10844    10779    10809    10937    11114    11277    11415 
   11526    11583    11539    11410    11263    11148    11051    10949 
   10871    10852    10895    10967    11048    11152    11280    11396 
   11461    11472    11439    11362    11248    11125    11018    10929 
   10879    10897    10989    11146    11354    11554    11670    11664 
   11549    11369    11173    11022    10949    10956    11020    11103 
   11157    11157    11117    11057    11006    11001    11067    11194 
   11319    11399    11430    11395    11286    11156    11070    11026 
   11003    10990    10980    10986    11021    11080    11134    11172 
   11195    11205    11207    11206    11202    11210    11234    11260 
   11265    11250    11223    11182    11110    11020    10960    10963 
   11017    11109    11242    11380    11466    11491    11460    11383 
   11284    11196    11114    11025    10949    10897    10863    10886 
   11001    11168    11314    11421    11491    11500    11450    11391 
   11367    11367    11357    11323    11273    11191    11065    10941 
   10881    10887    10922    10968    11040    11129    11198    11230 
   11253    11272    11248    11178    11117    11102    11107    11113 
   11124    11141    11141    11125    11117    11126    11141    11165 
   11203    11240    11254    11241    11200    11138    11082    11064 
   11095    11144    11165    11161    11157    11168    11184    11209 
   11242    11279    11329    11380    11395    11356    11271    11157 
   11036    10951    10932    10951    10980    11033    11122    11217 
   11268    11275    11273    11275    11268    11261    11263    11272 
   11275    11264    11259    11264    11263    11254    11260    11260 
   11221    11152    11092    11055    11033    11024    11030    11060 
   11115    11176    11217    11236    11246    11240    11183    11078 
   10983    10960    11003    11080    11163    11226    11277    11340 
   11402    11423    11384    11298    11182    11049    10935    10863 
   10840    10862    10926    11020    11109    11190    11261    11307 
   11313    11288    11263    11246    11219    11173    11140    11129 
   11122    11117    11122    11133    11141    11153    11164    11160 
   11168    11221    11307    11394    11476    11539    11549    11497 
   11410    11284    11126    10997    10944    10955    10995    11063 
   11141    11196    11221    11219    11192    11152    11117    11099 
   11102    11122    11159    11202    11237    11244    11213    11159 
   11107    11068    11051    11072    11144    11241    11310    11334 
   11346    11353    11327    11281    11246    11217    11171    11118 
   11083    11067    11053    11032    11009    11001    11022    11071 
   11145    11240    11340    11414    11443    11411    11323    11217 
   11130    11071    11032    11014    11022    11052    11109    11194 
   11284    11340    11341    11298    11221    11132    11068    11052 
   11076    11136    11202    11240    11244    11232    11221    11210 
   11207    11229    11263    11271    11233    11164    11084    11005 
   10940    10921    10984    11113    11242    11330    11369    11352 
   11275    11178    11118    11103    11101    11090    11074    11060 
   11048    11044    11061    11111    11178    11237    11277    11291 
   11287    11277    11263    11246    11226    11190    11140    11102 
   11090    11097    11129    11195    11268    11318    11346    11348 
   11304    11215    11115    11047    11034    11079    11151    11207 
   11222    11194    11138    11080    11047    11057    11110    11176 
   11234    11271    11269    11225    11156    11098    11086    11132 
   11205    11271    11311    11319    11294    11240    11182    11152 
   11160    11195    11242    11273    11265    11218    11161    11124 
   11111    11109    11111    11121    11115    11071    11022    11022 
   11068    11134    11210    11277    11303    11260    11161    11064 
   11001    10972    10978    11022    11098    11183    11246    11279 
   11304    11333    11334    11288    11230    11175    11111    11051 
   11028    11064    11142    11232    11311    11367    11379    11348 
   11299    11257    11219    11186    11168    11171    11179    11180 
   11176    11169    11171    11183    11207    11248    11288    11302 
   11281    11236    11171    11102    11040    10999    10995    11029 
   11087    11146    11188    11211    11217    11214    11213    11210 
   11202    11202    11198    11178    11145    11110    11084    11079 
   11099    11142    11188    11221    11241    11250    11236    11195 
   11159    11145    11138    11137    11144    11134    11099    11059 
   11038    11059    11134    11257    11387    11457    11435    11354 
   11260    11176    11110    11086    11110    11141    11146    11144 
   11137    11114    11097    11119    11179    11236    11276    11311 
   11321    11283    11218    11169    11151    11138    11126    11129 
   11140    11134    11109    11083    11067    11057    11064    11105 
   11169    11221    11227    11188    11137    11099    11076    11074 
   11097    11140    11184    11196    11159    11097    11033    10979 
   10959    11002    11094    11178    11218    11226    11223    11215 
   11222    11263    11318    11356    11362    11345    11304    11245 
   11196    11182    11191    11205    11218    11238    11265    11281 
   11272    11238    11183    11103    11014    10955    10966    11057 
   11183    11284    11340    11357    11341    11300    11259    11237 
   11232    11225    11195    11136    11063    10999    10968    10989 
   11064    11182    11288    11337    11329    11303    11277    11257 
   11244    11237    11223    11194    11151    11101    11045    10999 
   10971    10963    10975    11022    11105    11200    11281    11326 
   11333    11304    11257    11229    11225    11211    11172    11138 
   11136    11133    11102    11041    10983    10970    11003    11060 
   11130    11207    11269    11303    11315    11321    11302    11250 
   11205    11207    11248    11294    11322    11311    11252    11167 
