Origin Time       2025/03/30 22:55:00
Lat.              41.993
Long.             142.725
Depth. (km)       55
Mag.              4.6
Station Code      HDKH04
Station Lat.      42.5126
Station Long.     142.0381
Station Height(m) 10
Record Time       2025/03/30 22:56:14
Sampling Freq(Hz) 100Hz
Duration Time(s)  120
Dir.              6
Scale Factor      7845(gal)/8223790
Max. Acc. (gal)   0.728
Last Correction   2025/03/30 22:56:14
Memo.             
[...]
   -9526    -9525    -9522    -9522    -9520    -9518    -9522    -9522 
   -9522    -9524    -9521    -9520    -9520    -9524    -9525    -9522 
   -9522    -9525    -9522    -9520    -9520    -9518    -9517    -9520 
   -9524    -9524    -9517    -9517    -9525    -9526    -9522    -9522 
   -9518    -9518    -9521    -9521    -9521    -9520    -9517    -9521 
   -9525    -9524    -9525    -9522    -9522    -9521    -9520    -9522 
   -9520    -9517    -9524    -9526    -9522    -9521    -9524    -9526 
   -9524    -9518    -9520    -9522    -9521    -9520    -9521    -9521 
   -9521    -9521    -9521    -9522    -9522    -9521    -9520    -9522 
   -9521    -9517    -9518    -9525    -9525    -9522    -9520    -9518 
   -9524    -9526    -9520    -9520    -9522    -9521    -9522    -9521 
   -9520    -9521    -9520    -9520    -9522    -9521    -9521    -9525 
   -9520    -9518    -9522    -9526    -9526    -9521    -9517    -9522 
   -9526    -9520    -9516    -9521    -9526    -9522    -9518    -9521 
   -9520    -9520    -9524    -9522    -9520    -9524    -9525    -9518 
   -9517    -9524    -9524    -9520    -9521    -9524    -9521    -9521 
   -9524    -9522    -9518    -9518    -9520    -9521    -9521    -9520 
   -9517    -9518    -9522    -9525    -9520    -9518    -9524    -9522 
   -9518    -9521    -9528    -9522    -9516    -9520    -9524    -9520 
   -9520    -9522    -9521    -9522    -9522    -9521    -9524    -9525 
   -9524    -9524    -9522    -9522    -9522    -9520    -9524    -9524 
   -9518    -9522    -9526    -9520    -9517    -9521    -9522    -9521 
   -9520    -9524    -9526    -9521    -9521    -9524    -9520    -9518 
   -9520    -9524    -9529    -9524    -9517    -9521    -9522    -9521 
   -9522    -9521    -9522    -9522    -9518    -9522    -9522    -9518 
   -9520    -9524    -9525    -9524    -9518    -9517    -9522    -9522 
   -9518    -9514    -9520    -9528    -9524    -9518    -9524    -9525 
   -9522    -9521    -9521    -9522    -9528    -9525    -9517    -9516 
   -9522    -9525    -9521    -9521    -9522    -9520    -9521    -9526 
   -9525    -9522    -9522    -9520    -9522    -9524    -9517    -9516 
   -9521    -9524    -9522    -9522    -9528    -9526    -9518    -9517 
   -9520    -9526    -9528    -9521    -9518    -9522    -9524    -9525 
   -9524    -9521    -9521    -9522    -9522    -9524    -9522    -9521 
   -9525    -9522    -9517    -9522    -9521    -9521    -9528    -9522 
   -9516    -9521    -9525    -9522    -9518    -9521    -9522    -9518 
   -9520    -9524    -9521    -9525    -9529    -9520    -9517    -9528 
   -9529    -9520    -9516    -9520    -9522    -9521    -9524    -9525 
   -9518    -9520    -9524    -9525    -9522    -9516    -9520    -9526 
   -9522    -9517    -9516    -9518    -9528    -9529    -9514    -9514 
   -9522    -9524    -9524    -9522    -9525    -9524    -9517    -9517 
   -9521    -9524    -9521    -9516    -9517    -9525    -9528    -9522 
   -9520    -9524    -9521    -9521    -9521    -9516    -9520    -9529 
   -9524    -9514    -9520    -9528    -9522    -9518    -9526    -9520 
   -9506    -9516    -9535    -9533    -9517    -9509    -9516    -9522 
   -9524    -9521    -9514    -9518    -9525    -9518    -9520    -9528 
   -9520    -9516    -9522    -9524    -9520    -9520    -9521    -9521 
   -9520    -9517    -9518    -9526    -9528    -9517    -9514    -9518 
   -9518    -9525    -9526    -9514    -9513    -9522    -9525    -9524 
   -9522    -9520    -9516    -9518    -9522    -9520    -9520    -9524 
   -9522    -9513    -9516    -9526    -9526    -9517    -9514    -9522 
   -9531    -9521    -9510    -9517    -9526    -9531    -9522    -9514 
   -9520    -9525    -9520    -9518    -9524    -9529    -9526    -9517 
   -9514    -9520    -9522    -9526    -9526    -9520    -9518    -9522 
   -9521    -9521    -9526    -9525    -9520    -9518    -9525    -9526 
   -9520    -9521    -9529    -9528    -9518    -9516    -9526    -9529 
   -9516    -9513    -9525    -9529    -9524    -9521    -9521    -9525 
   -9525    -9520    -9522    -9522    -9520    -9528    -9532    -9520 
   -9512    -9521    -9533    -9524    -9514    -9522    -9526    -9525 
   -9525    -9516    -9514    -9526    -9525    -9517    -9521    -9524 
   -9520    -9517    -9524    -9532    -9525    -9513    -9517    -9528 
   -9524    -9517    -9521    -9524    -9522    -9521    -9521    -9518 
   -9522    -9526    -9518    -9517    -9524    -9522    -9518    -9517 
   -9520    -9525    -9528    -9521    -9518    -9518    -9518    -9526 
   -9522    -9516    -9521    -9521    -9517    -9521    -9524    -9521 
   -9520    -9524    -9524    -9516    -9513    -9521    -9531    -9532 
   -9513    -9505    -9525    -9531    -9517    -9520    -9524    -9522 
   -9528    -9522    -9513    -9517    -9521    -9524    -9522    -9514 
   -9522    -9529    -9516    -9512    -9525    -9528    -9520    -9520 
   -9525    -9522    -9517    -9518    -9520    -9521    -9522    -9522 
   -9517    -9516    -9531    -9533    -9514    -9513    -9528    -9524 
   -9513    -9521    -9526    -9524    -9525    -9525    -9518    -9513 
   -9514    -9525    -9528    -9518    -9521    -9528    -9518    -9510 
   -9524    -9525    -9518    -9522    -9521    -9520    -9528    -9522 
   -9510    -9520    -9531    -9524    -9516    -9522    -9524    -9518 
   -9517    -9521    -9526    -9522    -9518    -9525    -9526    -9516 
   -9517    -9525    -9521    -9518    -9522    -9525    -9525    -9518 
   -9514    -9525    -9528    -9513    -9518    -9532    -9522    -9514 
   -9526    -9528    -9514    -9520    -9528    -9520    -9520    -9528 
   -9522    -9521    -9526    -9526    -9524    -9508    -9499    -9537 
   -9562    -9516    -9491    -9529    -9535    -9509    -9522    -9545 
   -9533    -9505    -9502    -9524    -9536    -9533    -9522    -9517 
   -9518    -9531    -9529    -9513    -9524    -9533    -9516    -9516 
   -9526    -9524    -9518    -9526    -9528    -9516    -9517    -9528 
   -9531    -9526    -9518    -9518    -9525    -9526    -9520    -9516 
   -9528    -9529    -9514    -9514    -9525    -9529    -9521    -9520 
   -9526    -9525    -9517    -9517    -9518    -9522    -9526    -9522 
   -9520    -9532    -9528    -9512    -9521    -9532    -9520    -9514 
   -9525    -9528    -9516    -9516    -9522    -9520    -9526    -9531 
   -9518    -9520    -9532    -9518    -9508    -9524    -9532    -9522 
   -9518    -9521    -9520    -9520    -9526    -9529    -9514    -9514 
   -9526    -9522    -9520    -9521    -9521    -9528    -9526    -9517 
   -9518    -9522    -9521    -9524    -9528    -9522    -9517    -9521 
   -9526    -9521    -9517    -9522    -9524    -9516    -9518    -9526 
   -9525    -9521    -9524    -9522    -9514    -9520    -9526    -9521 
   -9518    -9524    -9525    -9520    -9517    -9516    -9518    -9528 
   -9525    -9516    -9516    -9518    -9520    -9522    -9524    -9516 
   -9509    -9521    -9531    -9522    -9520    -9518    -9514    -9522 
   -9529    -9524    -9518    -9521    -9521    -9517    -9520    -9525 
   -9521    -9520    -9524    -9522    -9520    -9514    -9516    -9529 
   -9531    -9513    -9512    -9522    -9525    -9532    -9525    -9508 
   -9518    -9535    -9521    -9512    -9522    -9521    -9516    -9520 
   -9517    -9520    -9532    -9528    -9514    -9514    -9521    -9522 
   -9520    -9520    -9526    -9529    -9516    -9516    -9535    -9531 
   -9512    -9514    -9529    -9532    -9524    -9514    -9516    -9522 
   -9520    -9521    -9526    -9522    -9514    -9520    -9533    -9529 
   -9512    -9516    -9539    -9532    -9510    -9512    -9524    -9528 
   -9528    -9520    -9513    -9521    -9529    -9522    -9518    -9524 
   -9521    -9516    -9526    -9531    -9514    -9512    -9526    -9525 
   -9516    -9520    -9529    -9525    -9512    -9518    -9533    -9529 
   -9518    -9517    -9516    -9518    -9525    -9524    -9517    -9518 
   -9528    -9521    -9518    -9531    -9525    -9510    -9524    -9536 
   -9522    -9512    -9521    -9526    -9524    -9521    -9521    -9524 
   -9528    -9525    -9513    -9514    -9529    -9531    -9521    -9518 
   -9520    -9521    -9520    -9524    -9532    -9524    -9513    -9524 
   -9526    -9518    -9520    -9520    -9521    -9525    -9525    -9522 
   -9521    -9522    -9528    -9521    -9517    -9528    -9528    -9517 
   -9520    -9528    -9521    -9516    -9524    -9531    -9521    -9513 
   -9524    -9528    -9526    -9526    -9509    -9509    -9533    -9532 
   -9513    -9514    -9528    -9531    -9521    -9512    -9517    -9526 
   -9529    -9528    -9518    -9516    -9528    -9528    -9516    -9517 
   -9521    -9521    -9522    -9520    -9518    -9532    -9536    -9521 
   -9509    -9517    -9528    -9524    -9525    -9528    -9518    -9516 
   -9522    -9526    -9525    -9521    -9524    -9528    -9524    -9513 
   -9512    -9529    -9535    -9514    -9510    -9526    -9525    -9516 
   -9524    -9525    -9516    -9518    -9522    -9525    -9524    -9517 
   -9518    -9525    -9521    -9525    -9525    -9514    -9517    -9529 
   -9526    -9517    -9514    -9518    -9524    -9526    -9524    -9513 
   -9512    -9526    -9526    -9520    -9531    -9528    -9512    -9521 
   -9528    -9516    -9514    -9521    -9525    -9522    -9514    -9516 
   -9526    -9525    -9518    -9524    -9528    -9525    -9520    -9516 
   -9517    -9525    -9525    -9516    -9528    -9536    -9516    -9509 
   -9521    -9531    -9529    -9520    -9517    -9520    -9516    -9521 
   -9526    -9528    -9524    -9513    -9517    -9533    -9522    -9510 
   -9526    -9525    -9508    -9521    -9532    -9516    -9518    -9531 
   -9520    -9514    -9524    -9526    -9524    -9525    -9521    -9513 
   -9521    -9532    -9525    -9517    -9518    -9518    -9520    -9521 
   -9524    -9529    -9521    -9514    -9521    -9526    -9532    -9525 
   -9509    -9514    -9525    -9522    -9521    -9522    -9524    -9529 
   -9524    -9517    -9521    -9522    -9522    -9522    -9518    -9525 
   -9524    -9508    -9509    -9525    -9535    -9535    -9524    -9516 
   -9517    -9521    -9524    -9524    -9524    -9524    -9521    -9525 
   -9526    -9513    -9513    -9528    -9525    -9524    -9522    -9512 
   -9512    -9520    -9525    -9531    -9521    -9516    -9521    -9514 
   -9514    -9526    -9526    -9524    -9520    -9510    -9516    -9531 
   -9528    -9513    -9518    -9532    -9521    -9513    -9529    -9531 
   -9509    -9510    -9529    -9526    -9521    -9522    -9518    -9517 
   -9517    -9521    -9532    -9532    -9520    -9516    -9524    -9525 
   -9521    -9517    -9518    -9521    -9521    -9520    -9518    -9528 
   -9540    -9525    -9508    -9517    -9524    -9518    -9516    -9521 
   -9528    -9524    -9522    -9526    -9525    -9524    -9528    -9516 
   -9497    -9522    -9555    -9521    -9497    -9528    -9528    -9518 
   -9532    -9522    -9521    -9531    -9522    -9518    -9521    -9524 
   -9525    -9521    -9517    -9525    -9532    -9526    -9521    -9514 
   -9513    -9529    -9533    -9520    -9513    -9518    -9522    -9525 
   -9526    -9518    -9516    -9524    -9528    -9522    -9514    -9521 
   -9528    -9521    -9518    -9521    -9522    -9525    -9521    -9524 
   -9524    -9517    -9522    -9520    -9514    -9521    -9524    -9528 
   -9526    -9514    -9512    -9520    -9522    -9528    -9528    -9516 
   -9518    -9525    -9521    -9522    -9522    -9520    -9522    -9517 
   -9513    -9526    -9535    -9522    -9509    -9516    -9529    -9529 
   -9525    -9524    -9516    -9516    -9525    -9522    -9518    -9518 
   -9520    -9526    -9524    -9514    -9521    -9532    -9524    -9509 
   -9510    -9526    -9526    -9517    -9521    -9525    -9521    -9522 
   -9522    -9514    -9517    -9525    -9522    -9520    -9526    -9536 
   -9540    -9541    -9555    -9570    -9578    -9590    -9594    -9597 
   -9605    -9602    -9587    -9575    -9570    -9570    -9570    -9564 
   -9556    -9537    -9521    -9512    -9494    -9485    -9487    -9482 
   -9483    -9494    -9499    -9494    -9481    -9452    -9408    -9377 
   -9374    -9410    -9491    -9582    -9647    -9687    -9711    -9706 
   -9657    -9572    -9477    -9418    -9417    -9456    -9517    -9552 
   -9528    -9486    -9472    -9510    -9572    -9601    -9591    -9560 
   -9512    -9459    -9429    -9418    -9402    -9383    -9375    -9381 
   -9375    -9359    -9374    -9458    -9598    -9728    -9779    -9715 
   -9544    -9354    -9252    -9259    -9327    -9383    -9396    -9416 
   -9541    -9748    -9919    -9998    -9963    -9829    -9634    -9444 
   -9352    -9375    -9402    -9335    -9205    -9142    -9223    -9398 
   -9560    -9656    -9687    -9659    -9579    -9508    -9543    -9667 
   -9755    -9760    -9733    -9715    -9667    -9559    -9474    -9471 
   -9463    -9359    -9201    -9105    -9139    -9266    -9378    -9409 
   -9371    -9339    -9410    -9580    -9738    -9761    -9641    -9532 
   -9548    -9625    -9632    -9559    -9525    -9585    -9639    -9575 
   -9409    -9286    -9317    -9441    -9535    -9545    -9505    -9493 
   -9564    -9653    -9675    -9645    -9609    -9586    -9589    -9613 
   -9625    -9576    -9494    -9463    -9477    -9463    -9383    -9305 
   -9364    -9522    -9548    -9355    -9128    -9090    -9306    -9618 
   -9822    -9884    -9929   -10042   -10168   -10216   -10156    -9981 
   -9714    -9375    -9005    -8758    -8764    -8941    -9182    -9433 
   -9593    -9648    -9672    -9694    -9729    -9753    -9691    -9517 
   -9313    -9232    -9364    -9616    -9771    -9709    -9516    -9383 
   -9402    -9537    -9663    -9660    -9571    -9505    -9498    -9548 
   -9613    -9621    -9535    -9425    -9423    -9540    -9617    -9526 
   -9377    -9363    -9510    -9672    -9707    -9609    -9504    -9498 
   -9536    -9513    -9470    -9495    -9547    -9517    -9404    -9317 
   -9377    -9567    -9703    -9671    -9547    -9441    -9387    -9378 
   -9439    -9578    -9718    -9764    -9678    -9533    -9450    -9450 
   -9466    -9486    -9487    -9417    -9340    -9377    -9517    -9679 
   -9738    -9639    -9501    -9483    -9595    -9693    -9660    -9545 
   -9423    -9297    -9178    -9115    -9201    -9458    -9715    -9779 
   -9674    -9585    -9587    -9591    -9548    -9524    -9528    -9514 
   -9483    -9454    -9454    -9509    -9555    -9537    -9522    -9578 
   -9647    -9639    -9562    -9506    -9479    -9404    -9266    -9170 
   -9232    -9427    -9599    -9660    -9676    -9717    -9730    -9630 
   -9456    -9360    -9428    -9578    -9674    -9657    -9571    -9506 
   -9545    -9664    -9710    -9558    -9263    -9067    -9180    -9522 
   -9779    -9737    -9521    -9414    -9513    -9664    -9721    -9675 
   -9562    -9425    -9327    -9332    -9452    -9594    -9648    -9621 
   -9579    -9528    -9475    -9481    -9583    -9720    -9715    -9526 
   -9363    -9410    -9585    -9659    -9518    -9302    -9244    -9389 
   -9560    -9637    -9655    -9640    -9563    -9448    -9379    -9416 
   -9512    -9548    -9464    -9329    -9262    -9317    -9459    -9605 
   -9714    -9792    -9823    -9829    -9819    -9737    -9594    -9491 
   -9460    -9437    -9382    -9339    -9400    -9535    -9578    -9428 
   -9198    -9094    -9215    -9487    -9732    -9794    -9690    -9591 
   -9633    -9752    -9769    -9625    -9464    -9410    -9443    -9482 
   -9466    -9396    -9356    -9423    -9555    -9656    -9671    -9652 
   -9668    -9678    -9575    -9374    -9248    -9312    -9443    -9463 
   -9363    -9310    -9429    -9634    -9717    -9570    -9360    -9344 
   -9551    -9779    -9818    -9661    -9524    -9555    -9644    -9612 
   -9456    -9343    -9396    -9549    -9609    -9493    -9336    -9313 
   -9428    -9545    -9559    -9498    -9485    -9593    -9751    -9818 
   -9721    -9518    -9346    -9305    -9374    -9464    -9526    -9575 
   -9633    -9688    -9707    -9701    -9721    -9725    -9607    -9398 
   -9244    -9229    -9331    -9472    -9566    -9559    -9487    -9437 
   -9429    -9440    -9471    -9514    -9547    -9564    -9559    -9566 
   -9620    -9640    -9545    -9429    -9431    -9553    -9690    -9711 
   -9594    -9462    -9420    -9466    -9524    -9536    -9540    -9579 
   -9613    -9571    -9467    -9385    -9385    -9444    -9472    -9443 
   -9441    -9482    -9494    -9486    -9502    -9516    -9487    -9431 
   -9420    -9508    -9613    -9622    -9547    -9472    -9468    -9516 
   -9533    -9493    -9431    -9406    -9452    -9506    -9526    -9560 
   -9629    -9693    -9714    -9687    -9652    -9634    -9583    -9501 
   -9448    -9425    -9412    -9404    -9402    -9448    -9563    -9701 
   -9772    -9706    -9537    -9400    -9391    -9494    -9578    -9562 
   -9516    -9525    -9559    -9548    -9486    -9445    -9481    -9525 
   -9551    -9599    -9624    -9567    -9472    -9390    -9347    -9344 
   -9375    -9479    -9640    -9752    -9736    -9607    -9499    -9502 
   -9558    -9590    -9586    -9576    -9576    -9558    -9521    -9485 
   -9454    -9439    -9414    -9347    -9267    -9259    -9363    -9494 
   -9556    -9603    -9691    -9763    -9803    -9818    -9805    -9776 
   -9693    -9549    -9433    -9400    -9443    -9522    -9575    -9567 
   -9504    -9429    -9378    -9350    -9336    -9344    -9389    -9459 
   -9505    -9491    -9491    -9580    -9686    -9714    -9663    -9582 
   -9547    -9587    -9620    -9566    -9445    -9335    -9324    -9416 
   -9494    -9468    -9393    -9373    -9412    -9436    -9441    -9477 
   -9544    -9574    -9506    -9429    -9491    -9637    -9697    -9628 
   -9541    -9536    -9582    -9558    -9459    -9439    -9566    -9697 
   -9699    -9613    -9508    -9431    -9455    -9553    -9605    -9552 
   -9439    -9344    -9352    -9466    -9617    -9741    -9759    -9605 
   -9358    -9211    -9298    -9540    -9695    -9624    -9416    -9252 
   -9243    -9369    -9536    -9645    -9661    -9629    -9609    -9597 
   -9539    -9432    -9364    -9412    -9536    -9641    -9672    -9671 
   -9697    -9702    -9607    -9477    -9425    -9471    -9531    -9522 
   -9470    -9427    -9409    -9472    -9606    -9680    -9626    -9541 
   -9543    -9629    -9702    -9703    -9644    -9504    -9294    -9139 
   -9177    -9383    -9558    -9563    -9506    -9526    -9580    -9593 
   -9599    -9651    -9705    -9680    -9585    -9536    -9583    -9617 
   -9568    -9526    -9537    -9512    -9412    -9346    -9423    -9609 
   -9695    -9531    -9273    -9201    -9356    -9524    -9508    -9383 
   -9385    -9555    -9714    -9717    -9622    -9589    -9653    -9678 
   -9560    -9364    -9250    -9329    -9536    -9661    -9620    -9520 
   -9478    -9491    -9497    -9479    -9495    -9583    -9684    -9715 
   -9659    -9567    -9487    -9450    -9485    -9556    -9570    -9522 
   -9474    -9456    -9455    -9459    -9464    -9445    -9396    -9387 
   -9497    -9693    -9836    -9788    -9591    -9439    -9435    -9501 
   -9522    -9463    -9385    -9383    -9460    -9537    -9571    -9549 
   -9498    -9482    -9506    -9508    -9475    -9495    -9617    -9752 
   -9791    -9701    -9545    -9428    -9364    -9306    -9281    -9348 
