Origin Time       2025/03/30 22:55:00
Lat.              41.993
Long.             142.725
Depth. (km)       55
Mag.              4.6
Station Code      HDKH04
Station Lat.      42.5126
Station Long.     142.0381
Station Height(m) -210
Record Time       2025/03/30 22:56:14
Sampling Freq(Hz) 100Hz
Duration Time(s)  120
Dir.              2
Scale Factor      2942(gal)/8224139
Max. Acc. (gal)   0.209
Last Correction   2025/03/30 22:56:14
Memo.             
[...]
  102996   102996   102998   102998   102995   102998   102999   102998 
  103000   102998   102994   102995   102998   102999   103000   103000 
  102999   103002   103005   103005   103006   103007   103006   103006 
  103007   103009   103005   103006   103007   103005   103000   103000 
  102999   102995   102990   102990   102987   102984   102983   102982 
  102983   102982   102978   102976   102976   102976   102978   102979 
  102984   102994   103002   103014   103027   103032   103030   103029 
  103029   103029   103029   103023   103021   103023   103026   103026 
  103030   103034   103032   103025   103018   103005   102984   102969 
  102957   102953   102964   102971   102973   102976   102972   102969 
  102979   102987   102996   103011   103018   103009   102995   102979 
  102967   102964   102978   103006   103048   103084   103106   103115 
  103118   103108   103086   103057   103025   102987   102955   102934 
  102921   102929   102953   102979   103005   103027   103036   103022 
  102990   102949   102913   102884   102871   102888   102933   102986 
  103027   103057   103081   103095   103090   103073   103053   103027 
  102998   102969   102948   102945   102956   102968   102971   102956 
  102941   102937   102933   102925   102921   102925   102940   102973 
  103023   103075   103113   103119   103106   103087   103067   103044 
  103023   102995   102965   102949   102959   102990   103026   103052 
  103059   103052   103037   103015   102990   102961   102936   102922 
  102925   102937   102953   102983   103025   103046   103017   102956 
  102894   102847   102834   102860   102901   102945   103000   103065 
  103121   103161   103195   103207   103175   103110   103044   102992 
  102957   102942   102946   102945   102933   102932   102930   102907 
  102871   102825   102776   102749   102753   102782   102826   102879 
  102934   102995   103064   103137   103195   103206   103167   103119 
  103103   103113   103115   103096   103059   103019   102999   102995 
  102984   102951   102903   102864   102863   102897   102942   103000 
  103077   103157   103206   103202   103146   103059   102976   102924 
  102884   102843   102802   102779   102801   102860   102936   103018 
  103092   103142   103167   103160   103126   103079   103041   103041 
  103068   103094   103110   103095   103044   102994   102976   102960 
  102917   102852   102787   102753   102774   102833   102906   102979 
  103032   103056   103069   103090   103102   103092   103073   103063 
  103067   103073   103069   103052   103019   102973   102933   102905 
  102875   102848   102856   102892   102929   102953   102956   102945 
  102949   102982   103034   103083   103099   103086   103064   103030 
  102995   102995   103048   103122   103187   103211   103175   103102 
  103048   103017   102991   102968   102952   102937   102926   102932 
  102960   103002   103045   103073   103076   103052   102999   102934 
  102884   102837   102795   102786   102817   102887   102996   103111 
  103196   103237   103234   103202   103140   103057   102979   102924 
  102910   102921   102928   102944   102988   103027   103037   103040 
  103033   103007   102979   102965   102961   102946   102915   102876 
  102853   102868   102910   102955   102992   103014   103015   103022 
  103038   103063   103088   103088   103046   102992   102979   103017 
  103056   103044   102986   102910   102857   102867   102929   103006 
  103067   103098   103088   103048   103006   102995   103011   103026 
  103036   103033   103010   102983   102980   103014   103068   103100 
  103102   103080   103050   103034   103036   103036   103023   103015 
  103021   103038   103036   102988   102917   102847   102791   102771 
  102802   102865   102933   102995   103048   103073   103080   103086 
  103086   103094   103118   103123   103100   103071   103037   102986 
  102933   102905   102914   102945   102971   102972   102960   102959 
  102956   102944   102940   102948   102960   102967   102964   102944 
  102915   102899   102906   102936   102976   103015   103053   103096 
  103142   103156   103125   103077   103050   103061   103098   103117 
  103098   103049   102994   102949   102926   102925   102930   102934 
  102936   102930   102932   102946   102964   102978   103017   103083 
  103117   103086   103027   102976   102933   102909   102922   102955 
  102978   103002   103042   103071   103052   102995   102952   102963 
  103000   103018   103019   103009   102978   102955   102964   102984 
  102987   102969   102949   102936   102929   102930   102936   102940 
  102960   102996   103030   103064   103090   103094   103083   103050 
  102999   102956   102929   102928   102951   102976   102990   102996 
  103017   103056   103065   103032   103002   102983   102965   102971 
  102994   102991   102953   102911   102898   102928   102984   103027 
  103032   103006   102975   102968   103006   103072   103131   103162 
  103164   103138   103096   103056   103033   103015   102968   102879 
  102791   102737   102720   102745   102817   102899   102964   103022 
  103079   103115   103130   103125   103092   103046   103010   102986 
  102959   102921   102890   102870   102874   102905   102929   102929 
  102930   102965   103042   103131   103187   103211   103212   103169 
  103086   103007   102961   102938   102930   102925   102918   102919 
  102936   102964   102996   103038   103072   103072   103038   102998 
  102967   102952   102953   102968   102979   102978   102975   102991 
  103026   103061   103075   103075   103084   103100   103106   103099 
  103073   103021   102969   102951   102942   102902   102838   102799 
  102816   102864   102906   102906   102880   102876   102921   102994 
  103065   103122   103153   103168   103169   103134   103073   103022 
  102986   102956   102930   102910   102906   102928   102982   103054 
  103110   103135   103135   103111   103065   103009   102942   102894 
  102909   102982   103045   103061   103061   103067   103063   103050 
  103042   103033   103018   102998   102984   102982   102983   102982 
  102983   102986   102982   102964   102942   102933   102942   102978 
  103015   103038   103057   103079   103088   103061   103007   102959 
  102926   102902   102884   102888   102919   102972   103029   103065 
  103063   103046   103042   103042   103041   103038   103029   103030 
  103049   103061   103054   103029   102987   102952   102940   102924 
  102888   102855   102845   102882   102953   103022   103057   103057 
  103033   103009   103013   103041   103063   103060   103027   102973 
  102932   102917   102926   102961   103011   103042   103036   103006 
  102976   102968   102988   103013   103038   103071   103086   103067 
  103030   103000   102987   102991   102998   102999   103005   103018 
  103010   102971   102956   103000   103046   103045   103005   102956 
  102936   102951   102978   102983   102969   102963   102963   102956 
  102949   102956   102979   103015   103042   103052   103056   103054 
  103037   103013   103006   103006   102996   102990   103011   103063 
  103106   103102   103048   102965   102894   102851   102821   102801 
  102811   102861   102928   102998   103056   103059   102992   102918 
  102903   102956   103029   103061   103040   103000   102983   103014 
  103069   103096   103095   103100   103106   103096   103077   103037 
  102982   102941   102921   102905   102891   102880   102874   102907 
  102991   103087   103154   103177   103153   103104   103054   103002 
  102957   102948   102960   102963   102936   102913   102938   103011 
  103063   103046   102979   102905   102853   102843   102875   102948 
  103052   103149   103189   103175   103141   103108   103067   102996 
  102928   102917   102959   102994   103006   103011   103017   103025 
  103027   103010   102976   102948   102937   102941   102951   102976 
  103029   103083   103119   103130   103110   103067   102998   102924 
  102888   102891   102906   102934   102976   103022   103060   103081 
  103081   103063   103033   102999   102961   102929   102918   102938 
  102995   103052   103061   103036   103011   102995   102994   103021 
  103049   103040   103003   102967   102955   102979   102999   102984 
  102967   102984   103025   103056   103069   103057   103018   102978 
  102953   102946   102941   102930   102933   102965   103010   103041 
  103059   103053   103017   102986   102994   103019   103023   102982 
  102914   102878   102902   102960   103006   103027   103034   103034 
  103026   103010   102980   102936   102894   102875   102887   102929 
  102991   103048   103081   103094   103094   103094   103084   103056 
  103005   102930   102867   102845   102848   102855   102875   102915 
  102955   102982   102987   102965   102937   102937   102973   103019 
  103040   103034   103029   103041   103073   103122   103154   103140 
  103092   103046   103007   102969   102946   102945   102944   102928 
  102905   102898   102903   102909   102922   102952   102988   103013 
  103026   103023   103017   103033   103069   103108   103133   103123 
  103077   103019   102979   102965   102975   102988   102994   103002 
  103029   103059   103045   102983   102915   102879   102876   102898 
  102924   102932   102932   102952   103005   103075   103144   103184 
  103171   103106   103033   102979   102941   102932   102951   102975 
  103007   103059   103087   103065   103021   102983   102964   102979 
  103018   103037   103019   102990   102969   102976   103017   103056 
  103061   103040   103009   102979   102942   102905   102887   102907 
  102963   103027   103061   103046   102996   102953   102930   102913 
  102882   102851   102857   102898   102941   102988   103053   103117 
  103150   103142   103110   103069   103032   103009   103002   102996 
  102979   102949   102929   102924   102913   102894   102898   102944 
  102999   103029   103026   103014   103022   103048   103053   103029 
  102998   102976   102988   103040   103084   103068   102998   102906 
  102832   102816   102876   102971   103023   103030   103037   103046 
  103032   102990   102953   102952   102968   102973   102979   103014 
  103067   103106   103110   103087   103059   103041   103027   103014 
  103006   102995   102976   102960   102949   102948   102957   102964 
  102973   102991   103009   103019   103019   102995   102957   102948 
  102982   103036   103064   103067   103077   103111   103146   103156 
  103130   103087   103045   103013   103003   103032   103076   103092 
  103052   102982   102917   102863   102826   102816   102832   102892 
  102976   103027   103036   103017   102998   103000   103026   103064 
  103104   103130   103125   103075   103002   102953   102952   102973 
  102994   102994   102968   102921   102890   102903   102940   102979 
  103018   103050   103069   103068   103049   103027   103019   103033 
  103053   103048   103000   102925   102856   102848   102909   102984 
  103025   103026   103003   102973   102960   102972   103002   103037 
  103075   103104   103103   103063   103009   102959   102914   102891 
  102895   102921   102951   102975   102999   103036   103060   103067 
  103060   103036   103006   102988   102971   102948   102926   102928 
  102983   103073   103127   103115   103064   102994   102932   102902 
  102909   102915   102902   102895   102906   102919   102942   102963 
  102961   102956   102961   102957   102956   102980   103017   103033 
  103023   103005   102976   102952   102956   102990   103018   103019 
  102998   102976   102965   102984   103050   103135   103177   103165 
  103125   103081   103042   103005   102983   102968   102940   102937 
  102984   103044   103084   103099   103088   103064   103030   102991 
  102940   102874   102801   102740   102722   102744   102755   102749 
  102764   102803   102857   102928   102999   103048   103065   103054 
  103044   103061   103096   103129   103171   103231   103275   103264 
  103202   103114   103011   102910   102849   102860   102928   103007 
  103059   103060   103034   103015   103007   102995   102973   102959 
  102973   103026   103098   103153   103164   103129   103073   103026 
  102980   102922   102872   102852   102848   102848   102867   102897 
  102922   102953   102998   103042   103080   103103   103095   103067 
  103038   103005   102976   102971   102996   103046   103108   103152 
  103157   103123   103067   103000   102936   102888   102852   102807 
  102767   102751   102751   102759   102770   102776   102805   102890 
  103019   103153   103245   103264   103229   103181   103133   103088 
  103060   103046   103026   102988   102956   102959   103009   103077 
  103099   103052   102980   102902   102824   102783   102805   102859 
  102897   102919   102972   103076   103185   103245   103245   103207 
  103172   103177   103192   103171   103152   103187   103261   103322 
  103322   103268   103199   103127   103053   102995   102969   102963 
  102937   102875   102811   102782   102783   102791   102794   102803 
  102828   102864   102918   102992   103057   103083   103067   103025 
  102973   102924   102852   102748   102643   102585   102595   102639 
  102678   102737   102860   102995   103068   103081   103067   103029 
  102969   102910   102875   102903   103023   103198   103361   103489 
  103570   103581   103520   103415   103307   103221   103126   102998 
  102875   102825   102867   102971   103081   103149   103175   103172 
  103123   103060   103026   103019   103032   103036   103007   102972 
  102945   102897   102833   102791   102782   102807   102882   102996 
  103103   103184   103252   103291   103276   103223   103145   103050 
  102991   102973   102953   102907   102856   102809   102756   102710 
  102713   102772   102852   102914   102949   102973   102998   102999 
  102982   102968   102956   102917   102883   102888   102911   102928 
  102915   102860   102820   102837   102864   102884   102903   102919 
  102940   102973   103018   103083   103160   103210   103222   103215 
  103199   103179   103179   103194   103192   103185   103195   103200 
  103184   103148   103095   103036   102984   102936   102879   102836 
  102816   102807   102818   102867   102946   103040   103108   103131 
  103130   103130   103131   103142   103137   103088   103005   102905 
  102809   102764   102784   102829   102852   102849   102849   102886 
  102968   103044   103065   103048   103019   102987   102953   102929 
  102925   102944   102968   102975   102968   102955   102938   102933 
  102934   102898   102814   102736   102709   102735   102791   102845 
  102890   102949   103027   103087   103090   103053   103027   103029 
  103046   103069   103073   103050   103026   103014   103009   103015 
  103038   103052   103036   103007   102980   102955   102948   102951 
  102937   102919   102902   102890   102895   102899   102891   102910 
  102979   103079   103191   103284   103320   103288   103210   103107 
  103003   102929   102892   102867   102852   102886   102951   103000 
  103027   103052   103092   103142   103149   103076   102971   102878 
  102801   102744   102724   102741   102789   102845   102890   102915 
  102949   103014   103088   103125   103094   103017   102948   102929 
  102957   103002   103032   103046   103061   103076   103075   103057 
  103017   102945   102880   102871   102898   102932   102969   102992 
  102988   102992   103023   103059   103099   103131   103108   103040 
  102984   102968   102982   103005   103006   102999   103013   103022 
  103005   102978   102948   102915   102898   102911   102945   102984 
  103027   103067   103084   103095   103114   103133   103137   103118 
  103080   103053   103064   103087   103091   103095   103104   103099 
  103090   103087   103056   102987   102907   102843   102799   102794 
  102829   102892   102959   103009   103027   103023   103023   103045 
  103092   103134   103119   103041   102952   102902   102910   102967 
  103033   103075   103098   103092   103042   102972   102924   102922 
  102961   103000   103005   102969   102914   102870   102865   102910 
  102972   103026   103073   103110   103107   103059   102992   102944 
  102928   102949   102992   103026   103041   103050   103063   103091 
  103144   103179   103156   103098   103054   103015   102967   102946 
  102990   103083   103179   103229   103219   103164   103075   102968 
  102863   102778   102733   102740   102787   102856   102921   102941 
  102918   102882   102826   102775   102779   102838   102926   103022 
  103096   103141   103148   103121   103088   103063   103019   102944 
  102872   102865   102944   103052   103126   103137   103100   103072 
  103072   103092   103111   103117   103113   103094   103032   102948 
  102906   102928   102979   103026   103067   103122   103189   103238 
  103250   103206   103092   102956   102861   102861   102942   103040 
  103113   103148   103127   103050   102944   102837   102744   102671 
  102635   102647   102720   102840   102946   103007   103038   103038 
  102990   102921   102864   102814   102763   102720   102694   102685 
  102708   102795   102922   103032   103118   103189   103239   103262 
  103261   103261   103273   103269   103248   103237   103241   103245 
  103227   103171   103088   102999   102918   102855   102816   102814 
  102859   102944   103044   103117   103126   103075   103003   102953 
  102933   102902   102832   102751   102714   102751   102855   102984 
  103090   103152   103173   103161   103119   103064   103011   102957 
  102917   102910   102932   102976   103040   103094   103127   103154 
  103168   103153   103129   103114   103099   103069   103022   102960 
  102902   102867   102863   102884   102909   102924   102942   102976 
  102992   102963   102906   102863   102861   102894   102928   102965 
  103023   103087   103114   103092   103046   102995   102960   102976 
  103046   103117   103145   103119   103037   102926   102837   102780 
  102749   102768   102830   102886   102929   102983   103045   103104 
  103164   103216   103241   103231   103191   103123   103045   102969 
  102897   102848   102849   102883   102936   103019   103115   103188 
  103215   103192   103138   103091   103053   103025   103029   103072 
  103117   103123   103091   103046   103002   102965   102948   102938 
  102926   102902   102861   102837   102845   102855   102848   102836 
  102843   102884   102944   102973   102945   102879   102828   102814 
  102817   102834   102886   102965   103052   103148   103261   103350 
  103364   103299   103175   103053   102984   102942   102891   102840 
  102802   102789   102816   102886   102968   103026   103049   103060 
  103098   103157   103188   103169   103123   103072   103015   102955 
  102907   102899   102918   102925   102921   102941   102992   103048 
  103079   103080   103054   103013   102982   102971   102983   103023 
  103084   103142   103177   103179   103149   103108   103075   103057 
  103059   103094   103144   103161   103138   103075   102979   102897 
  102856   102845   102832   102805   102787   102791   102811   102833 
