Origin Time       2025/03/30 22:55:00
Lat.              41.993
Long.             142.725
Depth. (km)       55
Mag.              4.6
Station Code      HDKH05
Station Lat.      42.5977
Station Long.     142.5446
Station Height(m) 305
Record Time       2025/03/30 22:56:23
Sampling Freq(Hz) 100Hz
Duration Time(s)  120
Dir.              6
Scale Factor      3920(gal)/6170801
Max. Acc. (gal)   0.252
Last Correction   2025/03/30 22:56:07
Memo.             
[...]
  -36641   -36614   -36560   -36482   -36402   -36362   -36356   -36354 
  -36352   -36367   -36407   -36472   -36546   -36582   -36543   -36471 
  -36432   -36440   -36487   -36544   -36551   -36492   -36421   -36404 
  -36472   -36566   -36578   -36488   -36389   -36367   -36402   -36435 
  -36458   -36463   -36435   -36411   -36419   -36435   -36478   -36558 
  -36598   -36555   -36494   -36484   -36513   -36538   -36536   -36493 
  -36424   -36396   -36439   -36483   -36429   -36307   -36247   -36281 
  -36333   -36380   -36439   -36479   -36487   -36498   -36516   -36531 
  -36560   -36595   -36602   -36589   -36580   -36559   -36502   -36433 
  -36384   -36348   -36308   -36274   -36266   -36308   -36395   -36476 
  -36532   -36587   -36628   -36620   -36596   -36598   -36612   -36608 
  -36586   -36569   -36576   -36579   -36528   -36430   -36340   -36293 
  -36275   -36280   -36329   -36407   -36489   -36556   -36574   -36550 
  -36524   -36512   -36521   -36526   -36489   -36433   -36398   -36373 
  -36354   -36380   -36450   -36478   -36434   -36427   -36519   -36594 
  -36552   -36449   -36394   -36429   -36471   -36431   -36375   -36405 
  -36491   -36557   -36562   -36503   -36426   -36402   -36443   -36481 
  -36455   -36393   -36362   -36371   -36399   -36404   -36343   -36286 
  -36367   -36528   -36589   -36543   -36491   -36482   -36534   -36586 
  -36563   -36517   -36506   -36494   -36471   -36475   -36500   -36508 
  -36472   -36397   -36350   -36420   -36533   -36516   -36387   -36334 
  -36411   -36497   -36503   -36462   -36456   -36513   -36578   -36599 
  -36597   -36599   -36578   -36500   -36385   -36310   -36326   -36373 
  -36372   -36349   -36364   -36416   -36474   -36539   -36619   -36662 
  -36612   -36515   -36453   -36424   -36368   -36251   -36142   -36165 
  -36304   -36448   -36557   -36647   -36699   -36667   -36569   -36470 
  -36339   -36205   -36217   -36368   -36512   -36598   -36610   -36531 
  -36465   -36498   -36558   -36586   -36585   -36540   -36455   -36345 
  -36233   -36230   -36373   -36524   -36564   -36540   -36548   -36552 
  -36480   -36403   -36391   -36412   -36466   -36543   -36587   -36584 
  -36542   -36494   -36496   -36504   -36463   -36406   -36347   -36341 
  -36447   -36550   -36524   -36432   -36402   -36424   -36434   -36466 
  -36521   -36537   -36525   -36536   -36537   -36487   -36438   -36441 
  -36456   -36427   -36368   -36360   -36436   -36540   -36606   -36573 
  -36461   -36401   -36428   -36461   -36460   -36402   -36348   -36399 
  -36487   -36485   -36419   -36393   -36451   -36512   -36480   -36406 
  -36392   -36468   -36575   -36584   -36508   -36492   -36510   -36470 
  -36435   -36428   -36367   -36300   -36343   -36476   -36612   -36694 
  -36656   -36493   -36402   -36478   -36493   -36374   -36340   -36430 
  -36467   -36414   -36391   -36452   -36538   -36563   -36491   -36374 
  -36348   -36486   -36605   -36576   -36546   -36548   -36508   -36464 
  -36422   -36361   -36300   -36262   -36250   -36296   -36458   -36613 
  -36610   -36555   -36547   -36513   -36448   -36405   -36355   -36316 
  -36355   -36412   -36466   -36577   -36662   -36634   -36582   -36535 
  -36447   -36423   -36464   -36374   -36254   -36342   -36472   -36457 
  -36450   -36518   -36525   -36468   -36447   -36417   -36372   -36487 
  -36663   -36596   -36434   -36460   -36545   -36504   -36386   -36321 
  -36369   -36493   -36587   -36564   -36506   -36544   -36590   -36496 
  -36325   -36238   -36298   -36420   -36482   -36460   -36434   -36512 
  -36631   -36635   -36581   -36558   -36466   -36313   -36246   -36272 
  -36355   -36494   -36573   -36529   -36499   -36537   -36537   -36447 
  -36362   -36349   -36343   -36362   -36443   -36527   -36620   -36751 
  -36835   -36742   -36510   -36334   -36290   -36283   -36242   -36238 
  -36369   -36530   -36543   -36446   -36385   -36388   -36438   -36515 
  -36517   -36462   -36511   -36616   -36562   -36377   -36295   -36339 
  -36390   -36449   -36496   -36471   -36422   -36436   -36540   -36626 
  -36562   -36434   -36376   -36344   -36340   -36441   -36566   -36621 
  -36666   -36710   -36644   -36524   -36492   -36437   -36265   -36188 
  -36295   -36398   -36450   -36544   -36637   -36649   -36615   -36564 
  -36458   -36380   -36433   -36520   -36495   -36366   -36303   -36345 
  -36364   -36442   -36635   -36704   -36564   -36442   -36439   -36463 
  -36484   -36507   -36460   -36389   -36440   -36496   -36384   -36270 
  -36290   -36343   -36436   -36585   -36666   -36646   -36572   -36479 
  -36467   -36500   -36408   -36286   -36289   -36319   -36308   -36263 
  -36203   -36260   -36439   -36572   -36642   -36719   -36761   -36698 
  -36544   -36403   -36339   -36334   -36366   -36448   -36576   -36658 
  -36616   -36494   -36342   -36253   -36333   -36478   -36530   -36487 
  -36432   -36486   -36594   -36522   -36317   -36230   -36303   -36485 
  -36679   -36723   -36619   -36552   -36583   -36569   -36442   -36313 
  -36268   -36303   -36400   -36482   -36486   -36484   -36530   -36586 
  -36632   -36617   -36492   -36334   -36243   -36227   -36233   -36249 
  -36357   -36515   -36546   -36523   -36622   -36683   -36541   -36407 
  -36449   -36516   -36503   -36451   -36399   -36412   -36486   -36506 
  -36420   -36318   -36335   -36458   -36525   -36473   -36395   -36374 
  -36445   -36585   -36695   -36658   -36491   -36373   -36392   -36409 
  -36347   -36300   -36338   -36439   -36532   -36569   -36589   -36637 
  -36650   -36591   -36559   -36573   -36536   -36447   -36391   -36390 
  -36412   -36460   -36481   -36438   -36433   -36438   -36317   -36216 
  -36307   -36428   -36470   -36543   -36621   -36618   -36595   -36589 
  -36534   -36432   -36415   -36480   -36482   -36492   -36604   -36650 
  -36541   -36454   -36422   -36326   -36243   -36229   -36206   -36228 
  -36342   -36459   -36516   -36526   -36535   -36553   -36549   -36478 
  -36389   -36429   -36516   -36487   -36470   -36513   -36478   -36459 
  -36541   -36598   -36602   -36607   -36587   -36497   -36371   -36309 
  -36345   -36417   -36494   -36539   -36477   -36357   -36302   -36328 
  -36375   -36412   -36470   -36534   -36548   -36583   -36638   -36549 
  -36387   -36359   -36418   -36419   -36354   -36330   -36407   -36492 
  -36498   -36501   -36550   -36576   -36547   -36494   -36449   -36458 
  -36504   -36498   -36449   -36455   -36500   -36501   -36462   -36424 
  -36408   -36424   -36432   -36375   -36313   -36361   -36537   -36655 
  -36530   -36352   -36406   -36595   -36626   -36441   -36298   -36340 
  -36438   -36511   -36519   -36438   -36408   -36517   -36619   -36577 
  -36464   -36414   -36453   -36555   -36622   -36542   -36430   -36479 
  -36600   -36554   -36363   -36253   -36254   -36228   -36186   -36225 
  -36342   -36510   -36647   -36646   -36591   -36613   -36658   -36612 
  -36473   -36372   -36403   -36461   -36453   -36460   -36497   -36520 
  -36526   -36463   -36444   -36584   -36644   -36512   -36404   -36363 
  -36332   -36341   -36339   -36316   -36356   -36440   -36476   -36434 
  -36392   -36413   -36468   -36485   -36460   -36508   -36630   -36667 
  -36622   -36577   -36527   -36467   -36388   -36297   -36292   -36396 
  -36463   -36449   -36491   -36592   -36640   -36636   -36574   -36426 
  -36318   -36381   -36495   -36499   -36456   -36469   -36540   -36600 
  -36560   -36485   -36447   -36385   -36301   -36242   -36245   -36369 
  -36526   -36608   -36670   -36700   -36625   -36517   -36420   -36292 
  -36195   -36227   -36352   -36464   -36525   -36551   -36545   -36531 
  -36520   -36446   -36308   -36243   -36320   -36404   -36423   -36487 
  -36607   -36665   -36651   -36630   -36548   -36358   -36265   -36380 
  -36474   -36458   -36481   -36531   -36497   -36417   -36370   -36361 
  -36394   -36474   -36574   -36658   -36646   -36501   -36373   -36358 
  -36357   -36351   -36384   -36397   -36420   -36543   -36626   -36535 
  -36426   -36396   -36367   -36391   -36529   -36646   -36605   -36477 
  -36418   -36445   -36473   -36501   -36559   -36579   -36512   -36437 
  -36429   -36461   -36480   -36483   -36490   -36483   -36468   -36444 
  -36359   -36268   -36275   -36327   -36397   -36547   -36684   -36673 
  -36556   -36441   -36385   -36435   -36533   -36503   -36397   -36404 
  -36468   -36459   -36425   -36426   -36472   -36563   -36666   -36662 
  -36472   -36316   -36337   -36318   -36245   -36277   -36346   -36462 
  -36656   -36687   -36531   -36453   -36452   -36398   -36382   -36477 
  -36606   -36692   -36688   -36588   -36428   -36313   -36316   -36340 
  -36332   -36374   -36466   -36529   -36538   -36506   -36452   -36410 
  -36405   -36406   -36385   -36359   -36331   -36336   -36455   -36598 
  -36609   -36555   -36562   -36607   -36638   -36622   -36531   -36464 
  -36538   -36588   -36459   -36310   -36272   -36344   -36487   -36556 
  -36521   -36480   -36437   -36388   -36352   -36299   -36233   -36244 
  -36341   -36434   -36542   -36646   -36594   -36437   -36375   -36424 
  -36477   -36485   -36484   -36491   -36481   -36472   -36511   -36606 
  -36702   -36680   -36527   -36399   -36366   -36351   -36318   -36291 
  -36342   -36557   -36800   -36795   -36563   -36409   -36457   -36538 
  -36470   -36294   -36217   -36298   -36408   -36476   -36471   -36390 
  -36361   -36449   -36522   -36467   -36384   -36399   -36441   -36446 
  -36460   -36460   -36461   -36568   -36734   -36769   -36652   -36554 
  -36526   -36505   -36480   -36423   -36337   -36314   -36320   -36281 
  -36279   -36318   -36364   -36484   -36564   -36501   -36468   -36542 
  -36567   -36466   -36320   -36244   -36280   -36387   -36517   -36634 
  -36690   -36668   -36621   -36603   -36584   -36470   -36305   -36234 
  -36282   -36401   -36525   -36569   -36517   -36399   -36313   -36328 
  -36372   -36403   -36423   -36398   -36359   -36399   -36509   -36565 
  -36542   -36550   -36579   -36530   -36456   -36438   -36427   -36392 
  -36400   -36452   -36476   -36470   -36489   -36539   -36561   -36493 
  -36378   -36344   -36411   -36457   -36450   -36443   -36433   -36475 
  -36574   -36595   -36510   -36422   -36425   -36514   -36552   -36465 
  -36324   -36229   -36300   -36495   -36572   -36474   -36391   -36445 
  -36596   -36660   -36545   -36402   -36364   -36422   -36513   -36538 
  -36506   -36495   -36476   -36473   -36550   -36626   -36618   -36537 
  -36436   -36411   -36470   -36507   -36480   -36424   -36404   -36466 
  -36509   -36443   -36359   -36346   -36428   -36563   -36579   -36474 
  -36441   -36464   -36429   -36400   -36431   -36461   -36468   -36452 
  -36379   -36338   -36439   -36529   -36456   -36380   -36456   -36548 
  -36477   -36347   -36337   -36373   -36343   -36337   -36415   -36497 
  -36521   -36504   -36489   -36500   -36535   -36576   -36589   -36571 
  -36583   -36653   -36650   -36527   -36437   -36431   -36457   -36506 
  -36557   -36525   -36389   -36320   -36374   -36394   -36409   -36544 
  -36718   -36817   -36836   -36760   -36584   -36408   -36334   -36340 
  -36344   -36327   -36305   -36312   -36361   -36425   -36491   -36537 
  -36574   -36636   -36687   -36683   -36632   -36566   -36487   -36409 
  -36375   -36332   -36258   -36249   -36324   -36438   -36556   -36619 
  -36624   -36621   -36603   -36521   -36362   -36195   -36156   -36266 
  -36371   -36363   -36335   -36460   -36672   -36710   -36536   -36381 
  -36401   -36521   -36598   -36591   -36546   -36484   -36398   -36316 
  -36306   -36374   -36426   -36393   -36293   -36252   -36359   -36470 
  -36477   -36499   -36556   -36529   -36458   -36458   -36502   -36490 
  -36431   -36386   -36394   -36487   -36585   -36551   -36426   -36360 
  -36398   -36491   -36545   -36484   -36385   -36367   -36395   -36420 
  -36474   -36509   -36454   -36415   -36464   -36479   -36427   -36403 
  -36432   -36465   -36464   -36453   -36472   -36494   -36490   -36486 
  -36485   -36435   -36390   -36453   -36554   -36587   -36559   -36526 
  -36507   -36464   -36381   -36313   -36347   -36505   -36641   -36623 
  -36495   -36409   -36487   -36610   -36586   -36532   -36585   -36584 
  -36461   -36353   -36336   -36373   -36417   -36476   -36508   -36484 
  -36496   -36503   -36404   -36286   -36243   -36287   -36399   -36474 
  -36457   -36405   -36382   -36442   -36535   -36521   -36443   -36461 
  -36536   -36526   -36422   -36308   -36271   -36382   -36519   -36469 
  -36323   -36326   -36447   -36510   -36498   -36472   -36453   -36430 
  -36367   -36304   -36368   -36558   -36697   -36706   -36692   -36681 
  -36607   -36485   -36350   -36240   -36202   -36199   -36222   -36332 
  -36497   -36627   -36675   -36644   -36583   -36521   -36447   -36370 
  -36341   -36390   -36441   -36416   -36390   -36415   -36456   -36533 
  -36612   -36578   -36476   -36472   -36578   -36637   -36572   -36514 
  -36552   -36553   -36476   -36425   -36399   -36391   -36443   -36459 
  -36389   -36388   -36462   -36476   -36454   -36405   -36322   -36346 
  -36491   -36592   -36643   -36692   -36661   -36537   -36405   -36300 
  -36234   -36256   -36388   -36532   -36628   -36716   -36755   -36684 
  -36568   -36469   -36394   -36342   -36317   -36357   -36446   -36521 
  -36581   -36560   -36412   -36333   -36412   -36435   -36350   -36357 
  -36491   -36576   -36540   -36474   -36460   -36521   -36624   -36641 
  -36516   -36415   -36439   -36492   -36550   -36616   -36617   -36559 
  -36486   -36440   -36461   -36452   -36353   -36254   -36155   -36068 
  -36141   -36338   -36486   -36587   -36652   -36611   -36519   -36446 
  -36399   -36362   -36308   -36299   -36366   -36379   -36346   -36416 
  -36528   -36532   -36453   -36381   -36344   -36340   -36349   -36337 
  -36326   -36347   -36391   -36422   -36416   -36418   -36454   -36467 
  -36469   -36495   -36522   -36550   -36571   -36549   -36515   -36517 
  -36560   -36626   -36677   -36671   -36607   -36563   -36593   -36615 
  -36582   -36563   -36564   -36557   -36580   -36597   -36535   -36474 
  -36490   -36524   -36551   -36600   -36621   -36515   -36372   -36372 
  -36463   -36491   -36445   -36394   -36386   -36459   -36556   -36565 
  -36496   -36424   -36386   -36383   -36377   -36361   -36358   -36368 
  -36353   -36310   -36304   -36360   -36405   -36371   -36302   -36306 
  -36387   -36483   -36572   -36612   -36596   -36582   -36562   -36440 
  -36251   -36188   -36299   -36459   -36573   -36598   -36572   -36589 
  -36601   -36533   -36461   -36429   -36387   -36366   -36386   -36384 
  -36376   -36435   -36494   -36491   -36525   -36599   -36614   -36609 
  -36581   -36456   -36306   -36228   -36252   -36380   -36528   -36571 
  -36488   -36379   -36367   -36438   -36461   -36450   -36481   -36503 
  -36528   -36598   -36587   -36496   -36489   -36521   -36480   -36418 
  -36376   -36344   -36325   -36323   -36352   -36406   -36431   -36433 
  -36444   -36439   -36416   -36432   -36496   -36544   -36514   -36451 
  -36472   -36591   -36700   -36731   -36679   -36578   -36522   -36537 
  -36484   -36328   -36252   -36314   -36376   -36392   -36389   -36368 
  -36383   -36473   -36578   -36627   -36636   -36653   -36685   -36679 
  -36588   -36488   -36469   -36514   -36531   -36457   -36350   -36286 
  -36286   -36348   -36421   -36471   -36503   -36478   -36439   -36508 
  -36659   -36752   -36736   -36655   -36577   -36523   -36481   -36446 
  -36422   -36449   -36495   -36419   -36257   -36211   -36296   -36361 
  -36342   -36295   -36310   -36402   -36465   -36409   -36325   -36374 
  -36512   -36556   -36468   -36370   -36335   -36354   -36409   -36440 
  -36415   -36441   -36538   -36553   -36442   -36324   -36284   -36281 
  -36259   -36246   -36249   -36279   -36379   -36492   -36526   -36505 
  -36511   -36595   -36701   -36705   -36625   -36611   -36658   -36666 
  -36671   -36717   -36729   -36663   -36579   -36487   -36334   -36209 
  -36243   -36361   -36461   -36557   -36570   -36444   -36351   -36383 
  -36414   -36432   -36479   -36484   -36454   -36494   -36587   -36623 
  -36565   -36468   -36401   -36390   -36409   -36415   -36379   -36370 
  -36442   -36475   -36419   -36408   -36455   -36455   -36420   -36393 
  -36370   -36395   -36467   -36507   -36494   -36458   -36455   -36521 
  -36603   -36644   -36635   -36605   -36603   -36577   -36482   -36429 
  -36501   -36621   -36672   -36598   -36466   -36400   -36410   -36424 
  -36435   -36485   -36544   -36555   -36515   -36449   -36392   -36376 
  -36386   -36414   -36460   -36475   -36417   -36328   -36291   -36345 
  -36425   -36421   -36332   -36280   -36320   -36377   -36405   -36434 
  -36456   -36477   -36539   -36582   -36517   -36388   -36292   -36266 
  -36301   -36381   -36496   -36620   -36727   -36776   -36711   -36544 
  -36367   -36261   -36259   -36350   -36468   -36503   -36456   -36424 
  -36421   -36437   -36444   -36382   -36330   -36409   -36537   -36584 
  -36541   -36468   -36411   -36382   -36383   -36400   -36423   -36470 
  -36501   -36480   -36473   -36546   -36647   -36668   -36623   -36606 
  -36608   -36571   -36481   -36368   -36317   -36360   -36440   -36507 
  -36539   -36520   -36492   -36480   -36427   -36344   -36351   -36463 
  -36590   -36658   -36632   -36570   -36558   -36562   -36544   -36510 
  -36450   -36383   -36338   -36317   -36347   -36419   -36453   -36414 
  -36373   -36373   -36397   -36460   -36556   -36627   -36623   -36595 
  -36608   -36606   -36537   -36443   -36348   -36272   -36269   -36341 
  -36407   -36414   -36413   -36461   -36501   -36449   -36367   -36387 
  -36482   -36540   -36543   -36478   -36362   -36313   -36377   -36453 
  -36469   -36466   -36477   -36462   -36400   -36344   -36363   -36441 
  -36508   -36535   -36513   -36457   -36464   -36560   -36611   -36555 
  -36454   -36347   -36283   -36297   -36342   -36384   -36424   -36446 
  -36481   -36566   -36672   -36738   -36722   -36660   -36603   -36540 
  -36463   -36393   -36338   -36315   -36333   -36366   -36388   -36410 
  -36468   -36545   -36587   -36578   -36538   -36461   -36377   -36367 
  -36404   -36391   -36377   -36453   -36553   -36619   -36693   -36745 
  -36675   -36502   -36377   -36383   -36415   -36391   -36365   -36356 
  -36383   -36476   -36551   -36514   -36419   -36386   -36412   -36396 
  -36352   -36383   -36458   -36474   -36428   -36389   -36393   -36416 
  -36439   -36473   -36503   -36482   -36429   -36419   -36453   -36463 
  -36450   -36465   -36498   -36528   -36562   -36562   -36488   -36399 
  -36385   -36421   -36429   -36430   -36488   -36549   -36551   -36554 
  -36578   -36554   -36494   -36441   -36399   -36421   -36498   -36518 
  -36462   -36410   -36390   -36413   -36456   -36443   -36405   -36450 
  -36516   -36519   -36516   -36499   -36394   -36300   -36339   -36427 
  -36461   -36486   -36511   -36485   -36465   -36494   -36486   -36421 
  -36410   -36439   -36413   -36386   -36415   -36407   -36350   -36340 
  -36380   -36433   -36493   -36514   -36476   -36461   -36500   -36519 
  -36503   -36511   -36531   -36505   -36461   -36446   -36455   -36493 
  -36552   -36570   -36517   -36467   -36468   -36495   -36555   -36644 
  -36669   -36598   -36518   -36477   -36449   -36412   -36377   -36402 
  -36486   -36527   -36506   -36480   -36458   -36455   -36468   -36405 
