Origin Time       2025/03/30 22:55:00
Lat.              41.993
Long.             142.725
Depth. (km)       55
Mag.              4.6
Station Code      HDKH07
Station Lat.      42.1330
Station Long.     142.9164
Station Height(m) 40
Record Time       2025/03/30 22:56:07
Sampling Freq(Hz) 100Hz
Duration Time(s)  120
Dir.              6
Scale Factor      7845(gal)/8223790
Max. Acc. (gal)   2.071
Last Correction   2025/03/30 22:56:07
Memo.             
[...]
    6172     6172     6173     6170     6168     6172     6172     6170 
    6169     6166     6169     6169     6166     6169     6173     6172 
    6169     6166     6169     6172     6166     6166     6172     6169 
    6166     6168     6168     6168     6168     6168     6168     6166 
    6169     6170     6168     6166     6166     6168     6170     6168 
    6168     6172     6169     6168     6169     6168     6169     6169 
    6168     6170     6170     6170     6169     6166     6166     6170 
    6170     6170     6169     6166     6170     6169     6168     6170 
    6169     6169     6170     6168     6169     6172     6169     6168 
    6166     6166     6170     6169     6166     6166     6170     6170 
    6168     6169     6173     6172     6170     6170     6169     6170 
    6172     6169     6168     6168     6168     6170     6169     6168 
    6173     6172     6168     6169     6170     6170     6170     6168 
    6169     6172     6172     6169     6168     6172     6176     6170 
    6168     6169     6172     6172     6169     6166     6166     6168 
    6173     6173     6166     6169     6173     6169     6168     6169 
    6169     6170     6172     6172     6172     6169     6173     6172 
    6166     6170     6172     6168     6168     6170     6172     6172 
    6170     6170     6170     6169     6170     6169     6168     6172 
    6173     6170     6169     6169     6172     6172     6168     6170 
    6173     6172     6172     6172     6172     6172     6169     6168 
    6170     6172     6172     6170     6168     6170     6173     6172 
    6170     6170     6172     6170     6168     6169     6169     6169 
    6170     6168     6166     6170     6169     6166     6169     6169 
    6170     6172     6168     6168     6170     6172     6172     6169 
    6169     6170     6170     6170     6170     6169     6173     6174 
    6170     6169     6169     6170     6170     6169     6172     6172 
    6169     6170     6170     6170     6169     6168     6166     6168 
    6170     6174     6172     6169     6173     6173     6169     6169 
    6170     6169     6166     6166     6170     6170     6168     6170 
    6170     6169     6172     6169     6168     6170     6170     6172 
    6172     6166     6166     6169     6172     6172     6166     6166 
    6170     6170     6169     6168     6166     6170     6172     6170 
    6170     6168     6169     6170     6168     6169     6172     6170 
    6168     6165     6169     6173     6169     6166     6169     6170 
    6173     6173     6169     6172     6170     6168     6172     6172 
    6168     6169     6169     6166     6172     6173     6170     6169 
    6172     6173     6169     6166     6169     6168     6166     6168 
    6166     6168     6170     6169     6168     6166     6168     6170 
    6170     6169     6168     6169     6173     6172     6169     6170 
    6170     6170     6168     6165     6169     6170     6168     6169 
    6169     6168     6169     6169     6169     6170     6169     6170 
    6172     6169     6172     6170     6166     6168     6168     6169 
    6170     6166     6166     6172     6170     6169     6170     6169 
    6170     6168     6165     6170     6172     6170     6168     6166 
    6169     6172     6168     6168     6169     6170     6170     6168 
    6166     6168     6169     6170     6170     6168     6166     6168 
    6169     6168     6168     6170     6170     6166     6166     6168 
    6169     6170     6165     6165     6172     6173     6170     6168 
    6166     6169     6172     6169     6166     6168     6169     6169 
    6166     6168     6169     6168     6168     6168     6168     6172 
    6170     6168     6172     6169     6168     6169     6166     6170 
    6173     6168     6169     6169     6168     6172     6170     6166 
    6170     6172     6172     6172     6168     6169     6170     6169 
    6168     6168     6169     6169     6168     6168     6169     6166 
    6168     6166     6166     6172     6172     6168     6169     6169 
    6170     6173     6169     6165     6169     6173     6172     6168 
    6169     6172     6170     6169     6169     6169     6170     6169 
    6168     6172     6172     6172     6173     6169     6169     6173 
    6172     6169     6166     6169     6174     6173     6172     6172 
    6170     6172     6172     6168     6169     6173     6173     6170 
    6169     6170     6172     6170     6172     6173     6172     6172 
    6169     6168     6172     6170     6170     6170     6168     6173 
    6173     6168     6170     6174     6172     6170     6169     6168 
    6172     6172     6170     6173     6172     6170     6170     6169 
    6170     6172     6170     6170     6170     6170     6170     6168 
    6168     6172     6172     6172     6166     6165     6173     6174 
    6169     6168     6169     6170     6170     6169     6170     6170 
    6168     6170     6170     6170     6172     6170     6170     6170 
    6170     6173     6172     6166     6169     6172     6170     6169 
    6169     6170     6172     6172     6172     6169     6169     6172 
    6170     6169     6169     6169     6172     6169     6166     6170 
    6173     6170     6169     6169     6170     6170     6170     6170 
    6170     6172     6173     6169     6166     6170     6170     6168 
    6170     6172     6172     6172     6170     6172     6170     6170 
    6173     6170     6168     6172     6170     6168     6168     6169 
    6173     6173     6169     6172     6173     6173     6170     6168 
    6168     6172     6172     6170     6170     6170     6172     6172 
    6169     6172     6173     6174     6172     6166     6169     6172 
    6169     6170     6172     6172     6172     6168     6168     6173 
    6172     6169     6169     6168     6170     6172     6168     6168 
    6169     6170     6170     6165     6168     6170     6169     6169 
    6168     6169     6173     6170     6166     6169     6172     6170 
    6169     6168     6169     6170     6170     6170     6169     6169 
    6170     6172     6170     6166     6166     6173     6170     6168 
    6169     6169     6168     6168     6166     6170     6172     6166 
    6168     6170     6169     6168     6168     6169     6170     6172 
    6172     6166     6164     6170     6172     6166     6166     6169 
    6170     6170     6168     6168     6170     6172     6172     6168 
    6166     6172     6172     6169     6169     6168     6170     6170 
    6169     6170     6170     6168     6166     6168     6170     6170 
    6166     6170     6170     6169     6172     6168     6166     6173 
    6172     6166     6168     6168     6168     6169     6169     6169 
    6170     6172     6170     6166     6169     6173     6170     6166 
    6166     6168     6170     6168     6165     6170     6173     6170 
    6170     6169     6166     6168     6170     6169     6168     6169 
    6170     6166     6168     6173     6172     6172     6172     6168 
    6169     6170     6170     6170     6168     6166     6168     6168 
    6170     6173     6172     6170     6168     6169     6173     6170 
    6168     6169     6168     6169     6170     6169     6169     6170 
    6172     6173     6169     6170     6173     6170     6169     6170 
    6170     6172     6172     6172     6172     6170     6169     6170 
    6169     6170     6172     6170     6170     6172     6170     6169 
    6168     6168     6172     6173     6172     6170     6170     6173 
    6173     6166     6168     6172     6173     6172     6169     6173 
    6176     6173     6169     6168     6168     6172     6169     6165 
    6170     6172     6172     6173     6168     6166     6173     6173 
    6169     6168     6170     6173     6170     6169     6169     6168 
    6170     6172     6169     6170     6170     6169     6172     6170 
    6169     6170     6168     6166     6169     6170     6170     6169 
    6169     6172     6170     6170     6170     6168     6168     6170 
    6169     6169     6169     6168     6170     6169     6168     6173 
    6172     6168     6166     6166     6170     6169     6165     6168 
    6169     6168     6172     6172     6169     6169     6169     6169 
    6168     6168     6169     6166     6166     6170     6170     6170 
    6169     6166     6168     6169     6169     6168     6168     6170 
    6170     6166     6168     6169     6166     6168     6165     6166 
    6172     6169     6166     6169     6166     6168     6172     6166 
    6164     6168     6169     6170     6169     6166     6168     6168 
    6166     6169     6166     6165     6168     6166     6168     6170 
    6170     6168     6166     6169     6172     6170     6169     6168 
    6169     6170     6168     6169     6170     6169     6170     6170 
    6169     6170     6169     6166     6169     6169     6169     6172 
    6170     6168     6168     6169     6172     6170     6168     6169 
    6169     6170     6170     6166     6169     6172     6168     6168 
    6172     6170     6169     6169     6170     6169     6166     6168 
    6168     6168     6170     6170     6166     6168     6170     6172 
    6172     6168     6166     6169     6169     6169     6169     6166 
    6169     6170     6168     6169     6169     6166     6168     6168 
    6169     6169     6165     6168     6170     6170     6170     6169 
    6168     6170     6170     6169     6170     6170     6170     6168 
    6169     6172     6169     6169     6170     6166     6166     6170 
    6169     6170     6170     6169     6170     6169     6168     6172 
    6172     6172     6173     6170     6172     6173     6168     6168 
    6170     6170     6173     6172     6169     6170     6170     6172 
    6170     6169     6170     6172     6173     6170     6166     6169 
    6170     6170     6174     6172     6165     6170     6174     6172 
    6172     6169     6169     6172     6172     6172     6170     6169 
    6172     6172     6169     6172     6172     6169     6169     6169 
    6170     6170     6168     6169     6170     6170     6172     6170 
    6170     6170     6170     6173     6172     6169     6170     6170 
    6168     6169     6170     6173     6172     6169     6170     6170 
    6169     6170     6172     6172     6172     6169     6170     6172 
    6169     6170     6172     6168     6169     6172     6173     6172 
    6166     6166     6169     6169     6173     6173     6169     6170 
    6170     6172     6174     6170     6170     6170     6168     6170 
    6174     6170     6168     6169     6172     6174     6170     6168 
    6170     6172     6170     6169     6170     6172     6168     6168 
    6173     6172     6168     6168     6169     6173     6172     6166 
    6168     6172     6172     6172     6166     6165     6168     6168 
    6169     6172     6172     6172     6170     6168     6169     6170 
    6172     6170     6166     6168     6173     6172     6172     6170 
    6169     6170     6168     6168     6170     6169     6169     6169 
    6166     6169     6170     6169     6170     6169     6168     6170 
    6172     6170     6168     6168     6169     6169     6168     6169 
    6170     6172     6169     6169     6170     6172     6168     6169 
    6169     6169     6170     6168     6165     6169     6170     6170 
    6170     6166     6169     6172     6166     6165     6169     6170 
    6170     6169     6168     6166     6168     6172     6169     6166 
    6170     6169     6169     6170     6170     6170     6169     6166 
    6169     6172     6169     6168     6166     6166     6170     6170 
    6168     6168     6168     6169     6172     6169     6168     6170 
    6168     6166     6169     6172     6170     6166     6168     6173 
    6172     6168     6165     6169     6169     6165     6166     6170 
    6169     6172     6172     6166     6166     6169     6170     6173 
    6170     6168     6166     6168     6172     6169     6169     6173 
    6170     6165     6169     6170     6170     6168     6165     6168 
    6170     6168     6168     6169     6170     6172     6170     6169 
    6169     6169     6170     6172     6173     6172     6169     6166 
    6166     6168     6172     6172     6166     6168     6172     6173 
    6172     6168     6169     6174     6170     6168     6168     6168 
    6170     6170     6168     6170     6170     6170     6172     6166 
    6165     6172     6173     6169     6169     6170     6172     6173 
    6172     6169     6169     6170     6173     6170     6168     6170 
    6169     6168     6169     6172     6172     6170     6169     6169 
    6166     6169     6173     6168     6168     6172     6170     6170 
    6168     6169     6173     6172     6169     6172     6170     6168 
    6169     6170     6173     6170     6169     6169     6169     6173 
    6177     6177     6187     6200     6216     6245     6286     6336 
    6392     6434     6448     6431     6381     6311     6245     6208 
    6218     6277     6382     6505     6597     6633     6616     6548 
    6438     6239     5913     5562     5381     5490     5827     6223 
    6547     6766     6794     6442     5683     4819     4303     4453 
    5236     6204     6876     7167     7238     7119     6648     5751 
    4735     4182     4396     5151     6054     6906     7578     7960 
    8071     7796     6895     5643     4773     4642     5015     5533 
    6045     6642     7398     8108     8341     7765     6543     5336 
    4638     4401     4369     4502     5000     5960     6970     7345 
    6961     6434     6184     5973     5526     4985     4885     5590 
    6604     7177     7257     6995     6401     5879     5819     5933 
    5849     5761     5984     6419     6820     7095     7078     6590 
    5848     5301     5260     5836     6774     7484     7641     7252 
    6224     4919     4414     5043     5802     6064     6347     6886 
    7172     6986     6439     5594     4876     4764     5053     5464 
    6150     6894     7080     6633     6088     5826     5791     5884 
    6251     6930     7406     7034     6010     5317     5603     6561 
    7434     7600     6974     6218     5962     5956     5663     5211 
    5209     5922     6875     7304     6890     6084     5516     5105 
    4575     4530     5651     7257     7928     7311     6430     6112 
    6069     5935     5914     6061     6102     5967     5809     5888 
    6403     7057     7287     6872     6084     5456     5362     5779 
    6473     6914     6492     5494     5051     5587     6396     6786 
    6731     6582     6551     6382     5881     5421     5408     5722 
    5944     5840     5664     5826     6241     6475     6447     6454 
    6671     6825     6556     6079     5926     6161     6430     6639 
    6949     7156     6876     6282     5790     5485     5458     5751 
    6054     6216     6334     6255     5887     5514     5447     5759 
    6243     6536     6562     6496     6385     6322     6378     6232 
    5815     5726     6134     6524     6674     6579     6184     5875 
    5919     5745     5147     4984     5713     6644     7106     7121 
    6844     6440     6264     6378     6430     6239     5863     5448 
    5378     5891     6561     6754     6407     5914     5575     5528 
    5798     6276     6748     6912     6627     6116     5759     5814 
    6156     6328     6253     6278     6463     6561     6521     6471 
    6419     6210     5756     5231     5046     5564     6573     7275 
    7226     6771     6347     5983     5582     5335     5510     5985 
    6482     6876     6984     6754     6463     6268     6029     5614 
    5236     5350     5950     6511     6694     6535     6165     5790 
    5647     5786     5991     6064     6076     6168     6265     6292 
    6343     6439     6451     6286     5985     5741     5771     6149 
    6631     6774     6543     6293     6058     5742     5602     5807 
    6099     6065     5746     5730     6062     6181     6293     6812 
    7123     6729     6174     5849     5559     5530     6126     6852 
    6982     6540     6106     6122     6386     6392     6088     5765 
    5593     5736     6284     6802     6714     6228     6014     6124 
    6130     5910     5764     5957     6270     6259     5881     5470 
    5310     5509     5956     6334     6404     6316     6300     6300 
    6299     6408     6489     6378     6211     6293     6740     7083 
    6758     5994     5427     5377     5833     6403     6652     6659 
    6585     6277     5776     5494     5629     5983     6347     6581 
    6577     6480     6534     6625     6471     6126     5844     5751 
    5856     6075     6249     6336     6399     6346     5994     5509 
    5321     5516     5850     6216     6520     6509     6251     6258 
    6651     6856     6507     5962     5718     5881     6276     6674 
    6913     6856     6505     6081     5764     5632     5733     5949 
    6034     5864     5572     5532     5956     6531     6763     6612 
    6332     5946     5502     5331     5571     6039     6475     6577 
    6276     5946     5950     6276     6683     6872     6670     6312 
    6164     6249     6359     6358     6223     6099     6265     6687 
    6901     6601     6003     5460     5131     5081     5368     5972 
    6674     7064     6939     6654     6629     6754     6643     6181 
    5595     5225     5220     5451     5780     6204     6601     6714 
    6475     6079     5814     5914     6389     6886     6924     6475 
    5979     5779     5825     5829     5618     5371     5449     5950 
    6497     6683     6544     6312     6169     6208     6301     6299 
    6289     6327     6322     6268     6232     6231     6223     6265 
    6470     6693     6597     6145     5671     5490     5621     5876 
    6104     6210     6146     6075     6151     6205     6058     5890 
    5913     6052     6178     6311     6454     6579     6689     6685 
    6462     6160     5998     6091     6392     6628     6623     6512 
    6277     5728     5090     4878     5275     6046     6758     7040 
    6860     6446     5958     5490     5244     5378     5779     6172 
    6315     6247     6235     6334     6358     6219     6034     5971 
    6081     6339     6740     7148     7210     6763     6177     5918 
    5923     5884     5815     5914     6154     6311     6245     6145 
    6235     6322     6197     6127     6281     6369     6258     6172 
    6157     6089     6156     6579     6999     6841     6161     5536 
    5389     5732     6264     6548     6355     6000     5972     6228 
    6378     6262     5962     5626     5362     5235     5354     5786 
    6415     6944     7099     6963     6787     6538     6131     5765 
    5559     5435     5425     5678     6227     6822     7038     6732 
    6265     6089     6280     6548     6613     6390     6023     5821 
    5886     5980     5999     6054     6139     6219     6353     6486 
    6461     6316     6234     6195     6066     5884     5790     5852 
    6045     6253     6365     6426     6501     6569     6681     6859 
    6843     6450     5829     5205     4858     5026     5529     6016 
    6397     6623     6524     6180     5977     6161     6528     6636 
