Origin Time       2025/03/30 22:55:00
Lat.              41.993
Long.             142.725
Depth. (km)       55
Mag.              4.6
Station Code      HDKH01
Station Lat.      42.7031
Station Long.     142.2296
Station Height(m) -18
Record Time       2025/03/30 22:56:15
Sampling Freq(Hz) 100Hz
Duration Time(s)  120
Dir.              3
Scale Factor      2942(gal)/8224139
Max. Acc. (gal)   0.139
Last Correction   2025/03/30 22:56:16
Memo.             
[...]
   31764    31764    31765    31766    31765    31764    31764    31764 
   31765    31766    31764    31764    31765    31762    31762    31765 
   31764    31764    31764    31762    31764    31766    31766    31766 
   31762    31760    31764    31764    31761    31762    31765    31762 
   31762    31764    31761    31758    31761    31762    31765    31765 
   31762    31762    31764    31762    31762    31764    31762    31762 
   31766    31766    31762    31762    31764    31764    31765    31765 
   31764    31765    31766    31765    31764    31764    31765    31766 
   31765    31765    31765    31762    31764    31765    31764    31762 
   31764    31765    31766    31766    31764    31762    31765    31766 
   31765    31764    31762    31764    31765    31766    31766    31766 
   31766    31765    31764    31766    31766    31764    31764    31765 
   31765    31764    31765    31765    31762    31764    31766    31764 
   31762    31764    31764    31764    31764    31765    31766    31765 
   31765    31764    31764    31766    31766    31764    31764    31765 
   31764    31761    31762    31764    31764    31766    31765    31764 
   31765    31764    31761    31764    31766    31765    31761    31764 
   31765    31762    31762    31765    31764    31764    31764    31762 
   31764    31762    31762    31764    31765    31762    31762    31765 
   31765    31765    31765    31764    31765    31765    31764    31765 
   31765    31764    31764    31765    31765    31764    31766    31766 
   31766    31766    31765    31764    31766    31768    31766    31765 
   31764    31764    31765    31764    31764    31766    31765    31764 
   31766    31768    31766    31765    31764    31764    31764    31765 
   31764    31764    31765    31765    31765    31764    31764    31766 
   31765    31764    31765    31765    31765    31766    31766    31764 
   31764    31764    31765    31766    31766    31766    31766    31764 
   31766    31768    31765    31765    31766    31765    31764    31764 
   31766    31766    31766    31766    31764    31764    31765    31764 
   31764    31764    31764    31765    31762    31762    31764    31764 
   31764    31764    31760    31762    31766    31765    31762    31762 
   31764    31764    31764    31762    31758    31760    31764    31765 
   31764    31764    31764    31765    31766    31765    31765    31766 
   31764    31764    31766    31766    31764    31765    31765    31765 
   31765    31762    31760    31762    31764    31764    31764    31764 
   31764    31765    31764    31761    31764    31766    31765    31762 
   31762    31764    31764    31764    31765    31765    31764    31765 
   31766    31762    31764    31766    31762    31761    31766    31766 
   31762    31764    31764    31764    31764    31764    31764    31766 
   31764    31762    31764    31766    31765    31764    31764    31765 
   31765    31765    31765    31766    31766    31765    31765    31765 
   31765    31765    31765    31766    31766    31761    31761    31764 
   31765    31766    31765    31761    31761    31764    31764    31762 
   31764    31762    31761    31762    31764    31765    31765    31764 
   31764    31764    31764    31765    31766    31766    31765    31765 
   31766    31765    31764    31766    31765    31764    31769    31766 
   31764    31765    31765    31765    31766    31766    31762    31762 
   31765    31766    31765    31762    31764    31765    31764    31762 
   31762    31764    31768    31768    31766    31766    31768    31766 
   31765    31766    31766    31765    31764    31764    31764    31762 
   31766    31768    31765    31766    31766    31765    31765    31766 
   31768    31764    31762    31765    31766    31764    31765    31766 
   31766    31765    31762    31764    31766    31765    31766    31768 
   31766    31765    31764    31762    31764    31766    31765    31765 
   31765    31764    31762    31762    31764    31764    31764    31764 
   31765    31764    31765    31765    31766    31768    31765    31765 
   31765    31761    31762    31765    31765    31765    31764    31764 
   31765    31765    31764    31765    31765    31765    31764    31762 
   31764    31765    31765    31764    31762    31762    31765    31768 
   31766    31764    31764    31766    31766    31766    31762    31761 
   31765    31766    31764    31762    31764    31762    31762    31768 
   31766    31762    31764    31765    31762    31764    31766    31764 
   31762    31766    31765    31762    31764    31764    31762    31765 
   31766    31765    31765    31765    31764    31764    31765    31765 
   31764    31764    31765    31765    31764    31765    31764    31764 
   31768    31766    31762    31765    31766    31764    31765    31765 
   31764    31764    31764    31765    31765    31764    31762    31765 
   31765    31764    31762    31761    31762    31765    31764    31762 
   31764    31765    31765    31765    31762    31762    31765    31765 
   31764    31765    31764    31762    31765    31764    31761    31762 
   31765    31764    31764    31766    31765    31764    31765    31764 
   31762    31765    31764    31760    31764    31765    31764    31764 
   31765    31766    31766    31764    31765    31765    31765    31764 
   31765    31766    31766    31764    31764    31766    31768    31764 
   31762    31764    31765    31765    31764    31762    31765    31766 
   31764    31765    31765    31764    31765    31766    31766    31766 
   31765    31764    31765    31766    31765    31764    31765    31765 
   31764    31764    31764    31765    31765    31764    31764    31762 
   31762    31765    31768    31764    31761    31765    31766    31764 
   31764    31764    31764    31764    31762    31762    31764    31765 
   31765    31764    31764    31765    31762    31762    31765    31765 
   31765    31766    31766    31766    31765    31764    31764    31765 
   31765    31764    31765    31765    31764    31762    31762    31764 
   31765    31765    31764    31764    31766    31764    31761    31765 
   31768    31765    31765    31768    31764    31762    31766    31765 
   31764    31764    31764    31764    31766    31769    31769    31766 
   31766    31765    31764    31765    31764    31762    31764    31765 
   31765    31765    31765    31766    31766    31766    31765    31766 
   31766    31765    31765    31765    31765    31762    31764    31765 
   31765    31766    31765    31764    31765    31765    31765    31766 
   31765    31765    31766    31768    31765    31765    31768    31765 
   31762    31765    31768    31766    31766    31765    31764    31764 
   31765    31764    31764    31762    31764    31765    31766    31766 
   31766    31766    31766    31768    31765    31765    31766    31765 
   31764    31765    31765    31764    31765    31764    31765    31764 
   31762    31765    31766    31764    31766    31768    31764    31764 
   31766    31765    31765    31765    31764    31765    31768    31766 
   31765    31764    31764    31764    31765    31764    31764    31765 
   31764    31765    31766    31765    31766    31766    31765    31762 
   31765    31768    31765    31764    31765    31765    31765    31765 
   31766    31764    31762    31765    31766    31765    31765    31768 
   31769    31765    31762    31764    31764    31764    31766    31768 
   31768    31765    31764    31764    31762    31766    31768    31765 
   31762    31762    31764    31765    31766    31768    31768    31765 
   31765    31764    31760    31762    31762    31762    31765    31768 
   31765    31764    31765    31764    31764    31764    31762    31764 
   31764    31762    31764    31764    31762    31764    31765    31765 
   31764    31764    31765    31765    31764    31765    31766    31765 
   31766    31766    31765    31765    31764    31762    31765    31765 
   31765    31766    31768    31766    31766    31765    31765    31765 
   31768    31768    31765    31766    31766    31766    31768    31768 
   31765    31765    31766    31765    31766    31766    31764    31765 
   31766    31768    31768    31766    31765    31768    31768    31765 
   31765    31766    31766    31765    31766    31768    31765    31766 
   31768    31766    31766    31766    31765    31765    31766    31768 
   31769    31766    31764    31764    31765    31768    31768    31766 
   31765    31765    31766    31766    31765    31762    31764    31766 
   31765    31766    31768    31764    31762    31766    31765    31761 
   31765    31768    31765    31764    31765    31768    31768    31764 
   31764    31765    31761    31764    31766    31768    31765    31765 
   31765    31766    31766    31766    31765    31768    31766    31764 
   31764    31764    31762    31765    31768    31765    31765    31765 
   31765    31764    31764    31765    31768    31766    31765    31764 
   31762    31764    31766    31766    31765    31762    31764    31766 
   31766    31764    31764    31766    31766    31765    31766    31766 
   31766    31765    31765    31764    31762    31765    31766    31764 
   31765    31768    31766    31765    31764    31762    31766    31766 
   31765    31766    31764    31761    31764    31765    31764    31765 
   31766    31764    31764    31765    31764    31764    31764    31762 
   31764    31764    31764    31765    31766    31762    31761    31764 
   31765    31765    31765    31762    31764    31766    31764    31762 
   31762    31762    31762    31764    31764    31762    31764    31766 
   31764    31764    31764    31764    31765    31764    31764    31764 
   31765    31765    31764    31766    31768    31765    31765    31765 
   31762    31762    31766    31766    31768    31766    31764    31765 
   31766    31766    31764    31762    31765    31766    31765    31766 
   31766    31764    31764    31765    31765    31764    31762    31765 
   31766    31764    31765    31766    31764    31764    31764    31765 
   31766    31766    31768    31768    31764    31761    31762    31764 
   31765    31766    31765    31766    31769    31766    31762    31764 
   31764    31762    31765    31765    31766    31765    31764    31765 
   31764    31764    31765    31765    31764    31764    31764    31764 
   31765    31765    31764    31766    31765    31764    31766    31766 
   31762    31762    31765    31765    31764    31765    31765    31766 
   31765    31762    31762    31765    31766    31766    31765    31764 
   31765    31766    31764    31762    31765    31765    31765    31765 
   31764    31765    31768    31765    31764    31766    31766    31765 
   31768    31768    31765    31765    31765    31765    31765    31766 
   31766    31765    31766    31768    31768    31766    31765    31765 
   31766    31766    31766    31765    31765    31766    31766    31766 
   31764    31764    31768    31766    31764    31764    31765    31765 
   31768    31768    31765    31762    31765    31765    31765    31764 
   31764    31765    31765    31762    31762    31765    31765    31762 
   31764    31768    31768    31765    31762    31764    31765    31766 
   31765    31765    31764    31764    31764    31762    31764    31764 
   31765    31765    31765    31762    31760    31761    31765    31765 
   31764    31764    31764    31764    31762    31764    31765    31762 
   31764    31768    31766    31764    31765    31765    31764    31764 
   31765    31764    31762    31761    31762    31766    31766    31762 
   31762    31764    31764    31765    31765    31764    31764    31765 
   31765    31765    31765    31766    31765    31764    31764    31766 
   31768    31765    31765    31765    31762    31762    31764    31765 
   31766    31765    31764    31765    31762    31761    31764    31765 
   31764    31764    31765    31765    31765    31765    31765    31766 
   31765    31766    31766    31764    31761    31764    31762    31762 
   31765    31766    31766    31766    31765    31765    31765    31765 
   31764    31764    31766    31765    31764    31762    31761    31764 
   31766    31764    31761    31761    31760    31758    31757    31756 
   31756    31756    31753    31747    31745    31745    31746    31745 
   31739    31731    31725    31718    31708    31695    31681    31666 
   31652    31638    31630    31627    31627    31629    31630    31625 
   31615    31608    31611    31629    31660    31698    31733    31760 
   31785    31816    31849    31870    31869    31835    31784    31742 
   31741    31799    31904    32015    32080    32071    32005    31920 
   31861    31847    31860    31855    31804    31714    31637    31622 
   31681    31776    31851    31872    31828    31753    31695    31689 
   31749    31845    31928    31974    31973    31935    31900    31897 
   31912    31903    31850    31766    31675    31595    31550    31563 
   31611    31658    31673    31654    31633    31648    31722    31838 
   31945    31990    31961    31866    31747    31661    31662    31758 
   31880    31957    31974    31946    31895    31847    31827    31831 
   31841    31827    31791    31764    31773    31816    31873    31919 
   31924    31882    31816    31764    31745    31743    31738    31716 
   31687    31660    31644    31653    31691    31734    31760    31765 
   31753    31729    31711    31731    31812    31932    32038    32092 
   32097    32071    32017    31931    31819    31699    31577    31464 
   31386    31376    31438    31541    31641    31710    31729    31700 
   31653    31629    31642    31673    31712    31749    31762    31754 
   31730    31702    31681    31687    31714    31731    31710    31660 
   31608    31583    31627    31757    31909    32004    32016    31959 
   31870    31797    31783    31833    31899    31899    31788    31612 
   31460    31383    31395    31498    31646    31758    31797    31797 
   31807    31841    31869    31862    31814    31734    31660    31631 
   31671    31768    31874    31920    31869    31750    31635    31590 
   31626    31710    31801    31887    31938    31938    31888    31824 
   31783    31784    31824    31877    31901    31880    31816    31720 
   31618    31545    31523    31560    31653    31773    31873    31920 
   31918    31882    31830    31772    31749    31787    31862    31938 
   31984    31980    31923    31820    31688    31587    31572    31615 
   31660    31687    31693    31677    31644    31629    31673    31750 
   31806    31826    31812    31766    31715    31712    31769    31824 
   31851    31869    31876    31857    31812    31768    31743    31754 
   31781    31795    31785    31772    31770    31757    31723    31703 
   31710    31722    31733    31749    31774    31806    31833    31857 
   31882    31893    31874    31838    31793    31743    31698    31664 
   31656    31676    31704    31719    31718    31719    31741    31774 
   31808    31847    31874    31862    31838    31842    31864    31860 
   31816    31749    31666    31581    31540    31567    31631    31680 
   31687    31672    31673    31703    31749    31808    31865    31892 
   31872    31831    31801    31793    31814    31857    31892    31877 
   31804    31718    31666    31665    31704    31752    31769    31756 
   31729    31692    31672    31704    31779    31855    31899    31888 
   31845    31799    31762    31742    31738    31749    31761    31762 
   31745    31715    31689    31684    31689    31687    31680    31689 
   31716    31746    31784    31831    31872    31897    31900    31872 
   31839    31827    31818    31783    31733    31688    31666    31672 
   31703    31738    31754    31757    31745    31720    31714    31757 
   31827    31877    31905    31920    31901    31842    31772    31730 
   31734    31770    31808    31804    31746    31688    31677    31712 
   31768    31820    31850    31841    31803    31780    31799    31833 
   31850    31854    31850    31819    31760    31699    31656    31641 
   31662    31714    31773    31819    31826    31779    31695    31627 
   31619    31657    31707    31750    31776    31789    31797    31796 
   31780    31760    31743    31731    31719    31723    31762    31834 
   31903    31918    31860    31753    31633    31546    31538    31612 
   31739    31851    31899    31876    31806    31735    31720    31769 
   31839    31884    31882    31841    31783    31733    31711    31729 
   31769    31801    31793    31738    31676    31654    31679    31739 
   31818    31874    31884    31861    31826    31779    31735    31727 
   31747    31757    31742    31726    31739    31779    31806    31793 
   31758    31727    31707    31703    31725    31758    31793    31818 
   31816    31803    31818    31878    31953    31989    31962    31874 
   31745    31637    31606    31638    31669    31668    31657    31650 
   31642    31657    31710    31784    31839    31841    31797    31746 
   31708    31708    31754    31800    31799    31756    31710    31702 
   31734    31769    31764    31720    31681    31684    31743    31833 
   31904    31923    31889    31822    31752    31703    31685    31688 
   31699    31714    31734    31749    31719    31650    31600    31600 
   31637    31691    31743    31784    31803    31787    31747    31716 
   31715    31742    31776    31800    31835    31887    31923    31915 
   31881    31866    31892    31945    31980    31965    31901    31808 
   31708    31635    31615    31641    31671    31675    31658    31638 
   31625    31633    31675    31739    31800    31833    31830    31810 
   31797    31801    31810    31797    31761    31731    31746    31804 
   31862    31897    31893    31823    31707    31617    31594    31637 
   31738    31847    31901    31892    31847    31788    31723    31672 
   31656    31671    31693    31708    31704    31681    31660    31668 
   31716    31773    31811    31842    31877    31892    31874    31849 
   31831    31815    31797    31799    31827    31868    31897    31901 
   31882    31855    31818    31752    31687    31672    31711    31770 
   31814    31822    31801    31773    31750    31727    31704    31692 
   31681    31665    31654    31656    31660    31665    31692    31752 
   31822    31869    31870    31834    31776    31725    31702    31708 
   31719    31725    31742    31785    31851    31903    31914    31892 
   31843    31765    31684    31644    31648    31668    31691    31733 
   31792    31846    31855    31812    31752    31710    31689    31680 
   31689    31723    31757    31761    31733    31691    31673    31710 
   31779    31824    31812    31758    31696    31658    31671    31731 
   31808    31857    31865    31855    31843    31845    31872    31896 
   31877    31828    31777    31733    31696    31681    31692    31731 
   31781    31796    31762    31720    31698    31695    31710    31737 
   31758    31756    31729    31715    31747    31814    31866    31876 
   31855    31834    31818    31808    31812    31823    31833    31835 
   31831    31819    31789    31768    31779    31792    31781    31752 
   31729    31745    31788    31807    31796    31791    31791    31774 
   31754    31747    31758    31787    31839    31893    31907    31865 
   31792    31715    31654    31621    31610    31610    31626    31660 
