Origin Time       2025/03/30 22:55:00
Lat.              41.993
Long.             142.725
Depth. (km)       55
Mag.              4.6
Station Code      HDKH05
Station Lat.      42.5977
Station Long.     142.5446
Station Height(m) 305
Record Time       2025/03/30 22:56:23
Sampling Freq(Hz) 100Hz
Duration Time(s)  120
Dir.              5
Scale Factor      3920(gal)/6170801
Max. Acc. (gal)   0.620
Last Correction   2025/03/30 22:56:07
Memo.             
[...]
   -7671    -7659    -7623    -7586    -7561    -7555    -7573    -7603 
   -7628    -7635    -7622    -7597    -7571    -7546    -7522    -7509 
   -7514    -7537    -7574    -7619    -7659    -7674    -7654    -7611 
   -7559    -7515    -7499    -7515    -7544    -7569    -7579    -7586 
   -7598    -7604    -7588    -7563    -7548    -7556    -7587    -7630 
   -7662    -7650    -7594    -7537    -7509    -7516    -7553    -7586 
   -7577    -7547    -7555    -7610    -7679    -7728    -7731    -7677 
   -7591    -7529    -7522    -7547    -7564    -7553    -7510    -7452 
   -7437    -7506    -7622    -7707    -7728    -7705    -7672    -7666 
   -7689    -7705    -7687    -7635    -7555    -7471    -7431    -7448 
   -7484    -7504    -7502    -7494    -7503    -7539    -7599    -7668 
   -7728    -7752    -7713    -7621    -7527    -7477    -7473    -7494 
   -7515    -7539    -7583    -7652    -7726    -7776    -7768    -7677 
   -7522    -7381    -7323    -7356    -7459    -7592    -7704    -7760 
   -7761    -7727    -7663    -7576    -7496    -7466    -7488    -7529 
   -7579    -7638    -7669    -7633    -7558    -7518    -7544    -7592 
   -7630    -7677    -7729    -7730    -7657    -7569    -7520    -7489 
   -7450    -7432    -7462    -7511    -7545    -7576    -7620    -7658 
   -7662    -7635    -7599    -7576    -7563    -7543    -7517    -7507 
   -7503    -7486    -7494    -7578    -7704    -7789    -7800    -7746 
   -7666    -7600    -7549    -7520    -7542    -7592    -7610    -7578 
   -7507    -7453    -7492    -7613    -7719    -7740    -7689    -7603 
   -7501    -7429    -7440    -7528    -7608    -7604    -7558    -7567 
   -7638    -7697    -7685    -7611    -7520    -7447    -7406    -7422 
   -7516    -7647    -7730    -7740    -7703    -7646    -7594    -7562 
   -7544    -7558    -7606    -7634    -7599    -7534    -7499    -7508 
   -7514    -7494    -7484    -7504    -7529    -7563    -7644    -7744 
   -7788    -7757    -7689    -7611    -7552    -7544    -7579    -7620 
   -7626    -7567    -7467    -7391    -7382    -7451    -7579    -7698 
   -7757    -7742    -7645    -7501    -7409    -7442    -7571    -7694 
   -7738    -7708    -7623    -7526    -7497    -7574    -7694    -7745 
   -7678    -7554    -7458    -7425    -7467    -7548    -7601    -7596 
   -7554    -7513    -7534    -7629    -7707    -7694    -7634    -7586 
   -7549    -7525    -7547    -7621    -7678    -7665    -7620    -7602 
   -7607    -7598    -7570    -7539    -7497    -7434    -7385    -7403 
   -7510    -7655    -7755    -7799    -7800    -7743    -7646    -7558 
   -7506    -7513    -7569    -7599    -7549    -7439    -7342    -7338 
   -7453    -7617    -7726    -7745    -7715    -7654    -7574    -7544 
   -7584    -7612    -7585    -7549    -7549    -7611    -7735    -7849 
   -7853    -7728    -7537    -7337    -7194    -7210    -7392    -7581 
   -7649    -7640    -7628    -7637    -7670    -7701    -7700    -7669 
   -7629    -7582    -7549    -7586    -7673    -7711    -7679    -7648 
   -7638    -7615    -7552    -7447    -7343    -7316    -7377    -7472 
   -7585    -7698    -7754    -7726    -7662    -7615    -7607    -7626 
   -7629    -7604    -7596    -7608    -7616    -7638    -7647    -7578 
   -7484    -7462    -7475    -7468    -7484    -7517    -7506    -7500 
   -7560    -7645    -7721    -7774    -7739    -7610    -7517    -7533 
   -7578    -7613    -7682    -7736    -7684    -7559    -7469    -7447 
   -7454    -7459    -7467    -7502    -7573    -7654    -7712    -7735 
   -7689    -7578    -7480    -7437    -7438    -7496    -7596    -7650 
   -7621    -7601    -7659    -7727    -7729    -7694    -7636    -7537 
   -7463    -7476    -7538    -7609    -7660    -7645    -7579    -7520 
   -7479    -7439    -7432    -7489    -7573    -7651    -7729    -7792 
   -7793    -7736    -7678    -7643    -7583    -7467    -7363    -7360 
   -7449    -7532    -7574    -7607    -7612    -7552    -7505    -7563 
   -7709    -7869    -7959    -7891    -7678    -7454    -7315    -7275 
   -7340    -7491    -7630    -7654    -7561    -7444    -7398    -7435 
   -7524    -7626    -7676    -7648    -7617    -7648    -7720    -7801 
   -7837    -7754    -7588    -7466    -7417    -7392    -7421    -7521 
   -7584    -7560    -7537    -7555    -7581    -7628    -7714    -7770 
   -7754    -7732    -7734    -7709    -7621    -7508    -7402    -7293 
   -7223    -7278    -7443    -7620    -7758    -7847    -7873    -7839 
   -7741    -7580    -7429    -7376    -7407    -7501    -7675    -7826 
   -7780    -7564    -7358    -7256    -7290    -7482    -7760    -7968 
   -7988    -7818    -7577    -7397    -7296    -7263    -7332    -7480 
   -7643    -7791    -7871    -7875    -7869    -7851    -7757    -7590 
   -7410    -7297    -7281    -7310    -7359    -7460    -7585    -7670 
   -7730    -7776    -7744    -7647    -7573    -7540    -7522    -7539 
   -7626    -7751    -7794    -7703    -7557    -7412    -7259    -7169 
   -7236    -7455    -7734    -7940    -7958    -7793    -7563    -7384 
   -7320    -7380    -7517    -7670    -7793    -7838    -7781    -7682 
   -7619    -7584    -7525    -7455    -7413    -7380    -7356    -7419 
   -7576    -7701    -7726    -7722    -7712    -7639    -7540    -7517 
   -7556    -7578    -7567    -7560    -7558    -7515    -7429    -7408 
   -7533    -7724    -7864    -7928    -7915    -7804    -7624    -7457 
   -7382    -7400    -7431    -7440    -7469    -7517    -7530    -7530 
   -7570    -7620    -7627    -7599    -7582    -7609    -7677    -7726 
   -7693    -7596    -7498    -7445    -7472    -7592    -7741    -7815 
   -7772    -7664    -7575    -7566    -7596    -7560    -7475    -7441 
   -7434    -7402    -7439    -7571    -7692    -7767    -7803    -7749 
   -7601    -7441    -7339    -7329    -7411    -7527    -7607    -7637 
   -7662    -7687    -7654    -7586    -7569    -7608    -7655    -7683 
   -7671    -7620    -7551    -7504    -7520    -7587    -7639    -7640 
   -7626    -7601    -7547    -7538    -7627    -7732    -7770    -7731 
   -7619    -7478    -7392    -7407    -7497    -7601    -7672    -7696 
   -7664    -7578    -7509    -7495    -7489    -7481    -7497    -7521 
   -7548    -7600    -7655    -7676    -7687    -7714    -7709    -7639 
   -7557    -7495    -7449    -7441    -7499    -7596    -7645    -7603 
   -7543    -7534    -7540    -7526    -7536    -7600    -7685    -7741 
   -7733    -7680    -7620    -7563    -7512    -7484    -7474    -7462 
   -7474    -7532    -7597    -7627    -7627    -7624    -7629    -7618 
   -7616    -7694    -7803    -7807    -7693    -7573    -7487    -7379 
   -7276    -7282    -7396    -7524    -7604    -7634    -7663    -7712 
   -7741    -7729    -7707    -7652    -7519    -7397    -7421    -7552 
   -7636    -7626    -7609    -7642    -7664    -7640    -7628    -7655 
   -7676    -7650    -7563    -7459    -7420    -7454    -7495    -7510 
   -7510    -7510    -7532    -7597    -7705    -7831    -7909    -7863 
   -7684    -7475    -7356    -7313    -7308    -7402    -7583    -7722 
   -7783    -7795    -7744    -7646    -7569    -7530    -7506    -7489 
   -7477    -7476    -7477    -7451    -7414    -7414    -7455    -7537 
   -7669    -7792    -7834    -7787    -7694    -7633    -7641    -7655 
   -7620    -7578    -7530    -7430    -7343    -7363    -7449    -7532 
   -7595    -7628    -7628    -7640    -7712    -7821    -7872    -7799 
   -7661    -7549    -7461    -7389    -7378    -7427    -7476    -7500 
   -7531    -7608    -7692    -7704    -7674    -7671    -7641    -7537 
   -7453    -7471    -7555    -7637    -7678    -7661    -7597    -7517 
   -7454    -7443    -7508    -7616    -7670    -7637    -7623    -7681 
   -7727    -7719    -7724    -7719    -7596    -7408    -7313    -7332 
   -7428    -7644    -7908    -8010    -7877    -7647    -7462    -7356 
   -7311    -7339    -7456    -7572    -7580    -7562    -7637    -7722 
   -7713    -7661    -7612    -7551    -7531    -7598    -7699    -7772 
   -7764    -7632    -7464    -7403    -7453    -7529    -7588    -7615 
   -7582    -7494    -7447    -7526    -7660    -7721    -7705    -7695 
   -7704    -7687    -7638    -7600    -7581    -7542    -7479    -7411 
   -7371    -7396    -7475    -7572    -7690    -7806    -7859    -7827 
   -7729    -7603    -7506    -7462    -7427    -7403    -7459    -7570 
   -7621    -7596    -7546    -7491    -7450    -7463    -7542    -7665 
   -7795    -7877    -7846    -7723    -7613    -7542    -7493    -7500 
   -7529    -7509    -7497    -7519    -7494    -7426    -7392    -7409 
   -7468    -7550    -7631    -7700    -7733    -7735    -7726    -7663 
   -7525    -7395    -7361    -7424    -7541    -7632    -7623    -7520 
   -7399    -7358    -7472    -7692    -7874    -7921    -7800    -7535 
   -7266    -7141    -7162    -7261    -7384    -7477    -7523    -7593 
   -7710    -7789    -7792    -7733    -7616    -7484    -7400    -7399 
   -7490    -7613    -7690    -7715    -7693    -7623    -7559    -7537 
   -7536    -7596    -7758    -7919    -7951    -7850    -7676    -7506 
   -7409    -7397    -7441    -7474    -7435    -7359    -7356    -7478 
   -7669    -7851    -7979    -8018    -7950    -7801    -7634    -7507 
   -7465    -7505    -7571    -7624    -7674    -7713    -7680    -7552 
   -7400    -7325    -7334    -7361    -7424    -7595    -7810    -7938 
   -7945    -7871    -7762    -7672    -7645    -7661    -7664    -7652 
   -7646    -7636    -7605    -7560    -7503    -7455    -7436    -7435 
   -7447    -7485    -7512    -7479    -7417    -7378    -7352    -7344 
   -7385    -7466    -7562    -7644    -7684    -7704    -7714    -7662 
   -7546    -7426    -7334    -7294    -7358    -7531    -7724    -7820 
   -7763    -7596    -7444    -7412    -7497    -7627    -7742    -7791 
   -7747    -7645    -7572    -7585    -7622    -7596    -7528    -7475 
   -7438    -7440    -7503    -7597    -7705    -7828    -7905    -7906 
   -7911    -7935    -7903    -7827    -7781    -7740    -7663    -7587 
   -7550    -7513    -7425    -7305    -7236    -7272    -7400    -7582 
   -7783    -7945    -7990    -7929    -7867    -7858    -7867    -7852 
   -7787    -7666    -7505    -7347    -7234    -7183    -7188    -7244 
   -7334    -7444    -7565    -7653    -7698    -7736    -7741    -7667 
   -7576    -7552    -7605    -7689    -7729    -7673    -7553    -7454 
   -7429    -7438    -7433    -7443    -7498    -7551    -7554    -7495 
   -7392    -7292    -7235    -7251    -7361    -7532    -7688    -7776 
   -7771    -7670    -7504    -7325    -7217    -7254    -7455    -7782 
   -8092    -8184    -8035    -7809    -7620    -7504    -7483    -7521 
   -7572    -7626    -7642    -7592    -7560    -7632    -7742    -7787 
   -7781    -7816    -7877    -7867    -7795    -7756    -7738    -7663 
   -7549    -7448    -7360    -7300    -7325    -7467    -7681    -7889 
   -8028    -8048    -7933    -7736    -7501    -7245    -7039    -6990 
   -7115    -7331    -7558    -7731    -7784    -7715    -7581    -7428 
   -7310    -7317    -7480    -7708    -7871    -7918    -7847    -7664 
   -7423    -7233    -7193    -7296    -7432    -7534    -7635    -7741 
   -7801    -7763    -7634    -7483    -7359    -7259    -7198    -7234 
   -7361    -7500    -7624    -7744    -7810    -7774    -7675    -7581 
   -7505    -7431    -7385    -7398    -7455    -7558    -7711    -7812 
   -7743    -7555    -7437    -7477    -7602    -7732    -7873    -8020 
   -8095    -8067    -8039    -8063    -8009    -7767    -7414    -7093 
   -6908    -6904    -7068    -7335    -7613    -7788    -7761    -7571 
   -7393    -7341    -7387    -7505    -7703    -7918    -8049    -8057 
   -7950    -7761    -7555    -7380    -7253    -7189    -7208    -7293 
   -7390    -7456    -7472    -7428    -7341    -7253    -7235    -7339 
   -7516    -7647    -7696    -7716    -7731    -7753    -7819    -7921 
   -7979    -7923    -7772    -7605    -7455    -7327    -7277    -7326 
   -7372    -7349    -7344    -7423    -7553    -7719    -7910    -8045 
   -8022    -7849    -7624    -7435    -7333    -7328    -7383    -7442 
   -7474    -7502    -7539    -7572    -7655    -7833    -7981    -7972 
   -7879    -7824    -7815    -7814    -7816    -7815    -7774    -7669 
   -7547    -7486    -7499    -7506    -7445    -7347    -7265    -7231 
   -7263    -7361    -7500    -7629    -7694    -7694    -7689    -7708 
   -7717    -7690    -7626    -7537    -7486    -7516    -7578    -7632 
   -7660    -7589    -7381    -7155    -7075    -7177    -7355    -7475 
   -7493    -7463    -7450    -7472    -7528    -7623    -7713    -7712 
   -7626    -7576    -7626    -7726    -7814    -7855    -7829    -7738 
   -7624    -7558    -7586    -7701    -7841    -7901    -7800    -7573 
   -7347    -7230    -7261    -7420    -7614    -7726    -7736    -7710 
   -7682    -7663    -7666    -7684    -7702    -7713    -7729    -7750 
   -7717    -7605    -7510    -7518    -7607    -7737    -7869    -7949 
   -7946    -7831    -7593    -7332    -7171    -7139    -7250    -7497 
   -7784    -8009    -8129    -8093    -7906    -7670    -7461    -7296 
   -7184    -7099    -6996    -6875    -6798    -6824    -6968    -7248 
   -7653    -8067    -8307    -8272    -8024    -7708    -7467    -7406 
   -7508    -7607    -7589    -7481    -7327    -7189    -7188    -7382 
   -7662    -7875    -7952    -7900    -7761    -7595    -7445    -7306 
   -7175    -7080    -7048    -7145    -7452    -7918    -8345    -8560 
   -8512    -8274    -7962    -7690    -7544    -7499    -7451    -7408 
   -7456    -7561    -7661    -7762    -7829    -7793    -7667    -7526 
   -7438    -7410    -7430    -7497    -7571    -7609    -7657    -7760 
   -7866    -7899    -7835    -7667    -7429    -7220    -7118    -7139 
   -7277    -7477    -7658    -7776    -7801    -7703    -7507    -7337 
   -7314    -7432    -7609    -7781    -7917    -7994    -7989    -7881 
   -7700    -7510    -7351    -7236    -7195    -7246    -7324    -7355 
   -7356    -7377    -7420    -7486    -7580    -7672    -7719    -7700 
   -7615    -7499    -7415    -7412    -7473    -7543    -7598    -7651 
   -7684    -7680    -7665    -7639    -7556    -7386    -7160    -6981 
   -6933    -7013    -7206    -7505    -7862    -8168    -8304    -8200 
   -7907    -7569    -7343    -7339    -7564    -7896    -8170    -8268 
   -8158    -7905    -7605    -7320    -7114    -7045    -7100    -7228 
   -7400    -7598    -7799    -7980    -8084    -8068    -7957    -7793 
   -7598    -7436    -7374    -7385    -7421    -7495    -7608    -7737 
   -7863    -7928    -7855    -7693    -7560    -7496    -7493    -7550 
   -7615    -7616    -7519    -7356    -7227    -7235    -7390    -7605 
   -7784    -7877    -7887    -7828    -7737    -7673    -7634    -7569 
   -7460    -7316    -7190    -7192    -7331    -7517    -7712    -7900 
   -8001    -7959    -7823    -7709    -7703    -7766    -7782    -7706 
   -7551    -7326    -7094    -6960    -6976    -7109    -7298    -7495 
   -7651    -7700    -7632    -7522    -7425    -7354    -7345    -7396 
   -7442    -7463    -7476    -7471    -7500    -7648    -7877    -8062 
   -8126    -8060    -7899    -7698    -7503    -7367    -7326    -7335 
   -7360    -7451    -7634    -7831    -7945    -7940    -7823    -7634 
   -7440    -7327    -7369    -7545    -7715    -7768    -7723    -7668 
   -7652    -7672    -7699    -7699    -7657    -7585    -7522    -7517 
   -7590    -7693    -7706    -7560    -7335    -7136    -7008    -7032 
   -7293    -7741    -8180    -8418    -8387    -8147    -7794    -7391 
   -7001    -6727    -6653    -6769    -7011    -7349    -7750    -8102 
   -8274    -8227    -8026    -7785    -7607    -7541    -7580    -7668 
   -7738    -7737    -7639    -7490    -7377    -7333    -7334    -7364 
   -7443    -7588    -7745    -7848    -7903    -7894    -7752    -7521 
   -7372    -7372    -7455    -7563    -7672    -7731    -7695    -7581 
   -7435    -7291    -7199    -7202    -7294    -7460    -7669    -7849 
   -7971    -8049    -8031    -7868    -7634    -7452    -7377    -7413 
   -7537    -7676    -7740    -7710    -7645    -7602    -7596    -7601 
   -7557    -7429    -7275    -7185    -7195    -7310    -7493    -7634 
   -7651    -7567    -7465    -7447    -7550    -7696    -7789    -7775 
   -7650    -7484    -7389    -7437    -7601    -7778    -7879    -7888 
   -7812    -7667    -7504    -7383    -7315    -7260    -7181    -7122 
   -7183    -7394    -7676    -7937    -8122    -8189    -8106    -7898 
   -7668    -7527    -7499    -7537    -7599    -7660    -7691    -7668 
   -7584    -7475    -7413    -7442    -7548    -7714    -7917    -8056 
   -8011    -7785    -7487    -7227    -7095    -7148    -7340    -7546 
   -7674    -7724    -7744    -7773    -7797    -7782    -7713    -7583 
   -7387    -7172    -7034    -7033    -7137    -7289    -7465    -7622 
   -7709    -7719    -7668    -7584    -7510    -7457    -7437    -7488 
   -7607    -7730    -7798    -7800    -7756    -7702    -7679    -7702 
   -7725    -7697    -7618    -7512    -7391    -7282    -7267    -7392 
   -7613    -7857    -8051    -8129    -8045    -7825    -7591    -7455 
   -7420    -7422    -7416    -7395    -7385    -7429    -7514    -7578 
   -7594    -7564    -7484    -7399    -7396    -7522    -7760    -8034 
   -8250    -8327    -8211    -7922    -7571    -7255    -7017    -6902 
   -6946    -7120    -7378    -7678    -7937    -8065    -8038    -7905 
   -7722    -7538    -7411    -7379    -7419    -7474    -7504    -7498 
   -7480    -7483    -7521    -7581    -7640    -7698    -7774    -7850 
   -7865    -7808    -7723    -7628    -7511    -7372    -7238    -7161 
   -7190    -7298    -7408    -7468    -7477    -7467    -7468    -7486 
   -7521    -7547    -7507    -7427    -7400    -7464    -7598    -7761 
   -7884    -7914    -7868    -7806    -7763    -7727    -7653    -7523 
   -7384    -7307    -7355    -7564    -7899    -8240    -8445    -8426 
   -8191    -7811    -7398    -7079    -6935    -6957    -7094    -7311 
   -7547    -7724    -7806    -7804    -7739    -7636    -7544    -7491 
   -7442    -7390    -7400    -7460    -7484    -7475    -7504    -7566 
   -7617    -7655    -7709    -7754    -7735    -7657    -7566    -7491 
   -7463    -7521    -7659    -7814    -7891    -7818    -7597    -7317 
   -7123    -7107    -7246    -7463    -7668    -7778    -7742    -7564 
   -7344    -7216    -7247    -7414    -7646    -7849    -7930    -7853 
   -7674    -7484    -7356    -7337    -7433    -7589    -7741    -7857 
   -7912    -7890    -7813    -7726    -7649    -7566    -7477    -7423 
   -7432    -7494    -7575    -7629    -7648    -7636    -7578    -7494 
   -7449    -7473    -7562    -7711    -7878    -8003    -8068    -8054 
   -7944    -7791    -7655    -7533    -7429    -7377    -7361    -7340 
   -7315    -7304    -7309    -7351    -7455    -7594    -7694    -7728 
   -7727    -7723    -7740    -7787    -7819    -7771    -7639    -7461 
   -7292    -7214    -7270    -7422    -7618    -7815    -7946    -7979 
   -7931    -7815    -7637    -7454    -7337    -7295    -7291    -7311 
   -7366    -7442    -7508    -7547    -7546    -7514    -7493    -7511 
   -7557    -7623    -7692    -7730    -7738    -7738    -7732    -7717 
