Origin Time       2025/03/30 22:55:00
Lat.              41.993
Long.             142.725
Depth. (km)       55
Mag.              4.6
Station Code      HDKH05
Station Lat.      42.5977
Station Long.     142.5446
Station Height(m) 205
Record Time       2025/03/30 22:56:23
Sampling Freq(Hz) 100Hz
Duration Time(s)  120
Dir.              2
Scale Factor      3920(gal)/6170801
Max. Acc. (gal)   0.168
Last Correction   2025/03/30 22:56:07
Memo.             
[...]
  -29888   -29888   -29887   -29889   -29888   -29886   -29887   -29888 
  -29888   -29888   -29890   -29889   -29886   -29886   -29889   -29890 
  -29886   -29884   -29885   -29888   -29887   -29884   -29885   -29888 
  -29888   -29885   -29885   -29886   -29886   -29886   -29886   -29886 
  -29886   -29886   -29887   -29889   -29888   -29884   -29884   -29887 
  -29887   -29886   -29886   -29888   -29888   -29885   -29887   -29889 
  -29887   -29887   -29890   -29886   -29884   -29885   -29888   -29889 
  -29888   -29886   -29886   -29885   -29884   -29887   -29889   -29889 
  -29887   -29884   -29882   -29883   -29884   -29885   -29885   -29886 
  -29885   -29885   -29887   -29889   -29891   -29890   -29890   -29894 
  -29894   -29893   -29893   -29890   -29887   -29887   -29884   -29882 
  -29888   -29893   -29892   -29895   -29899   -29900   -29899   -29895 
  -29891   -29891   -29889   -29883   -29878   -29876   -29880   -29886 
  -29889   -29889   -29885   -29881   -29882   -29883   -29883   -29884 
  -29883   -29877   -29872   -29874   -29884   -29896   -29898   -29888 
  -29878   -29872   -29873   -29877   -29881   -29883   -29887   -29891 
  -29893   -29891   -29889   -29891   -29893   -29895   -29905   -29915 
  -29916   -29910   -29898   -29890   -29890   -29891   -29889   -29883 
  -29872   -29873   -29886   -29894   -29898   -29897   -29887   -29878 
  -29879   -29889   -29895   -29889   -29881   -29877   -29880   -29888 
  -29888   -29879   -29873   -29872   -29867   -29866   -29875   -29887 
  -29901   -29912   -29906   -29885   -29865   -29861   -29874   -29890 
  -29897   -29897   -29893   -29891   -29893   -29891   -29891   -29898 
  -29902   -29902   -29897   -29888   -29880   -29872   -29861   -29863 
  -29884   -29907   -29920   -29914   -29892   -29872   -29876   -29902 
  -29925   -29925   -29918   -29911   -29906   -29909   -29907   -29891 
  -29864   -29837   -29831   -29852   -29878   -29886   -29881   -29876 
  -29882   -29904   -29929   -29932   -29906   -29869   -29845   -29846 
  -29862   -29881   -29894   -29889   -29874   -29859   -29850   -29855 
  -29876   -29898   -29901   -29884   -29862   -29854   -29873   -29904 
  -29925   -29927   -29913   -29900   -29896   -29897   -29888   -29861 
  -29839   -29838   -29854   -29880   -29904   -29910   -29903   -29908 
  -29926   -29928   -29904   -29877   -29873   -29894   -29909   -29901 
  -29893   -29890   -29883   -29881   -29883   -29874   -29864   -29864 
  -29865   -29874   -29895   -29916   -29929   -29918   -29873   -29830 
  -29828   -29862   -29903   -29927   -29928   -29916   -29890   -29858 
  -29854   -29870   -29872   -29869   -29875   -29884   -29901   -29933 
  -29956   -29946   -29924   -29918   -29920   -29909   -29886   -29859 
  -29844   -29851   -29874   -29899   -29908   -29896   -29887   -29893 
  -29898   -29894   -29884   -29869   -29856   -29847   -29853   -29885 
  -29926   -29930   -29893   -29865   -29857   -29845   -29844   -29863 
  -29880   -29892   -29913   -29949   -29979   -29966   -29918   -29867 
  -29823   -29811   -29833   -29858   -29884   -29925   -29941   -29915 
  -29883   -29870   -29879   -29913   -29953   -29955   -29902   -29826 
  -29772   -29761   -29797   -29884   -29969   -29991   -29965   -29917 
  -29867   -29841   -29838   -29847   -29877   -29911   -29918   -29902 
  -29892   -29905   -29915   -29900   -29882   -29870   -29859   -29861 
  -29883   -29911   -29921   -29903   -29868   -29840   -29833   -29842 
  -29862   -29881   -29883   -29873   -29857   -29855   -29896   -29938 
  -29934   -29913   -29904   -29900   -29903   -29907   -29899   -29888 
  -29883   -29888   -29903   -29897   -29865   -29852   -29857   -29863 
  -29889   -29911   -29905   -29903   -29901   -29882   -29881   -29904 
  -29920   -29918   -29900   -29871   -29855   -29857   -29861   -29855 
  -29837   -29836   -29855   -29877   -29911   -29944   -29942   -29911 
  -29879   -29863   -29866   -29871   -29870   -29886   -29923   -29955 
  -29964   -29947   -29905   -29851   -29814   -29809   -29831   -29875 
  -29925   -29939   -29896   -29850   -29836   -29852   -29898   -29954 
  -29966   -29918   -29858   -29845   -29885   -29938   -29966   -29942 
  -29885   -29861   -29884   -29906   -29901   -29876   -29844   -29842 
  -29894   -29947   -29958   -29956   -29941   -29902   -29874   -29860 
  -29854   -29883   -29918   -29903   -29877   -29876   -29879   -29887 
  -29908   -29902   -29854   -29816   -29823   -29837   -29853   -29896 
  -29920   -29910   -29911   -29905   -29868   -29853   -29869   -29881 
  -29880   -29886   -29908   -29918   -29914   -29922   -29911   -29847 
  -29798   -29820   -29869   -29906   -29929   -29924   -29896   -29880 
  -29882   -29886   -29881   -29863   -29848   -29842   -29848   -29863 
  -29885   -29920   -29942   -29924   -29906   -29898   -29859   -29822 
  -29836   -29864   -29885   -29920   -29943   -29932   -29911   -29885 
  -29870   -29899   -29943   -29935   -29880   -29842   -29848   -29878 
  -29917   -29933   -29918   -29896   -29875   -29845   -29831   -29853 
  -29885   -29897   -29901   -29898   -29863   -29824   -29847   -29902 
  -29918   -29917   -29926   -29903   -29870   -29887   -29912   -29901 
  -29889   -29887   -29892   -29905   -29888   -29831   -29794   -29806 
  -29852   -29905   -29919   -29904   -29893   -29870   -29853   -29885 
  -29926   -29928   -29910   -29898   -29875   -29838   -29826   -29855 
  -29884   -29892   -29897   -29902   -29901   -29900   -29907   -29933 
  -29966   -29964   -29923   -29890   -29880   -29883   -29886   -29873 
  -29854   -29849   -29867   -29907   -29936   -29926   -29917   -29910 
  -29862   -29805   -29790   -29817   -29871   -29922   -29938   -29917 
  -29881   -29856   -29831   -29810   -29855   -29942   -29959   -29904 
  -29860   -29844   -29863   -29911   -29936   -29932   -29914   -29884 
  -29898   -29935   -29914   -29882   -29908   -29944   -29958   -29954 
  -29906   -29842   -29825   -29854   -29884   -29868   -29819   -29831 
  -29905   -29947   -29950   -29941   -29893   -29832   -29821   -29849 
  -29886   -29925   -29955   -29959   -29923   -29873   -29856   -29856 
  -29853   -29881   -29925   -29935   -29925   -29915   -29891   -29850 
  -29811   -29805   -29830   -29878   -29933   -29922   -29850   -29829 
  -29875   -29917   -29920   -29884   -29846   -29821   -29793   -29801 
  -29852   -29886   -29918   -29972   -29981   -29930   -29893   -29880 
  -29864   -29861   -29871   -29876   -29874   -29853   -29842   -29893 
  -29945   -29943   -29937   -29939   -29917   -29895   -29888   -29891 
  -29890   -29873   -29865   -29880   -29912   -29944   -29925   -29861 
  -29849   -29887   -29902   -29894   -29871   -29854   -29879   -29906 
  -29901   -29896   -29894   -29893   -29886   -29867   -29874   -29896 
  -29892   -29881   -29877   -29872   -29889   -29906   -29908   -29918 
  -29903   -29855   -29846   -29866   -29880   -29916   -29942   -29910 
  -29860   -29836   -29835   -29823   -29803   -29808   -29826   -29849 
  -29894   -29917   -29907   -29914   -29912   -29872   -29852   -29847 
  -29839   -29866   -29910   -29929   -29933   -29929   -29916   -29909 
  -29909   -29923   -29942   -29949   -29950   -29940   -29917   -29896 
  -29882   -29886   -29901   -29901   -29892   -29887   -29879   -29868 
  -29864   -29872   -29891   -29901   -29891   -29883   -29875   -29838 
  -29817   -29859   -29899   -29885   -29882   -29905   -29876   -29818 
  -29826   -29873   -29905   -29940   -29951   -29910   -29870   -29861 
  -29875   -29896   -29901   -29890   -29872   -29862   -29869   -29879 
  -29903   -29946   -29949   -29920   -29912   -29894   -29859   -29867 
  -29896   -29911   -29926   -29917   -29879   -29853   -29842   -29858 
  -29915   -29949   -29921   -29889   -29885   -29880   -29864   -29852 
  -29851   -29868   -29890   -29883   -29854   -29857   -29892   -29916 
  -29929   -29929   -29904   -29890   -29886   -29873   -29875   -29881 
  -29862   -29850   -29865   -29890   -29907   -29895   -29876   -29893 
  -29943   -29991   -29984   -29920   -29873   -29868   -29868   -29865 
  -29852   -29826   -29821   -29843   -29874   -29906   -29927   -29931 
  -29910   -29859   -29825   -29826   -29842   -29896   -29946   -29928 
  -29895   -29869   -29812   -29782   -29818   -29859   -29888   -29911 
  -29899   -29860   -29842   -29856   -29866   -29850   -29847   -29897 
  -29951   -29950   -29929   -29920   -29895   -29859   -29857   -29883 
  -29905   -29905   -29884   -29863   -29882   -29915   -29897   -29848 
  -29830   -29855   -29908   -29956   -29953   -29907   -29872   -29865 
  -29893   -29938   -29949   -29920   -29871   -29804   -29779   -29833 
  -29899   -29922   -29917   -29899   -29882   -29882   -29902   -29920 
  -29908   -29877   -29870   -29885   -29874   -29843   -29827   -29840 
  -29883   -29924   -29921   -29888   -29852   -29841   -29880   -29935 
  -29961   -29971   -29957   -29912   -29882   -29883   -29879   -29866 
  -29861   -29868   -29883   -29908   -29943   -29957   -29931   -29895 
  -29867   -29860   -29887   -29915   -29917   -29914   -29891   -29854 
  -29861   -29900   -29909   -29901   -29903   -29899   -29884   -29872 
  -29873   -29864   -29836   -29827   -29865   -29925   -29954   -29930 
  -29886   -29852   -29839   -29876   -29940   -29945   -29899   -29884 
  -29897   -29905   -29912   -29901   -29862   -29847   -29878   -29897 
  -29879   -29866   -29868   -29878   -29912   -29948   -29950   -29927 
  -29881   -29818   -29788   -29810   -29843   -29878   -29912   -29908 
  -29871   -29844   -29831   -29830   -29856   -29901   -29935   -29940 
  -29933   -29922   -29903   -29911   -29934   -29899   -29842   -29842 
  -29845   -29839   -29882   -29924   -29920   -29910   -29872   -29799 
  -29787   -29863   -29950   -29981   -29931   -29846   -29802   -29809 
  -29826   -29838   -29838   -29821   -29807   -29809   -29822   -29858 
  -29908   -29929   -29926   -29919   -29888   -29852   -29847   -29849 
  -29826   -29796   -29787   -29806   -29832   -29833   -29833   -29864 
  -29899   -29917   -29916   -29880   -29821   -29773   -29741   -29753 
  -29821   -29892   -29928   -29938   -29921   -29894   -29881   -29885 
  -29905   -29931   -29934   -29926   -29926   -29916   -29892   -29882 
  -29892   -29898   -29891   -29876   -29875   -29892   -29901   -29921 
  -29978   -30007   -29975   -29950   -29945   -29925   -29918   -29922 
  -29903   -29893   -29923   -29953   -29962   -29952   -29923   -29888 
  -29882   -29902   -29907   -29884   -29868   -29883   -29908   -29936 
  -29960   -29952   -29917   -29898   -29901   -29898   -29888   -29902 
  -29941   -29972   -29975   -29965   -29959   -29964   -29961   -29939 
  -29928   -29920   -29870   -29808   -29794   -29800   -29787   -29778 
  -29790   -29815   -29847   -29872   -29878   -29868   -29842   -29813 
  -29815   -29835   -29837   -29828   -29813   -29789   -29790   -29840 
  -29898   -29915   -29909   -29912   -29908   -29879   -29854   -29853 
  -29865   -29870   -29872   -29896   -29923   -29909   -29880   -29879 
  -29902   -29936   -29961   -29950   -29924   -29908   -29915   -29961 
  -30020   -30048   -30051   -30045   -30027   -30008   -29986   -29944 
  -29906   -29904   -29916   -29921   -29932   -29963   -29989   -29983 
  -29969   -29977   -29995   -30010   -30016   -29997   -29962   -29944 
  -29942   -29952   -29959   -29916   -29832   -29784   -29796   -29853 
  -29921   -29939   -29912   -29897   -29891   -29880   -29877   -29884 
  -29897   -29898   -29872   -29858   -29873   -29870   -29854   -29875 
  -29911   -29916   -29894   -29858   -29840   -29861   -29881   -29855 
  -29796   -29728   -29677   -29671   -29709   -29759   -29784   -29763 
  -29737   -29729   -29718   -29731   -29792   -29847   -29883   -29921 
  -29940   -29930   -29914   -29905   -29913   -29940   -29969   -29990 
  -29988   -29960   -29933   -29923   -29920   -29916   -29910   -29925 
  -29981   -30039   -30048   -30018   -29977   -29951   -29971   -30006 
  -30001   -29957   -29905   -29873   -29883   -29926   -29983   -30029 
  -30047   -30044   -30024   -29985   -29931   -29865   -29806   -29778 
  -29775   -29790   -29805   -29784   -29747   -29749   -29779   -29804 
  -29819   -29828   -29833   -29832   -29826   -29829   -29838   -29822 
  -29790   -29778   -29786   -29791   -29796   -29819   -29864   -29910 
  -29916   -29865   -29794   -29741   -29710   -29703   -29725   -29757 
  -29770   -29774   -29788   -29799   -29809   -29833   -29838   -29813 
  -29802   -29811   -29826   -29854   -29871   -29856   -29833   -29816 
  -29804   -29812   -29843   -29894   -29966   -30034   -30065   -30061 
  -30055   -30056   -30057   -30047   -30020   -29974   -29915   -29869 
  -29858   -29866   -29879   -29903   -29926   -29950   -29986   -30015 
  -30021   -30002   -29964   -29944   -29938   -29904   -29869   -29858 
  -29837   -29812   -29810   -29816   -29822   -29829   -29816   -29785 
  -29774   -29788   -29807   -29829   -29840   -29821   -29798   -29793 
  -29797   -29810   -29824   -29815   -29799   -29814   -29860   -29899 
  -29914   -29906   -29888   -29888   -29902   -29911   -29916   -29901 
  -29861   -29851   -29893   -29942   -29983   -30019   -30017   -29968 
  -29907   -29860   -29841   -29859   -29899   -29925   -29923   -29918 
  -29927   -29947   -29965   -29955   -29934   -29941   -29941   -29902 
  -29865   -29854   -29852   -29875   -29935   -29995   -30036   -30079 
  -30129   -30152   -30129   -30053   -29947   -29870   -29854   -29871 
  -29893   -29900   -29886   -29870   -29874   -29899   -29919   -29908 
  -29877   -29851   -29834   -29821   -29825   -29859   -29889   -29871 
  -29819   -29771   -29746   -29751   -29784   -29822   -29840   -29832 
  -29798   -29759   -29742   -29754   -29777   -29800   -29825   -29851 
  -29875   -29896   -29902   -29887   -29869   -29866   -29888   -29942 
  -30015   -30059   -30064   -30054   -30028   -29986   -29946   -29914 
  -29904   -29924   -29948   -29953   -29948   -29942   -29938   -29951 
  -29975   -29984   -29963   -29927   -29892   -29872   -29875   -29881 
  -29860   -29839   -29856   -29892   -29931   -29968   -29981   -29982 
  -29994   -29991   -29965   -29953   -29939   -29890   -29837   -29810 
  -29809   -29840   -29891   -29926   -29927   -29898   -29854   -29827 
  -29820   -29795   -29749   -29719   -29731   -29764   -29785   -29793 
  -29803   -29811   -29817   -29823   -29820   -29806   -29807   -29827 
  -29830   -29795   -29766   -29767   -29785   -29817   -29839   -29828 
  -29816   -29825   -29846   -29887   -29942   -29968   -29954   -29921 
  -29881   -29861   -29875   -29882   -29870   -29876   -29894   -29901 
  -29916   -29950   -29962   -29929   -29896   -29886   -29892   -29921 
  -29960   -29981   -29997   -30011   -30005   -29987   -29959   -29911 
  -29871   -29859   -29861   -29878   -29907   -29928   -29943   -29950 
  -29934   -29910   -29888   -29876   -29894   -29929   -29947   -29960 
  -29970   -29965   -29955   -29943   -29923   -29895   -29856   -29828 
  -29833   -29840   -29840   -29853   -29870   -29891   -29920   -29935 
  -29939   -29947   -29956   -29963   -29958   -29935   -29904   -29875 
  -29866   -29884   -29888   -29875   -29873   -29879   -29904   -29938 
  -29930   -29880   -29819   -29753   -29721   -29739   -29757   -29746 
  -29728   -29723   -29732   -29745   -29741   -29718   -29693   -29688 
  -29711   -29759   -29823   -29875   -29885   -29882   -29889   -29882 
  -29870   -29878   -29888   -29886   -29886   -29895   -29917   -29949 
  -29967   -29953   -29919   -29882   -29865   -29886   -29903   -29888 
  -29880   -29905   -29954   -30021   -30071   -30062   -30021   -29987 
  -29961   -29946   -29932   -29912   -29909   -29923   -29927   -29940 
  -29973   -29973   -29939   -29942   -29983   -30012   -30030   -30033 
  -30007   -29976   -29942   -29889   -29862   -29882   -29915   -29945 
  -29962   -29964   -29977   -29989   -29967   -29946   -29933   -29892 
  -29848   -29835   -29838   -29853   -29868   -29867   -29862   -29865 
  -29881   -29906   -29928   -29947   -29958   -29945   -29926   -29916 
  -29894   -29866   -29843   -29815   -29792   -29782   -29770   -29756 
  -29740   -29726   -29735   -29765   -29788   -29779   -29742   -29706 
  -29695   -29725   -29773   -29798   -29825   -29871   -29879   -29843 
  -29821   -29822   -29855   -29912   -29926   -29896   -29892   -29905 
  -29906   -29923   -29960   -29977   -29967   -29962   -29969   -29975 
  -29977   -29973   -29961   -29942   -29922   -29909   -29904   -29899 
  -29901   -29920   -29946   -29952   -29939   -29927   -29923   -29935 
  -29945   -29922   -29874   -29831   -29804   -29792   -29801   -29844 
  -29900   -29935   -29948   -29945   -29931   -29912   -29877   -29839 
  -29811   -29787   -29780   -29790   -29785   -29779   -29790   -29793 
  -29800   -29835   -29878   -29904   -29912   -29922   -29950   -29977 
  -29981   -29964   -29926   -29887   -29865   -29851   -29876   -29953 
  -30021   -30050   -30050   -30020   -29984   -29950   -29901   -29866 
  -29864   -29859   -29846   -29845   -29845   -29842   -29848   -29844 
  -29813   -29780   -29779   -29824   -29894   -29949   -29977   -29976 
  -29944   -29902   -29866   -29832   -29814   -29824   -29841   -29865 
  -29898   -29908   -29900   -29902   -29899   -29892   -29894   -29889 
  -29874   -29868   -29879   -29891   -29885   -29871   -29862   -29844 
  -29827   -29829   -29837   -29848   -29861   -29873   -29888   -29898 
  -29893   -29897   -29914   -29926   -29931   -29929   -29923   -29928 
  -29945   -29947   -29918   -29884   -29859   -29830   -29808   -29820 
  -29853   -29891   -29935   -29973   -29990   -29986   -29963   -29933 
  -29910   -29896   -29885   -29884   -29902   -29917   -29905   -29887 
  -29879   -29883   -29910   -29952   -29970   -29966   -29967   -29969 
  -29966   -29966   -29952   -29912   -29867   -29827   -29792   -29769 
  -29771   -29807   -29861   -29900   -29913   -29905   -29889   -29870 
  -29841   -29806   -29784   -29775   -29777   -29791   -29793   -29768 
  -29749   -29758   -29786   -29827   -29861   -29879   -29891   -29892 
  -29879   -29862   -29840   -29827   -29839   -29860   -29881   -29910 
  -29934   -29930   -29892   -29839   -29818   -29834   -29857   -29881 
  -29907   -29930   -29959   -29971   -29944   -29911   -29895   -29909 
  -29962   -29996   -29985   -29982   -29995   -29990   -29965   -29933 
  -29911   -29903   -29891   -29888   -29894   -29888   -29889   -29911 
  -29931   -29948   -29952   -29921   -29876   -29852   -29841   -29845 
  -29873   -29895   -29897   -29897   -29900   -29911   -29925   -29929 
  -29931   -29927   -29897   -29868   -29862   -29860   -29859   -29875 
  -29892   -29901   -29914   -29933   -29947   -29955   -29954   -29941 
  -29917   -29887   -29858   -29835   -29816   -29809   -29822   -29846 
  -29868   -29883   -29887   -29889   -29904   -29897   -29840   -29779 
  -29755   -29754   -29771   -29803   -29827   -29841   -29865   -29903 
  -29930   -29929   -29925   -29925   -29899   -29858   -29841   -29856 
  -29883   -29902   -29917   -29949   -29994   -30029   -30041   -30021 
  -29982   -29943   -29910   -29888   -29881   -29877   -29869   -29876 
  -29897   -29907   -29913   -29926   -29929   -29928   -29927   -29898 
