Origin Time       2025/03/30 22:55:00
Lat.              41.993
Long.             142.725
Depth. (km)       55
Mag.              4.6
Station Code      HDKH03
Station Lat.      42.5934
Station Long.     142.3521
Station Height(m) 54
Record Time       2025/03/30 22:56:27
Sampling Freq(Hz) 100Hz
Duration Time(s)  120
Dir.              1
Scale Factor      2942(gal)/8224139
Max. Acc. (gal)   0.119
Last Correction   2025/03/30 22:56:11
Memo.             
[...]
  -35908   -35912   -35919   -35920   -35916   -35915   -35920   -35926 
  -35926   -35923   -35911   -35897   -35889   -35892   -35907   -35918 
  -35918   -35910   -35901   -35901   -35912   -35916   -35910   -35897 
  -35885   -35883   -35892   -35910   -35923   -35930   -35927   -35916 
  -35900   -35884   -35870   -35864   -35868   -35876   -35881   -35883 
  -35888   -35904   -35920   -35926   -35924   -35923   -35919   -35910 
  -35900   -35891   -35874   -35864   -35870   -35897   -35930   -35939 
  -35915   -35883   -35881   -35910   -35941   -35959   -35953   -35924 
  -35899   -35883   -35877   -35895   -35931   -35958   -35954   -35935 
  -35916   -35911   -35916   -35920   -35920   -35919   -35918   -35912 
  -35907   -35905   -35908   -35912   -35916   -35923   -35932   -35937 
  -35928   -35910   -35889   -35880   -35884   -35892   -35893   -35888 
  -35891   -35901   -35911   -35912   -35911   -35908   -35915   -35928 
  -35937   -35938   -35927   -35905   -35889   -35904   -35947   -35992 
  -36003   -35970   -35916   -35874   -35862   -35876   -35901   -35927 
  -35932   -35920   -35903   -35891   -35895   -35920   -35958   -35992 
  -36009   -36001   -35974   -35939   -35903   -35884   -35888   -35907 
  -35930   -35939   -35922   -35893   -35872   -35857   -35851   -35857 
  -35872   -35888   -35899   -35901   -35903   -35897   -35892   -35897 
  -35911   -35923   -35915   -35877   -35833   -35811   -35827   -35873 
  -35916   -35930   -35918   -35895   -35880   -35884   -35904   -35924 
  -35926   -35903   -35872   -35853   -35849   -35858   -35884   -35919 
  -35950   -35970   -35972   -35954   -35928   -35896   -35869   -35858 
  -35869   -35897   -35930   -35959   -35977   -35977   -35972   -35972 
  -35964   -35935   -35901   -35884   -35877   -35873   -35869   -35870 
  -35884   -35900   -35908   -35900   -35887   -35889   -35910   -35927 
  -35935   -35938   -35934   -35922   -35911   -35905   -35908   -35919 
  -35928   -35928   -35926   -35928   -35931   -35927   -35908   -35888 
  -35891   -35910   -35918   -35903   -35885   -35877   -35878   -35884 
  -35888   -35891   -35895   -35899   -35907   -35907   -35896   -35896 
  -35915   -35939   -35951   -35946   -35928   -35918   -35919   -35920 
  -35912   -35896   -35877   -35866   -35869   -35877   -35884   -35893 
  -35905   -35915   -35916   -35912   -35908   -35907   -35907   -35903 
  -35892   -35887   -35895   -35914   -35928   -35932   -35934   -35941 
  -35951   -35964   -35974   -35985   -35996   -36005   -36011   -36001 
  -35970   -35930   -35901   -35891   -35897   -35918   -35938   -35947 
  -35937   -35910   -35880   -35868   -35884   -35915   -35937   -35939 
  -35924   -35903   -35884   -35872   -35873   -35883   -35896   -35915 
  -35931   -35938   -35941   -35946   -35946   -35937   -35923   -35908 
  -35888   -35868   -35857   -35841   -35811   -35791   -35799   -35823 
  -35841   -35849   -35861   -35883   -35915   -35945   -35958   -35951 
  -35932   -35916   -35907   -35893   -35878   -35880   -35895   -35904 
  -35910   -35912   -35914   -35920   -35926   -35923   -35905   -35883 
  -35868   -35872   -35897   -35939   -35984   -36012   -36018   -35999 
  -35958   -35912   -35881   -35874   -35880   -35893   -35916   -35939 
  -35954   -35951   -35926   -35897   -35884   -35881   -35889   -35915 
  -35947   -35969   -35977   -35974   -35953   -35919   -35892   -35877 
  -35872   -35873   -35874   -35866   -35856   -35851   -35854   -35854 
  -35847   -35843   -35849   -35865   -35891   -35914   -35923   -35930 
  -35938   -35941   -35942   -35941   -35920   -35891   -35864   -35838 
  -35816   -35819   -35843   -35873   -35901   -35931   -35959   -35980 
  -35989   -35981   -35964   -35954   -35951   -35951   -35949   -35939 
  -35935   -35932   -35923   -35916   -35928   -35953   -35974   -35988 
  -35992   -35986   -35973   -35962   -35964   -35972   -35966   -35934 
  -35896   -35881   -35884   -35891   -35901   -35908   -35918   -35935 
  -35943   -35938   -35923   -35897   -35868   -35845   -35822   -35797 
  -35792   -35807   -35827   -35851   -35880   -35903   -35919   -35945 
  -35977   -35995   -35982   -35946   -35905   -35878   -35869   -35864 
  -35861   -35866   -35883   -35901   -35910   -35915   -35931   -35951 
  -35959   -35951   -35934   -35904   -35870   -35850   -35851   -35856 
  -35861   -35883   -35923   -35966   -35995   -36001   -35997   -35991 
  -35986   -35973   -35941   -35910   -35901   -35911   -35920   -35924 
  -35931   -35942   -35943   -35922   -35883   -35838   -35811   -35804 
  -35818   -35843   -35872   -35893   -35905   -35911   -35922   -35942 
  -35964   -35974   -35972   -35962   -35955   -35949   -35932   -35908 
  -35892   -35888   -35884   -35872   -35865   -35868   -35874   -35880 
  -35888   -35888   -35877   -35865   -35858   -35862   -35869   -35866 
  -35857   -35849   -35849   -35846   -35839   -35850   -35889   -35938 
  -35970   -35980   -35976   -35970   -35961   -35938   -35911   -35891 
  -35874   -35861   -35847   -35839   -35851   -35885   -35920   -35943 
  -35966   -35996   -36012   -36008   -35993   -35978   -35961   -35931 
  -35891   -35860   -35853   -35880   -35924   -35950   -35939   -35915 
  -35897   -35895   -35908   -35920   -35920   -35912   -35903   -35904 
  -35934   -35997   -36073   -36126   -36142   -36126   -36086   -36027 
  -35959   -35896   -35849   -35814   -35795   -35797   -35816   -35835 
  -35854   -35878   -35900   -35910   -35908   -35904   -35905   -35916 
  -35926   -35926   -35922   -35919   -35915   -35910   -35901   -35885 
  -35869   -35857   -35846   -35838   -35837   -35847   -35862   -35870 
  -35877   -35881   -35880   -35881   -35883   -35881   -35883   -35887 
  -35887   -35893   -35911   -35930   -35938   -35942   -35950   -35949 
  -35934   -35920   -35903   -35870   -35835   -35807   -35802   -35831 
  -35884   -35941   -35986   -36020   -36036   -36038   -36032   -36012 
  -35970   -35928   -35900   -35881   -35874   -35874   -35873   -35884 
  -35911   -35932   -35938   -35923   -35896   -35873   -35858   -35860 
  -35881   -35908   -35922   -35927   -35927   -35923   -35912   -35899 
  -35887   -35878   -35878   -35883   -35881   -35874   -35862   -35853 
  -35853   -35862   -35876   -35889   -35891   -35873   -35850   -35839 
  -35841   -35841   -35839   -35856   -35891   -35918   -35939   -35973 
  -36015   -36054   -36076   -36063   -36024   -35972   -35926   -35903 
  -35907   -35922   -35927   -35911   -35883   -35858   -35849   -35854 
  -35878   -35912   -35935   -35947   -35961   -35968   -35969   -35973 
  -35976   -35969   -35961   -35953   -35943   -35937   -35941   -35949 
  -35955   -35958   -35957   -35941   -35910   -35876   -35843   -35820 
  -35822   -35847   -35878   -35900   -35912   -35922   -35926   -35926 
  -35928   -35923   -35910   -35903   -35900   -35889   -35865   -35830 
  -35806   -35803   -35812   -35823   -35833   -35850   -35880   -35900 
  -35903   -35901   -35904   -35912   -35919   -35920   -35920   -35922 
  -35920   -35914   -35904   -35893   -35889   -35901   -35919   -35939 
  -35965   -35984   -35978   -35957   -35945   -35951   -35959   -35953 
  -35937   -35928   -35941   -35974   -36016   -36046   -36054   -36046 
  -36022   -35993   -35966   -35938   -35904   -35868   -35842   -35824 
  -35806   -35793   -35803   -35834   -35888   -35931   -35945   -35949 
  -35954   -35950   -35928   -35903   -35893   -35899   -35908   -35915 
  -35916   -35914   -35915   -35924   -35928   -35922   -35904   -35877 
  -35849   -35831   -35826   -35838   -35864   -35888   -35907   -35918 
  -35916   -35904   -35893   -35896   -35919   -35950   -35970   -35973 
  -35970   -35965   -35955   -35941   -35919   -35887   -35861   -35856 
  -35868   -35893   -35920   -35938   -35941   -35931   -35918   -35914 
  -35914   -35904   -35889   -35892   -35911   -35939   -35966   -35978 
  -35973   -35968   -35966   -35949   -35908   -35869   -35853   -35854 
  -35864   -35878   -35895   -35903   -35901   -35900   -35899   -35896 
  -35896   -35889   -35874   -35858   -35841   -35834   -35843   -35858 
  -35874   -35891   -35907   -35919   -35923   -35914   -35901   -35892 
  -35881   -35874   -35869   -35857   -35847   -35853   -35873   -35892 
  -35901   -35908   -35923   -35943   -35959   -35953   -35930   -35911 
  -35900   -35887   -35874   -35872   -35878   -35892   -35908   -35927 
  -35941   -35958   -35989   -36022   -36038   -36030   -36015   -36003 
  -35995   -35989   -35985   -35974   -35970   -35973   -35965   -35949 
  -35946   -35953   -35953   -35941   -35924   -35915   -35915   -35922 
  -35930   -35943   -35950   -35942   -35926   -35915   -35905   -35897 
  -35889   -35872   -35838   -35799   -35777   -35784   -35812   -35845 
  -35868   -35874   -35872   -35873   -35874   -35876   -35889   -35911 
  -35918   -35897   -35849   -35800   -35781   -35783   -35787   -35795 
  -35819   -35850   -35880   -35907   -35937   -35964   -35980   -35985 
  -35982   -35972   -35953   -35934   -35924   -35923   -35928   -35931 
  -35920   -35896   -35872   -35864   -35873   -35889   -35910   -35938 
  -35962   -35978   -35997   -36023   -36043   -36045   -36020   -35965 
  -35899   -35864   -35874   -35904   -35938   -35962   -35969   -35951 
  -35927   -35920   -35938   -35958   -35961   -35949   -35926   -35903 
  -35885   -35872   -35857   -35849   -35853   -35868   -35880   -35885 
  -35889   -35893   -35901   -35907   -35916   -35934   -35943   -35931 
  -35915   -35918   -35931   -35942   -35942   -35928   -35901   -35870 
  -35846   -35833   -35830   -35843   -35872   -35893   -35887   -35864 
  -35835   -35815   -35820   -35857   -35895   -35908   -35905   -35895 
  -35889   -35897   -35915   -35926   -35920   -35893   -35854   -35820 
  -35795   -35784   -35799   -35826   -35849   -35861   -35866   -35872 
  -35878   -35881   -35881   -35887   -35897   -35910   -35916   -35920 
  -35926   -35924   -35919   -35915   -35912   -35915   -35924   -35934 
  -35934   -35914   -35883   -35854   -35833   -35812   -35793   -35785 
  -35800   -35843   -35893   -35928   -35947   -35957   -35964   -35965 
  -35951   -35924   -35893   -35870   -35847   -35818   -35783   -35758 
  -35754   -35762   -35772   -35788   -35823   -35873   -35922   -35959 
  -35989   -36013   -36030   -36026   -36004   -35976   -35953   -35947 
  -35949   -35947   -35953   -35970   -35986   -35993   -35986   -35964 
  -35924   -35888   -35874   -35880   -35893   -35918   -35957   -36000 
  -36038   -36076   -36123   -36173   -36208   -36213   -36194   -36157 
  -36101   -36036   -35964   -35884   -35815   -35765   -35735   -35719 
  -35707   -35710   -35748   -35816   -35887   -35941   -35969   -35970 
  -35958   -35942   -35927   -35928   -35947   -35977   -36009   -36032 
  -36036   -36024   -35993   -35950   -35905   -35865   -35824   -35781 
  -35748   -35743   -35768   -35808   -35853   -35907   -35968   -36022 
  -36047   -36045   -36027   -36005   -35985   -35968   -35954   -35945 
  -35939   -35942   -35943   -35942   -35939   -35937   -35935   -35938 
  -35932   -35912   -35887   -35872   -35877   -35896   -35928   -35972 
  -36009   -36035   -36054   -36058   -36046   -36030   -36005   -35968 
  -35916   -35856   -35797   -35745   -35702   -35679   -35676   -35699 
  -35745   -35799   -35857   -35918   -35974   -36019   -36054   -36080 
  -36097   -36104   -36100   -36077   -36035   -35981   -35914   -35845 
  -35785   -35741   -35719   -35718   -35722   -35734   -35770   -35826 
  -35878   -35905   -35900   -35872   -35841   -35818   -35814   -35839 
  -35885   -35927   -35949   -35954   -35947   -35928   -35900   -35888 
  -35903   -35938   -35982   -36015   -36013   -35968   -35881   -35783 
  -35704   -35656   -35648   -35691   -35779   -35887   -35986   -36039 
  -36034   -35995   -35953   -35928   -35930   -35955   -35992   -36022 
  -36035   -36026   -35999   -35961   -35914   -35864   -35822   -35797 
  -35791   -35789   -35788   -35791   -35803   -35823   -35846   -35857 
  -35858   -35861   -35876   -35908   -35954   -36003   -36045   -36078 
  -36097   -36109   -36127   -36144   -36148   -36136   -36116   -36088 
  -36051   -36009   -35974   -35953   -35947   -35959   -35976   -35977 
  -35959   -35931   -35904   -35892   -35883   -35866   -35851   -35843 
  -35843   -35847   -35843   -35839   -35854   -35884   -35901   -35896 
  -35872   -35841   -35823   -35827   -35845   -35872   -35905   -35930 
  -35939   -35935   -35914   -35869   -35815   -35772   -35746   -35729 
  -35707   -35677   -35653   -35657   -35694   -35752   -35818   -35880 
  -35926   -35950   -35965   -35978   -35985   -35991   -36007   -36036 
  -36059   -36058   -36038   -36004   -35968   -35937   -35914   -35896 
  -35887   -35888   -35900   -35900   -35884   -35876   -35892   -35922 
  -35964   -36009   -36049   -36073   -36076   -36058   -36036   -36012 
  -35976   -35920   -35861   -35814   -35796   -35800   -35815   -35837 
  -35876   -35938   -36009   -36065   -36078   -36047   -35997   -35950 
  -35923   -35922   -35923   -35897   -35854   -35812   -35776   -35743 
  -35730   -35739   -35765   -35796   -35820   -35834   -35835   -35830 
  -35826   -35830   -35845   -35872   -35901   -35931   -35958   -35984 
  -35991   -35961   -35904   -35849   -35804   -35777   -35773   -35795 
  -35833   -35872   -35895   -35891   -35866   -35835   -35804   -35762 
  -35727   -35722   -35752   -35811   -35903   -36011   -36111   -36186 
  -36231   -36243   -36231   -36202   -36163   -36107   -36019   -35916 
  -35823   -35749   -35699   -35676   -35680   -35718   -35780   -35841 
  -35887   -35918   -35943   -35969   -35995   -36028   -36072   -36117 
  -36144   -36134   -36092   -36047   -36022   -36027   -36067   -36113 
  -36128   -36112   -36076   -36030   -35982   -35945   -35923   -35908 
  -35895   -35889   -35905   -35935   -35958   -35958   -35939   -35912 
  -35895   -35897   -35911   -35928   -35954   -35977   -35981   -35955 
  -35907   -35849   -35802   -35775   -35766   -35772   -35777   -35768 
  -35752   -35738   -35725   -35711   -35704   -35702   -35692   -35684 
  -35680   -35675   -35669   -35689   -35735   -35788   -35837   -35883 
  -35934   -35977   -35982   -35938   -35862   -35779   -35707   -35675 
  -35695   -35764   -35857   -35942   -35997   -36030   -36039   -36019 
  -35985   -35958   -35950   -35976   -36020   -36047   -36030   -35974 
  -35914   -35877   -35862   -35873   -35912   -35968   -36022   -36061 
  -36085   -36093   -36084   -36061   -36016   -35957   -35901   -35856 
  -35824   -35815   -35826   -35846   -35874   -35907   -35934   -35958 
  -35981   -35996   -36008   -36019   -36018   -36001   -35978   -35965 
  -35972   -35996   -36023   -36027   -35996   -35946   -35904   -35891 
  -35912   -35954   -35999   -36038   -36062   -36070   -36069   -36054 
  -36020   -35970   -35910   -35854   -35820   -35806   -35808   -35830 
  -35864   -35889   -35895   -35880   -35858   -35831   -35793   -35734 
  -35662   -35611   -35606   -35645   -35716   -35811   -35926   -36045 
  -36135   -36161   -36130   -36078   -36030   -35992   -35968   -35947 
  -35926   -35915   -35916   -35932   -35965   -36001   -36028   -36036 
  -36026   -36004   -35982   -35968   -35943   -35897   -35835   -35776 
  -35742   -35746   -35780   -35824   -35874   -35914   -35928   -35923 
  -35905   -35870   -35827   -35796   -35796   -35827   -35883   -35945 
  -35996   -36042   -36085   -36120   -36140   -36139   -36117   -36077 
  -36018   -35953   -35901   -35865   -35851   -35866   -35905   -35961 
  -36009   -36027   -36009   -35969   -35927   -35892   -35872   -35877 
  -35904   -35924   -35931   -35932   -35928   -35920   -35912   -35903 
  -35885   -35868   -35853   -35834   -35808   -35785   -35761   -35741 
  -35731   -35738   -35762   -35795   -35826   -35849   -35868   -35899 
  -35938   -35964   -35961   -35942   -35931   -35927   -35911   -35883 
  -35857   -35851   -35866   -35884   -35893   -35900   -35911   -35928 
  -35945   -35949   -35935   -35910   -35885   -35870   -35870   -35892 
  -35912   -35905   -35873   -35826   -35770   -35718   -35685   -35679 
  -35691   -35712   -35748   -35791   -35835   -35887   -35937   -35974 
  -35999   -36023   -36050   -36076   -36085   -36074   -36046   -35997 
  -35934   -35869   -35819   -35791   -35781   -35787   -35796   -35799 
  -35799   -35795   -35797   -35812   -35837   -35870   -35904   -35930 
  -35949   -35973   -36005   -36039   -36066   -36084   -36086   -36070 
  -36042   -36005   -35961   -35912   -35868   -35838   -35835   -35849 
  -35862   -35861   -35846   -35835   -35835   -35829   -35804   -35776 
  -35765   -35773   -35792   -35816   -35842   -35869   -35892   -35903 
  -35900   -35895   -35891   -35884   -35873   -35868   -35872   -35895 
  -35932   -35978   -36023   -36062   -36097   -36128   -36148   -36158 
  -36155   -36150   -36151   -36154   -36148   -36123   -36086   -36053 
  -36034   -36028   -36027   -36024   -36027   -36035   -36040   -36043 
  -36042   -36038   -36031   -36026   -36011   -35977   -35926   -35858 
  -35787   -35737   -35727   -35753   -35789   -35827   -35873   -35912 
  -35927   -35922   -35905   -35891   -35878   -35864   -35845   -35829 
  -35819   -35815   -35814   -35814   -35815   -35819   -35830   -35847 
  -35864   -35874   -35873   -35861   -35835   -35792   -35739   -35699 
  -35692   -35723   -35768   -35816   -35853   -35866   -35862   -35850 
  -35831   -35815   -35808   -35808   -35820   -35842   -35869   -35896 
  -35912   -35915   -35907   -35901   -35903   -35908   -35915   -35939 
  -35982   -36031   -36072   -36088   -36072   -36039   -36003   -35968 
  -35941   -35928   -35931   -35939   -35946   -35954   -35968   -35986 
  -36013   -36040   -36055   -36053   -36038   -36019   -36007   -36000 
  -35991   -35961   -35911   -35864   -35829   -35812   -35816   -35827 
  -35827   -35815   -35793   -35773   -35770   -35777   -35781   -35785 
  -35792   -35804   -35824   -35851   -35884   -35923   -35953   -35959 
  -35954   -35955   -35961   -35969   -35970   -35964   -35959   -35972 
  -35991   -36012   -36036   -36061   -36082   -36101   -36105   -36094 
  -36070   -36040   -36005   -35964   -35916   -35869   -35824   -35788 
  -35775   -35785   -35811   -35834   -35843   -35843   -35849   -35874 
  -35918   -35957   -35988   -36016   -36035   -36038   -36026   -36005 
  -35974   -35945   -35923   -35916   -35923   -35939   -35947   -35941 
  -35924   -35903   -35887   -35884   -35895   -35907   -35892   -35846 
  -35781   -35726   -35700   -35710   -35743   -35792   -35839   -35880 
  -35905   -35911   -35892   -35856   -35820   -35795   -35776   -35764 
  -35761   -35775   -35803   -35830   -35849   -35858   -35856   -35854 
  -35870   -35892   -35915   -35945   -35972   -35981   -35972   -35954 
  -35938   -35922   -35907   -35897   -35888   -35881   -35887   -35900 
  -35912   -35923   -35939   -35962   -35986   -36011   -36038   -36058 
  -36073   -36084   -36077   -36042   -35982   -35916   -35857   -35816 
  -35796   -35785   -35780   -35776   -35769   -35768   -35776   -35789 
  -35806   -35823   -35835   -35849   -35860   -35861   -35860   -35858 
  -35850   -35838   -35826   -35818   -35803   -35775   -35745   -35733 
  -35748   -35779   -35811   -35839   -35865   -35889   -35907   -35915 
