Origin Time       2025/03/30 22:55:00
Lat.              41.993
Long.             142.725
Depth. (km)       55
Mag.              4.6
Station Code      HDKH02
Station Lat.      42.7061
Station Long.     142.4054
Station Height(m) 230
Record Time       2025/03/30 22:56:13
Sampling Freq(Hz) 100Hz
Duration Time(s)  120
Dir.              5
Scale Factor      3920(gal)/6170801
Max. Acc. (gal)   0.975
Last Correction   2025/03/30 22:55:58
Memo.             
[...]
   13957    13958    13957    13957    13959    13963    13966    13967 
   13967    13967    13964    13959    13956    13953    13952    13955 
   13960    13967    13975    13982    13986    13988    13986    13977 
   13963    13949    13936    13928    13926    13925    13920    13914 
   13913    13923    13949    13979    13995    13993    13980    13970 
   13972    13975    13946    13870    13767    13685    13678    13761 
   13896    14017    14089    14127    14164    14210    14246    14213 
   14063    13824    13585    13440    13446    13591    13795    13983 
   14112    14174    14201    14244    14328    14413    14414    14267 
   13985    13658    13408    13322    13383    13514    13645    13749 
   13863    14065    14363    14668    14849    14811    14549    14145 
   13700    13307    13052    12986    13110    13373    13702    14041 
   14361    14621    14775    14779    14621    14355    14066    13818 
   13618    13428    13231    13073    13054    13264    13680    14171 
   14601    14883    15008    15009    14871    14551    14064    13490 
   12964    12656    12659    12960    13464    14022    14488    14784 
   14898    14865    14729    14504    14191    13828    13496    13287 
   13266    13409    13615    13788    13888    13929    13967    14050 
   14176    14299    14361    14307    14137    13929    13767    13690 
   13684    13719    13786    13874    13965    14063    14162    14234 
   14260    14217    14072    13858    13676    13596    13626    13736 
   13877    14005    14133    14280    14400    14421    14321    14113 
   13856    13642    13512    13443    13434    13507    13669    13904 
   14162    14354    14425    14392    14301    14194    14080    13940 
   13774    13621    13515    13470    13482    13516    13578    13729 
   13992    14314    14612    14784    14755    14535    14176    13759 
   13417    13269    13330    13529    13780    14013    14176    14261 
   14294    14295    14249    14140    13976    13785    13622    13551 
   13592    13719    13903    14103    14276    14377    14367    14237 
   14012    13750    13531    13427    13492    13725    14036    14291 
   14401    14360    14219    14044    13868    13695    13557    13517 
   13600    13788    14045    14299    14464    14508    14451    14316 
   14164    14034    13882    13659    13400    13214    13218    13444 
   13786    14098    14315    14450    14538    14588    14540    14347 
   14067    13799    13606    13506    13462    13444    13498    13663 
   13911    14158    14287    14228    14032    13805    13636    13571 
   13616    13772    14026    14308    14522    14597    14525    14343 
   14109    13860    13621    13446    13397    13475    13634    13809 
   13929    13989    14055    14175    14329    14457    14485    14377 
   14170    13929    13708    13553    13495    13541    13664    13795 
   13880    13931    13988    14062    14130    14136    14038    13887 
   13774    13758    13834    13920    13938    13904    13905    14002 
   14184    14363    14431    14347    14153    13902    13654    13480 
   13403    13407    13492    13654    13862    14105    14355    14522 
   14547    14440    14233    14002    13838    13787    13845    13967 
   14077    14098    13984    13774    13568    13464    13493    13625 
   13815    14011    14154    14233    14237    14141    13991    13861 
   13784    13800    13910    14005    14006    13966    13960    14016 
   14114    14162    14088    13931    13782    13719    13776    13911 
   14035    14084    14051    13997    13997    14067    14170    14246 
   14236    14119    13948    13804    13738    13738    13719    13621 
   13505    13493    13655    13963    14308    14546    14604    14512 
   14354    14190    14049    13924    13798    13673    13569    13519 
   13541    13621    13719    13798    13849    13891    13958    14063 
   14188    14313    14399    14387    14259    14057    13861    13743 
   13700    13695    13719    13757    13796    13845    13904    13970 
   14053    14140    14184    14175    14135    14062    13958    13873 
   13856    13893    13945    13973    13954    13905    13876    13882 
   13892    13867    13787    13691    13668    13764    13931    14072 
   14115    14077    14039    14049    14102    14150    14130    14031 
   13927    13877    13886    13930    13964    13972    13979    13974 
   13933    13864    13804    13791    13842    13934    14012    14028 
   13987    13929    13907    13956    14059    14174    14269    14298 
   14238    14109    13919    13672    13441    13322    13345    13510 
   13768    14015    14204    14360    14476    14502    14395    14149 
   13855    13635    13535    13545    13609    13659    13705    13803 
   13966    14180    14400    14521    14495    14374    14226    14094 
   13993    13887    13745    13571    13404    13326    13389    13582 
   13872    14199    14454    14547    14478    14292    14071    13915 
   13866    13864    13831    13767    13754    13831    13937    14017 
   14058    14063    14085    14138    14130    14015    13835    13636 
   13478    13431    13521    13730    14009    14287    14473    14496 
   14373    14190    14025    13943    13936    13918    13838    13747 
   13712    13773    13919    14068    14146    14130    14027    13893 
   13813    13808    13850    13887    13866    13806    13780    13824 
   13941    14099    14212    14227    14161    14056    13955    13874 
   13776    13637    13489    13403    13457    13652    13907    14156 
   14345    14423    14410    14348    14273    14225    14201    14164 
   14083    13934    13732    13539    13420    13420    13533    13684 
   13820    13975    14176    14393    14560    14613    14522    14326 
   14095    13874    13692    13579    13543    13572    13653    13748 
   13794    13793    13804    13877    14001    14088    14052    13916 
   13791    13792    13964    14221    14407    14432    14305    14090 
   13860    13659    13471    13280    13167    13234    13511    13950 
   14413    14721    14801    14684    14442    14179    13969    13814 
   13700    13608    13520    13465    13511    13670    13897    14126 
   14264    14278    14231    14179    14143    14126    14087    14013 
   13912    13781    13657    13598    13626    13764    13999    14237 
   14362    14341    14239    14121    13982    13824    13696    13648 
   13718    13879    14015    14036    13970    13911    13923    13997 
   14082    14123    14097    14020    13913    13797    13704    13678 
   13746    13865    13949    13963    13937    13929    13984    14091 
   14212    14307    14348    14296    14124    13899    13725    13638 
   13641    13710    13782    13824    13856    13907    13971    14015 
   14026    14037    14081    14144    14173    14135    14042    13916 
   13792    13703    13671    13716    13842    13988    14073    14075 
   14026    13987    14010    14076    14132    14140    14069    13913 
   13715    13554    13516    13620    13817    14048    14239    14334 
   14353    14329    14257    14137    13985    13811    13650    13544 
   13495    13492    13556    13718    13960    14220    14407    14443 
   14340    14207    14115    14045    13952    13812    13666    13596 
   13638    13759    13917    14071    14189    14255    14233    14099 
   13928    13817    13776    13768    13765    13737    13709    13745 
   13870    14043    14195    14280    14300    14281    14239    14174 
   14080    13961    13857    13793    13732    13636    13531    13481 
   13537    13705    13921    14099    14204    14253    14291    14331 
   14323    14239    14103    13954    13820    13722    13657    13614 
   13601    13643    13750    13918    14125    14318    14427    14423 
   14318    14166    14037    13965    13935    13900    13820    13707 
   13612    13590    13660    13798    13944    14068    14206    14365 
   14488    14495    14340    14061    13771    13562    13456    13414 
   13392    13394    13467    13640    13895    14164    14347    14366 
   14253    14115    14023    13988    13996    14000    13965    13905 
   13848    13806    13803    13852    13920    13986    14063    14130 
   14164    14183    14162    14074    13956    13857    13804    13804 
   13814    13771    13664    13554    13542    13684    13928    14155 
   14273    14277    14230    14180    14135    14097    14046    13967 
   13881    13832    13840    13881    13909    13885    13821    13777 
   13782    13818    13868    13923    13987    14075    14178    14270 
   14325    14325    14260    14155    14051    13979    13947    13952 
   13974    13978    13928    13827    13716    13644    13649    13739 
   13859    13942    13992    14036    14061    14058    14039    14005 
   13954    13893    13831    13786    13792    13868    13980    14066 
   14085    14044    13994    13986    14019    14052    14037    13948 
   13824    13741    13724    13757    13838    13953    14051    14098 
   14085    14005    13871    13730    13634    13619    13697    13848 
   14007    14118    14175    14185    14140    14055    13978    13933 
   13910    13909    13905    13867    13807    13775    13804    13881 
   13962    14015    14046    14096    14188    14288    14340    14302 
   14188    14049    13923    13834    13779    13723    13661    13618 
   13613    13665    13779    13915    14015    14041    13998    13939 
   13940    14018    14104    14135    14114    14080    14059    14065 
   14091    14107    14085    14040    13985    13923    13879    13882 
   13915    13931    13910    13854    13780    13743    13772    13824 
   13868    13897    13888    13864    13884    13948    14017    14073 
   14106    14111    14110    14104    14052    13922    13754    13651 
   13679    13813    13989    14133    14188    14161    14087    13995 
   13918    13864    13813    13776    13771    13802    13887    14021 
   14162    14257    14256    14143    13976    13853    13826    13892 
   14009    14083    14040    13932    13865    13873    13952    14076 
   14149    14119    14033    13943    13880    13868    13881    13873 
   13845    13833    13867    13955    14081    14220    14315    14289 
   14128    13894    13672    13539    13524    13573    13642    13747 
   13884    14014    14101    14106    14010    13890    13843    13881 
   13973    14082    14155    14167    14130    14053    13966    13931 
   13967    14042    14093    14073    14012    13990    14055    14181 
   14278    14259    14118    13930    13770    13671    13627    13620 
   13656    13769    13979    14250    14487    14614    14609    14494 
   14348    14248    14197    14167    14109    13990    13861    13785 
   13768    13788    13801    13767    13693    13612    13577    13650 
   13843    14080    14248    14258    14097    13862    13654    13507 
   13444    13467    13524    13593    13680    13755    13792    13821 
   13875    13973    14110    14235    14276    14220    14111    13987 
   13888    13845    13842    13843    13808    13690    13513    13375 
   13358    13493    13747    14019    14231    14365    14423    14403 
   14308    14149    13955    13773    13627    13527    13502    13561 
   13684    13843    13994    14115    14230    14359    14491    14611 
   14667    14629    14552    14478    14390    14282    14141    13928 
   13656    13374    13121    12958    12955    13114    13390    13725 
   14038    14276    14438    14501    14433    14267    14074    13902 
   13765    13662    13577    13513    13508    13604    13801    14077 
   14391    14684    14919    15060    15042    14833    14470    14015 
   13558    13189    12950    12847    12851    12910    13006    13176 
   13442    13770    14100    14350    14454    14431    14350    14272 
   14247    14258    14230    14127    13961    13786    13675    13644 
   13653    13680    13705    13722    13757    13829    13929    14022 
   14054    13998    13914    13888    13953    14105    14308    14496 
   14635    14738    14783    14717    14535    14288    14062    13939 
   13943    14044    14184    14297    14338    14279    14112    13867 
   13595    13346    13167    13084    13083    13138    13224    13311 
   13393    13495    13619    13740    13860    13997    14153    14299 
   14393    14418    14374    14268    14146    14057    14007    13956 
   13841    13642    13425    13284    13276    13404    13613    13828 
   14020    14178    14284    14345    14360    14301    14193    14090 
   14012    13971    13972    14003    14083    14249    14487    14739 
   14937    15016    14935    14714    14422    14112    13841    13669 
   13591    13601    13707    13836    13900    13880    13789    13669 
   13597    13584    13576    13545    13507    13509    13610    13798 
   13990    14100    14102    14060    14074    14206    14413    14574 
   14574    14370    14046    13744    13526    13383    13305    13254 
   13207    13202    13259    13372    13528    13678    13774    13821 
   13848    13888    13968    14064    14108    14064    13958    13858 
   13842    13915    13991    14010    13991    13996    14083    14253 
   14428    14496    14392    14142    13822    13516    13308    13233 
   13273    13391    13544    13721    13971    14311    14702    15077 
   15343    15444    15414    15342    15284    15214    15029    14639 
   14063    13423    12875    12533    12416    12443    12539    12690 
   12911    13236    13663    14085    14383    14527    14537    14470 
   14419    14429    14489    14579    14631    14538    14269    13891 
   13510    13252    13207    13362    13642    13963    14228    14358 
   14338    14191    13964    13736    13567    13484    13499    13596 
   13745    13906    14020    14070    14128    14253    14422    14568 
   14596    14469    14262    14075    13958    13916    13908    13869 
   13765    13598    13404    13252    13214    13343    13629    13984 
   14322    14582    14705    14683    14582    14465    14349    14234 
   14116    14011    13957    13974    14054    14160    14217    14152 
   13952    13666    13376    13152    13050    13121    13338    13598 
   13806    13914    13938    13938    13936    13923    13910    13898 
   13896    13915    13913    13809    13563    13242    13010    13019 
   13302    13745    14158    14392    14436    14407    14430    14553 
   14743    14881    14856    14680    14458    14275    14132    13979 
   13801    13653    13622    13749    14005    14284    14457    14469 
   14356    14187    14025    13890    13758    13644    13577    13569 
   13616    13657    13614    13517    13457    13476    13607    13831 
   14050    14190    14251    14248    14202    14164    14164    14191 
   14236    14273    14248    14116    13868    13551    13256    13055 
   12967    12983    13090    13271    13523    13813    14063    14218 
   14292    14344    14430    14528    14539    14388    14096    13770 
   13546    13487    13559    13717    13897    14044    14163    14281 
   14383    14441    14441    14396    14335    14255    14135    13979 
   13784    13581    13448    13435    13542    13733    13921    14054 
   14131    14135    14079    14015    13951    13882    13833    13817 
   13851    13956    14111    14234    14261    14205    14124    14089 
   14157    14310    14469    14555    14506    14312    14010    13642 
   13262    12942    12732    12680    12834    13202    13732    14285 
   14652    14696    14452    14072    13719    13525    13560    13791 
   14124    14457    14701    14811    14795    14677    14494    14286 
   14080    13889    13721    13582    13490    13467    13506    13576 
   13642    13669    13654    13635    13628    13628    13640    13674 
   13753    13906    14139    14428    14702    14873    14875    14701 
   14413    14114    13895    13789    13766    13752    13696    13584 
   13464    13417    13475    13615    13796    13960    14070    14141 
   14208    14301    14423    14521    14549    14506    14424    14352 
   14302    14217    14022    13701    13354    13148    13166    13337 
   13530    13624    13607    13596    13695    13890    14105    14245 
   14241    14112    13929    13753    13607    13491    13434    13470 
   13569    13677    13757    13793    13818    13900    14064    14269 
   14437    14519    14521    14484    14441    14379    14260    14080 
   13876    13708    13623    13623    13675    13755    13851    13938 
   13999    14047    14108    14185    14270    14342    14392    14429 
   14452    14439    14353    14180    13960    13775    13697    13743 
   13833    13855    13763    13597    13459    13482    13714    14068 
   14390    14558    14556    14458    14355    14272    14157    13970 
   13745    13546    13422    13397    13463    13590    13758    13945 
   14116    14234    14267    14217    14148    14137    14192    14245 
   14203    14023    13765    13532    13369    13277    13266    13329 
   13456    13642    13842    14018    14188    14370    14536    14628 
   14607    14478    14293    14106    13930    13748    13569    13436 
   13395    13473    13647    13834    13952    13980    13947    13875 
   13782    13688    13584    13458    13348    13330    13463    13750 
   14100    14374    14511    14540    14518    14489    14438    14333 
   14193    14069    13980    13918    13844    13708    13532    13408 
   13413    13552    13758    13933    14038    14124    14268    14474 
   14674    14773    14715    14513    14221    13881    13557    13317 
   13183    13155    13229    13388    13629    13945    14295    14601 
   14761    14731    14542    14248    13921    13643    13444    13326 
   13278    13281    13352    13530    13806    14127    14410    14588 
   14659    14660    14615    14511    14332    14090    13826    13606 
   13480    13460    13544    13723    13957    14171    14298    14305 
   14199    14043    13916    13846    13820    13834    13893    13981 
   14040    14001    13844    13613    13404    13340    13462    13711 
   14009    14291    14503    14621    14631    14535    14360    14132 
   13867    13591    13343    13181    13159    13287    13524    13800 
   14030    14166    14251    14341    14440    14500    14463    14309 
   14086    13872    13726    13680    13724    13829    13960    14065 
   14104    14076    13998    13904    13843    13840    13881    13937 
   13998    14059    14105    14124    14097    14019    13918    13818 
   13710    13603    13531    13515    13566    13681    13812    13894 
   13902    13870    13874    13979    14174    14372    14474    14413 
   14191    13886    13619    13486    13518    13672    13852    13986 
   14073    14146    14202    14210    14158    14076    14035    14106 
   14281    14471    14568    14499    14252    13879    13504    13246 
   13161    13247    13449    13693    13925    14097    14179    14170 
   14085    13968    13887    13880    13920    13956    13955    13927 
   13924    13978    14065    14146    14187    14162    14092    14028 
   13985    13941    13874    13791    13757    13842    14034    14253 
   14406    14425    14315    14137    13951    13787    13655    13555 
