Origin Time       2025/03/30 22:55:00
Lat.              41.993
Long.             142.725
Depth. (km)       55
Mag.              4.6
Station Code      HDKH04
Station Lat.      42.5126
Station Long.     142.0381
Station Height(m) -210
Record Time       2025/03/30 22:56:14
Sampling Freq(Hz) 100Hz
Duration Time(s)  120
Dir.              3
Scale Factor      2942(gal)/8224139
Max. Acc. (gal)   0.278
Last Correction   2025/03/30 22:56:14
Memo.             
[...]
  -30751   -30750   -30747   -30747   -30750   -30748   -30748   -30750 
  -30748   -30750   -30751   -30748   -30747   -30750   -30750   -30748 
  -30750   -30750   -30747   -30750   -30750   -30747   -30746   -30744 
  -30747   -30753   -30750   -30746   -30747   -30750   -30750   -30751 
  -30751   -30750   -30748   -30750   -30751   -30748   -30747   -30747 
  -30746   -30744   -30747   -30751   -30748   -30747   -30750   -30747 
  -30744   -30747   -30748   -30748   -30746   -30744   -30748   -30748 
  -30747   -30748   -30748   -30746   -30746   -30747   -30744   -30744 
  -30748   -30750   -30750   -30747   -30747   -30747   -30746   -30746 
  -30748   -30747   -30746   -30746   -30744   -30743   -30744   -30744 
  -30746   -30746   -30746   -30746   -30744   -30744   -30746   -30746 
  -30744   -30747   -30748   -30747   -30748   -30747   -30744   -30747 
  -30748   -30744   -30743   -30744   -30744   -30744   -30746   -30746 
  -30744   -30744   -30744   -30744   -30746   -30746   -30746   -30746 
  -30744   -30743   -30743   -30744   -30746   -30744   -30740   -30742 
  -30746   -30747   -30746   -30743   -30743   -30744   -30746   -30746 
  -30744   -30747   -30747   -30746   -30746   -30747   -30747   -30747 
  -30748   -30747   -30746   -30747   -30748   -30746   -30744   -30746 
  -30747   -30747   -30747   -30744   -30744   -30747   -30748   -30744 
  -30746   -30746   -30746   -30747   -30748   -30746   -30747   -30746 
  -30744   -30748   -30750   -30747   -30746   -30747   -30748   -30748 
  -30748   -30747   -30748   -30748   -30747   -30750   -30748   -30746 
  -30746   -30747   -30748   -30750   -30750   -30748   -30748   -30748 
  -30746   -30747   -30750   -30750   -30748   -30747   -30746   -30747 
  -30747   -30750   -30750   -30746   -30744   -30747   -30746   -30747 
  -30748   -30747   -30747   -30747   -30747   -30748   -30747   -30747 
  -30748   -30747   -30747   -30748   -30751   -30748   -30746   -30747 
  -30746   -30744   -30750   -30751   -30747   -30746   -30747   -30746 
  -30748   -30751   -30748   -30747   -30748   -30747   -30748   -30750 
  -30747   -30746   -30748   -30747   -30748   -30753   -30751   -30747 
  -30750   -30751   -30748   -30748   -30748   -30747   -30748   -30750 
  -30747   -30746   -30748   -30748   -30746   -30746   -30748   -30748 
  -30748   -30748   -30748   -30750   -30748   -30747   -30748   -30748 
  -30747   -30747   -30747   -30746   -30744   -30747   -30744   -30744 
  -30750   -30750   -30746   -30746   -30747   -30746   -30747   -30750 
  -30748   -30747   -30750   -30750   -30747   -30746   -30747   -30750 
  -30748   -30747   -30748   -30747   -30744   -30746   -30747   -30747 
  -30746   -30743   -30747   -30747   -30744   -30747   -30748   -30744 
  -30746   -30747   -30746   -30746   -30744   -30744   -30744   -30744 
  -30743   -30744   -30748   -30747   -30743   -30746   -30747   -30747 
  -30747   -30746   -30744   -30747   -30748   -30748   -30747   -30746 
  -30746   -30747   -30746   -30744   -30746   -30747   -30746   -30747 
  -30748   -30748   -30750   -30751   -30748   -30747   -30748   -30747 
  -30748   -30748   -30748   -30748   -30748   -30747   -30747   -30746 
  -30746   -30747   -30747   -30748   -30750   -30746   -30744   -30744 
  -30747   -30747   -30747   -30750   -30747   -30744   -30747   -30747 
  -30747   -30746   -30744   -30744   -30744   -30744   -30746   -30746 
  -30746   -30746   -30744   -30746   -30746   -30744   -30743   -30744 
  -30744   -30744   -30743   -30744   -30746   -30744   -30742   -30744 
  -30746   -30743   -30742   -30744   -30750   -30748   -30743   -30743 
  -30744   -30746   -30746   -30746   -30744   -30744   -30744   -30744 
  -30744   -30746   -30747   -30748   -30747   -30747   -30746   -30747 
  -30748   -30744   -30744   -30747   -30746   -30746   -30747   -30746 
  -30747   -30750   -30748   -30746   -30747   -30748   -30750   -30750 
  -30748   -30750   -30751   -30748   -30750   -30751   -30748   -30748 
  -30751   -30750   -30747   -30747   -30748   -30751   -30751   -30750 
  -30748   -30747   -30747   -30747   -30747   -30748   -30750   -30750 
  -30751   -30750   -30748   -30753   -30753   -30747   -30747   -30751 
  -30751   -30750   -30748   -30748   -30748   -30751   -30750   -30748 
  -30748   -30750   -30750   -30747   -30750   -30753   -30751   -30750 
  -30748   -30747   -30748   -30747   -30748   -30750   -30748   -30747 
  -30747   -30747   -30747   -30747   -30747   -30748   -30747   -30746 
  -30746   -30747   -30746   -30744   -30746   -30744   -30744   -30747 
  -30746   -30746   -30750   -30746   -30743   -30746   -30744   -30746 
  -30746   -30744   -30746   -30744   -30742   -30744   -30747   -30744 
  -30742   -30744   -30746   -30743   -30744   -30747   -30748   -30746 
  -30742   -30744   -30747   -30743   -30742   -30743   -30744   -30746 
  -30746   -30743   -30743   -30747   -30748   -30744   -30742   -30742 
  -30743   -30746   -30746   -30744   -30746   -30746   -30746   -30746 
  -30746   -30743   -30743   -30746   -30746   -30744   -30747   -30747 
  -30742   -30743   -30747   -30746   -30746   -30747   -30747   -30747 
  -30746   -30746   -30746   -30746   -30747   -30747   -30746   -30744 
  -30746   -30748   -30747   -30744   -30747   -30748   -30746   -30742 
  -30744   -30746   -30743   -30743   -30746   -30747   -30746   -30746 
  -30747   -30748   -30747   -30746   -30747   -30750   -30748   -30744 
  -30744   -30746   -30746   -30747   -30748   -30747   -30746   -30748 
  -30748   -30746   -30751   -30751   -30747   -30747   -30747   -30747 
  -30747   -30747   -30748   -30748   -30746   -30748   -30747   -30743 
  -30744   -30747   -30748   -30748   -30747   -30746   -30748   -30750 
  -30751   -30751   -30751   -30750   -30748   -30747   -30748   -30751 
  -30748   -30746   -30747   -30748   -30748   -30748   -30747   -30747 
  -30747   -30748   -30748   -30747   -30747   -30747   -30747   -30748 
  -30747   -30747   -30750   -30750   -30748   -30750   -30750   -30748 
  -30747   -30748   -30750   -30751   -30751   -30750   -30748   -30750 
  -30748   -30750   -30750   -30750   -30750   -30748   -30751   -30754 
  -30750   -30748   -30751   -30751   -30750   -30751   -30751   -30750 
  -30751   -30750   -30746   -30747   -30750   -30748   -30750   -30751 
  -30747   -30747   -30747   -30747   -30748   -30750   -30748   -30747 
  -30747   -30747   -30746   -30747   -30750   -30748   -30747   -30753 
  -30754   -30747   -30747   -30747   -30744   -30746   -30750   -30748 
  -30748   -30747   -30746   -30746   -30746   -30744   -30743   -30746 
  -30746   -30746   -30747   -30746   -30744   -30748   -30747   -30744 
  -30746   -30746   -30744   -30744   -30744   -30747   -30748   -30744 
  -30742   -30744   -30746   -30748   -30748   -30747   -30747   -30746 
  -30743   -30744   -30744   -30743   -30743   -30744   -30746   -30744 
  -30744   -30747   -30747   -30744   -30746   -30747   -30746   -30744 
  -30743   -30742   -30743   -30743   -30740   -30742   -30743   -30743 
  -30744   -30746   -30743   -30742   -30746   -30746   -30742   -30744 
  -30743   -30743   -30746   -30743   -30740   -30743   -30740   -30740 
  -30743   -30744   -30744   -30743   -30742   -30744   -30747   -30743 
  -30743   -30746   -30747   -30746   -30748   -30747   -30746   -30746 
  -30747   -30746   -30744   -30746   -30747   -30744   -30743   -30746 
  -30746   -30744   -30743   -30744   -30746   -30744   -30744   -30744 
  -30746   -30748   -30747   -30746   -30748   -30748   -30747   -30748 
  -30747   -30747   -30748   -30750   -30750   -30748   -30748   -30750 
  -30750   -30751   -30750   -30750   -30751   -30748   -30748   -30751 
  -30750   -30748   -30751   -30750   -30748   -30747   -30748   -30751 
  -30751   -30748   -30748   -30750   -30748   -30748   -30748   -30748 
  -30751   -30748   -30747   -30748   -30747   -30747   -30748   -30747 
  -30748   -30750   -30747   -30748   -30750   -30748   -30746   -30744 
  -30747   -30748   -30746   -30747   -30747   -30747   -30747   -30747 
  -30746   -30746   -30746   -30747   -30748   -30746   -30746   -30747 
  -30746   -30746   -30747   -30747   -30747   -30746   -30746   -30747 
  -30748   -30750   -30748   -30746   -30747   -30748   -30747   -30747 
  -30750   -30753   -30750   -30747   -30746   -30748   -30748   -30748 
  -30750   -30750   -30747   -30744   -30744   -30747   -30751   -30751 
  -30751   -30750   -30751   -30753   -30751   -30747   -30747   -30748 
  -30750   -30750   -30747   -30747   -30747   -30747   -30751   -30751 
  -30748   -30750   -30753   -30750   -30747   -30748   -30750   -30748 
  -30747   -30748   -30748   -30751   -30751   -30748   -30750   -30751 
  -30748   -30748   -30747   -30744   -30746   -30747   -30747   -30747 
  -30748   -30747   -30744   -30744   -30746   -30747   -30747   -30746 
  -30747   -30748   -30748   -30747   -30747   -30747   -30748   -30748 
  -30750   -30747   -30744   -30747   -30748   -30747   -30746   -30747 
  -30747   -30746   -30744   -30744   -30746   -30746   -30744   -30744 
  -30746   -30746   -30746   -30747   -30747   -30746   -30746   -30747 
  -30747   -30747   -30747   -30748   -30747   -30746   -30746   -30744 
  -30743   -30744   -30747   -30750   -30748   -30746   -30744   -30746 
  -30747   -30746   -30746   -30747   -30747   -30747   -30748   -30747 
  -30747   -30747   -30747   -30744   -30746   -30748   -30747   -30746 
  -30747   -30747   -30747   -30747   -30747   -30747   -30748   -30750 
  -30750   -30746   -30744   -30747   -30750   -30750   -30748   -30747 
  -30747   -30748   -30747   -30746   -30747   -30750   -30747   -30746 
  -30750   -30751   -30748   -30750   -30748   -30746   -30746   -30748 
  -30750   -30751   -30748   -30747   -30750   -30748   -30746   -30746 
  -30747   -30747   -30748   -30750   -30748   -30750   -30750   -30748 
  -30748   -30748   -30747   -30750   -30748   -30746   -30750   -30751 
  -30750   -30748   -30748   -30747   -30748   -30748   -30748   -30747 
  -30748   -30750   -30751   -30748   -30746   -30747   -30750   -30747 
  -30746   -30748   -30750   -30747   -30746   -30748   -30751   -30751 
  -30750   -30750   -30750   -30744   -30743   -30747   -30748   -30747 
  -30746   -30747   -30748   -30751   -30750   -30747   -30747   -30747 
  -30746   -30744   -30744   -30747   -30748   -30746   -30744   -30746 
  -30748   -30748   -30748   -30747   -30744   -30744   -30747   -30748 
  -30747   -30747   -30748   -30748   -30746   -30747   -30748   -30747 
  -30747   -30748   -30746   -30744   -30744   -30743   -30744   -30744 
  -30747   -30748   -30746   -30744   -30746   -30747   -30747   -30747 
  -30746   -30743   -30744   -30748   -30748   -30748   -30748   -30747 
  -30746   -30746   -30747   -30748   -30748   -30747   -30747   -30747 
  -30746   -30746   -30748   -30747   -30744   -30746   -30746   -30746 
  -30748   -30750   -30748   -30748   -30750   -30750   -30747   -30748 
  -30750   -30748   -30748   -30750   -30751   -30753   -30750   -30748 
  -30748   -30747   -30746   -30750   -30751   -30750   -30750   -30751 
  -30750   -30750   -30754   -30754   -30751   -30751   -30751   -30751 
  -30750   -30748   -30750   -30753   -30751   -30748   -30748   -30751 
  -30750   -30748   -30751   -30751   -30750   -30751   -30750   -30750 
  -30751   -30750   -30748   -30750   -30751   -30748   -30746   -30747 
  -30748   -30750   -30744   -30743   -30746   -30746   -30746   -30747 
  -30747   -30748   -30748   -30743   -30743   -30747   -30746   -30743 
  -30744   -30747   -30748   -30747   -30746   -30747   -30747   -30744 
  -30743   -30746   -30746   -30746   -30747   -30747   -30744   -30746 
  -30746   -30744   -30744   -30746   -30747   -30746   -30744   -30747 
  -30747   -30746   -30744   -30746   -30746   -30746   -30746   -30747 
  -30746   -30747   -30747   -30747   -30747   -30748   -30747   -30747 
  -30746   -30747   -30751   -30755   -30758   -30766   -30774   -30785 
  -30798   -30813   -30825   -30835   -30842   -30846   -30843   -30836 
  -30829   -30823   -30815   -30811   -30808   -30797   -30782   -30769 
  -30754   -30742   -30736   -30735   -30742   -30753   -30765   -30777 
  -30781   -30771   -30743   -30705   -30680   -30680   -30709   -30762 
  -30824   -30885   -30936   -30966   -30952   -30896   -30813   -30727 
  -30663   -30647   -30667   -30690   -30696   -30685   -30663   -30640 
  -30636   -30651   -30673   -30703   -30739   -30777   -30811   -30823 
  -30800   -30753   -30688   -30613   -30542   -30493   -30493   -30559 
  -30680   -30813   -30920   -30960   -30912   -30792   -30661   -30565 
  -30514   -30484   -30464   -30485   -30574   -30712   -30859   -30987 
  -31064   -31051   -30942   -30797   -30704   -30681   -30678   -30643 
  -30573   -30491   -30419   -30379   -30388   -30456   -30554   -30640 
  -30717   -30827   -30979   -31133   -31240   -31301   -31315   -31248 
  -31091   -30898   -30723   -30588   -30483   -30385   -30303   -30265 
  -30284   -30352   -30445   -30527   -30569   -30578   -30612   -30705 
  -30798   -30838   -30862   -30920   -31002   -31058   -31051   -30998 
  -30942   -30893   -30825   -30709   -30547   -30387   -30284   -30262 
  -30316   -30418   -30516   -30593   -30697   -30821   -30910   -30950 
  -30950   -30916   -30888   -30892   -30896   -30863   -30821   -30816 
  -30829   -30798   -30696   -30569   -30499   -30493   -30489   -30457 
  -30438   -30470   -30562   -30699   -30863   -31043   -31216   -31352 
  -31450   -31519   -31523   -31417   -31206   -30935   -30651   -30395 
  -30191   -30073   -30073   -30164   -30285   -30395   -30487   -30586 
  -30726   -30894   -31052   -31174   -31244   -31267   -31278   -31295 
  -31263   -31114   -30874   -30622   -30433   -30356   -30387   -30466 
  -30550   -30666   -30824   -30977   -31059   -31032   -30885   -30674 
  -30528   -30508   -30519   -30503   -30523   -30613   -30731   -30838 
  -30909   -30928   -30937   -30963   -30959   -30902   -30848   -30843 
  -30848   -30821   -30773   -30721   -30678   -30677   -30720   -30761 
  -30758   -30704   -30608   -30514   -30504   -30600   -30723   -30824 
  -30906   -30940   -30909   -30846   -30778   -30720   -30681   -30649 
  -30627   -30646   -30705   -30777   -30825   -30815   -30778   -30767 
  -30773   -30762   -30730   -30694   -30673   -30673   -30674   -30658 
  -30658   -30703   -30755   -30771   -30761   -30757   -30755   -30739 
  -30730   -30736   -30720   -30676   -30659   -30681   -30709   -30738 
  -30759   -30744   -30711   -30703   -30704   -30697   -30735   -30828 
  -30900   -30898   -30831   -30738   -30661   -30608   -30585   -30601 
  -30662   -30751   -30805   -30780   -30705   -30646   -30635   -30677 
  -30750   -30813   -30819   -30790   -30794   -30829   -30835   -30766 
  -30630   -30515   -30534   -30667   -30807   -30897   -30933   -30916 
  -30875   -30838   -30802   -30771   -30744   -30711   -30676   -30662 
  -30689   -30742   -30773   -30754   -30709   -30659   -30597   -30577 
  -30655   -30782   -30859   -30871   -30870   -30896   -30943   -30975 
  -30939   -30817   -30673   -30580   -30568   -30635   -30753   -30844 
  -30852   -30797   -30742   -30719   -30723   -30735   -30715   -30638 
  -30554   -30515   -30524   -30572   -30651   -30761   -30875   -30970 
  -31031   -31051   -31033   -31001   -30933   -30815   -30685   -30596 
  -30574   -30612   -30651   -30640   -30581   -30504   -30460   -30518 
  -30672   -30823   -30939   -31051   -31147   -31167   -31082   -30927 
  -30758   -30615   -30523   -30500   -30528   -30549   -30532   -30532 
  -30585   -30649   -30699   -30763   -30859   -30955   -30983   -30939 
  -30892   -30862   -30815   -30759   -30713   -30686   -30694   -30736 
  -30748   -30676   -30565   -30516   -30542   -30609   -30684   -30747 
  -30821   -30905   -30947   -30915   -30834   -30747   -30676   -30642 
  -30655   -30672   -30663   -30678   -30736   -30784   -30780   -30744 
  -30740   -30792   -30870   -30944   -30956   -30870   -30747   -30672 
  -30653   -30653   -30658   -30680   -30719   -30757   -30771   -30780 
  -30802   -30817   -30785   -30711   -30636   -30613   -30665   -30763 
  -30852   -30890   -30870   -30823   -30762   -30703   -30688   -30720 
  -30755   -30786   -30839   -30898   -30932   -30928   -30866   -30753 
  -30639   -30574   -30561   -30568   -30589   -30630   -30674   -30717 
  -30759   -30781   -30800   -30831   -30825   -30785   -30774   -30798 
  -30819   -30821   -30802   -30765   -30736   -30712   -30674   -30653 
  -30659   -30640   -30573   -30524   -30551   -30643   -30742   -30811 
  -30850   -30870   -30881   -30862   -30781   -30651   -30546   -30523 
  -30566   -30618   -30647   -30688   -30748   -30792   -30801   -30808 
  -30834   -30856   -30843   -30807   -30788   -30774   -30740   -30693 
  -30636   -30604   -30639   -30721   -30781   -30789   -30769   -30761 
  -30796   -30848   -30863   -30843   -30840   -30865   -30875   -30838 
  -30758   -30667   -30607   -30596   -30643   -30742   -30858   -30954 
  -31016   -31028   -30959   -30824   -30699   -30639   -30643   -30676 
  -30703   -30709   -30715   -30740   -30775   -30785   -30758   -30705 
  -30659   -30658   -30692   -30721   -30738   -30763   -30790   -30773 
  -30700   -30642   -30647   -30686   -30727   -30777   -30823   -30859 
  -30908   -30937   -30928   -30924   -30940   -30932   -30878   -30792 
  -30707   -30662   -30666   -30686   -30685   -30658   -30619   -30559 
  -30500   -30512   -30618   -30757   -30877   -30950   -30981   -30981 
  -30948   -30882   -30812   -30766   -30759   -30792   -30829   -30819 
  -30762   -30709   -30693   -30696   -30661   -30564   -30456   -30396 
  -30407   -30472   -30586   -30734   -30840   -30852   -30798   -30758 
  -30762   -30777   -30767   -30758   -30766   -30777   -30765   -30723 
  -30685   -30697   -30753   -30796   -30825   -30850   -30838   -30793 
  -30763   -30743   -30697   -30650   -30642   -30653   -30646   -30647 
  -30721   -30852   -30940   -30921   -30820   -30701   -30627   -30613 
  -30642   -30681   -30719   -30734   -30716   -30704   -30731   -30775 
  -30804   -30811   -30798   -30757   -30694   -30653   -30655   -30685 
  -30712   -30724   -30732   -30761   -30809   -30835   -30819   -30784 
  -30747   -30731   -30736   -30746   -30758   -30759   -30736   -30732 
  -30765   -30775   -30728   -30658   -30631   -30673   -30788   -30959 
  -31102   -31117   -30996   -30832   -30712   -30628   -30574   -30584 
  -30643   -30696   -30705   -30692   -30720   -30812   -30890   -30889 
  -30855   -30856   -30877   -30871   -30862   -30861   -30820   -30726 
  -30636   -30595   -30611   -30678   -30727   -30709   -30674   -30680 
  -30723   -30755   -30739   -30688   -30657   -30682   -30757   -30821 
  -30836   -30839   -30847   -30836   -30798   -30739   -30678   -30661 
  -30708   -30770   -30794   -30774   -30713   -30626   -30561   -30566 
  -30630   -30701   -30761   -30823   -30861   -30846   -30802   -30769 
  -30758   -30780   -30808   -30811   -30792   -30777   -30781   -30807 
  -30825   -30793   -30704   -30620   -30615   -30684   -30767   -30824 
  -30846   -30843   -30816   -30774   -30732   -30674   -30607   -30584 
  -30627   -30704   -30762   -30759   -30713   -30700   -30734   -30747 
  -30728   -30751   -30848   -30962   -31041   -31063   -31000   -30859 
