Origin Time       2025/03/30 22:55:00
Lat.              41.993
Long.             142.725
Depth. (km)       55
Mag.              4.6
Station Code      HDKH01
Station Lat.      42.7031
Station Long.     142.2296
Station Height(m) 82
Record Time       2025/03/30 22:56:15
Sampling Freq(Hz) 100Hz
Duration Time(s)  120
Dir.              6
Scale Factor      7845(gal)/8223790
Max. Acc. (gal)   0.445
Last Correction   2025/03/30 22:56:16
Memo.             
[...]
  -15496   -15489   -15493   -15499   -15498   -15502   -15500   -15500 
  -15502   -15500   -15504   -15503   -15499   -15506   -15504   -15503 
  -15507   -15508   -15510   -15508   -15507   -15512   -15508   -15507 
  -15506   -15499   -15500   -15499   -15499   -15498   -15491   -15493 
  -15495   -15491   -15499   -15498   -15496   -15499   -15495   -15495 
  -15495   -15498   -15503   -15500   -15502   -15506   -15500   -15503 
  -15504   -15502   -15507   -15506   -15507   -15512   -15508   -15510 
  -15514   -15508   -15506   -15503   -15503   -15502   -15496   -15500 
  -15496   -15492   -15492   -15489   -15493   -15500   -15496   -15498 
  -15500   -15498   -15499   -15498   -15499   -15502   -15500   -15503 
  -15500   -15500   -15504   -15503   -15504   -15506   -15507   -15511 
  -15508   -15508   -15512   -15507   -15510   -15507   -15499   -15503 
  -15500   -15493   -15496   -15493   -15492   -15492   -15491   -15495 
  -15495   -15495   -15498   -15493   -15498   -15500   -15498   -15500 
  -15502   -15502   -15500   -15499   -15503   -15502   -15500   -15507 
  -15504   -15506   -15508   -15504   -15508   -15508   -15507   -15511 
  -15507   -15502   -15502   -15499   -15499   -15498   -15493   -15495 
  -15489   -15489   -15495   -15493   -15495   -15495   -15495   -15499 
  -15496   -15498   -15502   -15498   -15500   -15502   -15499   -15500 
  -15502   -15503   -15500   -15502   -15507   -15506   -15508   -15510 
  -15503   -15508   -15512   -15508   -15507   -15500   -15500   -15502 
  -15496   -15496   -15496   -15491   -15493   -15492   -15493   -15495 
  -15489   -15493   -15495   -15493   -15499   -15499   -15498   -15498 
  -15498   -15502   -15498   -15498   -15504   -15503   -15503   -15506 
  -15504   -15506   -15504   -15504   -15511   -15510   -15510   -15511 
  -15504   -15506   -15500   -15496   -15500   -15496   -15493   -15493 
  -15489   -15495   -15493   -15491   -15495   -15493   -15495   -15498 
  -15496   -15499   -15496   -15495   -15502   -15500   -15503   -15504 
  -15500   -15502   -15500   -15502   -15506   -15504   -15507   -15507 
  -15507   -15511   -15507   -15508   -15511   -15502   -15499   -15499 
  -15498   -15500   -15493   -15492   -15496   -15491   -15492   -15493 
  -15493   -15496   -15491   -15492   -15499   -15498   -15498   -15499 
  -15499   -15500   -15496   -15500   -15503   -15500   -15506   -15506 
  -15502   -15503   -15502   -15504   -15511   -15512   -15512   -15508 
  -15510   -15506   -15499   -15500   -15500   -15499   -15502   -15493 
  -15489   -15491   -15487   -15491   -15498   -15498   -15500   -15496 
  -15493   -15496   -15492   -15496   -15499   -15503   -15508   -15503 
  -15502   -15504   -15500   -15503   -15508   -15508   -15508   -15506 
  -15507   -15508   -15504   -15510   -15510   -15504   -15507   -15500 
  -15495   -15495   -15493   -15493   -15492   -15493   -15496   -15492 
  -15495   -15496   -15493   -15499   -15499   -15499   -15500   -15493 
  -15496   -15502   -15502   -15506   -15503   -15500   -15504   -15502 
  -15503   -15506   -15507   -15512   -15511   -15508   -15510   -15504 
  -15503   -15503   -15502   -15503   -15499   -15496   -15492   -15488 
  -15491   -15491   -15492   -15498   -15495   -15496   -15499   -15496 
  -15496   -15495   -15496   -15502   -15503   -15503   -15503   -15498 
  -15500   -15500   -15500   -15504   -15504   -15506   -15507   -15506 
  -15508   -15506   -15506   -15511   -15507   -15504   -15504   -15496 
  -15495   -15493   -15492   -15493   -15492   -15495   -15498   -15495 
  -15495   -15491   -15492   -15499   -15498   -15500   -15502   -15499 
  -15502   -15499   -15498   -15503   -15503   -15504   -15504   -15503 
  -15506   -15502   -15503   -15508   -15507   -15510   -15512   -15510 
  -15506   -15500   -15500   -15499   -15495   -15496   -15493   -15489 
  -15493   -15492   -15493   -15496   -15491   -15492   -15495   -15499 
  -15499   -15495   -15499   -15500   -15496   -15500   -15499   -15499 
  -15502   -15499   -15500   -15503   -15499   -15503   -15504   -15506 
  -15512   -15510   -15508   -15510   -15506   -15504   -15500   -15499 
  -15502   -15496   -15492   -15492   -15492   -15493   -15492   -15495 
  -15498   -15493   -15496   -15495   -15492   -15499   -15499   -15499 
  -15499   -15495   -15500   -15502   -15500   -15503   -15503   -15503 
  -15503   -15502   -15508   -15506   -15507   -15511   -15506   -15510 
  -15512   -15500   -15502   -15503   -15499   -15500   -15495   -15495 
  -15495   -15489   -15489   -15493   -15496   -15498   -15492   -15498 
  -15502   -15498   -15502   -15500   -15496   -15500   -15502   -15502 
  -15500   -15500   -15506   -15504   -15506   -15510   -15506   -15507 
  -15510   -15507   -15511   -15508   -15504   -15504   -15500   -15499 
  -15498   -15495   -15493   -15493   -15496   -15496   -15492   -15496 
  -15496   -15492   -15498   -15499   -15499   -15502   -15499   -15502 
  -15502   -15502   -15502   -15499   -15503   -15504   -15500   -15503 
  -15503   -15503   -15510   -15507   -15507   -15511   -15508   -15510 
  -15506   -15502   -15502   -15495   -15495   -15498   -15491   -15493 
  -15495   -15492   -15495   -15495   -15496   -15495   -15495   -15500 
  -15499   -15498   -15499   -15498   -15503   -15506   -15502   -15504 
  -15504   -15503   -15504   -15503   -15506   -15506   -15507   -15508 
  -15507   -15511   -15511   -15500   -15500   -15500   -15498   -15499 
  -15493   -15493   -15496   -15492   -15493   -15495   -15495   -15496 
  -15493   -15496   -15500   -15498   -15499   -15499   -15499   -15502 
  -15500   -15503   -15502   -15499   -15503   -15502   -15504   -15507 
  -15500   -15504   -15510   -15507   -15510   -15508   -15506   -15506 
  -15503   -15502   -15496   -15493   -15498   -15493   -15491   -15493 
  -15492   -15499   -15498   -15491   -15495   -15496   -15498   -15500 
  -15496   -15498   -15500   -15499   -15500   -15498   -15500   -15504 
  -15502   -15503   -15502   -15504   -15510   -15506   -15507   -15511 
  -15506   -15508   -15507   -15500   -15503   -15500   -15498   -15496 
  -15492   -15496   -15493   -15488   -15492   -15493   -15495   -15495 
  -15492   -15498   -15496   -15496   -15500   -15498   -15496   -15500 
  -15500   -15503   -15502   -15502   -15504   -15502   -15504   -15507 
  -15506   -15510   -15508   -15508   -15512   -15508   -15507   -15504 
  -15503   -15503   -15496   -15496   -15498   -15489   -15495   -15495 
  -15491   -15495   -15493   -15492   -15496   -15496   -15502   -15500 
  -15496   -15499   -15499   -15502   -15502   -15496   -15502   -15504 
  -15502   -15504   -15504   -15503   -15504   -15507   -15512   -15508 
  -15507   -15511   -15506   -15504   -15504   -15498   -15498   -15495 
  -15496   -15495   -15487   -15489   -15495   -15493   -15498   -15492 
  -15492   -15500   -15495   -15496   -15503   -15500   -15502   -15500 
  -15500   -15504   -15502   -15504   -15507   -15503   -15506   -15507 
  -15510   -15512   -15507   -15510   -15510   -15506   -15506   -15502 
  -15500   -15498   -15493   -15496   -15491   -15489   -15495   -15491 
  -15493   -15495   -15491   -15493   -15495   -15496   -15500   -15495 
  -15499   -15502   -15496   -15502   -15503   -15500   -15503   -15500 
  -15503   -15506   -15502   -15506   -15506   -15508   -15511   -15506 
  -15508   -15512   -15504   -15503   -15500   -15496   -15500   -15496 
  -15493   -15493   -15492   -15493   -15493   -15496   -15499   -15492 
  -15496   -15498   -15495   -15500   -15499   -15500   -15504   -15500 
  -15500   -15502   -15504   -15508   -15502   -15503   -15510   -15506 
  -15506   -15508   -15511   -15515   -15508   -15504   -15504   -15502 
  -15499   -15496   -15495   -15496   -15492   -15492   -15493   -15492 
  -15498   -15496   -15493   -15498   -15496   -15498   -15499   -15498 
  -15500   -15499   -15499   -15503   -15499   -15502   -15504   -15503 
  -15506   -15502   -15502   -15510   -15508   -15508   -15508   -15506 
  -15510   -15506   -15499   -15500   -15498   -15499   -15496   -15492 
  -15493   -15489   -15492   -15496   -15492   -15495   -15495   -15495 
  -15499   -15498   -15498   -15502   -15500   -15502   -15502   -15499 
  -15500   -15500   -15504   -15503   -15500   -15507   -15508   -15508 
  -15512   -15507   -15507   -15508   -15503   -15504   -15502   -15496 
  -15499   -15496   -15493   -15492   -15489   -15492   -15492   -15493 
  -15499   -15495   -15493   -15496   -15496   -15499   -15499   -15499 
  -15503   -15499   -15500   -15499   -15499   -15504   -15503   -15503 
  -15504   -15504   -15508   -15508   -15506   -15510   -15507   -15508 
  -15510   -15503   -15503   -15500   -15496   -15498   -15493   -15493 
  -15493   -15489   -15492   -15493   -15496   -15499   -15492   -15493 
  -15498   -15496   -15500   -15500   -15498   -15502   -15498   -15499 
  -15502   -15500   -15503   -15502   -15503   -15507   -15506   -15507 
  -15507   -15506   -15512   -15512   -15508   -15504   -15499   -15500 
  -15498   -15493   -15498   -15493   -15492   -15495   -15491   -15496 
  -15499   -15493   -15495   -15493   -15493   -15499   -15495   -15496 
  -15499   -15498   -15502   -15502   -15503   -15504   -15502   -15504 
  -15503   -15504   -15508   -15504   -15507   -15511   -15508   -15512 
  -15510   -15503   -15503   -15499   -15499   -15498   -15491   -15496 
  -15498   -15492   -15492   -15495   -15498   -15496   -15493   -15500 
  -15498   -15495   -15500   -15500   -15503   -15503   -15500   -15504 
  -15499   -15498   -15503   -15500   -15503   -15508   -15506   -15507 
  -15507   -15507   -15511   -15510   -15508   -15503   -15500   -15500 
  -15495   -15495   -15495   -15491   -15492   -15492   -15493   -15499 
  -15493   -15495   -15499   -15495   -15496   -15498   -15498   -15500 
  -15499   -15503   -15503   -15499   -15502   -15502   -15502   -15506 
  -15500   -15503   -15508   -15506   -15511   -15510   -15508   -15510 
  -15503   -15503   -15503   -15495   -15493   -15495   -15498   -15498 
  -15488   -15491   -15498   -15495   -15496   -15495   -15495   -15499 
  -15495   -15496   -15500   -15499   -15503   -15500   -15500   -15504 
  -15499   -15500   -15504   -15504   -15508   -15506   -15507   -15512 
  -15507   -15511   -15512   -15504   -15504   -15503   -15499   -15498 
  -15493   -15495   -15492   -15489   -15493   -15491   -15493   -15496 
  -15492   -15495   -15496   -15496   -15502   -15499   -15499   -15502 
  -15500   -15502   -15500   -15502   -15504   -15500   -15502   -15504 
  -15504   -15508   -15507   -15506   -15510   -15508   -15511   -15510 
  -15502   -15504   -15499   -15493   -15498   -15495   -15492   -15491 
  -15491   -15495   -15496   -15496   -15495   -15493   -15500   -15498 
  -15493   -15499   -15498   -15499   -15503   -15500   -15503   -15500 
  -15496   -15507   -15508   -15504   -15507   -15504   -15508   -15512 
  -15510   -15510   -15507   -15504   -15504   -15502   -15500   -15496 
  -15495   -15496   -15491   -15491   -15492   -15492   -15499   -15498 
  -15492   -15499   -15498   -15496   -15500   -15499   -15502   -15503 
  -15502   -15504   -15502   -15502   -15503   -15502   -15508   -15508 
  -15506   -15508   -15507   -15508   -15510   -15506   -15504   -15502 
  -15499   -15498   -15493   -15498   -15499   -15495   -15495   -15492 
  -15493   -15498   -15498   -15499   -15499   -15499   -15502   -15499 
  -15500   -15502   -15499   -15503   -15503   -15500   -15503   -15502 
  -15504   -15510   -15504   -15507   -15510   -15508   -15511   -15511 
  -15510   -15507   -15499   -15499   -15496   -15493   -15498   -15491 
  -15491   -15493   -15492   -15496   -15496   -15495   -15496   -15496 
  -15502   -15502   -15498   -15502   -15499   -15499   -15504   -15500 
  -15503   -15504   -15499   -15504   -15506   -15506   -15508   -15507 
  -15511   -15511   -15510   -15514   -15506   -15500   -15504   -15498 
  -15495   -15496   -15493   -15496   -15493   -15493   -15498   -15496 
  -15498   -15493   -15493   -15500   -15500   -15502   -15500   -15498 
  -15503   -15503   -15502   -15506   -15503   -15503   -15507   -15507 
  -15510   -15507   -15506   -15511   -15510   -15510   -15510   -15502 
  -15504   -15503   -15498   -15500   -15496   -15498   -15500   -15500 
  -15507   -15510   -15510   -15515   -15512   -15514   -15519   -15525 
  -15537   -15547   -15562   -15577   -15581   -15583   -15577   -15572 
  -15572   -15557   -15542   -15538   -15542   -15558   -15565   -15554 
  -15535   -15498   -15460   -15437   -15417   -15411   -15404   -15395 
  -15399   -15433   -15512   -15614   -15670   -15643   -15522   -15357 
  -15219   -15145   -15172   -15283   -15421   -15537   -15581   -15585 
  -15619   -15697   -15800   -15850   -15774   -15592   -15371   -15203 
  -15152   -15213   -15341   -15457   -15502   -15484   -15431   -15396 
  -15425   -15512   -15619   -15677   -15635   -15523   -15430   -15441 
  -15527   -15600   -15623   -15583   -15514   -15458   -15431   -15468 
  -15572   -15674   -15703   -15600   -15411   -15268   -15245   -15322 
  -15434   -15530   -15588   -15572   -15472   -15342   -15271   -15331 
  -15465   -15549   -15554   -15520   -15507   -15537   -15583   -15626 
  -15622   -15531   -15392   -15276   -15244   -15310   -15427   -15547 
  -15607   -15603   -15612   -15664   -15727   -15735   -15649   -15526 
  -15415   -15336   -15296   -15284   -15317   -15408   -15529   -15627 
  -15639   -15543   -15395   -15267   -15245   -15321   -15394   -15426 
  -15471   -15585   -15757   -15898   -15967   -15948   -15832   -15646 
  -15445   -15296   -15250   -15287   -15365   -15445   -15496   -15520 
  -15527   -15538   -15561   -15591   -15635   -15666   -15647   -15585 
  -15489   -15391   -15344   -15380   -15484   -15565   -15568   -15506 
  -15383   -15261   -15238   -15336   -15502   -15660   -15753   -15754 
  -15660   -15519   -15419   -15437   -15577   -15712   -15731   -15653 
  -15522   -15379   -15280   -15265   -15342   -15415   -15422   -15422 
  -15472   -15580   -15704   -15774   -15770   -15685   -15533   -15363 
  -15249   -15269   -15402   -15533   -15587   -15537   -15448   -15415 
  -15431   -15450   -15460   -15483   -15546   -15608   -15595   -15504 
  -15403   -15372   -15418   -15481   -15538   -15583   -15628   -15676 
  -15676   -15589   -15425   -15261   -15195   -15226   -15318   -15444 
  -15573   -15685   -15724   -15653   -15516   -15402   -15392   -15473 
  -15556   -15610   -15626   -15573   -15483   -15407   -15402   -15471 
  -15557   -15642   -15692   -15657   -15543   -15418   -15376   -15437 
  -15514   -15541   -15493   -15392   -15333   -15363   -15430   -15457 
  -15442   -15469   -15562   -15653   -15665   -15615   -15601   -15645 
  -15642   -15546   -15414   -15356   -15385   -15404   -15390   -15380 
  -15394   -15426   -15460   -15485   -15506   -15508   -15504   -15518 
  -15550   -15589   -15615   -15638   -15668   -15658   -15568   -15414 
  -15298   -15296   -15357   -15414   -15453   -15487   -15533   -15565 
  -15570   -15570   -15545   -15498   -15483   -15520   -15596   -15651 
  -15655   -15620   -15546   -15458   -15391   -15368   -15407   -15448 
  -15452   -15458   -15487   -15523   -15549   -15553   -15554   -15550 
  -15535   -15503   -15438   -15379   -15383   -15465   -15585   -15651 
  -15618   -15534   -15471   -15471   -15498   -15511   -15530   -15534 
  -15499   -15426   -15334   -15300   -15367   -15479   -15565   -15585 
  -15584   -15608   -15631   -15618   -15572   -15527   -15525   -15530 
  -15506   -15465   -15445   -15465   -15487   -15473   -15449   -15427 
  -15423   -15429   -15431   -15464   -15518   -15549   -15547   -15535 
  -15558   -15620   -15665   -15650   -15565   -15456   -15395   -15392 
  -15429   -15471   -15488   -15481   -15431   -15363   -15360   -15435 
  -15534   -15596   -15611   -15630   -15646   -15603   -15481   -15350 
  -15340   -15452   -15561   -15579   -15484   -15375   -15364   -15441 
  -15534   -15593   -15608   -15593   -15553   -15516   -15488   -15446 
  -15422   -15434   -15469   -15515   -15538   -15529   -15511   -15496 
  -15492   -15498   -15534   -15627   -15704   -15685   -15568   -15433 
  -15373   -15383   -15402   -15408   -15399   -15430   -15515   -15579 
  -15595   -15589   -15585   -15587   -15531   -15404   -15299   -15314 
  -15457   -15619   -15714   -15722   -15646   -15515   -15387   -15322 
  -15350   -15430   -15503   -15530   -15498   -15457   -15452   -15485 
  -15535   -15568   -15581   -15583   -15547   -15480   -15408   -15388 
  -15471   -15589   -15658   -15641   -15558   -15472   -15412   -15387 
  -15392   -15392   -15407   -15475   -15547   -15580   -15576   -15579 
  -15614   -15627   -15566   -15461   -15400   -15442   -15506   -15502 
  -15445   -15385   -15381   -15434   -15477   -15495   -15499   -15487 
  -15456   -15410   -15400   -15479   -15637   -15811   -15869   -15745 
  -15527   -15356   -15319   -15380   -15434   -15457   -15476   -15499 
  -15503   -15476   -15476   -15543   -15635   -15689   -15649   -15526 
  -15404   -15365   -15427   -15506   -15511   -15445   -15375   -15406 
  -15546   -15666   -15661   -15539   -15411   -15390   -15458   -15530 
  -15556   -15561   -15600   -15643   -15620   -15538   -15446   -15388 
  -15365   -15381   -15468   -15580   -15631   -15607   -15552   -15533 
  -15552   -15552   -15539   -15534   -15533   -15515   -15452   -15381 
  -15352   -15346   -15341   -15330   -15360   -15456   -15556   -15572 
  -15485   -15412   -15477   -15624   -15731   -15743   -15678   -15607 
  -15538   -15457   -15412   -15410   -15437   -15487   -15519   -15527 
  -15511   -15473   -15456   -15479   -15514   -15525   -15496   -15480 
  -15519   -15585   -15622   -15573   -15464   -15373   -15336   -15368 
  -15458   -15564   -15643   -15658   -15611   -15529   -15439   -15400 
  -15419   -15461   -15503   -15522   -15542   -15576   -15583   -15562 
  -15530   -15508   -15514   -15519   -15508   -15477   -15433   -15402 
  -15377   -15364   -15394   -15476   -15593   -15658   -15612   -15516 
  -15445   -15412   -15398   -15375   -15377   -15422   -15471   -15511 
  -15560   -15614   -15637   -15588   -15493   -15433   -15454   -15519 
  -15541   -15516   -15511   -15539   -15580   -15596   -15585   -15583 
  -15584   -15587   -15577   -15519   -15410   -15284   -15201   -15228 
  -15352   -15512   -15645   -15696   -15681   -15651   -15633   -15596 
  -15485   -15337   -15248   -15264   -15365   -15481   -15570   -15647 
  -15703   -15708   -15649   -15557   -15479   -15399   -15325   -15315 
  -15402   -15553   -15650   -15627   -15570   -15550   -15547   -15519 
  -15464   -15449   -15495   -15533   -15511   -15431   -15377   -15427 
  -15539   -15633   -15661   -15614   -15523   -15427   -15368   -15364 
  -15387   -15419   -15438   -15430   -15434   -15481   -15556   -15612 
  -15624   -15616   -15604   -15573   -15507   -15421   -15396   -15464 
  -15537   -15534   -15468   -15427   -15473   -15541   -15572   -15566 
  -15545   -15512   -15435   -15344   -15322   -15373   -15465   -15545 
  -15560   -15535   -15514   -15502   -15503   -15506   -15499   -15496 
  -15514   -15527   -15503   -15479   -15510   -15562   -15562   -15471 
  -15364   -15348   -15414   -15483   -15520   -15541   -15576   -15606 
  -15579   -15489   -15375   -15322   -15391   -15530   -15660   -15709 
